 2017 1017 0246 15.3 L   6.748 -73.134147.4  RSN  8 0.5 1.7LRSN                1
 GAP=115        1.23       5.0     4.5  7.7  0.4555E+01  0.6645E+01  0.8611E+01E
 Epicentro: LOS SANTOS - SANTANDER                                             3
 ACTION:UPD 17-11-07 19:32 OP:rebc STATUS:               ID:20171017024615 L   I
 OLDACT:REG 17-10-17 12:23 OP:dani STATUS:               ID:20171017022511d    3
 2017-10-17-0238-00M.COL___435                                                 6
 STAT SP IPHASW D HRMM SECON CODA AMPLIT PERI AZIMU VELO AIN AR TRES W  DIS CAZ7
 BAR2 EZ EP        246 35.02                             173   -0.0510 18.0 197 
 BAR2 EZ ES        246 50.17                             173   -0.2910 18.0 197 
 BAR2 EZ I         246 51.40         9.2 0.38            172           18.0 197 
 BRR  HZ EP     D  246 37.10                             151    0.2110 75.2 302 
 BRR  HN ES        246 54.22                             151    0.5210 75.2 302 
 BRR  HZ I         246 58.08        13.4 0.12            153           75.2 302 
 PAM  EZ EP        246 38.03                             150    0.0710 81.2  36 
 PAM  EN ES        246 55.11                             150   -0.4910 81.2  36 
 PAM  EZ I         246 57.97         8.7 0.46            152           81.2  36 
 RUS  HZ EP        246 38.86                             146    0.0210 94.7 177 
 RUS  HN ES        246 57.27                             146    0.1010 94.7 177 
 RUS  HZ I         246 58.34         7.4 0.26            147           94.7 177 
 PTB  HZ EP        246 41.83                             132   -0.63 9  148 261 
 PTB  HN ES        247  2.90                             132   -0.71 9  148 261 
 PTB  HZ I         247  6.94         5.0 0.14            134            148 261 
 YPLC HZ EP        246 45.22                             128    0.52 9  171 151 
 YPLC HN ES        247  7.96                             128    0.35 9  171 151 
 YPLC HZ I         247 12.15         5.3 0.36            130            171 151 
 ZAR  HN ES        247 14.92                             122    1.02 8  207 293 
 NOR  HZ EP        246 50.02                             119   -0.90 8  232 236 
 NOR  HE ES        247 19.01                             119    0.34 8  232 236 
 NOR  HZ I         247 20.89         4.0 0.26            121            232 236 
                                                                                
