 2016  817 0512 56.7 L   6.784 -73.183144.2  RSN  5 0.5 1.3LRSN                1
 GAP=232        1.10       7.5     8.6  9.5  0.2353E+02  0.3171E+02  0.2014E+02E
 Epicentro: LOS SANTOS - SANTANDER                                             3
 ACTION:UPD 16-10-29 15:36 OP:rebc STATUS:               ID:20160817051256 L   I
 OLDACT:UP  16-08-17 18:38 OP:ak   STATUS:               ID:20160817050760d    3
 OLDACT:DUP 16-08-17 18:33 OP:ak   STATUS:               ID:20160817050760d    3
 OLDACT:REG 16-08-17 12:40 OP:ak   STATUS:               ID:20160817050759     3
 2016-08-17-0507-59S.COL___343                                                 6
 STAT SP IPHASW D HRMM SECON CODA AMPLIT PERI AZIMU VELO AIN AR TRES W  DIS CAZ7
 BAR2 EZ ES        513 30.62                             171   -0.6510 21.2 180 
 BAR2 EZ I         513 31.73         5.3 0.51                          21.2 180 
 BRR  HZ EP   2    513 17.68                             153    0.11 5 68.5 302 
 BRR  HE ES        513 34.51                             153    0.7010 68.5 302 
 BRR  HZ I         513 37.90         4.0 0.51                          68.5 302 
 RUS  HZ EP   2    513 20.07                             144   -0.16 5 99.2 174 
 RUS  HN ES        513 38.81                             144    0.2510 99.2 174 
 PTB  HZ EP        513 22.64                             133   -0.54 9  143 259 
 PTB  HN ES        513 43.43                             133   -0.37 9  143 259 
 PTB  HZ I         513 47.94         2.3 0.26                           143 259 
 SPBC HZ EP        513 25.18                             129    0.44 9  159 218 
 SPBC HN ES        513 46.75                             129    0.17 9  159 218 
                                                                                
