 2011 1017 0142 37.0 L   6.768 -73.121143.7  RSN  4 0.1 1.3LRSN                1
 GAP=141        0.34       2.4     4.1  4.3 -0.2532E+01  0.6708E+01 -0.2044E+01E
 Epicentro: LOS SANTOS - SANTANDER                                             3
 ACTION:UPD 12-07-13 16:04 OP:ep   STATUS:               ID:20111017014237 L   I
 2011-10-17-0140-00M.COL___171                                                 6
 STAT SP IPHASW D HRMM SECON CODA AMPLIT PERI AZIMU VELO AIN AR TRES W  DIS CAZ7
 BRR  HZ EP   1    142 58.31                             151    0.13 7 75.3 300 
 BRR  HZ I         143  0.26         5.7 0.11                          75.3 300 
 BRR  HE ES   2    143 14.69                             151    0.00 5 75.3 300 
 PAM  SZ EP   1    142 59.19                             150    0.11 7 78.5  36 
 PAM  SN ES        143 16.29                             150    0.0010 78.5  36 
 RUS  HZ EP   2    143  0.38                             144    0.08 5 96.9 178 
 RUS  HN ES   1    143 18.37                             144   -0.09 7 96.9 178 
 RUS  HZ I         143 19.65         1.6 0.14                          96.9 178 
 OCA  SZ EP   1    143  5.31                             128   -0.22 7  164 352 
 OCA  SZ I         143 16.55         2.8 0.47                           164 352 
                                                                                
