 2017  717 0446 56.2 L   6.802 -73.147148.6  RSN  6 0.4 1.3LRSN                1
 GAP=136        0.87       4.4     4.6  7.0 -0.6166E+01  0.3680E+01 -0.1175E-01E
 Epicentro: LOS SANTOS - SANTANDER                                             3
 ACTION:UPD 17-08-30 15:34 OP:rebc STATUS:               ID:20170717044656 L   I
 OLDACT:REG 17-07-17 12:53 OP:dnl  STATUS:               ID:20170717043739     3
 2017-07-17-0438-00M.COL___386                                                 6
 STAT SP IPHASW D HRMM SECON CODA AMPLIT PERI AZIMU VELO AIN AR TRES W  DIS CAZ7
 BAR2 EZ EP        447 15.95                             171   -0.2510 23.5 189 
 BAR2 EZ ES        447 31.77                             171   -0.0010 23.5 189 
 BAR2 EZ I         447 32.63         4.5 0.16            171           23.5 189 
 BRR  HZ EP        447 17.95                             153    0.2910 70.9 298 
 BRR  HE ES        447 34.98                             153    0.5910 70.9 298 
 BRR  HZ I         447 37.81         5.0 0.74            152           70.9 298 
 PAM  EZ EP        447 18.98                             151    0.2410 77.4  40 
 PAM  EN ES        447 35.77                             151   -0.5310 77.4  40 
 PAM  EZ I         447 38.50         2.8 0.60            154           77.4  40 
 RUS  HZ EP   2    447 20.31                             144    0.04 5  101 176 
 RUS  HN ES        447 39.20                             144    0.1810  101 176 
 RUS  HZ I         447 40.74         1.9 0.24            147            101 176 
 PTB  HZ EP   2    447 22.70                             133   -0.71 5  148 259 
 PTB  HN ES        447 44.13                             133   -0.48 9  148 259 
 PTB  HZ I         447 48.83         1.6 0.26            133            148 259 
 SPBC HZ EP   2    447 25.33                             130    0.39 5  163 219 
 SPBC HE ES        447 47.30                             130   -0.04 9  163 219 
 SPBC HZ I         447 49.63         3.8 0.26            131            163 219 
                                                                                
