 2010  917 0918 58.4 L   6.787 -73.140151.3  RSN  4 0.1 1.4LRSN                1
 GAP=159        0.32       1.8     3.9  4.0 -0.2863E+00 -0.4671E+01 -0.3845E+00E
 Epicentro: LOS SANTOS - SANTANDER                                             3
 ACTION:UP  11-02-18 11:03 OP:tino STATUS:               ID:20100917091858 L   I
 2010-09-17-0915-55S.COL___118                                                 6
 STAT SP IPHASW D HRMM SECON CODA AMPLIT PERI AZIMU VELO SNR AR TRES W  DIS CAZ7
 BRR  HZ EP        919 20.17                             153     0.010   73 299 
 BRR  HZ I         919 24.39         7.2 0.37                            73 299 
 BRR  HN ES   1    919 37.27                             153     0.0 7   73 299 
 RUS  HZ EP        919 22.64                             145     0.110   99 176 
 RUS  HN ES   1    919 41.38                             145    -0.1 7   99 176 
 RUS  HZ I         919 41.84         2.7 0.40                            99 176 
 GUE  SZ EP        919 23.64                             140    -0.110  118  12 
 GRA  SZ EP   2    919 24.42                             138     0.2 5  127  17 
 GRA  SZ ES   1    919 44.40                             138     0.0 7  127  17 
                                                                                
