 2012  217 0743 22.2 L   6.767 -73.117150.0  RSN  9 0.5 1.7LRSN                1
 GAP=142        0.89       5.5     5.6  8.1 -0.7993E+00  0.4824E+01  0.1512E+02E
 ACTION:UP  12-03-07 16:31 OP:epov STATUS:               ID:20120217074322 L   I
 2012-02-17-0740-00M.COL___188                                                 6
 STAT SP IPHASW D HRMM SECON CODA AMPLIT PERI AZIMU VELO AIN AR TRES W  DIS CAZ7
 BAR2 SZ EP   1    743 42.25                             172   -0.07 7 20.6 200 
 BAR2 SZ ES   2    743 57.64                             172   -0.35 5 20.6 200 
 BAR2 SZ I         743 59.28        10.8 0.38                          20.6 200 
 GIR2 SZ EP   1    743 42.38                             166   -0.15 7 35.5 346 
 GIR2 SZ ES   2    743 58.14                             166   -0.22 5 35.5 346 
 BRR  HZ EP   1    743 44.18                             152    0.08 7 75.7 300 
 BRR  HN ES   1    744  2.16                             152    1.01 7 75.7 300 
 BRR  HZ I         744  4.87        11.3 0.19                          75.7 300 
 PAM  SZ EP   1    743 45.10                             151    0.14 7 78.4  36 
 PAM  SE ES   2    744  2.56                             151   -0.13 5 78.4  36 
 RUS  HZ EP   1    743 45.53                             146   -0.61 7 96.7 178 
 RUS  HN ES   2    744  5.29                             146    0.51 5 96.7 178 
 RUS  HZ I         744  6.55         6.8 0.43                          96.7 178 
 PTB  HZ EP   1    743 49.23                             133   -0.54 7  150 260 
 PTB  HN ES   1    744 10.35                             133   -0.89 7  150 260 
 ZAR  HN ES   2    744 20.98                             123   -0.29 4  208 293 
 ZAR  HZ I         744 25.89         5.7 0.39                           208 293 
 CHI  HZ EP   1    744  0.23                             118    0.35 6  246 196 
 CHI  HN ES   1    744 29.66                             118    0.42 6  246 196 
 CHI  HZ I         744 35.50         3.1 0.62                           246 196 
 HEL  HZ EP   1    744  3.61                             115    0.70 6  274 257 
 HEL  HE ES   2    744 35.18                             115    0.55 4  274 257 
 HEL  HZ I         744 40.68         3.3 0.50                           274 257 
                                                                                
