 2017  817 0829  1.0 L   6.769 -73.180144.9  RSN  6 0.2 1.1LRSN                1
 GAP=134        0.63       3.3     3.7  5.6  0.2960E+01 -0.1714E+01 -0.2173E+01E
 Epicentro: LOS SANTOS - SANTANDER                                             3
 ACTION:UPD 17-09-04 20:21 OP:rebc STATUS:               ID:20170817082901 L   I
 OLDACT:REG 17-08-17 12:46 OP:lv   STATUS:               ID:20170817082739     3
 2017-08-17-0828-00M.COL___407                                                 6
 STAT SP IPHASW D HRMM SECON CODA AMPLIT PERI AZIMU VELO AIN AR TRES W  DIS CAZ7
 BAR2 EZ EP        829 20.22                             172   -0.2110 19.5 181 
 BAR2 EZ ES        829 35.75                             172    0.1410 19.5 181 
 BAR2 EZ I         829 36.92         3.5 0.15            169           19.5 181 
 BRR  HN ES        829 38.18                             153   -0.1310 69.7 303 
 PAM  EZ EP        829 23.23                             149   -0.1810 82.5  40 
 RUS  HZ EP        829 24.76                             144    0.3410 97.5 174 
 RUS  HN ES        829 42.81                             144    0.1110 97.5 174 
 RUS  HZ I         829 44.38         1.3 0.14            143           97.5 174 
 SPBC HN ES        829 50.39                             130   -0.34 9  158 219 
 SPBC HZ I         829 54.14         1.8 0.13            129            158 219 
 ZAR  HN ES        829 58.53                             122    0.30 9  202 293 
                                                                                
