 2014  917 0511 29.7 L   6.823 -73.171135.4  RSN 11 0.5 1.8LRSN                1
 GAP=132        1.25       3.7     4.7  7.1 -0.4699E+01  0.1105E+02  0.6085E+00E
 Epicentro: LOS SANTOS - SANTANDER                                             3
 ACTION:UPD 14-10-03 23:05 OP:nd   STATUS:               ID:20140917051129 L   I
 OLDACT:REG 14-09-17 12:57 OP:carl STATUS:               ID:20140917050819     3
 2014-09-17-0508-19M.COL___257                                                 6
 STAT SP IPHASW D HRMM SECON CODA AMPLIT PERI AZIMU VELO AIN AR TRES W  DIS CAZ7
 BAR2 SZ IP     D  511 48.17                             169    0.0010 25.6 183 
 BAR2 SZ ES        512  2.21                             169   -0.3410 25.6 183 
 BAR2 SZ I         512  3.91        32.6 0.34            168           25.6 183 
 BRR  HZ IP     C  511 50.08                             152    0.5310 67.5 298 
 BRR  HN ES        512  5.32                             152    0.3110 67.5 298 
 BRR  HZ I         512  7.47        16.8 0.32            151           67.5 298 
 PAM  SZ EP        511 51.19                             149    0.3410 77.3  42 
 PAM  SN ES        512  7.67                             149    0.3410 77.3  42 
 RUS  HZ EP        511 52.49                             141   -0.2010  103 175 
 RUS  HN ES        512 10.98                             141    0.3810  103 175 
 RUS  HZ I         512 12.57         7.8 0.32            143            103 175 
 PTB  HZ EP        511 55.37                             130   -0.29 9  145 258 
 PTB  HN ES        512 15.32                             130   -0.56 9  145 258 
 PTB  HZ I         512 19.61         9.7 0.24            130            145 258 
 OCA  HZ EP        511 56.03                             128   -0.95 9  157 354 
 OCA  HN ES        512 17.42                             128   -0.81 9  157 354 
 SPBC HZ EP        511 57.17                             127   -0.30 9  163 218 
 SPBC HN ES        512 18.94                             127   -0.18 9  163 218 
 SPBC HZ I         512 25.93         7.2 0.34            128            163 218 
 ZAR  HZ EP        512  1.94                             121    0.80 9  200 292 
 ZAR  HN ES        512 26.40                             121    0.76 9  200 292 
 ZAR  HZ I         512 32.62        12.0 0.58            122            200 292 
 NOR  HE ES        512 32.25                             116    0.11 8  234 234 
 GUY2CHZ EP        512 13.67                             110    0.89 7  300 234 
 GUY2CHN ES        512 45.81                             110   -0.55 7  300 234 
 GUY2CHZ I         512 55.15         1.7 0.52                           300 234 
 TOL  SN ES        512 54.57                             107   -0.31 7  343 224 
                                                                                
