 2015  217 0036 43.4 L   6.856 -73.160148.5  RSN  8 0.5 1.8LRSN                1
 GAP=132        1.14       3.9     5.7  7.8 -0.3721E+01  0.7684E+01  0.1655E+01E
 Epicentro: LOS SANTOS - SANTANDER                                             3
 ACTION:UPD 15-04-30 21:26 OP:nd   STATUS:               ID:20150217003643 L   I
 OLDACT:REG 15-02-17 14:10 OP:mh   STATUS:               ID:20150217002746     3
 2015-02-17-0027-46M.COL___299                                                 6
 STAT SP IPHASW D HRMM SECON CODA AMPLIT PERI AZIMU VELO AIN AR TRES W  DIS CAZ7
 BAR2 EZ EP   1    037  4.18                             168    0.68 7 29.3 185 
 BAR2 EZ ES        037 18.41                             168   -0.7610 29.3 185 
 BAR2 EZ I         037 21.30         9.1 0.08            171           29.3 185 
 BRR  HZ EP   1    037  4.51                             154   -0.11 7 67.0 295 
 BRR  HN ES        037 21.49                             154    0.3210 67.0 295 
 BRR  HZ I         037 27.07        12.0 0.38            151           67.0 295 
 PAM  SZ EP        037  5.15                             152   -0.5510 73.8  44 
 PAM  SN ES        037 23.77                             152    0.6710 73.8  44 
 PAM  SZ I         037 26.00         7.7 0.62            154           73.8  44 
 RUS  HZ EP        037  8.22                             143    0.3410  107 175 
 RUS  HN ES   1    037 26.97                             143   -0.00 7  107 175 
 RUS  HZ I         037 27.55         5.3 0.30            147            107 175 
 PTB  HZ EP        037 11.01                             133    0.43 9  148 256 
 PTB  HN ES        037 31.67                             133   -0.10 9  148 256 
 PTB  HZ I         037 33.87         7.7 0.60            132            148 256 
 OCA  HN ES        037 32.72                             131   -0.42 9  154 353 
 OCA  HZ I         037 38.29         8.7 0.22            131            154 353 
 SPBC HZ EP        037 11.87                             129   -0.61 9  167 217 
 SPBC HN ES        037 35.38                             129    0.22 9  167 217 
 SPBC HZ I         037 41.91         9.7 0.28            131            167 217 
 SML  HZ EP   4    037 21.12                             119    1.61 0  237 335 
 SML  HN ES        037 47.77                             119    0.10 8  237 335 
 SML  HZ I         037 58.95         7.7 0.24            119            237 335 
                                                                                
