 2012  617 0552 35.4 L   6.784 -73.161147.5  RSN  4 0.2 1.1LRSN                1
 GAP=140        0.40       3.3     3.2  4.5 -0.3245E+01  0.3929E+01 -0.1433E+01E
 Epicentro: LOS SANTOS - SANTANDER                                             3
 ACTION:UPD 12-08-06 17:50 OP:ep   STATUS:               ID:20120617055235 L   I
 2012-06-17-0550-00M.COL___199                                                 6
 STAT SP IPHASW D HRMM SECON CODA AMPLIT PERI AZIMU VELO AIN AR TRES W  DIS CAZ7
 BAR2 SZ EP   2    552 54.66                             171   -0.50 5 21.3 186 
 BAR2 SZ ES   1    553 10.55                             171   -0.05 7 21.3 186 
 BAR2 SZ I         553 13.11         4.7 0.34                          21.3 186 
 PAM  SZ EP   1    552 57.98                             150    0.07 7 79.9  40 
 PAM  SN ES   1    553 15.54                             150    0.04 7 79.9  40 
 RUS  HZ EP   1    552 59.06                             145   -0.10 7 98.9 175 
 RUS  HE ES   1    553 17.87                             145    0.14 7 98.9 175 
 RUS  HZ I         553 20.44         1.5 0.34                          98.9 175 
 PTB  HZ EP   1    553  2.51                             133    0.22 7  146 259 
 PTB  HE ES   1    553 23.21                             133   -0.08 7  146 259 
 PTB  HZ I         553 27.71         1.6 0.18                           146 259 
                                                                                
