 2013  117 0122 46.1 L   6.776 -73.158143.4  RSN  5 0.2 1.4LRSN                1
 GAP=136        0.48       3.4     3.0  6.9 -0.1656E+00  0.6509E+01 -0.4407E+00E
 Epicentro: LOS SANTOS - SANTANDER                                             3
 ACTION:UPD 13-02-15 09:14 OP:ep   STATUS:               ID:20130117012246 L   I
 2013-01-17-0120-00M.COL___241                                                 6
 STAT SP IPHASW D HRMM SECON CODA AMPLIT PERI AZIMU VELO AIN AR TRES W  DIS CAZ7
 BAR2 SZ EP   1    123  5.42                             171    0.01 7 20.4 187 
 PAM  SZ EP   1    123  8.46                             149    0.19 7 80.4  39 
 PAM  SN ES   1    123 25.36                             149   -0.19 7 80.4  39 
 PAM  SZ I         123 27.83         3.9 0.54            154           80.4  39 
 RUS  HZ EP   1    123  9.47                             144    0.01 7 98.0 175 
 RUS  HE ES   1    123 27.83                             144    0.17 7 98.0 175 
 RUS  HZ I         123 29.11         2.3 0.26            150           98.0 175 
 PTB  HZ EP   1    123 12.39                             132   -0.34 7  146 260 
 PTB  HN ES   1    123 33.27                             132   -0.21 7  146 260 
 PTB  HZ I         123 38.64         2.9 0.42            134            146 260 
 ZAR  HE ES   1    123 43.94                             122    0.39 6  204 293 
 ZAR  HZ I         123 49.42         3.6 0.44            124            204 293 
                                                                                
