 2012  717 0323 56.4 L   6.746 -73.188145.5  RSN  6 0.3 1.6LRSN                1
 GAP=134        0.70       4.9     4.6  6.8  0.1834E+01  0.8077E+01  0.1275E+01E
 Epicentro: VILLANUEVA - SANTANDER                                             3
 ACTION:UPD 12-08-14 11:45 OP:ep   STATUS:               ID:20120717032356 L   I
 2012-07-17-0320-00M.COL___197                                                 6
 STAT SP IPHASW D HRMM SECON CODA AMPLIT PERI AZIMU VELO AIN AR TRES W  DIS CAZ7
 BAR2 SZ EP   1    324 15.99                             173     0.1 7   17 178 
 BAR2 SZ ES   1    324 31.34                             173     0.3 7   17 178 
 BAR2 SZ I         324 33.10        11.2 0.26            170             17 178 
 BRR  HZ EP   1    324 18.07                             153     0.6 7   70 305 
 BRR  HN ES   1    324 34.03                             153     0.1 7   70 305 
 PAM  SZ EP   2    324 18.56                             148    -0.5 5   85  39 
 PAM  SN ES   1    324 36.44                             148    -0.3 7   85  39 
 RUS  HZ EP   1    324 19.62                             145    -0.1 7   95 173 
 RUS  HE ES   1    324 37.74                             145    -0.2 7   95 173 
 RUS  HZ I         324 39.99         4.4 0.19            147             95 173 
 PTB  HZ EP   1    324 22.79                             133     0.0 7  142 261 
 PTB  HN ES   1    324 43.26                             133    -0.2 7  142 261 
 PTB  HZ I         324 48.72         4.5 0.30            131            142 261 
 ZAR  HZ EP   2    324 28.90                             123     0.3 4  202 294 
 ZAR  HE ES   2    324 52.84                             123    -0.9 4  202 294 
 ZAR  HZ I         324 59.92         6.4 0.29            122            202 294 
