 2010  417 0746 45.4 L   6.761 -72.993144.8  RSN  6 0.4 2.1LRSN                1
 GAP=224        0.86       5.5     8.7  7.6 -0.1685E+02 -0.6611E+01  0.7948E+01E
 Epicentro: CEPITA - SANTANDER                                                 3
 ACTION:UP  10-08-24 09:59 OP:vdl  STATUS:               ID:20100417074656 L   I
 2010-04-17-0744-43S.COL___100                                                 6
 STAT SP IPHASW D HRMM SECON CODA AMPLIT PERI AZIMU VELO AIN AR TRES W  DIS CAZ7
 BAR2 SZ EP        747  5.16                             168     0.210   28 229 
 BAR2 SZ ES   1    747 20.01                             168    -0.3 7   28 229 
 BRR  HZ EP        747  7.57                             147     0.110   88 296 
 BRR  HN ES        747 24.95                             147     0.210   88 296 
 BRR  HZ I         747 29.28        32.8 0.03                            88 296 
 OCA  SZ EP        747 14.38                             128     0.1 9  167 348 
 OCA  SZ ES   2    747 35.54                             128    -1.3 5  167 348 
 OCA  SZ I         747 40.28        25.8 0.13                           167 348 
 HEL  HN ES   2    748  0.36                             113     0.4 4  288 257 
 HEL  HZ I         748  3.95         3.2 0.52                           288 257 
 RREF BN ES   1    748  8.77                             110    -0.8 5  332 232 
 RREF BZ I         748 16.31         4.2 0.60                           332 232 
 PRA  HZ EP   1    747 39.45                             106     0.0 4  397 212 
 PRA  HN ES   1    748 21.58                             106     0.0 4  397 212 
 PRA  HZ I         748 24.19         2.1 1.03                           397 212 
                                                                                
