 2016  517 0649 26.2 L   6.343 -73.520113.7  RSN 16 0.4 2.3LRSN                1
 GAP= 61        0.90       2.2     2.4  4.6 -0.8447E+00  0.3653E+01  0.1097E+01E
 Epicentro: CONTRATACION - SANTANDER                                           3
 ACTION:UPD 16-08-18 17:46 OP:cam  STATUS:               ID:20160517064926 L   I
 OLDACT:UP  16-05-17 18:51 OP:mh   STATUS:               ID:20160517064753     3
 OLDACT:UP  16-05-17 18:48 OP:mh   STATUS:               ID:20160517064753     3
 OLDACT:REG 16-05-17 13:54 OP:mh   STATUS:               ID:20160517064753     3
 2016-05-17-0648-00M.COL___426                                                 6
 STAT SP IPHASW D HRMM SECON CODA AMPLIT PERI AZIMU VELO AIN AR TRES W  DIS CAZ7
 BAR2 EZ EP     D  649 43.27                             156    0.4010 46.4  54 
 BAR2 EZ ES        649 55.90                             156    0.0410 46.4  54 
 BAR2 EZ I         650  2.01        39.4 0.38            161           46.4  54 
 RUS  HZ EP        649 44.72                             147    0.1510 69.4 136 
 RUS  HE ES        649 58.89                             147   -0.0110 69.4 136 
 BRR  HZ EP        649 45.02                             140   -0.1510 87.1 346 
 BRR  HN ES        650  0.11                             140    0.1410 87.1 346 
 BRR  HZ I         650  6.32        42.3 0.16            144           87.1 346 
 SPBC HZ EP        649 46.18                             136    0.0110 97.8 219 
 SPBC HZ I         650  5.22        55.0 0.24            138           97.8 219 
 NOR  HZ EP        649 52.76                             119   -0.64 9  172 240 
 NOR  HN ES        650 13.79                             119   -0.81 9  172 240 
 NOR  HZ I         650 16.40        22.6 0.38            122            172 240 
 TAM  HZ EP        649 55.77                             116    0.32 9  192  87 
 TAM  HN ES   1    650 17.89                             116   -0.37 7  192  87 
 TAM  HZ I         650 20.75        18.1 0.14            120            192  87 
 ZAR  HZ EP        649 55.52                             116   -0.26 9  195 311 
 ZAR  HN ES        650 19.10                             116    0.25 9  195 311 
 ZAR  HZ I         650 24.00        36.2 0.22            119            195 311 
 OCA  HZ EP        649 56.97                             114   -0.76 8  211   6 
 OCA  HN ES        650 22.39                             114    0.07 8  211   6 
 OCA  HZ I         650 28.70        50.7 0.50            117            211   6 
 HEL  HZ EP   1    649 59.43                             112    0.07 6  223 266 
 HEL  HN ES        650 25.47                             112    0.25 8  223 266 
 HEL  HZ I         650 28.60        20.1 0.24            115            223 266 
 CBOC HZ EP     C  650  6.16                             107    0.38 7  281 259 
 CBOC HN ES        650 36.22                             107   -0.43 7  281 259 
 CBOC HZ I         650 41.42         5.2 0.24            109            281 259 
 PTGC HZ EP        650  5.11                             107   -0.65 7  283 147 
 PTGC HN ES   4    650 35.04                             107   -1.57 0  283 147 
 PTGC HZ I         650 38.39        10.1 0.38            110            283 147 
 ANIL HZ EP   4    650  9.96                             106    2.68 0  292 226 
 ANIL HE ES   4    650 40.92                             106    1.61 0  292 226 
 ANIL HZ I         650 44.20        21.3 0.20            108            292 226 
 PRA  HZ EP        650 11.78                             104    0.63 7  328 208 
 PRA  HN ES   1    650 47.01                             104    0.81 5  328 208 
 PRA  HZ I         650 54.27         6.3 0.30            106            328 208 
 ORTC HZ EP        650 11.57                             103    0.14 7  330 215 
 ORTC HN ES        650 47.23                             103    0.53 7  330 215 
 ORTC HZ I         650 52.62         5.0 0.16            106            330 215 
 PAL  HZ EP        650 13.37                             103    0.16 7  345 243 
 PAL  HE ES        650 50.20                             103    0.33 7  345 243 
 PAL  HZ I         650 55.17         5.7 0.80            105            345 243 
 LL6C HZ EP        650 16.66                             101   -0.20 6  376   4 
 LL6C HN ES        650 57.11                             101    0.74 6  376   4 
 LL6C HZ I         650 58.18         6.8 0.60            104            376   4 
                                                                                
