 2015  117 0407 25.4 L   6.773 -73.151141.7  RSN  8 0.5 1.8LRSN                1
 GAP=137        1.24       3.8     6.0  7.3 -0.5592E+01  0.4296E+01  0.3082E+01E
 Epicentro: LOS SANTOS - SANTANDER                                             3
 ACTION:UPD 15-03-02 15:40 OP:nd   STATUS:               ID:20150117040725 L   I
 OLDACT:DUP 15-01-17 15:10 OP:carl STATUS:               ID:20150117035744d    3
 2015-01-17-0357-43M.COL___265                                                 6
 STAT SP IPHASW D HRMM SECON CODA AMPLIT PERI AZIMU VELO AIN AR TRES W  DIS CAZ7
 BAR2 EZ EP        4 7 44.47                             171   -0.0510 20.3 190 
 BAR2 EZ ES        4 7 59.10                             171   -0.3010 20.3 190 
 BAR2 EZ I         4 8  0.39        22.5 0.36            170           20.3 190 
 BRR  HZ EP        4 7 46.31                             151    0.1110 72.1 301 
 BRR  HN ES        4 8  3.30                             151    0.9110 72.1 301 
 BRR  HZ I         4 8  4.92        11.3 0.20            151           72.1 301 
 PAM  SZ EP        4 7 47.51                             149    0.1310 80.0  39 
 PAM  SN ES        4 8  3.60                             149   -0.9010 80.0  39 
 PAM  SZ I         4 8  6.37        11.0 0.50            151           80.0  39 
 RUS  HZ EP        4 7 48.40                             144   -0.1810 97.7 176 
 RUS  HN ES        4 8  7.22                             144    0.5910 97.7 176 
 RUS  HZ I         4 8  7.97         9.3 0.36            144           97.7 176 
 PTB  HZ EP        4 7 51.19                             131   -0.78 9  147 260 
 PTB  HN ES        4 8 12.07                             131   -0.59 9  147 260 
 PTB  HZ I         4 8 14.34         7.6 0.64            131            147 260 
 SPBC HZ EP        4 7 53.36                             129   -0.01 9  161 219 
 SPBC HN ES        4 8 15.07                             129   -0.09 9  161 219 
 SPBC HZ I         4 8 20.71        12.6 0.24            128            161 219 
 OCA  HZ EP        4 7 54.10                             128    0.39 9  163 353 
 OCA  HN ES        4 8 16.15                             128    0.40 9  163 353 
 OCA  HZ I         4 8 21.33         8.2 0.26            129            163 353 
 CHI  HZ EP        4 8  2.69                             117    0.10 8  246 195 
 CHI  HN ES        4 8 31.97                             117    0.41 8  246 195 
 CHI  HZ I         4 8 40.11         2.9 0.60            117            246 195 
                                                                                
