 2014 1217 0601  4.1 L   6.770 -73.127148.0  RSN  7 0.4 1.2LRSN                1
 GAP=140        0.95       4.9     4.9  8.5  0.2791E+01  0.6038E+01  0.4063E+01E
 Epicentro: LOS SANTOS - SANTANDER                                             3
 ACTION:UPD 15-02-10 17:04 OP:nd   STATUS:               ID:20141217060104 L   I
 OLDACT:REG 14-12-17 12:45 OP:spq  STATUS:               ID:20141217055748     3
 2014-12-17-0557-48M.COL___293                                                 6
 STAT SP IPHASW D HRMM SECON CODA AMPLIT PERI AZIMU VELO AIN AR TRES W  DIS CAZ7
 BAR2 EZ EP        6 1 24.02                             172    0.0610 20.6 197 
 BRR  HZ EP        6 1 25.80                             152    0.1010 74.6 300 
 BRR  HE ES        6 1 43.16                             152    0.6310 74.6 300 
 BRR  HZ I         6 1 45.43         3.1 0.39            151           74.6 300 
 PAM  SE ES   1    6 1 43.64                             151   -0.58 7 78.7  37 
 PAM  SZ I         6 1 44.98         3.0 0.19            155           78.7  37 
 RUS  HZ EP        6 1 28.06                             145    0.2210 97.1 177 
 RUS  HN ES   1    6 1 46.19                             145   -0.16 7 97.1 177 
 RUS  HZ I         6 1 48.13         1.2 0.46            148           97.1 177 
 PTB  HZ EP        6 1 30.79                             132   -0.60 9  149 260 
 PTB  HN ES        6 1 52.20                             132   -0.47 9  149 260 
 PTB  HZ I         6 1 56.48         1.5 0.38            133            149 260 
 SPBC HN ES        6 1 55.17                             130    0.23 9  162 220 
 SPBC HZ I         6 1 57.26         3.2 0.24            131            162 220 
 ZAR  HZ EP   1    6 1 37.60                             123    0.57 6  207 293 
 ZAR  HN ES        6 2  2.59                             123   -0.12 8  207 293 
 ZAR  HZ I         6 2  8.35         1.8 0.36            124            207 293 
                                                                                
