 2013 1117 0437 11.3 L   6.802 -73.151139.5  RSN 16 0.7 2.2LRSN 2.8WRSN        1
 SPEC AVERAGE  MO 13.3 ST220.6 OM  1.5 f0 19.5 R0.7746 AL 0.00 WI 20.0 MW  2.8 3
 SPEC SD       MO  0.6 ST347.3 OM  0.6 f0 13.2 R2.0549 AL      WI      MW  0.4 3
 GAP= 71        1.57       3.8     4.0  7.1 -0.2517E+01  0.4290E+01 -0.5785E-01E
 Epicentro: LOS SANTOS - SANTANDER                                             3
 SPEC BAR2SH Z MO 13.4 ST 47.9 OM  1.6 f0 14.3 R0.1345 AL-0.00 WI 20.0 MW  2.9 3
 SPEC BAR2SH Z T 43742 K 0.050 GD  141 VS 5.20 DE 3.20 Q0750.0 QA 1.50 VS 5.20 3
 SPEC BRR HH Z MO 13.4 ST 48.6 OM  1.5 f0 15.0 R0.1283 AL-0.00 WI 20.0 MW  2.9 3
 SPEC BRR HH Z T 43747 K 0.050 GD  156 VS 5.20 DE 3.20 Q0750.0 QA 1.50 VS 5.20 3
 SPEC PAM SH Z MO 13.2 ST  1.9 OM  1.3 f0 5.86 R0.3283 AL-0.00 WI 20.0 MW  2.7 3
 SPEC PAM SH Z T 43748 K 0.050 GD  159 VS 5.20 DE 3.20 Q0750.0 QA 1.50 VS 5.20 3
 SPEC RUS HH Z MO 12.6 ST 34.3 OM  0.7 f0 23.9 R0.0805 AL-0.00 WI 20.0 MW  2.4 3
 SPEC RUS HH Z T 43750 K 0.050 GD  172 VS 5.20 DE 3.20 Q0750.0 QA 1.50 VS 5.20 3
 SPEC PTB HH Z MO 13.4 ST948.3 OM  1.4 f0 40.0 R0.0481 AL-0.00 WI 20.0 MW  2.9 3
 SPEC PTB HH Z T 43756 K 0.050 GD  202 VS 5.20 DE 3.20 Q0750.0 QA 1.50 VS 5.20 3
 SPEC OCA HH Z MO 13.3 ST 10.2 OM  1.3 f0 9.39 R0.2049 AL-0.00 WI 20.0 MW  2.8 3
 SPEC OCA HH Z T 43758 K 0.050 GD  212 VS 5.20 DE 3.20 Q0750.0 QA 1.50 VS 5.20 3
 SPEC SPBCHH Z MO 13.1 ST290.3 OM  1.1 f0 33.3 R0.0578 AL-0.00 WI 20.0 MW  2.7 3
 SPEC SPBCHH Z T 43759 K 0.050 GD  214 VS 5.20 DE 3.20 Q0750.0 QA 1.50 VS 5.20 3
 SPEC ZAR HH Z MO 13.2 ST191.8 OM  1.1 f0 27.7 R0.0695 AL-0.00 WI 20.0 MW  2.7 3
 SPEC ZAR HH Z T 438 6 K 0.050 GD  246 VS 5.20 DE 3.20 Q0750.0 QA 1.50 VS 5.20 3
 SPEC NOR HH Z MO 13.1 ST 73.4 OM  1.0 f0 21.0 R0.0916 AL-0.00 WI 20.0 MW  2.7 3
 SPEC NOR HH Z T 43812 K 0.050 GD  272 VS 5.20 DE 3.20 Q0750.0 QA 1.50 VS 5.20 3
 SPEC SML HH Z MO 13.4 ST999.9 OM  1.3 f0 40.0 R0.0481 AL-0.00 WI 20.0 MW  2.9 3
 SPEC SML HH Z T 43812 K 0.050 GD  280 VS 5.20 DE 3.20 Q0750.0 QA 1.50 VS 5.20 3
 SPEC CHI HH Z MO 12.9 ST0.253 OM  0.8 f0 3.64 R0.5286 AL-0.00 WI 20.0 MW  2.6 3
 SPEC CHI HH Z T 43816 K 0.050 GD  285 VS 5.20 DE 3.20 Q0750.0 QA 1.50 VS 5.20 3
 SPEC HEL HH Z MO 15.1 ST0.012 OM  2.9 f00.254 R7.5748 AL-0.00 WI 20.0 MW  4.0 3
 SPEC HEL HH Z T 43819 K 0.050 GD  305 VS 5.20 DE 3.20 Q0750.0 QA 1.50 VS 5.20 3
 SPECGUY2CHH Z MO 13.4 ST  0.3 OM  1.2 f0 2.91 R 0.660 AL-0.00 WI 20.0 MW  2.8 3
 SPECGUY2CHH Z T 43826 K 0.050 GD331.8 VS 5.20 DE 3.20 Q0750.0 QA 1.50 VS 5.20 3
 OLDACT:REG 13-11-17 09:02 OP:stll STATUS:               ID:20131117042810     3
 ACTION:UPD 14-01-09 16:28 OP:ep   STATUS:               ID:20131117043711 L   I
 OLDACT:UP  13-11-17 13:00 OP:stll STATUS:               ID:20131117042810     3
 2013-11-17-0428-10M.COL___220                                                 6
 STAT SP IPHASW D HRMM SECON CODA AMPLIT PERI AZIMU VELO AIN AR TRES W  DIS CAZ7
 BAR2 SZ EP        437 30.52                             170    0.3710 23.4 188 
 BAR2 SZ ES        437 44.17                             170   -0.7010 23.4 188 
 BAR2 SZ I         437 47.04        67.6 0.74            170           23.4 188 
 BRR  HZ IP     C  437 32.49                             152    0.7810 70.6 299 
 BRR  HN ES        437 48.56                             152    0.9110 70.6 299 
 BRR  SZ I         437 50.98        45.2 0.18            157           70.6 299 
 PAM  SZ IP     D  437 33.39                             150    0.5510 77.6  40 
 PAM  SN ES        437 50.22                             150    0.5610 77.6  40 
 PAM  SZ I         437 54.68        24.0 0.42            149           77.6  40 
 RUS  HZ EP        437 34.46                             142    0.0310  101 176 
 RUS  HN ES        437 52.33                             142   -0.1610  101 176 
 RUS  SZ I         437 54.12         9.7 0.36            144            101 176 
 PTB  HZ EP        437 37.18                             131   -0.51 9  147 259 
 PTB  HN ES        437 57.88                             131   -0.41 9  147 259 
 PTB  SZ I         438  1.15        23.9 0.12            135            147 259 
 CAPV BZ IP     D  437 38.64                             130    0.45 9  149  38 
 TAM  HZ IP     D  437 38.87                             129    0.35 9  156 105 
 TAM  HN ES        437 58.68                             129   -1.09 9  156 105 
 TAM  SZ I         438 27.83        15.1 3.58            129            156 105 
 OCA  HZ EP        437 39.25                             128    0.17 9  160 353 
 OCA  HN ES        438  0.40                             128   -0.36 9  160 353 
 OCA  SZ I         438  3.86        31.2 0.36            131            160 353 
 SPBC HZ EP        437 39.53                             128    0.25 9  163 219 
 SPBC HE ES        438  1.43                             128    0.31 9  163 219 
 SPBC SZ I         438  5.81        18.8 0.14            131            163 219 
 ZAR  HZ EP        437 43.54                             121    0.29 9  203 292 
 ZAR  HN ES        438  8.46                             121    0.27 9  203 292 
 ZAR  SZ I         438 15.28        25.6 0.34            125            203 292 
 NOR  HZ EP        437 46.47                             117   -0.14 8  234 234 
 NOR  HN ES        438 14.00                             117   -0.17 8  234 234 
 NOR  SZ I         438 18.24        13.5 0.28            120            234 234 
 SML  HZ EP        437 46.94                             116   -0.57 8  243 335 
 SML  HN ES        438 14.27                             116   -1.50 8  243 335 
 SML  SZ I         438 23.70        29.0 0.08            119            243 335 
 CHI  HZ EP        437 48.52                             116   -0.12 8  249 195 
 CHI  HN ES        438 17.75                             116   -0.03 8  249 195 
 CHI  HZ I         438 23.62         4.4 0.32            118            249 195 
 HEL  HZ EP        437 52.39                             113    1.27 8  272 256 
 HEL  HN ES        438 20.86                             113   -1.33 8  272 256 
 HEL  SZ I         438 24.74         6.9 1.46            117            272 256 
 GUY2CHZ EP        437 55.64                             111    1.08 7  301 235 
 GUY2CHN ES        438 27.61                             111   -0.71 7  301 235 
 GUY2CSZ I         438 35.50        12.0 0.54                           301 235 
 SOCV BZ EP        437 52.98                             111   -1.11 7  302  57 
                                                                                
