 2012  717 0104 32.1 L   6.801 -73.187137.1  RSN  6 0.4 1.4LRSN                1
 GAP=131        0.91       5.9     5.0  9.4  0.1705E+00  0.6003E+01  0.7545E-01E
 Epicentro: ZAPATOCA - SANTANDER                                               3
 ACTION:UPD 12-08-14 11:45 OP:ep   STATUS:               ID:20120717010432 L   I
 2012-07-17-0100-00M.COL___197                                                 6
 STAT SP IPHASW D HRMM SECON CODA AMPLIT PERI AZIMU VELO AIN AR TRES W  DIS CAZ7
 BAR2 SZ ES   2    1 5  4.74                             170    -0.4 5   23 179 
 BRR  HZ EP   1    1 4 52.20                             153     0.2 7   67 300 
 BRR  HN ES   1    1 5  8.43                             153     0.8 7   67 300 
 PAM  SZ EP        1 4 53.31                             148    -0.210   80  42 
 PAM  SN ES   1    1 5 10.22                             148    -0.1 7   80  42 
 RUS  HZ EP   1    1 4 55.06                             142     0.0 7  101 173 
 RUS  HN ES   1    1 5 13.10                             142     0.2 7  101 173 
 RUS  HZ I         1 5 15.00         3.7 0.30            141            101 173 
 PTB  HZ EP   1    1 4 58.36                             131     0.4 7  143 258 
 PTB  HN ES   1    1 5 17.25                             131    -0.8 7  143 258 
 PTB  HZ I         1 5 20.81         4.1 0.13            131            143 258 
 ZAR  HN ES   1    1 5 27.88                             121    -0.2 6  200 293 
