 2010 1217 0713 48.2 L   6.786 -73.031150.0  RSN  9 0.3 1.8LRSN                1
 GAP=194        0.64       3.6     5.4  6.7  0.8321E+00  0.4494E+01  0.1362E+01E
 Epicentro: CEPITA - SANTANDER                                                 3
 ACTION:DUP 11-01-14 15:25 OP:pat  STATUS:               ID:20101217071349dL   I
 2010-12-17-0712-05S.COL___137                                                 6
 STAT SP IPHASW D HRMM SECON CODA AMPLIT PERI AZIMU VELO SNR AR TRES W  DIS CAZ7
 BAR2 SZ EP        714  8.46                             169     0.010   27 218 
 BAR2 SZ I         714 25.25        12.2 0.18                            27 218 
 GIR2 SZ EP   2    714  8.63                             165     0.1 5   37 331 
 BRR  HZ EP        714 10.43                             149    -0.110   83 295 
 BRR  HN ES   1    714 27.64                             149    -0.3 7   83 295 
 BRR  HZ I         714 30.06        17.0 0.24                            83 295 
 RUS  HZ EP   1    714 12.38                             145     0.1 7   99 183 
 RUS  HE ES   1    714 31.11                             145     0.1 7   99 183 
 RUS  HZ I         714 32.86         7.2 0.49                            99 183 
 OCA  SZ EP   1    714 17.34                             130     0.2 7  164 349 
 OCA  SZ I         714 43.32         6.9 0.38                           164 349 
 NOR  SN EP   1    714 24.75                             118    -0.5 6  244 237 
 CHI  HZ EP   1    714 26.15                             118    -0.2 6  251 198 
 CHI  HN ES   1    714 56.18                             118     0.1 6  251 198 
 CHI  HZ I         715  1.73         3.3 0.15                           251 198 
 HEL  HZ EP   2    714 30.20                             114     0.3 4  284 257 
 HEL  HN ES   1    715  3.25                             114     0.7 6  284 257 
 HEL  HZ I         715  7.00         3.4 0.63                           284 257 
 RREF HE ES   2    715 11.54                             111    -0.9 3  330 231 
 RREF HZ I         715 20.03         5.6 0.35                           330 231 
                                                                                
