 2015 1117 0541 32.2 L   6.816 -73.107147.7  RSN 15 0.5 2.0LRSN                1
 GAP=141        1.08       2.9     4.5  5.5 -0.2946E+01  0.9876E+01  0.3078E-01E
 Epicentro: LOS SANTOS - SANTANDER                                             3
 ACTION:UPD 15-12-28 16:11 OP:cam  STATUS:               ID:20151117054132 L   I
 OLDACT:REG 15-11-17 12:55 OP:ak   STATUS:               ID:20151117053736     3
 2015-11-17-0537-36M.COL___313                                                 6
 STAT SP IPHASW D HRMM SECON CODA AMPLIT PERI AZIMU VELO AIN AR TRES W  DIS CAZ7
 BAR2 EZ EP        541 52.12                             169    0.0410 26.1 199 
 BAR2 EZ ES        542  7.44                             169   -0.1710 26.1 199 
 BAR2 EZ I         542  9.95        19.8 0.40            167           26.1 199 
 PAM  EZ IP        541 54.93                             152    0.5910 73.3  38 
 PAM  EN ES        542 11.66                             152    0.0110 73.3  38 
 PAM  EZ I         542 14.31        17.6 0.05            155           73.3  38 
 BRR  HZ EP        541 53.91                             152    0.2310 74.2 296 
 BRR  HN ES        542 11.23                             152    0.7610 74.2 296 
 BRR  HZ I         542 15.19        12.0 0.28            147           74.2 296 
 RUS  HZ EP        541 55.88                             144   -0.3310  102 179 
 RUS  HN ES        542 14.58                             144   -0.4010  102 179 
 RUS  HZ I         542 15.88         8.1 0.28            143            102 179 
 OCA  HZ EP        542  0.73                             130    0.23 9  159 352 
 OCA  HN ES        542 22.47                             130   -0.14 9  159 352 
 OCA  HZ I         542 26.87        14.6 0.13            129            159 352 
 SPBC HZ EP        542  1.04                             129   -0.15 9  167 220 
 SPBC HN ES        542 23.62                             129   -0.22 9  167 220 
 SPBC HZ I         542 28.75        19.1 0.16            127            167 220 
 ZAR  HZ EP        542  5.55                             122    0.48 8  207 291 
 ZAR  HN ES        542 29.77                             122   -0.97 8  207 291 
 ZAR  HZ I         542 36.32         7.0 0.21            120            207 291 
 NOR  HZ EP        542  8.05                             118   -0.43 8  239 235 
 NOR  HE ES        542 36.56                             118   -0.26 8  239 235 
 NOR  HZ I         542 40.22         8.7 0.16            117            239 235 
 SML  HZ EP        542  8.38                             118   -0.53 8  244 334 
 SML  HN ES        542 36.92                             118   -0.66 8  244 334 
 SML  HZ I         542 44.52        11.0 0.09            117            244 334 
 ROSC BZ EP   1    542 11.73                             117    0.94 6  257 212 
 ROSC BN ES   4    542 43.92                             117    3.00 0  257 212 
 ROSC BZ I         542 49.52        10.0 0.35            116            257 212 
 HEL  HZ EP        542 13.16                             115    0.19 7  277 256 
 HEL  HE ES   1    542 45.65                             115    0.84 6  277 256 
 HEL  HZ I         542 50.45         5.7 0.05            113            277 256 
 GUY2CHZ IP        542 16.24                             112   -0.12 7  306 235 
 GUY2CHN ES        542 51.84                             112    0.99 7  306 235 
 GUY2CHZ I         543  2.02         5.2 0.64                           306 235 
 CBOC HZ EP        542 19.92                             110    0.24 7  338 252 
 CBOC HZ I         542 48.06         1.4 0.41            109            338 252 
 PRA  HZ EP   4    542 25.53                             107   -0.64 0  396 210 
 PRA  HN ES   4    543  6.70                             107   -1.61 0  396 210 
 PRA  HZ I         543 13.24         5.5 0.32            106            396 210 
 ORTC HZ EP   2    542 25.91                             106   -0.70 3  399 217 
 ORTC HN ES        543  8.68                             106   -0.40 6  399 217 
 ORTC HZ I         543 16.57         2.5 0.24            106            399 217 
                                                                                
