 2016  517 0952  2.0 L   6.856 -73.287121.6  RSN 19 0.5 2.2LRSN                1
 GAP= 58        0.94       2.4     2.5  4.3  0.1038E+00  0.2869E+01  0.1947E+01E
 Epicentro: ZAPATOCA - SANTANDER                                               3
 ACTION:UPD 16-08-18 17:46 OP:cam  STATUS:               ID:20160517095202 L   I
 OLDACT:UP  16-05-24 15:32 OP:dnl  STATUS:               ID:20160517095202 L   3
 OLDACT:REG 16-05-17 13:57 OP:mh   STATUS:               ID:20160517094753     3
 2016-05-17-0948-00M.COL___428                                                 6
 STAT SP IPHASW D HRMM SECON CODA AMPLIT PERI AZIMU VELO AIN AR TRES W  DIS CAZ7
 BAR2 EZ IP     D  952 19.28                             165    0.3110 31.4 158 
 BAR2 EZ ES        952 31.98                             165   -0.2210 31.4 158 
 BAR2 EZ I         952 33.91        63.5 0.20            166           31.4 158 
 BRR  HZ EP     D  952 19.68                             154    0.0710 54.5 301 
 BRR  HN ES        952 33.33                             154   -0.0110 54.5 301 
 BRR  HZ I         952 34.76        31.2 0.10            152           54.5 301 
 PAM  EZ EP   2    952 22.88                             143    0.69 5 84.1  50 
 PAM  EE ES        952 38.57                             143    0.6410 84.1  50 
 PAM  EZ I         952 41.56        31.4 0.24            143           84.1  50 
 RUS  HZ EP        952 23.98                             136   -0.1810  109 168 
 RUS  HN ES        952 41.65                             136    0.2110  109 168 
 RUS  HZ I         952 43.06        12.9 0.24            136            109 168 
 OCA  HZ EP        952 27.27                             125   -0.55 9  153 359 
 OCA  HE ES        952 47.20                             125   -0.76 9  153 359 
 SPBC HZ EP        952 28.32                             124   -0.02 9  159 213 
 SPBC HN ES        952 48.69                             124   -0.20 9  159 213 
 SPBC HZ I         952 50.54        33.2 0.14            123            159 213 
 TAM  HZ EP        952 30.16                             121    0.56 9  172 106 
 TAM  HN ES        952 50.96                             121   -0.16 9  172 106 
 TAM  HZ I         952 51.31        18.6 0.30            122            172 106 
 ZAR  HZ EP        952 31.23                             119    0.05 9  187 292 
 ZAR  HE ES        952 54.19                             119    0.24 9  187 292 
 ZAR  HZ I         952 58.92        24.1 0.25            118            187 292 
 NOR  HZ EP        952 35.24                             114   -0.24 8  226 231 
 NOR  HN ES        953  1.23                             114   -0.37 8  226 231 
 NOR  HZ I         953  3.60        11.1 0.16            113            226 231 
 HEL  HZ EP        952 40.00                             111    0.43 8  259 254 
 HEL  HN ES   2    953  8.49                             111   -0.38 4  259 254 
 HEL  HZ I         953 13.73        10.3 0.28            110            259 254 
 URE  HZ EP   2    952 39.01                             110   -1.07 4  267 292 
 URE  HN ES   4    953  7.68                             110   -2.10 0  267 292 
 URE  HZ I         953  9.43        20.0 0.12            109            267 292 
 LL6C HZ EP   2    952 47.16                             106    1.13 3  318   0 
 LL6C HE ES   2    953 20.17                             106   -0.20 3  318   0 
 LL6C HZ I         953 30.75         7.7 0.66            105            318   0 
 PTGC HZ EP        952 45.37                             106   -0.89 7  320 156 
 PTGC HN ES        953 19.94                             106   -0.85 7  320 156 
 PTGC HZ I         953 21.78         8.3 0.50            106            320 156 
 CBOC HZ EP        952 47.14                             106    0.61 7  321 250 
 CBOC HN ES        953 21.21                             106   -0.05 7  321 250 
 CBOC HZ I         953 30.83         3.4 0.40            105            321 250 
 PRA  HZ EP        952 55.27                             102    0.71 6  390 207 
 PRA  HN ES   2    953 36.07                             102    0.51 3  390 207 
 PRA  HZ I         953 42.39         6.8 0.58            102            390 207 
 ORTC HZ EP        952 55.46                             102    0.72 6  392 214 
 ORTC HN ES   2    953 36.58                             102    0.70 3  392 214 
 ORTC HZ I         953 42.17         4.2 0.42            102            392 214 
 SJC  HZ EP   4    952 53.42                             102   -1.83 0  396 328 
 SJC  HE ES   4    953 32.51                             102   -4.27 0  396 328 
 SJC  HZ I         953 39.17         3.6 0.33            101            396 328 
 PAL  HZ EP        952 55.34                             102    0.07 6  396 237 
 PAL  HN ES   4    953 33.07                             102   -3.75 0  396 237 
 PAL  HZ I         953 37.77         3.2 0.28            101            396 237 
 CRJC HZ EP   2    953  2.79                              99   -0.54 2  463   6 
 CRJC HE ES   4    953 49.16                              99   -2.00 0  463   6 
 CRJC HZ I         953 57.11         8.7 0.38             99            463   6 
                                                                                
