 2013  117 0831 52.4 L   6.708 -73.188143.2  RSN  5 0.4 1.2LRSN                1
 GAP=225        0.80       7.6     7.8  7.7  0.2990E+02  0.1141E+02  0.1428E+02E
 Epicentro: VILLANUEVA - SANTANDER                                             3
 ACTION:UPD 13-02-15 09:14 OP:ep   STATUS:               ID:20130117083152 L   I
 2013-01-17-0830-00M.COL___241                                                 6
 STAT SP IPHASW D HRMM SECON CODA AMPLIT PERI AZIMU VELO AIN AR TRES W  DIS CAZ7
 BAR2 SZ EP   1    832 11.14                             175   -0.42 7 12.8 177 
 BAR2 SZ ES   1    832 26.41                             175   -0.08 7 12.8 177 
 BAR2 SZ I         832 28.02         7.5 0.26            174           12.8 177 
 BRR  HZ EP   1    832 13.05                             151   -0.32 7 72.8 307 
 BRR  HN ES   1    832 30.44                             151    0.72 7 72.8 307 
 BRR  HZ I         832 31.93         2.8 0.44            154           72.8 307 
 RUS  HZ EP   1    832 15.47                             146    0.25 7 90.9 173 
 RUS  HN ES   1    832 32.83                             146   -0.18 7 90.9 173 
 RUS  HZ I         832 35.30         2.1 0.28            148           90.9 173 
 PTB  HZ EP   1    832 18.40                             133   -0.20 7  141 263 
 PTB  HN ES   1    832 38.72                             133   -0.30 7  141 263 
 PTB  HZ I         832 39.66         2.2 0.56            135            141 263 
 CHI  HZ EP   1    832 29.51                             118    0.75 6  238 195 
                                                                                
