 2011 1117 0537 27.2 L   6.048 -73.718108.0  RSN  9 0.4 1.9LRSN                1
 GAP= 77        0.83       3.0     3.3  8.3 -0.1791E+01  0.1252E+02 -0.4260E+00E
 Epicentro: BOLIVAR - SANTANDER                                                3
 ACTION:UPD 12-07-13 16:10 OP:ep   STATUS:               ID:20111117053727 L   I
 2011-11-17-0536-05S.COL___179                                                 6
 STAT SP IPHASW D HRMM SECON CODA AMPLIT PERI AZIMU VELO AIN AR TRES W  DIS CAZ7
 RUS  HZ IP     D  537 45.21                             144    0.0210 72.3 104 
 RUS  HZ I         537 45.72        19.4 0.30                          72.3 104 
 RUS  HN ES   1    537 58.91                             144   -0.32 7 72.3 104 
 BAR2 SZ EP        537 45.98                             139    0.2310 84.4  45 
 BAR2 SZ ES   1    538  0.57                             139    0.35 7 84.4  45 
 BAR2 SZ I         538  1.98        89.1 0.48                          84.4  45 
 BRR  HZ EP        537 48.22                             129   -0.0810  117   0 
 BRR  HN ES   1    538  4.95                             129    0.19 7  117   0 
 BRR  HZ I         538  8.52        18.2 0.11                           117   0 
 NOR  SZ EP   1    537 50.41                             124   -0.06 7  138 247 
 NOR  SN ES   1    538  8.79                             124    0.17 7  138 247 
 CHI  HZ EP   1    537 52.69                             120   -0.17 7  157 181 
 CHI  HN ES   1    538 12.42                             120   -0.46 7  157 181 
 CHI  HZ I         538 16.01         6.9 0.41                           157 181 
 PAM  SZ EP   1    537 55.44                             116   -0.20 7  182  38 
 PAM  SZ I         537 57.02         3.7 0.25                           182  38 
 HEL  HZ EP   1    537 58.24                             113    0.62 6  201 275 
 HEL  HZ I         537 59.86         7.1 0.26                           201 275 
 HEL  HN ES   1    538 20.26                             113   -1.10 6  201 275 
 ZAR  HZ EP   1    537 56.82                             113   -0.61 6  203 322 
 ZAR  HN ES   1    538 20.94                             113   -0.07 6  203 322 
 ZAR  HZ I         538 22.09        15.2 0.39                           203 322 
 RREF HZ EP   1    538  0.67                             111    0.50 6  221 235 
 RREF HN ES   1    538 26.74                             111    0.84 6  221 235 
 RREF HZ I         538 30.34         7.3 0.60                           221 235 
                                                                                
