 2016 1217 0627 23.1 L   6.800 -73.131139.7  RSN 13 0.4 2.2LRSN                1
 GAP=101        0.98       3.6     3.1  5.0 -0.4188E-01  0.2304E+01  0.4182E+01E
 Epicentro: LOS SANTOS - SANTANDER                                             3
 ACTION:UPD 17-01-11 20:16 OP:rebc STATUS:               ID:20161217062723 L   I
 OLDACT:UP  16-12-17 17:01 OP:and  STATUS:               ID:20161217061748d    3
 OLDACT:UP  16-12-17 17:00 OP:and  STATUS:               ID:20161217061748d    3
 OLDACT:UP  16-12-17 16:59 OP:and  STATUS:               ID:20161217061748d    3
 OLDACT:UP  16-12-17 16:58 OP:and  STATUS:               ID:20161217061748d    3
 OLDACT:UP  16-12-17 16:57 OP:and  STATUS:               ID:20161217061748d    3
 OLDACT:DUP 16-12-17 16:54 OP:and  STATUS:               ID:20161217061748d    3
 2016-12-17-0618-00M.COL___360                                                 6
 STAT SP IPHASW D HRMM SECON CODA AMPLIT PERI AZIMU VELO AIN AR TRES W  DIS CAZ7
 BAR2 EZ IP     D  627 41.71                             170   -0.3110 23.7 194 
 BAR2 EZ ES        627 56.53                             170   -0.2310 23.7 194 
 BAR2 EZ I         627 58.28        67.9 0.28            167           23.7 194 
 BRR  HZ IP     C  627 43.60                             151   -0.0910 72.7 298 
 BRR  HE ES        628  0.16                             151    0.4210 72.7 298 
 BRR  HZ I         628  3.76        37.0 0.13            149           72.7 298 
 PAM  EZ EP        627 44.60                             150   -0.0210 76.3  39 
 PAM  EN ES        628  1.48                             150    0.0910 76.3  39 
 PAM  EZ I         628  3.74        41.9 0.56            154           76.3  39 
 RUS  HZ EP        627 45.71                             143   -0.5510  100 177 
 RUS  HN ES        628  4.31                             143   -0.0010  100 177 
 RUS  HZ I         628  5.34        18.4 0.30            142            100 177 
 PTB  HZ EP   9    627 48.39                             130   -1.35 0  149 259 
 PTB  HN ES        628  9.08                             131   -0.08 9  149 259 
 PTB  HZ I         628 11.86        22.3 0.14            129            149 259 
 TAM  HZ IP     D  627 50.08                             129   -0.08 9  153 105 
 TAM  HE ES        628 11.64                             129    0.38 9  153 105 
 ZAR  HZ EP        627 55.08                             121   -0.25 8  206 292 
 ZAR  HE ES        628 20.58                             121    0.12 8  206 292 
 ZAR  HZ I         628 26.42        34.2 0.34            121            206 292 
 NOR  HZ EP        627 58.40                             117   -0.24 8  236 235 
 NOR  HE ES        628 25.75                             117   -0.60 8  236 235 
 NOR  HZ I         628 30.91         8.7 0.18            117            236 235 
 CHI  HZ EP        627 59.98                             116   -0.55 8  249 196 
 CHI  HN ES        628 30.34                             116    0.63 8  249 196 
 CHI  HZ I         628 39.23         4.7 0.42            116            249 196 
 ROSC BZ EP        628  1.94                             115    0.94 8  254 211 
 ROSC BN ES   4    628 32.95                             115    2.40 0  254 211 
 ROSC BZ I         628 33.86         9.4 0.50            115            254 211 
 GUY2CHZ EP        628  7.46                             111    0.86 7  303 235 
 GUY2CHN ES   4    628 45.28                             111    4.76 0  303 235 
 GUY2CHZ I         628 49.27         5.0 0.34                           303 235 
 LL6C HZ EP   9    627 47.57                             109   -21.0 0  325 357 
 LL6C HE ES   4    628 24.79                                    1.76 0  325 357 
 CBOC HZ EP   9    628 10.94                             109    0.98 0  335 252 
 CBOC HN ES        628 47.95                                    0.47 7  335 252 
 CBOC HZ I         628 57.42         2.3 0.54            109            335 252 
 SJC  HZ EP   4    628 15.83                             105   -2.76 0  410 327 
 SJC  HN ES   4    628 57.97                             105   -3.89 0  410 327 
 SJC  HZ I         629  1.61         5.0 0.62            105            410 327 
                                                                                
