 2016 1217 0307  0.2 L   6.820 -73.224143.6  RSN  5 0.2 1.1LRSN                1
 GAP=124        0.67       5.2     4.0  6.5  0.8423E+00  0.2092E+01 -0.1430E+02E
 Epicentro: ZAPATOCA - SANTANDER                                               3
 ACTION:UPD 17-01-11 20:16 OP:rebc STATUS:               ID:20161217030700 L   I
 OLDACT:REG 16-12-17 12:48 OP:and  STATUS:               ID:20161217025743     3
 2016-12-17-0258-00M.COL___375                                                 6
 STAT SP IPHASW D HRMM SECON CODA AMPLIT PERI AZIMU VELO AIN AR TRES W  DIS CAZ7
 BAR2 EZ EP        3 7 20.01                             169    0.3410 25.6 170 
 BAR2 EZ ES        3 7 34.68                             169   -0.1410 25.6 170 
 BRR  HZ EP        3 7 21.11                             155    0.4110 62.6 300 
 BRR  HN ES   4    3 7 38.02                             155    1.37 0 62.6 300 
 PAM  EZ IP     C  3 7 22.19                             149   -0.3010 81.6  45 
 RUS  HZ EP        3 7 23.91                             142   -0.1110  104 171 
 RUS  HN ES        3 7 42.64                             142    0.0810  104 171 
 RUS  HZ I         3 7 43.94         1.9 0.28            142            104 171 
 PTB  HZ EP        3 7 26.09                             133   -0.23 9  140 257 
 PTB  HN ES        3 7 46.56                             133   -0.09 9  140 257 
 PTB  HZ I         3 7 50.11         1.8 0.16            132            140 257 
                                                                                
