 2010  717 0503 31.8 L   6.806 -73.057142.0  RSN  5 0.1 1.3LRSN                1
 GAP=174        0.38       3.3     7.8  7.5  0.1329E+02 -0.3769E+02 -0.8876E+01E
 Epicentro: LOS SANTOS - SANTANDER                                             3
 ACTION:UPD 10-12-01 15:18 OP:pat  STATUS:               ID:20100717050331 L   I
 2010-07-17-0459-42S.COL___120                                                 6
 STAT SP IPHASW D HRMM SECON CODA AMPLIT PERI AZIMU VELO AIN AR TRES W  DIS CAZ7
 BAR2 SZ IP        5 3 51.08                             169     0.010   28 211 
 BAR2 SZ I         5 4 13.32        10.3 0.59                            28 211 
 BRR  HZ IP     C  5 3 53.02                             149     0.010   80 295 
 BRR  HZ I         5 3 53.49         6.5 0.14                            80 295 
 BRR  HE ES   1    5 4  9.71                             149     0.1 7   80 295 
 RUS  HZ EP   1    5 3 55.14                             143    -0.1 7  101 182 
 RUS  HZ I         5 3 56.23         1.8 0.21                           101 182 
 RUS  HN ES   2    5 4 13.48                             143     0.0 5  101 182 
 GUE  SZ EP   2    5 3 56.32                             139     0.3 5  114   7 
 GUE  SZ I         5 3 56.95         1.1 0.09                           114   7 
 OCA  SZ EP   2    5 3 59.90                             129     0.0 5  161 350 
 OCA  SZ ES   2    5 4 21.48                             129    -0.3 5  161 350 
 OCA  SZ I         5 4 27.01         2.3 0.62                           161 350 
                                                                                
