 2013 1117 0733 26.9 L   7.060 -73.116139.6  RSN  5 0.2 1.3LRSN                1
 GAP=141        0.60       4.2     3.7  5.5  0.1455E+01 -0.7442E+00 -0.6220E+01E
 Epicentro: FLORIDABLANCA - SANTANDER                                          3
 ACTION:UPD 14-01-09 16:29 OP:ep   STATUS:               ID:20131117073326 L   I
 OLDACT:DUP 13-11-17 13:51 OP:stll STATUS:               ID:20131117072810d    3
 2013-11-17-0728-09M.COL___219                                                 6
 STAT SP IPHASW D HRMM SECON CODA AMPLIT PERI AZIMU VELO AIN AR TRES W  DIS CAZ7
 BAR2 SZ EP        733 46.83                             158    0.1010 52.2 188 
 BAR2 SZ ES        734  1.81                             158   -0.4010 52.2 188 
 BAR2 SZ I         734  4.08         8.9 0.28            158           52.2 188 
 PAM  SZ EP        733 47.18                             157   -0.0610 55.4  56 
 PAM  SZ I         733 47.31         4.3 0.12            160           55.4  56 
 BRR  HZ EP        733 47.10                             153    0.0310 66.1 275 
 BRR  HZ I         733 49.76         2.8 0.42            151           66.1 275 
 BRR  HN ES        734  3.12                             153    0.3010 66.1 275 
 RUS  HN ES        734 12.44                             135    0.2710  129 178 
 PTB  HZ EP        733 54.30                             128   -0.11 9  159 249 
 PTB  HN ES        734 15.73                             128   -0.15 9  159 249 
 PTB  HZ I         734 19.34         1.7 0.82            127            159 249 
                                                                                
