 2015 1017 0922  2.8 L   6.802 -73.130145.4  RSN 16 0.5 2.0LRSN                1
 GAP=138        1.15       2.9     4.3  5.8 -0.2311E+01  0.9678E+01  0.4183E+00E
 Epicentro: LOS SANTOS - SANTANDER                                             3
 ACTION:UPD 15-12-22 20:40 OP:cam  STATUS:               ID:20151017092202 L   I
 OLDACT:REG 15-10-17 13:02 OP:ak   STATUS:               ID:20151017091750     3
 2015-10-17-0917-50M.COL___340                                                 6
 STAT SP IPHASW D HRMM SECON CODA AMPLIT PERI AZIMU VELO AIN AR TRES W  DIS CAZ7
 BAR2 EZ EP        922 22.59                             170    0.2010 24.0 194 
 BAR2 EZ ES        922 37.24                             170   -0.4310 24.0 194 
 BAR2 EZ I         922 39.38        15.8 0.40            167           24.0 194 
 BRR  HZ EP        922 24.22                             152    0.2410 72.6 298 
 BRR  HE ES        922 41.30                             152    0.7910 72.6 298 
 BRR  HZ I         922 44.85        12.7 0.07            150           72.6 298 
 PAM  EZ EP        922 24.70                             151   -0.1910 76.1  39 
 PAM  EN ES        922 42.25                             151    0.1310 76.1  39 
 PAM  EZ I         922 44.41        17.8 0.66            157           76.1  39 
 RUS  HZ EP        922 25.70                             144   -0.8210  101 177 
 RUS  HN ES        922 45.27                             144    0.2510  101 177 
 RUS  HZ I         922 46.93         9.2 0.24            145            101 177 
 OCA  HZ EP        922 31.72                             130    0.65 9  160 353 
 OCA  HN ES        922 53.04                             130   -0.08 9  160 353 
 OCA  HZ I         922 56.75        20.0 0.14            132            160 353 
 SPBC HZ EP        922 31.62                             129    0.23 9  165 219 
 SPBC HN ES        922 53.53                             129   -0.16 9  165 219 
 SPBC HZ I         922 56.10        14.8 0.25            129            165 219 
 ZAR  HZ EP        922 36.08                             122    0.71 8  206 292 
 ZAR  HN ES        923  0.35                             122   -0.43 8  206 292 
 ZAR  HZ I         923  7.11        10.7 0.40            123            206 292 
 NOR  HZ EP        922 38.44                             118   -0.23 8  236 235 
 NOR  HN ES        923  6.23                             118   -0.42 8  236 235 
 NOR  HZ I         923 15.19         8.5 0.20            119            236 235 
 SML  HZ EP        922 38.55                             117   -0.90 8  244 335 
 SML  HN ES        923  7.31                             117   -0.73 8  244 335 
 SML  HZ I         923 10.03         7.6 0.12            119            244 335 
 CHI  HZ EP        922 40.61                             117    0.06 8  249 196 
 CHI  HN ES        923  9.78                             117   -0.22 8  249 196 
 CHI  HZ I         923 18.98         3.7 0.40            118            249 196 
 ROSC BZ EP   4    922 42.76                             116    1.74 0  254 211 
 ROSC BE ES   4    923 13.11                             116    2.28 0  254 211 
 ROSC BZ I         923 20.54        14.5 0.40            118            254 211 
 HEL  HZ EP        922 43.80                             114    0.62 8  274 256 
 HEL  HN ES        923 13.97                             114   -0.72 8  274 256 
 HEL  HZ I         923 21.06         7.1 0.40            115            274 256 
 URE  HZ EP   4    922 47.42                             113    3.40 0  285 292 
 URE  HN ES   4    923 13.40                             113   -2.77 0  285 292 
 GUY2CHZ EP        922 47.26                             112    0.70 7  303 235 
 GUY2CHN ES        923 21.20                             112    0.50 7  303 235 
 GUY2CHZ I         923 29.31         7.8 0.46                           303 235 
 CBOC HZ EP        922 50.01                             110    0.12 7  335 252 
 CBOC HE ES        923 26.71                             110    0.08 7  335 252 
 CBOC HZ I         923 35.32         1.8 0.31            111            335 252 
 MON  HZ EP   4    922 54.98                             108    3.06 0  355 308 
 MON  HN ES   4    923 26.66                             108   -3.58 0  355 308 
 MON  HZ I         923 32.58         6.7 0.94            110            355 308 
 SJC  HZ EP   4    922 56.80                             106   -1.63 0  410 327 
 SJC  HN ES   4    923 38.18                             106   -3.64 0  410 327 
 SJC  HZ I         923 42.41         1.7 0.28            107            410 327 
                                                                                
