 2014  517 0057 27.6 L   6.798 -73.133144.4  RSN 34 0.5 3.2LRSN                1
 GAP= 55        0.95       2.0     2.4  4.1 -0.9618E+00  0.2164E+01  0.1118E+01E
 Epicentro: LOS SANTOS - SANTANDER                                             3
 ACTION:UPD 15-03-16 16:58 OP:nd   STATUS:               ID:20140517005727 L   I
 OLDACT:UP  14-05-17 13:23 OP:spq  STATUS:               ID:20140517004805     3
 OLDACT:REG 14-05-17 12:18 OP:stll STATUS:               ID:20140517004805     3
 2014-05-17-0048-05M.COL___245                                                 6
 STAT SP IPHASW D HRMM SECON CODA AMPLIT PERI AZIMU VELO AIN AR TRES W  DIS CAZ7
 BRR  HZ IP     D  057 49.25                             152    0.5710 72.5 298 
 BRR  HN ES        058  5.47                             152    0.3510 72.5 298 
 BRR  HZ I         058  9.70       284.8 0.10            150           72.5 298 
 PAM  SZ IP     D  057 50.16                             151    0.5210 76.7  39 
 PAM  SE ES        058  7.19                             151    0.3710 76.7  39 
 PAM  SZ I         058 10.18       186.8 0.54            156           76.7  39 
 RUS  HZ EP        057 51.33                             144    0.1310  100 177 
 RUS  HN ES        058  9.63                             144    0.0410  100 177 
 RUS  HZ I         058 11.41       154.2 0.26            145            100 177 
 PTB  HZ EP        057 54.02                             131   -0.56 9  149 259 
 PTB  HN ES        058 14.76                             131   -0.86 9  149 259 
 PTB  HZ I         058 17.69       204.3 0.20            131            149 259 
 TAM  HZ IP     D  057 55.79                             130    0.74 9  154 105 
 TAM  HE ES        058 15.66                             130   -0.79 9  154 105 
 TAM  HZ I         058 16.54       109.9 0.32            135            154 105 
 OCA  HZ EP        057 55.44                             129   -0.41 9  161 353 
 OCA  HN ES        058 17.45                             129   -0.43 9  161 353 
 OCA  HZ I         058 20.62       279.2 0.22            131            161 353 
 SPBC HZ EP        057 56.22                             129    0.16 9  164 219 
 SPBC HE ES        058 18.02                             129   -0.23 9  164 219 
 SPBC HZ I         058 23.30       222.4 0.38            129            164 219 
 NOR  HZ EP        058  3.56                             118    0.20 8  236 235 
 NOR  HN ES        058 31.47                             118    0.23 8  236 235 
 NOR  HZ I         058 36.77       192.4 0.20            118            236 235 
 SML  HZ EP        058  3.78                             117   -0.47 8  245 335 
 SML  HE ES        058 33.47                             117    0.65 8  245 335 
 SML  HZ I         058 38.36       277.6 0.12            118            245 335 
 CHI  HZ EP        058  5.44                             117    0.20 8  249 195 
 CHI  HN ES        058 34.20                             117   -0.39 8  249 195 
 CHI  HZ I         058 42.07       100.2 0.50            118            249 195 
 ROSC BZ IP   4 C  058  7.23                             116    1.53 0  253 211 
 ROSC BE ES   4    058 33.50                             116   -1.92 0  253 211 
 ROSC BZ I         058 43.78       148.1 0.70            117            253 211 
 HEL  HZ EP        058  8.13                             114    0.24 8  273 256 
 HEL  HN ES        058 39.13                             114   -0.18 8  273 256 
 HEL  HZ I         058 46.46        80.2 0.40            115            273 256 
 URE  HZ EP        058  7.96                             113   -0.80 7  285 292 
 URE  HE ES   4    058 38.56                             113   -2.30 0  285 292 
 URE  HZ I         058 51.66        90.3 0.18            114            285 292 
 GUY2CHZ EP        058 11.68                             112    0.42 7  302 235 
 GUY2CHN ES        058 45.51                             112    0.20 7  302 235 
 GUY2CHZ I         058 54.08       100.9 0.52                           302 235 
 VIL  SZ EP        058 10.92                             112   -0.04 7  303 192 
 VIL  SE ES        058 44.61                             112   -0.17 7  303 192 
 VIL  SZ I         058 49.39       117.1 0.34            113            303 192 
 PTGC HZ EP        058 10.59                             111   -0.73 7  308 159 
 PTGC HE ES   4    058 43.57                             111   -1.84 0  308 159 
 PTGC HZ I         058 46.37        48.6 0.42            113            308 159 
 RREF HZ EP        058 14.21                             110    0.42 7  323 230 
 RREF HE ES        058 49.43                             110   -0.38 7  323 230 
 RREF HZ I         059  1.62       105.5 0.36            111            323 230 
 CBOC HZ EP        058 15.22                             109    0.62 7  335 252 
 CBOC HN ES        058 51.02                             109   -0.24 7  335 252 
 CBOC HZ I         059  0.82        31.7 0.32            110            335 252 
 DBB  SZ EP        058 15.01                             109   -0.18 7  341 274 
 DBB  SZ ES   4    058 51.13                             109   -1.17 0  341 274 
 DBB  SZ I         058 59.88       194.3 0.36            110            341 274 
 TOL  SZ EP        058 16.73                             109    0.83 7  344 225 
 TOL  SZ ES   1    058 54.07                             109    0.51 5  344 225 
 TOL  SZ I         059  1.75        46.1 0.45            110            344 225 
 ANIL HZ EP        058 18.16                             108    0.71 6  358 225 
 ANIL HN ES        058 56.35                             108    0.03 6  358 225 
 ARGC HZ EP        058 17.59                             108    0.30 6  360 340 
 ARGC HE ES        058 55.60                             108   -0.45 6  360 340 
 ARGC HZ I         059  3.74        28.0 0.36            109            360 340 
 SDV  BZ EP        058 16.86                             108   -0.63 6  360  50 
 SDV  BN ES   4    058 53.15                             108   -3.26 0  360  50 
 PRA  HZ EP        058 20.65                             106   -0.48 6  392 210 
 PRA  HN ES        059  2.92                             106    0.04 6  392 210 
 PRA  HZ I         059  8.61       104.7 0.32            107            392 210 
 ORTC HZ EP        058 21.74                             106    0.19 6  396 216 
 ORTC HE ES        059  3.47                             106   -0.15 6  396 216 
 ORTC HZ I         059 11.68        66.4 0.36            107            396 216 
 SJC  HZ EP   4    058 21.34                             105   -1.90 0  410 327 
 SJC  HN ES   4    059  2.63                             105   -4.00 0  410 327 
 SJC  HZ I         059  7.19        36.4 0.54            107            410 327 
 YOT  HZ EP   1    058 30.11                             103   -0.60 4  473 229 
 YOT  HE ES   1    059 19.86                             103   -0.08 4  473 229 
 YOT  HZ I         059 32.87         8.2 0.42            104            473 229 
 SMAR HZ EP   4    058 31.92                             102   -1.60 0  498 346 
 SMAR HN ES   4    059 18.59                             102   -6.33 0  498 346 
 CAP2 HZ EP   1    058 34.55                             102   -0.35 3  509 294 
 CAP2 HN ES   4    059 23.13                             102   -4.26 0  509 294 
 CAP2 HZ I         059 27.66        15.7 0.21            103            509 294 
 URI  HZ EP   4    058 37.90                             100   -2.68 0  557  13 
 URI  HN ES   4    059 30.58                             100   -6.91 0  557  13 
 URI  HZ I         059 37.44         8.3 0.34            102            557  13 
 GARC HZ EP   4    058 41.68                             100   -1.20 0  573 207 
 GARC HN ES   4    059 38.35                             100   -3.24 0  573 207 
 GARC HZ I         059 45.43        24.2 0.26            101            573 207 
 POP2 HZ EP   1    058 46.99                              99   -0.68 2  613 220 
 POP2 HE ES   4    059 44.86                              99   -5.26 0  613 220 
 PCON HZ EP        058 48.90                              99    0.88 3  613 216 
 PCON HE ES   1    059 50.11                              99   -0.64 2  613 216 
 PCON HZ I         1 0 21.28         6.7 0.52            100            613 216 
 SOTA HZ EP   4    058 52.77                              99    1.09 0  644 217 
 SOTA HE ES   4    059 49.26                              99   -7.99 0  644 217 
 SOTA HZ I         1 0  7.27         4.9 0.56             99            644 217 
 BBAC HZ EP   1    058 57.92                              98    0.04 1  698 221 
 BBAC HN ES   4    1 0  6.01                              98   -2.28 0  698 221 
 BBAC HZ I         1 0 12.76         5.7 0.34             98            698 221 
                                                                                
