 2013 1017 0717 25.7 L   6.775 -73.172145.7  RSN  5 0.2 1.3LRSN                1
 GAP=143        0.63       4.2     3.7  4.7 -0.8372E+01  0.8196E+00  0.3921E+01E
 Epicentro: LOS SANTOS - SANTANDER                                             3
 ACTION:UPD 13-11-25 09:22 OP:ep   STATUS:               ID:20131017071725 L   I
 OLDACT:REG 13-10-17 08:44 OP:jn   STATUS:               ID:20131017070845     3
 2013-10-17-0708-45M.COL___223                                                 6
 STAT SP IPHASW D HRMM SECON CODA AMPLIT PERI AZIMU VELO AIN AR TRES W  DIS CAZ7
 BAR2 SZ EP        717 45.30                             172   -0.0110 20.3 183 
 BAR2 SZ ES        718  0.77                             172    0.2010 20.3 183 
 BAR2 SZ I         718  2.91         7.4 0.26            171           20.3 183 
 BRR  HZ EP        717 47.01                             153    0.1910 70.1 302 
 BRR  HN ES        718  3.59                             153    0.3210 70.1 302 
 BRR  HZ I         718  8.16         3.2 0.24            157           70.1 302 
 PAM  SZ EP        717 48.19                             150   -0.0010 81.3  40 
 PAM  SN ES        718  5.35                             150   -0.3510 81.3  40 
 PAM  SZ I         718 12.83         2.5 0.40            154           81.3  40 
 PTB  HZ EP        717 52.31                             133   -0.09 9  144 260 
 PTB  HE ES        718 12.83                             133   -0.37 9  144 260 
 PTB  HZ I         718 15.58         2.5 0.16            137            144 260 
 SPBC HZ EP        717 54.11                             130    0.24 9  159 219 
 SPBC HN ES        718 15.64                             130   -0.16 9  159 219 
 SPBC HZ I         718 23.16         3.1 0.24            134            159 219 
                                                                                
