 2012 1117 0515  7.1 L   6.789 -73.198141.9  RSN  5 0.3 1.1LRSN                1
 GAP=131        0.64       5.1     5.6  8.4 -0.9228E+00 -0.2992E+01 -0.3033E+01E
 Epicentro: ZAPATOCA - SANTANDER                                               3
 ACTION:UPD 12-12-05 15:33 OP:}ep  STATUS:               ID:20121117051507 L   I
 2012-11-17-0510-00M.COL___233                                                 6
 STAT SP IPHASW D HRMM SECON CODA AMPLIT PERI AZIMU VELO AIN AR TRES W  DIS CAZ7
 GIR2 SZ EP   1    515 25.72                             167   -0.63 7 32.0   1 
 GIR2 SZ ES   1    515 41.42                             167    0.07 7 32.0   1 
 BRR  HZ EP   1    515 28.08                             153    0.48 7 66.8 302 
 PAM  SZ EP   1    515 29.32                             149    0.11 7 82.1  42 
 PAM  SZ I         515 48.74         2.4 0.48                          82.1  42 
 RUS  HZ EP   1    515 30.47                             143    0.02 7100.0 173 
 RUS  HE ES   1    515 48.69                             143    0.05 7100.0 173 
 RUS  HZ I         515 50.21         2.4 0.34                         100.0 173 
 PTB  HE ES   1    515 53.48                             132   -0.12 7  142 259 
                                                                                
