 2017  817 0812 15.2 L   6.984 -73.454 10.0  RSN  5 0.5 1.1LRSN                1
 GAP=210        1.17       7.0     7.6  6.8  0.4786E+02  0.3163E+02  0.2570E+02E
 Epicentro: SAN VICENTE DE CHUCURI - SANTANDER                                 3
 ACTION:UPD 17-09-04 20:21 OP:rebc STATUS:               ID:20170817081215 L   I
 OLDACT:REG 17-08-17 12:45 OP:lv   STATUS:               ID:20170817080539     3
 2017-08-17-0808-00M.COL___407                                                 6
 STAT SP IPHASW D HRMM SECON CODA AMPLIT PERI AZIMU VELO AIN AR TRES W  DIS CAZ7
 BRR  HZ IP     D  812 20.63                             102   -0.0910 31.6 296 
 BRR  HN ES        812 25.07                             102    0.0810 31.6 296 
 BRR  HZ I         812 25.69        20.5 0.12            101           31.6 296 
 BAR2 EZ EP        812 24.32                              97    0.2010 52.7 145 
 BAR2 EZ ES        812 30.79                              97   -0.2610 52.7 145 
 BAR2 EZ I         812 32.55         5.7 0.26             97           52.7 145 
 RUS  HZ EP        812 36.35                              93    0.6710  127 161 
 RUS  HE ES        812 50.93                              93   -0.6910  127 161 
 RUS  HZ I         812 57.15         1.5 0.22             93            127 161 
 SPBC HZ EP   4    812 41.64                              56    1.25 0  162 205 
 SPBC HN ES        813  0.45                              56    0.45 9  162 205 
 SPBC HZ I         813  3.63         5.2 0.12             56            162 205 
 ZAR  HZ EP        812 41.02                              56    0.41 9  165 290 
 ZAR  HN ES        812 59.65                              56   -0.75 9  165 290 
 ZAR  HZ I         813  1.05         5.5 0.40             56            165 290 
                                                                                
