 2015  417 0734 35.2 L   7.532 -73.205136.3  RSN  4 0.5 1.3LRSN                1
 GAP=239        1.19       5.8    12.9 10.3 -0.3784E+02  0.2239E+01  0.2019E+01E
 Epicentro: EL PLAYON - SANTANDER                                              3
 ACTION:UPD 15-06-03 16:55 OP:cam  STATUS:               ID:20150417073435 L   I
 OLDACT:REG 15-04-17 13:14 OP:spq  STATUS:               ID:20150417072746     3
 2015-04-17-0727-46M.COL___275                                                 6
 STAT SP IPHASW D HRMM SECON CODA AMPLIT PERI AZIMU VELO AIN AR TRES W  DIS CAZ7
 BRR  HZ EP        734 55.81                             150    0.4210 73.0 230 
 BRR  HN ES        735 10.79                             150   -0.3910 73.0 230 
 BRR  HZ I         735 13.36         3.7 0.12            151           73.0 230 
 OCA  HZ EP        734 56.05                             148    0.0510 79.1 351 
 OCA  HN ES        735 12.36                             148    0.1010 79.1 351 
 SML  HZ EP        735  3.81                             125    0.35 9  170 326 
 SML  HE ES        735 25.24                             125   -0.29 9  170 326 
 PTB  HZ EP        735  3.20                             124   -0.96 9  176 232 
 PTB  HN ES        735 27.48                             124    0.69 9  176 232 
                                                                                
