 2014 1017 0238 48.4 L   6.757 -73.140144.0  RSN  6 0.4 1.8LRSN                1
 GAP=139        0.87       5.4     4.3  8.6 -0.2640E+01  0.3666E+01  0.7059E+01E
 Epicentro: LOS SANTOS - SANTANDER                                             3
 ACTION:UPD 14-11-29 23:50 OP:nd   STATUS:               ID:20141017023848 L   I
 OLDACT:UP  14-10-17 16:56 OP:mh   STATUS:               ID:20141017023747     3
 OLDACT:REG 14-10-17 14:14 OP:mh   STATUS:               ID:20141017023747     3
 2014-10-17-0237-47M.COL___287                                                 6
 STAT SP IPHASW D HRMM SECON CODA AMPLIT PERI AZIMU VELO AIN AR TRES W  DIS CAZ7
 BRR  HZ EP     C  239  9.77                             151    0.2710 74.2 302 
 BRR  HN ES        239 26.48                             151    0.5010 74.2 302 
 BRR  HZ I         239 29.54        11.6 0.14            150           74.2 302 
 PAM  SZ EP     C  239 10.82                             149    0.2110 80.7  37 
 PAM  SN ES        239 27.43                             149   -0.5210 80.7  37 
 PAM  SZ I         239 30.03         9.6 0.62            150           80.7  37 
 RUS  HZ EP   1    239 11.70                             145    0.09 7 95.7 176 
 RUS  HN ES   1    239 29.89                             145    0.16 7 95.7 176 
 RUS  HZ I         239 31.07         7.2 0.22            149           95.7 176 
 PTB  HZ EP   1    239 14.78                             131   -0.40 7  148 261 
 PTB  HN ES        239 35.60                             131   -0.49 9  148 261 
 PTB  HZ I         239 38.89         7.8 0.20            132            148 261 
 ZAR  HN ES   1    239 46.41                             121    0.03 6  207 293 
 SML  HZ EP   4    239 27.26                             116    1.85 0  248 336 
 SML  HN ES   4    239 52.55                             116   -1.74 0  248 336 
 SML  HZ I         240  0.19         8.3 0.26            117            248 336 
                                                                                
