 2016 1217 0042 42.0 L   6.801 -73.135149.1  RSN  9 0.3 1.6LRSN                1
 GAP=138        0.81       3.3     3.4  5.4 -0.1193E+00  0.3675E+01  0.4421E+01E
 Epicentro: LOS SANTOS - SANTANDER                                             3
 ACTION:UPD 17-01-11 20:15 OP:rebc STATUS:               ID:20161217004242 L   I
 OLDACT:UP  16-12-17 13:34 OP:e    STATUS:               ID:20161217003743     3
 OLDACT:UP  16-12-17 13:31 OP:e    STATUS:               ID:20161217003743     3
 OLDACT:REG 16-12-17 12:39 OP:and  STATUS:               ID:20161217003743     3
 2016-12-17-0038-00M.COL___381                                                 6
 STAT SP IPHASW D HRMM SECON CODA AMPLIT PERI AZIMU VELO AIN AR TRES W  DIS CAZ7
 BAR2 EZ EP        043  2.00                             171   -0.0410 23.7 193 
 BAR2 EZ ES        043 17.68                             171    0.0110 23.7 193 
 BAR2 EZ I         043 19.82        14.8 0.30            169           23.7 193 
 BRR  HZ EP        043  3.12                             153   -0.4510 72.2 298 
 BRR  HE ES        043 20.88                             153    0.5010 72.2 298 
 BRR  HZ I         043 23.40         8.6 0.16            152           72.2 298 
 PAM  EZ IP     C  043  4.94                             152    0.4210 76.5  39 
 PAM  EN ES        043 21.83                             152   -0.2610 76.5  39 
 PAM  EZ I         043 25.22         4.1 0.46            155           76.5  39 
 RUS  HZ EP        043  5.95                             144   -0.1410  101 177 
 RUS  HN ES        043 24.70                             144   -0.1710  101 177 
 RUS  HZ I         043 26.11         6.9 0.24            145            101 177 
 PTB  HZ EP        043  9.01                             132   -0.34 9  149 259 
 PTB  HN ES        043 30.52                             132   -0.16 9  149 259 
 PTB  HZ I         043 32.39         4.9 0.12            132            149 259 
 ZAR  HN ES        043 40.58                             123    0.25 9  205 292 
 ZAR  HZ I         043 45.28         3.8 0.11            124            205 292 
 NOR  HZ EP   4    043 14.09                             119   -3.95 0  236 235 
 NOR  HN ES        043 45.84                             119   -0.30 8  236 235 
 NOR  HZ I         043 52.94         3.5 0.18            120            236 235 
 CHI  HZ EP        043 20.34                             118    0.41 8  249 195 
 CHI  HN ES        043 50.03                             118    0.51 8  249 195 
 CHI  HZ I         043 55.03         2.2 0.32            119            249 195 
 GUY2CHZ EP   4    043 27.48                             113    1.60 0  302 235 
 GUY2CHE ES   4    044  4.41                             113    4.30 0  302 235 
 GUY2CHZ I         044  8.46         2.2 0.44                           302 235 
 SJC  HZ EP   4    043 35.92                             106   -1.82 0  410 327 
 SJC  HN ES   4    044 19.11                             106   -2.10 0  410 327 
                                                                                
