 2017  917 0528 13.6 L   6.752 -73.083142.8  RSN 14 0.5 2.0LRSN                1
 GAP=163        1.03       4.2     4.2  5.6  0.5683E+01  0.5504E+01  0.5262E+01E
 Epicentro: LOS SANTOS - SANTANDER                                             3
 ACTION:UPD 17-10-05 19:13 OP:rebc STATUS:               ID:20170917052813 L   I
 OLDACT:REG 17-09-17 12:24 OP:lv   STATUS:               ID:20170917051739     3
 2017-09-17-0518-00M.COL___408                                                 6
 STAT SP IPHASW D HRMM SECON CODA AMPLIT PERI AZIMU VELO AIN AR TRES W  DIS CAZ7
 BAR2 EZ IP     D  528 32.95                             172    0.1710 20.8 212 
 BAR2 EZ ES        528 47.65                             172   -0.1210 20.8 212 
 BAR2 EZ I         528 49.15        37.1 0.23            169           20.8 212 
 BRR  HZ IP     D  528 34.83                             149   -0.0710 79.8 299 
 BRR  HN ES        528 51.76                             149    0.2110 79.8 299 
 BRR  HZ I         528 54.91        18.0 0.22            148           79.8 299 
 RUS  HZ EP        528 37.11                             145    0.4910 95.1 180 
 RUS  HN ES        528 54.97                             145    0.3710 95.1 180 
 RUS  HZ I         528 56.79        10.1 0.32            144           95.1 180 
 SPBC HZ EP        528 41.97                             128    0.10 9  164 222 
 SPBC HN ES        529  3.35                             128   -0.61 9  164 222 
 SPBC HZ I         529  6.57        13.9 0.27            127            164 222 
 ZAR  HZ EP        528 45.90                             121   -0.79 8  212 293 
 ZAR  HN ES        529 12.27                             121   -0.26 8  212 293 
 ZAR  HZ I         529 17.31        13.6 0.26            120            212 293 
 NOR  HZ EP   4    528 51.24                             118    1.83 0  237 236 
 NOR  HN ES        529 17.21                             118   -0.16 8  237 236 
 NOR  HZ I         529 18.73         9.1 0.28            117            237 236 
 HEL  HZ EP        528 54.91                             114    0.68 7  278 257 
 HEL  HN ES        529 25.67                             114   -0.29 7  278 257 
 HEL  HZ I         529 32.13         6.4 0.44            113            278 257 
 URE  HZ EP   9    528 54.02                             112   -1.41 0  292 292 
 URE  HN ES        529 26.03                                   -0.65 7  292 292 
 URE  HZ I         529 37.34         9.6 0.18            112            292 292 
 PTGC HZ EP        528 55.94                             111   -0.50 7  301 160 
 PTGC HN ES        529 29.31                             111   -0.58 7  301 160 
 PTGC HZ I         529 37.35         5.1 0.28            112            301 160 
 GUY2CHZ EP        528 58.41                             111    1.07 7  304 236 
 GUY2CHE ES        529 31.09                             111   -0.39 7  304 236 
 GUY2CHZ I         529 37.61         4.5 0.38                           304 236 
 LL6C HZ EP   3    528 58.29                             109   -1.49 2  331 356 
 CBOC HZ EP        529  1.04                             109    0.11 7  339 253 
 CBOC HN ES   4    529 35.34                             109   -2.54 0  339 253 
 CBOC HZ I         529 38.84         1.6 0.40            109            339 253 
 ORTC HN ES        529 49.90                             106    0.56 6  395 217 
 ORTC HZ I         529 56.06         3.1 0.46            106            395 217 
 SJC  HZ EP   4    529  7.50                             105   -2.49 0  417 327 
 SJC  HN ES   4    529 47.02                             105   -6.99 0  417 327 
 SJC  HZ I         529 52.27         2.5 0.38            105            417 327 
                                                                                
