 2014  817 0618 37.0 L   6.780 -73.116152.8  RSN  6 0.2 1.3LRSN                1
 GAP=203        0.46       2.2     3.2  3.5  0.6555E+00 -0.5566E+00 -0.1421E+01E
 Epicentro: LOS SANTOS - SANTANDER                                             3
 ACTION:UPD 14-09-15 21:50 OP:nd   STATUS:               ID:20140817061837 L   I
 OLDACT:REG 14-08-17 13:24 OP:spq  STATUS:               ID:20140817061810     3
 2014-08-17-0618-10M.COL___260                                                 6
 STAT SP IPHASW D HRMM SECON CODA AMPLIT PERI AZIMU VELO AIN AR TRES W  DIS CAZ7
 BAR2 SZ EP        618 57.34                             171   -0.1110 22.0 199 
 BAR2 SZ ES   1    619 13.34                             171   -0.07 7 22.0 199 
 BAR2 SZ I         619 13.87         5.5 0.13            172           22.0 199 
 BRR  HZ EP     C  618 59.09                             152   -0.0410 75.1 299 
 BRR  HN ES        619 16.36                             152   -0.0410 75.1 299 
 BRR  HZ I         619 18.89         3.3 0.24            152           75.1 299 
 RUS  HZ EP   1    619  1.25                             146   -0.03 7 98.2 178 
 RUS  HN ES   1    619 20.48                             146    0.25 7 98.2 178 
 RUS  HZ I         619 21.70         1.8 0.26            148           98.2 178 
 PTB  HZ EP        619  4.44                             133   -0.36 9  151 260 
 PTB  HE ES        619 26.66                             133    0.18 9  151 260 
 PTB  HZ I         619 28.34         2.1 0.12            133            151 260 
 SPBC HZ EP        619  6.33                             131    0.25 9  164 220 
 SPBC HN ES        619 28.65                             131   -0.12 9  164 220 
 SPBC HZ I         619 30.99         3.2 0.23            131            164 220 
 SML  HZ EP        619 14.59                             118    0.20 8  247 335 
 SML  HN ES   1    619 43.64                             118    0.08 6  247 335 
 SML  HZ I         619 46.84         2.1 0.06            119            247 335 
                                                                                
