 2017  917 0608 17.0 L   7.147 -73.454 14.0  RSN  4 0.5 1.2LRSN                1
 GAP=230        1.21      12.2     8.6  8.0  0.9614E+02 -0.3190E+02 -0.5387E+02E
 Epicentro: LEBRIJA - SANTANDER                                                3
 ACTION:UPD 17-10-05 19:13 OP:rebc STATUS:               ID:20170917060817 L   I
 OLDACT:DUP 17-09-17 14:36 OP:lv   STATUS:               ID:20170917055743d    3
 2017-09-17-0558-00M.COL___408                                                 6
 STAT SP IPHASW D HRMM SECON CODA AMPLIT PERI AZIMU VELO AIN AR TRES W  DIS CAZ7
 BRR  HZ IP     D  6 8 22.26                             112   -0.0110 28.8 261 
 BRR  HE ES        6 8 26.52                             112    0.1610 28.8 261 
 BRR  HZ I         6 8 27.39        21.9 0.14            104           28.8 261 
 BAR2 EZ EP        6 8 28.33                              99    0.0010 68.4 154 
 BAR2 EZ ES        6 8 36.37                              99   -0.7910 68.4 154 
 BAR2 EZ I         6 8 38.25        13.8 0.18             97           68.4 154 
 RUS  HZ EP        6 8 40.91                              94    0.81 9  145 164 
 RUS  HN ES        6 8 58.45                              94    0.35 9  145 164 
 RUS  HZ I         6 9  0.30         2.5 0.30             56            145 164 
 ZAR  HN ES        6 8 59.93                              56   -0.46 9  160 284 
                                                                                
