 2011  217 0334  9.0 L   6.757 -73.149136.8  RSN  7 0.4 1.6LRSN                1
 GAP=159        0.79       4.5     8.9  9.0 -0.2267E+02  0.3793E+02 -0.1066E+02E
 Epicentro: LOS SANTOS - SANTANDER                                             3
 ACTION:UP  11-03-28 15:09 OP:jfem STATUS:               ID:20110217033409 L   I
 2011-02-17-0331-10S.COL___137                                                 6
 STAT SP IPHASW D HRMM SECON CODA AMPLIT PERI AZIMU VELO SNR AR TRES W  DIS CAZ7
 BAR2 SZ EP   2    334 27.79                             172     0.4 5   19 192 
 BAR2 SZ ES   2    334 42.59                             172     0.8 5   19 192 
 BAR2 SZ I         334 48.11        11.5 0.63                            19 192 
 RUS  HZ EP   1    334 31.74                             143     0.2 7   96 176 
 RUS  HN ES   1    334 48.28                             143    -0.8 7   96 176 
 GRA  SZ EP   1    334 33.88                             133     0.0 7  130  17 
 GRA  SZ ES   1    334 53.24                             133     0.0 7  130  17 
 GRA  SZ I         334 54.96         5.7 0.50                           130  17 
 OCA  SZ EP   1    334 36.64                             126    -0.4 7  165 353 
 NOR  SZ EP   1    334 43.98                             117     0.1 6  232 235 
 NOR  SN ES   1    335 11.07                             117     0.0 6  232 235 
 CHI  HZ EP   1    334 46.14                             115     0.5 6  244 195 
 CHI  HE ES   2    335 14.49                             115     0.2 4  244 195 
 CHI  HZ I         335 19.26         1.5 0.95                           244 195 
 RREF HZ EP   2    334 54.01                             109    -0.3 3  318 230 
 RREF HZ I         335 40.43         2.9 0.21                           318 230 
                                                                                
