 2017 1017 0741 55.0 L   6.822 -73.164148.8  RSN  9 0.4 1.5LRSN                1
 GAP=168        1.01       4.4     4.4  6.3  0.3817E+01  0.1963E+01  0.6564E+01E
 Epicentro: LOS SANTOS - SANTANDER                                             3
 ACTION:UPD 17-11-07 19:32 OP:rebc STATUS:               ID:20171017074155 L   I
 OLDACT:UP  17-10-17 15:46 OP:dani STATUS:               ID:20171017073734     3
 OLDACT:UP  17-10-17 15:45 OP:dani STATUS:               ID:20171017073734     3
 OLDACT:REG 17-10-17 12:44 OP:dani STATUS:               ID:20171017073734     3
 2017-10-17-0738-00M.COL___416                                                 6
 STAT SP IPHASW D HRMM SECON CODA AMPLIT PERI AZIMU VELO AIN AR TRES W  DIS CAZ7
 BAR2 EZ EP        742 14.92                             170   -0.1310 25.5 185 
 BAR2 EZ ES        742 30.52                             170   -0.1610 25.5 185 
 BAR2 EZ I         742 31.38         8.6 0.42            170           25.5 185 
 BRR  HZ EP        742 16.58                             154    0.2510 68.3 298 
 BRR  HN ES        742 33.68                             154    0.7210 68.3 298 
 BRR  HZ I         742 35.56         5.0 0.09            151           68.3 298 
 RUS  HE ES        742 38.06                             144   -0.1010  103 175 
 PTB  HZ EP        742 21.51                             133   -0.59 9  146 258 
 PTB  HN ES        742 42.43                             133   -0.80 9  146 258 
 PTB  HZ I         742 44.43         3.4 0.40            131            146 258 
 TAM  HZ EP        742 23.20                             131    0.03 9  158 106 
 ZAR  HZ EP   2    742 26.65                             123   -0.72 4  201 292 
 ZAR  HN ES        742 52.79                             123    0.18 9  201 292 
 ZAR  HZ I         743  1.55         3.3 0.37            122            201 292 
 NOR  HE ES        742 59.40                             119    0.51 8  235 234 
 CHI  HZ EP        742 33.38                             118    0.30 8  251 195 
 CHI  HN ES        743  2.40                             118   -0.38 8  251 195 
 CHI  HZ I         743  6.77         2.0 0.07            118            251 195 
 PRA  HZ EP        742 49.16                             107    0.39 6  393 209 
 PRA  HN ES        743 31.27                             107    0.56 6  393 209 
 PRA  HZ ES        743 32.03                                            393 209 
                                                                                
