 2016 1117 0722 37.8 L   6.722 -73.145145.2  RSN  5 0.2 1.1LRSN                1
 GAP=160        0.60       5.7     3.4  4.8 -0.7862E+01  0.2040E+01  0.1974E+01E
 Epicentro: JORDAN - SANTANDER                                                 3
 ACTION:UPD 17-10-26 21:09 OP:lp   STATUS:               ID:20161117072237 L   I
 OLDACT:REG 16-11-17 12:51 OP:and  STATUS:               ID:20161117071632     3
 2016-11-17-0718-00M.COL___340                                                 6
 STAT SP IPHASW D HRMM SECON CODA AMPLIT PERI AZIMU VELO AIN AR TRES W  DIS CAZ7
 BAR2 EZ EP        722 57.44                             173    0.2010 15.0 196 
 BAR2 EZ ES        723 12.56                             173    0.1710 15.0 196 
 BAR2 EZ I         723 14.93         6.2 0.32            173           15.0 196 
 BRR  HZ EP        722 59.34                             151    0.1710 75.7 304 
 BRR  HE ES        723 15.59                             151   -0.2310 75.7 304 
 PAM  EZ EP        723  0.02                             149   -0.3710 84.2  36 
 PAM  EN ES        723 18.10                             149    0.1010 84.2  36 
 PAM  EZ I         723 21.88         1.5 0.42            152           84.2  36 
 PTB  HZ EP        723  4.65                             132    0.03 9  146 262 
 PTB  HN ES        723 25.33                             132   -0.19 9  146 262 
 PTB  HZ I         723 32.03         1.5 0.33            134            146 262 
 ZAR  HN ES   2    723 36.76                             122    0.62 4  207 294 
                                                                                
