 2010 1117 0302 26.3 L   6.869 -73.024145.3  RSN  6 0.1 1.8LRSN                1
 GAP=171        0.36       1.7     4.3  3.7 -0.1531E+00 -0.3552E-01  0.4306E+00E
 Epicentro: CEPITA - SANTANDER                                                 3
 ACTION:UP  10-12-17 16:53 OP:REBC STATUS:               ID:20101117030226 L   I
 2010-11-17-0259-47S.COL___128                                                 6
 STAT SP IPHASW D HRMM SECON CODA AMPLIT PERI AZIMU VELO SNR AR TRES W  DIS CAZ7
 BAR2 SZ IP        3 2 46.42                             166     0.210   35 210 
 BAR2 SZ I         3 2 46.96        15.0 0.38                            35 210 
 BAR2 SZ ES   1    3 3  1.68                             166     0.0 7   35 210 
 BRR  HZ IP     C  3 2 47.99                             149     0.010   80 289 
 BRR  HN ES   1    3 3  4.83                             149     0.0 7   80 289 
 BRR  HZ I         3 3  8.50        23.3 0.17                            80 289 
 RUS  HZ EP   1    3 2 50.68                             141     0.1 7  108 183 
 RUS  HZ I         3 2 51.57         3.6 0.12                           108 183 
 RUS  HN ES   1    3 3  9.40                             141    -0.1 7  108 183 
 GRA  SZ ES   1    3 3  9.45                             139    -0.2 7  115  12 
 GRA  SZ I         3 3 12.03        22.1 0.38                           115  12 
 OCA  SZ EP   2    3 2 53.99                             130    -0.1 5  155 348 
 OCA  SZ ES   1    3 3 15.82                             130     0.0 7  155 348 
 OCA  SZ I         3 3 17.30         6.8 0.23                           155 348 
 PRA  HZ EP   2    3 3 21.31                             106    -0.1 3  405 211 
 PRA  HE ES   2    3 4  3.98                             106    -0.4 3  405 211 
                                                                                
