 2013  817 0408 30.9 L   6.784 -73.118144.8  RSN  7 0.3 1.6LRSN                1
 GAP=141        0.82       2.8     4.1  5.2 -0.8393E+00  0.4973E+01 -0.1240E+01E
 Epicentro: LOS SANTOS - SANTANDER                                             3
 2013-08-17-0358-48M.COL___216                                                 6
 OLDACT:REG 13-08-17 08:26 OP:stll STATUS:               ID:20130817035848     3
 ACTION:UPD 14-01-14 09:03 OP:ep   STATUS:               ID:20130817040830 L   I
 OLDACT:UP  13-08-17 13:14 OP:stll STATUS:               ID:20130817035848     3
 STAT SP IPHASW D HRMM SECON CODA AMPLIT PERI AZIMU VELO AIN AR TRES W  DIS CAZ7
 BAR2 SZ EP        4 8 50.50                             171    0.1110 22.4 198 
 BAR2 SZ ES        4 9  5.24                             171   -0.3510 22.4 198 
 BAR2 SZ I         4 9  8.09         7.0 0.28            170           22.4 198 
 BRR  HZ EP        4 8 52.55                             151    0.4110 74.7 299 
 BRR  HN ES        4 9  9.04                             151    0.3310 74.7 299 
 BRR  HZ I         4 9 11.39         4.9 0.14            149           74.7 299 
 PAM  SZ EP        4 8 53.09                             151    0.1110 76.9  37 
 PAM  SN ES        4 9  9.84                             151   -0.3610 76.9  37 
 PAM  SZ I         4 9 12.54         3.6 0.24            154           76.9  37 
 RUS  HZ EP        4 8 54.07                             144   -0.3410 98.7 178 
 RUS  HN ES        4 9 12.84                             144    0.0910 98.7 178 
 RUS  SZ I         4 9 14.08         5.1 0.32            147           98.7 178 
 OCA  HZ EP        4 8 59.45                             129    0.12 9  162 352 
 OCA  HN ES        4 9 21.85                             129    0.34 9  162 352 
 OCA  SZ I         4 9 24.84         5.8 0.74            131            162 352 
 SPBC HZ EP        4 8 59.45                             129    0.08 9  164 220 
 SPBC HN ES        4 9 21.92                             129    0.34 9  164 220 
 SPBC SZ I         4 9 26.34         7.2 0.20            130            164 220 
 ZAR  HZ EP        4 9  3.14                             122   -0.50 8  208 292 
 ZAR  HN ES        4 9 28.65                             122   -0.52 8  208 292 
 ZAR  SZ I         4 9 36.62         4.9 0.42            122            208 292 
                                                                                
