 2012  917 0227 39.0 L   6.773 -73.153147.0  RSN  5 0.4 1.8LRSN                1
 GAP=137        0.82       6.4     6.5  9.2 -0.3329E+01  0.2245E+02 -0.3325E+01E
 Epicentro: LOS SANTOS - SANTANDER                                             3
 ACTION:UPD 12-10-22 14:19 OP:ep   STATUS:               ID:20120917022739 L   I
 2012-09-17-0220-00M.COL___227                                                 6
 STAT SP IPHASW D HRMM SECON CODA AMPLIT PERI AZIMU VELO AIN AR TRES W  DIS CAZ7
 BAR2 SZ EP   1    227 58.95                             172    0.28 7 20.2 189 
 BAR2 SZ ES   1    228 14.05                             172    0.00 7 20.2 189 
 BAR2 SZ I         228 15.30        24.9 0.84                          20.2 189 
 BRR  HZ EP        228  0.62                             152    0.3410 72.0 301 
 BRR  HN ES   1    228 17.42                             152    0.51 7 72.0 301 
 BRR  HZ I         228 20.84        16.4 0.16                          72.0 301 
 PAM  SE ES   1    228 18.43                             150   -0.60 7 80.2  39 
 RUS  HE ES   1    228 21.12                             145    0.05 7 97.6 175 
 PTB  HZ EP   1    228  5.48                             132   -0.42 7  146 260 
 PTB  HE ES   1    228 26.39                             132   -0.53 7  146 260 
 PTB  HZ I         228 30.31         3.9 0.14                           146 260 
                                                                                
