 2016  517 0624  8.4 L   6.832 -73.145143.2  RSN 12 0.5 2.1LRSN                1
 GAP=135        1.14       3.2     4.7  6.2 -0.2448E+01  0.1002E+02  0.2705E+01E
 Epicentro: LOS SANTOS - SANTANDER                                             3
 ACTION:UPD 16-08-18 17:46 OP:cam  STATUS:               ID:20160517062408 L   I
 OLDACT:UP  16-05-17 18:41 OP:mh   STATUS:               ID:20160517061755d    3
 OLDACT:UP  16-05-17 18:40 OP:mh   STATUS:               ID:20160517061755d    3
 OLDACT:DUP 16-05-17 18:35 OP:mh   STATUS:               ID:20160517061755d    3
 OLDACT:REG 16-05-17 13:54 OP:mh   STATUS:               ID:20160517061753     3
 2016-05-17-0618-00M.COL___426                                                 6
 STAT SP IPHASW D HRMM SECON CODA AMPLIT PERI AZIMU VELO AIN AR TRES W  DIS CAZ7
 BAR2 EZ EP     C  624 27.73                             169   -0.0610 26.9 189 
 BAR2 EZ ES        624 42.62                             169   -0.3010 26.9 189 
 BRR  HZ IP     C  624 29.55                             153    0.3810 69.6 296 
 BRR  HN ES        624 46.18                             153    0.8010 69.6 296 
 BRR  HZ I         624 49.89        17.8 0.12            151           69.6 296 
 PAM  EZ EP        624 30.61                             151    0.4410 74.6  41 
 PAM  EN ES        624 46.58                             151   -0.5710 74.6  41 
 PAM  EZ I         624 49.55        24.3 0.68            155           74.6  41 
 RUS  HZ EP        624 31.76                             142   -0.3910  104 176 
 RUS  HN ES        624 50.93                             142    0.2510  104 176 
 RUS  HZ I         624 51.64        11.2 0.30            145            104 176 
 OCA  HZ EP        624 36.88                             130    0.71 9  157 353 
 OCA  HN ES        624 57.38                             130   -0.45 9  157 353 
 OCA  HZ I         625  1.71        29.5 0.30            132            157 353 
 SPBC HZ EP        624 36.48                             128   -0.48 9  166 218 
 SPBC HN ES        624 58.77                             128   -0.48 9  166 218 
 SPBC HZ I         625  4.74        21.2 0.22            129            166 218 
 ZAR  HZ EP        624 40.23                             122   -0.31 9  203 291 
 ZAR  HN ES        625  5.82                             122    0.20 9  203 291 
 ZAR  HZ I         625 12.10        14.2 0.46            123            203 291 
 NOR  HZ EP        624 43.66                             118   -0.54 8  237 234 
 NOR  HN ES        625 11.88                             118   -0.26 8  237 234 
 NOR  HZ I         625 13.44        14.7 0.20            119            237 234 
 CHI  HZ EP        624 46.45                             116    0.13 8  252 195 
 CHI  HN ES        625 16.88                             116    0.97 8  252 195 
 CHI  HZ I         625 19.56         5.5 0.44            118            252 195 
 CBOC HZ EP        624 55.03                             109   -0.30 7  335 252 
 CBOC HN ES        625 31.50                             109   -0.45 7  335 252 
 ORTC HZ EP   1    625  2.99                             106    0.43 4  398 216 
 ORTC HN ES        625 45.45                             106    0.63 6  398 216 
 ORTC HZ I         625 50.22         3.4 0.36            107            398 216 
 SJC  HZ EP   4    625  2.28                             105   -1.24 0  406 327 
 SJC  HN ES   4    625 41.37                             105   -5.15 0  406 327 
 SJC  HZ I         625 47.40         2.3 0.44            107            406 327 
                                                                                
