 2012  317 0733 35.1 L   6.687 -73.187154.0  RSN  5 0.3 1.8LRSN                1
 GAP=140        0.72      10.4     6.0  8.3  0.1382E+02  0.4625E+01 -0.3616E+01E
 ACTION:UP  12-03-31 23:20 OP:EP   STATUS:               ID:20120317073335 L   I
 2012-03-17-0730-00M.COL___202                                                 6
 STAT SP IPHASW D HRMM SECON CODA AMPLIT PERI AZIMU VELO SNR AR TRES W  DIS CAZ7
 BAR2 SZ EP   1    733 55.86                             176     0.3 7   10 177 
 BAR2 SZ ES   1    734 11.09                             176    -0.4 7   10 177 
 BAR2 SZ I         734 13.31         8.7 0.13                            10 177 
 BRR  HZ EP   1    733 57.66                             153     0.4 7   74 309 
 BRR  HZ I         733 57.90        14.0 0.09                            74 309 
 BRR  HN ES   1    734 14.83                             153     0.2 7   74 309 
 PAM  SZ EP   2    733 58.79                             148    -0.2 5   90  37 
 PTB  HZ EP   1    734  1.72                             135    -0.5 7  141 263 
 PTB  HN ES   1    734 23.59                             135     0.3 7  141 263 
 ZAR  HE ES   1    734 33.63                             124    -0.4 6  205 296 
                                                                                
