 2017  117 0925 14.4 L   6.817 -73.022152.9  RSN  7 0.2 1.3LRSN                1
 GAP=251        0.95       5.1     8.1  6.1  0.1496E+02 -0.2227E+01  0.1623E+01E
 Epicentro: CEPITA - SANTANDER                                                 3
 ACTION:UPD 17-05-22 16:00 OP:jn   STATUS:               ID:20170117092514 L   I
 OLDACT:UP  17-01-17 16:30 OP:edw  STATUS:               ID:20170117091747     3
 OLDACT:REG 17-01-17 13:47 OP:dani STATUS:               ID:20170117091747     3
 2017-01-17-0918-00M.COL___329                                                 6
 STAT SP IPHASW D HRMM SECON CODA AMPLIT PERI AZIMU VELO AIN AR TRES W  DIS CAZ7
 BAR2 EZ IP     D  925 35.07                             170    0.0710 30.5 216 
 BAR2 EZ ES        925 50.88                             170   -0.2210 30.5 216 
 BAR2 EZ I         925 51.15         5.0 0.28            168           30.5 216 
 BRR  HZ EP        925 37.19                             151    0.2510 82.7 293 
 BRR  HE ES        925 54.59                             151    0.0310 82.7 293 
 RUS  HZ EP        925 38.97                             145    0.0310  102 184 
 RUS  HN ES        925 58.02                             145   -0.1010  102 184 
 RUS  HZ I         925 58.82         1.7 0.36            144            102 184 
 PTB  HZ EP   9    925 41.73                             131   -1.42 0  162 259 
 PTB  HN ES        926  3.10                             132   -1.10 9  162 259 
 PTB  HZ I         926  6.41         1.6 0.14            130            162 259 
 ZAR  HZ EP        925 48.21                             122   -0.29 8  216 290 
 ZAR  HN ES   4    926 13.05                             122   -2.09 0  216 290 
 ZAR  HZ I         926 15.59         2.1 0.34            122            216 290 
 CHI  HZ EP        925 53.48                             118    0.42 8  254 198 
 CHI  HN ES        926 23.00                             118   -0.26 8  254 198 
 GUY2CHZ EP   4    926  1.43                             112    1.75 0  313 236 
 GUY2CHE ES   2    926 35.35                             112    0.32 3  313 236 
 GUY2CHZ I         926 41.79         1.1 0.46                           313 236 
                                                                                
