 2010  317 0132 50.3 L   6.799 -73.038142.7  RSN  5 0.3 1.7LRSN                1
 GAP=194        0.48       5.9    12.4  6.2  0.3873E+02 -0.1259E+02 -0.1295E+00E
 Epicentro: CEPITA - SANTANDER                                                 3
 ACTION:UP  10-08-24 09:54 OP:vdl  STATUS:               ID:20100317013250 L   I
 2010-03-17-0130-43S.COL___098                                                 6
 STAT SP IPHASW D HRMM SECON CODA AMPLIT PERI AZIMU VELO SNR AR TRES W  DIS CAZ7
 BAR2 SZ EP        133  9.71                             168     0.010   28 215 
 BAR2 SZ ES   1    133 24.47                             168    -0.3 7   28 215 
 BRR  HZ EP   2    133 11.50                             148    -0.3 5   82 295 
 BRR  HN ES   2    133 28.77                             148     0.3 5   82 295 
 BRR  HZ I         133 33.72        18.0 0.20                            82 295 
 RUS  HZ EP   2    133 14.12                             143     0.4 5  100 183 
 RUS  HN ES   2    133 32.22                             143     0.2 5  100 183 
 RUS  HZ I         133 32.88         5.5 0.41                           100 183 
 OCA  SZ ES   3    133 40.90                             128     0.3 2  162 349 
 CHI  HZ EP   2    133 27.76                             116    -0.4 4  252 198 
 CHI  HE ES   3    133 58.06                             116     0.3 2  252 198 
 CHI  HZ I         134  0.38         2.0 0.24                           252 198 
                                                                                
