 2015  617 0854 21.8 L   6.783 -73.120148.0  RSN 11 0.4 1.8LRSN                1
 GAP=167        0.99       2.7     4.0  5.2  0.1462E+01  0.4112E+01  0.1711E+01E
 Epicentro: LOS SANTOS - SANTANDER                                             3
 ACTION:UPD 15-09-10 22:13 OP:cam  STATUS:               ID:20150617085421 L   I
 OLDACT:UP  15-06-17 18:32 OP:drio STATUS:               ID:20150617084748     3
 OLDACT:REG 15-06-17 13:00 OP:drio STATUS:               ID:20150617084748     3
 2015-06-17-0847-48M.COL___315                                                 6
 STAT SP IPHASW D HRMM SECON CODA AMPLIT PERI AZIMU VELO AIN AR TRES W  DIS CAZ7
 BAR2 EZ EP        854 41.71                             171    0.0410 22.1 198 
 BAR2 EZ ES        854 56.77                             171   -0.4010 22.1 198 
 BAR2 EZ I         854 57.91        10.6 0.20            170           22.1 198 
 BRR  HZ EP        854 43.63                             152    0.2510 74.6 299 
 BRR  HN ES        855  0.53                             152    0.3210 74.6 299 
 BRR  HZ I         855  3.80         9.8 0.28            150           74.6 299 
 RUS  HZ EP        854 45.75                             145    0.1310 98.5 178 
 RUS  HE ES        855  4.35                             145    0.1510 98.5 178 
 RUS  HZ I         855  7.18         3.7 0.32            147           98.5 178 
 OCA  HZ EP        854 51.17                             130    0.68 9  163 352 
 OCA  HE ES        855 13.08                             130    0.20 9  163 352 
 OCA  HZ I         855 20.16        15.6 0.24            130            163 352 
 ZAR  HZ EP        854 54.73                             122   -0.00 8  207 292 
 ZAR  HN ES        855 19.54                             122   -0.88 8  207 292 
 ZAR  HZ I         855 24.44         5.9 0.38            122            207 292 
 NOR  HZ EP        854 57.13                             119   -0.65 8  236 235 
 NOR  HE ES        855 26.22                             119    0.37 8  236 235 
 NOR  HZ I         855 33.65         3.4 0.22            119            236 235 
 SML  HZ EP        854 58.30                             118   -0.57 8  247 335 
 SML  HN ES        855 27.45                             118   -0.33 8  247 335 
 SML  HZ I         855 35.06         7.9 0.10            118            247 335 
 HEL  HZ EP        855  3.27                             115    0.89 8  274 256 
 HEL  HN ES        855 33.68                             115   -0.35 8  274 256 
 HEL  HZ I         855 39.84         3.8 0.38            115            274 256 
 GUY2CHZ EP        855  5.80                             113    0.15 7  302 235 
 GUY2CHN ES        855 40.11                             113    0.26 7  302 235 
 GUY2CHZ I         855 48.07         2.6 0.52                           302 235 
 PTGC HZ EP        855  4.91                             112   -0.52 7  306 159 
 PTGC HN ES        855 38.98                             112   -0.49 7  306 159 
 PRA  HZ EP        855 15.71                             107    0.35 6  392 210 
 PRA  HE ES        855 57.24                             107    0.10 6  392 210 
 PRA  HZ I         856  3.80         2.9 0.26            108            392 210 
                                                                                
