 2015  317 0711 49.4 L   6.766 -73.148146.1  RSN  8 0.4 1.6LRSN                1
 GAP= 72        1.09       4.0     3.8  6.9 -0.1654E+01 -0.5444E-01  0.3043E+01E
 Epicentro: LOS SANTOS - SANTANDER                                             3
 ACTION:UPD 15-04-30 16:26 OP:nd   STATUS:               ID:20150317071149 L   I
 OLDACT:REG 15-03-17 12:51 OP:stll STATUS:               ID:20150317070740     3
 2015-03-17-0707-40M.COL___263                                                 6
 STAT SP IPHASW D HRMM SECON CODA AMPLIT PERI AZIMU VELO AIN AR TRES W  DIS CAZ7
 BAR2 EZ EP        712  8.82                             172   -0.1310 19.6 191 
 BAR2 EZ ES        712 24.20                             172   -0.0410 19.6 191 
 BAR2 EZ I         712 25.79         7.7 0.32            173           19.6 191 
 BRR  HZ EP        712 10.74                             152    0.1110 72.9 301 
 BRR  HZ I         712 11.00        10.7 0.16            152           72.9 301 
 BRR  HN ES        712 27.88                             152    0.6510 72.9 301 
 PAM  SZ EP        712 11.58                             150   -0.2110 80.5  38 
 PAM  SN ES        712 28.76                             150   -0.5310 80.5  38 
 PAM  SZ I         712 30.45         5.3 0.20            151           80.5  38 
 RUS  HZ EP        712 12.88                             145    0.0110 96.8 176 
 RUS  HN ES        712 31.17                             145   -0.0510 96.8 176 
 RUS  HZ I         712 32.32         3.9 0.28            146           96.8 176 
 PTB  HZ EP        712 15.56                             132   -0.70 9  147 260 
 PTB  HN ES        712 36.49                             132   -0.76 9  147 260 
 PTB  HZ I         712 38.56         4.8 0.38            133            147 260 
 TAM  HZ EP        712 17.10                             131    0.11 9  154 104 
 TAM  HZ I         712 17.11         7.5 0.34            132            154 104 
 TAM  HN ES        712 38.65                             131    0.10 9  154 104 
 SPBC HZ EP        712 18.20                             130    0.61 9  160 220 
 SPBC HN ES        712 40.04                             130    0.43 9  160 220 
 SPBC HZ I         712 42.24         7.0 0.30            131            160 220 
 OCA  HN ES        712 40.93                             129    0.52 9  164 353 
 OCA  HZ I         712 43.74         6.8 0.32            130            164 353 
                                                                                
