 2016 1017 0120 24.3 L   6.783 -73.149138.0  RSN  9 0.5 1.6LRSN                1
 GAP=137        1.11       4.4     5.4  7.4 -0.9212E+01  0.4664E+01  0.2281E+00E
 Epicentro: LOS SANTOS - SANTANDER                                             3
 ACTION:UPD 16-11-09 19:20 OP:rebc STATUS:               ID:20161017012024 L   I
 OLDACT:REG 16-10-17 11:31 OP:and  STATUS:               ID:20161017011729     3
 2016-10-17-0118-00M.COL___353                                                 6
 STAT SP IPHASW D HRMM SECON CODA AMPLIT PERI AZIMU VELO AIN AR TRES W  DIS CAZ7
 BAR2 EZ IP     C  120 42.94                             171   -0.0110 21.4 190 
 BAR2 EZ ES        120 57.62                             171    0.1110 21.4 190 
 BAR2 EZ I         120 58.49        15.0 0.30            171           21.4 190 
 BRR  HZ EP        120 44.87                             151    0.2310 71.8 300 
 BRR  HN ES        121  1.56                             151    1.0410 71.8 300 
 PAM  EZ EP        120 45.76                             149   -0.0310 79.0  39 
 PAM  EN ES        121  2.40                             149   -0.1610 79.0  39 
 PAM  EZ I         121  5.00         8.5 0.58            151           79.0  39 
 RUS  HZ EP        120 47.28                             143    0.1210 98.8 176 
 RUS  HN ES   2    121  4.42                             143   -0.57 5 98.8 176 
 RUS  HZ I         121  6.99         5.1 0.30            144           98.8 176 
 PTB  HZ EP        120 50.00                             131   -0.57 9  147 260 
 PTB  HN ES        121 10.42                             131   -0.65 9  147 260 
 PTB  HZ I         121 13.36         4.9 0.12            132            147 260 
 OCA  HZ EP        120 52.53                             128    0.34 9  162 353 
 OCA  HN ES        121 13.29                             128   -0.65 9  162 353 
 SPBC HN ES        121 13.59                             128   -0.11 9  162 219 
 NOR  HN ES   2    121 26.88                             117    0.03 4  233 235 
 GUY2CHZ EP   2    121  8.28                             111    0.88 4  300 235 
 GUY2CHN ES   2    121 42.10                             111    1.08 4  300 235 
 GUY2CHZ I         121 48.28         2.0 0.24                           300 235 
                                                                                
