 2010  517 0125 31.9 L   7.029 -73.193155.8  RSN  4 0.1 1.4LRSN                1
 GAP=249        0.34       7.5     7.0  5.8 -0.3677E+02 -0.1126E+02  0.3593E+01E
 Epicentro: GIRON - SANTANDER                                                  3
 ACTION:UP  10-08-24 10:05 OP:vdl  STATUS:               ID:20100517012531 L   I
 2010-05-17-0123-59S.COL___108                                                 6
 STAT SP IPHASW D HRMM SECON CODA AMPLIT PERI AZIMU VELO AIN AR TRES W  DIS CAZ7
 BRR  HZ EP        125 53.41                             159    -0.110   58 279 
 BRR  HN ES   2    126 10.45                             159     0.1 5   58 279 
 BRI  SZ EP        125 55.30                             149     0.010   88  30 
 GUE  SZ EP        125 56.01                             148     0.110   93  18 
 GUE  SZ ES   2    126 14.49                             148    -0.1 5   93  18 
 OCA  SZ EP        125 58.72                             137     0.010  135 354 
 OCA  SZ I         126 26.31         3.1 0.12                           135 354 
                                                                                
