 2011  717 0319 22.3 L   6.768 -73.093150.9  RSN  6 0.2 1.5LRSN                1
 GAP=165        0.46       2.8     6.0  4.1 -0.6322E+00 -0.6523E+01 -0.1886E+00E
 Epicentro: LOS SANTOS - SANTANDER                                             3
 ACTION:UPD 12-07-25 14:01 OP:epov STATUS:               ID:20110717031922 L   I
 2011-07-17-0317-09S.COL___143                                                 6
 STAT SP IPHASW D HRMM SECON CODA AMPLIT PERI AZIMU VELO AIN AR TRES W  DIS CAZ7
 BAR2 SZ EP   1    319 42.34                             171   -0.22 7 21.8 207 
 BAR2 SZ ES   1    319 58.43                             171    0.10 7 21.8 207 
 BAR2 SZ I         320  0.38         5.5 0.23                          21.8 207 
 BTL  SZ EP   1    319 42.64                             170    0.01 7 25.4 311 
 BTL  SZ ES   1    319 58.24                             170   -0.22 7 25.4 311 
 GIR2 SZ EP   1    319 42.52                             166   -0.24 7 36.1 342 
 GIR2 SZ ES   1    319 58.77                             166    0.08 7 36.1 342 
 BRR  HZ EP   1    319 44.40                             151   -0.03 7 78.0 299 
 BRR  HN ES   1    320  1.81                             151    0.15 7 78.0 299 
 BRR  HZ I         320  3.84         8.4 0.22                          78.0 299 
 RUS  HZ EP   1    319 46.21                             146   -0.13 7 96.8 179 
 RUS  HN ES   1    320  5.26                             146    0.20 7 96.8 179 
 RUS  HZ I         320  6.01         3.2 0.29                          96.8 179 
 GRA  SZ EP   1    319 48.70                             138    0.51 7  128  14 
 GRA  SZ ES   1    320  8.19                             138   -0.16 7  128  14 
 GRA  SZ I         320 10.08         3.5 0.31                           128  14 
                                                                                
