 2013  117 0421 24.3 L   6.300 -73.703104.5  RSN  6 0.4 1.0LRSN                1
 GAP=164        0.85       5.3     4.1 10.5  0.5943E+01  0.7783E+01 -0.2371E+01E
 Epicentro: SANTA HELENA DEL OPON - SANTANDER                                  3
 ACTION:UPD 13-02-15 09:14 OP:ep   STATUS:               ID:20130117042124 L   I
 2013-01-17-0420-00M.COL___241                                                 6
 STAT SP IPHASW D HRMM SECON CODA AMPLIT PERI AZIMU VELO AIN AR TRES W  DIS CAZ7
 BAR2 SZ EP   1    421 41.44                             145    0.25 7 66.0  61 
 BAR2 SZ ES   1    421 54.25                             145   -0.08 7 66.0  61 
 RUS  HZ EP   1    421 42.72                             139   -0.02 7 82.0 123 
 RUS  HN ES   1    421 57.52                             139    0.42 7 82.0 123 
 RUS  HZ I         421 57.84         1.7 0.34            141           82.0 123 
 PTB  HZ EP   1    421 42.16                             137   -0.37 7 87.5 288 
 PTB  HE ES   1    421 56.11                             137   -0.61 7 87.5 288 
 PTB  HZ I         421 57.46         2.1 0.08            139           87.5 288 
 BRR  HZ EP   1    421 42.73                             136    0.07 7 89.3 359 
 BRR  HN ES   1    421 57.26                             136    0.32 7 89.3 359 
 BRR  HZ I         421 58.08         5.1 0.40            138           89.3 359 
 PAM  SN ES   1    422  9.67                             119   -0.69 7  160  44 
 PAM  SZ I         422 10.56         1.9 0.32            121            160  44 
 ZAR  HE ES   1    422 14.67                             114    0.77 7  184 316 
                                                                                
