 2015 1217 0638 47.5 L   6.796 -73.148152.9  RSN 14 0.4 2.2LRSN                1
 GAP=136        1.06       3.0     3.7  5.5 -0.2379E+01  0.7497E+01 -0.1741E+01E
 Epicentro: LOS SANTOS - SANTANDER                                             3
 ACTION:UPD 16-02-04 15:05 OP:cam  STATUS:               ID:20151217063847 L   I
 OLDACT:REG 15-12-17 13:46 OP:cara STATUS:               ID:20151217063747     3
 2015-12-17-0637-47M.COL___334                                                 6
 STAT SP IPHASW D HRMM SECON CODA AMPLIT PERI AZIMU VELO AIN AR TRES W  DIS CAZ7
 BAR2 EZ IP     D  639  7.98                             171   -0.0010 22.9 190 
 BAR2 EZ ES        639 23.68                             171   -0.2710 22.9 190 
 BAR2 EZ I         639 25.80        27.4 0.26            170           22.9 190 
 BRR  HZ EP        639  9.90                             154    0.4810 71.2 299 
 BRR  HN ES        639 27.38                             154    0.8610 71.2 299 
 BRR  HZ I         639 29.91        18.7 0.20            150           71.2 299 
 PAM  EZ EP        639 10.81                             152    0.3010 77.8  39 
 PAM  EN ES        639 28.26                             152   -0.1910 77.8  39 
 PAM  EZ I         639 30.28        12.2 0.46            156           77.8  39 
 RUS  HZ EP        639 11.67                             145   -0.2610  100 176 
 RUS  HN ES        639 30.91                             145   -0.0810  100 176 
 RUS  HZ I         639 33.19        13.2 0.60            149            100 176 
 PTB  HZ EP        639 14.31                             134   -0.72 9  147 259 
 PTB  HN ES        639 35.66                             134   -0.84 9  147 259 
 PTB  HZ I         639 39.50        21.7 0.12            133            147 259 
 OCA  HZ EP        639 16.52                             131    0.11 9  161 353 
 OCA  HE ES        639 38.89                             131   -0.06 9  161 353 
 OCA  HZ I         639 43.00        41.6 0.32            132            161 353 
 SPBC HZ EP        639 16.96                             131    0.45 9  163 219 
 SPBC HE ES        639 39.41                             131    0.27 9  163 219 
 SPBC HZ I         639 46.13        28.1 0.24            132            163 219 
 ZAR  HZ EP        639 20.80                             124    0.39 9  204 292 
 ZAR  HE ES        639 45.91                             124   -0.17 9  204 292 
 ZAR  HZ I         639 52.56        24.6 0.52            124            204 292 
 NOR  HZ EP        639 23.32                             120   -0.29 8  234 235 
 NOR  HE ES        639 51.65                             120   -0.12 8  234 235 
 NOR  HZ I         639 54.35        12.3 0.34            121            234 235 
 SML  HZ EP        639 24.34                             119   -0.22 8  244 335 
 SML  HN ES        639 53.29                             119   -0.18 8  244 335 
 SML  HZ I         639 59.32        27.6 0.10            120            244 335 
 HEL  HZ EP   4    639 30.18                             116    2.13 0  272 256 
 HEL  HN ES        640  0.48                             116    0.80 8  272 256 
 HEL  HZ I         640  8.70         7.9 0.40            117            272 256 
 URE  HZ EP        639 28.18                             115   -0.74 7  284 292 
 URE  HN ES        640  1.27                             115    0.05 7  284 292 
 URE  HZ I         640 12.37        15.1 0.16            116            284 292 
 GUY2CHZ EP   4    639 33.12                             114    1.72 0  301 235 
 GUY2CHN ES        640  5.75                             114    0.11 7  301 235 
 GUY2CHZ I         640 15.26         6.4 0.52                           301 235 
 CBOC HZ EP        639 35.46                             111    0.78 7  333 252 
 CBOC HE ES        640 10.95                             111   -0.53 7  333 252 
 CBOC HZ I         640 23.53         2.7 0.46            112            333 252 
                                                                                
