 2010 1217 0430 41.7 L   6.800 -73.124142.3  RSN 12 0.3 2.5LRSN                1
 GAP=162        0.70       3.1     4.0  6.8 -0.4831E+00  0.2689E+01  0.7957E+01E
 Epicentro: LOS SANTOS - SANTANDER                                             3
 ACTION:UP  11-01-14 15:25 OP:pat  STATUS:               ID:20101217043041 L   I
 2010-12-17-0420-00M.COL___137                                                 6
 STAT SP IPHASW D HRMM SECON CODA AMPLIT PERI AZIMU VELO SNR AR TRES W  DIS CAZ7
 BTL  SZ IP        431  1.21                             171     0.310   21 310 
 BAR2 SZ EP        431  0.85                             170    -0.110   24 196 
 BAR2 SZ I         431 16.87       108.2 0.13                            24 196 
 BRR  HZ IP     C  431  2.59                             151    -0.110   73 298 
 BRR  HZ I         431  2.84       149.6 0.13                            73 298 
 BRR  HE ES   1    431 19.37                             151     0.4 7   73 298 
 RUS  HZ EP   1    431  4.88                             143    -0.3 7  100 177 
 RUS  HE ES   1    431 23.17                             143    -0.2 7  100 177 
 RUS  HZ I         431 25.10        29.2 0.33                           100 177 
 OCA  SZ ES   1    431 31.20                             129    -0.5 7  161 352 
 OCA  SZ I         431 34.87        50.2 0.07                           161 352 
 YOP  SZ EP        431 11.68                             126     0.2 9  178 154 
 YOP  SZ I         431 39.50        16.7 0.26                           178 154 
 NOR  SZ EP   1    431 17.37                             117    -0.1 6  237 235 
 NOR  SE ES   1    431 44.97                             117    -0.4 6  237 235 
 CHI  HZ EP   1    431 19.23                             116    -0.1 6  249 196 
 CHI  HE ES   1    431 48.62                             116     0.0 6  249 196 
 CHI  HZ I         431 57.35        11.4 0.56                           249 196 
 ROSC BE ES   1    431 49.79                             116     0.3 6  254 212 
 ROSC BZ I         431 57.87        29.5 0.07                           254 212 
 HEL  HZ EP   1    431 22.67                             114     0.6 6  274 256 
 HEL  HE ES   1    431 53.45                             114     0.0 6  274 256 
 HEL  HZ I         432  0.16        13.0 0.35                           274 256 
 RREF HE ES   1    432  3.75                             110    -0.2 5  324 230 
 RREF HZ I         432 10.57        13.5 0.10                           324 230 
 PRA  HZ EP   1    431 35.00                             106    -0.3 4  393 210 
                                                                                
