 2012 1217 0110 28.0 L   6.759 -73.145142.4  RSN  6 0.4 2.1LRSN                1
 GAP=138        0.89       4.6     5.1  6.1 -0.1826E+01  0.5173E+01  0.4022E+01E
 Epicentro: LOS SANTOS - SANTANDER                                             3
 ACTION:UPD 13-01-04 14:28 OP:ep   STATUS:               ID:20121217011028 L   I
 2012-12-17-0110-00M.COL___238                                                 6
 STAT SP IPHASW D HRMM SECON CODA AMPLIT PERI AZIMU VELO AIN AR TRES W  DIS CAZ7
 BAR2 SZ EP        110 47.24                             172    0.0710 18.9 193 
 BAR2 SZ ES        111  2.08                             172   -0.0310 18.9 193 
 BAR2 SZ I         111  3.88        52.3 0.21                          18.9 193 
 BRR  HZ EP        110 49.18                             151    0.2310 73.5 302 
 BRR  HE ES        111  5.92                             151    0.6510 73.5 302 
 BRR  HZ I         111  9.53        19.2 0.07                          73.5 302 
 PAM  SZ EP        110 50.10                             149   -0.0110 80.9  37 
 PAM  SZ I         110 50.48        18.8 0.21                          80.9  37 
 PAM  SE ES        111  6.82                             149   -0.5010 80.9  37 
 RUS  HZ EP     C  110 51.37                             144    0.2410 96.1 176 
 RUS  HN ES        111  9.14                             144    0.0010 96.1 176 
 RUS  HN I         111 11.50        20.8 0.25                          96.1 176 
 PTB  HZ EP        110 54.24                             131   -0.42 9  147 261 
 PTB  HN ES   1    111 14.73                             131   -0.69 7  147 261 
 PTB  HZ I         111 17.79        13.9 0.16                           147 261 
 PRA  HZ EP        111 21.14                             106    0.16 6  388 210 
                                                                                
