 2017 1017 0258 52.0 L   6.771 -73.151144.4  RSN  4 0.4 1.1LRSN                1
 GAP=137        0.97       5.8     5.3  9.2 -0.6902E+01  0.9646E+01 -0.2202E+01E
 Epicentro: LOS SANTOS - SANTANDER                                             3
 ACTION:UPD 17-11-07 19:32 OP:rebc STATUS:               ID:20171017025852 L   I
 OLDACT:UP  17-10-17 14:13 OP:dani STATUS:               ID:20171017025737     3
 OLDACT:REG 17-10-17 12:24 OP:dani STATUS:               ID:20171017025737     3
 2017-10-17-0258-00M.COL___434                                                 6
 STAT SP IPHASW D HRMM SECON CODA AMPLIT PERI AZIMU VELO AIN AR TRES W  DIS CAZ7
 BRR  HZ EP        259 13.09                             152    0.0210 72.3 301 
 BRR  HE ES        259 30.10                             152    0.5910 72.3 301 
 BRR  HZ I         259 36.35         1.7 0.10            150           72.3 301 
 PAM  EZ EP        259 14.30                             150    0.0510 80.2  38 
 PAM  EN ES        259 31.21                             150   -0.3910 80.2  38 
 PAM  EZ I         259 33.16         4.5 0.52            153           80.2  38 
 RUS  HE ES        259 33.77                             144    0.1210 97.5 176 
 PTB  HZ EP        259 18.98                             132    0.22 9  147 260 
 PTB  HN ES        259 38.98                             132   -0.65 9  147 260 
 PTB  HZ I         259 43.55         1.0 0.56            134            147 260 
                                                                                
