 2017  117 0413  7.2 L   6.788 -73.151142.0  RSN 10 0.5 1.6LRSN                1
 GAP=136        1.07       4.2     4.6  6.4  0.2338E+01  0.8810E+01  0.4951E+01E
 Epicentro: LOS SANTOS - SANTANDER                                             3
 ACTION:UPD 17-05-22 16:00 OP:jn   STATUS:               ID:20170117041307 L   I
 OLDACT:UP  17-01-17 16:36 OP:dani STATUS:               ID:20170117040741     3
 OLDACT:UP  17-01-17 16:36 OP:dani STATUS:               ID:20170117040741     3
 OLDACT:UP  17-01-17 16:35 OP:dani STATUS:               ID:20170117040741     3
 OLDACT:REG 17-01-17 12:52 OP:dani STATUS:               ID:20170117040741     3
 2017-01-17-0408-00M.COL___329                                                 6
 STAT SP IPHASW D HRMM SECON CODA AMPLIT PERI AZIMU VELO AIN AR TRES W  DIS CAZ7
 BAR2 EZ EP        413 26.29                             171   -0.1010 21.9 189 
 BAR2 EZ ES        413 41.28                             171   -0.0510 21.9 189 
 BAR2 EZ I         413 44.11        15.6 0.32            167           21.9 189 
 BRR  HZ EP        413 28.13                             152    0.1310 71.4 300 
 BRR  HN ES        413 45.20                             152    1.0210 71.4 300 
 BRR  HZ I         413 45.98         7.6 0.30            144           71.4 300 
 PAM  EZ EP        413 29.12                             150   -0.0310 78.8  39 
 PAM  EN ES        413 45.86                             150   -0.3710 78.8  39 
 PAM  EZ I         413 49.81         4.4 0.52            147           78.8  39 
 RUS  HZ EP        413 30.34                             143   -0.1910 99.2 176 
 RUS  HN ES        413 48.87                             143    0.1810 99.2 176 
 RUS  HZ I         413 50.37         3.8 0.30            138           99.2 176 
 PTB  HZ EP        413 33.42                             131   -0.41 9  147 259 
 PTB  HE ES        413 53.83                             131   -0.74 9  147 259 
 PTB  HZ I         414  0.48         5.4 0.44            123            147 259 
 ZAR  HZ EP        413 39.98                             122    0.53 9  204 293 
 ZAR  HN ES        414  4.09                             122   -0.47 9  204 293 
 ZAR  HZ I         414  9.47         6.6 0.32            115            204 293 
 CHI  HZ EP        413 44.47                             117   -0.10 8  247 195 
 CHI  HN ES        414 13.95                             117    0.26 8  247 195 
 CHI  HZ I         414 17.32         3.4 0.61            111            247 195 
 GUY2CHZ EP   3    413 51.69                             112    1.15 2  300 235 
 GUY2CHN ES   4    414 28.78                             112    4.47 0  300 235 
 GUY2CHZ I         414 32.53         2.7 0.45                           300 235 
 CBOC HZ EP        413 54.39                             109    0.50 7  333 252 
 CBOC HZ I         414 39.36         1.0 0.35            104            333 252 
 SJC  HZ EP   4    414  0.53                             105   -2.25 0  410 327 
 SJC  HN ES   4    414 42.46                             105   -3.64 0  410 327 
 SJC  HZ I         414 50.13         1.4 0.38            101            410 327 
                                                                                
