 2012  717 0321 56.2 L   6.737 -73.112153.8  RSN  4 0.3 1.1LRSN                1
 GAP=236        0.61       8.1     6.8  7.9  0.1663E+02  0.5234E+01 -0.6257E+01E
 Epicentro: JORDAN - SANTANDER                                                 3
 ACTION:UPD 12-08-14 11:45 OP:ep   STATUS:               ID:20120717032156 L   I
 2012-07-17-0320-00M.COL___197                                                 6
 STAT SP IPHASW D HRMM SECON CODA AMPLIT PERI AZIMU VELO AIN AR TRES W  DIS CAZ7
 BAR2 SZ EP   1    322 16.35                             173    -0.4 7   18 206 
 BAR2 SZ ES   1    322 32.52                             173    -0.2 7   18 206 
 BAR2 SZ I         322 36.20         3.6 0.31            165             18 206 
 BRR  HZ EP   1    322 19.02                             152     0.4 7   78 302 
 BRR  HE ES   1    322 36.16                             152     0.1 7   78 302 
 RUS  HE ES   2    322 39.46                             147     0.4 5   93 178 
 PTB  HZ EP   2    322 23.96                             133    -0.1 5  150 262 
 PTB  HN ES   1    322 45.64                             133    -0.1 7  150 262 
 PTB  HZ I         322 51.32         1.1 0.06            132            150 262 
