 2014  917 0004 18.7 L   6.794 -73.125144.6  RSN 10 0.3 1.9LRSN                1
 GAP=139        0.87       3.1     3.4  5.2 -0.9674E+00  0.5993E+01  0.1443E+01E
 Epicentro: LOS SANTOS - SANTANDER                                             3
 ACTION:UPD 14-10-03 23:05 OP:nd   STATUS:               ID:20140917000418 L   I
 OLDACT:REG 14-09-17 12:48 OP:carl STATUS:               ID:20140917000005     3
 2014-09-17-0000-05M.COL___293                                                 6
 STAT SP IPHASW D HRMM SECON CODA AMPLIT PERI AZIMU VELO AIN AR TRES W  DIS CAZ7
 BAR2 SZ EP        0 4 38.40                             170    0.1810 23.2 196 
 BAR2 SZ ES        0 4 53.54                             170    0.1310 23.2 196 
 BAR2 SZ I         0 4 56.39        21.1 0.22            167           23.2 196 
 BRR  HZ IP     D  0 4 40.44                             151    0.5510 73.5 298 
 BRR  HN ES        0 4 56.87                             151    0.4810 73.5 298 
 BRR  HZ I         0 5  1.14        12.7 0.50            151           73.5 298 
 PAM  SZ EP        0 4 40.83                             151    0.0610 76.5  38 
 PAM  SN ES        0 4 57.35                             151   -0.6010 76.5  38 
 PAM  SZ I         0 5  0.64        12.1 0.56            158           76.5  38 
 RUS  HZ EP        0 4 42.27                             144   -0.0410 99.8 177 
 RUS  HN ES        0 5  0.55                             144   -0.1510 99.8 177 
 PTB  HZ EP        0 4 45.30                             131   -0.50 9  150 259 
 PTB  HN ES        0 5  6.56                             131   -0.35 9  150 259 
 PTB  HZ I         0 5 13.86        14.4 0.40            132            150 259 
 SPBC HZ EP        0 4 47.34                             129    0.11 9  164 220 
 SPBC HE ES        0 5  9.35                             129   -0.11 9  164 220 
 SPBC HZ I         0 5 16.55        14.9 0.28            130            164 220 
 ZAR  HZ EP        0 4 51.09                             122   -0.26 8  206 292 
 ZAR  HN ES        0 5 17.09                             122    0.30 8  206 292 
 ZAR  HZ I         0 5 23.00         8.6 0.56            124            206 292 
 NOR  HN ES        0 5 22.56                             118    0.07 8  236 235 
 NOR  HZ I         0 5 25.70         6.4 0.16            120            236 235 
 CHI  HN ES        0 5 26.10                             117    0.39 8  249 196 
 CHI  HZ I         0 5 34.33         3.0 0.58            119            249 196 
 HEL  HZ EP        0 4 59.37                             114    0.26 8  274 256 
 HEL  HN ES        0 5 29.97                             114   -0.64 8  274 256 
 HEL  HZ I         0 5 37.18         4.9 0.26            116            274 256 
                                                                                
