 2014  717 0156 49.6 L   6.775 -73.153140.0  RSN 19 0.4 2.0LRSN                1
 GAP=182        0.89       2.4     3.7  4.7 -0.4888E+00  0.3203E+01  0.1939E+01E
 Epicentro: LOS SANTOS - SANTANDER                                             3
 ACTION:UPD 15-03-16 20:44 OP:nd   STATUS:               ID:20140717015649 L   I
 OLDACT:REG 14-07-17 12:37 OP:fm   STATUS:               ID:20140717014818     3
 2014-07-17-0148-18M.COL___263                                                 6
 STAT SP IPHASW D HRMM SECON CODA AMPLIT PERI AZIMU VELO AIN AR TRES W  DIS CAZ7
 BAR2 SZ EP        157  8.63                             171    0.1710 20.5 189 
 BAR2 SZ ES   1    157 23.43                             171    0.24 7 20.5 189 
 BAR2 SZ I         157 26.46        14.5 0.26            169           20.5 189 
 BRR  HZ IP     C  157 10.71                             151    0.5610 71.9 301 
 BRR  HE ES        157 26.54                             151    0.3510 71.9 301 
 BRR  HZ I         157 32.35         9.3 0.31            152           71.9 301 
 RUS  HZ EP        157 12.51                             143   -0.0610 97.9 175 
 RUS  HE ES   1    157 30.14                             143   -0.37 7 97.9 175 
 RUS  HZ I         157 32.74         5.0 0.42            141           97.9 175 
 PTB  HZ EP        157 15.30                             131   -0.66 9  146 260 
 PTB  HN ES        157 36.80                             131    0.26 9  146 260 
 PTB  HZ I         157 42.61        12.2 0.22            130            146 260 
 SPBC HZ EP        157 17.53                             128    0.14 9  161 219 
 SPBC HN ES        157 39.04                             128   -0.04 9  161 219 
 SPBC HZ I         157 44.82        12.2 0.40            127            161 219 
 OCA  HN ES   2    157 39.29                             128   -0.34 5  163 354 
 OCA  HZ I         157 47.33         7.3 0.20            128            163 354 
 ZAR  HZ EP        157 21.54                             121   -0.15 9  204 293 
 ZAR  HE ES        157 46.70                             121   -0.03 9  204 293 
 NOR  HZ EP        157 24.91                             118    0.17 8  232 235 
 NOR  HN ES        157 51.78                             118   -0.39 8  232 235 
 NOR  HZ I         157 59.92         7.0 0.22            117            232 235 
 SML  HZ EP        157 25.10                             116   -1.02 8  246 336 
 SML  HE ES        157 54.39                             116   -0.24 8  246 336 
 SML  HZ I         157 58.47        10.6 0.10            116            246 336 
 CHI  HZ EP   1    157 26.89                             116    0.24 6  246 195 
 CHI  HN ES   1    157 55.05                             116   -0.52 6  246 195 
 CHI  HZ I         158  0.01         3.5 0.38            115            246 195 
 ROSC BZ EP   4    157 29.59                             116    2.50 0  250 211 
 ROSC BN ES        157 55.74                             116   -0.61 8  250 211 
 ROSC BZ I         158  6.70        10.3 0.40            115            250 211 
 HEL  HZ EP   1    157 30.03                             114    0.68 6  271 256 
 HEL  HN ES   1    157 59.59                             114   -0.77 6  271 256 
 HEL  HZ I         158  7.44         5.1 0.36            113            271 256 
 GUY2CHZ EP   1    157 33.56                             111    0.88 5  299 235 
 GUY2CHN ES        158  6.84                             111    0.55 7  299 235 
 GUY2CHZ I         158 15.43         6.1 0.36                           299 235 
 RREF HZ EP   1    157 35.98                             110    0.77 5  319 230 
 RREF HN ES   1    158 10.90                             110    0.10 5  319 230 
 RREF HZ I         158 20.46         5.0 0.46            109            319 230 
 CBOC HZ EP   1    157 36.53                             109    0.45 5  332 252 
 CBOC HE ES        158 12.35                             109    0.00 7  332 252 
 CBOC HZ I         158 23.13         1.5 0.32            108            332 252 
 DBB  SZ ES   4    158 11.79                             109   -1.77 0  339 275 
 DBB  SZ I         158 15.29        10.1 0.48            108            339 275 
 TOL  SZ EP        157 38.06                             108    0.74 7  341 225 
 TOL  SN ES        158 14.22                             108   -0.34 7  341 225 
 TOL  SZ I         158 19.88         9.4 0.20            108            341 225 
 PRA  HZ EP        157 42.32                             106   -0.26 6  389 210 
 PRA  HN ES        158 23.67                             106   -0.25 6  389 210 
 PRA  HZ I         158 29.43         3.8 0.48            105            389 210 
 ORTC HZ EP        157 43.05                             106    0.06 6  393 216 
 ORTC HN ES        158 24.87                             106    0.21 6  393 216 
 ORTC HZ I         158 30.41         2.5 0.42            105            393 216 
                                                                                
