 2015  417 0625 41.6 L   7.425 -73.432109.0  RSN  4 0.6 1.2LRSN                1
 GAP=246        1.42       6.6    11.4 13.1 -0.1340E+02  0.1631E+02 -0.3042E+02E
 Epicentro: SABANA DE TORRES - SANTANDER                                       3
 ACTION:UPD 15-06-03 16:55 OP:cam  STATUS:               ID:20150417062541 L   I
 OLDACT:DUP 15-04-17 16:06 OP:stll STATUS:               ID:20150417061748d    3
 2015-04-17-0617-47M.COL___275                                                 6
 STAT SP IPHASW D HRMM SECON CODA AMPLIT PERI AZIMU VELO AIN AR TRES W  DIS CAZ7
 BRR  HZ EP        625 57.74                             155    0.3310 46.7 221 
 BRR  HN ES        626  9.98                             155    0.2410 46.7 221 
 BRR  HZ I         626 12.93         2.9 0.42            161           46.7 221 
 PTB  HZ EP        626  5.89                             122   -0.16 9  150 229 
 PTB  HN ES        626 24.04                             122   -1.08 9  150 229 
 PTB  HZ I         626 24.95         2.0 0.30            127            150 229 
 ZAR  HZ EP        626  7.67                             120    0.80 9  158 273 
 ZAR  HZ I         626  7.68         2.7 0.34            124            158 273 
 ZAR  HN ES        626 27.17                             120    0.59 9  158 273 
 SML  HZ EP        626  7.77                             118   -0.17 9  168 335 
 SML  HN ES        626 27.86                             118   -0.62 9  168 335 
 SML  HZ I         626 33.31         4.0 0.26            121            168 335 
                                                                                
