 2011  917 0855  4.2 L   6.853 -73.147147.9  RSN  7 0.1 1.4LRSN                1
 GAP=134        0.34       3.2     3.4  4.6 -0.1756E+01 -0.2679E+01  0.4061E+01E
 Epicentro: LOS SANTOS - SANTANDER                                             3
 ACTION:UPD 12-07-13 15:57 OP:ep   STATUS:               ID:20110917085504 L   I
 2011-09-17-0840-00M.COL___173                                                 6
 STAT SP IPHASW D HRMM SECON CODA AMPLIT PERI AZIMU VELO AIN AR TRES W  DIS CAZ7
 BTL  SZ EP        855 23.97                             174    0.0210 15.1 299 
 GIR2 SZ EP   2    855 23.68                             169   -0.30 5 25.5 348 
 BAR2 SZ EP        855 24.17                             168   -0.0410 29.1 188 
 BAR2 SZ I         855 46.50         3.7 0.66                          29.1 188 
 BRR  HZ EP   2    855 25.54                             153    0.12 5 68.4 294 
 BRR  HE ES   1    855 42.05                             153    0.07 7 68.4 294 
 BRR  HZ I         855 44.08         4.3 0.12                          68.4 294 
 PAM  SZ EP        855 26.56                             152    0.1710 73.1  43 
 PAM  SN ES   1    855 43.54                             152   -0.17 7 73.1  43 
 RUS  HZ EP   2    855 28.47                             142   -0.11 5  106 176 
 RUS  HN ES   2    855 47.61                             142    0.01 5  106 176 
 ZAR  HE ES   3    856  1.36                             123   -0.41 2  202 291 
 ZAR  HZ I         856  7.18         4.1 0.32                           202 291 
                                                                                
