 2012  117 0348 27.5 L   6.769 -73.162141.9  RSN 17 0.4 3.0LRSN                1
 GAP=113        0.97       3.1     4.0  5.7  0.3922E+00  0.6425E+01  0.4349E+01E
 Epicentro: LOS SANTOS - SANTANDER                                             3
 ACTION:UP  12-02-03 08:18 OP:REBC STATUS:               ID:20120117034827 L   I
 2012-01-17-0344-35S.COL___157                                                 6
 STAT SP IPHASW D HRMM SECON CODA AMPLIT PERI AZIMU VELO SNR AR TRES W  DIS CAZ7
 BAR2 SZ EP        348 46.70                             172     0.110   20 187 
 BAR2 SZ ES   1    349  1.61                             172     0.1 7   20 187 
 BAR2 SZ I         349  4.53       278.9 0.27                            20 187 
 BRR  HZ IP     C  348 48.49                             152     0.210   71 302 
 BRR  HN ES   1    349  5.37                             152     0.9 7   71 302 
 BRR  HZ I         349  9.56       182.9 0.14                            71 302 
 PAM  SZ EP        348 49.51                             149    -0.110   81  39 
 PAM  SE ES   1    349  6.38                             149    -0.4 7   81  39 
 RUS  HZ EP        348 50.63                             144     0.010   97 175 
 RUS  HN ES   1    349  8.69                             144     0.0 7   97 175 
 RUS  HZ I         349 10.64       166.5 0.25                            97 175 
 PTB  HZ EP        348 53.32                             132    -0.7 9  145 260 
 PTB  HN ES   1    349 14.15                             132    -0.4 7  145 260 
 OCA  SZ EP        348 56.14                             128     0.3 9  164 354 
 OCA  SZ ES   1    349 18.06                             128     0.1 7  164 354 
 OCA  SZ I         349 22.71       113.1 0.34                           164 354 
 YOP  SZ EP   1    348 57.53                             126     0.5 7  177 152 
 YOP  SE ES   1    349 19.68                             126    -0.4 7  177 152 
 YOP  SZ I         349 22.04       118.5 0.40                           177 152 
 ZAR  HZ EP   1    348 59.17                             121    -0.5 6  204 293 
 ZAR  HE ES   1    349 23.79                             121    -1.0 6  204 293 
 ZAR  HZ I         349 30.46        65.1 0.43                           204 293 
 NOR  SZ EP   1    349  2.58                             118    -0.1 6  231 235 
 NOR  SN ES   1    349 30.14                             118     0.1 6  231 235 
 CHI  HZ EP        349  4.76                             117     0.2 8  245 195 
 CHI  HZ I         349  5.62        52.1 0.19                           245 195 
 CHI  HN ES   1    349 33.24                             117    -0.3 6  245 195 
 HEL  HZ EP   1    349  7.33                             114     0.1 6  269 256 
 HEL  HZ I         349 45.63        52.5 0.30                           269 256 
 VIL  SZ EP   1    349 10.31                             111     0.0 5  300 191 
 VIL  SZ I         349 53.65        33.0 0.15                           300 191 
 GUY  SZ EP   1    349 11.61                             112     0.8 5  300 235 
 RREF HZ EP   1    349 12.81                             110    -0.3 5  318 230 
 RREF HN ES   1    349 49.46                             110     0.8 5  318 230 
 RREF HZ I         349 59.02        53.2 0.42                           318 230 
 DBB  SZ EP        349 15.37                             109     0.7 7  338 275 
 PRA  HZ EP        349 20.20                             106    -0.3 6  388 210 
 PRA  HE ES   1    350  2.37                             106     0.6 4  388 210 
 SJA  SZ EP   1    349 21.15                             106    -0.4 4  396 193 
 SJA  SZ I         350 17.18        55.4 0.47                           396 193 
                                                                                
