 2014  317 0820 16.5 L   6.811 -73.147142.9  RSN 12 0.5 2.0LRSN                1
 GAP= 71        1.07       2.7     3.3  5.9 -0.1106E+01  0.7397E+01 -0.3217E+00E
 Epicentro: LOS SANTOS - SANTANDER                                             3
 ACTION:UPD 14-04-09 23:18 OP:nd   STATUS:               ID:20140317082016 L   I
 OLDACT:REG 14-03-17 09:14 OP:mh   STATUS:               ID:20140317081808     3
 2014-03-17-0818-08M.COL___242                                                 6
 STAT SP IPHASW D HRMM SECON CODA AMPLIT PERI AZIMU VELO AIN AR TRES W  DIS CAZ7
 BAR2 SZ EP        820 35.92                             170    0.1310 24.5 189 
 BAR2 SZ ES        820 51.09                             170    0.2410 24.5 189 
 BAR2 SZ I         820 54.65        28.8 0.28            170           24.5 189 
 PAM  SZ EP     D  820 38.75                             151    0.4110 76.5  40 
 PAM  SN ES        820 55.88                             151    0.5010 76.5  40 
 PAM  SZ I         820 58.25        11.5 0.62            155           76.5  40 
 RUS  HZ EP        820 39.76                             143   -0.2810  102 176 
 RUS  HN ES        820 58.11                             143   -0.3010  102 176 
 RUS  HZ I         820 59.51         8.1 0.28            146            102 176 
 TAM  HZ EP     D  820 44.16                             130    0.19 9  156 105 
 TAM  HN ES        821  5.29                             130   -0.12 9  156 105 
 OCA  HZ EP        820 43.66                             129   -0.79 9  159 353 
 OCA  HN ES        821  6.11                             129   -0.16 9  159 353 
 OCA  HZ I         821  9.92         9.8 0.22            132            159 353 
 SPBC HZ EP        820 44.75                             128   -0.09 9  164 219 
 SPBC HN ES        821  6.16                             128   -0.81 9  164 219 
 SPBC HZ I         821  9.24        13.2 0.22            130            164 219 
 ZAR  HZ EP        820 48.89                             122    0.21 9  203 292 
 ZAR  HN ES        821 14.32                             122    0.52 9  203 292 
 ZAR  HZ I         821 19.85        12.5 0.56            123            203 292 
 NOR  HZ EP        820 52.11                             118   -0.00 8  235 234 
 NOR  HE ES        821 19.79                             118   -0.11 8  235 234 
 NOR  HZ I         821 26.27        10.7 0.20            120            235 234 
 SML  HZ EP        820 52.37                             117   -0.45 8  243 335 
 SML  HN ES        821 20.72                             117   -0.44 8  243 335 
 SML  HZ I         821 23.68        10.9 0.10            119            243 335 
 CHI  HZ EP        820 54.02                             116   -0.13 8  250 195 
 CHI  HN ES        821 23.62                             116    0.09 8  250 195 
 CHI  HZ I         821 29.29         4.7 0.20            119            250 195 
 HEL  HZ EP        820 57.19                             114    0.62 8  272 256 
 HEL  HE ES        821 27.20                             114   -0.64 8  272 256 
 HEL  HZ I         821 33.76         4.1 0.20            116            272 256 
 GUY2CHZ EP        821  1.08                             112    1.05 7  302 235 
 GUY2CHE ES        821 34.77                             112    0.78 7  302 235 
 GUY2CHZ I         821 42.56         5.9 0.40                           302 235 
 ORTC HZ EP   4    821 10.57                             106    0.16 0  396 216 
 ORTC HN ES   4    821 54.25                             106    1.77 0  396 216 
 SJC  HZ EP   4    821 10.44                             105   -1.38 0  408 327 
 SJC  HN ES   4    821 53.32                             105   -1.67 0  408 327 
                                                                                
