 2016 1017 0034 26.0 L   6.819 -73.145143.9  RSN  9 0.5 1.8LRSN                1
 GAP=136        1.00       3.6     5.7  6.5 -0.4786E+01  0.6833E+01 -0.2493E+01E
 Epicentro: LOS SANTOS - SANTANDER                                             3
 ACTION:UPD 16-11-09 19:20 OP:rebc STATUS:               ID:20161017003426 L   I
 OLDACT:UP  16-10-17 12:46 OP:and  STATUS:               ID:20161017002728     3
 OLDACT:UP  16-10-17 12:45 OP:and  STATUS:               ID:20161017002728     3
 OLDACT:UP  16-10-17 12:45 OP:and  STATUS:               ID:20161017002728     3
 OLDACT:UP  16-10-17 12:40 OP:and  STATUS:               ID:20161017002728     3
 OLDACT:UP  16-10-17 12:39 OP:and  STATUS:               ID:20161017002728     3
 OLDACT:UP  16-10-17 12:38 OP:and  STATUS:               ID:20161017002728     3
 OLDACT:REG 16-10-17 11:26 OP:and  STATUS:               ID:20161017002728     3
 2016-10-17-0028-00M.COL___353                                                 6
 STAT SP IPHASW D HRMM SECON CODA AMPLIT PERI AZIMU VELO AIN AR TRES W  DIS CAZ7
 BAR2 EZ IP     C  034 45.38                             170   -0.0910 25.4 189 
 BAR2 EZ ES        035  0.13                             170   -0.5110 25.4 189 
 BAR2 EZ I         035  1.43        20.9 0.24            171           25.4 189 
 BRR  HZ IP     C  034 47.30                             152    0.3810 70.3 297 
 BRR  HN ES        035  4.05                             152    0.8410 70.3 297 
 PAM  EZ IP     C  034 48.24                             151    0.3010 75.8  41 
 PAM  EE ES        035  5.23                             151    0.1910 75.8  41 
 PAM  EZ I         035  7.74         6.4 0.49            152           75.8  41 
 RUS  HZ EP        034 49.77                             143    0.0210  103 176 
 RUS  HN ES        035  7.74                             143   -0.5110  103 176 
 RUS  HZ I         035  8.63         5.1 0.24            146            103 176 
 PTB  HZ EP        034 52.51                             131   -0.37 9  148 258 
 PTB  HN ES   2    035 13.07                             131   -0.76 5  148 258 
 PTB  HZ I         035 15.50         9.6 0.20            132            148 258 
 OCA  HZ EP        034 53.71                             130   -0.29 9  158 353 
 OCA  HN ES        035 15.53                             130   -0.28 9  158 353 
 OCA  HZ I         035 22.90        23.8 0.42            130            158 353 
 SPBC HZ EP   2    034 55.15                             128    0.61 5  165 219 
 SPBC HE ES        035 17.09                             128    0.31 9  165 219 
 SPBC HZ I         035 20.93         6.2 0.14            130            165 219 
 GUY2CHZ EP   3    035 11.59                             112    1.90 2  302 234 
 GUY2CHN ES   4    035 46.66                             112    2.92 0  302 234 
 GUY2CHZ I         035 56.49         1.6 0.28                           302 234 
 SJC  HZ EP   2    035 20.50                             105   -0.82 3  407 327 
 SJC  HN ES   3    036  2.78                             105   -1.67 1  407 327 
 SJC  HZ I         036  5.19         2.4 0.36            106            407 327 
                                                                                
