 2012  617 0603 37.7 L   6.796 -73.162141.3  RSN  4 0.5 1.2LRSN                1
 GAP=145        0.89      12.0     7.0 10.9 -0.4708E+02  0.2514E+02 -0.3025E+02E
 Epicentro: LOS SANTOS - SANTANDER                                             3
 ACTION:UPD 12-08-06 17:50 OP:ep   STATUS:               ID:20120617060337 L   I
 2012-06-17-0600-00M.COL___199                                                 6
 STAT SP IPHASW D HRMM SECON CODA AMPLIT PERI AZIMU VELO AIN AR TRES W  DIS CAZ7
 BAR2 SZ EP   1    6 3 56.68                             170   -0.11 7 22.7 186 
 BAR2 SZ ES   1    6 4 12.11                             170    0.44 7 22.7 186 
 BAR2 SZ I         6 4 13.44         4.0 0.19                          22.7 186 
 PAM  SZ EP        6 3 59.99                             150    0.4510 78.8  40 
 PAM  SN ES   1    6 4 15.92                             150   -0.65 7 78.8  40 
 PTB  HZ EP   1    6 4  3.56                             131   -0.58 7  146 259 
 PTB  HN ES   1    6 4 24.60                             131   -0.17 7  146 259 
 PTB  HZ I         6 4 27.23         1.5 0.24                           146 259 
 ZAR  HN ES   2    6 4 35.17                             122    0.50 4  203 292 
                                                                                
