 2011  717 0529 24.3 L   6.757 -73.082152.1  RSN  8 0.3 1.4LRSN                1
 GAP=166        0.62       3.1     6.5  5.7 -0.2686E+01 -0.3919E+01 -0.2299E+01E
 Epicentro: LOS SANTOS - SANTANDER                                             3
 ACTION:UPD 12-07-25 14:01 OP:epov STATUS:               ID:20110717052924 L   I
 2011-07-17-0526-57S.COL___143                                                 6
 STAT SP IPHASW D HRMM SECON CODA AMPLIT PERI AZIMU VELO AIN AR TRES W  DIS CAZ7
 BAR2 SZ EP   1    529 44.50                             171   -0.15 7 21.3 211 
 BAR2 SZ ES   1    530  0.70                             171    0.17 7 21.3 211 
 BAR2 SZ I         530  2.56         5.1 0.19                          21.3 211 
 BTL  SZ EP   1    529 44.76                             169   -0.01 7 27.2 311 
 GIR2 SZ EP   1    529 44.94                             165    0.03 7 37.7 341 
 GIR2 SZ ES   2    530  1.01                             165    0.03 5 37.7 341 
 BRR  HZ EP   1    529 46.49                             151   -0.13 7 79.7 299 
 BRR  HE ES   1    530  3.98                             151   -0.05 7 79.7 299 
 BRR  HZ I         530  6.19         7.8 0.15                          79.7 299 
 RUS  HZ EP   1    529 48.86                             146    0.53 7 95.6 180 
 RUS  HZ I         529 49.30         2.0 0.47                          95.6 180 
 RUS  HN ES   1    530  7.00                             146   -0.08 7 95.6 180 
 GRA  SZ EP   1    529 49.71                             138   -0.62 7  128  14 
 GRA  SZ ES   1    530 10.25                             138   -0.39 7  128  14 
 GRA  SZ I         530 12.27         2.6 0.27                           128  14 
 OCA  SZ EP   1    529 54.15                             130    0.51 7  166 351 
 OCA  SZ ES   1    530 16.89                             130    0.37 7  166 351 
 OCA  SZ I         530 20.05         3.7 0.26                           166 351 
 NOR  SN ES   2    530 28.76                             119   -0.39 4  238 236 
                                                                                
