 2016  417 0618 28.1 L   5.945 -73.631124.7  RSN  9 0.5 1.8LRSN                1
 GAP= 89        1.14       4.5     3.9  7.7 -0.4147E+00  0.7974E+01 -0.6959E+01E
 Epicentro: BARBOSA - SANTANDER                                                3
 ACTION:UPD 16-05-05 14:22 OP:rebc STATUS:               ID:20160417061828 L   I
 OLDACT:REG 16-04-17 14:28 OP:ak   STATUS:               ID:20160417061750     3
 2016-04-17-0617-50M.COL___307                                                 6
 STAT SP IPHASW D HRMM SECON CODA AMPLIT PERI AZIMU VELO AIN AR TRES W  DIS CAZ7
 SPBC HZ EP        618 46.41                             153    0.0410 58.6 236 
 SPBC HN ES        619  1.20                             153    0.5610 58.6 236 
 SPBC HZ I         619  2.70        18.7 0.12            153           58.6 236 
 RUS  HZ EP        618 47.28                             153    0.2010 61.0  95 
 RUS  HN ES        619  1.88                             153   -0.0310 61.0  95 
 RUS  HZ I         619  2.39         7.8 0.40            153           61.0  95 
 BAR2 EZ EP        618 49.05                             143    0.6210 87.1  35 
 BAR2 EZ I         619  5.82        20.8 0.28            141           87.1  35 
 PTB  HZ EP        618 49.47                             135   -0.6810  112 306 
 PTB  HN ES        619  6.69                             135   -0.6810  112 306 
 PTB  HZ I         619  9.02        10.2 0.14            133            112 306 
 NOR  HZ EP        618 52.89                             128   -0.16 9  143 253 
 NOR  HN ES        619 12.68                             128    0.16 9  143 253 
 NOR  HZ I         619 30.41        33.0 0.16            127            143 253 
 CHI  HZ EP   1    618 52.84                             127   -0.92 7  146 184 
 CHI  HN ES   1    619 13.09                             127   -0.71 7  146 184 
 CHI  HZ I         619 15.86         4.0 0.51            127            146 184 
 GUY2CHZ EP   4    618 58.42                             117   -1.85 0  208 248 
 GUY2CHN ES        619 25.79                             117    0.41 8  208 248 
 GUY2CHZ I         619 32.39         5.0 0.48                           208 248 
 ZAR  HZ EP        619  1.36                             116    0.56 8  218 322 
 ZAR  HN ES        619 26.03                             116   -0.29 8  218 322 
 ZAR  HZ I         619 32.14         7.3 0.28            114            218 322 
 CBOC HZ EP        619  6.37                             111    0.26 8  264 268 
 CBOC HN ES        619 35.94                             111    0.16 8  264 268 
 CBOC HZ I         619 38.97         2.0 0.52            110            264 268 
                                                                                
