 2010 1117 0502 44.3 L   6.844 -73.115142.4  RSN  6 0.4 1.8LRSN                1
 GAP=161        0.80       4.9    11.3  7.9  0.6927E+01 -0.2514E+02 -0.1008E+02E
 Epicentro: LOS SANTOS - SANTANDER                                             3
 ACTION:UP  10-12-17 16:53 OP:REBC STATUS:               ID:20101117050244 L   I
 2010-11-17-0459-54S.COL___128                                                 6
 STAT SP IPHASW D HRMM SECON CODA AMPLIT PERI AZIMU VELO SNR AR TRES W  DIS CAZ7
 BTL  SZ EP   1    5 3  3.84                             172     0.3 7   19 296 
 BTL  SZ ES   1    5 3 18.80                             172     0.4 7   19 296 
 BAR2 SZ EP   1    5 3  3.61                             168    -0.1 7   29 195 
 BAR2 SZ ES   1    5 3 18.15                             168    -0.7 7   29 195 
 BAR2 SZ I         5 3 19.75        10.3 0.12                            29 195 
 BRR  HZ EP   1    5 3  5.31                             152     0.1 7   72 294 
 BRR  HZ I         5 3  6.43        13.9 0.12                            72 294 
 BRR  HE ES   1    5 3 21.61                             152     0.2 7   72 294 
 RUS  HZ EP   2    5 3  8.18                             142     0.1 5  105 178 
 RUS  HE ES   2    5 3 26.69                             142     0.0 5  105 178 
 GRA  SZ EP   2    5 3  9.46                             138     0.6 5  120  17 
 GRA  SZ ES   2    5 3 28.36                             138     0.4 5  120  17 
 GRA  SZ I         5 3 29.88         9.8 0.48                           120  17 
 OCA  SZ EP   1    5 3 11.43                             130    -0.6 7  156 352 
 OCA  SZ ES   1    5 3 33.21                             130    -0.3 7  156 352 
 OCA  SZ I         5 3 36.98         8.1 0.48                           156 352 
                                                                                
