 2013 1117 0307 22.1 L   6.797 -73.164142.5  RSN  6 0.3 1.4LRSN                1
 GAP=134        0.84       3.9     4.1  5.7 -0.3933E+01  0.3301E+01  0.2539E+01E
 Epicentro: LOS SANTOS - SANTANDER                                             3
 ACTION:UPD 14-01-09 16:28 OP:ep   STATUS:               ID:20131117030722 L   I
 OLDACT:REG 13-11-17 08:59 OP:stll STATUS:               ID:20131117025810     3
 2013-11-17-0258-10M.COL___220                                                 6
 STAT SP IPHASW D HRMM SECON CODA AMPLIT PERI AZIMU VELO AIN AR TRES W  DIS CAZ7
 BAR2 SZ EP        3 7 41.18                             171   -0.1610 22.7 185 
 BAR2 SZ ES        3 7 56.24                             171   -0.0910 22.7 185 
 BAR2 SZ I         3 7 57.29         8.9 0.38            168           22.7 185 
 BRR  HZ EP        3 7 43.17                             152    0.3510 69.6 300 
 BRR  HE ES        3 7 59.26                             152    0.3010 69.6 300 
 BRR  HZ I         3 8  2.38         5.3 0.32            152           69.6 300 
 PAM  SZ EP        3 7 44.36                             150    0.2810 79.0  41 
 PAM  SZ I         3 7 44.62         2.9 0.16            154           79.0  41 
 PAM  SN ES        3 8  1.02                             150   -0.1910 79.0  41 
 RUS  HZ EP        3 7 45.45                             143   -0.0810  100 175 
 RUS  HN ES        3 8  3.65                             143   -0.1410  100 175 
 RUS  HZ I         3 8  5.11         2.7 0.20            143            100 175 
 PTB  HZ EP        3 7 47.98                             132   -0.64 9  146 259 
 PTB  HN ES        3 8  8.94                             132   -0.36 9  146 259 
 PTB  HZ I         3 8 10.82         3.2 0.32            131            146 259 
 SPBC HZ EP        3 7 50.42                             129    0.21 9  162 218 
 SPBC HN ES        3 8 12.65                             129    0.52 9  162 218 
 SPBC HZ I         3 8 19.45         4.1 0.20            129            162 218 
                                                                                
