 2010  717 0731  5.5 L   6.790 -73.097150.1  RSN  8 0.2 1.7LRSN                1
 GAP=164        0.56       2.5     6.1  4.6 -0.1779E+01 -0.4619E+01 -0.6372E+00E
 Epicentro: LOS SANTOS - SANTANDER                                             3
 ACTION:UPD 10-12-01 15:18 OP:pat  STATUS:               ID:20100717073105 L   I
 2010-07-17-0727-42S.COL___120                                                 6
 STAT SP IPHASW D HRMM SECON CODA AMPLIT PERI AZIMU VELO AIN AR TRES W  DIS CAZ7
 BAR2 SZ IP        731 25.52                             171    -0.110   24 204 
 BAR2 SZ ES   1    731 40.93                             171    -0.4 7   24 204 
 BAR2 SZ I         731 42.32        14.8 0.36                            24 204 
 GIR2 SZ ES   2    731 41.97                             167     0.4 5   34 341 
 BRR  HZ IP     C  731 27.52                             151     0.110   77 297 
 BRR  HN ES   1    731 44.55                             151     0.1 7   77 297 
 BRR  HZ I         731 47.23         8.7 0.12                            77 297 
 RUS  HZ IP     C  731 29.44                             145    -0.110   99 179 
 RUS  HE ES   1    731 48.61                             145     0.3 7   99 179 
 RUS  HZ I         731 49.87         5.1 0.46                            99 179 
 GUE  SZ EP   1    731 30.62                             140     0.0 7  117   9 
 GRA  SZ IP        731 31.31                             138     0.210  125  15 
 GRA  SZ ES   1    731 51.17                             138     0.1 7  125  15 
 GRA  SZ I         731 52.15         6.5 0.43                           125  15 
 OCA  SZ EP   1    731 34.00                             130    -0.3 7  162 351 
 OCA  SZ ES   1    731 56.56                             130    -0.2 7  162 351 
 OCA  SZ I         732  0.62         7.6 0.30                           162 351 
 PRA  HZ EP   2    731 59.43                             107     0.1 3  394 210 
 PRA  HZ I         732  2.23         2.4 0.42                           394 210 
 PRA  HN ES   2    732 41.76                             107     0.4 3  394 210 
                                                                                
