 2010  117 0320 36.4 L   6.805 -72.990144.9  RSN  8 0.3 1.7LRSN                1
 GAP=199        0.64       2.8    11.2  5.2 -0.3762E+01  0.2099E+02 -0.5561E+00E
 Epicentro: CEPITA - SANTANDER                                                 3
 ACTION:UP  10-08-24 09:44 OP:vdl  STATUS:               ID:20100117032036 L   I
 2010-01-17-0317-03S.COL___096                                                 6
 STAT SP IPHASW D HRMM SECON CODA AMPLIT PERI AZIMU VELO SNR AR TRES W  DIS CAZ7
 BAR2 SZ IP        320 56.04                             167    -0.110   32 222 
 BAR2 SZ ES   1    321 11.19                             167    -0.4 7   32 222 
 GIR2 SZ ES   2    321 11.99                             165     0.4 5   38 323 
 RUS  BZ IP        321  0.08                             143    -0.110  101 186 
 RUS  BE ES        321 18.85                             143     0.210  101 186 
 RUS  BZ I         321 19.58         3.9 0.15                           101 186 
 OCA  SZ IP        321  4.64                             129    -0.3 9  163 347 
 OCA  SZ I         321  6.29        12.0 0.05                           163 347 
 OCA  SZ ES   1    321 27.52                             129     0.4 7  163 347 
 CHI  HZ EP   1    321 14.81                             116     0.1 6  254 199 
 CHI  HN ES   2    321 44.32                             116    -0.2 4  254 199 
 CHI  HZ I         321 50.30         1.4 0.25                           254 199 
 HEL  HZ EP   2    321 18.24                             113    -0.2 4  289 257 
 HEL  HZ I         321 56.27         2.4 0.23                           289 257 
 RREF BZ EP   2    321 24.57                             110     0.5 3  335 231 
 RREF BZ I         322  8.55         2.6 0.28                           335 231 
 PRA  HZ IP        321 31.51                             106     0.5 6  401 212 
 PRA  HN ES   1    322 13.12                             106    -0.4 4  401 212 
 PRA  HZ I         322 19.11         2.3 0.27                           401 212 
                                                                                
