 2015  317 0541 49.6 L   6.768 -73.163140.9  RSN  4 0.5 1.0LRSN                1
 GAP=136        1.28       6.8     6.5 11.4 -0.4897E+01  0.6847E+01  0.1059E+02E
 Epicentro: LOS SANTOS - SANTANDER                                             3
 ACTION:UPD 15-04-30 16:26 OP:nd   STATUS:               ID:20150317054149 L   I
 OLDACT:REG 15-03-17 12:49 OP:stll STATUS:               ID:20150317053748     3
 2015-03-17-0537-48M.COL___269                                                 6
 STAT SP IPHASW D HRMM SECON CODA AMPLIT PERI AZIMU VELO AIN AR TRES W  DIS CAZ7
 BRR  HZ EP        542 10.77                             152    0.5910 71.3 302 
 BRR  HN ES        542 26.99                             152    0.7210 71.3 302 
 PAM  SZ EP        542 11.46                             149   -0.0310 81.3  39 
 PAM  SN ES        542 27.98                             149   -0.6310 81.3  39 
 PAM  SZ I         542 30.24         2.4 0.44            154           81.3  39 
 RUS  HZ EP        542 12.82                             144    0.2410 97.2 175 
 RUS  HE ES        542 30.63                             144    0.0810 97.2 175 
 RUS  HZ I         542 32.87         1.4 0.18            146           97.2 175 
 PTB  HZ EP        542 15.54                             131   -0.36 9  145 260 
 PTB  HN ES        542 35.70                             131   -0.74 9  145 260 
 PTB  HZ I         542 43.50         1.6 0.34            132            145 260 
                                                                                
