 2014  817 0715 30.7 L   6.844 -73.160160.9  RSN  6 0.3 1.2LRSN                1
 GAP=224        0.64       3.0     6.0  6.4 -0.4727E+01 -0.1155E+02  0.2801E+01E
 Epicentro: LOS SANTOS - SANTANDER                                             3
 ACTION:UPD 14-09-15 21:50 OP:nd   STATUS:               ID:20140817071530 L   I
 OLDACT:DUP 14-08-17 17:46 OP:spq  STATUS:               ID:20140817070819d    3
 OLDACT:REG 14-08-17 13:27 OP:spq  STATUS:               ID:20140817070818     3
 2014-08-17-0708-18M.COL___254                                                 6
 STAT SP IPHASW D HRMM SECON CODA AMPLIT PERI AZIMU VELO AIN AR TRES W  DIS CAZ7
 BRR  HZ EP        715 53.72                             156    0.4210 67.6 296 
 BRR  HE ES        716 11.02                             156    0.0710 67.6 296 
 BRR  HZ I         716 11.51         2.0 0.24            150           67.6 296 
 PTB  HZ EP        715 58.65                             135   -0.23 9  147 257 
 PTB  HE ES        716 20.80                             135   -0.07 9  147 257 
 PTB  HZ I         716 25.22         0.9 0.12            132            147 257 
 OCA  HN ES   1    716 22.21                             134   -0.23 7  155 353 
 OCA  HZ I         716 25.56         2.1 0.32            132            155 353 
 SPBC HZ EP        716  0.57                             132   -0.07 9  166 218 
 SPBC HN ES        716 23.87                             132   -0.14 9  166 218 
 SPBC HZ I         716 27.70         2.2 0.19            130            166 218 
 ZAR  HE ES        716 29.96                             126    0.26 9  201 291 
 ZAR  HZ I         716 36.24         1.2 0.41            123            201 291 
 SML  HZ EP   1    716  7.94                             121    0.28 6  239 335 
 SML  HN ES   1    716 35.84                             121   -0.67 6  239 335 
 SML  HZ I         716 39.53         1.9 0.10            119            239 335 
                                                                                
