 2012  917 0910  4.4 L   6.773 -73.176142.8  RSN  5 0.5 1.6LRSN                1
 GAP=134        0.95       6.5     6.2  9.0 -0.6196E+01  0.3464E+01 -0.8705E+00E
 Epicentro: LOS SANTOS - SANTANDER                                             3
 ACTION:UPD 12-10-22 14:19 OP:ep   STATUS:               ID:20120917091004 L   I
 2012-09-17-0910-00M.COL___227                                                 6
 STAT SP IPHASW D HRMM SECON CODA AMPLIT PERI AZIMU VELO AIN AR TRES W  DIS CAZ7
 BAR2 SZ EP   1    910 23.62                             172   -0.01 7 20.0 182 
 BAR2 SZ ES   1    910 38.53                             172   -0.08 7 20.0 182 
 BAR2 SZ I         910 39.62        22.9 0.22                          20.0 182 
 BRR  HZ EP   1    910 25.60                             152    0.43 7 69.8 302 
 BRR  HN ES   1    910 42.24                             152    0.89 7 69.8 302 
 PAM  SZ EP        910 26.62                             149    0.0310 81.8  40 
 PAM  SN ES   1    910 43.20                             149   -0.68 7 81.8  40 
 PAM  SZ I         910 45.87         5.7 0.76                          81.8  40 
 RUS  HZ EP   1    910 28.06                             144    0.37 7 97.9 174 
 RUS  HN ES   1    910 45.86                             144    0.03 7 97.9 174 
 PTB  HZ EP   1    910 30.34                             132   -0.46 7  144 260 
 PTB  HN ES   1    910 50.66                             132   -0.71 7  144 260 
 PTB  HZ I         910 52.44         2.5 0.50                           144 260 
                                                                                
