 2017 1117 0052 50.8 L   6.721 -73.123139.2  RSN 11 0.5 1.6LRSN                1
 GAP=166        1.15       3.9     5.4  6.2  0.4838E+01  0.4528E+01 -0.2003E+00E
 Epicentro: JORDAN - SANTANDER                                                 3
 ACTION:UPD 17-12-12 19:56 OP:rebc STATUS:               ID:20171117005250 L   I
 OLDACT:REG 17-11-17 13:16 OP:lv   STATUS:               ID:20171117004741     3
 2017-11-17-0048-00M.COL___477                                                 6
 STAT SP IPHASW D HRMM SECON CODA AMPLIT PERI AZIMU VELO AIN AR TRES W  DIS CAZ7
 BAR2 EZ EP        053  9.16                             173   -0.3210 15.7 205 
 BAR2 EZ ES        053 23.92                             173   -0.1510 15.7 205 
 BAR2 EZ I         053 25.62         7.3 0.66            163           15.7 205 
 RUS  HZ EP        053 13.11                             145   -0.1310 91.7 177 
 RUS  HN ES        053 31.51                             145    0.7410 91.7 177 
 RUS  HZ I         053 33.14         3.1 0.24            138           91.7 177 
 PTB  HZ EP   9    053 16.86                             130   -0.45 0  149 262 
 PTB  HN ES        053 37.00                                   -0.56 9  149 262 
 PTB  HZ I         053 39.44         5.3 0.14            122            149 262 
 YPLC HZ EP   4    053 17.64                             126   -1.58 0  168 151 
 ZAR  HZ EP        053 23.28                             120   -0.13 8  210 294 
 ZAR  HN ES        053 49.14                             120    0.28 8  210 294 
 ZAR  HZ I         053 53.47         6.2 0.32            114            210 294 
 NOR  HZ EP        053 25.38                             117   -0.44 8  232 237 
 NOR  HZ I         053 59.66         4.3 0.30            111            232 237 
 CHI  HZ EP        053 27.52                             116    0.25 8  241 196 
 CHI  HN ES   4    053 57.05                             116    1.32 0  241 196 
 CHI  HZ I         054  2.01         1.2 0.26            111            241 196 
 URE  HN ES   4    054  2.25                             112   -2.22 0  290 293 
 URE  HZ I         054  8.58         2.4 0.18            107            290 293 
 GUY2CHZ EP        053 34.13                             111    0.37 7  298 236 
 DRL03HZ EP        053 32.99                             111   -0.11 7  298 353 
 DRL03HN ES        054  5.91                             111   -0.20 7  298 353 
 GUY2CHN ES        054  7.06                             111   -0.23 7  298 236 
 GUY2CHZ I         054 17.93         1.9 0.50                           298 236 
 PTGC HZ EP        053 34.61                             111    1.30 7  300 158 
 PTGC HN ES        054  5.26                             111   -1.22 7  300 158 
 PRA  HZ EP        053 43.56                             106    0.23 6  386 211 
 PRA  HN ES        054 23.92                             106   -0.41 6  386 211 
 PRA  HZ I         054 31.66         1.3 0.42            102            386 211 
                                                                                
