 2017  717 0622 48.3 L   6.669 -73.161145.0  RSN  5 0.4 1.1LRSN                1
 GAP=226        0.86       8.5     6.3  8.5  0.2402E+02  0.1098E+02 -0.6156E+01E
 Epicentro: VILLANUEVA - SANTANDER                                             3
 ACTION:UPD 17-08-30 15:34 OP:rebc STATUS:               ID:20170717062248 L   I
 OLDACT:DUP 17-07-17 16:28 OP:dnl  STATUS:               ID:20170717061742d    3
 OLDACT:UP  17-07-17 16:20 OP:dnl  STATUS:               ID:20170717061741     3
 OLDACT:UP  17-07-17 16:18 OP:dnl  STATUS:               ID:20170717061741     3
 OLDACT:REG 17-07-17 12:56 OP:dnl  STATUS:               ID:20170717061741     3
 2017-07-17-0618-00M.COL___386                                                 6
 STAT SP IPHASW D HRMM SECON CODA AMPLIT PERI AZIMU VELO AIN AR TRES W  DIS CAZ7
 BAR2 EZ EP        623  7.62                             176    0.0310 8.81 196 
 BAR2 EZ ES        623 22.04                             176   -0.6310 8.81 196 
 BAR2 EZ I         623 23.55         4.5 0.44            171           8.81 196 
 BRR  HZ EP        623  9.70                             150   -0.0110 77.9 309 
 BRR  HN ES        623 26.95                             150    0.5010 77.9 309 
 BRR  HZ I         623 29.17         1.6 0.12            147           77.9 309 
 RUS  HZ EP   3    623 11.83                             148    0.88 2 86.3 174 
 RUS  HE ES   2    623 29.52                             148    0.87 5 86.3 174 
 RUS  HZ I         623 30.86         2.5 0.46            147           86.3 174 
 PTB  HZ EP   2    623 14.63                             132   -0.19 5  144 264 
 PTB  HN ES        623 35.52                             132   -0.02 9  144 264 
 PTB  HZ I         623 39.43         1.3 0.14            130            144 264 
 ZAR  HZ EP   4    623 22.36                             121    1.25 0  208 296 
 ZAR  HE ES        623 46.59                             121   -0.14 8  208 296 
 ZAR  HZ I         623 54.02         1.8 0.56            121            208 296 
                                                                                
