 2017  317 0316 41.9 L   6.763 -73.140154.1  RSN  4 0.2 1.1LRSN                1
 GAP=139        0.59       3.7     3.4  6.0 -0.2959E+01  0.3233E+01 -0.4968E-01E
 Epicentro: LOS SANTOS - SANTANDER                                             3
 ACTION:UPD 17-05-25 18:41 OP:jn   STATUS:               ID:20170317031641 L   I
 OLDACT:UP  17-03-17 14:51 OP:cog  STATUS:               ID:20170317030747     3
 OLDACT:REG 17-03-17 13:16 OP:cog  STATUS:               ID:20170317030747     3
 2017-03-17-0308-00M.COL___409                                                 6
 STAT SP IPHASW D HRMM SECON CODA AMPLIT PERI AZIMU VELO AIN AR TRES W  DIS CAZ7
 BRR  HE ES        317 21.69                             153    0.2810 73.8 301 
 PAM  EZ EP        317  5.39                             151    0.2210 80.2  37 
 PAM  EN ES        317 23.03                             151   -0.2910 80.2  37 
 PAM  EZ I         317 24.48         3.2 0.50            152           80.2  37 
 RUS  HN ES        317 25.20                             147    0.0510 96.4 176 
 RUS  HZ I         317 26.32         1.0 0.24            147           96.4 176 
 PTB  HZ EP        317  9.43                             134   -0.12 9  148 260 
 PTB  HE ES        317 30.94                             134   -0.18 9  148 260 
 PTB  HZ I         317 32.50         2.0 0.40            135            148 260 
                                                                                
