 2017  317 0946 35.6 L   6.756 -73.155145.5  RSN  5 0.4 1.3LRSN                1
 GAP=233        0.93       7.1     6.6  6.8  0.2916E+02  0.5659E+01 -0.4384E+01E
 Epicentro: LOS SANTOS - SANTANDER                                             3
 ACTION:UPD 17-05-25 18:41 OP:jn   STATUS:               ID:20170317094635 L   I
 OLDACT:REG 17-03-17 13:49 OP:cog  STATUS:               ID:20170317093742     3
 2017-03-17-0938-00M.COL___396                                                 6
 STAT SP IPHASW D HRMM SECON CODA AMPLIT PERI AZIMU VELO AIN AR TRES W  DIS CAZ7
 BAR2 EZ EP        946 54.96                             172   -0.2010 18.3 189 
 BAR2 EZ ES        947 10.28                             172   -0.0910 18.3 189 
 BAR2 EZ I         947 11.29         7.5 0.20            166           18.3 189 
 BRR  HZ EP        946 56.68                             152   -0.1810 72.8 302 
 BRR  HN ES        947 13.60                             152    0.2010 72.8 302 
 RUS  HZ EP        946 58.86                             145   -0.1710 95.8 175 
 RUS  HN ES        947 17.57                             145    0.3010 95.8 175 
 RUS  HZ I         947 18.74         2.5 0.28            143           95.8 175 
 PTB  HZ EP        947  2.07                             132   -0.35 9  146 261 
 PTB  HN ES        947 23.30                             132   -0.00 9  146 261 
 PTB  HZ I         947 28.45         2.0 0.20            130            146 261 
 ZAR  HZ EP        947  9.18                             122    1.01 9  205 294 
 ZAR  HN ES        947 33.15                             122   -0.39 9  205 294 
                                                                                
