 2013 1117 0701 24.6 L   6.822 -73.148144.4  RSN  6 0.6 1.3LRSN                1
 GAP=135        1.66       7.9     8.2 11.3 -0.1600E+02  0.1294E+02  0.1054E+02E
 Epicentro: LOS SANTOS - SANTANDER                                             3
 ACTION:UPD 14-01-09 16:29 OP:ep   STATUS:               ID:20131117070124 L   I
 OLDACT:DUP 13-11-17 13:45 OP:stll STATUS:               ID:20131117065811d    3
 2013-11-17-0658-09M.COL___219                                                 6
 STAT SP IPHASW D HRMM SECON CODA AMPLIT PERI AZIMU VELO AIN AR TRES W  DIS CAZ7
 BAR2 SZ EP        7 1 44.18                             169    0.0810 25.7 189 
 BAR2 SZ ES        7 1 58.95                             169   -0.3710 25.7 189 
 BAR2 SZ I         7 2  0.42         7.9 0.24            173           25.7 189 
 BRR  HZ EP        7 1 46.06                             153    0.5510 69.9 297 
 BRR  HZ I         7 2  2.58         3.8 0.56            147           69.9 297 
 BRR  HN ES        7 2  2.91                             153    1.0710 69.9 297 
 PAM  SZ EP        7 1 45.74                             151   -0.8110 75.7  41 
 PAM  SN ES        7 2  3.48                             151   -0.2110 75.7  41 
 PAM  SZ I         7 2  6.31         4.1 0.40            146           75.7  41 
 RUS  HZ EP        7 1 49.02                             143    0.6410  103 176 
 RUS  HN ES        7 2  7.04                             143    0.1010  103 176 
 RUS  HZ I         7 2  7.95         2.7 0.24            143            103 176 
 PTB  HZ EP        7 1 50.59                             132   -0.87 9  148 258 
 PTB  HN ES        7 2 11.79                             132   -0.64 9  148 258 
 PTB  HZ I         7 2 14.10         2.2 0.46            128            148 258 
 SPBC HZ EP        7 1 54.02                             128    0.88 9  165 218 
 SPBC HN ES        7 2 14.87                             128   -0.55 9  165 218 
 SPBC HZ I         7 2 17.73         2.8 0.36            126            165 218 
                                                                                
