 2012  317 0204 16.3 L   6.706 -73.174147.6  RSN  4 0.2 1.2LRSN                1
 GAP=227        0.46       7.6     5.1  9.3  0.3379E+01 -0.1344E+02  0.3807E+02E
 ACTION:UP  12-03-31 23:20 OP:EP   STATUS:               ID:20120317020416 L   I
 2012-03-17-0200-00M.COL___202                                                 6
 STAT SP IPHASW D HRMM SECON CODA AMPLIT PERI AZIMU VELO SNR AR TRES W  DIS CAZ7
 BAR2 SZ EP   1    2 4 35.73                             175    -0.2 7   13 184 
 BAR2 SZ I         2 4 51.18         4.7 0.42                            13 184 
 BRR  HZ EP   1    2 4 37.66                             152    -0.1 7   74 307 
 BRR  HN ES   1    2 4 54.70                             152     0.1 7   74 307 
 RUS  HZ EP   1    2 4 39.63                             147     0.1 7   91 174 
 RUS  HZ I         2 4 59.78         2.0 0.16                            91 174 
 PTB  HZ EP   1    2 4 43.12                             133     0.2 7  143 263 
 PTB  HN ES   1    2 5  3.62                             133    -0.1 7  143 263 
 PTB  HZ I         2 5  6.29         1.7 0.19                           143 263 
                                                                                
