 2013  117 0242 44.7 L   6.779 -73.142148.9  RSN 10 0.4 2.1LRSN                1
 GAP= 72        0.85       3.5     3.4  6.2  0.6356E+00  0.3131E+01  0.3096E+01E
 Epicentro: LOS SANTOS - SANTANDER                                             3
 ACTION:UPD 13-02-15 09:14 OP:ep   STATUS:               ID:20130117024244 L   I
 2013-01-17-0240-00M.COL___241                                                 6
 STAT SP IPHASW D HRMM SECON CODA AMPLIT PERI AZIMU VELO AIN AR TRES W  DIS CAZ7
 BAR2 SZ EP   1    243  4.56                             172   -0.09 7 21.1 192 
 BAR2 SZ ES   1    243 20.18                             172   -0.04 7 21.1 192 
 BAR2 SZ I         243 22.95        48.4 0.24            171           21.1 192 
 BRR  HZ EP        243  6.47                             153    0.2110 72.7 300 
 BRR  HN ES   1    243 23.99                             153    0.91 7 72.7 300 
 BRR  HZ I         243 29.96        27.6 0.14            151           72.7 300 
 PAM  SZ EP   1    243  7.48                             151    0.15 7 78.9  38 
 PAM  SN ES   1    243 24.76                             151   -0.23 7 78.9  38 
 PAM  SZ I         243 27.08         9.4 0.20            155           78.9  38 
 RUS  HZ EP     C  243  8.37                             145   -0.2110 98.2 176 
 RUS  HN ES   1    243 27.25                             145    0.03 7 98.2 176 
 RUS  HZ I         243 28.44        15.9 0.26            148           98.2 176 
 PTB  HZ EP   1    243 11.19                             133   -0.72 7  148 260 
 PTB  HN ES   1    243 32.42                             133   -0.72 7  148 260 
 PTB  HZ I         243 35.54        22.3 0.14            133            148 260 
 TAM  HZ EP   1    243 12.68                             131    0.15 7  154 104 
 TAM  HN ES   1    243 34.53                             131    0.29 7  154 104 
 OCA  HZ EP   1    243 13.55                             130    0.09 7  163 353 
 OCA  HN ES   1    243 35.26                             130   -0.65 7  163 353 
 OCA  HZ I         243 40.49        16.0 0.26            132            163 353 
 ZAR  HN ES   1    243 42.91                             123   -0.12 6  205 293 
 ZAR  HZ I         243 49.13        23.5 0.45            124            205 293 
 CHI  HZ EP   1    243 22.50                             118    0.17 6  246 195 
 CHI  HN ES   1    243 51.29                             118   -0.40 6  246 195 
 CHI  HZ I         243 57.75         8.4 0.30            120            246 195 
 HEL  HZ EP   1    243 25.77                             115    0.73 6  272 256 
 HEL  HN ES   1    243 57.28                             115    0.76 6  272 256 
 HEL  HZ I         244  3.28         8.0 0.24            117            272 256 
                                                                                
