 2013 1117 0530 33.0 L   6.816 -73.174142.7  RSN  8 0.6 1.8LRSN                1
 GAP=132        1.62       5.5     6.7  9.6 -0.1245E+02  0.1066E+02 -0.9333E+01E
 Epicentro: LOS SANTOS - SANTANDER                                             3
 ACTION:UPD 14-01-09 16:28 OP:ep   STATUS:               ID:20131117053033 L   I
 OLDACT:REG 13-11-17 09:03 OP:stll STATUS:               ID:20131117052810     3
 2013-11-17-0528-10M.COL___220                                                 6
 STAT SP IPHASW D HRMM SECON CODA AMPLIT PERI AZIMU VELO AIN AR TRES W  DIS CAZ7
 BAR2 SZ ES        531  7.13                             170   -0.2310 24.8 182 
 BAR2 SZ I         531  8.81        18.6 0.24            170           24.8 182 
 BRR  HZ EP        530 54.52                             153    0.8810 67.6 298 
 BRR  HN ES        531 10.62                             153    0.9010 67.6 298 
 BRR  HZ I         531 12.46         6.7 0.24            151           67.6 298 
 PAM  SZ EP        530 55.54                             150    0.5910 78.1  42 
 PAM  SN ES        531 12.29                             150    0.2310 78.1  42 
 PAM  SZ I         531 14.72        10.5 0.48            153           78.1  42 
 RUS  HZ EP        530 56.84                             143    0.2210  103 174 
 RUS  HN ES        531 14.57                             143   -0.4610  103 174 
 RUS  HZ I         531 16.34         7.0 0.28            146            103 174 
 PTB  HZ EP        530 59.34                             132   -0.16 9  145 258 
 PTB  HN ES        531 20.24                             132    0.09 9  145 258 
 PTB  HZ I         531 27.70         4.0 0.24            132            145 258 
 CAPV BZ EP        531  0.36                             131    0.14 9  150  39 
 CAPV BZ ES        531 20.64                             131   -0.79 9  150  39 
 SPBC HZ EP        531  1.79                             128    0.55 9  163 218 
 SPBC HN ES        531 22.12                             128   -1.13 9  163 218 
 SPBC HZ I         531 25.93        10.1 0.28            130            163 218 
 SML  HZ EP        531  8.92                             117   -0.24 8  241 336 
 SML  HN ES        531 35.99                             117   -1.36 8  241 336 
 SML  HZ I         531 40.90         7.4 0.10            118            241 336 
                                                                                
