 2017  817 0034 37.3 L   6.667 -74.173 16.2  RSN  6 0.4 1.4LRSN                1
 GAP= 86        1.06       2.6     2.4  4.6 -0.1621E+00 -0.8286E+00  0.4268E+01E
 Epicentro: PUERTO PARRA - SANTANDER                                           3
 ACTION:UPD 17-09-04 20:21 OP:rebc STATUS:               ID:20170817003437 L   I
 OLDACT:REG 17-08-17 12:21 OP:lv   STATUS:               ID:20170817002741     3
 2017-08-17-0028-00M.COL___413                                                 6
 STAT SP IPHASW D HRMM SECON CODA AMPLIT PERI AZIMU VELO AIN AR TRES W  DIS CAZ7
 BRR  HZ EP        034 48.87                             100    0.1710 70.5  46 
 BRR  HN ES        034 57.22                             100   -0.4010 70.5  46 
 SPBC HN ES        035  8.91                              96   -0.1710  113 174 
 ZAR  HZ EP        034 56.10                              96    0.1910  119 320 
 ZAR  HN ES        035 10.18                              96   -0.2910  119 320 
 ZAR  HZ I         035 11.20         6.9 0.14             95            119 320 
 RUS  HZ EP        035  1.04                              56    0.48 9  148 125 
 RUS  HN ES        035 18.28                              56   -0.45 9  148 125 
 RUS  HZ I         035 20.32         3.4 0.20             56            148 125 
 HEL  HZ EP        035  2.17                              56    0.39 9  159 251 
 HEL  HE ES        035 20.52                              56   -0.39 9  159 251 
 HEL  HZ I         035 21.19         5.0 0.50             56            159 251 
 PAM  EZ EP        035  5.35                              56    0.91 9  179  65 
 PAM  EN ES        035 25.32                              56   -0.32 9  179  65 
 PAM  EZ I         035 27.20         4.6 0.24             56            179  65 
                                                                                
