 2014  917 0535 35.0 L   6.043 -73.581113.4  RSN  7 0.3 1.4LRSN                1
 GAP=146        0.82       4.0     3.6  6.7 -0.6839E+01  0.9104E+01  0.2238E+01E
 Epicentro: GUEPSA - SANTANDER                                                 3
 ACTION:UPD 14-10-03 23:05 OP:nd   STATUS:               ID:20140917053535 L   I
 OLDACT:REG 14-09-17 12:58 OP:carl STATUS:               ID:20140917052819     3
 2014-09-17-0528-19M.COL___287                                                 6
 STAT SP IPHASW D HRMM SECON CODA AMPLIT PERI AZIMU VELO AIN AR TRES W  DIS CAZ7
 RUS  HZ EP        535 52.52                             151   -0.0710 57.6 107 
 RUS  HN ES        536  6.56                             151    0.2410 57.6 107 
 RUS  HZ I         536  8.48         2.4 0.26            155           57.6 107 
 SPBC HZ EP        535 52.39                             146   -0.3710 69.4 232 
 SPBC HN ES        536  6.38                             146   -0.2410 69.4 232 
 SPBC HZ I         536  9.55         8.6 0.36            149           69.4 232 
 BAR2 SZ EP        535 53.21                             144   -0.1610 75.1  36 
 BAR2 SZ ES        536  7.93                             144    0.2310 75.1  36 
 BAR2 SZ I         536  8.92        13.9 0.26            148           75.1  36 
 NOR  HN ES        536 19.20                             123   -0.37 9  152 250 
 CHI  HN ES        536 21.33                             122    0.00 9  157 186 
 GUY2CHZ EP        536  7.73                             113    0.09 8  217 245 
 GUY2CHE ES        536 33.97                             113    0.87 8  217 245 
 GUY2CHZ I         536 37.41         1.6 0.42                           217 245 
 PRA  HN ES        536 48.19                             106    0.03 7  295 209 
                                                                                
