 2015  517 0508 10.9 L   6.834 -73.079146.3  RSN  6 0.3 1.6LRSN                1
 GAP=190        0.81       4.4     6.7  8.3  0.1062E+02 -0.4048E+00 -0.1326E+02E
 Epicentro: LOS SANTOS - SANTANDER                                             3
 ACTION:UPD 15-09-10 22:04 OP:cam  STATUS:               ID:20150517050810 L   I
 OLDACT:REG 15-05-17 12:49 OP:spq  STATUS:               ID:20150517045750     3
 2015-05-17-0457-50M.COL___274                                                 6
 STAT SP IPHASW D HRMM SECON CODA AMPLIT PERI AZIMU VELO AIN AR TRES W  DIS CAZ7
 BAR2 EZ EP        5 8 30.85                             168    0.1610 29.1 203 
 BAR2 EZ ES   1    5 8 45.67                             168   -0.48 7 29.1 203 
 BAR2 EZ I         5 8 46.71         7.3 0.34            168           29.1 203 
 BRR  HZ EP     D  5 8 32.61                             151    0.2510 76.2 293 
 BRR  HE ES        5 8 49.68                             151    0.5610 76.2 293 
 BRR  HZ I         5 8 52.85         5.7 0.14            147           76.2 293 
 RUS  HE ES   1    5 8 53.51                             143   -0.18 7  104 180 
 RUS  HZ I         5 8 54.43         4.1 0.22            146            104 180 
 OCA  HN ES        5 9  0.58                             130   -0.31 9  158 350 
 OCA  HZ I         5 9  3.94         7.6 0.22            129            158 350 
 ZAR  HE ES        5 9  9.23                             122   -0.46 8  210 290 
 ZAR  HZ I         5 9 14.64         4.8 0.38            121            210 290 
 SML  HZ EP   1    5 8 47.35                             118   -0.15 6  244 333 
 SML  HN ES   1    5 9 16.24                             118    0.16 6  244 333 
 SML  HZ I         5 9 24.68         5.5 0.10            117            244 333 
                                                                                
