 2017  917 0306 16.9 L   6.276 -73.622111.0  RSN  5 0.4 1.2LRSN                1
 GAP=113        1.08       5.3     6.0  9.8 -0.1653E+02  0.9411E+01  0.7259E+01E
 Epicentro: SANTA HELENA DEL OPON - SANTANDER                                  3
 ACTION:UPD 17-10-05 19:13 OP:rebc STATUS:               ID:20170917030616 L   I
 OLDACT:DUP 17-09-17 13:09 OP:lv   STATUS:               ID:20170917025744d    3
 2017-09-17-0258-00M.COL___411                                                 6
 STAT SP IPHASW D HRMM SECON CODA AMPLIT PERI AZIMU VELO AIN AR TRES W  DIS CAZ7
 BAR2 EZ EP        3 6 34.43                             150    0.4410 59.9  54 
 BAR2 EZ ES        3 6 46.65                             150   -0.6910 59.9  54 
 BAR2 EZ I         3 6 49.20         9.4 0.40            153           59.9  54 
 RUS  HZ EP        3 6 35.48                             145    0.2510 73.1 125 
 SPBC HZ EP        3 6 35.32                             140   -0.2510 85.1 216 
 SPBC HN ES        3 6 50.54                             140    0.4010 85.1 216 
 SPBC HZ I         3 6 52.77         2.8 0.09            142           85.1 216 
 BRR  HZ EP        3 6 36.31                             137    0.2810 92.5 354 
 BRR  HE ES        3 6 51.10                             137    0.1210 92.5 354 
 NOR  HZ EP        3 6 41.77                             120   -0.72 9  159 240 
 NOR  HN ES        3 7  2.52                             120    0.06 9  159 240 
 NOR  HZ I         3 7  3.62         1.4 0.36            123            159 240 
                                                                                
