 2010  217 0231 59.5 L   7.338 -73.726 90.0  RSN  8 0.4 2.7LRSN                1
 GAP=121        0.73       4.3     5.0 12.5 -0.7085E+01  0.1967E+02  0.2652E+02E
 Epicentro: PUERTO WILCHES - SANTANDER                                         3
 ACTION:UP  10-08-24 09:49 OP:vdl  STATUS:               ID:20100217023159 L   I
 2010-02-17-0229-45S.COL___094                                                 6
 STAT SP IPHASW D HRMM SECON CODA AMPLIT PERI AZIMU VELO SNR AR TRES W  DIS CAZ7
 BAR2 SZ IP        232 17.94                             130    -0.110  102 144 
 OCA  SZ IP        232 18.53                             128    -0.210  109  24 
 OCA  SZ ES        232 33.75                             128     0.110  109  24 
 OCA  SZ I         232 37.94       152.9 0.22                           109  24 
 HEL  HZ EP   1    232 32.35                             108    -0.9 6  236 238 
 HEL  HN ES   2    233  0.14                             108     0.6 4  236 238 
 DBB  SZ EP        232 37.77                             105     0.1 8  277 263 
 CHI  HZ EP   2    232 40.66                             104    -0.2 4  299 180 
 CHI  HZ I         233 22.23         7.5 0.34                           299 180 
 RREF BZ EP        232 44.45                             103     0.4 7  324 214 
 RREF BN ES   2    233 19.28                             103     0.5 3  324 214 
 RREF BZ I         233 24.15        30.0 0.26                           324 214 
 ANIL BZ EP   2    232 48.36                             101    -0.3 3  365 211 
 ANIL BN ES   2    233 27.34                             101     0.3 3  365 211 
 ANIL BZ I         233 34.35        29.6 0.29                           365 211 
 SDV  BZ IP        232 51.00                                     0.5 6  381  63 
 SDV  BZ I         232 51.47        33.4 0.28                           381  63 
                                                                                
