 2011  317 0547  6.2 L   6.791 -73.147149.3  RSN 27 0.5 3.9LRSN                1
 GAP=103        0.77       2.6     3.9  4.1 -0.3321E+01  0.2954E+01  0.1075E+01E
 Epicentro: LOS SANTOS - SANTANDER                                             3
 ACTION:UP  11-06-16 14:34 OP:jfem STATUS:               ID:20110317054706 L   I
 2011-03-17-0543-50S.COL___138                                                 6
 STAT SP IPHASW D HRMM SECON CODA AMPLIT PERI AZIMU VELO SNR AR TRES W  DIS CAZ7
 BTL  SZ EP   1    547 26.56                             172     0.4 7   19 317 
 BTL  SZ ES   1    547 41.82                             172     0.1 7   19 317 
 BAR2 SZ EP   1    547 26.41                             171     0.2 7   22 190 
 BAR2 SZ ES   1    547 41.21                             171    -0.7 7   22 190 
 BAR2 SZ I         547 44.47      1043.0 0.40                            22 190 
 GIR2 SZ IP        547 26.60                             167     0.310   32 351 
 GIR2 SZ ES   1    547 42.22                             167     0.2 7   32 351 
 RUS  HZ EP   1    547 30.25                             145     0.0 7  100 176 
 RUS  HE ES   1    547 48.98                             145     0.0 7  100 176 
 RUS  HZ I         547 51.83       677.8 0.31                           100 176 
 GUE  SZ EP        547 31.49                             140     0.210  118  12 
 GRA  SZ EP   1    547 32.22                             138     0.4 7  127  17 
 GRA  SZ ES   1    547 51.83                             138     0.0 7  127  17 
 GRA  SZ I         547 54.87       861.9 0.36                           127  17 
 OCA  SZ EP        547 34.62                             130    -0.3 9  161 353 
 OCA  SZ ES   2    547 56.91                             130    -0.3 5  161 353 
 OCA  SZ I         548  2.28      1231.1 0.23                           161 353 
 YOP  SZ EP   1    547 36.86                             127     0.4 7  178 153 
 YOP  SN ES   1    547 59.79                             127    -0.2 7  178 153 
 YOP  SZ I         548  4.77       457.2 0.64                           178 153 
 NOR  SZ EP   1    547 42.04                             119     0.0 6  234 235 
 NOR  SN ES   1    548  9.47                             119    -0.6 6  234 235 
 CHI  HZ EP   1    547 44.01                             118     0.0 6  248 195 
 CHI  HN ES   1    548 13.50                             118     0.0 6  248 195 
 CHI  HZ I         548 22.19       317.2 0.45                           248 195 
 HEL  HZ EP   1    547 46.20                             115    -0.3 6  272 256 
 HEL  HN ES   1    548 17.45                             115    -0.6 6  272 256 
 HEL  HZ I         548 25.53       383.2 0.41                           272 256 
 GUY  SZ EP   1    547 50.89                             113     1.0 5  301 235 
 GUY  SN ES   1    548 24.79                             113     0.8 5  301 235 
 GUY  SZ I         548 36.86       705.4 0.40                           301 235 
 TOL  SZ EP   3    547 55.03                             110     0.5 2  343 225 
 MON  HZ IP   3 C  547 53.35                             109    -2.0 2  353 309 
 MON  HZ I         548 47.24       178.6 0.55                           353 309 
 SDV  BZ IP        547 55.60                             109    -0.9 6  361  50 
 SDV  BZ I         548 35.25       179.2 0.37                           361  50 
 PRA  HZ EP   1    548  0.00                             107     0.3 4  391 210 
 PRA  HZ I         548 46.54       487.1 0.18                           391 210 
 SJA  SZ EP        547 59.92                             107    -0.8 6  399 193 
 SJA  SZ I         548 49.71       323.6 0.39                           399 193 
 HORQ SZ EP   1    548 16.54                             102    -0.1 3  531 227 
 HORQ SN ES   2    549 11.65                             102     0.1 2  531 227 
 MARA HZ EP   3    548 16.97                             102    -0.2 1  536 216 
 MAL  SZ EP   3    548 20.52                             101     1.3 1  557 237 
 PCON HZ EP        548 26.74                             100     0.2 3  611 216 
 POP2 HZ EP        548 25.88                             100    -0.3 3  612 220 
 FLO2 HZ EP        548 28.55                              99    -0.7 2  640 206 
 SOTA HZ EP        548 30.89                              99     0.7 2  642 217 
 CRU  SZ EP   3    548 39.97                              98     1.1 0  715 216 
 GCUF HZ EP        548 46.21                              97     0.4 0  772 217 
 CUM  SZ EP        548 52.40                              96    -0.4 0  830 219 
                                                                                
