 2016  117 0804 25.6 L   6.809 -73.148144.6  RSN  7 0.5 1.2LRSN                1
 GAP=136        1.21       5.4     5.6  8.7  0.1054E+01  0.1418E+02 -0.2281E+01E
 Epicentro: LOS SANTOS - SANTANDER                                             3
 ACTION:UPD 16-03-09 23:26 OP:cam  STATUS:               ID:20160117080425 L   I
 OLDACT:DUP 16-01-17 18:24 OP:mh   STATUS:               ID:20160117075745d    3
 OLDACT:UP  16-01-17 18:23 OP:mh   STATUS:               ID:20160117075744     3
 OLDACT:UP  16-01-17 18:15 OP:mh   STATUS:               ID:20160117075744     3
 OLDACT:REG 16-01-17 14:00 OP:mh   STATUS:               ID:20160117075744     3
 2016-01-17-0757-44M.COL___319                                                 6
 STAT SP IPHASW D HRMM SECON CODA AMPLIT PERI AZIMU VELO AIN AR TRES W  DIS CAZ7
 BAR2 EZ EP        8 4 45.29                             170    0.1510 24.3 189 
 BAR2 EZ ES        8 5  0.09                             170   -0.2610 24.3 189 
 BAR2 EZ I         8 5  1.22         3.8 0.48            168           24.3 189 
 PAM  EZ EP        8 4 48.16                             151    0.4810 76.8  40 
 PAM  EN ES   1    8 5  4.09                             151   -0.79 7 76.8  40 
 PAM  EZ I         8 5  6.91         3.1 0.44            155           76.8  40 
 RUS  HZ EP        8 4 49.06                             143   -0.2810  102 176 
 RUS  HE ES        8 5  8.56                             143    0.7310  102 176 
 RUS  HZ I         8 5 10.36         0.8 0.25            144            102 176 
 PTB  HZ EP        8 4 52.23                             132   -0.27 9  148 258 
 PTB  HN ES        8 5 12.62                             132   -0.84 9  148 258 
 PTB  HZ I         8 5 15.44         2.0 0.16            132            148 258 
 SPBC HZ EP   1    8 4 54.06                             128   -0.04 7  164 219 
 SPBC HN ES   1    8 5 16.80                             128    0.50 7  164 219 
 SPBC HZ I         8 5 23.26         2.4 0.41            129            164 219 
 ZAR  HZ EP        8 4 58.18                             122    0.24 9  203 292 
 ZAR  HN ES        8 5 23.89                             122    0.75 9  203 292 
 ZAR  HZ I         8 5 28.72         2.4 0.48            123            203 292 
 CHI  HZ EP   1    8 5  2.44                             117   -0.92 6  250 195 
 CHI  HN ES   1    8 5 32.70                             117   -0.09 6  250 195 
 CHI  HZ I         8 5 35.52         0.8 0.34            118            250 195 
                                                                                
