 2015  317 0303 51.9 L   6.866 -73.154138.3  RSN  4 0.4 1.3LRSN                1
 GAP=148        0.99       6.0     5.8  8.4 -0.1114E+02  0.1472E+02 -0.3890E+01E
 Epicentro: LOS SANTOS - SANTANDER                                             3
 ACTION:UPD 15-04-30 16:26 OP:nd   STATUS:               ID:20150317030351 L   I
 OLDACT:DUP 15-03-17 18:10 OP:stll STATUS:               ID:20150317025737d    3
 2015-03-17-0257-36M.COL___269                                                 6
 STAT SP IPHASW D HRMM SECON CODA AMPLIT PERI AZIMU VELO AIN AR TRES W  DIS CAZ7
 BAR2 EZ EP        3 4 11.11                             167    0.3310 30.4 186 
 BAR2 EZ ES        3 4 25.69                             167    0.1610 30.4 186 
 BAR2 EZ I         3 4 27.27         7.8 0.18            168           30.4 186 
 PAM  SZ EP        3 4 13.64                             151    0.6310 72.5  44 
 PAM  SZ I         3 4 14.02         3.9 0.22            153           72.5  44 
 PAM  SE ES        3 4 28.98                             151   -0.5110 72.5  44 
 RUS  HZ EP        3 4 15.08                             140   -0.3810  108 176 
 RUS  HN ES        3 4 33.88                             140    0.0210  108 176 
 RUS  HZ I         3 4 34.50         2.1 0.20            142            108 176 
 PTB  HZ EP        3 4 17.89                             130   -0.43 9  148 256 
 PTB  HN ES        3 4 39.07                             130    0.13 9  148 256 
 PTB  HZ I         3 4 42.85         2.5 0.36            130            148 256 
                                                                                
