 2012 1017 0051  5.4 L   6.793 -73.108144.3  RSN  6 0.3 1.5LRSN                1
 GAP=142        0.60       4.0     4.5  5.6  0.3406E+01  0.2951E+01  0.1408E+01E
 Epicentro: LOS SANTOS - SANTANDER                                             3
 ACTION:UPD 12-11-22 17:04 OP:ep   STATUS:               ID:20121017005105 L   I
 2012-10-17-0050-00M.COL___231                                                 6
 STAT SP IPHASW D HRMM SECON CODA AMPLIT PERI AZIMU VELO AIN AR TRES W  DIS CAZ7
 BAR2 SZ EP   1    051 24.74                             170   -0.15 7 23.7 200 
 BAR2 SZ I         051 25.26        11.1 0.15                          23.7 200 
 BAR2 SZ ES   1    051 39.67                             170   -0.40 7 23.7 200 
 GIR2 SZ EP   1    051 24.83                             166   -0.15 7 32.9 343 
 GIR2 SZ ES   1    051 40.20                             166   -0.02 7 32.9 343 
 PAM  SZ EP   1    051 27.76                             151    0.39 7 75.3  37 
 PAM  SZ I         051 28.48         2.9 0.20                          75.3  37 
 PAM  SN ES   1    051 44.36                             151   -0.12 7 75.3  37 
 PAM  SN I         051 45.60         9.7 0.22                          75.3  37 
 BRR  HZ EP   1    051 26.86                             151    0.20 7 75.3 297 
 BRR  HZ I         051 27.75         8.5 0.14                          75.3 297 
 BRR  HE ES   1    051 43.51                             151    0.30 7 75.3 297 
 RUS  HZ EP   1    051 28.60                             144   -0.37 7 99.7 178 
 RUS  HZ I         051 29.40         2.7 0.28                          99.7 178 
 RUS  HN ES   1    051 47.78                             144    0.45 7 99.7 178 
 RUS  HN I         051 48.63         3.2 0.34                          99.7 178 
 ZAR  HE ES   1    052  3.59                             121   -0.19 6  208 292 
                                                                                
