 2014  117 0544 27.2 L   6.871 -73.345116.5  RSN 10 0.4 1.7LRSN                1
 GAP= 63        0.97       3.0     3.5  6.8 -0.2257E+00  0.8024E+01 -0.8947E+00E
 Epicentro: BETULIA - SANTANDER                                                3
 ACTION:UPD 14-03-13 09:56 OP:ep   STATUS:               ID:20140117054427 L   I
 OLDACT:REG 14-01-17 08:17 OP:mh   STATUS:               ID:20140117054000     3
 2014-01-17-0540-00M.COL___285                                                 6
 STAT SP IPHASW D HRMM SECON CODA AMPLIT PERI AZIMU VELO AIN AR TRES W  DIS CAZ7
 BAR2 SZ EP   1    544 44.06                             162    0.38 7 35.7 150 
 BAR2 SZ ES   1    544 56.69                             162    0.13 7 35.7 150 
 BAR2 SZ I         544 58.44        72.6 0.19            154           35.7 150 
 PAM  SZ EP   1    544 47.35                             140    0.19 7 88.1  54 
 PAM  SN ES        545  3.12                             140    0.3710 88.1  54 
 PAM  SZ I         545  5.72         7.3 0.27            132           88.1  54 
 RUS  HZ EP        544 49.09                             133   -0.0710  112 165 
 RUS  HN ES        545  6.24                             133   -0.0610  112 165 
 RUS  HZ I         545  9.07         1.6 0.52            125            112 165 
 PTB  HZ EP        544 49.40                             129   -0.6110  128 253 
 PTB  HN ES        545  7.33                             129   -0.5010  128 253 
 PTB  HZ I         545 11.17        13.7 0.14            123            128 253 
 OCA  HZ EP   1    544 52.23                             124   -0.24 7  151   1 
 OCA  HN ES   1    545 11.64                             124   -0.56 7  151   1 
 OCA  HZ I         545 13.76        10.3 0.19            117            151   1 
 TAM  HZ EP   1    544 54.69                             119   -0.46 7  178 106 
 TAM  HZ I         545 15.95         5.9 0.17            112            178 106 
 ZAR  HZ EP        544 56.28                             118    0.93 9  181 292 
 ZAR  HN ES   1    545 17.90                             118    0.57 7  181 292 
 ZAR  HZ I         545 21.55         5.4 0.21            114            181 292 
 SML  HZ EP   1    544 59.92                             112   -0.63 6  228 339 
 SML  HN ES   1    545 26.41                             112   -0.18 6  228 339 
 SML  HZ I         545 31.60        10.1 0.07            108            228 339 
 CHI  HZ EP        545  4.33                             110    0.57 8  252 190 
 CHI  HN ES   1    545 32.03                             110   -0.27 6  252 190 
 CHI  HZ I         545 38.15         1.3 0.26            106            252 190 
 HEL  HZ EP   1    545  3.69                             110   -0.18 6  253 253 
 HEL  HN ES   1    545 32.84                             110    0.34 6  253 253 
 HEL  HZ I         545 38.44         3.2 0.41            106            253 253 
 GUY2CHZ EP   4    545 10.85                             107    2.75 0  288 231 
 SJC  HZ EP   4    545 17.89                             101   -1.84 0  391 329 
 SJC  HN ES   4    545 57.98                             101   -2.74 0  391 329 
                                                                                
