 2017  217 0445 35.9 L   5.954 -73.671121.9  RSN 17 0.5 2.0LRSN                1
 GAP= 85        1.16       2.4     2.6  6.1 -0.1416E+01  0.3938E+01  0.6351E+00E
 Epicentro: GUAVATA - SANTANDER                                                3
 ACTION:UPD 17-05-24 15:37 OP:jn   STATUS:               ID:20170217044535 L   I
 OLDACT:UP  17-02-17 15:21 OP:cog  STATUS:               ID:20170217043739     3
 OLDACT:UP  17-02-17 15:19 OP:cog  STATUS:               ID:20170217043739     3
 OLDACT:REG 17-02-17 13:12 OP:cog  STATUS:               ID:20170217043739     3
 2017-02-17-0438-00M.COL___349                                                 6
 STAT SP IPHASW D HRMM SECON CODA AMPLIT PERI AZIMU VELO AIN AR TRES W  DIS CAZ7
 RUS  HZ EP        445 54.77                             150   -0.1410 65.5  96 
 RUS  HN ES        446  9.67                             150   -0.0310 65.5  96 
 RUS  HZ I         446 10.90        16.4 0.24            155           65.5  96 
 BAR2 HZ EP        445 56.20                             141    0.0510 88.9  37 
 BAR2 HZ ES        446 12.72                             141    0.8010 88.9  37 
 BAR2 HZ I         446 13.98        74.9 0.26            146           88.9  37 
 PTB  HZ EP        445 56.64                             135   -0.7810  108 307 
 PTB  HN ES        446 13.60                             135   -0.5610  108 307 
 PTB  HZ I         446 17.43        13.9 0.13            138            108 307 
 BRR  HZ EP        445 59.46                             130    0.3510  128 358 
 BRR  HE ES        446 17.38                             130    0.1910  128 358 
 BRR  HZ I         446 20.42        13.2 0.14            134            128 358 
 NOR  HZ EP        446  0.13                             128   -0.19 9  140 252 
 NOR  HN ES        446 19.61                             128    0.27 9  140 252 
 NOR  HZ I         446 21.73        22.3 0.22            130            140 252 
 ROSC BZ EP   4    446  2.29                             127    1.21 0  143 210 
 ROSC BE ES        446 20.06                             127   -0.62 9  143 210 
 ROSC BZ I         446 24.94        13.1 0.55            130            143 210 
 CHI  HZ EP        446  1.34                             126   -0.15 9  147 183 
 CHI  HE ES        446 20.82                             126   -0.60 9  147 183 
 CHI  HZ I         446 25.53         7.9 0.36            129            147 183 
 PAM  EZ EP        446  5.94                             119    0.20 9  187  35 
 PAM  EN ES        446 28.90                             119   -0.09 9  187  35 
 PAM  EZ I         446 31.11         7.9 0.18            123            187  35 
 VIL  EZ EP        446  6.51                             117   -0.57 9  204 181 
 VIL  EE ES        446 32.41                             117    1.05 9  204 181 
 VIL  EZ I         446 34.15        19.6 0.42            120            204 181 
 ZAR  HZ EP        446  7.90                             115   -0.23 8  215 322 
 ZAR  HE ES        446 33.12                             115   -0.12 8  215 322 
 ZAR  HZ I         446 39.03        11.5 0.40            118            215 322 
 TAM  HZ EP        446  8.05                             115   -0.12 8  215  76 
 TAM  HN ES        446 33.36                             115    0.05 8  215  76 
 ELA  HZ EP   4    446 11.47                             114    1.37 0  227 238 
 ELA  HE ES        446 36.87                             114    0.12 8  227 238 
 ELA  HZ I         446 44.89         5.8 0.26            116            227 238 
 ANIL HZ EP        446 13.46                             111    0.90 8  251 230 
 ANIL HE ES        446 40.90                             111   -0.22 8  251 230 
 ANIL HZ I         446 48.46        13.4 0.30            114            251 230 
 CBOC HZ EP        446 13.94                             110    0.58 8  259 268 
 CBOC HE ES        446 42.67                             110    0.13 8  259 268 
 CBOC HZ I         446 45.76         3.3 0.48            113            259 268 
 URE  HZ EP        446 15.36                             108   -0.86 7  286 314 
 URE  HN ES   4    446 45.24                             108   -2.40 0  286 314 
 ORTC HZ EP        446 15.79                             108   -0.43 7  286 218 
 ORTC HN ES        446 48.41                             108    0.78 7  286 218 
 DBB  EZ EP        446 18.66                             107    0.22 7  304 293 
 DBB  EN ES        446 52.32                             107    0.73 7  304 293 
                                                                                
