 2012  317 0310 17.3 L   6.778 -73.121152.5  RSN  6 0.3 1.3LRSN                1
 GAP=141        0.67       4.9     5.0  7.9  0.4956E+01  0.9685E+01  0.6084E+01E
 ACTION:UP  12-03-31 23:20 OP:EP   STATUS:               ID:20120317031017 L   I
 2012-03-17-0310-00M.COL___202                                                 6
 STAT SP IPHASW D HRMM SECON CODA AMPLIT PERI AZIMU VELO SNR AR TRES W  DIS CAZ7
 BAR2 SZ EP   1    310 37.89                             172     0.1 7   22 198 
 BAR2 SZ I         310 55.00         4.9 0.22                            22 198 
 BRR  HZ EP   1    310 39.89                             152     0.5 7   75 299 
 BRR  HE ES   1    310 56.86                             152     0.2 7   75 299 
 BRR  HZ I         310 57.93         9.0 0.12                            75 299 
 PAM  SZ EP   1    310 40.19                             152    -0.1 7   78  37 
 PAM  SE ES   1    310 57.96                             152    -0.2 7   78  37 
 RUS  HZ EP   1    310 41.80                             146     0.2 7   98 178 
 RUS  HE ES   1    311  0.34                             146    -0.2 7   98 178 
 RUS  HZ I         311  1.32         1.9 0.22                            98 178 
 PTB  HZ EP   1    310 44.58                             133    -0.5 7  150 260 
 PTB  HZ I         311  8.86         1.7 0.17                           150 260 
 ZAR  HE ES   1    311 16.33                             123    -0.2 6  207 292 
                                                                                
