 2013 1117 0952 30.9 L   6.355 -73.261151.8  RSN  6 0.5 1.9LRSN                1
 GAP=129        1.33       6.2     6.6  9.1 -0.1142E+02  0.5802E+01 -0.1992E+01E
 Epicentro: CONFINES - SANTANDER                                               3
 ACTION:UPD 14-01-09 16:29 OP:ep   STATUS:               ID:20131117095230 L   I
 OLDACT:REG 13-11-17 09:11 OP:stll STATUS:               ID:20131117094809     3
 2013-11-17-0948-09M.COL___216                                                 6
 STAT SP IPHASW D HRMM SECON CODA AMPLIT PERI AZIMU VELO AIN AR TRES W  DIS CAZ7
 BAR2 SZ EP        952 51.43                             169    0.0610 27.7  18 
 BAR2 SZ ES        953  6.82                             169   -0.5010 27.7  18 
 BAR2 SZ I         953  8.52        45.1 0.12            165           27.7  18 
 RUS  HZ EP        952 52.68                             159    0.0310 54.7 159 
 RUS  HN ES        953  9.48                             159   -0.1110 54.7 159 
 RUS  HZ I         953 11.60        10.1 0.32            158           54.7 159 
 BRR  HZ EP        952 54.61                             146    0.2810 97.0 329 
 BRR  HN ES        953 13.63                             146    1.0510 97.0 329 
 BRR  HN I         953 17.03        26.3 0.18            143           97.0 329 
 SPBC HZ EP        952 56.37                             140    0.3110  119 229 
 SPBC HN ES        953 16.23                             140    0.5610  119 229 
 SPBC HZ I         953 20.12         6.6 0.20            139            119 229 
 PAM  SZ EP        952 57.02                             139   -0.1210  125  30 
 PAM  SZ I         953 12.68         4.4 0.20            134            125  30 
 PAM  SE ES        953 17.45                             139   -0.1410  125  30 
 PTB  HZ EP        952 56.60                             136   -0.5910  134 279 
 PTB  HZ I         952 58.17         8.7 0.24            135            134 279 
 PTB  HN ES        953 16.73                             136   -0.9410  134 279 
                                                                                
