 2011  817 0348 40.5 L   6.787 -73.079146.7  RSN 12 0.4 2.3LRSN                1
 GAP=187        0.62       2.5     6.1  4.6 -0.1583E+01  0.3383E+01 -0.6676E-01E
 Epicentro: LOS SANTOS - SANTANDER                                             3
 ACTION:UPD 12-07-13 15:52 OP:ep   STATUS:               ID:20110817034840 L   I
 2011-08-17-0340-00M.COL___152                                                 6
 STAT SP IPHASW D HRMM SECON CODA AMPLIT PERI AZIMU VELO AIN AR TRES W  DIS CAZ7
 BAR2 SZ EP        349  0.70                             170    0.4310 24.3 208 
 BAR2 SZ ES   1    349 15.40                             170   -0.29 7 24.3 208 
 BAR2 SZ I         349 16.78        84.9 0.22                          24.3 208 
 BRR  HZ IP     D  349  2.46                             150    0.2810 78.4 297 
 BRR  HE ES   1    349 19.20                             150    0.12 7 78.4 297 
 BRR  HZ I         349 20.44        46.0 0.22                          78.4 297 
 RUS  HZ EP   1    349  4.60                             144    0.37 7 98.9 180 
 RUS  HN ES   1    349 22.24                             144   -0.49 7 98.9 180 
 RUS  HZ I         349 25.23        21.7 0.40                          98.9 180 
 OCA  SZ EP   1    349  9.26                             129    0.13 7  163 351 
 OCA  SZ ES   2    349 31.15                             129   -0.30 5  163 351 
 OCA  SZ I         349 36.57        21.5 0.45                           163 351 
 NOR  SZ EP   2    349 17.01                             118    0.16 4  240 236 
 NOR  SN ES   2    349 44.86                             118   -0.33 4  240 236 
 CHI  HZ EP   1    349 17.99                             117   -0.33 6  249 197 
 CHI  HN ES   2    349 47.96                             117    0.14 4  249 197 
 CHI  HZ I         349 55.03         8.4 0.45                           249 197 
 VIL  SN ES   2    349 57.49                             112   -0.40 4  303 193 
 VIL  SZ I         350  9.69         8.8 0.34                           303 193 
 RREF HZ EP   2    349 27.80                             111    0.58 3  326 230 
 RREF HN ES   2    350  3.20                             111   -0.46 3  326 230 
 TOL  SZ EP   2    349 29.74                             109    0.46 3  348 226 
 COD  HZ EP   1    349 28.57                             109   -0.61 5  351 353 
 COD  HN ES   1    350  6.30                             109   -0.84 5  351 353 
 COD  HZ I         350 14.21         6.7 0.84                           351 353 
 PRA  HZ EP   1    349 33.96                             106   -0.38 4  394 211 
 PRA  HN ES   2    350 16.32                             106   -0.01 3  394 211 
 SJA  SZ ES   2    350 17.35                             106   -0.38 3  400 194 
                                                                                
