 2012  517 0220 40.8 L   6.704 -73.186154.6  RSN  4 0.3 1.3LRSN                1
 GAP=225        0.67       7.5     7.1  8.0  0.2048E+02  0.1145E+02 -0.5219E+01E
 Epicentro: VILLANUEVA - SANTANDER                                             3
 ACTION:UP  12-07-05 12:05 OP:pat  STATUS:               ID:20120517022040 L   I
 2012-05-17-0220-00M.COL___197                                                 6
 STAT SP IPHASW D HRMM SECON CODA AMPLIT PERI AZIMU VELO SNR AR TRES W  DIS CAZ7
 BAR2 SZ EP   1    221  1.24                             175    -0.1 7   12 178 
 BAR2 SZ I         221  1.64         4.1 0.11                            12 178 
 BAR2 SZ ES   1    221 16.96                             175    -0.4 7   12 178 
 BRR  HZ EP   1    221  3.17                             153     0.1 7   73 308 
 BRR  HZ I         221  3.45         6.6 0.20                            73 308 
 BRR  HN ES   1    221 20.73                             153     0.3 7   73 308 
 RUS  HN ES   1    221 23.81                             148     0.3 7   90 173 
 RUS  HZ I         221 24.78         2.4 0.38                            90 173 
 PTB  HZ EP   1    221  7.94                             135    -0.1 7  142 263 
 PTB  HN ES   1    221 29.04                             135    -0.2 7  142 263 
 PTB  HZ I         221 34.17         1.8 0.33                           142 263 
                                                                                
