 2017  117 0957 54.2 L   6.800 -73.164142.5  RSN  5 0.3 0.9LRSN                1
 GAP=236        0.76       5.7     5.3  5.5  0.1924E+02  0.3445E+01 -0.2985E+01E
 Epicentro: LOS SANTOS - SANTANDER                                             3
 ACTION:UPD 17-05-22 16:00 OP:jn   STATUS:               ID:20170117095754 L   I
 OLDACT:UP  17-01-17 15:17 OP:edw  STATUS:               ID:20170117094741     3
 OLDACT:UP  17-01-17 15:17 OP:edw  STATUS:               ID:20170117094741     3
 OLDACT:REG 17-01-17 13:49 OP:dani STATUS:               ID:20170117094741     3
 2017-01-17-0948-00M.COL___329                                                 6
 STAT SP IPHASW D HRMM SECON CODA AMPLIT PERI AZIMU VELO AIN AR TRES W  DIS CAZ7
 BAR2 EZ EP        958 13.17                             170   -0.2610 23.1 185 
 BAR2 EZ ES        958 28.10                             170   -0.3310 23.1 185 
 BAR2 EZ I         958 29.68         2.4 0.16            170           23.1 185 
 BRR  HZ EP        958 15.08                             153    0.1910 69.4 299 
 BRR  HE ES        958 31.20                             153    0.1710 69.4 299 
 RUS  HZ EP        958 17.40                             143   -0.2410  101 175 
 RUS  HE ES        958 36.49                             143    0.5610  101 175 
 RUS  HZ I         958 37.01         0.7 0.34            144            101 175 
 PTB  HZ EP        958 20.61                             132   -0.11 9  146 259 
 PTB  HN ES        958 41.09                             132   -0.31 9  146 259 
 PTB  HZ I         958 42.75         1.0 0.41            131            146 259 
 ZAR  HZ EP        958 26.47                             122    0.24 9  202 292 
 ZAR  HN ES        958 51.36                             122    0.14 9  202 292 
 ZAR  HZ I         958 57.94         1.1 0.26            122            202 292 
                                                                                
