 2014  117 0535 46.6 L   6.793 -73.172142.7  RSN 16 0.4 2.2LRSN                1
 GAP= 70        0.82       2.6     3.3  5.3 -0.1675E+00  0.5073E+01 -0.1561E+01E
 Epicentro: LOS SANTOS - SANTANDER                                             3
 ACTION:UPD 14-03-13 09:56 OP:ep   STATUS:               ID:20140117053546 L   I
 OLDACT:UP  14-01-17 11:59 OP:mh   STATUS:               ID:20140117053001d    3
 OLDACT:DUP 14-01-17 11:39 OP:mh   STATUS:               ID:20140117053001d    3
 2014-01-17-0530-00M.COL___285                                                 6
 STAT SP IPHASW D HRMM SECON CODA AMPLIT PERI AZIMU VELO AIN AR TRES W  DIS CAZ7
 BAR2 SZ IP     C  536  5.95                             171    0.1110 22.2 183 
 BAR2 SZ ES   1    536 20.99                             171    0.15 7 22.2 183 
 BAR2 SZ I         536 22.90        47.7 0.22            167           22.2 183 
 PAM  SZ EP   1    536  9.03                             149    0.38 7 79.9  41 
 PAM  SN ES   1    536 26.35                             149    0.51 7 79.9  41 
 PAM  SZ I         536 29.08        18.3 0.18            136           79.9  41 
 RUS  HZ IP     D  536  9.73                             143   -0.2810  100 174 
 RUS  HN ES        536 28.11                             143   -0.1610  100 174 
 RUS  HZ I         536 29.91         8.1 0.35            132            100 174 
 PTB  HZ EP   1    536 12.51                             132   -0.54 7  145 259 
 PTB  HN ES        536 33.19                             132   -0.48 9  145 259 
 PTB  HZ I         536 39.69        34.3 0.13            122            145 259 
 TAM  HZ EP   1    536 14.20                             129   -0.09 7  158 104 
 TAM  HZ I         536 34.98        14.9 0.21            116            158 104 
 TAM  HN ES   2    536 35.60                             129   -0.28 5  158 104 
 SPBC HZ EP   1    536 14.68                             129    0.05 7  161 218 
 OCA  HZ EP   1    536 14.97                             129    0.25 7  161 354 
 OCA  HZ I         536 41.23        13.4 0.18            117            161 354 
 SPBC HZ I         536 41.64        32.2 0.08            118            161 218 
 ZAR  HZ EP        536 18.96                             122    0.36 9  202 293 
 ZAR  HN ES   1    536 44.15                             122    0.59 6  202 293 
 ZAR  HZ I         536 50.09        25.2 0.10            112            202 293 
 NOR  HZ EP   1    536 21.74                             118   -0.11 6  232 234 
 NOR  HN ES   1    536 48.94                             118   -0.40 6  232 234 
 NOR  HZ I         536 56.56        23.9 0.22            109            232 234 
 SML  HZ EP        536 22.50                             117   -0.51 8  243 336 
 SML  HN ES        536 50.96                             117   -0.45 8  243 336 
 SML  HZ I         536 54.99        34.1 0.05            108            243 336 
 CHI  HZ EP        536 23.83                             117   -0.14 8  247 195 
 CHI  HN ES   1    536 52.99                             117   -0.12 6  247 195 
 CHI  HZ I         536 59.45         6.3 0.17            108            247 195 
 ROSC BZ EP   4    536 25.74                             116    1.42 0  251 211 
 ROSC BN ES   1    536 54.81                             116    1.08 6  251 211 
 HEL  HZ EP   1    536 26.79                             114    0.47 6  269 256 
 URE  HZ EP   4    536 21.64                             113   -5.62 0  281 292 
 URE  HN ES   4    536 56.98                             113   -1.99 0  281 292 
 URE  HZ I         537  6.94        11.6 0.39            105            281 292 
 GUY2CHZ EP   4    536 31.22                             112    1.47 0  298 235 
 GUY2CHN ES   4    537  6.01                             112    2.61 0  298 235 
 GUY2CHZ I         537 12.04        14.9 0.28                           298 235 
 PTGC HZ EP   4    536 28.73                             111   -1.63 0  309 158 
 PTGC HE ES   4    536 59.65                             111   -4.84 0  309 158 
 CBOC HZ EP        536 33.68                             109    0.64 7  331 252 
 CBOC HN ES   4    537  7.75                             109   -1.52 0  331 252 
 CBOC HZ I         537 22.05         3.3 0.49            103            331 252 
                                                                                
