 2017 1217 0300 32.5 L   6.794 -73.180137.0  RSN 13 0.5 2.0LRSN                1
 GAP= 63        1.15       3.0     3.4  6.5  0.2969E+00  0.3680E+01  0.2768E+00E
 Epicentro: LOS SANTOS - SANTANDER                                             3
 ACTION:UPD 18-01-04 13:21 OP:rebc STATUS:               ID:20171217030032 L   I
 OLDACT:UP  17-12-17 15:37 OP:edw  STATUS:               ID:20171217025736     3
 OLDACT:UP  17-12-17 15:37 OP:edw  STATUS:               ID:20171217025736     3
 OLDACT:UP  17-12-17 15:35 OP:edw  STATUS:               ID:20171217025736     3
 OLDACT:REG 17-12-17 12:52 OP:edw  STATUS:               ID:20171217025736     3
 2017-12-17-0258-00M.COL___467                                                 6
 STAT SP IPHASW D HRMM SECON CODA AMPLIT PERI AZIMU VELO AIN AR TRES W  DIS CAZ7
 BAR2 EZ EP        3 0 51.04                             170   -0.0210 22.3 181 
 BAR2 EZ ES        3 1  5.36                             170   -0.1710 22.3 181 
 BAR2 EZ I         3 1  7.29        19.9 0.22            170           22.3 181 
 PAM  EZ EP        3 0 54.18                             148    0.2010 80.3  41 
 PAM  EN ES        3 1 11.06                             148    0.3310 80.3  41 
 PAM  EZ I         3 1 13.03        24.6 0.52            152           80.3  41 
 PTB  HZ EP        3 0 58.08                             131   -0.33 9  144 259 
 PTB  HN ES        3 1 18.52                             131   -0.10 9  144 259 
 PTB  HZ I         3 1 22.29         5.6 0.18            132            144 259 
 TAM  HZ IP     D  3 0 59.55                             128   -0.29 9  159 104 
 TAM  HE ES        3 1 20.79                             128   -0.37 9  159 104 
 OCA  HZ EP        3 0 59.54                             127   -0.63 9  160 355 
 OCA  HE ES        3 1 21.49                             127   -0.26 9  160 355 
 OCA  HZ I         3 1 26.24        36.6 0.28            130            160 355 
 SPBC HZ EP        3 1  0.45                             127    0.38 9  160 218 
 SPBC HN ES        3 1 20.72                             127   -0.84 9  160 218 
 SPBC HZ I         3 1 27.73        12.3 0.26            129            160 218 
 YPLC HZ EP        3 1  1.68                             124   -0.13 9  178 150 
 YPLC HE ES        3 1 25.51                             124    0.85 9  178 150 
 YPLC HZ I         3 1 28.03        12.5 0.30            127            178 150 
 ZAR  HZ EP        3 1  4.42                             121    0.37 9  201 293 
 ZAR  HE ES        3 1 29.46                             121    0.81 9  201 293 
 ZAR  HZ I         3 1 34.32         8.0 0.30            122            201 293 
 URE  HZ EP   2    3 1 12.06                             112   -0.73 4  281 292 
 URE  HN ES   4    3 1 43.11                             112   -1.10 0  281 292 
 URE  HZ I         3 1 44.99         8.3 0.16            114            281 292 
 DRL03HZ EP        3 1 13.43                             111   -0.30 7  289 354 
 DRL03HN ES        3 1 46.50                             111    0.62 7  289 354 
 GUY2CHZ EP   4    3 1 17.30                             111    1.97 0  298 234 
 GUY2CHN ES   4    3 1 51.47                             111    2.74 0  298 234 
 GUY2CHZ I         3 1 58.81         2.7 0.52                           298 234 
 PRA  HZ EP        3 1 25.83                             105    0.38 6  390 209 
 PRA  HE ES        3 2  6.95                             105    0.20 6  390 209 
 PRA  HZ I         3 2 12.57         2.4 0.28            107            390 209 
 SJC  HZ EP   9    3 1 25.83                             104   -1.78 0  408 327 
 SJC  HN ES        3 2  7.26                             104   -1.55 6  408 327 
 SJC  HZ I         3 2 10.95         4.1 0.50            106            408 327 
                                                                                
