 2011  717 0600 22.0 L   6.768 -73.081153.7  RSN  6 0.2 1.4LRSN                1
 GAP=166        0.53       3.2     7.0  4.7 -0.9727E+00 -0.8990E+01 -0.2120E+00E
 Epicentro: LOS SANTOS - SANTANDER                                             3
 ACTION:UPD 12-07-25 14:01 OP:epov STATUS:               ID:20110717060022 L   I
 2011-07-17-0559-08S.COL___143                                                 6
 STAT SP IPHASW D HRMM SECON CODA AMPLIT PERI AZIMU VELO AIN AR TRES W  DIS CAZ7
 BAR2 SZ EP   1    6 0 42.41                             171   -0.12 7 22.5 210 
 BAR2 SZ ES   1    6 0 58.29                             171   -0.28 7 22.5 210 
 BAR2 SZ I         6 0 58.69         5.0 0.37                          22.5 210 
 BTL  SZ EP   1    6 0 42.58                             170   -0.03 7 26.5 309 
 BTL  SZ ES   1    6 0 58.92                             170    0.20 7 26.5 309 
 GIR2 SZ EP   1    6 0 43.04                             166    0.32 7 36.5 340 
 GIR2 SZ ES   1    6 0 59.43                             166    0.51 7 36.5 340 
 BRR  HZ EP   1    6 0 44.28                             151   -0.14 7 79.2 298 
 BRR  HZ I         6 0 44.57         9.7 0.16                          79.2 298 
 BRR  HN ES   1    6 1  1.77                             151   -0.17 7 79.2 298 
 RUS  HZ EP   1    6 0 46.35                             146    0.11 7 96.8 180 
 RUS  HE ES   1    6 1  5.06                             146   -0.12 7 96.8 180 
 RUS  HZ I         6 1  6.27         2.0 0.44                          96.8 180 
 GRA  SZ EP   1    6 0 48.13                             138    0.10 7  127  14 
 GRA  SZ ES   1    6 1  7.98                             138   -0.39 7  127  14 
 GRA  SZ I         6 1  8.85         2.9 0.34                           127  14 
                                                                                
