 2013  817 0109 20.0 L   6.746 -73.163135.3  RSN  6 0.2 1.4LRSN                1
 GAP=137        0.57       2.9     3.0  5.2  0.1664E+01  0.4222E+01  0.2155E+01E
 Epicentro: VILLANUEVA - SANTANDER                                             3
 2013-08-17-0108-44M.COL___213                                                 6
 OLDACT:REG 13-08-17 08:14 OP:stll STATUS:               ID:20130817010844     3
 ACTION:UPD 14-01-14 09:03 OP:ep   STATUS:               ID:20130817010920 L   I
 OLDACT:UP  13-08-17 10:47 OP:stll STATUS:               ID:20130817010844     3
 STAT SP IPHASW D HRMM SECON CODA AMPLIT PERI AZIMU VELO AIN AR TRES W  DIS CAZ7
 BAR2 SZ EP        1 9 38.35                             172    0.1110 17.2 187 
 BAR2 SZ I         1 9 57.26         4.2 0.82            164           17.2 187 
 BRR  HZ EP        1 9 40.42                             150    0.3310 72.6 303 
 BRR  HN ES        1 9 56.05                             150    0.2710 72.6 303 
 BRR  SZ I         110 19.49         9.3 0.40            140           72.6 303 
 PAM  SZ EP        1 9 41.46                             147   -0.0110 83.2  38 
 PAM  SN ES        1 9 58.03                             147   -0.2010 83.2  38 
 PAM  SZ I         110  6.59         2.4 1.62            151           83.2  38 
 RUS  HZ EP        1 9 42.26                             143   -0.0310 94.8 175 
 RUS  HN ES        1 9 59.56                             143   -0.1310 94.8 175 
 PTB  HZ EP        1 9 45.78                             130   -0.07 9  145 261 
 PTB  SZ I         110 12.12         3.8 1.98            125            145 261 
 ZAR  HN ES        110 16.28                             120   -0.39 9  205 294 
                                                                                
