 2015  517 0211 43.1 L   6.791 -73.125146.7  RSN  4 0.2 1.3LRSN                1
 GAP=140        0.55       3.8     4.8  5.4  0.1133E+01 -0.4551E+01 -0.6713E+00E
 Epicentro: LOS SANTOS - SANTANDER                                             3
 ACTION:UPD 15-09-10 22:04 OP:cam  STATUS:               ID:20150517021143 L   I
 OLDACT:REG 15-05-17 12:37 OP:spq  STATUS:               ID:20150517020739     3
 2015-05-17-0207-39M.COL___280                                                 6
 STAT SP IPHASW D HRMM SECON CODA AMPLIT PERI AZIMU VELO AIN AR TRES W  DIS CAZ7
 BAR2 EZ ES   1    212 17.70                             171   -0.47 7 22.9 196 
 BAR2 EZ I         212 18.94         4.3 0.18            172           22.9 196 
 BRR  HZ EP        212  4.24                             152   -0.2010 73.7 298 
 BRR  HN ES        212 21.32                             152    0.2010 73.7 298 
 BRR  HZ I         212 25.16         6.3 0.31            152           73.7 298 
 PAM  SZ EP        212  5.38                             151    0.0610 76.7  38 
 PAM  SE ES   1    212 22.77                             151    0.08 7 76.7  38 
 PAM  SZ I         212 24.77         3.3 0.38            153           76.7  38 
 RUS  HZ EP   1    212  6.86                             144    0.05 7 99.5 177 
 RUS  HN ES   1    212 25.59                             144    0.24 7 99.5 177 
 RUS  HZ I         212 26.23         2.7 0.36            148           99.5 177 
                                                                                
