 2017  217 0738 10.2 L   6.767 -73.112143.9  RSN 11 0.7 2.0LRSN                1
 GAP=123        1.40       5.0     5.3  7.5  0.6002E+01  0.1053E+02  0.1341E+02E
 Epicentro: LOS SANTOS - SANTANDER                                             3
 ACTION:UPD 17-05-24 15:37 OP:jn   STATUS:               ID:20170217073810 L   I
 OLDACT:REG 17-02-17 13:39 OP:cog  STATUS:               ID:20170217072744     3
 2017-02-17-0728-00M.COL___330                                                 6
 STAT SP IPHASW D HRMM SECON CODA AMPLIT PERI AZIMU VELO AIN AR TRES W  DIS CAZ7
 BAR2 EZ EP        738 29.73                             171    0.1310 20.9 202 
 BAR2 EZ ES        738 44.49                             171   -0.2210 20.9 202 
 BAR2 EZ I         738 45.52        52.0 0.18            166           20.9 202 
 BRR  HZ EP        738 31.66                             151    0.1710 76.3 300 
 BRR  HE ES        738 48.53                             151    0.4710 76.3 300 
 BRR  HZ I         738 48.91        22.3 0.16            152           76.3 300 
 PAM  EZ EP        738 32.66                             150    0.3610 78.0  36 
 PAM  EE ES        738 49.42                             150   -0.0810 78.0  36 
 PAM  EZ I         738 51.93        21.7 0.64            155           78.0  36 
 RUS  HZ EP        738 33.70                             144    0.1610 96.8 178 
 RUS  HN ES        738 52.42                             144    0.7110 96.8 178 
 RUS  HZ I         738 53.81        21.3 0.40            142           96.8 178 
 PTB  HZ EP        738 36.61                             131   -0.73 9  151 260 
 PTB  HE ES        738 56.98                             131   -1.50 9  151 260 
 PTB  HZ I         739  0.52        18.9 0.14            131            151 260 
 ZAR  HZ EP        738 43.02                             121   -0.05 8  209 293 
 ZAR  HN ES        739  8.22                             121   -0.46 8  209 293 
 CHI  HZ EP        738 47.83                             117    0.26 8  246 196 
 CHI  HE ES        739 17.50                             117    0.82 8  246 196 
 CHI  HZ I         739 20.49         4.8 0.56            116            246 196 
 ROSC BZ EP        738 47.91                             116   -0.23 8  252 212 
 ROSC BE ES   3    739 16.49                             116   -1.21 2  252 212 
 ROSC BZ I         739 25.71         6.5 0.50            116            252 212 
 PTGC HZ EP        738 53.07                             111   -0.41 7  304 159 
 PTGC HE ES        739 25.91                             111   -1.29 7  304 159 
 PTGC HZ I         739 34.81         6.5 0.30            112            304 159 
 ELA  HZ EP        738 57.39                             110    0.31 7  330 230 
 ELA  HE ES   3    739 35.38                             110    1.77 2  330 230 
 ELA  HZ I         739 46.42         2.8 0.56            110            330 230 
 CBOC HZ EP        738 58.26                             109    0.89 7  336 253 
 CBOC HE ES        739 34.94                             109    0.81 7  336 253 
 CBOC HZ I         739 36.44         2.1 0.20            110            336 253 
                                                                                
