 2012  117 0451 11.0 L   6.806 -73.078147.5  RSN  5 0.2 1.3LRSN                1
 GAP=145        0.43       3.4     5.3  4.8  0.1085E+01 -0.5666E+01  0.2042E+00E
 Epicentro: LOS SANTOS - SANTANDER                                             3
 ACTION:UP  12-02-03 08:18 OP:REBC STATUS:               ID:20120117045111 L   I
 2012-01-17-0450-00M.COL___188                                                 6
 STAT SP IPHASW D HRMM SECON CODA AMPLIT PERI AZIMU VELO SNR AR TRES W  DIS CAZ7
 BAR2 SZ EP        451 30.70                             169    -0.210   26 206 
 BAR2 SZ I         451 31.74         2.9 0.49                            26 206 
 BAR2 SZ ES   1    451 46.28                             169    -0.1 7   26 206 
 PAM  SZ EP   1    451 33.15                             153     0.0 7   72  35 
 PAM  SN ES   2    451 50.43                             153     0.1 5   72  35 
 BRR  HZ EP   2    451 32.95                             151     0.3 5   78 295 
 BRR  HZ I         451 35.95         5.7 0.39                            78 295 
 BRR  HE ES   1    451 49.68                             151     0.1 7   78 295 
 RUS  HZ EP   2    451 35.31                             144     0.4 5  101 180 
 RUS  HN ES   1    451 53.77                             144     0.1 7  101 180 
 CHI  HZ EP   2    451 48.83                             117    -0.2 4  251 197 
 CHI  HZ I         451 50.70         1.0 0.41                           251 197 
                                                                                
