 2012 1017 0943 51.5 L   6.742 -73.123138.4  RSN  8 0.3 2.2LRSN                1
 GAP=142        0.51       2.6     3.5  4.1  0.1104E+01  0.5121E+01  0.1784E+01E
 Epicentro: JORDAN - SANTANDER                                                 3
 ACTION:UPD 12-11-22 17:04 OP:ep   STATUS:               ID:20121017094351 L   I
 2012-10-17-0940-00M.COL___231                                                 6
 STAT SP IPHASW D HRMM SECON CODA AMPLIT PERI AZIMU VELO AIN AR TRES W  DIS CAZ7
 BAR2 SZ EP   1    944 10.24                             172    0.09 7 17.8 202 
 BAR2 SZ ES   1    944 24.42                             172   -0.27 7 17.8 202 
 BAR2 SZ I         944 26.02        70.3 0.24                          17.8 202 
 GIR2 SZ EP   1    944 10.31                             164   -0.21 7 38.1 348 
 GIR2 SZ ES   1    944 25.39                             164    0.05 7 38.1 348 
 BRR  HZ EP   1    944 12.15                             149   -0.04 7 76.6 302 
 BRR  HZ I         944 12.58        51.5 0.12                          76.6 302 
 BRR  HN ES   1    944 28.78                             149    0.45 7 76.6 302 
 PAM  SZ EP   1    944 13.25                             148    0.08 7 80.9  35 
 PAM  SZ I         944 13.52         6.9 0.14                          80.9  35 
 PAM  SE ES   1    944 30.03                             148   -0.03 7 80.9  35 
 PAM  SE I         944 32.23        42.8 0.43                          80.9  35 
 RUS  HZ EP   1    944 14.21                             144    0.15 7 94.0 177 
 RUS  HN ES   1    944 31.64                             144   -0.01 7 94.0 177 
 ZAR  HZ EP   1    944 23.59                             120   -0.40 6  209 294 
 ZAR  HE ES   1    944 49.02                             120   -0.31 6  209 294 
 ZAR  HZ I         944 50.52        10.3 0.08                           209 294 
 ZAR  HE I         944 50.58        55.2 0.17                           209 294 
 CHI  HN ES   1    944 56.69                             116   -0.14 6  243 196 
 CHI  HN I         945  4.10         6.9 0.22                           243 196 
 HEL  HZ EP   1    944 32.05                             113    0.58 6  273 257 
                                                                                
