 2015  217 0909 46.0 L   6.822 -73.178145.2  RSN 12 0.4 1.9LRSN                1
 GAP= 69        0.98       2.9     3.3  5.3 -0.5964E+00  0.2180E+01 -0.1003E+01E
 Epicentro: ZAPATOCA - SANTANDER                                               3
 ACTION:UPD 15-04-30 21:27 OP:nd   STATUS:               ID:20150217090946 L   I
 OLDACT:UP  15-02-17 19:03 OP:mh   STATUS:               ID:20150217090746     3
 OLDACT:UP  15-02-17 19:02 OP:mh   STATUS:               ID:20150217090746     3
 OLDACT:REG 15-02-17 15:09 OP:mh   STATUS:               ID:20150217090746     3
 2015-02-17-0907-46M.COL___278                                                 6
 STAT SP IPHASW D HRMM SECON CODA AMPLIT PERI AZIMU VELO AIN AR TRES W  DIS CAZ7
 BAR2 EZ EP        910  6.04                             170    0.4610 25.4 181 
 BAR2 EZ ES        910 21.07                             170    0.2010 25.4 181 
 BAR2 EZ I         910 23.57        10.7 0.26            170           25.4 181 
 BRR  HZ EP        910  7.47                             154    0.6510 66.9 298 
 BRR  HN ES        910 22.85                             154   -0.2410 66.9 298 
 BRR  HZ I         910 29.97        14.7 0.16            155           66.9 298 
 PAM  SZ EP   1    910  8.87                             150    0.71 7 77.9  43 
 PAM  SN ES   1    910 25.36                             150   -0.10 7 77.9  43 
 PAM  SZ I         910 27.93        20.2 0.50            149           77.9  43 
 RUS  HZ EP   2    910  9.48                             143   -0.38 5  103 174 
 RUS  HN ES        910 28.17                             143   -0.3310  103 174 
 RUS  HZ I         910 31.34         6.2 0.42            142            103 174 
 PTB  HZ EP        910 12.56                             132   -0.06 9  145 258 
 PTB  HN ES        910 33.78                             132    0.37 9  145 258 
 PTB  HZ I         910 39.60        13.1 0.54            133            145 258 
 OCA  HZ EP        910 14.11                             130    0.13 9  157 354 
 OCA  HN ES        910 35.22                             130   -0.60 9  157 354 
 OCA  HZ I         910 44.32         6.6 0.69            129            157 354 
 TAM  HZ EP        910 14.12                             130    0.14 9  159 105 
 TAM  HZ I         910 34.82         5.9 0.46            128            159 105 
 TAM  HN ES        910 35.44                             130   -0.39 9  159 105 
 SPBC HZ EP   1    910 15.03                             129    0.63 7  163 217 
 SPBC HN ES   1    910 36.93                             129    0.36 7  163 217 
 SPBC HZ I         910 42.66        18.9 0.14            129            163 217 
 NOR  HZ EP        910 20.78                             118   -0.73 8  233 233 
 NOR  HN ES        910 48.58                             118   -0.65 8  233 233 
 NOR  HZ I         910 52.47         6.5 0.18            118            233 233 
 SML  HZ EP        910 22.03                             118   -0.14 8  240 336 
 SML  HN ES        910 50.32                             118   -0.08 8  240 336 
 SML  HZ I         910 54.66        14.9 0.08            117            240 336 
 GUY2CHZ EP   4    910 30.96                             112    1.57 0  300 234 
 GUY2CHN ES   4    911  8.12                             112    4.87 0  300 234 
 GUY2CHZ I         911 12.79         7.8 0.74                           300 234 
 PTGC HZ EP   4    910 28.95                             111   -1.25 0  312 158 
 PRA  HZ EP        910 39.30                             106   -0.22 6  392 209 
                                                                                
