 2014  717 0655 54.3 L   6.827 -73.160145.9  RSN 15 0.4 1.9LRSN                1
 GAP=182        0.86       2.7     4.0  5.5 -0.5861E+00  0.4871E+01 -0.8364E+00E
 Epicentro: LOS SANTOS - SANTANDER                                             3
 ACTION:UPD 15-03-16 20:44 OP:nd   STATUS:               ID:20140717065554 L   I
 OLDACT:REG 14-07-17 12:58 OP:fm   STATUS:               ID:20140717064819     3
 2014-07-17-0648-19M.COL___260                                                 6
 STAT SP IPHASW D HRMM SECON CODA AMPLIT PERI AZIMU VELO AIN AR TRES W  DIS CAZ7
 BAR2 SZ EP        656 14.14                             169    0.1410 26.1 186 
 BAR2 SZ ES   1    656 29.04                             169   -0.33 7 26.1 186 
 BAR2 SZ I         656 30.33        19.8 0.36            167           26.1 186 
 RUS  HZ EP        656 18.55                             143    0.2610  104 175 
 RUS  HN ES        656 37.04                             143    0.0410  104 175 
 RUS  HZ I         656 38.71         8.0 0.32            145            104 175 
 PTB  HZ EP        656 20.78                             132   -0.42 9  147 258 
 PTB  HN ES        656 41.68                             132   -0.50 9  147 258 
 PTB  HZ I         656 49.05        12.0 0.42            130            147 258 
 OCA  HZ EP   1    656 22.20                             130   -0.12 7  157 354 
 OCA  HN ES   1    656 44.56                             130    0.38 7  157 354 
 OCA  HZ I         656 47.84         8.4 0.20            131            157 354 
 SPBC HZ EP        656 22.98                             129    0.04 9  165 218 
 SPBC HN ES        656 45.44                             129    0.16 9  165 218 
 SPBC HZ I         656 51.27        11.3 0.26            128            165 218 
 ZAR  HZ EP        656 27.37                             123    0.88 9  202 292 
 ZAR  HN ES        656 51.54                             123   -0.06 9  202 292 
 ZAR  HZ I         656 59.19         8.3 0.24            122            202 292 
 NOR  HZ EP        656 29.55                             118   -0.54 8  235 234 
 NOR  HN ES        656 58.25                             118    0.24 8  235 234 
 NOR  HZ I         657  1.83         4.6 0.16            118            235 234 
 SML  HZ EP   1    656 30.39                             118   -0.18 6  240 335 
 SML  HN ES   4    656 57.35                             118   -1.50 0  240 335 
 SML  HZ I         657  7.57         8.0 0.46            118            240 335 
 CHI  HZ EP   1    656 31.88                             117   -0.40 6  251 195 
 CHI  HN ES        657  2.04                             117    0.14 8  251 195 
 CHI  HZ I         657 10.98         3.8 0.34            118            251 195 
 HEL  HZ EP   4    656 36.41                             115    1.97 0  271 255 
 HEL  HN ES   4    657  8.40                             115    2.66 0  271 255 
 HEL  HZ I         657 12.76         5.0 0.32            115            271 255 
 GUY2CHZ EP   1    656 38.19                             112    0.22 5  302 234 
 GUY2CHN ES   4    657 15.01                             112    2.98 0  302 234 
 GUY2CHZ I         657 20.50         2.8 0.38                           302 234 
 RREF HZ EP   4    656 42.22                             111    1.68 0  323 229 
 RREF HN ES        657 16.82                             111    0.21 7  323 229 
 RREF HZ I         657 25.89         3.6 0.24            111            323 229 
 TOL  SZ EP   1    656 43.72                             109    1.04 5  345 224 
 TOL  SN ES        657 20.78                             109    0.36 7  345 224 
 TOL  SZ I         657 27.50         7.7 0.48            110            345 224 
 PRA  HZ EP        656 47.13                             106   -0.91 6  394 209 
 PRA  HN ES   1    657 29.15                             106   -0.81 4  394 209 
 PRA  HZ I         657 37.66         4.5 0.46            107            394 209 
 SJC  HZ EP   1    656 48.78                             106   -0.69 4  406 327 
 SJC  HN ES   4    657 24.72                             106   -7.78 0  406 327 
 SJC  HZ I         657 36.12         1.6 0.66            107            406 327 
                                                                                
