 2016 1117 0258 36.2 L   6.708 -73.154154.2  RSN  5 0.2 1.4LRSN                1
 GAP=158        0.66       6.8     3.7  5.6  0.2653E+01 -0.2732E+00 -0.5117E+01E
 Epicentro: VILLANUEVA - SANTANDER                                             3
 ACTION:UPD 17-10-26 21:09 OP:lp   STATUS:               ID:20161117025836 L   I
 OLDACT:REG 16-11-17 15:12 OP:and  STATUS:               ID:20161117025743     3
 2016-11-17-0258-00M.COL___340                                                 6
 STAT SP IPHASW D HRMM SECON CODA AMPLIT PERI AZIMU VELO AIN AR TRES W  DIS CAZ7
 BAR2 EZ EP        258 56.87                             175    0.1810 13.2 194 
 BAR2 EZ ES        259 12.60                             175   -0.0710 13.2 194 
 BRR  HZ EP        258 58.87                             152    0.3510 75.8 306 
 BRR  HN ES        259 16.13                             152    0.2010 75.8 306 
 PAM  EZ EP        258 59.43                             150   -0.3910 86.0  36 
 PAM  EN ES   4    259 16.77                             150   -1.48 0 86.0  36 
 PAM  EZ I         259 22.23         3.3 0.54            147           86.0  36 
 PTB  HZ EP        259  3.72                             134    0.07 9  145 263 
 PTB  HN ES     D  259 24.78                             134   -0.27 9  145 263 
 PTB  HZ I         259 29.95         2.5 0.22            134            145 263 
 ZAR  HE ES        259 35.40                             124   -0.13 8  207 295 
 ZAR  HZ I         259 42.27         2.3 0.10            123            207 295 
                                                                                
