 2011 1117 0602 38.9 L   6.787 -73.108144.8  RSN  4 0.1 1.3LRSN                1
 GAP=142        0.36       3.3     3.8  5.2 -0.1107E+01 -0.1975E+01  0.6250E+01E
 Epicentro: LOS SANTOS - SANTANDER                                             3
 ACTION:UPD 12-07-13 16:10 OP:ep   STATUS:               ID:20111117060238 L   I
 2011-11-17-0600-36S.COL___179                                                 6
 STAT SP IPHASW D HRMM SECON CODA AMPLIT PERI AZIMU VELO AIN AR TRES W  DIS CAZ7
 BAR2 SZ EP   1    6 2 58.32                             171   -0.10 7 23.0 201 
 BAR2 SZ I         6 3 13.67         7.3 0.52                          23.0 201 
 BRR  HZ EP   1    6 3  0.14                             151   -0.07 7 75.6 298 
 BRR  HN ES   1    6 3 16.90                             151    0.07 7 75.6 298 
 BRR  HZ I         6 3 20.41         6.5 0.34                          75.6 298 
 PAM  SZ EP   1    6 3  1.19                             151    0.25 7 76.0  36 
 PAM  SZ I         6 3  1.40         2.7 0.18                          76.0  36 
 PAM  SN ES   1    6 3 18.01                             151   -0.12 7 76.0  36 
 RUS  HZ EP   1    6 3  2.37                             144   -0.08 7 98.9 178 
 RUS  HZ I         6 3  3.48         1.8 0.18                          98.9 178 
 RUS  HE ES   2    6 3 20.93                             144    0.12 5 98.9 178 
                                                                                
