 2013 1017 0442 31.5 L   6.783 -73.123150.0  RSN  5 0.2 1.4LRSN                1
 GAP=239        0.42       2.5     3.5  3.3  0.2594E+01  0.1052E+01  0.8942E+00E
 Epicentro: LOS SANTOS - SANTANDER                                             3
 ACTION:UPD 13-11-25 09:22 OP:ep   STATUS:               ID:20131017044231 L   I
 OLDACT:REG 13-10-17 08:29 OP:jn   STATUS:               ID:20131017043841     3
 2013-10-17-0438-41M.COL___223                                                 6
 STAT SP IPHASW D HRMM SECON CODA AMPLIT PERI AZIMU VELO AIN AR TRES W  DIS CAZ7
 BAR2 SZ EP        442 51.62                             171   -0.0110 22.1 197 
 BAR2 SZ ES        443  7.25                             171   -0.0710 22.1 197 
 BAR2 SZ I         443  8.05        10.8 0.22            165           22.1 197 
 BRR  HZ EP        442 53.35                             152    0.0610 74.3 299 
 BRR  HN ES        443 10.41                             152    0.1210 74.3 299 
 RUS  HZ EP        442 55.56                             145    0.0210 98.6 177 
 RUS  HN ES        443 14.19                             145   -0.1010 98.6 177 
 RUS  HZ I         443 15.88         2.0 0.24            142           98.6 177 
 SPBC HZ EP        443  0.40                             130    0.05 9  163 220 
 SPBC HN ES        443 22.95                             130    0.10 9  163 220 
 SPBC HZ I         443 28.71         2.6 0.24            127            163 220 
 ZAR  HN ES   2    443 29.54                             123   -0.77 4  207 292 
                                                                                
