 2017  117 0805 59.1 L   6.797 -73.123144.9  RSN 11 0.5 1.9LRSN                1
 GAP=100        1.13       4.3     4.0  5.9  0.2722E+00  0.4563E+01  0.4004E+01E
 Epicentro: LOS SANTOS - SANTANDER                                             3
 ACTION:UPD 17-05-22 16:00 OP:jn   STATUS:               ID:20170117080559 L   I
 OLDACT:UP  17-01-17 18:01 OP:dani STATUS:               ID:20170117075743d    3
 OLDACT:UP  17-01-17 18:00 OP:dani STATUS:               ID:20170117075743d    3
 OLDACT:UP  17-01-17 17:58 OP:dani STATUS:               ID:20170117075743d    3
 OLDACT:DUP 17-01-17 17:56 OP:dani STATUS:               ID:20170117075743d    3
 2017-01-17-0758-00M.COL___323                                                 6
 STAT SP IPHASW D HRMM SECON CODA AMPLIT PERI AZIMU VELO AIN AR TRES W  DIS CAZ7
 BAR2 EZ EP     D  8 6 18.54                             170   -0.0810 23.6 196 
 BAR2 EZ ES        8 6 33.83                             170   -0.0310 23.6 196 
 BAR2 EZ I         8 6 36.31        17.8 0.24            167           23.6 196 
 BRR  HZ EP     C  8 6 20.45                             152    0.1710 73.5 298 
 BRR  HN ES        8 6 37.68                             152    0.8710 73.5 298 
 BRR  HZ I         8 6 40.89        12.1 0.18            151           73.5 298 
 PAM  EZ EP        8 6 20.99                             151   -0.1510 76.1  38 
 PAM  EE ES        8 6 38.34                             151   -0.0010 76.1  38 
 PAM  EZ I         8 6 40.61        20.4 0.54            157           76.1  38 
 RUS  HZ EP        8 6 22.51                             144   -0.2210  100 177 
 RUS  HN ES        8 6 41.31                             144    0.1510  100 177 
 RUS  HZ I         8 6 42.85        10.1 0.34            144            100 177 
 PTB  HZ EP        8 6 25.46                             131   -0.74 9  150 259 
 PTB  HN ES        8 6 46.56                             131   -0.79 9  150 259 
 PTB  HZ I         8 6 53.73        12.0 0.58            131            150 259 
 TAM  HZ EP     D  8 6 26.71                             131    0.24 9  153 105 
 ZAR  HZ EP        8 6 31.36                             122   -0.37 8  206 292 
 ZAR  HN ES        8 6 56.74                             122   -0.45 8  206 292 
 ZAR  HZ I         8 7  2.32        12.0 0.54            123            206 292 
 CHI  HZ EP        8 6 36.79                             117    0.01 8  249 196 
 CHI  HN ES        8 7  5.97                             117   -0.20 8  249 196 
 CHI  HZ I         8 7 11.75         3.8 0.40            118            249 196 
 ROSC BZ EP   9    8 6 39.27                             116    2.00 0  254 212 
 ROSC BE ES        8 7  9.19                             116    0.14 8  254 212 
 ROSC BZ I         8 7 15.19        10.3 0.45            117            254 212 
 GUY2CHZ EP        8 6 43.86                             112    0.99 7  303 235 
 GUY2CHZ I         8 7 25.25         6.5 0.72                           303 235 
 ELA  HZ EP   4    8 6 48.95                             110    2.86 0  331 230 
 CBOC HZ EP        8 6 46.67                             110    0.44 7  336 252 
 CBOC HN ES        8 7 23.97                             110    0.98 7  336 252 
 CBOC HZ I         8 7 28.52         1.4 0.57            111            336 252 
                                                                                
