 2011  517 0632  8.9 L   6.745 -73.391125.7  RSN  4 0.2 1.4LRSN                1
 GAP=158        0.41       7.2    11.3  6.1  0.6670E+02 -0.1949E+02 -0.7065E+01E
 Epicentro: EL CARMEN DE CHUCURI - SANTANDER                                   3
 ACTION:UP  11-06-29 08:54 OP:tino STATUS:               ID:20110517063208 L   I
 2011-05-17-0629-48S.COL___141                                                 6
 STAT SP IPHASW D HRMM SECON CODA AMPLIT PERI AZIMU VELO SNR AR TRES W  DIS CAZ7
 BTL  SZ EP        632 26.07                             169    -0.110   24  35 
 BAR2 SZ EP   1    632 26.53                             167     0.3 7   29 126 
 BAR2 SZ I         632 26.78        15.9 0.15                            29 126 
 BAR2 SZ ES   2    632 39.66                             167    -0.2 5   29 126 
 BRR  HZ EP   1    632 26.92                             155     0.0 7   53 318 
 BRR  HN ES   1    632 40.96                             155     0.0 7   53 318 
 BRR  HZ I         632 42.01         6.8 0.14                            53 318 
 RUS  HZ EP   2    632 30.45                             139    -0.3 5  100 160 
 RUS  HN ES   2    632 47.83                             139     0.1 5  100 160 
 RUS  HZ I         632 50.06         2.3 0.16                           100 160 
                                                                                
