 2016 1117 0151 24.7 L   6.891 -73.320122.2  RSN 31 0.7 3.2LRSN                1
 GAP= 52        1.26       3.6     3.4  5.9 -0.7280E+00  0.8350E+01  0.1865E+01E
 Epicentro: BETULIA - SANTANDER                                                3
 ACTION:UPD 17-10-26 21:08 OP:lp   STATUS:               ID:20161117015124 L   I
 OLDACT:UP  16-11-17 14:37 OP:and  STATUS:               ID:20161117014743     3
 OLDACT:UP  16-11-17 14:35 OP:and  STATUS:               ID:20161117014743     3
 OLDACT:UP  16-11-17 14:34 OP:and  STATUS:               ID:20161117014743     3
 OLDACT:UP  16-11-17 14:24 OP:and  STATUS:               ID:20161117014743     3
 OLDACT:UP  16-11-17 14:19 OP:and  STATUS:               ID:20161117014743     3
 OLDACT:UP  16-11-17 14:17 OP:and  STATUS:               ID:20161117014743     3
 OLDACT:UP  16-11-17 14:16 OP:and  STATUS:               ID:20161117014743     3
 OLDACT:UP  16-11-17 14:13 OP:and  STATUS:               ID:20161117014743     3
 OLDACT:UP  16-11-17 14:11 OP:and  STATUS:               ID:20161117014743     3
 OLDACT:UP  16-11-17 14:10 OP:and  STATUS:               ID:20161117014743     3
 OLDACT:UP  16-11-17 14:01 OP:and  STATUS:               ID:20161117014743     3
 OLDACT:REG 16-11-17 12:29 OP:and  STATUS:               ID:20161117014743     3
 2016-11-17-0148-00M.COL___340                                                 6
 STAT SP IPHASW D HRMM SECON CODA AMPLIT PERI AZIMU VELO AIN AR TRES W  DIS CAZ7
 BAR2 EZ IP     D  151 41.83                             163   -0.0910 36.4 155 
 BAR2 HN ES        151 55.24                             163   -0.1010 36.4 155 
 BAR2 EZ I         151 56.24      1203.9 0.30            154           36.4 155 
 BRR  HZ IP     D  151 42.22                             156    0.0910 49.5 299 
 BRR  HN ES        151 56.47                             156    0.7610 49.5 299 
 BRR  HZ I         151 57.16       297.4 0.10            161           49.5 299 
 PAM  EZ EP        151 44.76                             143   -0.2410 84.6  54 
 PAM  EN ES        152  0.78                             143   -0.0310 84.6  54 
 PAM  EZ I         152  4.07       393.5 0.28            150           84.6  54 
 PTB  HZ IP     C  151 47.14                             130   -1.1710  131 253 
 PTB  HN ES   4    152  4.50                             130   -2.20 0  131 253 
 PTB  HZ I         152  9.98       223.6 0.16            131            131 253 
 TAM  HZ IP     D  151 52.69                             121   -0.14 9  176 106 
 TAM  HZ I         152 13.79       116.7 0.16            122            176 106 
 TAM  HE ES        152 14.79                             121    0.03 9  176 106 
 ZAR  HZ EP        151 53.39                             120   -0.03 9  182 291 
 ZAR  HN ES   4    152 17.49                             120    1.68 0  182 291 
 ZAR  HZ I         152 22.10       200.5 0.11            124            182 291 
 NOR  HZ EP   4    151 57.13                             114   -1.06 0  226 230 
 NOR  HN ES        152 24.57                             114    0.28 8  226 230 
 NOR  HZ I         152 27.49       116.0 0.25            115            226 230 
 CHI  HZ EP        152  1.76                             111   -0.09 8  254 190 
 CHI  HN ES        152 30.71                             111   -0.11 8  254 190 
 CHI  HZ I         152 35.95        78.7 0.32            112            254 190 
 URE  HZ EP        152  1.23                             110   -1.04 8  262 291 
 URE  HN ES        152 29.92                             110   -1.63 8  262 291 
 URE  HZ I         152 39.50       135.0 0.22            114            262 291 
 LL1C HZ EP        152  7.28                             108    1.34 7  294 355 
 LL1C HE ES   4    152 41.16                             108    3.07 0  294 355 
 LL6C HZ EP   9    151 48.40                             106   -19.9 0  315   1 
 LL6C HN ES   4    152 24.83                                    2.42 0  315   1 
 LL6C HZ I         152 33.82        60.2 0.34            111            315   1 
 CBOC HZ EP        152  9.29                             106    0.27 7  319 249 
 CBOC HN ES        152 44.50                             106    0.93 7  319 249 
 CBOC HZ I         152 49.77        34.2 0.22            108            319 249 
 DBB  EZ EP        152 10.22                             106    1.21 7  320 273 
 DBB  HN ES        152 42.93                             106   -0.63 7  320 273 
 ELA  HZ EP        152 11.17                             106    1.37 7  322 226 
 ELA  HN ES   4    152 46.91                             106    1.94 0  322 226 
 ELA  HZ I         152 57.03        70.2 0.66            107            322 226 
 PTGC HZ EP   9    152  7.87                             106   -1.72 0  325 156 
 PTGC HN ES     D  152 42.38                             106   -0.49 7  325 156 
 PTGC HZ I         152 44.35       123.6 0.24            107            325 156 
 ARGC HZ EP   4    152 12.84                             105    1.11 0  344 343 
 ARGC HN ES        152 49.23                             105    0.83 7  344 343 
 ARGC HZ I         153  0.87        46.3 0.40            109            344 343 
 ANIL HZ EP   4    152 14.20                             104    1.16 0  352 221 
 ANIL HN ES   4    152 53.35                             104    2.62 0  352 221 
 ANIL HZ I         152 59.52       154.1 0.30            106            352 221 
 SJC  HZ EP   4    152 15.86                             102   -1.50 0  390 328 
 SJC  HN ES   4    152 55.93                             102   -2.49 0  390 328 
 SJC  HZ I         153  7.83        52.3 0.32            106            390 328 
 ORTC HZ EP        152 17.66                             102    0.05 6  393 213 
 ORTC HN ES   4    153  0.21                             102    1.34 0  393 213 
 ORTC HZ I         153  4.71        48.6 0.36            104            393 213 
 PAL  HZ EP        152 17.71                             102   -0.18 6  395 236 
 PAL  HN ES        152 59.46                             102    0.10 6  395 236 
 PAL  HZ I         153  4.05        53.1 0.32            104            395 236 
 LCBC HZ EP        152 18.39                             102   -0.06 6  400 303 
 LCBC HE ES   4    153  1.99                             102    1.63 0  400 303 
 LCBC HZ I         153  4.48        30.1 0.33            105            400 303 
 CRJC HZ EP   9    152 23.88                             100   -1.76 0  459   6 
 CRJC HE ES        153 11.72                             100    0.32 5  459   6 
 CRJC HZ I         153 19.52       100.9 0.26            103            459   6 
 YOT  HZ EP        152 25.34                              99   -0.96 5  464 226 
 YOT  HE ES        153 14.30                              99   -0.04 5  464 226 
 MACC HZ EP   9    155 31.43                              98   177.6 0  528 186 
 MACC HN ES        156 25.18                                   -0.16 4  528 186 
 MACC HZ I         156 29.70        22.0 0.36             99            528 186 
 MARO HZ EP        152 35.21                              97    0.25 4  535 213 
 MARO HN ES   4    153 31.98                              97    2.24 0  535 213 
 MARO HZ I         153 32.72         9.4 0.36             99            535 213 
 MAL  EZ EP        152 36.77                              97    0.67 4  547 235 
 URI  HZ EP   4    152 34.07                              97   -2.60 0  552  15 
 URI  HN ES        153 31.98                              97   -0.82 4  552  15 
 URI  HZ I         153 36.87        11.6 0.22            100            552  15 
 GARC HZ EP   9    152 38.04                              97   -1.57 0  573 205 
 GARC HN ES        153 36.31                                   -0.15 3  573 205 
 GARC HZ I         153 44.35        18.9 0.24             98            573 205 
 CONO HZ EP   4    152 45.32                              96    0.97 0  609 214 
 CONO HN ES   4    153 49.76                              96    3.30 0  609 214 
 SOTO HZ EP   4    152 49.35                              95    1.35 0  640 215 
 FLO2 HZ EP        152 47.29                              95   -0.32 2  641 204 
 FLO2 HN ES   4    153 53.75                              95    1.49 0  641 204 
 FLO2 HZ I         153 58.99         3.6 0.44             97            641 204 
 BBAC HZ EP        152 54.00                              95   -0.05 2  693 219 
 BBAC HN ES   4    154  2.39                              95   -1.33 0  693 219 
 BBAC HZ I         154  6.27         3.3 0.32             96            693 219 
 GCUF HZ EP        153  4.44                              94    0.70 0  769 216 
 GCUF HN ES        154 23.34                              94    2.37 0  769 216 
                                                                                
