 2013  317 0908 12.7 L   6.798 -73.135146.0  RSN  8 0.4 1.5LRSN                1
 GAP=138        0.84       4.2     4.7  7.3  0.7723E+00  0.5728E+01 -0.3551E+01E
 Epicentro: LOS SANTOS - SANTANDER                                             3
 ACTION:UPD 13-04-09 14:03 OP:ep   STATUS:               ID:20130317090812 L   I
 2013-03-17-0900-00M.COL___244                                                 6
 STAT SP IPHASW D HRMM SECON CODA AMPLIT PERI AZIMU VELO AIN AR TRES W  DIS CAZ7
 BAR2 SZ EP        9 8 32.27                             171   -0.0810 23.4 193 
 BAR2 SZ ES   1    9 8 47.35                             171   -0.33 7 23.4 193 
 BAR2 SZ I         9 8 48.17        11.8 0.28            171           23.4 193 
 BRR  HZ IP     C  9 8 33.97                             152    0.0410 72.4 298 
 BRR  HN ES   1    9 8 51.60                             152    1.10 7 72.4 298 
 BRR  HZ I         9 8 56.31         4.0 0.42            150           72.4 298 
 PAM  SZ EP        9 8 35.06                             151    0.1610 76.8  39 
 PAM  SN ES   1    9 8 52.11                             151   -0.11 7 76.8  39 
 PAM  SZ I         9 8 53.53         5.9 0.34            154           76.8  39 
 RUS  HZ EP   1    9 8 36.81                             144    0.37 7  100 177 
 RUS  HN ES   1    9 8 54.88                             144   -0.09 7  100 177 
 RUS  HZ I         9 8 56.46         2.4 0.26            149            100 177 
 PTB  HZ EP   1    9 8 39.15                             132   -0.63 7  149 259 
 PTB  HN ES   1    9 9  0.57                             132   -0.34 7  149 259 
 PTB  HZ I         9 9  2.54         4.5 0.14            133            149 259 
 OCA  HN ES   1    9 9  2.52                             130   -0.66 7  161 353 
 OCA  HZ I         9 9  6.20         5.2 0.26            131            161 353 
 ZAR  HZ EP   2    9 8 45.68                             122    0.40 4  205 292 
 ZAR  HN ES   1    9 9 10.66                             122   -0.03 6  205 292 
 ZAR  HZ I         9 9 16.14         5.6 0.52            124            205 292 
 SML  HZ EP   2    9 8 49.99                             117    0.58 4  244 335 
 SML  HE ES   2    9 9 17.91                             117   -0.13 4  244 335 
                                                                                
