 2013  617 0357 35.8 L   6.503 -73.608108.6  RSN  5 0.2 1.5LRSN                1
 GAP=133        0.53       3.2     3.2  5.4  0.4087E+01  0.2238E+01  0.2402E-01E
 Epicentro: SANTA HELENA DEL OPON - SANTANDER                                  3
 ACTION:UPD 14-01-08 09:55 OP:ep   STATUS:               ID:20130617035735 L   I
 OLDACT:DUP 13-06-17 08:18 OP:carl STATUS:               ID:20130617034960d    3
 2013-06-17-0349-59M.COL___261                                                 6
 STAT SP IPHASW D HRMM SECON CODA AMPLIT PERI AZIMU VELO AIN AR TRES W  DIS CAZ7
 BAR2 SZ ES   1    358  4.24                             155   -0.32 7 48.0  78 
 BAR2 SZ I         358  5.64        32.9 0.48            156           48.0  78 
 BRR  HZ EP        357 53.01                             146    0.2010 67.8 350 
 BRR  HN ES   1    358  6.42                             146    0.32 7 67.8 350 
 BRR  HZ I         358 14.94         4.6 0.22            144           67.8 350 
 GIR2 SZ EP        357 53.54                             141   -0.2410 78.4  36 
 RUS  HZ EP        357 55.12                             138    0.0210 89.0 139 
 RUS  HN ES        358 10.33                             138    0.1410 89.0 139 
 PTB  HZ EP   1    357 54.86                             136   -0.00 7 94.0 273 
 PTB  HN ES   1    358  9.54                             136   -0.21 7 94.0 273 
 PTB  HZ I         358 11.25         5.0 0.28            140           94.0 273 
                                                                                
