 2012 1217 0833 41.7 L   5.949 -73.994 14.0  RSN  7 0.4 2.0LRSN                1
 GAP=186        1.02       4.4     3.2  8.0  0.5843E+01  0.1458E+02  0.1279E+02E
 Epicentro: LA BELLEZA - SANTANDER                                             3
 ACTION:UPD 13-01-04 14:28 OP:ep   STATUS:               ID:20121217083341 L   I
 2012-12-17-0830-00M.COL___238                                                 6
 STAT SP IPHASW D HRMM SECON CODA AMPLIT PERI AZIMU VELO AIN AR TRES W  DIS CAZ7
 PTB  HZ IP     D  833 54.25                              97   -0.7210 83.0 322 
 PTB  HE ES   1    834  5.99                              97    0.66 7 83.0 322 
 PTB  HZ I         834  6.79        94.2 0.12                          83.0 322 
 RUS  HZ EP        833 58.62                              96    0.4410  101  93 
 RUS  HE ES        834 10.62                              96   -0.4310  101  93 
 RUS  HE I         834 12.69        27.2 0.47                           101  93 
 BAR2 SZ EP        834  0.30                              95    0.3410  115  52 
 BRR  HZ EP        834  2.40                              94    0.0810  132  14 
 BRR  HN ES        834 18.16                              94   -0.2510  132  14 
 BRR  HZ I         834 20.92        13.8 0.14                           132  14 
 HEL  HZ EP        834  8.33                              56    0.30 9  172 279 
 HEL  HN ES   1    834 28.08                              56   -0.50 7  172 279 
 HEL  HZ I         834 31.40        17.6 0.24                           172 279 
 ZAR  HZ EP   1    834 10.95                              56    0.40 6  196 331 
 ZAR  HZ I         834 37.21         7.1 0.16                           196 331 
 PAM  SZ EP   9    834 15.59                              56    2.65 0  210  43 
 PAM  SN ES        834 40.13                                    0.16 8  210  43 
 PAM  SZ I         834 43.02        32.4 0.33                           210  43 
                                                                                
