 2011 1017 0123  0.5 L   6.548 -73.529113.5  RSN  5 0.2 1.5LRSN                1
 GAP=101        0.38       4.6     5.8  5.6  0.1752E+02  0.1725E+02  0.9587E+01E
 Epicentro: EL CARMEN DE CHUCURI - SANTANDER                                   3
 ACTION:UPD 12-07-13 16:04 OP:ep   STATUS:               ID:20111017012300 L   I
 2011-10-17-0120-00M.COL___171                                                 6
 STAT SP IPHASW D HRMM SECON CODA AMPLIT PERI AZIMU VELO AIN AR TRES W  DIS CAZ7
 BAR2 SZ EP        123 16.84                             160    0.0510 38.6  83 
 BAR2 SZ ES   1    123 29.58                             160    0.09 7 38.6  83 
 BAR2 SZ I         123 30.38        20.9 0.42                          38.6  83 
 BRR  HZ EP   1    123 17.57                             148   -0.29 7 65.1 342 
 BRR  HN ES   1    123 31.41                             148    0.01 7 65.1 342 
 BRR  HZ I         123 32.75         4.5 0.26                          65.1 342 
 RUS  HZ EP   3    123 20.28                             140    0.10 2 87.6 146 
 RUS  HN ES   2    123 35.40                             140   -0.13 5 87.6 146 
 ZAR  HZ EP   2    123 28.87                             118    0.42 4  180 306 
 NOR  SE ES   3    123 51.05                             117   -0.04 2  184 234 
                                                                                
