 2014  117 0107 10.8 L   6.791 -73.122150.0  RSN 13 0.4 2.0LRSN                1
 GAP=140        0.91       3.8     4.7  5.8  0.1377E+00  0.8394E+01  0.4273E+01E
 Epicentro: LOS SANTOS - SANTANDER                                             3
 ACTION:UPD 14-03-13 09:56 OP:ep   STATUS:               ID:20140117010710 L   I
 OLDACT:UP  14-01-17 09:11 OP:mh   STATUS:               ID:20140117010000     3
 OLDACT:UP  14-01-17 09:09 OP:mh   STATUS:               ID:20140117010000     3
 OLDACT:UP  14-01-17 09:08 OP:mh   STATUS:               ID:20140117010000     3
 OLDACT:REG 14-01-17 07:48 OP:mh   STATUS:               ID:20140117010000     3
 2014-01-17-0100-00M.COL___285                                                 6
 STAT SP IPHASW D HRMM SECON CODA AMPLIT PERI AZIMU VELO AIN AR TRES W  DIS CAZ7
 BAR2 SZ EP   1    1 7 30.85                             171   -0.13 7 23.0 197 
 BAR2 SZ ES   1    1 7 45.76                             171   -0.92 7 23.0 197 
 BAR2 SZ I         1 7 49.11        24.5 0.38            152           23.0 197 
 BRR  HZ EP   1    1 7 32.96                             152    0.35 7 74.0 298 
 BRR  HN ES        1 7 50.25                             152    0.6710 74.0 298 
 BRR  HZ I         1 7 59.45        12.5 0.05            130           74.0 298 
 PAM  SZ EP        1 7 33.90                             152    0.4410 76.5  38 
 PAM  SN ES        1 7 51.23                             152    0.1210 76.5  38 
 PAM  SZ I         1 7 53.25        15.2 0.46            136           76.5  38 
 RUS  HZ EP   1    1 7 34.89                             145   -0.04 7 99.4 178 
 RUS  HN ES   1    1 7 53.78                             145    0.06 7 99.4 178 
 RUS  HZ I         1 7 54.83         7.7 0.11            118           99.4 178 
 PTB  HZ EP        1 7 37.86                             133   -0.51 9  150 259 
 PTB  HZ I         1 8  3.64        10.1 0.06            109            150 259 
 OCA  HZ EP   1    1 7 38.65                             130   -0.96 7  162 352 
 OCA  HN ES   1    1 8  1.63                             130   -0.42 7  162 352 
 SPBC HZ EP   1    1 7 39.77                             130    0.02 7  164 220 
 SPBC HZ I         1 8  7.11        18.6 0.24            106            164 220 
 ZAR  HZ EP   1    1 7 43.58                             123   -0.27 6  207 292 
 ZAR  HN ES        1 8  9.65                             123    0.05 8  207 292 
 ZAR  HZ I         1 8 15.45         8.1 0.23            104            207 292 
 NOR  HZ EP   1    1 7 47.16                             119    0.17 6  236 235 
 NOR  HE ES   2    1 8 15.05                             119   -0.13 4  236 235 
 NOR  HZ I         1 8 21.59         9.0 0.12            101            236 235 
 SML  HZ EP   1    1 7 48.10                             118    0.17 6  246 335 
 SML  HZ I         1 8 18.66        16.2 0.13            102            246 335 
 CHI  HZ EP        1 7 49.05                             118    0.30 8  248 196 
 CHI  HZ I         1 8 24.06         4.0 0.72            100            248 196 
 HEL  HZ EP   1    1 7 51.58                             115    0.05 6  274 256 
 HEL  HN ES   4    1 8 27.12                             115    3.86 0  274 256 
 GUY2CHZ EP   4    1 7 56.66                             113    1.83 0  303 235 
 GUY2CHN ES   4    1 8 31.13                             113    2.00 0  303 235 
 RREF HZ EP   4    1 7 59.14                             112    1.82 0  323 230 
 RREF HZ I         1 8 41.98         6.7 0.16             98            323 230 
 SJC  HZ EP   4    1 8  5.66                             106   -1.15 0  411 327 
 SJC  HN ES   4    1 8 44.88                             106   -5.59 0  411 327 
                                                                                
