 2015  617 0904 36.2 L   6.813 -73.063146.2  RSN 20 0.4 2.6LRSN                1
 GAP=126        0.98       2.1     3.6  4.5  0.1471E+00  0.5230E+01  0.2097E+01E
 Epicentro: LOS SANTOS - SANTANDER                                             3
 ACTION:UPD 15-09-10 22:13 OP:cam  STATUS:               ID:20150617090436 L   I
 OLDACT:REG 15-06-17 13:00 OP:drio STATUS:               ID:20150617085749     3
 2015-06-17-0857-49M.COL___315                                                 6
 STAT SP IPHASW D HRMM SECON CODA AMPLIT PERI AZIMU VELO AIN AR TRES W  DIS CAZ7
 BAR2 EZ IP     C  9 4 56.02                             169    0.0410 27.8 208 
 BAR2 EZ ES        9 5 10.92                             169   -0.4910 27.8 208 
 BAR2 EZ I         9 5 11.58        72.2 0.34            159           27.8 208 
 PAM  SZ I         9 4 58.83        92.9 0.18            155           70.7  35 
 PAM  SZ EP        9 4 58.94                             153    0.8610 70.7  35 
 PAM  SE ES        9 5 16.01                             153    0.8710 70.7  35 
 BRR  HZ EP     D  9 4 57.73                             150   -0.1110 78.7 294 
 BRR  HE ES        9 5 14.77                             150    0.0510 78.7 294 
 BRR  HZ I         9 5 15.43        90.2 0.14            140           78.7 294 
 RUS  HZ EP        9 5  0.18                             143    0.0910  102 181 
 RUS  HE ES        9 5 18.23                             143   -0.4910  102 181 
 OCA  HZ EP        9 5  4.06                             130   -0.48 9  160 350 
 OCA  HN ES        9 5 26.55                             130   -0.09 9  160 350 
 OCA  HZ I         9 5 28.75        95.2 0.20            126            160 350 
 ZAR  HZ EP        9 5  8.97                             121   -0.53 8  212 291 
 ZAR  HN ES        9 5 35.13                             121   -0.35 8  212 291 
 ZAR  HZ I         9 5 41.66        32.1 0.14            115            212 291 
 NOR  HZ EP        9 5 12.64                             118   -0.22 8  243 235 
 NOR  HN ES   4    9 5 40.32                             118   -1.13 0  243 235 
 NOR  HZ I         9 5 46.30        17.4 0.26            112            243 235 
 SML  HZ EP   4    9 5 11.86                             117   -1.28 0  246 333 
 SML  HE ES        9 5 41.48                             117   -0.47 8  246 333 
 SML  HZ I         9 5 43.52        41.1 0.24            113            246 333 
 CHI  HZ EP        9 5 14.51                             117    0.15 8  253 197 
 CHI  HE ES        9 5 44.28                             117    0.16 8  253 197 
 CHI  HZ I         9 5 52.79        12.9 0.42            112            253 197 
 ROSC BZ EP        9 5 15.08                             116    0.07 8  259 213 
 ROSC BE ES        9 5 45.46                             116    0.18 8  259 213 
 ROSC BZ I         9 5 51.29        37.1 0.35            111            259 213 
 HEL  HZ EP        9 5 17.37                             114   -0.10 7  281 256 
 HEL  HN ES        9 5 49.64                             114   -0.01 7  281 256 
 HEL  HZ I         9 5 54.45        19.7 0.46            109            281 256 
 URE  HZ EP        9 5 18.59                             113    0.40 7  292 291 
 URE  HN ES   4    9 5 54.92                             113    3.98 0  292 291 
 URE  HZ I         9 5 56.25        27.6 0.16            108            292 291 
 PTGC HZ EP        9 5 19.51                             112   -0.37 7  307 160 
 PTGC HE ES        9 5 53.25                             112   -0.69 7  307 160 
 PTGC HZ I         9 5 55.65        15.8 0.38            109            307 160 
 GUY2CHZ EP        9 5 21.45                             112    0.67 7  310 236 
 GUY2CHE ES        9 5 56.27                             112    0.72 7  310 236 
 GUY2CHZ I         9 6  2.57        12.5 0.56                           310 236 
 TOL  SZ EP        9 5 26.05                             109    0.70 6  351 226 
 TOL  SE ES        9 6  4.42                             109    0.74 6  351 226 
 TOL  SZ I         9 6  9.42        10.3 0.46            105            351 226 
 MON  HZ EP   4    9 5 23.43                             108   -2.52 0  360 307 
 MON  HN ES   4    9 6  1.88                             108   -2.88 0  360 307 
 MON  HZ I         9 6 14.69         6.0 0.46            105            360 307 
 ARGC HZ EP        9 5 25.68                             108   -0.41 6  361 339 
 ARGC HE ES        9 6  4.81                             108   -0.18 6  361 339 
 ARGC HZ I         9 6 15.25         8.0 0.24            105            361 339 
 PRA  HZ EP        9 5 30.35                             106   -0.08 6  398 211 
 PRA  HE ES        9 6 12.29                             106   -0.43 6  398 211 
 PRA  HZ I         9 6 19.58        20.3 0.46            103            398 211 
 ORTC HZ EP        9 5 30.68                             106   -0.24 6  402 217 
 ORTC HE ES        9 6 13.41                             106   -0.19 6  402 217 
 ORTC HZ I         9 6 18.60        13.1 0.44            103            402 217 
 SJC  HZ EP   4    9 5 30.45                             106   -1.78 0  413 326 
 SJC  HE ES   4    9 6 11.42                             106   -4.51 0  413 326 
 SJC  HZ I         9 6 15.49        12.4 0.46            103            413 326 
 MACC HZ EP   4    9 5 43.65                             102   -1.63 0  523 190 
 MACC HE ES   4    9 6 36.05                             102   -3.10 0  523 190 
                                                                                
