 2012  717 0743 22.9 L   6.745 -73.184145.3  RSN  5 0.3 1.4LRSN                1
 GAP=229        0.78       8.4     7.0  7.9  0.2928E+02  0.4745E+01 -0.4221E+00E
 Epicentro: VILLANUEVA - SANTANDER                                             3
 ACTION:UPD 12-08-14 11:45 OP:ep   STATUS:               ID:20120717074323 L   I
 2012-07-17-0740-00M.COL___197                                                 6
 STAT SP IPHASW D HRMM SECON CODA AMPLIT PERI AZIMU VELO AIN AR TRES W  DIS CAZ7
 BAR2 SZ EP        743 42.30                             173    -0.110   17 179 
 BAR2 SZ I         743 42.66         7.2 0.11            167             17 179 
 BAR2 SZ ES   1    743 56.90                             173    -0.7 7   17 179 
 BRR  HZ EP        743 44.21                             152     0.210   71 305 
 BRR  HZ I         743 44.61         8.5 0.10            151             71 305 
 BRR  HE ES   1    744  0.92                             152     0.5 7   71 305 
 RUS  HZ EP   1    743 46.44                             145     0.2 7   95 173 
 RUS  HN ES   2    744  4.93                             145     0.5 5   95 173 
 RUS  HZ I         744  6.37         3.3 0.50            142             95 173 
 PTB  HZ EP   1    743 49.20                             133    -0.2 7  142 261 
 PTB  HN ES   1    744  9.92                             133    -0.1 7  142 261 
 PTB  HZ I         744 13.74         2.4 0.21            130            142 261 
 ZAR  HZ EP   2    743 54.78                             122    -0.4 4  203 294 
 ZAR  HN ES   2    744 20.44                             122     0.1 4  203 294 
