 2010  717 0200  4.9 L   6.755 -73.134149.9  RSN  5 0.3 1.3LRSN                1
 GAP=160        0.73       4.8    14.0 12.8  0.2441E+02 -0.9289E+02 -0.3019E+02E
 Epicentro: LOS SANTOS - SANTANDER                                             3
 ACTION:UPD 10-12-01 15:18 OP:pat  STATUS:               ID:20100717020004 L   I
 2010-07-17-0158-12S.COL___120                                                 6
 STAT SP IPHASW D HRMM SECON CODA AMPLIT PERI AZIMU VELO AIN AR TRES W  DIS CAZ7
 BRR  HZ EP   1    2 0 26.36                             152    -0.3 8   75 301 
 BRR  HN ES   2    2 0 43.57                             152    -0.1 5   75 301 
 RUS  HZ EP   1    2 0 29.03                             146     0.4 8   96 177 
 RUS  HN ES   1    2 0 47.19                             146    -0.1 8   96 177 
 RUS  HZ I         2 0 48.63         3.4 0.37                            96 177 
 GUE  SZ EP   2    2 0 29.76                             139    -0.6 5  121  11 
 GUE  SZ I         2 0 31.34         1.0 0.09                           121  11 
 GRA  SZ IP        2 0 30.66                             137    -0.210  130  16 
 GRA  SZ I         2 0 51.57         2.8 0.31                           130  16 
 OCA  SZ EP   2    2 0 34.65                             130     0.7 5  165 353 
 OCA  SZ ES   1    2 0 57.00                             130     0.3 7  165 353 
 OCA  SZ I         2 0 58.41         4.1 0.25                           165 353 
                                                                                
