 2016  317 0129  3.3 L   6.388 -73.575100.9  RSN 20 0.5 2.2LRSN                1
 GAP= 57        1.07       2.7     2.5  6.3 -0.1924E+01  0.2370E+01 -0.1343E+01E
 Epicentro: SANTA HELENA DEL OPON - SANTANDER                                  3
 ACTION:UPD 16-05-13 21:24 OP:cam  STATUS:               ID:20160317012903 L   I
 OLDACT:UP  16-03-28 15:34 OP:Mher STATUS:               ID:20160317012903 L   3
 OLDACT:REG 16-03-17 13:55 OP:dnl  STATUS:               ID:20160317012752     3
 2016-03-17-0127-52M.COL___310                                                 6
 STAT SP IPHASW D HRMM SECON CODA AMPLIT PERI AZIMU VELO AIN AR TRES W  DIS CAZ7
 RUS  HZ IP     C  129 21.14                             140    0.1810 77.2 135 
 RUS  HN ES        129 35.34                             140    0.5910 77.2 135 
 RUS  HZ I         129 38.04        48.2 0.26            136           77.2 135 
 SPBC HN ES        129 36.69                             132   -0.2710 98.3 214 
 SPBC HZ I         129 39.33        66.9 0.18            129           98.3 214 
 PTB  HZ EP     C  129 21.59                             132   -0.5610 98.9 280 
 PTB  HN ES        129 36.56                             132   -0.3210 98.9 280 
 PTB  HZ I         129 37.20        44.5 0.14            127           98.9 280 
 PAM  EZ EP        129 27.83                             120    0.70 9  143  43 
 PAM  EE ES        129 45.44                             120   -0.29 9  143  43 
 PAM  EZ I         129 52.14        11.9 0.20            116            143  43 
 NOR  HZ EP        129 28.40                             115   -1.07 9  170 238 
 NOR  HN EP        129 28.52                             115            170 238 
 NOR  HE ES        129 49.81                             115   -0.10 9  170 238 
 ZAR  HZ EP        129 31.17                             112   -0.17 9  187 311 
 ZAR  HN ES        129 53.73                             112    0.50 9  187 311 
 ZAR  HZ I         129 59.39        29.3 0.14            110            187 311 
 ROSC BZ EP   4    129 32.92                             112    0.76 0  190 206 
 ROSC BE ES   4    129 56.92                             112    2.23 0  190 206 
 ROSC BZ I         130  0.04        18.2 0.30            110            190 206 
 CHI  HZ EP        129 31.95                             112   -0.82 9  195 185 
 CHI  HE ES        129 55.53                             112   -0.25 9  195 185 
 CHI  HZ I         130  4.46        10.7 0.33            110            195 185 
 TAM  HZ IP     D  129 32.65                             111    0.11 9  197  88 
 TAM  HN ES   2    129 54.90                             111   -0.47 4  197  88 
 TAM  HZ I         129 55.06        20.8 0.14            108            197  88 
 OCA  HZ EP        129 33.87                             110    0.14 8  207   8 
 OCA  HE ES   4    129 59.88                             110    2.39 0  207   8 
 OCA  HZ I         130  5.07        48.3 0.22            107            207   8 
 HEL  HZ EP        129 35.67                             109    0.43 8  217 264 
 HEL  HN ES        129 59.98                             109   -0.19 8  217 264 
 HEL  HZ I         130  3.90        15.9 0.30            107            217 264 
 GUY2CHZ EP        129 37.65                             107    0.07 8  236 237 
 GUY2CHN ES        130  5.18                             107    0.84 8  236 237 
 GUY2CHZ I         130  8.83        13.6 0.46                           236 237 
 URE  HZ EP   4    129 39.17                             104   -1.04 0  264 305 
 URE  HN ES   4    130  7.01                             104   -2.01 0  264 305 
 URE  HZ I         130  9.86        14.7 0.12            103            264 305 
 ELA  HZ EP        129 41.34                             104    0.51 8  264 230 
 ELA  HN ES        130 10.04                             104   -0.09 8  264 230 
 ELA  HZ I         130 18.60        15.5 0.32            104            264 230 
 ANIL HZ EP        129 44.10                             102    0.22 7  292 224 
 ANIL HE ES        130 15.87                             102    0.32 7  292 224 
 ORTC HZ EP   4    129 46.95                             100   -1.31 0  331 214 
 ORTC HN ES        130 23.84                             100    0.48 7  331 214 
 ORTC HZ I         130 30.00         8.0 0.24            100            331 214 
 SOCV BZ EP   9    129 51.04                              97   -1.45 0  366  55 
 SOCV BN ES        130 29.07                              97   -0.36 6  366  55 
 SJC  HZ EP   4    129 58.81                              94   -1.03 0  426 336 
 SJC  HZ I         130 43.98         1.7 0.16             98            426 336 
 SDV  BZ EP   1    129 59.88                              94   -0.09 4  426  50 
 SDV  BE ES   2    130 43.35                              94   -0.85 3  426  50 
 SDV  BZ I         130 54.15         2.0 0.35             98            426  50 
 MACC HZ EP   4    130  1.85                               0   -3.27 0  470 184 
 MACC HN ES   4    130 49.24                               0   -4.12 0  470 184 
 MACC HZ I         130 54.30         2.5 0.15             97            470 184 
                                                                                
