 2016  617 0505  1.2 L   6.720 -73.212144.0  RSN  4 0.4 0.9LRSN                1
 GAP=219        0.72       8.1     6.2  9.7  0.1964E+02 -0.2185E+01  0.3339E+02E
 Epicentro: VILLANUEVA - SANTANDER                                             3
 ACTION:UPD 16-07-21 22:19 OP:rebc STATUS:               ID:20160617050501 L   I
 OLDACT:REG 16-06-17 12:26 OP:dnl  STATUS:               ID:20160617045744     3
 2016-06-17-0457-44M.COL___343                                                 6
 STAT SP IPHASW D HRMM SECON CODA AMPLIT PERI AZIMU VELO AIN AR TRES W  DIS CAZ7
 BAR2 EZ EP   2    5 5 19.66                             174   -0.79 5 14.5 167 
 BAR2 EZ ES   2    5 5 35.55                             174    0.07 5 14.5 167 
 BAR2 EZ I         5 5 36.28         2.0 0.12                          14.5 167 
 BRR  HZ EP   2    5 5 23.17                             153    1.11 5 69.9 308 
 BRR  HN ES        5 5 38.21                             153   -0.1310 69.9 308 
 BRR  HZ I         5 5 39.07         3.1 0.13                          69.9 308 
 RUS  HZ EP        5 5 24.24                             146    0.0510 92.6 171 
 RUS  HZ I         5 5 39.74         0.6 0.40                          92.6 171 
 RUS  HN ES   2    5 5 42.33                             146    0.19 5 92.6 171 
 PTB  HZ EP   2    5 5 26.73                             133   -0.48 5  139 262 
 PTB  HN ES        5 5 47.56                             133    0.04 9  139 262 
 PTB  HZ I         5 5 49.44         1.2 0.60                           139 262 
                                                                                
