 2010  617 0133  3.1 L   6.774 -73.131148.5  RSN 10 0.4 2.0LRSN                1
 GAP=157        0.91       3.5     8.9  7.0 -0.9705E+01 -0.3689E+01  0.1894E+01E
 Epicentro: LOS SANTOS - SANTANDER                                             3
 ACTION:UP  10-08-24 10:10 OP:vdl  STATUS:               ID:20100617013303 L   I
 2010-06-17-0129-48S.COL___114                                                 6
 STAT SP IPHASW D HRMM SECON CODA AMPLIT PERI AZIMU VELO SNR AR TRES W  DIS CAZ7
 BAR2 SZ IP        133 23.00                             172     0.010   21 196 
 BAR2 SZ ES   1    133 38.19                             172    -0.3 7   21 196 
 GIR2 SZ EP   1    133 22.15                             166    -1.0 7   34 348 
 BRR  HZ IP     D  133 24.83                             152     0.110   74 300 
 BRR  HE ES   1    133 42.01                             152     0.5 7   74 300 
 BRR  HZ I         133 44.57        25.5 0.14                            74 300 
 RUS  HZ IP     C  133 26.92                             145     0.010   98 177 
 RUS  HN ES   1    133 45.45                             145     0.0 7   98 177 
 RUS  HZ I         133 46.77         9.2 0.32                            98 177 
 BRI  SZ EP   1    133 27.57                             141     0.2 7  111  20 
 BRI  SZ ES   1    133 46.79                             141     0.4 7  111  20 
 GUE  SZ EP   1    133 29.06                             139     0.8 7  119  11 
 GRA  SZ IP        133 28.80                             137     0.010  128  16 
 GRA  SZ ES   1    133 48.41                             137    -0.4 7  128  16 
 OCA  SZ EP   1    133 31.56                             129    -0.3 7  163 353 
 OCA  SZ ES   1    133 53.97                             129    -0.4 7  163 353 
 OCA  SZ I         133 58.13        18.9 0.20                           163 353 
 CHI  HZ EP   1    133 40.82                             118     0.1 6  246 196 
 CHI  HE ES   1    134 10.10                             118     0.1 6  246 196 
 CHI  HZ I         134 13.84         6.7 0.47                           246 196 
 TOL  SZ EP   2    133 50.72                             110    -0.6 3  343 225 
                                                                                
