 2014  717 0729 24.6 L   6.854 -73.113144.0  RSN 10 0.5 1.6LRSN                1
 GAP=203        1.10       3.6     6.2  8.6 -0.6270E+01  0.6557E+01 -0.2382E+01E
 Epicentro: LOS SANTOS - SANTANDER                                             3
 ACTION:UPD 15-03-16 20:44 OP:nd   STATUS:               ID:20140717072924 L   I
 OLDACT:REG 14-07-17 12:59 OP:fm   STATUS:               ID:20140717072817     3
 2014-07-17-0728-17M.COL___260                                                 6
 STAT SP IPHASW D HRMM SECON CODA AMPLIT PERI AZIMU VELO AIN AR TRES W  DIS CAZ7
 BAR2 SZ EP        729 44.76                             168    0.5910 30.0 195 
 BAR2 SZ ES   1    729 59.43                             168   -0.01 7 30.0 195 
 BAR2 SZ I         730  2.32         8.5 0.38            168           30.0 195 
 PTB  HZ EP   1    729 51.32                             130   -0.55 7  153 257 
 PTB  HN ES        730 12.56                             130   -0.58 9  153 257 
 PTB  HZ I         730 16.88         3.2 0.22            131            153 257 
 OCA  HZ EP   1    729 51.31                             130   -0.95 7  155 352 
 OCA  HN ES        730 13.18                             130   -0.65 9  155 352 
 OCA  HZ I         730 17.58         4.0 0.30            132            155 352 
 SPBC HZ EP        729 54.03                             127    0.40 9  170 219 
 SPBC HN ES        730 16.26                             127   -0.02 9  170 219 
 SPBC HZ I         730 22.58         4.5 0.74            129            170 219 
 ZAR  HZ EP   1    729 57.77                             122    0.71 6  205 290 
 ZAR  HN ES        730 22.94                             122    0.57 8  205 290 
 ZAR  HZ I         730 29.07         4.3 0.24            123            205 290 
 SML  HZ EP        730  0.84                             117    0.13 8  240 334 
 SML  HN ES        730 29.71                             117    0.84 8  240 334 
 SML  HZ I         730 37.48         4.2 0.28            119            240 334 
 HEL  HN ES        730 36.85                             114   -0.17 7  277 255 
 GUY2CHN ES   1    730 43.27                             111   -0.11 5  308 234 
 GUY2CHZ I         730 52.98         2.0 0.60                           308 234 
 PRA  HZ EP   1    730 18.72                             106   -0.16 4  399 210 
 PRA  HN ES        731  0.95                             106   -0.27 6  399 210 
 PRA  HZ I         731  7.44         1.4 0.66            108            399 210 
 SJC  HZ EP        730 19.09                             105   -0.66 6  406 326 
 SJC  HN ES   4    731  0.38                             105   -2.39 0  406 326 
 SJC  HZ I         731  5.76         2.0 0.86            107            406 326 
                                                                                
