 2010 1117 0307 12.5 L   6.758 -73.094150.5  RSN  4 0.3 1.8LRSN                1
 GAP=188        0.64       4.6    12.7  7.7  0.3273E+02 -0.4086E+02 -0.1529E+02E
 Epicentro: LOS SANTOS - SANTANDER                                             3
 ACTION:UP  10-12-17 16:53 OP:REBC STATUS:               ID:20101117030712 L   I
 2010-11-17-0304-07S.COL___128                                                 6
 STAT SP IPHASW D HRMM SECON CODA AMPLIT PERI AZIMU VELO SNR AR TRES W  DIS CAZ7
 BAR2 SZ EP   1    3 7 32.63                             172    -0.1 7   21 208 
 BAR2 SZ ES   1    3 7 48.05                             172    -0.4 7   21 208 
 BAR2 SZ I         3 7 50.05         8.8 0.35                            21 208 
 BRR  HZ EP   1    3 7 34.60                             151     0.0 7   78 300 
 BRR  HE ES   1    3 7 51.86                             151     0.0 7   78 300 
 BRR  HZ I         3 7 54.65        14.9 0.45                            78 300 
 RUS  HZ EP   1    3 7 36.63                             146     0.2 7   96 179 
 RUS  HE ES   1    3 7 55.21                             146     0.2 7   96 179 
 OCA  SZ EP   1    3 7 41.25                             130    -0.5 7  166 351 
 OCA  SZ ES   1    3 8  4.91                             130     0.4 7  166 351 
 OCA  SZ I         3 8  7.96         6.1 0.34                           166 351 
                                                                                
