 2013  517 0846 54.6 L   6.355 -74.198 65.2  RSN  4 0.3 0.8LRSN                1
 GAP=256        0.65       3.8     6.1  5.4 -0.9076E+01  0.3509E+01  0.5723E+01E
 Epicentro: CIMITARRA - SANTANDER                                              3
 ACTION:UPD 13-06-20 09:51 OP:ep   STATUS:               ID:20130517084654 L   I
 2013-05-17-0840-00M.COL___253                                                 6
 STAT SP IPHASW D HRMM SECON CODA AMPLIT PERI AZIMU VELO AIN AR TRES W  DIS CAZ7
 PTB  HZ EP        847  4.65                             149   -0.3710 35.1 306 
 PTB  HN ES        847 13.30                             149    0.1810 35.1 306 
 PTB  HZ I         847 13.68         3.4 0.26            138           35.1 306 
 ZAR  HZ EP   1    847 16.21                             107   -0.11 7  145 330 
 ZAR  HN ES   1    847 33.63                             107    0.40 7  145 330 
 ZAR  HZ I         847 35.50         1.1 0.23            104            145 330 
 HEL  HZ EP        847 17.06                             107   -0.05 9  148 263 
 HEL  HE ES        847 34.40                             107   -0.25 9  148 263 
 HEL  HZ I         847 36.98         1.7 0.34            104            148 263 
 GUY2CHZ EP   1    847 21.42                             103    0.42 7  180 226 
 GUY2CHN ES   1    847 41.85                             103    0.29 7  180 226 
 GUY2CHZ I         847 47.10         1.0 0.38                           180 226 
                                                                                
