 2015  917 0626  5.1 L   6.805 -73.178146.0  RSN 13 0.4 1.8LRSN                1
 GAP=132        0.61       1.9     2.9  4.0 -0.1144E+01  0.4665E+01  0.4331E+00E
 Epicentro: LOS SANTOS - SANTANDER                                             3
 ACTION:UPD 15-10-28 16:26 OP:cam  STATUS:               ID:20150917062605 L   I
 OLDACT:UP  15-09-17 19:33 OP:drio STATUS:               ID:20150917061741     3
 OLDACT:UP  15-09-17 19:32 OP:ar   STATUS:               ID:20150917061741     3
 OLDACT:REG 15-09-17 13:36 OP:ar   STATUS:               ID:20150917061741     3
 2015-09-17-0617-41M.COL___343                                                 6
 STAT SP IPHASW D HRMM SECON CODA AMPLIT PERI AZIMU VELO AIN AR TRES W  DIS CAZ7
 BAR2 EZ EP        626 24.69                             170   -0.0610 23.5 181 
 BAR2 EZ ES        626 40.23                             170    0.1510 23.5 181 
 BAR2 EZ I         626 41.57        18.2 0.16            169           23.5 181 
 PAM  EZ EP        626 27.62                             150    0.1810 79.3  42 
 PAM  EN ES        626 44.91                             150    0.0310 79.3  42 
 PAM  EZ I         626 46.97        14.4 0.48            155           79.3  42 
 RUS  HZ EP        626 28.57                             144   -0.3510  101 174 
 RUS  HN ES        626 47.49                             144   -0.0210  101 174 
 RUS  HZ I         626 48.84         9.9 0.26            146            101 174 
 PTB  HZ EP   2    626 31.46                             133   -0.31 5  144 258 
 PTB  HN ES   2    626 52.46                             133   -0.11 5  144 258 
 PTB  HZ I         626 58.50         4.5 0.40            131            144 258 
 OCA  HZ EP   2    626 34.24                             130    0.91 5  159 354 
 OCA  HN ES   2    626 54.52                             130   -0.83 5  159 354 
 OCA  HZ I         626 59.56        13.1 0.50            131            159 354 
 SPBC HZ EP        626 33.48                             129    0.05 9  161 218 
 SPBC HN ES        626 55.27                             129   -0.27 9  161 218 
 SPBC HZ I         627  0.25        16.7 0.42            130            161 218 
 ZAR  HZ EP   4    626 40.20                             123    3.02 0  201 292 
 ZAR  HE ES   2    627  2.62                             123    0.40 4  201 292 
 ZAR  HZ I         627  9.16         7.5 0.74            123            201 292 
 SML  HZ EP   2    626 41.06                             118   -0.45 4  242 336 
 SML  HE ES        627 10.05                             118    0.13 8  242 336 
 CHI  HZ EP        626 42.93                             117    0.17 8  248 194 
 CHI  HN ES        627 12.50                             117    0.36 8  248 194 
 CHI  HZ I         627 15.69         2.6 0.48            119            248 194 
 HEL  HN ES        627 15.82                             115   -0.20 8  269 255 
 HEL  HZ I         627 23.81         3.6 0.24            115            269 255 
 GUY2CHZ EP   4    626 49.97                             113    1.56 0  299 234 
 GUY2CHE ES   2    627 22.93                             113    0.73 4  299 234 
 GUY2CHZ I         627 30.93         3.1 0.38                           299 234 
 PRA  HZ EP        626 58.29                             107   -0.18 6  391 209 
 PRA  HE ES        627 39.84                             107   -0.26 6  391 209 
 PRA  HN ES   2    627 41.33                             107    1.23 3  391 209 
 PRA  HZ I         627 49.95         2.5 0.34            108            391 209 
 SJC  HZ EP   4    626 58.77                             106   -1.60 0  407 327 
 SJC  HN ES   4    627 40.14                             106   -3.35 0  407 327 
 SJC  HZ I         627 43.61         1.1 0.48            107            407 327 
                                                                                
