 2014  917 0427 55.1 L   6.146 -73.690112.7  RSN  8 0.5 1.8LRSN                1
 GAP= 69        1.37       4.3     4.9  9.3 -0.2261E+01  0.1322E+02  0.7961E+01E
 Epicentro: CHIPATA - SANTANDER                                                3
 ACTION:UPD 14-10-03 23:05 OP:nd   STATUS:               ID:20140917042755 L   I
 OLDACT:REG 14-09-17 13:41 OP:carl STATUS:               ID:20140917042449     3
 2014-09-17-0424-49M.COL___269                                                 6
 STAT SP IPHASW D HRMM SECON CODA AMPLIT PERI AZIMU VELO AIN AR TRES W  DIS CAZ7
 SPBC HZ EP        428 12.89                             146    0.1310 69.1 218 
 SPBC HN ES        428 27.21                             146    0.6710 69.1 218 
 SPBC HZ I         428 30.17        24.2 0.28            147           69.1 218 
 RUS  HZ EP        428 13.35                             145   -0.2310 72.8 113 
 RUS  HN ES        428 27.01                             145   -1.0010 72.8 113 
 BAR2 SZ EP        428 13.55                             144    0.1910 74.7  49 
 BAR2 SZ ES        428 28.31                             144    0.6910 74.7  49 
 PTB  HZ EP        428 14.11                             137   -0.5510 95.3 297 
 PTB  HN ES        428 28.99                             137   -0.9310 95.3 297 
 PTB  HZ I         428 31.87         7.3 0.18            140           95.3 297 
 BRR  HZ EP        428 15.78                             133    0.2010  106 359 
 BRR  HN ES        428 32.04                             133    0.4810  106 359 
 BRR  HZ I         428 33.24        10.4 0.12            138            106 359 
 NOR  HZ EP        428 19.26                             124   -0.16 9  146 244 
 NOR  HN ES   4    428 38.28                             124   -0.12 0  146 244 
 NOR  HZ I         428 40.61        13.7 0.22            126            146 244 
 CHI  HZ EP        428 21.85                             120   -0.34 9  168 182 
 CHI  HN ES        428 43.68                             120    0.36 9  168 182 
 CHI  HZ I         428 48.69         8.5 0.50            122            168 182 
 GUY2CHZ EP        428 27.52                             113    0.45 8  212 241 
 GUY2CHN ES        428 52.27                             113    0.25 8  212 241 
 GUY2CHZ I         428 58.03         6.0 0.22                           212 241 
                                                                                
