 2014  517 0301 12.6 L   7.131 -73.085146.7  RSN  4 0.3 1.3LRSN                1
 GAP=272        0.75       5.9     6.9  8.3  0.1551E+02 -0.8771E+01 -0.1558E+01E
 Epicentro: BUCARAMANGA - SANTANDER                                            3
 ACTION:UPD 15-03-16 16:58 OP:nd   STATUS:               ID:20140517030112 L   I
 OLDACT:REG 14-05-17 12:24 OP:stll STATUS:               ID:20140517025807     3
 2014-05-17-0258-07M.COL___242                                                 6
 STAT SP IPHASW D HRMM SECON CODA AMPLIT PERI AZIMU VELO AIN AR TRES W  DIS CAZ7
 BRR  HZ EP        3 1 34.05                             153    0.2810 69.3 268 
 BRR  HN ES        3 1 50.27                             153    0.0110 69.3 268 
 BRR  HZ I         3 1 51.77         7.3 0.22            152           69.3 268 
 RUS  HZ EP   1    3 1 39.74                             135    0.39 7  137 180 
 RUS  HN ES        3 1 59.89                             135   -0.31 9  137 180 
 RUS  HZ I         3 2  5.06         0.8 0.52            132            137 180 
 PTB  HZ EP        3 1 40.78                             129   -0.49 9  165 247 
 PTB  HN ES        3 2  3.62                             129    0.00 9  165 247 
 PTB  HZ I         3 2  5.54         2.8 0.28            128            165 247 
 SPBC HE ES   1    3 2  9.79                             124    0.47 6  197 214 
 SPBC HZ I         3 2 15.25         2.2 0.08            123            197 214 
                                                                                
