 2016  917 0624  6.2 L   6.786 -73.121140.6  RSN  9 0.5 1.7LRSN                1
 GAP=140        1.33       4.2     5.5  7.6 -0.2101E+01  0.8132E+01  0.4930E+00E
 Epicentro: LOS SANTOS - SANTANDER                                             3
 ACTION:UPD 17-08-17 21:13 OP:lp   STATUS:               ID:20160917062406 L   I
 OLDACT:UP  16-09-17 19:45 OP:ar   STATUS:               ID:20160917061730     3
 OLDACT:REG 16-09-17 14:13 OP:and  STATUS:               ID:20160917061730     3
 2016-09-17-0618-00M.COL___354                                                 6
 STAT SP IPHASW D HRMM SECON CODA AMPLIT PERI AZIMU VELO AIN AR TRES W  DIS CAZ7
 BAR2 EZ EP        624 25.12                             170   -0.1110 22.4 197 
 BAR2 EZ ES        624 39.95                             170   -0.1010 22.4 197 
 BAR2 EZ I         624 41.29        11.1 0.22            170           22.4 197 
 BRR  HZ IP     D  624 27.02                             151    0.0010 74.3 299 
 BRR  HN ES        624 44.20                             151    0.9810 74.3 299 
 BRR  HZ I         624 47.00         6.0 0.12            150           74.3 299 
 PAM  EZ EP        624 27.87                             150   -0.0110 77.0  37 
 PAM  EN ES        624 44.74                             150   -0.0310 77.0  37 
 PAM  EZ I         624 47.39         7.1 0.70            153           77.0  37 
 RUS  HZ EP        624 29.04                             143   -0.3210 98.8 178 
 RUS  HN ES        624 47.59                             143    0.2010 98.8 178 
 RUS  HZ I         624 48.24         4.7 0.40            146           98.8 178 
 PTB  HZ EP        624 34.15                             130    1.14 9  150 260 
 PTB  HN ES        624 53.19                             130   -0.70 9  150 260 
 PTB  HZ I         624 55.36         5.5 0.44            131            150 260 
 OCA  HZ EP        624 34.47                             128    0.13 9  162 352 
 OCA  HN ES        624 55.56                             128   -0.70 9  162 352 
 OCA  HZ I         624 57.55        11.5 0.34            130            162 352 
 SPBC HZ EP        624 34.11                             128   -0.28 9  164 220 
 SPBC HN ES        624 56.22                             128   -0.13 9  164 220 
 SPBC HZ I         625  0.81         7.7 0.32            129            164 220 
 ZAR  HZ EP        624 39.47                             121    0.79 8  207 292 
 ZAR  HN ES        625  3.21                             121   -0.77 8  207 292 
 ZAR  HZ I         625  9.41         4.2 0.07            122            207 292 
 CHI  HZ EP        624 43.26                             116   -0.31 8  248 196 
 CHI  HN ES   4    625 14.57                             116    1.89 0  248 196 
                                                                                
