 2013 1217 0725 38.0 L   6.738 -73.154152.1  RSN  4 0.4 1.4LRSN                1
 GAP=199        0.90       4.9     7.5  8.4  0.1675E+02 -0.1429E+02 -0.1652E+02E
 Epicentro: JORDAN - SANTANDER                                                 3
 ACTION:UPD 14-01-13 10:18 OP:ep   STATUS:               ID:20131217072538 L   I
 OLDACT:REG 13-12-17 06:40 OP:nd   STATUS:               ID:20131217072000     3
 2013-12-17-0720-00M.COL___285                                                 6
 STAT SP IPHASW D HRMM SECON CODA AMPLIT PERI AZIMU VELO AIN AR TRES W  DIS CAZ7
 BRR  HZ EP        726  0.73                             153    0.7110 73.9 304 
 BRR  HN ES        726 17.14                             153   -0.0410 73.9 304 
 BRR  HZ I         726 18.90         4.4 0.42            153           73.9 304 
 RUS  HZ EP        726  1.68                             147   -0.2710 93.8 175 
 RUS  HN ES        726 20.56                             147   -0.0510 93.8 175 
 RUS  HZ I         726 22.65         1.9 0.48            151           93.8 175 
 PTB  HZ EP        726  5.62                             134    0.28 9  146 261 
 PTB  HN ES        726 26.38                             134   -0.26 9  146 261 
 PTB  HZ I         726 29.23         3.2 0.14            136            146 261 
 SML  HZ EP        726 15.09                             118   -0.56 8  250 336 
 SML  HN ES        726 44.95                             118   -0.05 8  250 336 
 SML  HZ I         726 51.73         2.4 0.10            119            250 336 
                                                                                
