 2017  217 0007 12.6 L   6.765 -73.137143.9  RSN  9 0.5 2.1LRSN                1
 GAP=121        1.13       4.1     4.4  6.3  0.1195E+01  0.5668E+01  0.6952E+01E
 Epicentro: LOS SANTOS - SANTANDER                                             3
 ACTION:UPD 17-05-24 15:37 OP:jn   STATUS:               ID:20170217000712 L   I
 OLDACT:DUP 17-02-17 13:54 OP:cog  STATUS:               ID:20170217000001d    3
 2017-02-17-0000-15M.COL___355                                                 6
 STAT SP IPHASW D HRMM SECON CODA AMPLIT PERI AZIMU VELO AIN AR TRES W  DIS CAZ7
 BAR2 EZ EP        0 7 32.06                             172    0.1210 19.8 195 
 BAR2 EZ ES        0 7 46.65                             172   -0.3710 19.8 195 
 BAR2 EZ I         0 7 47.64        40.1 0.38            170           19.8 195 
 BRR  HZ EP        0 7 33.95                             151    0.2410 73.9 301 
 BRR  HN ES        0 7 50.72                             151    0.5510 73.9 301 
 BRR  HZ I         0 7 55.12        20.3 0.12            149           73.9 301 
 PAM  EZ EP        0 7 34.86                             150    0.0910 79.8  37 
 PAM  EN ES        0 7 51.70                             150   -0.3510 79.8  37 
 PAM  EZ I         0 7 53.91        43.7 0.50            154           79.8  37 
 RUS  HZ EP        0 7 36.08                             144    0.1910 96.7 176 
 RUS  HE ES        0 7 54.66                             144    0.6110 96.7 176 
 RUS  HZ I         0 7 56.15        16.1 0.38            146           96.7 176 
 PTB  HZ EP        0 7 38.78                             132   -0.66 9  148 260 
 PTB  HN ES        0 7 59.26                             132   -1.12 9  148 260 
 PTB  HZ I         0 8  2.77        10.2 0.28            131            148 260 
 ZAR  HZ EP        0 7 45.20                             122    0.02 8  206 293 
 ZAR  HN ES        0 8 11.07                             122    0.49 8  206 293 
 ZAR  HZ I         0 8 18.81        14.2 0.30            122            206 293 
 NOR  HZ EP        0 7 48.50                             118    0.43 8  233 235 
 NOR  HN ES        0 8 15.67                             118   -0.07 8  233 235 
 NOR  HZ I         0 8 23.32         7.0 0.20            119            233 235 
 CHI  HZ EP        0 7 50.02                             117    0.20 8  245 196 
 CHI  HE ES        0 8 18.98                             117    0.13 8  245 196 
 CHI  HZ I         0 8 22.72         5.5 0.28            118            245 196 
 PTGC HZ EP        0 7 55.33                             111   -0.60 7  305 159 
 PTGC HE ES   3    0 8 28.71                             111   -1.01 2  305 159 
                                                                                
