 2015  317 0703 24.1 L   6.794 -73.149147.7  RSN  8 0.3 1.6LRSN                1
 GAP=136        0.86       2.9     4.7  6.1 -0.2643E-01  0.5697E+00 -0.1692E+01E
 Epicentro: LOS SANTOS - SANTANDER                                             3
 ACTION:UPD 15-04-30 16:26 OP:nd   STATUS:               ID:20150317070324 L   I
 OLDACT:REG 15-03-17 12:51 OP:stll STATUS:               ID:20150317065735     3
 2015-03-17-0657-35M.COL___260                                                 6
 STAT SP IPHASW D HRMM SECON CODA AMPLIT PERI AZIMU VELO AIN AR TRES W  DIS CAZ7
 BAR2 EZ EP        7 3 43.90                             171   -0.0310 22.6 189 
 BAR2 EZ ES        7 3 59.15                             171   -0.2610 22.6 189 
 BAR2 EZ I         7 4  1.65         6.9 0.26            170           22.6 189 
 BRR  HZ EP        7 3 45.86                             153    0.4210 71.2 299 
 BRR  HZ I         7 3 46.01         6.9 0.26            152           71.2 299 
 BRR  HN ES        7 4  2.71                             153    0.6110 71.2 299 
 PAM  SZ EP        7 3 46.67                             151    0.1210 78.1  39 
 PAM  SZ I         7 3 46.90        12.8 0.20            155           78.1  39 
 RUS  HZ EP        7 3 47.94                             144   -0.0410 99.9 176 
 RUS  HN ES        7 4  6.36                             144   -0.2610 99.9 176 
 RUS  HZ I         7 4  8.97         3.2 0.54            146           99.9 176 
 PTB  HZ EP        7 3 51.13                             133   -0.03 9  147 259 
 PTB  HN ES        7 4 12.04                             133   -0.24 9  147 259 
 PTB  HZ I         7 4 17.45         4.8 0.34            133            147 259 
 OCA  HN ES        7 4 14.92                             130    0.08 9  161 353 
 OCA  HZ I         7 4 20.30         4.3 0.46            132            161 353 
 SPBC HZ EP        7 3 52.86                             130    0.20 9  162 219 
 SPBC HN ES        7 4 14.92                             130   -0.02 9  162 219 
 SPBC HZ I         7 4 22.16         5.9 0.26            131            162 219 
 SML  HE ES        7 4 28.67                             118   -0.88 8  244 335 
                                                                                
