 2011 1017 0909  5.8 L   7.423 -73.163129.2  RSN  5 0.1 1.5LRSN                1
 GAP=111        0.32       2.8     4.2  4.9  0.2171E+01 -0.9985E+01 -0.5044E+01E
 Epicentro: EL PLAYON - SANTANDER                                              3
 ACTION:UPD 12-07-13 16:04 OP:ep   STATUS:               ID:20111017090905 L   I
 2011-10-17-0905-37S.COL___168                                                 6
 STAT SP IPHASW D HRMM SECON CODA AMPLIT PERI AZIMU VELO AIN AR TRES W  DIS CAZ7
 PAM  SZ EP   1    9 9 24.74                             157   -0.11 7 52.0 100 
 BRR  HZ EP        9 9 25.03                             150   -0.0910 70.0 240 
 BRR  HN ES   1    9 9 40.19                             150    0.01 7 70.0 240 
 BRR  HZ I         9 9 41.75        12.2 0.12                          70.0 240 
 OCA  SZ I         9 9 47.68         4.1 0.28                          91.9 349 
 BAR2 SZ EP   1    9 9 27.07                             142    0.11 7 91.9 181 
 BAR2 SZ ES   1    9 9 43.47                             142    0.03 7 91.9 181 
 BAR2 SZ I         9 9 44.59        16.2 0.10                          91.9 181 
 OCA  SZ EP   1    9 9 26.95                             142    0.11 7 91.9 349 
 RUS  HZ EP   1    9 9 34.27                             124    0.01 7  169 177 
 RUS  HZ I         9 9 57.23         1.1 0.19                           169 177 
                                                                                
