 2011 1017 0632 43.8 L   6.779 -73.093141.9  RSN  7 0.4 1.9LRSN                1
 GAP=171        0.71       5.0     6.6  6.0 -0.9468E+01  0.1331E+02  0.1455E+01E
 Epicentro: LOS SANTOS - SANTANDER                                             3
 ACTION:UPD 12-07-13 16:04 OP:ep   STATUS:               ID:20111017063243 L   I
 2011-10-17-0632-21S.COL___168                                                 6
 STAT SP IPHASW D HRMM SECON CODA AMPLIT PERI AZIMU VELO AIN AR TRES W  DIS CAZ7
 BAR2 SZ EP   1    633  2.86                             170   -0.06 7 22.8 206 
 BAR2 SZ ES   1    633 17.63                             170   -0.23 7 22.8 206 
 BAR2 SZ I         633 20.61        15.8 0.32                          22.8 206 
 PAM  SZ EP   1    633  5.65                             151    0.18 7 75.7  35 
 PAM  SN ES   1    633 22.68                             151    0.28 7 75.7  35 
 BRR  HZ EP        633  4.81                             150   -0.0610 77.5 298 
 BRR  HE ES   1    633 21.38                             150    0.05 7 77.5 298 
 BRR  HZ I         633 24.30        12.4 0.23                          77.5 298 
 OCA  SZ EP   1    633 11.37                             128   -0.71 7  163 351 
 OCA  SZ ES   1    633 34.26                             128    0.10 7  163 351 
 OCA  SZ I         633 40.28         9.1 0.28                           163 351 
 ZAR  HZ EP   1    633 17.01                             121    0.39 6  210 292 
 ZAR  HZ I         633 45.80         6.5 0.34                           210 292 
 NOR  SZ EP   1    633 19.13                             117   -0.51 6  238 236 
 RREF HZ EP   1    633 31.00                             110    0.92 5  325 230 
 RREF HZ I         634 13.03         3.8 0.49                           325 230 
                                                                                
