 2011  317 0901 12.6 L   6.811 -73.105139.6  RSN  6 0.4 1.5LRSN                1
 GAP=163        0.82       5.2     9.2  9.0 -0.1296E+02  0.2193E+02 -0.1769E+00E
 Epicentro: LOS SANTOS - SANTANDER                                             3
 ACTION:UP  11-06-16 14:34 OP:jfem STATUS:               ID:20110317090112 L   I
 2011-03-17-0857-19S.COL___138                                                 6
 STAT SP IPHASW D HRMM SECON CODA AMPLIT PERI AZIMU VELO SNR AR TRES W  DIS CAZ7
 BAR2 SZ EP   1    9 1 31.47                             169     0.0 8   26 200 
 BAR2 SZ ES   1    9 1 46.58                             169     0.3 8   26 200 
 BAR2 SZ I         9 1 48.07        12.1 0.22                            26 200 
 RUS  HZ EP        9 1 35.54                             142    -0.310  102 179 
 RUS  HN ES   1    9 1 53.61                             142    -0.3 7  102 179 
 RUS  HZ I         9 1 55.35         5.4 0.30                           102 179 
 GRA  SZ EP   2    9 1 37.63                             136     0.6 5  123  16 
 GRA  SZ I         9 2  3.14         2.6 0.28                           123  16 
 OCA  SZ ES   2    9 2  1.95                             128    -0.1 5  160 351 
 OCA  SZ I         9 2  8.54         3.4 0.24                           160 351 
 NOR  SZ EP   2    9 1 48.68                             117     0.2 4  239 235 
 NOR  SE ES   1    9 2 16.08                             117    -0.3 6  239 235 
 CHI  HZ EP   2    9 1 49.75                             116    -0.4 4  251 196 
 CHI  HN ES   1    9 2 20.45                             116     0.9 6  251 196 
 CHI  HZ I         9 2 21.58         3.3 0.39                           251 196 
                                                                                
