 2017  217 0044 46.1 L   6.753 -73.117143.3  RSN  4 0.3 1.3LRSN                1
 GAP=142        0.48       2.8     2.6  5.3 -0.1446E+01  0.1169E+01 -0.1285E+01E
 Epicentro: LOS SANTOS - SANTANDER                                             3
 ACTION:UPD 17-05-24 15:37 OP:jn   STATUS:               ID:20170217004446 L   I
 OLDACT:UP  17-02-17 14:12 OP:cog  STATUS:               ID:20170217003741     3
 OLDACT:REG 17-02-17 12:49 OP:cog  STATUS:               ID:20170217003741     3
 2017-02-17-0038-00M.COL___355                                                 6
 STAT SP IPHASW D HRMM SECON CODA AMPLIT PERI AZIMU VELO AIN AR TRES W  DIS CAZ7
 BRR  HZ EP        045  7.33                             150    0.0610 76.6 301 
 BRR  HE ES        045 23.97                             150    0.1710 76.6 301 
 PAM  EZ EP        045  8.26                             150    0.1010 79.6  35 
 PAM  EN ES        045 25.18                             150   -0.2010 79.6  35 
 PAM  EZ I         045 27.08         7.7 0.46            152           79.6  35 
 RUS  HZ EP   3    045  9.86                             145    0.67 2 95.2 178 
 RUS  HE ES        045 27.24                             145    0.0110 95.2 178 
 RUS  HZ I         045 29.50         2.6 0.32            145           95.2 178 
 PTB  HZ EP   3    045 11.93                             131   -1.11 2  150 261 
 PTB  HE ES        045 33.95                             131   -0.13 9  150 261 
 PTB  HZ I         045 36.19         1.8 0.22            132            150 261 
                                                                                
