 2012  217 0855 47.3 L   6.762 -73.148151.3  RSN  5 0.2 1.3LRSN                1
 GAP=234        0.42       5.5     5.2  4.6  0.1808E+02  0.3791E+01  0.3463E+01E
 ACTION:UP  12-03-07 16:31 OP:epov STATUS:               ID:20120217085547 L   I
 2012-02-17-0850-00M.COL___188                                                 6
 STAT SP IPHASW D HRMM SECON CODA AMPLIT PERI AZIMU VELO AIN AR TRES W  DIS CAZ7
 BAR2 SZ EP   1    856  7.33                             172   -0.17 7 19.2 191 
 BAR2 SZ ES   1    856 23.16                             172   -0.11 7 19.2 191 
 BRR  HZ EP   1    856  9.21                             153    0.08 7 73.1 301 
 BRR  HN ES   1    856 26.40                             153    0.23 7 73.1 301 
 RUS  HZ EP   1    856 11.34                             146    0.05 7 96.4 176 
 RUS  HN ES   2    856 29.97                             146   -0.05 5 96.4 176 
 RUS  HZ I         856 31.16         1.5 0.27                          96.4 176 
 PTB  HZ EP   1    856 14.76                             133    0.15 7  147 260 
 PTB  HE ES   2    856 35.99                             133    0.06 5  147 260 
 ZAR  HN ES   2    856 45.26                             123   -0.67 4  205 293 
 ZAR  HZ I         856 51.82         2.9 0.37                           205 293 
                                                                                
