 2014  817 0329  6.8 L   6.769 -73.098154.3  RSN  8 0.4 1.3LRSN                1
 GAP=188        0.81       3.5     6.9  9.6 -0.7609E+01  0.2333E+02 -0.8136E+01E
 Epicentro: LOS SANTOS - SANTANDER                                             3
 ACTION:UPD 14-09-15 21:50 OP:nd   STATUS:               ID:20140817032906 L   I
 OLDACT:DUP 14-08-17 15:43 OP:spq  STATUS:               ID:20140817032809d    3
 2014-08-17-0328-08M.COL___269                                                 6
 STAT SP IPHASW D HRMM SECON CODA AMPLIT PERI AZIMU VELO AIN AR TRES W  DIS CAZ7
 BAR2 SZ ES   1    329 43.28                             172   -0.28 7 21.7 206 
 BAR2 SZ I         329 45.34         3.0 0.28            171           21.7 206 
 BRR  HZ EP        329 29.19                             152   -0.0810 77.5 299 
 BRR  HE ES        329 47.07                             152    0.3110 77.5 299 
 BRR  HZ I         329 49.89         2.7 0.33            151           77.5 299 
 RUS  HE ES   1    329 49.96                             146   -0.23 7 97.0 179 
 RUS  HZ I         329 50.98         1.2 0.18            147           97.0 179 
 PTB  HE ES        329 56.33                             133   -0.50 9  152 260 
 PTB  HZ I         329 58.18         2.6 0.15            132            152 260 
 SPBC HN ES        329 59.22                             131    0.32 9  164 221 
 SPBC HZ I         330  5.32         3.2 0.26            130            164 221 
 OCA  HN ES        329 59.49                             131    0.39 9  164 351 
 OCA  HZ I         330  2.31         3.0 0.18            130            164 351 
 SML  HN ES   1    330 13.29                             119   -0.63 6  249 335 
 SML  HZ I         330 18.59         3.6 0.09            118            249 335 
 GUY2CHN ES   1    330 26.11                             114    0.44 5  304 236 
 GUY2CHZ I         330 33.34         1.1 0.34                           304 236 
                                                                                
