 2010 1217 0133 59.9 L   6.798 -73.047145.0  RSN 12 0.5 2.1LRSN                1
 GAP=133        0.99       4.7     8.1  8.1 -0.1708E+02  0.2470E+01  0.9660E+01E
 Epicentro: LOS SANTOS - SANTANDER                                             3
 ACTION:UP  11-01-14 15:25 OP:pat  STATUS:               ID:20101217013359 L   I
 2010-12-17-0120-00M.COL___137                                                 6
 STAT SP IPHASW D HRMM SECON CODA AMPLIT PERI AZIMU VELO SNR AR TRES W  DIS CAZ7
 BAR2 SZ EP        134 19.40                             169    -0.210   27 214 
 BAR2 SZ I         134 35.83        51.1 0.14                            27 214 
 BTL  SZ EP   1    134 19.50                             169    -0.1 7   28 299 
 BRR  HZ EP   2    134 20.76                             149    -0.8 5   81 295 
 BRR  HN ES   1    134 38.32                             149    -0.2 7   81 295 
 RUS  HZ EP   1    134 23.31                             144    -0.3 7  100 182 
 RUS  HE ES   1    134 42.20                             144     0.2 7  100 182 
 RUS  HZ I         134 43.06        10.8 0.44                           100 182 
 GRA  SZ EP        134 25.25                             137     0.410  123  13 
 GRA  SZ ES   1    134 44.49                             137     0.1 7  123  13 
 GRA  SZ I         134 47.17         9.9 0.32                           123  13 
 NOR  SZ EP   1    134 35.78                             117    -0.8 6  244 236 
 NOR  SZ I         135  8.71         2.2 0.27                           244 236 
 CHI  HZ EP   1    134 37.27                             116    -0.6 6  252 198 
 CHI  HZ I         134 39.15         3.7 0.24                           252 198 
 CHI  HE ES   1    135  7.54                             116     0.0 6  252 198 
 ROSC BZ EP        134 39.59                             116     1.0 8  258 213 
 ROSC BZ I         135 17.21        16.4 0.10                           258 213 
 HEL  HZ EP   1    134 41.34                             113     0.0 6  283 256 
 HEL  HZ I         135 19.91         7.4 0.22                           283 256 
 RREF HZ EP   1    134 47.58                             110     0.6 5  330 231 
 RREF HE ES   2    135 24.34                             110     0.6 3  330 231 
 RREF HZ I         135 29.02         7.8 0.37                           330 231 
 SDV  BZ EP   1    134 48.70                             108    -0.3 5  352  49 
 SDV  BZ I         134 49.58         3.3 0.15                           352  49 
 PRA  HZ EP   1    134 53.83                             106    -0.2 4  397 211 
 PRA  HE ES   1    135 36.19                             106    -0.1 4  397 211 
 PRA  HZ I         135 41.63        17.9 0.04                           397 211 
                                                                                
