 2013  917 0527 35.8 L   6.786 -73.138147.8  RSN  7 0.3 1.6LRSN                1
 GAP=184        0.87       3.4     5.1  6.4  0.3461E+01  0.5739E+01  0.9939E+00E
 Epicentro: LOS SANTOS - SANTANDER                                             3
 ACTION:UPD 13-10-22 09:23 OP:ep   STATUS:               ID:20130917051959 L   I
 OLDACT:UPD 13-09-17 10:07 OP:Migu STATUS:               ID:20130917051959 L   3
 2013-09-17-0519-59M.COL___269                                                 6
 STAT SP IPHASW D HRMM SECON CODA AMPLIT PERI AZIMU VELO AIN AR TRES W  DIS CAZ7
 BAR2 SZ EP        527 55.67                             171    0.0110 22.0 193 
 BAR2 SZ ES        528 10.85                             171   -0.2910 22.0 193 
 BAR2 SZ I         528 12.13         6.5 0.26            169           22.0 193 
 BRR  HZ EP        527 57.55                             152    0.2910 72.6 299 
 BRR  HN ES        528 14.67                             152    0.6810 72.6 299 
 BRR  HZ I         528 21.69         3.5 0.18            148           72.6 299 
 RUS  HZ EP        527 59.87                             145    0.2210 99.0 176 
 RUS  HN ES        528 17.94                             145   -0.3010 99.0 176 
 RUS  HZ I         528 19.36         3.2 0.34            149           99.0 176 
 PTB  HZ EP        528  2.70                             132   -0.29 9  148 259 
 PTB  HN ES   1    528 23.52                             132   -0.67 7  148 259 
 PTB  HZ I         528 29.09         3.9 0.42            132            148 259 
 OCA  HN ES        528 26.48                             130   -0.27 9  162 353 
 SPBC HZ EP        528  4.47                             130    0.07 9  162 220 
 SPBC HE ES        528 27.01                             130    0.31 9  162 220 
 SPBC HZ I         528 27.88         5.4 0.16            131            162 220 
 ZAR  HE ES        528 33.86                             123   -0.18 8  205 292 
 ZAR  HE I         528 42.68        10.6 0.34            123            205 292 
                                                                                
