 2016 1117 0830 56.6 L   6.735 -73.122143.0  RSN  5 0.2 1.2LRSN                1
 GAP=168        0.60       6.1     3.0  5.7 -0.5227E+01  0.1580E+01  0.1211E+02E
 Epicentro: JORDAN - SANTANDER                                                 3
 ACTION:UPD 17-10-26 21:09 OP:lp   STATUS:               ID:20161117083056 L   I
 OLDACT:REG 16-11-17 12:55 OP:and  STATUS:               ID:20161117082742     3
 2016-11-17-0828-00M.COL___334                                                 6
 STAT SP IPHASW D HRMM SECON CODA AMPLIT PERI AZIMU VELO AIN AR TRES W  DIS CAZ7
 BAR2 EZ EP        831 16.16                             173    0.3310 17.2 203 
 BRR  HZ EP        831 17.76                             150   -0.0810 77.1 302 
 BRR  HN ES        831 34.70                             150    0.3210 77.1 302 
 PAM  EZ IP     C  831 18.77                             149   -0.0510 81.5  35 
 PAM  EN ES        831 35.87                             149   -0.2510 81.5  35 
 PTB  HZ EP        831 23.37                             131   -0.14 9  149 262 
 PTB  HN ES        831 44.16                             131   -0.31 9  149 262 
 PTB  HZ I         831 46.38         1.9 0.18            129            149 262 
 ZAR  HZ EP        831 29.62                             121    0.17 8  209 294 
 ZAR  HN ES        831 55.02                             121   -0.02 8  209 294 
 ZAR  HZ I         832  0.37         1.8 0.28            119            209 294 
                                                                                
