 2011  817 1504 10.5 L   6.759 -73.145138.9  RSN  4 0.2 1.8LRSN                1
 GAP=234        0.47       3.7     4.6  5.2  0.3958E+01  0.3701E+01  0.1142E+01E
 Epicentro: LOS SANTOS - SANTANDER                                             3
 ACTION:UPD 12-07-13 15:52 OP:ep   STATUS:               ID:20110817150410 L   I
 2011-08-17-1502-49S.COL___150                                                 6
 STAT SP IPHASW D HRMM SECON CODA AMPLIT PERI AZIMU VELO AIN AR TRES W  DIS CAZ7
 BAR2 SZ EP       15 4 29.27                             172    0.0410 19.0 193 
 BAR2 SZ ES   1   15 4 43.50                             172   -0.33 7 19.0 193 
 BAR2 SZ I        15 4 46.29        13.7 0.31                          19.0 193 
 BRR  HZ EP       15 4 31.11                             150    0.0510 73.5 302 
 BRR  HZ I        15 4 33.19        21.4 0.12                          73.5 302 
 BRR  HN ES   1   15 4 47.22                             150    0.13 7 73.5 302 
 RUS  HZ EP   1   15 4 33.07                             144   -0.19 7 96.1 176 
 RUS  HN ES   1   15 4 51.33                             144    0.32 7 96.1 176 
 RUS  HZ I        15 4 53.29         7.6 0.30                          96.1 176 
 NOR  SN ES   1   15 5 12.83                             117   -0.11 6  232 235 
                                                                                
