 2010  917 1607 55.6 L   6.792 -73.026144.9  RSN  6 0.3 1.7LRSN                1
 GAP=172        0.61       4.5    10.0  8.9 -0.4536E+01 -0.2875E+02 -0.7447E+01E
 Epicentro: CEPITA - SANTANDER                                                 3
 ACTION:UP  11-02-18 11:03 OP:tino STATUS:               ID:20100917160755 L   I
 2010-09-17-1604-14S.COL___121                                                 6
 STAT SP IPHASW D HRMM SECON CODA AMPLIT PERI AZIMU VELO SNR AR TRES W  DIS CAZ7
 BAR2 SZ EP   1   16 8 14.95                             168    -0.2 7   28 218 
 BAR2 SZ ES   2   16 8 30.18                             168    -0.3 5   28 218 
 BAR2 SZ I        16 8 33.17        20.4 0.42                            28 218 
 BTL  SZ EP   1   16 8 15.79                             168     0.5 7   30 298 
 BRR  HZ EP   1   16 8 17.05                             148    -0.3 7   84 295 
 BRR  HE ES   2   16 8 34.61                             148     0.2 5   84 295 
 BRR  HZ I        16 8 38.96         9.7 0.31                            84 295 
 RUS  HZ EP   1   16 8 19.08                             144    -0.1 7  100 184 
 RUS  HE ES   2   16 8 37.85                             144     0.3 5  100 184 
 RUS  HZ I        16 8 39.03         6.1 0.26                           100 184 
 GUE  SZ EP   1   16 8 20.19                             140     0.1 7  115   6 
 GRA  SZ EP   1   16 8 20.54                             137     0.0 7  123  11 
 GRA  SZ ES   2   16 8 39.82                             137    -0.2 5  123  11 
 GRA  SZ I        16 8 42.03         5.8 0.34                           123  11 
                                                                                
