 2011  817 1418 49.5 L   6.814 -73.112146.5  RSN  5 0.5 2.1LRSN                1
 GAP=186        1.08       5.6    10.3 10.1 -0.1732E+01  0.1479E+02 -0.3662E+01E
 Epicentro: LOS SANTOS - SANTANDER                                             3
 ACTION:UPD 12-07-13 15:52 OP:ep   STATUS:               ID:20110817141849 L   I
 2011-08-17-1416-02S.COL___149                                                 6
 STAT SP IPHASW D HRMM SECON CODA AMPLIT PERI AZIMU VELO AIN AR TRES W  DIS CAZ7
 BAR2 SZ EP       1419  9.52                             170    0.2410 25.7 198 
 BAR2 SZ ES   1   1419 23.97                             170   -0.73 7 25.7 198 
 BAR2 SZ I        1419 25.16        36.3 0.30                          25.7 198 
 BRR  HZ EP       1419 11.43                             152    0.5410 73.8 296 
 BRR  HN ES   1   1419 28.16                             152    0.60 7 73.8 296 
 BRR  HZ I        1419 29.43        35.9 0.16                          73.8 296 
 RUS  HZ EP   1   1419 14.03                             143    0.60 7  102 178 
 RUS  HN ES   1   1419 31.89                             143   -0.20 7  102 178 
 RUS  HZ I        1419 33.52         8.4 0.33                           102 178 
 OCA  SZ EP   1   1419 17.02                             130   -0.76 7  159 352 
 OCA  SZ ES   1   1419 39.47                             130   -0.36 7  159 352 
 NOR  SZ EP   1   1419 25.04                             118   -0.67 6  239 235 
 NOR  SE ES   1   1419 53.51                             118   -0.43 6  239 235 
                                                                                
