 2015  817 1615 34.8 L   6.760 -73.145149.5  RSN  5 0.3 1.7LRSN                1
 GAP=200        0.75       6.8     8.4  7.8  0.4297E+02 -0.7086E+01 -0.1240E+02E
 Epicentro: LOS SANTOS - SANTANDER                                             3
 ACTION:UPD 15-09-15 23:02 OP:cam  STATUS:               ID:20150817161534 L   I
 OLDACT:REG 15-08-17 21:22 OP:spq  STATUS:               ID:20150817160747     3
 2015-08-17-1607-47M.COL___340                                                 6
 STAT SP IPHASW D HRMM SECON CODA AMPLIT PERI AZIMU VELO AIN AR TRES W  DIS CAZ7
 BAR2 EZ EP       1615 54.72                             173   -0.0710 19.0 192 
 BAR2 EZ ES   1   1616  9.99                             173   -0.40 7 19.0 192 
 BAR2 EZ I        1616 10.69         4.9 0.10            171           19.0 192 
 BRR  HZ EP       1615 56.66                             152    0.1910 73.4 302 
 BRR  HN ES       1616 13.84                             152    0.4610 73.4 302 
 BRR  HZ I        1616 16.98        13.0 0.32            149           73.4 302 
 RUS  HZ EP   1   1615 58.94                             146    0.34 7 96.2 176 
 RUS  HE ES   1   1616 16.87                             146   -0.31 7 96.2 176 
 RUS  HZ I        1616 18.74         5.7 0.38            147           96.2 176 
 ZAR  HE ES       1616 32.99                             123   -0.30 8  206 293 
 ZAR  HZ I        1616 38.04         5.4 0.24            122            206 293 
 SML  HE ES   1   1616 40.68                             118   -0.45 6  248 336 
 SML  HZ I        1616 44.55         7.8 0.10            118            248 336 
                                                                                
