 2010  817 1323 16.3 L   6.782 -73.358124.9  RSN  4 0.1 1.4LRSN                1
 GAP=150        0.37       5.1     9.6  6.4  0.4075E+02 -0.3146E+02 -0.1240E+02E
 Epicentro: ZAPATOCA - SANTANDER                                               3
 ACTION:UP  10-09-07 10:55 OP:vdl  STATUS:               ID:20100817132316 L   I
 2010-08-17-1322-03S.COL___111                                                 6
 STAT SP IPHASW D HRMM SECON CODA AMPLIT PERI AZIMU VELO SNR AR TRES W  DIS CAZ7
 BAR2 SZ EP       1323 33.60                             166     0.010   29 138 
 BAR2 SZ I        1323 33.89        11.1 0.20                            29 138 
 GIR2 SZ EP   1   1323 33.68                             162     0.0 7   38  29 
 BRR  HZ EP       1323 34.09                             155    -0.110   53 313 
 BRR  HZ I        1323 45.09        12.1 0.28                            53 313 
 BRR  HN ES   1   1323 48.24                             155     0.1 7   53 313 
 RUS  HZ EP   1   1323 38.39                             138     0.1 7  103 163 
 RUS  HZ I        1323 45.43         1.8 0.39                           103 163 
 RUS  HE ES   1   1323 55.26                             138    -0.1 7  103 163 
                                                                                
