 2016  117 1524 53.2 L   6.820 -73.173145.7  RSN  6 0.2 1.5LRSN                1
 GAP=145        0.60       3.4     3.2  4.3 -0.5434E+01  0.4935E+01 -0.8078E+00E
 Epicentro: LOS SANTOS - SANTANDER                                             3
 ACTION:UPD 16-03-09 23:26 OP:cam  STATUS:               ID:20160117152453 L   I
 OLDACT:REG 16-01-17 20:07 OP:drio STATUS:               ID:20160117151742     3
 2016-01-17-1517-42M.COL___328                                                 6
 STAT SP IPHASW D HRMM SECON CODA AMPLIT PERI AZIMU VELO AIN AR TRES W  DIS CAZ7
 BAR2 EZ EP       1525 12.76                             170   -0.1110 25.2 182 
 BAR2 EZ ES       1525 28.34                             170    0.1310 25.2 182 
 BAR2 EZ I        1525 29.64         6.5 0.42            171           25.2 182 
 PAM  EZ EP       1525 15.74                             151    0.3010 77.7  42 
 PAM  EE ES       1525 32.67                             151   -0.1010 77.7  42 
 PAM  EZ I        1525 34.98         6.0 0.56            154           77.7  42 
 RUS  HZ EP       1525 17.12                             143   -0.0110  103 174 
 RUS  HN ES       1525 35.79                             143   -0.0110  103 174 
 RUS  HZ I        1525 38.04         4.0 0.54            148            103 174 
 PTB  HZ EP       1525 19.70                             132   -0.25 9  145 258 
 PTB  HN ES       1525 40.69                             132   -0.11 9  145 258 
 PTB  HZ I        1525 48.32         6.4 0.42            133            145 258 
 SPBC HZ EP       1525 21.68                             129   -0.01 9  163 218 
 SPBC HE ES       1525 43.61                             129   -0.30 9  163 218 
 NOR  HZ EP       1525 28.77                             119   -0.04 8  234 234 
 NOR  HE ES       1525 57.21                             119    0.62 8  234 234 
 NOR  HZ I        1525 59.12         3.4 0.26            121            234 234 
                                                                                
