 2016  917 1739  0.6 L   6.735 -73.135132.0  RSN  4 0.4 1.4LRSN                1
 GAP=141        0.78       6.5     4.9  7.8 -0.2266E+01  0.1410E+02 -0.8332E+01E
 Epicentro: JORDAN - SANTANDER                                                 3
 ACTION:UPD 17-08-17 21:13 OP:lp   STATUS:               ID:20160917173900 L   I
 OLDACT:REG 16-09-17 21:20 OP:dnl  STATUS:               ID:20160917173736     3
 2016-09-17-1738-00M.COL___360                                                 6
 STAT SP IPHASW D HRMM SECON CODA AMPLIT PERI AZIMU VELO AIN AR TRES W  DIS CAZ7
 BAR2 EZ EP       1739 18.68                             173    0.2310 16.6 198 
 BAR2 EZ ES       1739 32.07                             173   -0.3010 16.6 198 
 BAR2 EZ I        1739 34.70         4.4 0.28            174           16.6 198 
 PAM  EZ EP       1739 21.48                             146   -0.2210 82.3  36 
 PAM  EN ES       1739 38.36                             146    0.2110 82.3  36 
 PAM  EZ I        1739 40.44         4.7 0.46            148           82.3  36 
 RUS  HZ EP   2   1739 23.04                             143    0.56 5 93.3 176 
 ZAR  HZ EP   2   1739 31.46                             119   -1.15 4  208 294 
 ZAR  HN ES       1739 57.79                             119    0.22 8  208 294 
 ZAR  HZ I        1740  0.06         3.6 0.26            120            208 294 
                                                                                
