 2012 1117 1919 12.3 L   6.852 -73.394130.3  RSN  5 0.5 1.8LRSN                1
 GAP=147        1.34       6.9    11.1 10.1 -0.7036E+01 -0.2034E+02  0.1427E+02E
 Epicentro: SAN VICENTE DE CHUCURI - SANTANDER                                 3
 ACTION:UPD 12-12-05 15:34 OP:}ep  STATUS:               ID:20121117191912 L   I
 2012-11-17-1918-16M.COL___220                                                 6
 STAT SP IPHASW D HRMM SECON CODA AMPLIT PERI AZIMU VELO AIN AR TRES W  DIS CAZ7
 GIR2 SZ EP       1919 31.02                             165    0.7710 33.5  41 
 GIR2 SZ ES       1919 44.32                             165    0.1010 33.5  41 
 BAR2 SZ EP       1919 30.97                             163    0.4610 37.0 141 
 BAR2 SZ ES       1919 45.43                             163    0.7510 37.0 141 
 BAR2 SZ I        1919 47.85        20.3 0.24                          37.0 141 
 BRR  HN ES       1919 44.04                             160   -0.5710 45.1 309 
 BRR  HN I        1919 49.87        28.8 0.46                          45.1 309 
 PAM  SZ EP       1919 33.91                             142   -0.1810 93.8  55 
 PAM  SZ I        1919 34.11        13.3 0.20                          93.8  55 
 PAM  SN ES       1919 50.57                             142   -0.4710 93.8  55 
 RUS  HZ EP       1919 35.05                             137   -0.4310  111 162 
 RUS  HN ES       1919 53.08                             137   -0.4510  111 162 
 RUS  HN I        1919 54.88         5.7 0.34                           111 162 
                                                                                
