 2013  917 1848 40.0 L   6.805 -73.189134.0  RSN  5 0.5 1.8LRSN                1
 GAP=179        1.07       6.0     7.6  9.9  0.1554E+02  0.2413E+02 -0.8204E+01E
 Epicentro: ZAPATOCA - SANTANDER                                               3
 ACTION:UPD 13-10-22 09:23 OP:ep   STATUS:               ID:20130917184840 L   I
 OLDACT:REG 13-09-17 14:49 OP:jn   STATUS:               ID:20130917183959     3
 2013-09-17-1839-59M.COL___269                                                 6
 STAT SP IPHASW D HRMM SECON CODA AMPLIT PERI AZIMU VELO AIN AR TRES W  DIS CAZ7
 BAR2 SZ EP       1848 58.34                             170    0.0910 23.5 178 
 BAR2 SZ ES       1849 12.63                             170    0.1710 23.5 178 
 BAR2 SZ I        1849 14.78        20.1 0.14            168           23.5 178 
 RUS  HZ EP       1849  2.40                             141   -0.3210  102 173 
 RUS  HN ES       1849 20.61                             141    0.2010  102 173 
 RUS  HZ I        1849 22.52         5.0 0.52            143            102 173 
 PTB  HZ EP       1849  4.97                             130   -0.66 9  143 258 
 PTB  HN ES   1   1849 25.59                             130   -0.01 7  143 258 
 PTB  HZ I        1849 29.11        11.3 0.14            131            143 258 
 OCA  HN ES   1   1849 28.37                             127   -0.29 7  159 355 
 ZAR  HZ EP   1   1849 12.68                             121    1.44 6  199 293 
 ZAR  HN ES   1   1849 35.56                             121   -0.03 6  199 293 
 ZAR  HZ I        1849 38.80         8.2 0.30            122            199 293 
                                                                                
