 2011 1117 1253 27.7 L   6.768 -73.150142.5  RSN  5 0.4 1.7LRSN                1
 GAP=137        0.88       6.0     6.3  8.4  0.8921E+01  0.1285E+02 -0.2369E+01E
 Epicentro: LOS SANTOS - SANTANDER                                             3
 ACTION:UPD 12-07-13 16:10 OP:ep   STATUS:               ID:20111117125327 L   I
 2011-11-17-1251-44S.COL___179                                                 6
 STAT SP IPHASW D HRMM SECON CODA AMPLIT PERI AZIMU VELO AIN AR TRES W  DIS CAZ7
 BAR2 SZ EP   1   1253 46.44                             172   -0.47 7 19.7 190 
 BAR2 SZ ES   1   1254  1.38                             172   -0.48 7 19.7 190 
 BAR2 SZ I        1254  2.82        20.8 0.26                          19.7 190 
 BRR  HZ EP   1   1253 49.08                             151    0.46 7 72.6 301 
 BRR  HZ I        1253 49.41        21.0 0.10                          72.6 301 
 BRR  HN ES   1   1254  5.74                             151    0.84 7 72.6 301 
 PAM  SZ EP   1   1253 49.97                             149    0.17 7 80.5  38 
 PAM  SN ES   1   1254  6.72                             149   -0.28 7 80.5  38 
 PAM  SZ I        1254  9.46         5.9 0.60                          80.5  38 
 RUS  HZ EP   1   1253 51.15                             144    0.24 7 97.0 176 
 RUS  HN ES   1   1254  9.09                             144    0.10 7 97.0 176 
 RUS  HZ I        1254 10.54         4.1 0.27                          97.0 176 
 ZAR  HZ EP   1   1253 59.88                             121   -0.19 6  205 293 
 ZAR  HN ES   1   1254 24.66                             121   -0.63 6  205 293 
                                                                                
