 2010  917 1931 23.6 L   6.775 -73.076144.0  RSN  6 0.3 2.0LRSN                1
 GAP=167        0.62       4.6     9.0  8.6 -0.2287E+01 -0.1810E+02 -0.8965E+01E
 Epicentro: LOS SANTOS - SANTANDER                                             3
 ACTION:UP  11-02-18 11:03 OP:tino STATUS:               ID:20100917193123 L   I
 2010-09-17-1928-28S.COL___121                                                 6
 STAT SP IPHASW D HRMM SECON CODA AMPLIT PERI AZIMU VELO SNR AR TRES W  DIS CAZ7
 BAR2 SZ EP   1   1931 43.06                             170     0.0 7   23 210 
 BAR2 SZ ES   2   1931 57.80                             170    -0.4 5   23 210 
 BAR2 SZ I        1931 59.51        28.4 0.31                            23 210 
 GIR2 SZ EP   2   1931 44.13                             165     0.9 5   36 339 
 BRR  HZ IP     C 1931 44.94                             150    -0.110   79 298 
 BRR  HZ I        1931 45.30        35.8 0.07                            79 298 
 BRR  HE ES   2   1932  2.04                             150     0.2 5   79 298 
 RUS  HZ EP   1   1931 47.16                             144     0.2 7   98 180 
 RUS  HN ES   2   1932  5.10                             144    -0.1 5   98 180 
 RUS  HZ I        1932  6.57         7.9 0.23                            98 180 
 GUE  SZ EP   1   1931 48.16                             139    -0.1 7  118   8 
 GRA  SZ EP   1   1931 48.57                             136    -0.2 7  126  14 
 GRA  SZ ES   2   1932  8.65                             136     0.3 5  126  14 
 GRA  SZ I        1932  9.70        10.7 0.36                           126  14 
                                                                                
