 2015 1117 1242 58.1 L   6.798 -73.083147.2  RSN 14 0.4 2.4LRSN                1
 GAP=145        0.77       2.7     4.0  4.8  0.9788E-01  0.6563E+01  0.8607E+00E
 Epicentro: LOS SANTOS - SANTANDER                                             3
 ACTION:UPD 15-12-28 16:11 OP:cam  STATUS:               ID:20151117124258 L   I
 OLDACT:REG 15-11-17 20:08 OP:dnl  STATUS:               ID:20151117123748     3
 2015-11-17-1237-48M.COL___310                                                 6
 STAT SP IPHASW D HRMM SECON CODA AMPLIT PERI AZIMU VELO AIN AR TRES W  DIS CAZ7
 BAR2 EZ IP     D 1243 18.30                             170    0.3210 25.3 206 
 BAR2 EZ ES       1243 33.26                             170   -0.2010 25.3 206 
 BAR2 EZ I        1243 34.38        46.1 0.44            165           25.3 206 
 PAM  EN ES   2   1243 37.29                             152   -0.24 5 73.3  35 
 BRR  HZ EP     D 1243 20.17                             151    0.3610 77.5 296 
 BRR  HE ES       1243 37.16                             151    0.4610 77.5 296 
 BRR  HZ I        1243 37.69        22.1 0.11            142           77.5 296 
 RUS  HZ EP       1243 22.31                             144    0.3110  100 180 
 RUS  HN ES   2   1243 39.55                             144   -1.06 5  100 180 
 RUS  HZ I        1243 41.69        11.9 0.18            138            100 180 
 SPBC HZ EP       1243 27.11                             129   -0.05 9  167 221 
 SPBC HN ES       1243 49.92                             129    0.13 9  167 221 
 SPBC HZ I        1243 52.83        32.0 0.18            121            167 221 
 ZAR  HZ EP       1243 31.21                             122   -0.15 8  211 291 
 ZAR  HE ES       1243 57.48                             122    0.22 8  211 291 
 ZAR  HZ I        1244  2.68        28.3 0.32            115            211 291 
 NOR  HZ EP       1243 34.37                             118   -0.19 8  240 235 
 NOR  HE ES       1244  2.35                             118   -0.60 8  240 235 
 NOR  HZ I        1244  7.83        16.1 0.14            112            240 235 
 SML  HZ EP   2   1243 35.43                             117    0.24 4  247 334 
 SML  HN ES       1244  3.54                             117   -0.55 8  247 334 
 SML  HZ I        1244  7.92        19.3 0.10            111            247 334 
 HEL  HZ EP   2   1243 39.59                             115    0.42 4  279 256 
 HEL  HN ES       1244 10.87                             115   -0.30 7  279 256 
 HEL  HZ I        1244 17.50        10.7 0.43            108            279 256 
 URE  HZ EP       1243 39.47                             113   -0.54 7  290 291 
 URE  HE ES   4   1244 10.70                             113   -1.97 0  290 291 
 URE  HZ I        1244 15.09        12.1 0.12            107            290 291 
 GUY2CHZ EP   4   1243 40.94                             112   -1.51 0  307 236 
 GUY2CHN ES   2   1244 17.43                             112    0.42 4  307 236 
 GUY2CHZ I        1244 24.78        10.4 0.38                           307 236 
 ELA  HN ES   4   1244 24.28                             110    1.58 0  334 230 
 DBB  SZ EP   2   1243 46.97                             109    0.49 3  346 274 
 DBB  SZ I        1244 27.99        32.3 0.22            104            346 274 
 ANIL HE ES   2   1244 28.46                             108    0.58 3  362 225 
 ANIL HZ I        1244 35.16        14.4 0.44            103            362 225 
 PRA  HZ EP   4   1243 53.35                             107    1.25 0  395 210 
 PRA  HN ES       1244 34.24                             107    0.05 6  395 210 
 PRA  HZ I        1244 41.09         8.4 0.26            102            395 210 
                                                                                
