 2016  917 1430 43.7 L   6.796 -73.176138.6  RSN  9 0.4 2.0LRSN                1
 GAP=133        0.48       2.5     2.3  4.1  0.1229E+00  0.2570E+01 -0.1679E+01E
 Epicentro: LOS SANTOS - SANTANDER                                             3
 ACTION:UPD 17-08-17 21:13 OP:lp   STATUS:               ID:20160917143043 L   I
 OLDACT:REG 16-09-17 21:13 OP:dnl  STATUS:               ID:20160917142740     3
 2016-09-17-1428-00M.COL___356                                                 6
 STAT SP IPHASW D HRMM SECON CODA AMPLIT PERI AZIMU VELO AIN AR TRES W  DIS CAZ7
 BAR2 EZ IP     C 1431  2.49                             170    0.0210 22.6 182 
 BAR2 EZ ES       1431 17.04                             170   -0.0610 22.6 182 
 BAR2 EZ I        1431 20.32        29.3 0.30            168           22.6 182 
 PAM  EZ EP       1431  5.33                             149   -0.0010 79.9  41 
 PAM  EN ES   2   1431 22.28                             149    0.09 5 79.9  41 
 PAM  EZ I        1431 24.67        23.3 0.56            155           79.9  41 
 RUS  HZ EP   2   1431  6.86                             142    0.10 5  100 174 
 RUS  HE ES       1431 24.79                             142    0.0510  100 174 
 RUS  HZ I        1431 26.42        18.8 0.30            144            100 174 
 PTB  HZ EP   2   1431  9.09                             131   -0.71 5  144 259 
 PTB  HN ES       1431 30.14                             131   -0.01 9  144 259 
 PTB  HZ I        1431 35.31         8.4 0.24            131            144 259 
 SPBC HZ EP   3   1431 11.47                             128    0.03 2  161 218 
 SPBC HN ES   2   1431 33.14                             128    0.07 5  161 218 
 SPBC HZ I        1431 36.73        32.0 0.24            129            161 218 
 ZAR  HZ EP   2   1431 14.87                             121   -0.53 4  201 293 
 ZAR  HN ES       1431 40.32                             121    0.21 9  201 293 
 ZAR  HZ I        1431 46.23         9.4 0.26            123            201 293 
 NOR  HZ EP   3   1431 19.98                             117    1.26 2  232 234 
 NOR  HN ES   3   1431 45.04                             117   -0.98 2  232 234 
 NOR  HZ I        1431 52.14         8.0 0.16            119            232 234 
 CHI  HZ EP   2   1431 20.26                             116   -0.63 4  247 194 
 CHI  HE ES   2   1431 50.13                             116    0.25 4  247 194 
 CHI  HZ I        1431 55.76         4.3 0.52            118            247 194 
 GUY2CHZ EP   2   1431 27.52                             111    0.85 4  298 234 
 GUY2CHN ES   2   1432  0.01                             111   -0.16 4  298 234 
 GUY2CHZ I        1432 12.74         4.9 0.42                           298 234 
                                                                                
