 2015  217 1129 31.8 L   7.445 -73.193128.5  RSN  6 0.5 2.0LRSN                1
 GAP=111        1.19       4.5     5.5  8.7  0.3720E+01  0.1438E+02 -0.7052E+01E
 Epicentro: EL PLAYON - SANTANDER                                              3
 ACTION:UPD 15-04-30 21:27 OP:nd   STATUS:               ID:20150217112931 L   I
 OLDACT:DUP 15-02-17 20:49 OP:fm\  STATUS:               ID:20150217112745d    3
 2015-02-17-1127-44M.COL___296                                                 6
 STAT SP IPHASW D HRMM SECON CODA AMPLIT PERI AZIMU VELO AIN AR TRES W  DIS CAZ7
 PAM  SZ EP       1129 51.40                             155    0.4410 55.7 102 
 PAM  SN ES       1130  6.23                             155    0.3510 55.7 102 
 PAM  SZ I        1130  8.79        29.7 0.82            158           55.7 102 
 BRR  HZ EP       1129 51.14                             150    0.1910 68.4 237 
 BRR  HN ES       1130  5.86                             150   -0.0210 68.4 237 
 BRR  HZ I        1130  7.02        15.7 0.10            150           68.4 237 
 OCA  HZ EP       1129 52.42                             143   -0.1310 88.9 351 
 OCA  HE ES       1130  9.07                             143    0.3410 88.9 351 
 BAR2 EZ EP       1129 52.96                             142   -0.1110 94.3 179 
 BAR2 EZ ES       1130  8.81                             142   -0.8410 94.3 179 
 BAR2 EZ I        1130 10.50        13.2 0.10            143           94.3 179 
 SML  HZ EP       1130  0.09                             122   -0.40 9  179 327 
 SML  HN ES       1130 21.96                             122   -0.89 9  179 327 
 SML  HZ I        1130 23.26        16.3 0.10            124            179 327 
 ZAR  HZ EP       1130  1.54                             121    0.48 9  184 272 
 ZAR  HN ES       1130 24.41                             121    0.54 9  184 272 
 ZAR  HZ I        1130 29.09        11.6 0.30            122            184 272 
                                                                                
