 2012 1117 1138  5.7 L   6.812 -73.165144.6  RSN  7 0.5 1.9LRSN 2.9WRSN        1
 SPEC AVERAGE  MO 13.4 ST  2.9 OM  3.3 f0 4.47 R0.3409 AL 2.64 WI 16.7 MW  2.9 3
 SPEC SD       MO  0.2 ST0.222 OM  1.5 f00.840 R0.0641 AL      WI      MW  0.1 3
 GAP=134        1.25       5.1     6.4  8.1 -0.3332E+01  0.6396E+01  0.2727E+01E
 Epicentro: LOS SANTOS - SANTANDER                                             3
 SPEC OCA HH N MO 13.6 ST  2.6 OM  1.9 f0 3.63 R0.4050 AL 2.13 WI 18.7 MW  3.0 3
 SPEC OCA HH N T113854 K 0.000 GD  214 VS 4.20 DE 3.00 Q0230.0 QA 0.60 VS 4.20 3
 SPEC BRR HH N MO 13.2 ST  3.1 OM  1.6 f0 5.31 R0.2768 AL 3.15 WI 14.7 MW  2.7 3
 SPEC BRR HH N T113843 K 0.000 GD  160 VS 4.20 DE 3.00 Q0230.0 QA 0.60 VS 4.20 3
 ACTION:UPD 12-12-05 15:34 OP:}ep  STATUS:               ID:20121117113805 L   I
 2012-11-17-1130-00M.COL___233                                                 6
 STAT SP IPHASW D HRMM SECON CODA AMPLIT PERI AZIMU VELO AIN AR TRES W  DIS CAZ7
 BAR2 SZ EP       1138 25.16                             170   -0.0310 24.4 185 
 BAR2 SZ I        1138 25.27        22.6 0.40                          24.4 185 
 BAR2 SZ ES       1138 39.82                             170   -0.5910 24.4 185 
 GIR2 SZ EP       1138 25.33                             168    0.1610 29.7 354 
 GIR2 SZ ES       1138 40.26                             168   -0.1210 29.7 354 
 BRR  HZ EP       1138 27.24                             153    0.6810 68.7 298 
 BRR  HN ES       1138 43.77                             153    0.9210 68.7 298 
 BRR  HN I        1138 48.36        18.6 0.24                          68.7 298 
 PAM  SZ EP       1138 28.14                             150    0.3510 77.7  41 
 PAM  SN ES       1138 45.16                             150    0.1210 77.7  41 
 PAM  SN I        1138 46.04        11.6 0.22                          77.7  41 
 RUS  HZ EP       1138 29.12                             143   -0.3010  102 175 
 RUS  HN ES       1138 48.10                             143    0.1510  102 175 
 RUS  HN I        1138 49.15        12.1 0.28                           102 175 
 PTB  HZ EP       1138 32.10                             132   -0.28 9  146 258 
 PTB  HN ES       1138 52.83                             132   -0.39 9  146 258 
 PTB  HN I        1138 55.88        11.1 0.22                           146 258 
 OCA  HN ES       1138 54.76                             130   -0.89 9  159 354 
                                                                                
