 2013  817 1301 29.6 L   6.781 -73.196140.5  RSN  4 0.1 1.2LRSN                1
 GAP=142        0.32       2.9     2.4  3.3  0.3745E+00  0.1807E+01 -0.3537E+01E
 Epicentro: ZAPATOCA - SANTANDER                                               3
 ACTION:UPD 14-01-14 09:04 OP:ep   STATUS:               ID:20130817130129 L   I
 OLDACT:REG 13-08-17 14:51 OP:jn   STATUS:               ID:20130817125959     3
 2013-08-17-1259-59M.COL___269                                                 6
 STAT SP IPHASW D HRMM SECON CODA AMPLIT PERI AZIMU VELO AIN AR TRES W  DIS CAZ7
 BAR2 SZ EP   1   13 1 48.70                             171    0.19 7 20.9 176 
 BAR2 SZ ES       13 2  3.26                             171   -0.0310 20.9 176 
 BAR2 SZ I        13 2  6.28         4.1 0.28            172           20.9 176 
 PAM  SZ EP   1   13 1 51.50                             148   -0.05 7 82.6  42 
 RUS  HZ EP   1   13 1 52.58                             143   -0.10 7 99.1 173 
 RUS  HN ES       13 2 10.74                             143    0.0210 99.1 173 
 RUS  HZ I        13 2 12.12         2.2 0.56            147           99.1 173 
 PTB  HZ EP       13 1 55.56                             132   -0.00 9  142 259 
 PTB  HN ES   1   13 2 15.83                             132   -0.01 7  142 259 
 PTB  HZ I        13 2 18.76         2.3 0.40            134            142 259 
                                                                                
