 2011 1217 1111 23.6 L   6.800 -73.057152.9  RSN  7 0.3 1.8LRSN                1
 GAP=148        0.49       3.3     5.6  5.2 -0.4310E+01  0.7247E+01  0.1296E+01E
 Epicentro: LOS SANTOS - SANTANDER                                             3
 ACTION:UPD 12-07-13 16:16 OP:ep   STATUS:               ID:20111217111123 L   I
 2011-12-17-1110-00M.COL___185                                                 6
 STAT SP IPHASW D HRMM SECON CODA AMPLIT PERI AZIMU VELO AIN AR TRES W  DIS CAZ7
 BAR2 SZ EP       1111 43.85                             170   -0.3110 26.9 211 
 BAR2 SZ ES   2   1111 59.78                             170   -0.41 5 26.9 211 
 BAR2 SZ I        1112  2.13        12.6 0.59                          26.9 211 
 PAM  SZ EP   1   1111 46.69                             154    0.44 7 71.5  34 
 PAM  SN ES   2   1112  4.02                             154    0.10 5 71.5  34 
 BRR  HZ EP       1111 45.90                             151   -0.1210 79.9 295 
 BRR  HN ES   2   1112  3.94                             151    0.44 5 79.9 295 
 BRR  HZ I        1112  5.46        14.7 0.18                          79.9 295 
 RUS  HZ EP   1   1111 48.18                             145    0.13 7  100 182 
 RUS  HE ES   2   1112  7.04                             145   -0.07 5  100 182 
 RUS  HZ I        1112  7.79         6.2 0.32                           100 182 
 CTAU SZ EP       1111 57.75                             123    0.19 8  208 212 
 RREF HZ EP   2   1112 10.84                             111   -0.07 3  329 230 
 RREF HN ES   2   1112 47.84                             111    0.03 3  329 230 
 RREF HZ I        1112 54.93         3.4 0.30                           329 230 
 COD  HZ EP   2   1112 12.17                             110   -0.21 3  349 353 
 COD  HE ES   2   1112 50.22                             110   -0.21 3  349 353 
                                                                                
