 2015  317 1348 49.7 L   6.828 -73.157141.4  RSN  9 0.5 1.9LRSN                1
 GAP=134        1.15       4.1     4.9  8.2 -0.2833E+01  0.1659E+02 -0.3248E+01E
 Epicentro: LOS SANTOS - SANTANDER                                             3
 ACTION:UPD 15-04-30 16:26 OP:nd   STATUS:               ID:20150317134849 L   I
 OLDACT:UP  15-03-17 22:23 OP:cam  STATUS:               ID:20150317133749     3
 OLDACT:REG 15-03-17 21:18 OP:cam  STATUS:               ID:20150317133749     3
 2015-03-17-1337-49M.COL___266                                                 6
 STAT SP IPHASW D HRMM SECON CODA AMPLIT PERI AZIMU VELO AIN AR TRES W  DIS CAZ7
 BAR2 EZ EP     D 1349  9.10                             169    0.2310 26.2 186 
 BAR2 EZ ES       1349 23.49                             169   -0.3310 26.2 186 
 BAR2 EZ I        1349 25.52        16.3 0.26            168           26.2 186 
 PAM  SZ EP       1349 11.82                             150    0.4610 75.9  42 
 PAM  SN ES       1349 28.56                             150    0.3010 75.9  42 
 PAM  SZ I        1349 30.31        11.7 0.16            155           75.9  42 
 RUS  HZ IP     C 1349 13.22                             142   -0.0410  104 175 
 RUS  HE ES       1349 31.38                             142   -0.2510  104 175 
 RUS  HZ I        1349 33.69         5.8 0.34            144            104 175 
 PTB  HZ EP       1349 15.37                             131   -0.89 9  147 258 
 PTB  HN ES       1349 36.78                             131   -0.19 9  147 258 
 PTB  HZ I        1349 39.47        11.7 0.46            131            147 258 
 SPBC HZ EP       1349 18.00                             128   -0.02 9  165 218 
 SPBC HN ES       1349 40.32                             128    0.21 9  165 218 
 SPBC HZ I        1349 44.73        10.5 0.18            129            165 218 
 ZAR  HZ EP   1   1349 21.60                             122   -0.03 6  202 291 
 ZAR  HE ES       1349 47.51                             122    0.98 9  202 291 
 ZAR  HZ I        1349 52.69         9.5 0.30            123            202 291 
 NOR  HZ EP   1   1349 25.79                             117    0.52 6  235 234 
 NOR  HE ES       1349 53.20                             117    0.20 8  235 234 
 NOR  HZ I        1350  0.68         5.2 0.18            119            235 234 
 SML  HE ES       1349 52.88                             117   -0.94 8  240 335 
 GUY2CHZ EP   4   1349 34.94                             111    1.74 0  302 234 
 GUY2CHE ES   4   1350 10.16                             111    3.04 0  302 234 
 GUY2CHZ I        1350 18.16         3.8 0.58                           302 234 
                                                                                
