 2014 1117 1412  1.5 L   7.438 -73.421114.4  RSN 18 0.5 2.6LRSN                1
 GAP= 55        0.99       2.5     2.6  4.6 -0.4384E+00  0.4068E+01  0.7123E+00E
 Epicentro: SABANA DE TORRES - SANTANDER                                       3
 ACTION:UPD 14-12-19 15:43 OP:nd   STATUS:               ID:20141117141201 L   I
 OLDACT:REG 14-11-17 21:48 OP:fm   STATUS:               ID:20141117140749     3
 2014-11-17-1407-49M.COL___298                                                 6
 STAT SP IPHASW D HRMM SECON CODA AMPLIT PERI AZIMU VELO AIN AR TRES W  DIS CAZ7
 BRR  HZ IP     C 1412 18.44                             155    0.4110 48.6 221 
 BRR  HN ES       1412 31.33                             155    0.4310 48.6 221 
 BRR  HZ I        1412 32.10       142.8 0.12            150           48.6 221 
 PAM  SZ EP       1412 21.20                             143    0.4610 80.4  98 
 PAM  SN ES       1412 35.75                             143    0.0310 80.4  98 
 PAM  SZ I        1412 36.79       139.8 0.18            142           80.4  98 
 OCA  HZ EP       1412 21.10                             139    0.1410 89.3   7 
 OCA  HN ES       1412 36.14                             139    0.0310 89.3   7 
 OCA  HZ I        1412 37.64       156.1 0.14            141           89.3   7 
 BAR2 SZ EP       1412 21.99                             137    0.2810 97.1 164 
 BAR2 SZ ES       1412 37.04                             137   -0.4010 97.1 164 
 BAR2 SZ I        1412 38.39       154.5 0.28            133           97.1 164 
 PTB  HZ EP       1412 26.47                             123   -0.06 9  151 229 
 PTB  HN ES       1412 45.63                             123   -0.39 9  151 229 
 PTB  HZ I        1412 48.33        54.1 0.20            120            151 229 
 RUS  HZ EP       1412 28.93                             119   -0.66 9  175 168 
 RUS  HE ES       1412 50.73                             119   -0.75 9  175 168 
 RUS  HZ I        1412 58.30        19.0 0.38            116            175 168 
 SPBC HZ EP       1412 33.24                             114    0.31 8  210 200 
 SPBC HN ES       1412 58.16                             114    0.74 8  210 200 
 SPBC HZ I        1413  5.14        42.5 0.14            111            210 200 
 TAM  HZ EP       1412 32.87                             114   -0.15 8  211 122 
 TAM  HE ES       1412 56.96                             114   -0.62 8  211 122 
 TAM  HZ I        1413  3.81        40.1 0.52            112            211 122 
 NOR  HZ EP       1412 39.68                             108    0.90 8  262 218 
 NOR  HE ES       1413  7.29                             108   -0.54 8  262 218 
 NOR  HZ I        1413 16.89        31.7 0.16            106            262 218 
 HEL  HZ EP       1412 40.76                             108    0.56 8  271 240 
 HEL  HN ES       1413  9.91                             108   -0.44 8  271 240 
 HEL  HZ I        1413 21.09        15.6 0.42            106            271 240 
 MON  HZ EP       1412 41.42                             106   -0.37 7  288 301 
 MON  HN ES       1413 12.93                             106   -0.26 7  288 301 
 MON  HZ I        1413 15.18         9.7 0.46            105            288 301 
 DBB  SZ EP       1412 44.38                             105   -0.23 7  311 262 
 DBB  SZ ES   1   1413 17.25                             105   -0.97 5  311 262 
 SJC  HZ EP       1412 47.14                             103   -0.09 7  334 325 
 SJC  HN ES   4   1413 19.90                             103   -2.97 0  334 325 
 SJC  HZ I        1413 25.01         8.8 0.26            102            334 325 
 SDV  BZ EP       1412 48.84                             103   -0.07 6  346  62 
 SDV  BN ES   4   1413 21.93                             103   -3.93 0  346  62 
 SDV  BZ I        1413 26.37        17.4 0.40            102            346  62 
 TOL  SZ EP   4   1412 55.32                             101    2.36 0  379 214 
 TOL  SN ES   4   1413 35.68                             101    2.61 0  379 214 
 ANIL HZ EP       1412 54.49                             101   -0.07 6  393 214 
 ANIL HN ES   4   1413 39.17                             101    3.25 0  393 214 
 ANIL HZ I        1413 48.65         4.0 0.28             99            393 214 
 PAL  HZ EP       1412 58.04                              99    0.16 5  423 229 
 PAL  HN ES       1413 41.66                              99   -0.17 5  423 229 
 PAL  HZ I        1413 50.58         6.0 0.26             98            423 229 
 ORTC HZ EP       1413  0.25                              99    0.40 5  439 207 
 ORTC HN ES       1413 45.92                              99    0.58 5  439 207 
 ORTC HZ I        1413 56.70        13.1 0.74                           439 207 
 PRA  HN ES       1413 46.74                              99    0.71 5  443 202 
 PRA  HZ I        1413 59.14        11.8 0.34                           443 202 
                                                                                
