 2016  817 1604 30.5 L   6.075 -73.682115.2  RSN 13 0.5 2.3LRSN                1
 GAP= 84        1.29       3.6     3.7  7.2 -0.3300E+00  0.1043E+02  0.3672E+01E
 Epicentro: CHIPATA - SANTANDER                                                3
 ACTION:UPD 16-10-29 15:36 OP:rebc STATUS:               ID:20160817160430 L   I
 OLDACT:REG 16-08-17 20:50 OP:dnl  STATUS:               ID:20160817155742     3
 2016-08-17-1558-00M.COL___371                                                 6
 STAT SP IPHASW D HRMM SECON CODA AMPLIT PERI AZIMU VELO AIN AR TRES W  DIS CAZ7
 SPBC HZ EP       16 4 48.06                             149   -0.0410 63.6 223 
 SPBC HE ES       16 5  1.87                             149    0.0510 63.6 223 
 SPBC HZ I        16 5  8.25        90.2 0.14                          63.6 223 
 RUS  HZ EP       16 4 49.31                             147    0.2710 69.3 107 
 RUS  HN ES       16 5  3.28                             147   -0.2010 69.3 107 
 RUS  HZ I        16 5  5.19        25.5 0.28                          69.3 107 
 BAR2 EZ EP       16 4 49.99                             143    0.5910 79.6  44 
 BAR2 EZ ES       16 5  4.51                             143    0.3910 79.6  44 
 BAR2 EZ I        16 5  6.18       101.4 0.24                          79.6  44 
 PTB  HZ EP       16 4 49.75                             136   -0.9510 99.9 301 
 PTB  HE ES       16 5  6.67                             136    0.2310 99.9 301 
 PTB  HZ I        16 5  7.92        48.3 0.10                          99.9 301 
 NOR  HZ EP       16 4 54.52                             125   -0.26 9  143 247 
 NOR  HN ES       16 5 13.78                             125    0.09 9  143 247 
 NOR  HZ I        16 5 16.17        37.6 0.26                           143 247 
 CHI  HZ EP       16 4 56.39                             122   -0.57 9  160 182 
 CHI  HE ES       16 5 16.83                             122   -0.75 9  160 182 
 CHI  HZ I        16 5 20.07        23.3 0.42                           160 182 
 ZAR  HZ EP       16 5  0.95                             115   -0.19 9  204 320 
 ZAR  HE ES       16 5 24.96                             115   -0.06 9  204 320 
 ZAR  HZ I        16 5 29.76        32.3 0.28                           204 320 
 HEL  HZ EP       16 5  2.15                             115    0.42 9  205 274 
 HEL  HN ES       16 5 25.02                             115   -1.05 9  205 274 
 HEL  HZ I        16 5 29.91        17.8 0.44                           205 274 
 GUY2CHZ EP       16 5  2.54                             114    0.23 8  209 243 
 GUY2CHN ES       16 5 27.27                             114    0.17 8  209 243 
 GUY2CHZ I        16 5 31.42        13.8 0.28                           209 243 
 ANIL HE ES       16 5 38.57                             109    1.76 8  259 228 
 CBOC HZ I        16 5 40.09         5.4 0.42                           259 265 
 ANIL HZ EP       16 5  7.96                             109    0.20 8  259 228 
 CBOC HN ES       16 5 36.48                             109   -0.08 8  259 265 
 ANIL HZ I        16 5 42.13        36.9 0.30                           259 228 
 CBOC HZ EP       16 5  7.95                             109    0.33 8  259 265 
 URE  HZ EP   4   16 5  7.99                             107   -1.41 0  276 312 
 URE  HN ES   4   16 5 36.46                             107   -3.26 0  276 312 
 URE  HZ I        16 5 39.75        15.8 0.18                           276 312 
 PRA  HZ EP       16 5 11.29                             106   -0.15 7  293 207 
 PRA  HN ES       16 5 43.41                             106    0.06 7  293 207 
 PRA  HZ I        16 5 51.05        13.9 0.24                           293 207 
                                                                                
