 2011  517 1026 20.9 L   6.763 -73.065140.0  RSN  8 0.4 1.7LRSN                1
 GAP=149        0.95       6.1     8.8  9.4 -0.2345E+02 -0.1958E+02  0.2251E+02E
 Epicentro: LOS SANTOS - SANTANDER                                             3
 ACTION:UP  11-06-29 08:54 OP:tino STATUS:               ID:20110517102620 L   I
 2011-05-17-1024-33S.COL___141                                                 6
 STAT SP IPHASW D HRMM SECON CODA AMPLIT PERI AZIMU VELO SNR AR TRES W  DIS CAZ7
 BAR2 SZ EP       1026 39.75                             170    -0.110   23 215 
 BAR2 SZ I        1026 56.55        16.7 0.35                            23 215 
 BTL  SZ EP       1026 40.23                             168     0.310   28 307 
 BTL  SZ ES   3   1026 54.41                             168    -0.4 2   28 307 
 GIR2 SZ EP       1026 39.82                             164    -0.210   38 338 
 GIR2 SZ ES   2   1026 55.11                             164     0.1 5   38 338 
 PAM  SZ EP       1026 42.72                             151     0.410   75  32 
 PAM  SN ES   1   1026 59.65                             151     0.5 7   75  32 
 BRR  HZ IP     C 1026 41.69                             149    -0.310   81 298 
 BRR  HZ I        1026 41.95        17.4 0.18                            81 298 
 BRR  HN ES   1   1026 58.98                             149     0.5 7   81 298 
 RUS  HZ EP       1026 43.70                             144    -0.110   96 181 
 RUS  HZ I        1026 44.28         2.5 0.24                            96 181 
 RUS  HN ES   3   1027  0.51                             144    -1.1 2   96 181 
 BRI  SZ EP       1026 44.40                             140     0.110  109  16 
 BRI  SZ ES   1   1027  1.57                             140    -1.0 7  109  16 
 GRA  SZ IP     C 1026 45.63                             136    -0.110  127  13 
 GRA  SZ ES   1   1027  5.34                             136     0.2 7  127  13 
 GRA  SZ I        1027  6.88         7.1 0.37                           127  13 
 SJC  HZ EP   4   1027 14.32                             105    -2.9 0  418 326 
                                                                                
