 2017  717 1121 26.1 L   6.589 -73.321 25.4  RSN  7 0.5 1.8LRSN                1
 GAP= 77        1.38       3.0     3.7  4.6  0.9615E+00  0.8850E+01 -0.9864E-01E
 Epicentro: HATO - SANTANDER                                                   3
 ACTION:UPD 17-08-30 15:34 OP:rebc STATUS:               ID:20170717112126 L   I
 OLDACT:REG 17-07-17 20:51 OP:lv   STATUS:               ID:20170717111739     3
 2017-07-17-1118-00M.COL___374                                                 6
 STAT SP IPHASW D HRMM SECON CODA AMPLIT PERI AZIMU VELO AIN AR TRES W  DIS CAZ7
 BAR2 EZ EP       1121 31.39                             147    0.2410 15.3  89 
 BAR2 EZ ES       1121 35.66                             147    0.5310 15.3  89 
 BRR  HZ EP       1121 37.52                              93   -0.4810 71.8 323 
 BRR  HN ES       1121 46.79                              93   -0.5310 71.8 323 
 BRR  HZ I        1121 47.44        57.0 0.11             91           71.8 323 
 RUS  HZ EP       1121 39.70                              92   -0.2110 81.4 161 
 RUS  HN ES       1121 49.73                              92   -0.9810 81.4 161 
 RUS  HZ I        1121 51.16        14.9 0.17             90           81.4 161 
 PAM  EZ EP       1121 43.56                              61    0.0310  108  40 
 PAM  EN ES       1121 57.13                              61   -0.0310  108  40 
 PAM  EZ I        1121 57.40        26.1 0.40             61            108  40 
 PTB  HZ EP       1121 44.99                              61   -0.2310  126 268 
 PTB  HN ES       1121 59.67                              61   -0.5010  126 268 
 PTB  HZ I        1122  0.83                              61            126 268 
 SPBC HZ EP       1121 46.76                              61    0.5610  133 219 
 SPBC HN ES       1122  2.70                              61    0.7810  133 219 
 ZAR  HZ EP       1121 55.05                              61    0.93 9  197 301 
 ZAR  HN ES       1122 16.28                              61    0.26 9  197 301 
                                                                                
