 2016 1217 1858 26.1 L   6.823 -73.112144.2  RSN  7 0.4 1.7LRSN                1
 GAP=247        0.85       5.1     6.2  5.6  0.1613E+02  0.6764E+01  0.5762E+00E
 Epicentro: LOS SANTOS - SANTANDER                                             3
 ACTION:UPD 17-01-11 20:16 OP:rebc STATUS:               ID:20161217185826 L   I
 OLDACT:UP  16-12-17 22:04 OP:edw  STATUS:               ID:20161217185745d    3
 OLDACT:DUP 16-12-17 21:55 OP:edw  STATUS:               ID:20161217185745d    3
 2016-12-17-1858-00M.COL___381                                                 6
 STAT SP IPHASW D HRMM SECON CODA AMPLIT PERI AZIMU VELO AIN AR TRES W  DIS CAZ7
 BAR2 EZ EP       1858 45.07                             169   -0.5710 26.7 197 
 BAR2 EZ ES       1859  0.88                             169    0.0210 26.7 197 
 BAR2 EZ I        1859  1.98        10.6 0.24            166           26.7 197 
 RUS  HZ EP       1858 50.16                             143    0.2710  103 178 
 RUS  HN ES       1859  8.60                             143    0.1710  103 178 
 RUS  HZ I        1859 10.10        12.0 0.32            141            103 178 
 PTB  HZ EP   9   1858 52.36                             131   -0.98 0  152 258 
 PTB  HN ES       1859 13.24                             133   -0.35 9  152 258 
 PTB  HZ I        1859 16.23         5.7 0.16            130            152 258 
 ZAR  HZ EP       1858 59.19                             122    0.46 8  207 291 
 ZAR  HE ES       1859 24.04                             122   -0.11 8  207 291 
 ZAR  HZ I        1859 26.26         4.0 0.11            121            207 291 
 NOR  HZ EP   2   1859  0.99                             118   -1.26 4  239 234 
 NOR  HN ES   4   1859 31.16                             118    0.74 0  239 234 
 CHI  HZ EP       1859  4.00                             116   -0.11 8  252 196 
 CHI  HN ES       1859 33.59                             116   -0.15 8  252 196 
 CHI  HZ I        1859 37.71         2.1 0.29            116            252 196 
 GUY2CHZ EP       1859 10.62                             112    0.45 7  306 235 
 GUY2CHE ES   4   1859 39.94                             112   -4.58 0  306 235 
 GUY2CHZ I        1859 53.75         3.0 0.62                           306 235 
                                                                                
