 2012 1117 1811 40.5 L   6.757 -73.091143.1  RSN  5 0.2 1.6LRSN                1
 GAP=146        0.54       2.7     4.3  3.9 -0.1504E+00 -0.1442E+01  0.1062E+01E
 Epicentro: LOS SANTOS - SANTANDER                                             3
 ACTION:UPD 12-12-05 15:34 OP:}ep  STATUS:               ID:20121117181140 L   I
 2012-11-17-1810-00M.COL___234                                                 6
 STAT SP IPHASW D HRMM SECON CODA AMPLIT PERI AZIMU VELO AIN AR TRES W  DIS CAZ7
 BAR2 SZ EP       1811 59.63                             171   -0.1210 20.9 209 
 BAR2 SZ ES       1812 14.82                             171    0.0410 20.9 209 
 BAR2 SZ I        1812 16.26         9.8 0.26                          20.9 209 
 GIR2 SZ EP       1811 59.86                             165   -0.1710 37.3 342 
 GIR2 SZ ES       1812 14.92                             165   -0.3410 37.3 342 
 PAM  SZ EP       1812  2.73                             150    0.2910 77.6  34 
 PAM  SN ES       1812 19.61                             150    0.0610 77.6  34 
 BRR  HZ EP       1812  1.84                             150    0.0410 78.7 299 
 BRR  HN ES       1812 18.63                             150    0.2110 78.7 299 
 RUS  HZ EP       1812  3.46                             145   -0.1710 95.6 179 
 RUS  HE ES       1812 21.84                             145    0.1710 95.6 179 
                                                                                
