 2013  717 1024 55.4 L   6.809 -73.194142.4  RSN  8 0.4 2.0LRSN                1
 GAP=177        0.80       3.9     4.8  6.0 -0.9452E+00  0.6301E+01 -0.2106E+01E
 Epicentro: ZAPATOCA - SANTANDER                                               3
 ACTION:UPD 13-08-12 10:38 OP:ep   STATUS:               ID:20130717102455 L   I
 OLDACT:REG 13-07-17 14:43 OP:mh   STATUS:               ID:20130717101959     3
 2013-07-17-1019-59M.COL___267                                                 6
 STAT SP IPHASW D HRMM SECON CODA AMPLIT PERI AZIMU VELO AIN AR TRES W  DIS CAZ7
 BAR2 SZ EP   1   1025 14.58                             170   -0.10 7 24.0 177 
 BAR2 SZ ES   1   1025 29.10                             170   -0.59 7 24.0 177 
 BAR2 SZ I        1025 31.27        11.1 0.16            169           24.0 177 
 GIR2 SZ EP       1025 14.69                             168    0.0210 29.8   0 
 GIR2 SZ ES   1   1025 30.13                             168    0.45 7 29.8   0 
 GIR2 SZ I        1025 31.09        17.8 0.10            166           29.8   0 
 BRR  HZ EP       1025 16.58                             154    0.6410 66.0 300 
 BRR  HN ES   1   1025 32.26                             154    0.33 7 66.0 300 
 BRR  HN I        1025 36.63        24.4 0.18            150           66.0 300 
 PTB  HZ EP   1   1025 21.44                             132   -0.23 7  143 258 
 PTB  HN ES       1025 41.75                             132   -0.38 9  143 258 
 PTB  HN I        1025 47.32         8.3 0.28            131            143 258 
 OCA  HN ES   1   1025 44.65                             129   -0.46 7  159 355 
 OCA  HN I        1025 47.11        18.4 0.28            131            159 355 
 ZAR  HZ EP   1   1025 27.42                             122    0.31 6  199 292 
 ZAR  HE ES       1025 52.00                             122    0.19 9  199 292 
 ZAR  HZ I        1025 58.83         4.2 0.54            122            199 292 
 SML  HZ EP   1   1025 31.00                             117   -0.54 6  241 336 
 SML  HN ES       1025 59.49                             117   -0.20 8  241 336 
 SML  HN I        1026  1.86        17.9 0.26            119            241 336 
 PRA  HZ EP   1   1025 48.63                             106   -0.01 4  390 209 
 PRA  HE ES   2   1026 30.31                             106    0.17 3  390 209 
 PRA  HE I        1026 33.79         3.6 0.20            108            390 209 
                                                                                
