 2013  317 1343 47.6 L   6.686 -73.217155.2  RSN  4 0.2 1.5LRSN                1
 GAP=220        0.47       5.6     5.2  6.2  0.1707E+02 -0.3637E+01  0.1975E+01E
 Epicentro: VILLANUEVA - SANTANDER                                             3
 ACTION:UPD 13-04-09 14:03 OP:ep   STATUS:               ID:20130317134347 L   I
 2013-03-17-1340-00M.COL___244                                                 6
 STAT SP IPHASW D HRMM SECON CODA AMPLIT PERI AZIMU VELO AIN AR TRES W  DIS CAZ7
 BRR  HZ EP   1   1344  9.63                             154   -0.21 7 71.8 310 
 BRR  HN ES   1   1344 27.29                             154    0.12 7 71.8 310 
 RUS  HZ EP       1344 11.83                             149    0.2710 89.0 170 
 RUS  HN ES   2   1344 29.78                             149   -0.44 5 89.0 170 
 RUS  HZ I        1344 31.11         2.5 0.20            151           89.0 170 
 PTB  HZ EP   1   1344 14.37                             136   -0.17 7  138 263 
 PTB  HN ES   1   1344 35.54                             136    0.00 7  138 263 
 PTB  HZ I        1344 37.72         6.3 0.34            134            138 263 
 ZAR  HZ EP   2   1344 20.24                             125   -0.26 4  202 296 
 ZAR  HE ES   2   1344 46.28                             125    0.13 4  202 296 
 ZAR  HZ I        1344 52.57         4.1 0.24            124            202 296 
                                                                                
