 2014 1017 1851 26.1 L   6.836 -73.147142.0  RSN  8 0.4 1.6LRSN                1
 GAP=135        0.94       3.9     5.1  7.6  0.2638E+01  0.1180E+02 -0.3129E+01E
 Epicentro: LOS SANTOS - SANTANDER                                             3
 ACTION:UPD 14-11-29 23:50 OP:nd   STATUS:               ID:20141017185126 L   I
 OLDACT:REG 14-10-17 21:12 OP:fm   STATUS:               ID:20141017184747     3
 2014-10-17-1847-47M.COL___266                                                 6
 STAT SP IPHASW D HRMM SECON CODA AMPLIT PERI AZIMU VELO AIN AR TRES W  DIS CAZ7
 BAR2 SZ EP   1   1851 46.19                             169    0.81 8 27.2 188 
 BAR2 SZ ES   1   1852  0.29                             169   -0.11 8 27.2 188 
 BAR2 SZ I        1852  2.12         6.9 0.30            170           27.2 188 
 BRR  HZ EP   1   1851 46.08                             152   -0.67 8 69.3 296 
 BRR  HN ES   1   1852  3.36                             152    0.52 8 69.3 296 
 BRR  HZ I        1852  6.35        12.6 0.56            153           69.3 296 
 PAM  SN ES   1   1852  4.38                             151   -0.26 8 74.5  42 
 PAM  SZ I        1852  8.05         6.7 0.54            154           74.5  42 
 RUS  HZ EP       1851 50.37                             142    0.5810  105 176 
 RUS  HE ES       1852  7.78                             142   -0.4710  105 176 
 RUS  HZ I        1852 12.14         3.0 0.34            145            105 176 
 PTB  HZ EP       1851 52.75                             131   -0.09 9  148 257 
 PTB  HN ES       1852 13.82                             131    0.14 9  148 257 
 PTB  HZ I        1852 16.53         5.3 0.12            133            148 257 
 ZAR  HN ES   1   1852 23.18                             122    0.04 6  202 291 
 ZAR  HZ I        1852 26.38         5.5 0.10            124            202 291 
 SML  HZ EP   1   1852  1.85                             117   -0.28 6  240 335 
 SML  HN ES       1852 30.11                             117   -0.12 8  240 335 
 SML  HZ I        1852 34.04         5.8 0.28            119            240 335 
 RREF HN ES   1   1852 47.84                             110   -0.62 5  324 229 
 RREF HZ I        1852 52.27         2.4 0.28            112            324 229 
                                                                                
