 2014  217 1712 56.9 L   6.804 -73.162144.6  RSN  6 0.3 1.6LRSN                1
 GAP=142        0.66       3.8     3.5  5.0 -0.4945E+01  0.4639E+01  0.1736E+01E
 Epicentro: LOS SANTOS - SANTANDER                                             3
 ACTION:UPD 14-03-10 08:11 OP:ep   STATUS:               ID:20140217171256 L   I
 OLDACT:REG 14-02-17 15:56 OP:carl STATUS:               ID:20140217171000     3
 2014-02-17-1710-00M.COL___212                                                 6
 STAT SP IPHASW D HRMM SECON CODA AMPLIT PERI AZIMU VELO AIN AR TRES W  DIS CAZ7
 BAR2 SZ ES       1713 31.72                             170    0.1510 23.5 185 
 BAR2 SZ I        1713 32.02        13.6 0.48            170           23.5 185 
 PAM  SZ EP       1713 19.33                             150    0.3110 78.2  41 
 PAM  SN ES       1713 36.09                             150   -0.2010 78.2  41 
 PAM  SZ I        1713 37.77         3.4 0.20            152           78.2  41 
 RUS  HZ EP       1713 20.49                             143   -0.0610  101 175 
 RUS  HN ES       1713 38.87                             143   -0.1510  101 175 
 RUS  HZ I        1713 39.71         4.2 0.28            145            101 175 
 PTB  HZ EP       1713 23.10                             132   -0.49 9  146 259 
 PTB  HN ES       1713 44.68                             132    0.25 9  146 259 
 PTB  HZ I        1713 47.18         6.8 0.44            131            146 259 
 NOR  HE ES       1714  0.07                             118   -0.04 8  233 234 
 NOR  HE I        1714  5.49         6.7 0.46            118            233 234 
 CHI  HZ EP       1713 34.80                             117    0.30 8  249 195 
                                                                                
