 2010  617 1301 48.5 L   6.854 -73.097144.0  RSN  6 0.3 1.7LRSN                1
 GAP=163        0.56       3.3     8.4  6.5 -0.1082E+02 -0.9218E+01  0.4637E+01E
 Epicentro: LOS SANTOS - SANTANDER                                             3
 ACTION:UP  10-08-24 10:11 OP:vdl  STATUS:               ID:20100617130148 L   I
 2010-06-17-1258-42S.COL___115                                                 6
 STAT SP IPHASW D HRMM SECON CODA AMPLIT PERI AZIMU VELO SNR AR TRES W  DIS CAZ7
 BAR2 SZ EP   1   13 2  7.96                             167    -0.1 7   31 198 
 BAR2 SZ ES   2   13 2 22.98                             167    -0.4 5   31 198 
 BRR  HZ EP   1   13 2  9.21                             152    -0.4 7   74 292 
 BRR  HZ I        13 2 26.00        13.9 0.41                            74 292 
 BRR  HE ES   2   13 2 26.47                             152     0.4 5   74 292 
 RUS  HZ EP   1   13 2 12.61                             142     0.1 7  106 179 
 RUS  HE ES   2   13 2 31.23                             142     0.0 5  106 179 
 RUS  HZ I        13 2 32.90         4.3 0.31                           106 179 
 GUE  SZ EP   1   13 2 12.40                             141    -0.1 7  110  10 
 GUE  SZ ES   2   13 2 31.61                             141     0.4 5  110  10 
 GRA  SZ EP   1   13 2 13.34                             138     0.3 7  118  16 
 GRA  SZ ES   2   13 2 31.93                             138    -0.2 5  118  16 
 CHI  HZ EP   1   13 2 26.92                             116     0.0 6  256 196 
 CHI  HE ES   2   13 2 57.50                             116     0.6 4  256 196 
 CHI  HZ I        13 3  0.10         3.0 0.89                           256 196 
                                                                                
