 2016 1017 1422 19.6 L   6.777 -73.172145.1  RSN  5 0.4 1.6LRSN                1
 GAP=134        1.17       6.3     6.0  8.6 -0.3459E+01  0.6223E+01  0.2253E+01E
 Epicentro: LOS SANTOS - SANTANDER                                             3
 ACTION:UPD 16-11-09 19:20 OP:rebc STATUS:               ID:20161017142219 L   I
 OLDACT:UP  16-10-18 00:40 OP:ar   STATUS:               ID:20161017141733     3
 OLDACT:REG 16-10-17 22:54 OP:ar   STATUS:               ID:20161017141733     3
 2016-10-17-1418-00M.COL___358                                                 6
 STAT SP IPHASW D HRMM SECON CODA AMPLIT PERI AZIMU VELO AIN AR TRES W  DIS CAZ7
 BAR2 EZ EP       1422 39.17                             172    0.0410 20.5 183 
 BAR2 EZ ES       1422 53.80                             172   -0.5410 20.5 183 
 BAR2 EZ I        1422 55.26        10.4 0.22            171           20.5 183 
 BRR  HZ EP       1422 40.92                             153    0.2810 70.0 301 
 BRR  HN ES       1422 57.73                             153    0.7010 70.0 301 
 BRR  HZ I        1423  4.97        13.6 0.36            150           70.0 301 
 PAM  EZ EP       1422 42.45                             149    0.4410 81.2  40 
 PAM  EE ES       1422 58.94                             149   -0.5210 81.2  40 
 PAM  EZ I        1423  1.28         5.3 0.42            153           81.2  40 
 RUS  HZ EP       1422 42.99                             144   -0.1710 98.3 174 
 RUS  HE ES       1423  2.01                             144    0.5110 98.3 174 
 RUS  HZ I        1423  2.81         5.2 0.26            149           98.3 174 
 PTB  HZ EP       1422 45.71                             132   -0.54 9  144 260 
 PTB  HN ES       1423  6.72                             132   -0.29 9  144 260 
 PTB  HZ I        1423 13.73         5.0 0.48            133            144 260 
                                                                                
