 2016  217 1456 16.0 L   6.828 -73.180149.7  RSN  6 0.5 2.1LRSN                1
 GAP=242        1.12       7.3     6.6  9.0  0.2467E+02  0.9111E+01 -0.1536E+02E
 Epicentro: ZAPATOCA - SANTANDER                                               3
 ACTION:UPD 16-03-04 21:26 OP:rebc STATUS:               ID:20160217145616 L   I
 OLDACT:UP  16-02-17 22:40 OP:ak   STATUS:               ID:20160217144748     3
 OLDACT:REG 16-02-17 21:05 OP:ak   STATUS:               ID:20160217144748     3
 2016-02-17-1447-48M.COL___318                                                 6
 STAT SP IPHASW D HRMM SECON CODA AMPLIT PERI AZIMU VELO AIN AR TRES W  DIS CAZ7
 BAR2 EZ IP     D 1456 36.57                             170    0.4410 26.0 180 
 BAR2 EZ ES       1456 51.44                             170   -0.4210 26.0 180 
 RUS  HZ EP       1456 40.58                             144    0.2310  104 174 
 RUS  HN ES       1456 59.25                             144   -0.1210  104 174 
 RUS  HZ I        1457  0.42        15.1 0.34            145            104 174 
 PTB  HZ EP       1456 43.23                             133    0.25 9  145 257 
 PTB  HN ES       1457  4.50                             133    0.44 9  145 257 
 SPBC HZ EP       1456 44.73                             130   -0.04 9  163 217 
 SPBC HN ES       1457  6.96                             130   -0.28 9  163 217 
 SPBC HZ I        1457 10.42        22.3 0.34            130            163 217 
 ZAR  HZ EP       1456 47.42                             124   -0.78 9  199 292 
 ZAR  HN ES       1457 14.06                             124    0.73 9  199 292 
 ZAR  HZ I        1457 20.40         8.3 0.24            124            199 292 
 URE  HZ EP   4   1457  0.97                             115    4.26 0  279 292 
 URE  HN ES       1457 27.71                             115   -0.78 7  279 292 
                                                                                
