 2010  617 1846 27.9 L   6.763 -73.108152.2  RSN  5 0.4 1.9LRSN                1
 GAP=169        0.71       4.7    12.3  8.6 -0.8624E+01 -0.1226E+02  0.7400E+01E
 Epicentro: LOS SANTOS - SANTANDER                                             3
 ACTION:UP  10-08-24 10:11 OP:vdl  STATUS:               ID:20100617184627 L   I
 2010-06-17-1842-50S.COL___115                                                 6
 STAT SP IPHASW D HRMM SECON CODA AMPLIT PERI AZIMU VELO SNR AR TRES W  DIS CAZ7
 BAR2 SZ EP   1   1846 48.02                             172    -0.2 7   21 204 
 BAR2 SZ ES   2   1847  3.54                             172    -0.6 5   21 204 
 BRR  HZ EP   1   1846 49.93                             152    -0.1 7   77 300 
 BRR  HZ I        1846 51.70        21.3 0.39                            77 300 
 BRR  HE ES   2   1847  7.46                             152     0.1 5   77 300 
 RUS  HZ EP   1   1846 51.99                             146     0.0 7   96 178 
 RUS  HN ES   2   1847 10.95                             146     0.2 5   96 178 
 RUS  HZ I        1847 12.38         8.5 0.49                            96 178 
 GUE  SZ EP   1   1846 53.07                             140    -0.4 7  120  10 
 GUE  SZ ES   2   1847 14.33                             140     1.0 5  120  10 
 CHI  HZ EP   1   1847  6.13                             119     0.5 6  246 196 
 CHI  HN ES   2   1847 35.06                             119     0.0 4  246 196 
 CHI  HZ I        1847 43.43         3.8 0.67                           246 196 
                                                                                
