 2015  217 1838 51.9 L   6.793 -73.191121.9  RSN  4 0.3 1.7LRSN                1
 GAP=192        0.78      14.2     8.8 11.5 -0.1121E+03 -0.4438E+02  0.1106E+03E
 Epicentro: ZAPATOCA - SANTANDER                                               3
 ACTION:UPD 15-04-30 21:27 OP:nd   STATUS:               ID:20150217183851 L   I
 OLDACT:REG 15-02-17 19:52 OP:fm   STATUS:               ID:20150217183749     3
 2015-02-17-1837-49M.COL___299                                                 6
 STAT SP IPHASW D HRMM SECON CODA AMPLIT PERI AZIMU VELO AIN AR TRES W  DIS CAZ7
 PAM  SZ EP       1839 12.13                             144    0.1810 81.2  42 
 PAM  SE ES       1839 27.45                             144   -0.1110 81.2  42 
 PAM  SZ I        1839 31.04         6.6 0.74            153           81.2  42 
 PTB  HZ EP       1839 16.14                             127   -0.45 9  143 259 
 PTB  HN ES       1839 36.06                             127    0.25 9  143 259 
 PTB  HZ I        1839 38.54         7.2 0.10            134            143 259 
 NOR  HZ EP       1839 25.73                             113   -0.18 8  230 234 
 NOR  HE ES       1839 52.57                             113    0.17 8  230 234 
 NOR  HZ I        1839 58.53         4.7 0.58            119            230 234 
 GUY2CHZ EP       1839 34.71                             108    0.67 7  297 234 
 GUY2CHN ES       1840  6.41                             108   -0.47 7  297 234 
 GUY2CHZ I        1840 15.78         3.4 0.36                           297 234 
                                                                                
