 2014  117 1849 56.2 L   6.160 -73.380138.1  RSN 14 0.5 2.1LRSN                1
 GAP=102        1.12       2.8     3.6  5.5 -0.3114E+01  0.5861E+01  0.5650E-02E
 Epicentro: SUAITA - SANTANDER                                                 3
 ACTION:UPD 14-03-13 09:56 OP:ep   STATUS:               ID:20140117184956 L   I
 OLDACT:REG 14-01-17 16:41 OP:carl STATUS:               ID:20140117185000     3
 2014-01-17-1850-00M.COL___285                                                 6
 STAT SP IPHASW D HRMM SECON CODA AMPLIT PERI AZIMU VELO AIN AR TRES W  DIS CAZ7
 RUS  HZ EP       1850 15.70                             161   -0.2510 44.2 132 
 RUS  HN ES       1850 31.51                             161    0.1810 44.2 132 
 RUS  HZ I        1850 33.03        10.9 0.20            165           44.2 132 
 BAR2 SZ EP       1850 15.82                             158   -0.1110 52.5  25 
 BAR2 SZ ES       1850 31.35                             158    0.0610 52.5  25 
 BAR2 SZ I        1850 32.89        37.9 0.22            160           52.5  25 
 SPBC HZ EP       1850 17.70                             143   -0.5710 95.0 234 
 SPBC HN ES       1850 35.29                             143   -0.1610 95.0 234 
 SPBC HZ I        1850 41.57        29.3 0.22            144           95.0 234 
 BRR  HZ EP       1850 19.55                             139    0.1810  111 341 
 BRR  HN ES       1850 38.20                             139    0.8010  111 341 
 PTB  HZ EP       1850 19.99                             135   -0.6710  126 289 
 PTB  HN ES       1850 38.91                             135   -0.8010  126 289 
 PTB  HZ I        1850 40.77        23.6 0.12            135            126 289 
 PAM  SZ EP       1850 23.89                             130    0.40 9  151  30 
 PAM  SN ES       1850 45.25                             130    0.50 9  151  30 
 PAM  SZ I        1850 48.87         7.7 0.36            132            151  30 
 CHI  HZ EP       1850 25.21                             126   -0.41 9  174 193 
 CHI  HN ES       1850 47.95                             126   -0.59 9  174 193 
 CHI  HZ I        1850 49.79         5.0 0.48            128            174 193 
 NOR  HZ EP       1850 25.88                             125    0.34 9  178 248 
 NOR  HN ES       1850 48.72                             125    0.32 9  178 248 
 NOR  HZ I        1850 52.89        20.1 0.46            126            178 248 
 ZAR  HZ EP       1850 29.89                             118   -0.00 8  220 312 
 ZAR  HN ES       1850 55.82                             118   -0.32 8  220 312 
 ZAR  HZ I        1850 58.44        21.1 0.18            120            220 312 
 HEL  HZ EP       1850 32.85                             117    0.56 8  238 271 
 HEL  HN ES       1851  0.63                             117    0.22 8  238 271 
 HEL  HZ I        1851  6.72         7.5 0.26            118            238 271 
 GUY2CHZ EP       1850 33.38                             116    0.39 8  243 245 
 GUY2CHN ES       1851  1.95                             116    0.30 8  243 245 
 GUY2CHZ I        1851  8.52         9.6 0.34                           243 245 
 RREF HZ EP       1850 35.52                             114    0.60 8  259 238 
 RREF HN ES       1851  5.40                             114    0.32 8  259 238 
 RREF HZ I        1851 11.64        13.2 0.82            116            259 238 
 SML  HZ EP       1850 38.80                             110   -0.18 7  302 345 
 SML  HN ES       1851 11.19                             110   -1.12 7  302 345 
 SML  HZ I        1851 19.55         8.8 0.30            112            302 345 
 ORTC HZ EP       1850 41.29                             109   -0.25 7  324 220 
 ORTC HN ES       1851 17.49                             109    0.62 7  324 220 
 ORTC HZ I        1851 20.38         7.9 0.40            110            324 220 
                                                                                
