 2016 1217 1754 21.9 L   6.303 -73.448121.4  RSN  8 0.4 1.6LRSN                1
 GAP=102        0.95       3.5     3.4  5.8 -0.2792E+01  0.7281E+01  0.8312E+00E
 Epicentro: CONTRATACION - SANTANDER                                           3
 ACTION:UPD 17-01-11 20:16 OP:rebc STATUS:               ID:20161217175421 L   I
 OLDACT:UP  16-12-18 00:03 OP:edw  STATUS:               ID:20161217174746     3
 OLDACT:REG 16-12-17 20:15 OP:edw  STATUS:               ID:20161217174746     3
 2016-12-17-1748-00M.COL___387                                                 6
 STAT SP IPHASW D HRMM SECON CODA AMPLIT PERI AZIMU VELO AIN AR TRES W  DIS CAZ7
 BAR2 EZ EP       1754 39.32                             159   -0.0210 43.4  43 
 BAR2 EZ ES       1754 53.12                             159    0.2110 43.4  43 
 BAR2 EZ I        1754 53.87        12.4 0.12            160           43.4  43 
 RUS  HZ EP     D 1754 40.39                             152   -0.2010 60.8 138 
 RUS  HN ES       1754 54.97                             152   -0.1610 60.8 138 
 RUS  HZ I        1754 56.74         9.0 0.32            155           60.8 138 
 BRR  HZ EP       1754 41.94                             140   -0.2010 93.5 342 
 BRR  HN ES       1754 57.26                             140   -0.6410 93.5 342 
 PTB  HZ EP   9   1754 42.60                             134   -1.33 0  115 283 
 PTB  HN ES       1754 59.82                             134    0.0710  115 283 
 PTB  HZ I        1755  3.00         4.9 0.10            134            115 283 
 PAM  EZ EP       1754 47.70                             128    0.65 9  141  36 
 PAM  EN ES       1755  6.94                             128    0.32 9  141  36 
 PAM  EZ I        1755  8.99         4.2 0.22            129            141  36 
 NOR  HZ EP       1754 49.73                             120   -0.40 9  177 243 
 NOR  HN ES       1755 12.79                             120    0.68 9  177 243 
 NOR  HZ I        1755 14.10         7.1 0.18            122            177 243 
 ZAR  HZ EP       1754 52.48                             116   -0.44 9  204 310 
 ZAR  HN ES       1755 17.48                             116    0.41 9  204 310 
 ZAR  HZ I        1755 21.54         7.6 0.32            117            204 310 
 GUY2CHZ EP       1754 57.72                             112   -0.21 8  244 241 
 GUY2CHN ES       1755 26.14                             112    0.15 8  244 241 
 GUY2CHZ I        1755 31.20         2.2 0.28                           244 241 
                                                                                
