 2014 1117 1639 33.6 L   6.759 -73.108145.8  RSN 11 0.5 2.0LRSN                1
 GAP=143        1.09       4.5     4.6  6.3 -0.3111E+01  0.7065E+01  0.8396E+01E
 Epicentro: LOS SANTOS - SANTANDER                                             3
 ACTION:UPD 14-12-19 15:43 OP:nd   STATUS:               ID:20141117163933 L   I
 OLDACT:REG 14-11-17 21:58 OP:fm   STATUS:               ID:20141117163749     3
 2014-11-17-1637-49M.COL___298                                                 6
 STAT SP IPHASW D HRMM SECON CODA AMPLIT PERI AZIMU VELO AIN AR TRES W  DIS CAZ7
 BAR2 SZ EP       1639 53.54                             172    0.3310 20.2 204 
 BAR2 SZ ES       1640  8.77                             172    0.2910 20.2 204 
 BAR2 SZ I        1640  9.74        16.5 0.28            167           20.2 204 
 BRR  HZ EP       1639 55.28                             151    0.1510 77.1 300 
 BRR  HN ES       1640 12.41                             151    0.5210 77.1 300 
 BRR  HZ I        1640 15.38        14.3 0.14            147           77.1 300 
 PAM  SZ EP       1639 56.10                             151    0.1810 78.4  35 
 PAM  SN ES       1640 12.47                             151   -0.8310 78.4  35 
 PAM  SZ I        1640 15.31        38.5 0.52            150           78.4  35 
 RUS  HZ EP       1639 56.93                             145   -0.1210 95.8 178 
 RUS  HN ES       1640 15.61                             145    0.2910 95.8 178 
 RUS  HZ I        1640 18.11        12.7 0.38            139           95.8 178 
 PTB  HZ EP       1640  0.38                             131   -0.53 9  151 261 
 PTB  HN ES       1640 21.67                             131   -0.51 9  151 261 
 PTB  HZ I        1640 25.30        14.0 0.16            126            151 261 
 NOR  HN ES       1640 36.79                             118   -0.61 8  236 236 
 NOR  HZ I        1640 43.65        12.5 0.50            114            236 236 
 CHI  HZ EP       1640 11.19                             117    0.20 8  245 196 
 CHI  HN ES       1640 39.96                             117   -0.16 8  245 196 
 CHI  HZ I        1640 43.79         3.8 0.36            113            245 196 
 HEL  HZ EP       1640 15.18                             114    1.00 8  275 257 
 HEL  HN ES       1640 45.96                             114    0.15 8  275 257 
 HEL  HZ I        1640 53.51         7.1 0.24            110            275 257 
 TOL  SN ES   4   1641  0.58                             109    1.09 0  343 226 
 MON  HN ES   4   1640 57.41                             108   -4.71 0  360 309 
 MON  HZ I        1641  0.03         2.0 0.18            105            360 309 
 PRA  HZ EP       1640 26.46                             107   -0.48 6  390 210 
 ORTC HZ EP       1640 27.33                             106   -0.09 6  394 217 
 ORTC HZ I        1641 18.46         3.9 0.58            103            394 217 
                                                                                
