 2012  217 1444 54.7 L   6.755 -73.144148.3  RSN  6 0.3 1.5LRSN                1
 GAP=139        0.73       5.0     4.4  8.2  0.1796E+01  0.5407E+01  0.3002E+01E
 ACTION:UP  12-03-07 16:31 OP:epov STATUS:               ID:20120217144454 L   I
 2012-02-17-1440-00M.COL___188                                                 6
 STAT SP IPHASW D HRMM SECON CODA AMPLIT PERI AZIMU VELO AIN AR TRES W  DIS CAZ7
 BAR2 SZ EP   1   1445 14.62                             173    0.02 7 18.5 193 
 BAR2 SZ I        1445 31.39         7.5 0.25                          18.5 193 
 BRR  HZ EP       1445 16.63                             152    0.3110 73.9 302 
 BRR  HN ES   1   1445 33.63                             152    0.48 7 73.9 302 
 PAM  SZ EP   1   1445 17.54                             150    0.08 7 81.2  37 
 PAM  SN ES   1   1445 34.61                             150   -0.57 7 81.2  37 
 RUS  HZ EP   1   1445 18.51                             146    0.11 7 95.6 176 
 RUS  HN ES   1   1445 36.99                             146    0.14 7 95.6 176 
 RUS  HZ I        1445 38.47         2.7 0.31                          95.6 176 
 PTB  HZ EP   1   1445 21.36                             133   -0.50 7  147 261 
 PTB  HN ES   1   1445 42.48                             133   -0.53 7  147 261 
 ZAR  HE ES   1   1445 53.29                             123    0.11 6  206 293 
 ZAR  HZ I        1445 59.11         5.2 0.42                           206 293 
                                                                                
