 2017  417 1530 12.8 L   6.827 -74.024 86.1  RSN  5 0.3 1.3LRSN                1
 GAP=172        0.80       4.6     3.0  7.4 -0.4960E+01 -0.5938E+01  0.1716E+02E
 Epicentro: PUERTO PARRA - SANTANDER                                           3
 ACTION:UPD 17-05-30 21:13 OP:jn   STATUS:               ID:20170417153012 L   I
 OLDACT:REG 17-04-17 20:21 OP:cog  STATUS:               ID:20170417152326     3
 2017-04-17-1528-00M.COL___365                                                 6
 STAT SP IPHASW D HRMM SECON CODA AMPLIT PERI AZIMU VELO AIN AR TRES W  DIS CAZ7
 BRR  HZ EP       1530 26.23                             149    0.1010 46.4  48 
 BRR  HE ES       1530 36.85                             149    0.3410 46.4  48 
 BRR  HZ I        1530 37.68        11.7 0.46            151           46.4  48 
 PTB  HZ EP       1530 26.72                             143   -0.1910 57.4 236 
 PTB  HN ES       1530 37.43                             143   -0.4510 57.4 236 
 PTB  HZ I        1530 38.05         6.0 0.03            145           57.4 236 
 BAR2 EZ EP       1530 30.45                             128   -0.1710 96.6 106 
 BAR2 EZ ES       1530 44.54                             128    0.0510 96.6 106 
 BAR2 EZ I        1530 46.32        10.3 0.50            129           96.6 106 
 RUS  HZ EP       1530 36.08                             116   -0.14 9  147 135 
 RUS  HN ES       1530 54.36                             116   -0.10 9  147 135 
 NOR  HN ES       1530 58.43                             112    0.65 9  168 214 
 NOR  HZ I        1530 59.42         2.0 0.14            113            168 214 
                                                                                
