 2017  817 1800 26.6 L   6.803 -73.119144.3  RSN  9 0.5 1.7LRSN                1
 GAP=140        0.74       3.0     3.4  4.9 -0.1361E+01  0.4527E+01  0.2865E+01E
 Epicentro: LOS SANTOS - SANTANDER                                             3
 ACTION:UPD 17-09-04 20:21 OP:rebc STATUS:               ID:20170817180026 L   I
 OLDACT:UP  17-08-17 23:01 OP:and  STATUS:               ID:20170817175737     3
 OLDACT:UP  17-08-17 23:00 OP:and  STATUS:               ID:20170817175737     3
 OLDACT:UP  17-08-17 23:00 OP:and  STATUS:               ID:20170817175737     3
 OLDACT:REG 17-08-17 20:21 OP:and  STATUS:               ID:20170817175737     3
 2017-08-17-1758-00M.COL___407                                                 6
 STAT SP IPHASW D HRMM SECON CODA AMPLIT PERI AZIMU VELO AIN AR TRES W  DIS CAZ7
 BAR2 EZ EP       18 0 45.96                             170   -0.1410 24.3 197 
 BAR2 EZ ES       18 1  1.38                             170    0.0910 24.3 197 
 BAR2 EZ I        18 1  3.53        12.2 0.48            167           24.3 197 
 BRR  HZ EP       18 0 47.75                             151   -0.0110 73.7 297 
 BRR  HN ES       18 1  4.70                             151    0.4610 73.7 297 
 BRR  HZ I        18 1  5.31        11.0 0.16            150           73.7 297 
 PAM  EZ IP     D 18 0 48.74                             151    0.1810 75.3  38 
 PAM  EN ES       18 1  5.60                             151   -0.0710 75.3  38 
 PAM  EZ I        18 1  6.30         8.7 0.20            155           75.3  38 
 RUS  HZ EP       18 0 50.42                             143    0.1810  101 178 
 RUS  HN ES       18 1  8.25                             143   -0.4210  101 178 
 RUS  HZ I        18 1 10.49         4.5 0.34            143            101 178 
 SPBC HZ EP       18 0 54.98                             128   -0.23 9  165 220 
 SPBC HN ES       18 1 17.53                             128    0.02 9  165 220 
 ZAR  HN ES       18 1 24.06                             122   -0.63 8  207 292 
 ZAR  HZ I        18 1 29.54         6.7 0.28            122            207 292 
 NOR  HZ EP       18 1  2.63                             118    0.08 8  237 235 
 NOR  HN ES       18 1 30.58                             118    0.01 8  237 235 
 NOR  HZ I        18 1 36.83         3.2 0.20            118            237 235 
 CHI  HZ EP   2   18 1  4.81                             117    0.45 4  250 196 
 CHI  HN ES   2   18 1 34.30                             117    0.51 4  250 196 
 CHI  HZ I        18 1 40.18         2.0 0.38            117            250 196 
 GUY2CHZ EP   3   18 1 12.21                             112    1.75 2  304 235 
 GUY2CHN ES   3   18 1 47.42                             112    2.77 2  304 235 
 GUY2CHZ I        18 1 54.28         2.8 0.68                           304 235 
                                                                                
