 2017  917 1252 53.1 L   6.831 -73.050147.9  RSN 18 0.4 2.4LRSN                1
 GAP=120        0.87       3.6     4.3  4.3  0.7478E+01  0.5297E+01  0.4814E+01E
 Epicentro: LOS SANTOS - SANTANDER                                             3
 ACTION:UPD 17-10-05 19:13 OP:rebc STATUS:               ID:20170917125253 L   I
 OLDACT:UP  17-09-17 21:47 OP:dnl  STATUS:               ID:20170917124743     3
 OLDACT:REG 17-09-17 21:00 OP:dnl  STATUS:               ID:20170917124743     3
 2017-09-17-1248-00M.COL___409                                                 6
 STAT SP IPHASW D HRMM SECON CODA AMPLIT PERI AZIMU VELO AIN AR TRES W  DIS CAZ7
 BAR2 EZ EP       1253 13.34                             168    0.2110 30.2 209 
 BAR2 EZ ES       1253 28.55                             168   -0.2110 30.2 209 
 BAR2 EZ I        1253 31.17        40.4 0.34            164           30.2 209 
 PAM  EZ IP   9 D 1253 16.38                             154    1.37 0 68.2  35 
 PAM  EN ES       1253 33.60                             154    0.1210 68.2  35 
 PAM  EZ I        1253 35.81        38.4 0.64            155           68.2  35 
 BRR  HZ EP       1253 15.22                             150    0.2910 79.3 293 
 BRR  HN ES       1253 32.29                             150    0.3210 79.3 293 
 BRR  HZ I        1253 35.49        27.5 0.20            146           79.3 293 
 RUS  HZ EP       1253 17.46                             143    0.1710  104 182 
 RUS  HN ES       1253 36.27                             143    0.1110  104 182 
 RUS  HZ I        1253 37.27        20.0 0.36            141            104 182 
 SPBC HZ EP   2   1253 22.37                             128   -0.28 4  173 221 
 SPBC HN ES   4   1253 44.23                             128   -1.48 0  173 221 
 SPBC HZ I        1253 46.84        39.4 0.28            125            173 221 
 YPLC HZ EP   2   1253 23.86                             127    0.99 4  175 155 
 YPLC HE ES       1253 45.85                             127   -0.25 9  175 155 
 YPLC HZ I        1253 48.75        31.1 0.24            126            175 155 
 ZAR  HZ EP       1253 25.99                             122   -0.57 8  213 290 
 ZAR  HN ES       1253 51.76                             122   -0.91 8  213 290 
 ZAR  HZ I        1253 56.30        18.0 0.16            119            213 290 
 NOR  HZ EP       1253 29.87                             118   -0.22 8  245 235 
 NOR  HZ I        1253 59.97        16.3 0.16            115            245 235 
 CHI  HZ EP       1253 31.68                             117    0.09 8  255 197 
 CHI  HE ES       1254  1.19                             117   -0.43 8  255 197 
 CHI  HZ I        1254  6.88         9.5 0.46            115            255 197 
 ROSC BZ EP   9   1253 33.45                             116    1.19 0  261 213 
 ROSC BN ES       1254  4.37                             116    0.37 8  261 213 
 ROSC BZ I        1254  8.05        25.0 0.40            114            261 213 
 HEL  HZ EP   2   1253 35.55                             114    0.91 4  283 256 
 HEL  HE ES       1254  7.85                             114    0.79 7  283 256 
 HEL  HZ I        1254 12.12        11.6 0.48            112            283 256 
 URE  HZ EP   4   1253 33.85                             113   -1.38 0  292 291 
 URE  HN ES   4   1254  4.07                             113   -4.02 0  292 291 
 URE  HZ I        1254 15.15        14.7 0.30            111            292 291 
 PTGC HZ EP       1253 36.59                             112   -0.40 7  308 161 
 PTGC HN ES   4   1254  9.29                             112   -1.95 0  308 161 
 PTGC HZ I        1254 14.81        13.1 0.30            110            308 161 
 VIL  EZ EP   2   1253 37.06                             112   -0.19 4  309 193 
 VIL  EE ES       1254 11.70                             112    0.01 7  309 193 
 VIL  EZ I        1254 17.65         7.2 0.20            110            309 193 
 GUY2CHZ EP       1253 38.73                             112    0.73 7  312 235 
 GUY2CHE ES   4   1254 16.37                             112    3.34 0  312 235 
 GUY2CHZ I        1254 19.30        11.7 0.48                           312 235 
 PRA  HZ EP       1253 47.36                             106   -0.30 6  400 211 
 PRA  HE ES   4   1254 31.25                             106    1.03 0  400 211 
 PRA  HZ I        1254 35.83        11.2 0.24            105            400 211 
 ORTC HZ EP       1253 48.20                             106    0.05 6  405 217 
 ORTC HN ES       1254 30.89                             106   -0.20 6  405 217 
 ORTC HZ I        1254 37.03         7.5 0.74            105            405 217 
 SJC  HZ EP   4   1253 47.54                             106   -1.53 0  412 325 
 SJC  HN ES   4   1254 28.03                             106   -4.71 0  412 325 
 SJC  HZ I        1254 32.87         3.7 0.46            104            412 325 
                                                                                
