 2011  617 1024 44.9 L   6.816 -73.191138.7  RSN  4 0.1 1.6LRSN                1
 GAP=202        0.32       2.9    14.3  3.8 -0.3198E+02  0.4493E+01 -0.3202E+01E
 Epicentro: ZAPATOCA - SANTANDER                                               3
 ACTION:UP  11-07-14 19:06 OP:ep   STATUS:               ID:20110617102444 L   I
 2011-06-17-1023-34S.COL___135                                                 6
 STAT SP IPHASW D HRMM SECON CODA AMPLIT PERI AZIMU VELO SNR AR TRES W  DIS CAZ7
 BAR2 SZ EP       1025  3.69                             169     0.010   25 178 
 BAR2 SZ ES   1   1025 18.46                             169     0.1 7   25 178 
 BAR2 SZ I        1025 20.94         6.6 0.29                            25 178 
 RUS  HZ EP   1   1025  8.12                             142     0.0 7  103 173 
 RUS  HN ES   1   1025 26.27                             142     0.0 7  103 173 
 RUS  HZ I        1025 28.20         3.7 0.27                           103 173 
 BRI  SZ EP   1   1025  8.32                             140     0.2 7  109  24 
 BRI  SZ I        1025 28.81         9.0 0.10                           109  24 
 GRA  SZ EP       1025  9.53                             135     0.010  126  20 
 GRA  SZ ES   1   1025 28.66                             135    -0.1 7  126  20 
 GRA  SZ I        1025 32.04        12.9 0.34                           126  20 
                                                                                
