 2016  417 1109 43.2 L   6.811 -73.166151.8  RSN  5 0.4 1.5LRSN                1
 GAP=243        1.03       7.0     6.3  8.3  0.1850E+02  0.7655E+01 -0.1327E+02E
 Epicentro: LOS SANTOS - SANTANDER                                             3
 ACTION:UPD 16-05-05 14:22 OP:rebc STATUS:               ID:20160417110943 L   I
 OLDACT:ARG 16-04-18 14:37 OP:cara STATUS:               ID:20160417105741     3
 2016-04-17-1057-41M.COL___300                                                 6
 STAT SP IPHASW D HRMM SECON CODA AMPLIT PERI AZIMU VELO AIN AR TRES W  DIS CAZ7
 BAR2 EZ EP       1110  3.97                             171    0.3910 24.2 184 
 BAR2 EZ ES       1110 19.32                             171   -0.1510 24.2 184 
 BAR2 EZ I        1110 20.34         8.5 0.14            172           24.2 184 
 RUS  HZ EP       1110  7.55                             145   -0.1010  102 175 
 RUS  HE ES       1110 26.69                             145   -0.0310  102 175 
 RUS  HZ I        1110 27.67         5.0 0.34            148            102 175 
 PTB  HZ EP       1110  9.90                             134   -0.60 9  146 258 
 PTB  HN ES       1110 31.64                             134   -0.15 9  146 258 
 PTB  HZ I        1110 34.72         3.1 0.36            134            146 258 
 SPBC HZ EP       1110 12.85                             130    0.72 9  163 218 
 SPBC HN ES       1110 34.61                             130   -0.08 9  163 218 
 ZAR  HZ EP       1110 15.21                             124   -0.59 9  202 292 
 ZAR  HN ES       1110 41.83                             124    0.62 9  202 292 
 ZAR  HZ I        1110 47.52         2.6 0.40            124            202 292 
                                                                                
