 2011  517 1021 59.8 L   6.780 -73.090140.1  RSN  9 0.3 1.9LRSN                1
 GAP=145        0.73       3.4     6.2  5.0 -0.3854E+01 -0.5947E+01  0.1286E+00E
 Epicentro: LOS SANTOS - SANTANDER                                             3
 ACTION:UP  11-06-29 08:54 OP:tino STATUS:               ID:20110517102159 L   I
 2011-05-17-1016-29S.COL___141                                                 6
 STAT SP IPHASW D HRMM SECON CODA AMPLIT PERI AZIMU VELO SNR AR TRES W  DIS CAZ7
 BAR2 SZ EP       1022 18.70                             170     0.010   23 206 
 BAR2 SZ I        1022 19.09        15.9 0.12                            23 206 
 BAR2 SZ ES   2   1022 34.25                             170     0.8 5   23 206 
 BTL  SZ EP       1022 18.86                             169     0.110   25 308 
 BTL  SZ ES   1   1022 33.38                             169    -0.2 7   25 308 
 GIR2 SZ EP       1022 18.67                             165    -0.210   35 341 
 GIR2 SZ ES   1   1022 33.70                             165    -0.1 7   35 341 
 PAM  SZ EP       1022 21.60                             150     0.410   75  35 
 PAM  SN ES   1   1022 38.06                             150     0.0 7   75  35 
 BRR  HZ EP       1022 20.48                             149    -0.210   78 298 
 BRR  HN ES   1   1022 37.41                             149     0.4 7   78 298 
 BRR  HZ I        1022 40.74        19.4 0.22                            78 298 
 RUS  HZ EP       1022 22.68                             143    -0.110   98 180 
 RUS  HN ES   2   1022 39.90                             143    -0.8 5   98 180 
 BRI  SZ EP       1022 23.25                             140     0.110  109  17 
 GRA  SZ IP       1022 24.49                             135     0.010  126  15 
 GRA  SZ ES   1   1022 43.61                             135    -0.2 7  126  15 
 GRA  SZ I        1022 45.17         8.3 0.33                           126  15 
 OCA  SZ EP       1022 28.21                             128     0.3 9  163 351 
 OCA  SZ ES   1   1022 49.22                             128    -0.7 7  163 351 
                                                                                
