 2017  417 1101  4.6 L   6.757 -73.145147.2  RSN  6 0.3 1.3LRSN                1
 GAP=138        0.89       4.5     4.0  6.5  0.1570E+01  0.4968E+01  0.2392E+00E
 Epicentro: LOS SANTOS - SANTANDER                                             3
 ACTION:UPD 17-05-30 21:13 OP:jn   STATUS:               ID:20170417110104 L   I
 OLDACT:REG 17-04-17 20:00 OP:cog  STATUS:               ID:20170417105737     3
 2017-04-17-1058-00M.COL___362                                                 6
 STAT SP IPHASW D HRMM SECON CODA AMPLIT PERI AZIMU VELO AIN AR TRES W  DIS CAZ7
 BAR2 EZ EP       11 1 24.19                             172   -0.1510 18.7 193 
 BAR2 EZ ES       11 1 39.28                             172   -0.4510 18.7 193 
 BAR2 EZ I        11 1 40.57         7.9 0.20            171           18.7 193 
 BRR  HZ EP       11 1 26.28                             152    0.2210 73.6 302 
 BRR  HE ES       11 1 43.32                             152    0.5310 73.6 302 
 PAM  EZ EP       11 1 27.13                             150   -0.0810 81.1  37 
 PAM  EN ES       11 1 44.67                             150   -0.1710 81.1  37 
 RUS  HZ EP       11 1 28.45                             145    0.2710 95.8 176 
 RUS  HN ES       11 1 46.93                             145    0.3710 95.8 176 
 RUS  HZ I        11 1 47.98         1.6 0.34            145           95.8 176 
 PTB  HZ EP       11 1 31.25                             132   -0.38 9  147 261 
 PTB  HN ES       11 1 52.22                             132   -0.48 9  147 261 
 PTB  HZ I        11 1 53.64         2.2 0.42            133            147 261 
 ZAR  HN ES       11 2  3.17                             122    0.29 8  206 293 
                                                                                
