 2011  717 1754 11.2 L   6.735 -73.085139.9  RSN 10 0.5 2.0LRSN                1
 GAP=164        1.05       4.2     6.7  7.9 -0.9603E+01  0.8300E+01  0.2859E+01E
 Epicentro: JORDAN - SANTANDER                                                 3
 ACTION:UPD 12-07-25 14:01 OP:epov STATUS:               ID:20110717175411 L   I
 2011-07-17-1752-33S.COL___143                                                 6
 STAT SP IPHASW D HRMM SECON CODA AMPLIT PERI AZIMU VELO AIN AR TRES W  DIS CAZ7
 BAR2 SZ EP   1   1754 29.42                             172   -0.63 7 19.2 214 
 BAR2 SZ ES   1   1754 44.22                             172   -0.53 7 19.2 214 
 BAR2 SZ I        1754 45.84        17.1 0.29                          19.2 214 
 BRR  HZ EP   1   1754 31.68                             148   -0.62 7 80.6 301 
 BRR  HE ES   1   1754 49.49                             148    0.74 7 80.6 301 
 BRR  HZ I        1754 52.72        25.2 0.14                          80.6 301 
 RUS  HZ EP       1754 34.00                             145    0.1510 93.2 180 
 RUS  HN ES   1   1754 51.78                             145    0.26 7 93.2 180 
 RUS  HZ I        1754 54.65        10.1 0.20                          93.2 180 
 BRI  SZ EP   1   1754 34.37                             139   -0.54 7  113  16 
 BRI  SZ ES   1   1754 53.18                             139   -0.22 7  113  16 
 BRI  SZ I        1754 54.64        12.5 0.33                           113  16 
 GRA  SZ EP   1   1754 37.30                             134    0.93 7  131  14 
 GRA  SZ ES   1   1754 56.83                             134    0.83 7  131  14 
 GRA  SZ I        1754 58.20        10.1 0.42                           131  14 
 OCA  SZ EP   1   1754 39.11                             127   -0.73 7  168 351 
 OCA  SZ ES   1   1755  1.94                             127   -0.24 7  168 351 
 OCA  SZ I        1755  4.88        13.5 0.31                           168 351 
 NOR  SN ES   1   1755 14.55                             117    0.04 6  236 237 
 CHI  HZ EP   1   1754 48.29                             116    0.25 6  244 197 
 CHI  HZ I        1755 25.32         3.6 0.40                           244 197 
 HEL  HZ EP   1   1754 52.47                             113    0.79 6  277 258 
 HEL  HN ES   1   1755 22.84                             113   -0.40 6  277 258 
 HEL  HZ I        1755 28.66        10.5 0.43                           277 258 
 PRA  HZ EP   1   1755  4.31                             106    0.10 4  389 211 
 PRA  HZ I        1755 53.61        16.4 0.22                           389 211 
                                                                                
