 2014  917 1310 30.3 L   6.764 -73.106148.0  RSN  9 0.4 1.6LRSN                1
 GAP=143        0.88       3.7     4.5  6.2  0.1684E+01  0.4974E+01 -0.3141E+00E
 Epicentro: LOS SANTOS - SANTANDER                                             3
 ACTION:UPD 14-10-03 23:06 OP:nd   STATUS:               ID:20140917131030 L   I
 OLDACT:UP  14-09-17 23:13 OP:spq  STATUS:               ID:20140917130818     3
 OLDACT:REG 14-09-17 20:30 OP:spq  STATUS:               ID:20140917130818     3
 2014-09-17-1308-18M.COL___293                                                 6
 STAT SP IPHASW D HRMM SECON CODA AMPLIT PERI AZIMU VELO AIN AR TRES W  DIS CAZ7
 BAR2 SZ EP       1310 50.22                             172    0.1110 20.8 204 
 BAR2 SZ ES   1   1311  5.44                             172   -0.15 7 20.8 204 
 BAR2 SZ I        1311  9.36         9.7 0.26            173           20.8 204 
 BRR  HZ EP       1310 52.14                             151    0.1610 77.0 300 
 BRR  HN ES       1311  9.04                             151    0.1110 77.0 300 
 BRR  HZ I        1311 12.40        11.6 0.21            150           77.0 300 
 PAM  SN ES   1   1311 10.08                             151   -0.20 7 77.9  35 
 PAM  SZ I        1311 11.29         6.2 0.18            152           77.9  35 
 RUS  HZ EP       1310 54.21                             145    0.2710 96.4 179 
 RUS  HE ES   1   1311 12.32                             145   -0.09 7 96.4 179 
 RUS  HZ I        1311 13.59         3.3 0.27            150           96.4 179 
 PTB  HZ EP       1310 56.86                             132   -0.88 9  151 261 
 PTB  HE ES       1311 18.66                             132   -0.51 9  151 261 
 PTB  HZ I        1311 20.22         5.3 0.14            133            151 261 
 SPBC HZ EP       1310 59.19                             130    0.28 9  163 221 
 SPBC HE ES       1311 21.54                             130    0.28 9  163 221 
 SPBC HZ I        1311 23.75         4.9 0.14            132            163 221 
 ZAR  HZ EP   1   1311  3.71                             122    0.28 6  210 293 
 ZAR  HN ES       1311 29.67                             122    0.37 8  210 293 
 ZAR  HZ I        1311 35.02         5.4 0.36            123            210 293 
 SML  HZ EP   1   1311  6.98                             117   -0.62 6  249 335 
 SML  HN ES   1   1311 37.23                             117    0.50 6  249 335 
 SML  HZ I        1311 44.36         3.5 0.10            118            249 335 
 GUY2CHZ EP   4   1311 15.20                             113    1.07 0  303 236 
 GUY2CHE ES   4   1311 52.21                             113    3.87 0  303 236 
 GUY2CHZ I        1311 58.93         1.8 0.54                           303 236 
                                                                                
