 2010 1017 1400 27.9 L   6.767 -73.096147.0  RSN 12 0.3 2.2LRSN                1
 GAP=165        0.66       3.4     6.3  6.0 -0.1011E+02  0.9377E+01  0.4354E+01E
 Epicentro: LOS SANTOS - SANTANDER                                             3
 ACTION:UP  11-02-18 11:10 OP:tino STATUS:               ID:20101017140027 L   I
 2010-10-17-1358-01S.COL___126                                                 6
 STAT SP IPHASW D HRMM SECON CODA AMPLIT PERI AZIMU VELO SNR AR TRES W  DIS CAZ7
 BAR2 SZ IP       14 0 47.63                             171    -0.110   22 207 
 BAR2 SZ ES   1   14 1  3.06                             171     0.0 7   22 207 
 BAR2 SZ I        14 1  4.46        41.8 0.52                            22 207 
 BTL  SZ IP       14 0 47.75                             170     0.010   25 311 
 GIR2 SZ EP       14 0 47.79                             166    -0.110   36 343 
 BRR  HZ IP     C 14 0 49.51                             151    -0.110   78 299 
 BRR  HZ I        14 0 49.80        74.7 0.17                            78 299 
 RUS  HZ EP       14 0 51.73                             145     0.210   97 179 
 RUS  HZ I        14 1 11.51        18.0 0.36                            97 179 
 GUE  SZ EP       14 0 53.36                             139     0.410  119   9 
 GRA  SZ IP       14 0 53.43                             137     0.010  128  15 
 GRA  SZ I        14 0 54.60        19.8 0.20                           128  15 
 GRA  SZ ES   1   14 1 13.27                             137    -0.1 7  128  15 
 OCA  SZ ES   2   14 1 18.85                             129    -0.4 5  165 351 
 NOR  SZ EP       14 1  3.55                             118    -0.5 8  237 236 
 CHI  HZ EP       14 1  5.45                             117     0.0 8  247 197 
 CHI  HZ I        14 1  8.26         6.6 0.38                           247 197 
 HEL  HZ EP   2   14 1  9.38                             115     0.7 4  277 257 
 HEL  HN ES   2   14 1 41.17                             115     0.7 4  277 257 
 HEL  HZ I        14 1 46.28         7.9 0.26                           277 257 
 PRA  HZ EP       14 1 21.09                             107    -0.4 6  392 211 
 PRA  HN ES   1   14 2  3.87                             107     0.7 4  392 211 
                                                                                
