 2010  517 1129 25.2 L   6.088 -73.890  6.9  RSN  4 0.6 1.7LRSN                1
 GAP=219        0.91       7.9     6.2 11.8 -0.1130E+02  0.3171E+02  0.2786E+02E
 Epicentro: EL PEON - SANTANDER                                                3
 ACTION:UP  10-08-24 10:05 OP:vdl  STATUS:               ID:20100517112925 L   I
 2010-05-17-1128-28S.COL___108                                                 6
 STAT SP IPHASW D HRMM SECON CODA AMPLIT PERI AZIMU VELO AIN AR TRES W  DIS CAZ7
 BAR2 SZ EP   1   1129 40.48                              92    -0.1 7   96  54 
 BAR2 SZ ES   2   1129 51.68                              92    -0.9 5   96  54 
 BRR  HZ EP   1   1129 43.77                              91     0.7 7  114  10 
 BRR  HE ES   1   1129 56.79                              91    -0.3 7  114  10 
 BRR  HZ I        1129 58.06        10.2 0.12                           114  10 
 HEL  HZ EP   2   1129 53.57                              56     0.2 4  182 274 
 HEL  HN ES   2   1130 14.51                              56    -0.8 4  182 274 
 HEL  HZ I        1130 15.27        12.8 0.38                           182 274 
 BRI  SZ EP   2   1129 58.22                              56     0.7 4  217  34 
 BRI  SZ ES   2   1130 23.04                              56     0.3 4  217  34 
                                                                                
