 2015  817 1401 51.8 L   6.529 -73.453118.0  RSN  4 0.4 1.5LRSN                1
 GAP=228        0.83       9.4     9.0  7.9  0.5421E+02  0.2288E+02  0.1624E+01E
 Epicentro: SIMACOTA - SANTANDER                                               3
 ACTION:UPD 15-09-15 23:02 OP:cam  STATUS:               ID:20150817140151 L   I
 OLDACT:REG 15-08-17 21:15 OP:spq  STATUS:               ID:20150817135748     3
 2015-08-17-1357-48M.COL___340                                                 6
 STAT SP IPHASW D HRMM SECON CODA AMPLIT PERI AZIMU VELO AIN AR TRES W  DIS CAZ7
 BAR2 EZ EP     D 14 2  8.65                             164    0.3510 30.7  77 
 BAR2 EZ ES   1   14 2 21.55                             164    0.36 7 30.7  77 
 BAR2 EZ I        14 2 22.38         6.7 0.18            163           30.7  77 
 BRR  HZ EP       14 2  9.49                             147   -0.4410 70.0 336 
 BRR  HE ES       14 2 23.71                             147   -0.3810 70.0 336 
 BRR  HZ I        14 2 30.02         4.0 0.40            143           70.0 336 
 ZAR  HZ EP   1   14 2 20.64                             118   -0.23 7  188 305 
 ZAR  HE ES   1   14 2 44.11                             118    0.56 7  188 305 
 ZAR  HZ I        14 2 47.06         2.6 0.22            119            188 305 
 SML  HZ EP   1   14 2 28.87                             109   -0.05 6  260 345 
 SML  HE ES   1   14 2 58.34                             109    0.45 6  260 345 
 SML  HZ I        14 3  3.21         5.5 0.10            111            260 345 
                                                                                
