 2013  917 1619 16.1 L   6.782 -73.163146.8  RSN  8 0.4 1.9LRSN                1
 GAP=135        0.96       3.9     4.5  6.1 -0.6602E+00  0.6787E+01  0.6501E+01E
 Epicentro: LOS SANTOS - SANTANDER                                             3
 ACTION:UPD 13-10-22 09:23 OP:ep   STATUS:               ID:20130917161916 L   I
 OLDACT:REG 13-09-17 19:06 OP:jn   STATUS:               ID:20130917161749     3
 2013-09-17-1617-49M.COL___235                                                 6
 STAT SP IPHASW D HRMM SECON CODA AMPLIT PERI AZIMU VELO AIN AR TRES W  DIS CAZ7
 BAR2 SZ EP       1619 35.68                             171   -0.0910 21.1 186 
 BAR2 SZ ES       1619 50.88                             171   -0.2710 21.1 186 
 BAR2 SZ I        1619 52.38        16.0 0.16            168           21.1 186 
 BRR  HZ EP       1619 37.51                             153    0.2310 70.5 301 
 BRR  HE ES       1619 54.68                             153    0.8510 70.5 301 
 BRR  HZ I        1619 56.16        16.9 0.30            150           70.5 301 
 PAM  SZ EP       1619 38.64                             150    0.0910 80.1  40 
 PAM  SN ES       1619 55.85                             150   -0.2410 80.1  40 
 PAM  SZ I        1619 56.44        14.9 0.22            155           80.1  40 
 RUS  HZ EP       1619 39.71                             144   -0.0710 98.8 175 
 RUS  HN ES       1619 58.31                             144    0.0210 98.8 175 
 RUS  HZ I        1619 59.45         7.7 0.26            145           98.8 175 
 PTB  HZ EP       1619 42.41                             133   -0.49 9  145 259 
 PTB  HN ES   1   1620  3.16                             133   -0.69 7  145 259 
 PTB  HZ I        1620  5.42        12.5 0.40            131            145 259 
 ZAR  HE ES   1   1620 13.01                             123   -0.73 6  203 293 
 ZAR  HZ I        1620 19.94         7.9 0.22            122            203 293 
 NOR  HZ EP       1619 51.83                             119    0.28 8  232 235 
 NOR  HN ES   1   1620 19.77                             119    0.53 6  232 235 
 NOR  HZ I        1620 29.29         4.9 0.16            118            232 235 
 CHI  HZ EP       1619 53.94                             118    0.39 8  246 195 
 CHI  HN ES       1620 22.68                             118   -0.12 8  246 195 
 CHI  HZ I        1620 26.70         5.5 0.75            118            246 195 
                                                                                
