 2010 1117 1510 27.7 L   6.953 -72.861137.5  RSN  4 0.5 1.8LRSN                1
 GAP=188        1.19      13.6    21.6 29.3  0.1479E+03 -0.4987E+03 -0.2325E+03E
 Epicentro: SANTA BARBARA - SANTANDER                                          3
 ACTION:UP  10-12-17 16:53 OP:REBC STATUS:               ID:20101117151027 L   I
 2010-11-17-1505-39S.COL___127                                                 6
 STAT SP IPHASW D HRMM SECON CODA AMPLIT PERI AZIMU VELO SNR AR TRES W  DIS CAZ7
 BAR2 SZ EP       1510 47.79                             157     0.410   54 222 
 BAR2 SZ ES   1   1511  3.15                             157     0.4 7   54 222 
 BAR2 SZ I        1511  5.15        11.5 0.25                            54 222 
 BRR  HN ES       1511  6.62                             143    -0.110   96 280 
 BRR  HZ I        1511  7.33        15.5 0.02                            96 280 
 GRA  SZ EP   1   1510 49.93                             141    -0.5 7  103   4 
 GRA  SZ I        1511 14.24        10.8 0.24                           103   4 
 RUS  HN ES   2   1511 10.29                             136    -1.0 5  120 192 
 RUS  HZ I        1511 12.10         8.6 0.53                           120 192 
                                                                                
