 2012  317 1914 39.9 L   6.776 -73.148141.7  RSN  8 0.5 2.0LRSN                1
 GAP=137        1.12       5.5     5.9  9.2 -0.3110E+01  0.1136E+02 -0.7741E+01E
 ACTION:UP  12-03-31 23:20 OP:EP   STATUS:               ID:20120317191439 L   I
 2012-03-17-1910-00M.COL___202                                                 6
 STAT SP IPHASW D HRMM SECON CODA AMPLIT PERI AZIMU VELO SNR AR TRES W  DIS CAZ7
 BAR2 SZ EP   1   1914 59.21                             171     0.2 7   21 191 
 BAR2 SZ ES   1   1915 13.53                             171    -0.3 7   21 191 
 BAR2 SZ I        1915 15.22        43.5 0.34                            21 191 
 BRR  HZ EP       1915  1.18                             151     0.510   72 300 
 BRR  HZ I        1915  1.56        80.5 0.09                            72 300 
 BRR  HN ES   1   1915 17.57                             151     0.7 7   72 300 
 PAM  SZ EP       1915  2.09                             149     0.310   80  38 
 PAM  SZ I        1915  2.39        33.5 0.17                            80  38 
 PAM  SN ES   1   1915 18.81                             149    -0.1 7   80  38 
 RUS  HZ EP   1   1915  3.27                             144     0.2 7   98 176 
 RUS  HN ES   1   1915 20.76                             144    -0.3 7   98 176 
 RUS  HZ I        1915 22.58        14.5 0.25                            98 176 
 PTB  HZ EP   1   1915  5.78                             131    -0.7 7  147 260 
 PTB  HN ES   1   1915 26.45                             131    -0.7 7  147 260 
 PTB  HZ I        1915 30.10        11.3 0.15                           147 260 
 OCA  SZ EP   1   1915  7.77                             128    -0.4 7  163 353 
 OCA  SZ ES   1   1915 29.48                             128    -0.7 7  163 353 
 OCA  SZ I        1915 36.56         0.6 0.22                           163 353 
 ZAR  HZ EP   1   1915 11.86                             121    -0.3 6  205 293 
 ZAR  HN ES   1   1915 37.60                             121     0.3 6  205 293 
 ZAR  HZ I        1915 43.83        15.7 0.20                           205 293 
 NOR  SN ES   2   1915 43.38                             118     0.7 4  233 235 
                                                                                
