 2014  517 1203 22.7 L   6.817 -73.150146.4  RSN 10 0.4 2.1LRSN                1
 GAP=135        1.07       3.2     4.7  6.3 -0.3442E+01  0.5871E+01  0.3375E+01E
 Epicentro: LOS SANTOS - SANTANDER                                             3
 ACTION:UPD 15-03-16 16:58 OP:nd   STATUS:               ID:20140517120322 L   I
 OLDACT:REG 14-05-17 21:53 OP:carl STATUS:               ID:20140517115813     3
 2014-05-17-1158-13M.COL___251                                                 6
 STAT SP IPHASW D HRMM SECON CODA AMPLIT PERI AZIMU VELO AIN AR TRES W  DIS CAZ7
 BRR  HZ EP       12 3 44.38                             153    0.5610 69.9 297 
 BRR  HN ES       12 4  1.18                             153    0.8710 69.9 297 
 BRR  HZ I        12 4  1.76        29.4 0.40            152           69.9 297 
 PAM  SZ EP       12 3 45.29                             151    0.4010 76.3  41 
 PAM  SN ES       12 4  2.08                             151   -0.1310 76.3  41 
 PAM  SZ I        12 4  4.33        35.2 0.48            155           76.3  41 
 RUS  HZ EP       12 3 46.57                             143   -0.0510  102 176 
 RUS  HE ES       12 4  4.78                             143   -0.5210  102 176 
 RUS  HZ I        12 4  7.00        10.4 0.34            145            102 176 
 PTB  HZ EP       12 3 49.16                             132   -0.52 9  148 258 
 PTB  HN ES       12 4 10.09                             132   -0.66 9  148 258 
 PTB  HZ I        12 4 17.32        12.1 0.20            132            148 258 
 SPBC HZ EP       12 3 51.67                             129    0.34 9  164 218 
 SPBC HN ES       12 4 13.86                             129    0.18 9  164 218 
 SPBC HZ I        12 4 18.20        11.5 0.24            130            164 218 
 NOR  HZ EP       12 3 58.39                             119   -0.12 8  235 234 
 NOR  HN ES       12 4 26.33                             119   -0.14 8  235 234 
 NOR  HZ I        12 4 30.11         6.1 0.30            119            235 234 
 SML  HZ EP       12 3 58.66                             118   -0.47 8  242 335 
 SML  HE ES       12 4 26.94                             118   -0.63 8  242 335 
 SML  HZ I        12 4 31.05        16.3 0.10            120            242 335 
 CHI  HZ EP       12 4  0.68                             117    0.10 8  250 195 
 CHI  HN ES       12 4 29.63                             117   -0.52 8  250 195 
 CHI  HZ I        12 4 35.38         3.7 0.32            118            250 195 
 GUY2CHZ EP       12 4  6.72                             112    0.33 7  302 234 
 GUY2CHN ES       12 4 40.83                             112    0.35 7  302 234 
 GUY2CHZ I        12 4 48.91         5.3 0.76                           302 234 
 PRA  HZ EP       12 4 16.82                             107    0.45 6  393 209 
 PRA  HE ES       12 4 58.53                             107    0.27 6  393 209 
 PRA  HZ I        12 5  6.08         5.0 0.42            108            393 209 
                                                                                
