 2017 1217 1112 51.8 L   6.813 -73.137144.1  RSN  5 0.4 1.5LRSN                1
 GAP=260        0.94       6.6     6.2  8.8  0.3962E+01  0.1967E+02  0.5251E+01E
 Epicentro: LOS SANTOS - SANTANDER                                             3
 ACTION:UPD 18-01-04 13:21 OP:rebc STATUS:               ID:20171217111251 L   I
 OLDACT:REG 17-12-17 20:14 OP:osc  STATUS:               ID:20171217110410     3
 2017-12-17-1108-00M.COL___463                                                 6
 STAT SP IPHASW D HRMM SECON CODA AMPLIT PERI AZIMU VELO AIN AR TRES W  DIS CAZ7
 BAR2 EZ EP       1113 11.33                             170    0.0310 25.0 192 
 BAR2 EZ ES       1113 26.72                             170    0.2410 25.0 192 
 BAR2 EZ I        1113 27.89        12.8 0.20            166           25.0 192 
 PTB  HZ EP       1113 18.42                             131   -0.37 9  149 258 
 PTB  HN ES       1113 39.09                             131   -0.71 9  149 258 
 PTB  HZ I        1113 47.82         1.7 0.26            131            149 258 
 SPBC HZ EP       1113 20.37                             128   -0.01 9  165 219 
 SPBC HN ES       1113 42.66                             128    0.02 9  165 219 
 SPBC HZ I        1113 46.97         4.5 0.15            129            165 219 
 ZAR  HN ES       1113 49.95                             122    0.49 9  204 292 
 GUY2CHN ES       1114 10.28                             112    0.62 7  303 235 
                                                                                
