 2010 1017 1650 54.3 L   6.797 -73.132139.5  RSN 11 0.3 2.1LRSN                1
 GAP=160        0.79       3.8     7.5  9.2 -0.9615E+01  0.3786E+02 -0.6257E+00E
 Epicentro: LOS SANTOS - SANTANDER                                             3
 ACTION:UP  11-02-18 11:10 OP:tino STATUS:               ID:20101017165054 L   I
 2010-10-17-1648-49S.COL___126                                                 6
 STAT SP IPHASW D HRMM SECON CODA AMPLIT PERI AZIMU VELO SNR AR TRES W  DIS CAZ7
 BTL  SZ EP       1651 13.03                             171    -0.110   20 312 
 BAR2 SZ IP       1651 13.04                             170    -0.110   23 194 
 BAR2 SZ I        1651 29.13        27.6 0.11                            23 194 
 BRR  HZ IP     D 1651 14.88                             151     0.010   73 298 
 BRR  HZ I        1651 36.53        20.6 0.14                            73 298 
 RUS  HZ EP       1651 17.07                             143    -0.310  100 177 
 RUS  HE ES   1   1651 35.88                             143     0.5 7  100 177 
 RUS  HZ I        1651 37.48        18.2 0.17                           100 177 
 GUE  SZ EP   1   1651 19.00                             138     0.5 7  117  11 
 GRA  SZ EP       1651 18.75                             136    -0.210  126  17 
 GRA  SZ ES   1   1651 38.40                             136     0.2 7  126  17 
 GRA  SZ I        1651 39.53        17.7 0.25                           126  17 
 OCA  SZ ES   3   1651 43.21                             128    -0.7 2  161 353 
 OCA  SZ I        1651 49.48        13.9 0.35                           161 353 
 NOR  SZ EP       1651 29.49                             117    -0.3 8  236 235 
 CHI  HZ EP   1   1651 31.59                             116    -0.1 6  249 196 
 CHI  HZ I        1652  5.31         5.4 0.30                           249 196 
 HEL  HZ EP       1651 34.86                             113     0.5 8  273 256 
 HEL  HN ES   2   1652  5.46                             113    -0.2 4  273 256 
 HEL  HZ I        1652 12.12         9.3 0.57                           273 256 
 PRA  HZ EP       1651 48.22                             106     0.6 6  392 210 
 PRA  HE ES   3   1652 29.43                             106     0.1 1  392 210 
                                                                                
