 2013  617 1902 49.2 L   6.777 -73.512109.1  RSN  5 0.4 1.4LRSN                1
 GAP=151        0.88       6.4     4.7  7.6  0.1117E+02  0.1083E+02  0.3517E+01E
 Epicentro: EL CARMEN DE CHUCURI - SANTANDER                                   3
 ACTION:UPD 14-01-08 09:55 OP:ep   STATUS:               ID:20130617190249 L   I
 OLDACT:REG 13-06-17 17:39 OP:cam  STATUS:               ID:20130617185959     3
 2013-06-17-1859-59M.COL___261                                                 6
 STAT SP IPHASW D HRMM SECON CODA AMPLIT PERI AZIMU VELO AIN AR TRES W  DIS CAZ7
 BAR2 SZ EP       19 3  4.85                             158   -0.3110 41.8 119 
 BAR2 SZ ES       19 3 17.55                             158   -0.0310 41.8 119 
 BAR2 SZ I        19 3 17.96        11.2 0.11             47           41.8 119 
 BRR  HZ EP       19 3  4.44                             157   -0.4110 42.7 329 
 BRR  HE ES   1   19 3 17.51                             157    0.48 7 42.7 329 
 PTB  HZ IP       19 3  9.32                             132   -0.2610  108 256 
 PTB  HN ES       19 3 25.44                             132   -0.0110  108 256 
 PTB  HZ I        19 3 30.89         5.2 0.16             47            108 256 
 RUS  HZ EP   1   19 3 10.97                             132    0.65 7  109 154 
 RUS  HN ES   1   19 3 26.86                             132    0.10 7  109 154 
 RUS  HZ I        19 3 29.08         1.9 0.36             47            109 154 
 ZAR  HZ EP   1   19 3 16.41                             118    0.74 7  168 298 
 ZAR  HZ I        19 3 44.88         5.5 0.50             47            168 298 
                                                                                
