 2011  817 1850 39.0 L   6.772 -73.040136.7  RSN  4 0.2 1.8LRSN                1
 GAP=246        0.55       5.5    10.6  6.3  0.3864E+02 -0.1239E+02 -0.4836E+01E
 Epicentro: CEPITA - SANTANDER                                                 3
 ACTION:UPD 12-07-13 15:52 OP:ep   STATUS:               ID:20110817185039 L   I
 2011-08-17-1846-32S.COL___150                                                 6
 STAT SP IPHASW D HRMM SECON CODA AMPLIT PERI AZIMU VELO AIN AR TRES W  DIS CAZ7
 BAR2 SZ EP       1850 57.79                             169    0.2210 25.4 218 
 BAR2 SZ ES   1   1851 12.05                             169   -0.02 7 25.4 218 
 BAR2 SZ I        1851 13.94        13.2 0.25                          25.4 218 
 BRR  HZ EP       1850 59.60                             147   -0.3010 83.0 297 
 BRR  HZ I        1850 59.84        37.4 0.11                          83.0 297 
 BRR  HN ES   1   1851 16.43                             147    0.21 7 83.0 297 
 RUS  HZ EP   1   1851  1.83                             143    0.21 7 97.4 183 
 RUS  HN ES   1   1851 18.97                             143   -0.30 7 97.4 183 
 RUS  HZ I        1851 21.39         4.5 0.30                          97.4 183 
 CHI  HN ES   2   1851 45.46                             115    0.16 4  249 198 
                                                                                
