 2011  917 1515  5.1 L   6.788 -73.058140.1  RSN 17 0.3 2.6LRSN                1
 GAP=123        0.48       2.1     2.9  4.0 -0.6454E+00  0.3176E+01  0.1646E+01E
 Epicentro: LOS SANTOS - SANTANDER                                             3
 ACTION:UPD 12-07-13 15:58 OP:ep   STATUS:               ID:20110917151505 L   I
 2011-09-17-1512-19S.COL___171                                                 6
 STAT SP IPHASW D HRMM SECON CODA AMPLIT PERI AZIMU VELO AIN AR TRES W  DIS CAZ7
 BAR2 SZ EP   1   1515 23.80                             169   -0.29 7 25.7 212 
 BAR2 SZ ES   2   1515 38.47                             169   -0.44 5 25.7 212 
 BAR2 SZ I        1515 40.00        82.7 0.17                          25.7 212 
 BTL  SZ EP   1   1515 24.04                             169   -0.09 7 27.3 302 
 GIR2 SZ EP   2   1515 24.17                             165   -0.04 5 35.5 335 
 GIR2 SZ ES   2   1515 38.67                             165   -0.45 5 35.5 335 
 PAM  SZ IP       1515 26.78                             151    0.3610 72.7  33 
 PAM  SN ES   2   1515 43.64                             151    0.58 5 72.7  33 
 BRR  HZ EP   1   1515 26.69                             148    0.50 7 80.4 296 
 BRR  HN ES   2   1515 42.63                             148   -0.02 5 80.4 296 
 BRR  HZ I        1515 45.59        66.1 0.13                          80.4 296 
 RUS  HZ EP   1   1515 27.85                             143   -0.33 7 99.1 182 
 RUS  HN ES   2   1515 46.35                             143    0.17 5 99.1 182 
 RUS  HZ I        1515 47.74        40.3 0.40                          99.1 182 
 OCA  SZ EP   2   1515 32.69                             128   -0.54 5  163 350 
 OCA  SZ ES   2   1515 54.86                             128   -0.31 5  163 350 
 OCA  SZ I        1515 58.46        45.6 0.28                           163 350 
 YOP  SZ EP   2   1515 34.62                             126    0.42 4  174 156 
 YOP  SE ES   2   1515 57.09                             126    0.19 4  174 156 
 ZAR  HZ EP   2   1515 38.17                             120    0.00 4  214 291 
 ZAR  HN ES   2   1516  3.75                             120   -0.22 4  214 291 
 ZAR  HZ I        1516  7.62        52.8 0.39                           214 291 
 NOR  SZ EP   2   1515 40.82                             116   -0.46 4  242 236 
 NOR  SN ES   2   1516  9.52                             116    0.01 4  242 236 
 CHI  HZ EP   2   1515 42.14                             116   -0.50 4  250 197 
 CHI  HE ES   2   1516 11.47                             116   -0.46 4  250 197 
 CHI  HZ I        1516 18.91        13.7 0.27                           250 197 
 HEL  HZ EP   2   1515 46.15                             113    0.11 4  281 257 
 HEL  HN ES   2   1516 18.16                             113    0.18 4  281 257 
 HEL  HZ I        1516 23.94        23.9 0.40                           281 257 
 VIL  SZ EP   2   1515 48.44                             111    0.09 4  304 193 
 VIL  SZ I        1516 25.56        14.3 0.29                           304 193 
 GUY  SZ EP   2   1515 49.92                             110    0.38 3  311 236 
 GUY  SN ES   2   1516 24.70                             110    0.50 3  311 236 
 GUY  SZ I        1516 30.80        23.1 0.43                           311 236 
 RREF HZ EP   1   1515 51.90                             109    0.15 5  328 231 
 RREF HE ES   2   1516 28.33                             109    0.19 3  328 231 
 RREF HZ I        1516 35.22        24.8 0.29                           328 231 
 COD  HZ EP   2   1515 53.20                             108   -0.32 3  351 353 
 COD  HZ I        1515 54.80        19.6 0.83                           351 353 
 COD  HN ES   2   1516 31.03                             108   -0.27 3  351 353 
 PRA  HZ EP   2   1515 58.64                             105   -0.22 3  396 211 
 PRA  HN ES   2   1516 40.59                             105   -0.21 3  396 211 
                                                                                
