 2017  917 1556 58.3 L   6.819 -73.012145.4  RSN  6 0.4 1.8LRSN                1
 GAP=252        1.00       5.4     6.5  7.4  0.1125E+02  0.1229E+02  0.4734E+01E
 Epicentro: CEPITA - SANTANDER                                                 3
 ACTION:UPD 17-10-05 19:13 OP:rebc STATUS:               ID:20170917155658 L   I
 OLDACT:REG 17-09-17 21:08 OP:dnl  STATUS:               ID:20170917154739     3
 2017-09-17-1548-00M.COL___409                                                 6
 STAT SP IPHASW D HRMM SECON CODA AMPLIT PERI AZIMU VELO AIN AR TRES W  DIS CAZ7
 BAR2 EZ IP     C 1557 18.08                             167    0.0310 31.4 217 
 BAR2 EZ ES       1557 33.52                             167    0.0410 31.4 217 
 BAR2 EZ I        1557 34.69        10.2 0.34            163           31.4 217 
 BRR  HZ EP       1557 19.79                             148   -0.3410 83.6 292 
 BRR  HE ES       1557 36.81                             148   -0.3710 83.6 292 
 RUS  HZ EP       1557 22.62                             143    0.4710  103 184 
 RUS  HN ES       1557 40.82                             143    0.0510  103 184 
 RUS  HZ I        1557 42.64         8.7 0.86            142            103 184 
 SPBC HZ EP       1557 27.12                             127   -0.71 9  174 222 
 SPBC HE ES       1557 51.28                             127    0.40 9  174 222 
 SPBC HZ I        1557 55.80         6.0 0.36            126            174 222 
 ZAR  HZ EP   2   1557 32.50                             121    0.45 4  217 290 
 ZAR  HN ES       1557 59.16                             121    0.76 8  217 290 
 ZAR  HZ I        1558  1.18         7.9 0.32            121            217 290 
 GUY2CHZ EP   2   1557 43.78                             111    0.40 3  315 236 
 GUY2CHN ES       1558 17.99                             111   -0.57 7  315 236 
 GUY2CHZ I        1558 25.91         2.5 0.62                           315 236 
                                                                                
