 2017  117 1512 25.2 L   6.781 -73.128142.1  RSN  9 0.4 2.0LRSN                1
 GAP=140        1.01       3.7     4.0  5.8 -0.5552E+00  0.7542E+01  0.4909E+01E
 Epicentro: LOS SANTOS - SANTANDER                                             3
 ACTION:UPD 17-05-22 16:00 OP:jn   STATUS:               ID:20170117151225 L   I
 OLDACT:REG 17-01-17 20:49 OP:cog  STATUS:               ID:20170117150747     3
 2017-01-17-1508-00M.COL___338                                                 6
 STAT SP IPHASW D HRMM SECON CODA AMPLIT PERI AZIMU VELO AIN AR TRES W  DIS CAZ7
 BAR2 EZ EP       1512 44.29                             171   -0.0410 21.8 196 
 BAR2 EZ ES       1512 58.68                             171   -0.5910 21.8 196 
 BAR2 EZ I        1513  3.07        27.6 0.30            168           21.8 196 
 BRR  HZ EP       1512 46.42                             151    0.3410 73.9 299 
 BRR  HN ES       1513  2.87                             151    0.4810 73.9 299 
 BRR  HZ I        1513  6.60        23.1 0.28            152           73.9 299 
 PAM  EZ EP       1512 47.15                             150    0.1310 77.8  37 
 PAM  EN ES       1513  4.36                             150    0.3010 77.8  37 
 PAM  EZ I        1513  4.88        11.2 0.34            156           77.8  37 
 RUS  HZ EP       1512 48.27                             144   -0.1410 98.4 177 
 RUS  HN ES       1513  6.54                             144    0.0110 98.4 177 
 RUS  HZ I        1513  8.08         7.5 0.30            145           98.4 177 
 PTB  HZ EP       1512 51.07                             131   -0.92 9  149 260 
 PTB  HN ES       1513 12.39                             131   -0.51 9  149 260 
 PTB  HZ I        1513 18.43        10.2 0.16            132            149 260 
 ZAR  HZ EP       1512 57.50                             121   -0.15 8  207 292 
 ZAR  HN ES       1513 22.98                             121   -0.00 8  207 292 
 NOR  HZ EP       1513  0.50                             118   -0.24 8  235 235 
 NOR  HN ES       1513 28.85                             118    0.37 8  235 235 
 NOR  HZ I        1513 34.64        12.5 0.26            120            235 235 
 CHI  HZ EP       1513  2.31                             116   -0.20 8  247 196 
 CHI  HN ES       1513 32.07                             116    0.44 8  247 196 
 CHI  HZ I        1513 37.70         5.3 0.22            119            247 196 
 GUY2CHZ EP       1513  9.22                             111    0.56 7  302 235 
 GUY2CHN ES       1513 43.26                             111    0.68 7  302 235 
 GUY2CHZ  IAML    1513 50.94         9.0 0.40                           302 235 
                                                                                
