 2016  117 1904 48.8 L   6.846 -73.207134.7  RSN  7 0.4 1.7LRSN                1
 GAP=150        1.09       6.1     5.7  7.7 -0.1870E+02  0.1715E+02 -0.2727E+00E
 Epicentro: ZAPATOCA - SANTANDER                                               3
 ACTION:UPD 16-03-09 23:26 OP:cam  STATUS:               ID:20160117190448 L   I
 OLDACT:REG 16-01-17 20:20 OP:drio STATUS:               ID:20160117185749     3
 2016-01-17-1857-49M.COL___325                                                 6
 STAT SP IPHASW D HRMM SECON CODA AMPLIT PERI AZIMU VELO AIN AR TRES W  DIS CAZ7
 BAR2 EZ ES       19 5 22.30                             168    0.7010 28.2 174 
 BAR2 EZ I        19 5 23.78        14.7 0.20            170           28.2 174 
 PAM  EZ EP       19 5 10.35                             148    0.4310 78.2  46 
 PAM  EN ES       19 5 25.65                             148   -0.7310 78.2  46 
 PAM  EZ I        19 5 29.44         8.2 0.52            153           78.2  46 
 RUS  HZ EP       19 5 11.67                             140   -0.2710  106 173 
 RUS  HN ES       19 5 30.03                             140    0.0510  106 173 
 RUS  HZ I        19 5 31.08         5.9 0.20            146            106 173 
 PTB  HZ EP   4   19 5 11.84                             131   -2.54 0  142 256 
 PTB  HE ES       19 5 34.47                             131    0.15 9  142 256 
 PTB  HZ I        19 5 42.29         6.2 0.56            131            142 256 
 SPBC HZ EP       19 5 16.68                             126    0.20 9  163 216 
 SPBC HE ES       19 5 37.66                             126   -0.40 9  163 216 
 SPBC HZ I        19 5 41.02        12.3 0.18            129            163 216 
 NOR  HZ EP       19 5 23.40                             116   -0.26 8  232 232 
 NOR  HE ES       19 5 50.27                             116   -0.57 8  232 232 
 NOR  HZ I        19 5 56.30         4.2 0.20            119            232 232 
 GUY2CHZ EP       19 5 32.32                             110    0.67 7  299 233 
 GUY2CHN ES       19 6  5.12                             110    0.06 7  299 233 
 GUY2CHZ I        19 6 13.75         2.4 0.26                           299 233 
                                                                                
