 2013  217 1427  0.6 L   6.769 -73.113138.0  RSN  7 0.3 1.8LRSN                1
 GAP=142        0.55       3.0     5.0  5.1  0.2330E+01  0.6957E+01  0.6140E+00E
 Epicentro: LOS SANTOS - SANTANDER                                             3
 ACTION:UPD 13-03-12 09:33 OP:ep   STATUS:               ID:20130217142659 L   I
 2013-02-17-1420-00M.COL___241                                                 6
 STAT SP IPHASW D HRMM SECON CODA AMPLIT PERI AZIMU VELO AIN AR TRES W  DIS CAZ7
 BAR2 SZ EP   1   1427 19.29                             171    0.03 7 21.0 201 
 BAR2 SZ ES   1   1427 33.91                             171    0.10 7 21.0 201 
 BAR2 SZ I        1427 35.38        13.1 0.50            169           21.0 201 
 BRR  HZ EP   1   1427 21.00                             149   -0.22 7 76.0 300 
 BRR  HN ES   2   1427 37.58                             149    0.29 5 76.0 300 
 BRR  HN I        1427 38.15        17.0 0.30            151           76.0 300 
 PAM  SZ IP   1   1427 21.76                             149   -0.28 7 77.9  36 
 PAM  SZ EP   1   1427 21.81                             150           77.9  36 
 PAM  SE ES   2   1427 38.68                             149   -0.07 5 77.9  36 
 PAM  SE I        1427 40.70         7.5 0.48            151           77.9  36 
 RUS  HZ EP   1   1427 23.19                             143   -0.15 7 96.9 178 
 RUS  HN ES   1   1427 41.14                             143    0.07 7 96.9 178 
 RUS  HN I        1427 42.69         5.4 0.18            142           96.9 178 
 OCA  HN ES   2   1427 50.71                             127    0.09 5  164 352 
 OCA  HN I        1427 51.64        31.8 0.20            129            164 352 
 ZAR  HZ EP   1   1427 33.67                             120    0.62 6  209 293 
 ZAR  HN ES   2   1427 57.64                             120   -0.71 4  209 293 
 ZAR  HN I        1427 58.27         7.2 0.18            121            209 293 
 CHI  HZ EP   1   1427 38.03                             116    0.40 6  246 196 
 CHI  HN ES   2   1428  5.93                             116   -0.58 4  246 196 
 CHI  HN I        1428 12.77         4.4 0.36            116            246 196 
                                                                                
