 2013  217 1005 53.8 L   6.788 -73.142142.7  RSN  9 0.6 2.3LRSN                1
 GAP=138        1.13       4.5     6.3  8.1  0.1551E+01  0.1503E+02  0.2472E+00E
 Epicentro: LOS SANTOS - SANTANDER                                             3
 ACTION:UPD 13-03-12 09:33 OP:ep   STATUS:               ID:20130217100553 L   I
 2013-02-17-1000-00M.COL___241                                                 6
 STAT SP IPHASW D HRMM SECON CODA AMPLIT PERI AZIMU VELO AIN AR TRES W  DIS CAZ7
 BAR2 SZ EP   1   10 6 13.02                             171   -0.05 7 22.1 192 
 BAR2 SZ ES   1   10 6 27.67                             171   -0.39 7 22.1 192 
 BAR2 SZ I        10 6 30.32        49.8 0.28            173           22.1 192 
 BRR  HZ EP       10 6 14.96                             152    0.2610 72.2 299 
 BRR  HN ES   1   10 6 31.80                             152    0.82 7 72.2 299 
 BRR  HN I        10 6 32.00        64.5 0.24            145           72.2 299 
 PAM  SZ EP       10 6 15.98                             150    0.2210 78.1  39 
 PAM  SN ES   1   10 6 33.00                             150    0.13 7 78.1  39 
 PAM  SN I        10 6 33.86        19.9 0.24            141           78.1  39 
 RUS  HZ EP   1   10 6 17.31                             144    0.13 7 99.3 176 
 RUS  HN ES   1   10 6 35.12                             144   -0.28 7 99.3 176 
 RUS  HN I        10 6 37.11        32.5 0.26            140           99.3 176 
 OCA  HZ EP   1   10 6 21.69                             129   -0.34 7  162 353 
 OCA  HN I        10 6 47.39        30.9 0.22            120            162 353 
 ZAR  HZ EP   1   10 6 27.14                             122    0.97 6  205 292 
 ZAR  HN ES   1   10 6 51.58                             122    0.19 6  205 292 
 ZAR  HN I        10 6 56.50        21.6 0.24            115            205 292 
 SML  HZ EP   1   10 6 29.83                             117   -0.60 6  245 335 
 SML  HN ES   1   10 6 57.32                             117   -1.66 6  245 335 
 SML  HN I        10 7  2.14        24.2 0.10            110            245 335 
 CHI  HZ EP       10 6 31.32                             117    0.08 8  247 195 
 CHI  HN ES   1   10 6 59.63                             117   -0.78 6  247 195 
 CHI  HN I        10 7  4.95         8.9 0.26            111            247 195 
 HEL  HZ EP   1   10 6 34.81                             114    0.91 6  272 256 
 HEL  HN ES   1   10 7  4.32                             114   -0.83 6  272 256 
 HEL  HN I        10 7 12.35         6.2 0.24            109            272 256 
                                                                                
