 2010  317 1603 56.4 L   6.808 -73.050142.7  RSN  4 0.1 1.8LRSN                1
 GAP=248        0.35       3.4     6.7  3.5  0.1228E+02  0.2534E-01  0.3114E+01E
 Epicentro: LOS SANTOS - SANTANDER                                             3
 ACTION:UP  10-08-24 09:54 OP:vdl  STATUS:               ID:20100317160356 L   I
 2010-03-17-1601-56S.COL___099                                                 6
 STAT SP IPHASW D HRMM SECON CODA AMPLIT PERI AZIMU VELO SNR AR TRES W  DIS CAZ7
 BAR2 SZ IP       16 4 15.88                             168     0.110   28 212 
 BAR2 SZ ES   1   16 4 30.70                             168    -0.2 7   28 212 
 BRR  HZ IP       16 4 17.67                             149    -0.110   80 294 
 BRR  HZ I        16 4 19.26        19.3 0.30                            80 294 
 BRR  HN ES   1   16 4 34.50                             149     0.1 7   80 294 
 RUS  HZ EP   2   16 4 19.96                             143     0.1 5  101 182 
 RUS  HZ I        16 4 21.08         5.9 0.13                           101 182 
 RUS  HN ES   2   16 4 38.32                             143     0.1 5  101 182 
 CHI  HZ IP       16 4 34.25                             116    -0.1 8  252 197 
 CHI  HE ES   2   16 5  4.02                             116     0.1 4  252 197 
 CHI  HZ I        16 5 14.32         4.9 0.60                           252 197 
                                                                                
