 2014  617 1104  8.4 L   7.476 -73.151136.5  RSN  4 0.3 2.0LRSN                1
 GAP=194        0.86       3.8     6.7  8.7  0.8798E+01  0.2057E+02  0.2546E+01E
 Epicentro: EL PLAYON - SANTANDER                                              3
 ACTION:UPD 14-07-01 22:54 OP:nd   STATUS:               ID:20140617110408 L   I
 OLDACT:REG 14-06-17 21:20 OP:carl STATUS:               ID:20140617105818     3
 2014-06-17-1058-18M.COL___259                                                 6
 STAT SP IPHASW D HRMM SECON CODA AMPLIT PERI AZIMU VELO AIN AR TRES W  DIS CAZ7
 OCA  HN ES       11 4 46.80                             146    0.4410 86.3 348 
 BAR2 SZ EP       11 4 30.61                             142   -0.0410 97.8 182 
 BAR2 SZ ES       11 4 47.80                             142   -0.2310 97.8 182 
 BAR2 SZ I        11 4 48.19        18.2 0.14            143           97.8 182 
 SML  HZ EP       11 4 37.56                             124    0.03 9  178 325 
 SML  HN ES       11 4 59.59                             124   -0.69 9  178 325 
 SML  HZ I        11 5  1.57        11.5 0.10            124            178 325 
 ZAR  HZ EP       11 4 38.90                             122    0.31 9  188 271 
 ZAR  HN ES       11 5  2.30                             122    0.14 9  188 271 
 ZAR  HZ I        11 5  5.28        12.1 0.44            122            188 271 
                                                                                
