 2011  217 1034 11.6 L   6.768 -72.997145.1  RSN  5 0.4 1.5LRSN                1
 GAP=176        0.84       7.8    27.9 10.6 -0.1463E+03 -0.1345E+03  0.1211E+02E
 Epicentro: CEPITA - SANTANDER                                                 3
 ACTION:UP  11-03-28 15:09 OP:jfem STATUS:               ID:20110217103411 L   I
 2011-02-17-1032-12S.COL___137                                                 6
 STAT SP IPHASW D HRMM SECON CODA AMPLIT PERI AZIMU VELO SNR AR TRES W  DIS CAZ7
 BAR2 SZ EP       1034 30.85                             167    -0.410   28 227 
 BAR2 SZ ES   1   1034 46.50                             167    -0.1 7   28 227 
 BAR2 SZ I        1034 48.87        13.9 0.43                            28 227 
 BTL  SZ IP       1034 32.02                             163     0.610   34 299 
 BTL  SZ ES   2   1034 46.53                                    -0.4 5   34 299 
 GIR2 SZ EP   3   1034 30.77                                    -0.7 2   41 328 
 RUS  HZ EP   2   1034 34.97                             145    -0.1 5   97 186 
 RUS  HN ES   2   1034 53.75                             145     0.4 5   97 186 
 RUS  HZ I        1034 54.70         3.4 0.24                            97 186 
 GRA  SZ IP       1034 36.68                             137    -0.110  125  10 
 GRA  SZ ES   1   1034 56.45                             137     0.1 7  125  10 
 GRA  SZ I        1034 57.76         3.2 0.29                           125  10 
                                                                                
