 2016 1017 1514 40.4 L   6.783 -73.121139.4  RSN  6 0.5 1.8LRSN                1
 GAP=140        1.35       6.2     6.6  9.9 -0.9849E+01  0.9056E+01  0.2870E+01E
 Epicentro: LOS SANTOS - SANTANDER                                             3
 ACTION:UPD 16-11-09 19:20 OP:rebc STATUS:               ID:20161017151440 L   I
 OLDACT:UP  16-10-18 00:55 OP:ar   STATUS:               ID:20161017150733d    3
 OLDACT:DUP 16-10-18 00:51 OP:ar   STATUS:               ID:20161017150733d    3
 2016-10-17-1508-00M.COL___358                                                 6
 STAT SP IPHASW D HRMM SECON CODA AMPLIT PERI AZIMU VELO AIN AR TRES W  DIS CAZ7
 BAR2 EZ EP       1514 59.22                             171   -0.0410 22.2 198 
 BAR2 EZ ES       1515 14.19                             171    0.2310 22.2 198 
 BAR2 EZ I        1515 15.43        13.6 0.38            163           22.2 198 
 BRR  HZ EP       1515  1.11                             150    0.0310 74.5 299 
 BRR  HE ES       1515 17.89                             150    0.6910 74.5 299 
 BRR  HZ I        1515 20.95        16.3 0.32            141           74.5 299 
 PAM  EZ EP       1515  2.20                             150    0.2510 77.1  37 
 PAM  EN ES       1515 18.34                             150   -0.4010 77.1  37 
 RUS  HZ EP       1515  3.57                             143    0.1710 98.6 178 
 RUS  HE ES       1515 20.73                             143   -0.6010 98.6 178 
 PTB  HZ EP       1515  6.97                             130   -0.12 9  150 260 
 PTB  HE ES       1515 26.82                             130   -1.08 9  150 260 
 PTB  HZ I        1515 31.94         5.0 0.12            120            150 260 
 SPBC HZ EP   4   1515  2.14                             127   -6.33 0  163 220 
 SPBC HZ I        1515 30.54        11.4 0.24            117            163 220 
 SPBC HN ES       1515 31.22                             127    0.87 9  163 220 
                                                                                
