 2014  717 1738 34.7 L   6.778 -73.177143.2  RSN  7 0.5 1.8LRSN                1
 GAP= 99        1.23       6.1     4.8  8.2  0.3508E+01  0.2923E+00  0.1547E+01E
 Epicentro: LOS SANTOS - SANTANDER                                             3
 ACTION:UPD 15-03-16 20:44 OP:nd   STATUS:               ID:20140717173834 L   I
 OLDACT:DUP 14-07-18 01:07 OP:stll STATUS:               ID:20140717172819d    3
 2014-07-17-1728-17M.COL___272                                                 6
 STAT SP IPHASW D HRMM SECON CODA AMPLIT PERI AZIMU VELO AIN AR TRES W  DIS CAZ7
 BAR2 SZ EP       1738 54.27                             171    0.2910 20.5 182 
 BAR2 SZ ES       1739  9.15                             171    0.1410 20.5 182 
 BAR2 SZ I        1739 10.61        13.8 0.42            171           20.5 182 
 BRR  HZ EP       1738 55.93                             153    0.4510 69.4 302 
 BRR  HN ES       1739 12.50                             153    0.8210 69.4 302 
 BRR  HZ I        1739 13.23        15.8 0.12            154           69.4 302 
 PAM  SZ EP       1738 56.79                             149   -0.1110 81.5  40 
 PAM  SN ES       1739 13.46                             149   -0.7610 81.5  40 
 PAM  SZ I        1739 16.14         8.1 0.62            151           81.5  40 
 RUS  HZ EP       1738 58.38                             144    0.3310 98.4 174 
 RUS  HN ES       1739 16.14                             144   -0.1210 98.4 174 
 RUS  HZ I        1739 18.65         5.6 0.18            145           98.4 174 
 PTB  HZ EP       1739  0.62                             132   -0.49 9  144 260 
 PTB  HN ES       1739 20.88                             132   -0.83 9  144 260 
 PTB  HZ I        1739 24.19        13.3 0.14            134            144 260 
 TAM  HZ EP       1739  2.52                             129    0.08 9  158 104 
 ZAR  HN ES       1739 31.84                             122    0.09 9  202 293 
                                                                                
