 2016  817 1738  5.1 L   7.252 -73.516111.8  RSN  6 0.5 1.9LRSN                1
 GAP=233        1.22       8.9     7.0  9.8  0.3908E+02  0.8490E+01 -0.5208E+01E
 Epicentro: SABANA DE TORRES - SANTANDER                                       3
 ACTION:UPD 16-10-29 15:36 OP:rebc STATUS:               ID:20160817173805 L   I
 OLDACT:REG 16-08-17 20:58 OP:dnl  STATUS:               ID:20160817172735     3
 2016-08-17-1728-00M.COL___365                                                 6
 STAT SP IPHASW D HRMM SECON CODA AMPLIT PERI AZIMU VELO AIN AR TRES W  DIS CAZ7
 BRR  HZ EP       1738 19.87                             166   -0.5010 27.0 234 
 BRR  HN ES       1738 31.85                             166   -0.4610 27.0 234 
 BRR  HZ I        1738 33.27        16.9 0.18                          27.0 234 
 BAR2 EZ EP       1738 23.98                             142    0.2110 81.7 153 
 BAR2 EZ ES       1738 39.24                             142    0.8810 81.7 153 
 PTB  HZ EP       1738 27.60                             127   -0.1710  130 233 
 PTB  HN ES       1738 45.45                             127   -0.0310  130 233 
 PTB  HZ I        1738 50.53        12.8 0.14                           130 233 
 ZAR  HZ EP       1738 29.61                             122   -0.17 9  151 280 
 ZAR  HE ES       1738 49.75                             122    0.69 9  151 280 
 ZAR  HZ I        1738 51.23        19.6 0.32                           151 280 
 RUS  HZ EP   3   1738 32.40                             122    1.24 2  158 162 
 RUS  HE ES       1738 50.96                             122   -0.55 9  158 162 
 URE  HZ EP   4   1738 32.84                             111   -5.58 0  229 284 
 URE  HE ES   4   1739  1.70                             111   -2.74 0  229 284 
 URE  HZ I        1739  5.40         7.2 0.12                           229 284 
                                                                                
