 2010  817 1235 57.0 L   6.808 -73.050144.8  RSN  7 0.4 1.7LRSN                1
 GAP=169        0.99       4.8    10.9  9.3 -0.1492E+02 -0.1823E+02  0.5450E+01E
 Epicentro: LOS SANTOS - SANTANDER                                             3
 ACTION:UP  10-09-07 10:55 OP:vdl  STATUS:               ID:20100817123557 L   I
 2010-08-17-1233-19S.COL___110                                                 6
 STAT SP IPHASW D HRMM SECON CODA AMPLIT PERI AZIMU VELO SNR AR TRES W  DIS CAZ7
 BAR2 SZ EP   1   1236 16.41                             168    -0.2 7   28 212 
 BAR2 SZ ES   2   1236 31.41                             168    -0.5 5   28 212 
 BAR2 SZ I        1236 32.79        14.7 0.24                            28 212 
 BRR  HZ EP       1236 18.44                             149    -0.110   80 294 
 BRR  HZ I        1236 18.68        10.8 0.15                            80 294 
 BRR  HN ES   1   1236 35.71                             149     0.3 7   80 294 
 RUS  HZ EP   1   1236 20.73                             143     0.1 7  101 182 
 RUS  HE ES   1   1236 39.68                             143     0.5 7  101 182 
 RUS  HZ I        1236 40.96         5.1 0.43                           101 182 
 GUE  SZ EP   1   1236 21.14                             140    -0.2 7  114   7 
 GRA  SZ EP       1236 22.42                             138     0.610  122  13 
 GRA  SZ ES   1   1236 40.59                             138    -0.6 7  122  13 
 GRA  SZ I        1236 43.65         7.3 0.38                           122  13 
 CHI  HZ EP   1   1236 34.71                             116    -0.3 6  252 197 
 CHI  HE ES   2   1237  3.68                             116    -1.0 4  252 197 
 CHI  HZ I        1237  7.61         3.5 0.58                           252 197 
 PRA  HZ EP   1   1236 51.23                             106     0.1 4  398 211 
 PRA  HZ I        1237 35.59         2.4 0.41                           398 211 
                                                                                
