 2010  217 1203 27.6 L   6.808 -72.984139.6  RSN  8 0.5 2.1LRSN                1
 GAP=199        0.74       4.4    11.3  7.5 -0.1617E+02  0.2943E+02  0.4589E+01E
 Epicentro: CEPITA - SANTANDER                                                 3
 ACTION:UP  10-08-24 09:49 OP:vdl  STATUS:               ID:20100217120327 L   I
 2010-02-17-1201-32S.COL___094                                                 6
 STAT SP IPHASW D HRMM SECON CODA AMPLIT PERI AZIMU VELO SNR AR TRES W  DIS CAZ7
 BAR2 SZ IP       12 3 46.81                             166     0.010   32 223 
 BAR2 SZ ES   2   12 4  1.27                             166    -0.4 5   32 223 
 GIR2 SZ EP   1   12 3 46.90                             164     0.1 7   38 322 
 GIR2 SZ ES   2   12 4  1.72                             164     0.0 5   38 322 
 RUS  BZ EP   1   12 3 50.79                             142    -0.1 7  102 186 
 RUS  BN ES   2   12 4  9.60                             142     0.6 5  102 186 
 RUS  BZ I        12 4 11.05        15.1 0.42                           102 186 
 OCA  SZ EP   1   12 3 55.44                             128    -0.3 7  163 347 
 OCA  SZ ES   2   12 4 17.76                             128     0.2 5  163 347 
 CHI  HZ EP   1   12 4  5.23                             115    -0.4 6  255 199 
 CHI  HN ES   2   12 4 35.17                             115    -0.2 4  255 199 
 CHI  HZ I        12 4 37.58         6.3 0.63                           255 199 
 RREF BZ EP   1   12 4 16.28                             109     1.1 5  336 231 
 RREF BE ES   2   12 4 51.47                             109    -0.8 3  336 231 
 RREF BZ I        12 4 54.97         7.4 0.70                           336 231 
 TOL  SZ EP   1   12 4 17.90                             107     0.7 5  357 227 
 TOL  SZ ES   2   12 4 55.67                             107    -0.2 3  357 227 
 PRA  HZ EP   1   12 4 21.13                             105    -1.0 4  402 212 
 PRA  HN ES   2   12 5  4.86                             105     0.3 3  402 212 
 PRA  HZ I        12 5  8.80         6.3 0.51                           402 212 
                                                                                
