 2013  217 1709 25.2 L   6.755 -73.137146.2  RSN  8 0.4 2.0LRSN                1
 GAP=140        0.60       3.5     5.3  8.0 -0.1851E+00  0.4694E+01  0.7464E+01E
 Epicentro: LOS SANTOS - SANTANDER                                             3
 ACTION:UPD 13-03-12 09:33 OP:ep   STATUS:               ID:20130217170925 L   I
 2013-02-17-1707-48M.COL___195                                                 6
 STAT SP IPHASW D HRMM SECON CODA AMPLIT PERI AZIMU VELO AIN AR TRES W  DIS CAZ7
 BAR2 SZ EP   1   17 9 44.74                             172   -0.02 7 18.7 196 
 BAR2 SZ I        1710 11.17         8.4 0.20            171           18.7 196 
 BRR  HZ EP   1   17 9 46.98                             151    0.43 7 74.5 302 
 BRR  HN ES   2   1710  3.47                             151    0.24 5 74.5 302 
 BRR  HN I        1710  8.12        42.9 0.18            151           74.5 302 
 PAM  SZ EP   1   17 9 47.63                             150    0.00 7 80.7  37 
 PAM  SN ES   2   1710  4.68                             150   -0.47 5 80.7  37 
 PAM  SN I        1710  6.03         8.5 0.46            149           80.7  37 
 RUS  HZ EP   1   17 9 48.59                             145   -0.01 7 95.6 176 
 RUS  HN ES   2   1710  7.04                             145    0.15 5 95.6 176 
 RUS  HN I        1710  8.68         5.4 0.34            143           95.6 176 
 PTB  HZ EP   1   17 9 51.93                             132   -0.24 7  148 261 
 PTB  HN ES   2   1710 13.27                             132    0.03 5  148 261 
 PTB  HN I        1710 17.86        17.2 0.18            130            148 261 
 OCA  HN ES   2   1710 16.87                             129    0.41 5  165 353 
 OCA  HN I        1710 19.73        45.0 0.44            128            165 353 
 CHI  HZ EP   1   1710  2.75                             118    0.35 6  244 196 
 CHI  HN ES   2   1710 30.50                             118   -0.94 4  244 196 
 CHI  HN I        1710 37.14         4.1 0.50            116            244 196 
 SML  HN ES   2   1710 30.36                             117   -0.99 4  249 336 
 SML  HN I        1710 35.79        24.2 0.10            116            249 336 
                                                                                
