 2016 1217 1148 56.3 L   7.369 -73.230126.0  RSN  9 0.3 2.0LRSN                1
 GAP=179        0.81       4.1     2.6  4.9  0.1961E+01  0.1324E+01 -0.7441E+00E
 Epicentro: EL PLAYON - SANTANDER                                              3
 ACTION:UPD 17-01-11 20:16 OP:rebc STATUS:               ID:20161217114857dL   I
 OLDACT:REG 16-12-17 19:35 OP:edw  STATUS:               ID:20161217114751     3
 2016-12-17-1148-00M.COL___369                                                 6
 STAT SP IPHASW D HRMM SECON CODA AMPLIT PERI AZIMU VELO AIN AR TRES W  DIS CAZ7
 PAM  EZ EP       1149 15.14                             154   -0.1910 58.6  93 
 PAM  EN ES       1149 30.36                             154    0.2010 58.6  93 
 PAM  EZ I        1149 33.58        14.4 0.40            154           58.6  93 
 BRR  HZ EP       1149 14.56                             153   -0.1710 60.6 241 
 BRR  HE ES       1149 29.27                             153    0.1810 60.6 241 
 BRR  HZ I        1149 30.75        30.1 0.12            146           60.6 241 
 BAR2 EZ IP       1149 16.88                             144    0.1610 86.1 177 
 BAR2 EZ ES       1149 32.95                             144    0.3210 86.1 177 
 BAR2 EZ I        1149 34.28        56.4 0.34            138           86.1 177 
 PTB  HZ EP       1149 23.96                             124    0.63 9  164 236 
 PTB  HE ES       1149 43.73                             124   -0.67 9  164 236 
 PTB  HZ I        1149 47.98         7.7 0.20            121            164 236 
 RUS  HZ EP       1149 23.68                             124   -0.32 9  164 174 
 RUS  HN ES       1149 45.46                             124   -0.13 9  164 174 
 RUS  HZ I        1149 47.51         3.8 0.40            121            164 174 
 ZAR  HZ EP       1149 24.81                             121   -0.22 9  180 274 
 ZAR  HE ES       1149 47.42                             121    0.00 9  180 274 
 ZAR  HZ I        1149 51.52        22.0 0.44            120            180 274 
 TAM  HZ IP       1149 26.18                             120    0.13 9  190 123 
 TAM  HN ES       1149 48.89                             120   -0.35 9  190 123 
 TAM  HZ I        1149 50.42        14.9 0.24            118            190 123 
 LL6C HZ EP   4   1149 12.57                             111   -21.4 0  262 359 
 LL6C HE ES   4   1149 40.65                             111   -22.7 0  262 359 
 CHI  HZ EP   9   1149 41.32                             108    1.52 0  308 190 
 CHI  HE ES       1150 15.57                                    0.33 7  308 190 
 CHI  HZ I        1150 29.03         5.0 0.50            106            308 190 
 GUY2CHZ EP       1149 43.56                             106    0.56 7  335 225 
 GUY2CHN ES   4   1150 16.58                             106   -2.83 0  335 225 
 GUY2CHZ I        1150 21.77         6.5 0.60                           335 225 
                                                                                
