 2017  217 1158 34.0 L   6.793 -73.156141.4  RSN  7 0.4 1.6LRSN                1
 GAP=136        1.03       4.0     4.5  6.4  0.2211E+01  0.7272E+01  0.4507E+01E
 Epicentro: LOS SANTOS - SANTANDER                                             3
 ACTION:UPD 17-05-24 15:37 OP:jn   STATUS:               ID:20170217115834 L   I
 OLDACT:DUP 17-02-17 22:38 OP:dani STATUS:               ID:20170217114741d    3
 OLDACT:UP  17-02-17 22:26 OP:dani STATUS:               ID:20170217114740     3
 OLDACT:UP  17-02-17 22:25 OP:dani STATUS:               ID:20170217114740     3
 OLDACT:UP  17-02-17 22:25 OP:dani STATUS:               ID:20170217114740     3
 OLDACT:REG 17-02-17 20:27 OP:dani STATUS:               ID:20170217114740     3
 2017-02-17-1148-00M.COL___343                                                 6
 STAT SP IPHASW D HRMM SECON CODA AMPLIT PERI AZIMU VELO AIN AR TRES W  DIS CAZ7
 BAR2 EZ EP       1158 52.69                             171   -0.4210 22.3 187 
 BAR2 EZ ES       1159  7.25                             171   -0.7510 22.3 187 
 BAR2 EZ I        1159 10.79        11.4 0.32            167           22.3 187 
 BRR  HZ EP       1158 54.84                             152    0.1710 70.6 300 
 BRR  HN ES       1159 11.31                             152    0.5410 70.6 300 
 BRR  HZ I        1159 13.10         6.7 0.23            151           70.6 300 
 PAM  EZ EP       1158 55.87                             150    0.0110 78.8  40 
 PAM  EE ES       1159 13.18                             150    0.2910 78.8  40 
 PAM  EZ I        1159 15.15         7.6 0.50            155           78.8  40 
 RUS  HZ EP       1158 57.16                             143   -0.1410 99.9 175 
 RUS  HN ES       1159 15.76                             143    0.3110 99.9 175 
 RUS  HZ I        1159 16.87         6.5 0.34            143           99.9 175 
 PTB  HZ EP       1159  0.01                             131   -0.51 9  146 259 
 PTB  HN ES       1159 20.89                             131   -0.30 9  146 259 
 PTB  HZ I        1159 26.47         2.8 0.18            131            146 259 
 ZAR  HZ EP       1159  6.36                             121    0.25 9  203 292 
 ZAR  HN ES       1159 31.22                             121    0.09 9  203 292 
 ZAR  HZ I        1159 37.09         5.9 0.08            122            203 292 
 CHI  HZ EP       1159 11.27                             116   -0.10 8  248 195 
 CHI  HN ES       1159 41.29                             116    0.80 8  248 195 
 CHI  HZ I        1159 50.57         1.6 0.43            117            248 195 
                                                                                
