 2014  317 1554 37.2 L   6.760 -73.138146.4  RSN  7 0.4 1.9LRSN                1
 GAP=139        0.86       5.6     4.4  6.7 -0.4815E+01  0.6029E+01  0.7903E+00E
 Epicentro: LOS SANTOS - SANTANDER                                             3
 OLDACT:REG 14-03-17 16:00 OP:fm   STATUS:               ID:20140317154816     3
 ACTION:UPD 14-04-09 23:18 OP:nd   STATUS:               ID:20140317155437 L   I
 OLDACT:UP  14-03-17 20:33 OP:fm   STATUS:               ID:20140317154816     3
 2014-03-17-1548-16M.COL___251                                                 6
 STAT SP IPHASW D HRMM SECON CODA AMPLIT PERI AZIMU VELO AIN AR TRES W  DIS CAZ7
 BAR2 SZ EP       1554 56.91                             172    0.1210 19.2 195 
 BAR2 SZ ES   2   1555 12.06                             172   -0.04 5 19.2 195 
 BAR2 SZ I        1555 13.86        14.8 0.12            171           19.2 195 
 BRR  HZ EP       1554 58.66                             152    0.1110 74.2 301 
 BRR  HN ES       1555 15.70                             152    0.4710 74.2 301 
 BRR  SZ I        1555 17.90        14.9 0.60            150           74.2 301 
 PAM  SZ EP     C 1554 59.66                             150    0.0410 80.3  37 
 PAM  SN ES       1555 16.68                             150   -0.4510 80.3  37 
 PAM  SZ I        1555 18.14         6.8 0.14            154           80.3  37 
 RUS  HZ EP   2   1555  0.97                             145    0.31 5 96.1 176 
 RUS  HN ES   2   1555 19.65                             145    0.67 5 96.1 176 
 RUS  SZ I        1555 20.72         8.8 0.38            148           96.1 176 
 PTB  HZ EP       1555  3.78                             132   -0.41 9  148 261 
 PTB  HN ES       1555 24.69                             132   -0.58 9  148 261 
 PTB  SZ I        1555 29.82        10.5 0.18            132            148 261 
 ZAR  HZ EP       1555 10.35                             122    0.44 8  207 293 
 ZAR  HE ES   2   1555 35.71                             122    0.26 4  207 293 
 ZAR  SZ I        1555 41.36        10.8 0.30            123            207 293 
 NOR  HN ES   4   1555 41.79                             119    1.31 0  233 235 
 SML  HZ EP   2   1555 13.42                             117   -0.88 4  248 336 
 SML  HN ES   2   1555 43.88                             117    0.62 4  248 336 
 SML  SZ I        1555 45.15        10.0 0.06            119            248 336 
                                                                                
