 2017  617 1035  1.9 L   6.788 -73.187151.0  RSN  5 0.4 1.5LRSN                1
 GAP=277        0.63       3.8     6.3  6.3  0.1618E+01 -0.8720E+01  0.1900E+01E
 Epicentro: ZAPATOCA - SANTANDER                                               3
 ACTION:UPD 17-09-14 16:52 OP:jn   STATUS:               ID:20170617103501 L   I
 OLDACT:UP  17-06-17 21:23 OP:dani STATUS:               ID:20170617102743     3
 OLDACT:UP  17-06-17 21:23 OP:dani STATUS:               ID:20170617102743     3
 OLDACT:UP  17-06-17 21:22 OP:dani STATUS:               ID:20170617102743     3
 OLDACT:UP  17-06-17 21:21 OP:dani STATUS:               ID:20170617102743     3
 OLDACT:REG 17-06-17 19:59 OP:dani STATUS:               ID:20170617102743     3
 2017-06-17-1028-00M.COL___344                                                 6
 STAT SP IPHASW D HRMM SECON CODA AMPLIT PERI AZIMU VELO AIN AR TRES W  DIS CAZ7
 BRR  HZ EP       1035 23.63                             155    0.1610 67.9 301 
 BRR  HN ES       1035 40.36                             155    0.0910 67.9 301 
 BRR  HZ I        1035 44.21         8.2 0.36            152           67.9 301 
 PTB  HZ EP   2   1035 28.39                             135   -0.52 5  143 259 
 PTB  HN ES       1035 49.73                             135   -0.22 9  143 259 
 PTB  HZ I        1035 54.24         2.7 0.21            134            143 259 
 SPBC HZ EP       1035 30.78                             131    0.31 9  159 218 
 SPBC HN ES       1035 52.52                             131   -0.21 9  159 218 
 SPBC HZ I        1035 58.82         4.2 0.22            131            159 218 
 ZAR  HZ EP       1035 34.05                             124   -0.29 9  200 293 
 ZAR  HN ES       1035 59.78                             124    0.16 9  200 293 
 ZAR  HZ I        1036  5.65         3.4 0.26            125            200 293 
 NOR  HN ES   3   1036  6.95                             120    1.73 2  230 234 
                                                                                
