 2013  217 1046 23.1 L   6.841 -73.281124.0  RSN  9 0.6 2.0LRSN                1
 GAP=109        1.03       3.5     5.2  7.5  0.7433E+00  0.2866E+00 -0.1020E+01E
 Epicentro: ZAPATOCA - SANTANDER                                               3
 ACTION:UPD 13-03-12 09:33 OP:ep   STATUS:               ID:20130217104623 L   I
 2013-02-17-1040-00M.COL___241                                                 6
 STAT SP IPHASW D HRMM SECON CODA AMPLIT PERI AZIMU VELO AIN AR TRES W  DIS CAZ7
 BAR2 SZ EP       1046 40.51                             166    0.2710 29.6 158 
 BAR2 SZ ES   1   1046 53.46                             166   -0.19 7 29.6 158 
 BAR2 SZ I        1046 54.69        42.1 0.20            169           29.6 158 
 BRR  HZ EP   1   1046 40.85                             154   -0.15 7 56.0 302 
 BRR  HN ES       1046 54.99                             154   -0.0110 56.0 302 
 BRR  HN I        1046 55.49        64.8 0.16            153           56.0 302 
 PAM  SZ EP   1   1046 44.32                             144    0.81 7 84.6  49 
 PAM  SN ES   2   1046 59.24                             144   -0.23 5 84.6  49 
 PAM  SN I        1047  2.94         9.9 0.36            143           84.6  49 
 RUS  HZ EP   1   1046 45.80                             137    0.53 7  107 168 
 RUS  HN ES   1   1047  2.89                             137    0.29 7  107 168 
 RUS  HN I        1047  4.25         8.9 0.50            139            107 168 
 PTB  HN ES       1047  5.80                             129    0.0610  134 256 
 PTB  HN I        1047  8.45         6.0 0.24            130            134 256 
 OCA  HZ EP   1   1046 48.68                             125   -0.53 7  155 358 
 OCA  HN ES   1   1047  8.41                             125   -1.20 7  155 358 
 OCA  HN I        1047 12.55        23.7 0.54            124            155 358 
 ZAR  HZ EP   1   1046 52.68                             119    0.17 7  189 293 
 ZAR  HE ES   2   1047 16.12                             119    0.63 4  189 293 
 ZAR  HE I        1047 18.23        15.8 0.18            119            189 293 
 SML  HZ EP   1   1046 56.93                             114   -0.50 6  234 338 
 SML  HN ES   2   1047 25.94                             114    1.70 4  234 338 
 SML  HN I        1047 31.52        19.5 0.10            113            234 338 
 CHI  HE IS   2   1047 27.82                             112   -0.56 4  250 192 
 CHI  HE ES       1047 27.82                             112   -0.56 8  250 192 
                                                                                
