 2014  917 1850  6.2 L   6.801 -73.127149.4  RSN  5 0.2 1.5LRSN                1
 GAP=202        0.45       3.1     3.2  4.8  0.4068E+01 -0.9565E+00 -0.6126E+01E
 Epicentro: LOS SANTOS - SANTANDER                                             3
 ACTION:UPD 14-10-03 23:06 OP:nd   STATUS:               ID:20140917185006 L   I
 OLDACT:REG 14-09-17 21:37 OP:spq  STATUS:               ID:20140917184818     3
 2014-09-17-1848-18M.COL___290                                                 6
 STAT SP IPHASW D HRMM SECON CODA AMPLIT PERI AZIMU VELO AIN AR TRES W  DIS CAZ7
 BAR2 SZ EP       1850 26.19                             171   -0.0610 23.9 195 
 BAR2 SZ ES   1   1850 41.80                             171   -0.10 7 23.9 195 
 BAR2 SZ I        1850 42.62        11.3 0.22            173           23.9 195 
 RUS  HZ EP       1850 30.48                             145    0.2010  101 177 
 RUS  HE ES   1   1850 49.11                             145    0.03 7  101 177 
 RUS  HZ I        1850 50.06         3.2 0.32            149            101 177 
 PTB  HZ EP       1850 33.27                             132   -0.35 9  150 259 
 PTB  HE ES       1850 55.09                             132    0.07 9  150 259 
 PTB  HZ I        1850 56.16         3.5 0.16            133            150 259 
 ZAR  HN ES   1   1851  4.92                             123    0.24 6  206 292 
 ZAR  HZ I        1851 11.11         2.1 0.20            123            206 292 
 SML  HZ EP   1   1850 43.24                             118    0.16 6  244 335 
 SML  HN ES   1   1851 11.85                             118   -0.02 6  244 335 
 SML  HZ I        1851 16.26         2.3 0.10            118            244 335 
                                                                                
