 2011 1017 1701 28.0 L   6.799 -73.107142.2  RSN  8 0.2 1.9LRSN                1
 GAP=141        0.37       3.0     3.0  4.7 -0.8494E+00  0.5957E+01  0.3330E+00E
 Epicentro: LOS SANTOS - SANTANDER                                             3
 ACTION:UPD 12-07-13 16:04 OP:ep   STATUS:               ID:20111017170128 L   I
 2011-10-17-1658-29S.COL___167                                                 6
 STAT SP IPHASW D HRMM SECON CODA AMPLIT PERI AZIMU VELO AIN AR TRES W  DIS CAZ7
 BAR2 SZ EP       17 1 47.13                             170   -0.0910 24.3 200 
 BAR2 SZ ES   2   17 2  1.88                             170   -0.33 5 24.3 200 
 BAR2 SZ I        17 2  3.37        18.6 0.25                          24.3 200 
 PAM  SZ EP   2   17 1 50.02                             151    0.33 5 74.8  37 
 PAM  SN ES   2   17 2  6.77                             151    0.18 5 74.8  37 
 BRR  HZ EP       17 1 48.94                             151   -0.0510 75.0 297 
 BRR  HE ES   2   17 2  5.63                             151    0.28 5 75.0 297 
 BRR  HZ I        17 2  9.60        19.9 0.36                          75.0 297 
 RUS  HZ EP   2   17 1 51.17                             143   -0.21 5  100 178 
 RUS  HZ I        17 1 52.33         6.5 0.17                           100 178 
 RUS  HE ES   2   17 2  9.91                             143    0.29 5  100 178 
 ZAR  HZ EP   2   17 2  0.40                             121   -0.23 4  208 292 
 ZAR  HN ES   2   17 2 25.86                             121   -0.22 4  208 292 
 ZAR  HZ I        17 2 30.88        10.3 0.54                           208 292 
 NOR  SN ES   2   17 2 31.73                             117   -0.16 4  238 235 
 HEL  HZ EP   2   17 2  8.78                             114    0.29 4  276 256 
 HEL  HN ES   2   17 2 40.46                             114    0.39 4  276 256 
 HEL  HZ I        17 2 45.54         4.3 0.42                           276 256 
 RREF HN ES   2   17 2 50.67                             110    0.16 3  325 230 
 RREF HZ I        17 2 59.49         3.6 0.36                           325 230 
                                                                                
