 2013  917 1607 56.0 L   6.808 -73.700 99.4  RSN  6 0.5 1.7LRSN                1
 GAP=104        1.18       5.9     4.3  9.9  0.6520E+01  0.5021E+01  0.1613E+02E
 Epicentro: EL CARMEN DE CHUCURI - SANTANDER                                   3
 ACTION:UPD 13-10-22 09:23 OP:ep   STATUS:               ID:20130917160756 L   I
 OLDACT:REG 13-09-17 14:38 OP:jn   STATUS:               ID:20130917160000     3
 2013-09-17-1600-00M.COL___268                                                 6
 STAT SP IPHASW D HRMM SECON CODA AMPLIT PERI AZIMU VELO AIN AR TRES W  DIS CAZ7
 BRR  HZ EP       16 8 10.01                             160   -0.0510 33.1 358 
 BRR  HN ES       16 8 21.31                             160    0.2710 33.1 358 
 BRR  HZ I        16 8 22.62        16.3 0.12            157           33.1 358 
 BAR2 SZ EP       16 8 12.11                             146    0.0810 62.0 113 
 BAR2 SZ ES       16 8 24.90                             146    0.3510 62.0 113 
 BAR2 SZ I        16 8 26.56        15.5 0.48            146           62.0 113 
 PTB  HZ IP     C 16 8 13.60                             135   -0.2210 88.7 250 
 PTB  HN ES       16 8 27.04                             135   -0.6910 88.7 250 
 PTB  HZ I        16 8 28.94        25.0 0.20            136           88.7 250 
 RUS  HZ EP       16 8 17.91                             126    0.3110  122 146 
 RUS  HN ES       16 8 34.54                             126    0.0810  122 146 
 RUS  HZ I        16 8 36.57         6.7 0.34            127            122 146 
 PAM  SN ES   1   16 8 33.89                             125   -1.11 7  125  62 
 PAM  SZ I        16 8 38.90         9.1 0.48            124            125  62 
 ZAR  HN ES   1   16 8 39.20                             120    0.97 7  149 301 
 ZAR  HZ I        16 8 41.82        13.8 0.36            120            149 301 
                                                                                
