 2012  917 1120 14.1 L   7.083 -73.062162.3  RSN 11 0.4 3.0LRSN                1
 GAP=132        0.81       4.1     3.2  5.1  0.6897E+00  0.2598E+01  0.4504E+01E
 Epicentro: FLORIDABLANCA - SANTANDER                                          3
 ACTION:UPD 12-10-22 14:19 OP:ep   STATUS:               ID:20120917112014 L   I
 2012-09-17-1120-00M.COL___224                                                 6
 STAT SP IPHASW D HRMM SECON CODA AMPLIT PERI AZIMU VELO AIN AR TRES W  DIS CAZ7
 PAM  SZ EP       1120 36.72                             163   -0.0610 49.1  55 
 PAM  SN ES       1120 54.08                             163   -0.4110 49.1  55 
 PAM  SZ I        1120 56.24       169.8 0.43                          49.1  55 
 BAR2 SZ IP       1120 36.83                             160    0.1610 55.8 194 
 BAR2 SZ ES   1   1120 53.69                             160   -0.60 7 55.8 194 
 BAR2 SZ I        1120 57.50       180.7 0.36                          55.8 194 
 BRR  HZ IP     C 1120 37.39                             155    0.3310 71.8 272 
 BRR  HZ I        1120 38.60       145.1 0.12                          71.8 272 
 BRR  HN ES       1120 55.66                             155    0.6710 71.8 272 
 RUS  HZ EP   1   1120 41.64                             139   -0.12 7  132 181 
 RUS  HN ES       1121  3.59                             139    0.2310  132 181 
 TAM  HZ EP       1120 43.56                             133    0.23 9  158 117 
 TAM  HZ I        1120 43.82       153.6 0.14                           158 117 
 TAM  HN ES   1   1121  5.92                             133   -0.24 7  158 117 
 PTB  HZ EP   1   1120 44.02                             132    0.04 7  165 249 
 PTB  HZ I        1120 44.62        65.9 0.13                           165 249 
 PTB  HN ES   1   1121  6.91                             132   -0.41 7  165 249 
 ZAR  HZ EP   1   1120 46.72                             126   -0.86 6  203 283 
 ZAR  HE ES   1   1121 13.59                             126   -0.13 6  203 283 
 ZAR  HZ I        1121 15.37        83.3 0.23                           203 283 
 CHI  HZ EP   1   1120 56.73                             117    0.51 6  281 195 
 CHI  HN ES   1   1121 29.14                             117    0.04 6  281 195 
 CHI  HZ I        1121 35.91        23.9 0.36                           281 195 
 ROSC BZ EP   9   1120 58.81                             117    2.27 0  284 209 
 ROSC BE ES   9   1121 30.29                                   -1.65 0  284 209 
 ROSC BZ I        1121 38.06        58.1 0.30                           284 209 
 HEL  HZ EP   1   1120 57.36                             116    0.24 5  290 250 
 HEL  HE ES   1   1121 30.29                             116   -0.42 5  290 250 
 HEL  HZ I        1121 39.73        46.3 0.31                           290 250 
 PRA  HZ EP   1   1121 11.94                             107    0.05 4  424 209 
 PRA  HE ES   1   1121 56.17                             107   -0.82 4  424 209 
                                                                                
