 2017  317 1043 10.5 L   7.050 -73.336 12.8  RSN  6 0.3 1.0LRSN                1
 GAP=147        0.68       1.9     1.6  9.6  0.1413E+00 -0.1214E+01  0.4539E+01E
 Epicentro: LEBRIJA - SANTANDER                                                3
 ACTION:UPD 17-05-25 18:41 OP:jn   STATUS:               ID:20170317104310 L   I
 OLDACT:UP  17-04-27 17:32 OP:nlst STATUS:               ID:20170317104310 L   3
 OLDACT:UP  17-03-17 22:05 OP:dnl  STATUS:               ID:20170317103742     3
 OLDACT:UP  17-03-17 22:05 OP:dnl  STATUS:               ID:20170317103742     3
 OLDACT:REG 17-03-17 20:49 OP:dnl  STATUS:               ID:20170317103742     3
 2017-03-17-1038-00M.COL___400                                                 6
 STAT SP IPHASW D HRMM SECON CODA AMPLIT PERI AZIMU VELO AIN AR TRES W  DIS CAZ7
 BRR  HZ EP   1   1043 17.44                             104   -0.13 7 42.0 279 
 BRR  HN ES       1043 22.99                             104   -0.1210 42.0 279 
 BRR  HZ I        1043 30.59        10.7 0.28             47           42.0 279 
 BAR2 EZ EP       1043 19.81                             101    0.3010 53.4 161 
 BAR2 EZ ES       1043 26.87                             101    0.3010 53.4 161 
 BAR2 EZ I        1043 27.44         4.5 0.14             47           53.4 161 
 PAM  EZ EP       1043 23.48                              97    0.1310 77.3  65 
 PAM  EE ES   1   1043 33.18                              97   -0.22 7 77.3  65 
 RUS  HZ EP   3   1043 32.27                              94    0.81 2  131 168 
 RUS  HE ES       1043 47.21                              94   -0.6210  131 168 
 RUS  HZ I        1043 49.34         1.6 0.44             47            131 168 
 PTB  HZ EP   3   1043 32.08                              94    0.35 2  136 246 
 PTB  HN ES       1043 48.42                              94    0.10 9  136 246 
 SPBC HZ EP   9   1043 40.44                              56    3.54 0  175 208 
 SPBC HN ES       1044  1.10                              56    0.03 9  175 208 
 SPBC HZ I        1044  5.20         4.5 0.58             47            175 208 
                                                                                
