 2012 1217 1020 51.3 L   6.777 -73.158151.3  RSN  6 0.4 1.4LRSN                1
 GAP=136        0.79       4.5     5.4  7.0  0.7969E+00  0.6171E+01 -0.6383E+01E
 Epicentro: LOS SANTOS - SANTANDER                                             3
 ACTION:UPD 13-01-04 14:28 OP:ep   STATUS:               ID:20121217102051 L   I
 2012-12-17-1020-00M.COL___242                                                 6
 STAT SP IPHASW D HRMM SECON CODA AMPLIT PERI AZIMU VELO AIN AR TRES W  DIS CAZ7
 BAR2 SZ EP   1   1021 11.47                             172   -0.11 7 20.6 188 
 BAR2 SZ ES   1   1021 27.61                             172    0.24 7 20.6 188 
 BAR2 SZ I        1021 28.14         9.8 0.18                          20.6 188 
 BRR  HZ EP   1   1021 13.59                             153    0.50 7 71.3 301 
 BRR  HE ES   1   1021 30.64                             153    0.59 7 71.3 301 
 BRR  HZ I        1021 33.27         4.0 0.42                          71.3 301 
 PAM  SZ EP   1   1021 14.40                             151    0.10 7 80.2  39 
 PAM  SN ES   1   1021 31.61                             151   -0.61 7 80.2  39 
 PAM  SZ I        1021 34.05         3.4 0.64                          80.2  39 
 RUS  HZ EP   1   1021 15.80                             146    0.34 7 98.2 175 
 RUS  HN ES   1   1021 34.08                             146   -0.20 7 98.2 175 
 RUS  HZ I        1021 35.47         3.6 0.28                          98.2 175 
 PTB  HZ EP   1   1021 18.56                             134   -0.04 7  146 260 
 PTB  HN ES   1   1021 39.15                             134   -0.72 7  146 260 
 PTB  HZ I        1021 42.30         1.8 0.12                           146 260 
 SML  HZ EP   1   1021 28.07                             118   -0.40 6  245 336 
 SML  HN ES   1   1021 57.53                             118    0.11 6  245 336 
                                                                                
