 2011  217 1357 12.2 L   7.108 -73.232118.0  RSN  4 0.2 1.5LRSN                1
 GAP=198        0.48       8.4    25.1  7.9 -0.1954E+03  0.9767E+02 -0.3487E+02E
 Epicentro: LEBRIJA - SANTANDER                                                3
 ACTION:UP  11-03-28 15:09 OP:jfem STATUS:               ID:20110217135712 L   I
 2011-02-17-1355-04S.COL___137                                                 6
 STAT SP IPHASW D HRMM SECON CODA AMPLIT PERI AZIMU VELO SNR AR TRES W  DIS CAZ7
 BTL  SZ EP       1357 28.55                             169     0.110   21 191 
 BAR2 SZ EP       1357 29.72                             154    -0.110   57 175 
 BAR2 SZ ES   1   1357 43.73                             154     0.1 7   57 175 
 BAR2 SZ I        1357 45.42        10.0 0.25                            57 175 
 GRA  SZ EP       1357 32.45                             139    -0.210   98  29 
 GRA  SZ ES   1   1357 48.76                             139     0.2 7   98  29 
 GRA  SZ I        1357 51.07         4.9 0.22                            98  29 
 RUS  HZ EP   3   1357 37.02                             129     0.6 2  135 173 
                                                                                
