 2016 1217 1155 28.3 L   6.764 -73.189126.7  RSN  4 0.2 1.2LRSN                1
 GAP=140        0.58       3.2     3.1  4.9 -0.3135E+01  0.4668E+01 -0.1752E+01E
 Epicentro: LOS SANTOS - SANTANDER                                             3
 ACTION:UPD 17-01-11 20:16 OP:rebc STATUS:               ID:20161217115528 L   I
 OLDACT:UP  16-12-17 22:43 OP:cara STATUS:               ID:20161217114752d    3
 OLDACT:DUP 16-12-17 22:16 OP:cara STATUS:               ID:20161217114752d    3
 OLDACT:REG 16-12-17 19:35 OP:edw  STATUS:               ID:20161217114751     3
 2016-12-17-1148-00M.COL___369                                                 6
 STAT SP IPHASW D HRMM SECON CODA AMPLIT PERI AZIMU VELO AIN AR TRES W  DIS CAZ7
 BAR2 EZ IP       1155 45.84                             171    0.2510 19.0 178 
 BAR2 EZ ES       1155 59.37                             171    0.3210 19.0 178 
 BAR2 EZ I        1156  1.83         5.3 0.30            159           19.0 178 
 PAM  EZ EP       1155 48.95                             145   -0.0310 83.5  40 
 PAM  EN ES       1156  4.87                             145   -0.2110 83.5  40 
 PAM  EZ I        1156  7.14         2.6 0.40            153           83.5  40 
 RUS  HZ EP       1155 50.02                             140    0.0310 97.1 173 
 RUS  HN ES       1156  6.62                             140   -0.2610 97.1 173 
 RUS  HZ I        1156 23.91         2.3 0.30            135           97.1 173 
 PTB  HZ EP       1155 53.38                             128    0.08 9  142 260 
 PTB  HN ES       1156 12.58                             128   -0.19 9  142 260 
 PTB  HZ I        1156 16.20         2.3 0.12            132            142 260 
                                                                                
