 2010  417 1806 51.5 L   6.790 -73.008144.6  RSN  4 0.2 2.0LRSN                1
 GAP=277        0.41       4.8     7.5  4.8 -0.3697E+01  0.8232E+01  0.1018E+02E
 Epicentro: CEPITA - SANTANDER                                                 3
 ACTION:UPD 10-08-24 09:59 OP:vdl  STATUS:               ID:20100417180648 L   I
 2010-04-17-1805-59S.COL___100                                                 6
 STAT SP IPHASW D HRMM SECON CODA AMPLIT PERI AZIMU VELO AIN AR TRES W  DIS CAZ7
 BAR2 SZ EP       18 7 11.30                             168     0.110   29 221 
 BAR2 SZ ES   1   18 7 26.31                             168    -0.2 7   29 221 
 BRR  HZ EP   1   18 7 13.28                             148    -0.1 7   85 294 
 BRR  HZ I        18 7 14.49        15.4 0.26                            85 294 
 BRR  HN ES   2   18 7 30.65                             148     0.2 5   85 294 
 RREF BZ EP   2   18 7 38.34                             110    -0.5 3  333 231 
 RREF BN ES   3   18 8 16.12                             110     0.3 2  333 231 
 RREF BZ I        18 8 19.90         3.6 0.74                           333 231 
 PRA  HZ EP       18 7 45.91                             106     0.1 6  399 212 
 PRA  HE ES   1   18 8 28.10                             106     0.0 4  399 212 
 PRA  HZ I        18 8 34.22         3.9 0.31                           399 212 
                                                                                
