 2015  817 1329 18.3 L   6.799 -73.128150.0  RSN  6 0.4 1.6LRSN                1
 GAP=139        0.85       6.0     5.1  7.9  0.7624E+01  0.8616E+01  0.6300E+01E
 Epicentro: LOS SANTOS - SANTANDER                                             3
 ACTION:UPD 15-09-15 23:02 OP:cam  STATUS:               ID:20150817132918 L   I
 OLDACT:REG 15-08-17 21:12 OP:spq  STATUS:               ID:20150817132748     3
 2015-08-17-1327-48M.COL___343                                                 6
 STAT SP IPHASW D HRMM SECON CODA AMPLIT PERI AZIMU VELO AIN AR TRES W  DIS CAZ7
 BAR2 EZ EP       1329 38.23                             171   -0.2310 23.7 195 
 BAR2 EZ ES   1   1329 53.53                             171   -0.65 7 23.7 195 
 BAR2 EZ I        1329 54.94         6.8 0.44            172           23.7 195 
 BRR  HZ EP       1329 40.01                             153   -0.0110 73.0 298 
 BRR  HN ES       1329 57.57                             153    0.6110 73.0 298 
 BRR  HZ I        1330  1.16         6.4 0.60            150           73.0 298 
 PAM  EZ EP   1   1329 41.12                             152    0.20 7 76.2  38 
 PAM  EN ES       1329 58.51                             152   -0.0310 76.2  38 
 PAM  EZ I        1330  0.04         4.1 0.36            153           76.2  38 
 RUS  HZ EP   1   1329 42.89                             145    0.42 7  100 177 
 ZAR  HE ES       1330 16.59                             123   -0.32 8  206 292 
 ZAR  HZ I        1330 22.02         4.1 0.33            123            206 292 
 SML  HN ES   1   1330 23.86                             118   -0.25 6  245 335 
 SML  HZ I        1330 27.89         6.0 0.10            118            245 335 
                                                                                
