 2016 1017 1456 27.1 L   6.562 -73.578113.0  RSN 10 0.4 2.1LRSN                1
 GAP= 78        1.06       3.2     3.6  6.1 -0.4316E+01  0.2110E+01 -0.1779E+01E
 Epicentro: EL CARMEN - SANTANDER                                              3
 ACTION:UPD 16-11-09 19:20 OP:rebc STATUS:               ID:20161017145627 L   I
 OLDACT:UP  16-10-18 00:50 OP:ar   STATUS:               ID:20161017144732     3
 OLDACT:REG 16-10-17 22:55 OP:ar   STATUS:               ID:20161017144732     3
 2016-10-17-1448-00M.COL___358                                                 6
 STAT SP IPHASW D HRMM SECON CODA AMPLIT PERI AZIMU VELO AIN AR TRES W  DIS CAZ7
 BAR2 EZ IP     D 1456 43.76                             157    0.2410 43.8  86 
 BAR2 EZ ES       1456 56.07                             157   -0.2910 43.8  86 
 BRR  HZ EP       1456 44.63                             149    0.4510 62.1 346 
 BRR  HN ES       1456 58.23                             149    0.7010 62.1 346 
 BRR  HZ I        1457  1.03        13.4 0.30            147           62.1 346 
 RUS  HZ EP       1456 46.70                             138   -0.3510 92.1 144 
 RUS  HN ES       1457  2.50                             138   -0.1410 92.1 144 
 PTB  HZ EP       1456 46.53                             136   -0.2910 97.2 269 
 PTB  HN ES       1457  1.37                             136   -0.8610 97.2 269 
 PTB  HZ I        1457  2.60        27.0 0.30            136           97.2 269 
 SPBC HZ EP       1456 49.18                             131    0.7310  115 209 
 SPBC HN ES       1457  5.38                             131    0.2410  115 209 
 SPBC HZ I        1457  7.21        32.0 0.30            133            115 209 
 PAM  EZ EP       1456 50.52                             127    0.1110  130  48 
 PAM  EZ ES       1457  8.49                             127   -0.1310  130  48 
 PAM  EZ I        1457  9.81        20.1 0.28            128            130  48 
 NOR  HZ EP       1456 55.24                             117    0.14 9  181 232 
 NOR  HN ES       1457 16.85                             117   -0.12 9  181 232 
 NOR  HZ I        1457 19.18        10.3 0.16            118            181 232 
 OCA  HZ EP       1456 56.03                             116    0.05 9  188   9 
 OCA  HN ES       1457 18.27                             116   -0.27 9  188   9 
 OCA  HZ I        1457 26.50        25.4 0.34            116            188   9 
 GUY2CHZ EP   4   1457  5.06                             109    1.98 0  247 233 
 GUY2CHN ES   4   1457 34.39                             109    3.22 0  247 233 
 GUY2CHZ I        1457 36.18         7.9 0.30                           247 233 
 SOCV BZ EP       1457 14.75                             102   -0.54 6  356  57 
 SOCV BN ES   4   1457 50.42                             102   -2.47 0  356  57 
                                                                                
