 2013  617 1457 37.2 L   6.787 -73.148155.7  RSN  6 0.4 1.7LRSN                1
 GAP=200        0.80       4.5     6.0  7.3  0.1222E+02 -0.4298E+01 -0.1123E+02E
 Epicentro: LOS SANTOS - SANTANDER                                             3
 ACTION:UPD 14-01-08 09:55 OP:ep   STATUS:               ID:20130617145737 L   I
 OLDACT:REG 13-06-17 14:26 OP:cam  STATUS:               ID:20130617144959     3
 2013-06-17-1449-59M.COL___261                                                 6
 STAT SP IPHASW D HRMM SECON CODA AMPLIT PERI AZIMU VELO AIN AR TRES W  DIS CAZ7
 BAR2 SZ EP       1457 57.92                             172   -0.0810 21.8 190 
 BAR2 SZ ES   1   1458 13.87                             172   -0.35 7 21.8 190 
 BAR2 SZ I        1458 14.77         8.0 0.26            171           21.8 190 
 BRR  HE ES       1458 17.36                             154    0.5410 71.7 300 
 RUS  HZ E        1457 30.29                                           99.1 176 
 RUS  HZ EP   1   1458  2.37                             146    0.52 7 99.1 176 
 RUS  HN ES       1458 20.93                             146   -0.1310 99.1 176 
 RUS  HZ I        1458 23.17         4.8 0.48            146           99.1 176 
 PTB  HZ EP   1   1458  4.80                             134   -0.16 7  147 259 
 PTB  HN ES       1458 26.31                             134   -0.29 9  147 259 
 PTB  HZ I        1458 31.72         6.0 0.30            132            147 259 
 ZAR  HN ES   2   1458 36.69                             124    0.49 4  204 293 
 SML  HZ EP   1   1458 14.87                             119    0.33 6  245 335 
 SML  HE ES       1458 43.18                             119   -0.48 8  245 335 
 SML  HZ I        1458 49.24        10.2 0.10            119            245 335 
                                                                                
