 2017  817 1719 41.8 L   6.758 -73.132138.0  RSN  6 0.2 1.4LRSN                1
 GAP=140        0.47       2.9     3.3  4.6  0.4527E+01  0.3068E+01  0.1243E+01E
 Epicentro: LOS SANTOS - SANTANDER                                             3
 ACTION:UPD 17-09-04 20:21 OP:rebc STATUS:               ID:20170817171941 L   I
 OLDACT:UP  17-08-17 22:42 OP:and  STATUS:               ID:20170817171737     3
 OLDACT:UP  17-08-17 22:41 OP:and  STATUS:               ID:20170817171737     3
 OLDACT:REG 17-08-17 20:17 OP:and  STATUS:               ID:20170817171737     3
 2017-08-17-1718-00M.COL___406                                                 6
 STAT SP IPHASW D HRMM SECON CODA AMPLIT PERI AZIMU VELO AIN AR TRES W  DIS CAZ7
 BAR2 EZ EP   3   1720  0.23                             171   -0.16 2 19.2 197 
 BAR2 EZ ES   2   1720 14.36                             171   -0.55 5 19.2 197 
 BRR  HZ EP       1720  2.10                             150   -0.2110 74.9 301 
 BRR  HN ES       1720 18.30                             150   -0.0310 74.9 301 
 BRR  HZ I        1720 22.45         7.9 0.44            146           74.9 301 
 PAM  EZ EP   2   1720  3.16                             149   -0.18 5 80.1  37 
 PAM  EN ES   2   1720 20.30                             149    0.14 5 80.1  37 
 PAM  EZ I        1720 20.96         4.2 0.20            154           80.1  37 
 RUS  HZ EP       1720  4.47                             143    0.0510 95.8 177 
 RUS  HN ES       1720 22.30                             143    0.2210 95.8 177 
 RUS  HZ I        1720 23.89         2.1 0.24            144           95.8 177 
 ZAR  HN ES       1720 39.54                             120    0.29 8  207 293 
 ZAR  HZ I        1720 46.82         3.8 0.24            120            207 293 
 NOR  HZ EP   2   1720 16.79                             117   -0.12 4  233 236 
 NOR  HN ES   2   1720 43.93                             117   -0.39 4  233 236 
 NOR  HZ I        1720 51.44         1.7 0.18            117            233 236 
                                                                                
