 2010 1017 1426 16.1 L   6.794 -73.151145.9  RSN  7 0.3 1.7LRSN                1
 GAP=163        0.60       3.9     7.9  8.3 -0.5049E+00 -0.2111E+01 -0.8940E+01E
 Epicentro: LOS SANTOS - SANTANDER                                             3
 ACTION:UP  11-02-18 11:10 OP:tino STATUS:               ID:20101017142616 L   I
 2010-10-17-1424-03S.COL___126                                                 6
 STAT SP IPHASW D HRMM SECON CODA AMPLIT PERI AZIMU VELO SNR AR TRES W  DIS CAZ7
 BTL  SZ EP       1426 35.59                             172     0.010   19 317 
 BAR2 SZ ES   3   1426 50.28                             171    -0.7 2   23 189 
 BRR  HZ EP       1426 36.89                             153    -0.310   71 299 
 BRR  HN ES   2   1426 54.23                             153     0.5 5   71 299 
 BRR  HZ I        1426 59.42        10.5 0.03                            71 299 
 RUS  HZ EP   1   1426 39.51                             144    -0.3 7  100 176 
 RUS  HE ES   1   1426 58.41                             144     0.1 7  100 176 
 RUS  HZ I        1426 59.88         7.6 0.47                           100 176 
 GUE  SZ EP       1426 41.15                             139     0.310  117  12 
 NOR  SZ EP   2   1426 52.15                             119     0.4 4  234 235 
 NOR  SN ES   3   1427 19.78                             119     0.2 2  234 235 
 CHI  HZ EP   3   1426 53.88                             117     0.2 2  248 195 
 CHI  HN ES   2   1427 23.20                             117     0.2 4  248 195 
 CHI  HZ I        1427 26.94         2.7 0.81                           248 195 
                                                                                
