 2011  717 1446  4.9 L   6.756 -73.141152.6  RSN  8 0.4 1.9LRSN                1
 GAP=139        0.79       4.4     6.3  7.0 -0.1017E+02  0.5770E+01  0.3264E+01E
 Epicentro: LOS SANTOS - SANTANDER                                             3
 ACTION:UPD 12-07-25 14:01 OP:epov STATUS:               ID:20110717144604 L   I
 2011-07-17-1444-10S.COL___144                                                 6
 STAT SP IPHASW D HRMM SECON CODA AMPLIT PERI AZIMU VELO AIN AR TRES W  DIS CAZ7
 BAR2 SZ EP   1   1446 25.20                             173   -0.05 7 18.7 194 
 BAR2 SZ ES   2   1446 40.56                             173   -0.57 5 18.7 194 
 BAR2 SZ I        1446 42.58        11.4 0.25                          18.7 194 
 BRR  HZ EP   1   1446 27.36                             153    0.44 7 74.1 302 
 BRR  HN ES   1   1446 44.36                             153    0.24 7 74.1 302 
 BRR  HZ I        1446 48.79        15.8 0.13                          74.1 302 
 PAM  SZ EP   1   1446 28.20                             151    0.17 7 80.9  37 
 PAM  SN ES   1   1446 45.47                             151   -0.61 7 80.9  37 
 RUS  HZ EP   1   1446 29.40                             146    0.43 7 95.7 176 
 RUS  HN ES   1   1446 48.05                             146    0.29 7 95.7 176 
 RUS  HZ I        1446 49.36         8.6 0.41                          95.7 176 
 BRI  SZ EP   1   1446 30.14                             142    0.39 7  113  20 
 BRI  SZ ES   1   1446 49.05                             142   -0.10 7  113  20 
 BRI  SZ I        1446 50.72        14.0 0.40                           113  20 
 NOR  SN ES   1   1447  8.49                             120   -0.26 6  232 236 
 CHI  HZ EP   1   1446 41.67                             119   -0.80 6  244 196 
 SJC  HZ EP   1   1447  0.33                             107   -0.85 4  414 327 
 SJC  HZ I        1447 45.84         3.4 0.55                           414 327 
                                                                                
