 2012 1217 1302 45.5 L   5.841 -74.035  2.1  RSN  5 0.5 1.5LRSN                1
 GAP=196        1.02       8.4     3.6  9.3  0.1442E+02 -0.1773E+01 -0.2176E+02E
 Epicentro: FLORIAN - SANTANDER                                                3
 ACTION:UPD 13-01-04 14:28 OP:ep   STATUS:               ID:20121217130245 L   I
 2012-12-17-1300-00M.COL___242                                                 6
 STAT SP IPHASW D HRMM SECON CODA AMPLIT PERI AZIMU VELO AIN AR TRES W  DIS CAZ7
 PTB  HZ EP   1   13 2 59.57                              47   -0.45 7 90.2 329 
 PTB  HE ES   1   13 3 11.69                              47    0.33 7 90.2 329 
 PTB  HZ I        13 3 12.09        19.5 0.13                          90.2 329 
 RUS  HZ EP   1   13 3  3.87                              47    1.02 7  106  87 
 RUS  HN ES   1   13 3 15.88                              47   -0.52 7  106  87 
 RUS  HZ I        13 3 16.86         3.5 0.36                           106  87 
 BAR2 SZ EP   1   13 3  5.14                              47   -0.50 7  126  49 
 HEL  HE ES   1   13 3 33.39                              47   -0.10 7  170 283 
 HEL  HZ I        13 3 34.26         3.7 0.46                           170 283 
 PAM  SN ES   1   13 3 46.09                              37    0.26 6  222  42 
 PAM  SZ I        13 3 48.17         8.2 0.38                           222  42 
                                                                                
