 2012 1217 1714 32.2 L   6.780 -73.154149.8  RSN  8 0.5 1.6LRSN                1
 GAP=136        0.96       5.0     5.4  9.1 -0.3145E+00  0.1265E+02 -0.2412E+01E
 Epicentro: LOS SANTOS - SANTANDER                                             3
 ACTION:UPD 13-01-04 14:28 OP:ep   STATUS:               ID:20121217171432 L   I
 2012-12-17-1710-00M.COL___241                                                 6
 STAT SP IPHASW D HRMM SECON CODA AMPLIT PERI AZIMU VELO AIN AR TRES W  DIS CAZ7
 BAR2 SZ EP   1   1714 52.39                             172    0.09 7 21.0 189 
 BAR2 SZ ES   1   1715  7.65                             172   -0.31 7 21.0 189 
 BAR2 SZ I        1715  8.56        16.4 0.26                          21.0 189 
 BRR  HZ EP   1   1714 54.21                             153    0.38 7 71.5 300 
 BRR  HN ES   1   1715 11.85                             153    1.17 7 71.5 300 
 PAM  SZ EP   1   1714 55.15                             151    0.15 7 79.6  39 
 PAM  SN ES   1   1715 12.37                             151   -0.40 7 79.6  39 
 PAM  SZ I        1715 13.10         5.2 0.18                          79.6  39 
 RUS  HZ EP   1   1714 56.63                             145    0.40 7 98.5 175 
 RUS  HN ES   1   1715 14.67                             145   -0.28 7 98.5 175 
 RUS  HZ I        1715 16.27         4.6 0.26                          98.5 175 
 PTB  HZ EP   1   1714 59.27                             133   -0.14 7  146 260 
 PTB  HN ES   1   1715 19.97                             133   -0.65 7  146 260 
 PTB  HZ I        1715 23.64         5.1 0.15                           146 260 
 ZAR  HN ES   1   1715 30.57                             123    0.12 6  204 293 
 NOR  HE ES   1   1715 35.71                             120   -0.16 6  233 235 
 SML  HN ES   1   1715 37.32                             118   -0.81 6  245 336 
                                                                                
