 2011  917 1324  8.7 L   6.804 -73.053149.7  RSN  8 0.3 1.9LRSN                1
 GAP=148        0.54       4.8     4.2  6.3  0.1279E+01  0.4872E+01  0.2845E+01E
 Epicentro: LOS SANTOS - SANTANDER                                             3
 ACTION:UPD 12-07-13 15:57 OP:ep   STATUS:               ID:20110917132408 L   I
 2011-09-17-1320-29S.COL___171                                                 6
 STAT SP IPHASW D HRMM SECON CODA AMPLIT PERI AZIMU VELO AIN AR TRES W  DIS CAZ7
 BTL  SZ EP   1   1324 28.88                             169    0.03 7 26.9 298 
 BTL  SZ ES   2   1324 44.80                             169    0.21 5 26.9 298 
 BAR2 SZ EP   1   1324 28.53                             169   -0.33 7 27.5 211 
 BAR2 SZ I        1324 29.07        11.6 0.37                          27.5 211 
 GIR2 SZ EP   1   1324 28.62                             167   -0.27 7 34.1 333 
 GIR2 SZ ES   2   1324 44.63                             167   -0.03 5 34.1 333 
 PAM  SZ EP   1   1324 31.45                             154    0.51 7 70.9  33 
 PAM  SE ES   2   1324 48.13                             154   -0.19 5 70.9  33 
 BRR  HZ EP   1   1324 30.31                             150   -0.45 7 80.1 295 
 BRR  HZ I        1324 30.51        18.5 0.13                          80.1 295 
 BRR  HE ES   2   1324 47.95                             150   -0.05 5 80.1 295 
 RUS  HZ EP   2   1324 33.27                             145    0.44 5  101 182 
 RUS  HE ES   2   1324 51.90                             145    0.22 5  101 182 
 ZAR  HZ EP   2   1324 42.38                             122    0.05 4  213 291 
 ZAR  HN ES   1   1325  8.96                             122    0.37 6  213 291 
 ZAR  HZ I        1325 12.43         9.5 0.46                           213 291 
 NOR  SN ES   2   1325 14.21                             118   -0.12 4  243 236 
                                                                                
