 2012 1117 1130 14.0 L   6.829 -73.148141.3  RSN 14 0.5 2.3LRSN                1
 GAP=135        1.20       3.9     4.5  5.7 -0.5358E+00  0.8856E+01  0.5806E+01E
 Epicentro: LOS SANTOS - SANTANDER                                             3
 ACTION:UPD 12-12-05 15:34 OP:}ep  STATUS:               ID:20121117113014 L   I
 2012-11-17-1130-00M.COL___233                                                 6
 STAT SP IPHASW D HRMM SECON CODA AMPLIT PERI AZIMU VELO AIN AR TRES W  DIS CAZ7
 BAR2 SZ IP       1130 33.06                             169   -0.0710 26.4 188 
 BAR2 SZ ES       1130 47.84                             169   -0.2410 26.4 188 
 BAR2 SZ I        1130 49.08        50.0 0.22                          26.4 188 
 GIR2 SZ EP       1130 33.08                             168    0.0510 28.1 350 
 GIR2 SZ ES       1130 47.71                             168   -0.1810 28.1 350 
 BRR  HZ EP       1130 34.94                             152    0.4010 69.5 296 
 BRR  HN ES       1130 51.29                             152    0.7010 69.5 296 
 BRR  HN I        1130 52.08        50.5 0.32                          69.5 296 
 PAM  SZ EP       1130 35.98                             150    0.4010 75.1  41 
 PAM  SZ I        1130 36.18        25.5 0.20                          75.1  41 
 PAM  SN ES       1130 52.63                             150    0.2010 75.1  41 
 RUS  HZ EP       1130 37.19                             142   -0.3310  104 176 
 RUS  HZ I        1130 38.26        12.7 0.18                           104 176 
 RUS  HN ES       1130 55.45                             142   -0.4410  104 176 
 PTB  HZ EP       1130 39.70                             131   -0.92 9  148 258 
 PTB  HN ES       1131  0.36                             131   -1.04 9  148 258 
 PTB  HN I        1131  3.31        42.6 0.28                           148 258 
 OCA  HZ EP   4   1130 42.25                             129    0.61 0  157 353 
 OCA  HN ES   4   1131  2.59                             129   -0.62 0  157 353 
 OCA  HN I        1131  8.95        45.8 0.22                           157 353 
 ZAR  HZ EP       1130 46.15                             121    0.17 9  203 291 
 ZAR  HN ES       1131 11.49                             121    0.54 9  203 291 
 ZAR  HN I        1131 16.76        21.6 0.28                           203 291 
 SML  HZ EP       1130 49.46                             117   -0.56 8  241 335 
 SML  HN I        1131 21.90        27.8 0.10                           241 335 
 CHI  HZ EP       1130 51.46                             116   -0.29 8  252 195 
 CHI  HN ES       1131 22.20                             116    0.98 8  252 195 
 CHI  HN I        1131 26.73         9.2 0.26                           252 195 
 ROSC BZ EP       1130 52.95                             115    0.81 8  255 211 
 HEL  HZ EP       1130 53.73                             114   -0.29 8  273 255 
 HEL  HE ES       1131 25.32                             114    0.06 8  273 255 
 HEL  HN I        1131 30.49         8.0 0.42                           273 255 
 RREF HZ EP       1131  0.40                             110    0.26 7  324 229 
 RREF HN ES       1131 36.40                             110    0.25 7  324 229 
 RREF HZ I        1131 41.81         5.6 0.26                           324 229 
 PRA  HZ EP       1131  7.39                             106   -0.26 6  395 209 
 PRA  HN ES       1131 49.88                             106    0.36 6  395 209 
 PRA  HN I        1131 54.15        12.3 0.88                           395 209 
                                                                                
