 2011 1217 1624  5.4 L   6.845 -73.341115.6  RSN  8 0.3 2.6LRSN                1
 GAP= 96        0.50       2.8     3.7  5.3 -0.1564E+01  0.6137E+01 -0.4214E-01E
 Epicentro: ZAPATOCA - SANTANDER                                               3
 ACTION:UPD 12-07-13 16:16 OP:ep   STATUS:               ID:20111217162405 L   I
 2011-12-17-1620-00M.COL___185                                                 6
 STAT SP IPHASW D HRMM SECON CODA AMPLIT PERI AZIMU VELO AIN AR TRES W  DIS CAZ7
 GIR2 SZ EP       1624 21.46                             164   -0.0710 30.6  32 
 GIR2 SZ ES   2   1624 34.11                             164    0.03 5 30.6  32 
 BAR2 SZ IP       1624 21.96                             163    0.2010 33.0 148 
 BAR2 SZ ES   2   1624 34.58                             163    0.10 5 33.0 148 
 BAR2 SZ I        1624 36.13       284.8 0.42                          33.0 148 
 BRR  HZ IP     C 1624 21.89                             155   -0.2710 50.2 305 
 BRR  HZ I        1624 22.19       152.9 0.15                          50.2 305 
 BRR  HE ES   2   1624 35.16                             155   -0.04 5 50.2 305 
 PAM  SZ EP   2   1624 25.81                             140    0.35 5 89.5  52 
 PAM  SE ES   2   1624 41.53                             140    0.45 5 89.5  52 
 RUS  HZ EP   1   1624 27.05                             134   -0.05 7  109 165 
 RUS  HE ES   2   1624 43.69                             134   -0.30 5  109 165 
 OCA  SZ EP   1   1624 30.87                             123   -0.11 7  154   1 
 OCA  SZ ES   2   1624 50.74                             123   -0.16 5  154   1 
 OCA  SZ I        1624 56.00        37.2 0.20                           154   1 
 NOR  SN ES   2   1625  2.88                             113   -0.57 4  221 230 
 HEL  HZ EP   2   1624 42.71                             110    0.65 4  253 253 
 HEL  HN ES   2   1625 11.33                             110    0.71 4  253 253 
 HEL  HZ I        1625 14.97        15.4 0.24                           253 253 
                                                                                
