 2013  217 1051 16.5 L   6.790 -73.200149.3  RSN  5 0.5 1.7LRSN                1
 GAP=177        0.80       5.6     8.5 11.7  0.8176E+01 -0.2111E+02 -0.1583E+02E
 Epicentro: ZAPATOCA - SANTANDER                                               3
 ACTION:UPD 13-03-12 09:33 OP:ep   STATUS:               ID:20130217105116 L   I
 2013-02-17-1050-00M.COL___241                                                 6
 STAT SP IPHASW D HRMM SECON CODA AMPLIT PERI AZIMU VELO AIN AR TRES W  DIS CAZ7
 BRR  HZ EP   1   1051 38.28                             155    0.50 7 66.6 302 
 BRR  HN ES   2   1051 55.29                             155    0.90 5 66.6 302 
 BRR  HN I        1051 58.67        10.9 0.16            153           66.6 302 
 RUS  HZ EP   1   1051 40.62                             145    0.05 7  100 173 
 RUS  HN ES   2   1051 58.59                             145   -0.75 5  100 173 
 RUS  HN I        1052  1.54         3.5 0.72            152            100 173 
 PTB  HZ EP   1   1051 43.29                             134    0.07 7  142 259 
 PTB  HN ES   1   1052  3.73                             134   -0.33 7  142 259 
 PTB  HN I        1052  9.35         4.2 0.32            137            142 259 
 OCA  HN ES   2   1052  7.24                             130   -0.22 5  161 355 
 OCA  HN I        1052 10.37        11.2 0.54            133            161 355 
 SML  HZ EP   1   1051 53.21                             118    0.04 6  242 337 
 SML  HN ES   2   1052 20.58                             118   -1.19 4  242 337 
 SML  HN I        1052 29.06         6.2 0.10            121            242 337 
                                                                                
