 2010 1217 1827 55.1 L   7.064 -73.081147.9  RSN  4 0.1 1.7LRSN                1
 GAP=174        0.38       3.6     5.0  4.7 -0.5317E+01 -0.1526E+01  0.2710E+01E
 Epicentro: FLORIDABLANCA - SANTANDER                                          3
 ACTION:UP  11-01-14 15:25 OP:pat  STATUS:               ID:20101217182755 L   I
 2010-12-17-1824-17S.COL___136                                                 6
 STAT SP IPHASW D HRMM SECON CODA AMPLIT PERI AZIMU VELO SNR AR TRES W  DIS CAZ7
 BTL  SZ EP       1828 15.07                             169     0.010   26 232 
 BAR2 SZ EP       1828 16.12                             159     0.110   53 192 
 BAR2 SZ I        1828 16.29        10.0 0.09                            53 192 
 BAR2 SZ ES   1   1828 32.15                             159    -0.1 7   53 192 
 BRR  HZ EP       1828 16.35                             153    -0.110   70 274 
 BRR  HZ I        1828 16.48         8.0 0.15                            70 274 
 BRR  HN ES   1   1828 33.17                             153     0.1 7   70 274 
 GRA  SZ ES   1   1828 36.33                             145     0.0 7   96  19 
 GRA  SZ I        1828 37.72        10.3 0.43                            96  19 
                                                                                
