 2015  317 1824 42.6 L   6.771 -73.147142.0  RSN 10 0.5 2.2LRSN                1
 GAP=138        1.15       5.0     5.2  6.7 -0.1003E+02  0.8042E+01  0.8623E+01E
 Epicentro: LOS SANTOS - SANTANDER                                             3
 ACTION:UPD 15-04-30 16:26 OP:nd   STATUS:               ID:20150317182442 L   I
 OLDACT:REG 15-03-17 21:35 OP:cam  STATUS:               ID:20150317181748     3
 2015-03-17-1817-48M.COL___263                                                 6
 STAT SP IPHASW D HRMM SECON CODA AMPLIT PERI AZIMU VELO AIN AR TRES W  DIS CAZ7
 BAR2 EZ EP       1825  1.56                             172   -0.1310 20.2 191 
 BAR2 EZ ES       1825 16.01                             172   -0.5910 20.2 191 
 BAR2 EZ I        1825 17.89        59.3 0.46            171           20.2 191 
 BRR  HZ EP       1825  3.52                             151    0.1210 72.6 301 
 BRR  HN ES       1825 20.39                             151    0.7510 72.6 301 
 BRR  HZ I        1825 24.98        31.3 0.18            149           72.6 301 
 PAM  SZ EP     D 1825  4.48                             149   -0.0710 80.0  38 
 PAM  SN ES       1825 21.82                             149    0.1310 80.0  38 
 PAM  SZ I        1825 26.27        13.4 0.56            153           80.0  38 
 RUS  HZ EP       1825  5.47                             144   -0.2610 97.4 176 
 RUS  HN ES       1825 24.29                             144    0.5010 97.4 176 
 RUS  HZ I        1825 25.29        18.2 0.32            147           97.4 176 
 PTB  HZ EP   1   1825  8.42                             131   -0.75 7  147 260 
 PTB  HN ES       1825 29.20                             131   -0.71 9  147 260 
 PTB  HZ I        1825 36.79        22.1 0.40            131            147 260 
 SPBC HZ EP       1825 10.44                             129   -0.10 9  161 220 
 SPBC HN ES       1825 32.47                             129    0.12 9  161 220 
 SPBC HZ I        1825 34.54        34.9 0.10            130            161 220 
 NOR  HZ EP       1825 17.60                             118   -0.27 8  233 235 
 NOR  HN ES       1825 45.40                             118   -0.01 8  233 235 
 NOR  HZ I        1825 50.84        15.0 0.40            119            233 235 
 GUY2CHZ EP       1825 26.44                             112    0.65 7  299 235 
 GUY2CHN ES       1825 59.28                             112   -0.21 7  299 235 
 GUY2CHZ I        1826  7.91        11.4 0.64                           299 235 
 TOL  SZ EP   1   1825 31.47                             109    1.06 5  341 225 
 TOL  SN ES       1826  9.02                             109    1.31 7  341 225 
 TOL  SZ I        1826 13.26         5.7 0.28            110            341 225 
 PRA  HZ EP   1   1825 35.16                             106   -0.47 4  389 210 
 PRA  HN ES       1826 16.25                             106   -0.77 6  389 210 
 PRA  HZ I        1826 23.58         8.0 0.30            108            389 210 
                                                                                
