 2016  317 1048 34.9 L   6.853 -73.120146.1  RSN  5 0.3 1.2LRSN                1
 GAP=247        0.67       5.0     4.2  6.5  0.8861E+01  0.4339E+01 -0.5996E+01E
 Epicentro: LOS SANTOS - SANTANDER                                             3
 ACTION:UPD 16-05-13 21:25 OP:cam  STATUS:               ID:20160317104834 L   I
 OLDACT:REG 16-03-17 20:30 OP:cara STATUS:               ID:20160317104749     3
 2016-03-17-1047-49M.COL___294                                                 6
 STAT SP IPHASW D HRMM SECON CODA AMPLIT PERI AZIMU VELO AIN AR TRES W  DIS CAZ7
 BAR2 EZ EP       1048 54.90                             168    0.2010 29.6 193 
 BAR2 EZ I        1048 55.28         4.4 0.30            160           29.6 193 
 BAR2 EZ ES       1049 10.09                             168   -0.0710 29.6 193 
 RUS  HZ EP       1048 59.01                             142   -0.0810  106 178 
 RUS  HE ES       1049 17.95                             142   -0.0210  106 178 
 RUS  HZ I        1049 22.01         1.2 0.26            138            106 178 
 PTB  HZ EP       1049  1.96                             131   -0.29 9  152 257 
 PTB  HN ES       1049 23.17                             131   -0.41 9  152 257 
 PTB  HZ I        1049 30.07         2.5 0.30            128            152 257 
 SPBC HN ES       1049 27.11                             128    0.38 9  169 218 
 SPBC HZ I        1049 32.34         3.1 0.24            125            169 218 
 ZAR  HN ES       1049 33.12                             122    0.35 9  205 290 
                                                                                
