 2015  117 1646 46.9 L   6.723 -73.136133.5  RSN  5 0.4 1.9LRSN                1
 GAP=165        1.10       9.7     5.6  9.0 -0.1923E+02  0.1548E+02 -0.8297E+01E
 Epicentro: JORDAN - SANTANDER                                                 3
 ACTION:UPD 15-03-02 15:40 OP:nd   STATUS:               ID:20150117164646 L   I
 OLDACT:REG 15-01-17 21:20 OP:y    STATUS:               ID:20150117163757     3
 2015-01-17-1637-57M.COL___172                                                 6
 STAT SP IPHASW D HRMM SECON CODA AMPLIT PERI AZIMU VELO AIN AR TRES W  DIS CAZ7
 BAR2 EZ ES       1647 18.95                             173    0.0310 15.3 200 
 BAR2 EZ I        1647 21.50        18.0 0.14            173           15.3 200 
 BRR  HZ EP       1647  7.19                             148    0.1510 76.6 304 
 BRR  HN ES       1647 23.52                             148    0.7510 76.6 304 
 BRR  HZ I        1647 27.96        21.8 0.38            146           76.6 304 
 PAM  SZ EP       1647  8.19                             146   -0.0110 83.5  35 
 PAM  SN ES       1647 24.40                             146   -0.4310 83.5  35 
 PAM  SZ I        1647 25.75         6.1 0.41            148           83.5  35 
 PTB  HZ EP       1647 13.23                             129    0.40 9  147 262 
 PTB  HN ES       1647 32.40                             129   -0.69 9  147 262 
 ZAR  HN ES       1647 43.75                             119   -0.33 8  208 294 
 ZAR  HZ I        1647 49.57        10.0 0.24            120            208 294 
                                                                                
