 2011 1217 1850 27.6 L   6.760 -73.106140.0  RSN  7 0.3 2.1LRSN                1
 GAP=144        0.47       3.8     3.9  4.8 -0.1778E+01 -0.3316E+00  0.4525E+01E
 Epicentro: LOS SANTOS - SANTANDER                                             3
 ACTION:UPD 12-07-13 16:16 OP:ep   STATUS:               ID:20111217185027 L   I
 2011-12-17-1850-00M.COL___187                                                 6
 STAT SP IPHASW D HRMM SECON CODA AMPLIT PERI AZIMU VELO AIN AR TRES W  DIS CAZ7
 BAR2 SZ ES   2   1851  0.72                             171   -0.53 5 20.4 205 
 BAR2 SZ I        1851  3.84        28.2 0.34                          20.4 205 
 GIR2 SZ EP   2   1850 46.63                             165   -0.16 5 36.6 345 
 GIR2 SZ ES   2   1851  1.81                             165    0.09 5 36.6 345 
 BRR  HZ EP   1   1850 48.48                             150   -0.05 7 77.2 300 
 BRR  HZ I        1850 50.68        29.9 0.10                          77.2 300 
 BRR  HE ES   1   1851  5.15                             150    0.32 7 77.2 300 
 PAM  SZ EP       1850 49.26                             150   -0.0410 78.2  35 
 PAM  SN ES   2   1851  6.16                             150   -0.03 5 78.2  35 
 RUS  HZ EP   1   1850 50.45                             144   -0.04 7 96.0 179 
 RUS  HN ES   2   1851  8.71                             144    0.39 5 96.0 179 
 RUS  HZ I        1851  9.96        13.0 0.42                          96.0 179 
 CHI  HZ EP   2   1851  4.90                             116    0.21 4  246 196 
 HEL  HZ EP   2   1851  8.29                             113    0.36 4  275 257 
 HEL  HN ES   2   1851 38.55                             113   -0.81 4  275 257 
 HEL  HZ I        1851 45.72         7.3 0.43                           275 257 
                                                                                
