 2010 1017 1314 26.7 L   6.761 -73.172145.7  RSN  8 0.4 1.8LRSN                1
 GAP=161        0.69       4.0     8.4  6.7  0.4745E+01 -0.1194E+02 -0.1153E+01E
 Epicentro: LOS SANTOS - SANTANDER                                             3
 ACTION:UP  11-02-18 11:10 OP:tino STATUS:               ID:20101017131426 L   I
 2010-10-17-1312-27S.COL___126                                                 6
 STAT SP IPHASW D HRMM SECON CODA AMPLIT PERI AZIMU VELO SNR AR TRES W  DIS CAZ7
 BAR2 SZ EP       1314 45.90                             172    -0.310   19 184 
 BAR2 SZ ES   2   1315  0.79                             172    -0.7 5   19 184 
 BAR2 SZ I        1315  3.42        14.9 0.25                            19 184 
 BTL  SZ EP       1314 46.06                             172    -0.210   20 329 
 GIR2 SZ EP   3   1314 45.96                             166    -0.5 2   35 356 
 GIR2 SZ ES   2   1315  1.82                             166    -0.1 5   35 356 
 BRR  HZ EP       1314 47.68                             153    -0.110   71 303 
 BRR  HE ES   1   1315  4.67                             153     0.4 7   71 303 
 BRR  HZ I        1315  8.64        16.8 0.27                            71 303 
 RUS  HZ EP       1314 50.28                             145     0.110   97 174 
 RUS  HE ES   1   1315  8.88                             145     0.4 7   97 174 
 RUS  HZ I        1315 10.24         9.3 0.46                            97 174 
 GUE  SZ EP       1314 52.09                             138     0.310  121  13 
 NOR  SZ EP   3   1315  0.94                             119    -1.0 2  230 235 
 NOR  SE ES   3   1315 29.82                             119     0.5 2  230 235 
 CHI  HZ EP   2   1315  4.10                             118     0.3 4  244 195 
 CHI  HE ES   2   1315 32.53                             118    -0.3 4  244 195 
 CHI  HZ I        1315 35.74         2.9 0.31                           244 195 
                                                                                
