 2010 1217 1718 58.5 L   6.760 -73.121137.0  RSN 11 0.4 2.1LRSN                1
 GAP=162        0.97       3.7     6.8  6.7 -0.8585E+01  0.7904E+01  0.2409E+01E
 Epicentro: LOS SANTOS - SANTANDER                                             3
 ACTION:UP  11-01-14 15:25 OP:pat  STATUS:               ID:20101217171858 L   I
 2010-12-17-1716-50S.COL___136                                                 6
 STAT SP IPHASW D HRMM SECON CODA AMPLIT PERI AZIMU VELO SNR AR TRES W  DIS CAZ7
 BAR2 SZ EP       1719 16.95                             171     0.010   20 200 
 BAR2 SZ ES   1   1719 31.29                             171    -0.1 7   20 200 
 BAR2 SZ I        1719 32.70        37.1 0.23                            20 200 
 BTL  SZ EP       1719 17.00                             170    -0.110   24 317 
 BRR  HZ IP     D 1719 18.85                             149    -0.110   76 300 
 BRR  HZ I        1719 19.29        48.6 0.08                            76 300 
 BRR  HN ES   1   1719 35.65                             149     0.7 7   76 300 
 RUS  HZ IP     C 1719 20.99                             143    -0.110   96 177 
 RUS  HN ES   1   1719 38.65                             143     0.0 7   96 177 
 RUS  HZ I        1719 40.13        20.4 0.27                            96 177 
 GRA  SZ EP       1719 23.93                             134     0.710  129  16 
 GRA  SZ ES   1   1719 42.60                             134     0.0 7  129  16 
 GRA  SZ I        1719 47.60        11.0 0.44                           129  16 
 OCA  SZ EP       1719 25.74                             127    -0.8 9  165 352 
 OCA  SZ ES   2   1719 47.81                             127    -0.7 5  165 352 
 OCA  SZ I        1719 52.14        19.4 0.26                           165 352 
 NOR  SZ EP       1719 33.40                             117    -0.3 8  235 236 
 NOR  SN ES   1   1720  1.02                             117    -0.1 6  235 236 
 CHI  HZ EP       1719 35.86                             116     0.5 8  245 196 
 CHI  HN ES   1   1720  3.55                             116    -0.5 6  245 196 
 CHI  HZ I        1720 10.79         4.6 0.61                           245 196 
 HEL  HZ EP   2   1719 38.89                             113     0.5 4  274 257 
 HEL  HZ I        1720 15.90         6.0 0.08                           274 257 
 GUY  SZ EP   2   1719 42.22                             111     0.5 4  301 236 
 GUY  SN ES   2   1720 15.42                             111     0.0 4  301 236 
 PRA  HZ EP       1719 51.70                             105     0.3 6  390 210 
 PRA  HN ES   3   1720 31.94                             105    -0.8 1  390 210 
                                                                                
