 2012  717 1349  4.8 L   6.785 -73.137153.6  RSN  6 0.5 1.6LRSN                1
 GAP=138        1.03       8.5     7.1 10.8  0.1989E+02  0.1509E+02  0.4550E+01E
 Epicentro: LOS SANTOS - SANTANDER                                             3
 ACTION:UPD 12-08-14 11:45 OP:ep   STATUS:               ID:20120717134904 L   I
 2012-07-17-1347-44M.COL___211                                                 6
 STAT SP IPHASW D HRMM SECON CODA AMPLIT PERI AZIMU VELO AIN AR TRES W  DIS CAZ7
 BAR2 SZ EP   1   1349 25.29                             172    -0.1 8   22 193 
 BAR2 SZ ES   1   1349 40.79                             172    -0.6 8   22 193 
 BAR2 SZ I        1349 42.87         8.9 0.17            170             22 193 
 BRR  HZ EP   1   1349 27.28                             153     0.4 8   73 299 
 BRR  HZ I        1349 27.50        17.2 0.14            154             73 299 
 BRR  HN ES   1   1349 45.04                             153     0.9 8   73 299 
 PAM  SN ES   2   1349 45.42                             152    -0.5 5   78  38 
 RUS  HZ EP   1   1349 29.59                             146     0.3 8   99 177 
 RUS  HN ES   1   1349 48.43                             146     0.1 8   99 177 
 RUS  HZ I        1349 49.61         3.0 0.22            146             99 177 
 PTB  HZ EP   1   1349 32.06                             134    -0.5 7  148 260 
 PTB  HN ES       1349 54.03                             134    -0.110  148 260 
 PTB  HZ I        1349 55.44         4.5 0.19            134            148 260 
 ZAR  HN ES   1   1350  3.36                             124    -0.4 7  206 292 
