 2017  317 1416 39.8 L   6.845 -73.300127.2  RSN  9 0.4 2.1LRSN                1
 GAP=108        0.91       3.4     3.6  6.2 -0.1468E+01  0.6606E+01  0.1337E+01E
 Epicentro: ZAPATOCA - SANTANDER                                               3
 ACTION:UPD 17-05-25 18:41 OP:jn   STATUS:               ID:20170317141639 L   I
 OLDACT:UP  17-03-18 00:26 OP:dnl  STATUS:               ID:20170317140745     3
 OLDACT:REG 17-03-17 21:27 OP:dnl  STATUS:               ID:20170317140745     3
 2017-03-17-1408-00M.COL___412                                                 6
 STAT SP IPHASW D HRMM SECON CODA AMPLIT PERI AZIMU VELO AIN AR TRES W  DIS CAZ7
 BAR2 EZ IP     C 1416 57.49                             166    0.1410 30.8 155 
 BAR2 EZ ES       1417 10.65                             166   -0.4310 30.8 155 
 BRR  HZ IP     C 1416 57.87                             156   -0.0710 54.0 303 
 BRR  HE ES       1417 12.09                             156   -0.0410 54.0 303 
 BRR  HZ I        1417 12.80        21.5 0.12            154           54.0 303 
 PAM  EZ EP       1417  0.56                             144   -0.0610 86.0  50 
 PAM  EN ES       1417 17.13                             144    0.2310 86.0  50 
 PAM  EZ I        1417 19.16        24.8 0.30            147           86.0  50 
 RUS  HZ EP       1417  2.52                             137    0.1910  108 167 
 RUS  HE ES       1417 20.26                             137    0.3310  108 167 
 RUS  HZ I        1417 21.16        17.6 0.28            138            108 167 
 PTB  HZ IP     C 1417  2.83                             131   -0.9710  132 255 
 PTB  HE ES   4   1417 20.67                             131   -1.89 0  132 255 
 PTB  HZ I        1417 26.44        17.8 0.22            130            132 255 
 SPBC HZ EP   2   1417  6.23                             126   -0.06 5  157 213 
 SPBC HN ES       1417 26.85                             126   -0.14 9  157 213 
 SPBC HZ I        1417 29.91        24.9 0.24            125            157 213 
 ZAR  HZ EP   2   1417  8.85                             120   -0.33 4  186 293 
 ZAR  HE ES       1417 32.75                             120    0.62 9  186 293 
 ZAR  HZ I        1417 36.03        22.5 0.30            120            186 293 
 NOR  HZ EP   2   1417 13.82                             115    0.51 4  224 231 
 NOR  HN ES       1417 39.84                             115    0.36 8  224 231 
 NOR  HZ I        1417 45.80         8.3 0.18            115            224 231 
 GUY2CHZ EP   9   1417 22.80                             109    1.47 0  290 232 
 GUY2CHN ES       1417 55.32                             108    0.09 7  290 232 
 GUY2CHZ  IAML    1418  0.46         4.3 0.28                           290 232 
                                                                                
