 2012  117 1649 35.2 L   6.794 -73.180140.5  RSN 20 0.5 3.7LRSN                1
 GAP=111        0.99       3.2     3.7  5.8 -0.2852E-01  0.6745E+01  0.5812E+01E
 Epicentro: LOS SANTOS - SANTANDER                                             3
 ACTION:UP  12-02-03 08:18 OP:REBC STATUS:               ID:20120117164935 L   I
 2012-01-17-1647-36S.COL___156                                                 6
 STAT SP IPHASW D HRMM SECON CODA AMPLIT PERI AZIMU VELO SNR AR TRES W  DIS CAZ7
 BAR2 SZ EP       1649 54.40                             170     0.310   22 181 
 BAR2 SZ ES   1   1650  8.39                             170    -0.6 7   22 181 
 BAR2 SZ I        1650 12.46       995.1 0.38                            22 181 
 BRR  HZ EP       1649 56.24                             153     0.710   68 301 
 BRR  HN ES   1   1650 11.38                             153    -0.1 7   68 301 
 BRR  HZ I        1650 17.54       412.7 0.27                            68 301 
 PAM  SZ IP     D 1649 57.24                             149     0.210   80  41 
 PAM  SN ES   1   1650 14.06                             149     0.0 7   80  41 
 PAM  SZ I        1650 17.36       276.1 0.61                            80  41 
 RUS  HZ EP       1649 58.27                             143    -0.110  100 174 
 RUS  HN ES   1   1650 16.72                             143     0.2 7  100 174 
 RUS  HZ I        1650 18.41       370.8 0.36                           100 174 
 PTB  HZ EP       1650  0.96                             132    -0.4 9  144 259 
 PTB  HN ES   1   1650 21.84                             132     0.0 7  144 259 
 OCA  SZ EP   1   1650  2.70                             128    -0.4 7  161 355 
 OCA  SZ ES   1   1650 24.45                             128    -0.4 7  161 355 
 OCA  SZ I        1650 31.68       377.4 0.45                           161 355 
 YOP  SZ EP   1   1650  4.86                             125    -0.1 7  180 152 
 YOP  SN ES   1   1650 28.76                             125     0.6 7  180 152 
 YOP  SZ I        1650 29.75       270.7 0.33                           180 152 
 ZAR  HZ EP   1   1650  6.91                             122     0.0 6  201 293 
 ZAR  HN ES   1   1650 31.22                             122    -0.5 6  201 293 
 ZAR  HZ I        1650 38.57       430.1 0.32                           201 293 
 NOR  SZ EP   1   1650 10.16                             118    -0.1 6  231 234 
 NOR  SN ES   1   1650 38.18                             118     0.6 6  231 234 
 CHI  HZ EP       1650 12.16                             116    -0.2 8  247 194 
 CHI  HN ES   1   1650 40.47                             116    -1.0 6  247 194 
 CHI  HZ I        1650 47.90       258.0 0.56                           247 194 
 ROSC BZ EP   1   1650 13.36                             116     0.6 6  250 210 
 ROSC BZ I        1650 48.97       720.7 0.55                           250 210 
 HEL  HZ EP   1   1650 15.46                             114     0.8 6  268 256 
 HEL  HN ES   1   1650 45.50                             114     0.0 6  268 256 
 HEL  HZ I        1650 54.71       267.9 0.33                           268 256 
 GUY  SZ EP   1   1650 18.77                             111     0.4 5  300 235 
 GUY  SZ I        1651  2.14       587.4 0.43                           300 235 
 VIL  SZ EP   1   1650 17.39                             111    -0.8 5  302 191 
 VIL  SZ I        1650 54.97       211.9 0.40                           302 191 
 RREF HZ EP   1   1650 20.75                             110     0.0 5  318 229 
 RREF HN ES   1   1650 55.86                             110    -0.4 5  318 229 
 RREF HZ I        1651  6.00       275.1 0.48                           318 229 
 DBB  SZ EP   1   1650 22.31                             109     0.3 5  336 274 
 TOL  SZ EP   1   1650 23.31                             108     0.5 5  340 224 
 TOL  SZ ES   1   1651  1.19                             108     1.1 5  340 224 
 PRA  HZ EP       1650 27.58                             106    -0.6 6  390 209 
 PRA  HN ES   1   1651  9.00                             106    -0.6 4  390 209 
 PRA  HZ I        1651 16.43       678.4 0.36                           390 209 
 PAL  HZ EP   1   1650 29.31                             105    -0.4 4  402 239 
 PAL  HZ I        1650 31.50       118.3 0.32                           402 239 
 PAL  HN ES   1   1651 12.29                             105     0.0 4  402 239 
 MARA HZ EP   1   1650 44.98                             100    -0.8 3  534 215 
                                                                                
