 2012 1217 1432 54.6 L   6.776 -73.141142.7  RSN  8 0.4 1.8LRSN                1
 GAP=138        0.81       4.7     4.4  6.5 -0.1738E+01  0.7599E+01  0.5944E+01E
 Epicentro: LOS SANTOS - SANTANDER                                             3
 ACTION:UPD 13-01-04 14:28 OP:ep   STATUS:               ID:20121217143254 L   I
 2012-12-17-1430-00M.COL___242                                                 6
 STAT SP IPHASW D HRMM SECON CODA AMPLIT PERI AZIMU VELO AIN AR TRES W  DIS CAZ7
 BAR2 SZ EP       1433 13.89                             171    0.0610 20.8 193 
 BAR2 SZ ES   1   1433 28.06                             171   -0.75 7 20.8 193 
 BAR2 SZ I        1433 31.03        17.7 0.15                          20.8 193 
 GIR2 SZ EP   1   1433 13.83                             166   -0.17 7 34.0 350 
 GIR2 SZ ES   1   1433 29.55                             166    0.43 7 34.0 350 
 GIR2 SZ I        1433 31.52        10.9 0.40                          34.0 350 
 BRR  HZ EP   1   1433 15.70                             151    0.16 7 73.0 300 
 BRR  HZ I        1433 32.37        15.9 0.44                          73.0 300 
 BRR  HN ES   1   1433 32.54                             151    0.69 7 73.0 300 
 PAM  SZ EP   1   1433 16.85                             150    0.24 7 79.1  38 
 PAM  SE ES   1   1433 33.48                             150   -0.29 7 79.1  38 
 PAM  SZ I        1433 35.62        10.2 0.20                          79.1  38 
 RUS  HZ EP   1   1433 17.93                             144    0.06 7 97.9 176 
 RUS  HN ES   1   1433 36.16                             144    0.16 7 97.9 176 
 RUS  HZ I        1433 37.50         6.7 0.26                          97.9 176 
 PTB  HZ EP   1   1433 20.65                             131   -0.69 7  148 260 
 PTB  HN ES   1   1433 41.75                             131   -0.43 7  148 260 
 PTB  HZ I        1433 43.98         8.4 0.21                           148 260 
 ZAR  HN ES   1   1433 52.04                             121   -0.26 6  206 293 
 NOR  HZ EP   1   1433 30.28                             118    0.23 6  234 235 
 NOR  HE ES   1   1433 58.23                             118    0.54 6  234 235 
 NOR  HZ I        1434  3.01         7.0 0.18                           234 235 
                                                                                
