 2016  317 1149 38.1 L   6.787 -73.199139.3  RSN  6 0.2 1.7LRSN                1
 GAP=131        0.51       2.1     2.3  3.7  0.6085E-01  0.2446E+01  0.1359E+01E
 Epicentro: ZAPATOCA - SANTANDER                                               3
 ACTION:UPD 16-05-13 21:25 OP:cam  STATUS:               ID:20160317114938 L   I
 OLDACT:DUP 16-03-17 23:38 OP:cara STATUS:               ID:20160317114751d    3
 2016-03-17-1147-50M.COL___294                                                 6
 STAT SP IPHASW D HRMM SECON CODA AMPLIT PERI AZIMU VELO AIN AR TRES W  DIS CAZ7
 BAR2 EZ EP       1149 57.03                             171    0.0910 21.6 175 
 BAR2 EZ ES       1150 11.80                             171    0.1810 21.6 175 
 BAR2 EZ I        1150 13.50        12.7 0.24            169           21.6 175 
 PAM  EZ IP       1149 59.96                             148   -0.0010 82.3  42 
 PAM  EZ I        1150  0.06        18.5 0.22            152           82.3  42 
 PAM  EN ES       1150 16.99                             148   -0.0110 82.3  42 
 RUS  HZ EP       1150  1.01                             143   -0.1710 99.8 173 
 RUS  HE ES       1150 18.96                             143   -0.2110 99.8 173 
 RUS  HZ I        1150 20.65         4.3 0.20            143           99.8 173 
 PTB  HZ EP       1150  3.79                             132   -0.23 9  142 259 
 PTB  HN ES       1150 24.01                             132   -0.20 9  142 259 
 PTB  HZ I        1150 27.35         6.0 0.14            130            142 259 
 ZAR  HN ES       1150 34.46                             122    0.23 9  199 293 
 ZAR  HZ I        1150 40.21         7.5 0.30            121            199 293 
 CHI  HZ EP       1150 15.33                             116    0.17 8  246 194 
 CHI  HE ES       1150 44.39                             116    0.34 8  246 194 
 CHI  HZ I        1150 49.79         3.1 0.30            116            246 194 
                                                                                
