 2013  617 1302  9.0 L   6.816 -73.144146.5  RSN 15 0.5 2.6LRSN                1
 GAP=111        1.06       2.8     3.5  5.0  0.1124E+01  0.3396E+01 -0.6094E-01E
 Epicentro: LOS SANTOS - SANTANDER                                             3
 ACTION:UPD 14-01-08 09:55 OP:ep   STATUS:               ID:20130617130209 L   I
 OLDACT:REG 13-06-17 14:19 OP:cam  STATUS:               ID:20130617125959     3
 2013-06-17-1259-59M.COL___261                                                 6
 STAT SP IPHASW D HRMM SECON CODA AMPLIT PERI AZIMU VELO AIN AR TRES W  DIS CAZ7
 BAR2 SZ IP     C 13 2 28.56                             170   -0.1710 25.1 190 
 BAR2 SZ ES       13 2 43.46                             170   -0.6810 25.1 190 
 BAR2 SZ I        13 2 44.91        97.1 0.26            168           25.1 190 
 GIR2 SZ EP       13 2 28.53                             168   -0.1610 29.6 349 
 GIR2 SZ ES       13 2 44.43                             168    0.3610 29.6 349 
 BRR  HZ IP     C 13 2 30.32                             153    0.1510 70.5 297 
 BRR  HN ES       13 2 47.59                             153    0.8910 70.5 297 
 BRR  HZ I        13 2 50.68        75.2 0.44            148           70.5 297 
 RUS  HZ EP       13 2 32.52                             143   -0.4110  102 176 
 RUS  HN ES       13 2 51.50                             143   -0.1110  102 176 
 RUS  HZ I        13 2 52.26        44.2 0.28            143            102 176 
 PTB  HZ EP   4   13 2 34.90                             132   -1.15 0  148 258 
 PTB  HN ES   4   13 2 56.26                             132   -0.91 0  148 258 
 PTB  HZ I        13 2 58.21        53.7 0.42            129            148 258 
 TAM  HZ EP       13 2 36.95                             131    0.21 9  155 106 
 TAM  HN ES       13 2 58.74                             131    0.34 9  155 106 
 OCA  HZ EP   1   13 2 38.38                             130    1.20 7  159 353 
 OCA  HN ES       13 2 58.61                             130   -0.57 9  159 353 
 OCA  HZ I        13 3  2.00        31.0 0.32            129            159 353 
 ZAR  HZ EP       13 2 41.31                             123   -0.11 9  204 292 
 ZAR  HE ES       13 3  6.64                             123   -0.08 9  204 292 
 ZAR  HZ I        13 3 12.13        30.1 0.30            120            204 292 
 NOR  HZ EP       13 2 44.56                             118   -0.32 8  236 234 
 NOR  HN ES       13 3 12.51                             118   -0.36 8  236 234 
 NOR  HZ I        13 3 21.86        23.2 0.16            117            236 234 
 SML  HZ EP       13 2 45.28                             118   -0.20 8  242 335 
 SML  HE ES       13 3 13.46                             118   -0.49 8  242 335 
 SML  HZ I        13 3 19.10        39.3 0.24            116            242 335 
 CHI  HZ EP       13 2 46.77                             117   -0.14 8  250 195 
 CHI  HN ES       13 3 16.65                             117    0.16 8  250 195 
 CHI  HZ I        13 3 21.16        20.4 0.38            116            250 195 
 HEL  HZ EP       13 2 50.19                             115    0.89 8  273 255 
 HEL  HN ES   1   13 3 21.27                             115    0.53 6  273 255 
 HEL  HZ I        13 3 26.55        19.1 0.28            113            273 255 
 RREF HZ EP   4   13 2 56.57                             111    1.27 0  323 229 
 RREF HE ES   4   13 3 34.73                             111    3.30 0  323 229 
 RREF HZ I        13 3 40.59        26.0 0.38            110            323 229 
 COD  HZ EP   1   13 2 57.22                             109    0.04 5  347 355 
 COD  HN ES       13 3 34.60                             109   -0.18 6  347 355 
 COD  HZ I        13 3 45.28         6.8 0.66            108            347 355 
 PRA  HZ EP   2   13 3  2.33                             107   -0.38 3  394 209 
                                                                                
