 2011 1017 1426 28.2 L   6.747 -73.106151.5  RSN 11 0.2 2.2LRSN                1
 GAP=144        0.33       2.1     2.7  3.6 -0.1290E+01  0.3734E+01  0.1011E+01E
 Epicentro: JORDAN - SANTANDER                                                 3
 ACTION:UPD 12-07-13 16:04 OP:ep   STATUS:               ID:20111017142628 L   I
 2011-10-17-1423-19S.COL___167                                                 6
 STAT SP IPHASW D HRMM SECON CODA AMPLIT PERI AZIMU VELO AIN AR TRES W  DIS CAZ7
 BAR2 SZ EP       1426 48.32                             172   -0.1210 19.0 206 
 BAR2 SZ ES   2   1427  4.16                             172   -0.07 5 19.0 206 
 BAR2 SZ I        1427  5.24        19.9 0.42                          19.0 206 
 BRR  HZ EP   1   1426 50.30                             151   -0.05 7 77.9 301 
 BRR  HE ES   2   1427  7.82                             151    0.19 5 77.9 301 
 BRR  HZ I        1427 12.61        25.4 0.18                          77.9 301 
 PAM  SZ EP   2   1426 51.07                             151   -0.08 5 79.5  34 
 PAM  SN ES   2   1427  8.78                             151   -0.27 5 79.5  34 
 RUS  HZ EP   2   1426 52.23                             147    0.13 5 94.5 178 
 RUS  HN ES   2   1427 10.96                             147    0.22 5 94.5 178 
 RUS  HZ I        1427 12.33        15.0 0.45                          94.5 178 
 OCA  SZ EP   2   1426 57.66                             130    0.11 5  167 352 
 OCA  SZ ES   2   1427 21.13                             130    0.67 5  167 352 
 OCA  SZ I        1427 25.33        21.5 0.33                           167 352 
 ZAR  HZ EP   2   1427  1.29                             123   -0.37 4  210 293 
 ZAR  HN ES   2   1427 27.38                             123   -0.39 4  210 293 
 ZAR  HZ I        1427 31.91        18.5 0.28                           210 293 
 NOR  SZ EP   2   1427  4.10                             120   -0.19 4  235 236 
 NOR  SN ES   2   1427 32.44                             120    0.00 4  235 236 
 HEL  HZ EP   2   1427  9.08                             116    0.06 4  275 257 
 HEL  HE ES   2   1427 41.02                             116    0.16 4  275 257 
 HEL  HZ I        1427 49.08         7.8 0.38                           275 257 
 GUY  SZ EP   2   1427 12.88                             113    0.52 4  304 236 
 GUY  SN ES   2   1427 46.85                             113    0.03 4  304 236 
 GUY  SZ I        1427 52.37        10.4 0.31                           304 236 
 RREF HZ EP   2   1427 14.61                             112    0.07 3  321 231 
 RREF HN ES   2   1427 50.64                             112   -0.05 3  321 231 
 RREF HZ I        1427 58.71         9.0 0.26                           321 231 
 PRA  HZ EP   2   1427 21.70                             108    0.12 3  389 211 
 PRA  HN ES   2   1428  3.28                             108    0.07 3  389 211 
                                                                                
