 2017 1217 1011 56.8 L   6.919 -73.168146.0  RSN  4 0.4 1.0LRSN                1
 GAP=254        0.71       6.3     5.6  6.8 -0.3701E+01  0.1302E+02 -0.1401E+02E
 Epicentro: BETULIA - SANTANDER                                                3
 ACTION:UPD 18-01-04 13:21 OP:rebc STATUS:               ID:20171217101156 L   I
 OLDACT:DUP 17-12-17 21:10 OP:osc  STATUS:               ID:20171217100741d    3
 2017-12-17-1008-00M.COL___454                                                 6
 STAT SP IPHASW D HRMM SECON CODA AMPLIT PERI AZIMU VELO AIN AR TRES W  DIS CAZ7
 BAR2 EZ EP       1012 17.03                             165    0.3010 36.2 183 
 BAR2 EZ ES       1012 32.04                             165   -0.2810 36.2 183 
 BAR2 EZ I        1012 33.27         3.3 0.26            169           36.2 183 
 PTB  HZ EP       1012 23.55                             132   -0.25 9  149 254 
 PTB  HN ES       1012 44.64                             132   -0.26 9  149 254 
 PTB  HZ I        1012 49.94         0.9 0.08            131            149 254 
 SPBC HZ EP       1012 26.29                             127    0.16 9  172 216 
 SPBC HE ES       1012 49.25                             127    0.21 9  172 216 
 ZAR  HZ EP       1012 28.53                             123    0.03 9  197 289 
 ZAR  HE ES   3   1012 55.28                             123    2.02 2  197 289 
 ZAR  HZ I        1013  2.24         1.0 0.20            122            197 289 
                                                                                
