 2010  117 1905 48.8 L   6.876 -73.214120.4  RSN  7 0.4 2.0LRSN                1
 GAP=167        0.69       3.7    11.9  8.2 -0.2380E+01  0.5950E+02  0.3587E+01E
 Epicentro: BETULIA - SANTANDER                                                3
 ACTION:UP  10-08-24 09:44 OP:vdl  STATUS:               ID:20100117190548 L   I
 2010-01-17-1903-36S.COL___096                                                 6
 STAT SP IPHASW D HRMM SECON CODA AMPLIT PERI AZIMU VELO SNR AR TRES W  DIS CAZ7
 GIR2 SZ EP   1   19 6  5.44                             169     0.2 7   23   6 
 GIR2 SZ ES   2   19 6 18.18                             169     0.1 5   23   6 
 BAR2 SZ IP       19 6  5.81                             164     0.110   32 174 
 BAR2 SZ ES   2   19 6 18.65                             164    -0.1 5   32 174 
 RUS  BZ EP   1   19 6 10.81                             135    -0.1 7  110 172 
 RUS  BN ES   2   19 6 28.02                             135    -0.2 5  110 172 
 RUS  BZ I        19 6 29.32        14.6 0.29                           110 172 
 OCA  SZ EP   1   19 6 14.14                             125    -0.2 7  151 356 
 OCA  SZ ES   2   19 6 34.46                             125     0.1 5  151 356 
 CHI  HZ EP   1   19 6 25.72                             111    -0.3 6  255 193 
 CHI  HN ES   2   19 6 54.56                             111    -0.4 4  255 193 
 CHI  HZ I        19 6 59.99         8.0 0.59                           255 193 
 HEL  HZ EP   1   19 6 26.78                             110    -0.5 6  267 254 
 HEL  HZ I        19 6 59.73         5.7 0.51                           267 254 
 PRA  HZ EP   1   19 6 43.39                             102     1.3 4  396 208 
 PRA  HN ES   2   19 7 24.12                             102     0.6 3  396 208 
 PRA  HZ I        19 7 29.75         5.4 0.47                           396 208 
                                                                                
