 2012  817 1509 45.3 L   6.780 -73.151146.8  RSN  8 0.3 2.4LRSN                1
 GAP=137        0.63       3.4     3.5  4.7  0.1321E+01  0.2797E+01 -0.3563E+01E
 Epicentro: LOS SANTOS - SANTANDER                                             3
 ACTION:UPD 12-09-10 11:56 OP:ep   STATUS:               ID:20120817150945 L   I
 2012-08-17-1510-00M.COL___217                                                 6
 STAT SP IPHASW D HRMM SECON CODA AMPLIT PERI AZIMU VELO AIN AR TRES W  DIS CAZ7
 BAR2 SZ IP       1510  5.06                             171    0.0610 21.0 189 
 BAR2 SZ ES       1510 20.08                             171   -0.2910 21.0 189 
 BAR2 SZ I        1510 22.62        59.5 0.20                          21.0 189 
 GIR2 SZ EP       1510  5.13                             167   -0.0210 33.4 352 
 BRR  HZ EP       1510  6.92                             152    0.3310 71.8 300 
 BRR  HZ I        1510 11.53        62.6 0.13                          71.8 300 
 BRR  HE ES   1   1510 23.75                             152    0.56 7 71.8 300 
 PAM  SZ EP   1   1510  7.62                             150   -0.12 7 79.5  39 
 PAM  SE ES   1   1510 24.96                             150   -0.29 7 79.5  39 
 PAM  SZ I        1510 27.61        75.6 0.79                          79.5  39 
 RUS  HZ EP       1510  8.96                             145   -0.0310 98.4 176 
 RUS  HE ES       1510 27.72                             145    0.2510 98.4 176 
 RUS  HZ I        1510 30.55        32.3 0.49                          98.4 176 
 PTB  HZ EP   1   1510 11.77                             132   -0.49 7  147 260 
 PTB  HN ES   1   1510 32.90                             132   -0.38 7  147 260 
 PTB  HZ I        1510 40.60        24.5 0.29                           147 260 
 OCA  HZ EP   1   1510 14.02                             129    0.13 7  162 353 
 ZAR  HZ EP   1   1510 17.81                             122   -0.03 6  204 293 
 ZAR  HE ES   1   1510 43.22                             122    0.00 6  204 293 
 ZAR  HZ I        1510 50.71        23.9 0.22                           204 293 
                                                                                
