 2017  417 1448 47.9 L   6.807 -73.132143.9  RSN  9 0.6 1.7LRSN                1
 GAP=113        1.51       5.9     5.7  8.6 -0.1114E+01  0.9433E+01  0.7581E+01E
 Epicentro: LOS SANTOS - SANTANDER                                             3
 ACTION:UPD 17-05-30 21:13 OP:jn   STATUS:               ID:20170417144847 L   I
 OLDACT:REG 17-04-17 20:14 OP:cog  STATUS:               ID:20170417144739     3
 2017-04-17-1448-00M.COL___362                                                 6
 STAT SP IPHASW D HRMM SECON CODA AMPLIT PERI AZIMU VELO AIN AR TRES W  DIS CAZ7
 BAR2 EZ IP     D 1449  7.07                             170   -0.2910 24.4 193 
 BAR2 EZ ES       1449 22.62                             170    0.1110 24.4 193 
 BAR2 EZ I        1449 25.61        12.0 0.36            163           24.4 193 
 BRR  HZ EP       1449  8.83                             152   -0.1110 72.2 297 
 BRR  HN ES       1449 25.88                             152    0.5610 72.2 297 
 BRR  HZ I        1449 28.71        10.3 0.30            156           72.2 297 
 PAM  EZ EP       1449  9.95                             151    0.0910 75.9  39 
 PAM  EE ES       1449 26.61                             151   -0.3510 75.9  39 
 PAM  EZ I        1449 28.78        13.3 0.58            145           75.9  39 
 RUS  HZ EP       1449 11.26                             143   -0.2910  101 177 
 RUS  HE ES       1449 30.73                             143    0.7610  101 177 
 RUS  HZ I        1449 32.62         3.3 0.40            135            101 177 
 PTB  HZ EP       1449 13.85                             131   -1.05 9  149 259 
 PTB  HN ES       1449 34.82                             131   -1.11 9  149 259 
 PTB  HZ I        1449 37.43         9.8 0.42            130            149 259 
 SPBC HZ EP       1449 16.36                             128   -0.08 9  165 219 
 SPBC HN ES       1449 38.38                             128   -0.28 9  165 219 
 YPLC HZ EP       1449 17.67                             126    0.08 9  177 152 
 YPLC HZ I        1449 46.38         5.7 0.36            119            177 152 
 ZAR  HZ EP       1449 21.87                             122    1.50 9  205 292 
 ZAR  HN ES       1449 45.79                             122    0.12 9  205 292 
 NOR  HZ EP       1449 23.73                             118   -0.00 8  236 235 
 NOR  HN ES       1449 52.36                             118    0.71 8  236 235 
 NOR  HZ I        1449 55.06         4.6 0.24            115            236 235 
                                                                                
