 2017  117 1016 41.5 L   6.855 -73.140146.4  RSN  4 0.2 1.3LRSN                1
 GAP=280        0.53       4.1     4.0  4.3  0.4866E+01  0.3460E+01  0.2506E+01E
 Epicentro: LOS SANTOS - SANTANDER                                             3
 ACTION:UPD 17-05-22 16:00 OP:jn   STATUS:               ID:20170117101641 L   I
 OLDACT:UP  17-01-17 21:36 OP:cog  STATUS:               ID:20170117100743     3
 OLDACT:REG 17-01-17 20:08 OP:y    STATUS:               ID:20170117100743     3
 2017-01-17-1008-00M.COL___332                                                 6
 STAT SP IPHASW D HRMM SECON CODA AMPLIT PERI AZIMU VELO AIN AR TRES W  DIS CAZ7
 BAR2 EZ EP       1017  1.65                             168    0.3310 29.5 189 
 BAR2 EZ ES       1017 16.64                             168   -0.1510 29.5 189 
 BAR2 EZ I        1017 17.67         4.9 0.38            164           29.5 189 
 RUS  HZ EP       1017  5.72                             142   -0.0110  107 177 
 RUS  HN ES       1017 24.60                             142   -0.0510  107 177 
 RUS  HZ I        1017 25.86         1.8 0.46            140            107 177 
 PTB  HZ EP       1017  8.33                             132   -0.33 9  150 257 
 PTB  HN ES       1017 30.03                             132    0.17 9  150 257 
 PTB  HZ I        1017 31.42         2.2 0.16            131            150 257 
 CHI  HZ EP       1017 19.81                             117   -0.06 8  255 195 
 CHI  HE ES       1017 49.89                             117    0.08 8  255 195 
 CHI  HZ I        1017 54.10         1.8 0.60            116            255 195 
                                                                                
