 2012  117 1110 19.9 L   6.781 -73.206136.3  RSN  4 0.2 1.1LRSN                1
 GAP=143        0.54       5.2     5.4  9.4 -0.9773E+01  0.1833E+02  0.5766E+01E
 Epicentro: ZAPATOCA - SANTANDER                                               3
 ACTION:UP  12-02-03 08:18 OP:REBC STATUS:               ID:20120117111019 L   I
 2012-01-17-1110-00M.COL___188                                                 6
 STAT SP IPHASW D HRMM SECON CODA AMPLIT PERI AZIMU VELO SNR AR TRES W  DIS CAZ7
 BAR2 SZ EP   1   1110 38.54                             171     0.2 7   21 173 
 BAR2 SZ I        1110 55.24         2.1 0.15                            21 173 
 PAM  SZ EP   1   1110 41.52                             147     0.1 7   83  42 
 PAM  SZ I        1110 41.73         2.3 0.15                            83  42 
 PAM  SN ES   1   1110 58.21                             147    -0.1 7   83  42 
 RUS  HZ EP   1   1110 42.23                             142    -0.4 7   99 172 
 RUS  HN ES   2   1111  0.54                             142     0.2 5   99 172 
 RUS  HZ I        1111  2.98         3.0 0.32                            99 172 
 PTB  HZ EP   1   1110 45.62                             131     0.2 7  141 259 
 PTB  HN ES   2   1111  5.14                             131    -0.2 5  141 259 
 PTB  HZ I        1111  7.76         0.0 0.26                           141 259 
                                                                                
