 2011  917 1508 23.1 L   6.781 -73.073147.5  RSN 13 0.3 2.4LRSN                1
 GAP=147        0.40       2.1     3.0  3.4 -0.1388E+01  0.2889E+01  0.2715E+00E
 Epicentro: LOS SANTOS - SANTANDER                                             3
 ACTION:UPD 12-07-13 15:58 OP:ep   STATUS:               ID:20110917150823 L   I
 2011-09-17-1505-04S.COL___171                                                 6
 STAT SP IPHASW D HRMM SECON CODA AMPLIT PERI AZIMU VELO AIN AR TRES W  DIS CAZ7
 BAR2 SZ IP       15 8 42.93                             170   -0.0610 24.1 210 
 BAR2 SZ I        15 8 43.31        64.8 0.11                          24.1 210 
 BAR2 SZ ES   2   15 8 58.55                             170    0.08 5 24.1 210 
 BTL  SZ EP   1   15 8 43.10                             169    0.06 7 26.3 305 
 BTL  SZ ES   2   15 8 58.95                             169    0.39 5 26.3 305 
 GIR2 SZ EP   2   15 8 42.93                             166   -0.20 5 35.5 338 
 GIR2 SZ ES   2   15 8 58.53                             166   -0.20 5 35.5 338 
 PAM  SZ EP   1   15 8 45.79                             152    0.44 7 74.3  34 
 PAM  SN ES   2   15 9  2.48                             152   -0.20 5 74.3  34 
 BRR  HZ EP       15 8 44.75                             150   -0.1910 79.3 297 
 BRR  HN ES   2   15 9  1.60                             150   -0.35 5 79.3 297 
 BRR  HZ I        15 9  4.62        74.7 0.08                          79.3 297 
 RUS  HZ EP   2   15 8 46.91                             145    0.02 5 98.3 181 
 RUS  HE ES   2   15 9  5.31                             145   -0.11 5 98.3 181 
 RUS  HZ I        15 9  7.01        25.9 0.40                          98.3 181 
 OCA  SZ EP   1   15 8 51.94                             129    0.06 7  163 350 
 OCA  SZ ES   2   15 9 14.47                             129    0.17 5  163 350 
 OCA  SZ I        15 9 18.26        28.2 0.31                           163 350 
 ZAR  HZ EP   2   15 8 56.57                             122    0.03 4  212 292 
 ZAR  HE ES   2   15 9 22.66                             122    0.06 4  212 292 
 ZAR  HZ I        15 9 26.88        39.0 0.36                           212 292 
 NOR  SZ EP   2   15 8 59.14                             118   -0.40 4  240 236 
 NOR  SE ES   2   15 9 27.86                             118   -0.08 4  240 236 
 CHI  HZ EP   2   15 9  0.35                             117   -0.60 4  249 197 
 CHI  HN ES   2   15 9 31.03                             117    0.58 4  249 197 
 CHI  HZ I        15 9 34.19         6.2 0.54                           249 197 
 HEL  HZ EP   2   15 9  4.29                             114    0.05 4  279 257 
 HEL  HN ES   2   15 9 36.97                             114    0.66 4  279 257 
 HEL  HZ I        15 9 41.50        16.1 0.45                           279 257 
 RREF HZ EP   2   15 9  9.89                             111   -0.01 3  327 231 
 RREF HE ES   2   15 9 46.48                             111    0.11 3  327 231 
 RREF HZ I        15 9 57.17         7.7 0.37                           327 231 
 COD  HN ES   2   15 9 49.90                             109   -0.06 3  351 353 
 COD  HZ I        15 9 53.95        21.5 0.68                           351 353 
                                                                                
