 2011  917 1419 32.8 L   6.849 -73.157156.9  RSN  8 0.3 1.9LRSN                1
 GAP=133        0.43       3.2     3.7  4.7 -0.6714E+00  0.2989E+01  0.4777E+01E
 Epicentro: LOS SANTOS - SANTANDER                                             3
 ACTION:UPD 12-07-13 15:57 OP:ep   STATUS:               ID:20110917141932 L   I
 2011-09-17-1414-11S.COL___170                                                 6
 STAT SP IPHASW D HRMM SECON CODA AMPLIT PERI AZIMU VELO AIN AR TRES W  DIS CAZ7
 BTL  SZ EP   1   1419 54.02                             174    0.34 7 14.4 302 
 BTL  SZ ES   2   1420  9.93                             174    0.00 5 14.4 302 
 GIR2 SZ EP   3   1419 53.80                             170    0.09 2 25.7 351 
 GIR2 SZ ES   2   1420  9.84                             170   -0.15 5 25.7 351 
 BRR  HZ EP   2   1419 54.46                             155   -0.56 5 67.6 295 
 BRR  HZ I        1419 54.72         4.3 0.09                          67.6 295 
 BRR  HE ES   2   1420 12.72                             155    0.40 5 67.6 295 
 PAM  SZ EP   1   1419 56.19                             153    0.12 7 74.1  43 
 PAM  SN ES   2   1420 14.08                             153   -0.11 5 74.1  43 
 RUS  HZ EP   1   1419 57.84                             145   -0.24 7  106 176 
 RUS  HN ES   2   1420 17.48                             145   -0.29 5  106 176 
 RUS  HZ I        1420 18.38         8.7 0.35                           106 176 
 ZAR  HZ EP   2   1420  5.65                             125   -0.07 4  201 291 
 ZAR  HE ES   2   1420 31.38                             125    0.01 4  201 291 
 ZAR  HZ I        1420 37.73        16.5 0.21                           201 291 
 NOR  SZ EP   2   1420  9.33                             120   -0.14 4  237 233 
 NOR  SN ES   2   1420 37.73                             120   -0.31 4  237 233 
 CHI  HZ EP   2   1420 12.17                             119    0.47 4  254 195 
 CHI  HZ I        1420 13.06         6.0 0.91                           254 195 
 CHI  HN ES   2   1420 42.36                             119    0.35 4  254 195 
                                                                                
