 2010  217 1156 45.0 L   6.827 -72.954148.1  RSN  4 0.2 1.7LRSN                1
 GAP=324        0.45       7.4    16.0  6.2 -0.6158E+02  0.1968E+02  0.7229E+01E
 Epicentro: CEPITA - SANTANDER                                                 3
 ACTION:UP  10-08-24 09:49 OP:vdl  STATUS:               ID:20100217115645 L   I
 2010-02-17-1140-00S.COL___092                                                 6
 STAT SP IPHASW D HRMM SECON CODA AMPLIT PERI AZIMU VELO SNR AR TRES W  DIS CAZ7
 BAR2 SZ EP   1   1157  5.45                             166     0.2 7   36 224 
 BAR2 SZ ES   2   1157 20.74                             166    -0.2 5   36 224 
 RUS  BZ EP   1   1157  9.31                             143     0.1 7  104 188 
 RUS  BE ES   2   1157 27.99                             143    -0.1 5  104 188 
 RUS  BZ I        1157 28.86         4.3 0.58                           104 188 
 CHI  HZ EP   1   1157 23.52                             117    -0.3 6  258 200 
 CHI  HN ES   2   1157 54.33                             117     0.3 4  258 200 
 CHI  HZ I        1157 56.39         2.5 0.47                           258 200 
 PRA  HZ EP   1   1157 39.78                             106    -0.4 4  405 212 
 PRA  HE ES   2   1158 23.38                             106     0.2 3  405 212 
 PRA  HZ I        1158 27.14         3.3 0.71                           405 212 
                                                                                
