 2012  517 1647  5.2 L   6.751 -73.132147.8  RSN  6 0.4 1.6LRSN                1
 GAP=141        0.93       8.1     8.5  9.0  0.5992E+01  0.9215E+00  0.1453E+02E
 Epicentro: LOS SANTOS - SANTANDER                                             3
 ACTION:UP  12-07-05 12:05 OP:pat  STATUS:               ID:20120517164705 L   I
 2012-05-17-1640-00M.COL___197                                                 6
 STAT SP IPHASW D HRMM SECON CODA AMPLIT PERI AZIMU VELO SNR AR TRES W  DIS CAZ7
 BAR2 SZ EP       1647 25.01                             173     0.010   18 198 
 BAR2 SZ I        1647 25.10        10.1 0.10                            18 198 
 BAR2 SZ ES   1   1647 39.93                             173    -0.5 7   18 198 
 BRR  HZ EP       1647 26.86                             152     0.110   75 302 
 BRR  HZ I        1647 28.82        12.1 0.14                            75 302 
 BRR  HN ES   1   1647 44.32                             152     0.7 7   75 302 
 PAM  SZ EP       1647 27.92                             150     0.110   81  36 
 PAM  SE ES   3   1647 44.99                             150    -0.5 2   81  36 
 RUS  HZ EP       1647 28.84                             146     0.110   95 177 
 RUS  HE ES   3   1647 47.73                             146     0.6 2   95 177 
 RUS  HZ I        1647 48.38         4.4 0.28                            95 177 
 PTB  HZ EP       1647 31.80                             133    -0.6 9  148 261 
 PTB  HZ I        1647 58.77         3.1 0.26                           148 261 
 CHI  HZ EP   2   1647 43.28                             118     0.8 4  244 196 
                                                                                
