 2011  117 1153  1.2 L   6.776 -73.105140.1  RSN  5 0.4 1.7LRSN                1
 GAP=163        0.79       4.7     9.5 11.5 -0.2510E+02  0.4826E+02 -0.6419E+01E
 Epicentro: LOS SANTOS - SANTANDER                                             3
 ACTION:UP  11-02-08 08:41 OP:pat  STATUS:               ID:20110117115301 L   I
 2011-01-17-1149-36S.COL___135                                                 6
 STAT SP IPHASW D HRMM SECON CODA AMPLIT PERI AZIMU VELO SNR AR TRES W  DIS CAZ7
 BAR2 SZ EP   1   1153 20.36                             171     0.2 7   22 203 
 BAR2 SZ I        1153 36.29         8.9 0.22                            22 203 
 RUS  HZ EP   1   1153 24.51                             143     0.3 7   98 179 
 RUS  HN ES   1   1153 42.03                             143    -0.1 7   98 179 
 RUS  HZ I        1153 44.87         6.0 0.31                            98 179 
 GRA  SZ EP   1   1153 25.87                             135    -0.2 7  127  15 
 GRA  SZ ES   1   1153 45.37                             135    -0.1 7  127  15 
 GRA  SZ I        1153 46.79        11.8 0.25                           127  15 
 NOR  SZ EP   1   1153 36.27                             117    -0.6 6  237 236 
 NOR  SN ES   1   1154  5.05                             117     0.4 6  237 236 
 CHI  HZ EP   1   1153 38.99                             116     0.5 6  247 196 
 CHI  HZ I        1153 40.72         3.0 0.21                           247 196 
 CHI  HN ES   1   1154  6.88                             116    -0.6 6  247 196 
                                                                                
