 2010  517 1458 30.4 L   6.753 -73.003148.9  RSN  5 0.1 2.1LRSN                1
 GAP=189        0.32       3.4     6.0  4.9 -0.7886E+01 -0.1000E+02  0.2738E+01E
 Epicentro: CEPITA - SANTANDER                                                 3
 ACTION:UP  10-08-24 10:05 OP:vdl  STATUS:               ID:20100517145830 L   I
 2010-05-17-1449-35S.COL___097                                                 6
 STAT SP IPHASW D HRMM SECON CODA AMPLIT PERI AZIMU VELO AIN AR TRES W  DIS CAZ7
 BAR2 SZ EP       1458 50.37                             169    -0.110   27 228 
 BAR2 SZ ES   2   1459  6.27                             169     0.2 5   27 228 
 BRR  HZ EP   1   1458 52.96                             148     0.1 7   88 297 
 BRR  HN ES   2   1459 10.28                             148    -0.1 5   88 297 
 BRR  HZ I        1459 12.83        26.9 0.13                            88 297 
 GUE  SZ EP   2   1458 55.47                             139    -0.1 5  119   4 
 GRA  SZ EP   1   1458 56.13                             137     0.1 7  127  10 
 GRA  SZ ES   2   1459 15.88                             137    -0.1 5  127  10 
 CHI  HZ EP   2   1459  8.19                             118     0.0 4  248 199 
 CHI  HZ I        1459 40.97         5.5 0.52                           248 199 
                                                                                
