 2015  617 1910 23.9 L   6.781 -73.118142.0  RSN  5 0.3 1.9LRSN                1
 GAP=141        0.78       4.4     4.3  6.2  0.2380E+01  0.7707E+01 -0.5851E+01E
 Epicentro: LOS SANTOS - SANTANDER                                             3
 ACTION:UPD 15-09-10 22:13 OP:cam  STATUS:               ID:20150617191023 L   I
 OLDACT:REG 15-06-17 21:47 OP:stll STATUS:               ID:20150617190750     3
 2015-06-17-1907-50M.COL___309                                                 6
 STAT SP IPHASW D HRMM SECON CODA AMPLIT PERI AZIMU VELO AIN AR TRES W  DIS CAZ7
 BAR2 EZ EP       1910 42.83                             171   -0.2610 22.1 199 
 BAR2 EZ ES       1910 57.59                             171   -0.4410 22.1 199 
 BAR2 EZ I        1910 58.98        13.3 0.16            170           22.1 199 
 BRR  HZ EP       1910 45.03                             151    0.1310 74.9 299 
 BRR  HZ I        1910 45.70        22.6 0.40            148           74.9 299 
 BRR  HN ES       1911  1.75                             151    0.5010 74.9 299 
 PAM  SZ EP       1910 45.78                             150    0.0410 77.1  37 
 PAM  SZ I        1910 46.16        11.9 0.26            151           77.1  37 
 PAM  SN ES       1911  2.72                             150   -0.0210 77.1  37 
 RUS  HN ES       1911  5.49                             144    0.2310 98.3 178 
 ZAR  HZ EP       1910 56.69                             121    0.17 8  208 292 
 ZAR  HN ES       1911 21.50                             121   -0.43 8  208 292 
 ZAR  HZ I        1911 27.44         6.8 0.36            120            208 292 
                                                                                
