 2013  317 1807 31.2 L   6.805 -73.205143.3  RSN  8 0.3 1.7LRSN                1
 GAP=129        0.72       2.9     3.6  5.2 -0.1278E+01  0.3901E+01 -0.5854E+00E
 Epicentro: ZAPATOCA - SANTANDER                                               3
 ACTION:UPD 13-04-09 14:03 OP:ep   STATUS:               ID:20130317180731 L   I
 2013-03-17-1800-00M.COL___244                                                 6
 STAT SP IPHASW D HRMM SECON CODA AMPLIT PERI AZIMU VELO AIN AR TRES W  DIS CAZ7
 BAR2 SZ EP   1   18 7 50.51                             170   -0.07 7 23.6 174 
 BAR2 SZ ES   1   18 8  5.56                             170   -0.11 7 23.6 174 
 BAR2 SZ I        18 8  6.91        11.2 0.38            168           23.6 174 
 BRR  HZ EP   1   18 7 52.19                             154    0.39 7 65.2 301 
 BRR  HN ES   1   18 8  8.20                             154    0.37 7 65.2 301 
 BRR  HZ I        18 8 24.02        12.1 0.34            149           65.2 301 
 PAM  SZ EP       18 7 53.45                             149    0.0110 81.3  43 
 PAM  SN ES   2   18 8 10.63                             149   -0.13 5 81.3  43 
 PAM  SZ I        18 8 12.79        12.2 0.52            158           81.3  43 
 RUS  HZ EP       18 7 54.42                             143   -0.4210  102 172 
 RUS  HN ES   1   18 8 13.53                             143    0.29 7  102 172 
 PTB  HZ EP       18 7 57.23                             133   -0.21 9  141 258 
 PTB  HN ES   1   18 8 17.35                             133   -0.52 7  141 258 
 PTB  HZ I        18 8 25.88         8.0 0.26            133            141 258 
 OCA  HZ EP       18 7 59.72                             129    0.47 9  159 355 
 OCA  HN ES       18 8 20.91                             129   -0.19 9  159 355 
 ZAR  HZ EP       18 8  2.76                             123   -0.12 9  198 293 
 ZAR  HN ES   1   18 8 27.32                             123   -0.24 6  198 293 
 ZAR  HZ I        18 8 36.80         5.9 0.30            125            198 293 
 NOR  HZ EP       18 8  6.38                             119    0.09 8  230 233 
 NOR  HN ES   1   18 8 34.44                             119    0.81 6  230 233 
 NOR  HZ I        18 8 41.39         2.5 0.20            122            230 233 
                                                                                
