 2016 1217 1412 27.1 L   6.829 -73.260142.0  RSN  6 0.3 1.7LRSN                1
 GAP=115        0.84       4.0     3.5  6.6 -0.1371E+01  0.9837E+01 -0.2702E+01E
 Epicentro: ZAPATOCA - SANTANDER                                               3
 ACTION:UPD 17-01-11 20:16 OP:rebc STATUS:               ID:20161217141227 L   I
 OLDACT:UP  16-12-17 23:49 OP:cara STATUS:               ID:20161217140744     3
 OLDACT:REG 16-12-17 19:50 OP:edw  STATUS:               ID:20161217140744     3
 2016-12-17-1408-00M.COL___369                                                 6
 STAT SP IPHASW D HRMM SECON CODA AMPLIT PERI AZIMU VELO AIN AR TRES W  DIS CAZ7
 BAR2 EZ EP       1412 46.69                             168    0.2910 27.5 162 
 BAR2 EZ ES       1413  1.48                             168    0.0510 27.5 162 
 BAR2 EZ I        1413  2.91        20.2 0.30            173           27.5 162 
 PAM  EZ EP       1412 49.69                             148    0.3510 83.8  48 
 PAM  EN ES       1413  6.28                             148   -0.3910 83.8  48 
 PAM  EZ I        1413  9.15         9.2 0.72            152           83.8  48 
 RUS  HZ EP       1412 51.21                             142    0.3510  105 169 
 RUS  HN ES       1413  9.08                             142   -0.3010  105 169 
 RUS  HZ I        1413 10.29         4.2 0.28            148            105 169 
 PTB  HZ EP       1412 52.48                             134   -0.26 9  136 256 
 PTB  HN ES       1413 13.07                             134    0.36 9  136 256 
 PTB  HZ I        1413 20.05         7.9 0.16            134            136 256 
 ZAR  HZ EP       1412 57.49                             123   -0.51 9  191 293 
 ZAR  HN ES       1413 22.26                             123    0.18 9  191 293 
 ZAR  HZ I        1413 31.27         6.2 0.42            125            191 293 
 GUY2CHN ES       1413 42.40                             112   -0.37 7  293 233 
                                                                                
