 2017 1017 1753 48.1 L   6.753 -73.114143.9  RSN 11 0.4 1.8LRSN                1
 GAP=116        0.87       3.3     3.4  5.0  0.2195E+01  0.6984E+00  0.4311E+01E
 Epicentro: LOS SANTOS - SANTANDER                                             3
 ACTION:UPD 17-11-07 19:33 OP:rebc STATUS:               ID:20171017175348 L   I
 OLDACT:UP  17-10-17 23:59 OP:edw  STATUS:               ID:20171017174741     3
 OLDACT:REG 17-10-17 21:05 OP:edw  STATUS:               ID:20171017174741     3
 2017-10-17-1748-00M.COL___422                                                 6
 STAT SP IPHASW D HRMM SECON CODA AMPLIT PERI AZIMU VELO AIN AR TRES W  DIS CAZ7
 BAR2 EZ EP     C 1754  7.23                             172   -0.2310 19.3 203 
 BAR2 EZ ES       1754 21.86                             172   -0.6810 19.3 203 
 BAR2 EZ I        1754 23.78        10.3 0.46            171           19.3 203 
 BRR  HZ EP       1754  9.29                             150   -0.1210 76.8 301 
 BRR  HN ES       1754 26.19                             150    0.1810 76.8 301 
 BRR  HZ I        1754 27.09        12.0 0.46            150           76.8 301 
 PAM  EZ EP       1754 10.56                             150    0.2810 79.4  35 
 PAM  EN ES       1754 27.61                             150    0.0610 79.4  35 
 PAM  EZ I        1754 30.90         7.6 0.72            152           79.4  35 
 RUS  HZ EP       1754 11.32                             145    0.0110 95.2 178 
 RUS  HN ES       1754 29.52                             145    0.1310 95.2 178 
 RUS  HZ I        1754 31.97         9.2 0.28            146           95.2 178 
 PTB  HZ EP   9   1754 13.87                             131   -1.31 0  150 261 
 PTB  HN ES       1754 34.92                             130   -0.05 9  150 261 
 PTB  HZ I        1754 38.81         6.5 0.44            131            150 261 
 YPLC HZ EP       1754 17.28                             127    0.10 9  171 152 
 YPLC HN ES       1754 40.44                             127    0.61 9  171 152 
 YPLC HZ I        1754 41.83         9.0 0.24            129            171 152 
 ZAR  HZ EP   4   1754 22.62                             121    1.62 0  209 293 
 ZAR  HN ES       1754 46.95                             121    0.31 8  209 293 
 ZAR  HZ I        1754 51.60        10.9 0.48            122            209 293 
 NOR  HZ EP       1754 23.74                             118   -0.00 8  235 236 
 NOR  HN ES       1754 51.45                             118   -0.06 8  235 236 
 NOR  HZ I        1754 56.53         7.8 0.20            118            235 236 
 CHI  HZ EP   4   1754 21.24                             117   -4.04 0  245 196 
 CHI  HN ES   2   1754 54.97                             117    0.71 4  245 196 
 GUY2CHZ EP   4   1754 33.44                             112    1.80 0  301 236 
 GUY2CHN ES   4   1755  7.08                             112    1.50 0  301 236 
 GUY2CHZ I        1755 12.58         3.6 0.30                           301 236 
 PTGC HZ EP       1754 30.22                             112   -0.99 7  303 159 
 PTGC HN ES   4   1755  3.33                             112   -1.48 0  303 159 
                                                                                
