 2015 1017 1042 17.7 L   6.836 -73.152142.3  RSN 16 0.5 2.0LRSN                1
 GAP= 70        1.19       2.8     3.3  5.6 -0.1439E+00  0.5855E+01  0.1499E+01E
 Epicentro: LOS SANTOS - SANTANDER                                             3
 ACTION:UPD 15-12-22 20:40 OP:cam  STATUS:               ID:20151017104217 L   I
 OLDACT:REG 15-10-17 20:31 OP:stll STATUS:               ID:20151017103749     3
 2015-10-17-1037-49M.COL___334                                                 6
 STAT SP IPHASW D HRMM SECON CODA AMPLIT PERI AZIMU VELO AIN AR TRES W  DIS CAZ7
 BAR2 EZ EP     C 1042 37.04                             169    0.0210 27.1 187 
 BAR2 EZ ES       1042 51.75                             169   -0.3210 27.1 187 
 BAR2 EZ I        1042 54.93        16.1 0.34            169           27.1 187 
 BRR  HZ IP     C 1042 38.79                             153    0.4310 68.8 296 
 BRR  HE ES       1042 55.19                             153    0.7310 68.8 296 
 BRR  HZ I        1042 56.29        26.2 0.32            150           68.8 296 
 PAM  EZ IP     D 1042 39.97                             151    0.5510 74.8  42 
 PAM  EN ES       1042 56.55                             151    0.2110 74.8  42 
 PAM  EZ I        1042 58.31        12.6 0.40            153           74.8  42 
 RUS  HZ EP     C 1042 41.11                             142   -0.3210  105 176 
 RUS  HE ES       1042 59.56                             142   -0.3610  105 176 
 RUS  HZ I        1043  1.53        11.2 0.18            145            105 176 
 OCA  HZ EP       1042 45.68                             130    0.29 9  156 353 
 OCA  HN ES       1043  6.89                             130   -0.08 9  156 353 
 OCA  HZ I        1043 11.33        31.9 0.16            130            156 353 
 TAM  HZ EP     D 1042 45.48                             129    0.19 9  157 106 
 TAM  HN ES       1043  6.25                             129   -0.54 9  157 106 
 SPBC HZ EP     D 1042 46.28                             128    0.07 9  166 218 
 SPBC HZ I        1042 46.47        18.0 0.12            128            166 218 
 SPBC HN ES       1043  8.46                             128    0.03 9  166 218 
 ZAR  HZ EP       1042 49.90                             122    0.17 9  202 291 
 ZAR  HE ES       1043 15.25                             122    0.56 9  202 291 
 ZAR  HZ I        1043 21.23        17.0 0.44            121            202 291 
 NOR  HZ EP     C 1042 53.86                             118    0.42 8  236 234 
 NOR  HN ES       1043 21.49                             118    0.19 8  236 234 
 NOR  HZ I        1043 24.67         6.2 0.30            118            236 234 
 SML  HZ EP       1042 53.45                             117   -0.29 8  240 335 
 SML  HN ES       1043 20.89                             117   -0.94 8  240 335 
 SML  HZ I        1043 25.11        15.3 0.10            117            240 335 
 CHI  HZ EP       1042 55.47                             116   -0.16 8  252 195 
 CHI  HZ I        1042 56.37         3.2 0.14            117            252 195 
 CHI  HN ES       1043 24.84                             116   -0.35 8  252 195 
 HEL  HZ EP       1042 58.34                             114    0.54 8  272 255 
 HEL  HN ES       1043 29.08                             114    0.02 8  272 255 
 HEL  HZ I        1043 36.50         7.0 0.26            114            272 255 
 URE  HZ EP       1042 57.09                             113   -1.30 7  282 291 
 URE  HN ES       1043 28.75                             113   -1.36 7  282 291 
 URE  HZ I        1043 39.22         6.7 0.22            113            282 291 
 GUY2CHZ EP       1043  2.52                             111    1.15 7  303 234 
 GUY2CHE ES       1043 34.95                             111   -0.46 7  303 234 
 GUY2CHZ I        1043 45.21         8.0 0.68                           303 234 
 MON  HZ EP   9   1043  4.36                             108   -1.89 0  351 308 
 MON  HN ES       1043 41.86                                   -0.35 6  351 308 
 MON  HZ I        1043 56.00         2.3 0.54            108            351 308 
 ORTC HZ EP       1043 12.12                             106    0.27 6  398 216 
 ORTC HE ES       1043 53.97                             106   -0.10 6  398 216 
 ORTC HZ I        1043 59.70         3.2 0.32            106            398 216 
                                                                                
