 2017  517 1918 20.6 L   6.812 -73.129144.0  RSN 24 0.4 3.0LRSN 3.4WRSN        1
 SPEC AVERAGE  MO 14.1 ST 72.8 OM  2.2 f0 4.34 R1.2217 AL 0.00 WI 30.0 MW  3.4 3
 SPEC SD       MO  0.2 ST257.2 OM  0.3 f0 8.19 R0.7043 AL      WI      MW  0.1 3
 GAP=113        0.86       2.2     2.8  4.4 -0.4502E+00  0.2004E+01  0.1650E+01E
 Epicentro: LOS SANTOS - SANTANDER                                             3
 SPEC PAM EH Z MO 13.9 ST0.224 OM  2.0 f0 1.63 R1.1804 AL-0.00 WI 30.0 MW  3.2 3
 SPEC PAM EH Z T191858 K 0.000 GD  162 VS 5.20 DE 3.50 Q0750.0 QA 1.50 VS 5.20 3
 SPEC PTB HH Z MO 13.9 ST0.508 OM  1.9 f0 2.13 R0.9033 AL-0.00 WI 30.0 MW  3.2 3
 SPEC PTB HH Z T1919 5 K 0.000 GD  207 VS 5.20 DE 3.50 Q0750.0 QA 1.50 VS 5.20 3
 SPEC SPBCHH Z MO 13.8 ST 12.1 OM  1.7 f0 7.03 R0.2737 AL-0.00 WI 30.0 MW  3.1 3
 SPEC SPBCHH Z T1919 9 K 0.000 GD  219 VS 5.20 DE 3.50 Q0750.0 QA 1.50 VS 5.20 3
 SPEC YPLCHN Z MO 14.4 ST999.9 OM  2.3 f0 33.3 R0.0578 AL-0.00 WI 30.0 MW  3.5 3
 SPEC YPLCHN Z T191911 K 0.000 GD  228 VS 5.20 DE 3.50 Q0750.0 QA 1.50 VS 5.20 3
 SPEC ZAR HH Z MO 14.0 ST  3.2 OM  1.9 f0 3.68 R0.5228 AL-0.00 WI 30.0 MW  3.3 3
 SPEC ZAR HH Z T191916 K 0.000 GD  250 VS 5.20 DE 3.50 Q0750.0 QA 1.50 VS 5.20 3
 SPEC TABCEH Z MO 14.2 ST0.180 OM  2.1 f0 1.18 R1.6305 AL-0.00 WI 30.0 MW  3.4 3
 SPEC TABCEH Z T191924 K 0.000 GD  273 VS 5.20 DE 3.50 Q0750.0 QA 1.50 VS 5.20 3
 SPEC NOR HH Z MO 13.9 ST  1.3 OM  1.7 f0 3.08 R0.6247 AL-0.00 WI 30.0 MW  3.2 3
 SPEC NOR HH Z T191922 K 0.000 GD  277 VS 5.20 DE 3.50 Q0750.0 QA 1.50 VS 5.20 3
 SPEC HEL HH Z MO 14.1 ST0.135 OM  1.9 f0 1.20 R1.6033 AL-0.00 WI 30.0 MW  3.3 3
 SPEC HEL HH Z T191930 K 0.000 GD  309 VS 5.20 DE 3.50 Q0750.0 QA 1.50 VS 5.20 3
 SPEC VIL EH Z MO 14.1 ST0.179 OM  1.9 f0 1.28 R1.5031 AL-0.00 WI 30.0 MW  3.4 3
 SPEC VIL EH Z T191936 K 0.000 GD  337 VS 5.20 DE 3.50 Q0750.0 QA 1.50 VS 5.20 3
 SPEC ELA HH Z MO 14.6 ST0.095 OM  2.3 f00.746 R2.5791 AL-0.00 WI 30.0 MW  3.7 3
 SPEC ELA HH Z T191942 K 0.000 GD  360 VS 5.20 DE 3.50 Q0750.0 QA 1.50 VS 5.20 3
 SPEC CBOCHH Z MO 14.3 ST0.062 OM  2.0 f00.812 R2.3695 AL-0.00 WI 30.0 MW  3.5 3
 SPEC CBOCHH Z T191941 K 0.000 GD  365 VS 5.20 DE 3.50 Q0750.0 QA 1.50 VS 5.20 3
 SPEC ANILHH Z MO 14.3 ST0.606 OM  2.0 f0 1.70 R1.1318 AL-0.00 WI 30.0 MW  3.5 3
 SPEC ANILHH Z T191948 K 0.000 GD  387 VS 5.20 DE 3.50 Q0750.0 QA 1.50 VS 5.20 3
 SPEC ORTCHH Z MO 14.0 ST0.368 OM  1.7 f0 1.76 R1.0932 AL-0.00 WI 30.0 MW  3.3 3
 SPEC ORTCHH Z T191955 K 0.000 GD  423 VS 5.20 DE 3.50 Q0750.0 QA 1.50 VS 5.20 3
 SPEC SJC HH Z MO 14.0 ST0.114 OM  1.7 f0 1.18 R1.6305 AL-0.00 WI 30.0 MW  3.3 3
 SPEC SJC HH Z T191953 K 0.000 GD  433 VS 5.20 DE 3.50 Q0750.0 QA 1.50 VS 5.20 3
 OLDACT:DUP 17-05-18 00:27 OP:lv   STATUS:               ID:20170517190729d    3
 ACTION:UPD 17-06-16 13:36 OP:jn   STATUS:               ID:20170517191820 L   I
 2017-05-17-1908-00M.COL___353                                                 6
 STAT SP IPHASW D HRMM SECON CODA AMPLIT PERI AZIMU VELO AIN AR TRES W  DIS CAZ7
 BRR  HZ EP       1918 41.68                             152    0.0210 72.2 297 
 BRR  HN ES       1918 58.51                             152    0.4610 72.2 297 
 BRR  HZ I        1919  3.19       172.3 0.21            149           72.2 297 
 PAM  EZ IP     D 1918 42.65                             151    0.1110 75.2  39 
 PAM  EN ES       1918 59.81                             151    0.1910 75.2  39 
 PAM  EZ I        1919  1.96       177.2 0.07            152           75.2  39 
 PTB  HZ EP   9   1918 46.46                             131   -1.20 0  150 258 
 PTB  HN ES       1919  7.47                                   -0.06 9  150 258 
 PTB  HZ I        1919 10.14       283.1 0.05            129            150 258 
 SPBC HZ EP       1918 48.68                             128   -0.54 9  165 219 
 SPBC HN ES       1919 11.02                             128   -0.49 9  165 219 
 SPBC HZ I        1919 16.69        76.3 0.37            127            165 219 
 YPLC HZ IP     C 1918 50.24                             126   -0.11 9  177 152 
 YPLC HN ES       1919 13.26                             126   -0.25 9  177 152 
 YPLC HZ I        1919 14.95       106.3 0.28            126            177 152 
 ZAR  HZ EP       1918 52.67                             122   -0.43 8  205 292 
 ZAR  HN ES       1919 18.32                             122   -0.09 8  205 292 
 ZAR  HZ I        1919 24.65       205.9 0.11            120            205 292 
 TABC EZ EP       1918 57.47                             119    0.96 8  232 211 
 TABC EZ ES   4   1919 26.00                             119    1.51 0  232 211 
 TABC EZ I        1919 31.47       103.6 0.50            118            232 211 
 NOR  HZ EP       1918 56.33                             118   -0.19 8  237 234 
 NOR  HN ES       1919 23.92                             118   -0.57 8  237 234 
 NOR  HZ I        1919 25.60        79.7 0.18            117            237 234 
 CHI  HZ EP       1918 58.16                             117   -0.28 8  250 195 
 CHI  HN ES       1919 27.88                             117   -0.04 8  250 195 
 CHI  HZ I        1919 33.19        50.8 0.12            116            250 195 
 ROSC BZ EP   9   1918 59.82                             116    0.92 0  255 211 
 ROSC BN ES       1919 30.49                                    0.83 8  255 211 
 ROSC BZ I        1919 36.12       107.4 0.23            115            255 211 
 HEL  HZ EP       1919  1.34                             114    0.34 8  274 256 
 HEL  HN ES       1919 32.32                             114   -0.16 8  274 256 
 HEL  HZ I        1919 40.03        45.1 0.28            113            274 256 
 LL1C HZ EP   4   1919  6.40                             112    2.36 0  305 351 
 LL1C HN ES   4   1919 42.11                             112    4.23 0  305 351 
 VIL  EZ EP   4   1919  3.12                             112   -1.06 0  305 192 
 VIL  EN ES       1919 38.28                             112    0.15 7  305 192 
 VIL  EZ I        1919 41.81        48.7 0.26            111            305 192 
 PTGC HN EP   4   1919  3.10                             111   -1.39 0  309 159 
 PTGC HE ES   4   1919 36.22                             111   -2.48 0  309 159 
 RECRCHZ EP   4   1919  8.12                             111    1.69 0  320 230 
 RECRCHN ES   4   1919 43.86                             111    1.72 0  320 230 
 ELA  HZ EP   4   1919  8.81                             110    1.13 0  331 229 
 ELA  HE ES       1919 44.21                             110   -0.16 7  331 229 
 ELA  HZ I        1919 56.77        29.9 0.16            109            331 229 
 CBOC HZ EP       1919  8.01                             109    0.28 7  336 252 
 CBOC HN ES   4   1919 43.48                             109   -0.98 0  336 252 
 DBB  EZ EP       1919  8.61                             109    0.36 7  341 274 
 DBB  EN ES   4   1919 42.96                             109   -2.41 0  341 274 
 DBB  EZ I        1919 45.83        17.0 0.07            108            341 274 
 ARGC HZ EP       1919 10.45                             108    0.29 6  359 340 
 ARGC HN ES       1919 48.28                             108   -0.49 6  359 340 
 ARGC HZ I        1919 58.48        20.1 0.33            107            359 340 
 ANIL HZ EP       1919 11.20                             108    0.56 6  360 225 
 ANIL HN ES       1919 50.25                             108    0.61 6  360 225 
 ANIL HZ I        1919 55.85        99.1 0.34            107            360 225 
 ORTC HZ EP       1919 14.74                             106   -0.02 6  398 216 
 ORTC HN ES       1919 57.42                             106    0.45 6  398 216 
 ORTC HZ I        1920  4.18        27.7 0.33            105            398 216 
 APAC HN ES   4   1919 53.78                             106   -3.49 0  400 288 
 APAC HZ I        1919 58.01        12.4 0.19            105            400 288 
 PAL  HZ EP       1919 15.97                             106   -0.04 6  408 239 
 PAL  HN ES   4   1919 58.01                             106   -1.18 0  408 239 
 PAL  HZ I        1920  4.35        17.1 0.35            105            408 239 
 VALLCHZ EP   4   1919 14.02                             105   -2.06 0  409 358 
 VALLCHN ES   4   1919 55.66                             105   -3.66 0  409 358 
 SJC  HZ EP   4   1919 13.87                             105   -2.26 0  409 327 
 SJC  HN ES   4   1919 55.40                             105   -4.01 0  409 327 
 SJC  HZ I        1919 59.57        14.8 0.26            105            409 327 
 SMAR HZ EP       1919 25.69                             102   -0.68 4  496 346 
 SMAR HZ I        1920 16.75         7.0 0.40            102            496 346 
 CAP2 HZ EP   4   1919 26.00                             102   -1.90 0  509 294 
 CAP2 HN ES   4   1920 15.56                             102   -4.79 0  509 294 
 CAP2 HZ I        1920 20.07        10.4 0.15            101            509 294 
 MACC HZ EP   4   1919 27.00                             101   -2.51 0  522 189 
 MACC HN ES   4   1920 18.69                             101   -4.53 0  522 189 
 MACC HZ I        1920 23.72        10.8 0.48            101            522 189 
                                                                                
