 2012  617 1624 19.5 L   6.792 -73.150140.9  RSN  6 0.4 1.7LRSN                1
 GAP=136        0.71       4.1     3.8  8.1  0.5891E+00  0.5876E+01 -0.5687E+01E
 Epicentro: LOS SANTOS - SANTANDER                                             3
 ACTION:UPD 12-08-06 17:50 OP:ep   STATUS:               ID:20120617162419 L   I
 2012-06-17-1620-00M.COL___199                                                 6
 STAT SP IPHASW D HRMM SECON CODA AMPLIT PERI AZIMU VELO AIN AR TRES W  DIS CAZ7
 BAR2 SZ EP       1624 38.48                             171   -0.0210 22.4 189 
 BAR2 SZ ES   1   1624 53.32                             171   -0.02 7 22.4 189 
 BAR2 SZ I        1624 54.49         9.6 0.13                          22.4 189 
 PAM  SZ EP       1624 41.44                             150    0.2010 78.4  39 
 PAM  SN ES   1   1624 58.27                             150    0.06 7 78.4  39 
 RUS  HZ EP   1   1624 42.34                             143   -0.35 7 99.7 176 
 RUS  HN ES   1   1625  1.01                             143    0.22 7 99.7 176 
 RUS  HZ I        1625  2.00         3.2 0.21                          99.7 176 
 PTB  HN ES   1   1625  6.21                             131   -0.47 7  147 259 
 PTB  HZ I        1625  8.63         5.1 0.10                           147 259 
 OCA  HN ES   2   1625  8.34                             128   -1.00 5  161 353 
 OCA  HZ I        1625 13.35        12.6 0.20                           161 353 
 ZAR  HN ES       1625 17.08                             121    0.42 9  204 292 
 ZAR  HZ I        1625 23.51         7.0 0.29                           204 292 
                                                                                
