 2016 1217 1705 46.7 L   6.564 -73.521118.4  RSN  7 0.3 1.5LRSN                1
 GAP= 87        0.85       3.7     4.0  5.6 -0.2570E+01  0.2966E+01  0.2844E+01E
 Epicentro: EL CARMEN - SANTANDER                                              3
 ACTION:UPD 17-01-11 20:16 OP:rebc STATUS:               ID:20161217170546 L   I
 OLDACT:UP  16-12-18 00:37 OP:edw  STATUS:               ID:20161217165744     3
 OLDACT:UP  16-12-18 00:35 OP:edw  STATUS:               ID:20161217165744     3
 OLDACT:UP  16-12-18 00:35 OP:edw  STATUS:               ID:20161217165744     3
 OLDACT:UP  16-12-18 00:33 OP:edw  STATUS:               ID:20161217165744     3
 OLDACT:REG 16-12-17 20:09 OP:edw  STATUS:               ID:20161217165744     3
 2016-12-17-1658-00M.COL___387                                                 6
 STAT SP IPHASW D HRMM SECON CODA AMPLIT PERI AZIMU VELO AIN AR TRES W  DIS CAZ7
 BAR2 EZ IP     D 17 6  3.58                             161    0.0710 37.6  85 
 BAR2 EZ ES       17 6 16.37                             161   -0.2510 37.6  85 
 BAR2 EZ I        17 6 17.28        26.3 0.40            160           37.6  85 
 BRR  HZ EP       17 6  4.60                             150    0.1210 63.7 341 
 BRR  HN ES       17 6 18.60                             150    0.2510 63.7 341 
 RUS  HZ EP       17 6  6.67                             141   -0.2510 88.6 147 
 RUS  HN ES       17 6 22.86                             141    0.1710 88.6 147 
 PTB  HZ EP   9   17 6  4.60                             136   -2.86 0  103 269 
 PTB  HE ES       17 6 20.03                             138   -0.7610  103 269 
 PTB  HZ I        17 6 22.32         5.2 0.10            135            103 269 
 PAM  EZ EP       17 6 10.39                             130    0.3810  125  47 
 PAM  EN ES       17 6 27.75                             130   -0.4410  125  47 
 PAM  EZ I        17 6 30.49         2.2 0.18            129            125  47 
 ZAR  HZ EP   4   17 6 11.35                             119   -3.55 0  180 305 
 ZAR  HN ES   4   17 6 38.36                             119    1.46 0  180 305 
 NOR  HZ EP       17 6 15.58                             118   -0.01 9  186 234 
 NOR  HE ES   2   17 6 38.14                             118    0.01 4  186 234 
 NOR  HZ I        17 6 40.83         3.3 0.14            117            186 234 
 GUY2CHZ EP   4   17 6 25.58                             110    2.05 0  252 234 
 GUY2CHN ES   2   17 6 51.84                             110   -0.42 4  252 234 
 GUY2CHZ I        17 6 57.30         1.7 0.40                           252 234 
                                                                                
