 2017  417 1043 13.5 L   6.780 -73.148149.3  RSN  4 0.2 1.2LRSN                1
 GAP=236        0.64       5.2     4.9  5.2  0.1275E+02  0.1694E+01 -0.5371E-01E
 Epicentro: LOS SANTOS - SANTANDER                                             3
 ACTION:UPD 17-05-30 21:13 OP:jn   STATUS:               ID:20170417104313 L   I
 OLDACT:REG 17-04-17 19:59 OP:cog  STATUS:               ID:20170417103742     3
 2017-04-17-1038-00M.COL___362                                                 6
 STAT SP IPHASW D HRMM SECON CODA AMPLIT PERI AZIMU VELO AIN AR TRES W  DIS CAZ7
 BAR2 EZ EP       1043 33.08                             172   -0.4510 21.1 190 
 BAR2 EZ ES       1043 49.28                             172    0.1310 21.1 190 
 BAR2 EZ I        1043 49.68         4.3 0.60            179           21.1 190 
 BRR  HZ EP       1043 35.17                             153    0.0710 72.0 300 
 BRR  HZ I        1043 51.83         6.8 0.26            145           72.0 300 
 BRR  HN ES       1043 51.98                             153    0.0510 72.0 300 
 RUS  HZ EP       1043 37.87                             145    0.4010 98.4 176 
 RUS  HN ES       1043 56.00                             145   -0.1510 98.4 176 
 RUS  HZ I        1043 58.29         1.0 0.28            146           98.4 176 
 PTB  HZ EP       1043 40.66                             133   -0.05 9  147 260 
 PTB  HN ES       1044  1.91                             133   -0.02 9  147 260 
 PTB  HZ I        1044  6.54         1.2 0.26            128            147 260 
                                                                                
