 2017  817 1140 27.6 L   6.798 -73.136145.8  RSN  7 0.2 1.6LRSN                1
 GAP=138        0.62       2.6     3.3  4.3  0.8355E+00  0.3838E+01  0.2668E+01E
 Epicentro: LOS SANTOS - SANTANDER                                             3
 ACTION:UPD 17-09-04 20:21 OP:rebc STATUS:               ID:20170817114027 L   I
 OLDACT:UP  17-08-17 20:51 OP:and  STATUS:               ID:20170817113736     3
 OLDACT:UP  17-08-17 20:51 OP:and  STATUS:               ID:20170817113736     3
 OLDACT:REG 17-08-17 19:45 OP:and  STATUS:               ID:20170817113736     3
 2017-08-17-1138-00M.COL___407                                                 6
 STAT SP IPHASW D HRMM SECON CODA AMPLIT PERI AZIMU VELO AIN AR TRES W  DIS CAZ7
 BAR2 EZ IP     D 1140 47.15                             170   -0.0510 23.3 193 
 BAR2 EZ ES       1141  2.38                             170   -0.1310 23.3 193 
 BAR2 EZ I        1141  3.49        16.7 0.18            169           23.3 193 
 BRR  HZ EP       1140 49.07                             152    0.3010 72.2 298 
 BRR  HN ES       1141  5.56                             152    0.2410 72.2 298 
 PAM  EZ EP       1140 50.08                             151    0.3310 76.9  39 
 PAM  EN ES       1141  6.65                             151   -0.4110 76.9  39 
 PAM  EZ I        1141  9.47         4.3 0.30            154           76.9  39 
 RUS  HZ EP       1140 51.10                             144   -0.1910  100 177 
 RUS  HN ES       1141 10.07                             144    0.2710  100 177 
 RUS  HZ I        1141 11.06         6.1 0.20            144            100 177 
 ZAR  HE ES       1141 25.23                             122   -0.28 9  205 292 
 ZAR  HZ I        1141 31.02         3.1 0.08            122            205 292 
 NOR  HZ EP       1141  3.31                             118   -0.06 8  235 235 
 NOR  HE ES   3   1141 31.03                             118   -0.26 2  235 235 
 NOR  HZ I        1141 35.48         3.7 0.40            118            235 235 
 CHI  HZ EP   2   1141  5.16                             117   -0.11 4  249 195 
 CHI  HN ES       1141 34.53                             117   -0.14 8  249 195 
 CHI  HZ I        1141 39.12         2.1 0.28            117            249 195 
                                                                                
