 2011  417 1002  6.6 L   6.793 -73.102143.8  RSN  7 0.3 1.9LRSN                1
 GAP=166        0.62       4.4     5.7  6.0 -0.1064E+02  0.2083E+01 -0.3014E+01E
 Epicentro: LOS SANTOS - SANTANDER                                             3
 ACTION:UP  11-06-22 15:31 OP:REBC STATUS:               ID:20110417100206 L   I
 2011-04-17-0959-10S.COL___141                                                 6
 STAT SP IPHASW D HRMM SECON CODA AMPLIT PERI AZIMU VELO SNR AR TRES W  DIS CAZ7
 BAR2 SZ EP   1   10 2 26.00                             170    -0.1 7   24 202 
 BAR2 SZ ES   1   10 2 40.86                             170    -0.3 7   24 202 
 BAR2 SZ I        10 2 42.81        21.2 0.21                            24 202 
 GIR2 SZ EP   2   10 2 26.39                             166     0.3 5   33 342 
 PAM  SZ EP   1   10 2 28.84                             151     0.3 7   75  36 
 PAM  SE ES   1   10 2 45.58                             151     0.0 7   75  36 
 BRR  HZ EP   1   10 2 28.04                             151     0.2 7   76 297 
 BRR  HE ES   1   10 2 44.84                             151     0.4 7   76 297 
 BRR  HZ I        10 2 46.06        23.2 0.51                            76 297 
 GRA  SZ EP   1   10 2 31.58                             137    -0.1 7  125  15 
 GRA  SZ ES   1   10 2 51.23                             137     0.1 7  125  15 
 GRA  SZ I        10 2 55.46         5.5 0.25                           125  15 
 OCA  SZ EP   1   10 2 34.82                             129    -0.1 7  162 351 
 OCA  SZ ES   1   10 2 56.49                             129    -0.5 7  162 351 
 OCA  SZ I        10 3  0.89         9.1 0.44                           162 351 
 NOR  SE ES   2   10 3 10.25                             118    -0.5 4  238 235 
                                                                                
