 2012  917 1249 57.7 L   6.769 -73.128150.0  RSN  5 0.3 2.0LRSN                1
 GAP=140        0.61       4.5     4.9  5.9  0.9144E+01  0.6909E+01  0.3587E+01E
 Epicentro: LOS SANTOS - SANTANDER                                             3
 ACTION:UPD 12-10-22 14:19 OP:ep   STATUS:               ID:20120917124957 L   I
 2012-09-17-1249-40M.COL___197                                                 6
 STAT SP IPHASW D HRMM SECON CODA AMPLIT PERI AZIMU VELO AIN AR TRES W  DIS CAZ7
 BAR2 SZ EP       1250 17.91                             172    0.1710 20.4 197 
 BAR2 SZ ES   1   1250 33.25                             172   -0.16 7 20.4 197 
 BAR2 SZ I        1250 34.08        26.2 0.32                          20.4 197 
 BRR  HZ EP       1250 19.87                             152    0.4210 74.5 300 
 BRR  HZ I        1250 20.16        16.9 0.13                          74.5 300 
 BRR  HE ES       1250 36.44                             152   -0.0110 74.5 300 
 PAM  SN ES   1   1250 37.96                             151   -0.20 7 78.9  37 
 RUS  HZ EP   1   1250 21.15                             145   -0.43 7 97.0 177 
 RUS  HE ES   1   1250 40.34                             145    0.10 7 97.0 177 
 ZAR  HZ EP   2   1250 30.34                             123   -0.35 4  207 293 
 ZAR  HE ES   1   1250 56.15                             123   -0.31 6  207 293 
 ZAR  HZ I        1251  0.73         6.2 0.23                           207 293 
                                                                                
