 2010 1117 1202 27.1 L   6.762 -73.097144.0  RSN  4 0.1 1.6LRSN                1
 GAP=164        0.46       3.3     6.4  7.2  0.3175E+01 -0.2710E+02  0.1637E+01E
 Epicentro: LOS SANTOS - SANTANDER                                             3
 ACTION:UP  10-12-17 16:53 OP:REBC STATUS:               ID:20101117120227 L   I
 2010-11-17-1159-03S.COL___127                                                 6
 STAT SP IPHASW D HRMM SECON CODA AMPLIT PERI AZIMU VELO SNR AR TRES W  DIS CAZ7
 BAR2 SZ EP   1   12 2 46.25                             171    -0.2 7   21 207 
 BAR2 SZ I        12 3  4.28        10.5 0.89                            21 207 
 BRR  HZ EP       12 2 48.27                             150    -0.210   78 299 
 BRR  HN ES       12 3  5.19                             150     0.110   78 299 
 BRR  HZ I        12 3  7.30        12.8 0.16                            78 299 
 RUS  HZ EP       12 2 50.50                             145     0.210   96 179 
 RUS  HN ES   2   12 3  8.27                             145    -0.2 5   96 179 
 RUS  HZ I        12 3  9.93         3.6 0.15                            96 179 
 GRA  SZ EP   1   12 2 52.39                             136     0.0 7  128  15 
 GRA  SZ ES   2   12 3 12.17                             136     0.1 5  128  15 
 GRA  SZ I        12 3 12.85         7.2 0.26                           128  15 
                                                                                
