 2014 1217 1214 47.8 L   6.867 -73.168139.8  RSN 15 0.5 2.3LRSN                1
 GAP= 68        1.14       2.7     3.1  5.4  0.5470E-01  0.4980E+01  0.1144E+01E
 Epicentro: ZAPATOCA - SANTANDER                                               3
 ACTION:UPD 15-02-10 17:04 OP:nd   STATUS:               ID:20141217121447 L   I
 OLDACT:DUP 14-12-17 23:18 OP:fm   STATUS:               ID:20141217120746d    3
 2014-12-17-1207-45M.COL___290                                                 6
 STAT SP IPHASW D HRMM SECON CODA AMPLIT PERI AZIMU VELO AIN AR TRES W  DIS CAZ7
 BAR2 EZ EP       1215  7.15                             167    0.2810 30.4 183 
 BAR2 EZ ES       1215 21.93                             167    0.1710 30.4 183 
 BAR2 EZ I        1215 23.87        44.0 0.14            165           30.4 183 
 BRR  HZ EP       1215  8.72                             153    0.7310 65.8 294 
 BRR  HN ES       1215 23.99                             153    0.2510 65.8 294 
 BRR  HZ I        1215 27.91        44.3 0.16            150           65.8 294 
 PAM  SZ EP       1215  9.72                             151    0.5810 73.5  45 
 PAM  SE ES       1215 26.11                             151    0.3210 73.5  45 
 PAM  SZ I        1215 28.58        53.5 0.40            151           73.5  45 
 RUS  HZ EP       1215 11.85                             140    0.3210  108 175 
 RUS  HN ES       1215 29.37                             140   -0.6810  108 175 
 RUS  HZ I        1215 31.40        14.8 0.40            138            108 175 
 PTB  HZ EP       1215 13.82                             131   -0.39 9  147 256 
 PTB  HN ES       1215 35.21                             131    0.40 9  147 256 
 PTB  HZ I        1215 37.44        36.2 0.54            127            147 256 
 OCA  HN ES       1215 35.85                             130   -0.23 9  153 354 
 OCA  HZ I        1215 39.78        21.3 0.22            128            153 354 
 TAM  HZ EP     D 1215 15.48                             128    0.06 9  159 107 
 TAM  HE ES       1215 36.11                             128   -0.86 9  159 107 
 SPBC HZ EP       1215 16.20                             127   -0.06 9  168 217 
 SPBC HE ES       1215 38.56                             127    0.09 9  168 217 
 SPBC HZ I        1215 43.81        25.6 0.24            124            168 217 
 ZAR  HZ EP       1215 19.65                             122    0.31 9  199 290 
 ZAR  HE ES       1215 43.25                             122   -0.69 9  199 290 
 ZAR  HZ I        1215 47.58        27.2 0.12            119            199 290 
 SML  HZ EP       1215 23.10                             117   -0.14 8  236 335 
 SML  HE ES       1215 50.41                             117   -0.49 8  236 335 
 SML  HZ I        1215 53.77        24.1 0.10            115            236 335 
 NOR  HZ EP       1215 23.79                             117    0.35 8  237 233 
 NOR  HE ES       1215 50.99                             117   -0.27 8  237 233 
 NOR  HZ I        1215 57.32        17.1 0.54            114            237 233 
 CHI  HZ EP       1215 25.81                             115   -0.07 8  255 194 
 CHI  HN ES       1215 54.74                             115   -0.86 8  255 194 
 CBOC HZ EP       1215 34.67                             109    0.20 7  334 251 
 CBOC HN ES       1216 10.25                             109   -0.63 7  334 251 
 CBOC HZ I        1216 14.19         3.7 0.16            107            334 251 
 TOL  SZ EP       1215 37.03                             108    0.80 6  347 223 
 TOL  SE ES       1216 14.90                             108    0.88 6  347 223 
 TOL  SZ I        1216 23.46        26.0 0.84            106            347 223 
 MON  HZ EP       1215 35.58                             108   -0.23 6  347 308 
 MON  HE ES       1216 12.38                             108   -0.89 6  347 308 
 SJC  HE ES   4   1216 21.15                             105   -3.62 0  402 327 
                                                                                
