 2012  417 1051 46.3 L   6.729 -73.122130.0  RSN  4 0.3 1.6LRSN                1
 GAP=169        0.69       6.3     4.1  5.7 -0.1685E+01  0.5133E+01 -0.4717E+01E
 Epicentro: JORDAN - SANTANDER                                                 3
 ACTION:UPD 12-07-05 11:53 OP:tino STATUS:               ID:20120417105146 L   I
 2012-04-17-1050-00M.COL___189                                                 6
 STAT SP IPHASW D HRMM SECON CODA AMPLIT PERI AZIMU VELO AIN AR TRES W  DIS CAZ7
 BAR2 SZ EP       1052  3.82                             172    -0.110   17 204 
 BAR2 SZ ES       1052 17.77                             172     0.110   17 204 
 BAR2 SZ I        1052 20.02         8.3 0.35                            17 204 
 BRR  HZ EP       1052  6.02                             147    -0.110   78 303 
 BRR  HZ I        1052  6.54        10.0 0.15                            78 303 
 BRR  HN ES       1052 21.55                             147    -0.110   78 303 
 PAM  SZ EP       1052  6.93                             146    -0.210   82  35 
 PAM  SN ES       1052 23.64                             146     0.210   82  35 
 ZAR  HZ EP   1   1052 19.08                             118     0.7 6  210 294 
 ZAR  HN ES   1   1052 43.27                             118    -0.1 6  210 294 
 ZAR  HZ I        1052 48.82         3.4 0.58                           210 294 
                                                                                
