 2013 1117 1307 38.7 L   6.802 -73.154147.2  RSN 10 0.4 1.8LRSN                1
 GAP=135        0.95       2.7     4.2  5.7  0.2990E+00  0.6806E+01 -0.1225E+01E
 Epicentro: LOS SANTOS - SANTANDER                                             3
 ACTION:UPD 14-01-09 16:29 OP:ep   STATUS:               ID:20131117130738 L   I
 OLDACT:REG 13-11-17 15:29 OP:nd   STATUS:               ID:20131117130000     3
 2013-11-17-1300-00M.COL___279                                                 6
 STAT SP IPHASW D HRMM SECON CODA AMPLIT PERI AZIMU VELO AIN AR TRES W  DIS CAZ7
 BAR2 SZ EP       13 7 58.59                             171    0.1110 23.4 188 
 BAR2 SZ ES       13 8 13.76                             171   -0.1710 23.4 188 
 BAR2 SZ I        13 8 14.80        24.1 0.24            170           23.4 188 
 BRR  HZ EP       13 8  0.42                             153    0.4910 70.3 299 
 BRR  HN ES   2   13 8 16.86                             153    0.35 5 70.3 299 
 BRR  HZ I        13 8 29.53        11.1 0.50            152           70.3 299 
 PAM  SZ EP       13 8  1.53                             151    0.4610 77.8  40 
 PAM  SN ES       13 8 18.78                             151    0.2410 77.8  40 
 PAM  SZ I        13 8 20.77         8.1 0.56            156           77.8  40 
 RUS  HZ EP       13 8  2.49                             144   -0.1010  101 176 
 RUS  HN ES       13 8 21.11                             144   -0.1410  101 176 
 RUS  HZ I        13 8 22.54         4.4 0.28            149            101 176 
 PTB  HZ EP       13 8  5.56                             132   -0.12 9  147 259 
 PTB  HN ES       13 8 26.56                             132   -0.19 9  147 259 
 PTB  HZ I        13 8 28.80         7.5 0.14            134            147 259 
 OCA  HZ EP       13 8  7.08                             130    0.01 9  160 353 
 OCA  HN ES       13 8 28.62                             130   -0.59 9  160 353 
 OCA  HZ I        13 8 33.54        10.3 0.24            133            160 353 
 ZAR  HZ EP       13 8 11.13                             123    0.01 9  203 292 
 ZAR  HN ES       13 8 37.22                             123    0.80 9  203 292 
 ZAR  HZ I        13 8 42.36         7.2 0.58            125            203 292 
 SML  HZ EP       13 8 14.85                             118   -0.47 8  243 335 
 SML  HN ES       13 8 43.28                             118   -0.61 8  243 335 
 SML  HZ I        13 8 47.06        14.1 0.28            121            243 335 
 CHI  HZ EP       13 8 16.88                             117    0.42 8  249 195 
 CHI  HN ES       13 8 45.28                             117   -0.64 8  249 195 
 CHI  HZ I        13 8 51.81         2.4 0.30            121            249 195 
 GUY2CHZ EP   4   13 8 23.84                             113    1.56 0  301 235 
 GUY2CHN ES   4   13 8 57.27                             113    0.98 0  301 235 
 GUY2CHZ I        13 9  3.90         4.0 0.46                           301 235 
                                                                                
