 2016  317 1711 11.8 L   6.778 -73.150145.7  RSN  7 0.3 1.7LRSN                1
 GAP=243        0.76       3.8     4.2  5.2  0.5584E+01  0.2797E+01 -0.1534E+01E
 Epicentro: LOS SANTOS - SANTANDER                                             3
 ACTION:UPD 16-05-13 21:25 OP:cam  STATUS:               ID:20160317171111 L   I
 OLDACT:REG 16-03-17 21:40 OP:cara STATUS:               ID:20160317170749     3
 2016-03-17-1707-49M.COL___307                                                 6
 STAT SP IPHASW D HRMM SECON CODA AMPLIT PERI AZIMU VELO AIN AR TRES W  DIS CAZ7
 BAR2 EZ IP       1711 31.42                             171    0.0910 20.9 190 
 BAR2 EZ ES       1711 46.33                             171   -0.2710 20.9 190 
 BAR2 EZ I        1711 49.01         9.3 0.26            166           20.9 190 
 RUS  HZ EP       1711 35.37                             144    0.0410 98.2 176 
 RUS  HZ I        1711 36.30         3.6 0.18            143           98.2 176 
 RUS  HE ES       1711 54.05                             144    0.3310 98.2 176 
 PTB  HZ EP       1711 38.51                             132   -0.13 9  147 260 
 PTB  HN ES       1711 59.45                             132   -0.15 9  147 260 
 PTB  HZ I        1712  6.54        11.4 0.40            130            147 260 
 SPBC HZ EP       1711 39.53                             129   -0.52 9  161 219 
 SPBC HZ I        1711 40.50        10.2 0.58            128            161 219 
 SPBC HN ES       1712  2.34                             129    0.23 9  161 219 
 ZAR  HZ EP       1711 44.09                             122   -0.16 9  205 293 
 ZAR  HE ES       1712 10.02                             122    0.43 9  205 293 
 ZAR  HZ I        1712 15.47         8.7 0.36            122            205 293 
 CHI  HZ EP       1711 49.77                             117    0.58 8  246 195 
 CHI  HE ES       1712 17.94                             117   -0.44 8  246 195 
 CHI  HZ I        1712 28.57         2.6 0.42            117            246 195 
 GUY2CHZ EP   9   1711 56.41                             112    1.25 0  299 235 
 GUY2CHN ES       1712 30.43                                    0.17 7  299 235 
 GUY2CHZ I        1712 36.81         2.4 0.34                           299 235 
                                                                                
