 2011 1217 1237 37.8 L   6.795 -73.042143.3  RSN 17 0.4 2.5LRSN                1
 GAP=134        0.52       2.5     4.1  4.6 -0.4313E+01  0.3221E+01  0.2321E+01E
 Epicentro: LOS SANTOS - SANTANDER                                             3
 ACTION:UPD 12-07-13 16:16 OP:ep   STATUS:               ID:20111217123737 L   I
 2011-12-17-1230-00M.COL___186                                                 6
 STAT SP IPHASW D HRMM SECON CODA AMPLIT PERI AZIMU VELO AIN AR TRES W  DIS CAZ7
 BAR2 SZ EP   1   1237 57.11                             169   -0.11 7 27.2 215 
 BAR2 SZ ES   2   1238 11.81                             169   -0.55 5 27.2 215 
 BAR2 SZ I        1238 14.98        73.5 0.27                          27.2 215 
 PAM  SZ EP       1237 59.90                             152    0.5110 71.1  32 
 PAM  SN ES   2   1238 16.57                             152    0.35 5 71.1  32 
 BRR  HZ EP       1237 58.97                             149   -0.3510 81.7 295 
 BRR  HE ES   2   1238 16.30                             149    0.21 5 81.7 295 
 BRR  HZ I        1238 20.02        42.5 0.18                          81.7 295 
 RUS  HZ EP   1   1238  1.08                             143   -0.18 7 99.9 183 
 RUS  HN ES   2   1238 19.62                             143    0.07 5 99.9 183 
 RUS  HZ I        1238 21.11        40.0 0.28                          99.9 183 
 OCA  SZ ES   2   1238 28.21                             129   -0.03 5  163 349 
 CTAU SZ EP       1238 11.09                             122   -0.08 8  208 212 
 CTAB SZ EP   2   1238 14.49                             118    0.49 4  235 213 
 CHI  HZ EP   1   1238 15.37                             116   -0.29 6  251 198 
 CHI  HE ES   2   1238 44.93                             116   -0.26 4  251 198 
 CHI  HZ I        1238 54.48        13.0 0.50                           251 198 
 ROSC BZ EP   2   1238 17.16                             116    0.76 4  258 213 
 ROSC BN ES       1238 46.53                             116    0.02 8  258 213 
 ROSC BZ I        1238 55.47        22.1 0.34                           258 213 
 CVER SZ EP   2   1238 18.66                             114    0.18 4  276 204 
 HEL  HZ EP   2   1238 19.02                             113   -0.10 4  283 256 
 HEL  HE ES   2   1238 51.50                             113    0.16 4  283 256 
 HEL  HZ I        1238 57.36        15.4 0.44                           283 256 
 GUY  SZ EP   2   1238 22.22                             111   -0.38 3  313 236 
 GUY  SZ I        1239  3.43        29.4 0.43                           313 236 
 RREF HZ EP   2   1238 25.50                             110    0.70 3  330 231 
 RREF HN ES   2   1239  1.89                             110    0.43 3  330 231 
 RREF HZ I        1239 11.87        13.8 0.34                           330 231 
 COD  HZ EP   2   1238 25.39                             108   -0.90 3  350 353 
 COD  HZ I        1238 33.38        20.5 0.75                           350 353 
 COD  HN ES   2   1239  3.88                             108   -0.24 3  350 353 
 TOL  SZ EP   2   1238 26.82                             108   -0.03 3  351 226 
 SDV  BZ EP   2   1238 27.16                             108    0.38 3  352  49 
 SDV  BZ I        1238 27.65         6.4 0.34                           352  49 
 PRA  HZ EP   2   1238 31.46                             106   -0.40 3  397 211 
 PRA  HN ES   2   1239 13.77                             106   -0.25 3  397 211 
                                                                                
