 2016  417 1331  4.6 L   6.813 -73.150145.9  RSN  7 0.3 1.9LRSN                1
 GAP=135        0.69       2.6     3.1  4.5 -0.4910E+00  0.4413E+01  0.8276E+00E
 Epicentro: LOS SANTOS - SANTANDER                                             3
 ACTION:UPD 16-05-05 14:22 OP:rebc STATUS:               ID:20160417133104 L   I
 OLDACT:ARG 16-04-18 14:37 OP:cara STATUS:               ID:20160417132745     3
 2016-04-17-1327-45M.COL___309                                                 6
 STAT SP IPHASW D HRMM SECON CODA AMPLIT PERI AZIMU VELO AIN AR TRES W  DIS CAZ7
 BAR2 EZ EP       1331 24.41                             170    0.1310 24.7 188 
 BAR2 EZ ES       1331 39.70                             170    0.0810 24.7 188 
 BAR2 EZ I        1331 40.70        33.6 0.22            169           24.7 188 
 PAM  EZ EP       1331 27.34                             151    0.5510 76.5  40 
 PAM  EE ES       1331 43.62                             151   -0.4610 76.5  40 
 PAM  EZ I        1331 46.64         7.6 0.40            155           76.5  40 
 RUS  HZ EP       1331 28.27                             143   -0.2110  102 176 
 RUS  HE ES       1331 47.30                             143    0.2110  102 176 
 RUS  HZ I        1331 47.67         6.8 0.22            147            102 176 
 PTB  HZ EP       1331 31.30                             132   -0.27 9  148 258 
 PTB  HN ES       1331 52.63                             132    0.02 9  148 258 
 PTB  HZ I        1331 59.63        13.7 0.34            132            148 258 
 SPBC HZ EP       1331 33.30                             129    0.10 9  164 219 
 SPBC HE ES       1331 55.35                             129   -0.15 9  164 219 
 SPBC HZ I        1332  1.46        15.2 0.20            130            164 219 
 ZAR  HZ EP       1331 36.68                             122   -0.29 9  203 292 
 ZAR  HE ES       1332  2.50                             122    0.30 9  203 292 
 ZAR  HZ I        1332  7.92         7.0 0.18            123            203 292 
 CHI  HZ EP       1331 42.45                             117   -0.00 8  250 195 
 CHI  HE ES       1332 11.89                             117   -0.08 8  250 195 
                                                                                
