 2011  717 1123 12.8 L   7.061 -73.467106.6  RSN  5 0.4 1.6LRSN                1
 GAP=119        0.80       4.4    10.0  9.4  0.1381E+02 -0.4058E+02 -0.1529E+02E
 Epicentro: SAN VICENTE DE CHUCURI - SANTANDER                                 3
 ACTION:UPD 12-07-25 14:01 OP:epov STATUS:               ID:20110717112312 L   I
 2011-07-17-1118-24S.COL___143                                                 6
 STAT SP IPHASW D HRMM SECON CODA AMPLIT PERI AZIMU VELO AIN AR TRES W  DIS CAZ7
 BRR  HZ EP       1123 27.42                             164   -0.1010 27.5 281 
 BRR  HZ I        1123 27.69        20.4 0.12                          27.5 281 
 BRR  HE ES   1   1123 39.24                             164    0.24 7 27.5 281 
 BAR2 SZ EP   1   1123 29.72                             148    0.21 7 60.7 149 
 BAR2 SZ I        1123 29.97        16.8 0.11                          60.7 149 
 BAR2 SZ ES   1   1123 42.56                             148    0.02 7 60.7 149 
 BRI  SZ EP   1   1123 33.27                             132    0.48 7  104  46 
 OCA  SZ EP   1   1123 35.87                             125    0.47 7  131   7 
 OCA  SZ ES   1   1123 52.25                             125   -0.77 7  131   7 
 OCA  SZ I        1124  0.80         5.2 0.20                           131   7 
 RUS  HZ EP   2   1123 35.62                             124   -0.71 5  136 162 
 RUS  HE ES   2   1123 54.20                             124   -0.48 5  136 162 
 RUS  HZ I        1123 58.23         3.3 0.26                           136 162 
                                                                                
