 2013  117 1136  9.4 L   6.745 -73.135146.3  RSN  6 0.4 1.7LRSN                1
 GAP=140        0.81       5.4     4.9  7.2  0.2527E+01  0.8841E+01 -0.2621E+01E
 Epicentro: JORDAN - SANTANDER                                                 3
 ACTION:UPD 13-02-15 09:14 OP:ep   STATUS:               ID:20130117113609 L   I
 2013-01-17-1130-00M.COL___241                                                 6
 STAT SP IPHASW D HRMM SECON CODA AMPLIT PERI AZIMU VELO AIN AR TRES W  DIS CAZ7
 BAR2 SZ EP   1   1136 29.04                             173    0.00 7 17.7 197 
 BAR2 SZ ES   1   1136 44.34                             173    0.01 7 17.7 197 
 BAR2 SZ I        1136 45.31        18.2 0.42            173           17.7 197 
 BRR  HZ EP       1136 30.77                             151   -0.1210 75.3 302 
 BRR  HN ES   1   1136 48.21                             151    0.59 7 75.3 302 
 PAM  SZ EP   1   1136 31.87                             150   -0.09 7 81.4  36 
 PAM  SE ES   1   1136 49.14                             150   -0.39 7 81.4  36 
 PAM  SZ I        1136 51.27         7.6 0.46            151           81.4  36 
 RUS  HZ EP   1   1136 33.34                             146    0.52 7 94.4 177 
 RUS  HE ES   1   1136 51.14                             146    0.09 7 94.4 177 
 RUS  HZ I        1136 52.05         5.0 0.24            148           94.4 177 
 PTB  HZ EP   1   1136 35.99                             132   -0.48 7  148 261 
 PTB  HE ES   1   1136 56.73                             132   -0.82 7  148 261 
 PTB  HZ I        1136 59.08         4.4 0.60            133            148 261 
 ZAR  HZ EP   1   1136 42.60                             122    0.32 6  208 294 
 ZAR  HE ES   1   1137  8.41                             122    0.51 6  208 294 
 ZAR  HZ I        1137 10.49         4.3 0.10            123            208 294 
                                                                                
