 2010  117 1402 38.6 L   6.830 -73.089140.2  RSN 10 0.4 2.2LRSN                1
 GAP=189        0.65       3.6     6.3  6.4 -0.1588E+01  0.2010E+02  0.3480E+01E
 Epicentro: LOS SANTOS - SANTANDER                                             3
 ACTION:UP  10-08-24 09:44 OP:vdl  STATUS:               ID:20100117140238 L   I
 2010-01-17-1401-19S.COL___096                                                 6
 STAT SP IPHASW D HRMM SECON CODA AMPLIT PERI AZIMU VELO SNR AR TRES W  DIS CAZ7
 BAR2 SZ EP   1   14 2 57.53                             168    -0.2 7   28 202 
 BAR2 SZ ES   2   14 3 12.11                             168    -0.5 5   28 202 
 GIR2 SZ EP   1   14 2 57.65                             167     0.0 7   30 337 
 GIR2 SZ ES   2   14 3 13.09                             167     0.7 5   30 337 
 RUS  BZ EP   1   14 3  1.94                             142    -0.1 7  104 180 
 RUS  BE ES   2   14 3 20.11                             142    -0.3 5  104 180 
 RUS  BZ I        14 3 21.54        21.2 0.31                           104 180 
 OCA  SZ EP   1   14 3  6.27                             129     0.0 7  158 351 
 OCA  SZ ES   2   14 3 28.11                             129     0.2 5  158 351 
 CHI  HZ EP   1   14 3 16.30                             115    -0.3 6  254 196 
 CHI  HN ES   2   14 3 46.30                             115     0.1 4  254 196 
 CHI  HZ I        14 3 50.95         5.2 0.28                           254 196 
 HEL  HZ EP   1   14 3 19.72                             113     0.4 6  279 255 
 HEL  HE ES   2   14 3 51.02                             113    -0.1 4  279 255 
 HEL  HZ I        14 3 57.05        10.2 0.26                           279 255 
 RREF BZ EP   1   14 3 25.93                             109     0.6 5  329 230 
 RREF BE ES   2   14 4  2.66                             109     0.9 3  329 230 
 RREF BZ I        14 4 11.02         8.4 0.81                           329 230 
 DBB  SZ EP   1   14 3 26.04                             108    -0.6 5  346 274 
 DBB  SZ ES   2   14 4  2.78                             108    -1.2 3  346 274 
 TOL  SZ EP   1   14 3 28.00                             108     0.5 5  350 225 
 PRA  HZ EP   1   14 3 32.60                             105    -0.1 4  398 210 
 PRA  HN ES   2   14 4 15.23                             105     0.4 3  398 210 
 PRA  HZ I        14 4 21.23         6.1 0.73                           398 210 
                                                                                
