 2017  517 1402  4.4 L   6.837 -73.169144.4  RSN  8 0.4 2.2LRSN                1
 GAP=108        1.08       4.3     3.9  8.0  0.1922E+01  0.4527E+01  0.1548E+02E
 Epicentro: ZAPATOCA - SANTANDER                                               3
 ACTION:UPD 17-06-16 13:36 OP:jn   STATUS:               ID:20170517140204 L   I
 OLDACT:REG 17-05-17 19:46 OP:lv   STATUS:               ID:20170517135746     3
 2017-05-17-1358-00M.COL___350                                                 6
 STAT SP IPHASW D HRMM SECON CODA AMPLIT PERI AZIMU VELO AIN AR TRES W  DIS CAZ7
 BRR  HZ EP       14 2 25.38                             154    0.2410 67.0 296 
 BRR  HN ES       14 2 42.24                             154    0.9010 67.0 296 
 PAM  EZ EP       14 2 26.32                             151   -0.0410 76.0  43 
 PAM  EN ES       14 2 42.84                             151   -0.6710 76.0  43 
 PAM  EZ I        14 2 45.43        34.5 0.34            159           76.0  43 
 PTB  HZ EP       14 2 30.44                             132   -0.64 9  146 257 
 PTB  HN ES       14 2 51.25                             132   -0.66 9  146 257 
 PTB  HZ I        14 2 58.77        22.1 0.55            134            146 257 
 SPBC HZ EP       14 2 33.26                             128    0.34 9  165 217 
 SPBC HN ES   2   14 2 55.23                             128    0.03 5  165 217 
 SPBC HZ I        14 3  1.70        19.7 0.06            130            165 217 
 YPLC HZ EP       14 2 34.43                             125   -0.12 9  182 151 
 YPLC HN ES       14 2 58.48                             125    0.40 9  182 151 
 ZAR  HZ EP       14 2 36.49                             123    0.17 9  200 291 
 ZAR  HE ES       14 3  1.45                             123    0.20 9  200 291 
 ZAR  HZ I        14 3  7.11        19.7 0.19            126            200 291 
 NOR  HZ EP       14 2 40.30                             118    0.24 8  235 233 
 NOR  HN ES       14 3  7.47                             118   -0.43 8  235 233 
 NOR  HZ I        14 3 11.16        11.7 0.07            121            235 233 
 CHI  HZ EP       14 2 42.56                             116    0.20 8  252 194 
 CHI  HN ES       14 3 11.87                             116   -0.12 8  252 194 
 CHI  HZ I        14 3 17.28         8.7 0.31            119            252 194 
                                                                                
