 2017 1017 1718 25.2 L   6.839 -73.127153.5  RSN 21 0.6 2.5LRSN                1
 GAP= 66        1.18       3.1     3.6  5.1  0.8923E-01  0.4136E+01  0.1718E+01E
 Epicentro: LOS SANTOS - SANTANDER                                             3
 ACTION:UPD 17-11-07 19:33 OP:rebc STATUS:               ID:20171017171825 L   I
 OLDACT:UP  17-10-17 23:49 OP:edw  STATUS:               ID:20171017171739     3
 OLDACT:UP  17-10-17 23:48 OP:edw  STATUS:               ID:20171017171739     3
 OLDACT:UP  17-10-17 23:39 OP:edw  STATUS:               ID:20171017171739     3
 OLDACT:REG 17-10-17 21:02 OP:edw  STATUS:               ID:20171017171739     3
 2017-10-17-1718-00M.COL___423                                                 6
 STAT SP IPHASW D HRMM SECON CODA AMPLIT PERI AZIMU VELO AIN AR TRES W  DIS CAZ7
 BAR2 EZ EP       1718 45.71                             170   -0.1710 28.0 193 
 BAR2 EZ ES       1719  1.72                             170   -0.2710 28.0 193 
 BAR2 EZ I        1719  3.16        53.7 0.24            168           28.0 193 
 BRR  HZ IP     C 1718 47.68                             154    0.4810 71.1 295 
 BRR  HN ES       1719  5.18                             154    0.8310 71.1 295 
 BRR  HZ I        1719  8.29        55.6 0.14            152           71.1 295 
 PAM  EZ EP       1718 48.63                             153    0.6310 72.7  40 
 PAM  EN ES       1719  5.78                             153    0.0010 72.7  40 
 PAM  EZ I        1719  8.29        93.2 0.64            156           72.7  40 
 RUS  HZ EP       1718 49.75                             144   -0.2810  105 177 
 RUS  HN ES       1719  8.97                             144   -0.4210  105 177 
 RUS  HZ I        1719  9.35        20.1 0.26            145            105 177 
 PTB  HZ EP       1718 52.77                             133   -0.31 9  151 257 
 PTB  HN ES       1719 13.76                             133   -1.06 9  151 257 
 PTB  HZ I        1719 19.22        34.5 0.48            132            151 257 
 TAM  HZ EP     D 1718 53.85                             132    0.40 9  154 107 
 TAM  HE ES   4   1719 11.87                             132   -3.60 0  154 107 
 YPLC HZ EP       1718 55.84                             128   -0.02 9  180 153 
 YPLC HN ES       1719 19.86                             128    0.10 9  180 153 
 YPLC HZ I        1719 20.69        23.7 0.24            129            180 153 
 ZAR  HZ EP       1718 58.63                             124    0.42 9  204 291 
 ZAR  HN ES       1719 24.11                             124    0.17 9  204 291 
 ZAR  HZ I        1719 29.39        47.7 0.32            124            204 291 
 TABC EZ EP       1719  2.42                             120    0.48 8  235 211 
 TABC EZ ES   4   1719 33.10                             120    2.51 0  235 211 
 TABC EZ I        1719 36.06        30.2 0.40            121            235 211 
 NOR  HZ EP       1719  1.96                             120    0.11 8  239 234 
 NOR  HN ES       1719 29.86                             120   -0.57 8  239 234 
 NOR  HZ I        1719 33.82        20.4 0.26            120            239 234 
 CHI  HZ EP       1719  3.90                             118    0.04 8  253 195 
 CHI  HN ES       1719 33.28                             118   -0.73 8  253 195 
 CHI  HZ I        1719 38.67        14.6 0.44            119            253 195 
 URE  HZ EP       1719  6.31                             115   -0.40 7  284 291 
 URE  HN ES   4   1719 37.94                             115   -1.13 0  284 291 
 URE  HZ I        1719 42.76        43.1 0.30            115            284 291 
 GUY2CHZ EP       1719 10.65                             113    0.99 7  305 234 
 GUY2CHN ES       1719 45.51                             113    1.18 7  305 234 
 GUY2CHZ I        1719 52.46        14.7 0.30                           305 234 
 VIL  EZ EP   4   1719 10.87                             113    1.35 0  308 192 
 VIL  EN ES       1719 43.40                             113   -0.68 7  308 192 
 VIL  EZ I        1719 52.96        23.7 0.46            114            308 192 
 PTGC HZ EP   4   1719  8.58                             113   -1.22 0  312 159 
 PTGC HN ES   4   1719 42.05                             113   -2.53 0  312 159 
 DBB  EZ EP       1719 12.97                             111   -0.24 7  341 273 
 DBB  EN ES   4   1719 49.15                             111   -1.51 0  341 273 
 DBB  EZ I        1719 52.49        11.1 0.54            111            341 273 
 PRA  HZ EP       1719 20.20                             107    0.63 6  397 210 
 PRA  HN ES       1720  2.04                             107    0.07 6  397 210 
 PRA  HZ I        1720  4.97        16.9 0.58            108            397 210 
 ORTC HZ EP       1719 19.49                             107   -0.47 6  400 216 
 ORTC HN ES       1720  2.83                             107    0.17 6  400 216 
 ORTC HZ I        1720  8.55         7.9 0.36            108            400 216 
 SJC  HZ EP       1719 19.95                             107   -0.80 6  407 326 
 SJC  HN ES   4   1720  1.24                             107   -2.82 0  407 326 
 SJC  HZ I        1720  5.58         9.1 0.50            108            407 326 
 PAL  HZ EP       1719 21.25                             107    0.14 6  410 239 
 PAL  HN ES   4   1720  6.21                             107    1.51 0  410 239 
 PAL  HZ I        1720  9.99         5.9 0.38            107            410 239 
 CRJC HZ EP       1719 26.12                             104   -1.29 5  463   3 
 CRJC HN ES       1720 15.23                             104   -0.69 5  463   3 
 CRJC HZ I        1720 23.48        10.2 0.42            105            463   3 
 SMAR HZ EP   1   1719 31.30                             103    0.45 3  493 346 
 SMAR HN ES   4   1720 19.26                             103   -2.79 0  493 346 
                                                                                
