 2014  917 1613 34.5 L   6.807 -73.075155.1  RSN  9 0.4 1.7LRSN                1
 GAP=207        0.80       3.8     4.9  6.1  0.5956E+01 -0.3668E+00 -0.4439E+01E
 Epicentro: LOS SANTOS - SANTANDER                                             3
 ACTION:UPD 14-10-03 23:06 OP:nd   STATUS:               ID:20140917161334 L   I
 OLDACT:UP  14-09-17 23:54 OP:spq  STATUS:               ID:20140917160818     3
 OLDACT:REG 14-09-17 21:13 OP:spq  STATUS:               ID:20140917160818     3
 2014-09-17-1608-18M.COL___293                                                 6
 STAT SP IPHASW D HRMM SECON CODA AMPLIT PERI AZIMU VELO AIN AR TRES W  DIS CAZ7
 BAR2 SZ EP       1613 55.33                             170    0.0010 26.6 206 
 BAR2 SZ ES   1   1614 11.44                             170   -0.13 7 26.6 206 
 BAR2 SZ I        1614 13.05        10.8 0.29            166           26.6 206 
 BRR  HZ EP       1613 57.46                             152    0.4210 77.8 295 
 BRR  HN ES   1   1614 14.94                             152    0.32 7 77.8 295 
 BRR  HZ I        1614 16.71        11.4 0.66            149           77.8 295 
 RUS  HZ EP       1613 59.48                             145    0.2510  101 181 
 RUS  HE ES       1614 18.23                             145   -0.2810  101 181 
 RUS  HZ I        1614 19.17         2.6 0.44            145            101 181 
 PTB  HZ EP       1614  2.23                             133   -0.72 9  156 259 
 PTB  HE ES       1614 25.47                             133    0.34 9  156 259 
 PTB  HZ I        1614 28.94         3.4 0.22            131            156 259 
 SPBC HZ EP       1614  4.34                             130    0.08 9  169 221 
 SPBC HN ES       1614 27.36                             130   -0.11 9  169 221 
 SPBC HZ I        1614 31.43         6.5 0.22            129            169 221 
 ZAR  HN ES       1614 34.36                             123   -0.27 8  211 291 
 ZAR  HZ I        1614 38.97         4.1 0.30            122            211 291 
 SML  HZ EP   1   1614 11.64                             119   -0.32 6  246 334 
 SML  HE ES   1   1614 41.10                             119   -0.07 6  246 334 
 SML  HZ I        1614 44.00         6.2 0.08            119            246 334 
 GUY2CHZ EP   4   1614 21.50                             113    2.17 0  308 235 
 GUY2CHE ES   4   1614 58.65                             113    4.36 0  308 235 
 GUY2CHZ I        1615  2.09         2.8 0.32                           308 235 
 PRA  HZ EP   1   1614 29.78                             108    0.88 4  397 210 
 PRA  HE ES   4   1615 14.06                             108    2.74 0  397 210 
 PRA  HZ I        1615 16.85         2.1 0.62            108            397 210 
                                                                                
