 2014 1117 1915 25.3 L   6.812 -73.150144.8  RSN 22 0.6 2.8LRSN                1
 GAP= 65        1.23       2.9     3.4  5.3 -0.1268E+01  0.4005E+01  0.2698E+01E
 Epicentro: LOS SANTOS - SANTANDER                                             3
 ACTION:UPD 14-12-19 15:43 OP:nd   STATUS:               ID:20141117191525 L   I
 OLDACT:REG 14-11-17 22:09 OP:fm   STATUS:               ID:20141117190750     3
 2014-11-17-1907-50M.COL___289                                                 6
 STAT SP IPHASW D HRMM SECON CODA AMPLIT PERI AZIMU VELO AIN AR TRES W  DIS CAZ7
 BAR2 SZ EP       1915 45.24                             170    0.3610 24.6 188 
 BAR2 SZ ES       1915 59.97                             170   -0.1510 24.6 188 
 BAR2 SZ I        1916  1.19       206.1 0.28            167           24.6 188 
 BRR  HZ IP     D 1915 47.02                             153    0.6910 70.1 298 
 BRR  HN ES       1916  3.13                             153    0.4410 70.1 298 
 BRR  HZ I        1916  6.87       147.2 0.28            149           70.1 298 
 PAM  SZ EP       1915 47.94                             151    0.5210 76.7  40 
 PAM  SN ES       1916  4.84                             151    0.2110 76.7  40 
 PAM  SZ I        1916  7.03       205.5 0.48            155           76.7  40 
 RUS  HZ EP       1915 49.29                             143    0.1910  102 176 
 RUS  HN ES       1916  7.32                             143   -0.3110  102 176 
 RUS  HZ I        1916  9.81        39.7 0.18            144            102 176 
 PTB  HZ EP       1915 51.88                             132   -0.33 9  148 258 
 PTB  HN ES       1916 12.58                             132   -0.59 9  148 258 
 PTB  HZ I        1916 18.61        73.0 0.28            130            148 258 
 TAM  HZ EP     C 1915 53.70                             130    0.68 9  156 105 
 TAM  HN ES       1916 14.09                             130   -0.52 9  156 105 
 TAM  HZ I        1916 16.71        23.5 0.26            135            156 105 
 OCA  HZ EP       1915 52.66                             130   -0.79 9  159 353 
 OCA  HN ES       1916 14.88                             130   -0.49 9  159 353 
 OCA  HZ I        1916 18.09       125.4 0.18            130            159 353 
 SPBC HZ EP       1915 54.45                             129    0.61 9  164 219 
 SPBC HE ES       1916 16.46                             129    0.40 9  164 219 
 SPBC HZ I        1916 23.40        74.5 0.44            128            164 219 
 NOR  HZ EP       1916  1.61                             118    0.55 8  235 234 
 NOR  HN ES       1916 27.93                             118   -0.98 8  235 234 
 NOR  HZ I        1916 35.06        37.2 0.18            118            235 234 
 CHI  HZ EP       1916  3.68                             117    0.56 8  250 195 
 CHI  HN ES       1916 32.92                             117    0.34 8  250 195 
 CHI  HZ I        1916 38.11        16.2 0.28            117            250 195 
 HEL  HZ EP       1916  6.25                             115    0.76 8  272 256 
 HEL  HN ES       1916 36.53                             115   -0.27 8  272 256 
 HEL  HZ I        1916 43.48        52.0 0.32            114            272 256 
 URE  HZ EP       1916  5.56                             113   -0.70 7  283 292 
 URE  HN ES   4   1916 35.95                             113   -2.22 0  283 292 
 URE  HZ I        1916 51.35        32.7 0.18            113            283 292 
 PTGC HZ EP       1916  8.64                             111   -0.68 7  310 159 
 PTGC HN ES       1916 42.06                             111   -1.56 7  310 159 
 PTGC HZ I        1916 44.78        30.7 0.42            113            310 159 
 TOL  SZ EP       1916 13.46                             109   -0.17 7  344 224 
 TOL  SN ES       1916 51.40                             109    0.11 7  344 224 
 TOL  SZ I        1917  0.01        44.7 0.34            109            344 224 
 MON  HZ EP   4   1916 12.48                             108   -1.69 0  352 308 
 MON  HN ES   4   1916 50.98                             108   -1.27 0  352 308 
 MON  HZ I        1917  5.73        14.7 0.58            109            352 308 
 ARGC HZ EP       1916 15.30                             108    0.50 6  358 340 
 ARGC HE ES       1916 52.67                             108   -0.70 6  358 340 
 ARGC HZ I        1917  0.50        13.6 0.58            109            358 340 
 ANIL HZ EP       1916 15.16                             108   -0.02 6  358 224 
 ANIL HN ES       1916 54.06                             108    0.01 6  358 224 
 ANIL HZ I        1917  4.20         6.8 0.30            108            358 224 
 PRA  HZ EP       1916 18.27                             106   -0.67 6  393 209 
 PRA  HN ES       1917  1.00                             106    0.26 6  393 209 
 PRA  HZ I        1917  7.31        20.8 0.32            107            393 209 
 ORTC HZ EP       1916 19.50                             106    0.18 6  396 216 
 ORTC HZ E        1916 19.50                                            396 216 
 ORTC HN ES       1917  1.85                             106    0.42 6  396 216 
 ORTC HZ I        1917  9.18        22.0 0.44            106            396 216 
 PAL  HZ EP       1916 20.35                             106   -0.15 6  406 239 
 PAL  HN ES   4   1917  0.78                             106   -2.75 0  406 239 
 PAL  HZ I        1917 17.13         7.0 0.70            106            406 239 
 SJC  HZ EP   4   1916 18.36                             106   -2.35 0  408 327 
 SJC  HN ES   4   1916 59.81                             106   -4.09 0  408 327 
 SJC  HZ I        1917  4.70        28.6 0.46            106            408 327 
 YOT  HZ EP   4   1916 27.05                             103   -1.37 0  472 229 
 YOT  HN ES   4   1917 19.52                             103    1.90 0  472 229 
 SMAR HN ES   4   1917 17.49                             102   -4.76 0  496 346 
 SMAR HZ I        1917 19.03        18.3 0.18            103            496 346 
                                                                                
