 2011  717 1903 57.5 L   6.761 -73.090143.8  RSN  9 0.3 1.8LRSN                1
 GAP=146        0.66       3.1     4.1  5.1 -0.5564E+01  0.5542E+01 -0.8130E+00E
 Epicentro: LOS SANTOS - SANTANDER                                             3
 ACTION:UPD 12-07-25 14:01 OP:epov STATUS:               ID:20110717190357 L   I
 2011-07-17-1900-00S.COL___143                                                 6
 STAT SP IPHASW D HRMM SECON CODA AMPLIT PERI AZIMU VELO AIN AR TRES W  DIS CAZ7
 BAR2 SZ EP   1   19 4 17.01                             171    0.17 7 21.2 209 
 BAR2 SZ ES   1   19 4 31.93                             171   -0.01 7 21.2 209 
 BAR2 SZ I        19 4 35.65        15.2 0.22                          21.2 209 
 PAM  SZ EP   1   19 4 19.75                             151    0.27 7 77.2  34 
 PAM  SN ES   1   19 4 36.48                             151   -0.16 7 77.2  34 
 BRR  HZ EP       19 4 18.63                             150   -0.2310 78.6 299 
 BRR  HZ I        19 4 21.49        16.6 0.12                          78.6 299 
 BRR  HN ES   1   19 4 35.59                             150    0.05 7 78.6 299 
 RUS  HZ EP   1   19 4 20.99                             145    0.27 7 96.0 180 
 RUS  HN ES   1   19 4 39.05                             145    0.21 7 96.0 180 
 RUS  HZ I        19 4 41.57         8.0 0.29                          96.0 180 
 BRI  SZ EP   1   19 4 21.31                             140   -0.04 7  111  17 
 BRI  SZ I        19 4 23.07         7.7 0.08                           111  17 
 GRA  SZ EP       19 4 22.58                             136   -0.1810  128  14 
 GRA  SZ I        19 4 24.02         9.7 0.28                           128  14 
 GRA  SZ ES   1   19 4 41.93                             136   -0.55 7  128  14 
 OCA  SZ ES   1   19 4 49.27                             128    0.79 7  165 351 
 OCA  SZ I        19 4 55.91         8.4 0.25                           165 351 
 NOR  SZ EP   1   19 4 33.16                             118   -0.22 6  237 236 
 NOR  SN ES   1   19 5  0.77                             118   -0.60 6  237 236 
 HEL  HZ EP   1   19 4 38.60                             114    0.45 6  277 257 
 HEL  HN ES   1   19 5 10.03                             114    0.17 6  277 257 
                                                                                
