 2010  317 1524 48.1 L   6.826 -73.004144.2  RSN  6 0.4 2.0LRSN                1
 GAP=253        0.58       4.9     8.8  5.9  0.1233E+02  0.1037E+02  0.1012E+02E
 Epicentro: CEPITA - SANTANDER                                                 3
 ACTION:UP  10-08-24 09:54 OP:vdl  STATUS:               ID:20100317152448 L   I
 2010-03-17-1523-17S.COL___099                                                 6
 STAT SP IPHASW D HRMM SECON CODA AMPLIT PERI AZIMU VELO SNR AR TRES W  DIS CAZ7
 BAR2 SZ EP   2   1525  7.94                             167     0.2 5   33 217 
 BAR2 SZ ES   1   1525 22.87                             167    -0.2 7   33 217 
 BRR  HZ IP       1525  9.76                             148    -0.110   84 292 
 BRR  HE ES   1   1525 26.92                             148     0.1 7   84 292 
 BRR  HZ I        1525 32.65        13.8 0.51                            84 292 
 RUS  HZ EP   2   1525 12.40                             143     0.5 5  104 185 
 RUS  HN ES   2   1525 30.79                             143     0.3 5  104 185 
 RUS  HZ I        1525 31.67        10.6 0.20                           104 185 
 CHI  HZ EP   2   1525 26.28                             116    -0.2 4  256 198 
 CHI  HN ES   2   1525 56.13                             116    -0.3 4  256 198 
 CHI  HZ I        1526  2.22         7.2 0.82                           256 198 
 RREF BZ EP   2   1525 36.62                             110     0.9 3  336 231 
 RREF BE ES   2   1526 13.36                             110     0.5 3  336 231 
 RREF BZ I        1526 19.98         4.7 0.68                           336 231 
 PRA  HZ EP   1   1525 42.11                             106    -0.6 4  402 211 
 PRA  HN ES   2   1526 25.04                             106    -0.4 3  402 211 
 PRA  HZ I        1526 27.93         3.9 0.76                           402 211 
                                                                                
