 2010  817 1030 24.0 L   6.832 -72.991148.0  RSN  5 0.2 1.4LRSN                1
 GAP=182        0.52       5.0    10.0  7.2  0.2240E+02 -0.2952E+02 -0.1962E+02E
 Epicentro: CEPITA - SANTANDER                                                 3
 ACTION:UP  10-09-07 10:55 OP:vdl  STATUS:               ID:20100817103024 L   I
 2010-08-17-1028-36S.COL___111                                                 6
 STAT SP IPHASW D HRMM SECON CODA AMPLIT PERI AZIMU VELO SNR AR TRES W  DIS CAZ7
 BTL  SZ EP       1030 44.33                             167     0.210   32 287 
 BAR2 SZ EP       1030 44.18                             166     0.010   34 219 
 BAR2 SZ ES   1   1030 59.90                             166     0.0 7   34 219 
 BAR2 SZ I        1031  1.86         4.6 0.23                            34 219 
 BRR  HZ EP       1030 46.03                             148    -0.210   85 291 
 BRR  HZ I        1030 46.33         8.6 0.17                            85 291 
 BRR  HN ES   2   1031  3.91                             148     0.3 5   85 291 
 RUS  HZ EP   1   1030 48.52                             143     0.2 7  104 186 
 RUS  HE ES   1   1031  6.96                             143    -0.2 7  104 186 
 RUS  HZ I        1031  8.03         2.0 0.29                           104 186 
 GUE  SZ EP   1   1030 48.42                             141    -0.1 7  111   4 
                                                                                
