 2017  817 1540  0.4 L   6.774 -73.075144.0  RSN  7 0.3 1.5LRSN                1
 GAP=126        0.66       3.0     3.9  4.7 -0.3401E+01 -0.1299E+01  0.5779E+01E
 Epicentro: LOS SANTOS - SANTANDER                                             3
 ACTION:UPD 17-09-04 20:21 OP:rebc STATUS:               ID:20170817154000 L   I
 OLDACT:UP  17-08-17 22:18 OP:and  STATUS:               ID:20170817153747d    3
 OLDACT:DUP 17-08-17 22:16 OP:and  STATUS:               ID:20170817153747d    3
 2017-08-17-1538-00M.COL___404                                                 6
 STAT SP IPHASW D HRMM SECON CODA AMPLIT PERI AZIMU VELO AIN AR TRES W  DIS CAZ7
 BAR2 EZ EP     D 1540 19.74                             170   -0.0510 23.4 211 
 BAR2 EZ ES       1540 35.02                             170    0.0810 23.4 211 
 BAR2 EZ I        1540 36.29        11.7 0.16            168           23.4 211 
 PAM  EZ IP     C 1540 22.68                             151    0.4210 75.0  34 
 PAM  EN ES       1540 39.03                             151   -0.3010 75.0  34 
 PAM  EZ I        1540 42.09         9.0 0.26            153           75.0  34 
 BRR  HZ EP   2   1540 21.64                             149   -0.18 5 79.5 298 
 BRR  HN ES       1540 38.44                             149   -0.1110 79.5 298 
 RUS  HZ EP       1540 24.13                             144    0.4010 97.5 181 
 RUS  HN ES       1540 41.91                             144   -0.0410 97.5 181 
 RUS  HZ I        1540 43.92         3.1 0.52            145           97.5 181 
 NOR  HZ EP   2   1540 36.41                             117   -0.11 4  240 236 
 NOR  HN ES       1541  4.68                             117   -0.04 8  240 236 
 NOR  HZ I        1541 13.26         2.2 0.38            117            240 236 
 CHI  HZ EP   2   1540 38.31                             117    0.40 4  248 197 
 CHI  HN ES       1541  7.15                             117   -0.04 8  248 197 
 PTGC HZ EP       1540 42.85                             111   -0.68 7  303 160 
                                                                                
