 2010  617 1932 21.4 L   6.811 -73.023144.6  RSN  5 0.3 2.0LRSN                1
 GAP=178        0.52       3.8     9.3  6.7  0.1207E+01 -0.1614E+02  0.8913E+00E
 Epicentro: CEPITA - SANTANDER                                                 3
 ACTION:UP  10-08-24 10:11 OP:vdl  STATUS:               ID:20100617193221 L   I
 2010-06-17-1929-26S.COL___115                                                 6
 STAT SP IPHASW D HRMM SECON CODA AMPLIT PERI AZIMU VELO SNR AR TRES W  DIS CAZ7
 BAR2 SZ IP       1932 41.02                             168     0.010   30 216 
 BAR2 SZ ES   2   1932 56.08                             168    -0.3 5   30 216 
 BRR  HZ EP   1   1932 42.87                             149    -0.2 7   83 293 
 BRR  HZ I        1932 43.12        43.0 0.13                            83 293 
 BRR  HE ES   2   1933  0.12                             149     0.1 5   83 293 
 RUS  HZ EP   1   1932 44.98                             143    -0.1 7  102 184 
 RUS  HN ES   2   1933  3.75                             143     0.2 5  102 184 
 RUS  HZ I        1933  4.93        14.5 0.39                           102 184 
 GUE  SZ EP   1   1932 46.00                             140     0.3 7  113   6 
 CHI  HZ EP   1   1932 59.30                             116    -0.2 6  254 198 
 CHI  HN ES   2   1933 30.06                             116     0.7 4  254 198 
 CHI  HZ I        1933 36.19         4.2 0.52                           254 198 
                                                                                
