 2017  417 1618 24.9 L   6.785 -73.165148.0  RSN  6 0.4 1.4LRSN                1
 GAP=135        1.00       5.2     4.5  7.3  0.2177E+01  0.6109E+01  0.4325E+00E
 Epicentro: LOS SANTOS - SANTANDER                                             3
 ACTION:UPD 17-05-30 21:13 OP:jn   STATUS:               ID:20170417161824 L   I
 OLDACT:UP  17-04-17 23:10 OP:cog  STATUS:               ID:20170417161739     3
 OLDACT:REG 17-04-17 20:26 OP:cog  STATUS:               ID:20170417161739     3
 2017-04-17-1618-00M.COL___365                                                 6
 STAT SP IPHASW D HRMM SECON CODA AMPLIT PERI AZIMU VELO AIN AR TRES W  DIS CAZ7
 BAR2 EZ EP       1618 44.49                             171   -0.2810 21.4 185 
 BAR2 EZ ES       1619  0.33                             171    0.0710 21.4 185 
 BAR2 EZ I        1619  2.04         7.2 0.23            171           21.4 185 
 BRR  HZ EP       1618 46.43                             153    0.1810 70.2 301 
 BRR  HE ES       1619  3.54                             153    0.6510 70.2 301 
 PAM  EZ EP       1618 47.48                             151   -0.0410 80.0  40 
 PAM  EN ES       1619  4.77                             151   -0.3910 80.0  40 
 PAM  EZ I        1619  7.15         5.3 0.38            152           80.0  40 
 RUS  HZ EP       1618 48.82                             145    0.0410 99.1 175 
 RUS  HN ES       1619  7.76                             145    0.3710 99.1 175 
 RUS  HZ I        1619  9.40         2.7 0.30            146           99.1 175 
 PTB  HZ EP       1618 51.79                             133   -0.06 9  145 259 
 PTB  HN ES       1619 11.97                             133   -0.89 9  145 259 
 PTB  HZ I        1619 14.93         3.8 0.15            135            145 259 
 ZAR  HZ EP   3   1618 58.73                             123    1.36 2  203 293 
 ZAR  HN ES       1619 22.92                             123    0.23 9  203 293 
                                                                                
