 2012  717 1710 43.0 L   6.770 -73.128146.0  RSN 10 0.4 2.3LRSN                1
 GAP= 97        0.90       4.5     4.3  6.6 -0.1048E+00  0.5278E+01  0.5654E+01E
 Epicentro: LOS SANTOS - SANTANDER                                             3
 ACTION:UPD 12-08-14 11:45 OP:ep   STATUS:               ID:20120717171043 L   I
 2012-07-17-1710-00M.COL___196                                                 6
 STAT SP IPHASW D HRMM SECON CODA AMPLIT PERI AZIMU VELO AIN AR TRES W  DIS CAZ7
 BAR2 SZ EP   1   1711  2.39                             172    -0.2 7   21 197 
 BAR2 SZ ES   1   1711 18.19                             172     0.3 7   21 197 
 BAR2 SZ I        1711 19.18        50.0 0.25            163             21 197 
 BRR  HZ EP   1   1711  4.35                             151     0.0 7   75 300 
 BRR  HE ES   1   1711 21.70                             151     0.7 7   75 300 
 BRR  HZ I        1711 26.27        43.2 0.15            139             75 300 
 PAM  SZ EP   1   1711  5.24                             151    -0.1 7   79  37 
 PAM  SN ES   1   1711 22.60                             151    -0.1 7   79  37 
 RUS  HZ EP   1   1711  6.27                             145    -0.2 7   97 177 
 RUS  HN ES   1   1711 24.78                             145    -0.1 7   97 177 
 RUS  HZ I        1711 26.64        16.2 0.35            137             97 177 
 PTB  HZ EP   1   1711  9.38                             132    -0.7 7  149 260 
 PTB  HN ES   1   1711 30.38                             132    -0.9 7  149 260 
 PTB  HZ I        1711 36.30        28.5 0.20            120            149 260 
 TAM  HZ EP   1   1711 10.56                             131     0.1 7  152 104 
 ZAR  HZ EP   1   1711 16.02                             122     0.2 6  207 293 
 ZAR  HN ES   1   1711 41.26                             122    -0.1 6  207 293 
 ZAR  HZ I        1711 46.84        26.5 0.23            112            207 293 
 NOR  SZ EP   1   1711 18.57                             119    -0.1 6  234 235 
 NOR  SN ES   1   1711 47.06                             119     0.5 6  234 235 
 CHI  HZ EP   1   1711 20.54                             118     0.1 6  246 196 
 CHI  HN ES   1   1711 49.79                             118     0.2 6  246 196 
 CHI  HZ I        1711 55.75        11.3 0.56            110            246 196 
 HEL  HZ EP   1   1711 24.21                             115     0.9 6  273 257 
 HEL  HZ I        1712  1.68        10.0 0.37            107            273 257 
