 2014  717 1052 24.5 L   6.829 -73.138138.1  RSN  6 0.4 1.9LRSN                1
 GAP=216        0.88       3.8     5.7  6.6  0.1406E+01  0.6166E+01 -0.6166E+01E
 Epicentro: LOS SANTOS - SANTANDER                                             3
 ACTION:UPD 15-03-16 20:44 OP:nd   STATUS:               ID:20140717105224 L   I
 OLDACT:UP  14-07-17 22:26 OP:stll STATUS:               ID:20140717104818     3
 OLDACT:REG 14-07-17 20:50 OP:stll STATUS:               ID:20140717104818     3
 2014-07-17-1048-18M.COL___257                                                 6
 STAT SP IPHASW D HRMM SECON CODA AMPLIT PERI AZIMU VELO AIN AR TRES W  DIS CAZ7
 BAR2 SZ EP       1052 43.65                             169    0.4110 26.6 191 
 BAR2 SZ ES       1052 57.90                             169    0.0110 26.6 191 
 BAR2 SZ I        1052 59.95        17.6 0.40            153           26.6 191 
 PTB  HZ EP       1052 50.74                             130   -0.21 9  149 258 
 PTB  HE ES       1053 11.14                             130   -0.47 9  149 258 
 PTB  HZ I        1053 14.51         8.2 0.40            119            149 258 
 SPBC HZ EP       1052 52.73                             127    0.05 9  166 219 
 SPBC HN ES       1053 14.45                             127   -0.23 9  166 219 
 SPBC HZ I        1053 17.88         8.2 0.20            114            166 219 
 ZAR  HZ EP       1052 56.66                             121    0.28 9  204 291 
 ZAR  HN ES       1053 22.03                             121    0.76 9  204 291 
 ZAR  HZ I        1053 27.86         6.2 0.30            112            204 291 
 SML  HZ EP       1052 59.90                             116   -0.49 8  241 335 
 SML  HN ES       1053 28.10                             116   -0.31 8  241 335 
 SML  HZ I        1053 35.03         9.0 0.10            108            241 335 
 PRA  HZ EP       1053 18.31                             105    0.21 6  395 209 
 PRA  HZ I        1054  8.00         2.0 0.46            100            395 209 
                                                                                
