 2015 1217 1335 16.9 L   6.803 -73.149146.5  RSN 14 0.5 2.2LRSN                1
 GAP=136        1.03       3.9     4.4  6.2 -0.4656E+01  0.6630E+01  0.3240E+01E
 Epicentro: LOS SANTOS - SANTANDER                                             3
 ACTION:UPD 16-02-04 15:05 OP:cam  STATUS:               ID:20151217133516 L   I
 OLDACT:UP  15-12-18 01:20 OP:ar   STATUS:               ID:20151217132750     3
 OLDACT:REG 15-12-17 21:33 OP:ar   STATUS:               ID:20151217132750     3
 2015-12-17-1327-50M.COL___337                                                 6
 STAT SP IPHASW D HRMM SECON CODA AMPLIT PERI AZIMU VELO AIN AR TRES W  DIS CAZ7
 BAR2 EZ EP       1335 36.49                             170   -0.1510 23.6 189 
 BAR2 EZ ES       1335 51.71                             170   -0.3210 23.6 189 
 BAR2 EZ I        1335 54.18        18.2 0.28            168           23.6 189 
 BRR  HZ EP       1335 38.38                             153    0.2710 70.7 298 
 BRR  HN ES       1335 55.51                             153    0.8610 70.7 298 
 BRR  HZ I        1335 59.62        24.0 0.10            149           70.7 298 
 PAM  EZ EP       1335 39.32                             151    0.1110 77.3  40 
 PAM  EN ES       1335 56.55                             151   -0.0410 77.3  40 
 PAM  EZ I        1335 58.31        43.5 0.50            156           77.3  40 
 RUS  HZ EP   4   1335 47.00                             144    6.23 0  101 176 
 RUS  HN ES   2   1335 59.34                             144   -0.03 5  101 176 
 RUS  HZ I        1336  1.14        19.7 0.42            146            101 176 
 PTB  HZ EP       1335 43.27                             132   -0.64 9  147 259 
 PTB  HN ES       1336  4.13                             132   -0.84 9  147 259 
 PTB  HZ I        1336  6.93        24.0 0.16            131            147 259 
 SPBC HZ EP       1335 45.61                             129    0.14 9  163 219 
 SPBC HN ES       1336  7.91                             129    0.16 9  163 219 
 SPBC HZ I        1336 10.33        44.8 0.24            130            163 219 
 ZAR  HZ EP   4   1335 54.49                             123    5.14 0  204 292 
 ZAR  HN ES   2   1336 14.89                             123    0.23 4  204 292 
 ZAR  HZ I        1336 23.49        11.9 0.26            123            204 292 
 NOR  HZ EP       1335 52.97                             119    0.30 8  235 234 
 NOR  HN ES       1336 20.07                             119   -0.50 8  235 234 
 NOR  HZ I        1336 25.58        12.1 0.34            119            235 234 
 SML  HZ EP   2   1335 52.87                             118   -0.65 4  243 335 
 SML  HN ES       1336 21.74                             118   -0.34 8  243 335 
 SML  HZ I        1336 23.05        22.9 0.32            119            243 335 
 CHI  HZ EP       1335 54.86                             117    0.18 8  249 195 
 CHI  HN ES   2   1336 24.55                             117    0.41 4  249 195 
 CHI  HZ I        1336 28.10         6.0 0.62            119            249 195 
 HEL  HZ EP   2   1335 57.83                             115    0.70 4  272 256 
 HEL  HN ES       1336 29.28                             115    0.78 8  272 256 
 HEL  HZ I        1336 35.75         8.0 0.26            116            272 256 
 URE  HZ EP   4   1336  0.61                             114    2.65 0  283 292 
 URE  HN ES   4   1336 27.07                             114   -2.91 0  283 292 
 URE  HZ I        1336 40.13         8.6 0.24            114            283 292 
 GUY2CHZ EP   4   1336  2.36                             112    1.82 0  301 235 
 GUY2CHN ES   4   1336 37.75                             112    3.18 0  301 235 
 GUY2CHZ I        1336 44.40         7.5 0.34                           301 235 
 SJC  HZ EP   4   1336 11.12                             106   -1.31 0  409 327 
 SJC  HN ES   4   1336 51.65                             106   -4.09 0  409 327 
 SJC  HZ I        1336 54.37         2.7 0.28            107            409 327 
                                                                                
