 2016  117 1922 25.1 L   6.805 -73.177145.9  RSN 10 0.4 2.0LRSN                1
 GAP=132        0.87       2.7     3.9  5.2 -0.3270E+01  0.7414E+01 -0.2763E+00E
 Epicentro: LOS SANTOS - SANTANDER                                             3
 ACTION:UPD 16-03-09 23:26 OP:cam  STATUS:               ID:20160117192225 L   I
 OLDACT:UP  16-01-17 23:21 OP:drio STATUS:               ID:20160117191748     3
 OLDACT:REG 16-01-17 20:21 OP:drio STATUS:               ID:20160117191748     3
 2016-01-17-1917-48M.COL___325                                                 6
 STAT SP IPHASW D HRMM SECON CODA AMPLIT PERI AZIMU VELO AIN AR TRES W  DIS CAZ7
 BAR2 EZ EP       1922 44.85                             170    0.1310 23.6 181 
 BAR2 EZ ES       1923  0.45                             170    0.4010 23.6 181 
 BAR2 EZ I        1923  1.25        14.4 0.28            170           23.6 181 
 PAM  EZ EP       1922 47.74                             150    0.3310 79.2  42 
 PAM  EN ES       1923  5.00                             150    0.1610 79.2  42 
 PAM  EZ I        1923  7.08        25.6 0.56            155           79.2  42 
 RUS  HZ EP       1922 48.50                             144   -0.4010  101 174 
 RUS  HE ES       1923  6.95                             144   -0.5310  101 174 
 RUS  HZ I        1923  9.09        11.8 0.46            146            101 174 
 PTB  HZ EP       1922 51.82                             133    0.07 9  144 258 
 PTB  HN ES       1923 11.98                             133   -0.58 9  144 258 
 PTB  HZ I        1923 18.90        10.7 0.32            133            144 258 
 SPBC HZ EP       1922 53.95                             129    0.54 9  161 218 
 SPBC HN ES       1923 15.34                             129   -0.18 9  161 218 
 SPBC HZ I        1923 22.60        15.6 0.10            130            161 218 
 NOR  HZ EP       1923  0.64                             119    0.10 8  232 234 
 NOR  HN ES       1923 28.51                             119    0.31 8  232 234 
 NOR  HZ I        1923 31.05         7.3 0.38            120            232 234 
 SML  HZ EP       1923  1.07                             118   -0.42 8  242 336 
 SML  HN ES       1923 29.77                             118   -0.12 8  242 336 
 SML  HZ I        1923 32.86        19.7 0.10            120            242 336 
 CHI  HZ EP       1923  2.14                             117   -0.60 8  248 194 
 CHI  HN ES       1923 32.33                             117    0.21 8  248 194 
 CHI  HZ I        1923 36.33         4.7 0.42            119            248 194 
 GUY2CHZ EP   4   1923 10.19                             112    1.79 0  299 234 
 GUY2CHN ES       1923 42.63                             112    0.44 7  299 234 
 GUY2CHZ I        1923 51.55         7.3 0.70                           299 234 
 PRA  HZ EP       1923 18.71                             107    0.26 6  391 209 
 PRA  HN ES       1924  0.23                             107    0.14 6  391 209 
 PRA  HZ I        1924  6.13         3.7 0.28            108            391 209 
                                                                                
