 2012 1017 1614 56.2 L   6.796 -73.147145.6  RSN  5 0.3 1.6LRSN                1
 GAP=136        0.55       3.8     4.7  6.9  0.2540E+01  0.1183E+01  0.5541E+01E
 Epicentro: LOS SANTOS - SANTANDER                                             3
 ACTION:UPD 12-11-22 17:04 OP:ep   STATUS:               ID:20121017161456 L   I
 2012-10-17-1610-00M.COL___230                                                 6
 STAT SP IPHASW D HRMM SECON CODA AMPLIT PERI AZIMU VELO AIN AR TRES W  DIS CAZ7
 BAR2 SZ EP   2   1615 15.33                             171   -0.47 5 22.9 190 
 BAR2 SZ I        1615 32.32        10.7 0.30                          22.9 190 
 BRR  HZ EP   1   1615 17.49                             152    0.16 8 71.2 299 
 BRR  HE ES   1   1615 34.11                             152    0.30 8 71.2 299 
 BRR  HZ I        1615 36.87        12.7 0.44                          71.2 299 
 PAM  SZ EP   1   1615 18.73                             151    0.31 8 77.8  39 
 PAM  SE ES   1   1615 35.50                             151   -0.26 8 77.8  39 
 RUS  HZ EP       1615 19.85                             144   -0.0510  100 176 
 RUS  HZ I        1615 21.05         3.7 0.10                           100 176 
 RUS  HE ES   1   1615 38.39                             144    0.00 7  100 176 
 ZAR  HN ES   2   1615 53.28                             122   -0.65 4  204 292 
 ZAR  HZ I        1615 58.70         2.6 0.14                           204 292 
                                                                                
