 2016 1017 1514 15.6 L   7.132 -73.862 95.1  RSN  4 0.3 1.3LRSN                1
 GAP=215        0.87       7.2     4.1  6.9 -0.1589E+02 -0.1002E+01 -0.3470E+01E
 Epicentro: BARRANCABERMEJA - SANTANDER                                        3
 ACTION:UPD 16-11-09 19:20 OP:rebc STATUS:               ID:20161017151415 L   I
 OLDACT:DUP 16-10-18 00:55 OP:ar   STATUS:               ID:20161017150734d    3
 OLDACT:DUP 16-10-18 00:51 OP:ar   STATUS:               ID:20161017150733d    3
 2016-10-17-1508-00M.COL___358                                                 6
 STAT SP IPHASW D HRMM SECON CODA AMPLIT PERI AZIMU VELO AIN AR TRES W  DIS CAZ7
 BRR  HZ EP       1514 28.97                             169    0.2810 16.8  99 
 BRR  HN ES       1514 39.13                             169    0.2610 16.8  99 
 BRR  HZ I        1514 45.31         9.5 0.28            174           16.8  99 
 PTB  HZ EP       1514 33.53                             132    0.0410 92.8 225 
 PTB  HN ES       1514 46.96                             132   -0.4510 92.8 225 
 PTB  HZ I        1514 50.88         3.1 0.22            139           92.8 225 
 BAR2 EZ EP       1514 34.36                             132    0.2810 95.9 128 
 BAR2 EZ ES       1514 48.57                             132    0.1110 95.9 128 
 BAR2 EZ I        1514 49.45         8.9 0.30            141           95.9 128 
 PAM  EZ EP       1514 37.91                             122    0.0910  130  80 
 PAM  EN ES       1514 54.46                             122   -0.6510  130  80 
 PAM  EZ I        1514 55.51         3.6 0.30            130            130  80 
                                                                                
