 2015  517 1123 40.3 L   6.815 -73.125146.9  RSN 19 0.4 2.6LRSN                1
 GAP= 67        0.93       2.0     2.6  4.1 -0.8715E+00  0.2827E+01  0.6613E+00E
 Epicentro: LOS SANTOS - SANTANDER                                             3
 ACTION:UPD 15-09-10 22:04 OP:cam  STATUS:               ID:20150517112340 L   I
 OLDACT:REG 15-05-17 20:26 OP:drio STATUS:               ID:20150517111750     3
 2015-05-17-1117-50M.COL___283                                                 6
 STAT SP IPHASW D HRMM SECON CODA AMPLIT PERI AZIMU VELO AIN AR TRES W  DIS CAZ7
 BAR2 EZ IP     C 1124  0.03                             170   -0.0510 25.4 194 
 BAR2 EZ ES       1124 16.04                             170    0.5110 25.4 194 
 BAR2 EZ I        1124 16.36       109.2 0.18            168           25.4 194 
 BRR  HZ EP       1124  1.82                             152    0.2110 72.5 297 
 BRR  HN ES       1124 18.96                             152    0.7010 72.5 297 
 BRR  HZ I        1124 22.04        32.7 0.32            151           72.5 297 
 PAM  SZ EP       1124  2.83                             152    0.3810 74.7  39 
 PAM  SE ES       1124 19.99                             152    0.2410 74.7  39 
 PAM  SZ I        1124 21.96        58.3 0.46            155           74.7  39 
 RUS  HZ EP       1124  3.85                             144   -0.3910  102 177 
 RUS  HN ES       1124 22.38                             144   -0.5510  102 177 
 RUS  HZ I        1124 23.76        46.8 0.30            144            102 177 
 TAM  HZ EP       1124  8.33                             131    0.45 9  153 106 
 TAM  HN ES       1124 29.38                             131   -0.03 9  153 106 
 TAM  HZ I        1124 30.44        23.8 0.32            134            153 106 
 OCA  HZ EP       1124  8.17                             130   -0.38 9  159 352 
 OCA  HN ES       1124 30.07                             130   -0.53 9  159 352 
 OCA  HZ I        1124 33.16        88.3 0.22            131            159 352 
 SPBC HZ EP       1124  8.99                             129   -0.12 9  166 219 
 SPBC HN ES       1124 31.01                             129   -0.59 9  166 219 
 SPBC HZ I        1124 36.75        57.1 0.36            129            166 219 
 ZAR  HZ EP       1124 12.68                             122   -0.26 8  206 291 
 ZAR  HE ES       1124 38.41                             122   -0.02 8  206 291 
 ZAR  HN I        1124 39.17        53.3 0.16            122            206 291 
 NOR  HZ EP       1124 16.45                             118    0.09 8  237 234 
 NOR  HN ES       1124 44.13                             118   -0.38 8  237 234 
 NOR  HZ I        1124 50.11        31.7 0.20            119            237 234 
 SML  HZ EP       1124 16.37                             118   -0.54 8  243 335 
 SML  HN ES       1124 44.85                             118   -0.63 8  243 335 
 SML  HZ I        1124 50.80        30.0 0.26            118            243 335 
 CHI  HZ EP       1124 18.36                             117    0.09 8  251 196 
 CHI  HE ES       1124 47.34                             117   -0.56 8  251 196 
 CHI  HZ I        1124 54.35        16.6 0.24            118            251 196 
 ROSC BZ EP   4   1124 20.01                             117    1.28 0  255 211 
 ROSC BE ES       1124 48.34                             117   -0.39 8  255 211 
 ROSC BZ I        1124 55.77        37.3 0.40            117            255 211 
 HEL  HZ EP       1124 20.87                             115    0.04 8  275 256 
 HEL  HN ES       1124 52.57                             115    0.11 8  275 256 
 HEL  HZ I        1124 59.46        17.1 0.52            115            275 256 
 GUY2CHZ EP       1124 24.31                             112    0.06 7  304 235 
 GUY2CHN ES       1124 58.83                             112    0.29 7  304 235 
 GUY2CHZ I        1125  6.39        33.2 0.32                           304 235 
 LL2C HZ EP       1124 24.25                             112    0.50 7  305 354 
 LL2C HN ES       1124 57.67                             112    0.01 7  305 354 
 LL2C HZ I        1125  4.29        32.6 0.58            113            305 354 
 PTGC HZ EP       1124 24.21                             112   -0.05 7  309 159 
 PTGC HN ES   4   1124 56.70                             112   -1.86 0  309 159 
 RREF HZ EP       1124 27.61                             111    0.83 7  325 229 
 RREF HN ES       1125  3.07                             111    0.02 7  325 229 
 RREF HZ I        1125 11.38         8.6 0.32            111            325 229 
 ANIL HZ EP       1124 30.83                             108    0.39 6  360 225 
 ANIL HN ES       1125 10.42                             108    0.86 6  360 225 
 ANIL HZ I        1125 15.32        36.1 0.30            109            360 225 
 ORTC HZ EP       1124 34.76                             106    0.22 6  398 216 
 ORTC HN ES       1125 17.18                             106    0.32 6  398 216 
 ORTC HZ I        1125 23.62        12.7 0.60            107            398 216 
                                                                                
