 2017  617 1759 13.2 L   6.825 -73.172155.2  RSN  6 0.4 1.9LRSN                1
 GAP=213        0.82       4.6     4.9  7.8  0.1089E+02  0.3684E+01  0.1351E+02E
 Epicentro: ZAPATOCA - SANTANDER                                               3
 ACTION:UPD 17-09-14 16:52 OP:jn   STATUS:               ID:20170617175913 L   I
 OLDACT:UP  17-06-18 00:21 OP:dani STATUS:               ID:20170617175737     3
 OLDACT:UP  17-06-18 00:21 OP:dani STATUS:               ID:20170617175737     3
 OLDACT:REG 17-06-17 21:03 OP:dani STATUS:               ID:20170617175737     3
 2017-06-17-1758-00M.COL___356                                                 6
 STAT SP IPHASW D HRMM SECON CODA AMPLIT PERI AZIMU VELO AIN AR TRES W  DIS CAZ7
 BRR  HZ EP       1759 35.42                             155    0.2110 67.4 298 
 BRR  HN ES       1759 52.51                             155    0.1610 67.4 298 
 BRR  HZ I        1759 56.42        14.1 0.26            154           67.4 298 
 PTB  HZ EP       1759 40.38                             134   -0.41 9  145 258 
 PTB  HN ES       18 0  1.66                             134   -0.62 9  145 258 
 PTB  HZ I        18 0  6.48         6.0 0.10            134            145 258 
 YPLC HN ES       18 0  8.07                             128   -0.09 9  181 151 
 YPLC HZ I        18 0  8.96        16.2 0.31            131            181 151 
 ZAR  HZ EP   3   1759 44.15                             125   -1.80 2  200 292 
 ZAR  HN ES       18 0 11.65                             125    0.19 9  200 292 
 ZAR  HZ I        18 0 17.27         6.2 0.22            126            200 292 
 NOR  HZ EP       1759 49.76                             120    0.30 8  234 234 
 NOR  HE ES       18 0 18.21                             120    0.51 8  234 234 
 NOR  HZ I        18 0 25.43         6.3 0.16            121            234 234 
 CHI  HZ EP       1759 51.85                             119    0.17 8  251 194 
 CHI  HN ES       18 0 21.53                             119   -0.13 8  251 194 
 CHI  HZ I        18 0 31.00         3.2 0.40            120            251 194 
                                                                                
