 2010  817 1305 18.5 L   6.750 -73.155145.5  RSN  4 0.2 1.5LRSN                1
 GAP=209        0.41      10.9    26.8  5.0  0.2086E+03 -0.4979E+02 -0.9751E+01E
 Epicentro: LOS SANTOS - SANTANDER                                             3
 ACTION:UP  10-09-07 10:55 OP:vdl  STATUS:               ID:20100817130518 L   I
 2010-08-17-1301-49S.COL___110                                                 6
 STAT SP IPHASW D HRMM SECON CODA AMPLIT PERI AZIMU VELO SNR AR TRES W  DIS CAZ7
 BAR2 SZ EP       13 5 37.89                             173    -0.110   18 190 
 BAR2 SZ ES   1   13 5 53.01                             173    -0.2 7   18 190 
 BAR2 SZ I        13 5 54.41        10.7 0.19                            18 190 
 BTL  SZ EP       13 5 38.18                             171     0.110   22 326 
 BTL  SZ ES       13 5 53.33                             171     0.010   22 326 
 BRR  HE ES   3   13 5 56.17                             151    -0.1 2   73 303 
 RUS  HE ES   3   13 6  0.59                             145     0.6 2   95 175 
 RUS  HZ I        13 6  1.91         2.9 0.49                            95 175 
                                                                                
