 2017  317 1804 16.0 L   6.671 -73.346142.0  RSN  5 0.3 1.8LRSN                1
 GAP=156        0.76       5.6     4.9  6.7  0.1497E+02  0.9243E+01  0.1031E+01E
 Epicentro: GALAN - SANTANDER                                                  3
 ACTION:UPD 17-05-25 18:41 OP:jn   STATUS:               ID:20170317180416 L   I
 OLDACT:REG 17-03-17 21:33 OP:dnl  STATUS:               ID:20170317175749     3
 2017-03-17-1758-00M.COL___415                                                 6
 STAT SP IPHASW D HRMM SECON CODA AMPLIT PERI AZIMU VELO AIN AR TRES W  DIS CAZ7
 BAR2 EZ EP       18 4 35.16                             172    0.0310 20.1 116 
 BAR2 EZ ES       18 4 49.92                             172   -0.1210 20.1 116 
 BAR2 EZ I        18 4 51.57        14.1 0.32            174           20.1 116 
 BRR  HZ EP       18 4 36.40                             155    0.1010 62.9 320 
 BRR  HN ES       18 4 52.44                             155    0.3110 62.9 320 
 BRR  HZ I        18 4 56.46        20.8 0.38            153           62.9 320 
 RUS  HZ EP   2   18 4 39.21                             146    0.50 5 90.9 161 
 RUS  HN ES       18 4 56.16                             146   -0.2510 90.9 161 
 PTB  HZ EP       18 4 40.54                             137   -0.0110  124 263 
 PTB  HE ES       18 5  0.04                             137    0.3510  124 263 
 PTB  HZ I        18 5  0.91         8.8 0.10            139            124 263 
 ZAR  HZ EP   4   18 4 48.87                             124    2.09 0  190 299 
 ZAR  HN ES       18 5 10.12                             124   -0.66 9  190 299 
 ZAR  HZ I        18 5 13.74         5.9 0.38            125            190 299 
                                                                                
