 2016  817 1411 32.8 L   6.688 -73.118141.4  RSN  4 0.3 1.8LRSN                1
 GAP=269        0.86       9.7     6.4  7.5  0.2338E+02  0.1265E+02  0.1843E+01E
 Epicentro: JORDAN - SANTANDER                                                 3
 ACTION:UPD 16-10-29 15:36 OP:rebc STATUS:               ID:20160817141132 L   I
 OLDACT:REG 16-08-17 20:47 OP:dnl  STATUS:               ID:20160817140740     3
 2016-08-17-1408-00M.COL___377                                                 6
 STAT SP IPHASW D HRMM SECON CODA AMPLIT PERI AZIMU VELO AIN AR TRES W  DIS CAZ7
 BAR2 EZ EP       1411 52.18                             175    0.4810 12.7 214 
 BAR2 EZ ES       1412  6.12                             175   -0.3410 12.7 214 
 BAR2 EZ I        1412  9.40         7.3 0.18                          12.7 214 
 BRR  HZ EP       1411 54.11                             149    0.1110 80.4 305 
 BRR  HN ES       1412 10.60                             149    0.0410 80.4 305 
 BRR  HZ I        1412 12.10        12.2 0.50                          80.4 305 
 PTB  HZ EP       1411 58.88                             131   -0.60 9  149 264 
 PTB  HN ES       1412 20.70                             131    0.37 9  149 264 
 PTB  HZ I        1412 22.59         7.2 0.12                           149 264 
 ZAR  HZ EP   2   1412  5.72                             120   -0.02 4  212 295 
 ZAR  HN ES       1412 31.34                             120   -0.12 8  212 295 
 ZAR  HZ I        1412 36.14         8.6 0.62                           212 295 
                                                                                
