 2010 1117 1533  2.0 L   6.210 -73.941 40.1  RSN  9 0.4 2.3LRSN                1
 GAP=105        0.84       3.9     4.2 10.3 -0.7091E+01 -0.4658E+01  0.1675E+02E
 Epicentro: CIMITARRA - SANTANDER                                              3
 ACTION:UP  10-12-17 16:53 OP:REBC STATUS:               ID:20101117153302 L   I
 2010-11-17-1529-49S.COL___127                                                 6
 STAT SP IPHASW D HRMM SECON CODA AMPLIT PERI AZIMU VELO SNR AR TRES W  DIS CAZ7
 BAR2 SZ EP       1533 20.33                             131     0.210   94  63 
 BAR2 SZ I        1533 36.43        66.6 0.26                            94  63 
 RUS  HZ EP       1533 21.10                             129    -0.110  101 110 
 RUS  HZ I        1533 37.81        12.5 0.75                           101 110 
 BRR  HZ IP     C 1533 20.53                             128    -0.110  102  14 
 BRR  HZ I        1533 20.78        97.9 0.14                           102  14 
 BRR  HN ES       1533 35.54                             128     0.410  102  14 
 NOR  SZ EP   2   1533 22.41                             122    -0.6 5  125 235 
 NOR  SE ES   2   1533 38.72                             122    -0.7 5  125 235 
 NOR  SZ I        1533 42.20         6.6 0.45                           125 235 
 HEL  HZ EP       1533 29.09                             114     0.1 9  176 269 
 HEL  HN ES   2   1533 50.46                             114     0.4 4  176 269 
 HEL  HZ I        1533 51.97        39.7 0.14                           176 269 
 GUE  SZ EP       1533 32.73                             109    -0.4 8  211  32 
 GRA  SZ EP       1533 34.30                             108    -0.1 8  224  34 
 GRA  SZ ES   2   1533 58.67                             108    -0.9 4  224  34 
 GRA  SZ I        1534  5.31        28.3 0.34                           224  34 
 PRA  HZ EP   1   1533 42.87                             103     0.0 5  295 201 
 PRA  HE ES   2   1534 15.19                             103     0.5 4  295 201 
 PRA  HZ I        1534 22.93        65.1 0.61                           295 201 
 SJA  SZ EP   1   1533 46.33                             102    -0.2 5  325 180 
 SJA  SZ ES   2   1534 22.39                             102     1.2 3  325 180 
 SJA  SZ I        1534 26.27        64.0 0.33                           325 180 
                                                                                
