 2010  717 1716 30.3 L   5.900 -73.760 23.7  RSN 13 0.7 2.8LRSN                1
 GAP=115        1.79       8.4    12.2 19.6 -0.8845E+02  0.2156E+03 -0.1262E+03E
 Epicentro: SUCRE - SANTANDER                                                  3
 ACTION:UPD 10-12-01 15:18 OP:pat  STATUS:               ID:20100717171629 L   I
 2010-07-17-1712-17S.COL___120                                                 6
 STAT SP IPHASW D HRMM SECON CODA AMPLIT PERI AZIMU VELO AIN AR TRES W  DIS CAZ7
 RUS  HZ EP       1716 43.52                             105     0.310   75  91 
 RUS  HN ES   1   1716 52.06                             105    -1.2 7   75  91 
 RUS  HZ I        1716 56.47       114.5 0.23                            75  91 
 BAR2 SZ EP       1716 46.93                             101     0.310  100  40 
 BAR2 SZ ES       1716 59.63                             101     0.410  100  40 
 BAR2 SZ I        1717  1.57       693.9 0.65                           100  40 
 BRR  HZ EP       1716 50.20                              56    -0.410  134   2 
 BRR  HZ I        1716 52.20       123.8 0.05                           134   2 
 BRR  HN ES       1717  6.46                              56     0.010  134   2 
 GIR2 SZ EP   1   1716 53.38                              56     1.2 7  145  26 
 CVER SZ EP   1   1716 55.84                              56     1.8 7  156 193 
 CVER SZ I        1717 18.45        82.4 1.27                           156 193 
 GUY  SZ EP       1716 59.15                              56     0.5 9  193 247 
 GUY  SZ I        1717  0.10       169.5 0.77                           193 247 
 GUY  SN ES       1717 21.08                              56     0.4 9  193 247 
 RREF HZ EP       1717  0.64                              56     0.0 8  208 238 
 RREF HN ES       1717 23.53                              56    -0.7 8  208 238 
 RREF HZ I        1717 25.64        63.0 0.29                           208 238 
 TOL  SZ ES   3   1717 26.67                              56    -1.0 2  226 230 
 GUE  SZ EP       1717  2.82                              56    -0.5 8  233  23 
 GUE  SZ I        1717 36.66        58.4 0.24                           233  23 
 ANIL HZ EP   1   1717  4.31                              56     0.1 6  240 230 
 ANIL HN ES       1717 29.93                              56    -0.7 8  240 230 
 ANIL HZ I        1717 32.33       137.2 0.11                           240 230 
 GRA  SZ EP       1717  4.32                              56    -0.2 8  244  26 
 GRA  SZ I        1717 38.28       111.9 0.83                           244  26 
 OCA  SZ EP       1717  5.95                              56    -1.0 8  263  11 
 OCA  SZ I        1717 49.81        35.5 0.44                           263  11 
 PRA  HZ EP       1717  7.97                              55     0.0 8  272 207 
 PRA  HE ES   2   1717 37.08                              55    -0.2 4  272 207 
 PRA  HZ I        1717 48.81        30.3 0.50                           272 207 
                                                                                
