 2016  717 1547 52.5 L   6.802 -73.115149.9  RSN  8 0.4 1.9LRSN                1
 GAP=241        0.97       4.8     5.2  6.6  0.6645E+01  0.6803E+01 -0.5808E+00E
 Epicentro: LOS SANTOS - SANTANDER                                             3
 ACTION:UPD 17-03-29 16:52 OP:lp   STATUS:               ID:20160717154752 L   I
 OLDACT:UP  16-07-17 23:01 OP:dani STATUS:               ID:20160717153759     3
 OLDACT:UP  16-07-17 23:00 OP:dani STATUS:               ID:20160717153759     3
 OLDACT:UP  16-07-17 23:00 OP:dani STATUS:               ID:20160717153759     3
 OLDACT:UP  16-07-17 23:00 OP:dani STATUS:               ID:20160717153759     3
 OLDACT:UP  16-07-17 22:59 OP:dani STATUS:               ID:20160717153759     3
 OLDACT:REG 16-07-17 20:43 OP:dani STATUS:               ID:20160717153759     3
 2016-07-17-1537-59S.COL___319                                                 6
 STAT SP IPHASW D HRMM SECON CODA AMPLIT PERI AZIMU VELO AIN AR TRES W  DIS CAZ7
 BAR2 EZ EP       1548 12.56                             170   -0.0610 24.4 198 
 BAR2 EZ ES       1548 28.22                             170   -0.1110 24.4 198 
 BAR2 EZ I        1548 29.48        10.4 0.52            169           24.4 198 
 BRR  HZ EP       1548 14.47                             152    0.2410 74.1 297 
 BRR  HE ES       1548 31.67                             152    0.4710 74.1 297 
 BRR  HZ I        1548 43.37        12.7 0.40            150           74.1 297 
 RUS  HZ EP       1548 16.96                             145    0.3310  101 178 
 RUS  HE ES       1548 35.11                             145   -0.3710  101 178 
 RUS  HZ I        1548 36.41         5.0 0.22            150            101 178 
 PTB  HZ EP       1548 19.48                             132   -0.60 9  151 259 
 PTB  HN ES       1548 40.85                             132   -0.76 9  151 259 
 PTB  HZ I        1548 46.15        15.1 0.76            133            151 259 
 SPBC HZ EP       1548 21.60                             130    0.09 9  165 220 
 SPBC HE ES       1548 44.58                             130    0.43 9  165 220 
 SPBC HZ I        1548 47.55        11.6 0.34            133            165 220 
 ZAR  HZ EP       1548 25.34                             123   -0.16 8  207 292 
 ZAR  HE ES       1548 51.38                             123    0.12 8  207 292 
 ZAR  HZ I        1548 56.65        11.4 0.38            125            207 292 
 NOR  HE ES       1548 57.48                             119    0.43 8  238 235 
 NOR  HZ I        1549  2.81         6.4 0.18            122            238 235 
 HEL  HE ES   4   1549  7.93                             115    2.85 0  275 256 
 GUY2CHZ EP   4   1548 38.13                             113    1.53 0  304 235 
 GUY2CHN ES   4   1549 16.50                             113    5.49 0  304 235 
 GUY2CHZ I        1549 19.22         4.9 0.54                           304 235 
                                                                                
