 2013 1117 1816 48.3 L   6.872 -73.281124.8  RSN  5 0.5 2.0LRSN                1
 GAP=183        1.26       7.8     8.7  9.5  0.2109E+02  0.1656E+02 -0.2425E+02E
 Epicentro: BETULIA - SANTANDER                                                3
 ACTION:UPD 14-01-09 16:29 OP:ep   STATUS:               ID:20131117181648 L   I
 OLDACT:REG 13-11-17 15:48 OP:nd   STATUS:               ID:20131117181000     3
 2013-11-17-1810-00M.COL___279                                                 6
 STAT SP IPHASW D HRMM SECON CODA AMPLIT PERI AZIMU VELO AIN AR TRES W  DIS CAZ7
 BAR2 SZ EP       1817  6.25                             164    0.5310 32.8 161 
 BAR2 SZ ES       1817 18.87                             164   -0.4110 32.8 161 
 BAR2 SZ I        1817 20.76        52.3 0.28            172           32.8 161 
 BRR  HZ EP       1817  6.68                             155    0.4010 54.2 299 
 BRR  HN ES       1817 20.45                             155    0.1810 54.2 299 
 BRR  HZ I        1817 21.70        13.5 0.32            151           54.2 299 
 PTB  HZ EP       1817 11.65                             129   -0.8110  135 254 
 PTB  HN ES   2   1817 31.02                             129   -0.26 5  135 254 
 PTB  HZ I        1817 33.88        12.2 0.38            131            135 254 
 ZAR  HZ EP       1817 17.50                             120   -0.20 9  187 292 
 ZAR  HN ES       1817 41.24                             120    0.64 9  187 292 
 ZAR  HZ I        1817 45.41         8.9 0.26            120            187 292 
 SML  HZ EP       1817 22.88                             114    0.49 8  230 338 
 SML  HN ES       1817 48.08                             114   -0.87 8  230 338 
 SML  HZ I        1817 57.75        11.8 0.10            114            230 338 
                                                                                
