 2010  617 1056 50.9 L   6.238 -73.657109.2  RSN  4 0.2 1.7LRSN                1
 GAP=235        0.45       4.2     8.3  7.0  0.1597E+02  0.1830E+02 -0.1300E+01E
 Epicentro: LA PAZ - SANTANDER                                                 3
 ACTION:UP  10-08-24 10:11 OP:vdl  STATUS:               ID:20100617105650 L   I
 2010-06-17-1053-09S.COL___115                                                 6
 STAT SP IPHASW D HRMM SECON CODA AMPLIT PERI AZIMU VELO SNR AR TRES W  DIS CAZ7
 BAR2 SZ IP       1057  8.47                             147     0.310   65  53 
 BAR2 SZ ES   2   1057 21.75                             147     0.1 5   65  53 
 RUS  HZ EP   1   1057  9.03                             144    -0.1 7   74 121 
 RUS  HZ I        1057  9.21        10.3 0.28                            74 121 
 RUS  HN ES   2   1057 23.13                             144    -0.3 5   74 121 
 BRR  HZ EP   1   1057 10.11                             135    -0.1 7   96 356 
 BRR  HE ES   2   1057 25.26                             135    -0.1 5   96 356 
 BRR  HZ I        1057 25.46        12.4 0.12                            96 356 
 GUE  SZ EP   1   1057 20.47                             114    -0.1 6  194  25 
 GUE  SZ ES   2   1057 43.34                             114    -0.3 4  194  25 
                                                                                
