 2010  817 1523 26.5 L   6.828 -73.049141.0  RSN 12 0.4 2.3LRSN                1
 GAP=169        0.75       2.8     5.6  4.8 -0.6981E+01  0.6546E+01  0.3177E+00E
 Epicentro: LOS SANTOS - SANTANDER                                             3
 ACTION:UP  10-09-07 10:55 OP:vdl  STATUS:               ID:20100817152326 L   I
 2010-08-17-1521-50S.COL___111                                                 6
 STAT SP IPHASW D HRMM SECON CODA AMPLIT PERI AZIMU VELO SNR AR TRES W  DIS CAZ7
 BAR2 SZ EP       1523 45.74                             167     0.010   30 210 
 BAR2 SZ ES   1   1524  0.42                             167    -0.3 7   30 210 
 BAR2 SZ I        1524  1.73        27.4 0.25                            30 210 
 GIR2 SZ EP   1   1523 45.62                             167    -0.1 7   32 330 
 GIR2 SZ ES   2   1524  0.39                             167    -0.2 5   32 330 
 BRR  HZ EP       1523 47.37                             149    -0.310   80 293 
 BRR  HE ES   1   1524  4.30                             149     0.1 7   80 293 
 BRR  HZ I        1524  8.01        43.3 0.14                            80 293 
 RUS  HZ EP   1   1523 50.33                             142     0.3 7  103 182 
 RUS  HN ES       1524  8.41                             142     0.010  103 182 
 RUS  HZ I        1524 10.02        10.9 0.23                           103 182 
 GUE  SZ EP       1523 50.42                             140     0.010  112   7 
 GUE  SZ ES   1   1524  8.84                             140    -0.2 7  112   7 
 GRA  SZ EP       1523 51.15                             137     0.310  120  13 
 GRA  SZ ES   1   1524 10.57                             137     0.7 7  120  13 
 GRA  SZ I        1524 12.76        26.4 0.38                           120  13 
 OCA  SZ EP   1   1523 53.88                             129    -0.5 7  159 349 
 OCA  SZ ES   3   1524 15.24                             129    -0.8 2  159 349 
 OCA  SZ I        1524 21.15        24.8 0.46                           159 349 
 CHI  HZ EP   1   1524  4.47                             115    -0.2 6  255 197 
 CHI  HE ES   2   1524 34.70                             115     0.4 4  255 197 
 CHI  HZ I        1524 41.46        12.0 0.46                           255 197 
 HEL  HZ EP   1   1524  7.73                             113     0.0 6  283 256 
 HEL  HZ I        1524 45.71         8.8 0.62                           283 256 
 GUY  SZ EP   1   1524 11.29                             111     0.1 5  312 236 
 GUY  SE ES   2   1524 46.78                             111     0.8 3  312 236 
 GUY  SZ I        1524 56.86        28.9 0.58                           312 236 
 RREF HZ EP   1   1524 13.96                             109     0.3 5  332 230 
 RREF HN ES   1   1524 51.09                             109     0.7 5  332 230 
 RREF HZ I        1524 56.35        11.3 0.41                           332 230 
 PRA  HZ EP   1   1524 20.40                             105    -0.4 4  400 211 
 PRA  HN ES   1   1525  2.36                             105    -0.8 4  400 211 
 PRA  HZ I        1525 10.16        10.7 0.34                           400 211 
                                                                                
