 2010 1217 1420 12.7 L   6.783 -73.063145.9  RSN  5 0.3 1.8LRSN                1
 GAP=238        0.73       7.0    13.9  6.4  0.6185E+02 -0.3878E+01  0.6413E+01E
 Epicentro: LOS SANTOS - SANTANDER                                             3
 ACTION:UP  11-01-14 15:25 OP:pat  STATUS:               ID:20101217142012 L   I
 2010-12-17-1416-23S.COL___136                                                 6
 STAT SP IPHASW D HRMM SECON CODA AMPLIT PERI AZIMU VELO SNR AR TRES W  DIS CAZ7
 BAR2 SZ EP       1420 32.23                             170    -0.210   25 212 
 BAR2 SZ ES   1   1420 47.55                             170    -0.2 7   25 212 
 BAR2 SZ I        1420 49.08        17.3 0.45                            25 212 
 BTL  SZ EP       1420 32.73                             169     0.310   27 304 
 BTL  SZ ES   2   1420 47.54                             169    -0.3 5   27 304 
 BRR  HZ EP       1420 34.10                             150    -0.310   80 297 
 BRR  HZ I        1420 34.42        24.1 0.13                            80 297 
 BRR  HN ES   1   1420 51.68                             150     0.3 7   80 297 
 RUS  HZ EP       1420 36.65                             145     0.310   99 181 
 RUS  HN ES   1   1420 54.76                             145     0.0 7   99 181 
 RUS  HZ I        1420 56.06         6.2 0.18                            99 181 
 CHI  HZ EP       1420 50.31                             117    -0.2 8  249 197 
 CHI  HZ I        1421 27.42         2.7 0.47                           249 197 
                                                                                
