 2015  617 1940  3.7 L   6.796 -73.153139.6  RSN 14 0.6 2.3LRSN                1
 GAP=182        1.27       3.1     5.5  6.6 -0.4095E+00  0.1235E+02  0.3047E+01E
 Epicentro: LOS SANTOS - SANTANDER                                             3
 ACTION:UPD 15-09-10 22:13 OP:cam  STATUS:               ID:20150617194003 L   I
 OLDACT:REG 15-06-17 21:55 OP:stll STATUS:               ID:20150617193750     3
 2015-06-17-1937-50M.COL___315                                                 6
 STAT SP IPHASW D HRMM SECON CODA AMPLIT PERI AZIMU VELO AIN AR TRES W  DIS CAZ7
 BAR2 EZ IP     C 1940 22.77                             170    0.2110 22.7 188 
 BAR2 EZ ES       1940 36.89                             170   -0.4010 22.7 188 
 BAR2 EZ I        1940 41.09        30.7 0.26            168           22.7 188 
 BRR  HZ EP     C 1940 24.63                             152    0.4910 70.7 299 
 BRR  HN ES       1940 40.55                             152    0.4510 70.7 299 
 BRR  HZ I        1940 46.91        27.3 0.14            148           70.7 299 
 RUS  HZ EP       1940 26.70                             143   -0.1010  100 176 
 RUS  HN ES       1940 44.80                             143   -0.0410  100 176 
 RUS  HZ I        1940 46.34        20.8 0.26            145            100 176 
 OCA  HZ EP       1940 31.68                             128    0.12 9  161 353 
 OCA  HN ES       1940 53.58                             128    0.27 9  161 353 
 OCA  HZ I        1940 59.77        31.9 0.34            130            161 353 
 ZAR  HZ EP       1940 35.51                             121   -0.17 9  203 292 
 ZAR  HE ES       1941  0.82                             121    0.19 9  203 292 
 ZAR  HZ I        1941  6.76        32.3 0.36            121            203 292 
 SML  HZ EP       1940 39.30                             116   -0.69 8  244 336 
 SML  HE ES       1941  7.43                             116   -0.87 8  244 336 
 SML  HZ I        1941 12.41        22.6 0.24            118            244 336 
 CHI  HZ EP       1940 40.61                             116   -0.36 8  248 195 
 CHI  HN ES       1941  9.79                             116   -0.27 8  248 195 
 CHI  HZ I        1941 20.04         7.7 0.26            118            248 195 
 HEL  HZ EP       1940 44.71                             114    1.22 8  271 256 
 HEL  HE ES       1941 12.94                             114   -1.60 8  271 256 
 HEL  HZ I        1941 22.72         9.8 0.30            114            271 256 
 GUY2CHZ EP       1940 47.89                             111    0.98 7  300 235 
 GUY2CHE ES       1941 20.93                             111    0.31 7  300 235 
 GUY2CHZ I        1941 31.46        12.9 0.54                           300 235 
 PTGC HZ EP   4 C 1940 46.08                             110   -1.17 0  309 158 
 PTGC HN ES   4   1941 18.15                             110   -3.09 0  309 158 
 RREF HZ EP       1940 48.51                             110   -0.95 7  321 229 
 RREF HN ES       1941 25.46                             110    0.30 7  321 229 
 RREF HZ I        1941 32.80         4.2 0.42            111            321 229 
 TOL  SZ EP       1940 52.49                             108    0.90 7  343 225 
 TOL  SN ES       1941 29.50                             108    0.54 7  343 225 
 TOL  SZ I        1941 35.24         6.7 0.28            110            343 225 
 MON  HZ EP   9   1940 49.93                             107   -2.49 0  353 309 
 MON  HN ES       1941 28.15                                    0.21 6  353 309 
 MON  HZ I        1941 43.66         5.6 0.72            109            353 309 
 ANIL HN ES       1941 31.62                             107   -0.11 6  356 224 
 PRA  HZ EP       1940 56.51                             105   -0.39 6  391 209 
 PRA  HN ES       1941 37.99                             105   -0.42 6  391 209 
 PRA  HZ I        1941 47.08         9.7 0.30            107            391 209 
                                                                                
