 2017  717 1200 41.7 L   6.690 -73.183144.7  RSN  6 0.3 1.2LRSN                1
 GAP=136        0.80       5.0     4.3  6.1  0.8131E+01 -0.3849E+00 -0.5694E+01E
 Epicentro: VILLANUEVA - SANTANDER                                             3
 ACTION:UPD 17-08-30 15:34 OP:rebc STATUS:               ID:20170717120041 L   I
 OLDACT:REG 17-07-17 20:55 OP:lv   STATUS:               ID:20170717115743     3
 2017-07-17-1158-00M.COL___380                                                 6
 STAT SP IPHASW D HRMM SECON CODA AMPLIT PERI AZIMU VELO AIN AR TRES W  DIS CAZ7
 BAR2 EZ EP       12 1  1.09                             176    0.0510 10.8 180 
 BAR2 EZ ES       12 1 15.84                             176   -0.2710 10.8 180 
 BRR  HZ EP       12 1  3.18                             151    0.2310 74.5 308 
 BRR  HN ES       12 1 20.05                             151    0.5510 74.5 308 
 RUS  HZ EP       12 1  4.72                             147    0.1610 88.8 173 
 RUS  HN ES       12 1 22.40                             147    0.0410 88.8 173 
 RUS  HZ I        12 1 24.09         3.3 0.24            145           88.8 173 
 PAM  EZ EP       12 1  4.19                             147   -0.4110 89.5  37 
 PTB  HZ EP       12 1  8.30                             133    0.23 9  142 263 
 PTB  HN ES       12 1 28.21                             133   -0.40 9  142 263 
 PTB  HZ I        12 1 32.81         2.0 0.05            131            142 263 
 ZAR  HE ES       12 1 39.31                             122   -0.26 8  205 296 
                                                                                
