 2012 1117 1044 33.2 L   6.441 -73.460122.5  RSN 21 0.5 3.1LRSN 3.1WRSN        1
 SPEC AVERAGE  MO 13.7 ST  1.2 OM  2.8 f0 2.65 R0.5591 AL 2.02 WI  9.5 MW  3.1 3
 SPEC SD       MO  0.1 ST0.144 OM  0.9 f00.210 R0.0470 AL      WI      MW  0.1 3
 GAP= 55        1.24       2.5     3.0  5.4 -0.1005E+01  0.4202E+01  0.2497E+01E
 Epicentro: SIMACOTA - SANTANDER                                               3
 SPEC ROSCBH Z MO 13.6 ST  1.1 OM  1.8 f0 2.78 R0.5288 AL 2.56 WI 11.2 MW  3.0 3
 SPEC ROSCBH Z T104529 K 0.000 GD  235 VS 4.20 DE 3.20 Q0300.0 QA 0.60 VS 4.20 3
 SPEC PRA HH N MO 13.7 ST  1.4 OM  1.7 f0 2.81 R0.5231 AL 1.61 WI 10.5 MW  3.0 3
 SPEC PRA HH N T104557 K 0.000 GD  361 VS 4.20 DE 3.20 Q0300.0 QA 0.60 VS 4.20 3
 SPEC CHI HH N MO 13.8 ST  1.1 OM  2.0 f0 2.35 R0.6255 AL 1.90 WI  6.8 MW  3.1 3
 SPEC CHI HH N T104529 K 0.000 GD  237 VS 4.20 DE 3.20 Q0300.0 QA 0.60 VS 4.20 3
 ACTION:UPD 12-12-05 15:34 OP:}ep  STATUS:               ID:20121117104433 L   I
 2012-11-17-1040-00M.COL___233                                                 6
 STAT SP IPHASW D HRMM SECON CODA AMPLIT PERI AZIMU VELO AIN AR TRES W  DIS CAZ7
 BAR2 SZ IP       1044 50.54                             163    0.1310 35.0  61 
 BAR2 SZ ES       1045  3.87                             163    0.0610 35.0  61 
 BAR2 SZ I        1045  5.52       705.3 0.22                          35.0  61 
 RUS  HZ IP     D 1044 52.53                             147   -0.2410 73.6 145 
 RUS  HZ I        1044 52.79        97.7 0.22                          73.6 145 
 RUS  HN ES       1045  7.27                             147   -0.7410 73.6 145 
 GIR2 SZ IP       1044 52.75                             146    0.2910 76.5  23 
 GIR2 SZ ES       1045  8.16                             146    0.7010 76.5  23 
 BRR  HZ IP     C 1044 52.63                             145    0.2110 78.8 339 
 BRR  HN ES       1045  8.05                             145    0.6610 78.8 339 
 BRR  HN I        1045  8.80       329.9 0.22                          78.8 339 
 PTB  HZ EP       1044 54.13                             135   -0.8310  111 276 
 PTB  HN ES       1045 11.26                             135   -0.6510  111 276 
 PTB  HN I        1045 15.15       287.8 0.24                           111 276 
 PAM  SZ EP       1044 57.51                             130    0.1610  130  40 
 PAM  SN ES       1045 16.50                             130    0.3410  130  40 
 TAM  HZ IP     D 1045  2.05                             119   -0.17 9  185  90 
 TAM  HZ I        1045  2.37       134.5 0.44                           185  90 
 TAM  HN ES       1045 24.38                             119   -0.46 9  185  90 
 ZAR  HZ EP       1045  3.16                             118    0.05 9  193 307 
 ZAR  HN ES       1045 27.11                             118    0.70 9  193 307 
 ZAR  HN I        1045 33.18       226.9 0.34                           193 307 
 OCA  HZ EP       1045  4.08                             117    0.13 9  199   4 
 OCA  HN ES       1045 27.49                             117   -0.43 9  199   4 
 OCA  HN I        1045 32.62       412.6 0.26                           199   4 
 ROSC BZ EP   4   1045  6.43                             117    2.00 0  201 208 
 ROSC BZ I        1045 36.88        44.6 0.65                           201 208 
 CHI  HZ EP       1045  4.60                             117   -0.02 9  203 189 
 CHI  HN ES       1045 29.34                             117    0.23 9  203 189 
 CHI  HN I        1045 32.45        87.9 0.26                           203 189 
 HEL  HZ EP       1045  7.62                             114   -0.03 8  231 263 
 HEL  HN ES       1045 33.59                             114   -0.92 8  231 263 
 HEL  HZ I        1045 37.54        48.4 0.20                           231 263 
 GUY  SZ EP       1045 11.27                             111    1.00 8  253 238 
 GUY  SN I        1045 46.84       416.1 0.30                           253 238 
 VIL  SZ EP       1045 11.44                             111    0.89 8  259 186 
 VIL  SE ES       1045 39.45                             111   -0.21 8  259 186 
 VIL  SN I        1045 46.24       105.8 0.52                           259 186 
 SML  HZ EP       1045 11.46                             110   -0.15 8  270 346 
 SML  HE ES       1045 41.02                             110   -0.52 8  270 346 
 SML  HN I        1045 50.04       125.6 0.30                           270 346 
 RREF HZ EP       1045 13.06                             110    0.65 8  270 231 
 RREF HN ES       1045 43.16                             110    0.18 8  270 231 
 RREF HZ I        1045 51.08        61.0 0.22                           270 231 
 TOL  SZ EP   2   1045 15.72                             108    1.24 4  291 225 
 TOL  SZ ES       1045 45.78                             108   -0.89 7  291 225 
 ANIL HZ EP   4   1045 17.78                             107    1.74 0  305 225 
 ANIL HZ I        1045 58.16       117.7 0.36                           305 225 
 PRA  HZ EP       1045 20.00                             105    0.07 7  340 208 
 PRA  HN ES       1045 57.04                             105    0.69 7  340 208 
 PRA  HN I        1046  3.18        30.7 0.40                           340 208 
 MON  HZ EP       1045 20.53                             104   -1.05 6  355 317 
 MON  HN ES   4   1045 57.85                             104   -1.45 0  355 317 
 MON  HN I        1045 59.94        54.1 0.22                           355 317 
 SDV  BZ EP       1045 28.07                             101   -0.63 6  413  49 
 SDV  BZ I        1046 11.64         2.9 0.30                           413  49 
                                                                                
