 2011 1117 1416 23.8 L   6.728 -73.013141.3  RSN  5 0.4 1.4LRSN                1
 GAP=158        0.75       5.0     5.8  8.0  0.4884E+01  0.5676E+01 -0.1536E+01E
 Epicentro: ARATOCA - SANTANDER                                                3
 ACTION:UPD 12-07-13 16:10 OP:ep   STATUS:               ID:20111117141623 L   I
 2011-11-17-1415-10S.COL___179                                                 6
 STAT SP IPHASW D HRMM SECON CODA AMPLIT PERI AZIMU VELO AIN AR TRES W  DIS CAZ7
 BAR2 SZ EP   1   1416 42.84                             170   -0.11 7 24.0 231 
 BAR2 SZ ES   1   1416 58.06                             170    0.21 7 24.0 231 
 BAR2 SZ I        1417  0.78         8.2 0.30                          24.0 231 
 PAM  SZ EP   1   1416 45.39                             150   -0.11 7 76.0  27 
 PAM  SN ES   1   1417  2.61                             150    0.22 7 76.0  27 
 BRR  HZ EP   1   1416 44.95                             146   -0.61 7 87.9 299 
 BRR  HZ I        1416 53.31         5.5 0.22                          87.9 299 
 BRR  HN ES   1   1417  2.24                             146   -0.26 7 87.9 299 
 RUS  HZ EP   1   1416 47.20                             145    0.61 7 92.7 185 
 RUS  HN ES   1   1417  4.02                             145   -0.31 7 92.7 185 
 RUS  HZ I        1417  6.68         2.9 0.25                          92.7 185 
 ZAR  HE ES   1   1417 24.69                             119    0.50 6  221 293 
                                                                                
