 2017  917 1544 39.4 L   6.839 -73.140142.7  RSN  6 0.4 1.6LRSN                1
 GAP=135        0.91       3.8     4.9  6.7  0.2655E+01  0.6743E+01  0.4630E+01E
 Epicentro: LOS SANTOS - SANTANDER                                             3
 ACTION:UPD 17-10-05 19:13 OP:rebc STATUS:               ID:20170917154439 L   I
 OLDACT:REG 17-09-17 21:07 OP:dnl  STATUS:               ID:20170917153744     3
 2017-09-17-1538-00M.COL___409                                                 6
 STAT SP IPHASW D HRMM SECON CODA AMPLIT PERI AZIMU VELO AIN AR TRES W  DIS CAZ7
 BAR2 EZ EP       1544 58.33                             168   -0.3910 27.7 190 
 BAR2 EZ ES       1545 13.55                             168   -0.2710 27.7 190 
 BAR2 EZ I        1545 16.07        10.0 0.22            168           27.7 190 
 BRR  HZ IP     C 1545  0.17                             152    0.0710 69.8 295 
 BRR  HN ES       1545 16.93                             152    0.6610 69.8 295 
 BRR  HE ES       1545 17.06                             152           69.8 295 
 BRR  HZ I        1545 21.19        13.0 0.12            151           69.8 295 
 PAM  EZ IP     C 1545  1.27                             151    0.2410 73.7  41 
 PAM  EN ES       1545 17.95                             151    0.0210 73.7  41 
 PAM  EZ I        1545 20.26         8.8 0.42            155           73.7  41 
 RUS  HZ EP       1545  3.08                             142   -0.0510  105 177 
 RUS  HN ES       1545 21.41                             142   -0.2610  105 177 
 RUS  HZ I        1545 23.10         5.3 0.34            145            105 177 
 ZAR  HZ EP   2   1545 11.92                             122    0.41 4  203 291 
 ZAR  HN ES       1545 35.96                             122   -0.62 9  203 291 
 ZAR  HE ES       1545 36.70                             122            203 291 
 ZAR  HZ I        1545 41.05         5.3 0.32            123            203 291 
 CHI  HZ EP   2   1545 17.24                             116   -0.13 4  253 195 
 CHI  HE ES       1545 47.64                             116    0.63 8  253 195 
 CHI  HZ I        1545 49.65         1.9 0.36            118            253 195 
                                                                                
