 2014  917 1715 55.7 L   6.834 -73.157146.0  RSN  6 0.3 1.5LRSN                1
 GAP=133        0.77       4.4     4.2  6.1 -0.1318E+01  0.1183E+01 -0.2424E+01E
 Epicentro: LOS SANTOS - SANTANDER                                             3
 ACTION:UPD 14-10-03 23:06 OP:nd   STATUS:               ID:20140917171555 L   I
 OLDACT:REG 14-09-17 21:18 OP:spq  STATUS:               ID:20140917170818     3
 2014-09-17-1708-18M.COL___287                                                 6
 STAT SP IPHASW D HRMM SECON CODA AMPLIT PERI AZIMU VELO AIN AR TRES W  DIS CAZ7
 BAR2 SZ EP       1716 15.44                             169    0.0110 26.8 186 
 BAR2 SZ ES   1   1716 31.03                             169    0.21 7 26.8 186 
 BAR2 SZ I        1716 33.99         6.2 0.18            171           26.8 186 
 BRR  HN ES       1716 32.78                             153   -0.3210 68.3 296 
 BRR  HZ I        1716 35.64        15.0 0.32            154           68.3 296 
 PAM  SZ EP       1716 18.28                             151    0.4610 75.4  42 
 PAM  SN ES   1   1716 34.87                             151   -0.20 7 75.4  42 
 PAM  SZ I        1716 37.11         4.2 0.58            153           75.4  42 
 RUS  HZ EP   1   1716 19.81                             143    0.06 7  104 175 
 RUS  HN ES   1   1716 38.17                             143   -0.33 7  104 175 
 RUS  HZ I        1716 43.77         2.0 0.28            146            104 175 
 PTB  HZ EP       1716 22.20                             132   -0.43 9  147 257 
 PTB  HE ES       1716 44.16                             132    0.51 9  147 257 
 PTB  HZ I        1716 45.74         3.0 0.44            134            147 257 
 SML  HZ EP   1   1716 31.59                             118   -0.32 6  240 335 
 SML  HE ES   2   1717  0.33                             118    0.18 4  240 335 
 SML  HZ I        1717  6.83         5.5 0.10            120            240 335 
                                                                                
