 2014  617 1818 55.0 L   6.814 -73.155140.0  RSN 20 0.5 2.7LRSN                1
 GAP= 70        1.14       2.6     2.9  5.0 -0.9895E+00  0.4640E+01  0.1726E+01E
 Epicentro: LOS SANTOS - SANTANDER                                             3
 ACTION:UPD 14-07-01 22:54 OP:nd   STATUS:               ID:20140617181855 L   I
 OLDACT:REG 14-06-17 21:35 OP:carl STATUS:               ID:20140617181817     3
 2014-06-17-1818-17M.COL___262                                                 6
 STAT SP IPHASW D HRMM SECON CODA AMPLIT PERI AZIMU VELO AIN AR TRES W  DIS CAZ7
 BAR2 SZ EP       1819 13.87                             170   -0.0710 24.7 187 
 BAR2 SZ ES       1819 28.46                             170   -0.2710 24.7 187 
 BAR2 SZ I        1819 29.57       125.6 0.22            170           24.7 187 
 BRR  HZ IP     C 1819 15.71                             152    0.3010 69.6 298 
 BRR  HN ES       1819 32.53                             152    1.1910 69.6 298 
 BRR  HZ I        1819 36.19        95.0 0.28            151           69.6 298 
 PAM  SZ EP       1819 16.82                             150    0.2710 76.9  41 
 PAM  SN ES       1819 33.71                             150    0.3310 76.9  41 
 PAM  SZ I        1819 35.68       164.0 0.46            153           76.9  41 
 RUS  HZ EP       1819 18.23                             142   -0.0510  102 176 
 RUS  HN ES       1819 36.26                             142   -0.1910  102 176 
 RUS  HZ I        1819 37.76        45.9 0.26            145            102 176 
 PTB  HZ EP       1819 20.95                             131   -0.46 9  147 258 
 PTB  HN ES       1819 41.31                             131   -0.72 9  147 258 
 PTB  HZ I        1819 43.79        64.9 0.24            131            147 258 
 TAM  HZ IP     D 1819 22.22                             129   -0.11 9  157 105 
 TAM  HN ES       1819 43.47                             129   -0.20 9  157 105 
 TAM  HZ I        1819 44.29        52.2 0.22            133            157 105 
 OCA  HZ EP       1819 22.22                             129   -0.47 9  159 353 
 OCA  HN ES       1819 43.86                             129   -0.44 9  159 353 
 OCA  HZ I        1819 47.93        70.8 0.20            130            159 353 
 SPBC HZ EP       1819 23.19                             128    0.11 9  164 218 
 SPBC HN ES       1819 45.77                             128    0.76 9  164 218 
 SPBC HZ I        1819 50.36        43.9 0.22            129            164 218 
 ZAR  HZ EP       1819 26.94                             121    0.05 9  203 292 
 ZAR  HE ES       1819 52.20                             121    0.42 9  203 292 
 ZAR  HZ I        1820  0.76        69.8 0.28            122            203 292 
 NOR  HZ EP       1819 30.73                             117    0.35 8  235 234 
 NOR  HN ES       1819 57.00                             117   -0.99 8  235 234 
 NOR  HZ I        1819 59.37        24.7 0.56            118            235 234 
 SML  HZ EP       1819 30.39                             117   -0.69 8  242 335 
 SML  HN ES       1819 58.84                             117   -0.41 8  242 335 
 SML  HZ I        1820  5.98        71.6 0.32            118            242 335 
 CHI  HZ EP       1819 33.03                             116    0.54 8  250 195 
 CHI  HN ES       1820  1.03                             116   -0.72 8  250 195 
 CHI  HZ I        1820  5.69        17.1 0.56            118            250 195 
 ROSC BZ EP   4   1819 35.24                             115    2.37 0  254 211 
 ROSC BN ES   4   1820  3.58                             115    1.16 0  254 211 
 HEL  HZ EP       1819 34.86                             114    0.04 8  271 255 
 HEL  HN ES       1820  5.95                             114    0.04 8  271 255 
 HEL  HZ I        1820 14.34        24.7 0.24            115            271 255 
 URE  HZ EP   4   1819 34.31                             113   -1.28 0  282 292 
 URE  HN ES   4   1820  6.70                             113   -0.58 0  282 292 
 GUY2CHZ EP       1819 39.06                             111    0.74 7  301 234 
 GUY2CHE ES       1820 12.23                             111    0.10 7  301 234 
 GUY2CHZ I        1820 21.52        22.4 0.52                           301 234 
 RREF HZ EP       1819 41.36                             110    0.47 7  322 229 
 RREF HN ES       1820 16.05                             110   -0.66 7  322 229 
 RREF HZ I        1820 23.09        16.4 0.24            111            322 229 
 CBOC HZ EP       1819 42.17                             109    0.58 7  333 252 
 CBOC HE ES       1820 18.11                             109    0.16 7  333 252 
 CBOC HZ I        1820 21.63         9.9 0.66            110            333 252 
 DBB  SZ EP       1819 42.09                             109    0.00 7  338 274 
 DBB  SZ ES       1820 18.22                             109   -0.61 7  338 274 
 TOL  SZ EP       1819 44.08                             108    1.04 7  344 224 
 TOL  SE ES       1820 20.27                             108   -0.26 7  344 224 
 TOL  SZ I        1820 29.34        37.5 0.64            110            344 224 
 ANIL HN ES       1820 23.62                             107    0.31 6  358 224 
 PRA  HZ EP       1819 48.17                             106   -0.22 6  393 209 
 PRA  HN ES       1820 29.67                             106   -0.39 6  393 209 
 PRA  HZ I        1820 34.42        15.7 0.30            107            393 209 
                                                                                
