 2016 1117 1738 58.7 L   6.768 -73.138146.6  RSN  6 0.3 1.8LRSN                1
 GAP=157        0.80       5.6     3.9  6.4 -0.3752E+01  0.5028E+01  0.3302E+01E
 Epicentro: LOS SANTOS - SANTANDER                                             3
 ACTION:UPD 17-10-26 21:09 OP:lp   STATUS:               ID:20161117173858 L   I
 OLDACT:REG 16-11-17 20:41 OP:edw  STATUS:               ID:20161117173745     3
 2016-11-17-1738-00M.COL___346                                                 6
 STAT SP IPHASW D HRMM SECON CODA AMPLIT PERI AZIMU VELO AIN AR TRES W  DIS CAZ7
 BAR2 EZ EP       1739 18.42                             172    0.0110 20.1 194 
 BAR2 EZ ES       1739 33.53                             172   -0.2210 20.1 194 
 BAR2 EZ I        1739 34.11        17.8 0.26            168           20.1 194 
 BRR  HZ EP       1739 20.35                             152    0.2310 73.7 301 
 BRR  HE ES       1739 37.43                             152    0.6310 73.7 301 
 PAM  EZ EP       1739 21.26                             150    0.0910 79.6  37 
 PAM  EN ES       1739 38.37                             150   -0.3110 79.6  37 
 PAM  EZ I        1739 40.47        13.8 0.52            154           79.6  37 
 PTB  HZ EP       1739 25.44                             132   -0.35 9  148 260 
 PTB  HE ES       1739 46.73                             132   -0.16 9  148 260 
 PTB  HZ I        1739 53.28         4.0 0.44            130            148 260 
 ZAR  HN ES       1739 56.82                             122   -0.16 8  206 293 
 ZAR  HZ I        1740  3.01         6.0 0.40            121            206 293 
 CHI  HN ES   2   1740  6.11                             118    0.79 4  245 196 
 CHI  HZ I        1740 10.64         2.9 0.38            117            245 196 
                                                                                
