 2010  717 1222  4.7 L   6.811 -73.033144.8  RSN  5 0.3 1.8LRSN                1
 GAP=171        0.77       3.8     7.1  7.9  0.9865E+00 -0.1260E+02 -0.5183E+00E
 Epicentro: CEPITA - SANTANDER                                                 3
 ACTION:UPD 10-12-01 15:18 OP:pat  STATUS:               ID:20100717122204 L   I
 2010-07-17-1218-08S.COL___120                                                 6
 STAT SP IPHASW D HRMM SECON CODA AMPLIT PERI AZIMU VELO AIN AR TRES W  DIS CAZ7
 BAR2 SZ EP       1222 24.14                             168    -0.210   29 215 
 BAR2 SZ ES   2   1222 39.87                             168     0.2 5   29 215 
 BAR2 SZ I        1222 40.42        16.9 0.58                            29 215 
 BRR  HZ EP       1222 26.00                             149    -0.410   82 294 
 BRR  HZ I        1222 26.33        29.7 0.49                            82 294 
 BRR  HN ES       1222 43.48                             149     0.210   82 294 
 RUS  HZ EP       1222 28.78                             143     0.310  102 183 
 RUS  HN ES       1222 46.85                             143    -0.110  102 183 
 RUS  HZ I        1222 48.03         4.8 0.18                           102 183 
 GRA  SZ EP   1   1222 29.84                             138     0.3 7  121  12 
 GRA  SZ I        1222 31.25         6.5 0.30                           121  12 
 GRA  SZ ES   1   1222 48.91                             138     0.0 7  121  12 
 RREF HN ES   2   1223 29.38                             110     0.5 3  332 231 
 RREF HZ I        1223 32.82         2.5 0.60                           332 231 
                                                                                
