 2010 1117 1002 41.7 L   6.784 -73.053142.0  RSN 11 0.5 2.5LRSN                1
 GAP=169        1.22       4.1     8.6  8.9 -0.1177E+02 -0.3879E+00  0.1104E+01E
 Epicentro: LOS SANTOS - SANTANDER                                             3
 ACTION:UP  10-12-17 16:53 OP:REBC STATUS:               ID:20101117100241 L   I
 2010-11-17-1001-07S.COL___127                                                 6
 STAT SP IPHASW D HRMM SECON CODA AMPLIT PERI AZIMU VELO SNR AR TRES W  DIS CAZ7
 BAR2 SZ EP       10 3  1.03                             169     0.110   26 214 
 BAR2 SZ I        10 3  1.45        69.7 0.27                            26 214 
 BAR2 SZ ES   2   10 3 14.16                             169    -1.8 5   26 214 
 BRR  HZ EP       10 3  2.93                             149    -0.210   81 296 
 BRR  HZ I        10 3  3.34        76.9 0.08                            81 296 
 BRR  HN ES       10 3 20.30                             149     0.610   81 296 
 RUS  HZ EP       10 3  4.81                             144    -0.210   99 182 
 RUS  HN ES       10 3 23.41                             144     0.310   99 182 
 RUS  HZ I        10 3 26.61        21.4 0.13                            99 182 
 GUE  SZ EP       10 3  6.35                             139     0.210  117   7 
 GRA  SZ EP       10 3  6.80                             137     0.210  125  13 
 GRA  SZ ES   1   10 3 26.35                             137     0.4 7  125  13 
 GRA  SZ I        10 3 27.70        53.1 0.18                           125  13 
 OCA  SZ EP       10 3  9.44                             129    -0.6 9  164 350 
 OCA  SZ ES       10 3 31.89                             129    -0.3 9  164 350 
 OCA  SZ I        10 3 36.23        48.0 0.27                           164 350 
 NOR  SZ EP   1   10 3 17.30                             117    -0.8 6  242 236 
 NOR  SN ES   2   10 3 45.84                             117    -0.6 4  242 236 
 NOR  SZ I        10 3 47.55         4.2 0.73                           242 236 
 ROSC BN ES   1   10 3 50.11                             116     0.1 6  257 213 
 ROSC BZ I        10 3 54.87        17.0 0.45                           257 213 
 RREF HN ES   2   10 4  5.49                             110     0.5 3  329 231 
 RREF HZ I        10 4 12.31        22.2 1.07                           329 231 
 TOL  SZ EP   1   10 3 30.97                             109     0.4 5  350 226 
 PRA  HZ I        10 3 36.72        60.9 0.00                           396 211 
 PRA  HN ES   1   10 4 17.70                             106     0.2 4  396 211 
                                                                                
