 2017  217 1339 48.3 L   6.742 -73.149146.8  RSN  7 0.3 2.1LRSN                1
 GAP=139        0.85       3.9     3.8  5.3  0.2127E+01  0.4758E+01  0.2246E+01E
 Epicentro: LOS SANTOS - SANTANDER                                             3
 ACTION:UPD 17-05-24 15:37 OP:jn   STATUS:               ID:20170217133948 L   I
 OLDACT:UP  17-02-17 23:47 OP:dani STATUS:               ID:20170217133746     3
 OLDACT:REG 17-02-17 20:33 OP:dani STATUS:               ID:20170217133746     3
 2017-02-17-1338-00M.COL___346                                                 6
 STAT SP IPHASW D HRMM SECON CODA AMPLIT PERI AZIMU VELO AIN AR TRES W  DIS CAZ7
 BAR2 EZ EP     C 1340  7.96                             173   -0.0310 17.0 193 
 BAR2 EZ ES       1340 23.11                             173   -0.2010 17.0 193 
 BAR2 EZ I        1340 23.98        24.6 0.36            173           17.0 193 
 BRR  HZ EP     C 1340  9.98                             152    0.2110 74.2 303 
 BRR  HE ES       1340 27.06                             152    0.5710 74.2 303 
 BRR  HZ I        1340 29.73        25.0 0.12            150           74.2 303 
 PAM  EZ EP     C 1340 10.97                             149   -0.0210 82.6  37 
 PAM  EN ES       1340 28.40                             149   -0.2510 82.6  37 
 PAM  EZ I        1340 30.29        26.7 0.88            151           82.6  37 
 RUS  HZ EP       1340 11.85                             146    0.1010 94.2 176 
 RUS  HN ES       1340 30.11                             146    0.1110 94.2 176 
 RUS  HZ I        1340 31.50        15.6 0.34            148           94.2 176 
 PTB  HZ EP       1340 14.67                             133   -0.59 9  146 261 
 PTB  HN ES       1340 35.77                             133   -0.49 9  146 261 
 PTB  HZ I        1340 38.15        10.6 0.16            133            146 261 
 ZAR  HZ EP       1340 20.94                             122   -0.14 8  206 294 
 ZAR  HE ES       1340 46.94                             122    0.33 8  206 294 
 ZAR  HZ I        1340 52.38        18.4 0.32            123            206 294 
 CHI  HZ EP       1340 25.90                             118    0.48 8  242 195 
                                                                                
