 2011 1217 1605 27.7 L   6.808 -73.074145.9  RSN  9 0.3 2.1LRSN                1
 GAP=146        0.58       3.1     5.0  5.5 -0.2915E+01  0.8250E+01 -0.2687E+01E
 Epicentro: LOS SANTOS - SANTANDER                                             3
 ACTION:UPD 12-07-13 16:16 OP:ep   STATUS:               ID:20111217160527 L   I
 2011-12-17-1600-00M.COL___184                                                 6
 STAT SP IPHASW D HRMM SECON CODA AMPLIT PERI AZIMU VELO AIN AR TRES W  DIS CAZ7
 BAR2 SZ EP   1   16 5 47.36                             169   -0.08 7 26.7 207 
 BAR2 SZ I        16 5 48.44        16.2 0.39                          26.7 207 
 BAR2 SZ ES   2   16 6  3.28                             169    0.46 5 26.7 207 
 GIR2 SZ EP       16 5 47.24                             166   -0.2110 32.8 336 
 GIR2 SZ ES   2   16 6  3.38                             166    0.54 5 32.8 336 
 PAM  SZ EP       16 5 50.02                             152    0.3810 71.9  35 
 PAM  SN ES   2   16 6  6.84                             152    0.12 5 71.9  35 
 BRR  HZ IP     D 16 5 49.00                             150   -0.2810 77.9 295 
 BRR  HZ I        16 5 49.19        32.3 0.14                          77.9 295 
 BRR  HN ES   2   16 6  6.10                             150    0.01 5 77.9 295 
 RUS  HZ EP   2   16 5 51.88                             144    0.35 5  101 181 
 RUS  HN ES       16 6  9.74                             144   -0.3610  101 181 
 OCA  SZ EP   2   16 5 55.96                             129   -0.12 5  161 350 
 OCA  SZ ES   2   16 6 17.96                             129   -0.22 5  161 350 
 OCA  SZ I        16 6 19.83        13.5 0.54                           161 350 
 CHI  HZ EP   2   16 6  6.14                             117    0.38 4  252 197 
 CHI  HZ I        16 6 41.15         6.3 0.30                           252 197 
 HEL  HZ EP   2   16 6  9.42                             114    0.59 4  280 256 
 HEL  HE ES   2   16 6 41.48                             114    0.60 4  280 256 
 HEL  HZ I        16 6 46.87         9.4 0.37                           280 256 
 RREF HZ EP   2   16 6 14.79                             110    0.16 3  328 230 
 RREF HN ES   2   16 6 51.04                             110   -0.17 3  328 230 
 RREF HZ I        16 6 59.83         6.1 0.33                           328 230 
                                                                                
