 2017  417 1910  0.1 L   6.776 -73.137146.7  RSN 10 0.5 2.2LRSN                1
 GAP=113        1.09       4.8     4.6  7.3 -0.5226E+01 -0.5476E+01  0.1168E+02E
 Epicentro: LOS SANTOS - SANTANDER                                             3
 ACTION:UPD 17-05-30 21:13 OP:jn   STATUS:               ID:20170417191000 L   I
 OLDACT:UP  17-04-17 23:42 OP:cog  STATUS:               ID:20170417190231d    3
 OLDACT:DUP 17-04-17 23:34 OP:cog  STATUS:               ID:20170417190231d    3
 2017-04-17-1908-00M.COL___374                                                 6
 STAT SP IPHASW D HRMM SECON CODA AMPLIT PERI AZIMU VELO AIN AR TRES W  DIS CAZ7
 BAR2 EZ EP       1910 19.73                             172   -0.1010 20.9 194 
 BAR2 EZ ES       1910 34.75                             172   -0.4410 20.9 194 
 BAR2 EZ I        1910 36.13        51.5 0.20            167           20.9 194 
 BRR  HZ EP       1910 21.66                             151    0.1610 73.3 300 
 BRR  HE ES       1910 38.85                             151    0.6810 73.3 300 
 BRR  HZ I        1910 42.11        25.2 0.34            154           73.3 300 
 PAM  EZ EP       1910 22.61                             150    0.0810 78.9  38 
 PAM  EN ES       1910 39.73                             150   -0.2810 78.9  38 
 PAM  EZ I        1910 41.81        26.5 0.54            155           78.9  38 
 RUS  HZ EP       1910 24.45                             145    0.6710 97.9 177 
 RUS  HN ES       1910 41.86                             145   -0.3710 97.9 177 
 RUS  HZ I        1910 43.67        19.3 0.32            142           97.9 177 
 PTB  HN ES       1910 47.69                             132   -0.65 9  148 260 
 PTB  HZ I        1910 54.82        31.5 0.32            132            148 260 
 SPBC HN ES       1910 51.02                             129    0.28 9  162 220 
 SPBC HZ I        1910 53.40        28.8 0.20            128            162 220 
 YPLC HZ EP       1910 30.04                             127    0.32 9  174 151 
 YPLC HN ES   3   1910 54.26                             127    1.46 2  174 151 
 YPLC HZ I        1911  3.58        11.8 0.48            126            174 151 
 NOR  HE ES       1911  3.63                             118   -0.05 8  234 235 
 NOR  HZ I        1911 10.12        17.5 0.20            118            234 235 
 CHI  HN ES   3   1911  8.25                             117    1.37 2  246 196 
 CHI  HZ I        1911 14.24        11.3 0.38            117            246 196 
 PTGC HZ EP       1910 42.87                             112   -0.83 7  306 159 
 PTGC HN ES   4   1911 14.72                             112   -2.98 0  306 159 
                                                                                
