 2010 1017 1715 58.6 L   6.547 -73.531114.0  RSN  8 0.3 2.1LRSN                1
 GAP=108        0.69       3.4     4.7  5.7 -0.5076E+01  0.5743E+01 -0.1473E+01E
 Epicentro: EL CARMEN DE CHUCURI - SANTANDER                                   3
 ACTION:UP  11-02-18 11:10 OP:tino STATUS:               ID:20101017171558 L   I
 2010-10-17-1716-10S.COL___126                                                 6
 STAT SP IPHASW D HRMM SECON CODA AMPLIT PERI AZIMU VELO SNR AR TRES W  DIS CAZ7
 BAR2 SZ IP       1716 15.14                             160     0.210   39  83 
 BAR2 SZ ES   1   1716 27.66                             160     0.0 7   39  83 
 BAR2 SZ I        1716 29.04        89.5 0.29                            39  83 
 BTL  SZ IP       1716 15.65                             155     0.210   50  35 
 BRR  HZ IP     C 1716 15.97                             148     0.010   65 342 
 BRR  HN ES   1   1716 29.67                             148     0.1 7   65 342 
 RUS  HZ EP       1716 18.29                             140     0.010   88 146 
 RUS  HN ES   2   1716 33.44                             140    -0.3 5   88 146 
 GUE  SZ EP       1716 23.95                             122    -0.6 9  157  25 
 GRA  SZ EP       1716 26.06                             120     0.6 9  168  28 
 GRA  SZ ES   1   1716 46.29                             120    -0.2 7  168  28 
 GRA  SZ I        1716 48.50         6.9 0.29                           168  28 
 NOR  SZ EP       1716 27.06                             117     0.0 9  184 234 
 NOR  SN ES   2   1716 48.99                             117    -0.2 4  184 234 
 OCA  SZ EP   2   1716 27.41                             117    -0.3 4  189   7 
 OCA  SZ I        1716 56.51        12.2 0.71                           189   7 
                                                                                
