 2014  817 1323 56.5 L   7.469 -73.177129.1  RSN  7 0.4 1.9LRSN                1
 GAP=214        0.96       3.7     6.0  7.3  0.5819E+01  0.1034E-01 -0.5170E+01E
 Epicentro: EL PLAYON - SANTANDER                                              3
 ACTION:UPD 14-09-15 21:50 OP:nd   STATUS:               ID:20140817132356 L   I
 OLDACT:UP  14-08-17 21:24 OP:cam  STATUS:               ID:20140817132000     3
 OLDACT:REG 14-08-17 20:28 OP:cam  STATUS:               ID:20140817132000     3
 2014-08-17-1320-00M.COL___285                                                 6
 STAT SP IPHASW D HRMM SECON CODA AMPLIT PERI AZIMU VELO AIN AR TRES W  DIS CAZ7
 BRR  HZ EP       1324 16.17                             149    0.2910 71.4 236 
 BRR  HN ES       1324 31.58                             149    0.5810 71.4 236 
 BRR  HZ I        1324 34.38        22.0 0.14            131           71.4 236 
 BAR2 SZ EP       1324 18.33                             141    0.3110 97.0 180 
 BAR2 SZ ES       1324 34.43                             141   -0.3710 97.0 180 
 BAR2 SZ I        1324 35.81        32.8 0.14            124           97.0 180 
 PTB  HZ EP       1324 24.76                             123   -0.10 9  175 234 
 PTB  HN ES       1324 46.51                             123   -0.46 9  175 234 
 PTB  HZ I        1324 49.14         7.9 0.28            109            175 234 
 SML  HZ EP       1324 24.96                             122   -0.12 9  177 326 
 SML  HN ES       1324 46.70                             122   -0.66 9  177 326 
 SML  HZ I        1324 48.82        12.4 0.10            111            177 326 
 ZAR  HZ EP       1324 26.34                             121    0.38 9  186 271 
 ZAR  HN ES       1324 49.27                             121    0.33 9  186 271 
 ZAR  HZ I        1324 54.07         5.8 0.42            109            186 271 
 SPBC HZ EP   1   1324 30.21                             116    0.02 6  224 206 
 SPBC HN ES       1324 55.91                             116   -0.56 8  224 206 
 SPBC HZ I        1325  1.22         5.6 0.16            105            224 206 
 NOR  HZ EP       1324 36.76                             110    0.12 7  282 222 
 NOR  HZ I        1325 15.33         4.4 0.32            102            282 222 
                                                                                
