 2011  417 1621 15.6 L   6.736 -73.108141.0  RSN  8 0.4 2.5LRSN                1
 GAP=173        0.84       6.9     7.5  6.8 -0.3607E+02  0.4682E+01  0.2467E+01E
 Epicentro: JORDAN - SANTANDER                                                 3
 ACTION:UP  11-06-22 15:31 OP:REBC STATUS:               ID:20110417162115 L   I
 2011-04-17-1617-28S.COL___140                                                 6
 STAT SP IPHASW D HRMM SECON CODA AMPLIT PERI AZIMU VELO SNR AR TRES W  DIS CAZ7
 BAR2 SZ EP   1   1621 34.86                             172     0.3 7   18 207 
 BAR2 SZ ES   1   1621 49.10                             172    -0.3 7   18 207 
 BAR2 SZ I        1621 50.75        52.5 0.26                            18 207 
 GIR2 SZ EP   1   1621 34.96                             164     0.0 7   39 346 
 BRR  HZ EP       1621 36.73                             149     0.010   78 302 
 BRR  HN ES   1   1621 53.72                             149     0.6 7   78 302 
 BRR  HZ I        1621 54.79        75.7 0.20                            78 302 
 PAM  SZ EP       1621 37.72                             150     0.210   81  34 
 PAM  SN ES   1   1621 54.68                             150     0.0 7   81  34 
 BRI  SZ EP   1   1621 39.51                             139     0.0 7  114  18 
 GRA  SZ EP   1   1621 40.79                             135    -0.2 7  131  15 
 GRA  SZ ES   1   1622  0.24                             135    -0.4 7  131  15 
 GRA  SZ I        1622  1.44        36.2 0.50                           131  15 
 OCA  SZ EP   1   1621 43.95                             127    -0.4 7  168 352 
 OCA  SZ I        1622  8.39        32.6 0.52                           168 352 
 NOR  SZ EP       1621 51.48                                     0.4 8  234 236 
 NOR  SN ES   1   1622 17.71                                    -0.9 6  234 236 
                                                                                
