 2017  617 1143  3.4 L   6.823 -73.205152.8  RSN  7 0.4 2.1LRSN                1
 GAP=226        0.77       3.5     6.9  6.7  0.2754E+01 -0.6910E+01  0.4367E+01E
 Epicentro: ZAPATOCA - SANTANDER                                               3
 ACTION:UPD 17-09-14 16:52 OP:jn   STATUS:               ID:20170617114303 L   I
 OLDACT:UP  17-06-17 21:40 OP:dani STATUS:               ID:20170617113743     3
 OLDACT:UP  17-06-17 21:40 OP:dani STATUS:               ID:20170617113743     3
 OLDACT:UP  17-06-17 21:39 OP:dani STATUS:               ID:20170617113743     3
 OLDACT:UP  17-06-17 21:38 OP:dani STATUS:               ID:20170617113743     3
 OLDACT:REG 17-06-17 20:09 OP:dani STATUS:               ID:20170617113743     3
 2017-06-17-1138-00M.COL___347                                                 6
 STAT SP IPHASW D HRMM SECON CODA AMPLIT PERI AZIMU VELO AIN AR TRES W  DIS CAZ7
 BRR  HZ IP     C 1143 24.89                             156   -0.0510 64.2 299 
 BRR  HE ES       1143 41.81                             156    0.0610 64.2 299 
 BRR  HZ I        1143 44.31        19.4 0.14            148           64.2 299 
 PTB  HZ EP       1143 29.95                             135   -0.47 9  142 257 
 PTB  HN ES   1   1143 50.81                             135   -0.70 7  142 257 
 PTB  HZ I        1143 56.08        11.4 0.38            130            142 257 
 SPBC HZ EP       1143 32.18                             131   -0.07 9  161 217 
 SPBC HN ES       1143 54.70                             131   -0.06 9  161 217 
 SPBC HZ I        1144  0.79        15.9 0.24            128            161 217 
 ZAR  HZ EP       1143 35.77                             125    0.18 9  197 292 
 ZAR  HN ES       1144  1.21                             125    0.50 9  197 292 
 ZAR  HZ I        1144  6.69        20.3 0.40            122            197 292 
 NOR  HZ EP       1143 39.58                             120    0.44 8  231 233 
 NOR  HN ES       1144  6.84                             120   -0.18 8  231 233 
 NOR  HZ I        1144 13.48         8.7 0.28            119            231 233 
 CHI  HE ES       1144 11.70                             118    0.34 8  249 194 
 URE  HN ES   4   1144 20.57                             115    4.83 0  277 292 
 SJC  HZ EP   3   1143 57.03                             107   -1.50 1  404 328 
 SJC  HN ES   4   1144 38.96                             107   -2.57 0  404 328 
 SJC  HZ I        1144 46.83         1.9 0.26            107            404 328 
                                                                                
