 2016 1217 1925 49.4 L   6.759 -73.040135.4  RSN  7 0.2 1.4LRSN                1
 GAP=152        0.70       3.2     4.7  4.5 -0.6248E+01  0.5668E+01  0.7502E+00E
 Epicentro: JORDAN - SANTANDER                                                 3
 ACTION:UPD 17-01-11 20:16 OP:rebc STATUS:               ID:20161217192549 L   I
 OLDACT:UP  16-12-17 20:54 OP:edw  STATUS:               ID:20161217191746     3
 OLDACT:UP  16-12-17 20:52 OP:edw  STATUS:               ID:20161217191746     3
 OLDACT:UP  16-12-17 20:48 OP:edw  STATUS:               ID:20161217191746     3
 OLDACT:REG 16-12-17 20:25 OP:edw  STATUS:               ID:20161217191746     3
 2016-12-17-1918-00M.COL___387                                                 6
 STAT SP IPHASW D HRMM SECON CODA AMPLIT PERI AZIMU VELO AIN AR TRES W  DIS CAZ7
 BAR2 EZ EP       1926  7.42                             169   -0.4110 24.2 220 
 BAR2 EZ ES       1926 22.16                             169   -0.0210 24.2 220 
 BAR2 EZ I        1926 23.57         9.3 0.16            170           24.2 220 
 PAM  EZ EP     C 1926 10.47                             150    0.1110 74.4  30 
 PAM  EN ES       1926 26.70                             150    0.0110 74.4  30 
 PAM  EZ I        1926 29.79         5.8 0.70            150           74.4  30 
 RUS  HZ EP       1926 11.96                             143    0.1410 95.9 183 
 RUS  HN ES       1926 29.35                             143    0.0610 95.9 183 
 RUS  HZ I        1926 31.12         3.2 0.38            143           95.9 183 
 PTB  HZ EP   9   1926 14.73                             127   -1.86 0  158 261 
 PTB  HN ES       1926 35.33                             124   -0.59 9  158 261 
 PTB  HZ I        1926 36.79         2.4 0.18            129            158 261 
 ZAR  HZ EP       1926 22.93                             118    0.38 8  217 292 
 ZAR  HE ES   4   1926 45.97                             118   -2.42 0  217 292 
 ZAR  HZ I        1926 48.56         3.3 0.12            120            217 292 
 CHI  HZ EP       1926 26.07                             115   -0.39 8  248 198 
 CHI  HE ES       1926 55.52                             115    0.18 8  248 198 
 CHI  HZ I        1926 58.96         1.1 0.27            116            248 198 
 GUY2CHZ EP   4   1926 34.73                             110    1.34 0  308 237 
 GUY2CHE ES       1927  7.65                             110   -0.03 7  308 237 
 GUY2CHZ I        1927 14.14         0.9 0.46                           308 237 
                                                                                
