 2013  517 1311 51.0 L   6.740 -73.205142.5  RSN  5 0.3 1.6LRSN                1
 GAP=225        0.84       6.3     5.7  6.7  0.2243E+02  0.6749E+01  0.1381E+01E
 Epicentro: VILLANUEVA - SANTANDER                                             3
 ACTION:UPD 13-06-20 09:51 OP:ep   STATUS:               ID:20130517131151 L   I
 2013-05-17-1310-00M.COL___253                                                 6
 STAT SP IPHASW D HRMM SECON CODA AMPLIT PERI AZIMU VELO AIN AR TRES W  DIS CAZ7
 BAR2 SZ EP       1312  9.86                             173   -0.2310 16.5 171 
 BAR2 SZ ES       1312 24.57                             173   -0.4310 16.5 171 
 BAR2 SZ I        1312 28.62         8.9 0.58            170           16.5 171 
 BRR  HZ EP       1312 11.57                             153   -0.0810 69.2 306 
 BRR  HN ES       1312 28.16                             153    0.3810 69.2 306 
 BRR  HZ I        1312 28.81         8.9 0.44            155           69.2 306 
 RUS  HZ EP     C 1312 14.43                             145    0.4610 94.6 172 
 RUS  HE ES       1312 32.13                             145    0.2110 94.6 172 
 RUS  HZ I        1312 35.12         3.7 0.32            145           94.6 172 
 PTB  HZ EP       1312 16.57                             133   -0.41 9  140 261 
 PTB  HN ES       1312 37.11                             133   -0.16 9  140 261 
 PTB  HZ I        1312 39.96         8.9 0.12            135            140 261 
 ZAR  HN ES       1312 47.99                             122    0.27 9  201 295 
                                                                                
