 2015  917 1319 14.2 L   5.895 -73.692123.3  RSN  8 0.4 1.5LRSN                1
 GAP= 92        0.96       3.4     3.2  6.1 -0.2420E+01  0.3926E+01  0.4893E+01E
 Epicentro: PUENTE NACIONAL - SANTANDER                                        3
 ACTION:UPD 15-10-28 16:26 OP:cam  STATUS:               ID:20150917131914 L   I
 OLDACT:REG 15-09-17 20:31 OP:drio STATUS:               ID:20150917131750     3
 2015-09-17-1317-50M.COL___352                                                 6
 STAT SP IPHASW D HRMM SECON CODA AMPLIT PERI AZIMU VELO AIN AR TRES W  DIS CAZ7
 SPBC HZ EP       1319 32.02                             157    0.0910 49.9 237 
 SPBC HN ES       1319 45.75                             157    0.0210 49.9 237 
 SPBC HZ I        1319 46.94        24.6 0.46            164           49.9 237 
 RUS  HZ EP       1319 33.48                             150    0.0010 67.4  90 
 RUS  HN ES       1319 48.52                             150    0.0410 67.4  90 
 RUS  HZ I        1320 20.36         2.5 0.36                          67.4  90 
 BAR2 EZ EP       1319 35.52                             140    0.4210 95.5  36 
 BAR2 EZ ES       1319 51.62                             140    0.2610 95.5  36 
 BAR2 EZ I        1319 52.59        15.6 0.80            146           95.5  36 
 PTB  HZ EP       1319 35.41                             135   -0.6210  111 310 
 PTB  HN ES       1319 52.62                             135   -0.4110  111 310 
 PTB  HZ I        1319 54.99         4.4 0.30                           111 310 
 NOR  HZ EP       1319 38.04                             129   -0.30 9  135 254 
 NOR  HE ES       1319 57.28                             129    0.15 9  135 254 
 NOR  HZ I        1320  1.03         7.9 0.28            143            135 254 
 CHI  HZ EP       1319 39.18                             128   -0.08 9  140 182 
 CHI  HN ES       1319 58.32                             128   -0.45 9  140 182 
 CHI  HZ I        1320  3.95         2.5 0.56            135            140 182 
 GUY2CHZ EP       1319 46.21                             118    0.76 9  200 248 
 GUY2CHN ES       1320 10.28                             118    0.48 9  200 248 
 GUY2CHZ I        1320 16.68         3.1 0.48                           200 248 
 PRA  HZ EP       1319 52.74                             109   -0.62 8  275 209 
 PRA  HE ES       1320 24.25                             109    0.38 8  275 209 
                                                                                
