 2012  217 1236  3.2 L   6.775 -73.163148.8  RSN  5 0.4 1.7LRSN                1
 GAP=135        0.74       5.5     5.2  8.6 -0.3549E+01  0.3116E+01  0.5346E+01E
 ACTION:UP  12-03-07 16:31 OP:epov STATUS:               ID:20120217123603 L   I
 2012-02-17-1230-00M.COL___188                                                 6
 STAT SP IPHASW D HRMM SECON CODA AMPLIT PERI AZIMU VELO AIN AR TRES W  DIS CAZ7
 GIR2 SZ EP   2   1236 23.45                             167    0.18 5 33.8 354 
 BRR  HZ EP   1   1236 25.10                             153    0.47 7 70.9 301 
 BRR  HZ I        1236 26.36        12.7 0.32                          70.9 301 
 BRR  HE ES   1   1236 41.84                             153    0.47 7 70.9 301 
 PAM  SZ EP   1   1236 26.05                             150    0.14 7 80.8  39 
 PAM  SE ES   1   1236 43.08                             150   -0.57 7 80.8  39 
 RUS  HZ EP   1   1236 27.13                             145    0.09 7 98.0 175 
 RUS  HN ES   1   1236 45.76                             145    0.10 7 98.0 175 
 RUS  HZ I        1236 48.16         5.6 0.60                          98.0 175 
 PTB  HZ EP   1   1236 29.67                             133   -0.50 7  145 260 
 PTB  HN ES   1   1236 50.85                             133   -0.38 7  145 260 
                                                                                
