 2014  817 1701 33.3 L   6.948 -72.904128.0  RSN  4 0.2 1.5LRSN                1
 GAP=222        0.52       5.2    11.1  7.2  0.5160E+02 -0.6034E+02 -0.2980E+02E
 Epicentro: SANTA BARBARA - SANTANDER                                          3
 ACTION:UPD 14-09-15 21:50 OP:nd   STATUS:               ID:20140817170133 L   I
 OLDACT:UP  14-08-17 23:19 OP:cam  STATUS:               ID:20140817170000     3
 OLDACT:REG 14-08-17 20:39 OP:cam  STATUS:               ID:20140817170000     3
 2014-08-17-1700-00M.COL___285                                                 6
 STAT SP IPHASW D HRMM SECON CODA AMPLIT PERI AZIMU VELO AIN AR TRES W  DIS CAZ7
 BAR2 SZ EP     D 17 1 52.13                             158    0.4110 50.0 218 
 BAR2 SZ ES       17 2  5.98                             158   -0.1210 50.0 218 
 BAR2 SZ I        17 2  8.70         3.7 0.38            171           50.0 218 
 BRR  HZ EP       17 1 53.90                             142   -0.0110 91.0 281 
 BRR  HN ES       17 2 10.10                             142    0.1010 91.0 281 
 BRR  HN I        17 2 11.31        15.4 0.18            151           91.0 281 
 RUS  HZ EP       17 1 56.64                             135   -0.1710  118 190 
 RUS  HE ES       17 2 15.07                             135   -0.0910  118 190 
 RUS  HZ I        17 2 16.03         2.7 0.38            144            118 190 
 SML  HZ EP   1   17 2  8.79                             114   -0.00 6  242 328 
 SML  HN ES       17 2 36.29                             114   -0.19 8  242 328 
 SML  HZ I        17 2 44.00         4.0 0.10            116            242 328 
                                                                                
