 2011  317 1253  8.8 L   6.804 -73.166140.7  RSN  7 0.3 1.7LRSN                1
 GAP=156        0.56       3.1     5.8  4.9 -0.9246E+01  0.8981E+01  0.4712E+00E
 Epicentro: LOS SANTOS - SANTANDER                                             3
 ACTION:UP  11-06-16 14:34 OP:jfem STATUS:               ID:20110317125308 L   I
 2011-03-17-1248-25S.COL___138                                                 6
 STAT SP IPHASW D HRMM SECON CODA AMPLIT PERI AZIMU VELO SNR AR TRES W  DIS CAZ7
 BTL  SZ EP       1253 27.94                             173     0.210   17 318 
 BTL  SZ ES   1   1253 42.84                             173     0.4 7   17 318 
 BAR2 SZ EP   1   1253 27.62                             170    -0.2 7   24 185 
 BAR2 SZ ES   2   1253 42.16                             170    -0.5 5   24 185 
 BAR2 SZ I        1253 43.51        19.5 0.09                            24 185 
 GIR2 SZ EP   3   1253 27.66                             167    -0.2 2   31 354 
 GIR2 SZ ES   2   1253 42.45                             167    -0.3 5   31 354 
 RUS  HZ EP   1   1253 31.83                             143    -0.3 7  101 175 
 RUS  HN ES   1   1253 50.28                             143     0.0 7  101 175 
 RUS  HZ I        1253 51.73         6.5 0.38                           101 175 
 GRA  SZ EP   1   1253 33.47                             136    -0.2 7  126  18 
 GRA  SZ ES   1   1253 53.02                             136     0.0 7  126  18 
 GRA  SZ I        1253 55.25         7.2 0.41                           126  18 
 NOR  SZ EP       1253 44.23                             118     0.1 8  233 234 
 NOR  SE ES   1   1254 11.33                             118    -0.3 6  233 234 
 CHI  HN ES   1   1254 15.79                             116     0.4 6  248 195 
                                                                                
