 2011 1217 1108  4.4 L   6.779 -73.121138.8  RSN  7 0.2 1.7LRSN                1
 GAP=141        0.37       2.6     4.1  4.6 -0.2611E+01  0.7276E-01  0.1600E+01E
 Epicentro: LOS SANTOS - SANTANDER                                             3
 ACTION:UPD 12-07-13 16:16 OP:ep   STATUS:               ID:20111217110804 L   I
 2011-12-17-1100-00M.COL___185                                                 6
 STAT SP IPHASW D HRMM SECON CODA AMPLIT PERI AZIMU VELO AIN AR TRES W  DIS CAZ7
 BAR2 SZ IP       11 8 23.18                             171    0.0010 21.7 198 
 BAR2 SZ I        11 8 23.53        14.2 0.11                          21.7 198 
 GIR2 SZ EP   1   11 8 23.20                             166   -0.15 7 34.1 346 
 GIR2 SZ ES   2   11 8 38.40                             166    0.29 5 34.1 346 
 BRR  HZ EP       11 8 24.89                             150   -0.1510 74.7 299 
 BRR  HZ I        11 8 25.39        15.4 0.12                          74.7 299 
 BRR  HE ES   2   11 8 41.21                             150    0.10 5 74.7 299 
 PAM  SZ EP       11 8 26.06                             149    0.1510 77.5  37 
 PAM  SE ES   2   11 8 42.64                             149   -0.03 5 77.5  37 
 RUS  HZ EP   1   11 8 27.22                             143   -0.09 7 98.1 178 
 RUS  HN ES   2   11 8 44.99                             143   -0.17 5 98.1 178 
 RUS  HZ I        11 8 47.13         6.5 0.30                          98.1 178 
 OCA  SZ EP   2   11 8 32.30                             128   -0.16 5  163 352 
 OCA  SZ I        11 8 57.63         6.8 0.38                           163 352 
 CTAU SZ EP   2   11 8 37.44                             121    0.56 4  202 210 
 CTAU SZ ES   2   11 9  2.31                             121    0.13 4  202 210 
                                                                                
