 2016  217 1046 57.8 L   6.837 -73.159144.0  RSN 11 0.4 1.9LRSN                1
 GAP=133        1.03       3.2     3.8  6.2 -0.2118E+01  0.7245E+01  0.4087E-01E
 Epicentro: LOS SANTOS - SANTANDER                                             3
 ACTION:UPD 16-03-04 21:26 OP:rebc STATUS:               ID:20160217104657 L   I
 OLDACT:UP  16-02-17 21:46 OP:ak   STATUS:               ID:20160217103748     3
 OLDACT:REG 16-02-17 20:28 OP:ak   STATUS:               ID:20160217103748     3
 2016-02-17-1037-48M.COL___309                                                 6
 STAT SP IPHASW D HRMM SECON CODA AMPLIT PERI AZIMU VELO AIN AR TRES W  DIS CAZ7
 BAR2 EZ EP       1047 17.33                             169   -0.0210 27.2 186 
 BAR2 EZ ES       1047 32.10                             169   -0.4710 27.2 186 
 BAR2 EZ I        1047 33.32        15.8 0.18            169           27.2 186 
 BRR  HZ EP       1047 19.09                             153    0.4610 68.0 296 
 BRR  HE ES       1047 35.75                             153    0.9110 68.0 296 
 BRR  HZ I        1047 38.93        21.6 0.24            150           68.0 296 
 PAM  EZ EP       1047 20.22                             151    0.4710 75.2  42 
 PAM  EN ES       1047 36.84                             151    0.0110 75.2  42 
 PAM  EZ I        1047 39.19        30.3 0.48            154           75.2  42 
 RUS  HZ EP       1047 21.55                             142   -0.1910  105 175 
 RUS  HN ES       1047 40.47                             142    0.1010  105 175 
 RUS  HZ I        1047 41.45         5.2 0.31            145            105 175 
 PTB  HZ EP       1047 24.02                             132   -0.60 9  147 257 
 PTB  HN ES       1047 44.84                             132   -0.67 9  147 257 
 PTB  HZ I        1047 46.46         8.2 0.20            131            147 257 
 OCA  HZ EP       1047 25.19                             130   -0.43 9  156 353 
 OCA  HE ES       1047 47.01                             130   -0.27 9  156 353 
 OCA  HZ I        1047 48.82        16.4 0.24            131            156 353 
 SPBC HZ EP       1047 26.27                             128   -0.17 9  166 218 
 SPBC HN ES       1047 48.65                             128   -0.09 9  166 218 
 SPBC HZ I        1047 55.45         7.3 0.16            129            166 218 
 ZAR  HZ EP   2   1047 30.75                             122    0.87 4  201 291 
 ZAR  HN ES       1047 54.78                             122   -0.09 9  201 291 
 ZAR  HZ I        1048  1.77        10.0 0.20            122            201 291 
 NOR  HZ EP   2   1047 33.47                             118   -0.14 4  236 233 
 NOR  HN ES       1048  1.96                             118    0.45 8  236 233 
 NOR  HZ I        1048  5.18         3.6 0.12            119            236 233 
 URE  HZ EP   4   1047 41.28                             114    2.77 0  281 291 
 URE  HN ES       1048 10.08                             114   -0.15 7  281 291 
 URE  HZ I        1048 23.49         5.7 0.16            114            281 291 
 GUY2CHZ EP   2   1047 42.26                             112    0.74 4  302 234 
 GUY2CHN ES       1048 16.08                             112    0.50 7  302 234 
 GUY2CHZ I        1048 25.27         2.6 0.74                           302 234 
 ANIL HN ES   4   1048 28.80                             108    2.01 0  359 224 
                                                                                
