 2012 1117 1630 49.5 L   5.909 -73.661122.8  RSN  7 0.4 1.9LRSN                1
 GAP=217        1.03       6.3     5.2  8.2  0.1400E+02  0.1395E+02 -0.3162E+01E
 Epicentro: PUENTE NACIONAL - SANTANDER                                        3
 ACTION:UPD 12-12-05 15:34 OP:}ep  STATUS:               ID:20121117163049 L   I
 2012-11-17-1630-00M.COL___234                                                 6
 STAT SP IPHASW D HRMM SECON CODA AMPLIT PERI AZIMU VELO AIN AR TRES W  DIS CAZ7
 RUS  HZ EP       1631  8.11                             151   -0.3510 64.0  92 
 RUS  HZ I        1631  8.50         4.6 0.10                          64.0  92 
 RUS  HN ES       1631 22.84                             151   -0.4310 64.0  92 
 BAR2 SZ EP       1631 10.28                             141    0.2310 92.3  35 
 BAR2 SZ ES       1631 26.29                             141    0.2110 92.3  35 
 BAR2 SZ I        1631 27.90        27.4 0.20                          92.3  35 
 PTB  HZ EP       1631 11.26                             134   -0.1210  112 308 
 PTB  HE ES       1631 28.60                             134    0.1410  112 308 
 PTB  HN I        1631 33.65        14.1 0.32                           112 308 
 BRR  HZ EP       1631 13.57                             129    0.3610  133 358 
 BRR  HN ES       1631 31.99                             129    0.2810  133 358 
 BRR  HN I        1631 34.56        14.1 0.16                           133 358 
 GIR2 SZ EP       1631 14.32                             128    0.29 9  139  22 
 ZAR  HZ EP       1631 22.71                             115    0.47 8  220 323 
 ZAR  HN ES       1631 47.45                             115   -0.34 8  220 323 
 ZAR  HN I        1631 54.13         7.8 0.12                           220 323 
 SML  HN ES       1632  7.57                             106   -1.31 7  323 352 
 SML  HN I        1632 14.04         9.4 0.28                           323 352 
                                                                                
