 2010  817 1654 32.6 L   6.211 -73.019187.4  RSN 10 0.4 2.0LRSN                1
 GAP=184        0.77       4.0     8.1  6.3 -0.1405E+02  0.7137E+01 -0.5979E+00E
 Epicentro: ENCINO - SANTANDER                                                 3
 ACTION:UP  10-09-07 10:55 OP:vdl  STATUS:               ID:20100817165432 L   I
 2010-08-17-1652-35S.COL___111                                                 6
 STAT SP IPHASW D HRMM SECON CODA AMPLIT PERI AZIMU VELO SNR AR TRES W  DIS CAZ7
 RUS  HZ EP       1654 58.27                             169     0.410   36 191 
 RUS  HN ES   1   1655 17.77                             169     0.2 7   36 191 
 RUS  HZ I        1655 20.44         9.8 0.17                            36 191 
 BAR2 SZ EP       1654 57.65                             166    -0.110   46 337 
 BAR2 SZ I        1654 57.99        27.8 0.18                            46 337 
 BAR2 SZ ES   2   1655 16.95                             166    -0.5 5   46 337 
 GIR2 SZ EP   1   1654 59.91                             151    -0.1 7   98 349 
 BRR  HZ IP     C 1655  1.46                             145    -0.110  125 322 
 BRR  HN ES   1   1655 24.74                             145     0.6 7  125 322 
 GUE  SZ EP       1655  6.21                             134    -0.1 9  179   3 
 GUE  SZ ES   3   1655 32.23                                    -0.3 2  179   3 
 GUE  SZ I        1655 35.10         3.4 0.18                           179   3 
 GRA  SZ EP   1   1655  6.80                             133     0.1 7  187   7 
 GRA  SZ ES   1   1655 32.71                                    -0.6 7  187   7 
 CHI  HZ EP   1   1655  7.63                             133     0.1 7  192 204 
 CHI  HZ I        1655  8.07         3.8 0.19                           192 204 
 CHI  HE ES   1   1655 34.35                             133    -0.4 7  192 204 
 HEL  HZ EP   1   1655 15.69                             122    -0.2 6  278 270 
 HEL  HZ I        1655 50.85         7.0 0.36                           278 270 
 RREF HZ EP   1   1655 18.70                             120     0.6 5  296 241 
 RREF HN ES   2   1655 52.89                                    -0.7 4  296 241 
 RREF HZ I        1655 57.35         4.0 0.27                           296 241 
 PRA  HZ EP   1   1655 22.04                             116    -0.6 5  345 217 
 PRA  HZ I        1656  5.18         4.2 0.21                           345 217 
                                                                                
