 2013  317 1020 19.9 L   6.827 -73.156141.0  RSN 13 0.5 2.8LRSN                1
 GAP= 70        0.93       3.1     3.2  5.2  0.3034E+00  0.4159E+01  0.5365E+00E
 Epicentro: LOS SANTOS - SANTANDER                                             3
 ACTION:UPD 13-04-09 14:03 OP:ep   STATUS:               ID:20130317102019 L   I
 2013-03-17-1020-00M.COL___244                                                 6
 STAT SP IPHASW D HRMM SECON CODA AMPLIT PERI AZIMU VELO AIN AR TRES W  DIS CAZ7
 BAR2 SZ IP     C 1020 39.04                             169    0.0510 26.1 186 
 BAR2 SZ ES       1020 53.46                             169   -0.4410 26.1 186 
 BAR2 SZ I        1020 55.33       269.8 0.16            168           26.1 186 
 BRR  HZ IP     D 1020 40.87                             152    0.5010 68.8 297 
 BRR  HN ES   1   1020 57.15                             152    0.79 7 68.8 297 
 BRR  HZ I        1021  1.75       114.4 0.12            150           68.8 297 
 PAM  SZ EP     D 1020 41.81                             150    0.3210 75.9  42 
 PAM  SN ES   1   1020 58.78                             150    0.43 7 75.9  42 
 PAM  SZ I        1021  1.05        89.1 0.48            154           75.9  42 
 RUS  HZ EP       1020 43.14                             142   -0.2410  104 176 
 RUS  HN ES   1   1021  1.22                             142   -0.50 7  104 176 
 RUS  HZ I        1021  2.77        84.9 0.34            144            104 176 
 PTB  HZ EP       1020 45.83                             131   -0.58 9  147 258 
 PTB  HN ES   1   1021  6.46                             131   -0.65 7  147 258 
 PTB  HZ I        1021  9.10        41.9 0.12            130            147 258 
 TAM  HN ES   1   1021  8.91                             129    0.13 7  157 106 
 OCA  HZ EP       1020 47.29                             129   -0.23 9  157 353 
 OCA  HN ES   1   1021  8.65                             129   -0.44 7  157 353 
 OCA  HZ I        1021 13.69        65.7 0.32            130            157 353 
 TAM  HZ IP     D 1020 47.33                             129   -0.02 9  157 106 
 TAM  HZ I        1020 47.51        77.0 0.18            134            157 106 
 ZAR  HZ EP       1020 51.84                             122    0.06 9  202 291 
 ZAR  HN ES   1   1021 17.32                             122    0.64 6  202 291 
 ZAR  HZ I        1021 22.57        65.4 0.46            122            202 291 
 SML  HZ EP   1   1020 55.47                             117   -0.42 6  241 335 
 SML  HN ES   1   1021 23.78                             117   -0.20 6  241 335 
 SML  HZ I        1021 26.07        54.2 0.09            118            241 335 
 ROSC BZ EP       1020 58.79                             115    0.84 8  255 210 
 ROSC BE ES   1   1021 28.05                             115    0.40 6  255 210 
 ROSC BZ I        1021 35.47        38.1 0.40            116            255 210 
 HEL  HZ EP       1020 59.87                             114    0.07 8  272 255 
 HEL  HN ES   1   1021 31.31                             114    0.36 6  272 255 
 HEL  HZ I        1021 37.44        14.7 0.28            114            272 255 
 URE  HN EP   2   1020 59.71                             113   -0.76 4  282 291 
 URE  HE ES   2   1021 31.10                             113   -1.04 4  282 291 
 URE  HN I        1021 42.09        86.3 0.22            113            282 291 
 PRA  HZ EP   1   1021 12.77                             106   -0.69 4  394 209 
 PRA  HN ES   1   1021 55.61                             106    0.34 4  394 209 
 PRA  HZ I        1022  1.64        22.3 0.44            107            394 209 
                                                                                
