 2012  417 1854 45.5 L   6.775 -73.119136.0  RSN  4 0.2 1.5LRSN                1
 GAP=141        0.57       3.4     3.4  6.0  0.1272E+01  0.1874E+01  0.4909E+01E
 Epicentro: LOS SANTOS - SANTANDER                                             3
 ACTION:UPD 12-07-05 11:53 OP:tino STATUS:               ID:20120417185445 L   I
 2012-04-17-1850-00M.COL___189                                                 6
 STAT SP IPHASW D HRMM SECON CODA AMPLIT PERI AZIMU VELO AIN AR TRES W  DIS CAZ7
 BRR  HZ EP       1855  5.80                             149     0.010   75 299 
 BRR  HZ I        1855 11.99        13.2 0.35                            75 299 
 BRR  HE ES       1855 21.94                             149     0.210   75 299 
 PAM  SZ EP       1855  6.81                             149     0.110   78  37 
 PAM  SE ES       1855 23.05                             149    -0.210   78  37 
 RUS  HZ EP       1855  8.22                             142     0.110   98 178 
 RUS  HZ I        1855  9.11         2.9 0.13                            98 178 
 RUS  HE ES   1   1855 25.50                             142    -0.2 7   98 178 
 ZAR  HE ES   1   1855 42.53                             119    -0.3 6  208 293 
 ZAR  HZ I        1855 47.56         2.9 0.14                           208 293 
                                                                                
