 2010 1217 1159  8.6 L   6.515 -73.257126.2  RSN  4 0.3 1.4LRSN                1
 GAP=158        0.75       7.4    22.2  9.9  0.1157E+03  0.9456E+02  0.1698E+02E
 Epicentro: PALMAR - SANTANDER                                                 3
 ACTION:UP  11-01-14 15:25 OP:pat  STATUS:               ID:20101217115908 L   I
 2010-12-17-1156-55S.COL___137                                                 6
 STAT SP IPHASW D HRMM SECON CODA AMPLIT PERI AZIMU VELO SNR AR TRES W  DIS CAZ7
 BTL  SZ EP       1159 26.05                             159    -0.510   45 358 
 BTL  SZ ES   1   1159 40.58                             159     0.0 7   45 358 
 GIR2 SZ EP   1   1159 27.81                             152     0.5 7   63   6 
 GIR2 SZ ES   3   1159 42.29                             152     0.4 2   63   6 
 RUS  HZ EP       1159 28.41                             149     0.110   71 164 
 RUS  HN ES   1   1159 43.76                             149     0.0 7   71 164 
 RUS  HZ I        1159 45.19         2.5 0.31                            71 164 
 BRR  HZ EP       1159 28.50                             144     0.110   83 322 
 BRR  HZ I        1159 28.69        11.9 0.09                            83 322 
                                                                                
