 2016  117 1831 28.9 L   6.779 -73.151146.2  RSN  5 0.3 1.5LRSN                1
 GAP=301        0.80       6.6     6.4  6.4 -0.1532E+02  0.9943E+01  0.4622E+01E
 Epicentro: LOS SANTOS - SANTANDER                                             3
 ACTION:UPD 16-03-09 23:26 OP:cam  STATUS:               ID:20160117183128 L   I
 OLDACT:REG 16-01-17 20:17 OP:drio STATUS:               ID:20160117182749     3
 2016-01-17-1827-49M.COL___325                                                 6
 STAT SP IPHASW D HRMM SECON CODA AMPLIT PERI AZIMU VELO AIN AR TRES W  DIS CAZ7
 BAR2 EZ EP       1831 48.49                             171   -0.0410 21.0 190 
 BAR2 EZ ES       1832  3.61                             171   -0.2410 21.0 190 
 BAR2 EZ I        1832  5.26         7.0 0.18            166           21.0 190 
 RUS  HZ EP       1831 52.62                             144    0.0910 98.3 176 
 RUS  HN ES       1832 11.29                             144    0.3310 98.3 176 
 RUS  HZ I        1832 12.44         3.0 0.30            143           98.3 176 
 SPBC HZ EP       1831 56.94                             129   -0.28 9  161 219 
 SPBC HN ES       1832 19.59                             129    0.27 9  161 219 
 SPBC HZ I        1832 26.63         7.0 0.20            129            161 219 
 NOR  HE ES       1832 32.31                             119    0.11 8  233 235 
 CHI  HZ EP       1832  6.78                             117    0.42 8  246 195 
 CHI  HN ES       1832 34.84                             117   -0.74 8  246 195 
 CHI  HZ I        1832 39.25         1.4 0.38            118            246 195 
                                                                                
