 2015  717 1007  4.4 L   6.807 -73.111147.4  RSN  6 0.3 1.5LRSN                1
 GAP=141        0.66       4.0     4.3  6.5  0.3716E+00  0.1219E+02 -0.9376E+01E
 Epicentro: LOS SANTOS - SANTANDER                                             3
 ACTION:UPD 15-09-08 21:49 OP:cam  STATUS:               ID:20150717100704 L   I
 OLDACT:REG 15-07-17 20:47 OP:spq  STATUS:               ID:20150717095749     3
 2015-07-17-0957-49M.COL___340                                                 6
 STAT SP IPHASW D HRMM SECON CODA AMPLIT PERI AZIMU VELO AIN AR TRES W  DIS CAZ7
 BAR2 EZ EP       10 7 24.20                             170   -0.0610 25.1 198 
 BAR2 EZ ES   1   10 7 39.42                             170   -0.33 7 25.1 198 
 BAR2 EZ I        10 7 45.06         2.6 0.16            169           25.1 198 
 PAM  EZ EP       10 7 26.91                             152    0.2910 74.4  38 
 PAM  EE ES       10 7 44.02                             152    0.0810 74.4  38 
 PAM  EZ I        10 7 44.84         3.7 0.28            157           74.4  38 
 RUS  HE ES   1   10 7 46.97                             144   -0.07 7  101 178 
 RUS  HZ I        10 7 48.74         2.6 0.30            149            101 178 
 ZAR  HZ EP   1   10 7 36.98                             122   -0.31 6  207 292 
 ZAR  HN ES       10 8  3.39                             122    0.45 8  207 292 
 ZAR  HZ I        10 8  8.37         6.2 0.68            124            207 292 
 SML  HZ EP       10 7 41.15                             118   -0.07 8  245 334 
 SML  HE ES   1   10 8  9.27                             118   -0.66 6  245 334 
 SML  HZ I        10 8 16.19         5.1 0.10            121            245 334 
 GUY2CHN ES   4   10 8 24.59                             112    1.71 0  305 235 
 GUY2CHZ I        10 8 30.85         1.5 0.54                           305 235 
                                                                                
