 2013  817 1610 27.6 L   6.781 -73.165140.4  RSN  6 0.5 1.3LRSN                1
 GAP=135        1.02       6.7     5.6 10.0 -0.4503E+01  0.1049E+02 -0.1382E+02E
 Epicentro: LOS SANTOS - SANTANDER                                             3
 ACTION:UPD 14-01-14 09:04 OP:ep   STATUS:               ID:20130817161027 L   I
 OLDACT:REG 13-08-17 15:25 OP:jn   STATUS:               ID:20130817160959     3
 2013-08-17-1609-59M.COL___270                                                 6
 STAT SP IPHASW D HRMM SECON CODA AMPLIT PERI AZIMU VELO AIN AR TRES W  DIS CAZ7
 BAR2 SZ EP       1610 46.45                             171   -0.1210 20.9 185 
 BAR2 SZ ES       1611  1.11                             171   -0.2310 20.9 185 
 BAR2 SZ I        1611  4.12         3.9 0.18            170           20.9 185 
 BRR  HZ EP   1   1610 49.07                             152    0.91 7 70.4 301 
 BRR  HN ES   1   1611  4.94                             152    0.78 7 70.4 301 
 PAM  SZ EP       1610 49.29                             149   -0.1710 80.4  40 
 PAM  SN ES       1611  6.33                             149   -0.1610 80.4  40 
 PAM  SZ I        1611  8.23         5.8 0.54            151           80.4  40 
 RUS  HN ES   1   1611  9.09                             143    0.37 7 98.6 175 
 RUS  HZ I        1611 10.96         2.2 0.32            144           98.6 175 
 PTB  HN ES   1   1611 13.73                             131   -0.73 7  145 259 
 ZAR  HN ES   1   1611 24.26                             121   -0.30 6  203 293 
                                                                                
