 2011  517 1954 56.0 L   6.774 -73.118140.9  RSN  7 0.3 1.7LRSN                1
 GAP=141        0.71       4.3     6.5  7.5 -0.8352E+01 -0.8100E+01  0.5673E+01E
 Epicentro: LOS SANTOS - SANTANDER                                             3
 ACTION:UP  11-06-29 08:54 OP:tino STATUS:               ID:20110517195456 L   I
 2011-05-17-1952-35S.COL___141                                                 6
 STAT SP IPHASW D HRMM SECON CODA AMPLIT PERI AZIMU VELO SNR AR TRES W  DIS CAZ7
 BAR2 SZ ES   3   1955 29.72                             171    -0.1 2   21 199 
 BAR2 SZ I        1955 31.00        11.5 0.14                            21 199 
 BTL  SZ EP       1955 15.20                             171     0.210   23 314 
 BRR  HZ EP       1955 16.75                             150    -0.110   75 299 
 BRR  HZ I        1955 20.27        14.8 0.38                            75 299 
 BRR  HN ES   1   1955 33.10                             150     0.0 7   75 299 
 PAM  SZ EP       1955 17.75                             150     0.110   78  36 
 PAM  SN ES   1   1955 34.98                             150     0.4 7   78  36 
 RUS  HZ EP       1955 19.25                             143     0.210   98 178 
 RUS  HN ES   2   1955 36.12                             143    -0.9 5   98 178 
 RUS  HZ I        1955 38.23         4.2 0.23                            98 178 
 BRI  SZ EP   1   1955 19.51                             140     0.0 7  110  19 
 GRA  SZ EP       1955 20.73                             135    -0.210  128  16 
 GRA  SZ I        1955 21.97         8.1 0.28                           128  16 
 GRA  SZ ES   1   1955 39.93                             135    -0.5 7  128  16 
                                                                                
