 2013 1117 1401 25.2 L   6.791 -73.163146.4  RSN  9 0.5 1.9LRSN                1
 GAP=135        1.24       4.3     5.2  7.5 -0.8491E+00  0.9372E+01 -0.3427E+01E
 Epicentro: LOS SANTOS - SANTANDER                                             3
 ACTION:UPD 14-01-09 16:29 OP:ep   STATUS:               ID:20131117140125 L   I
 OLDACT:REG 13-11-17 15:33 OP:nd   STATUS:               ID:20131117140000     3
 2013-11-17-1400-00M.COL___279                                                 6
 STAT SP IPHASW D HRMM SECON CODA AMPLIT PERI AZIMU VELO AIN AR TRES W  DIS CAZ7
 BAR2 SZ EP       14 1 45.04                             171    0.1210 22.1 186 
 BAR2 SZ ES       14 2  0.08                             171   -0.1910 22.1 186 
 BAR2 SZ I        14 2  1.68        27.0 0.18            172           22.1 186 
 BRR  HZ EP       14 1 46.94                             153    0.5610 70.0 300 
 BRR  HZ I        14 1 59.22        17.3 0.32            151           70.0 300 
 BRR  HN ES       14 2  4.04                             153    1.1610 70.0 300 
 PAM  SZ EP       14 1 47.73                             150    0.1010 79.3  40 
 PAM  SN ES       14 2  4.89                             150   -0.2110 79.3  40 
 PAM  SZ I        14 2  7.11        11.4 0.58            150           79.3  40 
 RUS  HZ EP       14 1 48.97                             144   -0.0210 99.8 175 
 RUS  HN ES       14 2  7.42                             144   -0.1010 99.8 175 
 RUS  HZ I        14 2  8.64         7.0 0.24            145           99.8 175 
 PTB  HZ EP       14 1 51.64                             133   -0.43 9  146 259 
 PTB  HN ES       14 2 12.95                             133   -0.05 9  146 259 
 PTB  HZ I        14 2 14.67         7.7 0.22            131            146 259 
 SPBC HZ EP       14 1 53.99                             130    0.39 9  161 219 
 SPBC HN ES       14 2 14.86                             130   -0.86 9  161 219 
 SPBC HZ I        14 2 18.90        11.0 0.30            129            161 219 
 ZAR  HZ EP   2   14 1 58.64                             123    1.06 4  203 293 
 ZAR  HN ES       14 2 22.25                             123   -0.55 9  203 293 
 ZAR  HZ I        14 2 28.81         9.5 0.52            121            203 293 
 SML  HZ EP       14 2  1.87                             118   -0.03 8  244 336 
 SML  HN ES       14 2 29.62                             118   -0.88 8  244 336 
 SML  HZ I        14 2 33.52        12.4 0.10            116            244 336 
 GUY2CHZ EP   2   14 2  9.33                             113    0.69 4  299 235 
 GUY2CHN ES   2   14 2 43.18                             113    0.69 4  299 235 
 GUY2CHZ I        14 2 51.62         3.6 0.30                           299 235 
                                                                                
