 2017  717 1018 45.0 L   6.786 -73.182146.7  RSN  5 0.3 1.3LRSN                1
 GAP=241        0.81       5.5     4.6  6.4  0.9198E+01  0.8995E+01 -0.4121E+01E
 Epicentro: LOS SANTOS - SANTANDER                                             3
 ACTION:UPD 17-08-30 15:34 OP:rebc STATUS:               ID:20170717101845 L   I
 OLDACT:REG 17-07-17 20:32 OP:lv   STATUS:               ID:20170717101738     3
 2017-07-17-1018-00M.COL___374                                                 6
 STAT SP IPHASW D HRMM SECON CODA AMPLIT PERI AZIMU VELO AIN AR TRES W  DIS CAZ7
 BAR2 EZ EP       1019  4.92                             171    0.1710 21.4 180 
 BAR2 EZ ES       1019 20.22                             171    0.1010 21.4 180 
 BAR2 EZ I        1019 21.59         7.8 0.30            169           21.4 180 
 RUS  HZ EP       1019  9.26                             144    0.4610 99.4 174 
 RUS  HN ES       1019 26.77                             144   -0.5610 99.4 174 
 RUS  HZ I        1019 28.48         1.2 0.12            146           99.4 174 
 PTB  HZ EP       1019 11.71                             133    0.00 9  144 259 
 PTB  HN ES       1019 32.88                             133    0.38 9  144 259 
 PTB  HZ I        1019 34.91         2.0 0.18            132            144 259 
 ZAR  HZ EP       1019 16.75                             123   -0.48 9  201 293 
 ZAR  HN ES       1019 42.18                             123   -0.16 9  201 293 
 ZAR  HZ I        1019 49.43         3.2 0.09            123            201 293 
 NOR  HZ EP       1019 20.36                             119   -0.02 8  230 234 
 NOR  HN ES       1019 47.89                             119   -0.05 8  230 234 
 NOR  HZ I        1019 54.48         2.5 0.28            119            230 234 
                                                                                
