 2015  117 1544 58.2 L   6.765 -73.148136.0  RSN  7 0.4 2.0LRSN                1
 GAP=153        0.87       4.2     4.1  6.5  0.3355E+00  0.3173E+01  0.8220E+01E
 Epicentro: LOS SANTOS - SANTANDER                                             3
 ACTION:UPD 15-03-02 15:40 OP:nd   STATUS:               ID:20150117154458 L   I
 OLDACT:REG 15-01-17 21:17 OP:y    STATUS:               ID:20150117153755     3
 2015-01-17-1537-55M.COL___174                                                 6
 STAT SP IPHASW D HRMM SECON CODA AMPLIT PERI AZIMU VELO AIN AR TRES W  DIS CAZ7
 BAR2 EZ EP       1545 16.71                             171    0.1210 19.5 191 
 BAR2 EZ ES   1   1545 31.25                             171    0.33 7 19.5 191 
 BAR2 EZ I        1545 34.09         7.7 0.30            171           19.5 191 
 BRR  HZ EP       1545 18.33                             150   -0.0810 72.9 301 
 BRR  HN ES       1545 34.42                             150    0.2510 72.9 301 
 BRR  HZ I        1545 38.34        19.4 0.46            151           72.9 301 
 PAM  SZ EP       1545 19.46                             148   -0.1410 80.6  38 
 PAM  SN ES   1   1545 35.91                             148   -0.37 7 80.6  38 
 PAM  SZ I        1545 37.95        23.9 0.34            151           80.6  38 
 PTB  HZ EP   1   1545 23.64                             130   -0.67 7  147 260 
 PTB  HN ES       1545 44.70                             130    0.04 9  147 260 
 PTB  HZ I        1545 45.99        13.4 0.16            131            147 260 
 ZAR  HZ EP       1545 30.78                             120    0.61 8  205 293 
 ZAR  HN ES       1545 54.68                             120   -0.42 8  205 293 
 ZAR  HZ I        1545 59.77        15.1 0.42            121            205 293 
 CHI  HZ EP       1545 35.52                             115    0.56 8  245 195 
 CHI  HN ES       1546  3.13                             115   -0.50 8  245 195 
 CHI  HZ I        1546 10.04         4.3 0.30            117            245 195 
 SML  HZ EP   4   1545 31.97                             115   -2.71 0  247 336 
 SML  HN ES   4   1545 59.36                             115   -3.78 0  247 336 
 SML  HZ I        1546  6.95        13.2 0.24            117            247 336 
                                                                                
