 2017  717 1045 34.6 L   6.756 -73.095134.5  RSN  8 0.5 1.4LRSN                1
 GAP=239        1.13       4.9     5.6  6.5  0.4324E+01  0.9386E+01  0.2805E+01E
 Epicentro: LOS SANTOS - SANTANDER                                             3
 ACTION:UPD 17-08-30 15:34 OP:rebc STATUS:               ID:20170717104534 L   I
 OLDACT:DUP 17-07-17 22:24 OP:lv   STATUS:               ID:20170717103743d    3
 2017-07-17-1038-00M.COL___374                                                 6
 STAT SP IPHASW D HRMM SECON CODA AMPLIT PERI AZIMU VELO AIN AR TRES W  DIS CAZ7
 BAR2 EZ EP       1045 52.84                             171    0.0210 20.5 208 
 BAR2 EZ ES       1046  6.28                             171   -0.7410 20.5 208 
 BAR2 EZ I        1046  9.09         8.5 0.41            169           20.5 208 
 BRR  HZ EP       1045 54.95                             148   -0.0510 78.5 300 
 BRR  HN ES       1046 11.25                             148    0.3510 78.5 300 
 RUS  HZ EP       1045 57.74                             143    0.8610 95.4 179 
 RUS  HN ES       1046 14.36                             143    0.1110 95.4 179 
 PTB  HZ EP   9   1045 59.94                             128   -1.18 0  152 261 
 PTB  HN ES       1046 20.30                                   -0.32 9  152 261 
 PTB  HZ I        1046 22.69         1.7 0.12            128            152 261 
 SPBC HZ EP       1046  2.14                             126   -0.11 9  163 222 
 SPBC HN ES       1046 23.84                             126    0.03 9  163 222 
 ZAR  HZ EP       1046  7.43                             119    0.34 8  211 293 
 ZAR  HN ES       1046 32.24                             119   -0.19 8  211 293 
 ZAR  HZ I        1046 37.29         3.2 0.18            119            211 293 
 NOR  HZ EP       1046  9.16                             116   -0.74 8  236 236 
 NOR  HN ES       1046 37.75                             116    0.32 8  236 236 
 NOR  HZ I        1046 42.22         2.9 0.38            116            236 236 
 GUY2CHZ EP       1046 16.97                             110   -0.95 7  303 236 
 GUY2CHN ES       1046 52.04                             110    0.33 7  303 236 
 GUY2CHZ I        1046 59.68         1.2 0.26                           303 236 
                                                                                
