 2014  817 1446  9.9 L   6.824 -73.121141.3  RSN  9 0.5 2.1LRSN                1
 GAP=203        1.10       4.1     5.7  7.8  0.1914E+01  0.1208E+02 -0.8842E+01E
 Epicentro: LOS SANTOS - SANTANDER                                             3
 ACTION:UPD 14-09-15 21:50 OP:nd   STATUS:               ID:20140817144609 L   I
 OLDACT:REG 14-08-17 20:32 OP:cam  STATUS:               ID:20140817144000     3
 2014-08-17-1440-00M.COL___285                                                 6
 STAT SP IPHASW D HRMM SECON CODA AMPLIT PERI AZIMU VELO AIN AR TRES W  DIS CAZ7
 BAR2 SZ EP       1446 29.30                             169    0.2110 26.5 195 
 BAR2 SZ ES       1446 44.14                             169    0.1010 26.5 195 
 BAR2 SZ I        1446 47.28        18.5 0.24            172           26.5 195 
 BRR  HZ EP       1446 31.22                             151    0.5610 72.4 296 
 BRR  HE ES   4   1446 48.83                             151    1.99 0 72.4 296 
 BRR  HZ I        1446 51.46        17.8 0.38            150           72.4 296 
 RUS  HZ EP       1446 33.65                             142    0.2310  103 178 
 RUS  HN ES       1446 50.95                             142   -0.8010  103 178 
 RUS  HZ I        1446 54.51         9.1 0.52            150            103 178 
 PTB  HZ EP   1   1446 36.42                             130   -0.41 7  151 258 
 PTB  HN ES       1446 57.54                             130   -0.27 9  151 258 
 PTB  HZ I        1447  3.24        21.0 0.40            133            151 258 
 SPBC HZ EP       1446 38.20                             127   -0.25 9  167 219 
 SPBC HE ES       1447  1.66                             127    0.96 9  167 219 
 SPBC HZ I        1447  3.77        14.7 0.16            133            167 219 
 ZAR  HZ EP       1446 41.71                             121   -0.53 8  206 291 
 ZAR  HE ES       1447  7.58                             121    0.12 8  206 291 
 ZAR  HZ I        1447 12.89        10.3 0.28            124            206 291 
 NOR  HN ES   2   1447 13.44                             117   -0.35 4  238 234 
 SML  HZ EP       1446 45.89                             117   -0.27 8  242 334 
 SML  HN ES       1447 14.44                             117    0.00 8  242 334 
 SML  HZ I        1447 25.70        18.8 0.22            119            242 334 
 GUY2CHZ EP       1446 54.38                             111    0.63 7  305 235 
 GUY2CHE ES       1447 27.45                             111   -0.49 7  305 235 
 GUY2CHZ I        1447 34.13         6.3 0.38                           305 235 
                                                                                
