 2012  317 1534 59.6 L   7.189 -74.025 17.3  RSN  5 0.4 1.2LRSN                1
 GAP=153        0.97       4.3     2.8  5.6 -0.1400E+01 -0.4423E+01  0.4966E+00E
 ACTION:UP  12-03-31 23:20 OP:EP   STATUS:               ID:20120317153459 L   I
 2012-03-17-1530-00M.COL___200                                                 6
 STAT SP IPHASW D HRMM SECON CODA AMPLIT PERI AZIMU VELO SNR AR TRES W  DIS CAZ7
 BRR  HZ EP   1   1535  5.91                             112    -0.1 7   36 105 
 BRR  HN ES   1   1535 10.93                             112    -0.1 7   36 105 
 BRR  HZ I        1535 11.64        26.6 0.13                            36 105 
 PTB  HZ EP   1   1535 14.02                              99     0.6 7   86 214 
 PTB  HE ES       1535 24.07                              99    -0.210   86 214 
 PTB  HZ I        1535 24.96         5.9 0.12                            86 214 
 ZAR  HN ES   1   1535 27.08                              98    -0.3 7   98 290 
 PAM  SZ EP   1   1535 23.27                              56     0.5 7  147  83 
 PAM  SZ I        1535 24.00         1.9 0.20                           147  83 
 PAM  SE ES   2   1535 40.09                              56    -0.7 5  147  83 
 RUS  HZ EP   1   1535 27.14                              56     0.7 7  177 144 
 RUS  HN ES   1   1535 46.92                              56    -0.5 7  177 144 
 RUS  HZ I        1535 49.91         5.2 0.57                           177 144 
                                                                                
