 2016  517 1143 31.6 L   6.762 -73.173141.4  RSN  9 0.5 2.2LRSN                1
 GAP=231        1.18       5.4     5.5  7.5  0.6998E+01  0.1340E+02  0.1112E+02E
 Epicentro: LOS SANTOS - SANTANDER                                             3
 ACTION:UPD 16-08-18 17:46 OP:cam  STATUS:               ID:20160517114331 L   I
 OLDACT:DUP 16-05-17 20:40 OP:drio STATUS:               ID:20160517113748d    3
 2016-05-17-1137-47M.COL___300                                                 6
 STAT SP IPHASW D HRMM SECON CODA AMPLIT PERI AZIMU VELO AIN AR TRES W  DIS CAZ7
 BAR2 EZ EP       1143 50.22                             172   -0.3710 18.8 183 
 BAR2 EZ ES       1144  5.03                             172   -0.4010 18.8 183 
 BAR2 EZ I        1144  6.02        49.4 0.14            168           18.8 183 
 BRR  HZ EP       1143 52.21                             152   -0.0110 70.7 303 
 BRR  HE ES       1144  9.18                             152    0.8510 70.7 303 
 BRR  HZ I        1144 10.10        26.9 0.14            148           70.7 303 
 RUS  HZ EP       1143 54.81                             144    0.2010 96.7 174 
 RUS  HE ES       1144 12.96                             144    0.3710 96.7 174 
 RUS  HZ I        1144 13.60        23.2 0.34            144           96.7 174 
 PTB  HZ EP       1143 56.91                             132   -0.94 9  144 260 
 PTB  HN ES       1144 17.49                             132   -0.85 9  144 260 
 PTB  HZ I        1144 19.20        16.7 0.28            129            144 260 
 SPBC HZ EP       1143 59.29                             129    0.04 9  158 219 
 SPBC HN ES       1144 20.87                             129    0.03 9  158 219 
 SPBC HZ I        1144 23.38        20.5 0.42            127            158 219 
 ZAR  HZ EP   4   1144  5.46                             122    1.84 0  203 294 
 ZAR  HN ES       1144 28.99                             122    0.38 9  203 294 
 ZAR  HZ I        1144 35.05        18.0 0.34            120            203 294 
 NOR  HZ EP       1144  6.63                             118    0.10 8  230 235 
 NOR  HN ES       1144 33.77                             118   -0.02 8  230 235 
 NOR  HZ I        1144 40.04         9.1 0.32            117            230 235 
 HEL  HZ EP   4   1144 12.36                             114    1.23 0  268 257 
 HEL  HE ES       1144 42.33                             114    0.35 8  268 257 
 HEL  HZ I        1144 49.61         8.6 0.34            113            268 257 
 PRA  HZ EP       1144 25.15                             106    0.80 6  387 209 
 PRA  HN ES       1145  5.70                             106    0.19 6  387 209 
 PRA  HZ I        1145 10.67         5.4 0.20            106            387 209 
                                                                                
