 2015 1217 1300 43.3 L   6.831 -73.118148.4  RSN 22 0.5 2.8LRSN                1
 GAP= 71        1.14       2.8     2.9  4.8 -0.1287E+01  0.3477E+01  0.9738E+00E
 Epicentro: LOS SANTOS - SANTANDER                                             3
 ACTION:UPD 16-02-04 15:05 OP:cam  STATUS:               ID:20151217130043 L   I
 OLDACT:UP  15-12-18 00:17 OP:ar   STATUS:               ID:20151217125746     3
 OLDACT:REG 15-12-17 21:26 OP:ar   STATUS:               ID:20151217125746     3
 2015-12-17-1257-46M.COL___337                                                 6
 STAT SP IPHASW D HRMM SECON CODA AMPLIT PERI AZIMU VELO AIN AR TRES W  DIS CAZ7
 BAR2 EZ IP     D 13 1  3.31                             169   -0.0210 27.4 195 
 BAR2 EZ ES       13 1 18.40                             169   -0.5610 27.4 195 
 BAR2 EZ I        13 1 19.49       148.5 0.32            168           27.4 195 
 BRR  HZ IP     D 13 1  5.16                             153    0.3710 72.4 295 
 BRR  HN ES       13 1 22.65                             153    1.0810 72.4 295 
 BRR  HZ I        13 1 26.24        73.2 0.12            151           72.4 295 
 PAM  EZ EP       13 1  6.04                             153    0.5210 72.7  39 
 PAM  EN ES       13 1 22.72                             153   -0.1510 72.7  39 
 PAM  EZ I        13 1 25.33        98.5 0.56            153           72.7  39 
 RUS  HZ EP       13 1  7.61                             143    0.0710  104 178 
 RUS  HE ES       13 1 26.10                             143   -0.3610  104 178 
 RUS  HZ I        13 1 29.37        43.4 0.36            142            104 178 
 PTB  HZ EP       13 1 10.01                             132   -0.80 9  151 258 
 PTB  HN ES       13 1 31.46                             132   -0.82 9  151 258 
 PTB  HZ I        13 1 34.55        51.8 0.12            130            151 258 
 TAM  HZ EP     C 13 1 11.52                             131    0.53 9  153 107 
 TAM  HZ I        13 1 27.75        42.6 0.38            131            153 107 
 TAM  HN ES       13 1 33.07                             131    0.47 9  153 107 
 OCA  HZ EP       13 1 11.30                             131   -0.23 9  157 352 
 OCA  HN ES       13 1 33.80                             131    0.25 9  157 352 
 OCA  HZ I        13 1 37.36       254.0 0.18            130            157 352 
 SPBC HZ EP       13 1 12.36                             129   -0.07 9  168 219 
 SPBC HN ES       13 1 35.00                             129   -0.16 9  168 219 
 SPBC HZ I        13 1 36.21        72.3 0.24            127            168 219 
 ZAR  HZ EP       13 1 15.95                             123   -0.12 8  206 291 
 ZAR  HE ES       13 1 41.54                             123   -0.10 8  206 291 
 ZAR  HZ I        13 1 47.78        71.8 0.40            122            206 291 
 NOR  HZ EP       13 1 19.91                             118    0.25 8  239 234 
 NOR  HN ES       13 1 47.83                             118   -0.19 8  239 234 
 NOR  HZ I        13 1 55.89        36.0 0.20            117            239 234 
 SML  HZ EP       13 1 19.88                             118    0.01 8  242 334 
 SML  HN ES   4   13 1 49.65                             118    1.25 0  242 334 
 SML  HZ I        13 1 51.34        80.6 0.26            117            242 334 
 CHI  HZ EP       13 1 21.37                             117   -0.22 8  253 196 
 CHI  HN ES       13 1 50.77                             117   -0.69 8  253 196 
 CHI  HZ I        13 1 58.74        18.2 0.44            116            253 196 
 HEL  HZ EP   1   13 1 25.11                             115    1.05 6  276 255 
 HEL  HN ES       13 1 56.29                             115    0.42 7  276 255 
 HEL  HZ I        13 2  1.63        22.5 0.26            114            276 255 
 URE  HZ EP       13 1 23.94                             114   -0.73 7  285 291 
 URE  HN ES   4   13 1 54.72                             114   -2.22 0  285 291 
 URE  HZ I        13 2  7.29        34.5 0.34            113            285 291 
 SOCV BZ EP       13 1 24.98                             113   -0.98 7  297  57 
 SOCV BN ES   4   13 1 56.06                             113   -3.18 0  297  57 
 GUY2CHZ EP   4   13 1 33.51                             112    5.98 0  306 235 
 GUY2CHN ES   2   13 2  1.64                             112   -0.40 4  306 235 
 GUY2CHZ I        13 2  9.73        20.5 0.64                           306 235 
 CBOC HZ EP       13 1 31.24                             110    0.47 7  338 252 
 CBOC HN ES       13 2  7.51                             110   -0.30 7  338 252 
 CBOC HZ I        13 2 23.08         9.7 0.52            109            338 252 
 DBB  SZ EP       13 1 31.56                             110    0.36 7  342 274 
 DBB  SZ ES       13 2  8.62                             110    0.05 7  342 274 
 DBB  SZ I        13 2 11.65        73.8 0.68            109            342 274 
 ANIL HZ EP       13 1 33.77                             109    0.04 6  362 224 
 ANIL HE ES       13 2 13.94                             109    0.86 6  362 224 
 ANIL HZ I        13 2 22.10        55.2 0.28            108            362 224 
 PRA  HZ EP       13 1 36.91                             107   -0.52 6  397 210 
 PRA  HN ES       13 2 19.94                             107    0.28 6  397 210 
 PRA  HZ I        13 2 25.91        17.7 0.24            106            397 210 
 ORTC HZ EP       13 1 38.87                             106    1.03 6  400 216 
 ORTC HN ES       13 2 20.86                             106    0.47 6  400 216 
 ORTC HZ I        13 2 27.13        14.1 0.54            106            400 216 
 SJC  HZ EP   1   13 1 37.59                             106   -1.21 4  408 326 
 SJC  HN ES   4   13 2 18.72                             106   -3.37 0  408 326 
 SJC  HZ I        13 2 22.98        18.6 0.44            106            408 326 
                                                                                
