 2015 1017 1940  8.8 L   6.812 -73.123144.8  RSN  6 0.4 1.6LRSN                1
 GAP=139        0.95       3.6     5.8  6.7 -0.1984E+01  0.6960E+01 -0.1296E+00E
 Epicentro: LOS SANTOS - SANTANDER                                             3
 ACTION:UPD 15-12-22 20:40 OP:cam  STATUS:               ID:20151017194008 L   I
 OLDACT:REG 15-10-17 21:18 OP:stll STATUS:               ID:20151017193748     3
 2015-10-17-1937-48M.COL___343                                                 6
 STAT SP IPHASW D HRMM SECON CODA AMPLIT PERI AZIMU VELO AIN AR TRES W  DIS CAZ7
 BAR2 EZ EP       1940 28.40                             170    0.0710 25.2 195 
 BAR2 EZ ES       1940 43.65                             170    0.0710 25.2 195 
 BAR2 EZ I        1940 46.06         9.6 0.26            168           25.2 195 
 BRR  HZ EP       1940 30.38                             152    0.4710 72.9 297 
 BRR  HN ES       1940 46.71                             152    0.3110 72.9 297 
 PAM  EZ EP       1940 31.15                             151    0.4210 74.8  39 
 PAM  EZ I        1940 31.38        13.0 0.24            154           74.8  39 
 PAM  EN ES       1940 47.74                             151   -0.1210 74.8  39 
 RUS  HZ EP       1940 32.47                             143   -0.0510  102 178 
 RUS  HN ES       1940 50.46                             143   -0.5710  102 178 
 RUS  HZ I        1940 51.88         3.1 0.58            143            102 178 
 SPBC HZ EP       1940 37.36                             128   -0.09 9  166 219 
 SPBC HN ES       1940 59.85                             128    0.04 9  166 219 
 SPBC HZ I        1941  3.40         7.5 0.38            128            166 219 
 SML  HZ EP   4   1940 40.87                             117   -4.47 0  244 335 
 SML  HN ES       1941 12.96                             117   -0.89 8  244 335 
                                                                                
