 2013  117 1438  4.9 L   6.501 -73.371132.5  RSN  4 0.4 1.1LRSN                1
 GAP=117        0.84       7.7     7.2  9.5  0.2537E+02  0.1863E+02  0.1079E+02E
 Epicentro: SIMACOTA - SANTANDER                                               3
 ACTION:UPD 13-02-15 09:14 OP:ep   STATUS:               ID:20130117143804 L   I
 2013-01-17-1430-00M.COL___241                                                 6
 STAT SP IPHASW D HRMM SECON CODA AMPLIT PERI AZIMU VELO AIN AR TRES W  DIS CAZ7
 BAR2 SZ EP   1   1438 22.70                             170   -0.18 7 23.2  64 
 BAR2 SZ ES   1   1438 36.20                             170   -0.75 7 23.2  64 
 BAR2 SZ I        1438 37.79         9.8 0.18            177           23.2  64 
 RUS  HZ EP   1   1438 25.78                             149    0.29 7 74.4 155 
 RUS  HN ES   1   1438 41.95                             149    0.37 7 74.4 155 
 RUS  HZ I        1438 44.27         1.2 0.32            149           74.4 155 
 BRR  HZ EP   1   1438 25.05                             148    0.11 7 76.9 331 
 BRR  HN ES   1   1438 41.24                             148    0.63 7 76.9 331 
 PTB  HZ EP   1   1438 27.84                             135   -0.42 7  120 272 
 PTB  HN ES   1   1438 46.45                             135   -0.07 7  120 272 
 PTB  HZ I        1438 50.54         1.3 0.14            135            120 272 
                                                                                
