 2016 1117 1530 23.4 L   6.776 -73.134144.0  RSN  8 0.4 1.9LRSN                1
 GAP=157        1.06       4.7     4.9  6.5 -0.3607E+01  0.4652E+01  0.9078E+01E
 Epicentro: LOS SANTOS - SANTANDER                                             3
 ACTION:UPD 17-10-26 21:09 OP:lp   STATUS:               ID:20161117153023 L   I
 OLDACT:UP  16-11-18 00:00 OP:edw  STATUS:               ID:20161117151720d    3
 OLDACT:UP  16-11-18 00:00 OP:edw  STATUS:               ID:20161117151720d    3
 OLDACT:REG 16-11-17 20:28 OP:edw  STATUS:               ID:20161117151720d    3
 2016-11-17-1528-00M.COL___334                                                 6
 STAT SP IPHASW D HRMM SECON CODA AMPLIT PERI AZIMU VELO AIN AR TRES W  DIS CAZ7
 BAR2 EZ EP       1530 42.53                             171   -0.2710 21.0 195 
 BAR2 EZ ES       1530 58.14                             171    0.2310 21.0 195 
 BAR2 EZ I        1530 59.43        20.7 0.32            169           21.0 195 
 BRR  HZ IP     C 1530 44.36                             152   -0.1610 73.7 300 
 BRR  HN ES       1531  1.19                             152    0.2110 73.7 300 
 BRR  HZ I        1531  8.19        16.4 0.27            151           73.7 300 
 PAM  EZ EP       1530 45.38                             150   -0.1510 78.7  38 
 PAM  EN ES       1531  2.89                             150    0.1210 78.7  38 
 PAM  EZ I        1531  3.76         7.4 0.20            155           78.7  38 
 PTB  HZ EP   9   1530 49.08                             132   -1.24 0  149 260 
 PTB  HN ES       1531 10.82                             132    0.76 9  149 260 
 PTB  HZ I        1531 12.14         8.0 0.18            132            149 260 
 ZAR  HZ EP       1530 56.80                             122    0.81 8  206 293 
 ZAR  HN ES       1531 20.55                             122   -0.84 8  206 293 
 ZAR  HZ I        1531 27.63        15.0 0.32            123            206 293 
 NOR  HZ EP       1530 59.52                             118    0.52 8  234 235 
 NOR  HN ES       1531 26.43                             118   -0.32 8  234 235 
 NOR  HZ I        1531 31.14         4.4 0.17            119            234 235 
 CHI  HZ EP       1531  0.83                             117    0.05 8  246 196 
 CHI  HN ES       1531 29.72                             117   -0.20 8  246 196 
 CHI  HZ I        1531 35.86         2.3 0.15            119            246 196 
 URE  HZ EP   4   1531  6.77                             113    2.11 0  286 292 
 URE  HN ES   4   1531 34.04                             113   -2.78 0  286 292 
 URE  HZ I        1531 37.44         5.3 0.38            115            286 292 
 SJC  HZ EP   4   1531 16.81                             106   -2.47 0  412 327 
 SJC  HN ES   4   1531 58.58                             106   -4.27 0  412 327 
                                                                                
