 2015 1117 1209 58.9 L   6.813 -73.110134.0  RSN  9 0.4 2.0LRSN                1
 GAP=204        0.81       3.5     4.8  5.5  0.6902E+00  0.7873E+01  0.2288E+01E
 Epicentro: LOS SANTOS - SANTANDER                                             3
 ACTION:UPD 15-12-28 16:11 OP:cam  STATUS:               ID:20151117120958 L   I
 OLDACT:REG 15-11-17 20:03 OP:dnl  STATUS:               ID:20151117120750     3
 2015-11-17-1207-50M.COL___310                                                 6
 STAT SP IPHASW D HRMM SECON CODA AMPLIT PERI AZIMU VELO AIN AR TRES W  DIS CAZ7
 BAR2 EZ EP     D 1210 17.49                             169    0.2910 25.7 198 
 BAR2 EZ ES       1210 30.71                             169   -0.7410 25.7 198 
 BAR2 EZ I        1210 33.32        24.0 0.32            168           25.7 198 
 BRR  HZ EP       1210 19.26                             149    0.2710 74.0 296 
 BRR  HN ES       1210 34.84                             149    0.2010 74.0 296 
 RUS  HZ EP   1   1210 21.73                             140    0.09 7  102 178 
 RUS  HE ES   2   1210 40.02                             140    0.67 5  102 178 
 RUS  HZ I        1210 41.96         7.8 0.17            142            102 178 
 SPBC HZ EP       1210 27.13                             125    0.22 9  167 220 
 SPBC HE ES       1210 48.84                             125    0.11 9  167 220 
 SPBC HZ I        1210 51.06        15.3 0.10            126            167 220 
 ZAR  HN ES       1210 56.09                             119    0.14 8  207 291 
 ZAR  HZ I        1211  1.33        13.0 0.22            120            207 291 
 NOR  HZ EP   2   1210 34.16                             115   -0.29 4  239 235 
 NOR  HN ES       1211  1.57                             115   -0.58 8  239 235 
 NOR  HZ I        1211  4.43         8.6 0.26            116            239 235 
 SML  HZ EP   2   1210 34.12                             114   -0.84 4  244 334 
 SML  HN ES   2   1211  2.37                             114   -0.70 4  244 334 
 SML  HZ I        1211  5.09         8.9 0.08            116            244 334 
 GUY2CHZ EP       1210 42.34                             109   -0.15 7  305 235 
 GUY2CHE ES       1211 16.71                             109    0.25 7  305 235 
 GUY2CHZ I        1211 22.04         2.6 0.26                           305 235 
 SJC  HN EP   1   1210 54.34                             103    0.10 4  410 326 
 SJC  HE ES   4   1211 33.60                             103   -3.78 0  410 326 
 SJC  HN I        1211 35.85         4.2 0.24            105            410 326 
                                                                                
