 2012 1117 1018 56.5 L   6.855 -73.127152.0  RSN 31 0.6 3.4LRSN 3.3WRSN        1
 SPEC AVERAGE  MO 14.0 ST  4.0 OM  2.8 f0 2.92 R0.5183 AL 2.05 WI  6.4 MW  3.3 3
 SPEC SD       MO  0.1 ST  1.6 OM  0.5 f00.528 R0.0869 AL      WI      MW  0.1 3
 GAP= 70        1.24       2.4     3.1  4.4 -0.1242E+01  0.2881E+01  0.1085E+01E
 Epicentro: LOS SANTOS - SANTANDER                                             3
 SPEC PTB HH N MO 13.9 ST  3.9 OM  2.2 f0 3.23 R0.4551 AL 1.71 WI  3.5 MW  3.2 3
 SPEC PTB HH N T101945 K 0.000 GD  214 VS 4.20 DE 3.20 Q0300.0 QA 0.60 VS 4.20 3
 SPEC RUS HH N MO 14.0 ST  7.0 OM  2.3 f0 3.80 R0.3868 AL 2.92 WI  3.2 MW  3.3 3
 SPEC RUS HH N T101940 K 0.000 GD  185 VS 4.20 DE 3.20 Q0300.0 QA 0.60 VS 4.20 3
 SPEC COD HH N MO 14.1 ST  2.0 OM  2.1 f0 2.32 R0.6336 AL 2.10 WI  6.3 MW  3.3 3
 SPEC COD HH N T102022 K 0.000 GD  374 VS 4.20 DE 3.20 Q0300.0 QA 0.60 VS 4.20 3
 SPEC HEL HH N MO 14.1 ST  3.2 OM  2.2 f0 2.65 R0.5547 AL 1.84 WI  5.5 MW  3.3 3
 SPEC HEL HH N T1020 9 K 0.000 GD  315 VS 4.20 DE 3.20 Q0300.0 QA 0.60 VS 4.20 3
 SPEC CHI HH N MO 14.2 ST  3.7 OM  2.3 f0 2.62 R0.5611 AL 1.69 WI 13.4 MW  3.4 3
 SPEC CHI HH N T1020 3 K 0.000 GD  296 VS 4.20 DE 3.20 Q0300.0 QA 0.60 VS 4.20 3
 ACTION:UPD 12-12-05 15:34 OP:}ep  STATUS:               ID:20121117101856 L   I
 2012-11-17-1018-11M.COL___204                                                 6
 STAT SP IPHASW D HRMM SECON CODA AMPLIT PERI AZIMU VELO AIN AR TRES W  DIS CAZ7
 GIR2 SZ IP       1019 17.07                             170    0.3110 25.9 343 
 GIR2 SZ ES       1019 32.33                             170   -0.2510 25.9 343 
 BAR2 SZ IP       1019 16.97                             168   -0.0310 29.7 192 
 BAR2 SZ ES       1019 32.68                             168   -0.3210 29.7 192 
 BAR2 SZ I        1019 34.02       379.3 0.24                          29.7 192 
 BRR  HZ IP     C 1019 18.87                             154    0.6110 70.5 293 
 BRR  HN ES       1019 35.48                             154    0.2310 70.5 293 
 BRR  HZ I        1019 41.89       179.0 0.18                          70.5 293 
 PAM  SZ IP       1019 19.75                             154    0.7210 71.4  41 
 PAM  SN ES       1019 36.82                             154    0.2110 71.4  41 
 PAM  SZ I        1019 39.16       314.1 0.54                          71.4  41 
 RUS  HZ EP       1019 20.84                             143   -0.4310  106 177 
 RUS  HN ES       1019 39.96                             143   -0.6410  106 177 
 RUS  HN I        1019 41.21       514.6 0.40                           106 177 
 PTB  HZ EP       1019 23.42                             133   -0.84 9  151 257 
 PTB  HE ES       1019 45.66                             133   -0.27 9  151 257 
 PTB  HN I        1019 50.59       386.8 0.50                           151 257 
 OCA  HZ EP       1019 24.93                             132    0.17 9  155 352 
 OCA  HN ES       1019 47.12                             132    0.31 9  155 352 
 OCA  HN I        1019 52.46       966.9 0.20                           155 352 
 TAM  HZ IP     C 1019 25.12                             132    0.50 9  155 107 
 TAM  HZ I        1019 25.24       359.1 0.34                           155 107 
 TAM  HN ES       1019 46.93                             132    0.35 9  155 107 
 ZAR  HZ EP       1019 29.32                             124    0.00 9  204 290 
 ZAR  HN ES       1019 55.36                             124    0.43 9  204 290 
 ZAR  HN I        1020  1.19       266.7 0.28                           204 290 
 CTAB SZ EP       1019 34.10                             120    0.83 8  236 210 
 CTAB SZ I        1019 35.44       196.6 0.34                           236 210 
 CTAB SZ ES       1020  1.62                             120   -0.34 8  236 210 
 SML  HZ EP       1019 33.06                             119    0.08 8  239 334 
 SML  HN ES       1020  1.51                             119    0.07 8  239 334 
 SML  HN I        1020  9.02       383.3 0.10                           239 334 
 CHI  HZ EP       1019 34.87                             118   -0.35 8  255 195 
 CHI  HN ES   1   1020  3.99                             118   -1.44 6  255 195 
 CHI  HN I        1020  9.48       132.0 0.50                           255 195 
 ROSC BZ EP       1019 35.76                             117    0.14 8  259 211 
 ROSC BN ES       1020  7.18                             117    1.03 8  259 211 
 ROSC BZ I        1020 11.56       123.7 0.35                           259 211 
 HEL  HZ EP       1019 37.15                             116   -0.26 7  276 255 
 HEL  HN ES       1020  9.16                             116   -0.17 7  276 255 
 HEL  HN I        1020 14.49        99.5 0.62                           276 255 
 CVER SZ EP       1019 38.24                             115    0.38 7  279 202 
 GUY  SZ EP       1019 41.42                             113    0.19 7  309 234 
 GUY  SN ES       1020 16.54                             113    0.41 7  309 234 
 GUY  SE I        1020 25.80       486.6 0.36                           309 234 
 VIL  SZ EP       1019 40.86                             113   -0.04 7  310 192 
 VIL  SN ES       1020 14.71                             113   -0.83 7  310 192 
 VIL  SN I        1020 21.73       311.4 0.58                           310 192 
 RREF HZ EP       1019 43.71                             112    0.18 7  327 229 
 RREF HN ES       1020 21.79                             112    1.57 7  327 229 
 RREF HZ I        1020 27.82       101.5 0.26                           327 229 
 COD  HZ EP       1019 44.28                             110   -0.16 7  342 354 
 COD  HN ES       1020 22.12                             110    0.26 7  342 354 
 COD  HN I        1020 27.13        72.3 0.22                           342 354 
 TOL  SZ EP       1019 46.16                             110    0.50 6  349 224 
 MON  HZ EP    4  1019 44.08                             110   -1.42 6  352 307 
 MON  HN ES    4  1020 22.26                             110   -1.47 6  352 307 
 MON  HN I        1020 38.52        61.3 0.34                           352 307 
 SDV  BZ IP     D 1019 46.33                             110    0.20 6  355  51 
 SDV  BN ES    4  1020 23.19                             110   -1.67 6  355  51 
 SDV  BZ I        1020 25.61        36.9 0.35                           355  51 
 ANIL HZ EP       1019 48.02                             109    0.82 6  363 224 
 ANIL HN ES       1020 26.60                             109   -0.15 6  363 224 
 ANIL HZ I        1020 33.20       187.2 0.50                           363 224 
 PRA  HZ EP       1019 50.63                             107   -0.32 6  398 209 
 PRA  HN ES       1020 32.81                             107   -0.63 6  398 209 
 PRA  HN I        1020 37.15        47.0 0.26                           398 209 
 SJC  HN EP       1019 51.02                             107   -0.78 6  405 326 
 SJC  HN I        1020 38.41        60.1 0.54                           405 326 
 PAL  HZ EP       1019 52.72                             107    0.29 6  411 239 
 PAL  HZ I        1019 54.60        69.5 0.14                           411 239 
 YOT  HZ EP       1019 59.40                             104   -0.96 5  477 228 
 GUA  SZ EP   4   1019 58.73                             104   -1.76 0  480 173 
 SMAR HZ EP       1020  1.91                             103    0.03 4  492 346 
 SMAR HN ES   4   1020 50.46                             103   -2.44 0  492 346 
 MARA HZ EP   4   1020  7.12                             102   -1.27 0  543 215 
 PCON HZ EP       1020 17.63                             100   -0.08 3  618 216 
 POP2 HZ EP       1020 17.11                             100   -0.23 3  619 220 
 FLO2 HZ EP   4   1020 19.08                              99   -1.41 0  647 206 
 SOTA HZ EP       1020 21.30                              99   -0.06 2  649 217 
                                                                                
