 2011  417 1443 52.4 L   6.728 -73.096147.1  RSN  4 0.3 2.1LRSN                1
 GAP=180        0.55       6.9     6.0  6.0 -0.1877E+02  0.6904E+00  0.1018E+02E
 Epicentro: JORDAN - SANTANDER                                                 3
 ACTION:UP  11-06-22 15:31 OP:REBC STATUS:               ID:20110417144352 L   I
 2011-04-17-1440-00M.COL___127                                                 6
 STAT SP IPHASW D HRMM SECON CODA AMPLIT PERI AZIMU VELO SNR AR TRES W  DIS CAZ7
 BAR2 SZ EP   1   1444 12.11                             173     0.0 7   18 213 
 BAR2 SZ ES   1   1444 27.41                             173    -0.1 7   18 213 
 BAR2 SZ I        1444 28.26        25.1 0.30                            18 213 
 BRR  HZ EP   1   1444 13.84                             150    -0.4 7   80 302 
 BRR  HN ES   1   1444 31.41                             150     0.2 7   80 302 
 BRR  HZ I        1444 32.64        20.9 0.09                            80 302 
 PAM  SZ EP   1   1444 15.35                             150     0.4 7   81  33 
 PAM  SE ES   2   1444 32.28                             150    -0.3 5   81  33 
 NOR  SZ EP   1   1444 28.12                             119    -0.1 6  235 237 
 NOR  SN ES   2   1444 56.55                             119     0.4 4  235 237 
                                                                                
