 2017 1017 1359 49.7 L   6.686 -73.179155.6  RSN  5 0.1 1.4LRSN                1
 GAP=225        0.38       3.0     2.8  3.1  0.5107E+01  0.1155E+01 -0.7446E-02E
 Epicentro: VILLANUEVA - SANTANDER                                             3
 ACTION:UPD 17-11-07 19:33 OP:rebc STATUS:               ID:20171017135949 L   I
 OLDACT:UP  17-10-17 22:54 OP:edw  STATUS:               ID:20171017134820     3
 OLDACT:UP  17-10-17 22:54 OP:edw  STATUS:               ID:20171017134820     3
 OLDACT:REG 17-10-17 20:42 OP:edw  STATUS:               ID:20171017134820     3
 2017-10-17-1358-00M.COL___426                                                 6
 STAT SP IPHASW D HRMM SECON CODA AMPLIT PERI AZIMU VELO AIN AR TRES W  DIS CAZ7
 BAR2 EZ EP       14 0 10.17                             176   -0.1310 10.4 182 
 BAR2 EZ ES       14 0 26.57                             176    0.1810 10.4 182 
 BAR2 EZ I        14 0 26.89         7.6 0.20            172           10.4 182 
 BRR  HZ EP       14 0 12.02                             153   -0.0810 75.1 308 
 BRR  HN ES       14 0 29.58                             153   -0.0110 75.1 308 
 RUS  HZ EP       14 0 13.71                             149    0.1210 88.4 173 
 RUS  HN ES       14 0 32.10                             149   -0.1610 88.4 173 
 RUS  HZ I        14 0 34.42         3.8 0.40            147           88.4 173 
 PTB  HZ EP       14 0 17.12                             135    0.15 9  142 264 
 PTB  HN ES       14 0 38.26                             135   -0.00 9  142 264 
 PTB  HZ I        14 0 41.01         2.2 0.32            134            142 264 
 ZAR  HN ES       14 0 48.83                             124   -0.07 8  206 296 
                                                                                
