 2013 1017 1454 12.3 L   6.375 -73.568115.2  RSN  4 0.1 1.8LRSN                1
 GAP=140        0.42       3.7     2.2  4.4  0.3372E+01  0.3969E+01  0.4442E+01E
 Epicentro: SANTA HELENA DEL OPON - SANTANDER                                  3
 ACTION:UPD 13-11-25 09:22 OP:ep   STATUS:               ID:20131017145412 L   I
 OLDACT:UP  13-10-17 16:33 OP:cam  STATUS:               ID:20131017144835     3
 OLDACT:REG 13-10-17 15:23 OP:cam  STATUS:               ID:20131017144835     3
 2013-10-17-1448-35M.COL___226                                                 6
 STAT SP IPHASW D HRMM SECON CODA AMPLIT PERI AZIMU VELO AIN AR TRES W  DIS CAZ7
 BAR2 SZ EP       1454 29.53                             155    0.2310 49.0  61 
 BAR2 SZ ES       1454 42.40                             155   -0.1210 49.0  61 
 BAR2 SZ I        1454 43.40        55.8 0.16            159           49.0  61 
 RUS  HZ EP       1454 31.22                             145   -0.0710 75.7 135 
 RUS  HE ES       1454 46.11                             145    0.0310 75.7 135 
 RUS  HZ I        1454 46.59         5.7 0.22            148           75.7 135 
 SPBC HZ EP   1   1454 32.44                             137    0.03 7 97.5 215 
 PTB  HZ EP       1454 32.34                             136   -0.1710 99.9 281 
 PTB  HN ES       1454 48.34                             136    0.0910 99.9 281 
 PTB  HZ I        1454 50.90        10.2 0.42            137           99.9 281 
                                                                                
