 2016  417 1044 25.9 L   6.810 -73.150138.6  RSN  5 0.4 1.6LRSN                1
 GAP=244        0.93       6.0     5.6  7.5  0.1377E+02  0.8229E+01 -0.9347E+01E
 Epicentro: LOS SANTOS - SANTANDER                                             3
 ACTION:UPD 16-05-05 14:22 OP:rebc STATUS:               ID:20160417104425 L   I
 OLDACT:ARG 16-04-18 14:37 OP:cara STATUS:               ID:20160417103748     3
 2016-04-17-1037-48M.COL___300                                                 6
 STAT SP IPHASW D HRMM SECON CODA AMPLIT PERI AZIMU VELO AIN AR TRES W  DIS CAZ7
 BAR2 EZ EP       1044 44.78                             170    0.1010 24.3 188 
 BAR2 EZ ES       1044 59.24                             170   -0.1010 24.3 188 
 BAR2 EZ I        1045  1.61         8.1 0.44            164           24.3 188 
 RUS  HZ EP       1044 49.12                             142    0.1010  102 176 
 RUS  HE ES       1045  7.08                             142    0.0110  102 176 
 RUS  HZ I        1045  8.37         3.3 0.46            143            102 176 
 PTB  HZ EP       1044 51.37                             130   -0.89 9  148 258 
 PTB  HE ES       1045 12.51                             130   -0.31 9  148 258 
 PTB  HZ I        1045 17.95         4.4 0.42            129            148 258 
 SPBC HZ EP       1044 53.89                             127   -0.01 9  164 219 
 SPBC HE ES       1045 16.17                             127    0.43 9  164 219 
 SPBC HZ I        1045 22.88         8.2 0.18            127            164 219 
 ZAR  HZ EP       1044 58.21                             121    0.42 9  203 292 
 ZAR  HE ES       1045 23.04                             121    0.37 9  203 292 
 ZAR  HZ I        1045 29.85         6.9 0.32            121            203 292 
                                                                                
