 2016 1117 1317  3.5 L   6.866 -73.131145.5  RSN  8 0.3 2.0LRSN                1
 GAP=148        0.79       3.4     3.6  5.0 -0.1979E+01  0.2587E+01  0.5177E+01E
 Epicentro: LOS SANTOS - SANTANDER                                             3
 ACTION:UPD 17-10-26 21:09 OP:lp   STATUS:               ID:20161117131703 L   I
 OLDACT:UP  16-11-17 22:41 OP:edw  STATUS:               ID:20161117130746d    3
 OLDACT:UP  16-11-17 22:40 OP:edw  STATUS:               ID:20161117130746d    3
 OLDACT:DUP 16-11-17 22:36 OP:edw  STATUS:               ID:20161117130746d    3
 OLDACT:UP  16-11-17 22:33 OP:edw  STATUS:               ID:20161117130745     3
 OLDACT:UP  16-11-17 22:32 OP:edw  STATUS:               ID:20161117130745     3
 OLDACT:UP  16-11-17 22:32 OP:edw  STATUS:               ID:20161117130745     3
 OLDACT:REG 16-11-17 20:13 OP:edw  STATUS:               ID:20161117130745     3
 2016-11-17-1308-00M.COL___334                                                 6
 STAT SP IPHASW D HRMM SECON CODA AMPLIT PERI AZIMU VELO AIN AR TRES W  DIS CAZ7
 BAR2 EZ IP     C 1317 22.85                             168   -0.4410 30.7 191 
 BAR2 EZ ES       1317 38.41                             168   -0.2910 30.7 191 
 BAR2 EZ I        1317 39.95        22.2 0.26            167           30.7 191 
 BRR  HZ EP       1317 24.56                             153    0.0210 69.5 293 
 BRR  HN ES       1317 41.56                             153    0.6210 69.5 293 
 BRR  HZ I        1317 44.31        22.0 0.38            152           69.5 293 
 PAM  EZ EP       1317 25.33                             153    0.0010 70.9  42 
 PAM  EN ES       1317 42.32                             153   -0.0210 70.9  42 
 PAM  EZ I        1317 44.38        20.5 0.42            155           70.9  42 
 PTB  HZ EP   9   1317 29.65                             131   -1.10 0  151 256 
 PTB  HN ES       1317 50.63                             131   -0.26 9  151 256 
 PTB  HZ I        1317 54.18        10.7 0.10            131            151 256 
 ZAR  HZ EP       1317 35.74                             122   -0.09 9  203 290 
 ZAR  HN ES       1318  0.93                             122   -0.10 9  203 290 
 ZAR  HZ I        1318  6.52        16.1 0.38            123            203 290 
 NOR  HZ EP   4   1317 42.67                             118    2.84 0  240 233 
 NOR  HN ES       1318  7.74                             118   -0.41 8  240 233 
 NOR  HZ I        1318  9.29         6.7 0.24            118            240 233 
 CHI  HZ EP       1317 42.50                             116    0.49 8  256 195 
 CHI  HE ES       1318 12.40                             116    0.37 8  256 195 
 CHI  HZ I        1318 17.19         3.0 0.30            117            256 195 
 PRA  HE ES       1318 40.17                             106   -0.07 6  399 209 
 SJC  HZ EP   4   1317 57.18                             106   -1.28 0  404 326 
 SJC  HN ES   4   1318 37.90                             106   -3.42 0  404 326 
                                                                                
