 2010  817 1232 26.7 L   6.826 -73.411122.0  RSN  4 0.2 1.5LRSN                1
 GAP=177        0.47      11.6    12.0  7.7  0.1049E+03 -0.4374E+02 -0.2257E+02E
 Epicentro: SAN VICENTE DE CHUCURI - SANTANDER                                 3
 ACTION:UP  10-09-07 10:55 OP:vdl  STATUS:               ID:20100817123226 L   I
 2010-08-17-1231-18S.COL___110                                                 6
 STAT SP IPHASW D HRMM SECON CODA AMPLIT PERI AZIMU VELO SNR AR TRES W  DIS CAZ7
 BTL  SZ EP   1   1232 43.49                             171     0.1 7   19  57 
 BAR2 SZ EP       1232 44.02                             163     0.110   36 136 
 BAR2 SZ ES   2   1232 57.00                             163    -0.3 5   36 136 
 BAR2 SZ I        1232 58.15        16.2 0.46                            36 136 
 GIR2 SZ EP       1232 43.76                             162     0.010   37  41 
 BRR  HZ EP   1   1232 43.65                             158    -0.3 7   46 313 
 BRR  HZ I        1232 44.85         5.5 0.27                            46 313 
 BRR  HN ES   1   1232 57.51                             158     0.2 7   46 313 
                                                                                
