 2013 1217 1545 28.9 L   7.191 -73.185151.8  RSN  4 0.4 1.5LRSN                1
 GAP=275        1.11      10.5     9.2  9.4  0.4720E+02 -0.7987E+01 -0.1154E+02E
 Epicentro: LEBRIJA - SANTANDER                                                3
 ACTION:UPD 14-01-13 10:18 OP:ep   STATUS:               ID:20131217154528 L   I
 OLDACT:REG 13-12-17 14:47 OP:jn   STATUS:               ID:20131217154000     3
 2013-12-17-1540-00M.COL___285                                                 6
 STAT SP IPHASW D HRMM SECON CODA AMPLIT PERI AZIMU VELO AIN AR TRES W  DIS CAZ7
 BRR  HZ EP       1545 49.92                             158   -0.1410 58.9 261 
 BRR  HN ES       1546  7.16                             158    0.5710 58.9 261 
 BRR  HZ I        1546 10.60         7.8 0.28            157           58.9 261 
 BAR2 SZ EP   1   1545 50.93                             155    0.16 7 66.2 180 
 BAR2 SZ ES       1546  7.08                             155   -0.7710 66.2 180 
 BAR2 SZ I        1546  9.92         8.3 0.22            157           66.2 180 
 RUS  HZ EP       1545 57.11                             134    0.44 9  144 175 
 RUS  HE ES       1546 18.66                             134    0.31 9  144 175 
 RUS  HZ I        1546 18.93         1.7 0.34            138            144 175 
 PTB  HZ EP       1545 56.78                             131   -0.48 9  158 243 
 PTB  HN ES       1546 19.39                             131   -0.00 9  158 243 
 PTB  HZ I        1546 22.37         4.7 0.14            133            158 243 
                                                                                
