 2017  317 1320 47.3 L   6.785 -73.145146.8  RSN  6 0.3 1.7LRSN                1
 GAP=137        0.83       4.1     4.3  6.6 -0.5047E+01 -0.3783E-01  0.4145E+01E
 Epicentro: LOS SANTOS - SANTANDER                                             3
 ACTION:UPD 17-05-25 18:41 OP:jn   STATUS:               ID:20170317132047 L   I
 OLDACT:REG 17-03-17 21:24 OP:dnl  STATUS:               ID:20170317131618     3
 2017-03-17-1318-00M.COL___409                                                 6
 STAT SP IPHASW D HRMM SECON CODA AMPLIT PERI AZIMU VELO AIN AR TRES W  DIS CAZ7
 BAR2 EZ EP       1321  6.81                             171   -0.1610 21.7 191 
 BAR2 EZ ES       1321 22.60                             171    0.2410 21.7 191 
 BAR2 EZ I        1321 23.52        12.2 0.14            170           21.7 191 
 BRR  HZ EP   2   1321  8.78                             152    0.22 5 72.0 300 
 BRR  HE ES       1321 25.55                             152    0.3710 72.0 300 
 BRR  HZ I        1321 29.58        14.6 0.50            149           72.0 300 
 PAM  EZ IP     C 1321  9.91                             151    0.2510 78.7  39 
 PAM  EE ES       1321 26.80                             151   -0.3310 78.7  39 
 PAM  EZ I        1321 29.31         7.3 0.24            153           78.7  39 
 RUS  HN EP       1321 11.18                             144    0.2010 98.9 176 
 RUS  HE ES       1321 29.12                             144   -0.3710 98.9 176 
 RUS  HN I        1321 30.65         7.5 0.20            147           98.9 176 
 PTB  HZ EP   2   1321 13.80                             132   -0.48 5  147 259 
 PTB  HN ES       1321 34.79                             132   -0.57 9  147 259 
 PTB  HZ I        1321 41.87         4.7 0.18            131            147 259 
 SPBC HZ EP   2   1321 15.55                             129   -0.16 5  162 219 
 SPBC HN ES       1321 38.36                             129    0.46 9  162 219 
 SPBC HZ I        1321 42.09         8.8 0.42            130            162 219 
                                                                                
