 2017  717 1753 23.5 L   6.817 -73.143142.0  RSN  9 0.5 1.8LRSN                1
 GAP=215        0.96       6.0     5.5  6.8  0.1434E+02  0.1277E+02  0.3010E+01E
 Epicentro: LOS SANTOS - SANTANDER                                             3
 ACTION:UPD 17-08-30 15:34 OP:rebc STATUS:               ID:20170717175323 L   I
 OLDACT:UP  17-07-18 01:04 OP:and  STATUS:               ID:20170717174739     3
 OLDACT:UP  17-07-18 01:02 OP:and  STATUS:               ID:20170717174739     3
 OLDACT:REG 17-07-17 21:23 OP:lv   STATUS:               ID:20170717174739     3
 2017-07-17-1748-00M.COL___389                                                 6
 STAT SP IPHASW D HRMM SECON CODA AMPLIT PERI AZIMU VELO AIN AR TRES W  DIS CAZ7
 BAR2 EZ IP     D 1753 42.60                             169   -0.1110 25.2 190 
 BAR2 EZ ES       1753 57.60                             169   -0.1010 25.2 190 
 BAR2 EZ I        1753 59.05        26.0 0.20            167           25.2 190 
 BRR  HZ IP     C 1753 44.54                             152    0.3410 70.6 297 
 BRR  HN ES   3   1754  1.54                             152    1.19 2 70.6 297 
 RUS  HZ EP       1753 46.59                             142   -0.4210  102 176 
 RUS  HN ES       1754  5.26                             142   -0.1010  102 176 
 RUS  HZ I        1754  6.63         9.7 0.24            143            102 176 
 PTB  HZ EP       1753 49.66                             131   -0.56 9  148 258 
 PTB  HN ES   3   1754 10.36                             131   -0.70 2  148 258 
 PTB  HZ I        1754 12.22         4.1 0.08            131            148 258 
 SPBC HZ EP       1753 51.62                             128   -0.24 9  165 219 
 YPLC HZ EP       1753 52.95                             125   -0.21 9  178 152 
 YPLC HN ES       1754 17.00                             125    0.69 9  178 152 
 YPLC HZ I        1754 19.82         6.6 0.32            127            178 152 
 ZAR  HZ EP   2   1753 55.78                             122    0.13 4  204 292 
 ZAR  HN ES   2   1754 21.61                             122    0.88 4  204 292 
 ZAR  HZ I        1754 26.53         7.9 0.48            122            204 292 
 NOR  HZ EP       1753 59.02                             117   -0.13 8  236 234 
 NOR  HN ES       1754 26.94                             117   -0.02 8  236 234 
 NOR  HZ I        1754 31.69         6.8 0.28            118            236 234 
 GUY2CHZ EP       1754  8.20                             111    1.12 7  303 235 
 GUY2CHN ES   4   1754 45.02                             111    3.94 0  303 235 
 GUY2CHZ I        1754 49.26         3.1 0.34                           303 235 
                                                                                
