 2013  317 1907 24.2 L   6.806 -73.105154.0  RSN  8 0.4 2.1LRSN                1
 GAP=187        0.73       3.9     6.5  7.5  0.6947E+01  0.4614E+01  0.5406E+01E
 Epicentro: LOS SANTOS - SANTANDER                                             3
 ACTION:UPD 13-04-09 14:03 OP:ep   STATUS:               ID:20130317190724 L   I
 2013-03-17-1900-00M.COL___244                                                 6
 STAT SP IPHASW D HRMM SECON CODA AMPLIT PERI AZIMU VELO AIN AR TRES W  DIS CAZ7
 BAR2 SZ E      C 19 7 44.92                                           25.1 200 
 BRR  HZ EP       19 7 46.75                             153    0.3410 74.9 296 
 BRR  HN ES   1   19 8  4.17                             153    0.40 7 74.9 296 
 BRR  HZ I        19 8  4.85        21.8 0.12            146           74.9 296 
 RUS  HZ EP       19 7 48.82                             145    0.0610  101 179 
 RUS  HN ES   2   19 8  7.23                             145   -0.72 5  101 179 
 RUS  HZ I        19 8  8.67        24.0 0.22            144            101 179 
 PTB  HZ EP       19 7 51.64                             133   -0.58 9  152 259 
 PTB  HN ES   4   19 8 12.80                             133   -1.30 0  152 259 
 PTB  HZ I        19 8 19.82        16.4 0.74            129            152 259 
 OCA  HZ EP   1   19 7 52.90                             131   -0.22 7  160 352 
 OCA  HN ES   2   19 8 15.55                             131   -0.16 5  160 352 
 OCA  HZ I        19 8 19.72        13.2 0.28            132            160 352 
 ZAR  HZ EP       19 7 57.49                             124   -0.07 8  208 292 
 ZAR  HN ES   2   19 8 23.00                             124   -0.61 4  208 292 
 ZAR  HZ I        19 8 33.49         9.4 0.28            121            208 292 
 CHI  HZ EP       19 8  2.92                             119    0.39 8  250 196 
 CHI  HN ES   1   19 8 32.29                             119   -0.16 6  250 196 
 CHI  HZ I        19 8 42.19         7.8 0.64            118            250 196 
 HEL  HZ EP   1   19 8  5.75                             116    0.44 6  277 256 
 HEL  HN ES   2   19 8 37.60                             116    0.20 4  277 256 
 HEL  HZ I        19 8 43.88         7.5 0.26            115            277 256 
                                                                                
