 2015  117 1413 55.8 L   6.816 -73.150141.4  RSN 15 0.4 2.6LRSN                1
 GAP=135        0.87       2.4     3.6  4.6 -0.1611E+01  0.5890E+01  0.2166E+00E
 Epicentro: LOS SANTOS - SANTANDER                                             3
 ACTION:UPD 15-03-02 15:40 OP:nd   STATUS:               ID:20150117141355 L   I
 OLDACT:UP  15-01-18 01:07 OP:mh   STATUS:               ID:20150117140744     3
 OLDACT:UP  15-01-18 01:06 OP:mh   STATUS:               ID:20150117140744     3
 OLDACT:REG 15-01-17 21:14 OP:y    STATUS:               ID:20150117140744     3
 2015-01-17-1407-44M.COL___255                                                 6
 STAT SP IPHASW D HRMM SECON CODA AMPLIT PERI AZIMU VELO AIN AR TRES W  DIS CAZ7
 BAR2 EZ EP       1414 15.01                             169    0.1110 25.0 188 
 BAR2 EZ ES       1414 29.61                             169   -0.2110 25.0 188 
 BAR2 EZ I        1414 31.50        99.1 0.23            166           25.0 188 
 BRR  HZ EP       1414 16.65                             152    0.2810 70.0 297 
 BRR  HN ES   1   1414 32.88                             152    0.44 7 70.0 297 
 BRR  HZ I        1414 37.00        53.8 0.36            150           70.0 297 
 PAM  SZ EP       1414 17.79                             150    0.3410 76.3  41 
 PAM  SN ES   1   1414 34.86                             150    0.50 7 76.3  41 
 PAM  SZ I        1414 37.25        36.6 0.52            157           76.3  41 
 RUS  HZ EP       1414 19.03                             142   -0.1810  102 176 
 RUS  HN ES       1414 37.18                             142   -0.3210  102 176 
 RUS  HZ I        1414 38.84        42.2 0.26            144            102 176 
 PTB  HZ EP       1414 21.85                             131   -0.52 9  148 258 
 PTB  HE ES   1   1414 43.80                             131    0.68 7  148 258 
 PTB  HZ I        1414 44.99        41.5 0.38            130            148 258 
 OCA  HZ EP       1414 23.19                             129   -0.38 9  158 353 
 OCA  HN ES       1414 45.19                             129   -0.06 9  158 353 
 OCA  HZ I        1414 48.06        63.3 0.20            132            158 353 
 SPBC HZ EP       1414 23.90                             128   -0.13 9  164 218 
 SPBC HN ES       1414 45.84                             128   -0.24 9  164 218 
 SPBC HZ I        1414 53.10        64.8 0.50            128            164 218 
 ZAR  HZ EP       1414 28.58                             121    0.76 9  203 292 
 ZAR  HN ES       1414 52.71                             121   -0.11 9  203 292 
 ZAR  HZ I        1414 58.94        32.0 0.34            122            203 292 
 NOR  HZ EP       1414 30.91                             117   -0.40 8  235 234 
 NOR  HN ES   1   1414 59.14                             117    0.10 6  235 234 
 NOR  HZ I        1415  4.12        33.3 0.20            118            235 234 
 SML  HZ EP   1   1414 31.19                             117   -0.76 6  242 335 
 SML  HN ES   1   1414 59.32                             117   -0.86 6  242 335 
 SML  HZ I        1415  1.65        38.4 0.30            119            242 335 
 ROSC BZ EP   1   1414 34.37                             116    0.58 6  254 211 
 ROSC BN ES   4   1415  5.19                             116    1.75 0  254 211 
 ROSC BZ I        1415 11.39        38.6 0.35            117            254 211 
 HEL  HZ EP       1414 35.79                             114    0.03 8  272 255 
 HEL  HN ES   1   1415  6.49                             114   -0.46 6  272 255 
 HEL  HZ I        1415 14.72        13.8 0.52            115            272 255 
 RREF HZ EP   1   1414 42.38                             110    0.57 5  323 229 
 RREF HN ES   4   1415 22.27                             110    4.54 0  323 229 
 RREF HZ I        1415 28.88        19.9 0.32            111            323 229 
 TOL  SZ EP       1414 44.60                             108    0.65 7  344 224 
 TOL  SN ES       1415 21.58                             108    0.04 7  344 224 
 ANIL HZ EP   4   1414 47.01                             108    1.50 0  358 224 
 ANIL HN ES   4   1415 25.42                             108    1.11 0  358 224 
 ORTC HZ EP       1414 49.64                             105   -0.03 6  397 216 
 ORTC HN ES   1   1415 32.11                             105    0.39 4  397 216 
 ORTC HZ I        1415 39.85        16.2 0.70            107            397 216 
                                                                                
