 2015  517 1059 50.5 L   6.837 -73.119146.9  RSN  7 0.4 1.9LRSN                1
 GAP=155        0.98       5.2     5.0  6.7  0.2218E+01  0.9258E+01 -0.1053E+02E
 Epicentro: LOS SANTOS - SANTANDER                                             3
 ACTION:UPD 15-09-10 22:04 OP:cam  STATUS:               ID:20150517105950 L   I
 OLDACT:REG 15-05-17 20:24 OP:drio STATUS:               ID:20150517105747     3
 2015-05-17-1057-47M.COL___283                                                 6
 STAT SP IPHASW D HRMM SECON CODA AMPLIT PERI AZIMU VELO AIN AR TRES W  DIS CAZ7
 BAR2 EZ EP       11 0 10.06                             169   -0.3410 27.9 194 
 BAR2 EZ ES       11 0 25.19                             169   -0.7110 27.9 194 
 BAR2 EZ I        11 0 26.99        12.9 0.26            174           27.9 194 
 BRR  HZ EP       11 0 12.10                             152    0.2510 72.0 295 
 BRR  HN ES       11 0 28.93                             152    0.4510 72.0 295 
 BRR  HZ I        11 0 30.49        13.0 0.14            150           72.0 295 
 PAM  SZ EP       11 0 13.00                             153    0.4210 72.4  40 
 PAM  SN ES       11 0 30.02                             153    0.2410 72.4  40 
 PAM  SZ I        11 0 32.19        11.2 0.62            151           72.4  40 
 OCA  HZ EP       11 0 18.55                             130   -0.04 9  157 352 
 OCA  HN ES       11 0 40.35                             130   -0.13 9  157 352 
 OCA  HZ I        11 0 43.21        18.4 0.28            130            157 352 
 ZAR  HZ EP       11 0 23.47                             122    0.29 8  205 291 
 ZAR  HN ES       11 0 49.06                             122    0.42 8  205 291 
 ZAR  HZ I        11 0 51.40         7.3 0.48            123            205 291 
 SML  HZ EP       11 0 26.66                             118   -0.30 8  241 334 
 SML  HN ES       11 0 55.14                             118   -0.23 8  241 334 
 SML  HZ I        11 1  5.42         5.9 0.10            118            241 334 
 MON  HN ES       11 1 16.97                             109   -0.82 6  353 308 
                                                                                
