 2014  717 1609  3.2 L   6.539 -73.543103.7  RSN 17 0.5 2.4LRSN                1
 GAP= 51        1.26       2.7     2.8  6.0 -0.9472E+00  0.5330E+01  0.3810E-01E
 Epicentro: EL CARMEN - SANTANDER                                              3
 ACTION:UPD 15-03-16 20:44 OP:nd   STATUS:               ID:20140717160903 L   I
 OLDACT:REG 14-07-17 21:08 OP:stll STATUS:               ID:20140717160820     3
 2014-07-17-1608-20M.COL___272                                                 6
 STAT SP IPHASW D HRMM SECON CODA AMPLIT PERI AZIMU VELO AIN AR TRES W  DIS CAZ7
 BAR2 SZ IP     C 16 9 18.98                             157    0.5810 40.3  82 
 BAR2 SZ ES       16 9 31.08                             157    0.8010 40.3  82 
 BRR  HZ IP     C 16 9 19.81                             145    0.2610 65.6 343 
 BRR  HN ES       16 9 32.73                             145    0.4010 65.6 343 
 BRR  HZ I        16 9 39.58        77.2 0.14            145           65.6 343 
 RUS  HZ EP       16 9 22.03                             137    0.0910 87.7 145 
 RUS  HN ES       16 9 36.34                             137   -0.2510 87.7 145 
 RUS  HZ I        16 9 39.08        26.4 0.30            143           87.7 145 
 PTB  HZ IP     C 16 9 21.80                             132   -0.6510  101 270 
 PTB  HZ I        16 9 22.05        70.8 0.18            133            101 270 
 PTB  HE ES       16 9 36.55                             132   -0.9510  101 270 
 SPBC HN ES       16 9 39.94                             128    0.0710  114 211 
 PAM  SN ES       16 9 43.04                             125   -0.2810  129  46 
 PAM  SZ I        16 9 44.97        41.7 0.16            129            129  46 
 ZAR  HZ EP       16 9 30.92                             115    0.41 9  180 306 
 ZAR  HN ES       16 9 52.34                             115    0.50 9  180 306 
 NOR  HZ EP       16 9 30.46                             114   -0.40 9  182 234 
 NOR  HE ES       16 9 51.77                             114   -0.70 9  182 234 
 NOR  HZ I        16 9 55.47        25.5 0.60            117            182 234 
 OCA  HN ES       16 9 54.12                             113   -0.06 9  190   7 
 OCA  HZ I        16 9 59.62        35.6 0.22            116            190   7 
 TAM  HZ EP       16 9 31.88                             113   -0.30 9  194  93 
 TAM  HZ I        16 9 32.05        60.7 0.40            117            194  93 
 TAM  HN ES       16 9 54.11                             113   -0.70 9  194  93 
 CHI  HZ EP       16 9 35.15                             111    0.45 8  212 186 
 CHI  HN ES       16 9 59.25                             111   -0.05 8  212 186 
 HEL  HZ EP       16 9 36.52                             109    0.63 8  223 260 
 HEL  HE ES       1610  1.28                             109   -0.15 8  223 260 
 HEL  HZ I        1610  9.66        21.6 0.44            111            223 260 
 GUY2CHZ EP       16 9 39.66                             107    0.66 8  249 234 
 GUY2CHN ES       1610  7.05                             107    0.10 8  249 234 
 GUY2CHZ I        1610 12.41        17.2 0.80                           249 234 
 SML  HZ EP       16 9 39.01                             106   -0.35 8  257 347 
 SML  HE ES       1610  7.01                             106   -0.59 8  257 347 
 SML  HZ I        1610 12.18        49.9 0.32            108            257 347 
 URE  HZ EP       16 9 38.92                             106   -0.53 8  257 302 
 CBOC HZ EP       16 9 44.00                             104    1.31 7  283 255 
 CBOC HN ES       1610 13.21                             104   -0.32 7  283 255 
 CBOC HZ I        1610 26.81         7.2 0.66            106            283 255 
 DBB  SZ EP       16 9 44.70                             103    0.19 7  300 280 
 DBB  SZ ES   4   1610 17.63                             103    0.86 0  300 280 
                                                                                
