 2015  517 1012  3.6 L   6.850 -73.072140.6  RSN  5 0.4 1.5LRSN                1
 GAP=208        1.07       7.3    10.1  9.1  0.4504E+02 -0.8650E+01 -0.3326E+02E
 Epicentro: LOS SANTOS - SANTANDER                                             3
 ACTION:UPD 15-09-10 22:04 OP:cam  STATUS:               ID:20150517101203 L   I
 OLDACT:UP  15-05-17 21:32 OP:drio STATUS:               ID:20150517100749d    3
 OLDACT:DUP 15-05-17 21:22 OP:drio STATUS:               ID:20150517100749d    3
 2015-05-17-1007-48M.COL___280                                                 6
 STAT SP IPHASW D HRMM SECON CODA AMPLIT PERI AZIMU VELO AIN AR TRES W  DIS CAZ7
 BAR2 EZ EP       1012 23.07                             167    0.2810 31.0 203 
 BAR2 EZ ES       1012 38.00                             167    0.2410 31.0 203 
 BAR2 EZ I        1012 40.70         6.0 0.28            166           31.0 203 
 BRR  HZ EP       1012 24.67                             150    0.1910 76.2 292 
 BRR  HN ES       1012 41.03                             150    0.2510 76.2 292 
 RUS  HN ES       1012 45.02                             141   -0.6610  106 181 
 ZAR  HZ EP       1012 37.05                             121    0.76 8  210 290 
 ZAR  HE ES       1013  1.32                             121   -0.48 8  210 290 
 ZAR  HZ I        1013  7.96         2.1 0.44            121            210 290 
 SML  HZ EP       1012 39.34                             117   -0.44 8  242 333 
 SML  HN ES       1013  7.63                             117   -0.37 8  242 333 
 SML  HZ I        1013 11.23         2.8 0.10            117            242 333 
                                                                                
