 2010 1217 1952 36.9 L   6.776 -73.054143.8  RSN  5 0.3 1.8LRSN                1
 GAP=169        0.84       7.2    13.7 10.2  0.5332E+02 -0.7086E+02 -0.3305E+02E
 Epicentro: LOS SANTOS - SANTANDER                                             3
 ACTION:UP  11-01-14 15:25 OP:pat  STATUS:               ID:20101217195236 L   I
 2010-12-17-1951-01S.COL___136                                                 6
 STAT SP IPHASW D HRMM SECON CODA AMPLIT PERI AZIMU VELO SNR AR TRES W  DIS CAZ7
 BAR2 SZ EP       1952 56.12                             170    -0.210   25 215 
 BAR2 SZ ES   1   1953 11.14                             170    -0.3 7   25 215 
 BAR2 SZ I        1953 12.93        14.7 0.24                            25 215 
 BTL  SZ EP       1952 56.88                             168     0.510   28 304 
 BRR  HZ EP       1952 58.06                             149    -0.410   81 297 
 BRR  HZ I        1952 58.36        25.7 0.14                            81 297 
 BRR  HN ES   1   1953 15.59                             149     0.3 7   81 297 
 RUS  HZ EP       1953  0.37                             144     0.110   98 182 
 RUS  HN ES   1   1953 18.54                             144     0.1 7   98 182 
 RUS  HZ I        1953 20.02         6.2 0.27                            98 182 
 GRA  SZ EP   1   1953  1.98                             136     0.0 7  126  13 
                                                                                
