 2014  717 1407 55.9 L   7.463 -73.213124.0  RSN 13 0.6 2.3LRSN                1
 GAP=111        1.29       3.6     5.6  7.2  0.1299E+01  0.1743E+02  0.6582E+01E
 Epicentro: EL PLAYON - SANTANDER                                              3
 ACTION:UPD 15-03-16 20:44 OP:nd   STATUS:               ID:20140717140755 L   I
 OLDACT:REG 14-07-17 21:01 OP:stll STATUS:               ID:20140717135819     3
 2014-07-17-1358-19M.COL___263                                                 6
 STAT SP IPHASW D HRMM SECON CODA AMPLIT PERI AZIMU VELO AIN AR TRES W  DIS CAZ7
 PAM  SN ES       14 8 29.52                             154    0.2010 58.3 104 
 PAM  SZ I        14 8 31.56        35.3 0.38            152           58.3 104 
 BRR  HZ IP     C 14 8 14.64                             150    0.1310 67.7 234 
 BRR  HN ES       14 8 29.68                             150    0.6510 67.7 234 
 BRR  HZ I        14 8 30.83        30.0 0.12            146           67.7 234 
 OCA  HN ES       14 8 32.20                             143    0.4810 86.6 352 
 OCA  HZ I        14 8 35.88        24.4 0.18            139           86.6 352 
 BAR2 SZ IP     D 14 8 16.58                             140   -0.3010 96.3 178 
 BAR2 SZ ES       14 8 32.60                             140   -0.6510 96.3 178 
 BAR2 SZ I        14 8 35.33        38.2 0.20            137           96.3 178 
 PTB  HZ EP       14 8 23.02                             122   -0.52 9  171 233 
 PTB  HN ES       14 8 44.65                             122   -0.45 9  171 233 
 PTB  HZ I        14 8 47.29        20.9 0.16            118            171 233 
 SML  HZ EP       14 8 23.18                             122   -0.79 9  176 327 
 SML  HE ES       14 8 45.33                             122   -0.55 9  176 327 
 SML  HZ I        14 8 45.89        28.8 0.10            117            176 327 
 ZAR  HZ EP       14 8 25.01                             121    0.40 9  182 271 
 ZAR  HN ES       14 8 47.73                             121    0.71 9  182 271 
 ZAR  HZ I        14 8 50.20        13.1 0.12            117            182 271 
 SPBC HZ EP       14 8 28.89                             115   -0.16 8  222 205 
 SPBC HN ES       14 8 54.71                             115   -0.20 8  222 205 
 SPBC HZ I        14 8 58.41        19.3 0.22            112            222 205 
 NOR  HZ EP       14 8 35.31                             110   -0.14 7  279 221 
 NOR  HE ES       14 9  6.27                             110   -0.04 7  279 221 
 NOR  HZ I        14 9 12.13        17.9 0.18            106            279 221 
 CHI  HZ EP       14 8 41.64                             107    1.11 7  319 190 
 CHI  HE ES       14 9 15.72                             107    0.37 7  319 190 
 CHI  HZ I        14 9 22.28         4.7 0.36            104            319 190 
 DBB  SZ EP       14 8 41.53                             106   -0.47 7  335 262 
 DBB  SZ I        14 9 17.85        17.0 0.42            103            335 262 
 GUY2CHZ EP   4   14 8 45.09                             105    1.56 0  343 224 
 GUY2CHN ES       14 9 19.82                             105   -0.87 7  343 224 
 TOL  SZ EP       14 8 50.97                             103    1.56 6  395 216 
 TOL  SE ES       14 9 31.67                             103    0.52 6  395 216 
                                                                                
