 2017  517 1004 32.1 L   6.706 -73.097150.6  RSN  4 0.2 1.6LRSN                1
 GAP=231        0.58       7.6     3.4  5.7 -0.1244E+02  0.1849E+00  0.1600E+02E
 Epicentro: JORDAN - SANTANDER                                                 3
 ACTION:UPD 17-06-16 13:36 OP:jn   STATUS:               ID:20170517100432 L   I
 OLDACT:UP  17-05-30 22:44 OP:nlst STATUS:               ID:20170517100432 L   3
 OLDACT:UP  17-05-17 20:56 OP:lv   STATUS:               ID:20170517095741     3
 OLDACT:REG 17-05-17 19:24 OP:lv   STATUS:               ID:20170517095741     3
 2017-05-17-0958-00M.COL___338                                                 6
 STAT SP IPHASW D HRMM SECON CODA AMPLIT PERI AZIMU VELO AIN AR TRES W  DIS CAZ7
 BRR  HZ EP   3   10 4 54.32                             150   -0.06 2 81.2 303 
 BRR  HE ES       10 5 12.09                             150    0.3510 81.2 303 
 PAM  EZ EP       10 4 55.13                             150   -0.0410 82.6  32 
 PAM  EN ES       10 5 13.00                             150   -0.1510 82.6  32 
 PAM  EZ I        10 5 15.47        13.2 0.04            152           82.6  32 
 PTB  HZ EP       10 5  0.11                             132    0.28 9  151 263 
 PTB  HN ES       10 5 21.10                             132   -0.33 9  151 263 
 PTB  HZ I        10 5 22.89         2.8 0.37            134            151 263 
 ZAR  HZ EP       10 5  5.78                             122   -0.04 8  213 294 
 ZAR  HE ES       10 5 31.98                             122   -0.13 8  213 294 
                                                                                
