 2012  617 1234 25.8 L   6.806 -73.149152.6  RSN  4 0.3 1.5LRSN                1
 GAP=244        0.60       8.5     6.3  7.7  0.3576E+02  0.2817E+01 -0.1272E+02E
 Epicentro: LOS SANTOS - SANTANDER                                             3
 ACTION:UPD 12-08-06 17:50 OP:ep   STATUS:               ID:20120617123425 L   I
 2012-06-17-1230-00M.COL___199                                                 6
 STAT SP IPHASW D HRMM SECON CODA AMPLIT PERI AZIMU VELO AIN AR TRES W  DIS CAZ7
 BAR2 SZ EP   1   1234 46.47                             171    0.22 7 23.9 189 
 BAR2 SZ ES   1   1235  1.87                             171   -0.34 7 23.9 189 
 BAR2 SZ I        1235  3.20         8.1 0.15                          23.9 189 
 RUS  HZ EP   1   1234 50.14                             145   -0.12 7  101 176 
 RUS  HN ES   1   1235  9.75                             145    0.39 7  101 176 
 RUS  HZ I        1235 10.78         3.2 0.31                           101 176 
 PTB  HZ EP   1   1234 53.00                             133   -0.30 7  147 259 
 PTB  HN ES   1   1235 14.57                             133   -0.18 7  147 259 
 PTB  HZ I        1235 17.72         3.6 0.11                           147 259 
 ZAR  HN ES   1   1235 24.62                             124    0.38 6  203 292 
 ZAR  HZ I        1235 30.54         4.2 0.33                           203 292 
                                                                                
