 2017 1117 1054 54.3 L   6.601 -73.742 82.5  RSN  4 0.3 1.3LRSN                1
 GAP=142        0.86       4.4     3.3  8.4 -0.8052E-01  0.1171E+02  0.4081E+00E
 Epicentro: EL CARMEN - SANTANDER                                              3
 ACTION:UPD 17-12-12 19:56 OP:rebc STATUS:               ID:20171117105454 L   I
 OLDACT:UP  17-11-17 22:06 OP:leo  STATUS:               ID:20171117104239     3
 OLDACT:REG 17-11-17 20:31 OP:y    STATUS:               ID:20171117104239     3
 2017-11-17-1048-00M.COL___420                                                 6
 STAT SP IPHASW D HRMM SECON CODA AMPLIT PERI AZIMU VELO AIN AR TRES W  DIS CAZ7
 BAR2 EZ EP       1055  8.62                             140   -0.0510 61.9  91 
 BAR2 EZ ES       1055 20.06                             140    0.1710 61.9  91 
 BAR2 EZ I        1055 21.78        10.6 0.46            142           61.9  91 
 PTB  HZ EP       1055  9.15                             132   -0.7010 79.2 265 
 PTB  HE ES       1055 21.84                             132   -0.1510 79.2 265 
 PTB  HZ I        1055 22.66         2.4 0.10            134           79.2 265 
 ZAR  HZ EP       1055 18.06                             112   -0.08 9  158 309 
 ZAR  HE ES       1055 37.17                             112    0.44 9  158 309 
 ZAR  HZ I        1055 41.23         4.9 0.48            113            158 309 
 NOR  HZ EP       1055 19.73                             111    0.19 9  170 227 
 NOR  HE ES       1055 39.56                             111    0.33 9  170 227 
                                                                                
