 2010  517 1408 53.7 L   7.321 -73.046161.1  RSN 14 0.5 3.9LRSN                1
 GAP=134        1.12       5.2     6.9  6.2 -0.1815E+02  0.3252E+01  0.1248E+02E
 Epicentro: MATANZA - SANTANDER                                                3
 ACTION:UP  10-08-24 10:05 OP:vdl  STATUS:               ID:20100517140853 L   I
 2010-05-17-1407-17S.COL___108                                                 6
 STAT SP IPHASW D HRMM SECON CODA AMPLIT PERI AZIMU VELO AIN AR TRES W  DIS CAZ7
 BRI  SZ IP       14 9 16.19                             162     0.310   52  32 
 BRI  SZ ES       14 9 33.90                             162     0.710   52  32 
 GUE  SZ EP       14 9 16.49                             160     0.110   58  13 
 GUE  SZ ES       14 9 34.24                             160     0.210   58  13 
 GRA  SZ IP       14 9 16.64                             156     0.010   68  23 
 GRA  SZ ES       14 9 34.12                             156    -0.310   68  23 
 BRR  HZ IP     D 14 9 17.65                             153     0.810   77 252 
 BRR  HZ I        14 9 20.17      1101.6 0.15                            77 252 
 BRR  HN ES   1   14 9 34.82                             153    -0.1 7   77 252 
 BAR2 SZ IP       14 9 17.30                             152    -0.210   82 191 
 BAR2 SZ ES   1   14 9 35.04                             152    -1.0 7   82 191 
 OCA  SZ EP       14 9 18.70                             145    -0.210  106 343 
 OCA  SZ ES       14 9 38.14                             145    -0.410  106 343 
 OCA  SZ I        14 9 41.17      2908.0 0.40                           106 343 
 HEL  HZ EP       14 9 38.06                             115     0.1 7  302 246 
 HEL  HN ES   1   1410 12.00                             115    -0.5 5  302 246 
 HEL  HZ I        1410 21.19       301.7 0.30                           302 246 
 CHI  HZ EP   1   14 9 38.92                             115     0.3 5  307 194 
 CHI  HE ES   1   1410 14.46                             115     0.7 5  307 194 
 CHI  HZ I        1410 22.42       268.9 0.43                           307 194 
 ROSC BZ EP   1   14 9 39.62                             115     0.8 5  308 207 
 ROSC BE ES   2   1410 13.07                             115    -0.9 4  308 207 
 ROSC BZ I        1410 24.54       245.2 0.29                           308 207 
 SDV  BZ IP       14 9 38.56                             114    -1.0 7  317  57 
 SDV  BZ I        1410 15.89       192.1 0.52                           317  57 
 DBB  SZ EP   1   14 9 43.12                             111    -0.1 5  351 265 
 RREF BZ EP   1   14 9 45.59                             110    -0.4 5  369 224 
 RREF BE ES   2   1410 26.76                             110     0.0 3  369 224 
 RREF BZ I        1410 39.36       353.3 0.48                           369 224 
 ANIL BZ EP   1   14 9 50.46                             108     0.5 4  407 220 
 ANIL BE ES   2   1410 33.02                             108    -0.7 3  407 220 
 ANIL BZ I        1410 45.72       378.7 0.37                           407 220 
 PRA  HZ EP       14 9 53.93                             106    -0.4 5  448 207 
 PRA  HN ES   2   1410 41.60                             106     0.0 3  448 207 
 PRA  HZ I        1410 49.02       241.6 0.40                           448 207 
                                                                                
