 2017 1217 1753  6.9 L   6.784 -73.193146.3  RSN  8 0.5 1.6LRSN                1
 GAP=135        0.95       4.6     5.4  7.8 -0.1645E+02  0.1706E+02 -0.8442E+01E
 Epicentro: ZAPATOCA - SANTANDER                                               3
 ACTION:UPD 18-01-04 13:21 OP:rebc STATUS:               ID:20171217175306 L   I
 OLDACT:REG 17-12-17 20:47 OP:osc  STATUS:               ID:20171217174742     3
 2017-12-17-1748-00M.COL___472                                                 6
 STAT SP IPHASW D HRMM SECON CODA AMPLIT PERI AZIMU VELO AIN AR TRES W  DIS CAZ7
 BAR2 EZ EP       1753 27.06                             171    0.4710 21.3 177 
 BAR2 EZ ES       1753 42.25                             171    0.3310 21.3 177 
 BAR2 EZ I        1753 45.63         4.7 0.16            173           21.3 177 
 PAM  EZ EP       1753 29.45                             149   -0.0410 82.1  42 
 PAM  EN ES       1753 47.06                             149   -0.0310 82.1  42 
 PTB  HZ EP       1753 33.58                             133    0.13 9  142 259 
 PTB  HN ES       1753 53.99                             133   -0.15 9  142 259 
 PTB  HZ I        1753 57.02         4.1 0.14            136            142 259 
 SPBC HN ES       1753 56.69                             130   -0.27 9  159 218 
 OCA  HZ EP       1753 35.62                             129    0.22 9  161 355 
 OCA  HE ES       1753 57.00                             129   -0.59 9  161 355 
 OCA  HZ I        1753 59.37        13.3 0.58            132            161 355 
 ZAR  HN ES   2   1754  5.69                             123    1.71 4  200 293 
 NOR  HE ES       1754  9.08                             119   -0.50 8  229 234 
 GUY2CHZ EP   3   1753 48.53                             113   -1.44 2  296 234 
 GUY2CHE ES       1754 23.32                             113   -0.22 7  296 234 
                                                                                
