 2010  517 1838 44.9 L   6.762 -73.023145.3  RSN 10 0.5 2.3LRSN                1
 GAP=185        0.93       6.1    11.2  9.9 -0.4179E+02 -0.4961E+01  0.1199E+02E
 Epicentro: CEPITA - SANTANDER                                                 3
 ACTION:UP  10-08-24 10:05 OP:vdl  STATUS:               ID:20100517183844 L   I
 2010-05-17-1833-55S.COL___108                                                 6
 STAT SP IPHASW D HRMM SECON CODA AMPLIT PERI AZIMU VELO AIN AR TRES W  DIS CAZ7
 BAR2 SZ EP       1839  4.10                             169    -0.410   26 223 
 BAR2 SZ ES   2   1839 19.42                             169    -0.4 5   26 223 
 BRR  HZ EP   1   1839  6.85                             148     0.0 7   85 297 
 BRR  HE ES   2   1839 24.30                             148     0.4 5   85 297 
 BRR  HZ I        1839 26.49        29.8 0.15                            85 297 
 BRI  SZ EP   1   1839  8.65                             141    -0.1 7  108  13 
 BRI  SZ ES   2   1839 27.20                             141    -0.1 5  108  13 
 GUE  SZ EP   1   1839  9.14                             139    -0.6 7  119   5 
 GRA  SZ EP       1839 10.88                             137     0.710  126  11 
 GRA  SZ ES   2   1839 30.85                             137     1.0 5  126  11 
 OCA  SZ EP   1   1839 13.41                             128    -0.3 7  167 349 
 OCA  SZ ES   2   1839 35.68                             128    -0.6 5  167 349 
 CHI  HZ EP   2   1839 22.17                             117    -0.4 4  249 198 
 CHI  HN ES   2   1839 52.69                             117     0.8 4  249 198 
 CHI  HZ I        1839 55.44         5.9 0.50                           249 198 
 HEL  HZ EP   2   1839 25.86                             113    -0.6 4  284 257 
 HEL  HZ I        1840  4.85         6.4 0.30                           284 257 
 RREF BZ EP   2   1839 32.76                             110     0.9 3  330 231 
 RREF BN ES   2   1840  9.32                             110     0.8 3  330 231 
 RREF BZ I        1840 15.93        10.7 0.31                           330 231 
 PRA  HZ EP   2   1839 38.43                             106    -0.3 3  395 212 
 PRA  HN ES   2   1840 20.83                             106     0.0 3  395 212 
 PRA  HZ I        1840 25.65        10.9 0.64                           395 212 
                                                                                
