 2011  217 1055  6.4 L   6.806 -73.130144.6  RSN  8 0.3 1.9LRSN                1
 GAP=160        0.74       4.4     7.8  5.8 -0.2018E+02  0.5863E+01  0.2511E+01E
 Epicentro: LOS SANTOS - SANTANDER                                             3
 ACTION:UP  11-03-28 15:09 OP:jfem STATUS:               ID:20110217105506 L   I
 2011-02-17-1052-05S.COL___137                                                 6
 STAT SP IPHASW D HRMM SECON CODA AMPLIT PERI AZIMU VELO SNR AR TRES W  DIS CAZ7
 BAR2 SZ EP       1055 25.78                             170    -0.110   24 194 
 BAR2 SZ ES   1   1055 41.20                             170     0.1 7   24 194 
 BAR2 SZ I        1055 42.51        17.6 0.26                            24 194 
 GIR2 SZ EP       1055 25.85                             167    -0.110   31 347 
 GIR2 SZ ES   1   1055 41.58                             167     0.4 7   31 347 
 RUS  HZ EP       1055 30.14                             143     0.110  101 177 
 RUS  HZ I        1055 49.64         8.5 0.23                           101 177 
 GRA  SZ IP       1055 31.58                             137     0.210  125  17 
 GRA  SZ I        1055 32.71        12.9 0.25                           125  17 
 GRA  SZ ES   1   1055 50.48                             137    -0.5 7  125  17 
 OCA  SZ EP       1055 34.64                             130     0.1 9  160 353 
 OCA  SZ I        1056  2.37        12.3 0.45                           160 353 
 NOR  SZ EP   2   1055 43.04                             118     0.8 4  237 235 
 NOR  SN ES   1   1056  9.53                             118    -0.7 6  237 235 
 CHI  HZ EP       1055 43.92                             117    -0.2 8  250 196 
 CHI  HZ I        1056 20.82         2.8 0.70                           250 196 
 RREF HZ EP   2   1055 53.25                             111     0.6 3  323 229 
 RREF HN ES   2   1056 28.93                             111     0.2 3  323 229 
 RREF HZ I        1056 34.16         4.3 0.30                           323 229 
                                                                                
