 2016  417 1029 33.3 L   6.819 -73.182145.5  RSN 12 0.2 2.2LRSN                1
 GAP= 97        0.59       1.8     1.9  3.4 -0.1094E+01  0.1670E+01  0.2931E+00E
 Epicentro: ZAPATOCA - SANTANDER                                               3
 ACTION:UPD 16-05-05 14:22 OP:rebc STATUS:               ID:20160417102933 L   I
 OLDACT:UP  16-04-18 15:00 OP:drio STATUS:               ID:20160417101749d    3
 OLDACT:DUP 16-04-18 14:49 OP:drio STATUS:               ID:20160417101749d    3
 2016-04-17-1017-48M.COL___300                                                 6
 STAT SP IPHASW D HRMM SECON CODA AMPLIT PERI AZIMU VELO AIN AR TRES W  DIS CAZ7
 BAR2 EZ EP       1029 52.93                             170    0.0110 25.1 180 
 BAR2 EZ ES       1030  8.30                             170    0.0710 25.1 180 
 BAR2 EZ I        1030  9.57        54.2 0.28            170           25.1 180 
 PAM  EZ EP       1029 55.94                             150    0.4110 78.4  43 
 PAM  EN ES       1030 13.07                             150    0.1810 78.4  43 
 PAM  EZ I        1030 15.15        14.6 0.56            154           78.4  43 
 RUS  HZ EP       1029 56.84                             143   -0.3410  103 174 
 RUS  HN ES       1030 15.83                             143    0.0110  103 174 
 RUS  HZ I        1030 17.07        14.5 0.24            148            103 174 
 PTB  HZ EP       1029 59.82                             133   -0.09 9  144 258 
 PTB  HN ES       1030 20.73                             133    0.05 9  144 258 
 PTB  HZ I        1030 27.99        15.9 0.44            132            144 258 
 OCA  HZ EP       1030  1.04                             130   -0.30 9  158 354 
 OCA  HE ES       1030 22.91                             130   -0.31 9  158 354 
 OCA  HZ I        1030 32.93        25.1 0.24            130            158 354 
 TAM  HZ EP       1030  1.52                             130    0.17 9  159 105 
 TAM  HN ES       1030 23.00                             130   -0.24 9  159 105 
 SPBC HZ EP       1030  1.79                             129    0.11 9  162 217 
 SPBC HE ES       1030 24.01                             129    0.18 9  162 217 
 SPBC HZ I        1030 28.86        30.8 0.20            130            162 217 
 ZAR  HZ EP   4   1030  6.38                             123    1.13 0  200 292 
 ZAR  HE ES   4   1030 31.15                             123    0.97 0  200 292 
 ZAR  HZ I        1030 36.21        15.0 0.20            122            200 292 
 NOR  HZ EP       1030  8.87                             119    0.09 8  233 233 
 NOR  HE ES       1030 36.16                             119   -0.31 8  233 233 
 NOR  HZ I        1030 44.81        12.3 0.14            120            233 233 
 CHI  HZ EP       1030 11.15                             117    0.07 8  250 194 
 CHI  HN ES       1030 40.35                             117   -0.20 8  250 194 
 CHI  HZ I        1030 43.97         9.5 0.66            120            250 194 
 HEL  HZ EP       1030 13.64                             115    0.53 8  269 255 
 HEL  HN ES   4   1030 40.78                             115   -3.40 0  269 255 
 HEL  HZ I        1030 53.32         5.0 0.36            116            269 255 
 GUY2CHZ EP   4   1030 18.09                             112    1.44 0  299 234 
 GUY2CHN ES       1030 50.39                             112   -0.08 7  299 234 
 GUY2CHZ I        1030 59.24         8.3 0.36                           299 234 
                                                                                
