 2017  217 1536 37.0 L   6.549 -73.508114.9  RSN 21 0.5 3.1LRSN                1
 GAP= 53        0.92       2.2     2.8  4.5 -0.2261E+00  0.5369E+01  0.1970E+01E
 Epicentro: EL CARMEN - SANTANDER                                              3
 ACTION:UPD 17-05-24 15:37 OP:jn   STATUS:               ID:20170217153637 L   I
 OLDACT:UP  17-02-18 00:20 OP:dani STATUS:               ID:20170217152742     3
 OLDACT:UP  17-02-18 00:18 OP:dani STATUS:               ID:20170217152742     3
 OLDACT:UP  17-02-18 00:17 OP:dani STATUS:               ID:20170217152742     3
 OLDACT:UP  17-02-18 00:16 OP:dani STATUS:               ID:20170217152742     3
 OLDACT:UP  17-02-18 00:16 OP:dani STATUS:               ID:20170217152742     3
 OLDACT:REG 17-02-17 20:42 OP:dani STATUS:               ID:20170217152742     3
 2017-02-17-1528-00M.COL___345                                                 6
 STAT SP IPHASW D HRMM SECON CODA AMPLIT PERI AZIMU VELO AIN AR TRES W  DIS CAZ7
 BAR2 EZ IP     D 1536 53.72                             161    0.3310 36.3  82 
 BAR2 HN ES       1537  6.15                             161    0.0110 36.3  82 
 BRR  HZ EP       1536 54.59                             148    0.0110 65.7 340 
 BRR  HN ES       1537  8.30                             148    0.0410 65.7 340 
 BRR  HZ I        1537  9.90       262.5 0.34            149           65.7 340 
 RUS  HZ IP     D 1536 56.62                             140   -0.1310 86.5 147 
 RUS  HE ES       1537 11.57                             140   -0.5610 86.5 147 
 RUS  HZ I        1537 13.71       178.3 0.48            142           86.5 147 
 PTB  HZ IP   3 D 1536 56.51                             134   -1.10 2  105 269 
 PTB  HN ES   4   1537 11.29                             134   -2.37 0  105 269 
 PTB  HZ I        1537 16.23       261.2 0.24            133            105 269 
 PAM  HZ IP     C 1537  0.17                             129    0.0910  125  46 
 PAM  EN ES       1537 18.23                             129    0.1810  125  46 
 PAM  HZ I        1537 19.53       264.1 0.26            132            125  46 
 ZAR  HZ EP       1537  5.56                             117    0.30 9  182 305 
 ZAR  HE ES   3   1537 28.71                             117    1.43 2  182 305 
 ZAR  HZ I        1537 32.25       213.6 0.26            118            182 305 
 TAM  HZ EP       1537  6.55                             116    0.34 9  190  94 
 TAM  HE ES   3   1537 27.86                             116   -1.10 2  190  94 
 TAM  HZ I        1537 30.59       117.4 0.48            118            190  94 
 ROSC BZ EP   9   1537 10.00                             114    1.25 0  209 205 
 ROSC BN ES       1537 34.22                             114   -0.52 8  209 205 
 ROSC BZ I        1537 43.77       121.9 0.40            114            209 205 
 CHI  HZ EP       1537  9.44                             113    0.17 8  214 187 
 CHI  HN ES       1537 34.19                             113   -0.22 8  214 187 
 CHI  HZ I        1537 39.46        65.6 0.38            114            214 187 
 URE  HZ EP       1537 13.23                             108   -0.82 8  260 301 
 URE  HN ES   3   1537 41.04                             108   -1.89 2  260 301 
 URE  HZ I        1537 50.55        89.3 0.11            109            260 301 
 VIL  EZ EP       1537 15.81                             108    0.44 8  270 184 
 VIL  EN ES       1537 45.57                             108    0.30 8  270 184 
 VIL  EZ I        1537 54.30       131.0 0.38            108            270 184 
 CBOC HZ EP       1537 18.12                             106    0.72 7  287 255 
 CBOC HN ES       1537 48.13                             106   -0.76 7  287 255 
 CBOC HZ I        1537 53.17        56.5 0.38            106            287 255 
 PTGC HZ EP       1537 18.03                             105   -0.79 7  301 150 
 PTGC HN ES   3   1537 50.16                             105   -1.26 2  301 150 
 PTGC HZ I        1537 53.29        91.3 0.24            106            301 150 
 DBB  HZ EP       1537 19.47                             105    0.32 7  303 280 
 DBB  EE ES       1537 52.41                             105    0.42 7  303 280 
 DBB  HZ I        1537 56.47        78.1 0.38            105            303 280 
 PRA  HZ EP       1537 24.38                             102   -0.12 6  349 206 
 PRA  HN ES       1538  1.78                             102    0.26 6  349 206 
 PRA  HZ I        1538  6.53       133.8 0.24            103            349 206 
 ORTC HZ EP       1537 25.08                             102    0.46 6  350 214 
 ORTC HN ES       1538  2.38                             102    0.65 6  350 214 
 ORTC HZ I        1538 10.13        48.8 0.58            103            350 214 
 SJC  HZ EP   9   1537 30.80                              99   -1.47 0  413 334 
 SJC  HN ES       1538 13.16                              99   -0.72 6  413 334 
 SJC  HZ I        1538 16.56        39.5 0.26            100            413 334 
 YOT  HZ EP       1537 32.89                              99   -0.66 5  424 228 
 YOT  HE ES       1538 16.75                              99   -0.88 5  424 228 
 CRJC HZ EP       1537 41.69                              97   -0.97 4  499   8 
 CRJC HE ES       1538 33.06                              97   -0.78 4  499   8 
 CRJC HZ I        1538 43.55        42.9 0.40             98            499   8 
 SMAR HZ EP       1537 45.21                              96    0.59 4  516 351 
 SOTO HZ EP   3   1537 56.62                              94    1.59 1  597 215 
                                                                                
