 2011  417 1549  4.8 L   6.787 -73.098150.0  RSN  4 0.2 1.8LRSN                1
 GAP=168        0.39       5.4     4.2  5.2 -0.1457E+02 -0.2302E+01  0.1162E+02E
 Epicentro: LOS SANTOS - SANTANDER                                             3
 ACTION:UP  11-06-22 15:31 OP:REBC STATUS:               ID:20110417154904 L   I
 2011-04-17-1547-45S.COL___133                                                 6
 STAT SP IPHASW D HRMM SECON CODA AMPLIT PERI AZIMU VELO SNR AR TRES W  DIS CAZ7
 BAR2 SZ EP   1   1549 24.86                             171    -0.1 7   23 203 
 BAR2 SZ ES   2   1549 40.73                             171     0.1 5   23 203 
 BAR2 SZ I        1549 42.79        11.0 0.43                            23 203 
 PAM  SZ EP   1   1549 27.61                             152     0.2 7   75  36 
 PAM  SE ES   1   1549 44.83                             152    -0.1 7   75  36 
 BRR  HZ EP   1   1549 26.70                             151     0.0 7   77 298 
 BRR  HE ES   1   1549 43.79                             151     0.0 7   77 298 
 BRR  HZ I        1549 46.46        11.6 0.41                            77 298 
 NOR  SZ EP   2   1549 40.78                             119    -0.4 4  238 235 
 NOR  SE ES   1   1550  9.67                             119     0.2 6  238 235 
                                                                                
