 2016  917 1206 45.6 L   6.835 -73.302124.7  RSN  5 0.3 1.7LRSN                1
 GAP=210        0.67       5.9     4.4  5.8  0.1015E+02  0.6905E+01  0.4240E+01E
 Epicentro: ZAPATOCA - SANTANDER                                               3
 ACTION:UPD 17-08-17 21:13 OP:lp   STATUS:               ID:20160917120645 L   I
 OLDACT:REG 16-09-17 21:07 OP:dnl  STATUS:               ID:20160917115738     3
 2016-09-17-1158-00M.COL___360                                                 6
 STAT SP IPHASW D HRMM SECON CODA AMPLIT PERI AZIMU VELO AIN AR TRES W  DIS CAZ7
 BAR2 EZ EP     D 12 7  3.12                             166    0.2910 29.9 154 
 BAR2 EZ ES       12 7 16.08                             166   -0.2310 29.9 154 
 BAR2 EZ I        12 7 17.51        21.6 0.28            164           29.9 154 
 BRR  HZ EP       12 7  3.62                             155    0.1310 54.4 304 
 BRR  HN ES       12 7 17.45                             155   -0.0310 54.4 304 
 BRR  HZ I        12 7 19.04        16.7 0.14            153           54.4 304 
 RUS  HZ EP   2   12 7  8.17                             137    0.35 5  107 167 
 RUS  HN ES   2   12 7 25.34                             137    0.16 5  107 167 
 RUS  HZ I        12 7 27.53         4.1 0.26            137            107 167 
 PTB  HZ EP       12 7  8.78                             130   -0.5810  132 256 
 PTB  HN ES       12 7 28.12                             130    0.2010  132 256 
 PTB  HZ I        12 7 31.53         7.0 0.32            129            132 256 
 ZAR  HZ EP   3   12 7 14.45                             120   -0.40 2  187 293 
 ZAR  HN ES   2   12 7 38.14                             120    0.44 4  187 293 
 ZAR  HZ I        12 7 41.59         5.6 0.46            120            187 293 
                                                                                
