 2017  217 1314 20.4 L   6.814 -73.373122.7  RSN  5 0.4 1.6LRSN                1
 GAP=117        1.06       5.1     4.1  8.7  0.4560E+00  0.1293E+02 -0.8601E+01E
 Epicentro: SAN VICENTE DE CHUCURI - SANTANDER                                 3
 ACTION:UPD 17-05-24 15:37 OP:jn   STATUS:               ID:20170217131420 L   I
 OLDACT:UP  17-02-17 23:19 OP:dani STATUS:               ID:20170217130745     3
 OLDACT:UP  17-02-17 23:18 OP:dani STATUS:               ID:20170217130745     3
 OLDACT:UP  17-02-17 23:17 OP:dani STATUS:               ID:20170217130745     3
 OLDACT:UP  17-02-17 23:16 OP:dani STATUS:               ID:20170217130745     3
 OLDACT:REG 17-02-17 20:31 OP:dani STATUS:               ID:20170217130745     3
 2017-02-17-1308-00M.COL___340                                                 6
 STAT SP IPHASW D HRMM SECON CODA AMPLIT PERI AZIMU VELO AIN AR TRES W  DIS CAZ7
 BAR2 EZ EP       1314 37.55                             164    0.0510 32.3 139 
 BAR2 EZ ES       1314 50.59                             164   -0.2610 32.3 139 
 BAR2 EZ I        1314 51.71        26.3 0.28            167           32.3 139 
 PAM  EZ EP       1314 41.45                             140    0.0110 94.4  52 
 PAM  EN ES       1314 57.77                             140   -0.1010 94.4  52 
 PAM  EZ I        1314 59.95         7.2 0.20            143           94.4  52 
 RUS  HZ EP       1314 42.60                             136    0.1510  107 163 
 RUS  HN ES       1315  0.19                             136    0.5210  107 163 
 RUS  HZ I        1315  1.21         1.9 0.40            140            107 163 
 PTB  HZ EP       1314 42.38                             132   -0.8910  124 256 
 PTB  HE ES       1315  0.91                             132   -0.2210  124 256 
 PTB  HZ I        1315  3.15         5.9 0.20            133            124 256 
 ZAR  HZ EP       1314 49.10                             120    0.20 9  180 295 
 ZAR  HE ES       1315 11.82                             120    0.68 9  180 295 
 ZAR  HZ I        1315 14.54         5.5 0.26            122            180 295 
                                                                                
