 2011  517 1223 34.4 L   6.772 -73.068139.5  RSN  6 0.2 1.8LRSN                1
 GAP=165        0.59       4.2     7.3  5.7 -0.3457E+00 -0.2034E+02 -0.1695E+01E
 Epicentro: LOS SANTOS - SANTANDER                                             3
 ACTION:UP  11-06-29 08:54 OP:tino STATUS:               ID:20110517122334 L   I
 2011-05-17-1221-46S.COL___141                                                 6
 STAT SP IPHASW D HRMM SECON CODA AMPLIT PERI AZIMU VELO SNR AR TRES W  DIS CAZ7
 BAR2 SZ EP       1223 53.32                             170     0.110   24 213 
 BAR2 SZ ES   1   1224  7.72                             170    -0.3 7   24 213 
 BAR2 SZ I        1224  9.59        17.9 0.12                            24 213 
 GIR2 SZ EP       1223 53.42                             165     0.010   37 338 
 GIR2 SZ ES   1   1224  8.36                             165     0.0 7   37 338 
 BRR  HZ EP       1223 55.08                             148    -0.310   80 298 
 BRR  HN ES   1   1224 12.15                             148     0.3 7   80 298 
 BRR  HZ I        1224 16.28        15.7 0.28                            80 298 
 RUS  HZ EP       1223 57.43                             143     0.210   97 181 
 BRI  SZ EP       1223 57.89                             140     0.210  109  16 
 GRA  SZ EP       1223 59.04                             135    -0.110  126  13 
 GRA  SZ I        1224  0.42         6.1 0.29                           126  13 
                                                                                
