 2010  617 1244 57.4 L   6.554 -73.507115.9  RSN  9 0.4 1.8LRSN                1
 GAP= 80        0.77       3.6     5.4  7.7 -0.7736E+01  0.1449E+02  0.6150E-01E
 Epicentro: EL CARMEN DE CHUCURI - SANTANDER                                   3
 ACTION:UP  10-08-24 10:11 OP:vdl  STATUS:               ID:20100617124457 L   I
 2010-06-17-1243-02S.COL___115                                                 6
 STAT SP IPHASW D HRMM SECON CODA AMPLIT PERI AZIMU VELO SNR AR TRES W  DIS CAZ7
 BAR2 SZ IP       1245 13.83                             161     0.010   36  83 
 BAR2 SZ ES   2   1245 26.65                             161     0.0 5   36  83 
 BRR  HZ EP   1   1245 14.63                             148    -0.4 7   65 340 
 BRR  HZ I        1245 22.88        29.6 0.11                            65 340 
 BRR  HE ES   2   1245 28.75                             148     0.0 5   65 340 
 RUS  HZ EP   1   1245 16.74                             141    -0.5 7   87 147 
 RUS  HZ I        1245 19.18         9.8 0.14                            87 147 
 RUS  HE ES   2   1245 33.23                             141     0.5 5   87 147 
 BRI  SZ EP   1   1245 23.23                             123     0.6 7  151  31 
 BRI  SZ ES   2   1245 43.24                             123     1.0 5  151  31 
 GUE  SZ EP   1   1245 22.92                             123    -0.3 7  155  24 
 GUE  SZ ES   2   1245 43.01                             123    -0.4 5  155  24 
 GRA  SZ EP   1   1245 24.33                             121     0.1 7  166  28 
 GRA  SZ ES   2   1245 45.04                             121    -0.1 5  166  28 
 CHI  HZ EP   1   1245 30.07                             114     0.3 6  214 187 
 CHI  HN ES   2   1245 54.66                             114    -0.3 4  214 187 
 CHI  HZ I        1246  3.18         5.1 0.50                           214 187 
 HEL  HZ EP   1   1245 30.51                             112    -0.6 6  227 260 
 HEL  HE ES   2   1245 58.11                             112     0.7 4  227 260 
 HEL  HZ I        1246  0.13         7.7 0.27                           227 260 
 TOL  SZ EP   1   1245 39.52                             106     0.5 5  296 223 
 TOL  SZ ES   2   1246 11.81                             106     0.3 4  296 223 
                                                                                
