 2012  917 1238 21.7 L   6.768 -73.150140.8  RSN  9 0.3 2.5LRSN                1
 GAP= 97        0.72       3.6     2.6  4.5  0.8638E+00  0.1616E+01  0.2790E+01E
 Epicentro: LOS SANTOS - SANTANDER                                             3
 ACTION:UPD 12-10-22 14:19 OP:ep   STATUS:               ID:20120917123821 L   I
 2012-09-17-1230-00M.COL___224                                                 6
 STAT SP IPHASW D HRMM SECON CODA AMPLIT PERI AZIMU VELO AIN AR TRES W  DIS CAZ7
 BAR2 SZ IP       1238 40.78                             172    0.0810 19.7 190 
 BAR2 SZ ES       1238 55.48                             172   -0.0110 19.7 190 
 BAR2 SZ I        1238 57.82       121.3 0.21                          19.7 190 
 BRR  HZ IP     C 1238 42.74                             151    0.3110 72.6 301 
 BRR  HZ I        1238 43.21       107.5 0.10                          72.6 301 
 BRR  HN ES       1238 58.96                             151    0.3910 72.6 301 
 PAM  SZ EP       1238 43.73                             149    0.1110 80.5  38 
 PAM  SZ I        1238 44.03        81.9 0.28                          80.5  38 
 PAM  SN ES       1239  0.36                             149   -0.3210 80.5  38 
 RUS  HZ EP       1238 44.69                             144   -0.0510 97.0 176 
 RUS  HE ES   1   1239  2.94                             144    0.25 7 97.0 176 
 PTB  HZ EP       1238 47.67                             131   -0.53 9  147 260 
 PTB  HN ES   1   1239  8.13                             131   -0.71 7  147 260 
 PTB  HZ I        1239 11.40        32.7 0.07                           147 260 
 TAM  HZ EP       1238 48.99                             129    0.01 9  155 104 
 TAM  HE ES   1   1239 10.01                             129   -0.23 7  155 104 
 ZAR  HZ EP   1   1238 54.05                             121    0.09 6  205 293 
 ZAR  HN ES   1   1239 19.14                             121    0.05 6  205 293 
 ZAR  HZ I        1239 25.94        39.2 0.30                           205 293 
 CHI  HZ EP   2   1238 58.78                             116    0.01 4  245 195 
 CHI  HZ I        1239  1.62         6.5 0.39                           245 195 
 CHI  HN ES   2   1239 28.21                             116    0.55 4  245 195 
 HEL  HZ EP   1   1239  2.22                             114    0.67 6  271 257 
 HEL  HE ES   2   1239 31.85                             114   -0.76 4  271 257 
 HEL  HZ I        1239 39.85        16.3 0.40                           271 257 
                                                                                
