 2016  317 1302  7.1 L   6.819 -73.187142.0  RSN  6 0.3 1.5LRSN                1
 GAP=145        0.64       3.1     3.3  4.5 -0.3344E+01  0.4967E+01  0.2036E+01E
 Epicentro: ZAPATOCA - SANTANDER                                               3
 ACTION:UPD 16-05-13 21:25 OP:cam  STATUS:               ID:20160317130207 L   I
 OLDACT:REG 16-03-17 20:56 OP:cara STATUS:               ID:20160317125747     3
 2016-03-17-1257-47M.COL___303                                                 6
 STAT SP IPHASW D HRMM SECON CODA AMPLIT PERI AZIMU VELO AIN AR TRES W  DIS CAZ7
 BAR2 EZ EP       13 2 26.38                             169    0.0910 25.1 179 
 BAR2 EZ ES       13 2 41.25                             169   -0.0310 25.1 179 
 BAR2 EZ I        13 2 42.94         9.8 0.52            171           25.1 179 
 PAM  EZ IP       13 2 29.17                             150    0.2010 78.8  43 
 PAM  EN ES       13 2 46.07                             150    0.0110 78.8  43 
 PAM  EZ I        13 2 48.27        10.0 0.46            153           78.8  43 
 RUS  HZ EP       13 2 30.37                             142   -0.2810  103 174 
 RUS  HN ES       13 2 49.22                             142    0.1910  103 174 
 RUS  HZ I        13 2 49.87         5.7 0.24            146            103 174 
 PTB  HZ EP       13 2 33.09                             132   -0.28 9  144 258 
 PTB  HN ES       13 2 53.67                             132   -0.22 9  144 258 
 PTB  HZ I        13 3  0.86         4.4 0.68            132            144 258 
 CHI  HZ EP       13 2 44.36                             116   -0.31 8  250 194 
 CHI  HZ I        13 2 44.88         2.1 0.18            119            250 194 
 CHI  HN ES       13 3 13.86                             116   -0.13 8  250 194 
 GUY2CHZ EP       13 2 50.64                             112    0.40 7  299 234 
 GUY2CHE ES       13 3 24.52                             112    0.62 7  299 234 
 GUY2CHZ I        13 3 31.25         1.2 0.26                           299 234 
                                                                                
