 2016  117 1306 18.0 L   6.828 -73.218141.0  RSN  5 0.4 1.6LRSN                1
 GAP=144        1.01       3.4     9.9  8.2 -0.2080E+01  0.4475E+02 -0.2246E+01E
 Epicentro: ZAPATOCA - SANTANDER                                               3
 ACTION:UPD 16-03-09 23:26 OP:cam  STATUS:               ID:20160117130618 L   I
 OLDACT:REG 16-01-17 20:01 OP:drio STATUS:               ID:20160117125750     3
 2016-01-17-1257-50M.COL___325                                                 6
 STAT SP IPHASW D HRMM SECON CODA AMPLIT PERI AZIMU VELO AIN AR TRES W  DIS CAZ7
 BAR2 EZ EP       13 6 37.18                             169    0.0510 26.3 171 
 BAR2 EZ ES       13 6 52.51                             169    0.4610 26.3 171 
 BAR2 EZ I        13 6 53.31         4.8 0.48            168           26.3 171 
 PAM  EZ EP       13 6 40.10                             149    0.1910 80.5  45 
 PAM  EE ES       13 6 57.16                             149    0.1610 80.5  45 
 PAM  EZ I        13 6 59.12        12.3 0.48            153           80.5  45 
 RUS  HZ EP       13 6 41.24                             142   -0.3410  104 172 
 RUS  HE ES       13 6 59.15                             142   -0.8210  104 172 
 RUS  HZ I        13 7  1.20         4.3 0.34            143            104 172 
 SML  HZ EP       13 6 53.51                             117   -0.20 8  238 337 
 SML  HE ES       13 7 21.30                             117   -0.26 8  238 337 
 SML  HZ I        13 7 26.61         5.3 0.10            117            238 337 
 CHI  HZ EP       13 6 56.08                             116    0.53 8  250 193 
 CHI  HN ES       13 7 25.26                             116    0.42 8  250 193 
 CHI  HZ I        13 7 32.03         1.5 0.26            117            250 193 
                                                                                
