 2014 1017 1639 22.6 L   6.717 -73.179149.6  RSN  5 0.4 1.7LRSN                1
 GAP=235        0.77       6.6     6.2  8.7  0.2635E+01  0.6410E+01 -0.3341E+01E
 Epicentro: VILLANUEVA - SANTANDER                                             3
 ACTION:UPD 14-11-29 23:50 OP:nd   STATUS:               ID:20141017163922 L   I
 OLDACT:REG 14-10-17 21:06 OP:fm   STATUS:               ID:20141017163749     3
 2014-10-17-1637-49M.COL___271                                                 6
 STAT SP IPHASW D HRMM SECON CODA AMPLIT PERI AZIMU VELO AIN AR TRES W  DIS CAZ7
 BAR2 SZ EP       1639 42.51                             175   -0.0110 13.8 182 
 BAR2 SZ ES   1   1639 57.58                             175   -0.49 7 13.8 182 
 BAR2 SZ I        1639 58.89         9.5 0.28            169           13.8 182 
 BRR  HZ EP       1639 44.59                             152    0.3410 73.0 306 
 BRR  HN ES   1   1640  1.54                             152    0.40 7 73.0 306 
 BRR  HZ I        1640  4.56        11.4 0.56            148           73.0 306 
 PTB  HZ EP   1   1639 48.82                             134   -0.59 7  143 262 
 PTB  HN ES   1   1640 10.18                             134   -0.16 7  143 262 
 PTB  HZ I        1640 15.50         3.1 0.42            131            143 262 
 SPBC HN ES   1   1640 12.70                             132    0.41 7  154 220 
 SPBC HZ I        1640 16.38         6.6 0.10            131            154 220 
 ZAR  HE ES   1   1640 20.58                             123   -0.26 6  204 295 
 ZAR  HZ I        1640 26.12         7.4 0.42            122            204 295 
                                                                                
