 2017  117 1621 51.2 L   6.810 -73.152145.6  RSN  4 0.1 1.2LRSN                1
 GAP=135        0.46       2.5     2.9  4.3  0.4949E+00  0.3221E+01 -0.7217E+00E
 Epicentro: LOS SANTOS - SANTANDER                                             3
 ACTION:UPD 17-05-22 16:00 OP:jn   STATUS:               ID:20170117162151 L   I
 OLDACT:REG 17-01-17 20:56 OP:cog  STATUS:               ID:20170117161747     3
 2017-01-17-1618-00M.COL___338                                                 6
 STAT SP IPHASW D HRMM SECON CODA AMPLIT PERI AZIMU VELO AIN AR TRES W  DIS CAZ7
 BAR2 EZ EP       1622 10.55                             170   -0.2810 24.3 188 
 BAR2 EZ ES       1622 25.99                             170   -0.1510 24.3 188 
 BAR2 EZ I        1622 27.07         5.7 0.24            170           24.3 188 
 PAM  EZ EP       1622 13.40                             151    0.0210 77.0  40 
 PAM  EE ES       1622 30.78                             151    0.1110 77.0  40 
 PAM  EZ I        1622 31.82         1.5 0.22            152           77.0  40 
 RUS  HZ EP       1622 15.09                             143    0.0710  102 176 
 RUS  HN ES       1622 33.75                             143    0.1610  102 176 
 RUS  HZ I        1622 35.36         3.3 0.22            144            102 176 
 ZAR  HE ES       1622 48.83                             122    0.09 9  203 292 
                                                                                
