 2010 1117 1028 40.8 L   6.784 -73.053145.1  RSN  4 0.3 1.6LRSN                1
 GAP=192        0.76       6.4    13.1 10.1  0.5589E+02 -0.7847E+02 -0.4433E+02E
 Epicentro: LOS SANTOS - SANTANDER                                             3
 ACTION:UP  10-12-17 16:53 OP:REBC STATUS:               ID:20101117102840 L   I
 2010-11-17-1024-58S.COL___127                                                 6
 STAT SP IPHASW D HRMM SECON CODA AMPLIT PERI AZIMU VELO SNR AR TRES W  DIS CAZ7
 BAR2 SZ EP       1029  0.41                             169     0.110   26 214 
 BAR2 SZ ES   1   1029 15.06                             169    -0.6 7   26 214 
 BAR2 SZ I        1029 15.87        11.2 0.52                            26 214 
 BRR  HZ EP       1029  2.39                             148     0.010   81 296 
 BRR  HZ I        1029  5.89        10.5 0.39                            81 296 
 BRR  HN ES       1029 19.39                             148     0.110   81 296 
 RUS  HN ES       1029 22.85                             144     0.210   99 182 
 RUS  HZ I        1029 23.98         3.0 0.23                            99 182 
 OCA  SZ EP       1029  9.16                             129    -0.2 9  164 350 
 OCA  SZ ES   2   1029 32.27                             129     0.7 5  164 350 
 OCA  SZ I        1029 38.43         6.3 0.73                           164 350 
                                                                                
