 2017  917 1238 12.1 L   6.673 -73.379120.3  RSN  4 0.3 1.4LRSN                1
 GAP=150        0.61       6.3     7.8  7.4  0.4181E+02  0.3216E+02  0.1746E+02E
 Epicentro: GALAN - SANTANDER                                                  3
 ACTION:UPD 17-10-05 19:13 OP:rebc STATUS:               ID:20170917123812 L   I
 OLDACT:REG 17-09-17 21:00 OP:dnl  STATUS:               ID:20170917122739     3
 2017-09-17-1228-00M.COL___409                                                 6
 STAT SP IPHASW D HRMM SECON CODA AMPLIT PERI AZIMU VELO AIN AR TRES W  DIS CAZ7
 BAR2 EZ EP   2   1238 28.07                             168   -0.64 5 23.6 112 
 BAR2 EZ ES       1238 41.94                             168    0.2910 23.6 112 
 BAR2 EZ I        1238 43.03        17.1 0.22            168           23.6 112 
 BRR  HZ EP       1238 30.13                             151    0.2110 60.4 323 
 BRR  HN ES       1238 43.53                             151   -0.2710 60.4 323 
 BRR  HZ I        1238 44.55         6.6 0.54            151           60.4 323 
 RUS  HZ EP   2   1238 32.89                             140    0.07 5 92.4 159 
 RUS  HN ES       1238 48.82                             140   -0.1310 92.4 159 
 RUS  HZ I        1238 52.00         2.7 0.26            139           92.4 159 
 ZAR  HZ EP   4   1238 39.29                             118   -1.89 0  187 299 
 ZAR  HE ES       1239  3.90                             118    0.06 9  187 299 
 ZAR  HZ I        1239  7.47         3.5 0.24            119            187 299 
                                                                                
