 2013  517 1744 44.3 L   6.744 -73.225157.8  RSN  4 0.3 1.3LRSN                1
 GAP=218        0.70       7.8     7.5  9.2  0.2886E+02 -0.9786E+01 -0.5591E+01E
 Epicentro: VILLANUEVA - SANTANDER                                             3
 ACTION:UPD 13-06-20 09:51 OP:ep   STATUS:               ID:20130517174444 L   I
 2013-05-17-1740-00M.COL___256                                                 6
 STAT SP IPHASW D HRMM SECON CODA AMPLIT PERI AZIMU VELO AIN AR TRES W  DIS CAZ7
 BAR2 SZ EP   1   1745  4.57                             173   -0.68 7 17.4 164 
 BAR2 SZ I        1745 21.40         4.3 0.34            173           17.4 164 
 BRR  HZ EP   1   1745  6.81                             156    0.29 7 67.1 307 
 BRR  HN ES   1   1745 24.01                             156    0.13 7 67.1 307 
 RUS  HZ EP   1   1745  8.93                             148    0.05 7 95.4 171 
 RUS  HN ES   1   1745 28.29                             148    0.21 7 95.4 171 
 RUS  HZ I        1745 32.59         1.3 0.24            147           95.4 171 
 PTB  HZ EP   1   1745 11.73                             137    0.32 7  138 261 
 PTB  HN ES   1   1745 32.27                             137   -0.31 7  138 261 
 PTB  HZ I        1745 40.15         3.8 0.40            137            138 261 
                                                                                
