 2013  417 1234 60.0 L   6.700 -73.218145.7  RSN  4 0.3 1.6LRSN                1
 GAP=212        0.90       7.0     6.6  7.3  0.2241E+02  0.6600E+01  0.2856E+01E
 Epicentro: VILLANUEVA - SANTANDER                                             3
 ACTION:UPD 13-05-22 14:39 OP:EP   STATUS:               ID:20130417123460 L   I
 2013-04-17-1228-51M.COL___215                                                 6
 STAT SP IPHASW D HRMM SECON CODA AMPLIT PERI AZIMU VELO AIN AR TRES W  DIS CAZ7
 BAR2 SZ EP       1235 19.24                             175   -0.1910 12.5 162 
 BAR2 SZ I        1235 19.54        11.0 0.36            169           12.5 162 
 BAR2 SZ ES       1235 34.02                             175   -0.5810 12.5 162 
 BRR  HZ EP       1235 21.12                             153    0.0210 70.8 310 
 BRR  HN ES       1235 38.10                             153    0.5310 70.8 310 
 RUS  HZ EP       1235 23.32                             147    0.3010 90.5 171 
 RUS  HN ES       1235 41.27                             147    0.2810 90.5 171 
 RUS  HN I        1235 42.90         4.1 0.18            144           90.5 171 
 PTB  HZ EP       1235 25.80                             134   -0.28 9  138 263 
 PTB  HN ES       1235 46.33                             134   -0.11 9  138 263 
 PTB  HN I        1235 52.25         5.3 0.24            131            138 263 
                                                                                
