 2017  717 1129 41.5 L   6.520 -73.468112.4  RSN  6 0.3 1.1LRSN                1
 GAP= 98        1.72      11.0    12.1 13.0  0.3594E+02  0.5192E+02  0.3481E+02E
 Epicentro: SIMACOTA - SANTANDER                                               3
 ACTION:UPD 17-08-30 15:34 OP:rebc STATUS:               ID:20170717112941 L   I
 OLDACT:REG 17-07-17 20:53 OP:lv   STATUS:               ID:20170717112746     3
 2017-07-17-1128-00M.COL___377                                                 6
 STAT SP IPHASW D HRMM SECON CODA AMPLIT PERI AZIMU VELO AIN AR TRES W  DIS CAZ7
 BAR2 EZ EP       1129 57.24                             158   -0.1910 32.6  76 
 BAR2 EZ ES       1130  9.61                             158   -0.2510 32.6  76 
 BAR2 EZ I        1130 12.19         4.1 0.35            157           32.6  76 
 BRR  HZ EP       1129 59.06                             142   -0.0510 70.3 337 
 BRR  HN ES       1130 13.03                             142    0.1910 70.3 337 
 RUS  HZ EP   9   1129 59.21                             139   -1.39 0 81.4 148 
 RUS  HN ES       1130 13.03                                   -1.0710 81.4 148 
 PTB  HZ EP   9   1129 58.55                             130   -3.72 0  109 271 
 PTB  HN ES       1130 13.31                                   -1.4410  109 271 
 SPBC HZ EP       1130  3.48                             128    0.4110  117 215 
 ZAR  HE ES   2   1130 32.09                             113   -0.48 4  188 305 
                                                                                
