 2014  817 1005 22.7 L   6.825 -73.144147.0  RSN 11 0.4 1.9LRSN                1
 GAP=201        0.84       3.1     4.4  4.8  0.2871E+01  0.5045E+01  0.6553E-01E
 Epicentro: LOS SANTOS - SANTANDER                                             3
 ACTION:UPD 14-09-15 21:50 OP:nd   STATUS:               ID:20140817100522 L   I
 OLDACT:UP  14-08-17 20:58 OP:cam  STATUS:               ID:20140817100000     3
 OLDACT:REG 14-08-17 19:50 OP:cam  STATUS:               ID:20140817100000     3
 2014-08-17-1000-00M.COL___285                                                 6
 STAT SP IPHASW D HRMM SECON CODA AMPLIT PERI AZIMU VELO AIN AR TRES W  DIS CAZ7
 BAR2 SZ EP       10 5 42.33                             169   -0.2510 26.0 189 
 BAR2 SZ ES       10 5 57.64                             169   -0.4010 26.0 189 
 BAR2 SZ I        10 6  0.07        15.1 0.30            170           26.0 189 
 BRR  HZ EP       10 5 44.23                             153    0.2710 70.1 297 
 BRR  HN ES       10 6  1.23                             153    0.7210 70.1 297 
 BRR  HZ I        10 6  6.07         8.9 0.22            142           70.1 297 
 RUS  HZ EP       10 5 46.79                             143   -0.0210  103 176 
 RUS  HE ES       10 6  5.80                             143    0.2210  103 176 
 RUS  HZ I        10 6  6.18         6.5 0.40            138            103 176 
 PTB  HZ EP     C 10 5 49.37                             132   -0.51 9  148 258 
 PTB  HN ES       10 6 10.73                             132   -0.31 9  148 258 
 PTB  HZ I        10 6 17.55         9.0 0.38            123            148 258 
 ZAR  HZ EP       10 5 55.08                             123   -0.10 9  203 291 
 ZAR  HN ES       10 6 20.49                             123    0.01 9  203 291 
 ZAR  HZ I        10 6 27.68         5.3 0.42            113            203 291 
 NOR  HZ EP   1   10 5 58.06                             119   -0.67 6  236 234 
 NOR  HN ES       10 6 26.78                             119   -0.02 8  236 234 
 NOR  HZ I        10 6 30.06         6.6 0.36            111            236 234 
 SML  HZ EP       10 5 59.34                             118    0.16 8  241 335 
 SML  HE ES       10 6 27.28                             118   -0.32 8  241 335 
 SML  HZ I        10 6 30.76        19.0 0.10            109            241 335 
 HEL  HZ EP   1   10 6  3.71                             115    0.60 6  273 255 
 HEL  HZ I        10 6 41.09         3.0 0.34            107            273 255 
 GUY2CHZ EP       10 6  7.06                             112    0.46 7  303 234 
 GUY2CHZ I        10 6 49.24         6.2 0.76                           303 234 
 PRA  HZ EP       10 6 16.97                             107    0.38 6  394 209 
 PRA  HE ES       10 6 58.70                             107    0.10 6  394 209 
 PRA  HZ I        10 7  4.66         2.8 0.22            100            394 209 
 SJC  HZ EP   4   10 6 16.68                             106   -1.41 0  407 327 
 SJC  HZ I        10 7  3.16         1.7 0.26             99            407 327 
                                                                                
