 2012  717 1833 28.5 L   7.571 -73.650 92.0  RSN  8 0.4 1.8LRSN                1
 GAP= 99        0.91       3.3     3.7  8.2 -0.1887E+01  0.4859E+01 -0.4835E+01E
 Epicentro: SABANA DE TORRES - SANTANDER                                       3
 ACTION:UPD 12-08-14 11:45 OP:ep   STATUS:               ID:20120717183328 L   I
 2012-07-17-1830-00M.COL___196                                                 6
 STAT SP IPHASW D HRMM SECON CODA AMPLIT PERI AZIMU VELO AIN AR TRES W  DIS CAZ7
 BRR  HZ IP     D 1833 42.66                             148    -0.110   52 188 
 BRR  HN ES   1   1833 54.07                             148     0.2 7   52 188 
 OCA  HZ EP   1   1833 45.08                             135    -0.2 7   82  26 
 OCA  HN ES   1   1833 57.96                             135    -0.5 7   82  26 
 OCA  HZ I        1833 59.12        46.4 0.22            139             82  26 
 PAM  SZ EP   1   1833 47.62                             127    -0.5 7  108 104 
 PAM  SN ES   1   1834  3.95                             127     0.5 7  108 104 
 BAR2 SZ EP   1   1833 48.80                             124    -0.2 7  120 154 
 BAR2 SZ ES   1   1834  5.22                             124     0.2 7  120 154 
 BAR2 SZ I        1834  5.98        16.4 0.12            126            120 154 
 ZAR  HZ EP   1   1833 50.21                             120     0.1 7  134 266 
 ZAR  HZ I        1833 50.76        10.0 0.11            121            134 266 
 ZAR  HN ES   1   1834  7.50                             120     0.4 7  134 266 
 PTB  HZ EP   1   1833 50.63                             118    -0.7 7  145 218 
 PTB  HN ES   1   1834  9.03                             118    -0.2 7  145 218 
 PTB  HZ I        1834 13.97         5.9 0.27            119            145 218 
 RUS  HZ EP   1   1833 58.47                             111     0.7 6  196 161 
 COD  HZ EP   1   1834  5.00                             105     0.1 6  262   5 
 COD  HN ES   1   1834 34.18                             105     0.8 6  262   5 
