 2011  917 1957 28.4 L   6.938 -73.081157.2  RSN 13 0.3 2.5LRSN                1
 GAP=137        0.45       2.8     3.7  4.6 -0.1450E+01  0.5457E+01  0.2740E+01E
 Epicentro: PIEDECUESTA - SANTANDER                                            3
 ACTION:UPD 12-07-13 15:58 OP:ep   STATUS:               ID:20110917195728 L   I
 2011-09-17-1953-08S.COL___170                                                 6
 STAT SP IPHASW D HRMM SECON CODA AMPLIT PERI AZIMU VELO AIN AR TRES W  DIS CAZ7
 GIR2 SZ EP   1   1957 49.63                             172    0.44 7 19.9 321 
 GIR2 SZ ES   2   1958  5.40                             172   -0.02 5 19.9 321 
 BTL  SZ EP   2   1957 49.77                             172    0.42 5 20.7 264 
 PAM  SN ES   2   1958  8.85                             158    0.20 5 61.2  44 
 BRR  HZ EP   2   1957 50.08                             154   -0.76 5 72.2 285 
 BRR  HZ I        1957 52.40         9.8 0.06                          72.2 285 
 BRR  HE ES   2   1958  8.35                             154    0.00 5 72.2 285 
 RUS  HZ EP   1   1957 54.11                             142   -0.25 7  116 180 
 RUS  HN ES   2   1958 14.05                             142   -0.57 5  116 180 
 RUS  HZ I        1958 14.65        32.0 0.39                           116 180 
 ZAR  HZ EP   2   1958  1.80                             125    0.04 4  206 287 
 ZAR  HN ES   2   1958 28.08                             125    0.29 4  206 287 
 ZAR  HZ I        1958 32.42        57.3 0.56                           206 287 
 NOR  SZ EP   2   1958  6.36                             119   -0.02 4  250 233 
 NOR  SN ES   2   1958 35.91                             119   -0.10 4  250 233 
 CHI  HZ EP   2   1958  8.61                             118    0.08 4  265 196 
 CHI  HE ES   2   1958 40.49                             118    0.64 4  265 196 
 CHI  HZ I        1958 46.53        12.9 0.66                           265 196 
 HEL  HZ EP   2   1958 10.11                             116   -0.30 4  283 253 
 HEL  HN ES   2   1958 42.95                             116   -0.24 4  283 253 
 HEL  HZ I        1958 49.09        25.0 0.40                           283 253 
 GUY  SZ EP   2   1958 14.70                             113    0.24 3  318 234 
 GUY  SN ES   2   1958 50.43                             113    0.04 3  318 234 
 GUY  SZ I        1959  1.23        34.3 0.44                           318 234 
 COD  HZ EP   2   1958 15.30                             112   -0.30 3  334 353 
 COD  HN ES   2   1958 51.99                             112   -0.43 3  334 353 
 COD  HZ I        1959  5.78        17.3 1.25                           334 353 
 RREF HZ EP   2   1958 17.15                             112    0.35 3  337 228 
 RREF HN ES   2   1958 54.57                             112    0.02 3  337 228 
 RREF HZ I        1959  4.91        13.7 0.50                           337 228 
 PRA  HZ EP   2   1958 24.67                             107    0.39 3  409 209 
 PRA  HN ES   2   1959  7.47                             107   -0.41 3  409 209 
                                                                                
