 2011  317 1826 59.2 L   6.774 -73.145144.0  RSN  5 0.3 1.7LRSN                1
 GAP=183        0.70       5.4     7.9  6.5 -0.1261E+02  0.1849E+02 -0.5916E+01E
 Epicentro: LOS SANTOS - SANTANDER                                             3
 ACTION:UP  11-06-16 14:34 OP:jfem STATUS:               ID:20110317182659 L   I
 2011-03-17-1825-08S.COL___135                                                 6
 STAT SP IPHASW D HRMM SECON CODA AMPLIT PERI AZIMU VELO SNR AR TRES W  DIS CAZ7
 BAR2 SZ EP       1827 18.58                             172     0.110   21 192 
 BAR2 SZ ES   1   1827 33.47                             172    -0.2 7   21 192 
 BAR2 SZ I        1827 34.87        12.3 0.19                            21 192 
 BTL  SZ EP   1   1827 18.89                             171     0.4 7   21 320 
 BTL  SZ ES   1   1827 33.92                             171     0.3 7   21 320 
 RUS  HZ EP   1   1827 22.61                             144     0.1 7   98 176 
 RUS  HN ES   1   1827 40.46                             144    -0.3 7   98 176 
 RUS  HZ I        1827 41.85         9.1 0.27                            98 176 
 OCA  SZ EP   1   1827 27.00                             129    -0.6 7  163 353 
 NOR  SZ EP   1   1827 35.09                             118     0.5 6  233 235 
 NOR  SN ES   1   1828  1.96                             118    -0.3 6  233 235 
                                                                                
