 2015  617 1921 37.2 L   6.859 -73.070154.8  RSN  5 0.4 1.5LRSN                1
 GAP=208        0.93       7.9     9.9  8.3  0.5579E+02 -0.1130E+02 -0.1359E+02E
 Epicentro: LOS SANTOS - SANTANDER                                             3
 ACTION:UPD 15-09-10 22:13 OP:cam  STATUS:               ID:20150617192137 L   I
 OLDACT:REG 15-06-17 21:47 OP:stll STATUS:               ID:20150617191749     3
 2015-06-17-1917-49M.COL___312                                                 6
 STAT SP IPHASW D HRMM SECON CODA AMPLIT PERI AZIMU VELO AIN AR TRES W  DIS CAZ7
 BAR2 EZ EP       1921 58.02                             168   -0.0810 32.0 203 
 BAR2 EZ I        1921 58.45         6.1 0.32            160           32.0 203 
 BAR2 EZ ES       1922 13.97                             168   -0.4410 32.0 203 
 BRR  HZ EP       1922  0.15                             152    0.5610 76.1 291 
 BRR  HE ES       1922 17.58                             152    0.5210 76.1 291 
 RUS  HZ EP       1922  2.20                             144   -0.0810  107 181 
 RUS  HZ I        1922  2.88         3.8 0.42            139            107 181 
 ZAR  HZ EP   2   1922 10.68                             123   -0.11 4  210 290 
 ZAR  HN ES       1922 36.64                             123   -0.37 8  210 290 
 ZAR  HZ I        1922 42.38         4.2 0.28            120            210 290 
 SML  HN ES       1922 42.56                             119   -0.34 8  242 333 
                                                                                
