 2015  817 1002 35.1 L   6.819 -73.132150.0  RSN  8 0.2 1.7LRSN                1
 GAP=200        0.56       2.1     4.0  4.2 -0.5251E+00  0.8261E+00 -0.1148E+01E
 Epicentro: LOS SANTOS - SANTANDER                                             3
 ACTION:UPD 15-09-15 23:02 OP:cam  STATUS:               ID:20150817100235 L   I
 OLDACT:REG 15-08-17 20:58 OP:spq  STATUS:               ID:20150817095738     3
 2015-08-17-0957-38M.COL___307                                                 6
 STAT SP IPHASW D HRMM SECON CODA AMPLIT PERI AZIMU VELO AIN AR TRES W  DIS CAZ7
 BAR2 EZ EP       10 2 55.02                             170   -0.2210 25.7 192 
 BAR2 EZ ES   1   10 3 10.91                             170   -0.08 7 25.7 192 
 BAR2 EZ I        10 3 12.76         5.4 0.44            169           25.7 192 
 BRR  HZ EP       10 2 57.07                             153    0.3910 71.5 296 
 BRR  HE ES       10 3 13.74                             153    0.1910 71.5 296 
 BRR  HZ I        10 3 15.50         7.0 0.32            151           71.5 296 
 OCA  HZ EP   1   10 3  3.84                             131    0.32 7  158 353 
 OCA  HN ES       10 3 25.44                             131   -0.28 9  158 353 
 OCA  HZ I        10 3 30.60         7.7 0.26            133            158 353 
 SPBC HZ EP       10 3  3.99                             130   -0.13 9  166 219 
 SPBC HE ES       10 3 26.88                             130    0.08 9  166 219 
 SPBC HZ I        10 3 32.57         7.7 0.12            130            166 219 
 ZAR  HZ EP       10 3  7.74                             123   -0.10 9  205 291 
 ZAR  HE ES       10 3 33.15                             123   -0.26 9  205 291 
 ZAR  HZ I        10 3 38.69         4.5 0.38            124            205 291 
 SML  HZ EP       10 3 11.74                             118   -0.04 8  242 335 
 SML  HE ES       10 3 40.60                             118    0.17 8  242 335 
 SML  HZ I        10 3 41.95         5.5 0.10            120            242 335 
 GUY2CHE ES   4   10 3 56.24                             113    2.72 0  304 235 
 GUY2CHZ I        10 4  1.87         2.9 0.70                           304 235 
 SJC  HZ EP   4   10 3 29.23                             106   -1.42 0  408 327 
 SJC  HE ES   4   10 4 11.77                             106   -2.24 0  408 327 
 SJC  HZ I        10 4 14.83         0.8 0.39            108            408 327 
                                                                                
