 2013  617 1948 45.1 L   6.763 -73.168154.0  RSN  5 0.2 1.9LRSN                1
 GAP=179        0.51       3.9     3.7  5.7  0.7004E+01 -0.3382E+01 -0.6382E+01E
 Epicentro: LOS SANTOS - SANTANDER                                             3
 ACTION:UPD 14-01-08 09:55 OP:ep   STATUS:               ID:20130617194845 L   I
 OLDACT:UP  13-06-17 18:17 OP:cam  STATUS:               ID:20130617193959     3
 OLDACT:REG 13-06-17 17:41 OP:cam  STATUS:               ID:20130617193959     3
 2013-06-17-1939-59M.COL___261                                                 6
 STAT SP IPHASW D HRMM SECON CODA AMPLIT PERI AZIMU VELO AIN AR TRES W  DIS CAZ7
 GIR2 SZ EP       1949  5.55                             167   -0.3110 35.0 355 
 BRR  HZ EP       1949  7.46                             154    0.3210 71.2 302 
 BRR  HE ES   1   1949 24.36                             154    0.02 7 71.2 302 
 BRR  HZ I        1949 29.14        20.7 0.32            152           71.2 302 
 RUS  HZ EP       1949  9.44                             146    0.0310 96.7 174 
 RUS  HE ES       1949 28.43                             146    0.0710 96.7 174 
 RUS  HZ I        1949 31.22         6.8 0.30            150           96.7 174 
 PTB  HZ EP       1949 12.41                             134   -0.07 9  145 260 
 PTB  HN ES       1949 33.69                             134   -0.14 9  145 260 
 PTB  HZ I        1949 40.60        20.5 0.40            135            145 260 
 ZAR  HE ES   1   1949 43.87                             124    0.16 6  203 293 
 ZAR  HZ I        1949 49.70         6.2 0.24            126            203 293 
                                                                                
