 2017  417 1909 18.4 L   6.803 -73.162146.1  RSN 13 0.4 2.5LRSN                1
 GAP=110        0.99       3.2     3.3  5.4 -0.1902E+00  0.3923E+01  0.3476E+01E
 Epicentro: LOS SANTOS - SANTANDER                                             3
 ACTION:UPD 17-05-30 21:13 OP:jn   STATUS:               ID:20170417190918 L   I
 OLDACT:UP  17-04-17 23:38 OP:cog  STATUS:               ID:20170417190230     3
 OLDACT:REG 17-04-17 21:33 OP:cog  STATUS:               ID:20170417190230     3
 2017-04-17-1908-00M.COL___374                                                 6
 STAT SP IPHASW D HRMM SECON CODA AMPLIT PERI AZIMU VELO AIN AR TRES W  DIS CAZ7
 BAR2 EZ EP       19 9 37.85                             171   -0.2610 23.4 185 
 BAR2 EZ ES       19 9 53.08                             171   -0.3810 23.4 185 
 BAR2 EZ I        19 9 54.56       113.4 0.16            170           23.4 185 
 BRR  HZ IP     C 19 9 39.57                             153    0.0510 69.4 299 
 BRR  HN ES       19 9 56.78                             153    0.8110 69.4 299 
 BRR  HZ I        1910  0.73        69.5 0.42            153           69.4 299 
 PAM  EZ EP       19 9 40.72                             150   -0.0210 78.3  41 
 PAM  EE ES       19 9 58.12                             150   -0.0310 78.3  41 
 PAM  EZ I        1910  0.10        99.1 0.52            154           78.3  41 
 RUS  HZ EP       19 9 41.83                             144   -0.4310  101 175 
 RUS  HN ES       1910  0.80                             144   -0.0410  101 175 
 RUS  HZ I        1910  1.66        20.4 0.30            146            101 175 
 PTB  HZ EP       19 9 45.01                             132   -0.27 9  146 259 
 PTB  HN ES       1910  5.47                             132   -0.74 9  146 259 
 PTB  HZ I        1910 11.36        21.2 0.35            134            146 259 
 SPBC HZ EP       19 9 46.78                             129   -0.10 9  162 218 
 SPBC HE ES       1910  9.75                             129    0.68 9  162 218 
 SPBC HZ I        1910 13.71        52.4 0.24            131            162 218 
 YPLC HZ IP     D 19 9 48.31                             126   -0.06 9  178 151 
 YPLC HN ES       1910 12.28                             126    0.55 9  178 151 
 YPLC HZ I        1910 13.26        19.2 0.30            129            178 151 
 ZAR  HZ EP       19 9 51.15                             123    0.44 9  202 292 
 ZAR  HN ES   3   1910 14.90                             123   -0.99 2  202 292 
 NOR  HZ EP       19 9 54.45                             119    0.40 8  233 234 
 NOR  HN ES       1910 21.50                             119   -0.32 8  233 234 
 CHI  HZ EP       19 9 56.22                             117    0.08 8  249 195 
 CHI  HN ES       1910 25.39                             117   -0.16 8  249 195 
 CHI  HZ I        1910 28.89        19.5 0.54            119            249 195 
 ROSC BN ES       1910 26.37                             117    0.17 8  252 211 
 HEL  HZ EP   4   1910  0.64                             115    2.16 0  270 256 
 HEL  HN ES       1910 29.60                             115   -0.11 8  270 256 
 PTGC HZ EP   9   1910  1.12                             111   -1.30 0  310 158 
 PTGC HN ES       1910 34.63                             112   -0.80 7  310 158 
                                                                                
