 2011 1017 1741 39.8 L   6.771 -73.119148.3  RSN 11 0.3 2.7LRSN                1
 GAP=141        0.43       2.6     3.0  4.5 -0.1993E+01  0.4126E+01  0.1390E+01E
 Epicentro: LOS SANTOS - SANTANDER                                             3
 ACTION:UPD 12-07-13 16:04 OP:ep   STATUS:               ID:20111017174139 L   I
 2011-10-17-1738-22S.COL___167                                                 6
 STAT SP IPHASW D HRMM SECON CODA AMPLIT PERI AZIMU VELO AIN AR TRES W  DIS CAZ7
 BAR2 SZ IP       1741 59.69                             172   -0.0110 20.9 199 
 BAR2 SZ ES   2   1742 14.65                             172   -0.57 5 20.9 199 
 BAR2 SZ I        1742 17.40       107.8 0.29                          20.9 199 
 BRR  HZ IP     C 1742  1.56                             152    0.0910 75.3 300 
 BRR  HZ I        1742  1.89       214.1 0.17                          75.3 300 
 BRR  HN ES   2   1742 19.18                             152    0.81 5 75.3 300 
 PAM  SZ EP       1742  2.42                             151    0.0810 78.1  36 
 PAM  SN ES   2   1742 19.85                             151   -0.07 5 78.1  36 
 RUS  HZ EP   1   1742  3.53                             145   -0.04 7 97.2 178 
 RUS  HN ES   2   1742 22.12                             145    0.01 5 97.2 178 
 RUS  HZ I        1742 23.54        27.9 0.22                          97.2 178 
 OCA  SZ EP   2   1742  8.43                             130   -0.23 5  164 352 
 OCA  SZ ES   2   1742 31.20                             130    0.04 5  164 352 
 OCA  SZ I        1742 36.70        55.4 0.57                           164 352 
 ZAR  HZ EP   2   1742 12.26                             122   -0.57 4  208 293 
 ZAR  HN ES   2   1742 37.97                             122   -0.61 4  208 293 
 ZAR  HZ I        1742 43.50        57.6 0.37                           208 293 
 NOR  SZ EP   2   1742 15.45                             119   -0.29 4  235 236 
 NOR  SN ES   2   1742 43.65                             119   -0.12 4  235 236 
 HEL  HZ EP   2   1742 20.38                             115    0.00 4  274 257 
 HEL  HN ES   2   1742 52.15                             115    0.12 4  274 257 
 HEL  HZ I        1742 58.36        34.3 0.72                           274 257 
 GUY  SZ EP   2   1742 24.20                             113    0.34 4  304 236 
 GUY  SN ES   2   1742 58.14                             113   -0.09 4  304 236 
 GUY  SZ I        1743  8.01        33.7 0.48                           304 236 
 RREF HZ EP   2   1742 26.65                             111    0.57 3  322 230 
 RREF HN ES   2   1743  2.44                             111    0.27 3  322 230 
 RREF HZ I        1743 11.89        27.4 0.41                           322 230 
 PRA  HZ EP   2   1742 33.25                             107   -0.01 3  391 210 
 PRA  HN ES   2   1743 14.96                             107    0.01 3  391 210 
                                                                                
