 2016  517 1328 35.7 L   6.603 -73.546108.0  RSN  9 0.5 2.2LRSN                1
 GAP= 84        1.08       3.4     5.2  7.3 -0.1880E+01  0.1883E+02 -0.7131E+00E
 Epicentro: EL CARMEN - SANTANDER                                              3
 ACTION:UPD 16-08-18 17:46 OP:cam  STATUS:               ID:20160517132835 L   I
 OLDACT:UP  16-05-17 21:02 OP:drio STATUS:               ID:20160517131746     3
 OLDACT:REG 16-05-17 20:00 OP:drio STATUS:               ID:20160517131746     3
 2016-05-17-1317-46M.COL___306                                                 6
 STAT SP IPHASW D HRMM SECON CODA AMPLIT PERI AZIMU VELO AIN AR TRES W  DIS CAZ7
 BAR2 EZ IP     C 1328 51.46                             159    0.0710 40.2  92 
 BAR2 EZ ES       1329  3.57                             159   -0.0910 40.2  92 
 BAR2 EZ I        1329  4.76       121.4 0.44            167           40.2  92 
 BRR  HZ EP       1328 52.03                             149   -0.0110 58.6 342 
 BRR  HE ES       1329  5.44                             149    0.6210 58.6 342 
 BRR  HZ I        1329 11.36        37.9 0.42            150           58.6 342 
 RUS  HZ EP       1328 55.28                             137   -0.0610 93.8 147 
 RUS  HE ES       1329 10.81                             137    0.1110 93.8 147 
 RUS  HZ I        1329 11.54        33.1 0.24            143           93.8 147 
 PTB  HZ EP       1328 54.50                             134   -0.8110  101 266 
 PTB  HE ES   4   1329  9.04                             134   -1.60 0  101 266 
 PTB  HZ I        1329 10.70        28.4 0.10            134            101 266 
 SPBC HZ EP   2   1328 57.70                             128    0.50 5  120 209 
 SPBC HE ES   2   1329 13.73                             128   -0.26 5  120 209 
 ZAR  HZ EP       1329  3.60                             117    0.84 9  175 304 
 ZAR  HE ES   4   1329 25.55                             117    1.65 0  175 304 
 ZAR  HZ I        1329 28.18        22.6 0.38            120            175 304 
 OCA  HZ EP       1329  3.46                             116   -0.30 9  183   8 
 OCA  HN ES       1329 25.18                             116   -0.50 9  183   8 
 NOR  HZ EP       1329  4.10                             115    0.06 9  186 232 
 NOR  HN ES       1329 25.78                             115   -0.39 9  186 232 
 NOR  HZ I        1329 33.16         9.0 0.24            118            186 232 
 ORTC HZ EP       1329 24.19                             101    0.78 6  353 212 
                                                                                
