 2013 1217 1941 55.5 L   5.914 -73.974 75.5  RSN  4 0.1 1.7LRSN                1
 GAP=281        0.43       2.8     4.1  6.3 -0.6282E+01 -0.9961E+01  0.9041E+01E
 Epicentro: LA BELLEZA - SANTANDER                                             3
 ACTION:UPD 14-01-13 10:18 OP:ep   STATUS:               ID:20131217194155 L   I
 OLDACT:REG 13-12-17 16:55 OP:jn   STATUS:               ID:20131217194001d    3
 2013-12-17-1940-00M.COL___285                                                 6
 STAT SP IPHASW D HRMM SECON CODA AMPLIT PERI AZIMU VELO AIN AR TRES W  DIS CAZ7
 PTB  HZ EP       1942 11.09                             126   -0.2410 87.4 322 
 PTB  HN ES       1942 23.79                             126    0.1510 87.4 322 
 PTB  HZ I        1942 28.11         6.9 0.12            130           87.4 322 
 NOR  HZ EP       1942 13.36                             120    0.0110  106 249 
 NOR  HN ES       1942 27.22                             120   -0.0310  106 249 
 NOR  HZ I        1942 30.06        21.9 0.16            126            106 249 
 GUY2CHZ EP       1942 21.33                             108    0.02 9  172 244 
 GUY2CHN ES       1942 41.44                             108    0.03 9  172 244 
 GUY2CHZ I        1942 46.37         7.6 0.78                           172 244 
 HEL  HZ EP       1942 21.76                             108    0.25 9  175 280 
 HEL  HN ES       1942 41.62                             108   -0.16 9  175 280 
 HEL  HZ I        1942 44.53         8.1 0.34            112            175 280 
                                                                                
