 2011  617 1128 47.3 L   6.764 -73.100144.9  RSN  9 0.4 2.3LRSN                1
 GAP=164        0.91       3.9     7.4  6.9 -0.1008E+02  0.1095E+02  0.2807E+01E
 Epicentro: LOS SANTOS - SANTANDER                                             3
 ACTION:UP  11-07-14 19:06 OP:ep   STATUS:               ID:20110617112847 L   I
 2011-06-17-1128-07S.COL___135                                                 6
 STAT SP IPHASW D HRMM SECON CODA AMPLIT PERI AZIMU VELO SNR AR TRES W  DIS CAZ7
 BAR2 SZ EP       1129  6.89                             171     0.110   21 206 
 BAR2 SZ ES   1   1129 21.16                             171    -0.8 7   21 206 
 BAR2 SZ I        1129 23.18        46.5 0.44                            21 206 
 BRR  HZ EP       1129  8.82                             150     0.110   78 299 
 BRR  HN ES   1   1129 26.30                             150     0.9 7   78 299 
 BRR  HZ I        1129 29.22        41.8 0.20                            78 299 
 RUS  HZ EP   1   1129 10.78                             145     0.1 7   96 179 
 RUS  HN ES   1   1129 29.09                             145     0.2 7   96 179 
 RUS  HZ I        1129 33.05        16.0 0.38                            96 179 
 GRA  SZ EP   1   1129 12.76                             136     0.1 7  128  15 
 GRA  SZ ES   1   1129 32.43                             136     0.0 7  128  15 
 GRA  SZ I        1129 34.68        33.1 0.36                           128  15 
 OCA  SZ EP   1   1129 15.56                             129    -0.4 7  165 352 
 OCA  SZ ES   1   1129 38.06                             129    -0.3 7  165 352 
 OCA  SZ I        1129 43.38        45.0 0.29                           165 352 
 NOR  SZ EP       1129 23.03                             118    -0.1 8  237 236 
 NOR  SE ES   1   1129 50.40                             118    -0.8 6  237 236 
 CHI  HZ EP   2   1129 24.94                             117     0.3 4  246 197 
 CHI  HZ I        1130  2.12         8.1 0.52                           246 197 
 TOL  SZ EP   1   1129 35.60                             109     0.0 5  344 226 
 PRA  HZ EP   1   1129 40.55                             106    -0.1 4  391 210 
 PRA  HE ES   1   1130 22.90                             106     0.6 4  391 210 
                                                                                
