 2016  217 1248 19.0 L   6.789 -73.155139.2  RSN 15 0.4 2.3LRSN                1
 GAP=136        0.99       2.7     3.7  5.1 -0.1882E+01  0.4290E+01  0.1479E+01E
 Epicentro: LOS SANTOS - SANTANDER                                             3
 ACTION:UPD 16-03-04 21:26 OP:rebc STATUS:               ID:20160217124819 L   I
 OLDACT:REG 16-02-17 20:35 OP:ak   STATUS:               ID:20160217123747     3
 2016-02-17-1237-47M.COL___321                                                 6
 STAT SP IPHASW D HRMM SECON CODA AMPLIT PERI AZIMU VELO AIN AR TRES W  DIS CAZ7
 BAR2 EZ EP       1248 37.88                             171    0.0310 22.0 188 
 BAR2 EZ ES       1248 52.59                             171    0.0610 22.0 188 
 BAR2 EZ I        1248 53.71        79.2 0.22            169           22.0 188 
 BRR  HZ EP     C 1248 39.87                             151    0.4110 70.9 300 
 BRR  HN ES       1248 56.19                             151    0.8010 70.9 300 
 BRR  HZ I        1249  0.97        51.2 0.20            148           70.9 300 
 PAM  EZ EP       1248 40.85                             149    0.2010 79.0  40 
 PAM  EN ES       1248 57.68                             149    0.1610 79.0  40 
 PAM  EZ I        1249  0.12        79.8 0.58            150           79.0  40 
 RUS  HZ EP       1248 42.52                             143    0.4610 99.5 175 
 RUS  HN ES       1248 59.33                             143   -0.7010 99.5 175 
 RUS  HZ I        1249  1.25        15.6 0.30            142           99.5 175 
 PTB  HZ EP       1248 44.61                             131   -0.75 9  147 259 
 PTB  HN ES       1249  5.45                             131   -0.45 9  147 259 
 PTB  HZ I        1249  8.41        48.5 0.14            128            147 259 
 OCA  HZ EP       1248 46.61                             128   -0.34 9  161 354 
 OCA  HN ES       1249  7.99                             128   -0.73 9  161 354 
 SPBC HZ EP       1248 47.11                             128    0.22 9  162 219 
 SPBC HN ES       1249  8.44                             128   -0.17 9  162 219 
 SPBC HZ I        1249 12.01        20.5 0.20            126            162 219 
 ZAR  HZ EP       1248 51.41                             121    0.40 9  204 293 
 ZAR  HN ES       1249 15.96                             121    0.01 9  204 293 
 ZAR  HZ I        1249 22.22        19.8 0.18            119            204 293 
 NOR  HZ EP       1248 54.48                             117    0.26 8  233 235 
 NOR  HN ES       1249 21.60                             117   -0.07 8  233 235 
 NOR  HZ I        1249 23.83        13.0 0.18            116            233 235 
 CHI  HZ EP       1248 56.07                             116   -0.15 8  247 195 
 CHI  HN ES       1249 25.25                             116    0.02 8  247 195 
 URE  HZ EP   2   1248 59.12                             112   -0.62 4  283 292 
 URE  HN ES   4   1249 30.03                             112   -1.46 0  283 292 
 URE  HZ I        1249 39.68        15.2 0.17            111            283 292 
 GUY2CHZ EP   9   1249  3.98                             111    1.81 0  300 235 
 GUY2CHN ES       1249 37.90                                    0.27 7  300 235 
 GUY2CHZ I        1249 43.29        11.8 0.30                           300 235 
 SOCV BZ EP   4   1248 59.72                             111   -2.24 0  303  57 
 SOCV BN ES   4   1249 32.04                             111   -3.40 0  303  57 
 ANIL HZ EP   2   1249  9.24                             107    0.83 3  356 225 
 ANIL HN ES   4   1249 48.50                             107    1.58 0  356 225 
 ANIL HZ I        1249 55.77        13.2 0.24            106            356 225 
 SDV  BZ EP   4   1249  7.36                             107   -1.65 0  362  50 
 SDV  BE ES   4   1249 45.38                             107   -2.62 0  362  50 
 ORTC HZ EP   2   1249 12.75                             105    0.20 3  394 216 
 ORTC HZ I        1249 38.37         2.2 0.39            104            394 216 
 ORTC HE ES       1249 54.62                             105    0.33 6  394 216 
 SJC  HZ EP   4   1249 12.53                             105   -1.91 0  410 327 
 SJC  HN ES   4   1249 53.66                             105   -4.00 0  410 327 
 SJC  HZ I        1249 57.52         5.6 0.46            104            410 327 
                                                                                
