 2016 1117 1527 17.5 L   6.760 -73.762 67.7  RSN  6 0.3 1.1LRSN                1
 GAP=117        0.98       4.3     3.1  9.4 -0.3021E+01  0.8280E+01 -0.1330E+01E
 Epicentro: EL CARMEN - SANTANDER                                              3
 ACTION:UPD 17-10-26 21:09 OP:lp   STATUS:               ID:20161117152717 L   I
 OLDACT:UP  16-11-17 23:54 OP:edw  STATUS:               ID:20161117151719     3
 OLDACT:UP  16-11-17 23:52 OP:edw  STATUS:               ID:20161117151719     3
 OLDACT:REG 16-11-17 20:27 OP:edw  STATUS:               ID:20161117151719     3
 2016-11-17-1518-00M.COL___334                                                 6
 STAT SP IPHASW D HRMM SECON CODA AMPLIT PERI AZIMU VELO AIN AR TRES W  DIS CAZ7
 BRR  HZ EP       1527 28.72                             148    0.3810 38.8   8 
 BAR2 EZ EP       1527 30.35                             132   -0.6110 66.7 106 
 BAR2 EZ ES       1527 41.51                             132    0.0310 66.7 106 
 BAR2 EZ I        1527 43.83         5.6 0.24            136           66.7 106 
 PTB  HZ IP   9 D 1527 31.11                             126   -0.90 0 80.5 252 
 PTB  HN ES       1527 43.11                             126    0.6510 80.5 252 
 PTB  HZ I        1527 44.33         3.1 0.20            126           80.5 252 
 PAM  EZ EP       1527 38.75                             112    0.2610  134  61 
 PAM  EE ES       1527 54.98                             112    0.0910  134  61 
 ZAR  HZ EP   4   1527 35.65                             109   -3.62 0  146 304 
 ZAR  HN ES       1527 55.89                             109   -0.40 9  146 304 
 ZAR  HZ I        1528  0.70         2.4 0.07            111            146 304 
 NOR  HZ EP       1527 43.69                             105    0.24 9  180 223 
 NOR  HN ES       1528  3.75                             105    0.04 9  180 223 
 NOR  HZ I        1528  7.90         2.2 0.12            106            180 223 
                                                                                
