 2016  217 1401 50.1 L   6.810 -73.142142.2  RSN  5 0.3 1.4LRSN                1
 GAP=136        0.81       4.2     3.8  6.6 -0.3550E+00  0.8553E+01 -0.2719E+01E
 Epicentro: LOS SANTOS - SANTANDER                                             3
 ACTION:UPD 16-03-04 21:26 OP:rebc STATUS:               ID:20160217140150 L   I
 OLDACT:UP  16-02-17 22:19 OP:ak   STATUS:               ID:20160217135748     3
 OLDACT:REG 16-02-17 21:03 OP:ak   STATUS:               ID:20160217135748     3
 2016-02-17-1357-48M.COL___327                                                 6
 STAT SP IPHASW D HRMM SECON CODA AMPLIT PERI AZIMU VELO AIN AR TRES W  DIS CAZ7
 BAR2 EZ EP       14 2  9.54                             170    0.2410 24.5 190 
 BAR2 EZ ES       14 2 24.27                             170   -0.0310 24.5 190 
 BAR2 EZ I        14 2 25.26         5.8 0.30            171           24.5 190 
 PAM  EZ EP       14 2 12.05                             150    0.2110 76.2  40 
 PAM  EN ES       14 2 28.53                             150   -0.3010 76.2  40 
 PAM  EZ I        14 2 30.89         3.8 0.18            152           76.2  40 
 RUS  HZ EP       14 2 13.62                             143    0.0610  102 176 
 RUS  HE ES       14 2 32.07                             143    0.1910  102 176 
 RUS  HZ I        14 2 33.94         2.9 0.42            145            102 176 
 PTB  HZ EP       14 2 16.29                             131   -0.52 9  148 258 
 PTB  HN ES       14 2 37.33                             131   -0.34 9  148 258 
 PTB  HZ I        14 2 39.34         4.0 0.14            132            148 258 
 ZAR  HZ EP   2   14 2 21.92                             121   -0.37 4  204 292 
 ZAR  HE ES       14 2 48.04                             121    0.63 9  204 292 
 ZAR  HZ I        14 2 52.89         4.0 0.44            122            204 292 
                                                                                
