 2010  717 1740 51.0 L   6.866 -73.007138.5  RSN  5 0.4 1.9LRSN                1
 GAP=180        0.93       5.1     8.4 10.0 -0.4554E+01 -0.2306E+02  0.1083E+02E
 Epicentro: CEPITA - SANTANDER                                                 3
 ACTION:UPD 10-12-01 15:18 OP:pat  STATUS:               ID:20100717174051 L   I
 2010-07-17-1738-20S.COL___120                                                 6
 STAT SP IPHASW D HRMM SECON CODA AMPLIT PERI AZIMU VELO AIN AR TRES W  DIS CAZ7
 BRR  HZ EP       1741 11.63                             147    -0.410   82 289 
 BRR  HN ES       1741 28.47                             147     0.010   82 289 
 GUE  SZ EP       1741 14.79                             140     0.510  107   5 
 GUE  SZ I        1741 41.31         5.2 0.14                           107   5 
 RUS  HZ EP       1741 14.41                             140    -0.210  108 184 
 RUS  HN ES   1   1741 32.98                             140     0.0 7  108 184 
 RUS  HZ I        1741 34.94         8.2 0.29                           108 184 
 RREF HN ES   1   1742 16.54                             108     0.6 5  338 230 
 RREF HZ I        1742 20.36         3.8 0.37                           338 230 
 PRA  HZ EP   1   1741 45.31                             105    -0.6 4  406 211 
 PRA  HN ES   1   1742 29.09                             105     0.3 4  406 211 
 PRA  HZ I        1742 33.94         6.0 0.16                           406 211 
                                                                                
