 2010  117 1408 37.1 L   6.823 -72.889152.7  RSN  5 0.4 1.7LRSN                1
 GAP=242        0.66       7.1    20.7  8.1 -0.5618E+02 -0.1050E+02  0.2350E+02E
 Epicentro: SAN ANDRES - SANTANDER                                             3
 ACTION:UP  10-08-24 09:44 OP:vdl  STATUS:               ID:20100117140837 L   I
 2010-01-17-1405-28S.COL___096                                                 6
 STAT SP IPHASW D HRMM SECON CODA AMPLIT PERI AZIMU VELO SNR AR TRES W  DIS CAZ7
 BAR2 SZ EP   1   14 8 57.95                             164     0.0 7   41 232 
 BAR2 SZ ES   2   14 9 13.92                             164    -0.4 5   41 232 
 GIR2 SZ EP   1   14 8 57.85                             164    -0.1 7   44 310 
 GIR2 SZ ES   2   14 9 14.54                             164     0.3 5   44 310 
 RUS  BZ EP   1   14 9  2.30                             144     0.5 7  105 192 
 RUS  BE ES   2   14 9 20.68                             144    -0.4 5  105 192 
 RUS  BZ I        14 9 21.76         5.4 0.26                           105 192 
 CHI  HZ EP   1   14 9 16.09                             117    -0.3 6  260 201 
 CHI  HZ I        14 9 17.38         2.8 0.45                           260 201 
 CHI  HE ES   2   14 9 47.67                             117     0.7 4  260 201 
 PRA  HZ EP   1   14 9 32.18                             107    -0.6 4  409 213 
 PRA  HZ I        14 9 33.48         2.4 0.25                           409 213 
 PRA  HE ES   2   1410 16.72                             107     0.5 3  409 213 
                                                                                
