 2013  517 1144 18.7 L   6.825 -73.201134.9  RSN  8 0.3 2.0LRSN                1
 GAP=129        0.72       3.0     3.7  6.6 -0.2173E+01  0.9145E+01 -0.6979E+01E
 Epicentro: ZAPATOCA - SANTANDER                                               3
 ACTION:UPD 13-06-20 09:51 OP:ep   STATUS:               ID:20130517114418 L   I
 2013-05-17-1140-00M.COL___253                                                 6
 STAT SP IPHASW D HRMM SECON CODA AMPLIT PERI AZIMU VELO AIN AR TRES W  DIS CAZ7
 BAR2 SZ EP   1   1144 37.14                             169    0.09 8 25.8 175 
 BAR2 SZ ES   1   1144 51.62                             169    0.23 8 25.8 175 
 BAR2 SZ I        1144 52.79        17.7 0.30            171           25.8 175 
 GIR2 SZ EP   1   1144 37.12                             168    0.16 8 28.1   2 
 GIR2 SZ I        1144 53.93         9.4 0.36            164           28.1   2 
 BRR  HZ EP   1   1144 38.94                             153    0.68 8 64.5 299 
 BRR  HN ES   4   1144 55.41                             153    1.86 0 64.5 299 
 BRR  HN I        1144 56.22        47.7 0.34            151           64.5 299 
 PAM  SZ EP   1   1144 40.10                             148    0.23 8 79.4  44 
 PAM  SN ES   1   1144 56.40                             148   -0.01 8 79.4  44 
 PAM  SN I        1144 58.03        20.2 0.72            145           79.4  44 
 RUS  HZ EP       1144 41.25                             140   -0.3810  104 173 
 RUS  HN ES       1144 59.33                             140   -0.2010  104 173 
 RUS  HN I        1145  1.28        10.2 0.34            141            104 173 
 PTB  HZ EP   1   1144 44.04                             130   -0.22 7  142 257 
 PTB  HN ES       1145  3.97                             130   -0.26 9  142 257 
 PTB  HN I        1145  6.20        15.4 0.26            130            142 257 
 NOR  HN ES       1145 20.99                             116    0.45 8  231 233 
 NOR  HN I        1145 24.13         8.3 0.14            116            231 233 
 SML  HZ EP       1144 54.33                             116    0.18 8  239 336 
 SML  HN ES       1145 21.39                             116   -0.43 8  239 336 
 SML  HN I        1145 27.48        13.2 0.10            114            239 336 
                                                                                
