 2012 1117 1054  4.4 L   6.685 -73.220142.6  RSN  4 0.2 1.6LRSN                1
 GAP=208        0.59       5.6     4.3  5.5  0.8765E+01  0.3755E+01 -0.7699E+01E
 Epicentro: BARICHARA - SANTANDER                                              3
 ACTION:UPD 12-12-05 15:34 OP:}ep  STATUS:               ID:20121117105403 L   I
 2012-11-17-1050-00M.COL___233                                                 6
 STAT SP IPHASW D HRMM SECON CODA AMPLIT PERI AZIMU VELO AIN AR TRES W  DIS CAZ7
 BAR2 SZ EP       1054 23.26                             175   -0.2410 11.1 158 
 BAR2 SZ ES       1054 38.23                             175   -0.1410 11.1 158 
 BRR  HZ EP       1054 25.66                             152    0.3910 71.7 311 
 RUS  HZ EP       1054 26.98                             147   -0.0810 88.9 170 
 RUS  HN ES       1054 44.93                             147    0.2210 88.9 170 
 RUS  HN I        1054 45.54         8.1 0.30                          88.9 170 
 PTB  HZ EP       1054 30.10                             133   -0.14 9  138 263 
 PTB  HN ES       1054 50.34                             133   -0.03 9  138 263 
 PTB  HN I        1054 51.30         5.8 0.18                           138 263 
                                                                                
