 2013  117 1532 40.7 L   6.766 -73.196142.9  RSN  4 0.1 1.3LRSN                1
 GAP=141        0.35       3.8     2.8  4.4  0.1535E+00  0.1242E+01 -0.6159E+01E
 Epicentro: VILLANUEVA - SANTANDER                                             3
 ACTION:UPD 13-02-15 09:14 OP:ep   STATUS:               ID:20130117153240 L   I
 2013-01-17-1530-00M.COL___241                                                 6
 STAT SP IPHASW D HRMM SECON CODA AMPLIT PERI AZIMU VELO AIN AR TRES W  DIS CAZ7
 BAR2 SZ ES   1   1533 14.97                             172    0.06 7 19.2 176 
 BAR2 SZ I        1533 15.82         7.6 0.28            170           19.2 176 
 PAM  SZ EP   1   1533  2.98                             148   -0.05 7 83.8  41 
 RUS  HZ EP   1   1533  4.13                             144    0.17 7 97.4 173 
 RUS  HN ES   1   1533 21.95                             144   -0.13 7 97.4 173 
 RUS  HZ I        1533 23.70         2.5 0.34            144           97.4 173 
 PTB  HZ EP   1   1533  6.80                             133   -0.10 7  142 260 
 PTB  HN ES   1   1533 27.35                             133    0.04 7  142 260 
 PTB  HZ I        1533 28.47         1.9 0.56            133            142 260 
                                                                                
