 2013  117 1324 29.2 L   6.781 -73.164146.4  RSN  6 0.4 1.8LRSN                1
 GAP=181        0.72       3.8     5.4  7.0 -0.1330E+00  0.8894E+01  0.3878E+01E
 Epicentro: LOS SANTOS - SANTANDER                                             3
 ACTION:UPD 13-02-15 09:14 OP:ep   STATUS:               ID:20130117132429 L   I
 2013-01-17-1320-00M.COL___241                                                 6
 STAT SP IPHASW D HRMM SECON CODA AMPLIT PERI AZIMU VELO AIN AR TRES W  DIS CAZ7
 BAR2 SZ EP       1324 48.90                             171    0.0410 21.0 185 
 BAR2 SZ ES   1   1325  4.23                             171    0.03 7 21.0 185 
 BAR2 SZ I        1325  6.72        15.1 0.22            168           21.0 185 
 RUS  HZ EP   1   1324 52.80                             144   -0.08 7 98.7 175 
 RUS  HN ES   1   1325 11.56                             144    0.21 7 98.7 175 
 RUS  HZ I        1325 12.54         6.8 0.26            145           98.7 175 
 PTB  HZ EP       1324 55.78                             133   -0.22 9  145 259 
 PTB  HN ES   1   1325 16.67                             133   -0.24 7  145 259 
 PTB  HZ I        1325 19.06        11.5 0.12            132            145 259 
 OCA  HN ES   1   1325 19.93                             129   -0.06 7  162 354 
 NOR  HE ES   1   1325 32.95                             119    0.64 6  232 235 
 NOR  HZ I        1325 39.75         5.8 0.26            119            232 235 
 CHI  HZ EP       1325  7.12                             117    0.46 8  246 195 
 CHI  HN ES   1   1325 34.97                             117   -0.90 6  246 195 
                                                                                
