 2012  417 1725 37.0 L   6.755 -73.121145.3  RSN 12 0.4 2.9LRSN                1
 GAP=142        1.02       3.2     4.3  5.6 -0.2330E+01  0.8395E+01  0.4394E+01E
 Epicentro: LOS SANTOS - SANTANDER                                             3
 ACTION:UPD 12-07-05 11:53 OP:tino STATUS:               ID:20120417172537 L   I
 2012-04-17-1720-00M.COL___189                                                 6
 STAT SP IPHASW D HRMM SECON CODA AMPLIT PERI AZIMU VELO AIN AR TRES W  DIS CAZ7
 BAR2 SZ IP     C 1725 56.62                             172     0.210   19 201 
 BAR2 SZ ES       1726 10.97                             172    -0.710   19 201 
 BAR2 SZ I        1726 15.24       185.6 0.39                            19 201 
 BRR  HZ IP     C 1725 58.58                             151     0.210   76 301 
 BRR  HZ I        1725 58.84       248.0 0.17                            76 301 
 BRR  HN ES       1726 15.87                             151     0.910   76 301 
 PAM  SZ EP       1725 59.43                             150     0.210   80  36 
 PAM  SN ES       1726 16.55                             150    -0.110   80  36 
 RUS  HZ EP       1726  0.56                             145     0.310   95 177 
 RUS  HE ES   1   1726 18.43                             145    -0.1 7   95 177 
 RUS  HZ I        1726 21.01        87.4 0.35                            95 177 
 OCA  SZ EP       1726  5.58                             129    -0.2 9  166 352 
 OCA  SZ ES       1726 28.19                             129     0.0 9  166 352 
 ZAR  HZ EP       1726  9.00                             122    -0.8 8  208 293 
 ZAR  HE ES       1726 34.94                             122    -0.5 8  208 293 
 ZAR  HZ I        1726 42.35        91.1 0.26                           208 293 
 NOR  SZ EP       1726 12.44                             118    -0.2 8  234 236 
 NOR  SE ES   1   1726 40.65                             118     0.3 6  234 236 
 CHI  HZ EP       1726 14.38                             117     0.2 8  245 196 
 CHI  HE ES   1   1726 43.18                             117     0.0 6  245 196 
 CHI  HZ I        1726 53.32        30.3 0.62                           245 196 
 HEL  HZ EP       1726 17.65                             114     0.3 8  274 257 
 HEL  HE ES   1   1726 49.36                             114     0.6 6  274 257 
 HEL  HZ I        1726 55.71        47.8 0.46                           274 257 
 GUY  SZ EP   1   1726 20.90                             112     0.2 5  303 236 
 GUY  SE ES   1   1726 54.54                             112    -0.4 5  303 236 
 GUY  SZ I        1727  1.76        50.1 0.47                           303 236 
 RREF HZ EP       1726 22.89                             111    -0.1 7  321 230 
 RREF HN ES       1726 58.86                             111     0.0 7  321 230 
 RREF HZ I        1727  7.89        41.1 0.48                           321 230 
 PRA  HZ EP       1726 30.16                             107     0.0 6  389 210 
 PRA  HN ES       1727 11.17                             107    -0.4 6  389 210 
                                                                                
