 2010  117 1119 38.1 L   6.811 -73.093144.7  RSN 13 0.5 3.1LRSN                1
 GAP=188        0.81       4.3     8.7  7.9 -0.9079E+01  0.3752E+02  0.3362E+01E
 Epicentro: LOS SANTOS - SANTANDER                                             3
 ACTION:UP  10-08-24 09:44 OP:vdl  STATUS:               ID:20100117111938 L   I
 2010-01-17-1117-57S.COL___096                                                 6
 STAT SP IPHASW D HRMM SECON CODA AMPLIT PERI AZIMU VELO SNR AR TRES W  DIS CAZ7
 BAR2 SZ IP       1119 57.59                             169    -0.110   26 202 
 BAR2 SZ ES   2   1120 13.22                             169     0.3 5   26 202 
 GIR2 SZ EP   1   1119 57.68                             167     0.0 7   32 340 
 GIR2 SZ ES   2   1120 13.00                             167     0.1 5   32 340 
 RUS  BZ EP       1120  1.46                             143    -0.410  102 179 
 RUS  BE ES   2   1120 20.35                             143     0.0 5  102 179 
 OCA  SZ EP   1   1120  6.16                             129    -0.1 7  160 351 
 OCA  SZ ES   2   1120 28.73                             129     0.4 5  160 351 
 CHI  HZ EP   1   1120 15.89                             117    -0.2 6  251 196 
 CHI  HE ES   2   1120 45.34                             117    -0.3 4  251 196 
 CHI  HZ I        1120 49.51        41.5 0.48                           251 196 
 ROSC BZ EP   1   1120 17.65                             116     1.0 6  257 212 
 ROSC BE ES   2   1120 46.57                             116    -0.1 4  257 212 
 ROSC BZ I        1120 51.72        50.8 0.35                           257 212 
 HEL  HZ EP   1   1120 18.31                             114    -0.6 6  278 256 
 HEL  HZ I        1120 56.06        53.0 0.23                           278 256 
 GUY  HZ EP   1   1120 23.08                             112     0.8 5  307 235 
 GUY  HN ES   2   1120 56.64                             112    -0.1 4  307 235 
 RREF BZ EP   1   1120 25.33                             110     0.5 5  327 230 
 RREF BZ I        1121  7.22        52.9 0.19                           327 230 
 DBB  SZ EP   1   1120 25.31                             109    -0.9 5  345 274 
 TOL  SZ EP   1   1120 27.45                             109     0.6 5  348 225 
 TOL  SZ ES   2   1121  4.35                             109    -0.6 3  348 225 
 ANIL BZ EP   1   1120 29.46                             108     1.0 5  362 225 
 ANIL BE ES   2   1121  7.40                             108    -0.3 3  362 225 
 ANIL BZ I        1121 12.54        74.8 0.27                           362 225 
 PRA  HZ EP   1   1120 31.61                             106    -0.4 4  396 210 
 PRA  HE ES   2   1121 13.66                             106    -0.5 3  396 210 
 PRA  HZ I        1121 19.36        42.6 0.33                           396 210 
                                                                                
