 2014  117 1429 11.7 L   6.852 -73.324126.8  RSN  8 0.5 2.0LRSN                1
 GAP=100        1.26       4.2     4.5  7.5 -0.2895E+00  0.1096E+02 -0.3245E+01E
 Epicentro: ZAPATOCA - SANTANDER                                               3
 ACTION:UPD 14-03-13 09:56 OP:ep   STATUS:               ID:20140117142911 L   I
 OLDACT:REG 14-01-17 16:47 OP:carl STATUS:               ID:20140117142738     3
 2014-01-17-1427-38M.COL___244                                                 6
 STAT SP IPHASW D HRMM SECON CODA AMPLIT PERI AZIMU VELO AIN AR TRES W  DIS CAZ7
 BAR2 SZ EP       1429 29.50                             165    0.2210 32.7 151 
 BAR2 SZ ES       1429 42.47                             165   -0.5410 32.7 151 
 BAR2 SZ I        1429 43.90       186.2 0.26            169           32.7 151 
 BRR  HZ EP       1429 29.81                             156    0.1310 51.3 303 
 BRR  HN ES       1429 44.12                             156    0.3910 51.3 303 
 BRR  HZ I        1429 50.65        18.7 0.14            154           51.3 303 
 PAM  SZ EP       1429 32.88                             143    0.2810 87.5  52 
 PAM  SN ES       1429 48.64                             143   -0.2910 87.5  52 
 PAM  SZ I        1429 51.20        12.9 0.22            149           87.5  52 
 RUS  HZ EP       1429 34.42                             137    0.1010  109 166 
 RUS  HN ES       1429 52.40                             137    0.4110  109 166 
 RUS  HZ I        1429 53.04         7.4 0.20            141            109 166 
 PTB  HZ IP     D 1429 34.70                             131   -0.7710  130 255 
 PTB  HN ES       1429 54.13                             131    0.1010  130 255 
 PTB  HZ I        1429 58.13        14.8 0.30            132            130 255 
 ZAR  HZ EP       1429 41.65                             121    0.87 9  184 293 
 ZAR  HN ES       1430  3.99                             121    0.50 9  184 293 
 ZAR  HZ I        1430  7.26        12.1 0.10            122            184 293 
 NOR  HZ EP       1429 45.45                             115    0.42 8  223 230 
 NOR  HN ES       1430 10.02                             115   -1.04 8  223 230 
 NOR  HZ I        1430 21.21         4.2 0.66            118            223 230 
 SML  HZ EP       1429 45.27                             115   -0.59 8  231 339 
 SML  HN ES       1430 12.01                             115   -0.51 8  231 339 
 SML  HZ I        1430 17.90        17.6 0.20            117            231 339 
                                                                                
