 2012  917 1715 31.8 L   6.759 -73.140140.9  RSN  9 0.4 2.3LRSN                1
 GAP= 96        0.78       3.6     4.0  5.2  0.1060E+00  0.4385E+00  0.6417E+01E
 Epicentro: LOS SANTOS - SANTANDER                                             3
 ACTION:UPD 12-10-22 14:19 OP:ep   STATUS:               ID:20120917171531 L   I
 2012-09-17-1710-00M.COL___224                                                 6
 STAT SP IPHASW D HRMM SECON CODA AMPLIT PERI AZIMU VELO AIN AR TRES W  DIS CAZ7
 BAR2 SZ EP       1715 50.75                             172    0.0010 19.0 194 
 BAR2 SZ ES       1716  5.25                             172   -0.2910 19.0 194 
 BAR2 SZ I        1716  7.43        66.5 0.32                          19.0 194 
 BRR  HZ EP       1715 52.63                             151    0.0610 74.0 301 
 BRR  HN ES       1716  9.51                             151    0.7310 74.0 301 
 BRR  HZ I        1716 12.45        27.4 0.38                          74.0 301 
 PAM  SZ EP       1715 53.68                             149    0.0010 80.5  37 
 PAM  SZ I        1715 54.09        38.1 0.18                          80.5  37 
 PAM  SN ES   1   1716 10.47                             149   -0.29 7 80.5  37 
 RUS  HZ EP       1715 54.77                             144    0.0410 96.0 176 
 RUS  HN ES   1   1716 12.31                             144   -0.31 7 96.0 176 
 PTB  HZ EP   2   1715 58.06                             131   -0.28 5  148 261 
 PTB  HN ES   2   1716 18.51                             131   -0.54 5  148 261 
 TAM  HZ EP   1   1715 59.07                             130    0.15 7  153 103 
 ZAR  HN ES   1   1716 28.68                             121   -0.73 6  206 293 
 ZAR  HZ I        1716 34.05        12.6 0.16                           206 293 
 CHI  HZ EP       1716  8.91                             116    0.15 8  244 196 
 CHI  HN ES   1   1716 38.32                             116    0.72 6  244 196 
 PRA  HZ EP       1716 24.56                             106   -0.16 6  388 210 
 PRA  HE ES   1   1717  5.53                             106   -0.48 4  388 210 
 PRA  HZ I        1717 13.29         9.6 0.34                           388 210 
                                                                                
