 2010  217 1208 19.6 L   6.752 -73.655101.4  RSN  6 0.4 1.5LRSN                1
 GAP=192        0.79       7.5    11.5 15.4 -0.1675E+02  0.1293E+03  0.2958E+02E
 Epicentro: EL CARMEN DE CHUCURI - SANTANDER                                   3
 ACTION:UP  10-08-24 09:49 OP:vdl  STATUS:               ID:20100217120819 L   I
 2010-02-17-1203-38S.COL___094                                                 6
 STAT SP IPHASW D HRMM SECON CODA AMPLIT PERI AZIMU VELO SNR AR TRES W  DIS CAZ7
 BAR2 SZ IP       12 8 35.21                             149    -0.210   55 109 
 BAR2 SZ ES   2   12 8 48.12                             149     0.4 5   55 109 
 GIR2 SZ EP   1   12 8 36.41                             145     0.7 7   63  55 
 GIR2 SZ ES   2   12 8 47.65                             145    -0.7 5   63  55 
 RUS  BZ EP   1   12 8 40.07                             128    -0.5 7  114 146 
 RUS  BE ES   2   12 8 57.15                             128     0.2 5  114 146 
 RUS  BZ I        12 9  0.65         2.8 0.60                           114 146 
 CHI  HZ EP   1   12 8 53.85                             107     0.2 6  235 182 
 CHI  HZ I        12 9  7.08         1.5 0.77                           235 182 
 RREF BZ EP   1   12 8 58.70                             104    -0.2 6  278 223 
 RREF BN ES   2   12 9 29.35                             104    -0.3 4  278 223 
 RREF BZ I        12 9 31.29         3.2 0.27                           278 223 
 PRA  HZ EP   1   12 9  8.30                              98    -0.1 5  363 202 
 PRA  HN ES   2   12 9 47.10                              98     0.6 3  363 202 
 PRA  HZ I        12 9 54.17         2.6 0.34                           363 202 
                                                                                
