 2015 1217 1412 20.1 L   6.769 -73.185143.9  RSN  6 0.6 1.8LRSN                1
 GAP=231        1.44      10.6     9.7 10.4  0.6158E+02  0.1070E+02 -0.1220E+02E
 Epicentro: LOS SANTOS - SANTANDER                                             3
 ACTION:UPD 16-02-04 15:05 OP:cam  STATUS:               ID:20151217141220 L   I
 OLDACT:REG 15-12-17 21:47 OP:ar   STATUS:               ID:20151217140747     3
 2015-12-17-1407-47M.COL___337                                                 6
 STAT SP IPHASW D HRMM SECON CODA AMPLIT PERI AZIMU VELO AIN AR TRES W  DIS CAZ7
 BAR2 EZ EP       1412 39.08                             172   -0.3410 19.5 179 
 BAR2 EZ ES       1412 53.65                             172   -0.8410 19.5 179 
 BAR2 EZ I        1412 55.40         7.8 0.26            170           19.5 179 
 BRR  HZ EP       1412 40.79                             153   -0.1310 69.2 303 
 BRR  HN ES       1412 57.90                             153    0.7310 69.2 303 
 BRR  HZ I        1412 58.36        16.7 0.32            151           69.2 303 
 RUS  HZ EP       1412 43.56                             144    0.1310 97.5 173 
 RUS  HN ES       1413  2.41                             144    0.7710 97.5 173 
 RUS  HZ I        1413  3.63         5.9 0.22            144           97.5 173 
 PTB  HZ EP       1412 45.68                             132   -0.78 9  143 260 
 PTB  HN ES       1413  6.80                             132   -0.23 9  143 260 
 PTB  HZ I        1413  9.38         8.7 0.14            131            143 260 
 ZAR  HZ EP       1412 52.93                             122    0.79 9  201 294 
 ZAR  HN ES       1413 17.14                             122    0.00 9  201 294 
 ZAR  HZ I        1413 23.07         9.7 0.40            122            201 294 
 GUY2CHZ EP   9   1413  4.92                             112    1.93 0  296 235 
 GUY2CHN ES   2   1413 39.55                                    1.17 4  296 235 
                                                                                
