 2017  117 1123 16.0 L   6.791 -73.133146.0  RSN  8 0.4 1.8LRSN                1
 GAP=139        0.98       4.0     5.1  7.1  0.3810E+01  0.1184E+02  0.7186E+01E
 Epicentro: LOS SANTOS - SANTANDER                                             3
 ACTION:UPD 17-05-22 16:00 OP:jn   STATUS:               ID:20170117112316 L   I
 OLDACT:REG 17-01-17 20:16 OP:cog  STATUS:               ID:20170117111742     3
 2017-01-17-1118-00M.COL___329                                                 6
 STAT SP IPHASW D HRMM SECON CODA AMPLIT PERI AZIMU VELO AIN AR TRES W  DIS CAZ7
 BAR2 EZ EP       1123 35.44                             171   -0.2010 22.6 194 
 BAR2 HN ES   2   1123 50.81                             171   -0.15 5 22.6 194 
 BAR2 EZ I        1123 53.24        19.9 0.30            167           22.6 194 
 BRR  HZ EP       1123 37.54                             152    0.2710 72.9 299 
 BRR  HN ES       1123 54.37                             152    0.5110 72.9 299 
 BRR  HZ I        1123 58.38        10.5 0.18            153           72.9 299 
 PAM  EZ EP       1123 38.33                             151    0.1010 77.3  38 
 PAM  EN ES       1123 55.69                             151    0.1110 77.3  38 
 PAM  EZ I        1123 57.61         9.9 0.50            158           77.3  38 
 RUS  HZ EP       1123 39.41                             144   -0.2810 99.5 177 
 RUS  HN ES       1123 57.65                             144   -0.5210 99.5 177 
 RUS  HZ I        1123 59.32         9.8 0.32            145           99.5 177 
 PTB  HZ EP       1123 42.57                             132   -0.52 9  149 259 
 PTB  HN ES   3   1124  3.29                             132   -0.93 2  149 259 
 PTB  HZ I        1124  8.19         5.4 0.24            133            149 259 
 ZAR  HZ EP       1123 48.82                             122    0.19 8  206 292 
 ZAR  HN ES       1124 13.63                             122   -0.45 8  206 292 
 CHI  HZ EP       1123 53.70                             117    0.06 8  248 196 
 CHI  HN ES       1124 24.08                             117    1.08 8  248 196 
 CHI  HZ I        1124 32.83         3.1 0.40            119            248 196 
 ROSC BZ EP   4   1123 56.01                             117    1.90 0  253 211 
 GUY2CHZ EP   3   1124  0.40                             112    0.72 2  302 235 
 GUY2CHE ES   4   1124 35.87                             112    2.12 0  302 235 
 GUY2CHZ  IAML    1124 40.66         2.9 0.38                           302 235 
                                                                                
