 2013  917 1937 48.1 L   6.743 -73.169146.3  RSN  7 0.4 1.7LRSN                1
 GAP=136        0.93       6.1     5.7  7.7  0.1073E+02 -0.8187E-01 -0.9627E+01E
 Epicentro: VILLANUEVA - SANTANDER                                             3
 ACTION:UPD 13-10-22 09:23 OP:ep   STATUS:               ID:20130917193748 L   I
 OLDACT:DUP 13-09-17 16:50 OP:jn   STATUS:               ID:20130917192960d    3
 2013-09-17-1929-59M.COL___269                                                 6
 STAT SP IPHASW D HRMM SECON CODA AMPLIT PERI AZIMU VELO AIN AR TRES W  DIS CAZ7
 BAR2 SZ EP       1938  7.68                             173    0.0110 16.8 185 
 BAR2 SZ ES       1938 22.56                             173   -0.3910 16.8 185 
 BAR2 SZ I        1938 24.01         6.6 0.22            171           16.8 185 
 BRR  HZ EP       1938  9.56                             152    0.2010 72.2 304 
 BRR  HN ES   1   1938 26.82                             152    0.88 7 72.2 304 
 BRR  HZ I        1938 30.01        16.2 0.38            150           72.2 304 
 PAM  SZ EP       1938 10.59                             149   -0.1710 83.9  38 
 RUS  HZ EP       1938 12.02                             145    0.5510 94.6 174 
 RUS  HN ES   1   1938 29.44                             145   -0.27 7 94.6 174 
 RUS  HZ I        1938 31.66         4.3 0.28            148           94.6 174 
 PTB  HZ EP       1938 14.50                             133   -0.27 9  144 261 
 PTB  HN ES   1   1938 35.14                             133   -0.45 7  144 261 
 PTB  HZ I        1938 38.97         6.6 0.14            132            144 261 
 ZAR  HN ES   1   1938 46.09                             122    0.17 6  204 294 
 ZAR  HZ I        1938 52.17         8.5 0.30            123            204 294 
 SML  HE ES   2   1938 53.32                             117   -0.92 4  248 336 
                                                                                
