 2010 1217 1030 34.5 L   6.802 -73.093140.0  RSN  5 0.4 1.5LRSN                1
 GAP=165        0.93       7.8    15.0 13.7  0.3017E+02 -0.1937E+02  0.2374E+02E
 Epicentro: LOS SANTOS - SANTANDER                                             3
 ACTION:UP  11-01-14 15:25 OP:pat  STATUS:               ID:20101217103034 L   I
 2010-12-17-1028-03S.COL___136                                                 6
 STAT SP IPHASW D HRMM SECON CODA AMPLIT PERI AZIMU VELO SNR AR TRES W  DIS CAZ7
 BTL  SZ EP       1030 52.85                             170    -0.610   23 304 
 BTL  SZ ES   2   1031  8.24                             170     0.0 5   23 304 
 BAR2 SZ EP       1030 53.56                             169     0.010   25 203 
 BAR2 SZ I        1030 53.89         5.1 0.23                            25 203 
 BRR  HZ EP       1030 55.40                             150     0.010   76 296 
 BRR  HN ES   2   1031 12.09                             150     0.5 5   76 296 
 BRR  HZ I        1031 28.84        11.3 0.35                            76 296 
 RUS  HZ EP       1030 58.10                             142     0.410  101 179 
 RUS  HN ES   2   1031 15.61                             142    -0.2 5  101 179 
 RUS  HZ I        1031 18.60         2.5 0.33                           101 179 
 GRA  SZ ES   2   1031 18.72                             136     0.4 5  124  15 
 GRA  SZ I        1031 20.81         5.2 0.14                           124  15 
                                                                                
