 2016  317 1120 54.5 L   6.799 -73.224139.2  RSN  5 0.2 1.4LRSN                1
 GAP=146        0.52       2.5     2.9  4.9 -0.1865E+01  0.3116E+01  0.2626E+01E
 Epicentro: ZAPATOCA - SANTANDER                                               3
 ACTION:UPD 16-05-13 21:25 OP:cam  STATUS:               ID:20160317112054 L   I
 OLDACT:REG 16-03-17 20:34 OP:cara STATUS:               ID:20160317111750     3
 2016-03-17-1117-50M.COL___291                                                 6
 STAT SP IPHASW D HRMM SECON CODA AMPLIT PERI AZIMU VELO AIN AR TRES W  DIS CAZ7
 PAM  EZ IP       1121 16.58                             148    0.1410 83.3  44 
 PAM  EN ES       1121 33.39                             148   -0.1310 83.3  44 
 PAM  EZ I        1121 35.72         7.7 0.44            154           83.3  44 
 RUS  HZ EP       1121 17.42                             142   -0.3010  101 171 
 RUS  HN ES       1121 36.04                             142    0.2410  101 171 
 RUS  HZ I        1121 37.26         3.7 0.26            146            101 171 
 PTB  HZ EP       1121 20.39                             132    0.19 9  139 258 
 PTB  HN ES       1121 40.12                             132   -0.09 9  139 258 
 PTB  HZ I        1121 48.25         3.2 0.68            133            139 258 
 CHI  HZ EP       1121 31.74                             116    0.10 8  246 193 
 CHI  HN ES       1122  0.42                             116   -0.16 8  246 193 
 CHI  HZ I        1122  4.54         2.0 0.56            119            246 193 
 GUY2CHZ EP   4   1121 37.67                             112    0.62 0  294 234 
 GUY2CHE ES   4   1122 11.97                             112    1.77 0  294 234 
 GUY2CHZ I        1122 22.63         0.8 0.26                           294 234 
                                                                                
