 2015  517 1045  0.0 L   6.848 -73.059133.4  RSN  6 0.3 1.6LRSN                1
 GAP=192        0.84       3.6     6.3  6.1  0.1123E+02  0.6578E+00 -0.6735E+01E
 Epicentro: LOS SANTOS - SANTANDER                                             3
 ACTION:UPD 15-09-10 22:04 OP:cam  STATUS:               ID:20150517104500 L   I
 OLDACT:REG 15-05-17 20:23 OP:drio STATUS:               ID:20150517103743     3
 2015-05-17-1037-43M.COL___280                                                 6
 STAT SP IPHASW D HRMM SECON CODA AMPLIT PERI AZIMU VELO AIN AR TRES W  DIS CAZ7
 BAR2 EZ EP       1045 18.90                             166    0.5410 31.4 206 
 BAR2 EZ ES       1045 32.44                             166   -0.2410 31.4 206 
 BAR2 EZ I        1045 34.65         6.2 0.16            165           31.4 206 
 BRR  HZ EP       1045 20.36                             148    0.1210 77.6 292 
 BRR  HN ES       1045 36.32                             148    0.3110 77.6 292 
 BRR  HZ I        1045 37.58         7.0 0.42            146           77.6 292 
 RUS  HZ EP       1045 22.80                             139   -0.1710  106 181 
 RUS  HE ES       1045 40.58                             139   -0.2910  106 181 
 RUS  HZ I        1045 43.21         2.2 0.36            141            106 181 
 OCA  HN ES       1045 48.21                             127    0.13 9  156 349 
 OCA  HZ I        1045 52.78        10.4 0.18            128            156 349 
 ZAR  HZ EP       1045 32.93                             118    0.50 8  211 290 
 ZAR  HN ES       1045 57.44                             118   -0.28 8  211 290 
 ZAR  HZ I        1046  5.66         3.9 0.74            119            211 290 
 SML  HZ EP       1045 35.57                             115   -0.34 8  243 333 
 SML  HN ES       1046  3.39                             115   -0.52 8  243 333 
 SML  HZ I        1046  6.08         3.9 0.10            115            243 333 
                                                                                
