 2017  817 1210 23.9 L   6.781 -73.116151.0  RSN  5 0.2 1.3LRSN                1
 GAP=141        0.42       3.6     2.5  4.4  0.9247E+00  0.1688E+01  0.1614E+01E
 Epicentro: LOS SANTOS - SANTANDER                                             3
 ACTION:UPD 17-09-04 20:21 OP:rebc STATUS:               ID:20170817121023 L   I
 OLDACT:REG 17-08-17 19:47 OP:and  STATUS:               ID:20170817120656     3
 2017-08-17-1208-00M.COL___407                                                 6
 STAT SP IPHASW D HRMM SECON CODA AMPLIT PERI AZIMU VELO AIN AR TRES W  DIS CAZ7
 BAR2 EZ EP   2   1210 43.86                             171   -0.31 5 22.1 199 
 BAR2 EZ ES   2   1210 59.61                             171   -0.34 5 22.1 199 
 BAR2 EZ I        1211  0.75         5.4 0.32            170           22.1 199 
 BRR  HZ EP       1210 45.91                             152    0.0510 75.1 299 
 BRR  HN ES       1211  3.19                             152    0.2210 75.1 299 
 PAM  EZ EP     C 1210 46.79                             152    0.1110 77.1  37 
 PAM  EN ES       1211  4.33                             152   -0.1010 77.1  37 
 PAM  EZ I        1211  6.38         4.0 0.62            153           77.1  37 
 RUS  HZ EP   2   1210 48.10                             145    0.06 5 98.3 178 
 RUS  HN ES   2   1211  6.94                             145    0.10 5 98.3 178 
 RUS  HZ I        1211  9.40         2.6 0.32            145           98.3 178 
 ZAR  HN ES       1211 22.78                             123   -0.21 8  208 292 
                                                                                
