 2016  317 1414 39.9 L   6.790 -73.169141.4  RSN  8 0.2 1.9LRSN                1
 GAP=134        0.58       2.2     2.4  3.7 -0.6140E+00  0.3378E+01  0.6812E+00E
 Epicentro: LOS SANTOS - SANTANDER                                             3
 ACTION:UPD 16-05-13 21:25 OP:cam  STATUS:               ID:20160317141439 L   I
 OLDACT:DUP 16-03-18 00:26 OP:cara STATUS:               ID:20160317140751d    3
 OLDACT:REG 16-03-17 21:11 OP:cara STATUS:               ID:20160317140750     3
 2016-03-17-1407-50M.COL___300                                                 6
 STAT SP IPHASW D HRMM SECON CODA AMPLIT PERI AZIMU VELO AIN AR TRES W  DIS CAZ7
 BAR2 EZ EP       1414 58.87                             171   -0.0710 21.9 184 
 BAR2 EZ ES       1415 13.79                             171   -0.0310 21.9 184 
 BAR2 EZ I        1415 14.76        24.7 0.20            171           21.9 184 
 PAM  EZ EP       1415  1.72                             149   -0.0510 79.8  40 
 PAM  EN ES       1415 18.85                             149   -0.0010 79.8  40 
 PAM  EZ I        1415 20.79        12.9 0.50            152           79.8  40 
 RUS  HZ EP       1415  2.98                             143   -0.1510 99.7 175 
 RUS  HE ES       1415 21.51                             143    0.2510 99.7 175 
 RUS  HZ I        1415 22.29        12.4 0.26            145           99.7 175 
 PTB  HZ EP       1415  5.84                             132   -0.40 9  145 259 
 PTB  HN ES       1415 26.59                             132   -0.21 9  145 259 
 PTB  HZ I        1415 30.69         8.9 0.14            132            145 259 
 SPBC HZ EP       1415  7.67                             128   -0.13 9  161 219 
 SPBC HN ES       1415 29.48                             128   -0.11 9  161 219 
 SPBC HZ I        1415 33.02        23.9 0.10            129            161 219 
 ZAR  HZ EP       1415 12.33                             122    0.50 9  202 293 
 ZAR  HN ES       1415 37.06                             122    0.30 9  202 293 
 ZAR  HZ I        1415 43.32         8.4 0.36            122            202 293 
 CHI  HZ EP       1415 17.43                             116    0.29 8  247 195 
 CHI  HN ES       1415 46.43                             116    0.22 8  247 195 
 CHI  HZ I        1415 50.28         2.5 0.70            118            247 195 
 GUY2CHZ EP       1415 22.64                             112   -0.33 7  298 235 
 GUY2CHE ES       1415 56.70                             112    0.11 7  298 235 
 GUY2CHZ I        1416  3.82         3.1 0.26                           298 235 
                                                                                
