 2017  717 1215 25.1 L   6.901 -74.259 55.1  RSN 12 0.5 2.0LRSN                1
 GAP= 86        1.07       2.2     2.0  6.8  0.1138E+00  0.5941E+00 -0.2161E+00E
 Epicentro: PUERTO PARRA - SANTANDER                                           3
 ACTION:UPD 17-08-30 15:34 OP:rebc STATUS:               ID:20170717121525 L   I
 OLDACT:REG 17-07-17 20:56 OP:lv   STATUS:               ID:20170717120741     3
 2017-07-17-1208-00M.COL___380                                                 6
 STAT SP IPHASW D HRMM SECON CODA AMPLIT PERI AZIMU VELO AIN AR TRES W  DIS CAZ7
 PTB  HZ IP     C 1215 34.87                             134   -0.4810 45.5 209 
 PTB  HN ES       1215 43.02                             134   -0.2910 45.5 209 
 PTB  HZ I        1215 43.58       113.9 0.05            133           45.5 209 
 BRR  HZ EP       1215 37.17                             122    0.0110 64.6  69 
 BRR  HN ES       1215 47.20                             122    0.6610 64.6  69 
 ZAR  HZ EP       1215 39.80                             111   -0.5010 93.0 315 
 ZAR  HE ES       1215 51.82                             111   -0.3110 93.0 315 
 ZAR  HZ I        1215 55.62        28.8 0.10            110           93.0 315 
 BAR2 EZ EP       1215 44.31                             105    0.1110  124 106 
 BAR2 EZ ES       1215 58.85                             105   -0.2210  124 106 
 SPBC HZ EP       1215 45.79                             102   -0.13 9  140 171 
 SPBC HN ES       1216  1.94                             102   -0.18 9  140 171 
 SPBC HZ I        1216  3.54        13.3 0.10            101            140 171 
 HEL  HZ EP       1215 49.15                             100    0.32 9  161 241 
 HEL  HN ES       1216  8.15                             100    0.83 9  161 241 
 HEL  HZ I        1216 10.19        12.6 0.09             99            161 241 
 NOR  HZ EP       1215 49.05                             100    0.40 9  163 205 
 NOR  HN ES       1216  7.20                             100    0.21 9  163 205 
 NOR  HZ I        1216  9.99        24.0 0.12             99            163 205 
 URE  HZ EP       1215 49.06                              99   -0.35 9  169 304 
 URE  HN ES       1216  9.24                              99    0.90 9  169 304 
 URE  HZ I        1216 10.66        42.4 0.05             98            169 304 
 RUS  HZ EP       1215 49.98                              99   -0.27 9  171 131 
 RUS  HN ES       1216  9.68                              99   -0.16 9  171 131 
 RUS  HZ I        1216 12.01         6.6 0.15             98            171 131 
 PAM  EZ EP       1215 51.57                              99    0.39 9  179  74 
 PAM  EN ES       1216 11.79                              99    0.30 9  179  74 
 PAM  EZ I        1216 13.64        26.0 0.49             98            179  74 
 GUY2CHZ EP   3   1215 57.82                              96    1.37 2  222 213 
 GUY2CHN ES       1216 20.50                              96   -0.38 8  222 213 
 GUY2CHZ I        1216 27.98         5.6 0.19                           222 213 
 SJC  HZ EP       1216 10.40                              93   -0.84 6  346 343 
 SJC  HN ES       1216 46.64                              93   -0.56 6  346 343 
                                                                                
