 2017 1017 1614 14.7 L   6.828 -73.145151.4  RSN 13 0.5 2.2LRSN                1
 GAP=111        1.23       4.1     4.4  6.4  0.3294E+01  0.5048E+01  0.6123E+01E
 Epicentro: LOS SANTOS - SANTANDER                                             3
 ACTION:UPD 17-11-07 19:33 OP:rebc STATUS:               ID:20171017161414 L   I
 OLDACT:UP  17-10-17 23:36 OP:edw  STATUS:               ID:20171017160524     3
 OLDACT:UP  17-10-17 23:35 OP:edw  STATUS:               ID:20171017160524     3
 OLDACT:UP  17-10-17 23:34 OP:edw  STATUS:               ID:20171017160524     3
 OLDACT:REG 17-10-17 20:52 OP:edw  STATUS:               ID:20171017160524     3
 2017-10-17-1608-00M.COL___431                                                 6
 STAT SP IPHASW D HRMM SECON CODA AMPLIT PERI AZIMU VELO AIN AR TRES W  DIS CAZ7
 BAR2 EZ EP     D 1614 35.41                             170    0.3410 26.4 189 
 BAR2 EZ ES       1614 50.48                             170   -0.4810 26.4 189 
 BAR2 EZ I        1614 51.46        48.9 0.22            168           26.4 189 
 BRR  HZ EP       1614 35.55                             154   -0.8310 69.9 296 
 BRR  HN ES       1614 54.12                             154    0.8210 69.9 296 
 BRR  HZ I        1614 57.48        27.8 0.30            153           69.9 296 
 PAM  EZ EP       1614 36.45                             153   -0.9310 75.0  41 
 PAM  EN ES       1614 55.43                             153    0.3610 75.0  41 
 PAM  EZ I        1614 57.40        37.4 0.50            156           75.0  41 
 RUS  HZ EP       1614 39.63                             144    0.4110  104 176 
 RUS  HE ES       1614 58.24                             144   -0.1110  104 176 
 RUS  HZ I        1614 58.99        19.6 0.30            145            104 176 
 PTB  HZ EP       1614 42.40                             133    0.21 9  148 258 
 PTB  HN ES       1615  3.10                             133   -0.54 9  148 258 
 PTB  HZ I        1615  5.59        13.2 0.20            133            148 258 
 YPLC HZ EP       1614 45.15                             127   -0.01 9  179 152 
 YPLC HN ES       1615  9.31                             127    0.38 9  179 152 
 YPLC HZ I        1615 12.17        12.2 0.54            129            179 152 
 ZAR  HZ EP       1614 47.56                             124    0.15 9  203 291 
 ZAR  HN ES       1615 13.12                             124    0.20 9  203 291 
 ZAR  HZ I        1615 19.42        17.4 0.34            124            203 291 
 NOR  HZ EP       1614 51.76                             119    0.80 8  237 234 
 NOR  HN ES       1615 18.85                             119   -0.39 8  237 234 
 NOR  HZ I        1615 25.58        11.6 0.14            120            237 234 
 CHI  HZ EP       1614 53.67                             118    0.64 8  252 195 
 CHI  HN ES       1615 22.68                             118   -0.26 8  252 195 
 CHI  HZ I        1615 26.15         5.7 0.38            119            252 195 
 GUY2CHZ EP   4   1615  0.46                             113    1.68 0  303 234 
 GUY2CHE ES   4   1615 36.48                             113    3.32 0  303 234 
 GUY2CHZ I        1615 41.70         7.9 0.56                           303 234 
 PTGC HZ EP       1614 58.63                             112   -0.50 7  312 159 
 PTGC HN ES   4   1615 31.57                             112   -2.22 0  312 159 
 PRA  HZ EP   4   1615  9.95                             107    1.22 0  395 209 
 PRA  HN ES       1615 50.75                             107   -0.13 6  395 209 
 PRA  HZ I        1615 56.64        10.1 0.24            108            395 209 
 SJC  HZ EP       1615  9.99                             107   -0.16 6  407 327 
 SJC  HN ES   4   1615 51.34                             107   -2.07 0  407 327 
 SJC  HZ I        1615 55.39         3.2 0.40            107            407 327 
                                                                                
