 2010  917 1726 34.4 L   6.799 -73.106144.3  RSN  8 0.4 2.8LRSN                1
 GAP=169        0.73       3.8     8.8  7.8 -0.7858E+00  0.2799E+01 -0.6456E+00E
 Epicentro: LOS SANTOS - SANTANDER                                             3
 ACTION:UP  11-02-18 11:03 OP:tino STATUS:               ID:20100917172634 L   I
 2010-09-17-1724-52S.COL___121                                                 6
 STAT SP IPHASW D HRMM SECON CODA AMPLIT PERI AZIMU VELO SNR AR TRES W  DIS CAZ7
 BTL  SZ EP   1   1726 54.28                             171     0.5 7   22 306 
 BAR2 SZ IP     D 1726 53.94                             170     0.110   24 201 
 BAR2 SZ ES   2   1727  8.58                             170    -0.4 5   24 201 
 BRR  HZ IP     C 1726 55.75                             151     0.210   75 297 
 BRR  HZ I        1726 56.82       327.1 0.10                            75 297 
 BRR  HE ES   2   1727 12.72                             151     0.6 5   75 297 
 RUS  HZ IP     C 1726 58.02                             144     0.110  100 179 
 RUS  HN ES   2   1727 15.77                             144    -0.6 5  100 179 
 RUS  HZ I        1727 18.34        75.2 0.28                           100 179 
 GUE  SZ EP       1726 58.79                             139    -0.110  116  10 
 OCA  SZ EP   1   1727  2.29                             129    -0.3 7  161 352 
 OCA  SZ ES   2   1727 24.26                             129    -0.4 5  161 352 
 CHI  HZ EP   1   1727 12.45                             117     0.4 6  250 196 
 CHI  HE ES   2   1727 40.99                             117    -0.5 4  250 196 
 CHI  HZ I        1727 49.46        22.4 0.39                           250 196 
 HEL  HZ EP   1   1727 14.36                             114    -0.6 6  276 256 
 HEL  HZ I        1727 52.38        44.5 0.60                           276 256 
                                                                                
