 2011  517 1052  6.4 L   6.788 -73.114137.0  RSN  8 0.2 1.7LRSN                1
 GAP=141        0.52       2.5     4.5  4.6 -0.3759E+01 -0.1510E+01  0.4882E+00E
 Epicentro: LOS SANTOS - SANTANDER                                             3
 ACTION:UP  11-06-29 08:54 OP:tino STATUS:               ID:20110517105206 L   I
 2011-05-17-1050-06S.COL___141                                                 6
 STAT SP IPHASW D HRMM SECON CODA AMPLIT PERI AZIMU VELO SNR AR TRES W  DIS CAZ7
 BTL  SZ EP       1052 25.12                             170     0.210   22 310 
 BAR2 SZ EP   2   1052 25.07                             170     0.1 5   23 199 
 BAR2 SZ ES   2   1052 38.83                             170    -0.6 5   23 199 
 BAR2 SZ I        1052 42.77        14.6 0.44                            23 199 
 GIR2 SZ EP       1052 24.89                             166    -0.210   33 345 
 BRR  HZ EP       1052 26.84                             150     0.010   75 298 
 BRR  HN ES   1   1052 42.80                             150     0.1 7   75 298 
 BRR  HZ I        1052 47.77        18.3 0.19                            75 298 
 PAM  SZ EP       1052 27.80                             150     0.210   76  37 
 PAM  SN ES   1   1052 44.47                             150     0.4 7   76  37 
 RUS  HZ EP       1052 29.06                             142    -0.110   99 178 
 RUS  HN ES   1   1052 46.98                             142     0.1 7   99 178 
 RUS  HZ I        1052 48.45         5.3 0.18                            99 178 
 BRI  SZ EP       1052 29.35                             139    -0.110  108  19 
 BRI  SZ ES   1   1052 47.22                             139    -0.2 7  108  19 
 GRA  SZ IP       1052 30.66                             135    -0.210  126  16 
 GRA  SZ ES   1   1052 49.85                             135    -0.1 7  126  16 
 GRA  SZ I        1052 51.27         6.2 0.41                           126  16 
                                                                                
