 2016  817 1402 12.3 L   6.832 -73.099147.7  RSN 14 0.5 2.4LRSN                1
 GAP=245        1.09       4.2     4.9  6.1  0.3775E+01  0.9093E+01  0.3206E+01E
 Epicentro: LOS SANTOS - SANTANDER                                             3
 ACTION:UPD 16-10-29 15:36 OP:rebc STATUS:               ID:20160817140212 L   I
 OLDACT:REG 16-08-17 20:47 OP:dnl  STATUS:               ID:20160817135737     3
 2016-08-17-1358-00M.COL___371                                                 6
 STAT SP IPHASW D HRMM SECON CODA AMPLIT PERI AZIMU VELO AIN AR TRES W  DIS CAZ7
 BAR2 EZ EP     C 14 2 32.50                             169    0.2710 28.1 199 
 BAR2 EZ ES       14 2 47.33                             169   -0.4710 28.1 199 
 BAR2 EZ I        14 2 48.75        84.6 0.26                          28.1 199 
 BRR  HZ EP       14 2 34.33                             152    0.5310 74.3 294 
 BRR  HN ES       14 2 51.22                             152    0.6310 74.3 294 
 BRR  HZ I        14 2 51.84        41.2 0.12                          74.3 294 
 RUS  HZ EP       14 2 36.82                             143    0.3710  104 179 
 RUS  HN ES       14 2 55.50                             143    0.2010  104 179 
 RUS  HZ I        14 2 57.32        29.4 0.18                           104 179 
 PTB  HZ EP       14 2 39.12                             131   -0.80 9  154 258 
 PTB  HE ES       14 3  0.90                             131   -0.59 9  154 258 
 PTB  HZ I        14 3  2.80        32.5 0.14                           154 258 
 SPBC HZ EP       14 2 41.49                             129    0.00 9  169 220 
 SPBC HN ES       14 3  3.77                             129   -0.50 9  169 220 
 SPBC HZ I        14 3 10.66        33.9 0.24                           169 220 
 ZAR  HZ EP       14 2 44.77                             122   -0.44 8  208 291 
 ZAR  HN ES       14 3 11.14                             122    0.24 8  208 291 
 ZAR  HZ I        14 3 16.39        36.4 0.50                           208 291 
 NOR  HZ EP       14 2 48.84                             118    0.06 8  241 235 
 NOR  HN ES       14 3 17.03                             118   -0.23 8  241 235 
 NOR  HZ I        14 3 21.76        27.8 0.44                           241 235 
 CHI  HZ EP   2   14 2 50.82                             117    0.23 4  253 196 
 CHI  HN ES       14 3 20.07                             117   -0.41 8  253 196 
 CHI  HZ I        14 3 25.81         8.3 0.22                           253 196 
 HEL  HZ EP   2   14 2 53.66                             115    0.43 4  278 255 
 HEL  HN ES       14 3 26.10                             115    0.91 7  278 255 
 HEL  HZ I        14 3 30.80        23.5 0.38                           278 255 
 URE  HZ EP       14 2 52.89                             114   -0.94 7  287 291 
 URE  HE ES   4   14 3 24.55                             114   -1.70 0  287 291 
 URE  HZ I        14 3 33.75        14.2 0.16                           287 291 
 GUY2CHZ EP   4   14 2 57.75                             112    1.08 0  307 235 
 GUY2CHN ES       14 3 31.83                             112    0.52 7  307 235 
 GUY2CHZ I        14 3 41.83        12.1 0.38                           307 235 
 CBOC HZ EP   2   14 3  0.45                             110    0.50 3  340 252 
 CBOC HN ES       14 3 36.98                             110   -0.17 7  340 252 
 CBOC HZ I        14 3 46.14         5.5 0.52                           340 252 
 PRA  HZ EP       14 3  6.60                             107    0.09 6  398 210 
 PRA  HN ES       14 3 49.48                             107    0.66 6  398 210 
 PRA  HZ I        14 3 54.12        12.1 0.64                           398 210 
 SJC  HZ EP   4   14 3  6.89                             106   -1.00 0  409 326 
 SJC  HN ES   4   14 3 48.01                             106   -3.26 0  409 326 
 SJC  HZ I        14 3 51.11         6.4 0.58                           409 326 
                                                                                
