 2017  717 1713 47.2 L   6.088 -73.748102.7  RSN  7 0.4 1.4LRSN                1
 GAP=110        0.77       3.7     2.8  6.9 -0.3286E+01  0.8797E+01 -0.8908E+01E
 Epicentro: EL PENON - SANTANDER                                               3
 ACTION:UPD 17-08-30 15:34 OP:rebc STATUS:               ID:20170717171347 L   I
 OLDACT:UP  17-07-18 01:26 OP:and  STATUS:               ID:20170717170744d    3
 OLDACT:UP  17-07-18 01:24 OP:and  STATUS:               ID:20170717170744d    3
 OLDACT:UP  17-07-18 01:24 OP:and  STATUS:               ID:20170717170744d    3
 OLDACT:DUP 17-07-18 01:22 OP:and  STATUS:               ID:20170717170744d    3
 OLDACT:UP  17-07-18 01:20 OP:and  STATUS:               ID:20170717170742     3
 OLDACT:UP  17-07-18 01:19 OP:and  STATUS:               ID:20170717170742     3
 OLDACT:UP  17-07-18 01:18 OP:and  STATUS:               ID:20170717170742     3
 OLDACT:UP  17-07-18 01:17 OP:and  STATUS:               ID:20170717170742     3
 OLDACT:UP  17-07-18 01:17 OP:and  STATUS:               ID:20170717170742     3
 OLDACT:REG 17-07-17 21:18 OP:lv   STATUS:               ID:20170717170742     3
 2017-07-17-1708-00M.COL___389                                                 6
 STAT SP IPHASW D HRMM SECON CODA AMPLIT PERI AZIMU VELO AIN AR TRES W  DIS CAZ7
 SPBC HZ EP       1714  2.88                             148   -0.3710 60.1 217 
 SPBC HN ES       1714 15.65                             148   -0.1210 60.1 217 
 SPBC HZ I        1714 16.44         6.4 0.22            152           60.1 217 
 RUS  HZ EP       1714  4.84                             141   -0.1810 76.7 106 
 RUS  HN ES       1714 18.98                             141    0.0710 76.7 106 
 RUS  HZ I        1714 22.20         2.5 0.40            146           76.7 106 
 BAR2 EZ EP       1714  5.34                             138    0.1110 83.9  48 
 BAR2 EZ ES   2   1714 20.11                             138    0.82 5 83.9  48 
 BAR2 EZ I        1714 21.20        12.7 0.42            140           83.9  48 
 PTB  HZ EP       1714  5.64                             134   -0.0510 92.9 303 
 PTB  HN ES   3   1714 18.47                             134   -1.65 2 92.9 303 
 PTB  HZ I        1714 21.90         2.4 0.08            136           92.9 303 
 NOR  HZ EP       1714  9.71                             122   -0.28 9  137 245 
 NOR  HN ES       1714 27.91                             122    0.15 9  137 245 
 NOR  HZ I        1714 30.57         6.2 0.14            126            137 245 
 ZAR  HN ES       1714 39.62                             112    0.15 9  198 322 
 ZAR  HZ I        1714 44.14         3.4 0.26            114            198 322 
 GUY2CHZ EP       1714 17.63                             112   -0.10 9  203 242 
 GUY2CHN ES       1714 42.26                             112    0.71 9  203 242 
 GUY2CHZ I        1714 45.22         4.1 0.32                           203 242 
                                                                                
