 2017  917 1049 20.6 L   6.794 -73.077144.3  RSN 12 0.8 2.0LRSN                1
 GAP=125        1.63       5.2     6.1  8.9  0.1099E+01  0.1285E+02  0.1610E+02E
 Epicentro: LOS SANTOS - SANTANDER                                             3
 ACTION:UPD 17-10-05 19:13 OP:rebc STATUS:               ID:20170917104920 L   I
 OLDACT:REG 17-09-17 20:58 OP:dnl  STATUS:               ID:20170917104744     3
 2017-09-17-1048-00M.COL___397                                                 6
 STAT SP IPHASW D HRMM SECON CODA AMPLIT PERI AZIMU VELO AIN AR TRES W  DIS CAZ7
 BAR2 EZ IP     D 1049 39.77                             170   -0.2910 25.1 208 
 BAR2 EZ ES       1049 55.97                             170    0.7110 25.1 208 
 BAR2 EZ I        1049 57.94        12.3 0.16            165           25.1 208 
 PAM  EZ EP       1049 42.56                             152    0.1710 73.4  35 
 PAM  EE ES       1049 59.56                             152    0.1510 73.4  35 
 PAM  EZ I        1050  0.16        26.3 0.22            158           73.4  35 
 BRR  HZ IP     D 1049 41.53                             150   -0.4410 78.3 296 
 BRR  HN ES       1049 58.72                             150    0.0510 78.3 296 
 BRR  HZ I        1050  2.38        14.2 0.12            149           78.3 296 
 RUS  HZ EP       1049 43.88                             144   -0.2210 99.6 180 
 RUS  HN ES       1050  2.74                             144    0.2810 99.6 180 
 RUS  HZ I        1050  4.32        10.8 0.40            143           99.6 180 
 SPBC HZ EP       1049 48.91                             128   -0.46 9  168 221 
 SPBC HE ES       1050 11.33                             128   -0.50 9  168 221 
 SPBC HZ I        1050 18.17        14.4 0.22            128            168 221 
 ZAR  HZ EP       1049 54.34                             121    0.67 8  211 292 
 ZAR  HE ES       1050 18.11                             121   -1.39 8  211 292 
 ZAR  HZ I        1050 25.01         9.7 0.32            122            211 292 
 CHI  HZ EP   2   1049 58.55                             117    0.22 4  250 197 
 CHI  HN ES       1050 28.04                             117    0.24 8  250 197 
 CHI  HZ I        1050 33.34         3.6 0.36            118            250 197 
 ROSC BZ EP       1050  1.21                             116    2.24 8  256 213 
 ROSC BE ES       1050 29.08                             116    0.14 8  256 213 
 ROSC BZ I        1050 37.90        12.1 0.45            117            256 213 
 HEL  HZ EP   2   1050  2.59                             114    1.09 4  279 256 
 HEL  HN ES       1050 32.89                             114   -0.54 7  279 256 
 HEL  HZ I        1050 39.45         5.7 0.26            115            279 256 
 PTGC HZ EP       1050  2.94                             112   -1.03 7  305 160 
 PTGC HN ES       1050 36.61                             112   -1.22 7  305 160 
 PTGC HZ I        1050 41.26         6.5 0.38            113            305 160 
 GUY2CHZ EP   2   1050  5.31                             112    0.55 4  307 236 
 GUY2CHN ES       1050 40.26                             112    1.02 7  307 236 
 GUY2CHZ I        1050 47.84         7.2 0.60                           307 236 
 PRA  HZ EP     D 1050 15.02                             106    0.61 6  395 211 
 PRA  HE ES       1050 55.67                             106   -0.73 6  395 211 
 PRA  HZ I        1051  2.44         4.5 0.68            107            395 211 
                                                                                
