 2015  617 1056 11.8 L   6.814 -73.097145.8  RSN  7 0.5 2.0LRSN                1
 GAP=188        1.22       4.3     7.1  8.2  0.4599E+01  0.8605E+01 -0.8957E+01E
 Epicentro: LOS SANTOS - SANTANDER                                             3
 ACTION:UPD 15-09-10 22:13 OP:cam  STATUS:               ID:20150617105611 L   I
 OLDACT:REG 15-06-17 21:11 OP:stll STATUS:               ID:20150617104750     3
 2015-06-17-1047-50M.COL___309                                                 6
 STAT SP IPHASW D HRMM SECON CODA AMPLIT PERI AZIMU VELO AIN AR TRES W  DIS CAZ7
 BAR2 EZ EP       1056 31.86                             169    0.4010 26.2 201 
 BAR2 EZ ES       1056 46.42                             169   -0.4110 26.2 201 
 BAR2 EZ I        1056 47.57        16.6 0.34            167           26.2 201 
 BRR  HZ EP       1056 33.75                             151    0.5910 75.3 296 
 BRR  HE ES       1056 50.62                             151    0.7810 75.3 296 
 BRR  HZ I        1056 53.85        10.5 0.26            147           75.3 296 
 RUS  HZ EP       1056 35.53                             143   -0.0810  102 179 
 RUS  HE ES       1056 54.00                             143   -0.2210  102 179 
 RUS  HZ I        1056 55.98         9.4 0.40            146            102 179 
 OCA  HZ EP       1056 40.15                             130    0.14 9  160 351 
 OCA  HE ES       1057  1.71                             130   -0.33 9  160 351 
 OCA  HZ I        1057  7.19        24.1 0.30            130            160 351 
 ZAR  HZ EP       1056 45.35                             122    0.68 8  209 291 
 ZAR  HN ES       1057 10.33                             122   -0.01 8  209 291 
 ZAR  HZ I        1057 16.73         7.4 0.26            121            209 291 
 NOR  HZ EP   2   1056 48.24                             118    0.18 4  240 235 
 NOR  HE ES       1057 15.54                             118   -0.84 8  240 235 
 NOR  HZ I        1057 23.09         4.9 0.20            118            240 235 
 SML  HZ EP       1056 47.98                             117   -0.52 8  245 334 
 SML  HE ES       1057 16.28                             117   -0.86 8  245 334 
 SML  HZ I        1057 23.34        11.6 0.10            118            245 334 
                                                                                
