 2016  317 1355 52.9 L   6.794 -73.195140.7  RSN  6 0.3 1.8LRSN                1
 GAP=144        0.78       3.6     4.2  5.4 -0.5837E+01  0.4875E+01  0.2509E+01E
 Epicentro: ZAPATOCA - SANTANDER                                               3
 ACTION:UPD 16-05-13 21:25 OP:cam  STATUS:               ID:20160317135552 L   I
 OLDACT:REG 16-03-17 21:09 OP:cara STATUS:               ID:20160317134748     3
 2016-03-17-1347-48M.COL___300                                                 6
 STAT SP IPHASW D HRMM SECON CODA AMPLIT PERI AZIMU VELO AIN AR TRES W  DIS CAZ7
 BAR2 EZ IP       1356 11.93                             171    0.0310 22.4 176 
 BAR2 EZ I        1356 12.15        14.4 0.10            169           22.4 176 
 BAR2 EZ ES       1356 26.53                             171   -0.1910 22.4 176 
 PAM  EZ EP       1356 14.82                             149   -0.0110 81.4  42 
 PAM  EN ES       1356 32.05                             149    0.1210 81.4  42 
 PAM  EZ I        1356 33.96         4.3 0.48            149           81.4  42 
 RUS  HZ EP       1356 15.79                             143   -0.3610  100 173 
 RUS  HZ I        1356 16.71         3.9 0.46            142            100 173 
 RUS  HN ES       1356 34.54                             143    0.2610  100 173 
 PTB  HZ EP       1356 18.68                             132   -0.28 9  142 259 
 PTB  HN ES       1356 39.68                             132    0.40 9  142 259 
 PTB  HZ  AMP     1356 45.30       172.0 1.26                           142 259 
 SPBC HZ EP       1356 20.99                             129    0.35 9  159 218 
 SPBC HE ES       1356 41.67                             129   -0.61 9  159 218 
 CHI  HZ EP       1356 30.13                             116    0.02 8  247 194 
 CHI  HN ES       1356 59.51                             116    0.39 8  247 194 
 CHI  HZ I        1357  3.06         1.6 0.26            116            247 194 
                                                                                
