 2015  217 1739 40.1 L   6.770 -73.197142.7  RSN 12 0.5 1.8LRSN                1
 GAP=132        1.22       3.6     5.0  7.4 -0.2811E+01  0.1369E+02  0.1689E+01E
 Epicentro: ZAPATOCA - SANTANDER                                               3
 ACTION:UPD 15-04-30 21:27 OP:nd   STATUS:               ID:20150217173940 L   I
 OLDACT:DUP 15-02-17 21:51 OP:fm\  STATUS:               ID:20150217173748d    3
 2015-02-17-1737-47M.COL___292                                                 6
 STAT SP IPHASW D HRMM SECON CODA AMPLIT PERI AZIMU VELO AIN AR TRES W  DIS CAZ7
 BAR2 EZ IP     C 1739 59.62                             172    0.3410 19.8 175 
 BAR2 EZ ES       1740 14.58                             172    0.3210 19.8 175 
 BAR2 EZ I        1740 16.02         8.6 0.52            172           19.8 175 
 BRR  HZ EP     C 1740  1.54                             153    0.8110 68.0 303 
 BRR  HE ES       1740 17.72                             153    0.8910 68.0 303 
 BRR  HZ I        1740 24.66        16.5 0.36            151           68.0 303 
 PAM  SZ EP     C 1740  2.46                             148    0.1010 83.6  41 
 PAM  SE ES       1740 18.93                             148   -0.8110 83.6  41 
 PAM  SZ I        1740 21.06        10.1 0.22            153           83.6  41 
 RUS  HZ EP       1740  3.62                             144    0.2810 97.9 173 
 RUS  HE ES       1740 21.05                             144   -0.4310 97.9 173 
 RUS  HZ I        1740 23.51         6.8 0.34            147           97.9 173 
 PTB  HZ EP       1740  6.37                             133    0.13 9  142 260 
 PTB  HN ES       1740 26.15                             133   -0.50 9  142 260 
 PTB  HZ I        1740 29.62        15.3 0.16            133            142 260 
 SPBC HE ES       1740 28.79                             129   -0.58 9  157 218 
 SPBC HZ I        1740 33.81        13.9 0.20            131            157 218 
 NOR  HZ EP   1   1740 15.42                             119    0.48 6  228 234 
 NOR  HE ES       1740 42.26                             119    0.14 8  228 234 
 NOR  HZ I        1740 49.39         5.9 0.32            120            228 234 
 CHI  HN ES       1740 45.70                             117   -0.30 8  244 194 
 SML  HN ES       1740 44.33                             117   -0.78 8  244 337 
 SML  HZ I        1740 49.25         7.7 0.22            119            244 337 
 GUY2CHZ EP       1740 22.62                             112   -0.20 7  295 235 
 GUY2CHE ES       1740 56.06                             112   -0.09 7  295 235 
 GUY2CHZ I        1741  6.71         3.7 0.52                           295 235 
 MON  HE ES       1741  6.14                             108   -0.47 6  351 309 
 MON  HZ I        1741 11.04         1.6 0.26            110            351 309 
 PRA  HN ES       1741 14.18                             106    0.19 6  386 209 
 PRA  HZ I        1741 21.35         2.5 0.20            108            386 209 
                                                                                
