 2015  917 1053 28.7 L   6.747 -73.152136.9  RSN 10 0.4 1.7LRSN                1
 GAP=138        0.99       3.3     4.1  5.6 -0.1518E+00  0.5710E+01  0.4420E+01E
 Epicentro: LOS SANTOS - SANTANDER                                             3
 ACTION:UPD 15-10-28 16:26 OP:cam  STATUS:               ID:20150917105328 L   I
 OLDACT:REG 15-09-17 20:21 OP:drio STATUS:               ID:20150917104748     3
 2015-09-17-1047-48M.COL___343                                                 6
 STAT SP IPHASW D HRMM SECON CODA AMPLIT PERI AZIMU VELO AIN AR TRES W  DIS CAZ7
 BAR2 EZ EP       1053 47.17                             172    0.0010 17.5 191 
 BAR2 EZ ES       1054  1.48                             172   -0.0810 17.5 191 
 BAR2 EZ I        1054  3.53        14.6 0.22            170           17.5 191 
 BRR  HZ EP       1053 49.18                             150    0.1210 73.6 303 
 BRR  HN ES       1054  6.00                             150    1.0710 73.6 303 
 BRR  HZ I        1054  7.41         9.6 0.36            149           73.6 303 
 PAM  EZ EP       1053 50.10                             147   -0.2110 82.4  37 
 PAM  EN ES       1054  6.92                             147   -0.2410 82.4  37 
 PAM  EZ I        1054  7.76         4.6 0.20            151           82.4  37 
 RUS  HZ EP       1053 51.22                             144    0.0410 94.8 175 
 RUS  HN ES       1054  8.51                             144   -0.1910 94.8 175 
 RUS  HZ I        1054 11.21         2.9 0.20            143           94.8 175 
 PTB  HZ EP       1053 54.38                             130   -0.44 9  146 261 
 PTB  HN ES       1054 14.35                             130   -0.83 9  146 261 
 PTB  HZ I        1054 17.50         7.0 0.30            129            146 261 
 SPBC HZ EP       1053 56.41                             128    0.34 9  158 220 
 SPBC HE ES       1054 17.37                             128   -0.04 9  158 220 
 SPBC HZ I        1054 22.50         7.6 0.20            127            158 220 
 ZAR  HZ EP       1054  1.01                             120    0.24 8  206 294 
 ZAR  HN ES       1054 25.52                             120   -0.26 8  206 294 
 ZAR  HZ I        1054 30.86         7.4 0.58            120            206 294 
 CHI  HZ EP       1054  5.38                             116    0.08 8  243 195 
 CHI  HE ES       1054 34.00                             116    0.17 8  243 195 
 CHI  HZ I        1054 41.93         2.3 0.50            116            243 195 
 SML  HZ EP   4   1054  3.71                             115   -1.71 0  249 336 
 SML  HE ES   4   1054 32.51                             115   -1.54 0  249 336 
 SML  HZ I        1054 38.24         7.5 0.26            116            249 336 
 PRA  HZ EP       1054 21.51                             105    0.21 6  387 210 
 PRA  HE ES       1055  2.67                             105    0.34 6  387 210 
 PRA  HZ I        1055 10.09         3.1 0.30            105            387 210 
                                                                                
