 2017  717 1206 35.1 L   6.754 -73.162147.6  RSN 10 0.5 1.7LRSN                1
 GAP=112        1.14       4.0     3.8  6.3  0.9109E+00  0.5968E+01  0.4520E+01E
 Epicentro: LOS SANTOS - SANTANDER                                             3
 ACTION:UPD 17-08-30 15:34 OP:rebc STATUS:               ID:20170717120635 L   I
 OLDACT:DUP 17-07-17 23:15 OP:lv   STATUS:               ID:20170717115744d    3
 2017-07-17-1158-00M.COL___380                                                 6
 STAT SP IPHASW D HRMM SECON CODA AMPLIT PERI AZIMU VELO AIN AR TRES W  DIS CAZ7
 BAR2 EZ EP       12 6 54.83                             173   -0.0610 18.0 187 
 BAR2 EZ ES       12 7 10.18                             173   -0.1210 18.0 187 
 BAR2 EZ I        12 7 11.50        32.5 0.16            172           18.0 187 
 BRR  HZ EP       12 6 56.71                             152    0.1710 72.2 303 
 BRR  HN ES       12 7 14.06                             152    0.8210 72.2 303 
 BRR  HE ES       12 7 14.10                                           72.2 303 
 PAM  EZ EP       12 6 57.74                             150   -0.1210 82.5  38 
 PAM  EN ES       12 7 15.01                             150   -0.5710 82.5  38 
 PAM  EZ I        12 7 17.34         5.8 0.27            152           82.5  38 
 RUS  HZ EP       12 6 58.81                             146    0.0910 95.6 175 
 RUS  HN ES       12 7 17.23                             146    0.1110 95.6 175 
 PTB  HZ EP       12 7  1.63                             133   -0.38 9  145 261 
 PTB  HN ES       12 7 22.61                             133   -0.36 9  145 261 
 PTB  HZ I        12 7 25.71         4.7 0.17            133            145 261 
 SPBC HZ EP       12 7  3.74                             130    0.44 9  158 220 
 SPBC HN ES       12 7 26.21                             130    0.94 9  158 220 
 YPLC HZ EP       12 7  5.06                             128    0.34 9  173 150 
 YPLC HN ES       12 7 27.34                             128   -0.45 9  173 150 
 ZAR  HZ EP       12 7  7.65                             123   -0.09 9  204 294 
 ZAR  HN ES       12 7 33.08                             123   -0.08 9  204 294 
 NOR  HZ EP       12 7 10.98                             119    0.48 8  230 235 
 NOR  HN ES       12 7 37.11                             119   -0.98 8  230 235 
 NOR  HZ I        12 7 45.31         4.1 0.06            120            230 235 
 GUY2CHZ EP       12 7 18.39                             113    0.05 7  297 235 
 GUY2CHN ES       12 7 51.45                             113   -0.58 7  297 235 
 GUY2CHZ I        12 8  2.10         1.7 0.27                           297 235 
                                                                                
