 2017  717 1652  3.3 L   7.084 -73.128160.0  RSN  8 0.4 1.9LRSN                1
 GAP=254        1.06       7.0     5.9  8.4  0.1354E+02  0.1908E+00 -0.4134E+01E
 Epicentro: BUCARAMANGA - SANTANDER                                            3
 ACTION:UPD 17-08-30 15:34 OP:rebc STATUS:               ID:20170717165203 L   I
 OLDACT:UP  17-07-18 01:35 OP:lv   STATUS:               ID:20170717164740     3
 OLDACT:REG 17-07-17 21:17 OP:lv   STATUS:               ID:20170717164740     3
 2017-07-17-1648-00M.COL___389                                                 6
 STAT SP IPHASW D HRMM SECON CODA AMPLIT PERI AZIMU VELO AIN AR TRES W  DIS CAZ7
 BAR2 EZ EP       1652 25.29                             160   -0.3210 54.7 186 
 BAR2 EZ ES       1652 42.39                             160   -0.6010 54.7 186 
 BAR2 EZ I        1652 43.92        23.3 0.32            150           54.7 186 
 BRR  HZ EP       1652 26.33                             157    0.6310 64.6 272 
 BRR  HN ES       1652 43.71                             157    0.5610 64.6 272 
 RUS  HZ EP       1652 30.83                             139    0.0110  132 178 
 RUS  HN ES       1652 52.59                             139    0.3310  132 178 
 RUS  HZ I        1652 55.18         8.5 0.17            132            132 178 
 PTB  HZ EP       1652 32.12                             133   -0.33 9  159 248 
 PTB  HN ES       1652 54.74                             133   -0.42 9  159 248 
 PTB  HZ I        1652 58.17         8.5 0.20            126            159 248 
 ZAR  HE ES       1653  1.15                             126   -0.29 9  196 283 
 ZAR  HZ I        1653  3.24        10.6 0.30            123            196 283 
 NOR  HN ES       1653 12.84                             119    0.43 8  256 229 
 NOR  HZ I        1653 24.62                             115            256 229 
 GUY2CHZ EP   9   1652 51.95                             113    2.02 0  322 230 
 GUY2CHN ES       1653 28.39                                    0.09 7  322 230 
 GUY2CHZ I        1653 40.14         2.9 0.49                           322 230 
 SJC  HZ EP   4   1652 52.94                             109   -3.58 0  384 324 
 SJC  HN ES   4   1653 32.07                             109   -5.95 0  384 324 
 SJC  HZ I        1653 34.64         2.3 0.20            108            384 324 
                                                                                
