 2015  417 1226 51.5 L   6.257 -73.721 94.8  RSN 16 0.4 2.2LRSN                1
 GAP= 62        1.01       2.2     2.6  5.7 -0.7689E+00  0.5844E+01  0.5979E-01E
 Epicentro: LANDAZURI - SANTANDER                                              3
 ACTION:UPD 15-06-03 16:55 OP:cam  STATUS:               ID:20150417122651 L   I
 OLDACT:DUP 15-04-17 22:35 OP:ak   STATUS:               ID:20150417121749d    3
 2015-04-17-1217-48M.COL___272                                                 6
 STAT SP IPHASW D HRMM SECON CODA AMPLIT PERI AZIMU VELO AIN AR TRES W  DIS CAZ7
 BAR2 EZ IP     D 1227  7.95                             141    0.3010 70.1  58 
 BAR2 EZ ES       1227 20.36                             141    0.0710 70.1  58 
 BAR2 EZ I        1227 23.08        87.1 0.13            143           70.1  58 
 SPBC HZ EP       1227  8.35                             138    0.3210 77.4 210 
 SPBC HN ES       1227 21.54                             138    0.5810 77.4 210 
 SPBC HZ I        1227 24.41        62.7 0.14            137           77.4 210 
 RUS  HZ EP     C 1227  9.04                             137    0.1410 81.2 120 
 RUS  HN ES       1227 22.36                             137   -0.1610 81.2 120 
 RUS  HZ I        1227 23.71        10.3 0.27            137           81.2 120 
 PTB  HZ EP       1227  8.02                             134   -0.7410 87.2 291 
 PTB  HE ES       1227 21.79                             134   -0.4810 87.2 291 
 PTB  HZ I        1227 22.31        47.4 0.12            134           87.2 291 
 BRR  HZ EP       1227  9.25                             132   -0.1110 94.0   1 
 BRR  HE ES       1227 23.50                             132    0.1710 94.0   1 
 BRR  HZ I        1227 25.07        40.1 0.19            133           94.0   1 
 NOR  HZ EP       1227 14.42                             118   -0.55 9  149 239 
 NOR  HE ES       1227 32.75                             118   -0.56 9  149 239 
 NOR  HZ I        1227 37.02        36.7 0.20            118            149 239 
 ZAR  HZ EP       1227 18.91                             113   -0.15 9  186 317 
 ZAR  HN ES       1227 41.12                             113    0.53 9  186 317 
 ZAR  HZ I        1227 42.89        20.0 0.29            113            186 317 
 HEL  HZ EP       1227 21.43                             111    0.25 9  200 268 
 HEL  HN ES       1227 44.60                             111    0.23 9  200 268 
 HEL  HZ I        1227 48.35        13.8 0.26            111            200 268 
 GUY2CHZ EP       1227 23.38                             110    0.36 8  215 238 
 GUY2CHN ES   4   1227 49.12                             110    1.47 0  215 238 
 GUY2CHZ I        1227 55.22        16.0 0.26                           215 238 
 OCA  HN ES       1227 48.42                             109   -0.31 8  224  11 
 RREF HN ES   4   1227 55.41                             108    3.35 0  234 230 
 VIL  SZ EP   2   1227 25.39                             107    0.19 4  237 179 
 VIL  SN ES       1227 50.72                             107   -0.80 8  237 179 
 VIL  SZ I        1227 57.10        25.2 0.32            107            237 179 
 CBOC HZ EP       1227 27.96                             106    0.33 8  257 260 
 CBOC HN ES       1227 55.72                             106   -0.14 8  257 260 
 CBOC HZ I        1228  0.27         5.7 0.34            106            257 260 
 URE  HZ EP   4   1227 26.03                             106   -1.68 0  260 310 
 URE  HN ES   4   1227 53.25                             106   -2.74 0  260 310 
 URE  HZ I        1227 55.75        10.2 0.14            106            260 310 
 SML  HZ EP   2   1227 29.89                             104   -0.70 4  284 352 
 SML  HE ES       1228  1.37                             104    0.25 7  284 352 
 SML  HZ I        1228  6.29        20.6 0.09            105            284 352 
 ORTC HZ EP   1   1227 33.90                             103    0.15 5  310 213 
 ORTC HN ES       1228  7.69                             103    0.95 7  310 213 
 ORTC HZ I        1228 15.74         5.6 0.38            103            310 213 
 MON  HZ EP   4   1227 36.96                             101   -1.81 0  352 323 
 MON  HN ES   4   1228 14.70                             101   -0.97 0  352 323 
 MON  HZ I        1228 15.99         2.3 0.34            101            352 323 
                                                                                
