 2016 1217 1201 49.6 L   6.771 -73.164141.5  RSN  4 0.1 1.3LRSN                1
 GAP=242        0.45       4.5     3.4  4.3  0.1003E+02  0.1946E+01 -0.2853E+01E
 Epicentro: LOS SANTOS - SANTANDER                                             3
 ACTION:UPD 17-01-11 20:16 OP:rebc STATUS:               ID:20161217120149 L   I
 OLDACT:REG 16-12-17 19:35 OP:edw  STATUS:               ID:20161217115751     3
 2016-12-17-1158-00M.COL___369                                                 6
 STAT SP IPHASW D HRMM SECON CODA AMPLIT PERI AZIMU VELO AIN AR TRES W  DIS CAZ7
 BAR2 EZ EP       12 2  8.54                             172   -0.1010 19.8 186 
 BAR2 EZ ES       12 2 23.42                             172   -0.0810 19.8 186 
 BAR2 EZ I        12 2 26.14         4.3 0.46            169           19.8 186 
 RUS  HZ EP       12 2 12.77                             144    0.0810 97.5 175 
 RUS  HN ES       12 2 30.88                             144    0.1610 97.5 175 
 RUS  HZ I        12 2 32.87         1.0 0.46            145           97.5 175 
 PTB  HZ EP       12 2 15.83                             132   -0.14 9  145 260 
 PTB  HN ES       12 2 36.39                             132   -0.16 9  145 260 
 PTB  HZ I        12 2 41.40         2.7 0.28            132            145 260 
 ZAR  HN ES       12 2 47.00                             121    0.27 9  203 293 
 ZAR  HZ I        12 2 50.31         4.9 0.28            123            203 293 
                                                                                
