 2010 1017 1014 19.7 L   6.790 -73.091147.5  RSN 13 0.4 2.2LRSN                1
 GAP=165        0.97       3.9     7.6  6.5 -0.9401E+01  0.9807E+01  0.1669E+01E
 Epicentro: LOS SANTOS - SANTANDER                                             3
 ACTION:UP  11-02-18 11:10 OP:tino STATUS:               ID:20101017101419 L   I
 2010-10-17-1011-45S.COL___126                                                 6
 STAT SP IPHASW D HRMM SECON CODA AMPLIT PERI AZIMU VELO SNR AR TRES W  DIS CAZ7
 BAR2 SZ IP       1014 39.34                             170    -0.210   24 205 
 BAR2 SZ ES   1   1014 54.65                             170    -0.4 7   24 205 
 BTL  SZ IP       1014 39.43                             170    -0.110   24 306 
 BAR2 SZ I        1014 56.19        33.0 0.21                            24 205 
 GIR2 SZ EP       1014 39.40                             166    -0.210   34 340 
 URB  SZ EP       1014 40.24                             158    -0.110   56 332 
 BRR  HZ IP     C 1014 41.23                             151    -0.110   77 297 
 BRR  HZ I        1014 41.52        90.9 0.14                            77 297 
 BRR  HN ES   1   1014 58.92                             151     0.7 7   77 297 
 RUS  HZ EP       1014 43.61                             145     0.110   99 180 
 RUS  HE ES   1   1015  2.20                             145     0.1 7   99 180 
 RUS  HZ I        1015  3.21        15.2 0.25                            99 180 
 GUE  SZ EP       1014 45.40                             140     0.910  117   9 
 GRA  SZ IP       1014 45.12                             137     0.110  125  15 
 GRA  SZ I        1014 46.29        20.3 0.06                           125  15 
 GRA  SZ ES   1   1015  4.87                             137     0.1 7  125  15 
 OCA  SZ EP       1014 47.66                             130    -0.6 9  162 351 
 OCA  SZ ES   2   1015  9.92                             130    -0.7 5  162 351 
 OCA  SZ I        1015 15.65        23.9 0.27                           162 351 
 NOR  SZ EP       1014 55.42                             118    -0.6 8  239 236 
 NOR  SN ES   3   1015 23.95                             118    -0.3 2  239 236 
 CHI  HZ EP       1014 57.51                             117     0.0 8  249 197 
 CHI  HZ I        1015  0.01         5.9 0.36                           249 197 
 CHI  HE ES   3   1015 27.64                             117     0.6 2  249 197 
 HEL  HZ EP       1015  1.16                             115     0.6 7  278 256 
 HEL  HE ES   3   1015 32.25                             115    -0.3 2  278 256 
 HEL  HZ I        1015 37.67        12.0 0.37                           278 256 
 PRA  HZ EP       1015 13.79                             107     0.3 6  394 210 
 PRA  HE ES   2   1015 55.54                             107     0.1 3  394 210 
                                                                                
