 2015  417 1830 48.5 L   6.754 -73.152144.5  RSN  7 0.4 2.0LRSN                1
 GAP=138        0.99       4.6     4.1  6.8 -0.1105E+01  0.7766E+01  0.5067E+01E
 Epicentro: LOS SANTOS - SANTANDER                                             3
 ACTION:UPD 15-06-03 16:55 OP:cam  STATUS:               ID:20150417183048 L   I
 OLDACT:REG 15-04-17 20:56 OP:ak   STATUS:               ID:20150417182750     3
 2015-04-17-1827-50M.COL___272                                                 6
 STAT SP IPHASW D HRMM SECON CODA AMPLIT PERI AZIMU VELO AIN AR TRES W  DIS CAZ7
 BAR2 EZ EP       1831  7.78                             172   -0.1110 18.2 191 
 BAR2 EZ ES       1831 22.96                             172   -0.0510 18.2 191 
 BAR2 EZ I        1831 23.68        23.4 0.16            169           18.2 191 
 BRR  HN ES       1831 26.65                             152    0.5510 73.2 302 
 PAM  SZ EP       1831 11.01                             149    0.1610 81.7  38 
 PAM  SN ES       1831 27.83                             149   -0.4510 81.7  38 
 RUS  HZ EP       1831 12.07                             145    0.2910 95.6 175 
 RUS  HN ES       1831 30.15                             145    0.2310 95.6 175 
 RUS  HZ I        1831 31.92        13.5 0.40            144           95.6 175 
 PTB  HZ EP       1831 14.79                             132   -0.44 9  146 261 
 PTB  HN ES       1831 35.28                             132   -0.79 9  146 261 
 PTB  HZ I        1831 39.08        12.4 0.24            130            146 261 
 ZAR  HN ES       1831 46.87                             122    0.51 8  205 294 
 ZAR  HZ I        1831 52.83         8.7 0.38            121            205 294 
 NOR  HZ EP       1831 23.84                             119    0.05 8  231 235 
 NOR  HN ES       1831 51.40                             119    0.09 8  231 235 
 NOR  HZ I        1831 59.03         5.5 0.18            118            231 235 
                                                                                
