 2015  217 1753 47.9 L   6.774 -73.183138.0  RSN 11 0.4 1.9LRSN                1
 GAP=133        0.99       3.3     4.2  5.6 -0.3544E+01  0.6724E+01  0.3903E+01E
 Epicentro: LOS SANTOS - SANTANDER                                             3
 ACTION:UPD 15-04-30 21:27 OP:nd   STATUS:               ID:20150217175348dL   I
 OLDACT:DUP 15-02-17 22:17 OP:fm\  STATUS:               ID:20150217174745d    3
 OLDACT:DUP 15-02-17 22:11 OP:fm\  STATUS:               ID:20150217174744d    3
 2015-02-17-1747-43M.COL___292                                                 6
 STAT SP IPHASW D HRMM SECON CODA AMPLIT PERI AZIMU VELO AIN AR TRES W  DIS CAZ7
 BAR2 EZ EP       1754  6.69                             171    0.1410 20.1 180 
 BAR2 EZ ES       1754 21.84                             171    0.7610 20.1 180 
 BAR2 EZ I        1754 23.18        15.1 0.34            170           20.1 180 
 BRR  HZ EP       1754  8.42                             152    0.3210 69.1 302 
 BRR  HE ES       1754 24.14                             152    0.2910 69.1 302 
 BRR  HZ I        1754 28.79        26.7 0.32            150           69.1 302 
 PAM  SZ EP       1754  9.59                             148   -0.0310 82.3  41 
 PAM  SE ES       1754 25.99                             148   -0.5610 82.3  41 
 PAM  SZ I        1754 28.69        18.6 0.48            153           82.3  41 
 RUS  HZ EP       1754 10.66                             143   -0.0610 98.1 174 
 RUS  HE ES       1754 28.42                             143   -0.1010 98.1 174 
 RUS  HZ I        1754 30.56         9.3 0.32            146           98.1 174 
 PTB  HZ EP       1754 13.74                             131   -0.09 9  143 260 
 PTB  HN ES       1754 33.83                             131   -0.21 9  143 260 
 PTB  HZ I        1754 40.19        11.4 0.22            131            143 260 
 SPBC HZ EP       1754 15.70                             128    0.34 9  158 218 
 SPBC HN ES       1754 36.10                             128   -0.67 9  158 218 
 SPBC HZ I        1754 41.73        10.6 0.10            129            158 218 
 NOR  HZ EP       1754 23.30                             117    0.65 8  230 234 
 NOR  HN ES       1754 49.75                             117   -0.00 8  230 234 
 NOR  HZ I        1754 58.29         5.0 0.32            119            230 234 
 CHI  HN ES       1754 52.83                             116   -0.69 8  245 194 
 SML  HE ES   1   1754 51.54                             116   -0.99 6  245 336 
 SML  HZ I        1754 55.62        13.8 0.10            118            245 336 
 GUY2CHZ EP       1754 30.60                             111    0.00 7  296 235 
 GUY2CHE ES       1755  3.81                             111   -0.08 7  296 235 
 GUY2CHZ I        1755 13.23         2.7 0.56                           296 235 
 PRA  HZ EP       1754 41.03                             105    0.39 6  387 209 
 PRA  HE ES       1755 21.85                             105    0.08 6  387 209 
 PRA  HZ I        1755 30.87         2.2 0.46            107            387 209 
                                                                                
