 2015  817 1208 58.7 L   6.331 -73.579114.6  RSN 15 0.3 2.0LRSN                1
 GAP= 54        0.76       2.0     2.2  4.5 -0.1679E+01  0.3467E+01 -0.1632E+01E
 Epicentro: SANTA HELENA DEL OPON - SANTANDER                                  3
 ACTION:UPD 15-09-15 23:02 OP:cam  STATUS:               ID:20150817120858 L   I
 OLDACT:REG 15-08-17 21:07 OP:spq  STATUS:               ID:20150817120748     3
 2015-08-17-1207-48M.COL___322                                                 6
 STAT SP IPHASW D HRMM SECON CODA AMPLIT PERI AZIMU VELO AIN AR TRES W  DIS CAZ7
 BAR2 EZ IP     C 12 9 15.84                             154    0.0910 52.5  57 
 BAR2 EZ ES   1   12 9 29.04                             154   -0.03 7 52.5  57 
 BAR2 EZ I        12 9 30.91        25.4 0.14            156           52.5  57 
 RUS  HZ EP       12 9 17.07                             145   -0.3210 73.2 131 
 RUS  HE ES   1   12 9 31.90                             145   -0.09 7 73.2 131 
 RUS  HZ I        12 9 33.01        14.9 0.18            149           73.2 131 
 BRR  HZ EP       12 9 17.39                             140   -0.3410 87.1 350 
 BRR  HN ES       12 9 32.51                             140   -0.0810 87.1 350 
 BRR  HZ I        12 9 35.03        21.8 0.14            140           87.1 350 
 SPBC HZ EP   1   12 9 17.75                             138   -0.56 7 92.8 216 
 SPBC HE ES       12 9 34.06                             138    0.4310 92.8 216 
 SPBC HZ I        12 9 36.26        33.3 0.20            139           92.8 216 
 PAM  EZ EP       12 9 24.04                             124    0.09 9  148  41 
 PAM  EE ES       12 9 43.59                             124   -0.07 9  148  41 
 PAM  EZ I        12 9 47.52         9.0 0.30            126            148  41 
 NOR  HZ EP       12 9 25.16                             120   -0.10 9  166 239 
 NOR  HN ES       12 9 46.13                             120    0.14 9  166 239 
 NOR  HZ I        12 9 50.64        22.3 0.14            121            166 239 
 CHI  HN ES   1   12 9 51.31                             117    0.16 7  189 185 
 CHI  HZ I        12 9 55.34         4.1 0.40            119            189 185 
 ZAR  HZ EP       12 9 27.37                             116   -0.50 9  191 312 
 ZAR  HN ES       12 9 50.37                             116   -0.27 9  191 312 
 ZAR  HZ I        12 9 55.01        28.9 0.44            117            191 312 
 TAM  HZ EP   1   12 9 28.67                             115   -0.02 6  198  87 
 OCA  HZ EP   1   12 9 30.33                             114   -0.15 6  213   8 
 OCA  HE ES       12 9 55.86                             114    0.57 8  213   8 
 OCA  HZ I        1210  1.48        29.4 0.42            115            213   8 
 HEL  HZ EP       12 9 31.41                             113    0.27 8  216 266 
 HEL  HN ES       12 9 56.57                             113    0.12 8  216 266 
 HEL  HZ I        1210  2.97         8.4 0.38            114            216 266 
 GUY2CHZ EP       12 9 33.78                             111    0.67 8  233 238 
 GUY2CHN ES   1   1210  0.03                             111    0.07 6  233 238 
 GUY2CHZ I        1210  7.19         7.7 0.32                           233 238 
 TOL  SN ES   4   1210  9.35                             108    1.45 0  273 225 
 TOL  SZ I        1210 14.38         6.1 0.64            109            273 225 
 CBOC HZ EP       12 9 37.30                             107   -0.22 8  274 259 
 CBOC HN ES       1210  7.25                             107   -0.56 8  274 259 
 CBOC HZ I        1210  9.52         3.1 0.23            108            274 259 
 SML  HZ EP       12 9 38.10                             107    0.31 7  279 349 
 SML  HN ES   1   1210  9.09                             107    0.79 6  279 349 
 SML  HZ I        1210 16.70        12.5 0.22            108            279 349 
                                                                                
