 2014 1017 1552  1.0 L   6.842 -73.188142.7  RSN  4 0.4 1.6LRSN                1
 GAP=172        0.89       6.7     6.4 12.2 -0.1016E+02  0.1696E+02  0.2251E+02E
 Epicentro: ZAPATOCA - SANTANDER                                               3
 ACTION:UPD 14-11-29 23:50 OP:nd   STATUS:               ID:20141017155201 L   I
 OLDACT:DUP 14-10-17 23:09 OP:fm   STATUS:               ID:20141017154744d    3
 2014-10-17-1547-43M.COL___282                                                 6
 STAT SP IPHASW D HRMM SECON CODA AMPLIT PERI AZIMU VELO AIN AR TRES W  DIS CAZ7
 PAM  SN ES   1   1552 39.77                             150   -0.10 8 77.0  44 
 PAM  SZ I        1552 42.77         4.5 0.48            154           77.0  44 
 PTB  HZ EP       1552 27.40                             132    0.0610  144 257 
 PTB  HN ES       1552 48.50                             132    0.5810  144 257 
 PTB  HZ I        1552 53.66         3.7 0.30            134            144 257 
 SPBC HZ EP       1552 29.47                             128    0.1810  164 217 
 SPBC HN ES       1552 50.93                             128   -0.4710  164 217 
 SPBC HZ I        1552 54.19        10.1 0.84            133            164 217 
 ZAR  HN ES   1   1552 56.58                             122   -0.64 7  198 291 
 ZAR  HZ I        1553  4.02         2.9 0.32            125            198 291 
                                                                                
