 2016 1217 1941 59.9 L   6.754 -73.109136.0  RSN  9 0.3 1.5LRSN                1
 GAP=143        0.81       3.3     3.5  4.7 -0.1770E+01  0.2564E+01  0.4971E+01E
 Epicentro: LOS SANTOS - SANTANDER                                             3
 ACTION:UPD 17-01-11 20:16 OP:rebc STATUS:               ID:20161217194159 L   I
 OLDACT:UP  16-12-17 20:42 OP:edw  STATUS:               ID:20161217193744d    3
 OLDACT:DUP 16-12-17 20:37 OP:edw  STATUS:               ID:20161217193744d    3
 2016-12-17-1938-00M.COL___387                                                 6
 STAT SP IPHASW D HRMM SECON CODA AMPLIT PERI AZIMU VELO AIN AR TRES W  DIS CAZ7
 BAR2 EZ EP       1942 17.76                             171   -0.5510 19.6 204 
 BAR2 EZ ES       1942 32.79                             171    0.1510 19.6 204 
 BAR2 EZ I        1942 34.73         9.5 0.12            170           19.6 204 
 BRR  HZ EP       1942 20.08                             149   -0.3210 77.2 300 
 BRR  HN ES       1942 36.50                             149    0.1410 77.2 300 
 PAM  EZ EP       1942 21.02                             148   -0.1910 79.0  35 
 PAM  EN ES       1942 38.26                             148    0.4410 79.0  35 
 PAM  EZ I        1942 40.50         4.7 0.26            152           79.0  35 
 RUS  HZ EP       1942 22.45                             143    0.1210 95.3 178 
 RUS  HN ES       1942 39.83                             143    0.0210 95.3 178 
 RUS  HZ I        1942 42.13         4.6 0.30            145           95.3 178 
 PTB  HZ EP       1942 26.31                             129   -0.09 9  151 261 
 PTB  HE ES       1942 46.68                             129   -0.38 9  151 261 
 PTB  HZ I        1942 53.00         3.4 0.46            130            151 261 
 ZAR  HZ EP   9   1942 30.60                             119   -1.75 0  210 293 
 ZAR  HN ES       1942 56.42                             120    0.52 8  210 293 
 ZAR  HZ I        1943  1.38         4.0 0.32            121            210 293 
 NOR  HZ EP       1942 35.79                             116    0.64 8  235 236 
 NOR  HN ES       1943  2.69                             116    0.06 8  235 236 
 NOR  HZ I        1943  4.25         2.0 0.32            118            235 236 
 CHI  HZ EP       1942 36.48                             115   -0.20 8  245 196 
 CHI  HN ES       1943  5.49                             115    0.14 8  245 196 
 CHI  HZ I        1943  9.47         2.0 0.26            117            245 196 
 GUY2CHZ EP       1942 43.47                             110    0.32 7  302 236 
 GUY2CHE ES   4   1943 20.18                             110    3.32 0  302 236 
 GUY2CHZ I        1943 25.54         1.2 0.13                           302 236 
 SJC  HZ EP   4   1942 52.10                             104   -3.85 0  416 327 
 SJC  HN ES   4   1943 36.27                             104   -3.38 0  416 327 
                                                                                
