 2017  117 1922 12.1 L   6.774 -73.101148.1  RSN  5 0.3 1.6LRSN                1
 GAP=143        0.82       4.3     4.6  6.2  0.4133E+01  0.6646E+01 -0.1289E+01E
 Epicentro: LOS SANTOS - SANTANDER                                             3
 ACTION:UPD 17-05-22 16:00 OP:jn   STATUS:               ID:20170117192212 L   I
 OLDACT:REG 17-01-17 21:22 OP:cog  STATUS:               ID:20170117191740     3
 2017-01-17-1918-00M.COL___323                                                 6
 STAT SP IPHASW D HRMM SECON CODA AMPLIT PERI AZIMU VELO AIN AR TRES W  DIS CAZ7
 BAR2 EZ ES       1922 47.01                             171   -0.4310 22.0 204 
 BAR2 EZ I        1922 47.63         9.3 0.30            170           22.0 204 
 PAM  EZ EP       1922 34.88                             151    0.4110 76.6  35 
 PAM  EE ES       1922 51.71                             151   -0.2410 76.6  35 
 PAM  EZ I        1922 53.77         8.4 0.58            152           76.6  35 
 BRR  HE ES       1922 51.14                             151    0.4210 76.9 299 
 RUS  HZ EP       1922 35.69                             145   -0.1210 97.5 179 
 RUS  HN ES       1922 54.58                             145    0.2310 97.5 179 
 RUS  HZ I        1922 56.09         2.6 0.38            146           97.5 179 
 ZAR  HZ EP       1922 44.92                             122   -0.31 8  210 292 
 ZAR  HN ES       1923 11.02                             122   -0.08 8  210 292 
 ZAR  HZ I        1923 16.97         4.4 0.32            121            210 292 
                                                                                
