 2012 1017 1843 26.3 L   6.782 -73.073141.9  RSN  4 0.3 1.6LRSN                1
 GAP=147        0.45       4.3     6.7  6.6 -0.3215E+01 -0.8367E+01  0.2620E+01E
 Epicentro: LOS SANTOS - SANTANDER                                             3
 ACTION:UPD 12-11-22 17:04 OP:ep   STATUS:               ID:20121017184326 L   I
 2012-10-17-1840-00M.COL___230                                                 6
 STAT SP IPHASW D HRMM SECON CODA AMPLIT PERI AZIMU VELO AIN AR TRES W  DIS CAZ7
 BAR2 SZ EP   2   1843 44.91                             170   -0.57 5 24.2 210 
 BAR2 SZ ES   2   1844  0.28                             170   -0.16 5 24.2 210 
 BAR2 SZ I        1844  1.57        12.0 0.22                          24.2 210 
 PAM  SZ EP   1   1843 48.16                             151    0.25 7 74.2  34 
 PAM  SE ES   2   1844  4.60                             151   -0.17 5 74.2  34 
 PAM  SZ I        1844  7.48         4.4 0.32                          74.2  34 
 BRR  HZ EP   2   1843 47.58                             149    0.06 5 79.3 297 
 BRR  HZ I        1843 49.00        19.1 0.35                          79.3 297 
 BRR  HE ES   2   1844  4.15                             149    0.08 5 79.3 297 
 RUS  HZ EP   1   1843 49.44                             144   -0.07 7 98.3 181 
 RUS  HE ES   2   1844  7.96                             144    0.35 5 98.3 181 
 RUS  HZ I        1844  9.56         3.2 0.46                          98.3 181 
                                                                                
