 2012  617 1250  9.3 L   6.790 -73.153148.0  RSN  8 0.4 1.9LRSN                1
 GAP=136        0.81       4.1     4.9  7.1 -0.1110E+01  0.1247E+02 -0.2836E+01E
 Epicentro: LOS SANTOS - SANTANDER                                             3
 ACTION:UPD 12-08-06 17:50 OP:ep   STATUS:               ID:20120617125009 L   I
 2012-06-17-1250-00M.COL___199                                                 6
 STAT SP IPHASW D HRMM SECON CODA AMPLIT PERI AZIMU VELO AIN AR TRES W  DIS CAZ7
 BAR2 SZ EP       1250 29.20                             171    0.0010 22.1 188 
 BAR2 SZ ES   1   1250 45.51                             171    0.80 7 22.1 188 
 BAR2 SZ I        1250 47.48        11.8 0.25                          22.1 188 
 PAM  SZ EP   1   1250 32.10                             151    0.24 7 78.7  40 
 PAM  SN ES   1   1250 49.15                             151   -0.29 7 78.7  40 
 RUS  HZ EP   1   1250 33.08                             145   -0.15 7 99.6 176 
 RUS  HN ES   1   1250 51.52                             145   -0.35 7 99.6 176 
 RUS  HZ I        1250 53.06         5.5 0.45                          99.6 176 
 PTB  HZ EP   1   1250 36.14                             133   -0.25 7  147 259 
 PTB  HN ES   1   1250 56.98                             133   -0.51 7  147 259 
 PTB  HZ I        1251  2.53         7.8 0.24                           147 259 
 OCA  HZ EP   1   1250 37.75                             130   -0.15 7  161 353 
 OCA  HN ES   1   1251  0.19                             130    0.00 7  161 353 
 OCA  HZ I        1251  5.19        24.3 0.32                           161 353 
 ZAR  HZ EP   1   1250 41.34                             123   -0.54 6  204 293 
 ZAR  HE ES   1   1251  7.64                             123    0.37 6  204 293 
 ZAR  HZ I        1251 13.64        12.6 0.34                           204 293 
 CHI  HZ EP   2   1250 47.31                             118    0.29 4  247 195 
 CHI  HZ I        1251 22.52         4.1 0.39                           247 195 
 HEL  HZ EP   1   1250 50.54                             115    1.00 6  271 256 
 HEL  HZ I        1251 28.89         3.8 0.24                           271 256 
                                                                                
