 2016  917 1404  4.1 L   6.111 -73.717103.2  RSN  6 0.4 1.5LRSN                1
 GAP=109        0.53       7.8     4.4  6.7 -0.2199E+02  0.1777E+02 -0.2857E+02E
 Epicentro: CHIPATA - SANTANDER                                                3
 ACTION:UPD 17-08-17 21:13 OP:lp   STATUS:               ID:20160917140404 L   I
 OLDACT:REG 16-09-17 21:13 OP:dnl  STATUS:               ID:20160917135732     3
 2016-09-17-1358-00M.COL___359                                                 6
 STAT SP IPHASW D HRMM SECON CODA AMPLIT PERI AZIMU VELO AIN AR TRES W  DIS CAZ7
 SPBC HZ EP       14 4 20.41                             145   -0.0810 64.2 218 
 SPBC HN ES       14 4 33.17                             145   -0.1010 64.2 218 
 SPBC HZ I        14 4 37.56         9.1 0.26            154           64.2 218 
 RUS  HZ EP   2   14 4 22.20                             141    0.42 5 74.2 109 
 RUS  HE ES   2   14 4 35.05                             141   -0.51 5 74.2 109 
 RUS  HZ I        14 4 39.88         6.5 0.78            150           74.2 109 
 BAR2 EZ EP   3   14 4 22.07                             139    0.24 2 79.5  48 
 BAR2 EZ ES   3   14 4 36.56                             139    0.90 2 79.5  48 
 BAR2 EZ I        14 4 38.71        19.4 0.14            144           79.5  48 
 NOR  HZ EP   2   14 4 26.65                             121   -0.72 5  141 245 
 NOR  HN ES   3   14 4 45.38                             121   -0.13 2  141 245 
 NOR  HZ I        14 4 48.21         7.5 0.20            129            141 245 
 ZAR  HZ EP   3   14 4 32.93                             111   -0.58 2  198 321 
 ZAR  HE ES   3   14 4 55.99                             111   -0.46 2  198 321 
 ZAR  HZ I        14 4 59.78         3.3 0.16            118            198 321 
 GUY2CHZ EP       14 4 35.32                             110    0.17 8  207 242 
 GUY2CHN ES       14 4 59.67                             110    0.31 8  207 242 
 GUY2CHZ I        14 5  2.71         2.8 0.38                           207 242 
                                                                                
