 2010  817 1244 11.3 L   6.788 -73.087148.4  RSN  5 0.2 1.1LRSN                1
 GAP=171        0.49       5.7    10.7  5.0  0.3421E+02 -0.1338E+02 -0.6290E+01E
 Epicentro: LOS SANTOS - SANTANDER                                             3
 ACTION:UP  10-09-07 10:55 OP:vdl  STATUS:               ID:20100817124411 L   I
 2010-08-17-1239-49S.COL___111                                                 6
 STAT SP IPHASW D HRMM SECON CODA AMPLIT PERI AZIMU VELO SNR AR TRES W  DIS CAZ7
 BAR2 SZ EP       1244 31.12                             171    -0.110   24 206 
 BAR2 SZ ES   1   1244 46.73                             171    -0.1 7   24 206 
 BAR2 SZ I        1244 49.90         5.0 0.27                            24 206 
 BTL  SZ EP       1244 31.54                             170     0.310   25 306 
 BTL  SZ ES   1   1244 46.68                             170    -0.1 7   25 306 
 BRR  HZ EP       1244 32.95                             151    -0.110   78 297 
 BRR  HN ES   2   1244 50.26                             151     0.2 5   78 297 
 RUS  HZ EP   1   1244 35.03                             145    -0.1 7   99 180 
 RUS  HZ I        1244 35.60         1.8 0.13                            99 180 
 RUS  HE ES   2   1244 54.14                             145     0.3 5   99 180 
 GUE  SZ EP   2   1244 36.37                             140     0.1 5  117   9 
 GUE  SZ I        1245  1.95         1.0 0.14                           117   9 
                                                                                
