 2011 1117 1342 14.0 L   6.782 -73.157146.8  RSN  5 0.3 1.4LRSN                1
 GAP=136        0.65       5.1     4.9  9.2  0.4037E+01  0.6882E+01 -0.3959E+01E
 Epicentro: LOS SANTOS - SANTANDER                                             3
 ACTION:UPD 12-07-13 16:10 OP:ep   STATUS:               ID:20111117134214 L   I
 2011-11-17-1341-18S.COL___179                                                 6
 STAT SP IPHASW D HRMM SECON CODA AMPLIT PERI AZIMU VELO AIN AR TRES W  DIS CAZ7
 BAR2 SZ EP   1   1342 33.75                             171    0.04 7 21.1 188 
 BRR  HZ EP   1   1342 35.80                             153    0.55 7 71.1 300 
 BRR  HZ I        1342 50.92         9.9 0.61                          71.1 300 
 BRR  HN ES   1   1342 52.10                             153    0.28 7 71.1 300 
 PAM  SZ EP   1   1342 36.24                             150   -0.22 7 79.7  39 
 PAM  SN ES   1   1342 53.87                             150   -0.11 7 79.7  39 
 PAM  SZ I        1342 55.90         2.7 0.57                          79.7  39 
 RUS  HN ES   1   1342 56.04                             145   -0.17 7 98.7 175 
 ZAR  HN ES   1   1343 11.27                             123   -0.52 6  204 293 
                                                                                
