 2015 1117 1012 38.9 L   6.817 -73.122146.6  RSN 12 0.5 2.0LRSN                1
 GAP=203        0.97       3.6     5.9  6.6  0.6565E+01  0.1160E+02 -0.3995E+01E
 Epicentro: LOS SANTOS - SANTANDER                                             3
 ACTION:UPD 15-12-28 16:11 OP:cam  STATUS:               ID:20151117101238 L   I
 OLDACT:UP  15-12-04 15:41 OP:cam  STATUS:               ID:20151117101238 L   3
 OLDACT:UP  15-12-03 16:55 OP:nlst STATUS:               ID:20151117101238 L   3
 OLDACT:UP  15-11-19 06:52 OP:CARA STATUS:               ID:20151117101238 L   3
 OLDACT:UP  15-11-17 21:08 OP:dnl  STATUS:               ID:20151117100751     3
 OLDACT:REG 15-11-17 19:55 OP:dnl  STATUS:               ID:20151117100751     3
 2015-11-17-1007-51M.COL___313                                                 6
 STAT SP IPHASW D HRMM SECON CODA AMPLIT PERI AZIMU VELO AIN AR TRES W  DIS CAZ7
 BAR2 EZ EP     C 1012 58.89                             170    0.2410 25.7 195 
 BAR2 EZ ES       1013 14.24                             170    0.1710 25.7 195 
 BAR2 EZ I        1013 15.15        24.8 0.22            165           25.7 195 
 BRR  HZ EP     C 1013  0.71                             152    0.5210 72.6 296 
 BRR  HE ES   2   1013 16.71                             152   -0.10 5 72.6 296 
 BRR  HZ I        1013 21.30         8.2 0.31            145           72.6 296 
 RUS  HZ EP   2   1013  3.69                             144    0.87 5  102 178 
 RUS  HE ES       1013 21.11                             144   -0.3910  102 178 
 RUS  HZ I        1013 22.80        14.5 0.24            144            102 178 
 SPBC HN ES       1013 29.68                             129   -0.54 9  166 219 
 SPBC HZ I        1013 32.60        23.2 0.24            127            166 219 
 ZAR  HZ EP       1013 11.95                             122    0.41 8  206 291 
 ZAR  HN ES       1013 37.43                             122    0.40 8  206 291 
 ZAR  HZ I        1013 42.74         7.8 0.19            120            206 291 
 SML  HZ EP       1013 15.18                             118   -0.30 8  243 335 
 SML  HN ES       1013 43.24                             118   -0.79 8  243 335 
 SML  HZ I        1013 48.71        14.8 0.10            117            243 335 
 URE  HZ EP       1013 19.45                             114   -0.72 7  286 291 
 URE  HN ES       1013 52.68                             114    0.30 7  286 291 
 URE  HZ I        1014  0.49         7.0 0.20            112            286 291 
 GUY2CHZ EP   4   1013 24.85                             112    1.98 0  304 235 
 GUY2CHN ES   4   1013 55.08                             112   -2.11 0  304 235 
 GUY2CHZ I        1014  6.47         3.3 0.64                           304 235 
 MON  HZ EP   9   1013 26.16                             109   -1.84 0  355 308 
 MON  HN ES       1014  5.10                             109    0.62 6  355 308 
 MON  HZ I        1014 19.39         3.0 0.74            108            355 308 
 PRA  HZ EP       1013 32.65                             106   -0.10 6  395 210 
 PRA  HE ES       1014 15.05                             106    0.27 6  395 210 
 PRA  HZ I        1014 20.98         2.8 0.32            106            395 210 
 ORTC HN ES   2   1014 15.38                             106   -0.14 3  398 216 
 ORTC HZ I        1014 22.87         2.9 0.78            106            398 216 
 SJC  HZ EP   9   1013 33.10                             106   -1.34 0  409 327 
 SJC  HN ES       1014 15.85                             107   -0.60 6  409 327 
 SJC  HZ I        1014 22.93         1.3 0.23            106            409 327 
                                                                                
