 2017 1217 1554 26.0 L   6.860 -73.147148.4  RSN 19 0.7 2.2LRSN                1
 GAP= 62        1.41       3.3     3.6  7.0 -0.2639E+01  0.5831E+01 -0.1893E+01E
 Epicentro: LOS SANTOS - SANTANDER                                             3
 OLDACT:REG 17-12-17 20:38 OP:osc  STATUS:               ID:20171217154744     3
 ACTION:UPD 18-01-04 13:21 OP:rebc STATUS:               ID:20171217155426 L   I
 OLDACT:DUP 17-12-17 23:04 OP:osc  STATUS:               ID:20171217154745d    3
 OLDACT:UP  17-12-17 23:03 OP:osc  STATUS:               ID:20171217154744     3
 OLDACT:UP  17-12-17 23:01 OP:osc  STATUS:               ID:20171217154744     3
 OLDACT:UP  17-12-17 22:59 OP:osc  STATUS:               ID:20171217154744     3
 2017-12-17-1548-00M.COL___470                                                 6
 STAT SP IPHASW D HRMM SECON CODA AMPLIT PERI AZIMU VELO AIN AR TRES W  DIS CAZ7
 BAR2 EZ EP       1554 45.75                             168   -0.3010 29.8 188 
 BAR2 EZ ES       1555  1.29                             168   -0.4310 29.8 188 
 BAR2 EZ I        1555  3.37        26.1 0.18            166           29.8 188 
 PAM  EZ EP       1554 48.63                             153    0.4610 72.5  43 
 PAM  EN ES       1555  5.92                             153    0.4110 72.5  43 
 PAM  EZ I        1555  7.95        24.6 0.48            158           72.5  43 
 PTB  HZ EP       1554 52.46                             132   -0.79 9  149 256 
 PTB  HN ES       1555 14.27                             132   -0.28 9  149 256 
 PTB  HZ I        1555 19.64        15.6 0.22            133            149 256 
 TAM  HZ EP       1554 53.88                             131   -0.14 9  157 107 
 TAM  HE ES       1555 16.15                             131    0.23 9  157 107 
 SPBC HZ EP       1554 54.51                             129   -0.63 9  168 218 
 SPBC HN ES       1555 17.29                             129   -0.61 9  168 218 
 SPBC HZ I        1555 23.86        29.3 0.30            129            168 218 
 YPLC HZ EP       1554 55.72                             126   -0.80 9  183 152 
 YPLC HE ES       1555 21.05                             126    0.70 9  183 152 
 YPLC HZ I        1555 27.33         7.7 0.26            128            183 152 
 ZAR  HZ EP       1554 59.39                             123    1.08 9  202 290 
 ZAR  HE ES       1555 24.16                             123    0.60 9  202 290 
 ZAR  HZ I        1555 30.16        14.7 0.22            125            202 290 
 NOR  HZ EP       1555  1.61                             119   -0.63 8  238 233 
 NOR  HN ES       1555 30.17                             119   -0.37 8  238 233 
 NOR  HZ I        1555 37.01        10.3 0.32            120            238 233 
 ROSC BZ EP       1555  5.38                             117    0.55 8  258 210 
 ROSC BE ES       1555 35.15                             117    0.00 8  258 210 
 ROSC BZ I        1555 43.37        14.1 0.45            118            258 210 
 URE  HE ES       1555 37.89                             114   -0.90 7  281 291 
 DRL03HZ EP       1555  7.34                             114    0.38 7  282 353 
 DRL03HE ES       1555 39.78                             114    0.84 7  282 353 
 GUY2CHZ EP       1555 10.74                             112    0.64 7  305 234 
 GUY2CHN ES       1555 44.54                             112    0.00 7  305 234 
 GUY2CHZ I        1555 52.58        10.2 0.76                           305 234 
 DRL02HZ EP       1555 10.81                             111   -0.21 7  318 358 
 DRL02HE ES       1555 46.46                             111    0.29 7  318 358 
 ELA  HZ EP       1555 15.13                             110    1.73 7  333 229 
 ELA  HE ES       1555 50.78                             110    0.38 7  333 229 
 ELA  HZ I        1555 57.55         5.3 0.40            112            333 229 
 SDV  BZ EP       1555 15.04                             109   -0.59 6  356  51 
 ANIL HN ES       1555 56.31                             109    0.57 6  362 224 
 PRA  HZ EP   9   1555 18.27                             107   -1.96 0  398 209 
 PRA  HN ES       1556  1.53                             101    0.93 6  398 209 
 PRA  HZ I        1556  7.50         5.9 0.34            108            398 209 
 ORTC HZ EP       1555 20.24                             106   -0.34 6  401 216 
 ORTC HE ES       1556  3.31                             106    0.13 6  401 216 
 ORTC HZ I        1556 10.42         4.7 0.66            108            401 216 
 CRJC HE ES       1556 13.83                             104   -2.12 5  461   4 
                                                                                
