 2011  217 1604 27.1 L   6.793 -73.128141.2  RSN 13 0.4 2.3LRSN                1
 GAP=104        1.00       3.7     5.9  5.6 -0.3578E+01  0.3968E+01  0.7579E+00E
 Epicentro: LOS SANTOS - SANTANDER                                             3
 ACTION:UP  11-03-28 15:09 OP:jfem STATUS:               ID:20110217160427 L   I
 2011-02-17-1602-42S.COL___137                                                 6
 STAT SP IPHASW D HRMM SECON CODA AMPLIT PERI AZIMU VELO SNR AR TRES W  DIS CAZ7
 BTL  SZ EP       16 4 46.33                             171     0.210   21 312 
 BTL  SZ ES   1   16 5  1.15                             171     0.2 7   21 312 
 BAR2 SZ IP       16 4 46.22                             170     0.010   23 195 
 BAR2 SZ ES   1   16 5  0.19                             170    -0.9 7   23 195 
 BAR2 SZ I        16 5  2.05        75.6 0.37                            23 195 
 GIR2 SZ EP       16 4 46.33                             166     0.110   32 347 
 GIR2 SZ ES   1   16 5  1.58                             166     0.4 7   32 347 
 RUS  HZ EP       16 4 50.20                             143    -0.110  100 177 
 RUS  HN ES   1   16 5  8.76                             143     0.3 7  100 177 
 RUS  HZ I        16 5 10.22        22.5 0.52                           100 177 
 GRA  SZ IP       16 4 52.12                             136     0.210  126  16 
 GRA  SZ ES   1   16 5 11.42                             136     0.1 7  126  16 
 GRA  SZ I        16 5 12.80        34.6 0.41                           126  16 
 OCA  SZ EP       16 4 55.26                             128     0.1 9  161 352 
 OCA  SZ I        16 5 20.08        27.9 0.38                           161 352 
 YOP  SZ EP       16 4 56.30                             126    -0.4 9  177 154 
 YOP  SN ES   1   16 5 20.33                             126     0.6 7  177 154 
 YOP  SZ I        16 5 23.94         9.9 0.43                           177 154 
 NOR  SZ EP       16 5  2.44                             117    -0.3 8  236 235 
 NOR  SN ES   1   16 5 29.49                             117    -1.0 6  236 235 
 CHI  HZ EP   1   16 5  4.95                             116     0.4 6  248 196 
 CHI  HN ES   2   16 5 34.19                             116     0.5 4  248 196 
 CHI  HZ I        16 5 37.63         6.2 0.17                           248 196 
 HEL  HZ EP   3   16 5  7.77                             114     0.5 2  274 256 
 HEL  HZ I        16 5 46.00        11.0 0.64                           274 256 
 GUY  SZ EP   2   16 5 11.24                             111     0.6 4  303 235 
 GUY  SZ I        16 5 53.21        21.3 0.43                           303 235 
 DBB  SZ EP       16 5 15.26                             109     0.6 7  342 274 
 SDV  BZ EP       16 5 15.89                             108    -1.0 6  359  50 
                                                                                
