 2011  517 1452 35.3 L   6.773 -73.039147.3  RSN  6 0.5 1.7LRSN                1
 GAP=152        1.15       8.5    14.6 19.7 -0.4570E+02 -0.7723E+02  0.6063E+02E
 Epicentro: CEPITA - SANTANDER                                                 3
 ACTION:UP  11-06-29 08:54 OP:tino STATUS:               ID:20110517145235 L   I
 2011-05-17-1440-00M.COL___142                                                 6
 STAT SP IPHASW D HRMM SECON CODA AMPLIT PERI AZIMU VELO SNR AR TRES W  DIS CAZ7
 BAR2 SZ EP       1452 54.90                             169    -0.210   26 218 
 BTL  SZ EP   2   1452 54.96                             168    -0.3 5   30 302 
 PAM  SZ EP       1452 57.82                             153     0.410   73  31 
 PAM  SN ES   3   1453 13.80                             153    -0.9 2   73  31 
 BRR  HZ EP       1452 56.72                             149    -0.610   83 296 
 BRR  HZ I        1452 56.94        13.7 0.25                            83 296 
 BRR  HN ES   2   1453 15.69                             149     1.2 5   83 296 
 RUS  HZ EP       1452 59.47                             144     0.510   98 183 
 RUS  HN ES   3   1453 16.89                             144    -0.5 2   98 183 
 RUS  HZ I        1453 19.44         4.9 0.18                            98 183 
 GRA  SZ EP       1453  0.69                             138     0.010  126  12 
 GRA  SZ ES   1   1453 19.89                             138    -0.5 7  126  12 
 GRA  SZ I        1453 22.85         5.5 0.33                           126  12 
                                                                                
