 2010  717 1414  9.5 L   6.584 -73.447115.8  RSN  6 0.2 1.4LRSN                1
 GAP=181        0.57       3.5     8.8  6.3  0.4370E+01  0.1951E+02 -0.4865E+01E
 Epicentro: EL CARMEN DE CHUCURI - SANTANDER                                   3
 ACTION:UPD 10-12-01 15:18 OP:pat  STATUS:               ID:20100717141409 L   I
 2010-07-17-1409-59S.COL___119                                                 6
 STAT SP IPHASW D HRMM SECON CODA AMPLIT PERI AZIMU VELO AIN AR TRES W  DIS CAZ7
 BAR2 SZ EP       1414 25.69                             165     0.010   29  88 
 BAR2 SZ ES   1   1414 38.27                             165    -0.1 7   29  88 
 GIR2 SZ ES   2   1414 40.68                             150    -0.1 5   62  27 
 BRR  HZ EP       1414 27.10                             149     0.010   65 333 
 RUS  HZ EP       1414 29.02                             141    -0.310   86 152 
 RUS  HN ES   1   1414 45.09                             141     0.4 7   86 152 
 RUS  HZ I        1414 45.95         3.7 0.18                            86 152 
 GUE  SZ EP       1414 35.01                             124     0.2 9  149  23 
 GUE  SZ I        1414 37.64         4.9 0.10                           149  23 
 GRA  SZ ES   2   1414 55.74                             122    -0.4 5  160  26 
 GRA  SZ I        1414 58.54         5.3 0.12                           160  26 
                                                                                
