 2012  417 1143 49.8 L   7.390 -73.481107.9  RSN  4 0.2 1.5LRSN                1
 GAP=179        0.48       4.8     2.1  4.9  0.5997E+00  0.1163E+01 -0.8997E+01E
 Epicentro: SABANA DE TORRES - SANTANDER                                       3
 ACTION:UPD 12-07-05 11:53 OP:tino STATUS:               ID:20120417114349 L   I
 2012-04-17-1140-00M.COL___189                                                 6
 STAT SP IPHASW D HRMM SECON CODA AMPLIT PERI AZIMU VELO AIN AR TRES W  DIS CAZ7
 BRR  HZ EP       1144  5.16                             158     0.010   40 219 
 BRR  HE ES       1144 17.22                             158     0.110   40 219 
 BRR  HZ I        1144 40.22        14.3 0.58                            40 219 
 PAM  SZ EP       1144  9.05                             139     0.210   86  94 
 PAM  SN ES       1144 23.58                             139    -0.110   86  94 
 BAR2 SZ EP   1   1144  9.28                             136     0.1 7   94 159 
 BAR2 SZ ES   1   1144 24.10                             136    -0.1 7   94 159 
 BAR2 SZ I        1144 25.50         5.8 0.49                            94 159 
 ZAR  HZ EP   1   1144 14.11                             121    -0.4 7  152 274 
 ZAR  HN ES   1   1144 33.80                             121     0.1 7  152 274 
 ZAR  HZ I        1144 37.18         5.0 0.14                           152 274 
                                                                                
