 2013  517 1415  5.1 L   6.798 -73.111148.8  RSN  9 0.5 1.7LRSN                1
 GAP=141        0.94       4.3     5.0  7.4  0.3275E+01  0.9409E+01  0.2187E+01E
 Epicentro: LOS SANTOS - SANTANDER                                             3
 ACTION:UPD 13-06-20 09:51 OP:ep   STATUS:               ID:20130517141505 L   I
 2013-05-17-1410-00M.COL___253                                                 6
 STAT SP IPHASW D HRMM SECON CODA AMPLIT PERI AZIMU VELO AIN AR TRES W  DIS CAZ7
 BAR2 SZ EP   1   1415 25.37                             170    0.23 7 24.1 199 
 BAR2 SZ ES   1   1415 41.29                             170    0.55 7 24.1 199 
 BAR2 SZ I        1415 41.58        16.7 0.18            171           24.1 199 
 GIR2 SZ EP   1   1415 25.25                             167    0.06 7 32.4 344 
 GIR2 SZ ES   1   1415 41.06                             167    0.23 7 32.4 344 
 GIR2 SZ I        1415 43.59         7.7 0.44            168           32.4 344 
 BRR  HZ EP   1   1415 27.13                             152    0.32 7 74.7 297 
 BRR  HN ES       1415 43.81                             152    0.1010 74.7 297 
 PAM  SZ EP   2   1415 27.42                             152   -0.12 5 75.1  37 
 PAM  SN ES   1   1415 44.45                             152   -0.56 7 75.1  37 
 RUS  HZ EP       1415 29.26                             144    0.1110  100 178 
 RUS  HN ES   1   1415 47.53                             144   -0.35 7  100 178 
 RUS  HZ I        1415 49.18         4.9 0.30            146            100 178 
 PTB  HZ EP   1   1415 32.50                             132   -0.19 7  152 259 
 PTB  HN ES   1   1415 52.86                             132   -1.32 7  152 259 
 PTB  HZ I        1415 55.02         5.6 0.16            134            152 259 
 ZAR  HN ES       1416  4.51                             122    0.60 8  208 292 
 NOR  HN ES   1   1416  9.82                             119    0.20 6  238 235 
 SML  HE ES       1416 10.62                             118   -0.36 8  246 334 
                                                                                
