 2016  617 1500 43.4 L   6.884 -73.149145.5  RSN 14 0.5 2.2LRSN                1
 GAP=118        1.20       4.0     4.3  6.8 -0.4175E+01  0.2622E+00  0.2977E+01E
 Epicentro: BETULIA - SANTANDER                                                3
 ACTION:UPD 16-07-21 22:19 OP:rebc STATUS:               ID:20160617150043 L   I
 OLDACT:UP  16-06-17 23:34 OP:dani STATUS:               ID:20160617145743     3
 OLDACT:UP  16-06-17 23:32 OP:dani STATUS:               ID:20160617145743     3
 OLDACT:UP  16-06-17 23:31 OP:dani STATUS:               ID:20160617145743     3
 OLDACT:REG 16-06-17 22:36 OP:dani STATUS:               ID:20160617145743     3
 2016-06-17-1457-43M.COL___346                                                 6
 STAT SP IPHASW D HRMM SECON CODA AMPLIT PERI AZIMU VELO AIN AR TRES W  DIS CAZ7
 BAR2 EZ EP     C 15 1  3.05                             167   -0.2110 32.5 186 
 BAR2 EZ I        15 1 19.95        20.9 0.28                          32.5 186 
 BRR  HZ EP     C 15 1  4.59                             154    0.2710 66.9 292 
 BRR  HE ES       15 1 20.95                             154    0.3510 66.9 292 
 PAM  EZ EP       15 1  5.71                             153    0.4710 70.7  45 
 PAM  EN ES       15 1 22.49                             153    0.2510 70.7  45 
 PAM  EZ I        15 1 23.59        30.7 0.24                          70.7  45 
 RUS  HZ EP       15 1  7.65                             141   -0.2110  110 176 
 RUS  HN ES       15 1 26.39                             141   -0.5110  110 176 
 RUS  HZ I        15 1 28.44         8.5 0.38                           110 176 
 PTB  HZ EP   4   15 1  9.56                             132   -0.98 0  149 255 
 PTB  HN ES       15 1 31.00                             132   -0.68 9  149 255 
 PTB  HZ I        15 1 32.97        17.7 0.32                           149 255 
 SPBC HZ EP     C 15 1 12.60                             128   -0.00 9  170 217 
 SPBC HE ES       15 1 34.75                             128   -0.59 9  170 217 
 SPBC HZ I        15 1 41.57        18.8 0.10                           170 217 
 ZAR  HZ EP   4   15 1 17.29                             123    1.80 0  200 290 
 ZAR  HN ES       15 1 40.89                             123    0.41 9  200 290 
 ZAR  HZ I        15 1 46.14        31.3 0.34                           200 290 
 NOR  HZ EP       15 1 19.75                             118    0.03 8  240 233 
 NOR  HN ES       15 1 47.46                             118   -0.55 8  240 233 
 NOR  HZ I        15 1 50.50        10.0 0.34                           240 233 
 CHI  HZ EP       15 1 23.18                             116    1.08 8  258 195 
 CHI  HN ES       15 1 53.33                             116    1.08 8  258 195 
 CHI  HZ I        15 1 56.85         5.5 0.30                           258 195 
 URE  HZ EP       15 1 24.22                             114    0.14 7  280 290 
 URE  HE ES   4   15 1 52.96                             114   -2.82 0  280 290 
 URE  HZ I        15 2  4.00        16.7 0.18                           280 290 
 SOCV BZ EP       15 1 25.72                             112   -0.23 7  297  58 
 SOCV BN ES   2   15 1 57.90                             112   -1.20 4  297  58 
 GUY2CHZ EP   9   15 1 29.76                             112    2.14 0  306 233 
 GUY2CHE ES       15 2  4.89                             111    0.67 7  306 233 
 GUY2CHZ I        15 2 11.42         6.9 0.60                           306 233 
 PRA  HZ EP   4   15 1 36.93                             106   -0.96 0  400 209 
 PRA  HN ES       15 2 20.11                             106   -0.24 6  400 209 
 PRA  HZ I        15 2 23.93         4.4 0.30                           400 209 
 SJC  HZ IP     C 15 1 36.97                             106   -1.08 6  401 326 
 SJC  HE ES   4   15 2 18.92                             106   -1.73 0  401 326 
 SJC  HZ I        15 2 21.71         3.0 0.52                           401 326 
                                                                                
