 2017  417 1027  3.8 L   6.790 -73.150140.0  RSN 17 0.5 2.7LRSN                1
 GAP=112        1.22       4.0     4.1  6.1 -0.8752E+00  0.6309E+01  0.5326E+01E
 Epicentro: LOS SANTOS - SANTANDER                                             3
 ACTION:UPD 17-05-30 21:13 OP:jn   STATUS:               ID:20170417102703 L   I
 OLDACT:UP  17-04-17 21:52 OP:cog  STATUS:               ID:20170417101745     3
 OLDACT:REG 17-04-17 19:57 OP:cog  STATUS:               ID:20170417101745     3
 2017-04-17-1018-00M.COL___362                                                 6
 STAT SP IPHASW D HRMM SECON CODA AMPLIT PERI AZIMU VELO AIN AR TRES W  DIS CAZ7
 BAR2 EZ IP     C 1027 22.51                             171   -0.2410 22.2 189 
 BAR2 EZ ES       1027 37.56                             171    0.0610 22.2 189 
 BAR2 EZ I        1027 38.68       199.1 0.22            167           22.2 189 
 BRR  HZ IP     C 1027 24.45                             152    0.0810 71.3 299 
 BRR  HN ES       1027 41.18                             152    0.7910 71.3 299 
 BRR  HZ I        1027 44.40       113.4 0.16            154           71.3 299 
 PAM  EZ EP       1027 25.42                             150   -0.0910 78.5  39 
 PAM  EN ES       1027 42.56                             150    0.1510 78.5  39 
 PAM  EZ I        1027 44.94        86.3 0.64            155           78.5  39 
 RUS  HZ EP       1027 26.59                             143   -0.3610 99.5 176 
 RUS  HE ES       1027 45.14                             143    0.1710 99.5 176 
 RUS  HZ I        1027 45.98        63.7 0.22            142           99.5 176 
 PTB  HZ EP       1027 29.34                             131   -0.94 9  147 259 
 PTB  HE ES       1027 50.56                             131   -0.34 9  147 259 
 PTB  HZ I        1027 53.60        77.9 0.20            132            147 259 
 SPBC HZ EP       1027 31.49                             128   -0.30 9  162 219 
 SPBC HE ES       1027 53.52                             128   -0.07 9  162 219 
 SPBC HZ I        1027 57.15        83.5 0.10            128            162 219 
 YPLC HZ IP     D 1027 32.88                             126   -0.26 9  176 151 
 YPLC HE ES       1027 56.41                             126    0.41 9  176 151 
 YPLC HZ I        1027 57.59        38.9 0.24            127            176 151 
 NOR  HZ EP       1027 38.52                             118   -0.61 8  234 235 
 NOR  HN ES       1028  6.36                             118   -0.29 8  234 235 
 NOR  HZ I        1028 10.85        41.5 0.22            119            234 235 
 CHI  HZ EP   4   1027 39.94                             116   -1.15 0  247 195 
 CHI  HE ES       1028 10.75                             116    0.60 8  247 195 
 CHI  HZ I        1028 17.29        13.1 0.36            117            247 195 
 ROSC BZ EP   9   1027 43.41                             116    1.89 0  252 211 
 ROSC BN ES       1028 14.08                             116    1.28 8  252 211 
 ROSC BZ I        1028 18.09        33.8 0.55            117            252 211 
 HEL  HZ EP       1027 44.70                             114    1.02 8  271 256 
 HEL  HE ES       1028 14.44                             114   -0.32 8  271 256 
 HEL  HZ I        1028 22.36        24.5 0.52            115            271 256 
 PTGC HZ EP   9   1027 45.60                             111   -1.74 0  308 158 
 PTGC HE ES       1028 18.64                             111   -0.90 7  308 158 
 PTGC HZ I        1028 21.46        11.5 0.24            112            308 158 
 ELA  HE ES   3   1028 29.11                             110    2.52 2  328 230 
 ELA  HZ I        1028 35.83        24.0 0.44            111            328 230 
 CBOC HZ EP       1027 51.42                             109    0.99 7  333 252 
 CBOC HE ES   4   1028 25.08                             109   -1.69 0  333 252 
 CBOC HZ I        1028 38.36        13.9 0.76            110            333 252 
 ANIL HZ EP   4   1027 54.44                             108    1.14 0  356 225 
 ANIL HE ES   4   1028 34.95                             108    3.08 0  356 225 
 ANIL HZ I        1028 43.43        39.8 0.46            109            356 225 
 PRA  HZ EP       1027 57.08                             106    0.06 6  391 210 
 PRA  HE ES       1028 38.22                             106   -0.29 6  391 210 
 PRA  HZ I        1028 46.07        13.7 0.30            107            391 210 
 ORTC HZ EP       1027 57.68                             106    0.25 6  394 216 
 ORTC HN ES   3   1028 41.09                             106    1.86 1  394 216 
 ORTC HZ I        1028 44.72         5.8 0.20            107            394 216 
                                                                                
