 2014 1017 1533 35.4 L   6.802 -73.134154.4  RSN 12 0.5 2.1LRSN                1
 GAP=138        1.20       3.8     4.9  7.4 -0.2124E+01  0.1012E+02 -0.1560E+01E
 Epicentro: LOS SANTOS - SANTANDER                                             3
 ACTION:UPD 14-11-29 23:50 OP:nd   STATUS:               ID:20141017153335 L   I
 OLDACT:REG 14-10-17 21:02 OP:fm   STATUS:               ID:20141017152750     3
 2014-10-17-1527-50M.COL___280                                                 6
 STAT SP IPHASW D HRMM SECON CODA AMPLIT PERI AZIMU VELO AIN AR TRES W  DIS CAZ7
 BAR2 SZ EP       1533 56.21                             171    0.1010 23.8 193 
 BAR2 SZ ES   1   1534 12.46                             171    0.23 7 23.8 193 
 BAR2 SZ I        1534 13.31        14.2 0.26            170           23.8 193 
 BRR  HZ EP       1533 58.32                             154    0.7510 72.3 298 
 BRR  HN ES       1534 15.66                             154    0.8210 72.3 298 
 BRR  HZ I        1534 21.88        15.2 0.46            151           72.3 298 
 PAM  SZ EP       1533 59.10                             153    0.5910 76.4  39 
 PAM  SN ES       1534 16.20                             153   -0.3210 76.4  39 
 RUS  HZ EP       1533 59.82                             145   -0.2210  101 177 
 RUS  HN ES       1534 18.48                             145   -0.7610  101 177 
 RUS  HZ I        1534 21.51         9.7 0.52            148            101 177 
 PTB  HZ EP       1534  3.27                             134    0.04 9  149 259 
 PTB  HN ES       1534 24.61                             134   -0.30 9  149 259 
 PTB  HZ I        1534 26.34        19.0 0.12            133            149 259 
 OCA  HN ES   1   1534 26.22                             131   -0.81 7  160 353 
 OCA  HZ I        1534 31.26        14.1 0.28            133            160 353 
 SPBC HZ EP       1534  5.22                             131    0.53 9  164 219 
 SPBC HE ES       1534 27.50                             131   -0.02 9  164 219 
 SPBC HZ I        1534 32.28        16.5 0.20            132            164 219 
 ZAR  HZ EP       1534  8.28                             124   -0.29 9  205 292 
 ZAR  HE ES       1534 34.69                             124    0.28 9  205 292 
 ZAR  HZ I        1534 41.22        15.2 0.32            124            205 292 
 SML  HZ EP       1534 12.41                             119   -0.19 8  244 335 
 SML  HN ES       1534 40.81                             119   -0.77 8  244 335 
 SML  HZ I        1534 46.63        19.0 0.10            120            244 335 
 HEL  HZ EP   4   1534 17.69                             116    1.45 0  273 256 
 HEL  HN ES   1   1534 47.27                             116   -0.80 6  273 256 
 HEL  HZ I        1534 54.59         7.4 0.32            117            273 256 
 URE  HZ EP   4   1534 14.58                             115   -2.48 0  285 292 
 TOL  SZ EP   4   1534 26.09                             111    1.92 0  345 225 
 TOL  SN ES       1535  2.12                             111   -0.06 7  345 225 
 TOL  SZ I        1535  9.10         6.7 0.16            112            345 225 
 SJC  HZ EP   4   1534 30.02                             107   -1.34 0  410 327 
 SJC  HE ES   4   1535 11.13                             107   -3.84 0  410 327 
 SJC  HZ I        1535 16.57         2.5 0.26            108            410 327 
                                                                                
