 2011  617 1736 40.5 L   6.785 -73.095152.3  RSN  6 0.4 1.8LRSN                1
 GAP=161        0.99       5.3     8.4  9.3 -0.1421E+02 -0.7590E+01 -0.3501E+01E
 Epicentro: LOS SANTOS - SANTANDER                                             3
 ACTION:UP  11-07-14 19:06 OP:ep   STATUS:               ID:20110617173640 L   I
 2011-06-17-1734-39S.COL___135                                                 6
 STAT SP IPHASW D HRMM SECON CODA AMPLIT PERI AZIMU VELO SNR AR TRES W  DIS CAZ7
 BAR2 SZ EP       1737  0.97                             171     0.110   23 204 
 BAR2 SZ ES   1   1737 16.10                             171    -0.7 7   23 204 
 BAR2 SZ I        1737 17.73        30.0 0.18                            23 204 
 BRR  HZ EP       1737  2.89                             152     0.310   77 298 
 BRR  HN ES   1   1737 20.25                             152     0.3 7   77 298 
 BRR  HZ I        1737 21.15        20.4 0.13                            77 298 
 RUS  HZ EP       1737  4.83                             146     0.110   99 179 
 RUS  HN ES   1   1737 24.07                             146     0.4 7   99 179 
 RUS  HZ I        1737 25.25         7.5 0.17                            99 179 
 BRI  SZ EP       1737  4.45                             143    -0.510  108  18 
 BRI  SZ I        1737 28.87         3.9 0.39                           108  18 
 GRA  SZ EP   1   1737  6.51                             138     0.2 7  126  15 
 GRA  SZ ES   1   1737 26.65                             138     0.2 7  126  15 
 GRA  SZ I        1737 28.61         4.9 0.29                           126  15 
 NOR  SN ES   1   1737 44.94                             119    -0.5 6  238 236 
                                                                                
