 2010  617 1520 48.7 L   6.751 -73.089149.2  RSN  6 0.4 1.8LRSN                1
 GAP=165        0.79       5.3    13.3  9.5 -0.1198E+02 -0.2831E+02  0.2828E+01E
 Epicentro: LOS SANTOS - SANTANDER                                             3
 ACTION:UP  10-08-24 10:11 OP:vdl  STATUS:               ID:20100617152048 L   I
 2010-06-17-1517-44S.COL___115                                                 6
 STAT SP IPHASW D HRMM SECON CODA AMPLIT PERI AZIMU VELO SNR AR TRES W  DIS CAZ7
 BAR2 SZ EP       1521  8.55                             172    -0.110   20 211 
 BAR2 SZ ES   2   1521 23.50                             172    -0.7 5   20 211 
 BRR  HZ EP   1   1521 10.47                             151    -0.2 7   79 300 
 BRR  HZ I        1521 10.74        26.5 0.15                            79 300 
 BRR  HN ES   2   1521 28.10                             151     0.3 5   79 300 
 RUS  HZ EP   1   1521 12.74                             146     0.4 7   95 180 
 RUS  HE ES   2   1521 31.01                             146     0.2 5   95 180 
 RUS  HZ I        1521 32.54         5.0 0.49                            95 180 
 GUE  SZ EP   1   1521 13.65                             139    -0.4 7  121   9 
 GUE  SZ ES   2   1521 34.90                             139     1.1 5  121   9 
 GRA  SZ EP   1   1521 14.40                             137    -0.1 7  129  14 
 CHI  HZ EP   1   1521 26.35                             118     0.2 6  245 197 
 CHI  HZ I        1521 59.55         3.3 0.66                           245 197 
                                                                                
