 2013  417 1929 29.4 L   6.769 -73.163148.4  RSN  6 0.2 1.7LRSN                1
 GAP=136        0.56       3.0     2.9  4.2 -0.1125E+01  0.7612E+00  0.2722E+01E
 Epicentro: LOS SANTOS - SANTANDER                                             3
 ACTION:UPD 13-05-22 14:39 OP:EP   STATUS:               ID:20130417192929 L   I
 2013-04-17-1928-49M.COL___212                                                 6
 STAT SP IPHASW D HRMM SECON CODA AMPLIT PERI AZIMU VELO AIN AR TRES W  DIS CAZ7
 BAR2 SZ EP       1929 49.24                             172    0.0110 19.6 186 
 GIR2 SZ EP       1929 49.50                             166    0.0710 34.5 354 
 GIR2 SZ ES       1930  5.25                             166    0.1610 34.5 354 
 BRR  HZ EP       1929 51.24                             153    0.4510 71.3 302 
 BRR  HN ES       1930  7.50                             153   -0.0210 71.3 302 
 PAM  SZ EP       1929 51.85                             150   -0.2310 81.3  39 
 PAM  SN ES       1930  9.64                             150   -0.1710 81.3  39 
 PAM  SN I        1930  9.78         8.0 0.38            155           81.3  39 
 RUS  HZ EP       1929 53.26                             145    0.1310 97.3 175 
 RUS  HE ES       1930 11.64                             145   -0.0410 97.3 175 
 RUS  HN I        1930 15.74         3.2 0.46            144           97.3 175 
 PTB  HZ EP       1929 56.05                             133   -0.26 9  145 260 
 PTB  HN ES       1930 17.19                             133   -0.15 9  145 260 
 PTB  HN I        1930 22.35        17.6 0.34            133            145 260 
                                                                                
