 2014  517 1403 39.3 L   6.783 -73.121146.4  RSN  9 0.5 2.0LRSN                1
 GAP=140        1.24       3.8     5.4  7.6 -0.4775E+01  0.8568E+01  0.3074E+01E
 Epicentro: LOS SANTOS - SANTANDER                                             3
 ACTION:UPD 15-03-16 16:58 OP:nd   STATUS:               ID:20140517140339 L   I
 OLDACT:REG 14-05-17 21:55 OP:carl STATUS:               ID:20140517135817     3
 2014-05-17-1358-17M.COL___251                                                 6
 STAT SP IPHASW D HRMM SECON CODA AMPLIT PERI AZIMU VELO AIN AR TRES W  DIS CAZ7
 BRR  HZ EP       14 4  1.01                             152    0.2610 74.5 299 
 BRR  HN ES       14 4 17.73                             152    0.2910 74.5 299 
 BRR  HZ I        14 4 20.75        10.3 0.14            143           74.5 299 
 PAM  SZ EP       14 4  2.45                             151    0.8310 77.2  37 
 PAM  SN ES       14 4 19.23                             151    0.2410 77.2  37 
 PAM  SZ I        14 4 20.40         5.8 0.16            141           77.2  37 
 RUS  HZ EP       14 4  3.21                             145    0.2010 98.5 178 
 RUS  HN ES       14 4 20.75                             145   -0.7210 98.5 178 
 RUS  HZ I        14 4 24.40         8.1 0.48            141           98.5 178 
 PTB  HZ EP       14 4  6.24                             132   -0.33 9  150 260 
 PTB  HN ES       14 4 27.24                             132   -0.56 9  150 260 
 PTB  HZ I        14 4 29.23        17.0 0.12            125            150 260 
 SPBC HZ EP       14 4  8.19                             129    0.28 9  163 220 
 SPBC HE ES       14 4 30.09                             129   -0.10 9  163 220 
 SPBC HZ I        14 4 37.31        18.5 0.30            124            163 220 
 NOR  HZ EP       14 4 15.00                             118   -0.22 8  236 235 
 NOR  HE ES       14 4 44.05                             118    0.84 8  236 235 
 NOR  HZ I        14 4 47.40        10.7 0.20            112            236 235 
 SML  HZ EP       14 4 15.64                             117   -0.67 8  247 335 
 SML  HE ES       14 4 44.49                             117   -0.66 8  247 335 
 SML  HZ I        14 4 55.71        14.5 0.20            109            247 335 
 CHI  HZ EP       14 4 16.78                             117   -0.17 8  247 196 
 CHI  HN ES       14 4 45.71                             117   -0.58 8  247 196 
 CHI  HZ I        14 4 54.28         5.5 0.56            112            247 196 
 GUY2CHZ EP       14 4 22.92                             112   -0.18 7  302 235 
 GUY2CHE ES       14 4 58.26                             112    1.02 7  302 235 
 GUY2CHZ I        14 5  4.10         6.6 0.32                           302 235 
                                                                                
