 2017 1117 1951 24.4 L   5.932 -73.763114.0  RSN  4 0.3 1.3LRSN                1
 GAP=158        0.91       5.9     3.4  9.4 -0.3528E+01  0.7466E+01  0.9528E+01E
 Epicentro: SUCRE - SANTANDER                                                  3
 ACTION:UPD 17-12-12 19:56 OP:rebc STATUS:               ID:20171117195124 L   I
 OLDACT:REG 17-11-17 21:29 OP:leo  STATUS:               ID:20171117194742     3
 2017-11-17-1948-00M.COL___470                                                 6
 STAT SP IPHASW D HRMM SECON CODA AMPLIT PERI AZIMU VELO AIN AR TRES W  DIS CAZ7
 RUS  HZ EP       1951 43.20                             144   -0.0310 75.4  93 
 RUS  HN ES       1951 57.52                             144   -0.3810 75.4  93 
 RUS  HZ I        1951 59.02         4.0 0.22            146           75.4  93 
 BAR2 EZ EP       1951 44.99                             137    0.4210 97.2  41 
 BAR2 EZ ES       1952  0.62                             137    0.3410 97.2  41 
 PTB  HZ EP       1951 44.20                             135   -0.4710  102 311 
 PTB  HN ES       1952  0.26                             135   -0.2010  102 311 
 PTB  HZ I        1952  0.61         3.1 0.44            137            102 311 
 NOR  HZ EP       1951 47.07                             128   -0.1410  129 252 
 NOR  HN ES       1952  5.46                             128    0.4810  129 252 
 NOR  HZ I        1952  6.64         6.8 0.22            129            129 252 
                                                                                
