 2017  917 1723 19.2 L   6.779 -73.121138.6  RSN 13 0.3 2.1LRSN                1
 GAP=115        0.69       2.3     2.7  3.9  0.9794E-02  0.3131E+01  0.2421E+01E
 Epicentro: LOS SANTOS - SANTANDER                                             3
 ACTION:UPD 17-10-05 19:13 OP:rebc STATUS:               ID:20170917172319 L   I
 OLDACT:UP  17-09-17 23:21 OP:dnl  STATUS:               ID:20170917171742     3
 OLDACT:REG 17-09-17 21:13 OP:dnl  STATUS:               ID:20170917171742     3
 2017-09-17-1718-00M.COL___412                                                 6
 STAT SP IPHASW D HRMM SECON CODA AMPLIT PERI AZIMU VELO AIN AR TRES W  DIS CAZ7
 BAR2 EZ EP       1723 37.74                             171   -0.1810 21.7 198 
 BAR2 EZ ES       1723 52.69                             171    0.1610 21.7 198 
 BAR2 EZ I        1723 56.76        15.8 0.42            167           21.7 198 
 BRR  HZ IP     C 1723 39.65                             150   -0.1310 74.8 299 
 BRR  HN ES       1723 56.31                             150    0.4810 74.8 299 
 BRR  HZ I        1724  0.72        30.2 0.14            151           74.8 299 
 PAM  EZ EP       1723 40.80                             150    0.1510 77.5  37 
 PAM  EE ES       1723 57.38                             150   -0.0110 77.5  37 
 PAM  EZ I        1723 59.68        33.5 0.44            157           77.5  37 
 RUS  HZ EP       1723 42.04                             143   -0.0110 98.1 178 
 RUS  HN ES       1723 59.93                             143    0.0510 98.1 178 
 RUS  HZ I        1724  0.96        13.3 0.26            144           98.1 178 
 SPBC HZ EP       1723 46.80                             128   -0.34 9  163 220 
 SPBC HE ES       1724  8.65                             128   -0.29 9  163 220 
 SPBC HZ I        1724 15.01        18.6 0.26            128            163 220 
 YPLC HZ EP       1723 48.21                             126    0.08 9  173 152 
 YPLC HE ES   4   1724 12.42                             126    1.72 0  173 152 
 YPLC HZ I        1724 14.38        12.0 0.56            128            173 152 
 ZAR  HZ EP       1723 50.94                             120   -0.60 8  208 292 
 ZAR  HN ES       1724 16.58                             120   -0.19 8  208 292 
 ZAR  HZ I        1724 21.66        22.5 0.62            123            208 292 
 CHI  HZ EP   2   1723 56.09                             116   -0.24 4  247 196 
 CHI  HE ES       1724 25.03                             116   -0.27 8  247 196 
 CHI  HZ I        1724 34.96         4.8 0.36            118            247 196 
 HEL  HZ EP       1724  0.14                             113    0.86 8  274 256 
 HEL  HE ES       1724 30.47                             113   -0.08 8  274 256 
 HEL  HZ I        1724 36.94         5.9 0.36            115            274 256 
 URE  HZ EP   9   1723 58.91                             112   -1.40 0  287 292 
 URE  HN ES   2   1724 31.13                             112    0.15 4  287 292 
 URE  HZ I        1724 31.93         9.7 0.14            114            287 292 
 GUY2CHZ EP   4   1724  4.84                             111    2.26 0  302 235 
 GUY2CHE ES   4   1724 40.35                             111    3.93 0  302 235 
 GUY2CHZ I        1724 43.10         7.7 0.22                           302 235 
 PRA  HZ EP   2   1724 12.32                             105   -0.07 3  391 210 
 PRA  HE ES       1724 54.35                             105    0.47 6  391 210 
 PRA  HZ I        1724 59.09         5.8 0.26            107            391 210 
 ORTC HZ EP   2   1724 13.26                             105    0.42 3  395 217 
 ORTC HE ES       1724 54.94                             105    0.25 6  395 217 
 ORTC HZ I        1724 59.56         5.1 0.46            107            395 217 
                                                                                
