 2017  217 1401 56.9 L   6.770 -73.155142.3  RSN  6 0.3 1.7LRSN                1
 GAP=137        0.74       3.6     3.2  5.0  0.1186E+01  0.4180E+01 -0.8282E+00E
 Epicentro: LOS SANTOS - SANTANDER                                             3
 ACTION:UPD 17-05-24 15:37 OP:jn   STATUS:               ID:20170217140156 L   I
 OLDACT:UP  17-02-17 23:59 OP:dani STATUS:               ID:20170217135747     3
 OLDACT:REG 17-02-17 20:34 OP:dani STATUS:               ID:20170217135747     3
 2017-02-17-1358-00M.COL___346                                                 6
 STAT SP IPHASW D HRMM SECON CODA AMPLIT PERI AZIMU VELO AIN AR TRES W  DIS CAZ7
 BAR2 HZ EP       14 2 16.00                             172   -0.0110 19.9 189 
 BAR2 HZ ES       14 2 30.68                             172   -0.2610 19.9 189 
 BAR2 HZ I        14 2 31.87        14.4 0.14            173           19.9 189 
 BRR  HZ EP       14 2 17.91                             152    0.2310 72.0 301 
 BRR  HN ES       14 2 34.10                             152    0.1810 72.0 301 
 BRR  HZ I        14 2 36.38        12.1 0.14            151           72.0 301 
 PAM  EZ EP       14 2 19.02                             149    0.1110 80.6  39 
 PAM  EE ES       14 2 35.88                             149   -0.2310 80.6  39 
 PAM  EZ I        14 2 38.12         9.6 0.60            151           80.6  39 
 RUS  HZ EP       14 2 20.10                             144    0.0610 97.3 175 
 RUS  HE ES       14 2 38.48                             144    0.3710 97.3 175 
 RUS  HZ I        14 2 40.12         4.5 0.28            147           97.3 175 
 PTB  HZ EP       14 2 23.02                             131   -0.38 9  146 260 
 PTB  HN ES       14 2 43.68                             131   -0.42 9  146 260 
 PTB  HZ I        14 2 45.72         5.8 0.42            132            146 260 
 ZAR  HZ EP       14 2 28.95                             121   -0.17 9  204 293 
 ZAR  HE ES       14 2 54.80                             121    0.52 9  204 293 
 ZAR  HZ I        14 2 59.71         3.7 0.14            122            204 293 
                                                                                
