 2014 1217 1029 54.2 L   6.785 -73.177142.7  RSN 10 0.4 1.7LRSN                1
 GAP=133        1.02       2.9     4.1  6.0  0.5398E-01  0.7308E+01  0.2211E+01E
 Epicentro: LOS SANTOS - SANTANDER                                             3
 ACTION:UPD 15-02-10 17:04 OP:nd   STATUS:               ID:20141217102954 L   I
 OLDACT:REG 14-12-17 20:50 OP:fm   STATUS:               ID:20141217102749     3
 2014-12-17-1027-49M.COL___290                                                 6
 STAT SP IPHASW D HRMM SECON CODA AMPLIT PERI AZIMU VELO AIN AR TRES W  DIS CAZ7
 BAR2 EZ EP       1030 13.80                             171    0.3710 21.3 182 
 BAR2 EZ ES       1030 28.74                             171    0.3210 21.3 182 
 BAR2 EZ I        1030 29.84         9.7 0.24            170           21.3 182 
 BRR  HZ EP       1030 15.50                             153    0.6010 69.0 301 
 BRR  HE ES       1030 31.27                             153    0.2310 69.0 301 
 BRR  HZ I        1030 36.57         9.8 0.30            151           69.0 301 
 PAM  SZ EP       1030 16.62                             149    0.3110 80.9  41 
 PAM  SE ES       1030 33.27                             149   -0.2910 80.9  41 
 PAM  SZ I        1030 34.41         5.7 0.18            153           80.9  41 
 RUS  HZ EP       1030 17.08                             144   -0.4710 99.2 174 
 RUS  HE ES       1030 35.71                             144   -0.0610 99.2 174 
 RUS  HZ I        1030 37.93         3.7 0.44            145           99.2 174 
 PTB  HZ EP       1030 20.33                             132   -0.25 9  144 259 
 PTB  HN ES       1030 40.57                             132   -0.59 9  144 259 
 PTB  HZ I        1030 44.04         4.9 0.14            132            144 259 
 OCA  HN ES       1030 43.93                             129   -0.47 9  162 354 
 OCA  HZ I        1030 47.13         5.4 0.34            131            162 354 
 ZAR  HZ EP       1030 26.76                             122    0.57 9  202 293 
 ZAR  HN ES       1030 51.33                             122    0.20 9  202 293 
 ZAR  HZ I        1030 56.75         5.1 0.40            123            202 293 
 NOR  HZ EP       1030 29.91                             118    0.56 8  231 234 
 NOR  HN ES       1030 56.64                             118   -0.12 8  231 234 
 NOR  HZ I        1031  3.17         3.0 0.22            119            231 234 
 SML  HE ES       1030 58.61                             117   -0.51 8  244 336 
 SML  HZ I        1031  2.21         7.6 0.28            118            244 336 
 CHI  HZ EP       1030 30.84                             117   -0.62 8  246 194 
 CHI  HN ES       1031  0.47                             117   -0.05 8  246 194 
 CHI  HZ I        1031  6.34         3.8 0.36            118            246 194 
                                                                                
