 2014  517 1918  4.2 L   6.834 -73.186138.0  RSN  8 0.5 1.9LRSN                1
 GAP=130        1.15       3.6     5.2  8.5 -0.5567E+01  0.1657E+02 -0.1582E+01E
 Epicentro: ZAPATOCA - SANTANDER                                               3
 ACTION:UPD 15-03-16 16:58 OP:nd   STATUS:               ID:20140517191804 L   I
 OLDACT:REG 14-05-17 22:01 OP:carl STATUS:               ID:20140517190818     3
 2014-05-17-1908-18M.COL___248                                                 6
 STAT SP IPHASW D HRMM SECON CODA AMPLIT PERI AZIMU VELO AIN AR TRES W  DIS CAZ7
 PAM  SZ EP       1918 25.98                             149    0.3310 77.6  44 
 PAM  SN ES       1918 43.01                             149    0.6710 77.6  44 
 PAM  SZ I        1918 44.50         8.4 0.42            154           77.6  44 
 RUS  HZ EP       1918 27.21                             141   -0.3410  105 174 
 RUS  HN ES       1918 45.36                             141   -0.3710  105 174 
 RUS  HZ I        1918 47.07         7.3 0.44            145            105 174 
 PTB  HZ EP       1918 29.82                             131   -0.43 9  144 257 
 PTB  HN ES       1918 50.57                             131    0.03 9  144 257 
 PTB  HZ I        1918 53.51        14.4 0.14            132            144 257 
 SPBC HZ EP       1918 32.32                             127    0.15 9  163 217 
 SPBC HN ES       1918 53.73                             127   -0.23 9  163 217 
 SPBC HZ I        1919  1.87        10.4 0.20            129            163 217 
 NOR  HZ EP       1918 39.66                             117    0.28 8  233 233 
 NOR  HE ES       1919  6.82                             117    0.04 8  233 233 
 NOR  HZ I        1919 11.07         7.9 0.20            119            233 233 
 SML  HZ EP       1918 39.89                             116    0.02 8  238 336 
 SML  HN ES       1919  6.66                             116   -1.00 8  238 336 
 SML  HZ I        1919 16.00        14.7 0.10            119            238 336 
 CHI  HZ EP       1918 41.50                             115   -0.30 8  251 194 
 CHI  HN ES       1919 10.65                             115   -0.44 8  251 194 
 CHI  HZ I        1919 16.69         3.4 0.38            118            251 194 
 GUY2CHZ EP       1918 48.31                             111    0.97 7  300 234 
 GUY2CHE ES       1919 21.91                             111    0.96 7  300 234 
 GUY2CHZ I        1919 28.61         4.8 0.32                           300 234 
                                                                                
