 2011 1217 1317 41.5 L   6.771 -73.026145.1  RSN  5 0.3 1.5LRSN                1
 GAP=154        0.48       4.2     7.4  6.7 -0.5954E+01 -0.1085E+01  0.8362E+01E
 Epicentro: CEPITA - SANTANDER                                                 3
 ACTION:UPD 12-07-13 16:16 OP:ep   STATUS:               ID:20111217131741 L   I
 2011-12-17-1310-00M.COL___186                                                 6
 STAT SP IPHASW D HRMM SECON CODA AMPLIT PERI AZIMU VELO AIN AR TRES W  DIS CAZ7
 BAR2 SZ EP   1   1318  0.90                             169   -0.17 7 26.3 221 
 BAR2 SZ ES   2   1318 16.30                             169   -0.07 5 26.3 221 
 BAR2 SZ I        1318 17.16         9.8 0.93                          26.3 221 
 PAM  SZ EP   2   1318  3.80                             152    0.49 5 72.5  30 
 PAM  SN ES   2   1318 19.97                             152   -0.39 5 72.5  30 
 BRR  HZ EP   2   1318  3.01                             148   -0.32 5 84.4 296 
 BRR  HN ES   2   1318 20.71                             148    0.31 5 84.4 296 
 BRR  HZ I        1318 27.90         7.7 0.52                          84.4 296 
 RUS  HZ EP   2   1318  5.31                             145    0.40 5 97.4 184 
 RUS  HN ES   2   1318 23.46                             145    0.25 5 97.4 184 
 RUS  HZ I        1318 23.66         4.2 0.60                          97.4 184 
 CHI  HZ EP   2   1318 19.18                             117   -0.02 4  249 198 
 CHI  HZ I        1318 34.18         1.9 0.60                           249 198 
 CHI  HN ES   2   1318 48.21                             117   -0.43 4  249 198 
                                                                                
