 2010 1217 1917 59.2 L   6.862 -73.284121.6  RSN  7 0.2 1.8LRSN                1
 GAP=135        0.55       2.4     3.8  4.4 -0.2775E+01  0.2886E+01 -0.1146E+01E
 Epicentro: ZAPATOCA - SANTANDER                                               3
 ACTION:UP  11-01-14 15:25 OP:pat  STATUS:               ID:20101217191759 L   I
 2010-12-17-1916-22S.COL___136                                                 6
 STAT SP IPHASW D HRMM SECON CODA AMPLIT PERI AZIMU VELO SNR AR TRES W  DIS CAZ7
 BTL  SZ IP       1918 15.81                             177     0.110    7  16 
 BAR2 SZ IP       1918 16.23                             164     0.010   32 160 
 BAR2 SZ I        1918 16.34        31.6 0.11                            32 160 
 BAR2 SZ ES   1   1918 29.49                             164     0.1 7   32 160 
 BRR  HZ IP     D 1918 16.65                             154    -0.210   55 300 
 BRR  HZ I        1918 17.07        21.4 0.10                            55 300 
 BRR  HN ES   1   1918 30.55                             154     0.0 7   55 300 
 RUS  HZ EP       1918 21.26                             135    -0.210  109 168 
 RUS  HN ES   1   1918 38.58                             135    -0.1 7  109 168 
 RUS  HZ I        1918 41.54         4.8 0.41                           109 168 
 GRA  SZ EP       1918 22.73                             131     0.410  125  25 
 GRA  SZ ES   1   1918 40.35                             131     0.0 7  125  25 
 GRA  SZ I        1918 45.07        10.7 0.47                           125  25 
 OCA  SZ EP       1918 24.64                             125    -0.3 9  152 359 
 NOR  SZ EP       1918 32.90                             114     0.1 8  227 231 
 NOR  SN ES   1   1918 59.06                             114     0.1 6  227 231 
                                                                                
