 2017  317 1055  4.5 L   6.791 -73.161146.0  RSN  9 0.4 1.8LRSN                1
 GAP=135        0.94       3.6     3.9  5.6 -0.1005E+00  0.5826E+01  0.7138E+01E
 Epicentro: LOS SANTOS - SANTANDER                                             3
 ACTION:UPD 17-05-25 18:41 OP:jn   STATUS:               ID:20170317105504 L   I
 OLDACT:REG 17-03-17 20:49 OP:dnl  STATUS:               ID:20170317104741     3
 2017-03-17-1048-00M.COL___400                                                 6
 STAT SP IPHASW D HRMM SECON CODA AMPLIT PERI AZIMU VELO AIN AR TRES W  DIS CAZ7
 BAR2 EZ EP       1055 23.85                             171   -0.2710 22.1 186 
 BAR2 EZ ES       1055 39.52                             171    0.0810 22.1 186 
 BAR2 EZ I        1055 41.59        26.2 0.32            170           22.1 186 
 BRR  HZ EP       1055 25.74                             153    0.1310 70.2 300 
 BRR  HN ES       1055 42.70                             153    0.6210 70.2 300 
 BRR  HZ I        1055 44.48        11.8 0.42            153           70.2 300 
 PAM  EZ EP       1055 26.74                             150   -0.1010 79.3  40 
 PAM  EN ES       1055 44.42                             150    0.1410 79.3  40 
 PAM  EZ I        1055 46.84         6.4 0.34            153           79.3  40 
 RUS  HZ EP       1055 27.73                             144   -0.4710 99.7 175 
 RUS  HE ES       1055 46.65                             144   -0.0410 99.7 175 
 RUS  HZ I        1055 47.68         9.4 0.38            145           99.7 175 
 PTB  HZ EP       1055 31.12                             132   -0.19 9  146 259 
 PTB  HN ES       1055 51.56                             132   -0.66 9  146 259 
 PTB  HZ I        1055 54.15         6.4 0.14            133            146 259 
 ZAR  HZ EP   4   1055 38.29                             123    1.46 0  203 293 
 ZAR  HN ES       1056  1.66                             123   -0.39 9  203 293 
 ZAR  HZ I        1056  6.99         9.1 0.24            123            203 293 
 CHI  HZ EP       1055 42.13                             117    0.09 8  247 195 
 CHI  HE ES       1056 11.47                             117    0.13 8  247 195 
 CHI  HZ I        1056 17.54         3.1 0.34            118            247 195 
 GUY2CHZ EP       1055 48.91                             113    1.03 7  299 235 
 GUY2CHN ES       1056 22.27                             113    0.54 7  299 235 
 GUY2CHZ  IAML    1056 30.20         3.7 0.66                           299 235 
 PRA  HZ EP       1055 57.93                             107    0.12 6  390 209 
 PRA  HN ES       1056 39.27                             107   -0.14 6  390 209 
 PRA  HZ I        1056 46.07         4.5 0.40            107            390 209 
                                                                                
