 2011  217 1342 33.6 L   6.762 -73.112151.0  RSN  7 0.4 1.8LRSN                1
 GAP=163        1.08       6.6    10.9  9.5 -0.3783E+02  0.2378E+02  0.1084E+01E
 Epicentro: LOS SANTOS - SANTANDER                                             3
 ACTION:UP  11-03-28 15:09 OP:jfem STATUS:               ID:20110217134233 L   I
 2011-02-17-1340-25S.COL___137                                                 6
 STAT SP IPHASW D HRMM SECON CODA AMPLIT PERI AZIMU VELO SNR AR TRES W  DIS CAZ7
 BAR2 SZ IP       1342 53.60                             172    -0.210   20 203 
 BAR2 SZ I        1342 53.92        25.5 0.07                            20 203 
 BTL  SZ EP       1342 54.68                             170     0.810   24 315 
 BTL  SZ ES   1   1343 10.30                             170     0.6 7   24 315 
 GIR2 SZ EP       1342 53.75                             166    -0.310   36 346 
 GIR2 SZ ES   2   1343  9.47                             166    -0.5 5   36 346 
 RUS  HZ EP       1342 57.44                             146    -0.110   96 178 
 RUS  HN ES   1   1343 16.11                             146    -0.1 7   96 178 
 RUS  HZ I        1343 17.14         5.9 0.34                            96 178 
 GRA  SZ EP       1342 59.52                             137     0.010  129  15 
 GRA  SZ ES   1   1343 19.20                             137    -0.6 7  129  15 
 GRA  SZ I        1343 21.94         7.1 0.30                           129  15 
 NOR  SZ EP       1343  9.83                             120     0.1 8  235 236 
 NOR  SN ES   1   1343 37.20                             120    -0.7 6  235 236 
 RREF HZ EP   2   1343 20.23                             112     0.3 3  322 230 
 RREF HZ I        1344  1.12         3.8 0.41                           322 230 
                                                                                
