 2013  217 1024 42.0 L   6.737 -73.136145.2  RSN  6 0.3 1.5LRSN                1
 GAP=140        0.62       5.5     4.2  5.8 -0.7684E+00  0.7159E+01 -0.2596E+01E
 Epicentro: JORDAN - SANTANDER                                                 3
 ACTION:UPD 13-03-12 09:33 OP:ep   STATUS:               ID:20130217102442 L   I
 2013-02-17-1020-00M.COL___241                                                 6
 STAT SP IPHASW D HRMM SECON CODA AMPLIT PERI AZIMU VELO AIN AR TRES W  DIS CAZ7
 BAR2 SZ ES   1   1025 16.29                             173   -0.36 7 16.8 198 
 BAR2 SZ I        1025 17.33         5.5 0.14            169           16.8 198 
 BRR  HZ EP   1   1025  3.54                             151    0.17 7 75.6 303 
 BRR  HN ES       1025 20.31                             151    0.2910 75.6 303 
 BRR  HN I        1025 24.75        10.3 0.68            149           75.6 303 
 PAM  SZ EP   1   1025  4.62                             149    0.14 7 82.2  36 
 PAM  SN ES   1   1025 21.72                             149   -0.27 7 82.2  36 
 PAM  SN I        1025 22.38         5.9 0.50            154           82.2  36 
 RUS  HN ES   2   1025 23.94                             146    0.61 5 93.6 176 
 RUS  HN I        1025 25.63         2.0 0.24            147           93.6 176 
 PTB  HZ EP   1   1025  8.64                             132   -0.29 7  148 262 
 PTB  HN ES   2   1025 29.38                             132   -0.54 5  148 262 
 PTB  HN I        1025 34.57         3.8 0.44            131            148 262 
 ZAR  HZ EP   1   1025 14.55                             122   -0.26 6  208 294 
 ZAR  HN ES   1   1025 40.65                             122    0.26 6  208 294 
 ZAR  HN I        1025 45.52         3.0 0.16            122            208 294 
                                                                                
