 2010  717 1713  9.1 L   6.759 -73.069146.0  RSN  4 0.3 1.5LRSN                1
 GAP=173        0.76       7.7    16.5 14.9  0.7826E+02 -0.1870E+03 -0.4529E+02E
 Epicentro: LOS SANTOS - SANTANDER                                             3
 ACTION:UPD 10-12-01 15:18 OP:pat  STATUS:               ID:20100717171309 L   I
 2010-07-17-1708-17S.COL___120                                                 6
 STAT SP IPHASW D HRMM SECON CODA AMPLIT PERI AZIMU VELO AIN AR TRES W  DIS CAZ7
 BAR2 SZ EP   1   1713 28.63                             171    -0.2 7   22 214 
 BRR  HZ EP       1713 30.54                             150    -0.310   81 298 
 BRR  HZ I        1713 30.74        12.3 0.07                            81 298 
 BRR  HN ES       1713 48.06                             150     0.210   81 298 
 RUS  HZ EP       1713 32.90                             146     0.310   96 181 
 RUS  HN ES   2   1713 50.34                             146    -0.5 5   96 181 
 RUS  HZ I        1713 52.92         2.2 0.47                            96 181 
 GUE  SZ EP   1   1713 34.20                             139     0.1 7  119   8 
                                                                                
