 2017  217 1147 19.6 L   6.844 -73.388119.0  RSN  5 0.3 1.3LRSN                1
 GAP=105        0.86       5.8     4.3  8.4  0.1656E+01  0.3698E+01 -0.1721E+02E
 Epicentro: SAN VICENTE DE CHUCURI - SANTANDER                                 3
 ACTION:UPD 17-05-24 15:37 OP:jn   STATUS:               ID:20170217114719 L   I
 OLDACT:UP  17-02-17 22:20 OP:dani STATUS:               ID:20170217113743d    3
 OLDACT:DUP 17-02-17 22:18 OP:dani STATUS:               ID:20170217113743d    3
 OLDACT:UP  17-02-17 22:17 OP:dani STATUS:               ID:20170217113742d    3
 OLDACT:UP  17-02-17 22:16 OP:dani STATUS:               ID:20170217113742d    3
 OLDACT:UP  17-02-17 22:11 OP:dani STATUS:               ID:20170217113742d    3
 OLDACT:UP  17-02-17 22:09 OP:dani STATUS:               ID:20170217113742d    3
 OLDACT:UP  17-02-17 22:07 OP:dani STATUS:               ID:20170217113742d    3
 OLDACT:DUP 17-02-17 22:02 OP:dani STATUS:               ID:20170217113742d    3
 2017-02-17-1138-00M.COL___343                                                 6
 STAT SP IPHASW D HRMM SECON CODA AMPLIT PERI AZIMU VELO AIN AR TRES W  DIS CAZ7
 BAR2 EZ EP       1147 36.52                             162    0.0610 35.9 141 
 BAR2 EZ ES       1147 49.68                             162    0.1010 35.9 141 
 BAR2 EZ I        1147 50.97        16.6 0.26            162           35.9 141 
 BRR  HZ EP       1147 36.91                             157    0.3810 46.1 309 
 PAM  EZ EP       1147 39.92                             139   -0.3910 93.7  54 
 RUS  HZ EP       1147 41.46                             134   -0.2510  110 162 
 RUS  HN ES       1147 59.03                             134    0.1110  110 162 
 RUS  HZ I        1148  0.06         1.6 0.16            135            110 162 
 PTB  HZ EP       1147 42.64                             131    0.4710  123 254 
 PTB  HN ES       1147 59.25                             131   -0.4910  123 254 
                                                                                
