 2015  917 1943 19.4 L   6.791 -73.139136.6  RSN 12 0.4 2.1LRSN                1
 GAP=138        0.99       2.9     3.7  5.1  0.4278E-01  0.6838E+01  0.1961E+01E
 Epicentro: LOS SANTOS - SANTANDER                                             3
 ACTION:UPD 15-10-28 16:26 OP:cam  STATUS:               ID:20150917194319 L   I
 OLDACT:REG 15-09-17 20:59 OP:drio STATUS:               ID:20150917193749     3
 2015-09-17-1937-49M.COL___307                                                 6
 STAT SP IPHASW D HRMM SECON CODA AMPLIT PERI AZIMU VELO AIN AR TRES W  DIS CAZ7
 BAR2 EZ EP       1943 38.06                             170    0.1210 22.5 192 
 BAR2 EZ ES       1943 51.70                             170   -0.6810 22.5 192 
 BAR2 EZ I        1943 56.35        21.8 0.20            168           22.5 192 
 BRR  HZ EP       1943 39.81                             150    0.1510 72.3 299 
 BRR  HN ES       1943 56.05                             150    0.6110 72.3 299 
 BRR  HN IS       1943 56.57                             150           72.3 299 
 BRR  HZ I        1944  0.75        31.0 0.34            151           72.3 299 
 PAM  EZ EP       1943 40.87                             149    0.1810 77.7  39 
 PAM  EE ES       1943 57.72                             149    0.4410 77.7  39 
 PAM  EZ I        1943 59.71        20.5 0.54            154           77.7  39 
 RUS  HZ EP       1943 42.22                             142    0.0110 99.6 176 
 RUS  HN ES       1944  0.03                             142    0.0410 99.6 176 
 RUS  HZ I        1944  2.62        12.4 0.40            143           99.6 176 
 PTB  HZ EP       1943 44.96                             130   -0.76 9  148 259 
 PTB  HN ES       1944  5.76                             130   -0.46 9  148 259 
 PTB  HZ I        1944  8.45        21.3 0.22            131            148 259 
 ZAR  HZ EP       1943 51.59                             120    0.19 9  205 292 
 ZAR  HN ES       1944 16.01                             120   -0.34 9  205 292 
 ZAR  HZ I        1944 18.90        16.9 0.24            122            205 292 
 SML  HZ EP       1943 55.16                             115   -0.53 8  245 335 
 SML  HE ES       1944 23.67                             115   -0.30 8  245 335 
 SML  HZ I        1944 26.09        17.1 0.10            118            245 335 
 CHI  HZ EP       1943 56.39                             115   -0.16 8  248 195 
 CHI  HE ES       1944 25.14                             115   -0.37 8  248 195 
 CHI  HZ I        1944 33.68         6.4 0.42            117            248 195 
 HEL  HZ EP       1943 59.50                             113    0.26 8  273 256 
 HEL  HN ES       1944 30.82                             113    0.52 8  273 256 
 HEL  HZ I        1944 37.65         9.5 0.28            115            273 256 
 GUY2CHZ EP       1944  2.98                             110    0.35 7  301 235 
 GUY2CHE ES       1944 37.17                             110    0.83 7  301 235 
 GUY2CHZ I        1944 46.27         7.8 0.48                           301 235 
 PRA  HZ EP       1944 12.90                             105    0.31 6  392 210 
 PRA  HN ES       1944 54.07                             105    0.01 6  392 210 
 PRA  HZ I        1945  2.35         6.0 0.26            107            392 210 
 SJC  HZ EP   4   1944 12.30                             104   -2.55 0  410 327 
 SJC  HN ES   4   1944 53.75                             104   -4.32 0  410 327 
 SJC  HZ I        1944 57.37         3.6 0.54            106            410 327 
                                                                                
