 2013  817 1154 18.8 L   6.798 -73.150145.3  RSN  8 0.4 1.7LRSN                1
 GAP=136        0.90       3.9     4.0  5.8 -0.1627E+01  0.6182E+01  0.7784E+00E
 Epicentro: LOS SANTOS - SANTANDER                                             3
 ACTION:UPD 14-01-14 09:04 OP:ep   STATUS:               ID:20130817115418 L   I
 OLDACT:REG 13-08-17 14:48 OP:jn   STATUS:               ID:20130817114959     3
 2013-08-17-1149-59M.COL___269                                                 6
 STAT SP IPHASW D HRMM SECON CODA AMPLIT PERI AZIMU VELO AIN AR TRES W  DIS CAZ7
 BAR2 SZ EP       1154 38.31                             171   -0.0210 23.0 189 
 BAR2 SZ ES       1154 53.62                             171    0.0310 23.0 189 
 BAR2 SZ I        1154 54.62         9.2 0.24            168           23.0 189 
 BRR  HZ EP     D 1154 40.04                             152    0.2010 70.9 299 
 BRR  HN ES       1154 56.84                             152    0.5510 70.9 299 
 BRR  HZ I        1154 57.66        15.3 0.30            150           70.9 299 
 PAM  SZ EP       1154 41.20                             150    0.2410 77.9  40 
 PAM  SN ES       1154 57.81                             150   -0.4610 77.9  40 
 PAM  SZ I        1154 58.75         9.9 0.20            156           77.9  40 
 RUS  HZ EP       1154 42.42                             144   -0.0310  100 176 
 RUS  HN ES       1155  0.94                             144    0.0110  100 176 
 RUS  HZ I        1155  3.37         4.2 0.36            145            100 176 
 PTB  HZ EP       1154 44.97                             132   -0.67 9  147 259 
 PTB  HN ES       1155  6.04                             132   -0.57 9  147 259 
 PTB  HZ I        1155 12.09         6.0 0.18            131            147 259 
 SPBC HZ EP       1154 47.24                             129    0.06 9  163 219 
 SPBC HE ES   1   1155  9.91                             129    0.57 7  163 219 
 SPBC HZ I        1155 15.61         8.5 0.24            129            163 219 
 ZAR  HZ EP       1154 51.62                             122    0.48 9  204 292 
 ZAR  HE ES   1   1155 16.30                             122   -0.10 6  204 292 
 ZAR  HZ I        1155 23.80         6.2 0.44            122            204 292 
 NOR  HE ES   1   1155 22.03                             118   -0.18 6  234 234 
                                                                                
