 2017  717 1130 43.2 L   6.764 -73.168142.4  RSN  5 0.4 1.1LRSN                1
 GAP=232        1.09       8.3     7.6  8.7  0.3959E+02  0.1008E+02  0.6380E+00E
 Epicentro: LOS SANTOS - SANTANDER                                             3
 ACTION:UPD 17-08-30 15:34 OP:rebc STATUS:               ID:20170717113043 L   I
 OLDACT:DUP 17-07-17 22:56 OP:lv   STATUS:               ID:20170717112747d    3
 2017-07-17-1128-00M.COL___377                                                 6
 STAT SP IPHASW D HRMM SECON CODA AMPLIT PERI AZIMU VELO AIN AR TRES W  DIS CAZ7
 BAR2 EZ EP       1131  2.22                             172   -0.1410 19.0 185 
 BAR2 EZ ES       1131 16.54                             172   -0.7610 19.0 185 
 BAR2 EZ I        1131 18.85         4.6 0.12            174           19.0 185 
 BRR  HZ EP       1131  4.04                             152    0.0410 71.1 302 
 BRR  HN ES       1131 20.75                             152    0.5410 71.1 302 
 BRR  HZ I        1131 24.20         3.4 0.10            153           71.1 302 
 RUS  HZ EP       1131  6.65                             144    0.2810 96.8 174 
 RUS  HN ES       1131 24.91                             144    0.4910 96.8 174 
 RUS  HZ I        1131 25.80         1.1 0.07            148           96.8 174 
 PTB  HZ EP       1131  9.13                             132   -0.50 9  145 260 
 PTB  HN ES       1131 30.01                             132   -0.22 9  145 260 
 PTB  HZ I        1131 31.42         1.4 0.20            134            145 260 
 ZAR  HN ES       1131 40.70                             122    0.25 9  203 293 
                                                                                
