 2012  117 1940 53.9 L   6.773 -73.128146.6  RSN 12 0.4 2.3LRSN                1
 GAP=140        0.81       3.5     4.0  5.6 -0.1781E+01  0.6672E+01  0.3513E+01E
 Epicentro: LOS SANTOS - SANTANDER                                             3
 ACTION:UP  12-02-03 08:18 OP:REBC STATUS:               ID:20120117194053 L   I
 2012-01-17-1940-00M.COL___187                                                 6
 STAT SP IPHASW D HRMM SECON CODA AMPLIT PERI AZIMU VELO SNR AR TRES W  DIS CAZ7
 BAR2 SZ EP   1   1941 13.60                             172     0.1 7   21 197 
 BAR2 SZ ES   1   1941 28.70                             172    -0.2 7   21 197 
 BAR2 SZ I        1941 30.53        43.1 0.28                            21 197 
 BRR  HZ EP   1   1941 15.66                             152     0.4 7   74 300 
 BRR  HN ES   1   1941 32.69                             152     0.7 7   74 300 
 BRR  HZ I        1941 36.03        65.5 0.18                            74 300 
 PAM  SZ EP   1   1941 16.49                             151     0.3 7   78  37 
 PAM  SN ES   1   1941 33.58                             151    -0.1 7   78  37 
 PAM  SZ I        1941 36.08         9.5 0.27                            78  37 
 RUS  HZ EP   1   1941 17.67                             145     0.2 7   98 177 
 RUS  HN ES   1   1941 35.64                             145    -0.3 7   98 177 
 RUS  HZ I        1941 38.17        17.7 0.44                            98 177 
 PTB  HZ EP   1   1941 20.42                             132    -0.6 7  149 260 
 PTB  HN ES   1   1941 41.56                             132    -0.7 7  149 260 
 OCA  SZ EP   1   1941 22.31                             129    -0.2 7  163 353 
 OCA  SZ I        1941 48.09        16.7 0.18                           163 353 
 ZAR  HZ EP   1   1941 26.06                             122    -0.6 6  207 293 
 ZAR  HN ES   1   1941 52.14                             122    -0.1 6  207 293 
 ZAR  HZ I        1941 58.88        37.2 0.27                           207 293 
 NOR  SZ EP   1   1941 29.63                             119     0.0 6  235 235 
 NOR  SN ES   1   1941 58.09                             119     0.6 6  235 235 
 CHI  HZ EP   1   1941 31.71                             118     0.4 6  246 196 
 CHI  HN ES   1   1942  0.42                             118    -0.2 6  246 196 
 CHI  HZ I        1942  7.06         9.4 0.40                           246 196 
 HEL  HZ EP   1   1941 34.88                             115     0.6 6  273 257 
 HEL  HN ES   1   1942  5.88                             115     0.1 6  273 257 
 RREF HZ EP   1   1941 39.94                             111    -0.1 5  321 230 
 RREF HN ES   1   1942 16.03                             111     0.1 5  321 230 
 RREF HZ I        1942 26.20        12.6 0.24                           321 230 
 PRA  HZ EP   1   1941 46.74                             107    -0.5 4  390 210 
 PRA  HN ES   1   1942 29.07                             107     0.2 4  390 210 
 PRA  HZ I        1942 33.57        28.8 0.15                           390 210 
                                                                                
