 2011  317 1224 47.3 L   6.774 -72.856131.6  RSN  4 0.5 1.4LRSN                1
 GAP=192        1.21       8.0    34.6 18.6 -0.1373E+03 -0.4561E+03  0.4088E+02E
 Epicentro: SAN ANDRES - SANTANDER                                             3
 ACTION:UP  11-06-16 14:34 OP:jfem STATUS:               ID:20110317122447 L   I
 2011-03-17-1221-26S.COL___138                                                 6
 STAT SP IPHASW D HRMM SECON CODA AMPLIT PERI AZIMU VELO SNR AR TRES W  DIS CAZ7
 BAR2 SZ EP   1   1225  5.13                             162    -0.6 7   41 241 
 BAR2 SZ ES   1   1225 19.21                             162    -1.0 7   41 241 
 BAR2 SZ I        1225 21.25         7.5 0.20                            41 241 
 BTL  SZ EP   1   1225  6.42                             159     0.4 7   48 289 
 BTL  SZ ES   1   1225 21.29                             159     0.6 7   48 289 
 RUS  HZ EP   1   1225  9.74                             141     0.1 7  101 194 
 RUS  HN ES   1   1225 27.68                             141     0.5 7  101 194 
 RUS  HZ I        1225 31.15         1.7 0.13                           101 194 
 GRA  SZ EP   1   1225 10.93                             134    -0.1 7  123   3 
 GRA  SZ ES   1   1225 29.75                             134     0.2 7  123   3 
 GRA  SZ I        1225 31.48         6.5 0.41                           123   3 
                                                                                
