 2014  717 1646 53.5 L   6.823 -73.185143.5  RSN  6 0.3 1.9LRSN                1
 GAP=131        0.73       3.1     3.6  5.3  0.3964E+00  0.3197E+01 -0.1433E+01E
 Epicentro: ZAPATOCA - SANTANDER                                               3
 ACTION:UPD 15-03-16 20:44 OP:nd   STATUS:               ID:20140717164653 L   I
 OLDACT:REG 14-07-17 21:09 OP:stll STATUS:               ID:20140717163818     3
 2014-07-17-1638-18M.COL___272                                                 6
 STAT SP IPHASW D HRMM SECON CODA AMPLIT PERI AZIMU VELO AIN AR TRES W  DIS CAZ7
 BAR2 SZ EP       1647 12.77                             169   -0.1710 25.5 179 
 BAR2 SZ ES       1647 27.79                             169   -0.2810 25.5 179 
 BAR2 SZ I        1647 28.62        26.2 0.26            171           25.5 179 
 BRR  HZ EP       1647 14.52                             154    0.3610 66.2 298 
 BRR  HN ES       1647 30.78                             154    0.5410 66.2 298 
 BRR  HZ I        1647 31.95        11.7 0.10            149           66.2 298 
 PAM  SZ EP       1647 15.72                             150    0.1510 78.3  43 
 PAM  SZ I        1647 15.90        32.7 0.16            150           78.3  43 
 PAM  SN ES       1647 32.61                             150   -0.1410 78.3  43 
 RUS  HZ EP       1647 17.46                             142    0.1810  104 174 
 RUS  HZ I        1647 18.28         3.9 0.34            144            104 174 
 RUS  HN ES       1647 35.76                             142   -0.0410  104 174 
 PTB  HZ EP       1647 19.82                             132   -0.16 9  144 257 
 PTB  HN ES       1647 40.35                             132   -0.25 9  144 257 
 PTB  HZ I        1647 45.88         5.7 0.26            129            144 257 
 SML  HN ES       1647 57.33                             117   -0.38 8  240 336 
 SML  HZ I        1648  6.42         7.3 0.28            115            240 336 
                                                                                
