 2013  617 1044 55.4 L   6.767 -73.180152.6  RSN  5 0.2 1.8LRSN                1
 GAP=197        0.63       3.4     4.8  5.8  0.7472E+01 -0.6881E+01 -0.7586E+01E
 Epicentro: LOS SANTOS - SANTANDER                                             3
 ACTION:UPD 14-01-08 09:55 OP:ep   STATUS:               ID:20130617104455 L   I
 OLDACT:REG 13-06-17 14:08 OP:cam  STATUS:               ID:20130617103959     3
 2013-06-17-1039-59M.COL___261                                                 6
 STAT SP IPHASW D HRMM SECON CODA AMPLIT PERI AZIMU VELO AIN AR TRES W  DIS CAZ7
 BAR2 SZ EP       1045 15.80                             172   -0.0310 19.3 181 
 BRR  HZ EP       1045 17.75                             154    0.4810 69.8 303 
 BRR  HN ES       1045 34.34                             154    0.0510 69.8 303 
 BRR  HN I        1045 39.62        23.8 0.18            154           69.8 303 
 RUS  HZ EP       1045 19.84                             146    0.1910 97.2 174 
 RUS  HN ES       1045 38.24                             146   -0.2810 97.2 174 
 RUS  HZ I        1045 38.81         4.7 0.46            153           97.2 174 
 PTB  HZ EP       1045 22.45                             134   -0.15 9  143 260 
 PTB  HN ES       1045 43.76                             134   -0.01 9  143 260 
 PTB  HZ I        1045 46.00         4.5 0.26            138            143 260 
 SML  HZ EP       1045 32.37                             119   -0.29 8  246 336 
 SML  HE ES       1046  1.53                             119   -0.16 8  246 336 
 SML  HZ I        1046  7.98         6.2 0.10            121            246 336 
                                                                                
