 2012  817 1705 53.5 L   6.708 -73.163138.4  RSN  4 0.1 1.6LRSN                1
 GAP=228        0.34       3.4     3.4  4.5  0.6545E+01 -0.1876E+01 -0.5626E+00E
 Epicentro: VILLANUEVA - SANTANDER                                             3
 ACTION:UPD 12-09-10 11:56 OP:ep   STATUS:               ID:20120817170553 L   I
 2012-08-17-1700-00M.COL___217                                                 6
 STAT SP IPHASW D HRMM SECON CODA AMPLIT PERI AZIMU VELO AIN AR TRES W  DIS CAZ7
 BAR2 SZ EP   1   17 6 12.17                             174    0.09 7 13.0 190 
 BAR2 SZ I        17 6 28.73        12.0 0.32                          13.0 190 
 BRR  HZ EP   1   17 6 14.14                             150    0.04 7 75.1 306 
 BRR  HZ I        17 6 17.20        10.7 0.42                          75.1 306 
 BRR  HE ES   1   17 6 30.09                             150   -0.07 7 75.1 306 
 RUS  HZ EP       17 6 15.86                             145    0.0410 90.6 174 
 RUS  HN ES   1   17 6 33.15                             145   -0.07 7 90.6 174 
 PTB  HZ EP   1   17 6 19.35                             131   -0.21 7  144 263 
 PTB  HN ES   1   17 6 40.02                             131    0.14 7  144 263 
 PTB  HZ I        17 6 43.81         3.9 0.47                           144 263 
                                                                                
