 2012  517 1720 37.2 L   6.743 -73.159140.0  RSN 11 0.4 2.6LRSN                1
 GAP=137        0.96       4.4     4.6  6.5 -0.4604E+00  0.9089E+01  0.6485E+01E
 Epicentro: VILLANUEVA - SANTANDER                                             3
 ACTION:UP  12-07-05 12:05 OP:pat  STATUS:               ID:20120517172037 L   I
 2012-05-17-1720-00M.COL___197                                                 6
 STAT SP IPHASW D HRMM SECON CODA AMPLIT PERI AZIMU VELO SNR AR TRES W  DIS CAZ7
 BAR2 SZ IP       1720 56.12                             173     0.110   17 189 
 BAR2 SZ ES   1   1721 10.68                             173     0.0 7   17 189 
 BAR2 SZ I        1721 12.96       111.9 0.38                            17 189 
 BRR  HZ IP     C 1720 58.02                             151     0.210   73 303 
 BRR  HZ I        1720 58.28       224.0 0.10                            73 303 
 BRR  HN ES   1   1721 14.91                             151     0.9 7   73 303 
 PAM  SZ IP       1720 59.09                             148    -0.110   83  38 
 PAM  SN ES   1   1721 15.82                             148    -0.5 7   83  38 
 RUS  HZ EP       1721  0.04                             145     0.110   94 175 
 RUS  HN ES   1   1721 18.12                             145     0.4 7   94 175 
 RUS  HZ I        1721 19.38        40.1 0.20                            94 175 
 PTB  HZ EP       1721  2.65                             131    -0.8 9  145 261 
 PTB  HN ES   1   1721 23.58                             131    -0.4 7  145 261 
 PTB  HZ I        1721 25.48        35.8 0.40                           145 261 
 ZAR  HZ EP       1721  9.74                             121     0.3 9  205 294 
 ZAR  HN ES   1   1721 34.67                             121     0.1 6  205 294 
 ZAR  HZ I        1721 40.79        64.4 0.28                           205 294 
 NOR  SZ EP       1721 11.93                             118    -0.2 8  230 236 
 NOR  SN ES   1   1721 39.01                             118    -0.3 6  230 236 
 CHI  HZ EP   1   1721 14.07                             117     0.2 6  242 195 
 CHI  HN ES   2   1721 41.95                             117    -0.6 4  242 195 
 CHI  HZ I        1721 50.26         9.9 0.30                           242 195 
 HEL  HZ EP   2   1721 17.20                             114     0.4 4  269 257 
 HEL  HE ES   2   1721 47.77                             114     0.1 4  269 257 
 HEL  HZ I        1721 54.64        21.0 0.48                           269 257 
 RREF HZ EP   2   1721 22.53                             110     0.0 3  317 230 
 RREF HZ I        1722  5.12        23.6 0.22                           317 230 
 PRA  HZ EP       1721 30.27                             106     0.4 6  386 210 
 PRA  HE ES   2   1722 11.61                             106     0.8 3  386 210 
                                                                                
