 2013 1117 1700 36.3 L   6.799 -73.172138.5  RSN  4 0.1 1.6LRSN                1
 GAP=183        0.37       2.8     4.3  3.2 -0.8999E+01  0.4679E+01 -0.1531E+01E
 Epicentro: LOS SANTOS - SANTANDER                                             3
 ACTION:UPD 14-01-09 16:29 OP:ep   STATUS:               ID:20131117170036 L   I
 OLDACT:REG 13-11-17 15:45 OP:nd   STATUS:               ID:20131117170000     3
 2013-11-17-1700-00M.COL___279                                                 6
 STAT SP IPHASW D HRMM SECON CODA AMPLIT PERI AZIMU VELO AIN AR TRES W  DIS CAZ7
 BAR2 SZ EP       17 0 54.85                             170   -0.2110 22.9 183 
 BAR2 SZ ES       17 1  9.78                             170    0.1010 22.9 183 
 BAR2 SZ I        17 1 11.64        10.2 0.20            169           22.9 183 
 PAM  SZ EP       17 0 58.04                             149    0.1710 79.3  41 
 PAM  SN ES       17 1 14.61                             149   -0.0810 79.3  41 
 PAM  SZ I        17 1 17.28         8.0 0.42            153           79.3  41 
 RUS  HZ EP       17 0 59.38                             142    0.0210  101 174 
 RUS  HN ES       17 1 17.34                             142   -0.0110  101 174 
 RUS  HZ I        17 1 18.99         5.4 0.30            146            101 174 
 SPBC HZ EP       17 1  4.10                             128    0.02 9  161 218 
 SPBC HN ES       17 1 25.74                             128   -0.00 9  161 218 
 SPBC HZ I        17 1 32.12         6.6 0.44            129            161 218 
                                                                                
