 2013  117 1456  2.0 L   6.797 -73.199141.9  RSN  4 0.2 1.5LRSN                1
 GAP=144        0.43       3.4     3.2  4.7 -0.4011E+01  0.3487E+01 -0.2636E+01E
 Epicentro: ZAPATOCA - SANTANDER                                               3
 ACTION:UPD 13-02-15 09:14 OP:ep   STATUS:               ID:20130117145602 L   I
 2013-01-17-1450-00M.COL___241                                                 6
 STAT SP IPHASW D HRMM SECON CODA AMPLIT PERI AZIMU VELO AIN AR TRES W  DIS CAZ7
 BAR2 SZ EP       1456 21.34                             171    0.1510 22.7 175 
 BAR2 SZ ES   1   1456 36.22                             171    0.09 7 22.7 175 
 BAR2 SZ I        1456 38.66        22.6 0.28            173           22.7 175 
 PAM  SZ IP       1456 24.27                             149    0.1710 81.5  43 
 PAM  SN ES   1   1456 41.05                             149   -0.26 7 81.5  43 
 PAM  SZ I        1456 43.33         3.3 0.48            152           81.5  43 
 RUS  HZ EP   1   1456 25.26                             143   -0.17 7  101 173 
 RUS  HN ES   1   1456 43.61                             143   -0.06 7  101 173 
 RUS  HZ I        1456 44.58         4.4 0.56            148            101 173 
 PTB  HZ EP   1   1456 27.90                             132   -0.26 7  142 259 
 PTB  HN ES   1   1456 48.59                             132    0.06 7  142 259 
 PTB  HZ I        1456 51.82         3.9 0.18            134            142 259 
                                                                                
