 2011  217 1053  0.9 L   6.057 -73.747 94.3  RSN  4 0.4 1.5LRSN                1
 GAP=143        0.82       8.7     7.5 15.2 -0.3646E+02  0.5575E+02 -0.3482E+02E
 Epicentro: BOLIVAR - SANTANDER                                                3
 ACTION:UP  11-03-28 15:09 OP:jfem STATUS:               ID:20110217105300 L   I
 2011-02-17-1048-00S.COL___132                                                 6
 STAT SP IPHASW D HRMM SECON CODA AMPLIT PERI AZIMU VELO SNR AR TRES W  DIS CAZ7
 RUS  HZ EP   1   1053 18.23                             138     0.4 7   76 104 
 RUS  HN ES   2   1053 30.85                             138    -0.2 5   76 104 
 RUS  HZ I        1053 32.81         4.0 0.36                            76 104 
 BAR2 SZ EP       1053 17.98                             134    -0.410   86  46 
 BAR2 SZ ES   1   1053 31.86                             134    -0.1 7   86  46 
 BAR2 SZ I        1053 33.68        17.4 0.23                            86  46 
 BTL  SZ EP       1053 20.82                             127     0.310  109  29 
 NOR  SZ EP   2   1053 22.24                             120    -0.8 5  136 247 
 NOR  SN ES   2   1053 40.67                             120     0.4 5  136 247 
                                                                                
