 2015  217 1738 57.8 L   6.787 -73.139155.0  RSN  5 0.4 1.5LRSN                1
 GAP=138        0.90       5.6     5.4  7.7  0.1122E+00  0.1132E+02  0.6184E+01E
 Epicentro: LOS SANTOS - SANTANDER                                             3
 ACTION:UPD 15-04-30 21:27 OP:nd   STATUS:               ID:20150217173857 L   I
 OLDACT:UP  15-02-17 21:55 OP:fm   STATUS:               ID:20150217173747     3
 OLDACT:REG 15-02-17 19:50 OP:fm   STATUS:               ID:20150217173747     3
 2015-02-17-1737-47M.COL___292                                                 6
 STAT SP IPHASW D HRMM SECON CODA AMPLIT PERI AZIMU VELO AIN AR TRES W  DIS CAZ7
 BAR2 EZ EP       1739 19.32                             172    0.8110 22.1 192 
 BAR2 EZ ES       1739 34.91                             172    0.2410 22.1 192 
 BAR2 EZ I        1739 36.24        11.1 0.14            172           22.1 192 
 BRR  HZ EP   1   1739 19.71                             154   -0.31 7 72.5 299 
 BRR  HN ES       1739 37.39                             154    0.0410 72.5 299 
 PAM  SZ EP   4   1739 23.02                             152    1.98 0 78.1  38 
 PAM  SE ES       1739 38.87                             152   -0.3010 78.1  38 
 PAM  SZ I        1739 42.77         3.5 0.46            153           78.1  38 
 RUS  HZ EP   1   1739 22.23                             146   -0.13 7 99.1 176 
 RUS  HN ES       1739 41.21                             146   -0.3210 99.1 176 
 RUS  HZ I        1739 43.55         3.6 0.28            148           99.1 176 
 PTB  HZ EP       1739 25.33                             134   -0.24 9  148 259 
 PTB  HN ES       1739 47.21                             134   -0.02 9  148 259 
 PTB  HZ I        1739 50.90         4.9 0.48            135            148 259 
                                                                                
