 2011  517 1848 41.1 L   6.524 -73.485108.1  RSN  6 0.3 2.0LRSN                1
 GAP=191        0.80       4.5     7.6  7.7  0.1040E+02  0.1288E+02  0.5478E+01E
 Epicentro: SIMACOTA - SANTANDER                                               3
 ACTION:UP  11-06-29 08:54 OP:tino STATUS:               ID:20110517184841 L   I
 2011-05-17-1843-18S.COL___141                                                 6
 STAT SP IPHASW D HRMM SECON CODA AMPLIT PERI AZIMU VELO SNR AR TRES W  DIS CAZ7
 BAR2 SZ IP       1848 56.97                             161     0.310   34  77 
 BAR2 SZ ES   1   1849  8.98                             161     0.3 7   34  77 
 BAR2 SZ I        1849 10.71       106.3 0.32                            34  77 
 BTL  SZ IP       1848 57.73                             153     0.410   50  29 
 BTL  SZ ES   1   1849 10.14                             153     0.1 7   50  29 
 GIR2 SZ EP       1848 58.38                             145    -0.110   69  28 
 BRR  HZ EP       1848 57.86                             145    -0.410   69 339 
 BRR  HZ I        1848 58.02        18.8 0.11                            69 339 
 BRR  HN ES   1   1849 11.44                             145    -0.1 7   69 339 
 RUS  HZ EP       1849  0.05                             140     0.110   83 147 
 RUS  HN ES   1   1849 14.00                             140    -0.6 7   83 147 
 RUS  HZ I        1849 15.95         8.4 0.23                            83 147 
 PAM  SZ EP   3   1849  3.30                             127    -0.4 2  125  44 
 PAM  SN ES   1   1849 20.93                             127    -0.3 7  125  44 
                                                                                
