 2017  517 1247 45.9 L   6.523 -73.482 99.1  RSN  4 0.1 1.4LRSN                1
 GAP=227        0.46       4.4     2.6  4.9 -0.3914E+01 -0.3522E+01  0.6647E+01E
 Epicentro: SIMACOTA - SANTANDER                                               3
 ACTION:UPD 17-06-16 13:36 OP:jn   STATUS:               ID:20170517124745 L   I
 OLDACT:REG 17-05-17 19:37 OP:lv   STATUS:               ID:20170517123741     3
 2017-05-17-1238-00M.COL___344                                                 6
 STAT SP IPHASW D HRMM SECON CODA AMPLIT PERI AZIMU VELO AIN AR TRES W  DIS CAZ7
 BRR  HZ EP       1248  1.82                             142   -0.3310 69.4 339 
 BRR  HN ES       1248 14.90                             142    0.0910 69.4 339 
 BRR  HZ I        1248 15.22        14.1 0.13            148           69.4 339 
 PTB  HZ EP       1248  5.61                             129    0.1210  108 271 
 PTB  HN ES       1248 20.73                             129   -0.0210  108 271 
 PTB  HZ I        1248 26.03         2.8 0.25            129            108 271 
 PAM  EZ EP       1248  7.94                             125    0.1210  125  44 
 PAM  EZ I        1248 24.31         1.9 0.17            118            125  44 
 ZAR  HZ EP       1248 13.81                             114    0.02 9  186 305 
 ZAR  HN ES       1248 35.54                             114    0.03 9  186 305 
 ZAR  HZ I        1248 37.29         6.6 0.11            112            186 305 
                                                                                
