 2013 1217 1947 52.5 L   6.838 -73.164142.0  RSN  7 0.4 1.5LRSN                1
 GAP=132        0.93       5.3     4.9  7.4 -0.6013E+01  0.7994E+01  0.4885E+01E
 Epicentro: LOS SANTOS - SANTANDER                                             3
 ACTION:UPD 14-01-13 10:18 OP:ep   STATUS:               ID:20131217194752 L   I
 OLDACT:DUP 13-12-17 16:59 OP:jn   STATUS:               ID:20131217194002d    3
 OLDACT:REG 13-12-17 16:55 OP:jn   STATUS:               ID:20131217194001d    3
 2013-12-17-1940-00M.COL___285                                                 6
 STAT SP IPHASW D HRMM SECON CODA AMPLIT PERI AZIMU VELO AIN AR TRES W  DIS CAZ7
 BAR2 SZ ES   1   1948 27.30                             169    0.49 7 27.3 184 
 BRR  HE ES   1   1948 29.66                             153    0.60 7 67.5 296 
 PAM  SZ EP       1948 14.41                             151    0.1910 75.5  43 
 PAM  SN ES       1948 30.87                             151   -0.2810 75.5  43 
 RUS  HZ EP       1948 16.15                             142   -0.0810  105 175 
 RUS  HN ES       1948 34.62                             142   -0.1010  105 175 
 RUS  HZ I        1948 36.36         4.4 0.32            142            105 175 
 PTB  HZ EP       1948 18.55                             131   -0.53 9  147 257 
 PTB  HN ES       1948 39.51                             131   -0.29 9  147 257 
 PTB  HZ I        1948 42.54         5.4 0.32            132            147 257 
 NOR  HE ES   2   1948 56.17                             118    0.27 4  236 233 
 GUY2CHZ EP   1   1948 37.21                             112    1.16 5  302 234 
                                                                                
