 2016  617 1057 25.8 L   6.769 -73.169144.3  RSN  6 0.2 1.4LRSN                1
 GAP=135        0.47       2.8     2.4  5.1 -0.2443E+01  0.4172E+01 -0.3052E+01E
 Epicentro: LOS SANTOS - SANTANDER                                             3
 ACTION:UPD 16-07-21 22:19 OP:rebc STATUS:               ID:20160617105725 L   I
 OLDACT:UP  16-06-17 20:37 OP:dani STATUS:               ID:20160617104743d    3
 OLDACT:UP  16-06-17 20:37 OP:dani STATUS:               ID:20160617104743d    3
 OLDACT:DUP 16-06-17 20:32 OP:dani STATUS:               ID:20160617104743d    3
 OLDACT:UP  16-06-17 20:31 OP:dani STATUS:               ID:20160617104742     3
 OLDACT:UP  16-06-17 20:30 OP:dani STATUS:               ID:20160617104742     3
 OLDACT:REG 16-06-17 19:00 OP:dani STATUS:               ID:20160617104742     3
 2016-06-17-1047-42M.COL___337                                                 6
 STAT SP IPHASW D HRMM SECON CODA AMPLIT PERI AZIMU VELO AIN AR TRES W  DIS CAZ7
 BAR2 EZ EP       1057 45.16                             172   -0.0710 19.6 184 
 BAR2 EZ ES       1058  0.21                             172   -0.1510 19.6 184 
 BAR2 EZ I        1058  2.83         5.1 0.28                          19.6 184 
 PAM  EZ EP       1057 48.04                             149   -0.1310 81.7  39 
 PAM  EE ES       1058  5.75                             149    0.1610 81.7  39 
 PAM  EZ I        1058  7.15         4.7 0.54                          81.7  39 
 RUS  HE ES   2   1058  7.74                             144    0.28 5 97.4 174 
 PTB  HE ES       1058 12.92                             132   -0.20 9  145 260 
 PTB  HZ I        1058 14.66         2.4 0.36                           145 260 
 SPBC HE ES       1058 15.81                             130    0.16 9  159 219 
 SPBC HZ I        1058 18.63         5.1 0.72                           159 219 
 ZAR  HZ EP   4   1057 55.55                             122   -2.54 0  203 293 
 ZAR  HN ES       1058 23.46                             122    0.23 9  203 293 
 ZAR  HZ I        1058 26.51         3.2 0.26                           203 293 
                                                                                
