 2013  817 1109  5.3 L   6.776 -73.158146.4  RSN  7 0.4 1.7LRSN                1
 GAP=136        0.95       4.6     4.1  6.9 -0.5015E-01  0.6331E+01  0.1381E+01E
 Epicentro: LOS SANTOS - SANTANDER                                             3
 ACTION:UPD 14-01-14 09:04 OP:ep   STATUS:               ID:20130817110905 L   I
 OLDACT:REG 13-08-17 17:33 OP:jn   STATUS:               ID:20130817110752     3
 2013-08-17-1107-52M.COL___201                                                 6
 STAT SP IPHASW D HRMM SECON CODA AMPLIT PERI AZIMU VELO AIN AR TRES W  DIS CAZ7
 BAR2 SZ EP       11 9 24.91                             172   -0.0310 20.5 187 
 BAR2 SZ ES       11 9 40.02                             172   -0.2510 20.5 187 
 BAR2 SZ I        11 9 41.17        11.2 0.14            171           20.5 187 
 BRR  HZ EP       11 9 27.00                             153    0.4910 71.3 301 
 BRR  HN ES       11 9 43.75                             153    0.6910 71.3 301 
 BRR  HZ I        11 9 45.28        13.4 0.26            150           71.3 301 
 PAM  SZ EP       11 9 27.89                             150    0.1410 80.3  39 
 PAM  SN ES       11 9 44.74                             150   -0.5210 80.3  39 
 PAM  SZ I        11 9 47.46         7.7 0.60            153           80.3  39 
 RUS  HZ EP       11 9 28.96                             145    0.0410 98.0 175 
 RUS  HE ES       11 9 47.60                             145    0.2510 98.0 175 
 RUS  HZ I        11 9 49.98         6.1 0.48            146           98.0 175 
 PTB  HZ EP       11 9 31.74                             132   -0.40 9  146 260 
 PTB  HN ES       11 9 52.61                             132   -0.47 9  146 260 
 PTB  HZ I        11 9 55.98         7.7 0.16            131            146 260 
 ZAR  HE ES       1110  2.97                             122   -0.09 9  204 293 
 ZAR  HZ I        1110 11.40         5.0 0.44            122            204 293 
 NOR  HN ES   1   1110  8.45                             119    0.01 6  232 235 
 NOR  HZ I        1110 14.16         5.6 0.46            119            232 235 
                                                                                
