 2013  217 1727 32.9 L   6.837 -73.151143.8  RSN 20 0.6 3.9LRSN 3.8WRSN        1
 SPEC AVERAGE  MO 14.8 ST 74.5 OM  3.4 f0 3.68 R0.4732 AL 2.90 WI 22.8 MW  3.8 3
 SPEC SD       MO  0.2 ST 75.2 OM  0.4 f0 1.31 R0.2116 AL      WI      MW  0.1 3
 GAP= 70        1.04       3.4     3.5  5.7  0.1195E+01  0.3795E+01  0.1079E+01E
 Epicentro: LOS SANTOS - SANTANDER                                             3
 SPEC PTB HH N MO 14.6 ST 70.9 OM  2.9 f0 5.01 R0.2934 AL 1.98 WI 24.6 MW  3.7 3
 SPEC PTB HH N T172817 K 0.000 GD  206 VS 4.20 DE 3.20 Q0300.0 QA 0.60 VS 4.20 3
 SPEC RUS HH N MO 14.5 ST 23.8 OM  2.9 f0 3.66 R0.4016 AL 3.78 WI 19.0 MW  3.6 3
 SPEC RUS HH N T172812 K 0.000 GD  178 VS 4.20 DE 3.20 Q0300.0 QA 0.60 VS 4.20 3
 SPEC PAL HH N MO 15.0 ST156.1 OM  3.0 f0 4.72 R0.3114 AL 3.32 WI 24.5 MW  4.0 3
 SPEC PAL HH N T1729 7 K 0.000 GD  431 VS 4.20 DE 3.20 Q0300.0 QA 0.60 VS 4.20 3
 SPEC HEL HH N MO 14.7 ST 36.6 OM  2.8 f0 3.80 R0.3868 AL 3.08 WI 31.4 MW  3.7 3
 SPEC HEL HH N T172841 K 0.000 GD  307 VS 4.20 DE 3.20 Q0300.0 QA 0.60 VS 4.20 3
 SPEC OCA HH N MO 15.0 ST226.7 OM  3.3 f0 5.38 R0.2732 AL 3.71 WI 21.0 MW  4.0 3
 SPEC OCA HH N T172821 K 0.000 GD  212 VS 4.20 DE 3.20 Q0300.0 QA 0.60 VS 4.20 3
 SPEC PAM SH N MO 14.9 ST  8.4 OM  3.3 f0 1.96 R0.7500 AL 2.65 WI 21.4 MW  3.9 3
 SPEC PAM SH N T172810 K 0.000 GD  162 VS 4.20 DE 3.20 Q0300.0 QA 0.60 VS 4.20 3
 SPEC CHI HH N MO 14.8 ST  9.3 OM  2.9 f0 2.27 R0.6476 AL 2.25 WI 24.1 MW  3.8 3
 SPEC CHI HH N T172837 K 0.000 GD  290 VS 4.20 DE 3.20 Q0300.0 QA 0.60 VS 4.20 3
 SPEC CTABSH Z MO 14.8 ST  4.5 OM  3.0 f0 1.68 R0.8750 AL 2.35 WI 16.0 MW  3.8 3
 SPEC CTABSH Z T172837 K 0.000 GD  273 VS 4.20 DE 3.20 Q0300.0 QA 0.60 VS 4.20 3
 SPEC BRR HH N MO 15.0 ST134.0 OM  3.4 f0 4.60 R0.3196 AL 2.95 WI 23.4 MW  3.9 3
 SPEC BRR HH N T1728 9 K 0.000 GD  159 VS 4.20 DE 3.20 Q0300.0 QA 0.60 VS 4.20 3
 ACTION:UPD 13-03-12 09:33 OP:ep   STATUS:               ID:20130217172732 L   I
 2013-02-17-1720-00M.COL___241                                                 6
 STAT SP IPHASW D HRMM SECON CODA AMPLIT PERI AZIMU VELO AIN AR TRES W  DIS CAZ7
 BAR2 SZ EP       1727 52.39                             169    0.0110 27.3 187 
 BAR2 SZ ES   1   1728  7.22                             169   -0.35 7 27.3 187 
 BAR2 SZ I        1728  8.26      1591.1 0.24            158           27.3 187 
 BRR  HZ IP     C 1727 54.27                             153    0.5810 68.8 296 
 BRR  HN ES   1   1728 11.09                             153    1.17 7 68.8 296 
 BRR  HN I        1728 11.45      3183.6 0.26            148           68.8 296 
 PAM  SZ EP   1   1727 55.24                             151    0.50 7 74.7  42 
 PAM  SN ES   1   1728 12.05                             151    0.27 7 74.7  42 
 PAM  SN I        1728 13.23      1587.7 0.46            152           74.7  42 
 RUS  HZ EP       1727 56.38                             142   -0.3810  105 176 
 RUS  HN ES   1   1728 14.63                             142   -0.74 7  105 176 
 PTB  HZ EP   1   1727 58.88                             131   -0.84 7  148 257 
 PTB  HN ES   1   1728 20.03                             131   -0.62 7  148 257 
 PTB  HN I        1728 21.51      1004.7 0.32            123            148 257 
 OCA  HZ EP   1   1728  0.54                             130   -0.12 7  156 353 
 OCA  HN ES   2   1728 22.21                             130   -0.11 5  156 353 
 OCA  HN I        1728 25.63      1767.1 0.24            126            156 353 
 TAM  HZ IP     D 1728  0.77                             130    0.19 9  157 106 
 TAM  HN ES   1   1728 21.93                             130   -0.24 7  157 106 
 ZAR  HZ EP   1   1728  5.10                             122    0.10 6  202 291 
 ZAR  HN ES   2   1728 30.84                             122    0.81 4  202 291 
 ZAR  HN I        1728 37.88       832.5 0.16            116            202 291 
 CTAB SZ EP   1   1728  9.85                             118    0.98 6  233 210 
 SML  HZ EP   1   1728  8.69                             117   -0.29 6  240 335 
 SML  HN ES       1728 36.99                             117   -0.14 8  240 335 
 SML  HN I        1728 45.47      1082.9 0.10            113            240 335 
 CHI  HZ EP   1   1728 10.61                             116   -0.29 6  252 195 
 CHI  HN ES   2   1728 39.69                             116   -0.85 4  252 195 
 ROSC BZ EP       1728 12.16                             116    0.90 8  256 210 
 ROSC BZ I        1728 48.04       255.6 0.40            108            256 210 
 HEL  HZ EP   1   1728 13.65                             114    0.60 6  272 255 
 HEL  HE ES   2   1728 44.16                             114   -0.22 4  272 255 
 HEL  HE I        1728 52.55       237.4 0.28            108            272 255 
 URE  HZ EP   1   1728 13.32                             113   -0.32 6  282 291 
 URE  HN ES       1728 44.50                             113   -0.91 7  282 291 
 VIL  SZ EP   1   1728 16.57                             111   -0.09 5  307 191 
 VIL  SN I        1728 55.74       289.1 0.66            105            307 191 
 DBB  SZ EP   1   1728 20.37                             109    0.18 5  339 274 
 COD  HZ EP   1   1728 20.08                             109   -0.64 5  344 355 
 SDV  BZ EP       1728 21.90                             108   -0.72 6  358  51 
 ANIL HZ EP   1   1728 23.93                             108    1.02 5  360 224 
 ANIL HN ES   2   1729  2.24                             108    0.32 3  360 224 
 ANIL HZ I        1729 11.64       137.8 0.36            102            360 224 
 PAL  HZ EP   1   1728 28.36                             105    0.19 4  407 239 
 PAL  HN ES   2   1729 10.39                             105   -0.90 3  407 239 
 PAL  HN I        1729 17.98       498.4 0.20            100            407 239 
                                                                                
