 2010  717 1428 44.7 L   6.756 -73.097144.0  RSN  5 0.3 1.4LRSN                1
 GAP=165        0.85       6.3    13.3 12.4  0.4947E+02 -0.1144E+03 -0.4772E+02E
 Epicentro: LOS SANTOS - SANTANDER                                             3
 ACTION:UPD 10-12-01 15:18 OP:pat  STATUS:               ID:20100717142844 L   I
 2010-07-17-1423-03S.COL___119                                                 6
 STAT SP IPHASW D HRMM SECON CODA AMPLIT PERI AZIMU VELO AIN AR TRES W  DIS CAZ7
 BAR2 SZ ES   3   1429 18.18                             173    -1.0 2   21 208 
 BAR2 SZ I        1429 19.70        11.9 0.66                            21 208 
 BRR  HZ EP       1429  5.62                             151    -0.410   78 300 
 BRR  HN ES       1429 23.00                             151     0.310   78 300 
 RUS  HZ EP       1429  7.92                             146     0.010   95 179 
 RUS  HN ES       1429 26.09                             146     0.110   95 179 
 RUS  HZ I        1429 27.21         4.3 0.19                            95 179 
 GUE  SZ EP       1429  9.87                             139     0.310  120   9 
 GUE  SZ I        1429 10.83         2.3 0.05                           120   9 
 GRA  SZ EP   1   1429  9.69                             136    -0.3 7  129  15 
                                                                                
