 2013  417 1206 18.8 L   6.830 -73.182145.9  RSN  9 0.3 1.9LRSN                1
 GAP=131        0.69       3.2     3.2  4.1 -0.1557E+01  0.6594E+00 -0.4894E+00E
 Epicentro: ZAPATOCA - SANTANDER                                               3
 ACTION:UPD 13-05-22 14:39 OP:EP   STATUS:               ID:20130417120618 L   I
 2013-04-17-1158-48M.COL___215                                                 6
 STAT SP IPHASW D HRMM SECON CODA AMPLIT PERI AZIMU VELO AIN AR TRES W  DIS CAZ7
 BAR2 SZ EP       12 6 38.59                             169    0.0410 26.3 180 
 BAR2 SZ ES       12 6 53.88                             169   -0.0410 26.3 180 
 BAR2 SZ I        12 6 55.03        18.3 0.28            156           26.3 180 
 GIR2 SZ EP   1   12 6 38.12                             169   -0.31 7 27.5 357 
 BRR  HZ EP       12 6 40.37                             154    0.6510 66.1 298 
 BRR  HN ES       12 6 55.91                             154   -0.1010 66.1 298 
 BRR  HN I        12 6 58.14        18.5 0.34            155           66.1 298 
 PAM  SZ EP       12 6 41.45                             151    0.3710 77.6  43 
 PAM  SZ I        12 6 41.68        15.9 0.42            153           77.6  43 
 PAM  SN ES       12 6 58.49                             151    0.0610 77.6  43 
 RUS  HZ EP       12 6 42.62                             143   -0.2510  104 174 
 RUS  HN I        12 7  3.16         7.6 0.24            132            104 174 
 PTB  HZ EP       12 6 45.56                             133    0.04 9  144 257 
 PTB  HN ES       12 7  6.18                             133   -0.16 9  144 257 
 PTB  HN I        12 7 12.17        12.1 0.22            127            144 257 
 CAPV BZ EP       12 6 45.88                             132   -0.36 9  149  40 
 SML  HZ EP       12 6 54.76                             118   -0.21 8  239 336 
 SML  HN ES       12 7 23.07                             118   -0.08 8  239 336 
 PRA  HZ EP       12 7 12.61                             106    0.14 6  393 209 
                                                                                
