 2012  917 1222 44.7 L   7.375 -73.975 25.0  RSN  6 0.3 2.1LRSN                1
 GAP=174        0.58       3.4     1.7  2.3  0.3261E+01  0.3099E-01 -0.1744E+01E
 Epicentro: PUERTO WILCHES - SANTANDER                                         3
 ACTION:UPD 12-10-22 14:19 OP:ep   STATUS:               ID:20120917122244 L   I
 2012-09-17-1220-00M.COL___224                                                 6
 STAT SP IPHASW D HRMM SECON CODA AMPLIT PERI AZIMU VELO AIN AR TRES W  DIS CAZ7
 BRR  HZ IP     C 1222 52.43                             119    0.0310 41.5 136 
 BRR  HE ES       1222 58.28                             119   -0.1410 41.5 136 
 BRR  HZ I        1223  0.24       193.1 0.12                          41.5 136 
 ZAR  HZ EP   1   1223  0.40                              71   -0.04 7 98.3 278 
 ZAR  HE ES       1223 12.63                              71   -0.1010 98.3 278 
 ZAR  HZ I        1223 15.46        25.0 0.09                          98.3 278 
 PTB  HN ES   2   1223 14.43                              56   -0.19 5  107 210 
 BAR2 SZ EP       1223  4.23                              56    0.3910  123 135 
 BAR2 SZ ES       1223 18.56                              56   -0.2110  123 135 
 BAR2 SZ I        1223 20.13        27.6 0.14                           123 135 
 PAM  SZ EP       1223  6.52                              56    0.17 9  141  92 
 PAM  SZ I        1223  7.36        33.1 0.32                           141  92 
 PAM  SE ES   1   1223 22.81                              56   -0.43 7  141  92 
 RUS  HZ EP   2   1223 13.42                              56    0.76 4  191 149 
 RUS  HN ES   2   1223 34.58                              56    0.10 4  191 149 
                                                                                
