 2012  517 1008 47.3 L   6.704 -73.702 96.0  RSN  5 0.4 1.3LRSN                1
 GAP=115        0.73       7.9     4.7 11.0 -0.5929E+01 -0.8649E+01  0.4161E+02E
 Epicentro: EL CARMEN DE CHUCURI - SANTANDER                                   3
 ACTION:UP  12-07-05 12:05 OP:pat  STATUS:               ID:20120517100847 L   I
 2012-05-17-1000-00M.COL___197                                                 6
 STAT SP IPHASW D HRMM SECON CODA AMPLIT PERI AZIMU VELO SNR AR TRES W  DIS CAZ7
 BRR  HZ EP       10 9  1.21                             154    -0.410   45 359 
 BRR  HZ I        10 9  1.59        12.1 0.30                            45 359 
 BRR  HN ES   1   10 9 12.92                             154     0.2 7   45 359 
 BAR2 SZ EP       10 9  2.89                             147     0.110   59 102 
 BAR2 SZ I        10 9 17.22         6.5 0.18                            59 102 
 PTB  HZ EP       10 9  4.49                             136    -0.110   85 258 
 PTB  HN ES   1   10 9 18.02                             136     0.0 7   85 258 
 PTB  HZ I        10 9 18.75         3.2 0.20                            85 258 
 RUS  HZ EP   3   10 9  8.96                             128     1.2 2  113 143 
 RUS  HZ I        10 9 26.77         6.0 0.38                           113 143 
 ZAR  HN ES   2   10 9 30.89                             118     0.5 5  155 304 
                                                                                
