 2013  417 1244 22.4 L   6.829 -73.147149.6  RSN 30 0.5 3.5LRSN 3.7WRSN        1
 SPEC AVERAGE  MO 14.6 ST 51.0 OM  3.0 f0 3.44 R0.4763 AL 2.43 WI 39.4 MW  3.7 3
 SPEC SD       MO  0.3 ST 97.2 OM  0.4 f0 1.11 R0.1692 AL      WI      MW  0.2 3
 GAP= 48        1.35       2.9     3.4  5.2 -0.2159E+01  0.2094E+01 -0.5804E+00E
 Epicentro: LOS SANTOS - SANTANDER                                             3
 SPEC VIL SH N MO 15.0 ST  6.0 OM  3.1 f0 1.60 R0.9187 AL 1.95 WI 79.0 MW  4.0 3
 SPEC VIL SH N T124538 K 0.000 GD  340 VS 4.20 DE 3.20 Q0300.0 QA 0.60 VS 4.20 3
 SPEC TAM HH N MO 14.4 ST  6.9 OM  2.7 f0 2.64 R0.5568 AL 2.06 WI 21.1 MW  3.6 3
 SPEC TAM HH N T124512 K 0.000 GD  216 VS 4.20 DE 3.20 Q0300.0 QA 0.60 VS 4.20 3
 SPEC ROSCBH Z MO 14.7 ST 13.5 OM  2.8 f0 2.76 R0.5326 AL 2.80 WI 40.9 MW  3.7 3
 SPEC ROSCBH Z T124531 K 0.000 GD  295 VS 4.20 DE 3.20 Q0300.0 QA 0.60 VS 4.20 3
 SPEC PTB HH E MO 14.4 ST 16.5 OM  2.7 f0 3.57 R0.4118 AL 1.60 WI 25.3 MW  3.6 3
 SPEC PTB HH E T124510 K 0.000 GD  210 VS 4.20 DE 3.20 Q0300.0 QA 0.60 VS 4.20 3
 SPEC PRA HH E MO 14.7 ST 28.9 OM  2.7 f0 3.41 R0.4311 AL 2.42 WI 31.0 MW  3.8 3
 SPEC PRA HH E T124558 K 0.000 GD  422 VS 4.20 DE 3.20 Q0300.0 QA 0.60 VS 4.20 3
 SPEC HEL HH N MO 14.4 ST 10.5 OM  2.5 f0 3.14 R0.4682 AL 1.93 WI 51.2 MW  3.5 3
 SPEC HEL HH N T124533 K 0.000 GD  311 VS 4.20 DE 3.20 Q0300.0 QA 0.60 VS 4.20 3
 SPEC NOR HH N MO 15.1 ST379.9 OM  3.3 f0 5.83 R0.2521 AL 4.00 WI 29.8 MW  4.0 3
 SPEC NOR HH N T124525 K 0.000 GD  279 VS 4.20 DE 3.20 Q0300.0 QA 0.60 VS 4.20 3
 SPEC OCA HH N MO 15.0 ST 54.0 OM  3.3 f0 3.31 R0.4441 AL 2.54 WI 31.5 MW  4.0 3
 SPEC OCA HH N T124512 K 0.000 GD  216 VS 4.20 DE 3.20 Q0300.0 QA 0.60 VS 4.20 3
 SPEC PAM SH Z MO 14.4 ST 22.2 OM  2.0 f0 4.02 R0.3657 AL 2.42 WI 16.4 MW  3.5 3
 SPEC PAM SH Z T124445 K 0.000 GD  167 VP 7.60 DE 3.20 Q0300.0 QA 0.60 VS 4.20 3
 SPEC DBB SH Z MO 14.4 ST  3.1 OM  2.4 f0 2.13 R0.6901 AL 1.92 WI 97.2 MW  3.5 3
 SPEC DBB SH Z T124540 K 0.000 GD  370 VS 4.20 DE 3.20 Q0300.0 QA 0.60 VS 4.20 3
 SPEC CHI HH N MO 14.7 ST 18.4 OM  2.8 f0 3.07 R0.4788 AL 2.32 WI 30.8 MW  3.7 3
 SPEC CHI HH N T124530 K 0.000 GD  293 VS 4.20 DE 3.20 Q0300.0 QA 0.60 VS 4.20 3
 SPEC BRR HH N MO 14.6 ST 80.2 OM  3.0 f0 5.21 R0.2821 AL 3.74 WI 33.5 MW  3.7 3
 SPEC BRR HH N T1245 1 K 0.000 GD  164 VS 4.20 DE 3.20 Q0300.0 QA 0.60 VS 4.20 3
 SPEC BAR2SH Z MO 14.4 ST 22.6 OM  2.8 f0 4.09 R0.3594 AL 1.91 WI 25.1 MW  3.5 3
 SPEC BAR2SH Z T124457 K 0.000 GD  151 VS 4.20 DE 3.20 Q0300.0 QA 0.60 VS 4.20 3
 ACTION:UPD 13-05-22 14:39 OP:EP   STATUS:               ID:20130417124422 L   I
 2013-04-17-1238-51M.COL___215                                                 6
 STAT SP IPHASW D HRMM SECON CODA AMPLIT PERI AZIMU VELO AIN AR TRES W  DIS CAZ7
 BAR2 SZ IP       1244 42.67                             170    0.1010 26.5 188 
 BAR2 SZ ES       1244 57.60                             170   -0.6910 26.5 188 
 BAR2 SZ I        1244 59.03       894.9 0.18            167           26.5 188 
 GIR2 SZ EP     D 1244 42.73                             169    0.2710 28.1 349 
 BRR  HZ IP     C 1244 44.53                             154    0.6410 69.6 296 
 BRR  HN ES       1245  1.32                             154    0.6810 69.6 296 
 BRR  HN I        1245  5.53       932.3 0.18            145           69.6 296 
 PAM  SZ IP     D 1244 45.48                             152    0.5810 75.0  41 
 PAM  SZ I        1244 45.80       283.3 0.22            152           75.0  41 
 PAM  SN ES       1245  2.64                             152    0.1910 75.0  41 
 RUS  HZ IP     C 1244 46.63                             144   -0.1510  104 176 
 RUS  HE ES       1245  4.94                             144   -0.8410  104 176 
 RUS  HE I        1245  6.23       533.8 0.48            142            104 176 
 CAPV BZ IP     D 1244 50.60                             133    0.69 9  147  39 
 CAPV BZ ES       1245 10.94                             133   -0.41 9  147  39 
 PTB  HZ EP     D 1244 49.19                             133   -0.55 9  148 258 
 PTB  HN ES       1245 10.45                             133   -0.61 9  148 258 
 PTB  HE I        1245 16.39       386.7 0.52            126            148 258 
 TAM  HZ IP     D 1244 50.96                             131    0.47 9  156 106 
 TAM  HZ I        1244 51.08       149.9 0.18            132            156 106 
 TAM  HN ES       1245 12.47                             131    0.08 9  156 106 
 OCA  HZ EP       1244 50.78                             131    0.05 9  157 353 
 OCA  HN ES       1245 13.00                             131    0.19 9  157 353 
 OCA  HE I        1245 16.86       666.3 0.50            126            157 353 
 YOP  SZ EP       1244 53.33                             127    0.30 9  182 154 
 ZAR  HZ EP       1244 55.99                             123    1.01 9  203 291 
 ZAR  HE I        1245 22.78       690.0 0.16            118            203 291 
 CTAU SZ EP   9   1244 59.53                             123    3.61 0  205 209 
 CTAU SZ ES       1245 24.54                                   -1.12 8  205 209 
 CTAB SZ EP   9   1245  0.09                             120    1.41 0  233 210 
 CTAB SZ ES       1245 30.45                                    2.07 8  233 210 
 NOR  HZ EP       1244 58.62                             119    0.06 8  236 234 
 NOR  HE ES       1245 26.51                             119   -0.24 8  236 234 
 NOR  HN I        1245 28.58       520.0 0.16            115            236 234 
 SML  HZ EP       1244 59.00                             118    0.06 8  241 335 
 SML  HN ES       1245 26.41                             118   -1.02 8  241 335 
 CHI  HZ IP     D 1245  0.86                             117    0.20 8  252 195 
 CHI  HN ES       1245 30.38                             117   -0.11 8  252 195 
 CHI  HE I        1245 35.01       259.3 0.34            115            252 195 
 ROSC BZ EP   4   1245  2.40                             117    1.36 0  255 211 
 ROSC BE ES       1245 31.70                             117    0.54 8  255 211 
 ROSC BZ I        1245 36.38       284.7 0.85            114            255 211 
 HEL  HZ EP       1245  3.01                             115    0.11 8  273 255 
 HEL  HN ES       1245 34.74                             115    0.27 8  273 255 
 HEL  HN I        1245 42.30       102.5 0.58            111            273 255 
 URE  HZ EP       1245  3.24                             114   -0.29 7  282 291 
 URE  HE ES   4   1245 33.52                             114   -2.07 0  282 291 
 SOCV BZ IP     D 1245  4.98                             113   -0.48 7  300  57 
 SOCV BZ ES   4   1245 35.96                             113   -3.07 0  300  57 
 VIL  SZ EP       1245  6.28                             112   -0.08 7  306 191 
 DBB  SZ IP     D 1245 10.29                             110    0.28 7  339 274 
 DBB  SZ I        1245 50.62        62.9 0.44            107            339 274 
 COD  HZ IP     D 1245 10.60                             110    0.02 7  345 355 
 COD  HN ES       1245 47.91                             110   -0.23 7  345 355 
 COD  HN I        1245 53.81        43.8 0.44            107            345 355 
 SDV  BZ IP     D 1245 12.13                             109   -0.25 6  358  51 
 PRA  HZ EP       1245 15.77                             107   -0.62 6  395 209 
 PRA  HE ES       1245 58.14                             107   -0.35 6  395 209 
 PRA  HE I        1246  3.41       139.3 0.38            104            395 209 
 ELOV BZ IP     D 1245 16.80                             106   -0.77 6  405  87 
 SJC  HZ EP       1245 16.56                             106   -1.22 6  406 327 
 SMAR HZ EP       1245 27.49                             103   -0.52 4  494 346 
 MARA HZ EP       1245 33.76                             102   -0.07 4  540 215 
 MARA HZ I        1245 35.52        17.6 0.34            100            540 215 
 PCON HZ EP       1245 43.82                             100    0.65 3  615 216 
 PCON HZ I        1245 44.53         6.7 0.24             98            615 216 
                                                                                
