 2010  717 1012 43.4 L   6.786 -73.025138.5  RSN 10 0.5 2.2LRSN                1
 GAP=170        1.38       4.8     9.1  7.6 -0.1604E+02  0.7599E+00  0.6648E-01E
 Epicentro: CEPITA - SANTANDER                                                 3
 ACTION:UPD 10-12-01 15:18 OP:pat  STATUS:               ID:20100717101243 L   I
 2010-07-17-1009-06S.COL___120                                                 6
 STAT SP IPHASW D HRMM SECON CODA AMPLIT PERI AZIMU VELO AIN AR TRES W  DIS CAZ7
 BAR2 SZ EP       1013  2.15                             168    -0.110   28 219 
 BAR2 SZ ES       1013 16.91                             168    -0.110   28 219 
 BAR2 SZ I        1013 18.35        68.3 0.90                            28 219 
 GIR2 SZ EP       1013  2.30                             164    -0.110   37 330 
 GIR2 SZ ES   1   1013 17.55                             164     0.3 7   37 330 
 BRR  HZ EP       1013  4.12                             147    -0.510   84 295 
 BRR  HN ES       1013 21.22                             147     0.110   84 295 
 BRR  HZ I        1013 25.51        44.0 1.82                            84 295 
 RUS  HZ EP       1013  6.07                             143    -0.310   99 184 
 RUS  HN ES       1013 23.98                             143    -0.310   99 184 
 RUS  HZ I        1013 25.46        22.3 0.06                            99 184 
 BRI  SZ EP       1013  6.93                             140     0.510  106  14 
 BRI  SZ I        1013 28.48         5.9 0.50                           106  14 
 GUE  SZ EP       1013  8.18                             138     0.710  116   5 
 GUE  SZ I        1013  8.98        10.6 0.31                           116   5 
 GRA  SZ EP       1013  8.17                             136     0.310  124  11 
 GRA  SZ I        1013  9.45        29.9 0.06                           124  11 
 GRA  SZ ES   1   1013 27.67                             136     0.7 7  124  11 
 OCA  SZ EP       1013 10.84                             127    -0.7 9  164 349 
 OCA  SZ ES   1   1013 32.57                             127    -0.9 7  164 349 
 OCA  SZ I        1013 38.21        26.8 0.07                           164 349 
 RREF HZ EP       1013 30.66                             109     0.3 7  331 231 
 RREF HN ES       1014  7.61                             109     0.7 7  331 231 
 RREF HZ I        1014 13.32         7.7 0.10                           331 231 
 PRA  HZ EP       1013 36.41                             105    -0.9 6  397 211 
 PRA  HN ES   1   1014 20.33                             105     0.9 4  397 211 
 PRA  HZ I        1014 25.36         5.7 0.28                           397 211 
                                                                                
