 2014  317 1101 28.7 L   6.815 -73.168148.0  RSN  4 0.3 1.6LRSN                1
 GAP=144        0.56       4.4     3.9  7.1 -0.1956E+01  0.1182E+02 -0.3434E+01E
 Epicentro: LOS SANTOS - SANTANDER                                             3
 OLDACT:REG 14-03-17 15:38 OP:fm   STATUS:               ID:20140317105813     3
 ACTION:UPD 14-04-09 23:18 OP:nd   STATUS:               ID:20140317110128 L   I
 OLDACT:UP  14-03-17 20:03 OP:fm   STATUS:               ID:20140317105813     3
 2014-03-17-1058-13M.COL___242                                                 6
 STAT SP IPHASW D HRMM SECON CODA AMPLIT PERI AZIMU VELO AIN AR TRES W  DIS CAZ7
 BAR2 SZ EP       11 1 48.59                             170   -0.0210 24.7 184 
 BAR2 SZ ES   2   11 2  3.35                             170   -0.80 5 24.7 184 
 BAR2 SZ I        11 2 14.58         9.7 1.40            164           24.7 184 
 PAM  SN ES   1   11 2  8.89                             151    0.20 7 77.8  42 
 RUS  HZ EP   2   11 1 52.44                             144   -0.35 5  102 175 
 RUS  HN ES       11 2 11.75                             144    0.1610  102 175 
 RUS  SZ I        11 2 22.69         5.0 1.78            147            102 175 
 PTB  HZ EP       11 1 55.55                             133   -0.09 9  146 258 
 PTB  HN ES       11 2 16.79                             133    0.12 9  146 258 
 PTB  SZ I        11 2 26.01         6.0 2.44            139            146 258 
                                                                                
