 2014  917 1056  0.7 L   6.768 -73.142148.0  RSN 15 0.3 2.0LRSN                1
 GAP=139        0.77       2.3     3.2  4.3 -0.9237E+00  0.2808E+01  0.1393E+01E
 Epicentro: LOS SANTOS - SANTANDER                                             3
 ACTION:UPD 14-10-03 23:06 OP:nd   STATUS:               ID:20140917105600 L   I
 OLDACT:REG 14-09-17 20:09 OP:spq  STATUS:               ID:20140917104818     3
 2014-09-17-1048-18M.COL___293                                                 6
 STAT SP IPHASW D HRMM SECON CODA AMPLIT PERI AZIMU VELO AIN AR TRES W  DIS CAZ7
 BAR2 SZ EP       1056 20.24                             172   -0.2910 19.9 193 
 BAR2 SZ ES   1   1056 35.95                             172   -0.06 7 19.9 193 
 BAR2 SZ I        1056 37.76        28.6 0.34            169           19.9 193 
 BRR  HZ EP       1056 22.11                             152   -0.1010 73.4 301 
 BRR  HE ES       1056 39.53                             152    0.5410 73.4 301 
 BRR  HZ I        1056 42.32        14.3 0.30            151           73.4 301 
 PAM  SZ EP       1056 23.19                             151   -0.1110 79.9  38 
 PAM  SE ES       1056 40.90                             151   -0.0310 79.9  38 
 PAM  SZ I        1056 42.35        12.7 0.60            155           79.9  38 
 RUS  HZ EP       1056 24.22                             145   -0.2010 97.0 176 
 RUS  HE ES   1   1056 42.94                             145    0.02 7 97.0 176 
 RUS  HZ I        1056 44.75         4.0 0.39            146           97.0 176 
 PTB  HZ EP       1056 27.17                             133   -0.66 9  148 260 
 PTB  HE ES       1056 48.79                             133   -0.20 9  148 260 
 PTB  HZ I        1056 49.47        12.0 0.18            132            148 260 
 SPBC HZ EP       1056 29.21                             130    0.07 9  161 220 
 SPBC HE ES       1056 51.62                             130    0.30 9  161 220 
 SPBC HZ I        1056 58.50        14.6 0.16            130            161 220 
 OCA  HN ES       1056 52.53                             130    0.53 9  164 353 
 OCA  HZ I        1056 55.24        15.5 0.44            132            164 353 
 ZAR  HZ EP       1056 33.06                             123   -0.41 8  206 293 
 ZAR  HN ES       1056 58.80                             123   -0.24 8  206 293 
 ZAR  HZ I        1057  4.78         7.3 0.24            123            206 293 
 NOR  HZ EP       1056 36.88                             119    0.50 8  233 235 
 NOR  HN ES   1   1057  4.16                             119   -0.05 6  233 235 
 NOR  HZ I        1057  9.80         6.0 0.30            120            233 235 
 CHI  HZ EP   1   1056 38.72                             118    0.56 6  245 195 
 CHI  HE ES   1   1057  7.30                             118   -0.08 6  245 195 
 CHI  HZ I        1057 13.30         3.7 0.36            119            245 195 
 SML  HZ EP       1056 37.76                             118   -0.06 8  247 336 
 SML  HN ES   1   1057  6.71                             118   -0.07 6  247 336 
 SML  HZ I        1057  9.96        14.4 0.09            119            247 336 
 HEL  HZ EP   4   1056 42.50                             115    1.52 0  272 257 
 HEL  HN ES   4   1057 16.67                             115    4.27 0  272 257 
 HEL  HZ I        1057 19.47         6.3 0.36            116            272 257 
 GUY2CHZ EP   1   1056 44.91                             113    0.69 5  300 235 
 GUY2CHN ES   4   1057 22.66                             113    4.49 0  300 235 
 GUY2CHZ I        1057 26.93         6.1 0.55                           300 235 
 PRA  HZ EP       1056 54.14                             107    0.18 6  389 210 
 PRA  HN ES   4   1057 37.84                             107    2.34 0  389 210 
 PRA  HZ I        1057 42.70         2.8 0.30            108            389 210 
 SJC  HZ EP   4   1056 54.61                             106   -2.10 0  412 327 
 SJC  HN ES   4   1057 38.29                             106   -2.12 0  412 327 
 SJC  HZ I        1057 39.64         2.8 0.60            107            412 327 
                                                                                
