 2017 1117 1534  6.8 L   6.767 -73.127143.0  RSN  5 0.4 1.6LRSN                1
 GAP=161        0.95       6.4     4.9  7.4 -0.1303E+02  0.1519E+02 -0.1635E+01E
 Epicentro: LOS SANTOS - SANTANDER                                             3
 ACTION:UPD 17-12-12 19:56 OP:rebc STATUS:               ID:20171117153406 L   I
 OLDACT:REG 17-11-17 21:04 OP:leo  STATUS:               ID:20171117152741     3
 2017-11-17-1528-00M.COL___449                                                 6
 STAT SP IPHASW D HRMM SECON CODA AMPLIT PERI AZIMU VELO AIN AR TRES W  DIS CAZ7
 BAR2 EZ EP       1534 26.15                             172    0.0810 20.2 197 
 BAR2 EZ ES       1534 41.00                             172   -0.0710 20.2 197 
 BAR2 EZ I        1534 42.86         6.3 0.42            171           20.2 197 
 PAM  EZ EP       1534 28.88                             150    0.0310 79.0  37 
 PAM  EN ES       1534 46.15                             150    0.1210 79.0  37 
 PAM  EZ I        1534 46.68         4.8 0.30            152           79.0  37 
 PTB  HZ EP       1534 33.09                             131   -0.60 9  149 260 
 PTB  HN ES       1534 54.14                             131   -0.50 9  149 260 
 PTB  HZ I        1534 56.39         5.4 0.18            131            149 260 
 ZAR  HZ EP       1534 39.06                             121   -0.38 8  207 293 
 ZAR  HN ES       1535  5.48                             121    0.61 8  207 293 
 ZAR  HZ I        1535 10.65         8.8 0.26            122            207 293 
 NOR  HZ EP       1534 42.80                             118    0.45 8  234 235 
 NOR  HN ES       1535 10.55                             118    0.50 8  234 235 
 NOR  HZ I        1535 14.44         3.1 0.48            119            234 235 
                                                                                
