 2016  717 1316 20.3 L   6.761 -73.128145.8  RSN 23 0.4 3.0LRSN                1
 GAP= 73        0.73       2.3     2.1  3.2 -0.4764E+00  0.2032E+01  0.1371E+01E
 Epicentro: LOS SANTOS - SANTANDER                                             3
 ACTION:UPD 17-03-29 16:52 OP:lp   STATUS:               ID:20160717131620 L   I
 OLDACT:UP  16-07-17 22:32 OP:dani STATUS:               ID:20160717130759     3
 OLDACT:UP  16-07-17 22:31 OP:dani STATUS:               ID:20160717130759     3
 OLDACT:UP  16-07-17 22:31 OP:dani STATUS:               ID:20160717130759     3
 OLDACT:UP  16-07-17 22:31 OP:dani STATUS:               ID:20160717130759     3
 OLDACT:UP  16-07-17 22:30 OP:dani STATUS:               ID:20160717130759     3
 OLDACT:REG 16-07-17 20:33 OP:dani STATUS:               ID:20160717130759     3
 2016-07-17-1307-59S.COL___319                                                 6
 STAT SP IPHASW D HRMM SECON CODA AMPLIT PERI AZIMU VELO AIN AR TRES W  DIS CAZ7
 BAR2 EZ IP     D 1316 39.71                             172   -0.1710 19.7 198 
 BAR2 EZ ES       1316 54.92                             172   -0.2210 19.7 198 
 BAR2 EZ I        1316 55.75       255.7 0.18            167           19.7 198 
 BRR  HZ IP     D 1316 41.72                             151    0.0310 75.1 301 
 BRR  HN ES       1316 58.84                             151    0.4810 75.1 301 
 BRR  HZ I        1317  3.49       188.4 0.12            149           75.1 301 
 PAM  EZ EP       1316 42.74                             150    0.0810 79.5  36 
 PAM  EN ES       1316 59.93                             150   -0.1610 79.5  36 
 PAM  EZ I        1317  1.96       199.7 0.58            156           79.5  36 
 RUS  HZ EP       1316 43.70                             145   -0.0610 96.2 177 
 RUS  HN ES       1317  2.00                             145   -0.0410 96.2 177 
 RUS  HZ I        1317  3.61       169.9 0.24            144           96.2 177 
 PTB  HZ EP   9   1316 46.23                             132   -1.16 0  149 261 
 PTB  HN ES       1317  7.50                             131    0.15 9  149 261 
 PTB  HZ I        1317  9.90       163.8 0.14            130            149 261 
 TAM  HZ IP     D 1316 47.97                             131    0.25 9  152 104 
 TAM  HN ES       1317  9.20                             131    0.11 9  152 104 
 SPBC HZ EP       1316 48.63                             129    0.00 9  161 221 
 SPBC HN ES       1317 10.43                             129   -0.28 9  161 221 
 SPBC HZ I        1317 13.05       169.0 0.22            128            161 221 
 ZAR  HZ EP       1316 52.80                             122   -0.32 8  208 293 
 ZAR  HE ES       1317 18.75                             122    0.04 8  208 293 
 ZAR  HZ I        1317 24.86       118.6 0.30            122            208 293 
 NOR  HZ EP       1316 55.59                             119   -0.37 8  234 236 
 NOR  HN ES       1317 23.72                             119   -0.04 8  234 236 
 NOR  HZ I        1317 30.25        83.4 0.56            118            234 236 
 CHI  HZ EP       1316 57.63                             117    0.00 8  245 196 
 CHI  HE ES       1317 26.65                             117   -0.08 8  245 196 
 CHI  HZ I        1317 35.01        39.3 0.48            118            245 196 
 ROSC BZ EP   4   1316 59.37                             117    1.22 0  250 212 
 ROSC BN ES   4   1317 31.39                             117    3.72 0  250 212 
 ROSC BZ I        1317 35.77        48.7 0.40            117            250 212 
 HEL  HZ EP       1317  1.20                             115    0.57 8  273 257 
 HEL  HN ES   4   1317 30.91                             115   -1.17 0  273 257 
 HEL  HZ I        1317 37.90        48.9 0.50            114            273 257 
 URE  HZ EP       1317  0.93                             113   -0.85 7  287 293 
 URE  HN ES   4   1317 32.01                             113   -2.10 0  287 293 
 URE  HZ I        1317 44.38        67.1 0.18            114            287 293 
 GUY2CHZ EP       1317  4.37                             112    0.53 7  300 236 
 GUY2CHE ES   4   1317 40.00                             112    2.22 0  300 236 
 GUY2CHZ I        1317 44.07        55.4 0.28                           300 236 
 PTGC HZ EP   4   1317  2.59                             112   -1.05 0  304 159 
 PTGC HE ES   4   1317 35.32                             112   -2.11 0  304 159 
 PTGC HZ I        1317 40.55        50.6 0.30            113            304 159 
 ELA  HZ EP   4   1317  8.85                             110    1.82 0  328 230 
 ELA  HN ES   4   1317 46.79                             110    3.33 0  328 230 
 ELA  HZ I        1317 54.96        39.1 0.44            110            328 230 
 CBOC HZ EP       1317  8.04                             110    0.74 7  334 253 
 CBOC HN ES       1317 43.82                             110   -0.13 7  334 253 
 CBOC HZ I        1317 47.51        24.9 0.60            110            334 253 
 ANIL HZ EP       1317 10.71                             108    0.78 6  356 225 
 ANIL HN ES   4   1317 50.02                             108    1.39 0  356 225 
 ANIL HZ I        1318  0.53        88.7 0.26            109            356 225 
 PRA  HZ EP       1317 13.14                             107   -0.38 6  389 210 
 PRA  HN ES       1317 54.95                             107   -0.07 6  389 210 
 PRA  HZ I        1318  1.14        23.0 0.30            107            389 210 
 PAL  HZ EP       1317 15.68                             106    0.26 6  405 240 
 PAL  HE ES       1317 58.57                             106    0.16 6  405 240 
 PAL  HZ I        1318  4.18        28.4 0.56            106            405 240 
 SJC  HZ EP   4   1317 13.66                             105   -2.77 0  414 327 
 SJC  HE ES   4   1317 56.04                             105   -4.15 0  414 327 
 SJC  HZ I        1317 59.50        17.6 0.38            106            414 327 
 YOT  HZ EP       1317 22.41                             103   -0.80 5  471 229 
 SMAR HZ EP   2   1317 26.09                             102   -0.65 2  502 346 
 SMAR HE ES   4   1318 14.31                             102   -4.24 0  502 346 
 SMAR HZ I        1318 15.23        11.5 0.07            103            502 346 
                                                                                
