 2011  617 1901  4.5 L   6.748 -73.044140.6  RSN  4 0.3 1.7LRSN                1
 GAP=168        0.68       5.7    11.6 14.4  0.2945E+02 -0.1196E+03 -0.4861E+02E
 Epicentro: ARATOCA - SANTANDER                                                3
 ACTION:UP  11-07-14 19:06 OP:ep   STATUS:               ID:20110617190104 L   I
 2011-06-17-1855-39S.COL___135                                                 6
 STAT SP IPHASW D HRMM SECON CODA AMPLIT PERI AZIMU VELO SNR AR TRES W  DIS CAZ7
 BRR  HZ EP   1   19 1 25.46                             147    -0.4 8   84 298 
 BRR  HZ I        19 1 25.72        22.0 0.14                            84 298 
 BRR  HN ES   1   19 1 42.76                             147     0.2 8   84 298 
 RUS  HZ EP   1   19 1 27.74                             144     0.4 8   95 183 
 RUS  HN ES   1   19 1 44.87                             144    -0.3 8   95 183 
 RUS  HZ I        19 1 47.44         4.3 0.17                            95 183 
 BRI  SZ EP       19 1 28.16                             140     0.110  110  14 
 GRA  SZ EP   1   19 1 29.37                             135    -0.1 7  128  12 
                                                                                
