 2011  517 1122 51.9 L   6.774 -73.073145.4  RSN  7 0.3 1.8LRSN                1
 GAP=164        0.72       4.3     9.0  7.2  0.3824E+01 -0.2434E+02 -0.1154E+01E
 Epicentro: LOS SANTOS - SANTANDER                                             3
 ACTION:UP  11-06-29 08:54 OP:tino STATUS:               ID:20110517112252 L   I
 2011-05-17-1120-09S.COL___141                                                 6
 STAT SP IPHASW D HRMM SECON CODA AMPLIT PERI AZIMU VELO SNR AR TRES W  DIS CAZ7
 BAR2 SZ EP       1123 11.32                             171    -0.210   23 211 
 BAR2 SZ I        1123 28.06        12.1 0.34                            23 211 
 BTL  SZ EP       1123 11.71                             169     0.110   27 307 
 BTL  SZ ES   1   1123 26.79                             169    -0.2 7   27 307 
 GIR2 SZ EP       1123 11.64                             165    -0.110   36 338 
 GIR2 SZ ES   2   1123 26.85                             165    -0.3 5   36 338 
 BRR  HZ EP       1123 13.27                             150    -0.310   80 298 
 BRR  HN ES   1   1123 30.77                             150     0.4 7   80 298 
 BRR  HZ I        1123 32.41        12.8 0.19                            80 298 
 RUS  HZ EP       1123 15.40                             145     0.010   97 181 
 RUS  HN ES   1   1123 34.02                             145     0.3 7   97 181 
 RUS  HZ I        1123 35.70         7.9 0.65                            97 181 
 BRI  SZ EP       1123 16.31                             141     0.510  109  16 
 GRA  SZ ES   2   1123 36.41                             137    -0.5 5  126  14 
                                                                                
