 2014  217 1913 57.7 L   6.799 -73.150147.9  RSN 11 0.4 2.4LRSN                1
 GAP=136        0.99       2.8     4.6  5.4 -0.5953E+01  0.8406E+01 -0.1370E+01E
 Epicentro: LOS SANTOS - SANTANDER                                             3
 ACTION:UPD 14-03-10 08:11 OP:ep   STATUS:               ID:20140217191357 L   I
 OLDACT:REG 14-02-17 16:02 OP:carl STATUS:               ID:20140217191000     3
 2014-02-17-1910-00M.COL___212                                                 6
 STAT SP IPHASW D HRMM SECON CODA AMPLIT PERI AZIMU VELO AIN AR TRES W  DIS CAZ7
 BAR2 SZ EP       1914 16.61                             171   -1.0210 23.2 189 
 BAR2 SZ ES       1914 33.25                             171    0.1110 23.2 189 
 BAR2 SZ I        1914 35.62        77.3 0.40            171           23.2 189 
 PAM  SZ EP     D 1914 20.56                             151    0.3510 77.7  40 
 PAM  SN ES       1914 37.99                             151    0.2610 77.7  40 
 PAM  SZ I        1914 40.22        41.3 0.64            146           77.7  40 
 RUS  HZ EP       1914 21.63                             144   -0.0810  101 176 
 RUS  HN ES       1914 40.33                             144   -0.0710  101 176 
 RUS  HZ I        1914 41.56        23.4 0.34            141            101 176 
 PTB  HZ EP       1914 24.45                             133   -0.40 9  147 259 
 PTB  HN ES       1914 45.58                             133   -0.40 9  147 259 
 PTB  HZ I        1914 51.86        27.5 0.42            127            147 259 
 OCA  HZ EP       1914 26.25                             130    0.02 9  160 353 
 OCA  HE ES       1914 48.94                             130    0.50 9  160 353 
 OCA  HZ I        1914 52.83        34.4 0.34            124            160 353 
 SPBC HZ EP       1914 26.69                             130    0.31 9  163 219 
 SPBC HN ES       1914 48.93                             130    0.22 9  163 219 
 SPBC HZ I        1914 55.91        58.6 0.40            125            163 219 
 NOR  HZ EP       1914 33.28                             119   -0.27 8  234 234 
 NOR  HN ES       1915  1.58                             119    0.10 8  234 234 
 NOR  HZ I        1915  5.32        26.6 0.22            115            234 234 
 CHI  HZ EP       1914 35.76                             118    0.21 8  248 195 
 CHI  HN ES       1915  4.61                             118   -0.42 8  248 195 
 CHI  HZ I        1915 15.06         9.6 0.46            113            248 195 
 GUY2CHZ EP       1914 42.34                             113    0.93 7  301 235 
 GUY2CHN ES       1915 15.69                             113    0.23 7  301 235 
 GUY2CHZ I        1915 24.34        12.1 0.28                           301 235 
 COD  HZ EP       1914 46.11                             109   -0.10 6  348 355 
 COD  HZ I        1915 22.81         5.0 0.52            105            348 355 
 COD  HN ES       1915 23.39                             109   -0.62 6  348 355 
 PRA  HZ EP       1914 51.29                             107   -0.02 6  392 210 
 PRA  HN ES       1915 33.73                             107    0.65 6  392 210 
 PRA  HZ I        1915 40.05        11.1 0.28            103            392 210 
 SJC  HZ EP   4   1914 52.10                             106   -1.25 0  409 327 
 SJC  HN ES   4   1915 33.04                             106   -3.69 0  409 327 
                                                                                
