 2016  517 1004  6.8 L   6.706 -73.155144.9  RSN  5 0.4 1.3LRSN                1
 GAP=199        1.06       9.1     7.2  8.5  0.1298E+02  0.1548E+02 -0.5480E+01E
 Epicentro: VILLANUEVA - SANTANDER                                             3
 ACTION:UPD 16-08-18 17:46 OP:cam  STATUS:               ID:20160517100406 L   I
 OLDACT:UP  16-05-24 15:32 OP:dnl  STATUS:               ID:20160517100406 L   3
 OLDACT:REG 16-05-17 19:50 OP:drio STATUS:               ID:20160517095745     3
 2016-05-17-0957-45M.COL___294                                                 6
 STAT SP IPHASW D HRMM SECON CODA AMPLIT PERI AZIMU VELO AIN AR TRES W  DIS CAZ7
 BAR2 EZ EP       10 4 26.56                             175    0.4210 12.9 193 
 BAR2 EZ ES       10 4 40.60                             175   -0.6510 12.9 193 
 BAR2 EZ I        10 4 47.56         3.5 0.24            174           12.9 193 
 BRR  HZ EP       10 4 28.36                             151    0.2510 75.9 306 
 BRR  HN ES       10 4 45.33                             151    0.5910 75.9 306 
 PTB  HZ EP       10 4 33.07                             132   -0.36 9  145 263 
 PTB  HN ES       10 4 54.47                             132    0.25 9  145 263 
 PTB  HZ I        10 4 56.55         2.4 0.68            135            145 263 
 OCA  HE ES   2   10 4 58.47                             127   -0.32 4  170 354 
 ZAR  HZ EP       10 4 39.43                             122   -0.07 8  207 295 
 ZAR  HN ES       10 5  4.46                             122   -0.56 8  207 295 
 ZAR  HZ I        10 5  9.93         3.1 0.54            125            207 295 
                                                                                
