 2016  117 1010 18.6 L   6.798 -73.168140.1  RSN  7 0.3 1.5LRSN                1
 GAP=199        0.77       2.7     4.7  5.0  0.1102E+01  0.5083E+01 -0.1011E+01E
 Epicentro: LOS SANTOS - SANTANDER                                             3
 ACTION:UPD 16-03-09 23:26 OP:cam  STATUS:               ID:20160117101018 L   I
 OLDACT:REG 16-01-17 19:54 OP:drio STATUS:               ID:20160117100735     3
 2016-01-17-1007-35M.COL___313                                                 6
 STAT SP IPHASW D HRMM SECON CODA AMPLIT PERI AZIMU VELO AIN AR TRES W  DIS CAZ7
 BAR2 EZ EP       1010 37.86                             170    0.3410 22.8 184 
 BAR2 EZ ES       1010 51.97                             170   -0.3210 22.8 184 
 BAR2 EZ I        1010 53.98         7.2 0.20            170           22.8 184 
 RUS  HZ EP       1010 41.78                             143    0.0110  101 175 
 RUS  HE ES       1010 59.77                             143   -0.1010  101 175 
 RUS  HZ I        1011  1.16         4.3 0.22            144            101 175 
 PTB  HZ EP       1010 44.34                             131   -0.53 9  145 259 
 PTB  HE ES       1011  5.65                             131    0.28 9  145 259 
 PTB  HZ I        1011  7.85         3.9 0.34            130            145 259 
 SPBC HZ EP       1010 46.48                             128   -0.01 9  161 218 
 SPBC HN ES       1011  8.48                             128    0.23 9  161 218 
 SPBC HZ I        1011 12.58         4.6 0.34            128            161 218 
 SML  HZ EP       1010 55.03                             116    0.22 8  243 336 
 SML  HN ES       1011 23.02                             116   -0.05 8  243 336 
 SML  HZ I        1011 28.09         5.8 0.22            117            243 336 
 CHI  HZ EP       1010 56.03                             116    0.15 8  248 195 
 CHI  HE ES       1011 25.44                             116    0.48 8  248 195 
 CHI  HZ I        1011 27.52         1.0 0.54            117            248 195 
 PRA  HZ EP       1011 11.47                             106   -0.27 6  391 209 
 PRA  HE ES       1011 52.30                             106   -0.91 6  391 209 
 PRA  HZ I        1011 57.64         1.6 0.28            106            391 209 
                                                                                
