 2011 1217 1320 22.3 L   6.774 -73.095145.6  RSN  5 0.3 1.7LRSN                1
 GAP=144        0.48       4.2     7.4  6.8 -0.5742E+01  0.3062E+00  0.8581E+01E
 Epicentro: LOS SANTOS - SANTANDER                                             3
 ACTION:UPD 12-07-13 16:16 OP:ep   STATUS:               ID:20111217132022 L   I
 2011-12-17-1320-00M.COL___185                                                 6
 STAT SP IPHASW D HRMM SECON CODA AMPLIT PERI AZIMU VELO AIN AR TRES W  DIS CAZ7
 BAR2 SZ EP   2   1320 41.89                             171   -0.02 5 22.3 206 
 BAR2 SZ ES   2   1320 57.19                             171    0.00 5 22.3 206 
 BAR2 SZ I        1321  0.10        11.2 0.51                          22.3 206 
 PAM  SZ EP   2   1320 44.76                             151    0.31 5 76.2  35 
 PAM  SN ES   2   1321  1.16                             151   -0.56 5 76.2  35 
 BRR  HZ EP   2   1320 43.61                             150   -0.21 5 77.5 298 
 BRR  HN ES   2   1321  0.79                             150    0.20 5 77.5 298 
 BRR  HZ I        1321  4.00        13.6 0.37                          77.5 298 
 RUS  HZ EP   2   1320 46.27                             144    0.43 5 97.5 179 
 RUS  HN ES   2   1321  4.45                             144    0.27 5 97.5 179 
 RUS  HZ I        1321  6.52         5.2 0.30                          97.5 179 
 CHI  HZ EP   2   1320 59.89                             117    0.01 4  247 197 
 CHI  HN ES   2   1321 28.52                             117   -0.66 4  247 197 
 CHI  HZ I        1321 33.04         3.9 0.52                           247 197 
                                                                                
