 2012  417 1223 21.8 L   6.837 -73.127143.2  RSN  9 0.3 2.2LRSN                1
 GAP=152        0.73       4.0     4.1  4.9 -0.5596E+01  0.5055E+01  0.4899E+01E
 Epicentro: LOS SANTOS - SANTANDER                                             3
 ACTION:UPD 12-07-05 11:53 OP:tino STATUS:               ID:20120417122321 L   I
 2012-04-17-1220-00M.COL___189                                                 6
 STAT SP IPHASW D HRMM SECON CODA AMPLIT PERI AZIMU VELO AIN AR TRES W  DIS CAZ7
 BAR2 SZ EP       1223 41.41                             168     0.210   28 193 
 BAR2 SZ ES   1   1223 55.99                             168    -0.4 7   28 193 
 BAR2 SZ I        1224  0.31        16.9 0.22                            28 193 
 BRR  HZ EP       1223 42.77                             152     0.110   71 295 
 BRR  HN ES       1223 59.45                             152     0.510   71 295 
 BRR  HZ I        1224  3.82        30.8 0.20                            71 295 
 PAM  SZ EP       1223 43.79                             152     0.310   73  40 
 PAM  SN ES       1224  0.15                             152    -0.310   73  40 
 OCA  SZ EP       1223 49.43                             130    -0.2 9  156 352 
 ZAR  HZ EP   1   1223 53.68                             122    -0.5 6  204 291 
 ZAR  HE ES   1   1224 19.04                             122    -0.3 6  204 291 
 ZAR  HZ I        1224 24.26        28.4 0.32                           204 291 
 NOR  SZ EP       1223 58.10                             117     0.2 8  239 234 
 NOR  SN ES   1   1224 25.58                             117    -0.4 6  239 234 
 HEL  HZ EP   1   1224  2.37                             114     0.1 6  275 255 
 HEL  HZ I        1224 38.40         6.8 0.27                           275 255 
 RREF HZ EP   1   1224  8.04                             110    -0.3 5  326 229 
 RREF HZ I        1224 55.91         8.5 0.27                           326 229 
 PRA  HZ EP   1   1224 15.75                             106    -0.1 4  397 210 
 PRA  HE ES       1224 58.00                             106     0.1 6  397 210 
                                                                                
