 2014  417 1504 17.1 L   7.358 -73.224123.3  RSN  5 0.2 1.7LRSN                1
 GAP=177        0.44       2.7     2.2  4.7  0.3799E+00  0.5787E+01  0.1395E+01E
 Epicentro: RIONEGRO - SANTANDER                                               3
 ACTION:UPD 14-05-13 23:09 OP:nd   STATUS:               ID:20140417150417 L   I
 OLDACT:REG 14-04-17 20:53 OP:stll STATUS:               ID:20140417145808     3
 2014-04-17-1458-08M.COL___250                                                 6
 STAT SP IPHASW D HRMM SECON CODA AMPLIT PERI AZIMU VELO AIN AR TRES W  DIS CAZ7
 PAM  SZ EP       15 4 35.62                             154   -0.1210 57.9  92 
 PAM  SZ I        15 4 35.86         9.3 0.28            158           57.9  92 
 PAM  SN ES       15 4 50.41                             154    0.1010 57.9  92 
 PTB  HZ EP       15 4 43.75                             123   -0.11 9  163 236 
 PTB  HZ I        15 4 44.29         4.6 0.26            125            163 236 
 PTB  HN ES       15 5  4.69                             123   -0.09 9  163 236 
 RUS  HN ES       15 5  5.72                             124   -0.04 9  163 174 
 ZAR  HZ EP       15 4 45.55                             120   -0.12 9  181 275 
 ZAR  HN ES       15 5  8.10                             120    0.11 9  181 275 
 ZAR  HZ I        15 5 13.31         7.4 0.26            121            181 275 
 NOR  HZ EP       15 4 55.89                             110    0.39 8  269 223 
 NOR  HZ I        15 4 55.99         3.0 0.30            112            269 223 
                                                                                
