 2014 1117 1522 22.4 L   6.710 -73.164147.5  RSN  9 0.3 1.7LRSN                1
 GAP=228        0.75       4.8     3.8  5.9 -0.2427E+01  0.8282E+01 -0.5996E+01E
 Epicentro: VILLANUEVA - SANTANDER                                             3
 ACTION:UPD 14-12-19 15:43 OP:nd   STATUS:               ID:20141117152222 L   I
 OLDACT:DUP 14-11-18 00:25 OP:fm   STATUS:               ID:20141117151751d    3
 2014-11-17-1517-50M.COL___295                                                 6
 STAT SP IPHASW D HRMM SECON CODA AMPLIT PERI AZIMU VELO AIN AR TRES W  DIS CAZ7
 BAR2 SZ EP       1522 42.08                             175    0.0410 13.2 189 
 BAR2 SZ ES   1   1522 57.88                             175    0.49 7 13.2 189 
 BAR2 SZ I        1522 58.84         7.5 0.24            168           13.2 189 
 BRR  HZ EP       1522 43.58                             152   -0.3210 74.8 306 
 RUS  HZ EP       1522 45.51                             147   -0.1010 90.8 174 
 RUS  HN ES       1523  3.78                             147    0.0310 90.8 174 
 RUS  HZ I        1523  7.90         3.4 0.22            148           90.8 174 
 PTB  HZ EP       1522 48.85                             133   -0.30 9  144 263 
 PTB  HN ES       1523  9.84                             133   -0.20 9  144 263 
 PTB  HZ I        1523 15.94         8.1 0.42            132            144 263 
 SPBC HZ EP       1522 50.45                             131    0.29 9  154 221 
 SPBC HN ES       1523 11.65                             131   -0.20 9  154 221 
 SPBC HZ I        1523 20.14        13.1 0.36            131            154 221 
 NOR  HZ EP       1522 57.56                             120    0.15 8  227 236 
 NOR  HN ES       1523 24.28                             120   -0.47 8  227 236 
 NOR  HZ I        1523 33.16         4.8 0.24            120            227 236 
 HEL  HZ EP       1523  2.59                             115    0.40 8  268 258 
 HEL  HN ES       1523 33.98                             115    0.72 8  268 258 
 HEL  HZ I        1523 42.79         3.0 0.48            117            268 258 
 TOL  SN ES   1   1523 46.69                             110    0.04 5  335 226 
 SJC  HZ EP   4   1523 16.01                             106   -2.83 0  417 328 
 SJC  HN ES   4   1523 55.17                             106   -7.72 0  417 328 
 SJC  HZ I        1524  5.14         0.8 0.40            108            417 328 
                                                                                
