 2010  617 1102 47.7 L   6.784 -73.074148.6  RSN  6 0.3 1.5LRSN                1
 GAP=164        0.63       5.5    11.4 10.8  0.8337E+01 -0.6192E+02 -0.2654E+02E
 Epicentro: LOS SANTOS - SANTANDER                                             3
 ACTION:UP  10-08-24 10:11 OP:vdl  STATUS:               ID:20100617110247 L   I
 2010-06-17-1058-47S.COL___115                                                 6
 STAT SP IPHASW D HRMM SECON CODA AMPLIT PERI AZIMU VELO SNR AR TRES W  DIS CAZ7
 BAR2 SZ EP   1   11 3  7.59                             170    -0.1 7   24 210 
 BAR2 SZ ES   2   11 3 23.13                             170    -0.2 5   24 210 
 BRR  HZ EP   1   11 3  9.58                             151     0.0 7   79 297 
 BRR  HN ES   2   11 3 26.75                             151     0.0 5   79 297 
 BRR  HZ I        11 3 31.95        16.2 0.50                            79 297 
 RUS  HZ EP   1   11 3 11.54                             145    -0.1 7   99 181 
 RUS  HZ I        11 3 13.18         1.5 0.42                            99 181 
 RUS  HN ES   2   11 3 30.60                             145     0.4 5   99 181 
 BRI  SZ EP   1   11 3 11.24                             142    -0.6 7  108  17 
 GUE  SZ EP   1   11 3 13.07                             140     0.4 7  117   8 
 GRA  SZ EP   1   11 3 13.54                             138     0.4 7  125  14 
                                                                                
