 2010  817 1304 56.4 L   6.756 -73.070142.4  RSN  5 0.2 1.5LRSN                1
 GAP=202        0.68      10.0    16.4  7.6 -0.4400E+02 -0.1980E+02 -0.4062E+02E
 Epicentro: LOS SANTOS - SANTANDER                                             3
 ACTION:UP  10-09-07 10:55 OP:vdl  STATUS:               ID:20100817130456 L   I
 2010-08-17-1301-49S.COL___110                                                 6
 STAT SP IPHASW D HRMM SECON CODA AMPLIT PERI AZIMU VELO SNR AR TRES W  DIS CAZ7
 BAR2 SZ EP       13 5 15.80                             171     0.210   22 215 
 BAR2 SZ ES       13 5 30.28                             171    -0.310   22 215 
 BAR2 SZ I        13 5 33.12         5.3 0.48                            22 215 
 BTL  SZ EP       13 5 15.90                             169     0.110   28 309 
 BTL  SZ ES   1   13 5 31.19                             169     0.3 7   28 309 
 BRR  HZ EP   1   13 5 17.56                             149    -0.2 7   81 299 
 BRR  HZ I        13 5 19.83         9.7 0.38                            81 299 
 GUE  SZ EP   1   13 5 20.82                             138    -0.3 7  120   8 
 GRA  SZ EP   1   13 5 21.65                             136     0.1 7  128  13 
 GRA  SZ I        13 5 23.07         3.6 0.52                           128  13 
                                                                                
