 2010 1017 1418 25.4 L   6.804 -73.112132.0  RSN  7 0.3 1.5LRSN                1
 GAP=162        0.73       4.8    12.9 17.6 -0.1205E+01 -0.8931E+02 -0.2018E+02E
 Epicentro: LOS SANTOS - SANTANDER                                             3
 ACTION:UP  11-02-18 11:10 OP:tino STATUS:               ID:20101017141825 L   I
 2010-10-17-1416-23S.COL___126                                                 6
 STAT SP IPHASW D HRMM SECON CODA AMPLIT PERI AZIMU VELO SNR AR TRES W  DIS CAZ7
 BTL  SZ EP       1418 43.53                             171     0.210   21 306 
 BAR2 SZ EP       1418 43.39                             169     0.010   25 199 
 BAR2 SZ ES   3   1418 57.27                             169    -0.2 2   25 199 
 BAR2 SZ I        1418 59.49         8.8 0.30                            25 199 
 BRR  HZ EP       1418 45.26                             149     0.010   74 297 
 BRR  HZ I        1419  2.77        10.2 0.26                            74 297 
 RUS  HZ EP       1418 47.77                             141    -0.110  101 178 
 RUS  HZ I        1418 48.63         3.1 0.17                           101 178 
 GUE  SZ EP       1418 49.24                             137     0.510  115  10 
 GRA  SZ EP       1418 48.98                             134    -0.310  124  16 
 GRA  SZ I        1419 17.99         4.8 0.79                           124  16 
 OCA  SZ EP   2   1418 52.26                             127    -0.4 5  160 352 
 OCA  SZ ES   2   1419 13.71                             127    -0.3 5  160 352 
 OCA  SZ I        1419 16.71         5.4 0.17                           160 352 
                                                                                
