 2015  317 1049  6.1 L   6.792 -73.176147.8  RSN  5 0.2 1.4LRSN                1
 GAP=133        0.46       1.9     2.7  4.3 -0.5189E+00  0.4517E+01 -0.1730E+01E
 Epicentro: LOS SANTOS - SANTANDER                                             3
 ACTION:UPD 15-04-30 16:26 OP:nd   STATUS:               ID:20150317104906 L   I
 OLDACT:UP  15-03-17 21:51 OP:cam  STATUS:               ID:20150317104744     3
 OLDACT:REG 15-03-17 21:04 OP:cam  STATUS:               ID:20150317104744     3
 2015-03-17-1047-44M.COL___260                                                 6
 STAT SP IPHASW D HRMM SECON CODA AMPLIT PERI AZIMU VELO AIN AR TRES W  DIS CAZ7
 PAM  SZ EP   1   1049 28.65                             150   -0.01 7 80.2  41 
 PAM  SN ES       1049 46.19                             150   -0.1010 80.2  41 
 PAM  SZ I        1049 47.81         3.7 0.46            155           80.2  41 
 RUS  HZ EP       1049 30.13                             144    0.1510  100 174 
 RUS  HN ES       1049 48.66                             144    0.0310  100 174 
 RUS  HN I        1049 51.50         3.0 0.18            149            100 174 
 PTB  HZ EP       1049 32.82                             133   -0.07 9  144 259 
 PTB  HN ES       1049 53.72                             133   -0.10 9  144 259 
 PTB  HZ I        1049 59.54         3.2 0.56            134            144 259 
 SPBC HZ EP   1   1049 34.55                             130    0.09 7  160 218 
 SML  HZ EP       1049 42.41                             118   -0.33 8  243 336 
 SML  HN ES       1050 11.70                             118    0.36 8  243 336 
 SML  HZ I        1050 15.57         4.0 0.10            121            243 336 
                                                                                
