 2015  817 1556 15.2 L   6.785 -73.144150.0  RSN  9 0.3 2.0LRSN                1
 GAP=137        0.78       2.8     3.6  5.6 -0.1245E+01  0.5437E+01  0.1001E+01E
 Epicentro: LOS SANTOS - SANTANDER                                             3
 ACTION:UPD 15-09-15 23:02 OP:cam  STATUS:               ID:20150817155615 L   I
 OLDACT:REG 15-08-17 21:21 OP:spq  STATUS:               ID:20150817154747     3
 2015-08-17-1547-47M.COL___325                                                 6
 STAT SP IPHASW D HRMM SECON CODA AMPLIT PERI AZIMU VELO AIN AR TRES W  DIS CAZ7
 BAR2 EZ EP       1556 35.30                             171    0.0110 21.7 191 
 BAR2 EZ ES   1   1556 50.48                             171   -0.49 7 21.7 191 
 BAR2 EZ I        1556 51.50        33.5 0.10            168           21.7 191 
 BRR  HZ EP       1556 37.12                             153    0.2810 72.2 300 
 BRR  HN ES       1556 54.35                             153    0.6110 72.2 300 
 BRR  HZ I        1556 56.55        10.6 0.18            148           72.2 300 
 PAM  EZ EP     C 1556 37.99                             151    0.0810 78.6  39 
 PAM  EE ES       1556 55.43                             151   -0.2210 78.6  39 
 PAM  EZ I        1556 57.56        12.4 0.62            147           78.6  39 
 RUS  HZ EP       1556 39.21                             145   -0.0210 98.9 176 
 RUS  HN ES   1   1556 57.85                             145   -0.14 7 98.9 176 
 RUS  HZ I        1556 58.92        11.2 0.28            138           98.9 176 
 OCA  HN ES   1   1557  6.77                             130    0.33 7  162 353 
 OCA  HZ I        1557  9.94        20.4 0.32            124            162 353 
 SPBC HZ EP       1556 44.01                             130    0.11 9  162 219 
 SPBC HN ES       1557  6.25                             130   -0.04 9  162 219 
 SPBC HZ I        1557  8.76        19.5 0.22            123            162 219 
 ZAR  HZ EP       1556 47.59                             123   -0.40 9  205 293 
 ZAR  HE ES       1557 12.92                             123   -0.66 9  205 293 
 ZAR  HZ I        1557 18.50         5.4 0.15            117            205 293 
 NOR  HE ES       1557 19.34                             120    0.27 8  234 235 
 NOR  HZ I        1557 22.56         8.6 0.18            113            234 235 
 SML  HN ES   1   1557 21.09                             118   -0.02 6  245 335 
 SML  HZ I        1557 24.20         9.8 0.10            112            245 335 
                                                                                
