 2011 1217 1539  4.5 L   6.794 -73.098150.4  RSN 21 0.4 3.4LRSN                1
 GAP=105        0.56       2.0     3.3  3.9 -0.2577E+01  0.2003E+01  0.1596E+01E
 Epicentro: LOS SANTOS - SANTANDER                                             3
 ACTION:UPD 12-07-13 16:16 OP:ep   STATUS:               ID:20111217153904 L   I
 2011-12-17-1538-59S.COL___186                                                 6
 STAT SP IPHASW D HRMM SECON CODA AMPLIT PERI AZIMU VELO AIN AR TRES W  DIS CAZ7
 BAR2 SZ IP       1539 24.52                             171   -0.1510 24.2 203 
 BAR2 SZ ES   2   1539 40.02                             171   -0.41 5 24.2 203 
 BAR2 SZ I        1539 41.37      1001.7 0.30                          24.2 203 
 GIR2 SZ IP       1539 24.63                             167   -0.1110 33.2 342 
 GIR2 SZ ES   2   1539 40.55                             167    0.00 5 33.2 342 
 PAM  SZ IP       1539 27.35                             152    0.3310 74.7  36 
 PAM  SE ES   2   1539 44.82                             152    0.21 5 74.7  36 
 BRR  HZ IP     C 1539 26.41                             152    0.0210 76.1 297 
 BRR  HZ I        1539 26.73       954.3 0.18                          76.1 297 
 BRR  HN ES   2   1539 43.76                             152    0.26 5 76.1 297 
 RUS  HZ IP     D 1539 28.33                             145   -0.2810 99.7 179 
 RUS  HN ES   2   1539 46.78                             145   -0.67 5 99.7 179 
 RUS  HZ I        1539 48.49       306.4 0.44                          99.7 179 
 BRI  SZ IP       1539 29.09                             143    0.3810  107  18 
 BRI  SZ ES   2   1539 48.36                             143    0.73 5  107  18 
 OCA  SZ EP       1539 32.93                             130   -0.33 9  162 351 
 OCA  SZ ES   2   1539 55.59                             130   -0.14 5  162 351 
 OCA  SZ I        1540  7.09       377.2 0.38                           162 351 
 YOP  SZ EP   2   1539 34.80                             128    0.23 4  176 155 
 YOP  SN ES   2   1539 58.38                             128    0.33 4  176 155 
 NOR  SZ EP   1   1539 40.60                             119   -0.28 6  239 235 
 NOR  SN ES   2   1540  8.77                             119   -0.52 4  239 235 
 CHI  HZ EP       1539 42.39                             118   -0.12 8  249 196 
 CHI  HN ES   2   1540 12.34                             118    0.16 4  249 196 
 CHI  HZ I        1540 19.70        95.6 0.58                           249 196 
 ROSC BZ EP   1   1539 43.84                             117    0.76 6  255 212 
 ROSC BN ES   2   1540 13.67                             117    0.47 4  255 212 
 ROSC BZ I        1540 22.26       250.3 0.48                           255 212 
 CVER SZ EP   1   1539 45.73                             116    0.51 6  274 203 
 CVER SZ ES   2   1540 16.39                             116   -0.62 4  274 203 
 HEL  HZ EP   2   1539 45.46                             115    0.00 4  277 256 
 HEL  HN ES   2   1540 17.63                             115    0.19 4  277 256 
 HEL  HZ I        1540 23.18        84.0 0.33                           277 256 
 VIL  SZ EP   2   1539 48.17                             113    0.02 4  304 193 
 VIL  SN ES   2   1540 21.76                             113   -0.46 4  304 193 
 VIL  SZ I        1540 33.03        74.3 0.70                           304 193 
 GUY  SN ES   2   1540 23.73                             113    0.00 4  307 236 
 GUY  SZ I        1540 31.88       182.5 0.40                           307 236 
 RREF HZ EP   1   1539 51.46                             111    0.24 5  325 230 
 RREF HN ES   2   1540 27.72                             111    0.04 3  325 230 
 RREF HZ I        1540 32.92       115.1 0.49                           325 230 
 TOL  SZ EP   2   1539 53.81                             110    0.53 3  347 225 
 TOL  SZ ES   2   1540 31.56                             110    0.20 3  347 225 
 COD  HZ EP   2   1539 52.33                             110   -0.83 3  349 354 
 COD  HN ES   2   1540 30.66                             110   -0.49 3  349 354 
 COD  HZ I        1540 41.05       142.9 0.50                           349 354 
 SDV  BZ EP   1   1539 53.78                             109   -0.49 5  357  50 
 SDV  BZ I        1540 34.24        35.2 0.45                           357  50 
 PRA  HZ EP   1   1539 57.94                             107   -0.45 4  394 210 
 PRA  HN ES   2   1540 40.57                             107    0.12 3  394 210 
 SJA  SZ ES   2   1540 42.36                             107    0.39 3  401 194 
                                                                                
