 2017 1017 1557 10.2 L   6.575 -73.200 20.4  RSN  9 0.5 2.1LRSN                1
 GAP=125        1.20       2.5     3.8  3.6  0.1345E+01  0.8574E+01  0.2093E+01E
 Epicentro: CABRERA - SANTANDER                                                3
 ACTION:UPD 17-11-07 19:33 OP:rebc STATUS:               ID:20171017155710 L   I
 OLDACT:UP  17-10-17 23:26 OP:edw  STATUS:               ID:20171017154526     3
 OLDACT:UP  17-10-17 23:18 OP:edw  STATUS:               ID:20171017154526     3
 OLDACT:REG 17-10-17 20:51 OP:edw  STATUS:               ID:20171017154526     3
 2017-10-17-1548-00M.COL___431                                                 6
 STAT SP IPHASW D HRMM SECON CODA AMPLIT PERI AZIMU VELO AIN AR TRES W  DIS CAZ7
 BAR2 EZ EP       1557 14.23                             172    0.3210 2.76  45 
 BAR2 EZ ES       1557 17.25                             172    0.4310 2.76  45 
 BAR2 EZ I        1557 18.81       659.9 0.52            177           2.76  45 
 RUS  HZ EP       1557 22.86                             103   -0.3110 76.5 170 
 RUS  HN ES       1557 32.43                             103   -0.8710 76.5 170 
 RUS  HZ I        1557 33.32        57.4 0.28            104           76.5 170 
 BRR  HZ EP     C 1557 23.27                             102   -0.1410 81.7 316 
 BRR  HN ES       1557 33.62                             102   -0.1010 81.7 316 
 BRR  HZ I        1557 33.91        34.5 0.28            103           81.7 316 
 PAM  EZ EP       1557 27.01                             100    0.2010  101  33 
 PAM  EN ES       1557 39.58                             100   -0.2010  101  33 
 PAM  EZ I        1557 39.91        90.4 0.18            101            101  33 
 PTB  HZ EP       1557 31.32                              56   -0.11 9  139 268 
 PTB  HN ES       1557 47.27                              56   -0.73 9  139 268 
 PTB  HZ I        1557 48.38        35.9 0.14             56            139 268 
 ZAR  HZ EP   2   1557 40.10                              56   -0.12 4  209 299 
 ZAR  HE ES       1558  3.53                              56   -0.12 8  209 299 
 NOR  HZ EP       1557 41.62                              56    0.52 8  216 239 
 NOR  HN ES       1558  5.88                              56    0.67 8  216 239 
 NOR  HZ I        1558  9.03        13.4 0.24             56            216 239 
 CHI  HZ EP   4   1557 44.02                              56    1.61 0  223 195 
 CHI  HE ES       1558  8.56                              56    1.01 8  223 195 
 GUY2CHZ EP   4   1557 51.80                              55    1.91 0  282 238 
 GUY2CHN ES   4   1558 23.57                              55    2.70 0  282 238 
 GUY2CHZ I        1558 28.98         3.3 0.22                           282 238 
                                                                                
