 2011  617 1411  7.3 L   6.823 -73.140141.5  RSN 11 0.5 2.9LRSN                1
 GAP=136        1.05       4.2     7.0  8.0 -0.1104E+02  0.1408E+02  0.4646E+01E
 Epicentro: LOS SANTOS - SANTANDER                                             3
 ACTION:UP  11-07-14 19:06 OP:ep   STATUS:               ID:20110617141107 L   I
 2011-06-17-1409-32S.COL___132                                                 6
 STAT SP IPHASW D HRMM SECON CODA AMPLIT PERI AZIMU VELO SNR AR TRES W  DIS CAZ7
 BAR2 SZ EP       1411 26.41                             169    -0.110   26 190 
 BAR2 SZ ES   1   1411 40.78                             169    -0.7 7   26 190 
 BAR2 SZ I        1411 47.09       116.4 0.18                            26 190 
 GIR2 SZ EP   1   1411 26.36                             168     0.0 7   29 348 
 BRR  HZ EP       1411 28.21                             152     0.210   71 296 
 BRR  HE ES   1   1411 45.03                             152     1.0 7   71 296 
 BRR  HZ I        1411 48.64       152.6 0.10                            71 296 
 PAM  SZ EP       1411 29.34                             151     0.410   75  40 
 PAM  SN ES   1   1411 45.97                             151     0.2 7   75  40 
 RUS  HZ EP   1   1411 30.40                             142    -0.4 7  103 177 
 RUS  HE ES   1   1411 49.32                             142     0.1 7  103 177 
 RUS  HZ I        1411 50.91        77.1 0.20                           103 177 
 OCA  SZ EP   1   1411 34.87                             129    -0.2 7  158 353 
 OCA  SZ ES   1   1411 55.73                             129    -1.0 7  158 353 
 OCA  SZ I        1412  2.25       163.2 0.36                           158 353 
 NOR  SZ EP   1   1411 42.89                             117    -0.1 6  237 234 
 NOR  SN ES   1   1412 10.29                             117    -0.6 6  237 234 
 CHI  HZ EP   1   1411 44.95                             116    -0.1 6  251 195 
 CHI  HE ES   1   1412 14.66                             116     0.2 6  251 195 
 CHI  HZ I        1412 19.76        39.1 0.33                           251 195 
 ROSC BE ES   1   1412 15.16                             116    -0.1 6  255 211 
 ROSC BZ I        1412 22.46       120.2 0.39                           255 211 
 RREF HE ES   1   1412 29.38                             110    -0.2 5  324 229 
 RREF HZ I        1412 38.98        53.1 0.50                           324 229 
 TOL  SZ EP   1   1411 56.46                             108     0.8 5  346 224 
                                                                                
