 2017  317 1159 42.2 L   6.807 -73.118144.3  RSN 14 0.5 2.6LRSN                1
 GAP=140        1.03       3.4     3.7  5.5 -0.2491E+01  0.4824E+01  0.3251E+01E
 Epicentro: LOS SANTOS - SANTANDER                                             3
 ACTION:UPD 17-05-25 18:41 OP:jn   STATUS:               ID:20170317115942 L   I
 OLDACT:UP  17-03-17 23:39 OP:dnl  STATUS:               ID:20170317115743     3
 OLDACT:REG 17-03-17 21:20 OP:dnl  STATUS:               ID:20170317115743     3
 2017-03-17-1158-00M.COL___403                                                 6
 STAT SP IPHASW D HRMM SECON CODA AMPLIT PERI AZIMU VELO AIN AR TRES W  DIS CAZ7
 BAR2 EZ IP     C 12 0  1.58                             170   -0.0910 24.8 197 
 BAR2 EZ ES       12 0 16.42                             170   -0.4510 24.8 197 
 BAR2 EZ I        12 0 18.04       113.2 0.22            166           24.8 197 
 BRR  HZ EP       12 0  3.42                             152    0.1110 73.5 297 
 BRR  HN ES       12 0 20.38                             152    0.6010 73.5 297 
 BRR  HZ I        12 0 23.53        41.1 0.32            149           73.5 297 
 PAM  EZ IP     D 12 0  4.34                             151    0.2410 74.9  38 
 PAM  EZ EP       12 0  4.41                             151    0.3110 74.9  38 
 PAM  EE ES       12 0 21.40                             151    0.2210 74.9  38 
 PAM  EZ I        12 0 23.54        59.4 0.50            156           74.9  38 
 RUS  HZ IP     C 12 0  5.57                             143   -0.2710  101 178 
 RUS  HN ES       12 0 24.17                             143   -0.1210  101 178 
 RUS  HZ I        12 0 25.25        26.2 0.40            143            101 178 
 PTB  HZ EP       12 0  8.28                             131   -1.04 9  151 259 
 PTB  HE ES       12 0 30.14                             131   -0.34 9  151 259 
 PTB  HZ I        12 0 36.55        23.9 0.16            130            151 259 
 SPBC HZ EP       12 0 10.61                             128   -0.21 9  166 220 
 SPBC HE ES       12 0 33.57                             128    0.43 9  166 220 
 SPBC HZ I        12 0 35.95        49.4 0.10            127            166 220 
 ZAR  HZ EP   2   12 0 14.93                             122    0.13 4  207 292 
 ZAR  HE ES       12 0 39.69                             122   -0.54 8  207 292 
 ZAR  HZ I        12 0 45.61        38.6 0.34            122            207 292 
 CHI  HZ EP       12 0 19.93                             117   -0.05 8  250 196 
 CHI  HE ES       12 0 49.43                             117   -0.02 8  250 196 
 CHI  HZ I        12 0 56.19        18.5 0.56            117            250 196 
 ROSC BZ EP   9   12 0 22.22                             116    1.75 0  255 212 
 ROSC BN ES       12 0 52.19                             116    0.11 8  255 212 
 ROSC BZ I        12 0 58.39        28.8 0.40            116            255 212 
 HEL  HZ EP   4   12 0 23.85                             114    1.18 0  275 256 
 HEL  HN ES       12 0 54.58                             114    0.33 8  275 256 
 HEL  HZ I        12 1  0.60        16.2 0.40            114            275 256 
 GUY2CHZ EP   2   12 0 26.23                             112    0.17 4  304 235 
 GUY2CHE ES       12 1  1.30                             112    1.02 7  304 235 
 GUY2CHZ  IAML    12 1  8.18        17.4 0.50                           304 235 
 DBB  EZ EP       12 0 30.08                             109    0.14 7  342 274 
 DBB  EN ES   4   12 1  4.86                             109   -2.33 0  342 274 
 DBB  EZ I        12 1 10.64         8.8 0.20            109            342 274 
 ANIL HZ EP   4   12 0 33.89                             108    1.64 0  360 225 
 ANIL HN ES       12 1 10.65                             108   -0.64 6  360 225 
 ANIL HZ I        12 1 21.78        36.1 0.44            108            360 225 
 PRA  HZ EP   2   12 0 35.58                             106   -0.33 3  394 210 
 PRA  HE ES       12 1 18.90                             106    1.08 6  394 210 
 PRA  HZ I        12 1 22.51        22.1 0.70            107            394 210 
                                                                                
