 2017  417 1926 56.8 L   6.777 -73.097119.2  RSN  6 0.4 1.7LRSN                1
 GAP=241        1.04       6.1     6.1  8.5  0.1247E+02  0.1177E+02  0.7385E+01E
 Epicentro: LOS SANTOS - SANTANDER                                             3
 ACTION:UPD 17-05-30 21:13 OP:jn   STATUS:               ID:20170417192656 L   I
 OLDACT:DUP 17-04-17 23:42 OP:cog  STATUS:               ID:20170417191103d    3
 2017-04-17-1918-00M.COL___374                                                 6
 STAT SP IPHASW D HRMM SECON CODA AMPLIT PERI AZIMU VELO AIN AR TRES W  DIS CAZ7
 BAR2 EZ EP       1927 13.56                             169    0.3610 22.5 205 
 BAR2 EZ ES       1927 25.30                             169   -0.7010 22.5 205 
 BAR2 EZ I        1927 29.72        19.3 0.26            171           22.5 205 
 BRR  HZ EP       1927 15.62                             145    0.0910 77.2 298 
 BRR  HN ES       1927 30.72                             145    0.5610 77.2 298 
 BRR  HZ I        1927 36.66        11.0 0.39            149           77.2 298 
 RUS  HZ EP       1927 17.93                             138    0.1410 97.8 179 
 RUS  HN ES   3   1927 35.21                             138    1.03 2 97.8 179 
 RUS  HZ I        1927 36.89         6.1 0.32            145           97.8 179 
 PTB  HZ EP       1927 21.71                             124   -0.50 9  153 260 
 PTB  HN ES       1927 42.36                             124    0.32 9  153 260 
 PTB  HZ I        1927 43.88         6.7 0.30            130            153 260 
 SPBC HN ES       1927 44.40                             122   -0.02 9  165 221 
 ZAR  HE ES       1927 52.39                             115   -0.50 8  210 292 
                                                                                
