 2012  217 1404 26.2 L   6.744 -73.188138.0  RSN  5 0.3 1.5LRSN                1
 GAP=228        0.54       6.1     4.9  6.7  0.1732E+02  0.4058E+01 -0.9564E+01E
 ACTION:UP  12-03-07 16:31 OP:epov STATUS:               ID:20120217140426 L   I
 2012-02-17-1400-00M.COL___188                                                 6
 STAT SP IPHASW D HRMM SECON CODA AMPLIT PERI AZIMU VELO AIN AR TRES W  DIS CAZ7
 BAR2 SZ EP   1   14 4 44.46                             173   -0.31 7 16.8 178 
 BAR2 SZ ES   1   14 4 59.34                             173    0.08 7 16.8 178 
 BAR2 SZ I        14 5  0.77         7.4 0.21                          16.8 178 
 BRR  HZ EP   1   14 4 46.37                             151   -0.10 7 70.5 305 
 BRR  HZ I        14 4 48.38         8.7 0.19                          70.5 305 
 RUS  HZ EP   1   14 4 48.74                             144   -0.03 7 94.8 173 
 RUS  HN ES   1   14 5  6.59                             144    0.22 7 94.8 173 
 RUS  HZ I        14 5  8.36         4.4 0.30                          94.8 173 
 PTB  HZ EP   1   14 4 52.30                             131    0.28 7  142 261 
 PTB  HN ES   1   14 5 11.74                             131   -0.42 7  142 261 
 ZAR  HN ES   1   14 5 23.09                             121    0.36 6  202 294 
                                                                                
