 2013  817 1709 42.1 L   6.750 -73.151143.5  RSN  9 0.4 2.0LRSN                1
 GAP=138        0.96       4.0     4.6  7.4 -0.7442E+00  0.5419E+01  0.2637E+01E
 Epicentro: LOS SANTOS - SANTANDER                                             3
 ACTION:UPD 14-01-14 09:04 OP:ep   STATUS:               ID:20130817170942 L   I
 OLDACT:REG 13-08-17 17:33 OP:jn   STATUS:               ID:20130817170851     3
 2013-08-17-1708-51M.COL___205                                                 6
 STAT SP IPHASW D HRMM SECON CODA AMPLIT PERI AZIMU VELO AIN AR TRES W  DIS CAZ7
 BAR2 SZ EP       1710  1.41                             172    0.0010 17.8 191 
 BAR2 SZ ES       1710 15.98                             172   -0.4510 17.8 191 
 BAR2 SZ I        1710 17.90        30.5 0.42            170           17.8 191 
 BRR  HZ IP     C 1710  3.31                             151    0.1210 73.5 302 
 BRR  HN ES       1710 20.39                             151    0.8010 73.5 302 
 BRR  HZ I        1710 26.51        17.4 0.32            149           73.5 302 
 PAM  SZ EP       1710  4.30                             149   -0.1110 82.0  37 
 PAM  SN ES       1710 21.42                             149   -0.3510 82.0  37 
 PAM  SZ I        1710 23.99        15.6 0.50            153           82.0  37 
 RUS  HZ EP       1710  5.36                             145    0.0710 95.1 175 
 RUS  HN ES   1   1710 23.85                             145    0.52 7 95.1 175 
 RUS  HZ I        1710 24.82        10.4 0.24            147           95.1 175 
 PTB  HN ES   1   1710 29.01                             132   -0.57 7  146 261 
 PTB  HZ I        1710 33.14        13.4 0.16            131            146 261 
 ZAR  HN ES   1   1710 39.87                             122   -0.07 6  206 294 
 ZAR  HZ I        1710 45.89        16.9 0.24            122            206 294 
 NOR  HN ES   1   1710 44.05                             118   -0.77 6  231 235 
 NOR  HZ I        1710 49.65         9.7 0.38            119            231 235 
 CHI  HE ES   1   1710 48.51                             117    0.54 6  243 195 
 CHI  HZ I        1710 52.19         3.1 0.18            119            243 195 
 SML  HN ES   1   1710 48.10                             116    0.06 6  248 336 
                                                                                
