 2012 1217 1737 15.9 L   6.796 -73.151143.8  RSN  9 0.5 2.0LRSN                1
 GAP=136        0.88       4.3     4.8  7.3  0.5869E-01  0.1039E+02  0.2926E+01E
 Epicentro: LOS SANTOS - SANTANDER                                             3
 ACTION:UPD 13-01-04 14:28 OP:ep   STATUS:               ID:20121217173715 L   I
 2012-12-17-1730-00M.COL___242                                                 6
 STAT SP IPHASW D HRMM SECON CODA AMPLIT PERI AZIMU VELO AIN AR TRES W  DIS CAZ7
 BAR2 SZ EP   1   1737 35.34                             171    0.03 7 22.8 189 
 BAR2 SZ ES   1   1737 49.98                             171   -0.45 7 22.8 189 
 BAR2 SZ I        1737 51.29        29.4 0.28                          22.8 189 
 BRR  HZ EP   1   1737 37.20                             152    0.36 7 70.9 299 
 BRR  HE ES   1   1737 54.08                             152    0.92 7 70.9 299 
 PAM  SZ EP   1   1737 38.21                             150    0.24 7 78.1  40 
 PAM  SE ES   1   1737 55.07                             150   -0.11 7 78.1  40 
 PAM  SZ I        1737 57.31        16.2 0.48                          78.1  40 
 RUS  HZ EP   1   1737 39.41                             143   -0.04 7  100 176 
 RUS  HN ES   1   1737 57.75                             143   -0.06 7  100 176 
 RUS  HZ I        1737 59.83        10.6 0.26                           100 176 
 PTB  HZ EP   1   1737 41.70                             132   -0.97 7  147 259 
 PTB  HN ES   1   1738  3.00                             132   -0.53 7  147 259 
 PTB  HZ I        1738  5.79         7.0 0.19                           147 259 
 ZAR  HE ES   1   1738 13.44                             122    0.07 6  204 292 
 ZAR  HZ I        1738 19.50         8.2 0.32                           204 292 
 NOR  HZ EP   1   1737 51.69                             118    0.23 6  234 234 
 NOR  HE ES   1   1738 19.57                             118    0.40 6  234 234 
 NOR  HZ I        1738 24.50         6.2 0.30                           234 234 
 SML  HN ES   1   1738 20.49                             117   -0.46 6  244 335 
 PRA  HZ EP   1   1738  9.98                             106    0.69 4  391 210 
 PRA  HZ I        1738 57.71         6.6 0.32                           391 210 
                                                                                
