 2015  817 1515 14.6 L   6.789 -73.094150.1  RSN 10 0.4 1.8LRSN                1
 GAP=144        0.89       3.7     4.4  6.2 -0.3418E+01  0.8409E+01  0.4288E+00E
 Epicentro: LOS SANTOS - SANTANDER                                             3
 ACTION:UPD 15-09-15 23:02 OP:cam  STATUS:               ID:20150817151514 L   I
 OLDACT:REG 15-08-17 21:19 OP:spq  STATUS:               ID:20150817150748     3
 2015-08-17-1507-48M.COL___334                                                 6
 STAT SP IPHASW D HRMM SECON CODA AMPLIT PERI AZIMU VELO AIN AR TRES W  DIS CAZ7
 BAR2 EZ EP       1515 34.72                             171   -0.0810 23.8 204 
 BAR2 EZ ES   1   1515 51.18                             171    0.65 7 23.8 204 
 BAR2 EZ I        1515 51.51         9.1 0.42            168           23.8 204 
 PAM  EZ EP       1515 37.54                             152    0.3610 74.9  36 
 PAM  EE ES   1   1515 54.22                             152   -0.53 7 74.9  36 
 PAM  EZ I        1515 56.59         5.5 0.60            156           74.9  36 
 BRR  HZ EP     C 1515 36.60                             152    0.0210 76.8 297 
 BRR  HN ES       1515 53.99                             152    0.3010 76.8 297 
 BRR  HZ I        1515 58.76         9.6 0.24            149           76.8 297 
 RUS  HZ EP   1   1515 39.14                             145    0.42 7 99.1 179 
 RUS  HE ES   1   1515 57.13                             145   -0.37 7 99.1 179 
 RUS  HZ I        1515 58.46         5.4 0.44            148           99.1 179 
 SPBC HZ EP       1515 43.59                             130   -0.14 9  166 221 
 SPBC HE ES       1516  6.02                             130   -0.40 9  166 221 
 SPBC HZ I        1516 12.80        15.8 0.28            131            166 221 
 ZAR  HZ EP       1515 47.28                             123   -0.68 8  210 292 
 ZAR  HN ES   1   1516 13.40                             123   -0.55 6  210 292 
 ZAR  HZ I        1516 19.20         8.1 0.64            123            210 292 
 NOR  HN ES       1516 19.16                             119   -0.29 8  239 236 
 NOR  HZ I        1516 22.38         5.3 0.18            120            239 236 
 SML  HE ES   1   1516 21.25                             118    0.30 6  247 334 
 SML  HZ I        1516 24.33        13.5 0.24            120            247 334 
 HEL  HZ EP   1   1515 56.34                             115    0.68 6  277 256 
 HEL  HE ES   1   1516 28.06                             115    0.41 6  277 256 
 HEL  HZ I        1516 33.56         3.5 0.38            116            277 256 
 GUY2CHZ EP   1   1515 58.81                             113   -0.09 5  305 236 
 GUY2CHN ES   1   1516 34.23                             113    0.81 5  305 236 
 GUY2CHZ I        1516 41.86         3.8 0.56                           305 236 
                                                                                
