 2016 1217 1601 29.2 L   6.768 -73.225131.4  RSN  5 0.3 1.6LRSN                1
 GAP=143        0.75       4.2     3.8  5.8 -0.6818E+01  0.8927E+01 -0.1616E+01E
 Epicentro: ZAPATOCA - SANTANDER                                               3
 ACTION:UPD 17-01-11 20:16 OP:rebc STATUS:               ID:20161217160129 L   I
 OLDACT:REG 16-12-17 19:59 OP:edw  STATUS:               ID:20161217155748     3
 2016-12-17-1558-00M.COL___378                                                 6
 STAT SP IPHASW D HRMM SECON CODA AMPLIT PERI AZIMU VELO AIN AR TRES W  DIS CAZ7
 BAR2 EZ EP       16 1 47.17                             171    0.0910 20.0 166 
 BAR2 EZ ES       16 2  1.35                             171    0.3610 20.0 166 
 BAR2 EZ I        16 2  4.41         8.6 0.46            172           20.0 166 
 PAM  EZ IP       16 1 50.28                             145   -0.2310 85.8  43 
 PAM  EE ES       16 2  7.23                             145    0.1210 85.8  43 
 PAM  EZ I        16 2  9.66         7.9 0.46            151           85.8  43 
 RUS  HZ EP       16 1 51.27                             141   -0.1510 98.1 171 
 RUS  HN ES       16 2  8.43                             141   -0.2910 98.1 171 
 RUS  HZ I        16 2 10.79         8.2 0.34            145           98.1 171 
 PTB  HZ EP       16 1 54.20                             130   -0.00 9  138 260 
 PTB  HN ES       16 2 13.17                             130   -0.50 9  138 260 
 PTB  HZ I        16 2 18.85         4.5 0.16            132            138 260 
 NOR  HZ EP       16 2  3.62                             116    0.45 8  226 234 
 NOR  HN ES       16 2 29.98                             116    0.34 8  226 234 
 NOR  HZ I        16 2 37.78         3.1 0.20            119            226 234 
                                                                                
