 2012  417 1932 37.8 L   6.801 -72.994145.8  RSN  6 0.4 1.7LRSN                1
 GAP=157        0.87       5.6     7.4  8.2  0.7495E+01  0.4850E+01  0.1356E+02E
 Epicentro: CEPITA - SANTANDER                                                 3
 ACTION:UPD 12-07-05 11:54 OP:tino STATUS:               ID:20120417193237 L   I
 2012-04-17-1930-00M.COL___189                                                 6
 STAT SP IPHASW D HRMM SECON CODA AMPLIT PERI AZIMU VELO AIN AR TRES W  DIS CAZ7
 BAR2 SZ EP   1   1932 57.71                             167     0.1 7   31 222 
 BAR2 SZ I        1933 15.69        11.5 0.29                            31 222 
 PAM  SZ EP   1   1933  0.19                             154     0.7 7   68  29 
 PAM  SN ES   1   1933 15.86                             154    -0.5 7   68  29 
 BRR  HZ EP       1932 59.62                             148    -0.310   86 293 
 BRR  HN ES       1933 17.13                             148     0.010   86 293 
 BRR  HZ I        1933 19.84        11.8 0.24                            86 293 
 RUS  HZ EP       1933  1.60                             144     0.010  101 186 
 RUS  HE ES   1   1933 20.43                             144     0.3 7  101 186 
 RUS  HZ I        1933 22.99         6.4 0.21                           101 186 
 ZAR  HZ EP   1   1933 12.08                             120     0.2 6  220 290 
 CHI  HZ EP   1   1933 15.47                             117    -0.6 6  254 199 
                                                                                
