 2010  617 1451 10.5 L   6.801 -73.100154.0  RSN  5 0.3 1.6LRSN                1
 GAP=164        0.62       4.3    10.2  8.1 -0.9651E+01 -0.1863E+02 -0.8164E+00E
 Epicentro: LOS SANTOS - SANTANDER                                             3
 ACTION:UP  10-08-24 10:11 OP:vdl  STATUS:               ID:20100617145110 L   I
 2010-06-17-1447-07S.COL___115                                                 6
 STAT SP IPHASW D HRMM SECON CODA AMPLIT PERI AZIMU VELO SNR AR TRES W  DIS CAZ7
 BAR2 SZ IP     C 1451 30.91                             170    -0.210   25 202 
 BAR2 SZ ES   2   1451 46.86                             170    -0.4 5   25 202 
 BRR  HZ EP   1   1451 32.82                             152     0.1 7   76 297 
 BRR  HN ES   2   1451 50.25                             152     0.1 5   76 297 
 BRR  HZ I        1451 52.56        16.8 0.27                            76 297 
 RUS  HZ EP   1   1451 34.79                             145    -0.2 7  100 179 
 RUS  HN ES   2   1451 55.03                             145     0.8 5  100 179 
 RUS  HZ I        1451 56.40         2.7 0.25                           100 179 
 GUE  SZ EP   1   1451 35.90                             141     0.0 7  115  10 
 GUE  SZ ES   2   1451 55.78                             141     0.1 5  115  10 
 GRA  SZ EP   1   1451 36.71                             139     0.4 7  124  15 
 GRA  SZ ES   2   1451 56.14                             139    -0.4 5  124  15 
                                                                                
