 2012  917 1403 27.9 L   6.766 -73.125144.0  RSN  8 0.3 2.3LRSN                1
 GAP=141        0.61       2.7     3.5  4.7  0.9013E-02  0.4589E+01  0.4123E+01E
 Epicentro: LOS SANTOS - SANTANDER                                             3
 ACTION:UPD 12-10-22 14:19 OP:ep   STATUS:               ID:20120917140327 L   I
 2012-09-17-1400-00M.COL___224                                                 6
 STAT SP IPHASW D HRMM SECON CODA AMPLIT PERI AZIMU VELO AIN AR TRES W  DIS CAZ7
 BAR2 SZ EP       14 3 47.42                             172    0.1710 20.2 198 
 BAR2 SZ ES   2   14 4  2.25                             172   -0.10 5 20.2 198 
 BAR2 SZ I        14 4  5.41        53.6 0.37                          20.2 198 
 BRR  HZ EP       14 3 49.10                             151    0.0310 75.0 300 
 BRR  HE ES   1   14 4  6.15                             151    0.56 7 75.0 300 
 BRR  HZ I        14 4 12.32        34.5 0.20                          75.0 300 
 PAM  SZ EP       14 3 50.19                             150    0.1810 78.9  37 
 PAM  SN ES       14 4  7.08                             150   -0.1910 78.9  37 
 PAM  SZ I        14 4  9.74        30.6 0.16                          78.9  37 
 RUS  HZ EP       14 3 51.24                             144    0.0510 96.7 177 
 RUS  HN ES       14 4  9.03                             144   -0.3310 96.7 177 
 PTB  HZ EP   1   14 3 54.39                             131   -0.47 7  149 260 
 PTB  HE ES   2   14 4 15.88                             131   -0.01 5  149 260 
 ZAR  HN ES   1   14 4 25.63                             121   -0.46 6  208 293 
 ZAR  HZ I        14 4 31.84        20.8 0.24                           208 293 
 CHI  HZ EP       14 4  5.37                             117    0.20 8  246 196 
 CHI  HZ I        14 4  8.09         7.2 0.37                           246 196 
 CHI  HN ES   2   14 4 34.50                             117    0.26 4  246 196 
 PRA  HZ EP       14 4 20.94                             106   -0.16 6  390 210 
 PRA  HE ES   1   14 5  3.21                             106    0.60 4  390 210 
                                                                                
