 2015 1217 1202 13.0 L   6.826 -73.174145.7  RSN  5 0.5 1.6LRSN                1
 GAP=206        1.22       7.7     8.9  9.9  0.6104E+01  0.6744E+01 -0.2842E+02E
 Epicentro: ZAPATOCA - SANTANDER                                               3
 ACTION:UPD 16-02-04 15:05 OP:cam  STATUS:               ID:20151217120213 L   I
 OLDACT:UP  15-12-17 23:18 OP:ar   STATUS:               ID:20151217115749     3
 OLDACT:REG 15-12-17 21:20 OP:ar   STATUS:               ID:20151217115749     3
 2015-12-17-1157-49M.COL___334                                                 6
 STAT SP IPHASW D HRMM SECON CODA AMPLIT PERI AZIMU VELO AIN AR TRES W  DIS CAZ7
 BAR2 EZ EP       12 2 33.27                             169    0.5710 25.9 182 
 BAR2 EZ ES       12 2 47.35                             169   -0.7010 25.9 182 
 BAR2 EZ I        12 2 48.35         7.5 0.18            175           25.9 182 
 BRR  HZ EP       12 2 34.36                             154    0.4210 67.1 298 
 BRR  HN ES       12 2 50.90                             154    0.6510 67.1 298 
 BRR  HZ I        12 2 54.12         7.9 0.13            149           67.1 298 
 PTB  HZ EP       12 2 39.44                             132   -0.33 9  145 257 
 PTB  HE ES       12 3  0.31                             132   -0.31 9  145 257 
 PTB  HZ I        12 3  3.93         4.4 0.42            133            145 257 
 ZAR  HN ES   2   12 3 10.62                             123    0.58 4  200 292 
 SML  HZ EP       12 2 49.08                             118   -0.14 8  240 336 
 SML  HN ES       12 3 16.85                             118   -0.60 8  240 336 
 SML  HZ I        12 3 28.28         4.7 0.10            117            240 336 
                                                                                
