 2010  917 1520 41.2 L   6.792 -73.058142.0  RSN 11 0.4 2.6LRSN                1
 GAP=169        0.74       4.0     6.8  6.6 -0.1132E+02  0.9178E+01  0.1388E+01E
 Epicentro: LOS SANTOS - SANTANDER                                             3
 ACTION:UP  11-02-18 11:03 OP:tino STATUS:               ID:20100917152041 L   I
 2010-09-17-1516-52S.COL___121                                                 6
 STAT SP IPHASW D HRMM SECON CODA AMPLIT PERI AZIMU VELO SNR AR TRES W  DIS CAZ7
 BAR2 SZ EP   1   1521  0.28                             169    -0.1 7   26 212 
 BAR2 SZ ES   2   1521 14.65                             169    -0.7 5   26 212 
 BAR2 SZ I        1521 17.42       111.2 0.29                            26 212 
 BTL  SZ EP   1   1521  1.15                             169     0.7 7   27 301 
 GIR2 SZ EP   1   1521  0.35                             165    -0.1 7   35 335 
 GIR2 SZ ES   2   1521 15.86                             165     0.3 5   35 335 
 BRR  HZ EP   1   1521  2.15                             149    -0.3 7   80 296 
 BRR  HE ES   2   1521 19.15                             149     0.1 5   80 296 
 BRR  HZ I        1521 20.54       125.9 0.17                            80 296 
 RUS  HZ EP   1   1521  4.19                             143    -0.3 7  100 182 
 RUS  HN ES   2   1521 22.81                             143     0.2 5  100 182 
 RUS  HZ I        1521 23.66        49.5 0.29                           100 182 
 GUE  SZ EP   1   1521  5.39                             139    -0.1 7  116   7 
 GRA  SZ EP   1   1521  6.09                             137     0.2 7  124  13 
 GRA  SZ ES   2   1521 25.37                             137     0.1 5  124  13 
 GRA  SZ I        1521 26.72        37.1 0.40                           124  13 
 OCA  SZ EP   1   1521  9.03                             128    -0.4 7  163 350 
 OCA  SZ ES   2   1521 31.51                             128     0.1 5  163 350 
 OCA  SZ I        1521 34.20        34.4 0.40                           163 350 
 ROSC BZ EP   1   1521 20.23                             115     0.7 6  257 213 
 ROSC BN ES   2   1521 49.97                             115     0.5 4  257 213 
 ROSC BZ I        1521 55.67        18.7 0.40                           257 213 
 HEL  HZ EP   1   1521 22.30                             113     0.1 6  281 256 
 HEL  HE ES   2   1521 54.56                             113     0.3 4  281 256 
 HEL  HZ I        1521 59.95        19.3 0.59                           281 256 
 RREF HZ EP   1   1521 27.33                             110    -0.6 5  329 231 
 RREF HN ES   2   1522  3.75                             110    -0.6 3  329 231 
 RREF HZ I        1522 13.41        21.9 0.29                           329 231 
                                                                                
