 2017  117 1304 44.9 L   6.830 -73.212138.7  RSN  4 0.2 1.1LRSN                1
 GAP=148        0.60       3.6     3.4  5.2 -0.3864E+01  0.5404E+01 -0.1899E+01E
 Epicentro: ZAPATOCA - SANTANDER                                               3
 ACTION:UPD 17-05-22 16:00 OP:jn   STATUS:               ID:20170117130444 L   I
 OLDACT:REG 17-01-17 20:34 OP:cog  STATUS:               ID:20170117125746     3
 2017-01-17-1258-00M.COL___332                                                 6
 STAT SP IPHASW D HRMM SECON CODA AMPLIT PERI AZIMU VELO AIN AR TRES W  DIS CAZ7
 BAR2 EZ ES       13 5 18.11                             169   -0.3810 26.5 173 
 PAM  EZ IP     C 13 5  6.53                             149   -0.0310 79.8  45 
 PAM  EN ES       13 5 23.62                             149    0.2010 79.8  45 
 PAM  EZ I        13 5 24.89         2.6 0.38            151           79.8  45 
 RUS  HZ EP       13 5  8.31                             141    0.0110  105 172 
 RUS  HE ES       13 5 26.73                             141    0.2010  105 172 
 RUS  HZ I        13 5 29.25         1.3 0.38            142            105 172 
 PTB  HZ EP       13 5 10.53                             132   -0.21 9  141 257 
 PTB  HN ES       13 5 31.10                             132    0.23 9  141 257 
 PTB  HZ I        13 5 33.48         2.4 0.16            133            141 257 
                                                                                
