 2010  617 1108 48.7 L   6.793 -73.049140.4  RSN  9 0.3 2.2LRSN                1
 GAP=167        0.59       2.9     6.6  5.5 -0.9222E+01 -0.1171E+00  0.2081E+01E
 Epicentro: LOS SANTOS - SANTANDER                                             3
 ACTION:UP  10-08-24 10:11 OP:vdl  STATUS:               ID:20100617110848 L   I
 2010-06-17-1106-20S.COL___115                                                 6
 STAT SP IPHASW D HRMM SECON CODA AMPLIT PERI AZIMU VELO SNR AR TRES W  DIS CAZ7
 BAR2 SZ IP       11 9  7.83                             169     0.010   27 214 
 BAR2 SZ ES   2   11 9 22.55                             169    -0.1 5   27 214 
 BRR  HZ EP   1   11 9  9.84                             148    -0.1 7   81 295 
 BRR  HE ES   2   11 9 26.50                             148     0.1 5   81 295 
 BRR  HZ I        11 9 31.09        53.1 0.11                            81 295 
 RUS  HZ EP   1   11 9 11.80                             143    -0.1 7  100 182 
 RUS  HZ I        11 9 12.98        12.9 0.15                           100 182 
 RUS  HE ES   2   11 9 30.10                             143     0.1 5  100 182 
 BRI  SZ IP       11 9 11.52                             141    -0.410  106  15 
 BRI  SZ ES   2   11 9 29.56                             141    -0.4 5  106  15 
 GUE  SZ EP   1   11 9 12.77                             138    -0.1 7  116   7 
 GUE  SZ ES   2   11 9 32.12                             138     0.4 5  116   7 
 GRA  SZ IP       11 9 13.81                             136     0.510  124  13 
 GRA  SZ ES   2   11 9 33.12                             136     0.6 5  124  13 
 OCA  SZ EP   1   11 9 16.76                             128    -0.1 7  163 349 
 OCA  SZ ES   2   11 9 38.40                             128    -0.4 5  163 349 
 OCA  SZ I        11 9 42.48        22.7 0.37                           163 349 
 CHI  HZ EP   1   11 9 26.33                             116    -0.1 6  251 198 
 CHI  HN ES   2   11 9 55.67                             116    -0.1 4  251 198 
 CHI  HZ I        11 9 58.61         6.8 0.53                           251 198 
 TOL  SZ EP   1   11 9 37.89                             108     0.3 5  351 226 
 TOL  SZ ES   2   1110 15.84                             108     0.1 3  351 226 
                                                                                
