 2016 1017 1015  5.1 L   5.995 -73.817111.6  RSN  6 0.4 1.5LRSN                1
 GAP=119        1.14       5.5     3.9  8.4 -0.9211E+01  0.1080E+01 -0.1144E+02E
 Epicentro: BOLIVAR - SANTANDER                                                3
 ACTION:UPD 16-11-09 19:20 OP:rebc STATUS:               ID:20161017101505 L   I
 OLDACT:REG 16-10-17 22:35 OP:ar   STATUS:               ID:20161017100737     3
 2016-10-17-1008-00M.COL___344                                                 6
 STAT SP IPHASW D HRMM SECON CODA AMPLIT PERI AZIMU VELO AIN AR TRES W  DIS CAZ7
 SPBC HZ EP       1015 21.17                             155   -0.2210 47.3 217 
 SPBC HE ES       1015 34.07                             155   -0.0110 47.3 217 
 SPBC HZ I        1015 36.27        17.5 0.10            158           47.3 217 
 RUS  HZ EP       1015 23.64                             141   -0.5610 82.0  98 
 RUS  HN ES       1015 38.92                             141   -0.1510 82.0  98 
 PTB  HZ EP       1015 23.66                             137   -0.7510 92.9 310 
 PTB  HN ES       1015 39.08                             137   -0.3710 92.9 310 
 PTB  HZ I        1015 40.86         4.6 0.14            138           92.9 310 
 BAR2 EZ EP       1015 25.23                             136    0.2210 96.4  47 
 BAR2 EZ ES       1015 40.87                             136    0.3610 96.4  47 
 NOR  HZ EP       1015 27.88                             128    0.4410  126 248 
 NOR  HE ES       1015 45.54                             128    0.7010  126 248 
 NOR  HZ I        1015 46.54         6.2 0.38            130            126 248 
 PAM  EZ EP       1015 35.03                             115   -0.01 9  193  40 
 PAM  EE ES       1015 58.94                             115    0.58 9  193  40 
 PAM  EZ I        1016  2.73         1.9 0.44            117            193  40 
                                                                                
