 2012  717 1054 33.1 L   6.687 -73.198157.9  RSN  5 0.3 1.3LRSN                1
 GAP=221        0.62       7.5     6.9  8.7  0.2792E+02  0.1425E+02  0.2549E+01E
 Epicentro: VILLANUEVA - SANTANDER                                             3
 ACTION:UPD 12-08-14 11:45 OP:ep   STATUS:               ID:20120717105433 L   I
 2012-07-17-1050-00M.COL___196                                                 6
 STAT SP IPHASW D HRMM SECON CODA AMPLIT PERI AZIMU VELO AIN AR TRES W  DIS CAZ7
 BAR2 SZ EP   1   1054 54.13                             176     0.1 7   11 171 
 BAR2 SZ ES   2   1055  9.55                             176    -0.8 5   11 171 
 BAR2 SZ I        1055 10.34         5.2 0.16            174             11 171 
 BRR  HN ES   1   1055 13.59                             154     0.3 7   73 309 
 RUS  HE ES   1   1055 16.24                             149     0.1 7   89 172 
 PTB  HZ EP   1   1055  0.32                             136    -0.1 7  140 263 
 PTB  HN ES   1   1055 21.78                             136     0.1 7  140 263 
 PTB  HZ I        1055 23.41         2.1 0.12            135            140 263 
 ZAR  HE ES   2   1055 31.77                             125    -0.5 4  204 296 
