 2011 1117 1808 43.7 L   6.797 -73.135146.5  RSN 16 0.5 4.4LRSN                1
 GAP=104        0.82       2.6     3.5  4.9  0.3496E+00  0.4399E+01  0.2585E+01E
 Epicentro: LOS SANTOS - SANTANDER                                             3
 Evento Sentido                                                                2
 Reportado como sentido en:                                                    3
 BUCARAMANGA (SANTANDER)                                                       3
 ACTION:UPD 12-07-13 16:10 OP:ep   STATUS:               ID:20111117180843 L   I
 2011-11-17-1807-14S.COL___179                                                 6
 STAT SP IPHASW D HRMM SECON CODA AMPLIT PERI AZIMU VELO AIN AR TRES W  DIS CAZ7
 BAR2 SZ EP       18 9  3.84                             171    0.4010 23.2 193 
 BAR2 SZ ES   1   18 9 18.38                             171   -0.43 7 23.2 193 
 BAR2 SZ I        18 9 19.95      6190.7 0.42                          23.2 193 
 BRR  HZ EP   1   18 9  4.82                             152   -0.20 7 72.4 298 
 BRR  HN ES   1   18 9 22.31                             152    0.68 7 72.4 298 
 BRR  HZ I        18 9 27.82      4414.3 0.19                          72.4 298 
 PAM  SZ EP   1   18 9  5.95                             151   -0.04 7 76.9  39 
 PAM  SZ I        18 9  7.13      5373.3 0.21                          76.9  39 
 PAM  SE ES   1   18 9 23.36                             151    0.01 7 76.9  39 
 RUS  HZ EP   1   18 9  7.44                             144   -0.07 7  100 177 
 RUS  HE ES   1   18 9 25.71                             144   -0.36 7  100 177 
 RUS  HZ I        18 9 27.64      3302.1 0.37                           100 177 
 OCA  SZ EP       18 9 11.69                             130   -0.45 9  161 353 
 OCA  SZ ES   1   18 9 34.07                             130   -0.23 7  161 353 
 OCA  SZ I        18 9 37.77      6680.0 0.35                           161 353 
 YOP  SZ EP   1   18 9 13.72                             127   -0.02 7  178 154 
 YOP  SE ES   1   18 9 37.98                             127    0.84 7  178 154 
 YOP  SZ I        18 9 39.13      1740.3 0.37                           178 154 
 ZAR  HZ EP       18 9 17.14                             122    0.80 8  205 292 
 ZAR  HN ES   1   18 9 41.29                             122   -0.49 6  205 292 
 ZAR  HZ I        18 9 48.03      3989.3 0.49                           205 292 
 NOR  SZ EP   1   18 9 19.58                             119    0.00 6  235 235 
 NOR  SN ES   1   18 9 47.30                             119   -0.24 6  235 235 
 CHI  HZ EP   1   18 9 21.30                             117   -0.16 6  249 195 
 CHI  HN ES   1   18 9 50.92                             117    0.03 6  249 195 
 CHI  HZ I        18 9 55.64       718.2 0.30                           249 195 
 HEL  HZ EP   1   18 9 24.05                             115   -0.04 6  273 256 
 HEL  HE ES   1   18 9 55.30                             115   -0.27 6  273 256 
 HEL  HZ I        1810  2.30      1123.3 0.47                           273 256 
 VIL  SZ EP   1   18 9 27.11                             112   -0.05 5  303 192 
 VIL  SN ES   1   1810  0.79                             112   -0.25 5  303 192 
 VIL  SZ I        1810  5.61       560.6 0.32                           303 192 
 DBB  SZ EP   1   18 9 32.30                             109    0.93 5  341 274 
 SDV  BZ EP   1   18 9 32.83                             108   -0.89 5  360  50 
 SDV  BZ I        1810 14.99       841.8 0.62                           360  50 
 PRA  HZ EP   1   18 9 37.32                             107    0.02 4  392 210 
 PRA  HN ES   1   1810 18.21                             107   -0.88 4  392 210 
 PRA  HZ I        1810 26.79      3003.2 0.29                           392 210 
 PAL  HZ EP   1   18 9 39.94                             106    0.94 4  407 239 
 PAL  HZ I        18 9 42.11       948.5 0.13                           407 239 
 PAL  HN ES   1   1810 21.51                             106   -0.61 4  407 239 
 GUA  SZ EP   1   18 9 46.17                             103   -0.67 4  473 173 
 GUA  SZ ES   1   1810 36.43                             103    0.37 4  473 173 
                                                                                
