 2016  117 1029 20.0 L   6.809 -73.185143.9  RSN 18 0.4 2.2LRSN                1
 GAP= 69        0.98       2.4     2.8  5.1 -0.8178E+00  0.3910E+01  0.7173E+00E
 Epicentro: ZAPATOCA - SANTANDER                                               3
 ACTION:UPD 16-03-09 23:26 OP:cam  STATUS:               ID:20160117102920 L   I
 OLDACT:UP  16-02-23 20:53 OP:AR   STATUS:               ID:20160117102920 L   3
 OLDACT:UP  16-01-17 20:47 OP:drio STATUS:               ID:20160117102746     3
 OLDACT:UP  16-01-17 20:47 OP:drio STATUS:               ID:20160117102746     3
 OLDACT:REG 16-01-17 19:55 OP:drio STATUS:               ID:20160117102746     3
 2016-01-17-1027-46M.COL___313                                                 6
 STAT SP IPHASW D HRMM SECON CODA AMPLIT PERI AZIMU VELO AIN AR TRES W  DIS CAZ7
 BAR2 EZ EP       1029 39.50                             170    0.0410 24.0 179 
 BAR2 EZ ES       1029 54.44                             170   -0.1710 24.0 179 
 BAR2 EZ I        1029 56.22        49.0 0.24            170           24.0 179 
 PAM  EZ EP       1029 42.46                             150    0.2810 79.4  42 
 PAM  EN ES       1029 59.66                             150    0.2110 79.4  42 
 PAM  EZ I        1030  1.73        43.5 0.50            147           79.4  42 
 RUS  HZ EP       1029 43.62                             143   -0.0910  102 174 
 RUS  HE ES       1030  2.36                             143    0.1910  102 174 
 RUS  HZ I        1030  3.66        15.8 0.22            141            102 174 
 PTB  HZ EP       1029 45.64                             132   -0.85 9  144 258 
 PTB  HN ES       1030  6.61                             132   -0.51 9  144 258 
 PTB  HZ I        1030 12.84        15.5 0.34            131            144 258 
 OCA  HZ EP       1029 47.56                             129   -0.51 9  159 355 
 OCA  HN ES       1030  9.84                             129   -0.09 9  159 355 
 OCA  HZ I        1030 18.08        29.4 0.46            127            159 355 
 TAM  HZ EP     D 1029 47.98                             129   -0.01 9  160 105 
 TAM  HZ I        1030  9.68        11.2 0.32            127            160 105 
 TAM  HN ES       1030  9.77                             129   -0.01 9  160 105 
 SPBC HZ EP       1029 48.68                             129    0.46 9  161 218 
 SPBC HN ES       1030  9.92                             129   -0.28 9  161 218 
 SPBC HZ I        1030 15.34        24.8 0.36            127            161 218 
 ZAR  HZ EP       1029 52.60                             123    0.69 9  200 292 
 ZAR  HE ES       1030 17.67                             123    0.90 9  200 292 
 ZAR  HZ I        1030 24.30        22.3 0.38            121            200 292 
 NOR  HZ EP       1029 55.67                             118    0.32 8  232 234 
 NOR  HE ES       1030 22.70                             118   -0.19 8  232 234 
 NOR  HZ I        1030 29.42         7.1 0.28            117            232 234 
 SML  HZ EP       1029 55.69                             117   -0.58 8  241 336 
 SML  HN ES       1030 24.33                             117   -0.20 8  241 336 
 SML  HZ I        1030 27.97        23.3 0.24            115            241 336 
 CHI  HZ EP       1029 57.74                             117    0.12 8  249 194 
 CHI  HN ES       1030 27.36                             117    0.42 8  249 194 
 CHI  HZ I        1030 30.55        12.1 0.52            115            249 194 
 HEL  HZ EP   4   1030  1.82                             115    2.10 0  268 255 
 HEL  HN ES       1030 31.49                             115    0.82 8  268 255 
 HEL  HZ I        1030 38.71         5.2 0.30            113            268 255 
 URE  HZ EP   4   1030  4.18                             114    3.65 0  279 292 
 GUY2CHZ EP   4   1030  4.36                             112    1.13 0  298 234 
 GUY2CHN ES       1030 36.22                             112   -0.70 7  298 234 
 GUY2CHZ I        1030 45.81         5.7 0.36                           298 234 
 PTGC HZ EP   4   1030  2.78                             111   -1.32 0  311 158 
 PTGC HN ES   4   1030 35.91                             111   -2.56 0  311 158 
 LL6C HZ EP   9   1030  4.06                             110   -1.47 0  324 358 
 LL6C HE ES       1030 39.62                             110    0.08 7  324 358 
 PRA  HZ EP       1030 13.47                             106    0.12 6  391 209 
 PRA  HE ES       1030 54.37                             106   -0.57 6  391 209 
 PRA  HZ I        1031  0.78        11.4 0.34            105            391 209 
 ORTC HZ EP       1030 13.86                             106    0.16 6  394 216 
 ORTC HN ES   4   1030 52.29                             106   -3.26 0  394 216 
 ORTC HZ I        1031  1.07         5.0 0.56            105            394 216 
 SJC  HZ EP   4   1030 13.61                             105   -1.56 0  406 327 
 SJC  HE ES   4   1030 55.14                             105   -3.02 0  406 327 
 SJC  HZ I        1031  1.57         4.4 0.58            104            406 327 
 CRJC HZ EP   9   1030 19.61                             103   -2.79 0  467   4 
 CRJC HE ES       1031  8.44                             103    0.19 5  467   4 
                                                                                
