 2017  717 1223 11.6 L   6.763 -73.156145.9  RSN  7 0.4 1.8LRSN                1
 GAP=112        0.98       4.7     4.1  6.1  0.4231E+01  0.3609E+01  0.2271E+01E
 Epicentro: LOS SANTOS - SANTANDER                                             3
 ACTION:UPD 17-08-30 15:34 OP:rebc STATUS:               ID:20170717122311 L   I
 OLDACT:REG 17-07-17 20:57 OP:lv   STATUS:               ID:20170717121741     3
 2017-07-17-1218-00M.COL___380                                                 6
 STAT SP IPHASW D HRMM SECON CODA AMPLIT PERI AZIMU VELO AIN AR TRES W  DIS CAZ7
 BAR2 EZ EP       1223 31.18                             172    0.0110 19.1 189 
 BAR2 EZ ES       1223 46.45                             172    0.0210 19.1 189 
 BAR2 EZ I        1223 48.00        16.1 0.40            171           19.1 189 
 BRR  HZ EP       1223 32.94                             152    0.1110 72.3 302 
 BRR  HN ES       1223 49.93                             152    0.5510 72.3 302 
 BRR  HZ I        1223 50.68        24.0 0.05            151           72.3 302 
 PAM  EZ EP       1223 34.12                             150    0.0510 81.2  38 
 PAM  EN ES       1223 51.16                             150   -0.4310 81.2  38 
 PAM  EZ I        1223 53.32        17.3 0.60            153           81.2  38 
 RUS  HZ EP       1223 35.46                             145    0.3710 96.6 175 
 RUS  HN ES       1223 53.04                             145   -0.3610 96.6 175 
 RUS  HZ I        1223 55.43         3.7 0.28            146           96.6 175 
 PTB  HZ EP       1223 37.94                             132   -0.48 9  146 260 
 PTB  HN ES       1223 59.08                             132   -0.25 9  146 260 
 PTB  HZ I        1224  6.06         5.5 0.24            132            146 260 
 YPLC HZ EP       1223 41.64                             127    0.53 9  174 150 
 ZAR  HZ EP       1223 43.48                             122   -0.63 9  205 293 
 ZAR  HN ES       1224  9.93                             122    0.46 9  205 293 
 ZAR  HZ I        1224 15.20         5.5 0.24            123            205 293 
                                                                                
