 2013  617 1854 24.7 L   6.816 -73.096146.9  RSN  8 0.2 2.0LRSN                1
 GAP=244        0.46       2.5     3.6  3.3  0.3875E+01  0.4152E+01  0.2340E+01E
 Epicentro: LOS SANTOS - SANTANDER                                             3
 ACTION:UPD 14-01-08 09:55 OP:ep   STATUS:               ID:20130617185424 L   I
 OLDACT:REG 13-06-17 17:24 OP:cam  STATUS:               ID:20130617184959     3
 2013-06-17-1849-59M.COL___261                                                 6
 STAT SP IPHASW D HRMM SECON CODA AMPLIT PERI AZIMU VELO AIN AR TRES W  DIS CAZ7
 BAR2 SZ EP       1854 44.28                             169   -0.2010 26.5 201 
 BAR2 SZ ES       1854 59.97                             169    0.0210 26.5 201 
 BAR2 SZ I        1855  2.38        14.5 0.34            161           26.5 201 
 BRR  HZ EP       1854 46.31                             151    0.1510 75.3 295 
 BRR  HE ES       1855  3.10                             151    0.1710 75.3 295 
 BRR  HN ES       1855  3.52                                           75.3 295 
 BRR  HZ I        1855  8.47        14.0 0.16            146           75.3 295 
 RUS  HZ EP   1   1854 48.49                             144   -0.13 7  102 179 
 RUS  HN ES       1855  7.23                             144   -0.0810  102 179 
 RUS  HZ I        1855  8.92         8.2 0.32            143            102 179 
 PTB  HZ EP   4   1854 50.94                             131   -1.29 0  153 259 
 PTB  HN ES   4   1855 12.22                             131   -1.52 0  153 259 
 PTB  HZ I        1855 19.60        16.5 0.44            128            153 259 
 ZAR  HZ EP   1   1854 57.71                             122    0.08 6  209 291 
 ZAR  HE ES   1   1855 22.97                             122   -0.39 6  209 291 
 ZAR  HZ I        1855 29.08        12.2 0.28            121            209 291 
 NOR  HZ EP   1   1855  1.13                             118    0.10 6  240 235 
 NOR  HN ES   1   1855 29.28                             118   -0.13 6  240 235 
 NOR  HZ I        1855 34.60         8.4 0.22            117            240 235 
 CHI  HZ EP   1   1855  2.59                             117   -0.16 6  252 196 
 CHI  HZ I        1855  5.28         3.4 0.48            117            252 196 
 CHI  HE ES   1   1855 33.03                             117    0.56 6  252 196 
 PRA  HZ EP   1   1855 19.04                             106    0.34 4  396 210 
 PRA  HN ES   1   1856  0.60                             106   -0.26 4  396 210 
 PRA  HZ I        1856  7.11         3.7 0.66            107            396 210 
                                                                                
