 2014 1017 1335  7.9 L   6.695 -73.205135.8  RSN 16 0.6 2.3LRSN                1
 GAP=130        1.25       3.2     4.7  6.6 -0.2062E+01  0.7859E+01  0.1271E+01E
 Epicentro: VILLANUEVA - SANTANDER                                             3
 ACTION:UPD 14-11-29 23:50 OP:nd   STATUS:               ID:20141017133507 L   I
 OLDACT:REG 14-10-17 20:55 OP:fm   STATUS:               ID:20141017132748     3
 2014-10-17-1327-48M.COL___283                                                 6
 STAT SP IPHASW D HRMM SECON CODA AMPLIT PERI AZIMU VELO AIN AR TRES W  DIS CAZ7
 BAR2 SZ EP       1335 26.29                             175    0.1910 11.7 168 
 BAR2 SZ ES   1   1335 40.54                             175    0.21 7 11.7 168 
 BAR2 SZ I        1335 41.57        42.0 0.34            174           11.7 168 
 BRR  HZ EP     C 1335 28.45                             150    0.4510 72.2 309 
 BRR  HN ES       1335 44.30                             150    0.5810 72.2 309 
 BRR  HZ I        1335 48.26        29.8 0.46            149           72.2 309 
 RUS  HZ EP       1335 29.87                             145    0.0110 89.8 171 
 RUS  HN ES       1335 46.94                             145   -0.0710 89.8 171 
 RUS  HZ I        1335 49.11        25.0 0.22            145           89.8 171 
 PAM  SZ EP       1335 30.26                             145    0.3610 90.5  38 
 PAM  SN ES       1335 47.18                             145    0.0810 90.5  38 
 PAM  SZ I        1335 48.65        52.4 0.26            148           90.5  38 
 PTB  HZ EP       1335 32.41                             131   -0.86 9  139 263 
 PTB  HE ES       1335 52.19                             131   -0.89 9  139 263 
 PTB  HZ I        1335 54.08        26.9 0.12            130            139 263 
 SPBC HZ EP       1335 34.04                             129   -0.31 9  150 220 
 SPBC HN ES       1335 54.94                             129   -0.08 9  150 220 
 SPBC HZ I        1335 56.93        38.7 0.74            129            150 220 
 OCA  HZ EP   1   1335 36.13                             125   -0.36 7  171 356 
 OCA  HN ES       1335 57.98                             125   -0.84 9  171 356 
 OCA  HZ I        1336  0.50        30.5 0.20            127            171 356 
 ZAR  HZ EP       1335 40.00                             120    0.46 9  203 296 
 ZAR  HE ES       1336  4.92                             120    0.66 9  203 296 
 ZAR  HZ I        1336  9.23        28.7 0.50            120            203 296 
 CHI  HZ EP       1335 44.21                             116    0.60 8  236 194 
 CHI  HN ES       1336 11.27                             116   -0.23 8  236 194 
 CHI  HZ I        1336 17.54         7.3 0.76            117            236 194 
 ROSC BN ES       1336 11.47                             116   -0.70 8  239 211 
 ROSC BZ I        1336 21.59        16.6 0.35            116            239 211 
 SML  HZ EP       1335 44.00                             114   -0.84 8  252 338 
 SML  HE ES   4   1336 11.69                             114   -1.99 0  252 338 
 SML  HZ I        1336 19.43        28.0 0.10            115            252 338 
 HEL  HZ EP   1   1335 47.51                             114    0.94 6  263 258 
 HEL  HE ES   1   1336 17.69                             114    0.92 6  263 258 
 HEL  HZ I        1336 22.84        15.4 0.34            114            263 258 
 URE  HZ EP   1   1335 48.04                             112   -0.26 6  282 295 
 URE  HN ES   4   1336 17.81                             112   -2.04 0  282 295 
 URE  HZ I        1336 21.82         9.8 0.16            112            282 295 
 RREF HZ EP   4   1335 48.88                             110   -3.27 0  309 230 
 RREF HN ES   4   1336 23.36                             110   -3.34 0  309 230 
 RREF HZ I        1336 27.80         6.6 0.60            110            309 230 
 TOL  SZ EP       1335 55.10                             108    0.86 7  331 225 
 TOL  SN ES   4   1336 32.07                             108    1.65 0  331 225 
 TOL  SZ I        1336 35.31        16.0 0.20            109            331 225 
 ANIL HZ EP   4   1336  5.02                             107    9.22 0  345 225 
 ANIL HE ES   4   1336 34.57                             107    1.37 0  345 225 
 PRA  HZ EP   1   1335 59.52                             105    0.03 5  379 210 
 PRA  HN ES   4   1336 38.12                             105   -1.64 0  379 210 
 PRA  HZ I        1336 45.70         5.8 0.30            106            379 210 
 SJC  HZ EP   4   1336  1.54                             104   -2.32 0  416 329 
                                                                                
