 2014 1217 1024 29.2 L   6.782 -73.151140.7  RSN 10 0.5 1.6LRSN                1
 GAP=137        1.23       3.7     5.0  7.4 -0.2582E+01  0.1072E+02  0.3132E+01E
 Epicentro: LOS SANTOS - SANTANDER                                             3
 ACTION:UPD 15-02-10 17:04 OP:nd   STATUS:               ID:20141217102429 L   I
 OLDACT:DUP 14-12-17 21:41 OP:fm   STATUS:               ID:20141217101746d    3
 2014-12-17-1017-45M.COL___290                                                 6
 STAT SP IPHASW D HRMM SECON CODA AMPLIT PERI AZIMU VELO AIN AR TRES W  DIS CAZ7
 BAR2 EZ EP       1024 48.61                             171    0.4610 21.3 189 
 BAR2 EZ ES       1025  3.27                             171    0.3110 21.3 189 
 BAR2 EZ I        1025  6.29         9.3 0.22            171           21.3 189 
 BRR  HZ EP       1024 50.19                             151    0.3910 71.7 300 
 BRR  HE ES       1025  6.53                             151    0.6410 71.7 300 
 BRR  HZ I        1025  7.56        11.5 0.50            149           71.7 300 
 PAM  SZ EP       1024 51.43                             149    0.4710 79.3  39 
 PAM  SE ES       1025  7.25                             149   -0.7210 79.3  39 
 PAM  SZ I        1025 10.97         4.5 0.34            151           79.3  39 
 RUS  HE ES       1025  9.90                             143   -0.4110 98.6 176 
 PTB  HZ EP       1024 55.17                             131   -0.47 9  147 260 
 PTB  HN ES       1025 16.12                             131   -0.17 9  147 260 
 PTB  HZ I        1025 18.13         3.9 0.48            130            147 260 
 SPBC HZ EP       1024 57.59                             128    0.49 9  161 219 
 SPBC HN ES       1025 18.74                             128   -0.14 9  161 219 
 SPBC HZ I        1025 21.59         6.5 0.22            128            161 219 
 OCA  HE ES       1025 18.64                             128   -0.55 9  162 353 
 OCA  HZ I        1025 25.20         6.7 0.32            128            162 353 
 ZAR  HZ EP       1025  1.84                             121    0.53 9  204 293 
 ZAR  HN ES       1025 26.06                             121   -0.32 9  204 293 
 ZAR  HZ I        1025 36.66         2.8 0.28            121            204 293 
 NOR  HE ES       1025 31.46                             118   -0.48 8  233 235 
 NOR  HZ I        1025 41.01         2.1 0.14            118            233 235 
 CHI  HZ EP       1025  5.51                             116   -0.85 8  247 195 
 CHI  HN ES       1025 35.80                             116    0.43 8  247 195 
 CHI  HZ I        1025 41.10         1.4 0.46            117            247 195 
                                                                                
