 2017  517 1351 54.1 L   6.863 -73.314128.1  RSN 11 0.5 2.3LRSN                1
 GAP=111        1.22       4.3     4.0  8.4  0.2699E+01  0.5197E+01  0.1717E+02E
 Epicentro: BETULIA - SANTANDER                                                3
 ACTION:UPD 17-06-16 13:36 OP:jn   STATUS:               ID:20170517135154 L   I
 OLDACT:REG 17-05-17 19:45 OP:lv   STATUS:               ID:20170517134739     3
 2017-05-17-1348-00M.COL___350                                                 6
 STAT SP IPHASW D HRMM SECON CODA AMPLIT PERI AZIMU VELO AIN AR TRES W  DIS CAZ7
 BRR  HZ IP     C 1352 12.18                             157   -0.0710 51.5 302 
 BRR  HN ES       1352 26.28                             157   -0.1410 51.5 302 
 BRR  HZ I        1352 28.02        30.7 0.29            156           51.5 302 
 PAM  EZ EP       1352 14.80                             144   -0.2310 86.0  52 
 PAM  EN ES       1352 31.37                             144   -0.0110 86.0  52 
 PTB  HZ EP       1352 17.13                             131   -0.9810  131 254 
 SPBC HZ EP       1352 21.27                             126    0.50 9  158 212 
 SPBC HN ES       1352 41.36                             126   -0.22 9  158 212 
 SPBC HZ I        1352 44.18        31.4 0.12            125            158 212 
 ZAR  HZ EP       1352 23.76                             121    0.43 9  184 292 
 ZAR  HN ES       1352 46.84                             121    0.70 9  184 292 
 ZAR  HZ I        1352 50.48        46.1 0.31            122            184 292 
 YPLC HZ EP       1352 24.82                             120    0.54 9  192 147 
 YPLC HN ES       1352 48.28                             120    0.45 9  192 147 
 YPLC HZ I        1352 51.26        44.6 0.43            121            192 147 
 NOR  HZ EP       1352 28.00                             116    0.31 8  224 230 
 NOR  HN ES       1352 53.48                             116   -0.42 8  224 230 
 NOR  HZ I        1353  0.05        17.1 0.30            116            224 230 
 CHI  HZ EP       1352 31.69                             113    0.53 8  251 191 
 CHI  HE ES       1353  0.69                             113    0.61 8  251 191 
 CHI  HZ I        1353  7.76         7.6 0.11            114            251 191 
 HEL  HZ EP       1352 30.95                             112   -0.68 8  256 253 
 HEL  HN ES   4   1353  3.47                             112    2.56 0  256 253 
 HEL  HZ I        1353  6.17         9.7 0.42            113            256 253 
 PTGC HZ EP       1352 38.16                             107   -0.63 7  322 156 
 PTGC HE ES       1353 12.70                             107   -0.97 7  322 156 
 ARGC HE ES   4   1353 13.07                             106   -5.68 0  347 343 
 ORTC HZ EP   4   1352 49.75                             103    2.88 0  391 213 
 ORTC HN ES   4   1353 32.66                             103    4.62 0  391 213 
 ORTC HZ I        1353 36.01         3.1 0.28            104            391 213 
 SJC  HZ EP   4   1352 45.88                             103   -1.35 0  393 329 
 SJC  HN ES   4   1353 20.27                             103   -8.42 0  393 329 
                                                                                
