 2016  317 1203 59.7 L   7.250 -74.134  5.7  RSN  9 0.3 2.4LRSN                1
 GAP=111        0.81       2.0     1.5  3.9 -0.1992E+00  0.1076E+01  0.3761E+01E
 Epicentro: PUERTO WILCHES - SANTANDER                                         3
 ACTION:UPD 16-05-13 21:25 OP:cam  STATUS:               ID:20160317120359 L   I
 OLDACT:REG 16-03-17 20:37 OP:cara STATUS:               ID:20160317115751     3
 2016-03-17-1157-51M.COL___291                                                 6
 STAT SP IPHASW D HRMM SECON CODA AMPLIT PERI AZIMU VELO AIN AR TRES W  DIS CAZ7
 ZAR  HZ EP     D 12 4 13.26                              91    0.1910 84.3 289 
 ZAR  HN ES       12 4 23.43                              91   -0.0710 84.3 289 
 ZAR  HZ I        12 4 24.41       163.9 0.14             47           84.3 289 
 PTB  HZ EP     C 12 4 13.40                              91    0.0410 86.2 204 
 PTB  HN ES       12 4 23.75                              91   -0.2810 86.2 204 
 PTB  HZ I        12 4 24.09       126.3 0.40             47           86.2 204 
 BAR2 EZ EP       12 4 20.31                              91    0.4210  128 125 
 BAR2 EZ ES       12 4 35.36                              91   -0.3010  128 125 
 BAR2 EZ I        12 4 36.10        70.5 0.26             47            128 125 
 OCA  HZ EP       12 4 22.01                              91    0.12 9  142  39 
 OCA  HN ES       12 4 38.80                              91   -0.41 9  142  39 
 OCA  HZ I        12 4 40.88       183.2 0.16             47            142  39 
 PAM  EZ EP       12 4 25.21                              91    0.38 9  159  86 
 PAM  EZ I        12 4 25.82        94.7 0.14             47            159  86 
 PAM  EN ES       12 4 44.02                              91   -0.42 9  159  86 
 RUS  HZ EP     D 12 4 29.77                              56    0.66 9  190 142 
 RUS  HN ES       12 4 52.08                              56    0.02 9  190 142 
 RUS  HZ I        12 4 53.69        39.7 0.66             37            190 142 
 HEL  HZ EP       12 4 29.39                              56   -0.05 9  194 233 
 HEL  HE ES       12 4 52.22                              56   -0.43 9  194 233 
 HEL  HZ I        12 4 56.32        25.3 0.20             37            194 233 
 NOR  HZ EP       12 4 30.51                              56    0.23 9  203 204 
 NOR  HN ES       12 4 53.68                              56   -0.47 9  203 204 
 NOR  HZ I        12 4 56.43        22.8 0.18             37            203 204 
 GUY2CHZ EP       12 4 38.32                              56    0.19 8  262 211 
 GUY2CHE ES       12 5  8.48                              56    0.36 8  262 211 
 GUY2CHZ I        12 5 18.47        11.5 0.50                           262 211 
                                                                                
