 2010  917 2026  7.0 L   6.813 -73.049140.8  RSN  4 0.1 1.6LRSN                1
 GAP=175        0.44       4.1     8.0  6.2  0.1865E+02 -0.2759E+02 -0.1284E+02E
 Epicentro: LOS SANTOS - SANTANDER                                             3
 ACTION:UP  11-02-18 11:03 OP:tino STATUS:               ID:20100917202607 L   I
 2010-09-17-2022-44S.COL___121                                                 6
 STAT SP IPHASW D HRMM SECON CODA AMPLIT PERI AZIMU VELO SNR AR TRES W  DIS CAZ7
 BAR2 SZ EP   1   2026 26.18                             168     0.0 7   29 211 
 BAR2 SZ ES   1   2026 40.92                             168    -0.2 7   29 211 
 BAR2 SZ I        2026 42.21        13.5 0.29                            29 211 
 BRR  HZ EP   1   2026 27.95                             149    -0.2 7   80 294 
 BRR  HZ I        2026 28.14        30.3 0.02                            80 294 
 BRR  HE ES   1   2026 44.86                             149     0.2 7   80 294 
 RUS  HZ EP   1   2026 30.40                             142     0.0 7  102 182 
 RUS  HN ES   1   2026 48.72                             142     0.1 7  102 182 
 RUS  HZ I        2026 51.24         3.7 0.36                           102 182 
 GUE  SZ EP   1   2026 31.12                             139     0.1 7  113   7 
 GUE  SZ I        2026 44.57         1.5 0.10                           113   7 
                                                                                
