 2017  917 2325 34.0 L   6.852 -73.308117.6  RSN  4 0.4 1.1LRSN                1
 GAP=212        0.91       9.4    10.3  7.1  0.8435E+02  0.2167E+02  0.1192E+02E
 Epicentro: ZAPATOCA - SANTANDER                                               3
 ACTION:UPD 17-10-05 19:13 OP:rebc STATUS:               ID:20170917232534 L   I
 OLDACT:DUP 17-09-18 06:12 OP:dhb  STATUS:               ID:20170917231742d    3
 OLDACT:REG 17-09-18 02:47 OP:dhb  STATUS:               ID:20170917231740     3
 2017-09-17-2318-00M.COL___409                                                 6
 STAT SP IPHASW D HRMM SECON CODA AMPLIT PERI AZIMU VELO AIN AR TRES W  DIS CAZ7
 BAR2 EZ IP     D 2325 50.42                             164   -0.0710 32.0 154 
 BAR2 EZ ES       2326  2.94                             164   -0.4310 32.0 154 
 BAR2 EZ I        2326  4.84         4.4 0.13            163           32.0 154 
 BRR  HZ IP     C 2325 50.92                             154   -0.1310 52.8 302 
 BRR  HN ES       2326  4.90                             154    0.5310 52.8 302 
 BRR  HZ I        2326  4.99         5.5 0.39            155           52.8 302 
 RUS  HZ EP       2325 55.75                             134   -0.0510  109 167 
 RUS  HN ES       2326 13.06                             134    0.2410  109 167 
 RUS  HZ I        2326 14.12         1.7 0.29            135            109 167 
 ZAR  HZ EP       2326  3.13                             118    0.42 9  185 293 
 ZAR  HE ES       2326 24.58                             118   -0.54 9  185 293 
                                                                                
