 2011  917 2232 55.2 L   6.945 -73.178132.0  RSN  6 0.3 1.7LRSN                1
 GAP=124        0.52       5.2     5.6  6.6  0.2897E+01  0.1160E+02 -0.5133E+01E
 Epicentro: BETULIA - SANTANDER                                                3
 ACTION:UPD 12-07-13 15:58 OP:ep   STATUS:               ID:20110917223255 L   I
 2011-09-17-2229-26S.COL___171                                                 6
 STAT SP IPHASW D HRMM SECON CODA AMPLIT PERI AZIMU VELO AIN AR TRES W  DIS CAZ7
 BTL  SZ EP   1   2233 12.93                             175    0.01 7 10.4 253 
 BAR2 SZ EP   1   2233 13.20                             163   -0.40 7 39.0 181 
 BAR2 SZ ES   1   2233 28.29                             163    0.31 7 39.0 181 
 BAR2 SZ I        2233 29.67        22.1 0.15                          39.0 181 
 PAM  SZ EP   2   2233 15.35                             152   -0.03 5 68.5  50 
 PAM  SN ES   2   2233 31.17                             152    0.02 5 68.5  50 
 RUS  HZ EP   1   2233 18.85                             137   -0.05 7  117 175 
 RUS  HZ I        2233 39.01         2.3 0.29                           117 175 
 OCA  SZ EP   2   2233 20.91                             130    0.05 5  144 354 
 OCA  SZ I        2233 41.08         5.8 0.19                           144 354 
 ZAR  HZ EP   2   2233 26.53                             121    0.73 4  195 288 
 ZAR  HN ES   2   2233 49.29                             121   -0.42 4  195 288 
 ZAR  HZ I        2233 55.01        10.9 0.16                           195 288 
                                                                                
