 2016  817 2106 32.1 L   6.814 -73.130142.3  RSN  5 0.2 1.6LRSN                1
 GAP=279        0.54       4.5     3.2  4.6 -0.7178E+00  0.4475E+01 -0.2009E+01E
 Epicentro: LOS SANTOS - SANTANDER                                             3
 ACTION:UPD 16-10-29 15:36 OP:rebc STATUS:               ID:20160817210632 L   I
 OLDACT:DUP 16-08-18 04:06 OP:cara STATUS:               ID:20160817205760d    3
 2016-08-17-2057-59S.COL___346                                                 6
 STAT SP IPHASW D HRMM SECON CODA AMPLIT PERI AZIMU VELO AIN AR TRES W  DIS CAZ7
 BAR2 EZ EP       21 6 51.37                             169    0.0510 25.2 193 
 BAR2 HN ES       21 7  6.51                             169    0.1710 25.2 193 
 BAR2 EZ I        21 7  8.17         9.4 0.38                          25.2 193 
 RUS  HZ EP       21 6 55.64                             143    0.0510  102 177 
 RUS  HN ES       21 7 13.61                             143   -0.3210  102 177 
 RUS  HZ I        21 7 15.13         2.6 0.26                           102 177 
 PTB  HZ EP       21 6 58.63                             131   -0.31 9  150 258 
 PTB  HE ES       21 7 19.84                             131   -0.06 9  150 258 
 PTB  HZ I        21 7 25.70         4.8 0.52                           150 258 
 SPBC HZ EP       21 7  0.79                             128    0.27 9  166 219 
 SPBC HE ES       21 7 22.92                             128    0.20 9  166 219 
 SPBC HZ I        21 7 25.04         7.1 0.26                           166 219 
 NOR  HE ES       21 7 35.73                             117   -0.03 8  237 234 
 NOR  HZ I        21 7 43.36         3.3 0.16                           237 234 
                                                                                
