 2016  717 2041 11.7 L   6.404 -73.535112.8  RSN 13 0.4 1.9LRSN                1
 GAP= 77        0.92       2.3     2.7  5.2 -0.2390E+00  0.6623E+01  0.1389E+01E
 Epicentro: SANTA HELENA DEL OPON - SANTANDER                                  3
 ACTION:UPD 17-03-29 16:52 OP:lp   STATUS:               ID:20160717204112dL   I
 OLDACT:UP  16-07-18 03:33 OP:edw  STATUS:               ID:20160717203759     3
 OLDACT:REG 16-07-18 02:57 OP:edw  STATUS:               ID:20160717203759     3
 2016-07-17-2037-59S.COL___319                                                 6
 STAT SP IPHASW D HRMM SECON CODA AMPLIT PERI AZIMU VELO AIN AR TRES W  DIS CAZ7
 BAR2 EZ EP       2041 28.19                             157    0.0510 44.2  62 
 BAR2 EZ ES       2041 41.46                             157    0.4910 44.2  62 
 RUS  HZ EP       2041 29.75                             144   -0.6310 75.5 138 
 RUS  HN ES       2041 44.75                             144   -0.2210 75.5 138 
 BRR  HZ EP       2041 29.95                             142   -0.0810 80.2 346 
 BRR  HN ES       2041 44.51                             142    0.1710 80.2 346 
 BRR  HZ I        2041 47.18        13.0 0.12            145           80.2 346 
 SPBC HZ EP       2041 31.59                             135   -0.3610  102 216 
 SPBC HN ES       2041 47.79                             135    0.0410  102 216 
 SPBC HZ I        2041 53.07        11.2 0.10            136            102 216 
 PTB  HZ EP       2041 30.98                             134   -0.9310  103 278 
 PTB  HE ES       2041 47.52                             134   -0.1710  103 278 
 PTB  HZ I        2041 50.42        14.3 0.10            135            103 278 
 PAM  EN ES       2041 55.05                             126    0.27 9  139  42 
 NOR  HZ EP       2041 39.51                             118    0.47 9  174 238 
 NOR  HN ES       2042  0.59                             118    0.21 9  174 238 
 NOR  HZ I        2042  6.26         9.3 0.24            120            174 238 
 ZAR  HZ EP       2041 40.45                             116   -0.14 9  189 310 
 ZAR  HN ES       2042  3.28                             116    0.14 9  189 310 
 ZAR  HZ I        2042  8.76        16.9 0.32            119            189 310 
 CHI  HN ES       2042  5.61                             115   -0.04 9  197 186 
 HEL  HZ EP       2041 45.29                             112    0.62 8  222 264 
 HEL  HE ES       2042 10.15                             112   -0.26 8  222 264 
 HEL  HZ I        2042 13.60         5.3 0.48            114            222 264 
 GUY2CHZ EP       2041 47.35                             110    0.36 8  241 237 
 GUY2CHE ES       2042 14.94                             110    0.42 8  241 237 
 GUY2CHZ I        2042 21.12         3.1 0.24                           241 237 
 URE  HZ EP       2041 49.32                             108   -0.01 8  266 304 
 URE  HE ES       2042 18.43                             108   -0.26 8  266 304 
 PRA  HZ EP       2041 57.63                             103    0.41 7  333 207 
 PRA  HE ES       2042 32.95                             103    0.21 7  333 207 
 PRA  HZ I        2042 38.68         5.8 0.32            106            333 207 
                                                                                
