 2011  917 2311 56.4 L   6.766 -73.114146.9  RSN  5 0.2 1.7LRSN                1
 GAP=192        0.39       5.5    15.5  5.5  0.5445E+02 -0.2224E+01 -0.1004E+02E
 Epicentro: LOS SANTOS - SANTANDER                                             3
 ACTION:UPD 12-07-13 15:58 OP:ep   STATUS:               ID:20110917231156 L   I
 2011-09-17-2308-42S.COL___171                                                 6
 STAT SP IPHASW D HRMM SECON CODA AMPLIT PERI AZIMU VELO AIN AR TRES W  DIS CAZ7
 BAR2 SZ EP   1   2312 16.10                             172   -0.01 7 20.6 202 
 BAR2 SZ ES   1   2312 31.49                             172    0.00 7 20.6 202 
 BAR2 SZ I        2312 32.63        21.9 0.12                          20.6 202 
 BTL  SZ EP   2   2312 15.67                             170   -0.50 5 24.0 315 
 GIR2 SZ EP   1   2312 16.51                             166    0.18 7 35.7 346 
 BRR  HZ EP   1   2312 17.99                             151    0.04 7 76.1 300 
 RUS  HZ EP   1   2312 19.99                             145    0.02 7 96.6 178 
 RUS  HN ES   1   2312 38.36                             145   -0.01 7 96.6 178 
 RUS  HZ I        2312 39.90         3.4 0.24                          96.6 178 
                                                                                
