 2011  317 2253 44.0 L   6.775 -73.146133.4  RSN  9 0.4 1.9LRSN                1
 GAP=159        1.07       6.2    11.5 13.0 -0.3903E+02  0.7815E+02 -0.7693E+01E
 Epicentro: LOS SANTOS - SANTANDER                                             3
 ACTION:UP  11-06-16 14:34 OP:jfem STATUS:               ID:20110317225344 L   I
 2011-03-17-2250-38S.COL___134                                                 6
 STAT SP IPHASW D HRMM SECON CODA AMPLIT PERI AZIMU VELO SNR AR TRES W  DIS CAZ7
 BAR2 SZ IP       2254  2.33                             171     0.310   21 192 
 BAR2 SZ ES   2   2254 16.08                             171    -0.1 5   21 192 
 BAR2 SZ I        2254 18.44        32.8 0.21                            21 192 
 BTL  SZ EP       2254  1.46                             171    -0.610   21 320 
 GIR2 SZ EP       2254  2.48                             165     0.210   34 351 
 RUS  HZ EP   2   2254  6.24                             142    -0.1 5   98 176 
 RUS  HN ES   2   2254 23.90                             142     0.2 5   98 176 
 RUS  HZ I        2254 26.12        10.4 0.25                            98 176 
 GRA  SZ EP   1   2254  8.27                             133    -0.1 7  128  17 
 GRA  SZ ES   1   2254 27.46                             133     0.1 7  128  17 
 GRA  SZ I        2254 28.90        23.0 0.37                           128  17 
 NOR  SZ EP   1   2254 18.78                             116    -0.1 6  233 235 
 NOR  SN ES   1   2254 45.52                             116    -0.5 6  233 235 
 NOR  SZ I        2254 50.21         1.5 0.25                           233 235 
 CHI  HZ EP   1   2254 19.88                             115    -0.8 6  246 195 
 CHI  HN ES   1   2254 49.92                             115     0.6 6  246 195 
 CHI  HZ I        2254 55.89         4.1 0.25                           246 195 
 HEL  HZ EP       2254 24.22                             112     0.7 8  271 256 
 HEL  HZ I        2255  2.91         7.1 0.29                           271 256 
 MON  HZ I        2254 37.19         3.9 0.26                           354 309 
 MON  HE ES   4   2255  6.48                                    -4.2 0  354 309 
                                                                                
