 2014 1117 2030 51.3 L   6.779 -73.139147.4  RSN 10 0.4 2.3LRSN                1
 GAP=237        0.89       4.1     5.0  5.4  0.1475E+01  0.8023E+01  0.6532E+01E
 Epicentro: LOS SANTOS - SANTANDER                                             3
 ACTION:UPD 14-12-19 15:44 OP:nd   STATUS:               ID:20141117203051 L   I
 OLDACT:UP  14-11-18 09:17 OP:cam  STATUS:               ID:20141117202814     3
 OLDACT:REG 14-11-18 04:20 OP:cam  STATUS:               ID:20141117202814     3
 2014-11-17-2028-14M.COL___289                                                 6
 STAT SP IPHASW D HRMM SECON CODA AMPLIT PERI AZIMU VELO AIN AR TRES W  DIS CAZ7
 BAR2 SZ EP     D 2031 10.98                             171   -0.1310 21.2 193 
 BAR2 SZ ES       2031 26.26                             171   -0.2810 21.2 193 
 BAR2 SZ I        2031 27.54        89.5 0.30            162           21.2 193 
 BRR  HZ IP     C 2031 12.80                             152    0.0510 73.0 300 
 BRR  HN ES       2031 30.10                             152    0.6410 73.0 300 
 BRR  HZ I        2031 30.95        26.5 0.36            146           73.0 300 
 RUS  HZ EP     D 2031 14.89                             145   -0.1810 98.2 176 
 RUS  HN ES       2031 33.67                             145    0.0810 98.2 176 
 RUS  HZ I        2031 34.61        34.8 0.24            142           98.2 176 
 PTB  HZ EP       2031 17.92                             132   -0.54 9  148 260 
 PTB  HN ES   4   2031 38.42                             132   -1.19 0  148 260 
 PTB  HZ I        2031 44.18        21.0 0.34            128            148 260 
 SPBC HZ EP       2031 19.91                             130    0.08 9  162 220 
 SPBC HN ES       2031 41.89                             130   -0.17 9  162 220 
 SPBC HZ I        2031 44.38        37.1 0.32            126            162 220 
 NOR  HZ EP       2031 26.70                             119   -0.38 8  234 235 
 NOR  HN ES       2031 54.70                             119   -0.26 8  234 235 
 NOR  HZ I        2032  0.43        11.3 0.34            117            234 235 
 CHI  HZ EP       2031 29.08                             118    0.18 8  247 195 
 CHI  HN ES       2031 58.60                             118    0.40 8  247 195 
 CHI  HZ I        2032  3.92         8.6 0.30            117            247 195 
 HEL  HZ EP   4   2031 33.10                             115    1.46 0  272 256 
 HEL  HN ES       2032  2.87                             115   -0.22 8  272 256 
 HEL  HZ I        2032 18.55         6.0 0.56            113            272 256 
 TOL  SZ EP       2031 40.77                             110    1.25 7  342 225 
 TOL  SN ES   4   2032 18.44                             110    1.33 0  342 225 
 TOL  SZ I        2032 25.31        19.8 0.28            109            342 225 
 PRA  HZ EP       2031 44.63                             107   -0.09 6  390 210 
 PRA  HN ES       2032 26.47                             107    0.11 6  390 210 
 PRA  HZ I        2032 32.90         9.7 0.38            107            390 210 
                                                                                
