 2010  317 2302 43.2 L   6.768 -73.057152.9  RSN  4 0.0 1.6LRSN                1
 GAP=244        0.30       2.3     3.6  3.5  0.3747E+01  0.5649E+00  0.4444E+00E
 Epicentro: LOS SANTOS - SANTANDER                                             3
 ACTION:UP  10-08-24 09:54 OP:vdl  STATUS:               ID:20100317230243 L   I
 2010-03-17-2300-46S.COL___098                                                 6
 STAT SP IPHASW D HRMM SECON CODA AMPLIT PERI AZIMU VELO SNR AR TRES W  DIS CAZ7
 BAR2 SZ EP   2   23 3  3.72                             171     0.0 5   24 216 
 BRR  HZ EP       23 3  5.67                             150     0.010   82 297 
 BRR  HN ES       23 3 23.29                             150     0.010   82 297 
 RUS  HZ EP   1   23 3  7.43                             146     0.0 7   97 182 
 RUS  HN ES       23 3 26.26                             146     0.010   97 182 
 RUS  HZ I        23 3 27.40         4.4 0.38                            97 182 
 RREF BN ES   1   23 4  6.96                             112     0.0 5  327 231 
 RREF BZ I        23 4 13.16         2.3 0.40                           327 231 
                                                                                
