 2011  717 2003  5.4 L   6.760 -73.077133.6  RSN  5 0.2 1.2LRSN                1
 GAP=147        0.48       4.2     5.5  7.7  0.1409E+01 -0.1137E+02  0.6286E+01E
 Epicentro: LOS SANTOS - SANTANDER                                             3
 ACTION:UPD 12-07-25 14:01 OP:epov STATUS:               ID:20110717200305 L   I
 2011-07-17-1959-09S.COL___143                                                 6
 STAT SP IPHASW D HRMM SECON CODA AMPLIT PERI AZIMU VELO AIN AR TRES W  DIS CAZ7
 BAR2 SZ EP   2   20 3 23.50                             170   -0.03 5 21.9 212 
 BAR2 SZ I        20 3 24.30         3.5 0.07                          21.9 212 
 BTL  SZ EP       20 3 23.82                             168    0.1610 27.4 310 
 PAM  SZ EP   1   20 3 26.36                             149    0.09 7 76.4  33 
 PAM  SE ES   2   20 3 42.35                             149   -0.20 5 76.4  33 
 BRR  HZ EP   1   20 3 25.34                             147   -0.46 7 80.0 299 
 BRR  HZ I        20 3 26.15         5.4 0.10                          80.0 299 
 BRR  HN ES   1   20 3 41.85                             147    0.14 7 80.0 299 
 RUS  HZ EP   1   20 3 27.78                             142    0.16 7 95.9 180 
 RUS  HE ES   2   20 3 44.73                             142   -0.23 5 95.9 180 
 RUS  HZ I        20 3 47.81         1.5 0.32                          95.9 180 
                                                                                
