 2016 1217 2244 10.7 L   6.793 -73.164142.8  RSN 23 0.4 2.8LRSN                1
 GAP= 64        1.02       2.9     2.8  4.7 -0.2080E+00  0.3769E+01  0.2750E+01E
 Epicentro: LOS SANTOS - SANTANDER                                             3
 ACTION:UPD 17-01-11 20:16 OP:rebc STATUS:               ID:20161217224410 L   I
 OLDACT:REG 16-12-18 03:38 OP:lv   STATUS:               ID:20161217223749     3
 2016-12-17-2238-00M.COL___387                                                 6
 STAT SP IPHASW D HRMM SECON CODA AMPLIT PERI AZIMU VELO AIN AR TRES W  DIS CAZ7
 BAR2 EZ EP       2244 29.82                             171   -0.1210 22.3 185 
 BAR2 EZ ES       2244 44.95                             171   -0.0110 22.3 185 
 BAR2 EZ I        2244 47.59       250.0 0.31            166           22.3 185 
 BRR  HZ IP     C 2244 31.60                             152    0.1610 69.8 300 
 BRR  HN ES       2244 48.55                             152    0.9310 69.8 300 
 BRR  HZ I        2244 52.56       123.8 0.30            152           69.8 300 
 PAM  EZ IP     C 2244 32.61                             150   -0.0910 79.2  40 
 PAM  EE ES       2244 49.77                             150   -0.1010 79.2  40 
 PAM  EZ I        2244 52.40        57.0 0.34            158           79.2  40 
 RUS  HZ EP       2244 33.79                             143   -0.3210  100 175 
 RUS  HN ES       2244 52.35                             143   -0.0210  100 175 
 RUS  HZ I        2244 53.94        88.6 0.26            143            100 175 
 PTB  HZ EP       2244 36.55                             132   -0.67 9  146 259 
 PTB  HN ES       2244 57.08                             132   -0.84 9  146 259 
 PTB  HZ I        2245  4.83        47.0 0.31            131            146 259 
 TAM  HZ IP     C 2244 38.26                             129   -0.04 9  157 105 
 TAM  HE ES       2244 59.86                             129    0.03 9  157 105 
 TAM  HZ I        2245  1.43        49.4 0.50            135            157 105 
 ZAR  HZ EP       2244 42.84                             122    0.06 9  202 293 
 ZAR  HN ES       2245  7.58                             122   -0.23 9  202 293 
 ZAR  HZ I        2245 13.67        75.6 0.44            123            202 293 
 NOR  HZ EP       2244 45.97                             118   -0.06 8  233 234 
 NOR  HN ES       2245 12.76                             118   -0.83 8  233 234 
 NOR  HZ I        2245 19.97        36.8 0.20            119            233 234 
 CHI  HZ EP       2244 48.24                             117    0.15 8  247 195 
 CHI  HN ES       2245 17.72                             117    0.46 8  247 195 
 CHI  HZ I        2245 23.74        39.4 0.32            118            247 195 
 ROSC BZ EP   9   2244 49.65                             116    1.18 0  251 211 
 ROSC BN ES       2245 19.99                                    0.88 8  251 211 
 GUY2CHZ EP       2244 54.51                             112    0.58 7  299 235 
 GUY2CHE ES   4   2245 29.34                             112    1.69 0  299 235 
 GUY2CHZ I        2245 38.17        37.6 0.57                           299 235 
 VIL  EZ EP       2244 53.72                             111   -0.13 7  302 191 
 VIL  EN ES       2245 27.95                             111    0.44 7  302 191 
 VIL  EZ I        2245 37.02        73.7 0.40            113            302 191 
 PTGC HZ EP   9   2244 53.09                             111   -1.33 0  309 158 
 PTGC HN ES       2245 26.62                                   -0.58 7  309 158 
 PTGC HZ I        2245 29.00        27.1 0.40            113            309 158 
 LL6C HZ EP   4   2244 36.03                             110   -20.3 0  326 358 
 LL6C HN ES   4   2245  9.71                             110   -22.2 0  326 358 
 LL6C HZ I        2245 17.32        17.8 0.48            113            326 358 
 ELA  HZ EP   4   2244 59.39                             110    2.20 0  327 229 
 ELA  HN ES       2245 34.38                             110    0.93 7  327 229 
 ELA  HZ I        2245 44.66        23.8 0.28            111            327 229 
 CBOC HZ EP       2244 57.72                             109    0.48 7  331 252 
 CBOC HE ES       2245 33.85                             109    0.31 7  331 252 
 CBOC HZ I        2245 43.30        11.6 0.42            111            331 252 
 ANIL HZ EP       2244 59.69                             108   -0.47 6  355 224 
 ANIL HN ES   4   2245 40.49                             108    1.75 0  355 224 
 ANIL HZ I        2245 47.03        86.9 0.32            109            355 224 
 ARGC HZ EP   4   2245  2.32                             108    2.08 0  359 341 
 ARGC HE ES       2245 39.32                             108    0.44 6  359 341 
 ORTC HZ EP       2245  4.55                             106    0.25 6  394 216 
 ORTC HN ES   4   2245 47.49                             106    1.37 0  394 216 
 ORTC HZ I        2245 54.96        24.4 0.48            107            394 216 
 PAL  HZ EP       2245  5.52                             105    0.01 6  404 239 
 PAL  HN ES       2245 48.33                             105    0.07 6  404 239 
 PAL  HZ I        2245 54.56         8.0 0.36            107            404 239 
 SJC  HZ EP   4   2245  4.02                             105   -2.08 0  409 327 
 SJC  HN ES   4   2245 44.93                             105   -4.39 0  409 327 
 SJC  HZ I        2245 59.34        13.4 0.42            107            409 327 
 CRJC HZ EP   4   2245 10.24                             103   -2.97 0  468   4 
 CRJC HN ES   4   2245 57.27                             103   -4.71 0  468   4 
 CRJC HZ I        2246  2.51        18.3 0.40            105            468   4 
 GARC HZ EP       2245 24.90                             100   -0.79 3  571 207 
 GARC HN ES   4   2246 21.28                             100   -2.91 0  571 207 
                                                                                
