 2013  717 2027  8.9 L   6.799 -73.187148.2  RSN  5 0.2 1.5LRSN                1
 GAP=132        0.54       3.5     3.4  5.6  0.1616E+01 -0.4905E+01 -0.2154E+01E
 Epicentro: ZAPATOCA - SANTANDER                                               3
 ACTION:UPD 13-08-12 10:38 OP:ep   STATUS:               ID:20130717202708 L   I
 OLDACT:REG 13-07-17 22:23 OP:stll STATUS:               ID:20130717201847     3
 2013-07-17-2018-47M.COL___230                                                 6
 STAT SP IPHASW D HRMM SECON CODA AMPLIT PERI AZIMU VELO AIN AR TRES W  DIS CAZ7
 GIR2 SZ EP       2027 28.75                             168   -0.1410 30.9 359 
 BRR  HN ES       2027 46.87                             154    0.2010 67.3 300 
 PAM  SZ EP       2027 31.49                             150   -0.1010 80.4  42 
 RUS  HZ EP       2027 33.31                             144    0.3610  101 173 
 RUS  HN ES       2027 51.52                             144   -0.1610  101 173 
 RUS  HN I        2027 53.09         4.7 0.38            144            101 173 
 PTB  HZ EP       2027 35.63                             133   -0.08 9  143 259 
 PTB  HN ES       2027 56.49                             133   -0.10 9  143 259 
                                                                                
