 2014 1017 2259 21.1 L   6.797 -73.192139.6  RSN  7 0.6 1.9LRSN                1
 GAP=131        1.63       6.8     7.8 10.2 -0.1212E+02  0.1516E+02 -0.4379E+01E
 Epicentro: ZAPATOCA - SANTANDER                                               3
 ACTION:UPD 14-11-29 23:50 OP:nd   STATUS:               ID:20141017225921 L   I
 OLDACT:DUP 14-10-18 08:40 OP:stll STATUS:               ID:20141017225749d    3
 2014-10-17-2257-47M.COL___277                                                 6
 STAT SP IPHASW D HRMM SECON CODA AMPLIT PERI AZIMU VELO AIN AR TRES W  DIS CAZ7
 BAR2 SZ EP       2259 40.33                             170    0.3810 22.7 177 
 BAR2 SZ ES       2259 54.29                             170   -0.3810 22.7 177 
 BAR2 SZ I        2259 56.45        21.8 0.26            168           22.7 177 
 BRR  HZ EP       2259 41.92                             153    0.6110 66.9 301 
 BRR  HN ES       2259 58.32                             153    1.2110 66.9 301 
 PAM  SZ EP       2259 42.86                             148    0.0010 80.9  42 
 PAM  SN ES       2259 59.16                             148   -0.6910 80.9  42 
 PAM  SZ I        23 0  1.98        18.5 0.54            154           80.9  42 
 RUS  HZ EP       2259 44.61                             142    0.3810  101 173 
 RUS  HN ES       23 0  2.30                             142   -0.0010  101 173 
 RUS  HZ I        23 0  4.05         8.9 0.20            143            101 173 
 PTB  HZ EP       2259 47.03                             131   -0.05 9  143 259 
 PTB  HN ES       23 0  6.55                             131   -0.81 9  143 259 
 PTB  HZ I        23 0 11.98        13.5 0.18            132            143 259 
 SPBC HZ EP       2259 49.41                             128    0.64 9  160 218 
 SPBC HE ES       23 0  9.64                             128   -0.75 9  160 218 
 SPBC HZ I        23 0 19.60        11.8 0.38            128            160 218 
 SML  HZ EP       2259 56.14                             116   -1.02 8  242 336 
                                                                                
