 2016  117 2323 24.5 L   6.814 -73.144138.8  RSN 11 0.5 1.8LRSN                1
 GAP=136        1.03       3.1     4.0  6.2 -0.1225E+01  0.1005E+02  0.1236E+01E
 Epicentro: LOS SANTOS - SANTANDER                                             3
 ACTION:UPD 16-03-09 23:26 OP:cam  STATUS:               ID:20160117232324 L   I
 OLDACT:REG 16-01-18 09:03 OP:ak   STATUS:               ID:20160117231749     3
 2016-01-17-2317-49M.COL___328                                                 6
 STAT SP IPHASW D HRMM SECON CODA AMPLIT PERI AZIMU VELO AIN AR TRES W  DIS CAZ7
 BAR2 EZ EP       2323 43.75                             169    0.4110 24.9 190 
 BAR2 EZ ES       2323 57.48                             169   -0.5410 24.9 190 
 BAR2 EZ I        2323 59.96        13.1 0.42            167           24.9 190 
 PAM  EZ EP       2323 46.32                             150    0.4110 76.1  40 
 PAM  EN ES       2324  3.28                             150    0.6910 76.1  40 
 PAM  EZ I        2324  5.23        21.3 0.52            155           76.1  40 
 RUS  HZ EP       2323 47.87                             142    0.1710  102 176 
 RUS  HN ES       2324  5.52                             142   -0.2610  102 176 
 RUS  HZ I        2324  7.87         7.2 0.30            143            102 176 
 PTB  HZ EP       2323 50.94                             130   -0.03 9  148 258 
 PTB  HN ES       2324 11.23                             130   -0.37 9  148 258 
 PTB  HZ I        2324 15.02         7.7 0.12            130            148 258 
 ZAR  HZ EP   2   2323 57.02                             121    0.55 4  204 292 
 ZAR  HN ES       2324 21.11                             121   -0.29 9  204 292 
 ZAR  HZ I        2324 28.05         8.6 0.30            122            204 292 
 NOR  HZ EP       2323 59.82                             117   -0.14 8  236 234 
 NOR  HN ES       2324 27.66                             117    0.05 8  236 234 
 NOR  HZ I        2324 33.17         6.6 0.16            118            236 234 
 SML  HZ EP       2323 59.66                             116   -0.95 8  242 335 
 SML  HN ES       2324 28.61                             116   -0.16 8  242 335 
 CHI  HZ EP       2324  1.60                             115   -0.40 8  250 195 
 CHI  HN ES       2324 30.87                             115   -0.38 8  250 195 
 CHI  HZ I        2324 38.46         1.8 0.30            117            250 195 
 HEL  HZ EP   4   2324  5.91                             113    1.46 0  273 255 
 HEL  HN ES   1   2324 36.45                             113    0.86 6  273 255 
 HEL  HZ I        2324 41.93         4.1 0.38            114            273 255 
 GUY2CHZ EP   2   2324  8.22                             111    0.29 4  302 235 
 GUY2CHN ES       2324 42.44                             111    0.65 7  302 235 
 GUY2CHZ I        2324 49.75         3.0 0.38                           302 235 
 PRA  HZ EP       2324 17.62                             105   -0.35 6  393 209 
 PRA  HN ES       2325  0.51                             105    0.84 6  393 209 
 PRA  HZ I        2325  7.13         2.5 0.28            106            393 209 
                                                                                
