 2011  117 2012 53.6 L   6.778 -73.123137.9  RSN 13 0.5 2.9LRSN                1
 GAP=138        1.17       4.5     8.4  9.1 -0.7208E+01  0.2126E+02  0.1214E+01E
 Epicentro: LOS SANTOS - SANTANDER                                             3
 ACTION:UP  11-02-08 08:41 OP:pat  STATUS:               ID:20110117201253 L   I
 2011-01-17-2010-55S.COL___135                                                 6
 STAT SP IPHASW D HRMM SECON CODA AMPLIT PERI AZIMU VELO SNR AR TRES W  DIS CAZ7
 BAR2 SZ EP       2013 12.29                             171     0.010   22 198 
 BAR2 SZ ES   1   2013 27.13                             171     0.3 7   22 198 
 BAR2 SZ I        2013 29.18       261.9 0.28                            22 198 
 BTL  SZ IP       2013 11.50                             170    -0.810   22 314 
 GIR2 SZ EP       2013 12.41                             165     0.010   34 347 
 RUS  HZ EP       2013 16.13                             143    -0.310   98 177 
 RUS  HN ES   1   2013 34.27                             143     0.1 7   98 177 
 RUS  HZ I        2013 36.25        89.5 0.31                            98 177 
 GRA  SZ IP       2013 19.15                             135     0.910  127  16 
 GRA  SZ I        2013 20.27       154.0 0.33                           127  16 
 OCA  SZ EP   1   2013 20.76                             127    -0.8 7  163 352 
 OCA  SZ ES   2   2013 43.97                             127     0.6 5  163 352 
 OCA  SZ I        2013 48.90       122.1 0.38                           163 352 
 YOP  SZ EP       2013 22.78                             125     0.0 9  176 154 
 YOP  SN ES   2   2013 45.66                             125     0.1 4  176 154 
 NOR  SZ EP   1   2013 28.33                             117    -0.6 6  235 235 
 NOR  SN ES   2   2013 55.80                             117    -0.8 4  235 235 
 CHI  HZ EP   1   2013 30.25                             116    -0.4 6  247 196 
 CHI  HE ES   1   2013 59.17                             116    -0.4 6  247 196 
 CHI  HZ I        2014  7.52        31.6 0.35                           247 196 
 ROSC BZ EP   1   2013 32.03                             115     0.8 6  252 212 
 ROSC BE ES   2   2014  0.90                             115     0.4 4  252 212 
 ROSC BZ I        2014 10.50        91.9 0.45                           252 212 
 HEL  HZ EP   1   2013 34.11                             113     0.5 6  274 256 
 HEL  HZ I        2014 10.72        46.5 0.33                           274 256 
 VIL  SZ EP   1   2013 35.98                             111    -0.3 5  300 190 
 VIL  SN ES   2   2014 10.37                             111     0.9 4  300 190 
 VIL  SZ I        2014 20.78        34.0 0.62                           300 190 
 GUY  SZ EP   1   2013 37.75                             111     0.8 5  302 236 
 GUY  SN ES   2   2014 11.51                             111     0.8 4  302 236 
 GUY  SZ I        2014 20.13        63.3 0.48                           302 236 
                                                                                
