 2016  117 2257 21.7 L   6.812 -73.116147.8  RSN 21 0.5 2.2LRSN                1
 GAP=121        1.11       2.6     3.5  5.3 -0.2148E+01  0.5999E+01  0.9257E+00E
 Epicentro: LOS SANTOS - SANTANDER                                             3
 ACTION:UPD 16-03-09 23:26 OP:cam  STATUS:               ID:20160117225721 L   I
 OLDACT:UP  16-02-23 20:53 OP:AR   STATUS:               ID:20160117225721 L   3
 OLDACT:REG 16-01-18 09:02 OP:ak   STATUS:               ID:20160117224750     3
 2016-01-17-2247-50M.COL___328                                                 6
 STAT SP IPHASW D HRMM SECON CODA AMPLIT PERI AZIMU VELO AIN AR TRES W  DIS CAZ7
 BAR2 EZ EP       2257 41.60                             170   -0.0610 25.4 197 
 BAR2 EZ ES       2257 56.78                             170   -0.4110 25.4 197 
 BAR2 EZ I        2257 57.91        35.4 0.16            167           25.4 197 
 PAM  EZ EP       2257 44.71                             152    0.7110 74.3  38 
 PAM  EN ES       2258  2.08                             152    0.7310 74.3  38 
 PAM  EZ I        2258  4.23        19.3 0.52            156           74.3  38 
 RUS  HZ EP       2257 45.38                             144   -0.3910  102 178 
 RUS  HN ES       2258  4.53                             144    0.0110  102 178 
 RUS  HZ I        2258  5.23        16.5 0.22            146            102 178 
 PTB  HZ EP       2257 48.59                             132   -0.60 9  151 259 
 PTB  HN ES       2258  9.88                             132   -0.71 9  151 259 
 PTB  HZ I        2258 16.94        18.2 0.14            131            151 259 
 OCA  HE ES       2258 12.75                             130    0.48 9  159 352 
 OCA  HZ I        2258 16.84        52.5 0.36            131            159 352 
 SPBC HZ EP       2257 50.69                             129    0.00 9  166 220 
 SPBC HN ES       2258 12.62                             129   -0.64 9  166 220 
 SPBC HZ I        2258 17.72        32.1 0.08            129            166 220 
 ZAR  HZ EP       2257 54.76                             122    0.18 8  207 291 
 ZAR  HN ES       2258 20.77                             122    0.58 8  207 291 
 ZAR  HZ I        2258 25.87        21.5 0.30            122            207 291 
 NOR  HZ EP       2257 57.91                             118   -0.04 8  238 235 
 NOR  HN ES       2258 26.14                             118   -0.06 8  238 235 
 NOR  HZ I        2258 30.93        14.7 0.46            119            238 235 
 SML  HZ EP       2257 57.95                             118   -0.55 8  244 334 
 SML  HN ES       2258 26.55                             118   -0.62 8  244 334 
 SML  HZ I        2258 31.48                             119            244 334 
 CHI  HZ EP       2257 59.68                             117   -0.10 8  251 196 
 CHI  HN ES       2258 29.23                             117   -0.23 8  251 196 
 CHI  HZ I        2258 34.35         4.9 0.24            119            251 196 
 ROSC BZ EP       2258  0.96                             117    0.68 8  256 212 
 ROSC BN ES       2258 30.73                             117    0.40 8  256 212 
 ROSC BZ I        2258 35.90        10.8 0.35            118            256 212 
 HEL  HZ EP       2258  3.10                             115    0.66 7  276 256 
 HEL  HE ES       2258 34.87                             115    0.69 7  276 256 
 HEL  HZ I        2258 42.16         7.5 0.34            115            276 256 
 URE  HZ EP   4   2258  2.09                             114   -1.10 0  286 291 
 URE  HE ES   4   2258 32.56                             114   -2.96 0  286 291 
 URE  HZ I        2258 48.45         9.7 0.27            114            286 291 
 SOCV BZ EP       2258  3.46                             113   -1.04 7  298  57 
 SOCV BN ES   4   2258 35.43                             113   -2.42 0  298  57 
 GUY2CHZ EP       2258  6.55                             112    0.72 7  305 235 
 GUY2CHE ES       2258 40.49                             112    0.28 7  305 235 
 GUY2CHZ I        2258 47.90        11.1 0.28                           305 235 
 ELA  HZ EP   4   2258 10.61                             110    1.55 0  332 230 
 ELA  HN ES       2258 46.11                             110    0.15 7  332 230 
 ELA  HZ I        2258 54.58         5.0 0.48            111            332 230 
 CBOC HZ EP       2258  9.13                             110   -0.01 7  337 252 
 CBOC HN ES       2258 45.86                             110   -0.25 7  337 252 
 CBOC HZ I        2258 52.26         2.8 0.23            111            337 252 
 DBB  SZ EP       2258  9.29                             110   -0.37 7  343 274 
 DBB  SZ ES       2258 46.11                             110   -0.93 7  343 274 
 DBB  SZ I        2258 54.13        13.7 0.41            110            343 274 
 ANIL HZ EP   2   2258 12.40                             109    0.40 3  361 225 
 ANIL HN ES       2258 51.88                             109    0.69 6  361 225 
 ANIL HZ I        2258 55.18        16.0 0.34            110            361 225 
 PRA  HZ EP       2258 15.19                             107   -0.46 6  395 210 
 PRA  HE ES       2258 57.54                             107   -0.16 6  395 210 
 PRA  HZ I        2259  4.26         4.9 0.24            108            395 210 
 ORTC HZ EP       2258 16.55                             106    0.47 6  398 216 
 ORTC HE ES       2258 58.73                             106    0.27 6  398 216 
 ORTC HZ I        2259  4.60         3.4 0.08            108            398 216 
                                                                                
