 2015  517 2154 39.5 L   6.803 -73.122138.5  RSN 13 0.6 2.0LRSN                1
 GAP= 72        1.33       3.7     4.3  6.6 -0.1585E+01  0.5003E+01 -0.2818E+00E
 Epicentro: LOS SANTOS - SANTANDER                                             3
 ACTION:UPD 15-09-10 22:04 OP:cam  STATUS:               ID:20150517215439 L   I
 OLDACT:DUP 15-05-18 05:30 OP:stll STATUS:               ID:20150517214750d    3
 2015-05-17-2147-49M.COL___286                                                 6
 STAT SP IPHASW D HRMM SECON CODA AMPLIT PERI AZIMU VELO AIN AR TRES W  DIS CAZ7
 BAR2 EZ EP       2154 58.31                             170    0.0710 24.3 196 
 BAR2 EZ ES       2155 12.68                             170   -0.2110 24.3 196 
 BAR2 EZ I        2155 14.35        27.8 0.20            171           24.3 196 
 BRR  HZ EP       2155  0.23                             150    0.2710 73.4 297 
 BRR  HN ES       2155 16.79                             150    0.8410 73.4 297 
 BRR  HZ I        2155 20.42        14.2 0.30            148           73.4 297 
 PAM  SZ EP       2155  1.33                             150    0.5410 75.4  38 
 PAM  SN ES       2155 17.79                             150    0.3610 75.4  38 
 PAM  SZ I        2155 20.26        22.6 0.50            151           75.4  38 
 RUS  HZ EP       2155  2.25                             142   -0.2810  101 178 
 RUS  HN ES       2155 19.89                             142   -0.6210  101 178 
 RUS  HZ I        2155 21.89        13.9 0.28            146            101 178 
 TAM  HZ EP       2155  6.69                             129    0.35 9  153 105 
 TAM  HZ I        2155  6.92        21.2 0.38            133            153 105 
 OCA  HN ES       2155 28.01                             128   -0.85 9  160 352 
 OCA  HZ I        2155 33.26        21.0 0.44            128            160 352 
 SPBC HZ EP       2155  7.58                             127   -0.03 9  165 220 
 SPBC HE ES       2155 29.27                             127   -0.29 9  165 220 
 SPBC HZ I        2155 31.94        21.5 0.22            129            165 220 
 ZAR  HZ EP       2155 13.16                             120    1.47 8  206 292 
 ZAR  HE ES       2155 36.78                             120   -0.04 8  206 292 
 ZAR  HZ I        2155 45.58         6.6 0.12            121            206 292 
 SML  HZ EP       2155 15.07                             116   -0.71 8  244 335 
 SML  HE ES       2155 43.26                             116   -0.84 8  244 335 
 SML  HZ I        2155 53.00        11.3 0.10            116            244 335 
 HEL  HZ EP       2155 19.75                             113    0.13 8  275 256 
 HEL  HN ES       2155 50.35                             113   -0.58 8  275 256 
 HEL  HZ I        2155 56.82         6.1 0.38            114            275 256 
 SOCV BZ EP       2155 21.51                             111   -0.40 7  299  57 
 SOCV BN ES   4   2155 53.18                             111   -1.84 0  299  57 
 GUY2CHZ EP       2155 22.91                             111   -0.11 7  304 235 
 GUY2CHN ES       2155 57.32                             111    0.33 7  304 235 
 GUY2CHZ I        2156  6.04         3.8 0.32                           304 235 
 MON  HZ EP   9   2155 25.76                             107   -2.65 0  356 308 
 MON  HN ES       2156  3.76                                   -0.18 6  356 308 
 MON  HZ I        2156  5.20         1.9 0.18            108            356 308 
                                                                                
