 2015  817 2153 11.0 L   6.801 -73.123142.1  RSN  8 0.4 1.9LRSN                1
 GAP=139        1.53       7.0     8.7  9.7 -0.1730E+02  0.2472E+02  0.9344E+01E
 Epicentro: LOS SANTOS - SANTANDER                                             3
 ACTION:UPD 15-09-15 23:03 OP:cam  STATUS:               ID:20150817215311 L   I
 OLDACT:DUP 15-08-18 04:06 OP:mh   STATUS:               ID:20150817214749d    3
 2015-08-17-2147-48M.COL___337                                                 6
 STAT SP IPHASW D HRMM SECON CODA AMPLIT PERI AZIMU VELO AIN AR TRES W  DIS CAZ7
 BAR2 EZ IP     C 2153 30.08                             170   -0.1410 24.0 196 
 BAR2 EZ ES       2153 44.57                             170   -0.6310 24.0 196 
 BAR2 EZ I        2153 47.33        20.1 0.26            167           24.0 196 
 BRR  HZ IP     C 2153 31.87                             151   -0.0210 73.4 297 
 BRR  HN ES       2153 48.85                             151    0.6710 73.4 297 
 BRR  HZ I        2153 49.47        20.2 0.14            148           73.4 297 
 PAM  EZ EP       2153 32.81                             151    0.0710 75.7  38 
 PAM  EN ES       2153 49.93                             151    0.2510 75.7  38 
 PAM  EZ I        2153 50.51        18.1 0.20            154           75.7  38 
 RUS  HZ EP       2153 34.10                             143   -0.3110  101 178 
 RUS  HN ES       2153 52.82                             143    0.1710  101 178 
 RUS  HZ I        2153 54.91         9.1 0.34            144            101 178 
 SPBC HZ EP       2153 38.91                             128   -0.49 9  165 220 
 SPBC HN ES       2154  1.70                             128    0.16 9  165 220 
 SPBC HZ I        2154 10.52        20.6 0.46            127            165 220 
 HEL  HZ EP       2153 50.78                             114   -0.54 8  275 256 
 GUY2CHZ EP       2153 55.54                             111    0.84 7  303 235 
 GUY2CHN ES   1   2154 29.12                             111    0.35 5  303 235 
 SJC  HZ EP   9   2154  3.80                             105   -2.80 0  411 327 
 SJC  HN ES       2154 44.21                                   -2.95 6  411 327 
 SJC  HZ I        2154 59.89         1.5 0.44            105            411 327 
                                                                                
