 2012  117 2015 38.6 L   6.746 -73.177138.2  RSN 17 0.5 3.2LRSN                1
 GAP=113        1.23       4.1     4.8  7.4  0.1210E+01  0.8739E+01  0.7129E+01E
 Epicentro: VILLANUEVA - SANTANDER                                             3
 ACTION:UP  12-02-03 08:18 OP:REBC STATUS:               ID:20120117201538 L   I
 2012-01-17-2010-00M.COL___187                                                 6
 STAT SP IPHASW D HRMM SECON CODA AMPLIT PERI AZIMU VELO SNR AR TRES W  DIS CAZ7
 BAR2 SZ IP       2015 57.10                             173    -0.110   17 182 
 BAR2 SZ ES   1   2016 11.58                             173    -0.1 7   17 182 
 BAR2 SZ I        2016 14.41       715.7 0.34                            17 182 
 BRR  HZ IP     C 2015 59.02                             151     0.110   71 304 
 BRR  HN ES   1   2016 15.05                             151     0.2 7   71 304 
 BRR  HZ I        2016 17.25       269.4 0.14                            71 304 
 PAM  SZ IP       2015 59.94                             147    -0.510   84  39 
 PAM  SN ES   1   2016 16.84                             147    -0.6 7   84  39 
 RUS  HZ IP     C 2016  1.00                             144    -0.210   95 174 
 RUS  HN ES   1   2016 18.96                             144     0.1 7   95 174 
 RUS  HZ I        2016 21.13       261.1 0.39                            95 174 
 PTB  HZ IP     C 2016  3.60                             131    -0.9 9  143 261 
 PTB  HN ES   1   2016 24.17                             131    -0.6 7  143 261 
 PTB  HZ I        2016 27.35       184.3 0.46                           143 261 
 OCA  SZ EP       2016  7.93                             127     1.1 9  166 355 
 OCA  SZ ES   1   2016 29.47                             127     0.6 7  166 355 
 OCA  SZ I        2016 33.40       229.2 0.30                           166 355 
 YOP  SZ IP       2016  7.79                             125     0.1 9  175 151 
 YOP  SN ES   1   2016 31.39                             125     0.9 7  175 151 
 YOP  SZ I        2016 34.69       230.7 0.34                           175 151 
 ZAR  HZ EP   1   2016  9.99                             121    -0.5 6  203 294 
 ZAR  HN ES   1   2016 35.80                             121     0.5 6  203 294 
 ZAR  HZ I        2016 41.97       161.3 0.38                           203 294 
 NOR  SZ EP   1   2016 13.05                             117    -0.2 6  228 235 
 NOR  SN ES   1   2016 41.05                             117     0.8 6  228 235 
 CHI  HZ EP   1   2016 15.02                             116    -0.1 6  242 195 
 CHI  HN ES   1   2016 44.03                             116     0.4 6  242 195 
 CHI  HZ I        2016 55.07        73.2 0.57                           242 195 
 HEL  HZ EP   1   2016 18.10                             114     0.2 6  267 257 
 HEL  HE ES   1   2016 48.53                             114     0.0 6  267 257 
 HEL  HZ I        2016 56.20       109.1 0.30                           267 257 
 VIL  SZ EP   1   2016 20.54                             111    -0.4 5  297 191 
 VIL  SZ I        2017  0.77        39.2 0.37                           297 191 
 GUY  SZ EP   1   2016 22.06                             111     0.7 5  297 236 
 GUY  SZ I        2017  5.60        92.4 0.35                           297 236 
 RREF HZ EP       2016 23.85                             110     0.2 7  315 230 
 RREF HZ I        2017  9.87        60.0 0.42                           315 230 
 TOL  SZ EP   2   2016 25.62                             108    -0.2 3  337 225 
 PRA  HZ EP   1   2016 30.63                             105    -0.4 4  385 210 
 YOT  HZ EP   1   2016 39.92                             102    -0.7 4  465 229 
 YOT  HZ I        2017 37.92        15.8 0.69                           465 229 
                                                                                
