 2012 1217 2202  4.8 L   6.767 -73.143146.5  RSN  6 0.4 1.8LRSN                1
 GAP=138        1.14       5.9     5.9  7.6 -0.4383E+01  0.6033E+01  0.4261E+01E
 Epicentro: LOS SANTOS - SANTANDER                                             3
 ACTION:UPD 13-01-04 14:28 OP:ep   STATUS:               ID:20121217220204 L   I
 2012-12-17-2200-00M.COL___242                                                 6
 STAT SP IPHASW D HRMM SECON CODA AMPLIT PERI AZIMU VELO AIN AR TRES W  DIS CAZ7
 BAR2 SZ ES       22 2 39.70                             172   -0.1110 19.7 193 
 BAR2 SZ I        22 2 43.43        20.2 0.46                          19.7 193 
 GIR2 SZ EP       22 2 24.64                             166   -0.0510 35.0 351 
 GIR2 SZ ES       22 2 39.91                             166   -0.2710 35.0 351 
 GIR2 SZ I        22 2 46.55         6.3 0.44                          35.0 351 
 BRR  HZ EP       22 2 26.63                             152    0.4610 73.2 301 
 BRR  HN ES       22 2 43.74                             152    0.9210 73.2 301 
 BRR  HN I        22 2 52.98        18.3 0.50                          73.2 301 
 PAM  SZ EP       22 2 27.43                             150    0.1410 80.1  38 
 PAM  SZ I        22 2 27.51         9.8 0.22                          80.1  38 
 PAM  SN ES       22 2 44.29                             150   -0.5110 80.1  38 
 RUS  HZ EP       22 2 28.53                             145    0.1410 96.9 176 
 RUS  HN ES       22 2 46.96                             145    0.2010 96.9 176 
 RUS  HN I        22 2 48.84         6.5 0.38                          96.9 176 
 PTB  HZ EP       22 2 31.42                             132   -0.40 9  147 260 
 PTB  HN ES       22 2 52.22                             132   -0.65 9  147 260 
 PTB  HN I        22 2 58.16        26.5 0.38                           147 260 
                                                                                
