 2013  317 2005 15.3 L   6.761 -73.122147.6  RSN  7 0.2 1.9LRSN                1
 GAP=141        0.60       3.0     3.0  3.6 -0.1955E+01 -0.1382E+00  0.6500E-01E
 Epicentro: LOS SANTOS - SANTANDER                                             3
 ACTION:UPD 13-04-09 14:03 OP:ep   STATUS:               ID:20130317200515 L   I
 2013-03-17-1958-51M.COL___205                                                 6
 STAT SP IPHASW D HRMM SECON CODA AMPLIT PERI AZIMU VELO AIN AR TRES W  DIS CAZ7
 BAR2 SZ EP       20 5 35.14                             172    0.0510 19.8 200 
 BAR2 SZ ES       20 5 50.31                             172   -0.2110 19.8 200 
 BAR2 SZ I        20 5 51.41        30.4 0.22            171           19.8 200 
 GIR2 SZ EP       20 5 35.17                             166   -0.1610 36.0 347 
 GIR2 SZ ES       20 5 50.84                             166   -0.1110 36.0 347 
 BRR  HZ EP       20 5 37.00                             151    0.1010 75.6 300 
 BRR  HZ I        20 5 37.24        12.4 0.24            151           75.6 300 
 BRR  HN ES       20 5 54.15                             151    0.4010 75.6 300 
 PAM  SZ IP     D 20 5 38.06                             151    0.2310 79.2  36 
 PAM  SZ I        20 5 38.28        16.2 0.22            151           79.2  36 
 PAM  SN ES       20 5 55.22                             151   -0.1710 79.2  36 
 RUS  HZ EP       20 5 39.12                             145    0.2010 96.1 177 
 RUS  HN ES       20 5 57.42                             145    0.0810 96.1 177 
 PTB  HZ EP       20 5 42.10                             132   -0.48 9  150 261 
 PTB  HE ES       20 6  3.87                             132    0.01 9  150 261 
 PTB  HE I        20 6  5.76         7.8 0.16            132            150 261 
 CAPV BZ EP       20 5 43.04                             132    0.02 9  151  36 
                                                                                
