 2012  217 2317 10.3 L   6.815 -73.161147.6  RSN  8 0.4 1.7LRSN                1
 GAP=134        0.88       4.9     5.0  8.5  0.1496E+01  0.1640E+01  0.1454E+02E
 ACTION:UP  12-03-07 16:31 OP:epov STATUS:               ID:20120217231710 L   I
 2012-02-17-2310-00M.COL___188                                                 6
 STAT SP IPHASW D HRMM SECON CODA AMPLIT PERI AZIMU VELO AIN AR TRES W  DIS CAZ7
 BAR2 SZ EP   1   2317 29.72                             170   -0.46 7 24.8 186 
 BAR2 SZ I        2317 46.26         8.8 0.18                          24.8 186 
 GIR2 SZ EP   1   2317 30.19                             168    0.04 7 29.4 353 
 BRR  HZ EP   1   2317 31.97                             154    0.44 7 68.9 298 
 BRR  HZ I        2317 32.14        22.3 0.15                          68.9 298 
 BRR  HE ES       2317 48.69                             154    0.6110 68.9 298 
 PAM  SZ EP   1   2317 32.86                             151    0.16 7 77.2  41 
 PAM  SN ES   1   2317 49.49                             151   -0.69 7 77.2  41 
 RUS  HZ EP   1   2317 34.80                             144    0.43 7  102 175 
 RUS  HN ES   1   2317 53.11                             144   -0.03 7  102 175 
 RUS  HZ I        2317 54.82         4.6 0.32                           102 175 
 PTB  HZ EP   1   2317 36.93                             133   -0.37 7  146 258 
 PTB  HN ES   1   2317 57.85                             133   -0.51 7  146 258 
 ZAR  HN ES   1   2318  7.48                             123   -0.39 6  202 292 
 CHI  HZ EP   1   2317 48.65                             117    0.42 6  250 195 
 CHI  HN ES   1   2318 17.53                             117   -0.29 6  250 195 
 CHI  HZ I        2318 25.43         2.9 0.55                           250 195 
                                                                                
