 2014 1017 2315 33.1 L   6.799 -73.145146.0  RSN 16 0.6 2.1LRSN                1
 GAP=137        1.31       3.2     4.7  6.3 -0.1477E+01  0.8103E+01  0.3458E+01E
 Epicentro: LOS SANTOS - SANTANDER                                             3
 ACTION:UPD 14-11-29 23:50 OP:nd   STATUS:               ID:20141017231533 L   I
 OLDACT:REG 14-10-18 06:14 OP:stll STATUS:               ID:20141017230749     3
 2014-10-17-2307-49M.COL___277                                                 6
 STAT SP IPHASW D HRMM SECON CODA AMPLIT PERI AZIMU VELO AIN AR TRES W  DIS CAZ7
 BAR2 SZ EP       2315 53.08                             171    0.3410 23.2 190 
 BAR2 SZ ES       2316  7.54                             171   -0.5310 23.2 190 
 BAR2 SZ I        2316  9.55        36.2 0.20            166           23.2 190 
 BRR  HZ IP     C 2315 54.92                             152    0.6610 71.3 299 
 BRR  HN ES       2316 10.91                             152    0.1310 71.3 299 
 BRR  HZ I        2316 15.73        21.7 0.18            149           71.3 299 
 PAM  SZ EP       2315 55.87                             151    0.5510 77.5  39 
 PAM  SZ I        2315 56.21        22.6 0.18            157           77.5  39 
 PAM  SN ES       2316 12.84                             151    0.1710 77.5  39 
 RUS  HZ EP       2315 56.59                             144   -0.2510  100 176 
 RUS  HN ES       2316 15.39                             144    0.0110  100 176 
 RUS  HZ I        2316 16.82        16.3 0.20            144            100 176 
 PTB  HZ EP       2315 59.63                             132   -0.44 9  148 259 
 PTB  HN ES       2316 21.26                             132    0.14 9  148 259 
 PTB  HZ I        2316 25.69        14.8 0.20            130            148 259 
 OCA  HN ES       2316 22.85                             130   -0.68 9  160 353 
 SPBC HZ EP       2316  1.72                             129    0.13 9  163 219 
 SPBC HN ES       2316 24.56                             129    0.73 9  163 219 
 SPBC HZ I        2316 31.04        25.7 0.38            128            163 219 
 ZAR  HZ EP       2316  5.40                             122   -0.15 9  204 292 
 ZAR  HN ES       2316 31.27                             122    0.39 9  204 292 
 ZAR  HZ I        2316 41.01        12.9 0.48            122            204 292 
 SML  HZ EP       2316  9.27                             117   -0.47 8  244 335 
 SML  HN ES       2316 37.54                             117   -0.79 8  244 335 
 SML  HZ I        2316 40.28        16.2 0.10            119            244 335 
 CHI  HZ EP       2316 10.76                             117   -0.02 8  249 195 
 CHI  HN ES       2316 39.23                             117   -0.95 8  249 195 
 CHI  HZ I        2316 46.93         6.0 0.52            118            249 195 
 HEL  HZ EP       2316 14.35                             115    1.04 8  272 256 
 HEL  HE ES       2316 44.50                             115   -0.18 8  272 256 
 HEL  HZ I        2316 52.58         9.2 0.56            115            272 256 
 RREF HZ EP   9   2316 17.44                             111   -1.79 0  322 229 
 RREF HN ES       2316 52.04                                   -1.39 7  322 229 
 RREF HZ I        2317  3.06         6.2 0.40            111            322 229 
 TOL  SZ EP       2316 22.12                             109    0.78 7  343 225 
 TOL  SE ES       2316 59.76                             109    0.78 7  343 225 
 MON  HZ EP   9   2316 19.87                             108   -2.24 0  354 308 
 MON  HN ES       2316 58.09                                   -0.02 6  354 308 
 MON  HZ I        2317  1.10         2.2 0.18            109            354 308 
 PRA  HZ EP       2316 26.73                             106    0.13 6  392 210 
 PRA  HN ES       2317  7.25                             106   -1.09 6  392 210 
 PRA  HZ I        2317 15.51         6.1 0.66            107            392 210 
 ORTC HZ EP       2316 25.76                             106   -1.24 6  395 216 
 ORTC HN ES       2317  8.58                             106   -0.47 6  395 216 
 ORTC HZ I        2317 15.44         4.1 0.44            107            395 216 
                                                                                
