 2015  917 2020 57.3 L   6.525 -73.537108.2  RSN  6 0.5 1.6LRSN                1
 GAP=127        1.38       6.7     4.8 11.4  0.2861E+01  0.1482E+02 -0.2303E+02E
 Epicentro: EL CARMEN - SANTANDER                                              3
 ACTION:UPD 15-10-28 16:26 OP:cam  STATUS:               ID:20150917202057 L   I
 OLDACT:REG 15-09-18 03:22 OP:stll STATUS:               ID:20150917201748     3
 2015-09-17-2017-48M.COL___328                                                 6
 STAT SP IPHASW D HRMM SECON CODA AMPLIT PERI AZIMU VELO AIN AR TRES W  DIS CAZ7
 BAR2 EZ EP       2021 13.10                             158    0.0110 39.9  79 
 BAR2 EZ ES       2021 26.13                             158    0.7610 39.9  79 
 BAR2 EZ I        2021 27.49        24.6 0.36            159           39.9  79 
 BRR  HZ EP       2021 14.86                             146    0.5510 67.3 343 
 RUS  HZ EP       2021 16.50                             139    0.0910 86.1 144 
 RUS  HN ES       2021 31.31                             139    0.0310 86.1 144 
 PTB  HZ IP     C 2021 16.54                             133   -0.5410  102 271 
 PTB  HE ES       2021 31.70                             133   -0.7710  102 271 
 PTB  HZ I        2021 32.43         6.6 0.50            135            102 271 
 PAM  EZ EP       2021 20.03                             126   -0.2710  129  46 
 PAM  EN ES       2021 37.39                             126   -0.8110  129  46 
 PAM  EZ I        2021 39.42         4.0 0.48            128            129  46 
 ZAR  HZ EP       2021 25.83                             116    0.73 9  181 306 
 ZAR  HE ES       2021 47.11                             116    0.37 9  181 306 
 ZAR  HZ I        2021 50.20         6.1 0.72            117            181 306 
                                                                                
