 2013 1117 2159 47.9 L   6.760 -73.313145.1  RSN  9 0.5 2.0LRSN                1
 GAP= 96        1.36       4.7     5.9  9.9 -0.4564E+01  0.1286E+02 -0.3501E+01E
 Epicentro: ZAPATOCA - SANTANDER                                               3
 OLDACT:REG 13-11-17 21:36 OP:jn   STATUS:               ID:20131117220000     3
 ACTION:UPD 14-01-09 16:29 OP:ep   STATUS:               ID:20131117215947 L   I
 OLDACT:UP  13-11-17 21:58 OP:jn   STATUS:               ID:20131117220000     3
 OLDACT:UP  13-11-17 21:57 OP:jn   STATUS:               ID:20131117220000     3
 2013-11-17-2200-00M.COL___279                                                 6
 STAT SP IPHASW D HRMM SECON CODA AMPLIT PERI AZIMU VELO AIN AR TRES W  DIS CAZ7
 BAR2 SZ EP   1   22 0  7.57                             170    0.15 7 23.5 142 
 BAR2 SZ ES       22 0 22.77                             170    0.1010 23.5 142 
 BAR2 SZ I        22 0 27.93        23.5 0.50            171           23.5 142 
 BRR  HZ EP   1   22 0  8.70                             157    0.42 7 58.5 311 
 BRR  HE ES       22 0 25.36                             157    1.1610 58.5 311 
 BRR  SZ I        22 0 25.88        20.2 0.34            158           58.5 311 
 PAM  SZ EP       22 0 11.60                             146    0.5710 93.2  47 
 PAM  SN ES       22 0 28.76                             146   -0.3410 93.2  47 
 PAM  SZ I        22 0 31.18        16.8 0.52            147           93.2  47 
 RUS  HZ EP       22 0 11.64                             144    0.1910 99.2 165 
 RUS  HN ES       22 0 29.15                             144   -0.7010 99.2 165 
 RUS  SZ I        22 0 32.50         4.6 0.18            147           99.2 165 
 RUS  HZ I        22 0 32.59         4.3 0.16                          99.2 165 
 PTB  HZ EP       22 0 13.24                             136    0.1310  129 259 
 PTB  HN ES       22 0 32.17                             136   -0.6310  129 259 
 PTB  HZ I        22 0 33.76        22.2 0.10            139            129 259 
 PTB  SZ I        22 0 34.46        24.5 0.12                           129 259 
 OCA  HN ES       22 0 38.18                             129   -0.54 9  164 360 
 OCA  HZ I        22 0 40.69        27.5 0.24            131            164 360 
 NOR  HE ES       22 0 48.13                             120    0.04 8  217 233 
 SML  HZ EP   4   22 0 24.30                             118    0.16 0  241 340 
 SML  HN ES       22 0 51.77                             118   -0.65 8  241 340 
 SML  SZ I        22 0 56.45        26.1 0.08            120            241 340 
 GUY2CHZ EP   4   22 0 31.17                             114    1.69 0  284 233 
 GUY2CHN ES   4   22 1  2.66                             114    0.73 0  284 233 
 GUY2CSZ I        22 1 10.56         7.8 0.62                           284 233 
 SJC  HN ES   4   22 1 21.31                             106   -4.18 0  403 329 
                                                                                
