 2012  117 2056 22.3 L   6.769 -73.159143.0  RSN 14 0.4 2.7LRSN                1
 GAP=136        0.86       3.2     4.3  5.7 -0.1935E+01  0.6781E+01  0.3490E+01E
 Epicentro: LOS SANTOS - SANTANDER                                             3
 ACTION:UP  12-02-03 08:18 OP:REBC STATUS:               ID:20120117205622 L   I
 2012-01-17-2050-00M.COL___187                                                 6
 STAT SP IPHASW D HRMM SECON CODA AMPLIT PERI AZIMU VELO SNR AR TRES W  DIS CAZ7
 BAR2 SZ IP       2056 41.49                             172     0.010   20 188 
 BAR2 SZ ES   1   2056 56.61                             172     0.1 7   20 188 
 BAR2 SZ I        2056 57.63       109.2 0.27                            20 188 
 BRR  HZ IP     C 2056 43.32                             152     0.210   72 301 
 BRR  HE ES   1   2056 59.90                             152     0.5 7   72 301 
 BRR  HZ I        2057  4.35       126.9 0.17                            72 301 
 PAM  SZ EP       2056 44.16                             149    -0.310   81  39 
 PAM  SN ES   1   2057  1.37                             149    -0.3 7   81  39 
 RUS  HZ EP   1   2056 45.41                             144    -0.1 7   97 175 
 RUS  HN ES   1   2057  3.73                             144     0.1 7   97 175 
 RUS  HZ I        2057  5.40        55.8 0.39                            97 175 
 PTB  HZ EP   1   2056 48.02                             132    -0.8 7  146 260 
 PTB  HN ES   1   2057  9.02                             132    -0.5 7  146 260 
 OCA  SZ EP   1   2056 51.15                             128     0.5 7  163 354 
 OCA  SZ ES   1   2057 13.30                             128     0.5 7  163 354 
 OCA  SZ I        2057 18.12        95.1 0.24                           163 354 
 ZAR  HZ EP   1   2056 53.91                             122    -0.6 6  204 293 
 ZAR  HN ES   1   2057 19.66                             122     0.0 6  204 293 
 ZAR  HZ I        2057 25.17        72.0 0.45                           204 293 
 NOR  SZ EP   1   2056 57.30                             118    -0.2 6  232 235 
 NOR  SN ES   1   2057 24.87                             118    -0.1 6  232 235 
 CHI  HZ EP   1   2056 59.45                             117     0.0 6  245 195 
 CHI  HN ES   1   2057 28.76                             117     0.4 6  245 195 
 CHI  HZ I        2057 36.62        13.7 0.29                           245 195 
 HEL  HZ EP   1   2057  2.94                             114     0.8 6  270 256 
 HEL  HZ I        2057 41.10        36.4 0.39                           270 256 
 GUY  SZ EP   2   2057  5.68                             112     0.0 4  300 235 
 GUY  SZ I        2057 46.89        32.4 0.29                           300 235 
 RREF HZ EP   1   2057  8.74                             111     0.8 5  318 230 
 RREF HZ I        2057 51.14        36.3 0.26                           318 230 
 TOL  SZ EP   1   2057 10.09                             109     0.1 5  340 225 
 PRA  HZ EP   1   2057 14.88                             106    -0.4 4  388 210 
 PRA  HN ES   1   2057 57.13                             106     0.5 4  388 210 
                                                                                
