 2017  117 2026 30.7 L   6.777 -73.139140.5  RSN  7 0.3 1.5LRSN                1
 GAP=138        0.74       4.2     3.7  5.0  0.3086E+01  0.9719E+00 -0.2180E+01E
 Epicentro: LOS SANTOS - SANTANDER                                             3
 ACTION:UPD 17-05-22 16:00 OP:jn   STATUS:               ID:20170117202630 L   I
 OLDACT:UP  17-03-29 21:22 OP:nlst STATUS:               ID:20170117202630 L   3
 OLDACT:REG 17-01-18 03:11 OP:ar   STATUS:               ID:20170117201748     3
 2017-01-17-2018-00M.COL___337                                                 6
 STAT SP IPHASW D HRMM SECON CODA AMPLIT PERI AZIMU VELO AIN AR TRES W  DIS CAZ7
 BAR2 EZ ES       2027  3.86                             171   -0.5810 21.0 193 
 BRR  HZ EP       2026 51.31                             151   -0.0910 73.1 300 
 BRR  HN ES       2027  8.04                             151    0.4910 73.1 300 
 PAM  EZ IP     C 2026 52.41                             149   -0.0410 78.9  38 
 PAM  EN ES   1   2027  9.43                             149    0.01 7 78.9  38 
 PAM  EZ I        2027  9.81         4.8 0.36            151           78.9  38 
 RUS  HZ EP       2026 54.05                             143    0.3010 98.0 176 
 RUS  HE ES   1   2027 12.02                             143    0.29 7 98.0 176 
 RUS  HZ I        2027 13.23         2.3 0.54            143           98.0 176 
 PTB  HZ EP   9   2026 56.40                             131   -0.88 0  148 260 
 PTB  HN ES       2027 17.13                                    0.00 9  148 260 
 PTB  HZ I        2027 19.12         4.5 0.14            129            148 260 
 ZAR  HZ EP       2027  2.77                             121   -0.22 8  206 293 
 ZAR  HN ES       2027 28.14                             121   -0.03 8  206 293 
 ZAR  HZ I        2027 34.28         7.1 0.26            120            206 293 
 NOR  HN ES   2   2027 33.25                             117   -0.36 4  234 235 
 NOR  HZ I        2027 36.12         3.3 0.24            116            234 235 
                                                                                
