 2011  917 2130 22.3 L   6.790 -73.224139.5  RSN  5 0.4 1.4LRSN                1
 GAP=127        0.61       5.8     6.5 10.0 -0.1552E+02  0.6979E+01  0.1062E+02E
 Epicentro: ZAPATOCA - SANTANDER                                               3
 ACTION:UPD 12-07-13 15:58 OP:ep   STATUS:               ID:20110917213022 L   I
 2011-09-17-2126-24S.COL___170                                                 6
 STAT SP IPHASW D HRMM SECON CODA AMPLIT PERI AZIMU VELO AIN AR TRES W  DIS CAZ7
 GIR2 SZ EP   1   2130 41.62                             166    0.36 7 32.1   6 
 BRR  HZ EP   2   2130 41.75                             153   -0.65 5 64.3 303 
 BRR  HZ I        2130 42.11         6.5 0.11                          64.3 303 
 BRR  HE ES   2   2130 58.49                             153    0.43 5 64.3 303 
 PAM  SZ EP   1   2130 44.41                             147    0.13 7 83.9  44 
 PAM  SN ES   1   2131  1.06                             147   -0.36 7 83.9  44 
 PAM  SZ I        2131  3.73         5.7 0.35                          83.9  44 
 RUS  HZ EP   2   2130 45.75                             142    0.31 5  101 171 
 RUS  HN ES   2   2131  3.40                             142   -0.09 5  101 171 
 RUS  HZ I        2131  7.23         3.5 0.51                           101 171 
 NOR  SN ES   2   2131 23.35                             118   -0.45 4  227 233 
                                                                                
