 2013  317 2301  6.7 L   6.773 -73.151149.7  RSN  8 0.4 2.3LRSN                1
 GAP=137        1.02       4.1     5.3  6.9 -0.2049E+01  0.3353E+01  0.2275E+01E
 Epicentro: LOS SANTOS - SANTANDER                                             3
 ACTION:UPD 13-04-09 14:03 OP:ep   STATUS:               ID:20130317230106 L   I
 2013-03-17-2258-49M.COL___205                                                 6
 STAT SP IPHASW D HRMM SECON CODA AMPLIT PERI AZIMU VELO AIN AR TRES W  DIS CAZ7
 BAR2 SZ EP       23 1 26.95                             172    0.1710 20.3 190 
 BAR2 SZ ES       23 1 42.15                             172   -0.2610 20.3 190 
 BAR2 SZ I        23 1 43.52        36.5 0.42            175           20.3 190 
 GIR2 SZ EP       23 1 26.79                             167   -0.1510 34.1 352 
 BRR  HZ IP     C 23 1 28.66                             153    0.3010 72.2 301 
 BRR  HZ I        23 1 28.97        29.2 0.24            151           72.2 301 
 BRR  HN ES       23 1 46.14                             153    0.9110 72.2 301 
 PAM  SZ EP       23 1 29.60                             151    0.0810 80.0  39 
 PAM  SZ I        23 1 29.93        25.9 0.42            149           80.0  39 
 PAM  SN ES       23 1 46.98                             151   -0.3210 80.0  39 
 RUS  HZ EP       23 1 30.67                             145    0.0110 97.7 176 
 RUS  HN ES       23 1 49.37                             145    0.0410 97.7 176 
 PTB  HZ EP       23 1 33.45                             133   -0.47 9  147 260 
 PTB  HN ES       23 1 54.57                             133   -0.56 9  147 260 
 OCA  HN ES       23 1 57.98                             130   -0.16 9  163 353 
 OCA  HN I        23 2  4.17        45.2 0.24            129            163 353 
 CHI  HZ EP   1   23 1 45.04                             118    0.72 6  246 195 
                                                                                
