 2017 1017 2151 13.3 L   6.797 -73.134145.1  RSN 22 0.6 2.6LRSN                1
 GAP=113        1.00       3.1     3.5  4.9  0.2013E+01  0.5133E+01  0.3433E+01E
 Epicentro: LOS SANTOS - SANTANDER                                             3
 ACTION:UPD 17-11-07 19:33 OP:rebc STATUS:               ID:20171017215113 L   I
 OLDACT:UP  17-10-18 02:56 OP:mg   STATUS:               ID:20171017214737     3
 OLDACT:UP  17-10-18 02:55 OP:mg   STATUS:               ID:20171017214737     3
 OLDACT:UP  17-10-18 02:54 OP:mg   STATUS:               ID:20171017214737     3
 OLDACT:REG 17-10-18 01:23 OP:mg   STATUS:               ID:20171017214737     3
 2017-10-17-2148-00M.COL___435                                                 6
 STAT SP IPHASW D HRMM SECON CODA AMPLIT PERI AZIMU VELO AIN AR TRES W  DIS CAZ7
 BAR2 EZ IP     C 2151 32.77                             171   -0.1210 23.3 193 
 BAR2 EZ ES       2151 47.69                             171   -0.4510 23.3 193 
 BAR2 EZ I        2151 48.82        56.2 0.28            165           23.3 193 
 BRR  HZ EP     C 2151 34.72                             152    0.2310 72.5 298 
 BRR  HN ES       2151 51.84                             152    0.8510 72.5 298 
 BRR  HZ I        2151 55.78        83.1 0.14            143           72.5 298 
 PAM  EZ IP     C 2151 35.54                             150    0.0910 76.8  39 
 PAM  EN ES       2151 52.64                             150   -0.0610 76.8  39 
 PAM  EZ I        2151 55.29        40.1 0.33            140           76.8  39 
 RUS  HZ EP       2151 36.59                             144   -0.4110  100 177 
 RUS  HN ES       2151 55.46                             144    0.0110  100 177 
 RUS  HZ I        2151 57.13        49.0 0.17            131            100 177 
 PTB  HZ EP       2151 39.57                             132   -0.80 9  149 259 
 PTB  HN ES       2152  0.67                             132   -0.77 9  149 259 
 PTB  HZ I        2152  3.49        41.8 0.20            120            149 259 
 YPLC HZ IP     C 2151 43.05                             126    0.05 9  176 152 
 YPLC HN ES       2152  6.48                             126    0.35 9  176 152 
 YPLC HZ I        2152 15.23        21.9 0.30            114            176 152 
 ZAR  HZ EP       2151 46.33                             122    0.45 8  205 292 
 ZAR  HN ES       2152 11.59                             122    0.33 8  205 292 
 ZAR  HZ I        2152 17.69        90.3 0.36            111            205 292 
 TABC EZ EP   2   2151 50.30                             119    1.21 4  230 211 
 TABC EZ ES   2   2152 18.70                             119    1.72 4  230 211 
 TABC EZ I        2152 24.17        55.0 0.44            108            230 211 
 NOR  HZ EP     C 2151 49.11                             118   -0.02 8  236 235 
 NOR  HN ES       2152 16.55                             118   -0.49 8  236 235 
 NOR  HZ I        2152 21.81        38.1 0.12            107            236 235 
 CHI  HZ EP   1   2151 51.09                             117    0.08 6  249 195 
 CHI  HN ES   1   2152 19.88                             117   -0.51 6  249 195 
 CHI  HZ I        2152 28.34        16.4 0.54            106            249 195 
 ROSC BZ EP   1   2151 52.34                             116    0.87 6  253 211 
 ROSC BN ES   4   2152 23.59                             116    2.38 0  253 211 
 ROSC BZ I        2152 28.47        45.6 0.28            105            253 211 
 URE  HZ EP   1   2151 53.77                             113   -0.76 6  285 292 
 URE  HN ES   4   2152 23.21                             113   -3.44 0  285 292 
 URE  HZ I        2152 30.72        30.8 0.14            103            285 292 
 GUY2CHZ EP   1   2151 57.94                             112    0.92 5  302 235 
 GUY2CHN ES   4   2152 33.65                             112    2.56 0  302 235 
 GUY2CHZ I        2152 40.54        21.3 0.44                           302 235 
 VIL  EZ EP   1   2151 56.40                             112   -0.33 5  303 192 
 VIL  EE ES   3   2152 31.90                             112    1.34 2  303 192 
 VIL  EZ I        2152 36.60        28.0 0.62            101            303 192 
 PTGC HZ EP   3   2151 55.65                             111   -1.43 2  308 159 
 PTGC HN ES   4   2152 28.94                             111   -2.26 0  308 159 
 PTGC HZ I        2152 33.87        17.7 0.30            101            308 159 
 DBB  EZ EP   1   2152  1.26                             109    0.32 5  341 274 
 DBB  EN ES   3   2152 36.51                             109   -1.56 2  341 274 
 DBB  EZ I        2152 42.18        15.1 0.22             99            341 274 
 ARGC HZ EP   2   2152  2.11                             108   -0.94 3  360 340 
 ARGC HN ES   1   2152 42.12                             108    0.29 5  360 340 
 PRA  HZ EP   1   2152  7.03                             106    0.15 4  392 210 
 PRA  HN ES   1   2152 48.42                             106   -0.23 4  392 210 
 PRA  HZ I        2152 56.09        20.8 0.48             96            392 210 
 ORTC HZ EP   1   2152  7.37                             106    0.07 4  396 216 
 ORTC HN ES   3   2152 50.96                             106    1.57 1  396 216 
 ORTC HZ I        2152 57.40        13.7 0.46             96            396 216 
 PAL  HZ EP     C 2152  8.65                             106    0.06 6  407 239 
 PAL  HN ES   3   2152 53.33                             106    1.64 1  407 239 
 PAL  HZ I        2152 55.51        10.0 0.22             95            407 239 
 SJC  HN ES   4   2152 48.45                             105   -3.95 0  410 327 
 SJC  HZ I        2152 52.98         7.1 0.28             95            410 327 
 CRJC HZ EP   4   2152 13.04                             103   -2.81 0  468   3 
 CRJC HZ I        2153  9.90        10.7 0.46                           468   3 
 YOT  HZ EP   4   2152 13.90                             103   -2.56 0  473 229 
                                                                                
