 2014 1017 2316 34.5 L   6.814 -73.152143.0  RSN 10 0.6 2.2LRSN                1
 GAP=135        1.44       4.7     6.9  8.5 -0.8105E+01  0.8682E+01  0.1227E+02E
 Epicentro: LOS SANTOS - SANTANDER                                             3
 ACTION:UPD 14-11-29 23:50 OP:nd   STATUS:               ID:20141017231634 L   I
 OLDACT:DUP 14-10-18 09:01 OP:stll STATUS:               ID:20141017230750d    3
 2014-10-17-2307-49M.COL___277                                                 6
 STAT SP IPHASW D HRMM SECON CODA AMPLIT PERI AZIMU VELO AIN AR TRES W  DIS CAZ7
 BAR2 SZ IP     D 2316 54.06                             170    0.2510 24.7 188 
 BAR2 SZ ES       2317  8.62                             170   -0.2710 24.7 188 
 BAR2 SZ I        2317 10.37        47.2 0.16            168           24.7 188 
 BRR  HZ IP     C 2316 55.86                             153    0.6010 69.9 298 
 BRR  HN ES       2317 12.38                             153    0.9110 69.9 298 
 BRR  HZ I        2317 16.61        23.8 0.32            151           69.9 298 
 PAM  SZ EP       2316 57.08                             151    0.7210 76.6  41 
 PAM  SN ES       2317 13.27                             151   -0.1610 76.6  41 
 PAM  SZ I        2317 15.86        36.4 0.52            155           76.6  41 
 RUS  HZ EP       2316 57.61                             143   -0.4710  102 176 
 RUS  HZ I        2316 58.84        17.8 0.10            143            102 176 
 RUS  HN ES       2317 16.40                             143   -0.0910  102 176 
 PTB  HZ EP       2317  0.52                             131   -0.67 9  147 258 
 PTB  HN ES       2317 21.10                             131   -0.93 9  147 258 
 PTB  HZ I        2317 24.63        18.0 0.36            131            147 258 
 OCA  HN ES       2317 23.64                             129   -0.59 9  159 353 
 OCA  HZ I        2317 27.22        18.2 0.20            131            159 353 
 SPBC HZ EP       2317  2.74                             128   -0.11 9  164 218 
 SPBC HN ES       2317 25.20                             128    0.23 9  164 218 
 SPBC HZ I        2317 31.06        25.0 0.24            128            164 218 
 CHI  HZ EP       2317 11.59                             116   -0.58 8  250 195 
 CHI  HN ES       2317 41.44                             116   -0.13 8  250 195 
 CHI  HZ I        2317 48.84         7.0 0.48            117            250 195 
 PRA  HZ EP       2317 28.11                             106    0.08 6  393 209 
 PRA  HN ES       2318  9.97                             106    0.18 6  393 209 
 PRA  HZ I        2318 16.35        11.0 0.26            107            393 209 
 ORTC HN ES       2318 12.37                             106    1.90 6  396 216 
 ORTC HZ I        2318 18.69         5.9 0.18            107            396 216 
                                                                                
