 2014  917 2355 44.2 L   6.785 -73.134147.6  RSN 10 0.5 2.2LRSN                1
 GAP=139        0.97       3.5     6.2  6.2 -0.4512E+01  0.8809E+01  0.3687E+01E
 Epicentro: LOS SANTOS - SANTANDER                                             3
 ACTION:UPD 14-10-03 23:06 OP:nd   STATUS:               ID:20140917235544 L   I
 OLDACT:UP  14-09-18 05:19 OP:mh   STATUS:               ID:20140917234811     3
 OLDACT:UP  14-09-18 05:19 OP:mh   STATUS:               ID:20140917234811     3
 OLDACT:UP  14-09-18 05:19 OP:mh   STATUS:               ID:20140917234811     3
 OLDACT:UP  14-09-18 05:18 OP:mh   STATUS:               ID:20140917234811     3
 OLDACT:REG 14-09-18 04:23 OP:mh   STATUS:               ID:20140917234811     3
 2014-09-17-2348-11M.COL___287                                                 6
 STAT SP IPHASW D HRMM SECON CODA AMPLIT PERI AZIMU VELO AIN AR TRES W  DIS CAZ7
 BAR2 SZ EP       2356  4.02                             171   -0.0310 22.0 194 
 BAR2 SZ ES       2356 19.23                             171   -0.2810 22.0 194 
 BAR2 SZ I        2356 20.63        67.7 0.28            166           22.0 194 
 BRR  HZ EP     C 2356  6.02                             152    0.3410 73.1 299 
 BRR  HN ES       2356 23.08                             152    0.6710 73.1 299 
 BRR  HZ I        2356 27.05        34.4 0.14            146           73.1 299 
 PAM  SZ EP     C 2356  7.01                             151    0.3410 77.9  38 
 PAM  SN ES   1   2356 24.12                             151   -0.04 7 77.9  38 
 PAM  SZ I        2356 26.41        15.8 0.48            153           77.9  38 
 RUS  HZ EP   1   2356  8.03                             145   -0.01 7 98.9 177 
 RUS  HN ES   1   2356 26.70                             145    0.09 7 98.9 177 
 RUS  HZ I        2356 27.76        16.2 0.36            143           98.9 177 
 PTB  HZ EP       2356 10.85                             132   -0.58 9  149 260 
 PTB  HZ I        2356 27.72        31.8 0.26            127            149 260 
 OCA  HZ EP   1   2356 12.56                             130   -0.29 7  162 353 
 OCA  HN ES       2356 34.56                             130   -0.61 9  162 353 
 OCA  HZ I        2356 37.42        15.9 0.14            128            162 353 
 NOR  HZ EP   1   2356 20.26                             119    0.19 6  235 235 
 NOR  HN ES   1   2356 47.44                             119   -0.59 6  235 235 
 NOR  HZ I        2356 52.14        18.1 0.18            116            235 235 
 CHI  HZ EP   1   2356 22.21                             118    0.31 6  247 196 
 CHI  HN ES       2356 50.95                             118   -0.32 8  247 196 
 CHI  HZ I        2356 59.29         6.8 0.28            116            247 196 
 GUY2CHZ EP   1   2356 29.20                             113    1.27 5  301 235 
 GUY2CHN ES   4   2357  4.96                             113    2.94 0  301 235 
 GUY2CHZ I        2357 15.82         8.9 0.50                           301 235 
 PRA  HZ EP   1   2356 37.47                             107   -0.25 4  391 210 
 PRA  HN ES   4   2357 21.10                             107    1.66 0  391 210 
 PRA  HZ I        2357 25.39         9.6 0.30            105            391 210 
                                                                                
