 2013 1017 2233 25.2 L   6.789 -73.175142.0  RSN 12 0.3 2.0LRSN                1
 GAP=133        0.80       2.8     3.1  4.4 -0.6372E+00  0.3578E+01  0.2895E+01E
 Epicentro: LOS SANTOS - SANTANDER                                             3
 ACTION:UPD 13-11-25 09:22 OP:ep   STATUS:               ID:20131017223325 L   I
 OLDACT:REG 13-10-18 01:07 OP:nd   STATUS:               ID:20131017222835     3
 2013-10-17-2228-35M.COL___226                                                 6
 STAT SP IPHASW D HRMM SECON CODA AMPLIT PERI AZIMU VELO AIN AR TRES W  DIS CAZ7
 BAR2 SZ EP       2233 44.29                             171   -0.0710 21.7 182 
 BAR2 SZ ES       2233 59.07                             171   -0.2210 21.7 182 
 BAR2 SZ I        2234  0.71        30.9 0.12            170           21.7 182 
 BRR  HZ IP     D 2233 46.18                             153    0.3510 69.0 301 
 BRR  HN ES       2234  2.11                             153    0.2110 69.0 301 
 BRR  HZ I        2234  6.56        21.9 0.18            151           69.0 301 
 PAM  SZ EP       2233 47.38                             149    0.1610 80.4  41 
 PAM  SN ES       2234  4.24                             149   -0.1410 80.4  41 
 PAM  SZ I        2234  6.88        10.6 0.42            153           80.4  41 
 RUS  HZ EP       2233 48.34                             143   -0.1810 99.6 174 
 RUS  HN ES       2234  6.65                             143   -0.0510 99.6 174 
 RUS  HZ I        2234  9.10         8.6 0.24            145           99.6 174 
 PTB  HZ EP       2233 51.28                             132   -0.28 9  144 259 
 PTB  HN ES       2234 11.42                             132   -0.69 9  144 259 
 PTB  HZ I        2234 13.22        16.8 0.16            131            144 259 
 SPBC HZ EP       2233 53.34                             129    0.21 9  160 218 
 SPBC HN ES       2234 15.71                             129    0.80 9  160 218 
 SPBC HZ I        2234 21.62        17.7 0.26            129            160 218 
 ZAR  HZ EP       2233 56.82                             122   -0.33 9  201 293 
 ZAR  HE ES       2234 22.40                             122    0.34 9  201 293 
 ZAR  HZ I        2234 27.18        10.4 0.20            122            201 293 
 NOR  HZ EP       2234  0.39                             118    0.03 8  231 234 
 NOR  HN ES       2234 27.73                             118   -0.04 8  231 234 
 NOR  HZ I        2234 36.26         9.9 0.18            119            231 234 
 SML  HZ EP   4   2234  0.19                             117   -1.42 0  243 336 
 SML  HN ES   4   2234 28.78                             117   -1.21 0  243 336 
 SML  HZ I        2234 36.15        17.7 0.26            118            243 336 
 CHI  HZ EP       2234  2.67                             116    0.19 8  247 195 
 CHI  HN ES   1   2234 31.78                             116    0.23 6  247 195 
 CHI  HZ I        2234 35.18         5.3 0.30            118            247 195 
 GUY2CHZ EP   4   2234 10.59                             112    2.33 0  298 235 
 GUY2CHN ES   4   2234 44.77                             112    2.93 0  298 235 
 GUY2CHZ I        2234 49.67         6.0 0.50                           298 235 
 PRA  HZ EP       2234 18.05                             106   -0.24 6  389 209 
 PRA  HN ES       2234 59.16                             106   -0.53 6  389 209 
 PRA  HZ I        2235  4.41         3.4 0.30            107            389 209 
                                                                                
