 2012  817 2315 34.6 L   6.628 -73.778 99.2  RSN  4 0.2 1.6LRSN                1
 GAP=126        0.50       4.0     3.2  8.1  0.3481E+01 -0.3060E+01  0.5142E+01E
 Epicentro: EL CARMEN DE CHUCURI - SANTANDER                                   3
 ACTION:UPD 12-09-10 11:56 OP:ep   STATUS:               ID:20120817231534 L   I
 2012-08-17-2310-00M.COL___217                                                 6
 STAT SP IPHASW D HRMM SECON CODA AMPLIT PERI AZIMU VELO AIN AR TRES W  DIS CAZ7
 BRR  HZ EP   1   2315 49.77                             150    0.03 7 53.5   8 
 BRR  HZ I        2315 49.99        10.7 0.12                          53.5   8 
 BRR  HN ES   1   2316  1.80                             150    0.26 7 53.5   8 
 BAR2 SZ EP   1   2315 50.80                             144   -0.13 7 66.0  93 
 BAR2 SZ ES   1   2316  3.32                             144   -0.34 7 66.0  93 
 BAR2 SZ I        2316  4.37        17.1 0.19                          66.0  93 
 PTB  HN ES   1   2316  4.29                             140   -0.10 7 75.6 263 
 RUS  HE ES   1   2316 11.58                             129    0.29 7  112 137 
 RUS  HZ I        2316 13.39         5.5 0.23                           112 137 
                                                                                
