 2011 1217 2333 19.8 L   6.800 -73.110145.4  RSN  9 0.3 2.0LRSN                1
 GAP=141        0.49       2.9     4.3  4.2 -0.1688E+01 -0.1713E+01  0.4230E+01E
 Epicentro: LOS SANTOS - SANTANDER                                             3
 ACTION:UPD 12-07-13 16:16 OP:ep   STATUS:               ID:20111217233319 L   I
 2011-12-17-2330-00M.COL___188                                                 6
 STAT SP IPHASW D HRMM SECON CODA AMPLIT PERI AZIMU VELO AIN AR TRES W  DIS CAZ7
 BAR2 SZ EP   1   2333 39.28                             170   -0.08 7 24.4 199 
 BAR2 SZ ES   2   2333 54.15                             170   -0.51 5 24.4 199 
 BAR2 SZ I        2333 56.16        15.5 0.21                          24.4 199 
 GIR2 SZ EP   1   2333 39.39                             167   -0.02 7 32.1 343 
 BRR  HZ EP   1   2333 41.12                             151    0.05 7 74.7 297 
 BRR  HZ I        2333 41.49        45.2 0.16                          74.7 297 
 BRR  HE ES       2333 57.71                             151    0.0210 74.7 297 
 PAM  SZ EP   1   2333 41.93                             152    0.15 7 74.9  37 
 PAM  SN ES   2   2333 59.07                             152    0.11 5 74.9  37 
 RUS  HZ EP   1   2333 43.38                             144   -0.08 7  100 178 
 RUS  HN ES   2   2334  2.48                             144    0.53 5  100 178 
 RUS  HZ I        2334  3.17         8.0 0.23                           100 178 
 OCA  SZ EP   1   2333 47.67                             129   -0.41 7  161 352 
 OCA  SZ ES   2   2334 10.57                             129    0.39 5  161 352 
 OCA  SZ I        2334 14.99        19.2 0.47                           161 352 
 CHI  HZ EP   1   2333 57.40                             117   -0.15 6  250 196 
 CHI  HZ I        2333 59.99         4.4 0.40                           250 196 
 RREF HZ EP   1   2334  6.89                             111    0.66 5  325 230 
 RREF HN ES   2   2334 41.97                             111   -0.51 3  325 230 
 PRA  HZ EP   1   2334 13.42                             106   -0.08 4  394 210 
                                                                                
