 2013  217 2301 26.9 L   6.805 -73.090150.8  RSN  6 0.3 1.7LRSN                1
 GAP=143        0.66       3.1     5.7  5.3 -0.2490E+01  0.8672E+01  0.4393E+01E
 Epicentro: LOS SANTOS - SANTANDER                                             3
 ACTION:UPD 13-03-12 09:33 OP:ep   STATUS:               ID:20130217230126 L   I
 2013-02-17-2300-00M.COL___241                                                 6
 STAT SP IPHASW D HRMM SECON CODA AMPLIT PERI AZIMU VELO AIN AR TRES W  DIS CAZ7
 BAR2 SZ ES   1   23 2  2.69                             170   -0.31 7 25.7 203 
 BAR2 SZ I        23 2  3.76        23.5 0.24            161           25.7 203 
 PAM  SZ EP   1   23 1 49.02                             153   -0.39 7 73.1  36 
 PAM  SE ES       23 2  7.12                             153    0.1610 73.1  36 
 PAM  SZ I        23 2  9.52         4.2 0.29            149           73.1  36 
 BRR  HZ EP       23 1 49.09                             152    0.2110 76.4 296 
 BRR  HE ES   1   23 2  6.27                             152    0.24 7 76.4 296 
 BRR  HE I        23 2  6.90        22.4 0.38            137           76.4 296 
 RUS  HZ EP       23 1 51.27                             145    0.1010  101 180 
 RUS  HE ES       23 2  9.96                             145   -0.1410  101 180 
 RUS  HE I        23 2 13.27         6.1 0.23            138            101 180 
 PTB  HZ EP   1   23 1 54.14                             132   -0.69 7  154 259 
 PTB  HZ I        23 2 18.11         6.4 0.22            120            154 259 
 CHI  HZ EP       23 2  5.41                             118    0.29 8  251 196 
 CHI  HN ES       23 2 35.07                             118    0.14 8  251 196 
 CHI  HZ I        23 2 43.08         1.9 0.55            110            251 196 
                                                                                
