 2017  317 2344 40.2 L   6.808 -73.159141.6  RSN  5 0.3 1.4LRSN                1
 GAP=134        0.88       4.6     4.1  7.4 -0.4659E+00  0.9688E+01 -0.2628E+01E
 Epicentro: LOS SANTOS - SANTANDER                                             3
 ACTION:UPD 17-05-25 18:41 OP:jn   STATUS:               ID:20170317234440 L   I
 OLDACT:REG 17-03-18 03:15 OP:ar   STATUS:               ID:20170317233749     3
 2017-03-17-2338-00M.COL___382                                                 6
 STAT SP IPHASW D HRMM SECON CODA AMPLIT PERI AZIMU VELO AIN AR TRES W  DIS CAZ7
 BAR2 EZ EP       2344 59.01                             170   -0.3010 24.0 186 
 BAR2 EZ ES       2345 14.36                             170    0.1210 24.0 186 
 BAR2 EZ I        2345 14.66         7.8 0.30            169           24.0 186 
 PAM  EZ EP       2345  1.99                             150    0.0310 77.7  41 
 PAM  EN ES       2345 18.81                             150   -0.1410 77.7  41 
 PAM  EZ I        2345 19.55         3.9 0.16            152           77.7  41 
 RUS  HZ EP       2345  3.52                             143   -0.0710  102 175 
 RUS  HN ES       2345 22.21                             143    0.3610  102 175 
 RUS  HZ I        2345 23.12         4.4 0.40            143            102 175 
 PTB  HZ EP       2345  6.85                             131    0.17 9  146 258 
 PTB  HE ES       2345 26.67                             131   -0.68 9  146 258 
 PTB  HZ I        2345 30.54         3.9 0.22            131            146 258 
 ZAR  HE ES       2345 37.72                             122    0.60 9  202 292 
                                                                                
