 2016  817 2142 45.8 L   6.775 -73.138139.8  RSN  6 0.2 1.9LRSN                1
 GAP=139        0.42       1.9     2.2  3.3 -0.1124E+01  0.3561E+01 -0.9385E+00E
 Epicentro: LOS SANTOS - SANTANDER                                             3
 ACTION:UPD 16-10-29 15:36 OP:rebc STATUS:               ID:20160817214245 L   I
 OLDACT:DUP 16-08-18 04:14 OP:cara STATUS:               ID:20160817213760d    3
 OLDACT:REG 16-08-18 03:42 OP:cara STATUS:               ID:20160817213759     3
 2016-08-17-2137-59S.COL___346                                                 6
 STAT SP IPHASW D HRMM SECON CODA AMPLIT PERI AZIMU VELO AIN AR TRES W  DIS CAZ7
 BAR2 EZ EP       2143  4.66                             171   -0.0210 20.8 194 
 BAR2 HN ES       2143 19.47                             171    0.0710 20.8 194 
 BAR2 EZ I        2143 21.86        21.3 0.20                          20.8 194 
 PAM  EZ IP       2143  7.62                             149    0.1210 79.0  38 
 PAM  EN ES       2143 24.38                             149   -0.0410 79.0  38 
 PAM  EZ I        2143 25.94         8.4 0.18                          79.0  38 
 RUS  HZ EP       2143  8.64                             143   -0.1410 97.8 176 
 RUS  HE ES       2143 26.75                             143    0.0610 97.8 176 
 RUS  HZ I        2143 27.87         8.8 0.24                          97.8 176 
 SPBC HN ES       2143 35.20                             128   -0.27 9  162 220 
 SPBC HZ I        2143 39.38        14.2 0.20                           162 220 
 ZAR  HZ EP       2143 17.87                             121   -0.20 8  206 293 
 ZAR  HN ES       2143 43.25                             121    0.02 8  206 293 
 ZAR  HZ I        2143 49.13         9.7 0.26                           206 293 
 NOR  HZ EP       2143 21.36                             117    0.25 8  234 235 
 NOR  HE ES       2143 48.85                             117    0.22 8  234 235 
 NOR  HZ I        2143 55.08         8.0 0.22                           234 235 
                                                                                
