 2013 1017 2149  1.5 L   6.801 -73.164141.0  RSN 10 0.4 2.1LRSN                1
 GAP=134        0.87       3.5     4.3  5.6 -0.1990E+01  0.9280E+01  0.3369E+00E
 Epicentro: LOS SANTOS - SANTANDER                                             3
 ACTION:UPD 13-11-25 09:22 OP:ep   STATUS:               ID:20131017214901 L   I
 OLDACT:REG 13-10-18 01:05 OP:nd   STATUS:               ID:20131017214835     3
 2013-10-17-2148-35M.COL___226                                                 6
 STAT SP IPHASW D HRMM SECON CODA AMPLIT PERI AZIMU VELO AIN AR TRES W  DIS CAZ7
 BAR2 SZ EP       2149 20.77                             170    0.1910 23.2 185 
 BAR2 SZ ES       2149 35.79                             170    0.3510 23.2 185 
 BAR2 SZ I        2149 37.15        35.4 0.20            168           23.2 185 
 BRR  HZ EP       2149 22.52                             152    0.4710 69.4 299 
 BRR  HN ES   2   2149 38.04                             152   -0.02 5 69.4 299 
 BRR  HZ I        2149 39.99        29.6 0.36            149           69.4 299 
 PAM  SZ IP     D 2149 23.69                             149    0.3810 78.6  41 
 PAM  SN ES       2149 39.63                             149   -0.6610 78.6  41 
 PAM  SZ I        2149 41.20         9.2 0.20            154           78.6  41 
 RUS  HZ EP       2149 24.82                             143   -0.0110  101 175 
 RUS  HN ES       2149 42.80                             143   -0.2110  101 175 
 RUS  HZ I        2149 45.65         9.3 0.26            144            101 175 
 PTB  HZ EP       2149 27.33                             131   -0.59 9  146 259 
 PTB  HN ES       2149 48.39                             131   -0.13 9  146 259 
 PTB  HZ I        2149 50.85        20.8 0.12            130            146 259 
 SPBC HZ EP       2149 29.73                             128    0.18 9  162 218 
 SPBC HN ES   2   2149 52.34                             128    0.93 5  162 218 
 SPBC HZ I        2149 58.94        15.3 0.32            128            162 218 
 ZAR  HZ EP       2149 33.24                             121   -0.22 9  202 292 
 ZAR  HE ES   2   2149 58.57                             121    0.20 4  202 292 
 ZAR  HZ I        2150  4.93        12.9 0.34            121            202 292 
 SML  HZ EP   2   2149 37.52                             116   -0.26 4  243 336 
 SML  HN ES   2   2150  6.57                             116    0.51 4  243 336 
 SML  HZ I        2150 10.52        18.8 0.26            118            243 336 
 GUY2CHZ EP   4   2149 46.15                             111    1.42 0  300 235 
 GUY2CHN ES   4   2150 20.60                             111    2.16 0  300 235 
 GUY2CHZ I        2150 28.86         6.3 0.36                           300 235 
 PRA  HZ EP       2149 54.99                             106    0.21 6  391 209 
 PRA  HN ES       2150 35.66                             106   -0.66 6  391 209 
 PRA  HZ I        2150 43.39         4.7 0.26            107            391 209 
                                                                                
