 2013 1117 2216 13.8 L   6.833 -73.159145.3  RSN  6 0.4 1.5LRSN                1
 GAP=133        1.11       4.7     5.7  8.1  0.4731E+00  0.8908E+01 -0.3984E+01E
 Epicentro: LOS SANTOS - SANTANDER                                             3
 ACTION:UPD 14-01-09 16:29 OP:ep   STATUS:               ID:20131117221613 L   I
 OLDACT:REG 13-11-17 21:37 OP:jn   STATUS:               ID:20131117221001d    3
 2013-11-17-2210-00M.COL___279                                                 6
 STAT SP IPHASW D HRMM SECON CODA AMPLIT PERI AZIMU VELO AIN AR TRES W  DIS CAZ7
 BAR2 SZ ES       2216 48.60                             169   -0.1710 26.7 185 
 BAR2 SZ I        2216 49.24        10.7 0.26            169           26.7 185 
 BRR  HZ EP       2216 35.21                             153    0.4810 68.2 296 
 BRR  HN ES       2216 51.85                             153    0.8010 68.2 296 
 BRR  HZ I        2216 55.18         7.7 0.34            153           68.2 296 
 PAM  SZ EP       2216 36.15                             151    0.2910 75.6  42 
 PAM  SN ES       2216 52.83                             151   -0.2410 75.6  42 
 RUS  HZ EP       2216 37.61                             143   -0.1710  104 175 
 RUS  HN ES       2216 56.22                             143   -0.2610  104 175 
 RUS  HZ I        2216 57.91         3.0 0.18            145            104 175 
 PTB  HZ EP       2216 40.84                             132    0.18 9  147 257 
 PTB  HN ES       2217  1.13                             132   -0.48 9  147 257 
 PTB  HZ I        2217  3.48         5.3 0.46            133            147 257 
 SML  HZ EP   4   2216 49.12                             118   -0.85 0  240 335 
 SML  HN ES       2217 17.44                             118   -0.75 8  240 335 
                                                                                
