 2016  117 2208 51.5 L   6.814 -73.351119.1  RSN 11 0.5 2.0LRSN                1
 GAP= 92        1.20       2.8     4.0  7.3 -0.2435E+01  0.1191E+02 -0.2628E+01E
 Epicentro: ZAPATOCA - SANTANDER                                               3
 ACTION:UPD 16-03-09 23:26 OP:cam  STATUS:               ID:20160117220851 L   I
 OLDACT:UP  16-01-18 09:58 OP:ak   STATUS:               ID:20160117215751d    3
 OLDACT:DUP 16-01-18 09:53 OP:ak   STATUS:               ID:20160117215751d    3
 2016-01-17-2157-48M.COL___328                                                 6
 STAT SP IPHASW D HRMM SECON CODA AMPLIT PERI AZIMU VELO AIN AR TRES W  DIS CAZ7
 BAR2 EZ EP       22 9  8.52                             164    0.4110 30.9 143 
 BAR2 EZ ES       22 9 21.28                             164    0.1810 30.9 143 
 BAR2 EZ I        22 9 22.45        39.0 0.36            169           30.9 143 
 PAM  EZ EP       22 9 12.60                             140    0.5610 92.5  51 
 PAM  EN ES       22 9 28.69                             140    0.6010 92.5  51 
 PAM  EZ I        22 9 31.60        14.3 0.24            143           92.5  51 
 RUS  HZ EP       22 9 13.07                             136   -0.1010  106 164 
 RUS  HN ES       22 9 29.50                             136   -0.5910  106 164 
 RUS  HZ I        22 9 31.52        15.0 0.18            140            106 164 
 PTB  HZ EP       22 9 13.35                             130   -0.9410  126 256 
 PTB  HN ES       22 9 31.54                             130   -0.5510  126 256 
 PTB  HZ I        22 9 34.54        20.8 0.14            132            126 256 
 SPBC HZ EP   2   22 9 17.60                             124    0.75 5  151 212 
 SPBC HN ES       22 9 36.59                             124   -0.07 9  151 212 
 SPBC HZ I        22 9 43.41        14.7 0.18            127            151 212 
 OCA  HZ EP       22 9 17.21                             123   -0.37 9  158   1 
 OCA  HN ES       22 9 37.10                             123   -0.84 9  158   1 
 OCA  HZ I        22 9 42.29        29.6 0.13            125            158   1 
 ZAR  HZ EP       22 9 20.42                             119    0.42 9  183 294 
 ZAR  HN ES       22 9 43.09                             119    0.84 9  183 294 
 NOR  HZ EP       22 9 24.01                             114    0.12 8  218 231 
 NOR  HN ES       22 9 49.23                             114    0.06 8  218 231 
 NOR  HZ I        22 9 53.46         9.3 0.14            117            218 231 
 SML  HZ EP       22 9 25.13                             112   -0.47 8  234 340 
 SML  HN ES       22 9 52.27                             112    0.04 8  234 340 
 SML  HZ I        2210  2.10        15.6 0.14            114            234 340 
 CHI  HZ EP       22 9 27.42                             111   -0.03 8  245 190 
 CHI  HN ES       22 9 55.57                             111    0.05 8  245 190 
 GUY2CHZ EP   2   22 9 32.68                             108    0.70 4  284 232 
 GUY2CHN ES       2210  4.11                             108    0.54 7  284 232 
 GUY2CHZ I        2210 12.25         3.7 0.28                           284 232 
                                                                                
