 2011  817 2028 35.7 L   6.763 -73.091142.8  RSN 10 0.4 2.4LRSN                1
 GAP=145        0.66       2.7     4.7  4.8 -0.2747E+01  0.7216E+01  0.1629E+01E
 Epicentro: LOS SANTOS - SANTANDER                                             3
 ACTION:UPD 12-07-13 15:52 OP:ep   STATUS:               ID:20110817202835 L   I
 2011-08-17-2027-53S.COL___149                                                 6
 STAT SP IPHASW D HRMM SECON CODA AMPLIT PERI AZIMU VELO AIN AR TRES W  DIS CAZ7
 BAR2 SZ EP       2028 54.97                             171    0.0110 21.4 208 
 BAR2 SZ ES   1   2029  9.63                             171   -0.33 7 21.4 208 
 BAR2 SZ I        2029 11.25        69.0 0.30                          21.4 208 
 PAM  SZ EP       2028 57.86                             150    0.2610 77.0  34 
 PAM  SN ES   1   2029 14.97                             150    0.31 7 77.0  34 
 BRR  HZ EP       2028 56.92                             150   -0.0610 78.4 299 
 BRR  HZ I        2028 57.20        80.7 0.26                          78.4 299 
 BRR  HN ES   1   2029 14.19                             150    0.62 7 78.4 299 
 RUS  HZ EP       2028 58.93                             144    0.0610 96.3 179 
 RUS  HN ES   1   2029 16.57                             144   -0.36 7 96.3 179 
 RUS  HZ I        2029 18.28        21.4 0.26                          96.3 179 
 OCA  SZ EP   1   2029  3.79                             128   -0.47 7  165 351 
 OCA  SZ ES   1   2029 26.02                             128   -0.51 7  165 351 
 OCA  SZ I        2029 31.68        44.7 0.37                           165 351 
 NOR  SZ EP   2   2029 10.46                             118   -1.10 4  237 236 
 NOR  SE ES   2   2029 39.03                             118   -0.49 4  237 236 
 CHI  HZ EP   2   2029 13.26                             117    0.25 4  246 197 
 CHI  HN ES   1   2029 41.99                             117   -0.11 6  246 197 
 CHI  HZ I        2029 49.02         9.9 0.54                           246 197 
 RREF HZ EP   3   2029 22.05                             110    0.09 2  324 231 
 RREF HN ES   2   2029 58.30                             110    0.27 3  324 231 
 RREF HZ I        2030  6.59        10.1 0.40                           324 231 
 DBB  SZ EP       2029 23.98                             108    0.17 6  346 275 
 PRA  HZ EP       2029 29.26                             106    0.18 6  392 211 
 PRA  HE ES   1   2030 11.36                             106    0.66 4  392 211 
                                                                                
