 2013  417 2347 19.0 L   6.811 -73.112143.7  RSN  9 0.5 1.7LRSN                1
 GAP=140        1.17       4.8     5.8  7.3  0.7250E+00  0.1413E+02  0.6036E+00E
 Epicentro: LOS SANTOS - SANTANDER                                             3
 ACTION:UPD 13-05-22 14:39 OP:EP   STATUS:               ID:20130417234719 L   I
 2013-04-17-2340-00M.COL___250                                                 6
 STAT SP IPHASW D HRMM SECON CODA AMPLIT PERI AZIMU VELO AIN AR TRES W  DIS CAZ7
 BAR2 SZ EP   1   2347 38.53                             170    0.09 7 25.4 198 
 BAR2 SZ ES   1   2347 53.50                             170   -0.10 7 25.4 198 
 BAR2 SZ I        2347 56.79        17.2 0.32            169           25.4 198 
 GIR2 SZ EP       2347 39.07                             167    0.6410 30.9 343 
 GIR2 SZ ES   1   2347 52.60                             167   -0.98 7 30.9 343 
 GIR2 SZ I        2347 55.78         5.9 0.24            166           30.9 343 
 BRR  HZ EP       2347 40.74                             151    0.6410 73.9 296 
 BRR  HE ES       2347 57.56                             151    1.0110 73.9 296 
 BRR  HZ I        2348  5.58        11.1 0.40            151           73.9 296 
 PAM  SN ES   1   2347 57.43                             151   -0.39 7 74.1  38 
 PAM  SZ I        2348  1.48         3.9 0.31            157           74.1  38 
 RUS  HZ EP       2347 42.69                             143    0.0510  102 178 
 RUS  HN ES       2348  0.89                             143   -0.1810  102 178 
 RUS  HZ I        2348  2.58         4.6 0.14            148            102 178 
 PTB  HZ EP       2347 45.66                             131   -0.51 9  152 259 
 PTB  HE ES       2348  6.97                             131   -0.39 9  152 259 
 PTB  HZ I        2348 14.12        12.7 0.24            133            152 259 
 ZAR  HZ EP       2347 51.37                             122   -0.27 8  207 291 
 ZAR  HN ES   1   2348 16.88                             122   -0.20 6  207 291 
 NOR  HZ EP       2347 54.95                             118   -0.08 8  238 235 
 NOR  HE ES       2348 23.15                             118    0.02 8  238 235 
 NOR  HZ I        2348 26.51         7.5 0.21            121            238 235 
 SML  HZ EP   1   2347 55.51                             117   -0.07 6  244 334 
 SML  HE ES   1   2348 23.32                             117   -0.77 6  244 334 
                                                                                
