 2011  817 2010 58.9 L   6.772 -73.088148.4  RSN  4 0.2 1.5LRSN                1
 GAP=145        0.60       4.9     8.0  7.0  0.1498E+02 -0.2353E+02 -0.1078E+02E
 Epicentro: LOS SANTOS - SANTANDER                                             3
 ACTION:UPD 12-07-13 15:52 OP:ep   STATUS:               ID:20110817201058 L   I
 2011-08-17-2006-32S.COL___150                                                 6
 STAT SP IPHASW D HRMM SECON CODA AMPLIT PERI AZIMU VELO AIN AR TRES W  DIS CAZ7
 BAR2 SZ EP       2011 18.69                             171   -0.1110 22.4 208 
 BAR2 SZ ES   1   2011 33.89                             171   -0.45 7 22.4 208 
 BAR2 SZ I        2011 35.35         6.2 0.34                          22.4 208 
 PAM  SZ EP       2011 21.48                             152    0.1910 76.0  34 
 BRR  HZ EP       2011 20.53                             151   -0.1810 78.3 298 
 BRR  HZ I        2011 20.77        11.4 0.16                          78.3 298 
 BRR  HE ES   1   2011 38.08                             151    0.33 7 78.3 298 
 RUS  HZ EP       2011 22.64                             145    0.0010 97.2 180 
 RUS  HE ES   1   2011 41.48                             145    0.29 7 97.2 180 
 RUS  HZ I        2011 42.42         2.7 0.26                          97.2 180 
                                                                                
