 2010  317 2215 25.8 L   6.834 -72.970135.6  RSN  4 0.2 1.6LRSN                1
 GAP=257        0.53       4.2     6.8  6.1  0.1578E+02  0.1613E+01  0.1366E+01E
 Epicentro: CEPITA - SANTANDER                                                 3
 ACTION:UP  10-08-24 09:54 OP:vdl  STATUS:               ID:20100317221525 L   I
 2010-03-17-2214-20S.COL___098                                                 6
 STAT SP IPHASW D HRMM SECON CODA AMPLIT PERI AZIMU VELO SNR AR TRES W  DIS CAZ7
 BAR2 SZ ES   2   2215 58.59                             164    -0.6 5   36 221 
 BRR  HZ EP       2215 46.75                             145    -0.110   87 290 
 BRR  HN ES       2216  3.52                             145     0.210   87 290 
 RUS  HZ EP   1   2215 48.93                             140     0.1 7  105 187 
 RUS  HN ES       2216  6.99                             140     0.110  105 187 
 RUS  HZ I        2216  9.05         4.8 0.24                           105 187 
 RREF BN ES   1   2216 50.57                             108    -0.2 5  339 231 
 RREF BZ I        2216 52.96         1.9 0.07                           339 231 
                                                                                
