 2017  417 2150 20.5 L   6.783 -73.158144.2  RSN  9 0.5 1.6LRSN                1
 GAP=111        1.18       4.5     5.4  6.5  0.3922E+01  0.4551E+01  0.6899E+01E
 Epicentro: LOS SANTOS - SANTANDER                                             3
 ACTION:UPD 17-05-30 21:13 OP:jn   STATUS:               ID:20170417215020 L   I
 OLDACT:UP  17-04-18 04:23 OP:edw  STATUS:               ID:20170417214539     3
 OLDACT:REG 17-04-18 03:28 OP:edw  STATUS:               ID:20170417214539     3
 2017-04-17-2148-00M.COL___374                                                 6
 STAT SP IPHASW D HRMM SECON CODA AMPLIT PERI AZIMU VELO AIN AR TRES W  DIS CAZ7
 BAR2 EZ EP       2150 39.81                             171   -0.0810 21.3 187 
 BAR2 EZ ES       2150 54.54                             171   -0.4910 21.3 187 
 BAR2 EZ I        2150 56.08        11.1 0.30            168           21.3 187 
 BRR  HZ EP       2150 41.58                             152    0.1310 70.9 300 
 BRR  HN ES       2150 58.93                             152    1.1310 70.9 300 
 PAM  EZ EP     C 2150 42.78                             150    0.1010 79.7  39 
 PAM  EN ES       2150 59.65                             150   -0.3410 79.7  39 
 PAM  EZ I        2151  1.97         7.3 0.54            154           79.7  39 
 RUS  HZ EP       2150 43.76                             144   -0.2010 98.8 175 
 RUS  HN ES       2151  2.48                             144    0.2110 98.8 175 
 RUS  HZ I        2151  3.53         4.2 0.18            144           98.8 175 
 PTB  HZ EP   9   2150 46.49                             132   -0.68 0  146 259 
 PTB  HN ES       2151  7.29                             132   -0.01 9  146 259 
 PTB  HZ I        2151 10.56         4.2 0.14            130            146 259 
 YPLC HZ EP     C 2150 50.19                             126    0.12 9  176 151 
 ZAR  HZ EP       2150 52.96                             122    0.19 9  203 293 
 ZAR  HN ES       2151 16.86                             122   -1.09 9  203 293 
 ZAR  HZ I        2151 24.07         3.7 0.34            121            203 293 
 NOR  HZ EP       2150 56.14                             118    0.25 8  232 235 
 NOR  HN ES   4   2151 24.57                             118    1.07 0  232 235 
 NOR  HZ I        2151 33.40         2.7 0.42            117            232 235 
 CHI  HZ EP       2150 58.14                             117    0.28 8  246 195 
 CHI  HE ES       2151 26.62                             117   -0.40 8  246 195 
 CHI  HZ I        2151 30.86         2.7 0.68            117            246 195 
                                                                                
