 2017 1117 2300 52.5 L   6.807 -73.166140.0  RSN  9 0.4 1.8LRSN                1
 GAP=134        0.61       2.7     2.7  5.1 -0.9375E+00  0.4344E+01  0.3098E+01E
 Epicentro: LOS SANTOS - SANTANDER                                             3
 ACTION:UPD 17-12-12 19:56 OP:rebc STATUS:               ID:20171117230052 L   I
 OLDACT:UP  17-11-18 05:43 OP:mg   STATUS:               ID:20171117225746     3
 OLDACT:REG 17-11-18 05:04 OP:mg   STATUS:               ID:20171117225746     3
 2017-11-17-2258-00M.COL___473                                                 6
 STAT SP IPHASW D HRMM SECON CODA AMPLIT PERI AZIMU VELO AIN AR TRES W  DIS CAZ7
 BAR2 EZ EP       23 1 11.35                             170   -0.1110 23.8 184 
 BAR2 EZ ES   2   23 1 26.27                             170    0.03 5 23.8 184 
 BAR2 EZ I        23 1 27.82        20.3 0.18            169           23.8 184 
 PAM  EZ EP       23 1 14.27                             149    0.1010 78.2  41 
 PAM  EN ES       23 1 31.27                             149    0.2110 78.2  41 
 PAM  EZ I        23 1 33.95         5.0 0.22            154           78.2  41 
 RUS  HZ EP       23 1 15.37                             142   -0.4010  102 175 
 RUS  HN ES       23 1 33.96                             142    0.0410  102 175 
 RUS  HZ I        23 1 35.52         7.6 0.20            144            102 175 
 PTB  HZ EP   2   23 1 18.38                             131   -0.44 5  146 258 
 PTB  HN ES       23 1 38.99                             131   -0.36 9  146 258 
 PTB  HZ I        23 1 41.83         4.7 0.22            131            146 258 
 SPBC HZ EP   2   23 1 20.02                             128   -0.48 5  162 218 
 SPBC HN ES   2   23 1 42.74                             128    0.41 5  162 218 
 SPBC HZ I        23 1 47.87         9.2 0.07            129            162 218 
 ZAR  HN ES       23 1 49.28                             121    0.12 9  202 292 
 ZAR  HZ I        23 1 53.99        16.2 0.14            123            202 292 
 NOR  HZ EP   1   23 1 27.86                             117    0.10 6  233 234 
 NOR  HN ES   1   23 1 55.65                             117    0.39 6  233 234 
 NOR  HZ I        23 2  0.45         5.9 0.18            119            233 234 
 GUY2CHZ EP   3   23 1 37.34                             111    1.64 2  300 234 
 GUY2CHN ES   3   23 2 10.87                             111    1.48 2  300 234 
 GUY2CHZ I        23 2 17.98         2.6 0.52                           300 234 
 PRA  HZ EP       23 1 45.88                             106    0.09 6  392 209 
 PRA  HN ES       23 2 27.85                             106    0.50 6  392 209 
 PRA  HZ I        23 2 32.50         3.7 0.38            107            392 209 
                                                                                
