 2016 1217 2104 38.0 L   6.793 -73.139142.0  RSN  8 0.5 1.6LRSN                1
 GAP=138        1.11       4.9     4.6  7.4 -0.2766E+01  0.1170E+02  0.5524E+01E
 Epicentro: LOS SANTOS - SANTANDER                                             3
 ACTION:UPD 17-01-11 20:16 OP:rebc STATUS:               ID:20161217210438 L   I
 OLDACT:REG 16-12-18 03:34 OP:lv   STATUS:               ID:20161217205744     3
 2016-12-17-2058-00M.COL___387                                                 6
 STAT SP IPHASW D HRMM SECON CODA AMPLIT PERI AZIMU VELO AIN AR TRES W  DIS CAZ7
 BAR2 EZ ES       21 5 12.32                             170    0.2510 22.8 192 
 BAR2 EZ I        21 5 13.23        10.3 0.13            171           22.8 192 
 BRR  HZ EP       21 4 59.00                             151    0.2410 72.2 299 
 BRR  HN ES       21 5 15.48                             151    0.4910 72.2 299 
 PAM  EZ EP       21 4 59.85                             150    0.0710 77.5  39 
 PAM  EE ES       21 5 16.57                             150   -0.2310 77.5  39 
 PAM  EZ I        21 5 19.30         4.2 0.46            152           77.5  39 
 RUS  HZ EP       21 5  0.94                             143   -0.3410 99.8 176 
 RUS  HE ES       21 5 19.51                             143    0.0310 99.8 176 
 RUS  HZ I        21 5 21.24         3.8 0.22            145           99.8 176 
 PTB  HZ EP       21 5  3.99                             131   -0.69 9  148 259 
 PTB  HN ES       21 5 24.70                             131   -0.82 9  148 259 
 PTB  HZ I        21 5 27.96         4.6 0.17            131            148 259 
 ZAR  HN ES       21 5 35.52                             121    0.06 9  205 292 
 ZAR  HZ I        21 5 43.48         3.5 0.13            121            205 292 
 NOR  HN ES       21 5 41.18                             118   -0.03 8  235 235 
 NOR  HZ I        21 5 46.54         3.0 0.17            118            235 235 
 GUY2CHZ EP       21 5 22.40                             112    0.98 7  301 235 
 GUY2CHE ES       21 5 55.86                             112    0.54 7  301 235 
 GUY2CHZ I        21 6  3.50         3.1 0.38                           301 235 
                                                                                
