 2013  217 2104 22.5 L   6.868 -73.347125.3  RSN  7 0.4 1.8LRSN                1
 GAP= 95        1.02       4.5     5.2  7.5 -0.2351E+01  0.8280E+01 -0.6311E+01E
 Epicentro: BETULIA - SANTANDER                                                3
 ACTION:UPD 13-03-12 09:33 OP:ep   STATUS:               ID:20130217210422 L   I
 2013-02-17-2100-00M.COL___241                                                 6
 STAT SP IPHASW D HRMM SECON CODA AMPLIT PERI AZIMU VELO AIN AR TRES W  DIS CAZ7
 BAR2 SZ EP       21 4 40.31                             163    0.3210 35.5 149 
 BAR2 SZ ES       21 4 53.97                             163    0.3010 35.5 149 
 BAR2 SZ I        21 4 54.92        41.5 0.27            166           35.5 149 
 BRR  HN ES   1   21 4 54.55                             158    0.58 7 48.2 303 
 BRR  HN I        21 4 55.52        48.1 0.23            157           48.2 303 
 PAM  SZ EP       21 4 43.73                             143    0.4110 88.5  54 
 PAM  SN ES       21 4 58.77                             143   -0.8210 88.5  54 
 PAM  SZ I        21 5  2.42         6.3 0.32            146           88.5  54 
 RUS  HZ EP       21 4 45.24                             136    0.0610  112 165 
 RUS  HE ES   1   21 5  2.77                             136   -0.14 7  112 165 
 RUS  HE I        21 5  3.54         7.0 0.23            139            112 165 
 PTB  HZ EP       21 4 45.60                             131   -0.3610  128 254 
 PTB  HN ES   1   21 5  3.70                             131   -0.60 7  128 254 
 PTB  HZ I        21 5  8.83         4.6 0.19            132            128 254 
 OCA  HZ EP       21 4 48.43                             126    0.03 9  152   1 
 SML  HN ES   1   21 5 22.97                             114    0.29 6  228 340 
                                                                                
