 2014  717 2311  7.4 L   6.203 -73.639106.4  RSN  4 0.3 1.6LRSN                1
 GAP=243        0.75       6.7     3.7  7.3  0.3416E+01  0.9869E+01  0.9475E+01E
 Epicentro: LA PAZ - SANTANDER                                                 3
 ACTION:UPD 15-03-16 20:44 OP:nd   STATUS:               ID:20140717231107 L   I
 OLDACT:UP  14-07-18 04:40 OP:cam  STATUS:               ID:20140717231001d    3
 OLDACT:DUP 14-07-18 04:38 OP:cam  STATUS:               ID:20140717231001d    3
 OLDACT:UP  14-07-18 04:38 OP:cam  STATUS:               ID:20140717231000     3
 OLDACT:REG 14-07-18 04:20 OP:cam  STATUS:               ID:20140717231000     3
 2014-07-17-2310-00M.COL___282                                                 6
 STAT SP IPHASW D HRMM SECON CODA AMPLIT PERI AZIMU VELO AIN AR TRES W  DIS CAZ7
 BAR2 SZ IP     C 2311 24.79                             146    0.3310 66.4  50 
 BAR2 SZ ES       2311 37.86                             146    0.0910 66.4  50 
 BAR2 SZ I        2311 39.55        17.2 0.28            148           66.4  50 
 PTB  HZ EP       2311 26.67                             134    0.0410 97.7 292 
 PTB  HN ES       2311 41.49                             134   -0.1410 97.7 292 
 PTB  HZ I        2311 44.13         9.1 0.36            134           97.7 292 
 BRR  HZ EP       2311 26.27                             133   -0.5610  100 355 
 BRR  HE ES       2311 41.91                             133   -0.0810  100 355 
 ZAR  HZ EP     D 2311 36.77                             113    0.03 9  196 317 
 ZAR  HE ES       2312  0.05                             113    0.42 9  196 317 
 ZAR  HZ I        2312  4.15         3.3 0.12            114            196 317 
                                                                                
