 2013  217 2253 47.6 L   6.721 -73.192142.1  RSN  5 0.2 1.5LRSN                1
 GAP=226        0.41       3.3     3.9  4.4  0.6808E+01 -0.3350E+00 -0.7531E+00E
 Epicentro: VILLANUEVA - SANTANDER                                             3
 ACTION:UPD 13-03-12 09:33 OP:ep   STATUS:               ID:20130217225347 L   I
 2013-02-17-2250-00M.COL___241                                                 6
 STAT SP IPHASW D HRMM SECON CODA AMPLIT PERI AZIMU VELO AIN AR TRES W  DIS CAZ7
 BAR2 SZ EP       2254  6.57                             174   -0.0710 14.2 176 
 BAR2 SZ I        2254 24.43         8.4 0.08             47           14.2 176 
 BRR  HZ EP       2254  8.54                             152    0.1510 71.6 307 
 BRR  HN ES   1   2254 24.62                             152    0.03 7 71.6 307 
 BRR  HN I        2254 29.44        13.3 0.26             47           71.6 307 
 RUS  HZ EP   1   2254 10.20                             145   -0.21 7 92.3 172 
 RUS  HE ES       2254 28.24                             145    0.0410 92.3 172 
 RUS  HE I        2254 30.54         5.4 0.52             47           92.3 172 
 PTB  HZ EP   1   2254 13.44                             133   -0.25 7  141 262 
 PTB  HN ES   1   2254 34.00                             133   -0.02 7  141 262 
 PTB  HZ I        2254 36.58         4.1 0.17             47            141 262 
 CHI  HZ EP   1   2254 24.35                             117    0.31 6  239 195 
 CHI  HZ I        2254 57.39         1.1 0.55             37            239 195 
                                                                                
