 2014 1017 2234 43.4 L   6.799 -73.141152.0  RSN  7 0.4 1.7LRSN                1
 GAP=137        1.00       3.9     5.4  6.9 -0.1320E+01  0.9724E+01 -0.4620E+01E
 Epicentro: LOS SANTOS - SANTANDER                                             3
 ACTION:UPD 14-11-29 23:50 OP:nd   STATUS:               ID:20141017223443 L   I
 OLDACT:DUP 14-10-18 08:11 OP:stll STATUS:               ID:20141017222747d    3
 2014-10-17-2227-43M.COL___274                                                 6
 STAT SP IPHASW D HRMM SECON CODA AMPLIT PERI AZIMU VELO AIN AR TRES W  DIS CAZ7
 BAR2 SZ EP       2235  3.39                             171   -0.3610 23.3 191 
 BAR2 SZ ES       2235 19.71                             171    0.0610 23.3 191 
 BAR2 SZ I        2235 20.52         7.5 0.38            172           23.3 191 
 BRR  HZ EP       2235  5.80                             153    0.5810 71.7 298 
 BRR  HN ES       2235 22.83                             153    0.5610 71.7 298 
 BRR  HZ I        2235 26.52        12.7 0.34            154           71.7 298 
 PAM  SN ES       2235 24.03                             152   -0.0410 77.1  39 
 PAM  SZ I        2235 26.00         8.2 0.52            154           77.1  39 
 RUS  HZ EP       2235  7.76                             145    0.0310  100 176 
 RUS  HN ES       2235 26.40                             145   -0.3310  100 176 
 RUS  HZ I        2235 28.34         3.4 0.44            148            100 176 
 PTB  HZ EP       2235 10.88                             133   -0.02 9  148 259 
 PTB  HN ES       2235 31.75                             133   -0.62 9  148 259 
 PTB  HZ I        2235 34.17        10.1 0.10            135            148 259 
 SPBC HN ES       2235 35.32                             130    0.32 9  163 219 
 SML  HZ EP       2235 20.71                             119    0.32 8  244 335 
 SML  HN ES       2235 48.60                             119   -0.66 8  244 335 
                                                                                
