 2013 1117 2011 23.4 L   6.744 -73.186148.5  RSN  5 0.4 1.0LRSN                1
 GAP=196        0.78       6.0     6.4  8.5  0.2091E+02  0.7074E+01  0.8374E+01E
 Epicentro: VILLANUEVA - SANTANDER                                             3
 ACTION:UPD 14-01-09 16:29 OP:ep   STATUS:               ID:20131117201123 L   I
 OLDACT:REG 13-11-17 21:34 OP:jn   STATUS:               ID:20131117201000     3
 2013-11-17-2010-00M.COL___279                                                 6
 STAT SP IPHASW D HRMM SECON CODA AMPLIT PERI AZIMU VELO AIN AR TRES W  DIS CAZ7
 BAR2 SZ ES       2011 58.65                             173   -0.0510 16.7 179 
 BRR  HN ES       2012  1.70                             153    0.2110 70.7 305 
 BRR  HZ I        2012  8.22         3.1 0.37            147           70.7 305 
 RUS  HZ EP       2011 47.43                             146    0.4410 94.8 173 
 RUS  HN ES       2012  5.04                             146   -0.3710 94.8 173 
 RUS  HZ I        2012  6.75         0.8 0.54            147           94.8 173 
 PTB  HN ES       2012 10.80                             133   -0.11 9  142 261 
 PTB  HZ I        2012 18.80         1.9 0.62            130            142 261 
 SML  HE ES   2   2012 28.73                             117   -0.86 4  248 337 
                                                                                
