 2010  517 2130 57.1 L   6.701 -72.993136.4  RSN  5 0.3 1.5LRSN                1
 GAP=229        0.57       8.2    11.3 13.3 -0.5747E+02 -0.8831E+02  0.4981E+02E
 Epicentro: ARATOCA - SANTANDER                                                3
 ACTION:UP  10-08-24 10:05 OP:vdl  STATUS:               ID:20100517213057 L   I
 2010-05-17-2129-49S.COL___108                                                 6
 STAT SP IPHASW D HRMM SECON CODA AMPLIT PERI AZIMU VELO AIN AR TRES W  DIS CAZ7
 BAR2 SZ EP   1   2131 15.64                             169     0.1 7   24 240 
 BRR  HZ EP   1   2131 18.53                             144     0.0 7   91 300 
 BRR  HN ES   2   2131 35.28                             144     0.0 5   91 300 
 BRR  HZ I        2131 39.64         6.3 0.14                            91 300 
 BRI  SZ EP   1   2131 20.12                             138    -0.4 7  114  11 
 GUE  SZ EP   1   2131 21.73                             135     0.1 7  125   3 
 GUE  SZ ES   2   2131 40.32                             135    -0.5 5  125   3 
 GRA  SZ EP   1   2131 22.36                             133     0.3 7  133   9 
 GRA  SZ ES   2   2131 42.17                             133     0.6 5  133   9 
                                                                                
