 2016  717 2235 37.8 L   6.649 -73.224144.0  RSN  5 0.4 1.1LRSN                1
 GAP=190        0.89       6.6     6.3  7.0  0.2215E+02  0.8363E+01  0.1600E+01E
 Epicentro: BARICHARA - SANTANDER                                              3
 ACTION:UPD 17-03-29 16:52 OP:lp   STATUS:               ID:20160717223537 L   I
 OLDACT:UP  16-07-18 04:02 OP:edw  STATUS:               ID:20160717222760d    3
 OLDACT:DUP 16-07-18 03:58 OP:edw  STATUS:               ID:20160717222760d    3
 OLDACT:REG 16-07-18 03:11 OP:edw  STATUS:               ID:20160717222759     3
 2016-07-17-2227-59S.COL___319                                                 6
 STAT SP IPHASW D HRMM SECON CODA AMPLIT PERI AZIMU VELO AIN AR TRES W  DIS CAZ7
 BAR2 HZ EP       2235 57.75                             177    0.7410 7.79 144 
 BAR2 HZ ES       2236 11.84                             177   -0.1510 7.79 144 
 BAR2 HZ I        2236 12.66         3.4 0.24            173           7.79 144 
 BRR  HZ EP       2235 58.95                             151    0.0210 74.0 313 
 BRR  HN ES       2236 15.14                             151   -0.2610 74.0 313 
 BRR  HZ I        2236 16.16         7.3 0.40            152           74.0 313 
 RUS  HZ EP       2236  0.00                             148   -0.3210 85.1 169 
 RUS  HN ES       2236 17.68                             148   -0.2010 85.1 169 
 RUS  HZ I        2236 20.35         1.4 0.32            146           85.1 169 
 PTB  HZ EP       2236  3.72                             133    0.07 9  137 265 
 PTB  HE ES       2236 24.19                             133    0.38 9  137 265 
 PTB  HZ I        2236 27.55         0.9 0.28            133            137 265 
 ZAR  HZ EP   2   2236  9.28                             122   -0.77 4  203 297 
 ZAR  HE ES   2   2236 34.61                             122   -0.59 4  203 297 
                                                                                
