 2010  217 2248 23.2 L   6.796 -73.086148.2  RSN  8 0.4 2.2LRSN                1
 GAP=189        0.69       4.2     7.9  6.9 -0.2462E+01  0.2491E+02  0.2691E+01E
 Epicentro: LOS SANTOS - SANTANDER                                             3
 ACTION:UP  10-08-24 09:49 OP:vdl  STATUS:               ID:20100217224823 L   I
 2010-02-17-2245-56S.COL___094                                                 6
 STAT SP IPHASW D HRMM SECON CODA AMPLIT PERI AZIMU VELO SNR AR TRES W  DIS CAZ7
 BAR2 SZ EP       2248 42.98                             170    -0.210   25 205 
 BAR2 SZ ES   2   2248 58.33                             170    -0.4 5   25 205 
 GIR2 SZ EP   1   2248 44.16                             167     0.9 7   33 339 
 GIR2 SZ ES   2   2248 58.84                             167     0.0 5   33 339 
 RUS  BZ EP       2248 47.03                             144    -0.210  100 180 
 RUS  BE ES   1   2249  6.00                             144     0.1 7  100 180 
 RUS  BZ I        2249  7.84        17.0 0.34                           100 180 
 OCA  SZ EP   2   2248 51.70                             130    -0.2 5  162 351 
 CHI  HZ EP       2249  1.28                             117     0.0 8  250 197 
 CHI  HE ES   1   2249 30.77                             117    -0.1 6  250 197 
 CHI  HZ I        2249 35.11         8.2 0.68                           250 197 
 HEL  HZ EP   2   2249  4.44                             115     0.2 4  278 256 
 HEL  HN ES   2   2249 36.38                             115     0.1 4  278 256 
 DBB  SZ EP   1   2249 11.06                             109    -0.5 5  346 274 
 PRA  HZ EP   2   2249 17.13                             107    -0.1 3  395 210 
 PRA  HE ES   1   2249 59.70                             107     0.4 4  395 210 
 PRA  HZ I        2250  5.33         9.6 0.29                           395 210 
                                                                                
