 2017  317 2232 46.8 L   6.830 -73.137151.1  RSN  8 0.3 1.7LRSN                1
 GAP=136        0.89       3.6     4.2  5.8  0.2356E+00  0.7404E+01  0.5806E+01E
 Epicentro: LOS SANTOS - SANTANDER                                             3
 ACTION:UPD 17-05-25 18:41 OP:jn   STATUS:               ID:20170317223246 L   I
 OLDACT:UP  17-03-18 04:48 OP:ar   STATUS:               ID:20170317222747     3
 OLDACT:REG 17-03-18 03:13 OP:ar   STATUS:               ID:20170317222747     3
 2017-03-17-2228-00M.COL___394                                                 6
 STAT SP IPHASW D HRMM SECON CODA AMPLIT PERI AZIMU VELO AIN AR TRES W  DIS CAZ7
 BAR2 EZ EP       2233  7.02                             169   -0.1110 26.8 191 
 BAR2 EZ ES       2233 22.65                             169   -0.3510 26.8 191 
 BAR2 EZ I        2233 22.95        10.1 0.32            167           26.8 191 
 BRR  HZ EP       2233  8.81                             154    0.3410 70.5 296 
 BRR  HN ES       2233 25.98                             154    0.5810 70.5 296 
 PAM  EZ EP       2233  9.61                             153    0.2210 74.2  41 
 PAM  EN ES       2233 26.56                             153   -0.4610 74.2  41 
 PAM  EZ I        2233 29.09         7.0 0.58            150           74.2  41 
 RUS  HZ EP       2233 11.67                             144    0.3710  104 177 
 RUS  HN ES       2233 30.46                             144    0.0410  104 177 
 RUS  HZ I        2233 31.34         4.1 0.32            140            104 177 
 PTB  HZ EP       2233 13.81                             133   -0.52 9  149 258 
 PTB  HZ I        2233 37.24         8.5 0.28            126            149 258 
 ZAR  HZ EP   4   2233 21.28                             124    1.74 0  204 291 
 ZAR  HN ES       2233 45.11                             124    0.01 9  204 291 
 ZAR  HZ I        2233 50.21         8.3 0.16            117            204 291 
 NOR  HZ EP       2233 22.65                             119   -0.47 8  237 234 
 NOR  HE ES       2233 51.21                             119   -0.25 8  237 234 
 NOR  HZ I        2233 58.21         3.2 0.20            114            237 234 
 CHI  HZ EP       2233 25.31                             118    0.15 8  252 195 
 CHI  HN ES       2233 55.38                             118    0.29 8  252 195 
 CHI  HZ I        2233 59.63         1.7 0.58            113            252 195 
                                                                                
