 2010  517 2218 42.7 L   6.735 -73.004146.8  RSN  9 0.5 2.7LRSN                1
 GAP=200        0.90       7.3    10.7  9.1 -0.5330E+02 -0.4918E+01  0.1976E+02E
 Epicentro: CEPITA - SANTANDER                                                 3
 ACTION:UP  10-08-24 10:05 OP:vdl  STATUS:               ID:20100517221842 L   I
 2010-05-17-2217-38S.COL___108                                                 6
 STAT SP IPHASW D HRMM SECON CODA AMPLIT PERI AZIMU VELO AIN AR TRES W  DIS CAZ7
 BAR2 SZ EP   1   2219  2.34                             170    -0.2 7   25 231 
 BAR2 SZ ES   2   2219 17.91                             170     0.0 5   25 231 
 BRR  HZ IP     C 2219  4.96                             147    -0.110   88 298 
 BRR  HZ I        2219  5.26       183.2 0.15                            88 298 
 BRR  HE ES   2   2219 22.52                             147     0.1 5   88 298 
 BRI  SZ IP     C 2219  6.86                             141     0.010  111  12 
 BRI  SZ ES   2   2219 25.35                             141    -0.4 5  111  12 
 GUE  SZ EP   1   2219  7.25                             138    -0.7 7  121   4 
 GUE  SZ ES   2   2219 27.83                             138     0.3 5  121   4 
 GRA  SZ IP     C 2219  9.08                             136     0.810  129  10 
 GRA  SZ ES   2   2219 28.90                             136     0.6 5  129  10 
 OCA  SZ EP   1   2219 11.64                             128    -0.4 7  170 348 
 OCA  SZ ES   2   2219 34.19                             128    -0.7 5  170 348 
 OCA  SZ I        2219 38.61        39.8 0.37                           170 348 
 HEL  HZ EP   1   2219 24.39                             114    -0.1 6  286 258 
 HEL  HZ I        2220  1.33        14.6 0.43                           286 258 
 RREF BZ EP   1   2219 30.42                             110     0.7 5  329 232 
 RREF BN ES   2   2220  7.18                             110     0.7 3  329 232 
 RREF BZ I        2220 13.50        19.2 0.43                           329 232 
 PRA  HZ EP   1   2219 35.73                             107    -0.8 4  394 212 
 PRA  HE ES   2   2220 17.74                             107    -0.7 3  394 212 
 PRA  HZ I        2220 24.03        13.2 0.28                           394 212 
                                                                                
