 2015 1217 2300 13.6 L   6.808 -73.159147.1  RSN 21 0.5 2.8LRSN                1
 GAP=134        1.00       2.5     3.6  4.7 -0.1668E+01  0.5275E+01  0.2049E+01E
 Epicentro: LOS SANTOS - SANTANDER                                             3
 ACTION:UPD 16-02-04 15:05 OP:cam  STATUS:               ID:20151217230013 L   I
 OLDACT:UP  15-12-18 07:47 OP:mh   STATUS:               ID:20151217225749     3
 OLDACT:UP  15-12-18 07:46 OP:mh   STATUS:               ID:20151217225749     3
 OLDACT:UP  15-12-18 07:46 OP:mh   STATUS:               ID:20151217225749     3
 OLDACT:REG 15-12-18 03:47 OP:mh   STATUS:               ID:20151217225749     3
 2015-12-17-2257-49M.COL___340                                                 6
 STAT SP IPHASW D HRMM SECON CODA AMPLIT PERI AZIMU VELO AIN AR TRES W  DIS CAZ7
 BAR2 EZ EP       23 0 33.45                             170    0.0810 24.0 186 
 BAR2 EZ ES       23 0 48.28                             170   -0.5410 24.0 186 
 BAR2 EZ I        23 0 50.64       121.1 0.22            169           24.0 186 
 BRR  HZ EP     C 23 0 35.17                             153    0.4110 69.5 298 
 BRR  HN ES       23 0 52.13                             153    0.8310 69.5 298 
 BRR  HZ I        23 0 53.05       113.1 0.20            146           69.5 298 
 PAM  EZ EP   1   23 0 36.19                             151    0.25 7 77.7  41 
 PAM  EN ES       23 0 53.34                             151   -0.0610 77.7  41 
 PAM  EZ I        23 0 55.40       157.3 0.82            142           77.7  41 
 RUS  HZ EP       23 0 37.48                             144   -0.0410  102 175 
 RUS  HN ES       23 0 56.41                             144    0.2110  102 175 
 RUS  HZ I        23 0 56.69        83.4 0.26            137            102 175 
 PTB  HZ EP       23 0 39.60                             133   -0.92 9  146 258 
 PTB  HN ES       23 1  0.58                             133   -0.97 9  146 258 
 PTB  HZ I        23 1  2.34        71.1 0.38            124            146 258 
 OCA  HZ EP   1   23 0 41.61                             130   -0.27 7  159 354 
 OCA  HN ES       23 1  4.30                             130    0.33 9  159 354 
 OCA  HZ I        23 1 12.50        86.3 0.16            121            159 354 
 SPBC HZ EP       23 0 42.19                             129    0.05 9  163 218 
 SPBC HN ES       23 1  4.55                             129    0.12 9  163 218 
 SPBC HZ I        23 1 11.04        97.8 0.16            121            163 218 
 ZAR  HZ EP       23 0 46.13                             123    0.21 9  202 292 
 ZAR  HE ES       23 1 11.20                             123    0.04 9  202 292 
 ZAR  HZ I        23 1 13.00        49.8 0.11            115            202 292 
 NOR  HZ EP   1   23 0 49.28                             119   -0.01 6  234 234 
 NOR  HN ES       23 1 17.05                             119   -0.11 8  234 234 
 NOR  HZ I        23 1 18.53        34.4 0.26            111            234 234 
 SML  HZ EP       23 0 49.91                             118   -0.20 8  242 336 
 SML  HN ES   1   23 1 17.58                             118   -1.04 6  242 336 
 SML  HZ I        23 1 23.27        60.5 0.26            110            242 336 
 CHI  HZ EP       23 0 50.76                             117   -0.63 8  249 195 
 CHI  HN ES       23 1 20.81                             117   -0.08 8  249 195 
 CHI  HZ I        23 1 23.97        35.3 0.34            110            249 195 
 ROSC BZ EP       23 0 52.25                             117    0.50 8  253 211 
 ROSC BZ I        23 1 27.99        59.2 0.35            110            253 211 
 HEL  HZ EP   1   23 0 54.19                             115    0.48 6  271 256 
 HEL  HN ES       23 1 25.45                             115    0.43 8  271 256 
 HEL  HZ I        23 1 31.56        34.8 0.30            108            271 256 
 URE  HZ EP   4   23 0 57.01                             114    2.50 0  282 292 
 URE  HZ I        23 1 35.86        39.0 0.22            107            282 292 
 GUY2CHZ EP   1   23 0 57.64                             113    0.49 5  300 234 
 GUY2CHN ES       23 1 31.67                             113    0.52 7  300 234 
 GUY2CHZ I        23 1 37.86        21.1 0.34                           300 234 
 ELA  HZ EP   1   23 1  0.53                             111    0.13 5  329 229 
 ELA  HN ES       23 1 37.07                             111    0.13 7  329 229 
 ELA  HZ I        23 1 45.26        19.1 0.51            104            329 229 
 ANIL HZ EP   4   23 1  4.64                             109    1.27 0  357 224 
 ANIL HE ES   4   23 1 43.91                             109    1.69 0  357 224 
 ANIL HZ I        23 1 47.59        61.2 0.24            102            357 224 
 PRA  HZ EP   1   23 1  6.57                             107   -0.56 4  392 209 
 PRA  HN ES       23 1 48.49                             107   -0.42 6  392 209 
 PRA  HZ I        23 1 56.89        16.6 0.40            101            392 209 
 ORTC HZ EP       23 1  7.85                             107    0.34 6  395 216 
 ORTC HN ES       23 1 50.18                             107    0.60 6  395 216 
 ORTC HZ I        23 1 55.27        11.3 0.32            100            395 216 
 PAL  HZ EP       23 1  8.94                             106    0.27 6  405 239 
 PAL  HN ES       23 1 51.11                             106   -0.54 6  405 239 
 PAL  HZ I        23 1 57.35         7.6 0.30            100            405 239 
 SJC  HZ EP   4   23 1  7.83                             106   -1.16 0  408 327 
 SJC  HN ES   4   23 1 48.46                             106   -3.76 0  408 327 
 SJC  HZ I        23 1 52.66         9.5 0.11            100            408 327 
                                                                                
