 2013  217 2226  5.4 L   6.848 -73.393117.1  RSN  7 0.4 1.7LRSN                1
 GAP= 92        1.03       4.7     5.0  7.3  0.6713E+01  0.1006E+02 -0.1599E+01E
 Epicentro: SAN VICENTE DE CHUCURI - SANTANDER                                 3
 ACTION:UPD 13-03-12 09:33 OP:ep   STATUS:               ID:20130217222605 L   I
 2013-02-17-2220-00M.COL___241                                                 6
 STAT SP IPHASW D HRMM SECON CODA AMPLIT PERI AZIMU VELO AIN AR TRES W  DIS CAZ7
 BAR2 SZ EP       2226 22.19                             162    0.1710 36.7 141 
 BAR2 SZ ES       2226 34.76                             162   -0.2310 36.7 141 
 BAR2 SZ I        2226 36.19        58.2 0.25            166           36.7 141 
 BRR  HZ IP     C 2226 21.92                             157   -0.1210 45.4 309 
 BRR  HE ES       2226 35.51                             157    0.4810 45.4 309 
 BRR  HE I        2226 40.35        13.1 0.21            157           45.4 309 
 PAM  SE ES   1   2226 41.31                             139   -0.59 7 93.9  55 
 PAM  SZ I        2226 44.24         5.4 0.40            145           93.9  55 
 RUS  HZ EP       2226 28.01                             134    0.6510  111 162 
 RUS  HN ES   1   2226 44.58                             134    0.09 7  111 162 
 RUS  HN I        2226 46.89         7.3 0.30            139            111 162 
 PTB  HZ IP     C 2226 26.94                             130   -0.8010  122 254 
 PTB  HN ES   1   2226 44.66                             130   -0.51 7  122 254 
 PTB  HZ I        2226 48.71         7.5 0.14            133            122 254 
 ZAR  HZ EP   1   2226 33.57                             119    0.37 7  177 294 
 ZAR  HN ES   1   2226 55.40                             119    0.52 7  177 294 
 ZAR  HZ I        2226 58.80         6.4 0.13            122            177 294 
 SML  HZ EP   1   2226 38.62                             112   -0.25 6  229 341 
 SML  HE ES   1   2227  5.16                             112    0.18 6  229 341 
                                                                                
