 2012 1217 2253 54.6 L   6.858 -73.200145.3  RSN  7 0.4 1.9LRSN 2.5WRSN        1
 SPEC AVERAGE  MO 12.9 ST0.959 OM  2.5 f0 4.03 R0.3745 AL 2.34 WI 13.4 MW  2.5 3
 SPEC SD       MO  0.2 ST0.674 OM  1.2 f00.635 R0.0591 AL      WI      MW  0.1 3
 GAP=127        1.06       3.6     5.7  7.3 -0.1075E+01  0.1409E+02 -0.2100E+01E
 Epicentro: ZAPATOCA - SANTANDER                                               3
 SPEC RUS HH N MO 12.7 ST0.285 OM  1.1 f0 3.39 R0.4336 AL 1.82 WI 13.1 MW  2.4 3
 SPEC RUS HH N T225435 K 0.000 GD  180 VS 4.20 DE 3.00 Q0230.0 QA 0.60 VS 4.20 3
 SPEC BRR HH N MO 13.1 ST  1.6 OM  1.5 f0 4.66 R0.3155 AL 2.86 WI 13.6 MW  2.7 3
 SPEC BRR HH N T225432 K 0.000 GD  158 VS 4.20 DE 3.00 Q0230.0 QA 0.60 VS 4.20 3
 ACTION:UPD 13-01-04 14:28 OP:ep   STATUS:               ID:20121217225354 L   I
 2012-12-17-2250-00M.COL___242                                                 6
 STAT SP IPHASW D HRMM SECON CODA AMPLIT PERI AZIMU VELO AIN AR TRES W  DIS CAZ7
 BAR2 SZ EP       2254 14.08                             168   -0.1810 29.4 176 
 BAR2 SZ I        2254 14.41        15.3 0.34                          29.4 176 
 BAR2 SZ ES       2254 29.91                             168    0.2810 29.4 176 
 BRR  HZ EP       2254 16.05                             155    0.8510 62.9 296 
 BRR  HN I        2254 36.70        20.8 0.18                          62.9 296 
 PAM  SZ EP       2254 16.94                             151    0.2610 76.8  46 
 PAM  SN ES       2254 33.98                             151    0.0510 76.8  46 
 RUS  HZ EP       2254 18.57                             142   -0.1910  107 173 
 RUS  HN ES       2254 36.90                             142   -0.7410  107 173 
 RUS  HN I        2254 38.42         9.9 0.36                           107 173 
 PTB  HZ EP       2254 21.19                             133    0.12 9  143 256 
 PTB  HN ES       2254 41.53                             133   -0.22 9  143 256 
 PTB  HN I        2254 44.73         8.4 0.26                           143 256 
 SML  HZ EP       2254 29.88                             118   -0.37 8  235 336 
 SML  HN ES       2254 57.78                             118   -0.32 8  235 336 
 SML  HN I        2255  2.88        19.1 0.10                           235 336 
 CHI  HZ EP       2254 32.43                             117   -0.30 8  253 193 
 CHI  HN ES       2255  3.12                             117    0.61 8  253 193 
 CHI  HN I        2255  7.21         4.0 0.40                           253 193 
                                                                                
