 2015 1017 2033 45.5 L   6.805 -73.116144.3  RSN 11 0.4 1.9LRSN                1
 GAP=140        0.80       2.8     3.8  5.2 -0.4996E+00  0.5922E+01  0.1802E+01E
 Epicentro: LOS SANTOS - SANTANDER                                             3
 ACTION:UPD 15-12-22 20:41 OP:cam  STATUS:               ID:20151017203345 L   I
 OLDACT:REG 15-10-18 04:38 OP:spq  STATUS:               ID:20151017202748     3
 2015-10-17-2027-48M.COL___343                                                 6
 STAT SP IPHASW D HRMM SECON CODA AMPLIT PERI AZIMU VELO AIN AR TRES W  DIS CAZ7
 BAR2 EZ EP   1   2034  4.83                             170   -0.10 7 24.6 197 
 BAR2 EZ ES   1   2034 20.02                             170   -0.11 7 24.6 197 
 BAR2 EZ I        2034 20.78        16.4 0.24            168           24.6 197 
 BRR  HZ EP       2034  6.45                             151   -0.1510 73.9 297 
 BRR  HN ES       2034 23.45                             151    0.3610 73.9 297 
 BRR  HZ I        2034 25.87        13.9 0.42            150           73.9 297 
 PAM  EZ IP     C 2034  7.43                             151    0.0710 74.9  38 
 PAM  EE ES       2034 24.57                             151    0.1210 74.9  38 
 PAM  EZ I        2034 26.98        13.4 0.28            155           74.9  38 
 RUS  HZ EP       2034  8.84                             143   -0.2410  101 178 
 RUS  HE ES       2034 27.46                             143   -0.0610  101 178 
 RUS  HZ I        2034 28.34         6.2 0.26            145            101 178 
 SPBC HN ES   1   2034 36.52                             128    0.11 7  166 220 
 SPBC HZ I        2034 40.18        14.3 0.12            129            166 220 
 ZAR  HE ES       2034 42.67                             122   -0.90 8  207 292 
 ZAR  HZ I        2034 47.91        10.1 0.38            122            207 292 
 NOR  HZ EP       2034 21.37                             118   -0.05 8  238 235 
 NOR  HE ES       2034 50.11                             118    0.63 8  238 235 
 NOR  HZ I        2034 56.52         5.9 0.14            118            238 235 
 SML  HZ EP   1   2034 22.38                             117    0.28 6  245 335 
 SML  HE ES   1   2034 50.81                             117    0.13 6  245 335 
 SML  HZ I        2034 53.37        13.5 0.06            118            245 335 
 CHI  HZ EP   1   2034 22.93                             117   -0.29 6  250 196 
 CHI  HN ES   1   2034 52.26                             117   -0.42 6  250 196 
 CHI  HZ I        2034 55.57         7.2 0.62            118            250 196 
 GUY2CHZ EP       2034 30.01                             112    0.68 7  304 235 
 GUY2CHN ES   4   2035  5.05                             112    1.49 0  304 235 
 GUY2CHZ I        2035 10.85         4.0 0.32                           304 235 
 MON  HE ES   4   2035 10.70                             108   -2.34 0  356 308 
 MON  HZ I        2035 12.34         1.6 0.32            109            356 308 
 SJC  HZ EP   4   2034 38.82                             105   -2.31 0  411 327 
                                                                                
