 2013  517 2114 12.9 L   6.788 -73.136143.8  RSN 10 0.5 2.5LRSN                1
 GAP=138        1.08       3.9     4.9  6.1 -0.3861E+01  0.6710E+01  0.4224E+01E
 Epicentro: LOS SANTOS - SANTANDER                                             3
 ACTION:UPD 13-06-20 09:51 OP:ep   STATUS:               ID:20130517211412 L   I
 2013-05-17-2110-00M.COL___256                                                 6
 STAT SP IPHASW D HRMM SECON CODA AMPLIT PERI AZIMU VELO AIN AR TRES W  DIS CAZ7
 BAR2 SZ EP     D 2114 32.29                             171   -0.0210 22.3 193 
 BAR2 SZ ES       2114 47.25                             171   -0.1610 22.3 193 
 BAR2 SZ I        2114 48.72        86.6 0.25            169           22.3 193 
 GIR2 SZ EP       2114 32.33                             166   -0.0810 32.8 349 
 GIR2 SZ ES   1   2114 47.33                             166   -0.27 7 32.8 349 
 BRR  HZ EP       2114 34.09                             152    0.1310 72.8 299 
 BRR  HN ES       2114 51.08                             152    0.7210 72.8 299 
 BRR  HZ I        2114 52.17        38.7 0.16            147           72.8 299 
 PAM  SZ EP       2114 35.03                             150    0.0710 77.7  38 
 PAM  SZ I        2114 35.41        82.1 0.20            151           77.7  38 
 PAM  SE ES       2114 52.15                             150    0.0110 77.7  38 
 RUS  HZ EP     C 2114 36.27                             144   -0.1210 99.2 177 
 RUS  HZ I        2114 37.10        25.0 0.10            144           99.2 177 
 RUS  HN ES   1   2114 54.70                             144    0.01 7 99.2 177 
 PTB  HZ EP   1   2114 38.96                             131   -0.86 7  149 259 
 PTB  HN ES       2114 59.83                             131   -0.95 9  149 259 
 PTB  HZ I        2115  2.62        28.0 0.22            128            149 259 
 NOR  HZ EP       2114 48.71                             118    0.14 8  235 235 
 NOR  HN ES       2115 16.72                             118    0.36 8  235 235 
 NOR  HZ I        2115 22.20        18.9 0.46            116            235 235 
 SML  HZ EP   1   2114 48.59                             117   -1.04 6  245 335 
 SML  HN ES       2115 18.88                             117    0.63 8  245 335 
 SML  HZ I        2115 25.96        40.2 0.22            115            245 335 
 CHI  HZ EP   1   2114 50.71                             117    0.29 6  248 195 
 HEL  HZ EP   4   2114 54.49                             114    1.36 0  273 256 
 PRA  HZ EP   1   2115  6.39                             106    0.07 4  391 210 
 PRA  HN ES       2115 49.05                             106    1.09 6  391 210 
 PRA  HZ I        2115 55.49        14.8 0.26            105            391 210 
                                                                                
