 2016  417 2111 41.4 L   6.845 -73.185136.1  RSN  4 0.5 1.6LRSN                1
 GAP=148        1.05      12.2     8.8  8.9 -0.8294E+02  0.3031E+02 -0.1085E+02E
 Epicentro: ZAPATOCA - SANTANDER                                               3
 ACTION:UPD 16-05-05 14:22 OP:rebc STATUS:               ID:20160417211141 L   I
 OLDACT:ARG 16-04-18 13:26 OP:cara STATUS:               ID:20160417210745     3
 2016-04-17-2107-45M.COL___306                                                 6
 STAT SP IPHASW D HRMM SECON CODA AMPLIT PERI AZIMU VELO AIN AR TRES W  DIS CAZ7
 BAR2 EZ EP   1   2111 59.91                             168   -0.06 7 27.9 179 
 BAR2 EZ ES       2112 14.13                             168   -0.3310 27.9 179 
 BAR2 EZ I        2112 16.17        11.7 0.22            172           27.9 179 
 PAM  EZ EP       2112  2.60                             149    0.0510 76.6  44 
 PAM  EN ES       2112 19.44                             149    0.4010 76.6  44 
 PAM  EZ I        2112 22.37         3.9 0.66            150           76.6  44 
 PTB  HZ EP       2112  6.56                             130   -0.73 9  145 257 
 PTB  HN ES       2112 27.54                             130    0.05 9  145 257 
 PTB  HZ I        2112 29.99         5.0 0.16            132            145 257 
 GUY2CHN EP       2112 24.52                             110    0.02 7  301 234 
 GUY2CHE ES       2112 59.12                             110    0.99 7  301 234 
 GUY2CHN I        2113  8.90         3.9 0.52                           301 234 
                                                                                
