 2015  317 2333 57.8 L   6.173 -73.653114.1  RSN  7 0.3 1.2LRSN                1
 GAP=103        0.70       3.4     2.8  7.1 -0.2998E+01  0.4266E+00  0.4333E+00E
 Epicentro: LA PAZ - SANTANDER                                                 3
 ACTION:UPD 15-04-30 16:26 OP:nd   STATUS:               ID:20150317233357 L   I
 OLDACT:REG 15-03-18 03:56 OP:spq  STATUS:               ID:20150317232742     3
 2015-03-17-2327-42M.COL___266                                                 6
 STAT SP IPHASW D HRMM SECON CODA AMPLIT PERI AZIMU VELO AIN AR TRES W  DIS CAZ7
 BAR2 EZ EP   1   2334 16.21                             146    0.30 7 69.7  48 
 BAR2 EZ ES   1   2334 30.30                             146    0.30 7 69.7  48 
 RUS  HZ EP       2334 16.19                             146   -0.1210 70.3 116 
 RUS  HE ES   1   2334 30.38                             146   -0.34 7 70.3 116 
 RUS  HZ I        2334 31.66         1.9 0.26            149           70.3 116 
 SPBC HN ES   1   2334 30.36                             145    0.21 7 74.0 219 
 SPBC HZ I        2334 32.16         6.2 0.32            146           74.0 219 
 PTB  HN ES       2334 32.72                             136   -0.5210 97.6 295 
 PTB  HZ I        2334 34.79         3.2 0.24            138           97.6 295 
 BRR  HZ EP   1   2334 18.17                             135   -0.03 7  103 356 
 BRR  HN ES   1   2334 34.40                             135    0.31 7  103 356 
 BRR  HZ I        2334 35.66         3.5 0.37            136            103 356 
 NOR  HZ EP   1   2334 22.52                             123   -0.25 7  151 243 
 NOR  HN ES       2334 42.61                             123    0.40 9  151 243 
 NOR  HZ I        2334 43.85         4.4 0.24            125            151 243 
 PAM  SE ES   1   2334 46.18                             120   -0.01 7  167  39 
 PAM  SZ I        2334 47.92         1.3 0.68            122            167  39 
                                                                                
