 2016  917 2343 10.1 L   6.791 -73.161144.0  RSN  6 0.5 1.4LRSN                1
 GAP=135        1.09       5.8     6.3  8.9  0.3841E+01  0.2064E+02 -0.1750E+01E
 Epicentro: LOS SANTOS - SANTANDER                                             3
 ACTION:UPD 17-08-17 21:13 OP:lp   STATUS:               ID:20160917234310 L   I
 OLDACT:UP  16-09-18 08:45 OP:dani STATUS:               ID:20160917233732     3
 OLDACT:UP  16-09-18 08:45 OP:dani STATUS:               ID:20160917233732     3
 OLDACT:REG 16-09-18 05:06 OP:dani STATUS:               ID:20160917233732     3
 2016-09-17-2338-00M.COL___360                                                 6
 STAT SP IPHASW D HRMM SECON CODA AMPLIT PERI AZIMU VELO AIN AR TRES W  DIS CAZ7
 BAR2 EZ EP       2343 28.99                             171   -0.5110 22.1 186 
 BAR2 EZ ES       2343 44.97                             171    0.3510 22.1 186 
 BAR2 EZ I        2343 46.13         5.5 0.29            163           22.1 186 
 BRR  HZ EP       2343 31.45                             153    0.4410 70.2 300 
 BRR  HE ES   2   2343 45.52                             153   -1.79 5 70.2 300 
 BRR  HZ I        2343 47.09         6.0 0.38            138           70.2 300 
 PAM  EZ EP       2343 32.14                             150   -0.1010 79.2  40 
 PAM  EN ES       2343 49.65                             150    0.1410 79.2  40 
 PAM  EZ I        2343 51.67         4.8 0.50            144           79.2  40 
 RUS  HZ EP       2343 33.55                             144   -0.0710 99.7 175 
 RUS  HN ES       2343 52.16                             144    0.2010 99.7 175 
 RUS  HZ I        2343 53.05         2.2 0.33            133           99.7 175 
 PTB  HZ EP       2343 36.43                             132   -0.33 9  146 259 
 PTB  HZ I        2344  4.72         3.3 0.38            118            146 259 
 ZAR  HE ES       2344  7.84                             122    0.41 9  203 293 
 ZAR  HZ I        2344 14.99         3.1 0.08            110            203 293 
                                                                                
