 2017  117 2123 13.9 L   6.833 -73.132152.3  RSN  5 0.2 1.7LRSN                1
 GAP=155        0.60       4.1     4.1  6.3 -0.7726E+01 -0.2021E+01  0.1502E+02E
 Epicentro: LOS SANTOS - SANTANDER                                             3
 ACTION:UPD 17-05-22 16:00 OP:jn   STATUS:               ID:20170117212313 L   I
 OLDACT:REG 17-01-18 03:53 OP:ar   STATUS:               ID:20170117211743     3
 2017-01-17-2118-00M.COL___337                                                 6
 STAT SP IPHASW D HRMM SECON CODA AMPLIT PERI AZIMU VELO AIN AR TRES W  DIS CAZ7
 BRR  HZ EP       2123 35.73                             154   -0.0410 70.9 295 
 BRR  HN ES       2123 53.04                             154    0.2310 70.9 295 
 PAM  EZ EP       2123 36.81                             153    0.1810 73.6  40 
 PAM  EN ES       2123 54.08                             153   -0.2610 73.6  40 
 PAM  EZ I        2123 56.13        12.1 0.48            159           73.6  40 
 PTB  HZ EP       2123 41.74                             133    0.11 9  150 258 
 NOR  HN ES       2124 18.42                             119   -0.43 8  238 234 
 NOR  HZ I        2124 24.70         3.2 0.22            122            238 234 
 CHI  HZ EP       2123 52.24                             118   -0.18 8  253 195 
 CHI  HN ES       2124 22.74                             118    0.30 8  253 195 
 CHI  HZ I        2124 31.36         2.4 0.38            119            253 195 
                                                                                
