 2012  117 2001  9.6 L   6.771 -73.143146.6  RSN  6 0.4 1.5LRSN                1
 GAP=138        0.91       6.1     5.8 10.3 -0.8583E+01  0.8062E+01  0.8840E+01E
 Epicentro: LOS SANTOS - SANTANDER                                             3
 ACTION:UP  12-02-03 08:18 OP:REBC STATUS:               ID:20120117200109 L   I
 2012-01-17-2000-00M.COL___187                                                 6
 STAT SP IPHASW D HRMM SECON CODA AMPLIT PERI AZIMU VELO SNR AR TRES W  DIS CAZ7
 BAR2 SZ EP   1   20 1 29.28                             172     0.0 7   20 192 
 BAR2 SZ I        20 1 48.94         5.6 0.08                            20 192 
 BRR  HZ EP       20 1 31.37                             152     0.410   73 301 
 BRR  HZ I        20 1 31.67        11.7 0.10                            73 301 
 BRR  HE ES   1   20 1 47.99                             152     0.4 7   73 301 
 PAM  SZ EP   1   20 1 32.09                             150     0.0 7   80  38 
 PAM  SN ES   1   20 1 49.30                             150    -0.3 7   80  38 
 RUS  HZ EP   1   20 1 33.09                             145    -0.1 7   97 176 
 RUS  HZ I        20 1 34.05         3.4 0.13                            97 176 
 RUS  HE ES   1   20 1 51.72                             145     0.1 7   97 176 
 PTB  HZ EP   1   20 1 36.14                             132    -0.5 7  147 260 
 PTB  HN ES   1   20 1 56.88                             132    -0.8 7  147 260 
 NOR  SE ES   1   20 2 13.57                             119     0.6 6  233 235 
                                                                                
