 2014  417 2003 43.8 L   6.701 -73.182152.9  RSN  4 0.1 1.1LRSN                1
 GAP=226        0.40       3.4     3.5  4.5  0.7283E+01 -0.2465E+00 -0.1878E+01E
 Epicentro: VILLANUEVA - SANTANDER                                             3
 ACTION:UPD 14-05-13 23:09 OP:nd   STATUS:               ID:20140417200343 L   I
 OLDACT:UP  14-04-18 07:00 OP:cam  STATUS:               ID:20140417200137     3
 OLDACT:REG 14-04-18 06:57 OP:cam  STATUS:               ID:20140417200137     3
 2014-04-17-2001-37M.COL___254                                                 6
 STAT SP IPHASW D HRMM SECON CODA AMPLIT PERI AZIMU VELO AIN AR TRES W  DIS CAZ7
 BRR  HZ EP     C 20 4  5.83                             153   -0.0210 73.8 307 
 BRR  HN ES       20 4 23.00                             153   -0.0710 73.8 307 
 RUS  HZ EP   1   20 4  7.49                             148   -0.05 7 90.1 173 
 RUS  HN ES       20 4 26.17                             148    0.1010 90.1 173 
 RUS  HZ I        20 4 27.31         1.7 0.26            147           90.1 173 
 PTB  HZ EP   1   20 4 10.80                             135   -0.05 7  142 263 
 PTB  HN ES       20 4 31.83                             135   -0.13 9  142 263 
 PTB  HZ I        20 4 34.13         2.2 0.12            134            142 263 
 ZAR  HE ES   1   20 4 42.91                             124    0.39 6  205 295 
                                                                                
