 2012  217 2153 37.4 L   6.723 -73.132143.4  RSN  5 0.3 1.9LRSN                1
 GAP=142        0.61       4.3     4.2  7.1 -0.2328E+01  0.2382E+01  0.2402E+01E
 ACTION:UP  12-03-07 16:31 OP:epov STATUS:               ID:20120217215337 L   I
 2012-02-17-2150-00M.COL___188                                                 6
 STAT SP IPHASW D HRMM SECON CODA AMPLIT PERI AZIMU VELO AIN AR TRES W  DIS CAZ7
 GIR2 SZ EP   1   2153 57.27                             164    0.20 7 40.0 350 
 BRR  HZ EP   1   2153 59.01                             150    0.37 7 76.9 304 
 BRR  HZ I        2153 59.50        21.1 0.11                          76.9 304 
 BRR  HN ES   1   2154 15.32                             150    0.12 7 76.9 304 
 PAM  SZ EP   1   2153 59.95                             148    0.20 7 83.3  35 
 PAM  SZ I        2154  0.20         9.4 0.19                          83.3  35 
 PAM  SN ES   1   2154 16.77                             148   -0.39 7 83.3  35 
 RUS  HZ EP   1   2153 59.88                             146   -0.44 7 91.9 177 
 RUS  HE ES   1   2154 18.49                             146    0.30 7 91.9 177 
 PTB  HZ EP   1   2154  4.05                             131   -0.15 7  148 262 
 PTB  HN ES   1   2154 24.82                             131   -0.26 7  148 262 
 PTB  HZ I        2154 30.30         0.0 0.17                           148 262 
                                                                                
