 2012  217 2209 51.7 L   6.807 -73.172143.5  RSN  6 0.3 1.8LRSN                1
 GAP=133        0.63       3.5     4.5  6.7  0.2403E+01  0.6654E+01  0.8958E+01E
 ACTION:UP  12-03-07 16:31 OP:epov STATUS:               ID:20120217220951 L   I
 2012-02-17-2208-59S.COL___188                                                 6
 STAT SP IPHASW D HRMM SECON CODA AMPLIT PERI AZIMU VELO AIN AR TRES W  DIS CAZ7
 BRR  HZ IP       2210 12.53                             153    0.0610 68.2 299 
 BRR  HZ EP       2210 12.53                             153           68.2 299 
 BRR  HZ I        2210 26.45        22.9 0.33                          68.2 299 
 BRR  HN ES   1   2210 29.01                             153    0.37 7 68.2 299 
 PAM  SZ EP   1   2210 13.88                             150    0.10 7 78.7  42 
 PAM  SN ES   1   2210 30.59                             150   -0.39 7 78.7  42 
 PAM  SZ I        2210 33.37         3.9 0.55                          78.7  42 
 RUS  HZ EP   1   2210 15.33                             143   -0.01 7  102 174 
 RUS  HN ES   1   2210 34.01                             143    0.26 7  102 174 
 RUS  HZ I        2210 35.63         5.7 0.42                           102 174 
 ZAR  HN ES   1   2210 48.27                             122   -0.39 6  201 292 
 CHI  HZ EP   1   2210 29.39                             117    0.08 6  249 194 
 CHI  HZ I        2210 30.65         2.2 0.23                           249 194 
 CHI  HN ES   1   2210 57.96                             117   -0.66 6  249 194 
 PRA  HZ EP   1   2210 45.67                             106    0.58 4  391 209 
 PRA  HZ I        2210 47.05         8.3 0.18                           391 209 
                                                                                
