 2013  317 2113 25.6 L   6.638 -73.491108.7  RSN 20 0.6 2.7LRSN 3.2WRSN        1
 SPEC AVERAGE  MO 13.9 ST 17.1 OM  2.6 f0 4.80 R0.3168 AL 2.58 WI 22.4 MW  3.2 3
 SPEC SD       MO  0.2 ST 13.3 OM  0.6 f00.828 R0.0601 AL      WI      MW  0.2 3
 GAP= 53        1.49       2.7     3.8  6.7 -0.1298E+01  0.8437E+01  0.7442E+00E
 Epicentro: EL CARMEN DE CHUCURI - SANTANDER                                   3
 SPEC ZAR HH E MO 14.2 ST 39.2 OM  2.5 f0 5.57 R0.2639 AL 2.71 WI 25.3 MW  3.4 3
 SPEC ZAR HH E T211414 K 0.000 GD  208 VS 4.20 DE 3.20 Q0300.0 QA 0.60 VS 4.20 3
 SPEC PRA HH E MO 13.7 ST  4.5 OM  1.7 f0 4.12 R0.3568 AL 1.73 WI 25.4 MW  3.1 3
 SPEC PRA HH E T211450 K 0.000 GD  374 VS 4.20 DE 3.20 Q0300.0 QA 0.60 VS 4.20 3
 SPEC RUS HH N MO 13.6 ST  2.2 OM  2.0 f0 3.54 R0.4153 AL 1.85 WI 12.4 MW  3.0 3
 SPEC RUS HH N T211359 K 0.000 GD  143 VS 4.20 DE 3.20 Q0300.0 QA 0.60 VS 4.20 3
 SPEC NOR HH N MO 13.9 ST 21.4 OM  2.2 f0 5.62 R0.2616 AL 2.98 WI 24.1 MW  3.2 3
 SPEC NOR HH N T211416 K 0.000 GD  221 VS 4.20 DE 3.20 Q0300.0 QA 0.60 VS 4.20 3
 SPEC BRR HH N MO 14.0 ST 18.0 OM  2.5 f0 5.13 R0.2865 AL 3.64 WI 24.8 MW  3.3 3
 SPEC BRR HH N T211354 K 0.000 GD  122 VS 4.20 DE 3.20 Q0300.0 QA 0.60 VS 4.20 3
 ACTION:UPD 13-04-09 14:03 OP:ep   STATUS:               ID:20130317211325 L   I
 2013-03-17-2108-51M.COL___205                                                 6
 STAT SP IPHASW D HRMM SECON CODA AMPLIT PERI AZIMU VELO AIN AR TRES W  DIS CAZ7
 BAR2 SZ IP       2113 41.43                             161    0.2610 34.5  98 
 BAR2 SZ ES       2113 53.55                             161    0.2410 34.5  98 
 BRR  HZ IP     D 2113 41.90                             150   -0.0810 57.4 335 
 BRR  HZ I        2113 42.12       118.7 0.14            147           57.4 335 
 BRR  HN ES       2113 55.20                             150    0.4510 57.4 335 
 GIR2 SZ IP       2113 42.55                             149    0.2810 58.8  34 
 GIR2 SZ I        2113 42.77       232.2 0.48            148           58.8  34 
 RUS  HZ IP     C 2113 45.01                             136   -0.3510 93.9 151 
 RUS  HZ I        2113 45.35        60.7 0.36            132           93.9 151 
 RUS  HN ES       2113 59.79                             136   -0.9710 93.9 151 
 PTB  HZ IP     D 2113 44.46                             132   -1.4210  107 264 
 PTB  HE I        2114  4.13       114.9 0.10            127            107 264 
 PAM  SZ IP     D 2113 47.42                             129    0.0110  117  48 
 PAM  SZ I        2113 48.95        48.6 0.14            127            117  48 
 PAM  SN ES       2114  4.34                             129   -0.0710  117  48 
 OCA  HZ EP       2113 52.99                             117   -0.26 9  178   6 
 OCA  HN ES       2114 14.35                             117   -0.46 9  178   6 
 ZAR  HZ EP       2113 53.70                             116    0.62 9  178 302 
 ZAR  HE ES       2114 14.53                             116    0.03 9  178 302 
 ZAR  HN I        2114 19.52       151.7 0.14            113            178 302 
 CAPV BZ EP       2113 55.10                             115    0.68 9  188  44 
 TAM  HZ EP       2113 54.44                             115    0.10 9  189  97 
 TAM  HE I        2114 18.12       103.8 0.16            112            189  97 
 NOR  HZ EP       2113 53.86                             114   -0.95 9  193 232 
 NOR  HE ES       2114 17.12                             114   -0.46 9  193 232 
 NOR  HN I        2114 27.26        87.5 0.14            111            193 232 
 ROSC BZ EP       2113 59.00                             111    0.88 8  219 205 
 ROSC BN ES       2114 25.19                             111    1.71 8  219 205 
 ROSC BZ I        2114 34.71        18.4 0.35            109            219 205 
 CHI  HZ EP       2113 58.76                             111    0.08 8  224 187 
 CHI  HZ I        2114  0.24        16.6 0.34            108            224 187 
 CHI  HN ES       2114 24.15                             111   -0.32 8  224 187 
 HEL  HZ EP       2113 59.85                             110    0.41 8  231 258 
 HEL  HN ES       2114 26.57                             110    0.74 8  231 258 
 HEL  HE I        2114 30.98        20.3 0.22            108            231 258 
 SML  HZ EP       2114  0.20                             108   -0.71 8  248 345 
 SML  HN ES       2114 29.04                             108    0.59 8  248 345 
 SML  HE I        2114 34.05       134.2 0.10            107            248 345 
 VIL  SZ EP       2114  4.73                             105   -0.15 7  280 185 
 VIL  SE ES       2114 36.48                             105    0.96 7  280 185 
 DBB  SZ EP       2114  7.55                             104   -0.02 7  303 278 
 DBB  SZ ES       2114 39.66                             104   -0.64 7  303 278 
 DBB  SZ I        2114 44.36        14.7 0.40            103            303 278 
 PRA  HZ EP       2114 13.67                             101   -0.40 6  358 206 
 PRA  HN ES       2114 51.37                             101   -0.50 6  358 206 
 PRA  HE I        2115  1.72        17.1 0.42            101            358 206 
 COD  HZ EP       2114 15.10                             100    0.33 6  365   1 
 COD  HN ES       2114 53.70                             100    0.59 6  365   1 
 COD  HN I        2114 59.76        17.2 0.48            101            365   1 
 SJC  HN EP       2114 18.86                              98   -0.91 6  406 333 
                                                                                
