 2013  517 2343 24.0 L   6.799 -73.158150.7  RSN  7 0.3 1.9LRSN                1
 GAP=135        0.77       3.2     3.9  4.9  0.2571E+00  0.3111E+01 -0.8627E+00E
 Epicentro: LOS SANTOS - SANTANDER                                             3
 ACTION:UPD 13-06-20 09:51 OP:ep   STATUS:               ID:20130517234324 L   I
 2013-05-17-2340-00M.COL___256                                                 6
 STAT SP IPHASW D HRMM SECON CODA AMPLIT PERI AZIMU VELO AIN AR TRES W  DIS CAZ7
 BAR2 SZ EP       2343 44.18                             171   -0.0210 23.1 187 
 BAR2 SZ ES   1   2343 59.43                             171   -0.54 7 23.1 187 
 GIR2 SZ EP       2343 44.42                             168    0.1810 31.1 353 
 GIR2 SZ ES       2344  0.36                             168    0.3210 31.1 353 
 GIR2 SZ I        2344  1.52        13.2 0.36            168           31.1 353 
 BRR  HZ EP       2343 46.17                             154    0.5710 70.0 299 
 BRR  HN ES       2344  2.73                             154    0.2610 70.0 299 
 PAM  SZ EP       2343 46.93                             151    0.1510 78.3  40 
 PAM  SN ES       2344  4.24                             151   -0.3210 78.3  40 
 PAM  SZ I        2344  6.35        23.6 0.56            155           78.3  40 
 RUS  HZ EP       2343 48.06                             145   -0.1610  101 175 
 RUS  HN ES       2344  7.13                             145   -0.0010  101 175 
 RUS  HZ I        2344 10.38         2.8 0.18            146            101 175 
 PTB  HZ EP       2343 51.21                             133   -0.02 9  146 259 
 PTB  HN ES       2344 12.19                             133   -0.30 9  146 259 
 PTB  HZ I        2344 19.41        12.9 0.32            133            146 259 
 SML  HZ EP   1   2344  0.40                             118   -0.43 6  243 336 
 SML  HN ES       2344 29.20                             118   -0.38 8  243 336 
 SML  HZ I        2344 32.29        17.2 0.10            120            243 336 
                                                                                
