 2016  117 2024  2.9 L   6.243 -73.811 90.6  RSN 12 0.5 1.8LRSN                1
 GAP= 62        1.12       2.5     2.5  6.7 -0.1475E+01  0.3613E+01 -0.3623E+01E
 Epicentro: LANDAZURI - SANTANDER                                              3
 ACTION:UPD 16-03-09 23:26 OP:cam  STATUS:               ID:20160117202402 L   I
 OLDACT:REG 16-01-18 08:55 OP:y    STATUS:               ID:20160117201748     3
 2016-01-17-2017-48M.COL___328                                                 6
 STAT SP IPHASW D HRMM SECON CODA AMPLIT PERI AZIMU VELO AIN AR TRES W  DIS CAZ7
 SPBC HZ EP       2024 18.86                             139    0.2410 71.4 204 
 SPBC HN ES       2024 30.90                             139    0.0310 71.4 204 
 SPBC HZ I        2024 33.60        16.1 0.17            143           71.4 204 
 PTB  HZ EP       2024 18.50                             136   -0.6210 78.5 295 
 PTB  HN ES       2024 31.29                             136   -0.4510 78.5 295 
 PTB  HZ I        2024 35.18        26.5 0.10            137           78.5 295 
 BAR2 EZ EP       2024 19.27                             136   -0.2410 79.6  61 
 BAR2 EZ ES       2024 32.91                             136    0.4710 79.6  61 
 BAR2 EZ I        2024 34.46        49.2 0.54            138           79.6  61 
 RUS  HZ EP       2024 20.25                             132   -0.4810 89.4 116 
 RUS  HN ES       2024 34.72                             132    0.1010 89.4 116 
 RUS  HZ I        2024 36.55         6.2 0.26            136           89.4 116 
 NOR  HZ EP       2024 25.83                             118    0.65 9  139 237 
 NOR  HN ES       2024 42.06                             118   -0.48 9  139 237 
 NOR  HZ I        2024 47.11        13.7 0.12            121            139 237 
 PAM  EZ EP       2024 29.75                             113    0.29 9  173  45 
 PAM  EN ES       2024 49.83                             113   -0.32 9  173  45 
 PAM  EZ I        2024 54.82         8.8 0.44            115            173  45 
 CHI  HZ EP       2024 29.64                             112   -0.40 9  179 177 
 CHI  HN ES       2024 51.34                             112    0.15 9  179 177 
 CHI  HZ I        2024 54.72         2.8 0.26            115            179 177 
 ZAR  HZ EP       2024 29.87                             112    0.16 9  180 320 
 ZAR  HN ES       2024 51.26                             112    0.66 9  180 320 
 ZAR  HZ I        2024 53.88         9.1 0.19            113            180 320 
 HEL  HZ EP       2024 30.52                             111   -0.79 9  190 268 
 HEL  HN ES       2024 53.29                             111   -0.16 9  190 268 
 HEL  HZ I        2024 57.08         6.6 0.36            113            190 268 
 GUY2CHZ EP       2024 33.72                             109    0.48 8  206 237 
 GUY2CHN ES       2024 57.80                             109    0.91 8  206 237 
 GUY2CHZ I        2025  2.68         4.3 0.22                           206 237 
 OCA  HZ EP   2   2024 34.98                             107   -0.40 4  227  14 
 OCA  HN ES       2025  1.26                             107    0.57 8  227  14 
 OCA  HZ I        2025  5.34        16.8 0.46            109            227  14 
 SML  HZ EP   1   2024 41.54                             103   -0.44 6  284 354 
 SML  HE ES       2025 12.31                             103   -0.14 7  284 354 
 SML  HZ I        2025 23.04         6.2 0.10            104            284 354 
                                                                                
