 2010  417 2352 27.5 L   6.908 -73.230113.5  RSN  4 0.2 2.1LRSN                1
 GAP=175        0.43       2.8     7.0  5.7  0.1018E+01 -0.5825E+01 -0.4054E+01E
 Epicentro: BETULIA - SANTANDER                                                3
 ACTION:UPD 10-08-24 09:59 OP:vdl  STATUS:               ID:20100417235225 L   I
 2010-04-17-2349-45S.COL___100                                                 6
 STAT SP IPHASW D HRMM SECON CODA AMPLIT PERI AZIMU VELO AIN AR TRES W  DIS CAZ7
 BAR2 SZ EP       2352 43.78                             161     0.110   35 172 
 BAR2 SZ ES   2   2352 56.02                             161    -0.3 5   35 172 
 BRR  HZ IP     D 2352 44.59                             150     0.210   58 293 
 BRR  HZ I        2352 45.10        28.5 0.16                            58 293 
 BRR  HN ES   2   2352 57.72                             150     0.1 5   58 293 
 OCA  SZ EP       2352 52.10                             124    -0.1 9  147 356 
 OCA  SZ ES   1   2353 11.35                             124    -0.2 7  147 356 
 OCA  SZ I        2353 17.88        38.1 0.17                           147 356 
 PRA  HZ EP   2   2353 20.82                             100     0.0 3  398 208 
 PRA  HN ES   3   2354  1.47                             100    -1.0 1  398 208 
 PRA  HZ I        2354  7.96         2.2 0.23                           398 208 
                                                                                
