 2010 1017 2122 21.1 L   6.828 -73.094134.5  RSN  7 0.4 2.0LRSN                1
 GAP=164        1.14       4.8    10.5 10.4 -0.1574E+02  0.3124E+02 -0.9948E+01E
 Epicentro: LOS SANTOS - SANTANDER                                             3
 ACTION:UP  11-02-18 11:10 OP:tino STATUS:               ID:20101017212221 L   I
 2010-10-17-2120-22S.COL___126                                                 6
 STAT SP IPHASW D HRMM SECON CODA AMPLIT PERI AZIMU VELO SNR AR TRES W  DIS CAZ7
 BAR2 SZ EP       2122 39.84                             168     0.310   28 201 
 BAR2 SZ ES   1   2122 53.74                             168    -0.1 7   28 201 
 BAR2 SZ I        2122 55.92        24.8 0.17                            28 201 
 BRR  HZ EP       2122 41.87                             149     0.610   75 294 
 BRR  HZ I        2123  3.04        46.5 0.50                            75 294 
 RUS  HZ EP       2122 44.24                             141     0.210  103 179 
 RUS  HN ES   1   2123  1.58                             141    -0.3 7  103 179 
 RUS  HZ I        2123  3.80         8.6 0.46                           103 179 
 GRA  SZ EP       2122 44.33                             136    -0.710  121  15 
 GRA  SZ I        2123  5.12        24.6 0.36                           121  15 
 OCA  SZ EP       2122 48.79                             127     0.4 9  158 351 
 OCA  SZ ES   1   2123  9.31                             127    -0.3 7  158 351 
 OCA  SZ I        2123 11.18        18.6 0.57                           158 351 
 NOR  SZ EP       2122 56.59                             115    -0.4 8  241 235 
 NOR  SN ES   1   2123 24.43                             115    -0.5 6  241 235 
 CHI  HZ EP   1   2122 58.25                             114    -0.5 6  253 196 
 CHI  HN ES   2   2123 28.65                             114     0.6 4  253 196 
 CHI  HZ I        2123 35.84         2.7 0.45                           253 196 
                                                                                
