 2012 1217 2055 36.4 L   6.761 -73.148149.3  RSN  5 0.4 1.8LRSN                1
 GAP=138        1.04       5.7     5.5  9.0 -0.4208E+01  0.3128E+01  0.4696E+01E
 Epicentro: LOS SANTOS - SANTANDER                                             3
 ACTION:UPD 13-01-04 14:28 OP:ep   STATUS:               ID:20121217205536 L   I
 2012-12-17-2050-00M.COL___242                                                 6
 STAT SP IPHASW D HRMM SECON CODA AMPLIT PERI AZIMU VELO AIN AR TRES W  DIS CAZ7
 GIR2 SZ EP       2055 56.58                             166    0.0110 35.5 352 
 BRR  HZ EP       2055 58.28                             152    0.2810 73.1 302 
 BRR  HZ I        2055 58.50        14.6 0.22                          73.1 302 
 BRR  HN ES       2056 15.49                             152    0.6110 73.1 302 
 PAM  SZ EP       2055 59.15                             150   -0.0210 80.9  38 
 PAM  SN ES       2056 16.48                             150   -0.4710 80.9  38 
 RUS  HZ EP       2056  0.70                             146    0.5410 96.3 176 
 RUS  HN ES       2056 18.57                             146   -0.1510 96.3 176 
 RUS  HN I        2056 20.53         6.6 0.18                          96.3 176 
 PTB  HZ EP       2056  2.99                             133   -0.54 9  147 260 
 PTB  HN ES       2056 24.33                             133   -0.38 9  147 260 
 PTB  HN I        2056 29.92         9.5 0.60                           147 260 
                                                                                
