 2016  617 2001 55.6 L   6.787 -73.167144.1  RSN  9 0.2 2.1LRSN                1
 GAP=134        0.61       2.3     2.4  3.5 -0.9480E+00  0.2767E+01  0.8449E+00E
 Epicentro: LOS SANTOS - SANTANDER                                             3
 ACTION:UPD 16-07-21 22:19 OP:rebc STATUS:               ID:20160617200155 L   I
 OLDACT:REG 16-06-18 02:46 OP:cara STATUS:               ID:20160617195747     3
 2016-06-17-1957-47M.COL___346                                                 6
 STAT SP IPHASW D HRMM SECON CODA AMPLIT PERI AZIMU VELO AIN AR TRES W  DIS CAZ7
 BAR2 EZ IP       20 2 15.02                             171   -0.0210 21.6 184 
 BAR2 EZ ES       20 2 30.17                             171    0.0010 21.6 184 
 BAR2 EZ I        20 2 32.70        32.5 0.28                          21.6 184 
 BRR  HZ EP       20 2 16.90                             153    0.3710 69.8 300 
 BRR  HN ES       20 2 33.00                             153    0.1710 69.8 300 
 BRR  HZ I        20 2 37.89        19.8 0.16                          69.8 300 
 PAM  EZ EP       20 2 17.85                             150    0.0110 80.0  40 
 PAM  EN ES       20 2 35.13                             150   -0.0210 80.0  40 
 PAM  EZ I        20 2 37.03        25.9 0.48                          80.0  40 
 RUS  HZ EP       20 2 18.92                             144   -0.2210 99.3 175 
 RUS  HN ES       20 2 37.44                             144   -0.0310 99.3 175 
 RUS  HZ I        20 2 38.83        20.8 0.32                          99.3 175 
 PTB  HZ EP       20 2 22.16                             132   -0.07 9  145 259 
 PTB  HN ES       20 2 42.54                             132   -0.44 9  145 259 
 PTB  HZ I        20 2 47.74        10.6 0.22                           145 259 
 SPBC HZ EP       20 2 24.02                             129    0.26 9  161 219 
 SPBC HN ES       20 2 45.66                             129   -0.04 9  161 219 
 SPBC HZ I        20 2 49.03        21.8 0.52                           161 219 
 ZAR  HZ EP       20 2 27.25                             122   -0.55 9  202 293 
 ZAR  HN ES       20 2 53.04                             122    0.14 9  202 293 
 ZAR  HZ I        20 2 56.62         7.3 0.10                           202 293 
 NOR  HZ EP       20 2 30.79                             118   -0.18 8  232 234 
 NOR  HE ES       20 2 58.79                             118    0.26 8  232 234 
 NOR  HZ I        20 3  4.59        13.2 0.16                           232 234 
 GUY2CHZ EP       20 2 39.25                             112    0.39 7  298 235 
 GUY2CHN ES       20 3 12.63                             112    0.06 7  298 235 
 GUY2CHZ I        20 3 20.19         5.7 0.40                           298 235 
                                                                                
