 2017  817 2109  8.8 L   6.836 -73.141145.4  RSN 20 0.6 2.8LRSN                1
 GAP= 65        1.14       3.2     4.4  5.7 -0.4797E+01  0.1016E+02 -0.1182E+01E
 Epicentro: LOS SANTOS - SANTANDER                                             3
 ACTION:UPD 17-09-04 20:21 OP:rebc STATUS:               ID:20170817210908 L   I
 OLDACT:UP  17-08-18 04:17 OP:dani STATUS:               ID:20170817210737d    3
 OLDACT:UP  17-08-18 04:16 OP:dani STATUS:               ID:20170817210737d    3
 OLDACT:DUP 17-08-18 04:09 OP:dani STATUS:               ID:20170817210737d    3
 OLDACT:UP  17-08-18 04:09 OP:dani STATUS:               ID:20170817210736     3
 OLDACT:REG 17-08-18 02:44 OP:dani STATUS:               ID:20170817210736     3
 2017-08-17-2108-00M.COL___407                                                 6
 STAT SP IPHASW D HRMM SECON CODA AMPLIT PERI AZIMU VELO AIN AR TRES W  DIS CAZ7
 BAR2 EZ EP       21 9 28.32                             169   -0.1610 27.3 190 
 BAR2 EZ ES       21 9 43.44                             169   -0.3910 27.3 190 
 BAR2 EZ I        21 9 44.62       144.2 0.18            169           27.3 190 
 PAM  EZ EP     D 21 9 31.20                             152    0.4210 74.0  41 
 PAM  EN ES       21 9 48.26                             152    0.3310 74.0  41 
 PAM  EZ I        21 9 50.57       138.1 0.48            149           74.0  41 
 RUS  HZ EP     D 21 9 32.32                             143   -0.4810  104 177 
 RUS  HN ES       21 9 51.33                             143   -0.1910  104 177 
 RUS  HZ I        21 9 52.11        87.6 0.28            141            104 177 
 TAM  HZ IP     D 21 9 36.77                             130    0.27 9  156 106 
 TAM  HZ I        21 9 57.64        51.9 0.36            127            156 106 
 SPBC HZ EP       21 9 37.63                             128    0.03 9  167 218 
 SPBC HN ES       21 9 59.60                             128   -0.46 9  167 218 
 SPBC HZ I        2110  5.11       100.9 0.17            127            167 218 
 YPLC HZ EP     D 21 9 38.78                             126   -0.10 9  180 152 
 YPLC HN ES       2110  2.81                             126    0.46 9  180 152 
 YPLC HZ I        2110  3.72        82.9 0.26            124            180 152 
 NOR  HZ EP       21 9 44.39                             118   -0.41 8  237 234 
 NOR  HN ES       2110 12.83                             118   -0.06 8  237 234 
 NOR  HZ I        2110 19.57        35.3 0.50            116            237 234 
 CHI  HZ EP       21 9 46.54                             117   -0.37 8  253 195 
 CHI  HN ES       2110 15.69                             117   -0.94 8  253 195 
 CHI  HZ I        2110 21.12        32.5 0.66            115            253 195 
 ROSC BZ EP       21 9 48.19                             116    0.89 8  256 211 
 ROSC BN ES       2110 18.96                             116    1.63 8  256 211 
 ROSC BZ I        2110 22.83        59.5 0.40            115            256 211 
 URE  HZ EP       21 9 48.95                             113   -0.80 7  283 291 
 URE  HE ES   4   2110 18.93                             113   -2.76 0  283 291 
 URE  HZ I        2110 28.83        24.5 0.20            112            283 291 
 GUY2CHZ EP       21 9 52.97                             112    0.27 7  304 234 
 GUY2CHN ES   3   2110 28.30                             112    1.36 2  304 234 
 GUY2CHZ I        2110 32.53        20.2 0.38                           304 234 
 VIL  EZ EP       21 9 52.32                             112   -0.33 7  307 192 
 VIL  EE ES       2110 26.29                             112   -0.56 7  307 192 
 VIL  EZ I        2110 29.04        49.2 0.46            110            307 192 
 PTGC HZ EP   3   21 9 51.53                             111   -1.50 2  312 159 
 PTGC HN ES   4   2110 24.05                             111   -3.49 0  312 159 
 PTGC HZ I        2110 29.81        43.6 0.28            109            312 159 
 LL6C HZ EP       21 9 53.71                             110   -0.33 7  321 357 
 LL6C HN ES       2110 29.70                             110    0.37 7  321 357 
 LL6C HZ I        2110 35.74        16.0 0.44            109            321 357 
 ELA  HZ EP   3   21 9 57.17                             110    1.19 2  332 229 
 ELA  HN ES       2110 33.42                             110    0.65 7  332 229 
 ELA  HZ I        2110 40.15        24.9 0.38            108            332 229 
 DBB  EZ EP       21 9 56.62                             109    0.33 7  340 274 
 DBB  EN ES   3   2110 31.48                             109   -1.86 2  340 274 
 DBB  EZ I        2110 33.84        15.5 0.34            108            340 274 
 ANIL HZ EP       21 9 59.86                             108    0.90 6  361 224 
 ANIL HN ES       2110 38.67                             108    0.59 6  361 224 
 PRA  HZ EP       2110  2.20                             106   -0.54 6  396 209 
 PRA  HN ES       2110 44.00                             106   -0.81 6  396 209 
 PRA  HZ I        2110 50.59        19.9 0.58            105            396 209 
 ORTC HZ EP       2110  2.71                             106   -0.41 6  399 216 
 ORTC HN ES       2110 46.18                             106    0.70 6  399 216 
 ORTC HZ I        2110 49.70        20.2 0.26            105            399 216 
 SJC  HZ EP   3   2110  2.55                             106   -1.45 1  406 327 
 SJC  HN ES   4   2110 43.98                             106   -3.07 0  406 327 
 SJC  HZ I        2110 48.07         8.6 0.62            104            406 327 
                                                                                
