 2012  917 2015 48.0 L   6.797 -73.155146.6  RSN 14 0.4 2.8LRSN                1
 GAP= 71        0.70       3.1     2.7  4.4 -0.1861E+00  0.2848E+01  0.3521E+01E
 Epicentro: LOS SANTOS - SANTANDER                                             3
 ACTION:UPD 12-10-22 14:19 OP:ep   STATUS:               ID:20120917201548 L   I
 2012-09-17-2010-00M.COL___226                                                 6
 STAT SP IPHASW D HRMM SECON CODA AMPLIT PERI AZIMU VELO AIN AR TRES W  DIS CAZ7
 BAR2 SZ EP       2016  7.51                             171   -0.1810 22.8 187 
 BAR2 SZ ES   1   2016 23.36                             171    0.29 7 22.8 187 
 BAR2 SZ I        2016 23.99       164.6 0.16                          22.8 187 
 GIR2 SZ EP   1   2016  7.55                             167   -0.20 7 31.4 352 
 GIR2 SZ ES   1   2016 23.05                             167   -0.12 7 31.4 352 
 BRR  HZ EP       2016  9.29                             153    0.1210 70.4 299 
 BRR  HZ I        2016  9.76        74.7 0.10                          70.4 299 
 BRR  HE ES   1   2016 26.45                             153    0.76 7 70.4 299 
 PAM  SZ EP       2016 10.56                             151    0.2310 78.3  40 
 PAM  SE ES   1   2016 27.47                             151   -0.30 7 78.3  40 
 PAM  SZ I        2016 29.51        85.6 0.46                          78.3  40 
 RUS  HZ EP   1   2016 11.51                             144   -0.28 7  100 175 
 RUS  HE ES   1   2016 30.40                             144    0.04 7  100 175 
 RUS  HZ I        2016 31.86        52.1 0.30                           100 175 
 PTB  HZ EP   1   2016 14.34                             132   -0.57 7  147 259 
 PTB  HN ES   1   2016 35.20                             132   -0.71 7  147 259 
 TAM  HZ EP   1   2016 15.89                             130    0.09 7  156 105 
 TAM  HZ I        2016 16.22        57.7 0.20                           156 105 
 TAM  HE ES   1   2016 37.44                             130   -0.07 7  156 105 
 ZAR  HZ EP   1   2016 20.39                             123    0.01 6  203 292 
 ZAR  HE ES   1   2016 45.31                             123   -0.35 6  203 292 
 ZAR  HZ I        2016 51.72        64.4 0.36                           203 292 
 NOR  SZ EP   1   2016 23.94                             119    0.30 6  234 234 
 NOR  SN ES   1   2016 51.93                             119    0.48 6  234 234 
 CHI  HZ EP   1   2016 25.91                             117    0.26 6  248 195 
 CHI  HN ES   1   2016 54.62                             117   -0.42 6  248 195 
 CHI  HN I        2016 58.09        64.1 0.32                           248 195 
 ROSC BZ EP   9   2016 28.32                             117    2.27 0  252 211 
 ROSC BN ES   9   2016 57.60                                   -0.41 0  252 211 
 ROSC BZ I        2017  1.87        53.0 0.65                           252 211 
 HEL  HZ EP   1   2016 29.00                             115    0.90 6  271 256 
 HEL  HN ES   2   2016 59.10                             115   -0.30 4  271 256 
 DBB  SZ EP   1   2016 35.25                             110   -0.11 5  338 274 
 PRA  HZ EP   1   2016 41.23                             107   -0.20 4  391 209 
 PRA  HN ES   1   2017 23.40                             107    0.28 4  391 209 
 PRA  HZ I        2017 29.72        32.7 0.28                           391 209 
                                                                                
