 2016 1017 2200 52.1 L   6.828 -73.181137.8  RSN  5 0.2 1.4LRSN                1
 GAP=131        0.64       2.5     3.5  6.3 -0.2892E+01  0.6415E+01  0.7407E+00E
 Epicentro: ZAPATOCA - SANTANDER                                               3
 ACTION:UPD 16-11-09 19:20 OP:rebc STATUS:               ID:20161017220052 L   I
 OLDACT:REG 16-10-18 02:44 OP:y    STATUS:               ID:20161017215734     3
 2016-10-17-2158-00M.COL___353                                                 6
 STAT SP IPHASW D HRMM SECON CODA AMPLIT PERI AZIMU VELO AIN AR TRES W  DIS CAZ7
 PAM  EZ EP       22 1 13.58                             149    0.0810 77.7  43 
 PAM  EN ES       22 1 30.35                             149    0.1610 77.7  43 
 PAM  EZ I        22 1 32.42         4.5 0.50            153           77.7  43 
 RUS  HZ EP       22 1 15.02                             141   -0.3310  104 174 
 RUS  HN ES       22 1 33.46                             141   -0.0110  104 174 
 RUS  HZ I        22 1 34.51         2.3 0.30            144            104 174 
 PTB  HZ EP       22 1 18.63                             131    0.49 9  145 257 
 PTB  HN ES       22 1 38.23                             131   -0.21 9  145 257 
 PTB  HZ I        22 1 41.31         4.0 0.17            133            145 257 
 OCA  HE ES       22 1 40.62                             128   -0.21 9  157 354 
 SPBC HZ EP       22 1 19.88                             127   -0.13 9  163 217 
 SPBC HE ES       22 1 41.94                             127    0.17 9  163 217 
 SPBC HZ I        22 1 45.78         6.7 0.06            130            163 217 
                                                                                
