 2013  717 2211  3.7 L   6.811 -73.140147.5  RSN 18 0.5 2.6LRSN                1
 GAP=114        1.16       2.8     3.8  5.4 -0.2601E+01  0.4470E+01  0.1311E+01E
 Epicentro: LOS SANTOS - SANTANDER                                             3
 ACTION:UPD 13-08-12 10:38 OP:ep   STATUS:               ID:20130717221103 L   I
 OLDACT:REG 13-07-17 22:27 OP:stll STATUS:               ID:20130717220851     3
 2013-07-17-2208-51M.COL___230                                                 6
 STAT SP IPHASW D HRMM SECON CODA AMPLIT PERI AZIMU VELO AIN AR TRES W  DIS CAZ7
 BAR2 SZ IP     C 2211 23.48                             170   -0.1310 24.7 191 
 BAR2 SZ ES       2211 38.94                             170   -0.1610 24.7 191 
 BAR2 SZ I        2211 40.28        49.0 0.46            169           24.7 191 
 GIR2 SZ EP       2211 23.96                             168    0.3710 30.2 349 
 BRR  HZ IP     C 2211 25.40                             153    0.3310 71.2 297 
 BRR  HN ES       2211 42.81                             153    1.1010 71.2 297 
 BRR  HN I        2211 47.07       107.9 0.20            151           71.2 297 
 PAM  SZ EP       2211 26.28                             151    0.2210 76.0  40 
 PAM  SN ES       2211 43.57                             151    0.1010 76.0  40 
 PAM  SN I        2211 44.91        36.9 0.56            155           76.0  40 
 RUS  HZ EP       2211 27.42                             144   -0.3310  102 176 
 RUS  HE ES       2211 46.03                             144   -0.4410  102 176 
 RUS  HE I        2211 47.91        43.4 0.38            146            102 176 
 GRA  SZ EP       2211 29.26                             138    0.2410  124  17 
 PTB  HZ EP       2211 30.16                             132   -0.77 9  149 258 
 PTB  HE ES       2211 51.46                             132   -0.67 9  149 258 
 PTB  HE I        2211 57.46        76.4 0.20            132            149 258 
 OCA  HZ EP       2211 32.30                             130    0.22 9  159 353 
 OCA  HE ES       2211 53.97                             130   -0.21 9  159 353 
 OCA  HE I        2211 57.88        84.0 0.22            132            159 353 
 SPBC HZ EP       2211 32.41                             129   -0.09 9  165 219 
 SPBC HN ES       2211 54.49                             129   -0.44 9  165 219 
 YOP  SZ EP       2211 33.75                             126   -0.24 9  180 154 
 ZAR  HZ EP       2211 35.81                             123   -0.50 9  204 292 
 ZAR  HE ES       2212  1.13                             123   -0.59 9  204 292 
 NOR  HZ EP       2211 39.44                             119   -0.26 8  236 234 
 NOR  HE ES       2212  7.61                             119   -0.14 8  236 234 
 NOR  HE I        2212 13.91        50.4 0.18            120            236 234 
 SML  HZ EP       2211 40.22                             118   -0.15 8  243 335 
 SML  HN ES       2212  8.56                             118   -0.38 8  243 335 
 SML  HN I        2212 12.53        66.2 0.10            119            243 335 
 ROSC BN ES       2212 13.26                             117    1.23 8  254 211 
 HEL  HZ EP       2211 45.19                             115    1.05 8  273 256 
 HEL  HN ES       2212 15.81                             115    0.15 8  273 256 
 HEL  HN I        2212 23.05        11.6 0.46            116            273 256 
 GUY2CHZ EP       2211 48.04                             113    0.47 7  302 235 
 GUY2CHN ES       2212 22.46                             113    0.71 7  302 235 
 PRA  HZ EP       2211 57.61                             107    0.13 6  393 210 
 PRA  HN ES       2212 39.30                             107   -0.10 6  393 210 
 PRA  HN I        2212 44.38        10.0 0.32            108            393 210 
 ORTC HZ EP       2211 57.66                             107   -0.22 6  397 216 
 ORTC HN ES       2212 40.15                             107    0.04 6  397 216 
 ORTC HN I        2212 46.09        22.9 0.30            108            397 216 
                                                                                
