 2010  917 2041 29.8 L   6.801 -73.143149.7  RSN  4 0.1 1.3LRSN                1
 GAP=164        0.34       3.7     8.0  7.0  0.1974E+02 -0.3950E+02 -0.1529E+02E
 Epicentro: LOS SANTOS - SANTANDER                                             3
 ACTION:UP  11-02-18 11:03 OP:tino STATUS:               ID:20100917204129 L   I
 2010-09-17-2038-44S.COL___121                                                 6
 STAT SP IPHASW D HRMM SECON CODA AMPLIT PERI AZIMU VELO SNR AR TRES W  DIS CAZ7
 BAR2 SZ EP   2   2041 49.68                             171    -0.3 5   24 191 
 BAR2 SZ I        2042  7.10         7.8 0.65                            24 191 
 BRR  HZ EP   1   2041 51.44                             153     0.0 7   71 298 
 BRR  HZ I        2041 58.62        13.5 0.47                            71 298 
 BRR  HE ES   1   2042  8.25                             153     0.0 7   71 298 
 RUS  HZ EP   1   2041 54.00                             145     0.0 7  101 176 
 RUS  HN ES   1   2042 12.82                             145     0.0 7  101 176 
 RUS  HZ I        2042 14.70         2.0 0.34                           101 176 
 GUE  SZ EP   1   2041 54.93                             140     0.0 7  116  12 
 GUE  SZ I        2042 14.56         0.9 0.17                           116  12 
                                                                                
