 2016  317 2124 18.1 L   6.572 -73.397 76.9  RSN  5 0.4 1.2LRSN                1
 GAP=134        1.01       5.0     4.4  9.3 -0.4746E+01  0.1863E+02 -0.1204E+02E
 Epicentro: HATO - SANTANDER                                                   3
 ACTION:UPD 16-05-13 21:25 OP:cam  STATUS:               ID:20160317212418 L   I
 OLDACT:DUP 16-03-18 03:28 OP:drio STATUS:               ID:20160317211751d    3
 2016-03-17-2117-50M.COL___322                                                 6
 STAT SP IPHASW D HRMM SECON CODA AMPLIT PERI AZIMU VELO AIN AR TRES W  DIS CAZ7
 BAR2 EZ ES       2124 38.70                             161    0.2810 23.8  85 
 BAR2 EZ I        2124 40.05         5.1 0.14            148           23.8  85 
 RUS  HN ES       2124 46.36                             129   -0.3110 82.7 155 
 RUS  HZ I        2124 47.26         4.1 0.32            119           82.7 155 
 PAM  EZ EP       2124 37.20                             119   -0.2210  115  42 
 PAM  EZ I        2124 45.60         6.6 0.52            108            115  42 
 PTB  HZ EP       2124 37.68                             118    0.5910  117 268 
 PTB  HN ES       2124 51.36                             118   -0.5710  117 268 
 PTB  HZ I        2124 52.17         2.1 0.16            110            117 268 
 SPBC HN ES       2124 54.09                             116    0.2410  126 216 
 SPBC HZ I        2124 56.14         6.3 0.10            109            126 216 
                                                                                
