 2012  617 2026  2.1 L   6.336 -74.183 32.0  RSN  4 0.3 1.5LRSN                1
 GAP=152        0.55       6.7     2.0  4.6 -0.3858E+00 -0.3386E+01  0.2318E+02E
 Epicentro: CIMITARRA - SANTANDER                                              3
 ACTION:UPD 12-08-06 17:50 OP:ep   STATUS:               ID:20120617202602 L   I
 2012-06-17-2020-00M.COL___199                                                 6
 STAT SP IPHASW D HRMM SECON CODA AMPLIT PERI AZIMU VELO AIN AR TRES W  DIS CAZ7
 PTB  HZ EP       2026  9.77                             126   -0.0610 37.7 307 
 PTB  HN ES   1   2026 15.88                             126    0.01 7 37.7 307 
 PTB  HZ I        2026 16.41        40.0 0.11                          37.7 307 
 BAR2 SZ ES   1   2026 33.26                              61   -0.05 7  114  76 
 BAR2 SZ I        2026 34.96        14.3 0.23                           114  76 
 RUS  HZ EP   1   2026 22.43                              61    0.37 7  131 112 
 RUS  HZ I        2026 22.98         5.5 0.17                           131 112 
 RUS  HN ES   1   2026 37.34                              61   -0.29 7  131 112 
 HEL  HZ EP   1   2026 24.63                              61    0.39 7  150 264 
 HEL  HN ES   1   2026 41.20                              61   -0.31 7  150 264 
 HEL  HZ I        2026 42.17         4.8 0.36                           150 264 
                                                                                
