 2017 1117 2333 35.4 L   6.556 -73.555109.1  RSN 11 0.6 1.8LRSN                1
 GAP=102        1.16       3.8     3.3  8.5 -0.2817E+01  0.1036E+02 -0.1562E+01E
 Epicentro: EL CARMEN - SANTANDER                                              3
 ACTION:UPD 17-12-12 19:56 OP:rebc STATUS:               ID:20171117233335 L   I
 OLDACT:UP  17-11-18 05:51 OP:mg   STATUS:               ID:20171117232741     3
 OLDACT:UP  17-11-18 05:51 OP:mg   STATUS:               ID:20171117232741     3
 OLDACT:REG 17-11-18 05:06 OP:mg   STATUS:               ID:20171117232741     3
 2017-11-17-2328-00M.COL___473                                                 6
 STAT SP IPHASW D HRMM SECON CODA AMPLIT PERI AZIMU VELO AIN AR TRES W  DIS CAZ7
 BAR2 EZ IP     D 2333 51.61                             158    0.2910 41.4  84 
 BAR2 EZ ES   2   2334  4.16                             158    0.43 5 41.4  84 
 BAR2 EZ I        2334  5.22        25.6 0.17            161           41.4  84 
 RUS  HZ EP       2333 54.56                             138   -0.3210 90.0 145 
 RUS  HN ES       2334 10.08                             138    0.0210 90.0 145 
 RUS  HZ I        2334 11.54        13.6 0.44            140           90.0 145 
 PTB  HZ EP       2333 54.37                             134   -0.6810 99.7 269 
 PTB  HN ES   2   2334  9.54                             134   -0.82 5 99.7 269 
 PTB  HZ I        2334 10.68        12.4 0.12            135           99.7 269 
 SPBC HZ EP   1   2333 56.54                             130   -0.02 7  115 210 
 SPBC HE ES       2334 13.17                             130    0.1310  115 210 
 SPBC HZ I        2334 15.37        19.0 0.13            131            115 210 
 PAM  EZ EP       2333 58.75                             127    0.4210  128  47 
 PAM  EN ES       2334 15.94                             127   -0.2710  128  47 
 PAM  EZ I        2334 17.73        13.3 0.26            129            128  47 
 ZAR  HZ EP       2334  2.46                             117   -0.36 9  177 306 
 ZAR  HN ES   2   2334 26.29                             117    2.10 4  177 306 
 ZAR  HZ I        2334 28.43        11.7 0.42            118            177 306 
 NOR  HZ EP       2334  3.04                             116   -0.37 9  182 233 
 NOR  HN ES       2334 24.64                             116   -0.61 9  182 233 
 NOR  HZ I        2334 29.28         5.5 0.16            117            182 233 
 YPLC HZ EP       2334  3.24                             116   -0.24 9  183 135 
 YPLC HE ES       2334 25.86                             116    0.49 9  183 135 
 YPLC HZ I        2334 27.42        10.3 0.33            118            183 135 
 GUY2CHZ EP   2   2334 12.89                             108    1.42 4  249 234 
 GUY2CHN ES       2334 39.95                             108    0.37 8  249 234 
 GUY2CHZ I        2334 44.09         3.9 0.26                           249 234 
 CBOC HZ EP   2   2334 16.26                             105    1.23 4  283 254 
 CBOC HE ES       2334 46.86                             105    0.93 7  283 254 
 CBOC HZ I        2334 49.50         1.2 0.37            107            283 254 
 PRA  HZ EP       2334 22.03                             101   -0.52 6  347 205 
 PRA  HN ES       2334 59.50                             101    0.19 6  347 205 
 PRA  HZ I        2335  2.14         1.9 0.23            103            347 205 
                                                                                
