 2010  917 2143  0.7 L   6.812 -73.035146.0  RSN  8 0.3 1.7LRSN                1
 GAP=171        0.84       4.5     9.2  8.3 -0.2323E+01 -0.1804E+02 -0.1844E+01E
 Epicentro: CEPITA - SANTANDER                                                 3
 ACTION:UP  11-02-18 11:03 OP:tino STATUS:               ID:20100917214300 L   I
 2010-09-17-2140-00S.COL___121                                                 6
 STAT SP IPHASW D HRMM SECON CODA AMPLIT PERI AZIMU VELO SNR AR TRES W  DIS CAZ7
 BTL  SZ EP   1   2143 21.21                             169     0.7 7   28 295 
 BAR2 SZ EP       2143 20.56                             168     0.010   29 214 
 BAR2 SZ ES   2   2143 35.69                             168    -0.3 5   29 214 
 BAR2 SZ I        2143 37.05        23.9 0.24                            29 214 
 BRR  HZ EP       2143 22.51                             149     0.010   82 294 
 BRR  HN ES   1   2143 39.37                             149    -0.1 7   82 294 
 BRR  HZ I        2143 40.91        11.8 0.26                            82 294 
 RUS  HZ EP       2143 24.42                             144    -0.210  102 183 
 RUS  HN ES   1   2143 43.39                             144     0.2 7  102 183 
 RUS  HZ I        2143 44.27         8.2 0.10                           102 183 
 GUE  SZ EP   1   2143 25.73                             140     0.5 7  113   6 
 GUE  SZ I        2143 57.55         1.7 0.23                           113   6 
 GRA  SZ EP       2143 25.24                             138    -0.410  121  12 
 GRA  SZ ES   2   2143 44.85                             138    -0.2 5  121  12 
 GRA  SZ I        2143 46.60         9.1 0.32                           121  12 
 CHI  HZ EP   1   2143 38.60                             117    -0.3 6  253 198 
 CHI  HZ I        2144 11.29         4.3 0.36                           253 198 
 HEL  HZ EP   2   2143 42.28                             114     0.0 4  284 256 
 HEL  HZ I        2144 19.68         5.5 0.40                           284 256 
                                                                                
