 2016 1017 2053 43.6 L   6.790 -73.105141.2  RSN 22 0.5 2.7LRSN                1
 GAP= 69        1.07       2.8     3.1  4.6 -0.1178E+01  0.3737E+01  0.3706E+01E
 Epicentro: LOS SANTOS - SANTANDER                                             3
 ACTION:UPD 16-11-09 19:20 OP:rebc STATUS:               ID:20161017205343 L   I
 OLDACT:DUP 16-10-18 02:58 OP:lv   STATUS:               ID:20161017204734d    3
 2016-10-17-2048-00M.COL___359                                                 6
 STAT SP IPHASW D HRMM SECON CODA AMPLIT PERI AZIMU VELO AIN AR TRES W  DIS CAZ7
 BAR2 EZ IP     C 2054  2.70                             170   -0.0110 23.5 201 
 BAR2 EZ ES       2054 17.42                             170   -0.1810 23.5 201 
 BAR2 EZ I        2054 18.51       178.0 0.14            165           23.5 201 
 PAM  EZ IP     C 2054  5.59                             151    0.3510 75.5  36 
 PAM  EN ES       2054 22.38                             151    0.2810 75.5  36 
 PAM  EZ I        2054 24.65        71.5 0.18            158           75.5  36 
 BRR  HZ IP     C 2054  4.65                             150    0.1110 75.6 298 
 BRR  HN ISg      2054 21.42                             150    0.5610 75.6 298 
 BRR  HN ES       2054 21.42                             150    0.5610 75.6 298 
 BRR  HZ I        2054 23.11       129.0 0.16            152           75.6 298 
 RUS  HZ EP       2054  6.73                             143   -0.1010 99.3 179 
 RUS  HN ES       2054 25.09                             143    0.1510 99.3 179 
 RUS  HZ I        2054 26.99       109.6 0.29            142           99.3 179 
 TAM  HZ IP     C 2054 11.11                             130    0.60 9  151 105 
 TAM  HN ES       2054 30.95                             130   -0.54 9  151 105 
 TAM  HZ I        2054 33.06        65.1 0.26            134            151 105 
 PTB  HZ EP       2054  9.72                             130   -0.89 9  152 260 
 PTB  HN ES   4   2054 29.87                             130   -1.79 0  152 260 
 PTB  HZ I        2054 32.82        96.5 0.21            131            152 260 
 OCA  HZ EP       2054 11.04                             128   -0.70 9  162 352 
 OCA  HE ES       2054 33.02                             128   -0.65 9  162 352 
 OCA  HZ I        2054 35.04       127.6 0.18            134            162 352 
 SPBC HZ EP       2054 11.70                             128   -0.27 9  165 220 
 SPBC HN ES       2054 33.32                             128   -0.76 9  165 220 
 SPBC HZ I        2054 37.05       129.6 0.22            128            165 220 
 NOR  HZ EP       2054 19.36                             117   -0.05 8  238 235 
 NOR  HN ES       2054 46.41                             117   -0.93 8  238 235 
 NOR  HZ I        2054 51.19        56.3 0.19            119            238 235 
 CHI  HZ EP       2054 21.46                             116    0.37 8  249 196 
 CHI  HN ES       2054 50.06                             116   -0.25 8  249 196 
 CHI  HZ I        2054 53.60        22.3 0.35            117            249 196 
 ROSC BZ EP       2054 22.07                             116    0.42 8  254 212 
 ROSC BN ES   4   2054 54.06                             116    2.75 0  254 212 
 ROSC BZ I        2054 56.60        40.6 0.35            117            254 212 
 HEL  HZ EP       2054 23.97                             113   -0.09 7  276 256 
 HEL  HE ES   4   2054 54.17                             113   -1.43 0  276 256 
 HEL  HZ I        2055  2.10        49.7 0.32            115            276 256 
 VIL  EZ EP       2054 26.97                             111    0.15 7  303 192 
 VIL  EE ES       2055  0.45                             111   -0.06 7  303 192 
 VIL  EZ I        2055  9.40        27.3 0.33            113            303 192 
 GUY2CHZ EP       2054 27.94                             111    0.58 7  304 235 
 GUY2CHN ES       2055  2.15                             111    0.66 7  304 235 
 GUY2CHZ I        2055 10.16        30.4 0.48                           304 235 
 PTGC HZ EP   9   2054 26.07                             111   -0.91 0  306 159 
 PTGC HN ES       2054 59.42                                   -0.47 7  306 159 
 PTGC HZ I        2055  1.91        27.0 0.29            113            306 159 
 LL6C HZ EP   9   2054  8.57                             109   -20.7 0  326 357 
 LL6C HE ES       2054 44.06                                   -0.12 7  326 357 
 LL6C HZ I        2054 45.63        12.0 0.40            113            326 357 
 ELA  HZ EP       2054 31.41                             109    0.82 7  332 230 
 ELA  HE ES   4   2055  8.67                             109    1.44 0  332 230 
 ELA  HZ I        2055 14.39        20.6 0.54            111            332 230 
 CBOC HZ EP       2054 31.01                             109    0.21 7  338 253 
 CBOC HN ES       2055  8.19                             109    0.59 7  338 253 
 CBOC HZ I        2055 10.22        10.2 0.21            111            338 253 
 DBB  HZ EP       2054 30.96                             108   -0.48 7  344 274 
 DBB  HN ES   4   2055  6.46                             108   -2.27 0  344 274 
 PRA  HZ EP       2054 37.55                             106    0.41 6  393 210 
 PRA  HN ES       2055 19.13                             106    0.25 6  393 210 
 PRA  HZ I        2055 24.59        22.3 0.40            107            393 210 
 PAL  HZ EP       2054 38.90                             105   -0.12 6  409 240 
 PAL  HE ES       2055 21.98                             105   -0.25 6  409 240 
 PAL  HZ I        2055 27.74         9.0 0.23            107            409 240 
 SJC  HZ EP   4   2054 37.66                             105   -1.77 0  413 327 
 SJC  HN ES   4   2055 18.98                             105   -3.98 0  413 327 
 SJC  HZ I        2055 22.99         7.7 0.28            107            413 327 
 YOT  HZ EP   4   2054 45.48                             102   -1.37 0  475 229 
 YOT  HN ES   4   2055 39.37                             102    3.19 0  475 229 
                                                                                
