 2010  417 2316 48.9 L   6.687 -73.078134.8  RSN  5 0.2 1.9LRSN                1
 GAP=268        0.47       4.8     6.5  5.0  0.1377E+01  0.9917E+01  0.1404E+02E
 Epicentro: JORDAN - SANTANDER                                                 3
 ACTION:UPD 10-08-24 09:59 OP:vdl  STATUS:               ID:20100417231649 L   I
 2010-04-17-2313-09S.COL___100                                                 6
 STAT SP IPHASW D HRMM SECON CODA AMPLIT PERI AZIMU VELO AIN AR TRES W  DIS CAZ7
 BAR2 SZ IP       2317  7.11                             172     0.110   16 228 
 BAR2 SZ ES   1   2317 21.19                             172     0.0 7   16 228 
 BRR  HZ EP       2317  9.44                             147    -0.210   84 304 
 BRR  HE ES   1   2317 26.11                             147     0.2 7   84 304 
 BRR  HZ I        2317 30.34        13.3 0.11                            84 304 
 RREF BZ EP       2317 34.17                             109    -0.2 7  320 232 
 RREF BN ES   2   2318  9.82                             109     0.1 3  320 232 
 RREF BZ I        2318 18.56         3.5 0.21                           320 232 
 TOL  SZ EP   1   2317 36.65                             108     0.3 5  340 227 
 PRA  HZ EP       2317 41.49                             105     0.3 6  385 211 
 PRA  HN ES   2   2318 21.62                             105    -0.4 3  385 211 
 PRA  HZ I        2318 29.59         3.9 0.30                           385 211 
                                                                                
