 2017 1117 2352 29.9 L   6.881 -73.164148.0  RSN 13 0.5 2.0LRSN                1
 GAP=115        1.16       4.1     4.0  7.0  0.1954E+01  0.5664E+01  0.4124E+01E
 Epicentro: BETULIA - SANTANDER                                                3
 ACTION:UPD 17-12-12 19:56 OP:rebc STATUS:               ID:20171117235229 L   I
 OLDACT:UP  17-11-18 07:28 OP:mg   STATUS:               ID:20171117234739d    3
 OLDACT:DUP 17-11-18 07:20 OP:mg   STATUS:               ID:20171117234739d    3
 2017-11-17-2348-00M.COL___473                                                 6
 STAT SP IPHASW D HRMM SECON CODA AMPLIT PERI AZIMU VELO AIN AR TRES W  DIS CAZ7
 BAR2 EZ EP       2352 49.98                             167   -0.0510 32.0 184 
 BAR2 EZ ES   1   2353  5.75                             167    0.04 7 32.0 184 
 BAR2 EZ I        2353  6.31        13.7 0.11            167           32.0 184 
 PAM  EZ EP       2352 52.09                             153    0.0110 72.1  45 
 PAM  EN ES       2353  9.13                             153   -0.2310 72.1  45 
 PAM  EZ I        2353 11.26        22.0 0.30            148           72.1  45 
 RUS  HZ EP   2   2352 54.51                             142   -0.06 5  110 175 
 RUS  HN ES       2353 13.97                             142    0.1810  110 175 
 RUS  HZ I        2353 16.00         7.6 0.20            138            110 175 
 PTB  HZ EP       2352 56.68                             132   -0.40 9  148 255 
 PTB  HN ES       2353 17.34                             132   -0.92 9  148 255 
 PTB  HZ I        2353 19.89        10.5 0.13            126            148 255 
 TAM  HZ EP       2352 58.37                             130    0.17 9  160 108 
 YPLC HZ EP       2353  0.84                             126    0.08 9  186 152 
 YPLC HN ES       2353 25.21                             126    0.41 9  186 152 
 YPLC HZ I        2353 32.57         6.9 0.38            121            186 152 
 ZAR  HZ EP   1   2353  2.09                             124    0.09 6  199 290 
 ZAR  HE ES       2353 27.40                             124    0.39 9  199 290 
 ZAR  HZ I        2353 33.22         7.4 0.10            117            199 290 
 NOR  HZ EP       2353  6.24                             118    0.06 8  238 232 
 NOR  HE ES   2   2353 35.13                             118    0.67 4  238 232 
 NOR  HZ I        2353 38.00         8.5 0.24            113            238 232 
 CHI  HZ EP   2   2353  8.80                             117    0.16 4  257 194 
 CHI  HN ES       2353 39.37                             117    0.54 8  257 194 
 CHI  HZ I        2353 41.73         7.1 0.26            112            257 194 
 URE  HZ EP       2353 10.94                             114    0.40 7  279 290 
 URE  HZ I        2353 42.56         7.0 0.12            109            279 290 
 GUY2CHZ EP   9   2353 16.05                             112    2.00 0  305 233 
 GUY2CHN ES       2353 52.18                             113    1.72 7  305 233 
 GUY2CHZ I        2353 59.03         7.8 0.61                           305 233 
 PTGC HZ EP   2   2353 13.68                             111   -1.24 3  318 159 
 PTGC HN ES   2   2353 47.36                             111   -2.65 3  318 159 
 PTGC HZ I        2353 54.90         4.9 0.59            107            318 159 
 PRA  HZ EP       2353 24.63                             106    0.30 6  399 209 
 PRA  HN ES       2354  6.85                             106    0.09 6  399 209 
 PRA  HZ I        2354 10.87         5.7 0.19            103            399 209 
                                                                                
