 2017 1017 2147 14.3 L   6.774 -73.166146.0  RSN 10 0.5 1.8LRSN                1
 GAP=135        0.96       4.1     4.5  6.2 -0.2023E+00  0.5421E+01  0.6656E+01E
 Epicentro: LOS SANTOS - SANTANDER                                             3
 ACTION:UPD 17-11-07 19:33 OP:rebc STATUS:               ID:20171017214714 L   I
 OLDACT:UP  17-10-18 02:40 OP:mg   STATUS:               ID:20171017213738d    3
 OLDACT:DUP 17-10-18 02:34 OP:mg   STATUS:               ID:20171017213738d    3
 2017-10-17-2138-00M.COL___434                                                 6
 STAT SP IPHASW D HRMM SECON CODA AMPLIT PERI AZIMU VELO AIN AR TRES W  DIS CAZ7
 BAR2 EZ EP       2147 33.63                             172   -0.2210 20.1 185 
 BAR2 EZ ES       2147 49.31                             172    0.1710 20.1 185 
 BAR2 EZ I        2147 50.15        23.7 0.34            168           20.1 185 
 BRR  HZ EP       2147 35.67                             153    0.2710 70.7 301 
 BRR  HN ES       2147 52.62                             153    0.7310 70.7 301 
 BRR  HZ I        2147 53.17        14.9 0.13            149           70.7 301 
 PAM  EZ EP     C 2147 36.68                             150   -0.0310 81.0  39 
 PAM  EN ES       2147 53.83                             150   -0.4010 81.0  39 
 PAM  EZ I        2147 55.88        14.5 0.56            154           81.0  39 
 RUS  HZ EP       2147 37.98                             145    0.1510 97.9 175 
 RUS  HN ES       2147 56.40                             145    0.1810 97.9 175 
 RUS  HZ I        2147 57.35         5.0 0.32            144           97.9 175 
 PTB  HZ EP       2147 40.65                             133   -0.34 9  145 260 
 PTB  HN ES       2148  1.21                             133   -0.64 9  145 260 
 PTB  HZ I        2148  8.64         5.1 0.18            130            145 260 
 ZAR  HZ EP   4   2147 47.80                             123    1.18 0  203 293 
 ZAR  HN ES   1   2148 11.74                             123   -0.12 6  203 293 
 ZAR  HZ I        2148 19.06         5.9 0.30            121            203 293 
 ZAR  HZ I        2148 19.18         5.9 0.21                           203 293 
 NOR  HE ES   4   2148 15.01                             119   -2.20 0  231 235 
 NOR  HZ I        2148 23.32         3.9 0.12            118            231 235 
 CHI  HZ EP   1   2147 51.13                             118   -0.46 6  245 195 
 CHI  HN ES   1   2148 20.20                             118   -0.52 6  245 195 
 CHI  HZ I        2148 25.05         4.3 0.60            117            245 195 
 GUY2CHZ EP   2   2147 59.03                             113    1.55 4  298 235 
 GUY2CHN ES   4   2148 35.22                             113    4.03 0  298 235 
 GUY2CHZ I        2148 40.18         2.5 0.30                           298 235 
 PRA  HZ EP   1   2148  7.84                             107    0.48 4  388 209 
 PRA  HN ES   1   2148 49.39                             107    0.61 4  388 209 
 PRA  HZ I        2148 55.11         5.1 0.27            107            388 209 
                                                                                
