 2010  717 2113 37.4 L   6.781 -73.097147.1  RSN  4 0.2 1.4LRSN                1
 GAP=164        0.50       4.6    12.2 13.2  0.2464E+02 -0.1427E+03 -0.2666E+02E
 Epicentro: LOS SANTOS - SANTANDER                                             3
 ACTION:UPD 10-12-01 15:18 OP:pat  STATUS:               ID:20100717211337 L   I
 2010-07-17-2111-52S.COL___120                                                 6
 STAT SP IPHASW D HRMM SECON CODA AMPLIT PERI AZIMU VELO AIN AR TRES W  DIS CAZ7
 BRR  HZ EP   2   2113 59.00                             151     0.0 5   77 298 
 BRR  HZ I        2114  1.09         8.3 0.35                            77 298 
 BRR  HE ES       2114 15.85                             151     0.010   77 298 
 RUS  HZ EP   1   2114  1.10                             145     0.0 7   98 179 
 RUS  HE ES   2   2114 19.53                             145     0.0 5   98 179 
 RUS  HZ I        2114 21.10         1.8 0.19                            98 179 
 GUE  SZ EP   2   2114  1.71                             139    -0.6 5  118   9 
 GUE  SZ I        2114  3.53         2.1 0.12                           118   9 
 GRA  SZ EP       2114  2.91                             137     0.110  126  15 
 GRA  SZ I        2114 24.68         7.2 0.31                           126  15 
                                                                                
