 2014  717 2314  7.6 L   6.648 -73.142145.0  RSN  6 0.4 1.7LRSN                1
 GAP=183        0.96       9.7     5.3  8.0  0.4484E+01  0.1173E+01 -0.8916E+01E
 Epicentro: VILLANUEVA - SANTANDER                                             3
 ACTION:UPD 15-03-16 20:44 OP:nd   STATUS:               ID:20140717231407 L   I
 OLDACT:UP  14-07-18 04:38 OP:cam  STATUS:               ID:20140717231000     3
 OLDACT:REG 14-07-18 04:20 OP:cam  STATUS:               ID:20140717231000     3
 2014-07-17-2310-00M.COL___282                                                 6
 STAT SP IPHASW D HRMM SECON CODA AMPLIT PERI AZIMU VELO AIN AR TRES W  DIS CAZ7
 BAR2 SZ EP       2314 26.25                             177   -0.6210 7.66 216 
 BAR2 SZ ES       2314 41.91                             177   -0.0310 7.66 216 
 BAR2 SZ I        2314 43.48        16.5 0.28            173           7.66 216 
 BRR  HZ EP       2314 29.43                             149    0.2410 80.9 309 
 BRR  HN ES       2314 46.38                             149    0.3110 80.9 309 
 BRR  HZ I        2314 50.26        11.7 0.20            152           80.9 309 
 RUS  HE ES   4   2314 50.31                             149    2.66 0 83.8 176 
 RUS  HZ I        2314 52.07         3.4 0.36            148           83.8 176 
 PAM  SZ EP       2314 30.63                             146    0.1010 90.7  33 
 PTB  HZ EP       2314 34.76                             132    0.48 9  146 265 
 PTB  HE ES       2314 55.16                             132    0.03 9  146 265 
 PTB  HZ I        2314 57.71         5.3 0.14            134            146 265 
 ZAR  HZ EP   4   2314 41.99                             121    1.29 0  211 296 
 ZAR  HN ES       2315  5.93                             121   -0.63 8  211 296 
 ZAR  HZ I        2315  7.52         4.3 0.12            124            211 296 
                                                                                
