 2011  417 2124 15.8 L   6.718 -73.123136.7  RSN  5 0.3 1.7LRSN                1
 GAP=171        0.68       5.1     7.1  6.8 -0.1730E+02  0.1688E+02 -0.4294E+01E
 Epicentro: JORDAN - SANTANDER                                                 3
 ACTION:UP  11-06-22 15:31 OP:REBC STATUS:               ID:20110417212415 L   I
 2011-04-17-2122-40S.COL___133                                                 6
 STAT SP IPHASW D HRMM SECON CODA AMPLIT PERI AZIMU VELO SNR AR TRES W  DIS CAZ7
 BAR2 SZ EP   1   2124 34.63                             173     0.4 7   15 205 
 BAR2 SZ I        2124 34.80        12.4 0.21                            15 205 
 BAR2 SZ ES   1   2124 48.09                             173    -0.5 7   15 205 
 BRR  HZ EP   1   2124 36.29                             149    -0.1 7   78 303 
 BRR  HN ES   2   2124 52.72                             149     0.2 5   78 303 
 BRR  HZ I        2124 54.23        20.7 0.12                            78 303 
 PAM  SZ EP   1   2124 37.54                             147     0.1 7   83  34 
 PAM  SN ES   1   2124 54.53                             147     0.2 7   83  34 
 PAM  SZ I        2124 56.59         3.5 0.30                            83  34 
 OCA  SZ EP   1   2124 43.85                             126    -0.5 7  170 353 
 OCA  SZ ES   1   2125  6.71                             126     0.1 7  170 353 
 OCA  SZ I        2125  8.46        10.0 0.16                           170 353 
 NOR  SZ EP   1   2124 50.70                             117     0.0 6  232 237 
 NOR  SN ES   2   2125 18.29                             117     0.4 4  232 237 
                                                                                
