 2011 1017 2233 38.8 L   6.773 -73.147144.6  RSN  6 0.4 2.3LRSN                1
 GAP=138        0.78       4.6     5.6  7.1  0.4424E+01  0.5408E+01 -0.5178E+01E
 Epicentro: LOS SANTOS - SANTANDER                                             3
 ACTION:UPD 12-07-13 16:04 OP:ep   STATUS:               ID:20111017223338 L   I
 2011-10-17-2231-48S.COL___168                                                 6
 STAT SP IPHASW D HRMM SECON CODA AMPLIT PERI AZIMU VELO AIN AR TRES W  DIS CAZ7
 BAR2 SZ EP       2233 58.22                             172   -0.0510 20.4 191 
 BAR2 SZ I        2233 58.55        39.5 0.08                          20.4 191 
 BAR2 SZ ES   1   2234 12.68                             172   -0.75 7 20.4 191 
 BRR  HZ IP     C 2234  0.13                             152    0.2010 72.5 301 
 BRR  HZ I        2234  0.59        45.9 0.11                          72.5 301 
 BRR  HE ES   1   2234 17.18                             152    0.79 7 72.5 301 
 PAM  SZ EP   1   2234  1.18                             150    0.11 7 79.8  38 
 PAM  SN ES   1   2234 18.27                             150   -0.15 7 79.8  38 
 RUS  HZ EP   1   2234  2.12                             144   -0.14 7 97.6 176 
 RUS  HN ES   1   2234 20.87                             144    0.34 7 97.6 176 
 OCA  SZ EP   1   2234  7.34                             129    0.01 7  163 353 
 OCA  SZ ES   2   2234 29.59                             129    0.03 5  163 353 
 OCA  SZ I        2234 32.18        18.0 0.37                           163 353 
 ZAR  HZ EP   2   2234 11.14                             122   -0.16 4  205 293 
 ZAR  HN ES   1   2234 36.02                             122   -0.61 6  205 293 
 ZAR  HZ I        2234 43.72        25.7 0.09                           205 293 
                                                                                
