 2014  617 2321 51.6 L   6.798 -73.137140.6  RSN 18 0.5 2.3LRSN                1
 GAP= 72        1.21       3.0     3.5  6.2 -0.1979E+01  0.4751E+01  0.3589E+01E
 Epicentro: LOS SANTOS - SANTANDER                                             3
 ACTION:UPD 14-07-01 22:54 OP:nd   STATUS:               ID:20140617232151 L   I
 OLDACT:REG 14-06-18 02:49 OP:fm   STATUS:               ID:20140617231820     3
 2014-06-17-2318-20M.COL___259                                                 6
 STAT SP IPHASW D HRMM SECON CODA AMPLIT PERI AZIMU VELO AIN AR TRES W  DIS CAZ7
 BAR2 SZ EP     C 2322 10.64                             170    0.0510 23.3 192 
 BAR2 SZ ES   1   2322 25.71                             170    0.29 7 23.3 192 
 BAR2 SZ I        2322 27.34        31.3 0.22            169           23.3 192 
 BRR  HZ EP       2322 12.71                             151    0.4810 72.1 298 
 BRR  HN ES       2322 29.22                             151    0.8910 72.1 298 
 BRR  HZ I        2322 33.51        22.0 0.48            149           72.1 298 
 PAM  SZ EP     D 2322 13.59                             150    0.3710 77.0  39 
 PAM  SE ES       2322 30.30                             150    0.1910 77.0  39 
 PAM  SZ I        2322 32.77        42.6 0.50            154           77.0  39 
 RUS  HZ EP       2322 14.63                             143   -0.1810  100 177 
 RUS  HE ES       2322 32.06                             143   -0.8610  100 177 
 RUS  HZ I        2322 34.69        12.5 0.32            145            100 177 
 PTB  HZ EP       2322 17.41                             131   -0.80 9  149 259 
 PTB  HN ES       2322 38.14                             131   -0.85 9  149 259 
 PTB  HZ I        2322 44.57        24.6 0.54            130            149 259 
 TAM  HZ EP     D 2322 18.82                             129    0.06 9  154 105 
 TAM  HN ES       2322 40.17                             129    0.21 9  154 105 
 TAM  HZ I        2322 41.21        11.0 0.30            134            154 105 
 OCA  HZ EP   1   2322 19.48                             128   -0.05 7  161 353 
 OCA  HE ES       2322 40.76                             128   -0.57 9  161 353 
 OCA  HZ I        2322 49.01        17.1 0.36            130            161 353 
 SPBC HZ EP       2322 19.58                             128   -0.15 9  164 219 
 SPBC HN ES       2322 41.90                             128    0.22 9  164 219 
 SPBC HZ I        2322 46.69        27.0 0.18            128            164 219 
 NOR  HZ EP     D 2322 26.81                             117   -0.27 8  235 235 
 NOR  HN ES       2322 54.58                             117   -0.20 8  235 235 
 NOR  HZ I        2323  1.81        13.6 0.26            118            235 235 
 SML  HZ EP   1   2322 27.04                             116   -0.95 6  244 335 
 SML  HE ES       2322 56.38                             116   -0.00 8  244 335 
 SML  HZ I        2323  2.44        16.9 0.10            118            244 335 
 CHI  HZ EP       2322 28.70                             116   -0.30 8  249 195 
 CHI  HN ES       2322 57.68                             116   -0.51 8  249 195 
 CHI  HZ I        2323  2.78         8.1 0.38            118            249 195 
 ROSC BE ES       2322 59.06                             116    0.06 8  253 211 
 ROSC BZ I        2323  8.43        17.9 0.45            117            253 211 
 HEL  HN ES       2323  3.03                             114    0.16 8  273 256 
 HEL  HZ I        2323  9.32        11.7 0.38            114            273 256 
 GUY2CHZ EP       2322 35.89                             111    0.86 7  302 235 
 GUY2CHE ES   4   2323 10.85                             111    1.93 0  302 235 
 GUY2CHZ I        2323 17.51        17.0 0.74                           302 235 
 RREF HZ EP   1   2322 38.28                             110    0.71 5  322 230 
 RREF HN ES   4   2323 14.71                             110    1.27 0  322 230 
 RREF HZ I        2323 22.35        11.8 0.50            111            322 230 
 TOL  SZ EP       2322 40.03                             108    0.34 7  344 225 
 TOL  SN ES       2323 18.22                             108    1.00 7  344 225 
 TOL  SZ I        2323 24.58        26.6 0.36            109            344 225 
 ANIL HZ EP   4   2322 43.16                             107    1.91 0  358 225 
 ANIL HN ES   4   2323 21.28                             107    1.29 0  358 225 
 PRA  HZ EP   4   2322 42.56                             106   -2.40 0  392 210 
 PRA  HN ES       2323 27.69                             106    1.10 6  392 210 
 PRA  HZ I        2323 32.45        11.2 0.36            107            392 210 
 SJC  HZ EP   4   2322 44.36                             105   -2.70 0  410 327 
 SJC  HE ES   4   2323 26.39                             105   -3.94 0  410 327 
 SJC  HZ I        2323 30.22         2.9 0.46            106            410 327 
                                                                                
