 2013  217 2036 42.1 L   6.741 -73.129145.0  RSN  9 0.3 2.1LRSN                1
 GAP= 93        0.76       3.6     3.3  4.7  0.4884E+00  0.3008E+01  0.3132E+01E
 Epicentro: JORDAN - SANTANDER                                                 3
 ACTION:UPD 13-03-12 09:33 OP:ep   STATUS:               ID:20130217203642 L   I
 2013-02-17-2030-00M.COL___241                                                 6
 STAT SP IPHASW D HRMM SECON CODA AMPLIT PERI AZIMU VELO AIN AR TRES W  DIS CAZ7
 BAR2 SZ EP       2037  1.97                             173    0.4710 17.5 200 
 BAR2 SZ ES       2037 16.55                             173   -0.1110 17.5 200 
 BAR2 SZ I        2037 18.11        49.5 0.30            165           17.5 200 
 BRR  HZ EP       2037  3.50                             151    0.0810 76.1 302 
 BRR  HE ES       2037 20.56                             151    0.4810 76.1 302 
 PAM  SZ EP       2037  4.51                             149    0.0610 81.4  36 
 PAM  SZ I        2037  4.83        17.2 0.19            151           81.4  36 
 PAM  SE ES       2037 21.51                             149   -0.3910 81.4  36 
 RUS  HZ EP   1   2037  5.02                             146   -0.26 7 93.9 177 
 RUS  HE ES   1   2037 23.16                             146   -0.22 7 93.9 177 
 RUS  HE I        2037 24.99        34.5 0.26            140           93.9 177 
 PTB  HZ EP   1   2037  8.28                             132   -0.76 7  149 261 
 PTB  HZ I        2037 30.28        15.7 0.21            124            149 261 
 TAM  HZ EP       2037  9.60                             131    0.23 9  152 103 
 ZAR  HZ EP       2037 14.64                             122   -0.27 8  208 294 
 ZAR  HE ES   1   2037 40.31                             122   -0.21 6  208 294 
 ZAR  HZ I        2037 44.98        12.6 0.23            116            208 294 
 CHI  HZ EP   1   2037 19.00                             118   -0.10 6  243 196 
 CHI  HE ES   1   2037 48.09                             118    0.11 6  243 196 
 HEL  HZ EP   1   2037 22.86                             115    0.58 6  272 257 
 HEL  HE ES   1   2037 53.50                             115   -0.14 6  272 257 
 HEL  HZ I        2038  1.12         5.6 0.35            110            272 257 
                                                                                
