 2011  517 2327 20.5 L   6.790 -73.125137.7  RSN 12 0.3 2.0LRSN                1
 GAP=140        0.50       2.9     4.7  6.2 -0.5140E+01  0.4191E+01  0.1723E+01E
 Epicentro: LOS SANTOS - SANTANDER                                             3
 ACTION:UP  11-06-29 08:54 OP:tino STATUS:               ID:20110517232720 L   I
 2011-05-17-2323-18S.COL___141                                                 6
 STAT SP IPHASW D HRMM SECON CODA AMPLIT PERI AZIMU VELO SNR AR TRES W  DIS CAZ7
 BTL  SZ EP   1   2327 39.42                             171     0.3 7   21 312 
 BAR2 SZ EP   1   2327 39.15                             170     0.0 7   23 196 
 BAR2 SZ I        2327 56.70        34.7 0.30                            23 196 
 GIR2 SZ EP   1   2327 39.21                             166    -0.1 7   33 347 
 BRR  HZ IP     C 2327 40.96                             150     0.010   74 298 
 BRR  HE ES   2   2327 56.99                             150     0.1 5   74 298 
 BRR  HZ I        2328  1.75        32.4 0.53                            74 298 
 PAM  SZ EP   2   2327 42.01                             149     0.2 5   77  38 
 PAM  SN ES   2   2327 58.83                             149     0.4 5   77  38 
 RUS  HZ EP   1   2327 43.10                             142    -0.3 7   99 177 
 RUS  HN ES   2   2328  1.25                             142     0.0 5   99 177 
 RUS  HZ I        2328  4.19        11.2 0.32                            99 177 
 BRI  SZ EP   1   2327 43.85                             140     0.2 7  109  19 
 BRI  SZ I        2328  7.70        18.3 0.30                           109  19 
 GRA  SZ EP   1   2327 45.01                             135    -0.1 7  126  16 
 GRA  SZ ES   2   2328  3.39                             135    -0.8 5  126  16 
 GRA  SZ I        2328  8.34        12.1 0.48                           126  16 
 OCA  SZ EP   2   2327 48.64                             127     0.3 5  162 352 
 OCA  SZ ES   2   2328  9.65                             127    -0.4 5  162 352 
 OCA  SZ I        2328 14.28        15.2 0.21                           162 352 
 NOR  SE ES   2   2328 23.40                             117    -0.1 4  236 235 
 HEL  HZ EP   2   2328  0.70                             113     0.2 4  274 256 
 HEL  HZ I        2328 39.22         6.0 0.47                           274 256 
 PRA  HZ EP   2   2328 13.57                             105    -0.2 3  392 210 
 PRA  HN ES   2   2328 55.14                             105    -0.2 3  392 210 
                                                                                
