 2016 1017 2128 43.7 L   6.771 -73.132143.0  RSN 11 0.3 1.8LRSN                1
 GAP=140        0.84       3.6     3.5  5.2 -0.4056E+01  0.4404E+01  0.4381E+01E
 Epicentro: LOS SANTOS - SANTANDER                                             3
 ACTION:UPD 16-11-09 19:20 OP:rebc STATUS:               ID:20161017212843 L   I
 OLDACT:REG 16-10-18 02:43 OP:y    STATUS:               ID:20161017212734     3
 2016-10-17-2128-00M.COL___353                                                 6
 STAT SP IPHASW D HRMM SECON CODA AMPLIT PERI AZIMU VELO AIN AR TRES W  DIS CAZ7
 BAR2 EZ EP       2129  3.06                             171    0.0710 20.5 196 
 BAR2 EZ ES       2129 17.49                             171   -0.5110 20.5 196 
 BAR2 EZ I        2129 19.42        23.2 0.21            170           20.5 196 
 BRR  HZ IP     C 2129  4.61                             151   -0.1510 74.1 300 
 BRR  HN ES       2129 21.69                             151    0.5310 74.1 300 
 BRR  HZ I        2129 25.63        19.7 0.40            149           74.1 300 
 PAM  EZ EP       2129  5.80                             150    0.0310 79.0  37 
 PAM  EN ES       2129 23.07                             150    0.1210 79.0  37 
 PAM  EZ I        2129 25.25        10.7 0.33            153           79.0  37 
 RUS  HZ EP       2129  6.84                             144   -0.1510 97.3 177 
 RUS  HE ES       2129 25.42                             144    0.3010 97.3 177 
 RUS  HZ I        2129 26.41         4.4 0.24            147           97.3 177 
 PTB  HZ EP       2129 10.26                             131   -0.31 9  149 260 
 PTB  HE ES       2129 31.12                             131   -0.37 9  149 260 
 PTB  HZ I        2129 36.15         9.4 0.19            131            149 260 
 SPBC HZ EP       2129 11.78                             129   -0.11 9  162 220 
 SPBC HE ES       2129 33.74                             129   -0.10 9  162 220 
 SPBC HZ I        2129 35.44        16.5 0.08            130            162 220 
 NOR  HE ES       2129 47.52                             118    0.59 8  234 235 
 NOR  HZ I        2129 53.18         4.6 0.16            119            234 235 
 HEL  HZ EP   4   2129 25.78                             114    1.89 0  273 257 
 HEL  HN ES       2129 55.52                             114    0.32 8  273 257 
 HEL  HZ I        2130  1.03         3.4 0.30            115            273 257 
 GUY2CHZ EP   4   2129 29.36                             112    2.21 0  301 235 
 GUY2CHE ES       2130  0.34                             112   -0.67 7  301 235 
 GUY2CHZ I        2130 11.12         2.2 0.29                           301 235 
 PRA  HZ EP       2129 37.28                             106    0.35 6  390 210 
 PRA  HN ES       2130 18.91                             106    0.50 6  390 210 
 PRA  HZ I        2130 21.76         4.5 0.28            107            390 210 
 SJC  HZ EP   4   2129 37.52                             105   -2.11 0  413 327 
 SJC  HE ES   4   2130 19.33                             105   -3.89 0  413 327 
 SJC  HZ I        2130 25.97         1.3 0.35            106            413 327 
                                                                                
