 2016  917 2125 16.5 L   6.705 -73.108146.1  RSN  4 0.1 1.6LRSN                1
 GAP=145        0.46       2.4     2.7  4.5  0.1282E+01  0.1713E+01  0.3526E+00E
 Epicentro: JORDAN - SANTANDER                                                 3
 ACTION:UPD 17-08-17 21:13 OP:lp   STATUS:               ID:20160917212516 L   I
 OLDACT:REG 16-09-18 04:08 OP:dani STATUS:               ID:20160917211737     3
 2016-09-17-2118-00M.COL___359                                                 6
 STAT SP IPHASW D HRMM SECON CODA AMPLIT PERI AZIMU VELO AIN AR TRES W  DIS CAZ7
 BRR  HZ EP       2125 38.15                             150   -0.0810 80.2 304 
 BRR  HE ES       2125 55.36                             150    0.2010 80.2 304 
 BRR  HZ I        2125 56.02         8.0 0.19            148           80.2 304 
 PAM  EZ EP       2125 39.09                             149   -0.0510 83.5  33 
 PAM  EE ES       2125 56.74                             149   -0.0410 83.5  33 
 PAM  EZ I        2125 59.19         6.3 0.74            150           83.5  33 
 RUS  HZ EP       2125 39.79                             147    0.2310 89.9 178 
 RUS  HE ES       2125 57.35                             147   -0.1710 89.9 178 
 RUS  HZ I        2125 59.43         3.2 0.31            148           89.9 178 
 ZAR  HE ES       2126 15.63                             121   -0.14 8  212 294 
 ZAR  HZ I        2126 22.13         6.7 0.10            121            212 294 
                                                                                
