 2016  317 2024 38.7 L   6.776 -73.151135.4  RSN  9 0.4 1.9LRSN                1
 GAP=137        1.04       3.8     4.3  6.6 -0.1986E+01  0.1122E+02  0.2144E+01E
 Epicentro: LOS SANTOS - SANTANDER                                             3
 ACTION:UPD 16-05-13 21:25 OP:cam  STATUS:               ID:20160317202438 L   I
 OLDACT:REG 16-03-18 02:41 OP:drio STATUS:               ID:20160317201746     3
 2016-03-17-2017-46M.COL___322                                                 6
 STAT SP IPHASW D HRMM SECON CODA AMPLIT PERI AZIMU VELO AIN AR TRES W  DIS CAZ7
 BAR2 EZ IP     C 2024 56.98                             171   -0.0710 20.7 190 
 BAR2 EZ ES       2025 11.34                             171   -0.0110 20.7 190 
 BAR2 EZ I        2025 13.21        10.5 0.18            169           20.7 190 
 PAM  EZ EP       2024 59.72                             148   -0.2710 79.8  39 
 PAM  EE ES       2025 16.68                             148    0.0910 79.8  39 
 PAM  EZ I        2025 18.77        23.8 0.46            152           79.8  39 
 RUS  HZ EP       2025  1.02                             142   -0.2510 98.0 176 
 RUS  HE ES       2025 19.47                             142    0.6010 98.0 176 
 RUS  HZ I        2025 20.86        11.3 0.26            144           98.0 176 
 PTB  HZ EP       2025  4.04                             130   -0.72 9  147 260 
 PTB  HN ES       2025 24.56                             130   -0.51 9  147 260 
 PTB  HZ I        2025 27.89         6.1 0.18            130            147 260 
 SPBC HZ EP       2025  5.93                             127   -0.27 9  161 219 
 SPBC HN ES       2025 27.18                             127   -0.47 9  161 219 
 SPBC HZ I        2025 30.54        17.9 0.24            128            161 219 
 ZAR  HZ EP       2025 11.30                             120    0.75 9  204 293 
 ZAR  HE ES       2025 35.95                             120    0.56 9  204 293 
 ZAR  HZ I        2025 40.79        11.9 0.44            121            204 293 
 NOR  HZ EP       2025 13.68                             116    0.04 8  233 235 
 NOR  HE ES   4   2025 42.03                             116    1.14 0  233 235 
 NOR  HZ I        2025 44.76         8.6 0.48            118            233 235 
 CHI  HZ EP       2025 15.89                             115    0.33 8  246 195 
 CHI  HE ES       2025 44.48                             115    0.17 8  246 195 
 CHI  HZ I        2025 51.46         2.7 0.58            117            246 195 
 GUY2CHZ EP   4   2025 23.03                             110    1.40 0  299 235 
 GUY2CHE ES       2025 55.72                             110    0.61 7  299 235 
 GUY2CHZ I        2026  3.37         4.6 0.32                           299 235 
                                                                                
