 2016 1017 2209 49.7 L   6.836 -73.161148.7  RSN  7 0.4 1.3LRSN                1
 GAP=133        0.85       3.3     4.1  6.8 -0.3270E+01  0.8815E+01 -0.2235E+01E
 Epicentro: LOS SANTOS - SANTANDER                                             3
 ACTION:UPD 16-11-09 19:20 OP:rebc STATUS:               ID:20161017220949 L   I
 OLDACT:REG 16-10-18 02:45 OP:y    STATUS:               ID:20161017220738     3
 2016-10-17-2208-00M.COL___350                                                 6
 STAT SP IPHASW D HRMM SECON CODA AMPLIT PERI AZIMU VELO AIN AR TRES W  DIS CAZ7
 PAM  EZ EP       2210 12.64                             152    0.4710 75.5  42 
 PAM  EN ES       2210 29.94                             152    0.2810 75.5  42 
 PAM  EZ I        2210 32.85         3.2 0.55            154           75.5  42 
 RUS  HZ EP       2210 13.66                             143   -0.4210  105 175 
 RUS  HN ES       2210 32.51                             143   -0.5610  105 175 
 RUS  HZ I        2210 35.00         1.8 0.24            147            105 175 
 PTB  HZ EP       2210 16.85                             133   -0.04 9  147 257 
 PTB  HN ES       2210 38.16                             133    0.11 9  147 257 
 PTB  HZ I        2210 41.10         3.2 0.12            135            147 257 
 NOR  HE ES       2210 54.03                             119    0.19 8  236 233 
 CHI  HZ EP       2210 28.38                             117    0.40 8  252 195 
 CHI  HE ES       2210 57.93                             117    0.13 8  252 195 
 GUY2CHZ EP   9   2210 36.61                             113    3.01 0  302 234 
 GUY2CHN ES       2211 10.42                                   -0.39 7  302 234 
 GUY2CHZ I        2211 16.42         1.9 0.32                           302 234 
 SJC  HZ EP       2210 44.52                             106   -0.39 6  405 327 
 SJC  HN ES       2211 27.40                             106   -0.54 6  405 327 
                                                                                
