 2016 1117 2312 58.4 L   6.729 -73.148140.2  RSN  5 0.4 1.7LRSN                1
 GAP=158        1.09       8.9     5.2  8.7 -0.1060E+02  0.1040E+02  0.8196E+00E
 Epicentro: JORDAN - SANTANDER                                                 3
 ACTION:UPD 17-10-26 21:09 OP:lp   STATUS:               ID:20161117231258 L   I
 OLDACT:REG 16-11-18 04:08 OP:dnl  STATUS:               ID:20161117230750     3
 2016-11-17-2308-00M.COL___346                                                 6
 STAT SP IPHASW D HRMM SECON CODA AMPLIT PERI AZIMU VELO AIN AR TRES W  DIS CAZ7
 BAR2 EZ EP       2313 17.63                             173    0.3910 15.6 194 
 BAR2 EZ ES       2313 31.57                             173   -0.3510 15.6 194 
 BAR2 EZ I        2313 33.60         9.1 0.32            174           15.6 194 
 BRR  HZ IP     C 2313 19.43                             150    0.2410 75.0 304 
 BRR  HN ES       2313 36.30                             150    0.9010 75.0 304 
 BRR  HZ I        2313 37.55        10.5 0.30            148           75.0 304 
 PAM  EN EP       2313 20.44                             148   -0.0110 83.8  36 
 PAM  EE ES       2313 37.21                             148   -0.4210 83.8  36 
 PAM  EN I        2313 38.52        19.8 0.48            149           83.8  36 
 PTB  HZ EP       2313 24.66                             131   -0.13 9  146 262 
 PTB  HN ES       2313 45.11                             131   -0.24 9  146 262 
 PTB  HZ I        2313 47.80         3.2 0.34            131            146 262 
 ZAR  HZ EP   3   2313 31.18                             121    0.38 2  207 294 
 ZAR  HN ES       2313 55.45                             121   -0.61 8  207 294 
 ZAR  HZ I        2314  1.45         4.9 0.42            121            207 294 
                                                                                
