 2016  917 2003 45.6 L   6.785 -73.148150.3  RSN 14 0.4 2.1LRSN                1
 GAP=119        0.97       3.2     3.3  5.0 -0.2347E+01  0.2380E+01  0.2415E+01E
 Epicentro: LOS SANTOS - SANTANDER                                             3
 ACTION:UPD 17-08-17 21:13 OP:lp   STATUS:               ID:20160917200345 L   I
 OLDACT:UP  16-09-18 05:20 OP:dani STATUS:               ID:20160917195731     3
 OLDACT:UP  16-09-18 05:19 OP:dani STATUS:               ID:20160917195731     3
 OLDACT:UP  16-09-18 05:18 OP:dani STATUS:               ID:20160917195731     3
 OLDACT:REG 16-09-18 03:50 OP:dani STATUS:               ID:20160917195731     3
 2016-09-17-1958-00M.COL___363                                                 6
 STAT SP IPHASW D HRMM SECON CODA AMPLIT PERI AZIMU VELO AIN AR TRES W  DIS CAZ7
 BAR2 EZ EP       20 4  5.56                             171   -0.1810 21.6 190 
 BAR2 HN ES       20 4 21.13                             171   -0.3310 21.6 190 
 BAR2 EZ I        20 4 22.48        44.9 0.21            173           21.6 190 
 BRR  HZ EP       20 4  7.84                             153    0.5610 71.8 300 
 BRR  HN ES       20 4 24.63                             153    0.4510 71.8 300 
 BRR  HZ I        20 4 29.42        22.0 0.20            141           71.8 300 
 PAM  EZ EP       20 4  8.69                             151    0.3110 78.8  39 
 PAM  EE ES       20 4 25.79                             151   -0.3710 78.8  39 
 PAM  EZ I        20 4 27.94        12.0 0.56            142           78.8  39 
 RUS  HZ EP       20 4  9.72                             145    0.0410 98.9 176 
 RUS  HE ES       20 4 28.34                             145   -0.1310 98.9 176 
 RUS  HZ I        20 4 29.96        10.3 0.24            141           98.9 176 
 PTB  HZ EP       20 4 12.60                             133   -0.29 9  147 259 
 PTB  HE ES       20 4 34.34                             133    0.16 9  147 259 
 PTB  HZ I        20 4 39.95        13.2 0.48            123            147 259 
 SPBC HZ EP       20 4 14.64                             130    0.33 9  162 219 
 SPBC HN ES       20 4 37.33                             130    0.62 9  162 219 
 SPBC HZ I        20 4 41.62        22.8 0.18            123            162 219 
 ZAR  HZ EP       20 4 18.35                             123   -0.04 9  205 293 
 ZAR  HE ES       20 4 43.85                             123   -0.12 9  205 293 
 ZAR  HZ I        20 4 49.04        13.3 0.20            114            205 293 
 NOR  HZ EP       20 4 21.58                             120    0.11 8  234 235 
 NOR  HE ES       20 4 49.07                             120   -0.39 8  234 235 
 NOR  HZ I        20 4 57.57         7.4 0.16            112            234 235 
 CHI  HZ EP       20 4 23.87                             118    0.50 8  247 195 
 CHI  HN ES       20 4 53.45                             118    0.62 8  247 195 
 CHI  HZ I        20 4 57.06         7.3 0.50            112            247 195 
 ROSC BZ EP       20 4 23.52                             118   -0.28 8  251 211 
 ROSC BE ES       20 4 52.63                             118   -0.97 8  251 211 
 ROSC BZ I        20 5  0.62        19.7 0.39            111            251 211 
 HEL  HE ES       20 4 56.92                             116   -0.55 8  271 256 
 HEL  HZ I        20 5  5.80         4.0 0.26            108            271 256 
 GUY2CHZ EP   4   20 4 30.77                             113    1.48 0  300 235 
 GUY2CHN ES       20 5  3.22                             113   -0.15 7  300 235 
 GUY2CHZ I        20 5 11.98         7.6 0.34                           300 235 
 SOCV BZ EP       20 4 28.49                             113   -0.49 7  302  57 
 SJC  HZ EP   4   20 4 39.79                             106   -1.67 0  411 327 
 SJC  HZ I        20 5 33.36         2.2 0.27            100            411 327 
                                                                                
