 2010  817 2252 15.1 L   7.127 -73.538  0.0  RSN  6 0.5 1.1LRSN                1
 GAP=137        0.86       5.7     6.7 15.9 -0.2093E+02 -0.8940E+02  0.4606E+02E
 Epicentro: SAN VICENTE DE CHUCURI - SANTANDER                                 3
 ACTION:UP  10-09-07 10:55 OP:vdl  STATUS:               ID:20100817225215 L   I
 2010-08-17-2249-43S.COL___111                                                 6
 STAT SP IPHASW D HRMM SECON CODA AMPLIT PERI AZIMU VELO SNR AR TRES W  DIS CAZ7
 BRR  HN ES   2   2252 22.16                              90    -0.2 5   19 264 
 BRR  HZ I        2252 24.52        26.4 0.13                            19 264 
 URB  SZ EP       2252 20.49                              47     0.210   26  62 
 GIR2 SZ EP   1   2252 21.47                              47    -0.8 7   38  98 
 GUE  SZ ES   3   2252 44.64                              47    -0.9 2  103  41 
 GRA  SZ EP   2   2252 34.44                              47     0.3 5  117  44 
 GRA  SZ ES   3   2252 49.72                              47     0.8 2  117  44 
 GRA  SZ I        2252 56.93         5.2 0.29                           117  44 
 RUS  HZ EP   2   2252 39.30                              47     0.5 5  145 160 
 RUS  HE ES   2   2252 57.66                              47     0.3 5  145 160 
 RUS  HZ I        2253  0.07         2.8 0.59                           145 160 
                                                                                
