 2015  117 2230 20.3 L   6.836 -73.225136.0  RSN  4 0.2 1.4LRSN                1
 GAP=125        0.67       3.8     3.7  7.0 -0.3293E+01  0.1129E+02 -0.4509E+01E
 Epicentro: ZAPATOCA - SANTANDER                                               3
 ACTION:UPD 15-03-02 15:40 OP:nd   STATUS:               ID:20150117223020 L   I
 OLDACT:REG 15-01-18 05:15 OP:fm   STATUS:               ID:20150117222744     3
 2015-01-17-2227-44M.COL___256                                                 6
 STAT SP IPHASW D HRMM SECON CODA AMPLIT PERI AZIMU VELO AIN AR TRES W  DIS CAZ7
 PAM  SZ EP       2230 41.72                             148    0.0810 80.5  46 
 PAM  SE ES       2230 58.23                             148   -0.0810 80.5  46 
 PAM  SZ I        2231  0.75         5.8 0.48            151           80.5  46 
 RUS  HZ EP       2230 43.01                             140   -0.4210  105 171 
 RUS  HE ES       2231  1.84                             140    0.3310  105 171 
 RUS  HZ I        2231  2.35         3.8 0.20            145            105 171 
 PTB  HZ EP       2230 45.74                             131    0.02 9  140 257 
 PTB  HN ES       2231  5.40                             131   -0.18 9  140 257 
 PTB  HZ I        2231  8.89         3.4 0.30            134            140 257 
 ZAR  HZ EP       2230 51.39                             121    0.32 9  194 292 
                                                                                
