 2013 1217 2127 44.1 L   7.384 -73.322125.0  RSN 10 0.5 2.2LRSN                1
 GAP= 94        1.34       3.4     4.8  7.8  0.1493E+00  0.1151E+02  0.2505E+01E
 Epicentro: EL PLAYON - SANTANDER                                              3
 ACTION:UPD 14-01-13 10:18 OP:ep   STATUS:               ID:20131217212744 L   I
 OLDACT:REG 13-12-17 21:20 OP:carl STATUS:               ID:20131217212000     3
 2013-12-17-2120-00M.COL___285                                                 6
 STAT SP IPHASW D HRMM SECON CODA AMPLIT PERI AZIMU VELO AIN AR TRES W  DIS CAZ7
 BRR  HZ EP       2128  2.63                             156    0.6410 52.9 235 
 BRR  HN ES       2128 16.21                             156    0.2610 52.9 235 
 BRR  HZ I        2128 16.91        43.5 0.14            153           52.9 235 
 PAM  SZ EP       2128  4.18                             150    0.5810 68.8  94 
 PAM  SE ES       2128 18.75                             150   -0.0610 68.8  94 
 PAM  SZ I        2128 20.58        22.2 0.28            155           68.8  94 
 BAR2 SZ EP       2128  4.88                             142    0.2710 88.9 170 
 BAR2 SZ ES       2128 20.01                             142   -0.6010 88.9 170 
 BAR2 SZ I        2128 21.30       114.5 0.24            144           88.9 170 
 OCA  HZ EP       2128  5.33                             140    0.4110 94.5   0 
 OCA  HN ES       2128 21.19                             140    0.0310 94.5   0 
 OCA  HZ I        2128 23.58        26.3 0.16            142           94.5   0 
 PTB  HZ EP       2128 10.92                             125    0.61 9  156 233 
 PTB  HN ES       2128 30.08                             125   -0.67 9  156 233 
 PTB  HZ I        2128 37.58        16.0 0.22            125            156 233 
 RUS  HZ EP       2128 11.26                             123   -0.76 9  167 171 
 RUS  HN ES       2128 33.31                             123   -0.47 9  167 171 
 RUS  HZ I        2128 40.67         3.4 0.24            125            167 171 
 ZAR  HZ EP       2128 11.30                             123   -0.39 9  170 274 
 ZAR  HE ES       2128 33.68                             123    0.48 9  170 274 
 ZAR  HZ I        2128 39.11        16.0 0.26            122            170 274 
 SML  HZ EP       2128 11.44                             121   -0.97 9  177 332 
 SML  HN ES       2128 33.99                             121   -0.50 9  177 332 
 SML  HZ I        2128 44.51        36.8 0.22            122            177 332 
 SPBC HZ EP       2128 16.13                             117    0.23 8  209 203 
 SPBC HE ES       2128 41.55                             117    0.85 8  209 203 
 SPBC HZ I        2128 46.02        15.6 0.24            118            209 203 
 NOR  HZ EP       2128 22.41                             111    0.35 8  264 220 
 NOR  HE ES       2128 51.08                             111   -0.58 8  264 220 
 NOR  HZ I        2128 57.80        12.6 0.18            112            264 220 
 GUY2CHZ EP   4   2128 32.52                             106    2.46 0  329 224 
 GUY2CHN ES   4   2129  8.88                             106    2.97 0  329 224 
                                                                                
