 2010  917 2055 16.9 L   6.761 -73.117140.5  RSN 10 0.5 2.0LRSN                1
 GAP=162        1.02       5.3     8.4  8.7 -0.1005E+02  0.2788E+01 -0.5517E+01E
 Epicentro: LOS SANTOS - SANTANDER                                             3
 ACTION:UP  11-02-18 11:03 OP:tino STATUS:               ID:20100917205516 L   I
 2010-09-17-2052-58S.COL___121                                                 6
 STAT SP IPHASW D HRMM SECON CODA AMPLIT PERI AZIMU VELO SNR AR TRES W  DIS CAZ7
 BAR2 SZ EP       2055 35.81                             171    -0.110   20 201 
 BAR2 SZ ES   1   2055 50.19                             171    -0.4 7   20 201 
 BAR2 SZ I        2055 51.49        38.9 0.28                            20 201 
 BTL  SZ EP       2055 36.46                             170     0.510   24 316 
 GIR2 SZ EP   1   2055 37.08                             165     1.0 7   36 346 
 BRR  HZ EP       2055 37.75                             150    -0.110   76 300 
 BRR  HN ES   1   2055 54.18                             150     0.1 7   76 300 
 BRR  HZ I        2055 55.77        42.2 0.09                            76 300 
 RUS  HZ EP   1   2055 39.83                             144     0.0 7   96 178 
 RUS  HN ES   1   2055 57.76                             144     0.0 7   96 178 
 RUS  HZ I        2056  0.12        13.1 0.27                            96 178 
 GUE  SZ EP   1   2055 40.98                             137    -0.5 7  120  10 
 GUE  SZ I        2056  1.10         6.0 0.15                           120  10 
 GRA  SZ EP       2055 41.86                             135    -0.110  129  16 
 GRA  SZ ES   1   2056  1.05                             135    -0.5 7  129  16 
 GRA  SZ I        2056  3.68        36.8 0.13                           129  16 
 NOR  HZ EP   2   2055 52.65                             117     0.3 4  235 236 
 CHI  HZ EP   2   2055 53.08                             116    -0.9 4  245 196 
 CHI  HZ I        2056 27.51         3.3 0.42                           245 196 
 HEL  HZ EP   2   2055 57.72                             113     0.6 4  274 257 
 HEL  HN ES   2   2056 27.66                             113    -0.8 4  274 257 
 HEL  HZ I        2056 34.90         8.0 0.59                           274 257 
                                                                                
