 2017  417 2253 37.4 L   6.776 -73.116139.7  RSN 10 0.4 1.9LRSN                1
 GAP=115        0.97       3.9     3.7  5.5  0.4468E+01  0.3818E+01  0.3214E+01E
 Epicentro: LOS SANTOS - SANTANDER                                             3
 ACTION:UPD 17-05-30 21:13 OP:jn   STATUS:               ID:20170417225337 L   I
 OLDACT:UP  17-04-18 04:46 OP:edw  STATUS:               ID:20170417224655d    3
 OLDACT:UP  17-04-18 04:44 OP:edw  STATUS:               ID:20170417224655d    3
 OLDACT:DUP 17-04-18 04:41 OP:edw  STATUS:               ID:20170417224655d    3
 2017-04-17-2248-00M.COL___368                                                 6
 STAT SP IPHASW D HRMM SECON CODA AMPLIT PERI AZIMU VELO AIN AR TRES W  DIS CAZ7
 BAR2 EZ IP     D 2253 56.18                             171   -0.0510 21.6 200 
 BAR2 EZ ES       2254 10.84                             171   -0.1010 21.6 200 
 BAR2 EZ I        2254 11.81        40.3 0.18            167           21.6 200 
 BRR  HZ EP       2253 58.04                             150   -0.0710 75.4 299 
 BRR  HN ES       2254 14.66                             150    0.3710 75.4 299 
 PAM  EZ EP     C 2253 58.99                             149    0.0510 77.5  36 
 PAM  EN ES       2254 15.63                             149   -0.1410 77.5  36 
 PAM  EZ I        2254 18.28        21.9 0.42            152           77.5  36 
 RUS  HZ EP     D 2254  0.09                             143   -0.2210 97.7 178 
 RUS  HN ES       2254 18.05                             143   -0.1610 97.7 178 
 RUS  HZ I        2254 19.36        19.9 0.22            140           97.7 178 
 PTB  HZ EP   9   2254  2.87                             130   -1.23 0  151 260 
 PTB  HN ES       2254 23.03                             131   -0.69 9  151 260 
 PTB  HZ I        2254 27.00        11.5 0.10            128            151 260 
 YPLC HZ IP     D 2254  6.56                             126    0.23 9  173 152 
 YPLC HN ES       2254 29.18                             126    0.25 9  173 152 
 YPLC HZ I        2254 35.37         5.7 0.30            124            173 152 
 ZAR  HZ EP       2254 10.48                             120    0.63 8  208 292 
 ZAR  HN ES       2254 34.71                             120   -0.48 8  208 292 
 ZAR  HZ I        2254 42.74        12.4 0.34            120            208 292 
 NOR  HZ EP       2254 12.05                             117   -0.83 8  236 235 
 NOR  HN ES   4   2254 39.88                             117   -0.69 0  236 235 
 NOR  HZ I        2254 43.08         4.6 0.30            115            236 235 
 CHI  HZ EP   4   2254 13.30                             116   -1.25 0  247 196 
 CHI  HE ES   4   2254 46.35                             116    2.80 0  247 196 
 CHI  HZ I        2254 54.02         2.6 0.32            114            247 196 
 HEL  HE ES       2254 49.57                             113    0.65 8  275 257 
                                                                                
