 2011  217 2047 38.3 L   6.787 -73.233132.6  RSN  5 0.2 1.7LRSN                1
 GAP=158        0.56       5.2     6.8  9.1 -0.1402E+02  0.3549E+02 -0.1378E+02E
 Epicentro: ZAPATOCA - SANTANDER                                               3
 ACTION:UP  11-03-28 15:09 OP:jfem STATUS:               ID:20110217204738 L   I
 2011-02-17-2045-18S.COL___136                                                 6
 STAT SP IPHASW D HRMM SECON CODA AMPLIT PERI AZIMU VELO SNR AR TRES W  DIS CAZ7
 BTL  SZ EP       2047 56.41                             173     0.210   15 345 
 BAR2 SZ EP   1   2047 56.06                             170    -0.2 7   22 166 
 BAR2 SZ ES   2   2048 10.40                             170     0.0 5   22 166 
 BAR2 SZ I        2048 12.78        31.5 0.23                            22 166 
 GIR2 SZ EP   1   2047 56.21                             165    -0.2 7   33   8 
 RUS  HZ EP   1   2048  0.55                             141    -0.2 7  100 170 
 RUS  HN ES   1   2048 18.36                             141     0.1 7  100 170 
 RUS  HZ I        2048 20.03        16.6 0.32                           100 170 
 NOR  SZ EP   1   2048 12.73                             116     0.4 6  226 233 
 NOR  SN ES   1   2048 38.67                             116    -0.2 6  226 233 
 NOR  SZ I        2048 44.44         0.8 0.19                           226 233 
                                                                                
