 2016  917 2203 25.1 L   6.801 -73.133150.4  RSN  9 0.4 1.8LRSN                1
 GAP=138        0.82       3.7     3.6  6.5 -0.2459E+01  0.7198E+01 -0.2996E+00E
 Epicentro: LOS SANTOS - SANTANDER                                             3
 ACTION:UPD 17-08-17 21:13 OP:lp   STATUS:               ID:20160917220325 L   I
 OLDACT:UP  16-09-18 06:24 OP:dani STATUS:               ID:20160917215730     3
 OLDACT:UP  16-09-18 06:21 OP:dani STATUS:               ID:20160917215730     3
 OLDACT:REG 16-09-18 04:18 OP:dani STATUS:               ID:20160917215730     3
 2016-09-17-2158-00M.COL___357                                                 6
 STAT SP IPHASW D HRMM SECON CODA AMPLIT PERI AZIMU VELO AIN AR TRES W  DIS CAZ7
 PAM  EZ EP       22 3 48.24                             152    0.4510 76.4  39 
 PAM  EE ES       22 4  5.50                             152    0.0410 76.4  39 
 PAM  EZ I        22 4  7.94         6.0 0.53            153           76.4  39 
 RUS  HZ EP       22 3 49.35                             144    0.0010  101 177 
 RUS  HE ES       22 4  7.84                             144   -0.3910  101 177 
 RUS  HZ I        22 4  9.64         4.0 0.34            148            101 177 
 PTB  HZ EP       22 3 52.29                             133   -0.32 9  149 259 
 PTB  HE ES       22 4 13.88                             133   -0.16 9  149 259 
 PTB  HZ I        22 4 16.48         6.9 0.13            132            149 259 
 SPBC HZ EP       22 3 54.40                             130    0.31 9  164 219 
 ZAR  HN ES       22 4 23.73                             123    0.07 8  205 292 
 ZAR  HZ I        22 4 28.21         8.4 0.09            123            205 292 
 NOR  HZ EP       22 4  1.70                             119    0.43 8  236 235 
 NOR  HN ES       22 4 29.68                             119    0.23 8  236 235 
 NOR  HZ I        22 4 35.82         5.8 0.17            120            236 235 
 CHI  HN ES   2   22 4 32.22                             118   -0.58 4  249 195 
 GUY2CHZ EP   9   22 4 10.99                             113    1.89 0  302 235 
 GUY2CHE ES       22 4 45.19                             113   -0.09 7  302 235 
 GUY2CHZ I        22 4 52.02         4.9 0.37                           302 235 
 SJC  HZ EP       22 4 19.80                             106   -1.13 6  410 327 
 SJC  HE ES   4 D 22 5  0.61                             106   -3.84 0  410 327 
 SJC  HZ I        22 5 12.92         1.8 0.54            107            410 327 
                                                                                
