 2012  417 2114  3.2 L   6.783 -73.114143.6  RSN  5 0.3 1.6LRSN                1
 GAP=163        0.68       7.1     5.1  7.2  0.1417E+01  0.7302E+01  0.1078E+02E
 Epicentro: LOS SANTOS - SANTANDER                                             3
 ACTION:UPD 12-07-05 11:54 OP:tino STATUS:               ID:20120417211403 L   I
 2012-04-17-2110-00M.COL___189                                                 6
 STAT SP IPHASW D HRMM SECON CODA AMPLIT PERI AZIMU VELO AIN AR TRES W  DIS CAZ7
 BAR2 SZ EP   1   2114 22.38                             171    -0.1 7   22 200 
 BAR2 SZ ES   1   2114 37.40                             171    -0.2 7   22 200 
 BAR2 SZ I        2114 39.30        10.6 0.31                            22 200 
 BRR  HZ EP   1   2114 24.52                             151     0.2 7   75 298 
 BRR  HN ES   1   2114 41.33                             151     0.5 7   75 298 
 PAM  SZ EP   1   2114 25.25                             151     0.1 7   77  37 
 PAM  SN ES   1   2114 42.01                             151    -0.2 7   77  37 
 PAM  SZ I        2114 44.70         4.9 0.30                            77  37 
 ZAR  HN ES   1   2115  0.92                             121    -0.5 6  208 292 
 ZAR  HZ I        2115  7.38         6.2 0.37                           208 292 
 PRA  HZ EP   1   2114 56.69                             106     0.1 4  392 210 
                                                                                
