 2015  217 2333 53.2 L   6.805 -73.166137.6  RSN 14 0.5 2.0LRSN                1
 GAP=118        1.64       5.4     5.9  8.5 -0.3119E+01  0.1501E+02  0.1282E+02E
 Epicentro: LOS SANTOS - SANTANDER                                             3
 ACTION:UPD 15-04-30 21:27 OP:nd   STATUS:               ID:20150217233353 L   I
 OLDACT:REG 15-02-18 03:26 OP:stll STATUS:               ID:20150217232750     3
 2015-02-17-2327-50M.COL___296                                                 6
 STAT SP IPHASW D HRMM SECON CODA AMPLIT PERI AZIMU VELO AIN AR TRES W  DIS CAZ7
 BAR2 EZ EP       2334 11.98                             170    0.1310 23.6 184 
 BAR2 EZ ES       2334 27.08                             170    0.6910 23.6 184 
 BRR  HZ EP       2334 13.73                             152    0.4010 68.9 299 
 BRR  HN ES       2334 29.72                             152    0.6910 68.9 299 
 PAM  SZ EP       2334 14.60                             149   -0.0110 78.4  41 
 PAM  SN ES       2334 31.13                             149   -0.1810 78.4  41 
 PAM  SZ I        2334 32.37        14.7 0.20            148           78.4  41 
 RUS  HZ EP       2334 15.91                             142   -0.3010  101 175 
 RUS  HZ I        2334 17.23        12.1 0.14            136            101 175 
 RUS  HE ES       2334 33.58                             142   -0.5710  101 175 
 PTB  HZ EP       2334 18.68                             130   -0.63 9  146 258 
 PTB  HN ES       2334 38.52                             130   -1.15 9  146 258 
 PTB  HZ I        2334 44.59        15.2 0.12            125            146 258 
 SPBC HZ EP       2334 20.75                             127   -0.23 9  162 218 
 SPBC HN ES       2334 42.58                             127   -0.08 9  162 218 
 SPBC HZ I        2334 48.89        16.5 0.20            121            162 218 
 ZAR  HZ EP       2334 24.73                             121   -0.14 9  202 292 
 ZAR  HN ES       2334 49.51                             121   -0.07 9  202 292 
 ZAR  HZ I        2334 56.17        17.4 0.42            116            202 292 
 NOR  HZ EP       2334 28.38                             117    0.08 8  233 234 
 NOR  HE ES       2334 55.89                             117    0.21 8  233 234 
 NOR  HZ I        2335  2.97         8.5 0.14            112            233 234 
 CHI  HZ EP       2334 30.03                             115   -0.42 8  249 195 
 CHI  HE ES       2334 59.81                             115    0.30 8  249 195 
 CHI  HZ I        2335  7.70         4.4 0.42            111            249 195 
 GUY2CHZ EP       2334 37.27                             111    1.01 7  300 234 
 GUY2CHE ES       2335 10.21                             111    0.36 7  300 234 
 GUY2CHZ I        2335 20.30         6.4 0.70                           300 234 
 SOCV BZ EP   9   2334 34.75                             110   -1.31 0  303  57 
 SOCV BN ES       2335  5.42                                   -2.76 7  303  57 
 TOL  SZ EP       2334 41.82                             108    0.82 7  342 224 
 TOL  SN ES       2335 18.38                             108    0.10 7  342 224 
 MON  HZ EP   9   2334 39.61                             107   -2.03 0  352 309 
 MON  HN ES       2335 15.95                                   -1.44 6  352 309 
 MON  HZ I        2335 21.99         2.0 0.26            104            352 309 
 PRA  HZ EP       2334 46.08                             105   -0.29 6  391 209 
 PRA  HZ I        2335 32.71         5.1 0.36            101            391 209 
                                                                                
