 2010 1117 2138  3.2 L   6.793 -73.084149.2  RSN  6 0.2 1.8LRSN                1
 GAP=166        0.48       3.6     5.5  6.4 -0.1150E+01 -0.8674E+01  0.4398E+01E
 Epicentro: LOS SANTOS - SANTANDER                                             3
 ACTION:UP  10-12-17 16:53 OP:REBC STATUS:               ID:20101117213803 L   I
 2010-11-17-2135-45S.COL___128                                                 6
 STAT SP IPHASW D HRMM SECON CODA AMPLIT PERI AZIMU VELO SNR AR TRES W  DIS CAZ7
 BTL  SZ EP   1   2138 23.70                             170     0.4 7   25 305 
 BAR2 SZ EP   2   2138 23.33                             170     0.0 5   25 206 
 BAR2 SZ ES   2   2138 38.99                             170     0.0 5   25 206 
 BAR2 SZ I        2138 39.49        23.2 0.25                            25 206 
 BRR  HZ EP   1   2138 25.22                             151     0.1 7   78 297 
 BRR  HN ES   1   2138 42.11                             151    -0.1 7   78 297 
 BRR  HZ I        2138 46.25        13.1 0.23                            78 297 
 RUS  HZ EP       2138 27.18                             145    -0.110  100 180 
 RUS  HE ES   2   2138 45.82                             145    -0.1 5  100 180 
 RUS  HZ I        2138 47.09         5.4 0.43                           100 180 
 GRA  SZ EP   2   2138 28.25                             138    -0.4 5  125  14 
 GRA  SZ I        2138 29.51         5.3 0.25                           125  14 
 GRA  SZ ES   2   2138 48.32                             138    -0.2 5  125  14 
 NOR  SN ES   2   2139  7.85                             119    -0.3 4  240 236 
                                                                                
