 2016  617 2020 34.8 L   6.768 -73.158147.6  RSN 11 0.2 2.2LRSN                1
 GAP=119        0.68       2.3     2.6  3.9 -0.5929E+00  0.2876E+01  0.1369E+01E
 Epicentro: LOS SANTOS - SANTANDER                                             3
 ACTION:UPD 16-07-21 22:19 OP:rebc STATUS:               ID:20160617202034 L   I
 OLDACT:REG 16-06-18 02:47 OP:cara STATUS:               ID:20160617201743     3
 2016-06-17-2017-43M.COL___346                                                 6
 STAT SP IPHASW D HRMM SECON CODA AMPLIT PERI AZIMU VELO AIN AR TRES W  DIS CAZ7
 BAR2 EZ IP       2020 54.40                             172   -0.1410 19.6 188 
 BAR2 EZ ES       2021 10.01                             172    0.0410 19.6 188 
 BAR2 EZ I        2021 12.14        53.4 0.24                          19.6 188 
 BRR  HZ EP       2020 56.43                             152    0.2910 71.8 302 
 BRR  HN ES       2021 13.18                             152    0.3710 71.8 302 
 BRR  HZ I        2021 17.13        27.4 0.32                          71.8 302 
 PAM  EZ EP       2020 57.26                             150   -0.1210 81.0  39 
 PAM  EE ES       2021 14.69                             150   -0.3410 81.0  39 
 PAM  EZ I        2021 16.47        31.0 0.48                          81.0  39 
 RUS  HZ EP       2020 58.35                             145   -0.1010 97.2 175 
 RUS  HN ES       2021 16.97                             145    0.0410 97.2 175 
 RUS  HZ I        2021 18.25        27.8 0.30                          97.2 175 
 PTB  HZ EP       2021  1.33                             133   -0.37 9  146 260 
 PTB  HE ES       2021 22.79                             133    0.08 9  146 260 
 PTB  HZ I        2021 25.09        15.0 0.26                           146 260 
 SPBC HZ EP       2021  3.30                             130    0.24 9  160 219 
 SPBC HN ES       2021 25.24                             130    0.10 9  160 219 
 SPBC HZ I        2021 27.01        29.2 0.28                           160 219 
 ZAR  HZ EP       2021  7.45                             123    0.12 9  204 293 
 ZAR  HN ES       2021 32.42                             123   -0.32 9  204 293 
 ZAR  HZ I        2021 37.54        14.9 0.24                           204 293 
 NOR  HZ EP       2021 10.41                             119    0.15 8  232 235 
 NOR  HN ES       2021 37.59                             119   -0.36 8  232 235 
 NOR  HZ I        2021 44.00        17.7 0.18                           232 235 
 CHI  HZ EP       2021 12.54                             118    0.39 8  245 195 
 CHI  HN ES       2021 41.30                             118   -0.02 8  245 195 
 CHI  HZ I        2021 45.30         5.9 0.44                           245 195 
 GUY2CHZ EP   4   2021 19.01                             113    0.91 0  298 235 
 GUY2CHN ES       2021 51.85                             113   -0.05 7  298 235 
 GUY2CHZ I        2021 59.61         9.9 0.42                           298 235 
 PTGC HZ EP   9   2021 17.62                             112   -0.76 0  306 158 
 PTGC HN ES       2021 50.82                                   -0.83 7  306 158 
                                                                                
