 2014 1117 2134  3.7 L   6.766 -73.155142.4  RSN  6 0.2 1.8LRSN                1
 GAP=137        0.65       3.0     3.2  4.8 -0.2332E+01  0.1910E+01  0.4921E+00E
 Epicentro: LOS SANTOS - SANTANDER                                             3
 ACTION:UPD 14-12-19 15:44 OP:nd   STATUS:               ID:20141117213403 L   I
 OLDACT:REG 14-11-18 04:22 OP:cam  STATUS:               ID:20141117212819     3
 2014-11-17-2128-19M.COL___289                                                 6
 STAT SP IPHASW D HRMM SECON CODA AMPLIT PERI AZIMU VELO AIN AR TRES W  DIS CAZ7
 BAR2 SZ EP       2134 23.00                             172    0.1910 19.4 189 
 BAR2 SZ ES       2134 37.75                             172    0.0110 19.4 189 
 BAR2 SZ I        2134 38.69        22.3 0.32            173           19.4 189 
 BRR  HZ EP     D 2134 24.81                             151    0.3110 72.2 302 
 BRR  HN ES       2134 40.93                             151    0.1710 72.2 302 
 BRR  HZ I        2134 44.66        11.0 0.12            151           72.2 302 
 PAM  SZ EP       2134 25.69                             149   -0.0510 81.0  38 
 PAM  SN ES       2134 42.81                             149   -0.1410 81.0  38 
 PAM  SZ I        2134 44.59        11.0 0.54            151           81.0  38 
 RUS  HZ EP       2134 26.90                             144    0.0910 96.9 175 
 RUS  HE ES       2134 44.60                             144   -0.2610 96.9 175 
 RUS  HZ I        2134 46.16         7.9 0.26            147           96.9 175 
 PTB  HZ EP       2134 29.77                             131   -0.43 9  146 260 
 PTB  HN ES       2134 50.62                             131   -0.28 9  146 260 
 PTB  HZ I        2134 53.10         8.6 0.20            133            146 260 
 SPBC HN ES       2134 53.66                             129    0.34 9  160 220 
 SPBC HZ I        2134 54.73        11.9 0.68            131            160 220 
                                                                                
