 2013  417 2118 25.1 L   6.783 -73.141148.0  RSN  7 0.3 1.8LRSN                1
 GAP=138        0.84       4.2     3.9  5.3  0.2010E+00  0.4411E+01  0.1302E+01E
 Epicentro: LOS SANTOS - SANTANDER                                             3
 ACTION:UPD 13-05-22 14:39 OP:EP   STATUS:               ID:20130417211825 L   I
 2013-04-17-2116-48M.COL___218                                                 6
 STAT SP IPHASW D HRMM SECON CODA AMPLIT PERI AZIMU VELO AIN AR TRES W  DIS CAZ7
 BAR2 SZ EP       2118 45.01                             171    0.0710 21.5 192 
 BAR2 SZ ES       2118 59.81                             171   -0.6310 21.5 192 
 BAR2 SZ I        2119  1.77        18.7 0.26            170           21.5 192 
 GIR2 SZ EP       2118 44.94                             167   -0.1310 33.2 350 
 GIR2 SZ ES       2119  0.53                             167   -0.1310 33.2 350 
 GIR2 SZ I        2119  2.01        10.1 0.38            165           33.2 350 
 BRR  HZ EP       2118 46.75                             152    0.2110 72.5 300 
 BRR  HN ES       2119  3.95                             152    0.6610 72.5 300 
 BRR  HZ I        2119  5.99        15.6 0.26            150           72.5 300 
 PAM  SZ EP       2118 47.88                             151    0.2810 78.6  38 
 PAM  SN ES       2119  5.00                             151   -0.1710 78.6  38 
 PAM  SZ I        2119  7.06         8.0 0.34            154           78.6  38 
 RUS  HZ EP       2118 48.92                             145    0.0110 98.6 176 
 RUS  HE ES       2119  7.87                             145    0.3710 98.6 176 
 RUS  HZ I        2119  9.10         4.3 0.42            147           98.6 176 
 PTB  HZ EP       2118 51.90                             132   -0.33 9  148 260 
 PTB  HN ES       2119 13.28                             132   -0.14 9  148 260 
 PTB  HZ I        2119 18.92        10.4 0.22            132            148 260 
 ZAR  HZ EP   1   2118 57.46                             123   -0.32 6  205 293 
 ZAR  HE ES   1   2119 23.27                             123   -0.03 6  205 293 
 ZAR  HZ I        2119 29.60         8.7 0.52            123            205 293 
                                                                                
