 2014  517 2347 10.4 L   7.518 -73.350110.6  RSN  8 0.4 1.8LRSN                1
 GAP=135        0.89       3.7     4.7  6.7  0.7070E+00  0.1003E+02 -0.5005E+00E
 Epicentro: EL PLAYON - SANTANDER                                              3
 ACTION:UPD 15-03-16 16:58 OP:nd   STATUS:               ID:20140517234710 L   I
 OLDACT:UP  14-05-18 08:26 OP:mh   STATUS:               ID:20140517233816d    3
 OLDACT:DUP 14-05-18 07:18 OP:mh   STATUS:               ID:20140517233816d    3
 2014-05-17-2338-14M.COL___248                                                 6
 STAT SP IPHASW D HRMM SECON CODA AMPLIT PERI AZIMU VELO AIN AR TRES W  DIS CAZ7
 BRR  HZ EP     C 2347 27.29                             149    0.0810 60.6 221 
 BRR  HN ES       2347 39.92                             149   -0.3710 60.6 221 
 BRR  HZ I        2347 41.97        27.5 0.11            142           60.6 221 
 PAM  SZ EP   1   2347 29.05                             144    0.20 7 74.5 105 
 PAM  SN ES   1   2347 43.47                             144    0.27 7 74.5 105 
 PTB  HZ EP   4   2347 35.53                             119   -0.90 0  163 229 
 PTB  HN ES   4   2347 54.29                             119   -2.40 0  163 229 
 PTB  HZ I        2348  6.39         3.4 0.21            118            163 229 
 SML  HZ EP       2347 36.22                             120   -0.11 9  163 331 
 SML  HN ES       2347 56.45                             120   -0.07 9  163 331 
 ZAR  HZ EP   1   2347 36.41                             119   -0.34 7  166 269 
 ZAR  HN ES   1   2347 58.06                             119    0.78 7  166 269 
 ZAR  HZ I        2348  2.73         8.6 0.07            117            166 269 
 NOR  HZ EP       2347 48.17                             106   -0.76 8  274 218 
 NOR  HN ES   1   2348 19.22                             106    0.26 6  274 218 
 NOR  HZ I        2348 23.89         6.2 0.12            106            274 218 
 CHI  HN ES   4   2348 28.31                             103   -1.61 0  322 188 
 GUY2CHZ EP       2347 57.90                             102    0.89 7  338 221 
 GUY2CHN ES   4   2348 33.10                             102   -0.24 0  338 221 
 RREF HZ EP   1   2348  0.07                             101   -0.30 5  364 217 
 RREF HE ES   4   2348 41.48                             101    2.16 0  364 217 
                                                                                
