 2012  317 2314 15.9 L   6.784 -73.051146.5  RSN  4 0.2 1.6LRSN                1
 GAP=150        0.67       4.5     6.8  6.0  0.9922E+00 -0.1335E+01  0.9353E+00E
 ACTION:UP  12-03-31 23:20 OP:EP   STATUS:               ID:20120317231415 L   I
 2012-03-17-2310-00M.COL___202                                                 6
 STAT SP IPHASW D HRMM SECON CODA AMPLIT PERI AZIMU VELO SNR AR TRES W  DIS CAZ7
 BAR2 SZ EP       2314 35.72                             170     0.010   26 214 
 BAR2 SZ I        2314 36.36        10.0 0.14                            26 214 
 BAR2 SZ ES       2314 50.71                             170    -0.410   26 214 
 PAM  SZ EP   1   2314 37.73                             152    -0.2 7   73  32 
 PAM  SE ES   1   2314 55.42                             152     0.3 7   73  32 
 BRR  HZ EP       2314 37.81                             149     0.010   81 296 
 BRR  HE ES   1   2314 54.96                             149     0.2 7   81 296 
 BRR  HZ I        2314 57.30        12.1 0.50                            81 296 
 RUS  HZ EP       2314 39.62                             144     0.010   99 182 
 RUS  HE ES   1   2314 58.45                             144     0.4 7   99 182 
 RUS  HZ I        2315  1.34         3.0 0.20                            99 182 
                                                                                
