 2017  417 2204 13.3 L   6.769 -73.153147.5  RSN  5 0.4 1.3LRSN                1
 GAP=137        1.14       6.1     5.4  8.8 -0.1347E+00  0.1709E+02 -0.8459E+01E
 Epicentro: LOS SANTOS - SANTANDER                                             3
 ACTION:UPD 17-05-30 21:13 OP:jn   STATUS:               ID:20170417220413 L   I
 OLDACT:DUP 17-04-18 04:30 OP:edw  STATUS:               ID:20170417215717d    3
 OLDACT:UP  17-04-18 04:26 OP:edw  STATUS:               ID:20170417215716     3
 OLDACT:REG 17-04-18 03:29 OP:edw  STATUS:               ID:20170417215716     3
 2017-04-17-2158-00M.COL___374                                                 6
 STAT SP IPHASW D HRMM SECON CODA AMPLIT PERI AZIMU VELO AIN AR TRES W  DIS CAZ7
 BAR2 EZ EP       22 4 32.44                             172   -0.6310 19.8 189 
 BAR2 EZ ES       22 4 48.84                             172    0.3610 19.8 189 
 PAM  EZ EP     D 22 4 36.27                             150    0.3810 80.6  38 
 PAM  EE ES       22 4 53.08                             150   -0.4210 80.6  38 
 PAM  EZ I        22 4 55.43         2.6 0.44            152           80.6  38 
 RUS  HZ EP       22 4 37.37                             145    0.3910 97.2 175 
 RUS  HN ES       22 4 55.63                             145    0.1810 97.2 175 
 RUS  HZ I        22 4 57.40         2.9 0.24            148           97.2 175 
 PTB  HZ EP       22 4 39.79                             133   -0.48 9  146 260 
 PTB  HN ES       22 5  0.80                             133   -0.51 9  146 260 
 PTB  HZ I        22 5  3.10         3.1 0.40            133            146 260 
 ZAR  HZ EP       22 4 46.05                             123    0.14 9  205 293 
 ZAR  HN ES       22 5 12.02                             123    0.68 9  205 293 
 ZAR  HZ I        22 5 17.66         2.9 0.38            123            205 293 
                                                                                
