 2016  217 2123 34.3 L   6.781 -73.154139.0  RSN  8 0.4 1.6LRSN                1
 GAP=136        0.48       4.1     4.2  6.0 -0.5372E+01  0.2476E+00  0.6805E+01E
 Epicentro: LOS SANTOS - SANTANDER                                             3
 ACTION:UPD 16-03-04 21:27 OP:rebc STATUS:               ID:20160217212334 L   I
 OLDACT:REG 16-02-18 03:11 OP:dnl  STATUS:               ID:20160217211750     3
 2016-02-17-2117-50M.COL___337                                                 6
 STAT SP IPHASW D HRMM SECON CODA AMPLIT PERI AZIMU VELO AIN AR TRES W  DIS CAZ7
 BAR2 EZ EP   2   2123 53.21                             171    0.17 5 21.1 189 
 BAR2 EZ ES   2   2124  8.12                             171    0.44 5 21.1 189 
 BAR2 EZ I        2124  9.69        20.9 0.22            167           21.1 189 
 BRR  HZ EP   2   2123 55.19                             151    0.49 5 71.4 300 
 BRR  HN ES   2   2124 10.26                             151   -0.38 5 71.4 300 
 PAM  EZ EP       2123 55.87                             149   -0.0310 79.6  39 
 PAM  EN ES   2   2124 12.61                             149   -0.17 5 79.6  39 
 PAM  EZ I        2124 15.38         5.5 0.19            155           79.6  39 
 RUS  HZ EP   2   2123 57.06                             143   -0.15 5 98.5 175 
 RUS  HN ES   4   2124 13.20                             143   -1.90 0 98.5 175 
 RUS  HZ I        2124 16.75         3.6 0.22            143           98.5 175 
 SPBC HZ EP   2   2124  1.53                             128   -0.51 5  161 219 
 SPBC HE ES   2   2124 23.97                             128    0.27 5  161 219 
 SPBC HZ I        2124 26.95         9.8 0.10            128            161 219 
 ZAR  HZ EP   3   2124  5.94                             121   -0.33 2  204 293 
 ZAR  HN ES   2   2124 31.04                             121   -0.20 4  204 293 
 ZAR  HZ I        2124 36.95         3.5 0.18            122            204 293 
 CHI  HZ EP   2   2124 11.35                             116    0.00 4  246 195 
 CHI  HN ES   3   2124 38.94                             116   -1.33 2  246 195 
 CHI  HZ I        2124 48.72         2.4 0.40            117            246 195 
 GUY2CHZ EP   2   2124 18.02                             111    0.68 4  299 235 
 GUY2CHN ES   4   2124 53.45                             111    2.50 0  299 235 
 GUY2CHZ I        2125  0.94         3.0 0.46                           299 235 
                                                                                
