 2011 1117 2323 35.3 L   6.739 -73.118145.1  RSN  6 0.2 1.9LRSN                1
 GAP=143        0.44       2.7     3.0  3.8  0.1427E+01  0.1414E+01 -0.1492E+01E
 Epicentro: JORDAN - SANTANDER                                                 3
 ACTION:UPD 12-07-13 16:10 OP:ep   STATUS:               ID:20111117232335 L   I
 2011-11-17-2321-08S.COL___179                                                 6
 STAT SP IPHASW D HRMM SECON CODA AMPLIT PERI AZIMU VELO AIN AR TRES W  DIS CAZ7
 BAR2 SZ EP       2323 54.77                             173    0.0510 17.7 204 
 BAR2 SZ ES   1   2324  9.99                             173    0.09 7 17.7 204 
 BAR2 SZ I        2324 11.59        15.6 0.23                          17.7 204 
 BRR  HZ EP       2323 56.73                             150    0.0310 77.2 302 
 BRR  HN ES   1   2324 13.73                             150    0.31 7 77.2 302 
 PAM  SZ EP       2323 57.74                             150    0.1110 80.9  35 
 PAM  SN ES   1   2324 14.84                             150   -0.23 7 80.9  35 
 RUS  HZ EP       2323 58.61                             146    0.1410 93.7 178 
 RUS  HE ES   1   2324 16.22                             146   -0.35 7 93.7 178 
 RUS  HZ I        2324 18.62         7.0 0.49                          93.7 178 
 OCA  SZ EP   1   2324  4.04                             128   -0.16 7  167 352 
 OCA  SZ I        2324 29.88        10.1 0.20                           167 352 
 ZAR  HZ EP   1   2324  8.15                             121   -0.09 6  210 294 
 ZAR  HE ES   1   2324 33.69                             121   -0.27 6  210 294 
 ZAR  HZ I        2324 38.94        11.2 0.34                           210 294 
                                                                                
