 2011  317 2229 59.3 L   6.606 -73.112136.1  RSN  5 0.5 1.7LRSN                1
 GAP=185        1.34      10.5    20.8 13.4 -0.7797E+02  0.5307E+02 -0.5892E+00E
 Epicentro: CURITI - SANTANDER                                                 3
 ACTION:UP  11-06-16 14:34 OP:jfem STATUS:               ID:20110317222718 L   I
 2011-03-17-2227-18S.COL___135                                                 6
 STAT SP IPHASW D HRMM SECON CODA AMPLIT PERI AZIMU VELO SNR AR TRES W  DIS CAZ7
 BAR2 SZ EP       2230 16.65                             176    -0.910    8 259 
 BAR2 SZ ES   1   2230 32.28                             176     0.5 7    8 259 
 BAR2 SZ I        2230 33.57        12.8 0.23                             8 259 
 RUS  HZ IP   1   2230 20.65                             149     0.1 7   79 178 
 RUS  HZ I        2230 41.20         6.4 0.44                            79 178 
 OCA  SZ EP       2230 29.41                             123     0.4 9  182 353 
 OCA  SZ I        2230 36.28        13.0 0.10                           182 353 
 NOR  SZ EP   2   2230 33.08                             117    -0.5 4  226 240 
 NOR  SN ES   2   2231  0.44                             117     0.2 4  226 240 
 CHI  HZ EP       2230 34.72                             117     0.4 8  229 197 
 CHI  HZ I        2231 10.14         2.9 0.39                           229 197 
                                                                                
