 2017  317 2009 29.6 L   6.795 -73.169148.9  RSN  6 0.4 1.6LRSN                1
 GAP=134        1.01       4.4     5.3  6.8 -0.2354E+01  0.4137E+01  0.7953E+01E
 Epicentro: LOS SANTOS - SANTANDER                                             3
 ACTION:UPD 17-05-25 18:41 OP:jn   STATUS:               ID:20170317200929 L   I
 OLDACT:UP  17-03-18 03:22 OP:atr  STATUS:               ID:20170317195750     3
 OLDACT:REG 17-03-18 03:09 OP:ar   STATUS:               ID:20170317195750     3
 2017-03-17-1958-00M.COL___406                                                 6
 STAT SP IPHASW D HRMM SECON CODA AMPLIT PERI AZIMU VELO AIN AR TRES W  DIS CAZ7
 BAR2 EZ ES       2010  5.15                             171   -0.0410 22.4 184 
 BAR2 EZ I        2010  5.57        12.3 0.24            169           22.4 184 
 BRR  HZ EP       20 9 51.18                             154    0.1910 69.3 300 
 BRR  HN ES       2010  8.39                             154    0.7210 69.3 300 
 PAM  EZ EP       20 9 52.35                             151    0.0710 79.5  41 
 PAM  EN ES       2010  9.53                             151   -0.4310 79.5  41 
 PAM  EZ I        2010 10.91         4.7 0.16            152           79.5  41 
 RUS  HZ EP       20 9 53.73                             145    0.0910  100 175 
 RUS  HE ES       2010 12.36                             145   -0.0210  100 175 
 RUS  HZ I        2010 13.58         4.3 0.46            143            100 175 
 PTB  HZ EP       20 9 55.96                             133   -0.63 9  145 259 
 PTB  HN ES       2010 17.25                             133   -0.40 9  145 259 
 PTB  HZ I        2010 19.01         5.7 0.16            133            145 259 
 CHI  HZ EP       2010  7.99                             118    0.65 8  247 195 
 CHI  HN ES       2010 36.64                             118   -0.14 8  247 195 
 CHI  HZ I        2010 42.13         2.8 0.32            117            247 195 
                                                                                
