 2013  317 2308 13.0 L   6.778 -73.097136.6  RSN  4 0.3 1.3LRSN                1
 GAP=144        0.69       3.5     5.2  5.7 -0.4603E+00 -0.2071E+01  0.7984E+00E
 Epicentro: LOS SANTOS - SANTANDER                                             3
 ACTION:UPD 13-04-09 14:03 OP:ep   STATUS:               ID:20130317230813 L   I
 2013-03-17-2258-49M.COL___205                                                 6
 STAT SP IPHASW D HRMM SECON CODA AMPLIT PERI AZIMU VELO AIN AR TRES W  DIS CAZ7
 BAR2 SZ EP       23 8 31.38                             170   -0.1610 22.6 205 
 BAR2 SZ ES       23 8 45.53                             170   -0.4510 22.6 205 
 BAR2 SZ I        23 8 47.68         8.5 0.20            169           22.6 205 
 PAM  SZ EP       23 8 34.33                             149    0.1410 76.0  35 
 PAM  SZ I        23 8 34.60         2.7 0.22            151           76.0  35 
 PAM  SN ES       23 8 50.76                             149    0.0710 76.0  35 
 BRR  HZ EP       23 8 33.53                             149   -0.0210 77.1 298 
 BRR  HN ES       23 8 49.76                             149    0.2010 77.1 298 
 BRR  HN I        23 8 52.74         9.1 0.72            147           77.1 298 
 RUS  HZ EP       23 8 35.49                             143   -0.2010 97.9 179 
 RUS  HZ I        23 8 36.68         1.8 0.16            144           97.9 179 
 RUS  HN ES       23 8 53.78                             143    0.4210 97.9 179 
                                                                                
