 2010  517 2115 56.5 L   6.775 -73.048146.1  RSN 11 0.5 2.6LRSN                1
 GAP=183        0.91       5.5    10.2  9.1 -0.3520E+02  0.2611E+01  0.1618E+02E
 Epicentro: LOS SANTOS - SANTANDER                                             3
 ACTION:UP  10-08-24 10:05 OP:vdl  STATUS:               ID:20100517211556 L   I
 2010-05-17-2113-06S.COL___108                                                 6
 STAT SP IPHASW D HRMM SECON CODA AMPLIT PERI AZIMU VELO AIN AR TRES W  DIS CAZ7
 BAR2 SZ EP   1   2116 15.71                             170    -0.5 7   25 216 
 BAR2 SZ ES   2   2116 31.04                             170    -0.5 5   25 216 
 BRR  HZ IP     C 2116 18.34                             149     0.010   82 297 
 BRR  HN ES   2   2116 35.94                             149     0.6 5   82 297 
 BRR  HZ I        2116 37.48        56.1 0.11                            82 297 
 BRI  SZ EP   1   2116 20.18                             142    -0.2 7  108  15 
 BRI  SZ ES   2   2116 39.53                             142     0.5 5  108  15 
 GUE  SZ EP   1   2116 21.77                             139     0.4 7  118   7 
 GUE  SZ ES   2   2116 40.31                             139    -0.4 5  118   7 
 GRA  SZ EP   1   2116 22.54                             137     0.8 7  126  12 
 GRA  SZ ES   2   2116 41.42                             137    -0.1 5  126  12 
 OCA  SZ EP   1   2116 25.02                             129    -0.2 7  165 350 
 OCA  SZ ES   2   2116 47.03                             129    -0.7 5  165 350 
 OCA  SZ I        2116 50.38        29.5 0.28                           165 350 
 CHI  HZ EP   1   2116 33.70                             117    -0.6 6  249 198 
 CHI  HN ES   2   2117  3.83                             117     0.1 4  249 198 
 CHI  HZ I        2117 11.32        19.2 0.41                           249 198 
 ROSC BZ EP   1   2116 35.41                             116     0.4 6  256 213 
 ROSC BE ES   2   2117  5.82                             116     0.8 4  256 213 
 ROSC BZ I        2117 10.10        23.0 0.38                           256 213 
 HEL  HZ EP   1   2116 36.94                             114    -0.9 6  282 257 
 RREF BZ EP   1   2116 44.34                             110     0.9 5  328 231 
 RREF BE ES   2   2117 20.32                             110     0.3 3  328 231 
 RREF BZ I        2117 26.31        16.3 0.24                           328 231 
 PRA  HZ EP   2   2116 49.28                             106    -1.1 3  395 211 
 PRA  HE ES   2   2117 32.13                             106    -0.3 3  395 211 
 PRA  HZ I        2117 37.42        19.1 0.36                           395 211 
                                                                                
