 2010 1217 2314  7.6 L   6.751 -73.135157.7  RSN  4 0.2 1.4LRSN                1
 GAP=215        0.46       6.1    12.7  6.1  0.5769E+02 -0.1696E+02 -0.1783E+01E
 Epicentro: LOS SANTOS - SANTANDER                                             3
 ACTION:UP  11-01-14 15:25 OP:pat  STATUS:               ID:20101217231407 L   I
 2010-12-17-2312-49S.COL___136                                                 6
 STAT SP IPHASW D HRMM SECON CODA AMPLIT PERI AZIMU VELO SNR AR TRES W  DIS CAZ7
 BTL  SZ EP   1   2314 28.81                             171     0.1 7   24 322 
 BRR  HZ EP   1   2314 30.43                             153     0.1 7   75 302 
 BRR  HN ES   1   2314 47.83                             153    -0.1 7   75 302 
 RUS  HZ EP   1   2314 31.89                             148    -0.3 7   95 177 
 RUS  HE ES   1   2314 51.49                             148     0.1 7   95 177 
 RUS  HZ I        2314 52.14         2.7 0.32                            95 177 
 CHI  HZ EP   1   2314 45.57                             120     0.1 6  244 196 
 CHI  HZ I        2315 22.12         1.9 0.50                           244 196 
                                                                                
