 2017  817 2348 12.5 L   6.747 -73.093142.0  RSN  5 0.4 1.6LRSN                1
 GAP=146        1.03       5.3     5.7  8.9  0.6996E+01  0.1348E+02  0.2064E+01E
 Epicentro: LOS SANTOS - SANTANDER                                             3
 ACTION:UPD 17-09-04 20:21 OP:rebc STATUS:               ID:20170817234812 L   I
 OLDACT:UP  17-08-18 04:46 OP:dani STATUS:               ID:20170817233739     3
 OLDACT:REG 17-08-18 03:02 OP:dani STATUS:               ID:20170817233739     3
 2017-08-17-2338-00M.COL___404                                                 6
 STAT SP IPHASW D HRMM SECON CODA AMPLIT PERI AZIMU VELO AIN AR TRES W  DIS CAZ7
 BAR2 EZ EP       2348 31.35                             172   -0.2810 19.7 210 
 PAM  EZ EP       2348 34.49                             150    0.0710 78.6  34 
 PAM  EE ES       2348 51.50                             150    0.0110 78.6  34 
 PAM  EZ I        2348 54.40         5.0 0.52            153           78.6  34 
 BRR  HZ EP       2348 33.37                             149   -0.3710 79.1 300 
 BRR  HN ES       2348 50.57                             149    0.2710 79.1 300 
 BRR  HZ I        2348 54.95         7.1 0.10            148           79.1 300 
 RUS  HZ EP       2348 35.25                             145   -0.2210 94.5 179 
 RUS  HE ES       2348 53.58                             145    0.2210 94.5 179 
 RUS  HZ I        2348 54.86         5.8 0.30            149           94.5 179 
 ZAR  HZ EP       2348 46.53                             120    1.01 8  212 293 
 ZAR  HN ES       2349 10.69                             120   -0.57 8  212 293 
 ZAR  HZ I        2349 18.74         6.1 0.17            122            212 293 
                                                                                
