 2016 1017 2201 51.9 L   6.850 -73.130127.1  RSN  4 0.3 1.3LRSN                1
 GAP=144        0.90       4.7     5.1 10.3 -0.1025E+02  0.1905E+02 -0.9831E+00E
 Epicentro: LOS SANTOS - SANTANDER                                             3
 ACTION:UPD 16-11-09 19:20 OP:rebc STATUS:               ID:20161017220151 L   I
 OLDACT:DUP 16-10-18 03:49 OP:lv   STATUS:               ID:20161017215735d    3
 2016-10-17-2158-00M.COL___353                                                 6
 STAT SP IPHASW D HRMM SECON CODA AMPLIT PERI AZIMU VELO AIN AR TRES W  DIS CAZ7
 PAM  EZ EP       22 2 12.42                             149    0.6410 72.0  41 
 PAM  EN ES       22 2 27.02                             149   -0.3010 72.0  41 
 PAM  EZ I        22 2 32.62         3.0 0.27             47           72.0  41 
 RUS  HZ EP       22 2 13.85                             138   -0.4210  106 177 
 RUS  HN ES       22 2 31.85                             138    0.1010  106 177 
 RUS  HZ I        22 2 33.31         2.4 0.30             47            106 177 
 PTB  HZ EP       22 2 17.37                             127   -0.29 9  151 257 
 PTB  HE ES       22 2 37.82                             127    0.04 9  151 257 
 PTB  HZ I        22 2 39.79         2.0 0.09             47            151 257 
 SPBC HE ES       22 2 41.37                             123    0.22 9  169 218 
 SPBC HZ I        22 2 42.73         5.9 0.07             47            169 218 
                                                                                
