 2013  517 2059 56.2 L   6.825 -73.143148.8  RSN 13 0.4 2.9LRSN                1
 GAP=136        0.86       2.6     3.7  4.3  0.2385E-02  0.4743E+01 -0.2241E+00E
 Epicentro: LOS SANTOS - SANTANDER                                             3
 ACTION:UPD 13-06-20 09:51 OP:ep   STATUS:               ID:20130517205956 L   I
 2013-05-17-2058-51M.COL___224                                                 6
 STAT SP IPHASW D HRMM SECON CODA AMPLIT PERI AZIMU VELO AIN AR TRES W  DIS CAZ7
 BAR2 SZ EP     C 21 0 16.25                             170   -0.0210 26.1 189 
 BAR2 SZ ES       21 0 31.96                             170    0.0610 26.1 189 
 BAR2 SZ I        21 0 32.49        81.4 0.36            166           26.1 189 
 GIR2 SZ EP       21 0 16.29                             169    0.1110 28.6 349 
 GIR2 SZ ES   1   21 0 31.30                             169   -0.45 7 28.6 349 
 BRR  HZ EP       21 0 17.99                             153    0.3610 70.1 296 
 BRR  HN ES       21 0 34.99                             153    0.6510 70.1 296 
 BRR  HZ I        21 0 38.85       268.5 0.24            149           70.1 296 
 PAM  SZ EP       21 0 18.97                             152    0.3510 75.1  41 
 PAM  SZ I        21 0 19.37       133.4 0.18            156           75.1  41 
 PAM  SN ES       21 0 36.08                             152   -0.0110 75.1  41 
 RUS  HZ EP       21 0 20.39                             144   -0.0710  103 176 
 RUS  HN ES       21 0 38.90                             144   -0.4710  103 176 
 RUS  HZ I        21 0 40.47       100.6 0.26            144            103 176 
 PTB  HZ EP       21 0 22.78                             133   -0.72 9  149 258 
 PTB  HN ES   1   21 0 44.21                             133   -0.58 7  149 258 
 PTB  HZ I        21 0 48.96       117.9 0.16            130            149 258 
 ZAR  HZ EP       21 0 29.16                             123    0.38 9  203 291 
 ZAR  HN ES       21 0 54.41                             123    0.24 9  203 291 
 ZAR  HZ I        21 1  1.05       127.9 0.12            122            203 291 
 NOR  HZ EP       21 0 32.23                             119   -0.09 8  237 234 
 NOR  HE ES   1   21 1  0.26                             119   -0.22 6  237 234 
 NOR  HZ I        21 1  8.25        69.2 0.18            118            237 234 
 SML  HZ EP       21 0 32.59                             118   -0.16 8  241 335 
 SML  HE ES       21 1  0.81                             118   -0.44 8  241 335 
 SML  HZ I        21 1  7.20       130.8 0.24            118            241 335 
 CHI  HZ EP       21 0 34.80                             117    0.42 8  251 195 
 CHI  HN ES   1   21 1  4.62                             117    0.47 6  251 195 
 CHI  HZ I        21 1 11.90        74.3 0.36            117            251 195 
 HEL  HZ EP   1   21 0 36.84                             115    0.15 6  273 255 
 COD  HZ EP   1   21 0 43.61                             110   -0.78 5  346 355 
 COD  HZ I        21 0 46.88        14.2 0.26            110            346 355 
 COD  HN ES       21 1 21.80                             110   -0.17 6  346 355 
 PRA  HZ EP   1   21 0 50.45                             107    0.31 4  395 209 
 SJC  HZ EP   4   21 0 49.95                             106   -1.67 0  407 327 
                                                                                
