 2013 1017 2138 27.1 L   6.763 -73.146139.7  RSN 11 0.4 2.0LRSN                1
 GAP=138        0.85       3.2     3.9  5.1 -0.2165E+01  0.4407E+01  0.2139E+01E
 Epicentro: LOS SANTOS - SANTANDER                                             3
 ACTION:UPD 13-11-25 09:22 OP:ep   STATUS:               ID:20131017213827 L   I
 OLDACT:REG 13-10-18 01:20 OP:nd   STATUS:               ID:20131017213745     3
 2013-10-17-2137-45M.COL___226                                                 6
 STAT SP IPHASW D HRMM SECON CODA AMPLIT PERI AZIMU VELO AIN AR TRES W  DIS CAZ7
 BAR2 SZ EP       2138 45.77                             172   -0.1510 19.3 192 
 BAR2 SZ ES       2139  0.32                             172   -0.2710 19.3 192 
 BAR2 SZ I        2139  2.05        30.2 0.18            171           19.3 192 
 BRR  HZ EP       2138 47.90                             151    0.1910 73.2 301 
 BRR  HN ES       2139  4.67                             151    0.8910 73.2 301 
 BRR  HZ I        2139  9.21        18.9 0.12            148           73.2 301 
 PAM  SZ IP     C 2138 49.07                             149    0.2010 80.6  38 
 PAM  SN ES       2139  5.42                             149   -0.4310 80.6  38 
 PAM  SZ I        2139  8.18        24.7 0.60            151           80.6  38 
 RUS  HZ EP       2138 50.03                             144    0.0810 96.5 176 
 RUS  HN ES       2139  7.92                             144    0.1410 96.5 176 
 RUS  HZ I        2139  9.74         8.8 0.28            146           96.5 176 
 PTB  HZ EP       2138 53.19                             131   -0.31 9  147 260 
 PTB  HN ES       2139 13.73                             131   -0.36 9  147 260 
 PTB  HZ I        2139 16.00        10.7 0.16            130            147 260 
 SPBC HZ EP       2138 55.19                             128    0.36 9  160 220 
 SPBC HN ES       2139 16.22                             128   -0.23 9  160 220 
 SPBC HZ I        2139 20.85         9.9 0.22            129            160 220 
 ZAR  HZ EP   2   2138 59.24                             121   -0.07 4  206 293 
 ZAR  HN ES   2   2139 23.79                             121   -0.65 4  206 293 
 ZAR  HZ I        2139 30.09        14.7 0.32            121            206 293 
 SML  HZ EP   2   2139  3.44                             116   -0.36 4  247 336 
 SML  HN ES   2   2139 32.02                             116   -0.40 4  247 336 
 SML  HZ I        2139 39.55        19.5 0.09            116            247 336 
 GUY2CHZ EP   4   2139 11.46                             111    1.30 0  299 235 
 GUY2CHN ES   4   2139 43.59                             111   -0.15 0  299 235 
 GUY2CHZ I        2139 53.69         4.4 0.60                           299 235 
 PRA  HZ EP       2139 20.39                             106    0.40 6  388 210 
 PRA  HN ES       2140  1.07                             106   -0.18 6  388 210 
 PRA  HZ I        2140  8.57         3.0 0.30            107            388 210 
 SJC  HZ EP   4   2139 20.89                             104   -1.98 0  413 327 
 SJC  HN ES   4   2140  2.39                             104   -3.98 0  413 327 
 SJC  HZ I        2140  5.43         1.3 0.40            105            413 327 
                                                                                
