 2010 1017 2009 59.4 L   6.754 -73.103144.0  RSN  8 0.6 2.4LRSN                1
 GAP=239        1.21       7.2     8.6  9.7  0.1072E+02  0.1808E+02  0.3031E+02E
 Epicentro: LOS SANTOS - SANTANDER                                             3
 ACTION:UP  11-02-18 11:10 OP:tino STATUS:               ID:20101017200959 L   I
 2010-10-17-2000-00M.COL___113                                                 6
 STAT SP IPHASW D HRMM SECON CODA AMPLIT PERI AZIMU VELO SNR AR TRES W  DIS CAZ7
 BAR2 SZ EP       2010 18.54                             172    -0.210   20 207 
 BAR2 SZ ES   1   2010 33.81                             172     0.0 7   20 207 
 BAR2 SZ I        2010 35.35       105.6 0.31                            20 207 
 BRR  HZ EP       2010 20.44                             150    -0.310   78 300 
 BRR  HZ I        2010 20.68        77.7 0.35                            78 300 
 BRR  HN ES       2010 37.77                             150     0.410   78 300 
 RUS  HZ EP       2010 22.41                             145    -0.210   95 179 
 RUS  HN ES   1   2010 40.85                             145     0.2 7   95 179 
 RUS  HZ I        2010 42.47        17.9 0.32                            95 179 
 NOR  SZ EP       2010 34.76                             118    -0.4 8  236 236 
 NOR  SN ES   1   2011  1.69                             118    -1.3 6  236 236 
 CHI  HZ EP       2010 36.71                             117     0.1 8  245 197 
 CHI  HE ES   1   2011  5.94                             117     0.3 6  245 197 
 CHI  HZ I        2011  9.42        12.4 0.73                           245 197 
 ROSC BZ EP   1   2010 38.36                             117     1.2 6  251 213 
 ROSC BN ES   2   2011  6.05                             117    -0.6 4  251 213 
 ROSC BZ I        2011 14.55        14.6 0.54                           251 213 
 HEL  HN ES   1   2011 12.20                             114     0.7 6  275 257 
 HEL  HZ I        2011 16.54         6.6 0.36                           275 257 
 PRA  HN ES   2   2011 35.06                             106     1.0 3  390 211 
 PRA  HZ I        2011 37.25        34.8 0.59                           390 211 
                                                                                
