 2010  517 2103  3.6 L   6.768 -72.973129.9  RSN  4 0.4 1.7LRSN                1
 GAP=219        0.70       9.1    11.3 11.1 -0.4280E+02 -0.3675E+02 -0.1623E+02E
 Epicentro: CEPITA - SANTANDER                                                 3
 ACTION:UP  10-08-24 10:05 OP:vdl  STATUS:               ID:20100517210303 L   I
 2010-05-17-2059-07S.COL___108                                                 6
 STAT SP IPHASW D HRMM SECON CODA AMPLIT PERI AZIMU VELO AIN AR TRES W  DIS CAZ7
 BAR2 SZ EP   1   21 3 21.28                             167    -0.2 8   30 230 
 BAR2 SZ ES   2   21 3 35.70                             167     0.2 5   30 230 
 BRR  HZ EP   1   21 3 23.88                             143    -0.5 8   90 295 
 BRR  HZ I        21 3 24.26        11.1 0.11                            90 295 
 BRR  HN ES   2   21 3 40.90                             143     0.4 5   90 295 
 BRI  SZ IP     D 21 3 26.02                             138     0.110  107  11 
 BRI  SZ ES   2   21 3 42.68                             138    -0.6 5  107  11 
 GUE  SZ EP   1   21 3 27.42                             135     0.4 7  118   3 
                                                                                
