 2014  817 2344 37.1 L   6.783 -73.170144.4  RSN 11 0.5 2.0LRSN                1
 GAP=234        1.11       4.4     5.2  6.5  0.3587E+01  0.1131E+02  0.5206E+01E
 Epicentro: LOS SANTOS - SANTANDER                                             3
 ACTION:UPD 14-09-15 21:50 OP:nd   STATUS:               ID:20140817234437 L   I
 OLDACT:REG 14-08-18 05:56 OP:carl STATUS:               ID:20140817233820     3
 2014-08-17-2338-20M.COL___266                                                 6
 STAT SP IPHASW D HRMM SECON CODA AMPLIT PERI AZIMU VELO AIN AR TRES W  DIS CAZ7
 BAR2 SZ EP       2344 56.35                             171   -0.1610 21.2 184 
 BAR2 SZ ES       2345 11.02                             171   -0.6410 21.2 184 
 BAR2 SZ I        2345 12.47        28.6 0.32            169           21.2 184 
 BRR  HZ EP       2344 58.11                             153    0.1010 69.8 301 
 BRR  HN ES       2345 15.33                             153    1.0010 69.8 301 
 BRR  HZ I        2345 16.87        15.6 0.14            148           69.8 301 
 RUS  HZ EP       2345  0.63                             144    0.0410 99.0 174 
 RUS  HN ES       2345 19.23                             144    0.3210 99.0 174 
 RUS  HZ I        2345 20.53         9.1 0.56            146           99.0 174 
 PTB  HZ EP       2345  2.85                             132   -0.82 9  145 259 
 PTB  HN ES       2345 23.66                             132   -0.75 9  145 259 
 PTB  HZ I        2345 25.93         9.5 0.12            130            145 259 
 SPBC HZ EP       2345  5.32                             129    0.14 9  160 219 
 SPBC HN ES       2345 27.05                             129   -0.05 9  160 219 
 SPBC HZ I        2345 32.36        16.4 0.18            129            160 219 
 ZAR  HZ EP       2345  9.68                             122    0.42 9  202 293 
 ZAR  HN ES       2345 34.30                             122   -0.06 9  202 293 
 ZAR  HZ I        2345 50.64         6.3 0.10            121            202 293 
 NOR  HZ EP       2345 12.25                             119   -0.14 8  231 234 
 NOR  HN ES       2345 40.09                             119    0.17 8  231 234 
 CHI  HN ES       2345 43.83                             117    0.26 8  246 195 
 GUY2CHZ EP       2345 20.41                             112    0.14 7  298 235 
 GUY2CHN ES       2345 53.80                             112   -0.14 7  298 235 
 GUY2CHZ I        2346  4.74         3.9 0.56                           298 235 
 RREF HZ EP       2345 22.52                             111   -0.28 7  319 229 
 RREF HN ES       2345 59.15                             111    0.69 7  319 229 
 RREF HZ I        2346  4.23         5.5 0.26            111            319 229 
 TOL  SZ EP   4   2345 26.52                             109    1.60 0  340 225 
 TOL  SN ES   4   2346  3.72                             109    1.49 0  340 225 
 TOL  SZ I        2346  8.19        10.3 0.36            110            340 225 
                                                                                
