 2016 1017 2050 37.8 L   6.792 -73.129149.2  RSN  9 0.3 1.6LRSN                1
 GAP=139        0.82       3.3     3.8  4.8 -0.3665E+01  0.2604E+01  0.4849E+01E
 Epicentro: LOS SANTOS - SANTANDER                                             3
 ACTION:UPD 16-11-09 19:20 OP:rebc STATUS:               ID:20161017205037 L   I
 OLDACT:REG 16-10-18 02:41 OP:y    STATUS:               ID:20161017204733     3
 2016-10-17-2048-00M.COL___359                                                 6
 STAT SP IPHASW D HRMM SECON CODA AMPLIT PERI AZIMU VELO AIN AR TRES W  DIS CAZ7
 BAR2 EZ EP       2050 57.98                             171    0.1010 22.9 195 
 BAR2 EZ ES       2051 13.67                             171    0.1610 22.9 195 
 BAR2 EZ I        2051 14.44        12.8 0.18            168           22.9 195 
 BRR  HZ EP       2050 59.65                             152    0.1710 73.3 298 
 BRR  HN ES       2051 16.76                             152    0.4010 73.3 298 
 BRR  HZ I        2051 20.50        10.5 0.43            150           73.3 298 
 PAM  EZ EP       2051  0.64                             151    0.2410 76.9  38 
 PAM  EN ES       2051 17.74                             151   -0.2510 76.9  38 
 PAM  EZ I        2051 19.84         6.7 0.56            156           76.9  38 
 RUS  HZ EP       2051  1.93                             145    0.0710 99.6 177 
 RUS  HN ES       2051 20.40                             145   -0.2010 99.6 177 
 RUS  HZ I        2051 21.93         2.6 0.26            146           99.6 177 
 PTB  HZ EP       2051  4.74                             132   -0.50 9  149 259 
 PTB  HE ES       2051 26.10                             132   -0.52 9  149 259 
 PTB  HZ I        2051 32.61         3.1 0.17            132            149 259 
 SPBC HZ EP       2051  6.67                             130    0.01 9  164 220 
 SPBC HE ES       2051 28.72                             130   -0.41 9  164 220 
 SPBC HZ I        2051 32.92         5.2 0.12            130            164 220 
 NOR  HZ EP       2051 13.71                             119   -0.17 8  236 235 
 NOR  HN ES       2051 42.66                             119    0.67 8  236 235 
 NOR  HZ I        2051 48.96         2.2 0.14            119            236 235 
 CHI  HZ EP       2051 15.25                             118   -0.45 8  248 196 
 CHI  HN ES       2051 45.49                             118    0.27 8  248 196 
 CHI  HZ I        2051 48.75         1.9 0.28            119            248 196 
 PRA  HZ EP       2051 32.02                             107    0.52 6  392 210 
 PRA  HE ES       2052 13.77                             107    0.41 6  392 210 
 PRA  HZ I        2052 20.20         2.5 0.44            108            392 210 
                                                                                
