 2014 1217 2116  3.6 L   6.782 -73.157148.1  RSN 11 0.4 2.4LRSN                1
 GAP=136        1.03       2.7     4.0  5.4 -0.1353E+01  0.4885E+01 -0.1507E+00E
 Epicentro: LOS SANTOS - SANTANDER                                             3
 ACTION:UPD 15-02-10 17:04 OP:nd   STATUS:               ID:20141217211603 L   I
 OLDACT:UP  14-12-18 05:53 OP:cam  STATUS:               ID:20141217210814     3
 OLDACT:UP  14-12-18 05:53 OP:cam  STATUS:               ID:20141217210814     3
 OLDACT:REG 14-12-18 05:33 OP:cam  STATUS:               ID:20141217210814     3
 2014-12-17-2108-14M.COL___296                                                 6
 STAT SP IPHASW D HRMM SECON CODA AMPLIT PERI AZIMU VELO AIN AR TRES W  DIS CAZ7
 BAR2 EZ EP       2116 23.56                             171    0.1010 21.2 187 
 BAR2 EZ ES       2116 38.60                             171   -0.3610 21.2 187 
 BAR2 EZ I        2116 45.39        23.9 0.48            171           21.2 187 
 BRR  HZ EP     C 2116 25.52                             153    0.5410 71.0 300 
 BRR  HN ES       2116 42.42                             153    0.7510 71.0 300 
 BRR  HN I        2116 43.51       141.5 0.30            153           71.0 300 
 PAM  SZ IP     D 2116 26.33                             150    0.1310 79.7  39 
 PAM  SN ES       2116 43.54                             150   -0.2910 79.7  39 
 PAM  SZ I        2116 45.91        45.0 0.42            155           79.7  39 
 RUS  HZ EP       2116 27.59                             145    0.1510 98.7 175 
 RUS  HN ES       2116 46.32                             145    0.2710 98.7 175 
 RUS  HZ I        2116 48.90        15.5 0.30            148           98.7 175 
 PTB  HZ EP       2116 30.32                             133   -0.28 9  146 259 
 PTB  HN ES       2116 51.81                             133    0.14 9  146 259 
 PTB  HZ I        2116 57.42        36.3 0.22            134            146 259 
 SPBC HZ EP       2116 32.24                             130    0.19 9  161 219 
 SPBC HN ES       2116 53.04                             130   -1.21 9  161 219 
 SPBC HZ I        2116 57.44        30.3 0.10            132            161 219 
 OCA  HZ EP       2116 32.08                             130   -0.17 9  162 354 
 OCA  HN ES       2116 54.52                             130   -0.09 9  162 354 
 OCA  HZ I        2116 57.80        30.4 0.56            133            162 354 
 ZAR  HZ EP       2116 36.09                             123   -0.05 9  204 293 
 ZAR  HE ES       2117  1.88                             123    0.35 9  204 293 
 ZAR  HZ I        2117  7.33        32.8 0.34            125            204 293 
 NOR  HZ EP       2116 39.54                             119    0.32 8  232 235 
 NOR  HN ES       2117  6.76                             119   -0.26 8  232 235 
 SML  HZ EP       2116 39.99                             118   -0.49 8  245 336 
 SML  HN ES       2117  8.81                             118   -0.45 8  245 336 
 SML  HZ I        2117 15.06        41.8 0.10            120            245 336 
 CHI  HZ EP       2116 41.40                             118    0.22 8  246 195 
 CHI  HN ES       2117 10.68                             118    0.18 8  246 195 
 CHI  HZ I        2117 16.66        10.3 0.26            121            246 195 
 TOL  SZ EP   4   2116 53.43                             110    1.75 0  341 225 
                                                                                
