 2016  317 2051 37.2 L   6.761 -73.143138.7  RSN  5 0.4 1.8LRSN                1
 GAP=139        0.94       4.8     4.4  7.3 -0.5340E+00  0.1231E+02 -0.5800E+01E
 Epicentro: LOS SANTOS - SANTANDER                                             3
 ACTION:UPD 16-05-13 21:25 OP:cam  STATUS:               ID:20160317205137 L   I
 OLDACT:REG 16-03-18 02:42 OP:drio STATUS:               ID:20160317204746     3
 2016-03-17-2047-46M.COL___322                                                 6
 STAT SP IPHASW D HRMM SECON CODA AMPLIT PERI AZIMU VELO AIN AR TRES W  DIS CAZ7
 BAR2 EZ EP       2051 55.48                             172   -0.3910 19.1 193 
 BAR2 EZ ES       2052 10.06                             172   -0.4010 19.1 193 
 BAR2 EZ I        2052 13.15        12.6 0.26            173           19.1 193 
 PAM  EZ EP       2051 59.06                             148    0.2210 80.6  37 
 PAM  EE ES       2052 15.82                             148    0.0710 80.6  37 
 PAM  EZ I        2052 18.12        17.2 0.60            151           80.6  37 
 RUS  HZ EP       2052  0.39                             143    0.4810 96.2 176 
 RUS  HE ES       2052 17.87                             143    0.2210 96.2 176 
 RUS  HZ I        2052 19.46         4.3 0.40            148           96.2 176 
 PTB  HZ EP       2052  3.02                             130   -0.51 9  147 261 
 PTB  HN ES       2052 24.22                             130    0.14 9  147 261 
 PTB  HZ I        2052 26.80        11.4 0.18            132            147 261 
 ZAR  HZ EP       2052  9.00                             120   -0.37 8  206 293 
 ZAR  HN ES       2052 35.04                             120    0.55 8  206 293 
 ZAR  HZ I        2052 39.99         9.9 0.34            122            206 293 
                                                                                
