 2017  117 2027 41.0 L   6.771 -73.128149.7  RSN  7 0.3 1.7LRSN                1
 GAP=140        0.70       3.3     3.0  4.7 -0.6432E+00  0.3728E+01  0.1859E+01E
 Epicentro: LOS SANTOS - SANTANDER                                             3
 ACTION:UPD 17-05-22 16:00 OP:jn   STATUS:               ID:20170117202741 L   I
 OLDACT:DUP 17-01-18 04:37 OP:ar   STATUS:               ID:20170117201749d    3
 OLDACT:REG 17-01-18 03:11 OP:ar   STATUS:               ID:20170117201748     3
 2017-01-17-2018-00M.COL___337                                                 6
 STAT SP IPHASW D HRMM SECON CODA AMPLIT PERI AZIMU VELO AIN AR TRES W  DIS CAZ7
 BAR2 EZ EP       2028  0.82                             172   -0.2310 20.7 197 
 BAR2 EZ ES       2028 16.56                             172   -0.1310 20.7 197 
 BAR2 EZ I        2028 17.69        21.2 0.24            170           20.7 197 
 BRR  HZ EP       2028  2.92                             152    0.1710 74.4 300 
 BRR  HN ES       2028 20.10                             152    0.3810 74.4 300 
 BRR  HZ I        2028 24.10        12.3 0.28            150           74.4 300 
 PAM  EZ EP       2028  3.97                             151    0.2610 78.7  37 
 PAM  EN ES       2028 21.28                             151   -0.1410 78.7  37 
 PAM  EZ I        2028 23.85         5.0 0.38            155           78.7  37 
 RUS  HZ EP       2028  5.03                             145    0.1210 97.3 177 
 RUS  HN ES       2028 23.53                             145   -0.0310 97.3 177 
 RUS  HZ I        2028 25.09         5.8 0.36            147           97.3 177 
 PTB  HZ EP       2028  7.78                             133   -0.63 9  149 260 
 PTB  HE ES       2028 29.70                             133   -0.08 9  149 260 
 PTB  HZ I        2028 31.53         5.9 0.04            132            149 260 
 ZAR  HN ES       2028 39.58                             123   -0.17 8  207 293 
 ZAR  HZ I        2028 44.30         9.0 0.40            123            207 293 
 NOR  HZ EP       2028 17.23                             119    0.30 8  234 235 
 NOR  HN ES       2028 45.20                             119    0.24 8  234 235 
 NOR  HZ I        2028 55.33         3.3 0.12            120            234 235 
                                                                                
