 2014 1117 2325 43.1 L   5.938 -73.677109.5  RSN  5 0.2 1.5LRSN                1
 GAP= 95        0.54       2.1     5.0  8.6 -0.1188E+01  0.2840E+02  0.6458E+00E
 Epicentro: GUAVATA - SANTANDER                                                3
 ACTION:UPD 14-12-19 15:44 OP:nd   STATUS:               ID:20141117232543 L   I
 OLDACT:REG 14-11-18 04:25 OP:cam  STATUS:               ID:20141117231818     3
 2014-11-17-2318-18M.COL___289                                                 6
 STAT SP IPHASW D HRMM SECON CODA AMPLIT PERI AZIMU VELO AIN AR TRES W  DIS CAZ7
 RUS  HZ EP       2326  0.78                             147   -0.0010 65.9  94 
 BAR2 SZ EP       2326  2.42                             137    0.1410 90.7  37 
 BAR2 SZ ES       2326 17.44                             137    0.1810 90.7  37 
 BAR2 SZ I        2326 18.71        15.5 0.20            143           90.7  37 
 BRR  HZ EP       2326  5.17                             126   -0.3110  129 358 
 BRR  HN ES       2326 22.81                             126   -0.1510  129 358 
 BRR  HZ I        2326 23.97         4.9 0.40            124            129 358 
 CHI  HN ES       2326 26.58                             123   -0.12 9  145 182 
 HEL  HZ EP       2326 14.53                             113    0.30 8  207 278 
 HEL  HZ I        2326 32.55         2.4 0.28            108            207 278 
                                                                                
