 2012 1217 2130 44.2 L   6.509 -73.032137.8  RSN  4 0.4 2.0LRSN                1
 GAP=250        1.12      33.5    13.9 22.9 -0.4161E+03 -0.2496E+03  0.6901E+03E
 Epicentro: MOGOTES - SANTANDER                                                3
 ACTION:UPD 13-01-04 14:28 OP:ep   STATUS:               ID:20121217213044 L   I
 2012-12-17-2130-00M.COL___242                                                 6
 STAT SP IPHASW D HRMM SECON CODA AMPLIT PERI AZIMU VELO AIN AR TRES W  DIS CAZ7
 GIR2 SZ EP       2131  4.90                             153    0.5110 65.5 344 
 GIR2 SZ ES       2131 20.71                             153    0.5810 65.5 344 
 PAM  SZ EP       2131  6.86                             143   -0.2110 99.0  22 
 PAM  SN ES       2131 24.20                             143   -0.6910 99.0  22 
 BRR  HZ EP       2131  6.63                             142    0.1610  100 311 
 BRR  HN ES       2131 23.93                             142    0.1110  100 311 
 BRR  HN I        2131 27.24        19.0 0.18                           100 311 
 PTB  HZ EP       2131 11.50                             128    0.03 9  158 271 
 PTB  HN ES       2131 32.15                             128   -0.58 9  158 271 
 PTB  HN I        2131 38.00        12.9 0.62                           158 271 
                                                                                
