 2017  917 2019 24.4 L   6.786 -73.118148.0  RSN  7 0.4 1.5LRSN                1
 GAP=141        0.97       3.7     4.6  6.1  0.5144E+00  0.9111E+01  0.4818E+01E
 Epicentro: LOS SANTOS - SANTANDER                                             3
 ACTION:UPD 17-10-05 19:13 OP:rebc STATUS:               ID:20170917201924 L   I
 OLDACT:REG 17-09-18 02:16 OP:dhb  STATUS:               ID:20170917201741     3
 2017-09-17-2018-00M.COL___406                                                 6
 STAT SP IPHASW D HRMM SECON CODA AMPLIT PERI AZIMU VELO AIN AR TRES W  DIS CAZ7
 BAR2 EZ IP     C 2019 44.03                             171   -0.2410 22.5 198 
 BAR2 EZ ES       2019 59.99                             171    0.2110 22.5 198 
 BAR2 EZ I        2020  0.74         8.3 0.18            170           22.5 198 
 BRR  HZ EP       2019 46.18                             152    0.2110 74.6 298 
 BRR  HN ES       2020  3.28                             152    0.4810 74.6 298 
 BRR  HZ I        2020  4.53         8.6 0.46            151           74.6 298 
 PAM  EZ IP     C 2019 46.91                             152    0.1110 76.7  37 
 PAM  EN ES       2020  3.90                             152   -0.3910 76.7  37 
 PAM  EZ I        2020  6.50         7.6 0.39            154           76.7  37 
 RUS  HZ EP       2019 48.14                             145   -0.0910 98.8 178 
 RUS  HN ES       2020  6.97                             145    0.1410 98.8 178 
 RUS  HZ I        2020  9.63         3.2 0.22            146           98.8 178 
 ZAR  HZ EP       2019 56.91                             122   -0.42 8  207 292 
 ZAR  HN ES       2020 22.63                             122   -0.39 8  207 292 
 ZAR  HZ I        2020 29.06         2.8 0.26            123            207 292 
 NOR  HZ EP       2020  1.40                             119    0.99 8  236 235 
 NOR  HN ES       2020 28.12                             119   -0.39 8  236 235 
 NOR  HZ I        2020 30.25         3.9 0.30            120            236 235 
 CHI  HZ EP       2020  2.33                             118    0.20 8  248 196 
 CHI  HN ES       2020 31.00                             118   -0.57 8  248 196 
 CHI  HZ I        2020 35.24         0.9 0.07            119            248 196 
                                                                                
