 2013 1017 2204 11.0 L   6.759 -73.158139.4  RSN 11 0.4 2.2LRSN                1
 GAP=137        0.90       3.4     3.5  5.2 -0.2067E+01  0.6615E+01  0.1234E+01E
 Epicentro: LOS SANTOS - SANTANDER                                             3
 ACTION:UPD 13-11-25 09:22 OP:ep   STATUS:               ID:20131017220411 L   I
 OLDACT:REG 13-10-18 01:06 OP:nd   STATUS:               ID:20131017215835     3
 2013-10-17-2158-35M.COL___226                                                 6
 STAT SP IPHASW D HRMM SECON CODA AMPLIT PERI AZIMU VELO AIN AR TRES W  DIS CAZ7
 BAR2 SZ EP       22 4 29.79                             172    0.0510 18.6 188 
 BAR2 SZ ES       22 4 44.32                             172   -0.0610 18.6 188 
 BAR2 SZ I        22 4 45.89        64.7 0.38            172           18.6 188 
 BRR  HZ EP       22 4 31.70                             151    0.2110 72.3 302 
 BRR  HN ES       22 4 47.90                             151    0.4010 72.3 302 
 BRR  HZ I        22 4 49.81        37.3 0.18            148           72.3 302 
 PAM  SZ EP       22 4 32.55                             148   -0.2310 81.8  38 
 PAM  SN ES       22 4 49.51                             148   -0.3010 81.8  38 
 PAM  SZ I        22 4 51.56        17.5 0.62            150           81.8  38 
 RUS  HZ EP       22 4 33.74                             144   -0.0310 96.1 175 
 RUS  HN ES       22 4 51.88                             144    0.3210 96.1 175 
 RUS  HZ I        22 4 53.22        15.1 0.22            146           96.1 175 
 PTB  HZ EP       22 4 36.43                             131   -0.78 9  146 260 
 PTB  HN ES       22 4 57.39                             131   -0.30 9  146 260 
 PTB  HZ I        22 5  0.87        21.3 0.16            130            146 260 
 SPBC HZ EP       22 4 38.76                             128    0.21 9  159 220 
 SPBC HN ES       22 5  0.13                             128    0.05 9  159 220 
 SPBC HZ I        22 5  6.81        21.0 0.14            129            159 220 
 ZAR  HZ EP       22 4 43.50                             121    0.45 9  205 293 
 ZAR  HN ES       22 5  8.04                             121   -0.04 9  205 293 
 ZAR  HZ I        22 5  9.99        10.1 0.12            121            205 293 
 NOR  HZ EP       22 4 45.72                             118   -0.20 8  231 235 
 NOR  HN ES       22 5 13.07                             118   -0.12 8  231 235 
 NOR  HZ I        22 5 18.11        12.5 0.20            118            231 235 
 SML  HZ EP   4   22 4 48.48                             116    0.85 0  247 336 
 SML  HN ES   4   22 5 18.19                             116    1.96 0  247 336 
 SML  HZ I        22 5 25.85        17.2 0.24            116            247 336 
 HEL  HZ EP       22 4 51.56                             114    0.98 8  270 257 
 HEL  HN ES   2   22 5 21.69                             114    0.20 4  270 257 
 HEL  HZ I        22 5 27.96         6.6 0.48            114            270 257 
 GUY2CHZ EP   4   22 4 54.88                             111    1.03 0  297 235 
 GUY2CHN ES       22 5 26.71                             111   -0.60 7  297 235 
 GUY2CHZ I        22 5 36.45         6.6 0.42                           297 235 
                                                                                
