 2014  117 2312  7.7 L   6.814 -73.161147.1  RSN  7 0.5 1.6LRSN                1
 GAP=134        1.26       5.4     5.7  9.3  0.3533E+01  0.1193E+02 -0.5551E+01E
 Epicentro: LOS SANTOS - SANTANDER                                             3
 ACTION:UPD 14-03-13 09:56 OP:ep   STATUS:               ID:20140117231207 L   I
 OLDACT:REG 14-01-17 21:19 OP:jn   STATUS:               ID:20140117231000     3
 2014-01-17-2310-00M.COL___285                                                 6
 STAT SP IPHASW D HRMM SECON CODA AMPLIT PERI AZIMU VELO AIN AR TRES W  DIS CAZ7
 BAR2 SZ ES       2312 42.90                             170   -0.0510 24.6 185 
 BRR  HZ EP       2312 29.35                             153    0.5010 68.9 298 
 BRR  HN ES       2312 46.03                             153    0.6710 68.9 298 
 PAM  SZ EP       2312 30.55                             151    0.5210 77.3  41 
 PAM  SN ES       2312 47.06                             151   -0.4110 77.3  41 
 PAM  SZ I        2312 50.86         6.5 0.50            154           77.3  41 
 RUS  HZ EP       2312 31.48                             144   -0.2010  102 175 
 RUS  HN ES       2312 50.29                             144   -0.1110  102 175 
 RUS  HZ I        2312 51.73         9.5 0.28            145            102 175 
 PTB  HZ EP       2312 34.62                             133   -0.01 9  146 258 
 PTB  HN ES       2312 54.89                             133   -0.76 9  146 258 
 PTB  HZ I        2313  1.92         4.8 0.28            134            146 258 
 ZAR  HN ES       2313  5.68                             123    0.49 9  202 292 
 SML  HN ES       2313 11.64                             118   -0.96 8  242 336 
                                                                                
