 2016 1217 2322 41.1 L   6.775 -73.118144.1  RSN 11 0.4 1.9LRSN                1
 GAP=122        0.94       3.4     3.6  5.1  0.4459E-01  0.4360E+01  0.5282E+01E
 Epicentro: LOS SANTOS - SANTANDER                                             3
 ACTION:UPD 17-01-11 20:16 OP:rebc STATUS:               ID:20161217231749dL   I
 OLDACT:DUP 16-12-18 05:58 OP:lv   STATUS:               ID:20161217231749dL   3
 2016-12-17-2318-00M.COL___387                                                 6
 STAT SP IPHASW D HRMM SECON CODA AMPLIT PERI AZIMU VELO AIN AR TRES W  DIS CAZ7
 BAR2 EZ EP       2323  0.51                             171   -0.0210 21.4 199 
 BAR2 EZ ES       2323 15.63                             171   -0.0210 21.4 199 
 BAR2 EZ I        2323 18.41        28.7 0.36            170           21.4 199 
 BRR  HZ EP       2323  2.27                             151   -0.0710 75.2 299 
 BRR  HN ES       2323 19.37                             151    0.5010 75.2 299 
 BRR  HZ I        2323 21.85        16.5 0.16            152           75.2 299 
 PAM  EZ EP       2323  3.39                             150    0.1910 77.7  37 
 PAM  EN ES       2323 20.41                             150    0.0110 77.7  37 
 PAM  EZ I        2323 23.51         9.8 0.32            154           77.7  37 
 RUS  HZ EP       2323  4.43                             144   -0.0810 97.6 178 
 RUS  HN ES       2323 22.52                             144   -0.2210 97.6 178 
 RUS  HZ I        2323 24.35         9.7 0.38            145           97.6 178 
 PTB  HZ EP       2323  7.75                             131   -0.44 9  150 260 
 PTB  HN ES       2323 28.80                             131   -0.50 9  150 260 
 PTB  HZ I        2323 30.81         9.2 0.14            132            150 260 
 ZAR  HZ EP       2323 14.11                             121    0.24 8  208 293 
 ZAR  HN ES       2323 38.95                             121   -0.46 8  208 293 
 ZAR  HZ I        2323 43.66         8.9 0.15            123            208 293 
 NOR  HZ EP       2323 17.01                             118    0.15 8  236 235 
 NOR  HN ES       2323 45.53                             118    0.80 8  236 235 
 NOR  HZ I        2323 47.30         6.7 0.27            119            236 235 
 CHI  HZ EP       2323 18.68                             117    0.14 8  247 196 
 CHI  HN ES       2323 48.12                             117    0.41 8  247 196 
 CHI  HZ I        2323 54.23         4.2 0.36            118            247 196 
 GUY2CHZ EP       2323 25.49                             112    0.72 7  302 236 
 GUY2CHE ES       2323 58.07                             112   -0.73 7  302 236 
 GUY2CHZ I        2324  6.68         4.0 0.44                           302 236 
 PTGC HZ EP       2323 23.70                             111   -0.80 7  305 159 
 PTGC HN ES   4   2323 56.34                             111   -1.98 0  305 159 
 LL6C HZ EP   4   2323  6.60                             110   -20.5 0  328 357 
 LL6C HE ES   4   2323 39.47                             110   -23.5 0  328 357 
 ORTC HZ EP       2323 35.27                             106    0.33 6  395 217 
 ORTC HN ES   4   2324 18.55                             106    1.64 0  395 217 
 ORTC HZ I        2324 24.11         1.8 0.53            107            395 217 
 SJC  HZ EP   4   2323 34.80                             105   -2.31 0  413 327 
 SJC  HN ES   4   2324 15.57                             105   -5.20 0  413 327 
                                                                                
