 2010  917 2238 45.4 L   6.871 -73.227114.8  RSN  5 0.2 1.6LRSN                1
 GAP=148        0.45       3.0     5.9  9.6 -0.4290E+01 -0.1357E+02  0.5715E+01E
 Epicentro: ZAPATOCA - SANTANDER                                               3
 ACTION:UP  11-02-18 11:03 OP:tino STATUS:               ID:20100917223845 L   I
 2010-09-17-2235-26S.COL___121                                                 6
 STAT SP IPHASW D HRMM SECON CODA AMPLIT PERI AZIMU VELO SNR AR TRES W  DIS CAZ7
 BAR2 SZ EP       2239  1.72                             164     0.110   31 171 
 BAR2 SZ I        2239 16.10        28.4 0.21                            31 171 
 BRR  HZ EP   1   2239  2.35                             151    -0.2 7   60 296 
 BRR  HZ I        2239  4.80        12.5 0.36                            60 296 
 BRR  HN ES   2   2239 16.09                             151     0.1 5   60 296 
 RUS  HZ EP   2   2239  7.27                             133     0.2 5  109 172 
 RUS  HE ES   2   2239 23.61                             133    -0.3 5  109 172 
 RUS  HZ I        2239 25.92         4.1 0.51                           109 172 
 GUE  SZ EP   2   2239  6.94                             133     0.0 5  111  17 
 GRA  SZ ES   1   2239 25.01                             130     0.0 7  122  23 
 GRA  SZ I        2239 28.88         6.7 0.37                           122  23 
                                                                                
