 2014  617 2357 22.1 L   6.806 -73.130142.0  RSN 20 0.5 2.4LRSN                1
 GAP= 72        1.09       2.7     3.0  5.6 -0.9446E+00  0.4375E+01  0.2082E+01E
 Epicentro: LOS SANTOS - SANTANDER                                             3
 ACTION:UPD 14-07-01 22:54 OP:nd   STATUS:               ID:20140617235722 L   I
 OLDACT:REG 14-06-18 02:51 OP:fm   STATUS:               ID:20140617234816     3
 2014-06-17-2348-16M.COL___259                                                 6
 STAT SP IPHASW D HRMM SECON CODA AMPLIT PERI AZIMU VELO AIN AR TRES W  DIS CAZ7
 BAR2 SZ IP     D 2357 41.38                             170    0.0410 24.3 194 
 BAR2 SZ ES   1   2357 55.57                             170   -0.75 7 24.3 194 
 BAR2 SZ I        2357 57.74        46.9 0.16            168           24.3 194 
 BRR  HZ IP     C 2357 43.30                             151    0.3410 72.4 297 
 BRR  HN ES       2358  0.15                             151    0.9610 72.4 297 
 BRR  HZ I        2358  4.39        51.5 0.14            149           72.4 297 
 PAM  SZ EP     C 2357 44.18                             151    0.3210 75.8  39 
 PAM  SN ES       2358  1.01                             151    0.2110 75.8  39 
 PAM  SZ I        2358  1.75        37.1 0.36            153           75.8  39 
 RUS  HZ EP     C 2357 45.35                             143   -0.2210  101 177 
 RUS  HN ES       2358  3.71                             143   -0.1310  101 177 
 RUS  HZ I        2358  4.66        25.0 0.26            144            101 177 
 PTB  HZ EP       2357 48.13                             131   -0.84 9  150 259 
 PTB  HN ES       2358  9.21                             131   -0.69 9  150 259 
 PTB  HZ I        2358 11.82        33.4 0.12            129            150 259 
 TAM  HZ IP     D 2357 49.70                             130    0.31 9  154 105 
 TAM  HE ES       2358 10.90                             130    0.27 9  154 105 
 TAM  HZ I        2358 11.61        25.0 0.30            133            154 105 
 OCA  HZ EP       2357 50.06                             129   -0.06 9  160 353 
 OCA  HN ES       2358 11.26                             129   -0.69 9  160 353 
 OCA  HZ I        2358 14.79        17.4 0.28            129            160 353 
 SPBC HE ES   1   2358 12.04                             128   -0.59 7  165 219 
 SPBC HZ I        2358 16.93        26.2 0.30            127            165 219 
 ZAR  HZ EP       2357 54.33                             121   -0.16 8  205 292 
 ZAR  HN ES       2358 20.18                             121    0.47 8  205 292 
 ZAR  HZ I        2358 26.49        35.5 0.24            121            205 292 
 NOR  HZ EP       2357 57.26                             117   -0.59 8  236 235 
 NOR  HN ES       2358 25.47                             117   -0.23 8  236 235 
 NOR  HZ I        2358 31.79        15.5 0.14            117            236 235 
 SML  HZ EP   1   2357 58.09                             117   -0.49 6  244 335 
 SML  HN ES       2358 26.78                             117   -0.21 8  244 335 
 SML  HZ I        2358 40.01        30.9 0.24            117            244 335 
 CHI  HZ EP   1   2357 59.29                             116   -0.47 6  250 196 
 CHI  HN ES       2358 28.81                             116   -0.28 8  250 196 
 ROSC BZ EP   2   2358  0.99                             116    0.77 4  254 211 
 ROSC BN ES   4   2358 32.63                             116    2.71 0  254 211 
 ROSC BZ I        2358 36.29        15.0 0.35            116            254 211 
 HEL  HZ EP   1   2358  2.86                             114    0.49 6  274 256 
 HEL  HN ES       2358 34.25                             114    0.50 8  274 256 
 HEL  HZ I        2358 40.22        14.1 0.40            114            274 256 
 URE  HZ EP   4   2358  1.44                             113   -1.75 0  285 292 
 URE  HN ES   4   2358 33.60                             113   -1.60 0  285 292 
 URE  HZ I        2358 35.27        20.5 0.36            112            285 292 
 GUY2CHZ EP       2358  6.23                             111    0.45 7  303 235 
 GUY2CHN ES       2358 40.48                             111    0.66 7  303 235 
 GUY2CHZ I        2358 46.64        11.7 0.36                           303 235 
 PTGC HN ES   4   2358 37.71                             111   -2.20 0  309 159 
 RREF HZ EP   4   2358  9.47                             110    1.15 0  324 229 
 RREF HN ES       2358 44.76                             110    0.42 7  324 229 
 RREF HZ I        2358 53.33         9.2 0.24            110            324 229 
 TOL  SZ EP   4   2358 11.78                             109    1.34 0  345 225 
 TOL  SN ES       2358 48.97                             109    0.85 7  345 225 
 TOL  SZ I        2358 56.41        15.0 0.42            109            345 225 
 PRA  HZ EP   1   2358 15.80                             106    0.10 4  393 210 
 PRA  HN ES   4   2358 54.43                             106   -3.05 0  393 210 
 PRA  HZ I        2359  2.01         4.9 0.28            106            393 210 
 ORTC HZ EP   1   2358 15.61                             106   -0.51 4  397 216 
 ORTC HN ES   4   2358 59.42                             106    1.20 0  397 216 
 ORTC HZ I        2359  5.47         4.0 0.22            106            397 216 
 SJC  HZ EP   4   2358 15.82                             105   -1.81 0  410 327 
 SJC  HN ES   4   2358 56.86                             105   -4.05 0  410 327 
                                                                                
