 2017  717 2345  1.3 L   6.777 -73.137127.8  RSN  9 0.3 1.5LRSN                1
 GAP=139        0.84       3.1     3.4  4.9 -0.1557E+01  0.4395E+01  0.1139E+01E
 Epicentro: LOS SANTOS - SANTANDER                                             3
 ACTION:UPD 17-08-30 15:34 OP:rebc STATUS:               ID:20170717234501 L   I
 OLDACT:DUP 17-07-18 04:14 OP:dhb  STATUS:               ID:20170717233745d    3
 2017-07-17-2338-00M.COL___386                                                 6
 STAT SP IPHASW D HRMM SECON CODA AMPLIT PERI AZIMU VELO AIN AR TRES W  DIS CAZ7
 BAR2 EZ EP       2345 18.76                             170    0.0310 21.1 194 
 BAR2 EZ ES       2345 32.38                             170    0.0610 21.1 194 
 BAR2 EZ I        2345 35.59         7.6 0.14            168           21.1 194 
 BRR  HZ EP       2345 20.59                             148   -0.0810 73.2 300 
 BRR  HN ES       2345 35.97                             148    0.2010 73.2 300 
 BRR  HZ I        2345 39.16        13.2 0.16            147           73.2 300 
 PAM  EZ IP     D 2345 21.59                             147   -0.1410 78.8  38 
 PAM  HN ES       2345 37.50                             147   -0.1710 78.8  38 
 PAM  EZ I        2345 39.20         2.7 0.16            152           78.8  38 
 RUS  HZ EP       2345 22.65                             141   -0.4810 98.0 176 
 RUS  HN ES       2345 40.14                             141   -0.0210 98.0 176 
 RUS  HZ I        2345 42.21         4.9 0.30            143           98.0 176 
 PTB  HZ EP   9   2345 25.61                             127   -1.30 0  148 260 
 PTB  HN ES       2345 46.30                                    0.71 9  148 260 
 PTB  HZ I        2345 48.69         4.4 0.20            128            148 260 
 SPBC HZ EP       2345 28.87                             125    0.52 9  162 220 
 SPBC HN ES       2345 49.65                             125    0.20 9  162 220 
 SPBC HZ I        2345 55.41         4.8 0.05            126            162 220 
 ZAR  HZ IP     D 2345 33.05                             118    0.22 8  206 293 
 ZAR  HN ES       2345 57.33                             118   -0.10 8  206 293 
 ZAR  HZ I        2346  3.89         3.2 0.21            119            206 293 
 NOR  HZ EP       2345 36.48                             115    0.51 8  234 235 
 NOR  HN ES       2346  2.46                             115   -0.56 8  234 235 
 NOR  HZ I        2346  8.91         3.2 0.40            116            234 235 
 GUY2CHZ EP   4   2345 42.35                             109   -1.71 0  300 235 
 GUY2CHN ES   2   2346 16.94                             109   -0.47 4  300 235 
 GUY2CHZ I        2346 23.21         1.5 0.44                           300 235 
                                                                                
