 2011  517 2318 52.8 L   6.999 -73.269128.7  RSN  6 0.2 1.9LRSN                1
 GAP=125        0.60       3.9     6.8  7.0 -0.5285E+01 -0.1197E+02 -0.1465E+01E
 Epicentro: BETULIA - SANTANDER                                                3
 ACTION:UP  11-06-29 08:54 OP:tino STATUS:               ID:20110517231852 L   I
 2011-05-17-2317-00S.COL___141                                                 6
 STAT SP IPHASW D HRMM SECON CODA AMPLIT PERI AZIMU VELO SNR AR TRES W  DIS CAZ7
 BTL  SZ EP   1   2319 10.25                             176     0.1 7    9 179 
 GIR2 SZ EP   1   2319  9.75                             174    -0.3 7   12  43 
 BAR2 SZ EP   1   2319 11.31                             159     0.2 7   46 168 
 BAR2 SZ ES   1   2319 25.45                             159     0.0 7   46 168 
 BAR2 SZ I        2319 27.36        51.4 0.29                            46 168 
 BRR  HZ EP   1   2319 10.61                             157    -0.4 7   50 284 
 BRR  HZ I        2319 10.94        38.5 0.15                            50 284 
 BRR  HN ES   1   2319 25.41                             157     0.2 7   50 284 
 GRA  SZ EP   1   2319 15.72                             137     0.4 7  111  28 
 GRA  SZ ES   1   2319 32.60                             137    -0.2 7  111  28 
 GRA  SZ I        2319 34.27         8.5 0.32                           111  28 
 RUS  HZ EP   2   2319 16.86                             134     0.0 5  124 170 
 RUS  HZ I        2319 17.62         2.7 0.18                           124 170 
 RUS  HN ES   2   2319 35.64                             134     0.0 5  124 170 
                                                                                
