 2016  317 2242 15.1 L   6.792 -73.146150.4  RSN  5 0.2 1.4LRSN                1
 GAP=137        0.58       3.2     2.8  4.9 -0.1410E+00  0.3969E+01 -0.1151E+01E
 Epicentro: LOS SANTOS - SANTANDER                                             3
 ACTION:UPD 16-05-13 21:25 OP:cam  STATUS:               ID:20160317224215 L   I
 OLDACT:REG 16-03-18 02:52 OP:drio STATUS:               ID:20160317223749     3
 2016-03-17-2237-49M.COL___322                                                 6
 STAT SP IPHASW D HRMM SECON CODA AMPLIT PERI AZIMU VELO AIN AR TRES W  DIS CAZ7
 BAR2 EZ EP       2242 35.20                             171   -0.1010 22.5 190 
 BAR2 EZ ES       2242 50.83                             171   -0.2110 22.5 190 
 BAR2 EZ I        2242 52.03         3.4 0.26            172           22.5 190 
 PAM  EZ EP       2242 38.07                             151    0.1910 78.1  39 
 PAM  EE ES       2242 55.56                             151   -0.0710 78.1  39 
 PAM  EZ I        2242 57.60         4.0 0.62            153           78.1  39 
 RUS  HZ EP       2242 39.19                             145   -0.0910 99.7 176 
 RUS  HE ES       2242 58.48                             145    0.3610 99.7 176 
 RUS  HZ I        2243  0.55         2.9 0.38            148           99.7 176 
 PTB  HZ EP       2242 42.24                             133   -0.22 9  148 259 
 PTB  HE ES       2243  3.64                             133   -0.14 9  148 259 
 PTB  HZ I        2243  5.40         3.3 0.16            133            148 259 
 ZAR  HN ES       2243 13.82                             123    0.34 9  204 292 
 ZAR  HZ I        2243 19.45         3.5 0.28            124            204 292 
                                                                                
