 2011  617 2336 25.8 L   6.785 -73.122150.7  RSN  6 0.2 1.7LRSN                1
 GAP=158        0.44       2.6     4.6  5.1 -0.2588E+01 -0.3804E+01 -0.5335E+00E
 Epicentro: LOS SANTOS - SANTANDER                                             3
 ACTION:UP  11-07-14 19:06 OP:ep   STATUS:               ID:20110617233625 L   I
 2011-06-17-2333-31S.COL___135                                                 6
 STAT SP IPHASW D HRMM SECON CODA AMPLIT PERI AZIMU VELO SNR AR TRES W  DIS CAZ7
 BAR2 SZ EP   1   2336 45.69                             171    -0.3 7   22 197 
 BAR2 SZ ES   2   2337  1.29                             171    -0.4 5   22 197 
 BAR2 SZ I        2337  3.60        13.6 0.24                            22 197 
 BRR  HZ EP   1   2336 47.73                             152     0.1 7   74 299 
 BRR  HN ES   1   2337  4.81                             152     0.1 7   74 299 
 BRR  HZ I        2337 11.30        12.2 0.40                            74 299 
 RUS  HZ EP   1   2336 49.99                             145     0.1 7   99 178 
 RUS  HN ES   1   2337  8.86                             145     0.2 7   99 178 
 RUS  HZ I        2337 10.68         4.9 0.30                            99 178 
 BRI  SZ EP   2   2336 50.10                             142    -0.1 5  109  19 
 GRA  SZ EP   1   2336 51.57                             138     0.0 7  127  16 
 GRA  SZ ES   1   2337 11.61                             138     0.0 7  127  16 
 GRA  SZ I        2337 12.49         5.6 0.34                           127  16 
 NOR  SE ES   2   2337 29.89                             119    -0.2 4  236 235 
                                                                                
