 2010  417 2329 36.9 L   6.799 -73.004140.0  RSN  8 0.5 2.6LRSN                1
 GAP=211        0.96       4.9    10.4  7.7 -0.1336E+02  0.6545E+01  0.8830E+01E
 Epicentro: CEPITA - SANTANDER                                                 3
 ACTION:UPD 10-08-24 09:59 OP:vdl  STATUS:               ID:20100417232945 L   I
 2010-04-17-2325-58S.COL___100                                                 6
 STAT SP IPHASW D HRMM SECON CODA AMPLIT PERI AZIMU VELO AIN AR TRES W  DIS CAZ7
 BAR2 SZ IP       2329 56.57                             167     0.510   30 221 
 BAR2 SZ ES   1   2330 10.08                             167    -0.8 7   30 221 
 BRR  HZ EP       2329 58.54                             147     0.210   85 294 
 BRR  HN ES   1   2330 15.58                             147     0.5 7   85 294 
 BRR  HZ I        2330 19.88        52.0 0.23                            85 294 
 OCA  SZ EP       2330  5.04                             128     0.0 9  163 348 
 OCA  SZ ES   1   2330 26.20                             128    -0.8 7  163 348 
 OCA  SZ I        2330 29.91        68.3 0.25                           163 348 
 CHI  HZ EP   1   2330 15.03                             115     0.2 6  253 199 
 CHI  HN ES   2   2330 44.30                             115     0.0 4  253 199 
 HEL  HZ EP       2330 18.48                             112    -0.1 7  287 257 
 HEL  HN ES   3   2330 50.93                             112    -0.1 2  287 257 
 HEL  HZ I        2330 55.70        11.9 0.54                           287 257 
 RREF BZ EP   2   2330 23.71                             109    -0.5 3  334 231 
 RREF BE ES   2   2331  0.95                             109    -0.1 3  334 231 
 RREF BZ I        2331  6.47         9.0 0.49                           334 231 
 ANIL BN ES   2   2331  7.32                             107    -0.2 3  368 226 
 ANIL BZ I        2331 12.92        19.7 0.23                           368 226 
 PRA  HZ EP       2330 30.82                             105    -0.4 6  400 212 
 PRA  HE ES   2   2331 12.89                             105    -0.6 3  400 212 
 PRA  HZ I        2331 17.22        12.5 0.68                           400 212 
                                                                                
