 2012  517 2239 40.9 L   6.733 -73.130146.3  RSN 10 0.4 2.1LRSN                1
 GAP=165        0.78       4.3     4.7  6.2 -0.6934E+01  0.7002E+01  0.8341E+01E
 Epicentro: JORDAN - SANTANDER                                                 3
 ACTION:UP  12-07-05 12:06 OP:pat  STATUS:               ID:20120517223940 L   I
 2012-05-17-2237-40M.COL___196                                                 6
 STAT SP IPHASW D HRMM SECON CODA AMPLIT PERI AZIMU VELO SNR AR TRES W  DIS CAZ7
 BAR2 SZ EP   1   2240  0.44                             173     0.0 7   17 200 
 BAR2 SZ ES   1   2240 15.69                             173     0.0 7   17 200 
 BAR2 SZ I        2240 16.53        33.3 0.28                            17 200 
 BRR  HZ EP   1   2240  2.54                             151     0.2 7   76 303 
 BRR  HN ES   1   2240 19.82                             151     0.7 7   76 303 
 BRR  HZ I        2240 20.86        25.8 0.15                            76 303 
 PAM  SZ EP   1   2240  3.65                             149     0.2 7   82  35 
 PAM  SN ES   1   2240 20.94                             149    -0.1 7   82  35 
 PTB  HZ EP   1   2240  7.39                             132    -0.5 7  148 262 
 PTB  HE ES   1   2240 28.71                             132    -0.3 7  148 262 
 PTB  HZ I        2240 30.35         8.9 0.21                           148 262 
 OCA  HN ES   1   2240 31.81                             128    -0.8 7  168 353 
 ZAR  HZ EP   1   2240 13.99                             122     0.2 6  208 294 
 ZAR  HE ES   1   2240 39.57                             122     0.1 6  208 294 
 ZAR  HZ I        2240 46.66        11.9 0.39                           208 294 
 NOR  SZ EP   1   2240 16.14                             119    -0.2 6  232 236 
 NOR  SN ES   1   2240 43.80                             119    -0.2 6  232 236 
 HEL  HZ EP   1   2240 21.83                             115     0.7 6  272 257 
 HEL  HZ I        2240 59.66         6.8 0.35                           272 257 
 RREF HZ EP   1   2240 26.65                             111     0.0 5  318 231 
 RREF HN ES   1   2241  2.36                             111     0.0 5  318 231 
 RREF HZ I        2241 10.70         5.3 0.57                           318 231 
 PRA  HZ EP   1   2240 34.08                             107     0.3 4  386 210 
 PRA  HN ES   1   2241 14.47                             107    -0.5 4  386 210 
                                                                                
