 2011  717 2302 16.9 L   6.773 -73.106147.0  RSN  7 0.4 1.6LRSN                1
 GAP=143        0.81       5.1     7.2  9.2 -0.3049E+01  0.3896E+01  0.4873E+01E
 Epicentro: LOS SANTOS - SANTANDER                                             3
 ACTION:UPD 12-07-25 14:01 OP:epov STATUS:               ID:20110717230216 L   I
 2011-07-17-2258-15S.COL___143                                                 6
 STAT SP IPHASW D HRMM SECON CODA AMPLIT PERI AZIMU VELO AIN AR TRES W  DIS CAZ7
 BAR2 SZ EP       23 2 37.33                             171    0.6910 21.7 203 
 BAR2 SZ I        23 2 53.27         8.3 0.28                          21.7 203 
 BTL  SZ EP       23 2 36.75                             170    0.0610 24.1 312 
 BRR  HZ EP       23 2 38.09                             151   -0.3910 76.5 299 
 BRR  HN ES   1   23 2 55.57                             151    0.25 7 76.5 299 
 BRR  HZ I        23 2 57.79        11.7 0.18                          76.5 299 
 PAM  SZ EP   1   23 2 39.29                             151    0.07 7 77.0  36 
 PAM  SE ES   1   23 2 56.17                             151   -0.46 7 77.0  36 
 RUS  HZ EP       23 2 40.33                             145   -0.2110 97.4 179 
 RUS  HZ I        23 2 40.99         3.3 0.15                          97.4 179 
 RUS  HE ES   1   23 2 58.96                             145   -0.02 7 97.4 179 
 OCA  SZ EP   2   23 2 45.79                             129    0.16 5  164 352 
 OCA  SZ I        23 3 12.95         5.7 0.14                           164 352 
 NOR  SN ES   2   23 3 20.46                             118   -0.53 4  237 236 
                                                                                
