 2014  817 2100  3.7 L   6.819 -73.103148.3  RSN  9 0.5 1.8LRSN                1
 GAP=205        1.19       4.1     5.8  6.9  0.1962E+01  0.8640E+01 -0.2585E+01E
 Epicentro: LOS SANTOS - SANTANDER                                             3
 ACTION:UPD 14-09-15 21:50 OP:nd   STATUS:               ID:20140817210003 L   I
 OLDACT:DUP 14-08-18 06:11 OP:carl STATUS:               ID:20140817205820d    3
 2014-08-17-2058-19M.COL___266                                                 6
 STAT SP IPHASW D HRMM SECON CODA AMPLIT PERI AZIMU VELO AIN AR TRES W  DIS CAZ7
 BAR2 SZ EP       21 0 23.99                             170    0.3010 26.5 199 
 BAR2 SZ ES       21 0 38.85                             170   -0.4410 26.5 199 
 BAR2 SZ I        21 0 42.07        13.3 0.28            169           26.5 199 
 BRR  HZ EP       21 0 25.92                             152    0.6310 74.4 295 
 BRR  HN ES       21 0 42.99                             152    0.8510 74.4 295 
 BRR  HZ I        21 0 49.37         8.8 0.14            151           74.4 295 
 RUS  HZ EP       21 0 27.58                             144   -0.2410  102 179 
 RUS  HN ES       21 0 46.83                             144    0.1810  102 179 
 RUS  HZ I        21 0 47.45         7.3 0.22            148            102 179 
 PTB  HZ EP       21 0 30.84                             132   -0.47 9  153 258 
 PTB  HE ES       21 0 52.76                             132   -0.10 9  153 258 
 PTB  HZ I        21 0 53.94        12.7 0.14            133            153 258 
 SPBC HZ EP       21 0 32.78                             129   -0.03 9  168 220 
 SPBC HN ES       21 0 54.87                             129   -0.66 9  168 220 
 SPBC HZ I        21 0 57.67        10.1 0.38            131            168 220 
 ZAR  HZ EP       21 0 36.64                             122   -0.02 8  208 291 
 ZAR  HN ES       21 1  2.22                             122   -0.17 8  208 291 
 ZAR  HZ I        21 1  8.90         4.6 0.50            124            208 291 
 NOR  HZ EP       21 0 40.18                             119    0.08 8  240 235 
 NOR  HN ES       21 1  7.86                             119   -0.64 8  240 235 
 NOR  HZ I        21 1 13.32         4.5 0.24            121            240 235 
 SML  HZ EP       21 0 40.02                             118   -0.44 8  244 334 
 SML  HN ES       21 1  8.65                             118   -0.50 8  244 334 
 GUY2CHZ EP       21 0 48.98                             112    1.01 7  306 235 
 GUY2CHN ES       21 1 23.27                             112    0.75 7  306 235 
 GUY2CHZ I        21 1 30.26         4.0 0.28                           306 235 
                                                                                
