 2010  117 2227 54.5 L   6.809 -73.169142.6  RSN  5 0.3 1.7LRSN                1
 GAP=181        0.55       2.5    14.7  7.3 -0.8453E+01  0.5814E+02 -0.3035E+01E
 Epicentro: LOS SANTOS - SANTANDER                                             3
 ACTION:UP  10-08-24 09:44 OP:vdl  STATUS:               ID:20100117222754 L   I
 2010-01-17-2227-12S.COL___096                                                 6
 STAT SP IPHASW D HRMM SECON CODA AMPLIT PERI AZIMU VELO SNR AR TRES W  DIS CAZ7
 BAR2 SZ EP   2   2228 14.01                             170     0.2 5   24 184 
 BAR2 SZ ES   2   2228 29.18                             170     0.4 5   24 184 
 RUS  BZ EP   1   2228 18.06                             142     0.0 8  102 175 
 RUS  BE ES   1   2228 36.18                             142    -0.2 8  102 175 
 RUS  BZ I        2228 37.93         8.0 0.25                           102 175 
 OCA  SZ EP       2228 22.64                             129     0.210  159 354 
 OCA  SZ ES   1   2228 43.88                             129    -0.4 7  159 354 
 CHI  HZ EP   1   2228 32.28                             116     0.2 6  249 195 
 CHI  HE ES   1   2229  0.86                             116    -0.5 6  249 195 
 CHI  HZ I        2229 10.08         4.0 0.51                           249 195 
 PRA  HZ EP   2   2228 47.82                             106    -0.1 3  392 209 
 PRA  HN ES   2   2229 30.15                             106     0.7 3  392 209 
                                                                                
