 2015  517 2233 46.2 L   6.804 -73.118148.8  RSN  5 0.5 1.8LRSN                1
 GAP=222        1.13       5.3     8.8  8.2  0.7746E+01  0.9720E+01 -0.8903E+01E
 Epicentro: LOS SANTOS - SANTANDER                                             3
 ACTION:UPD 15-09-10 22:04 OP:cam  STATUS:               ID:20150517223347dL   I
 OLDACT:DUP 15-05-18 06:10 OP:stll STATUS:               ID:20150517222737d    3
 2015-05-17-2227-36M.COL___286                                                 6
 STAT SP IPHASW D HRMM SECON CODA AMPLIT PERI AZIMU VELO AIN AR TRES W  DIS CAZ7
 BAR2 EZ EP       2234  6.39                             170    0.1910 24.4 197 
 BAR2 EZ ES       2234 21.14                             170   -0.6810 24.4 197 
 BAR2 EZ I        2234 24.33         8.2 0.24            168           24.4 197 
 BRR  HZ EP       2234  8.33                             152    0.5310 73.7 297 
 BRR  HZ I        2234  9.81        10.1 0.12            150           73.7 297 
 BRR  HN ES       2234 25.47                             152    0.8010 73.7 297 
 SPBC HZ EP       2234 15.32                             129    0.19 9  165 220 
 SPBC HN ES       2234 37.41                             129   -0.30 9  165 220 
 SPBC HZ I        2234 40.78         9.6 0.10            129            165 220 
 ZAR  HZ EP       2234 18.92                             123   -0.18 8  207 292 
 ZAR  HE ES       2234 44.57                             123   -0.21 8  207 292 
 ZAR  HZ I        2234 50.77         5.6 0.22            122            207 292 
 SML  HZ EP       2234 22.91                             118   -0.17 8  245 335 
 SML  HN ES       2234 51.30                             118   -0.56 8  245 335 
                                                                                
