 2013  917 2204 43.9 L   6.388 -73.615113.2  RSN  5 0.5 1.6LRSN                1
 GAP=144        1.12       6.6     4.4  9.9 -0.2971E+01  0.1164E+02 -0.1752E+01E
 Epicentro: SANTA HELENA DEL OPON - SANTANDER                                  3
 ACTION:UPD 13-10-22 09:23 OP:ep   STATUS:               ID:20130917220443 L   I
 OLDACT:UP  13-09-17 22:28 OP:cam  STATUS:               ID:20130917215959     3
 OLDACT:REG 13-09-17 22:06 OP:cam  STATUS:               ID:20130917215959     3
 2013-09-17-2159-59M.COL___269                                                 6
 STAT SP IPHASW D HRMM SECON CODA AMPLIT PERI AZIMU VELO AIN AR TRES W  DIS CAZ7
 BAR2 SZ EP       22 5  1.33                             153    0.5010 52.9  65 
 BAR2 SZ ES   1   22 5 14.61                             153    0.57 7 52.9  65 
 BAR2 SZ I        22 5 15.67        11.3 0.38            157           52.9  65 
 RUS  HZ EP       22 5  2.61                             142   -0.3710 80.4 133 
 RUS  HN ES       22 5 17.62                             142   -0.2610 80.4 133 
 PTB  HZ EP       22 5  3.10                             137   -0.3410 94.6 280 
 PTB  HN ES       22 5 18.26                             137   -0.4210 94.6 280 
 PTB  HZ I        22 5 21.05         7.5 0.10            139           94.6 280 
 SPBC HZ EP   1   22 5  2.98                             137   -0.66 7 95.8 212 
 SPBC HE ES       22 5 19.05                             137   -0.0010 95.8 212 
 SPBC HZ I        22 5 21.45         7.0 0.18            139           95.8 212 
 NOR  HZ EP       22 5 10.78                             120    0.40 9  166 237 
 NOR  HN ES       22 5 31.78                             120    0.75 9  166 237 
 NOR  HZ I        22 5 32.96         5.7 0.56            122            166 237 
                                                                                
