 2012 1217 2127  4.8 L   6.770 -73.140146.5  RSN  5 0.3 1.5LRSN                1
 GAP=139        0.85       4.7     4.5  7.7 -0.3352E+01  0.1118E+01  0.5567E+01E
 Epicentro: LOS SANTOS - SANTANDER                                             3
 ACTION:UPD 13-01-04 14:28 OP:ep   STATUS:               ID:20121217212704 L   I
 2012-12-17-2120-00M.COL___242                                                 6
 STAT SP IPHASW D HRMM SECON CODA AMPLIT PERI AZIMU VELO AIN AR TRES W  DIS CAZ7
 GIR2 SZ EP       2127 24.41                             166   -0.2010 34.6 350 
 BRR  HN ES       2127 43.21                             152    0.4610 73.3 301 
 PAM  SZ EP       2127 27.44                             150    0.2610 79.6  38 
 PAM  SZ I        2127 27.63         9.4 0.20                          79.6  38 
 PAM  SN ES       2127 44.32                             150   -0.3510 79.6  38 
 RUS  HZ EP       2127 28.78                             145    0.4410 97.3 176 
 RUS  HN ES       2127 46.59                             145   -0.1510 97.3 176 
 RUS  HN I        2127 52.58         1.8 0.28                          97.3 176 
 PTB  HZ EP       2127 31.38                             132   -0.40 9  148 260 
 PTB  HN ES       2127 52.73                             132   -0.13 9  148 260 
 PTB  HN I        2127 56.22         5.4 0.44                           148 260 
                                                                                
