 2010 1117 2046  3.0 L   6.804 -73.121139.8  RSN 13 0.5 2.6LRSN                1
 GAP=179        1.03       5.1     7.9  6.7 -0.2401E+02  0.7157E+01  0.2017E+01E
 Epicentro: LOS SANTOS - SANTANDER                                             3
 ACTION:UP  10-12-17 16:53 OP:REBC STATUS:               ID:20101117204603 L   I
 2010-11-17-2043-20S.COL___128                                                 6
 STAT SP IPHASW D HRMM SECON CODA AMPLIT PERI AZIMU VELO SNR AR TRES W  DIS CAZ7
 BTL  SZ EP       2046 22.13                             171     0.310   21 308 
 BAR2 SZ EP       2046 22.07                             170     0.210   24 196 
 BAR2 SZ I        2046 22.66        92.3 0.24                            24 196 
 BAR2 SZ ES       2046 36.58                             170    -0.110   24 196 
 GIR2 SZ EP   2   2046 22.07                             167     0.1 5   31 345 
 BRR  HZ IP     C 2046 23.82                             151     0.210   73 297 
 BRR  HZ I        2046 24.09       145.9 0.14                            73 297 
 BRR  HE ES   1   2046 39.74                             151     0.0 7   73 297 
 GUE  SZ EP       2046 27.85                             138     0.810  116  11 
 GRA  SZ EP       2046 26.72                             136    -0.910  125  16 
 GRA  SZ I        2046 27.91        37.2 0.27                           125  16 
 GRA  SZ ES   1   2046 45.96                             136    -0.8 7  125  16 
 OCA  SZ EP       2046 30.97                             128     0.2 9  160 352 
 OCA  SZ ES   2   2046 53.27                             128     0.7 5  160 352 
 OCA  SZ I        2046 57.15        56.9 0.23                           160 352 
 NOR  SZ EP       2046 38.16                             117    -0.5 8  237 235 
 NOR  SE ES   1   2047  6.52                             117     0.0 6  237 235 
 CHI  HZ EP   1   2046 40.56                             116     0.1 6  250 196 
 CHI  HE ES   2   2047 10.02                             116     0.3 4  250 196 
 CHI  HZ I        2047 14.68        16.0 0.22                           250 196 
 HEL  HZ EP   2   2046 43.29                             113     0.1 4  275 256 
 HEL  HN ES   2   2047 13.93                             113    -0.6 4  275 256 
 HEL  HZ I        2047 20.49        34.0 0.34                           275 256 
 RREF HZ EP   1   2046 48.53                             110    -0.6 5  324 230 
 RREF HE ES   2   2047 25.08                             110    -0.1 3  324 230 
 RREF HZ I        2047 34.01        29.1 0.23                           324 230 
 TOL  SZ EP   2   2046 52.02                             108     0.8 3  346 225 
 PRA  HZ EP   1   2046 56.42                             105    -0.1 4  394 210 
 PRA  HN ES   2   2047 38.10                             105    -0.1 3  394 210 
                                                                                
