 2015 1117 2008 27.1 L   6.737 -73.175136.4  RSN  9 0.4 1.9LRSN                1
 GAP=136        0.98       3.4     4.3  6.8 -0.9938E+00  0.1165E+02  0.9958E+00E
 Epicentro: VILLANUEVA - SANTANDER                                             3
 ACTION:UPD 15-12-28 16:11 OP:cam  STATUS:               ID:20151117200827 L   I
 OLDACT:REG 15-11-18 03:30 OP:cara STATUS:               ID:20151117195752     3
 2015-11-17-1957-52M.COL___310                                                 6
 STAT SP IPHASW D HRMM SECON CODA AMPLIT PERI AZIMU VELO AIN AR TRES W  DIS CAZ7
 BAR2 EZ EP     D 20 8 45.98                             173    0.4910 16.0 183 
 BAR2 EZ ES       20 8 59.52                             173   -0.3010 16.0 183 
 BAR2 EZ I        20 9  2.22        17.2 0.18            171           16.0 183 
 BRR  HZ EP       20 8 47.76                             150    0.4510 72.1 305 
 BRR  HE ES       20 9  3.38                             150    0.3110 72.1 305 
 BRR  HZ I        20 9  7.99        24.0 0.36            148           72.1 305 
 PAM  EZ EP       20 8 48.79                             147   -0.0410 84.8  38 
 PAM  EN ES       20 9  5.67                             147   -0.1010 84.8  38 
 PAM  EZ I        20 9  8.16        12.3 0.40            152           84.8  38 
 RUS  HZ EP       20 8 49.81                             144    0.3410 93.9 174 
 RUS  HN ES       20 9  6.50                             144   -0.4010 93.9 174 
 RUS  HZ I        20 9  9.30         5.5 0.20            147           93.9 174 
 SPBC HN ES   4   20 9 16.61                             128    1.30 0  156 220 
 SPBC HZ I        20 9 19.82         9.1 0.10            130            156 220 
 ZAR  HE ES       20 9 23.97                             120    0.20 9  204 294 
 ZAR  HZ I        20 9 29.83        11.3 0.22            121            204 294 
 NOR  HZ EP       20 9  1.07                             117   -0.52 8  228 235 
 NOR  HE ES       20 9 28.74                             117    0.25 8  228 235 
 NOR  HZ I        20 9 36.76         5.2 0.22            119            228 235 
 SML  HE ES       20 9 31.58                             115   -0.82 8  249 337 
 SML  HZ I        20 9 36.73        10.2 0.26            117            249 337 
 GUY2CHE ES       20 9 42.24                             111   -0.41 7  295 236 
                                                                                
