 2016  417 2007 10.2 L   6.325 -73.579116.0  RSN  9 0.5 2.0LRSN                1
 GAP= 88        1.19       4.6     4.2  8.7 -0.7710E+01  0.1974E+02 -0.1322E+02E
 Epicentro: SANTA HELENA DEL OPON - SANTANDER                                  3
 ACTION:UPD 16-05-05 14:22 OP:rebc STATUS:               ID:20160417200710 L   I
 OLDACT:ARG 16-04-18 14:38 OP:cara STATUS:               ID:20160417195746     3
 2016-04-17-1957-46M.COL___307                                                 6
 STAT SP IPHASW D HRMM SECON CODA AMPLIT PERI AZIMU VELO AIN AR TRES W  DIS CAZ7
 BAR2 EZ IP     D 20 7 27.69                             154    0.2310 52.9  56 
 BAR2 EZ ES       20 7 41.10                             154    0.1810 52.9  56 
 BAR2 EZ I        20 7 42.07        31.4 0.34            158           52.9  56 
 RUS  HZ EP       20 7 28.97                             146   -0.0810 72.8 131 
 RUS  HE ES       20 7 43.51                             146   -0.2210 72.8 131 
 RUS  HZ I        20 7 44.98        11.6 0.12            152           72.8 131 
 SPBC HZ EP       20 7 29.94                             139    0.0110 92.3 216 
 SPBC HE ES       20 7 45.53                             139    0.2210 92.3 216 
 SPBC HZ I        20 7 49.18        36.9 0.10            141           92.3 216 
 PTB  HZ EP       20 7 29.47                             136   -0.9810 99.9 284 
 PTB  HN ES   4   20 7 44.59                             136   -1.65 0 99.9 284 
 PTB  HZ I        20 7 46.78        35.3 0.12            137           99.9 284 
 PAM  EZ EP       20 7 35.25                             124   -0.38 9  148  41 
 PAM  EE ES       20 7 55.69                             124    0.24 9  148  41 
 PAM  EZ I        20 8  0.09        10.9 0.50            128            148  41 
 NOR  HZ EP       20 7 36.27                             121   -0.57 9  166 240 
 NOR  HN ES       20 7 57.90                             121    0.29 9  166 240 
 NOR  HZ I        20 8  2.64        16.6 0.18            123            166 240 
 ZAR  HZ EP       20 7 39.61                             117    0.09 9  191 312 
 ZAR  HN ES       20 8  2.65                             117    0.27 9  191 312 
 ZAR  HZ I        20 8  6.82        10.4 0.26            119            191 312 
 HEL  HZ EP       20 7 43.70                             114    0.98 8  216 266 
 HEL  HE ES       20 8  7.42                             114   -0.66 8  216 266 
 HEL  HZ I        20 8 15.19         5.2 0.54            116            216 266 
 GUY2CHZ EP       20 7 45.43                             112    0.77 8  232 238 
 GUY2CHN ES   4   20 8 14.04                             112    2.51 0  232 238 
 GUY2CHZ I        20 8 19.58         8.4 0.50                           232 238 
                                                                                
