 2012  817 2311 12.2 L   6.689 -73.173154.2  RSN  5 0.2 1.5LRSN                1
 GAP=226        0.37       6.8     5.1  9.1  0.1805E+02 -0.6106E+01 -0.4131E+02E
 Epicentro: VILLANUEVA - SANTANDER                                             3
 ACTION:UPD 12-09-10 11:56 OP:ep   STATUS:               ID:20120817231112 L   I
 2012-08-17-2310-00M.COL___217                                                 6
 STAT SP IPHASW D HRMM SECON CODA AMPLIT PERI AZIMU VELO AIN AR TRES W  DIS CAZ7
 BAR2 SZ EP   1   2311 32.69                             176    0.07 7 10.8 185 
 BAR2 SZ ES   2   2311 48.65                             176    0.07 5 10.8 185 
 BAR2 SZ I        2311 49.80         9.3 0.53                          10.8 185 
 BRR  HZ EP   1   2311 34.52                             152    0.08 7 75.3 308 
 BRR  HZ I        2311 34.85         8.6 0.14                          75.3 308 
 RUS  HN ES   1   2311 54.36                             149   -0.15 7 88.7 174 
 RUS  HZ I        2311 56.54         1.9 0.37                          88.7 174 
 PTB  HN ES   2   2312  0.86                             135    0.23 5  143 263 
 ZAR  HE ES   2   2312 10.95                             124   -0.34 4  206 296 
 ZAR  HZ I        2312 16.79         3.7 0.27                           206 296 
                                                                                
