 2015 1217 2304 50.8 L   6.796 -73.162142.5  RSN  8 0.4 1.6LRSN                1
 GAP=135        0.95       3.4     4.8  6.3 -0.1148E+01  0.5448E+01  0.4196E+01E
 Epicentro: LOS SANTOS - SANTANDER                                             3
 ACTION:UPD 16-02-04 15:05 OP:cam  STATUS:               ID:20151217230450 L   I
 OLDACT:DUP 15-12-18 07:48 OP:mh   STATUS:               ID:20151217225750d    3
 OLDACT:UP  15-12-18 07:47 OP:mh   STATUS:               ID:20151217225749     3
 OLDACT:UP  15-12-18 07:46 OP:mh   STATUS:               ID:20151217225749     3
 OLDACT:UP  15-12-18 07:46 OP:mh   STATUS:               ID:20151217225749     3
 OLDACT:REG 15-12-18 03:47 OP:mh   STATUS:               ID:20151217225749     3
 2015-12-17-2257-49M.COL___340                                                 6
 STAT SP IPHASW D HRMM SECON CODA AMPLIT PERI AZIMU VELO AIN AR TRES W  DIS CAZ7
 BAR2 EZ EP   1   23 5 10.11                             171    0.10 7 22.6 186 
 BAR2 EZ ES       23 5 24.96                             171   -0.0410 22.6 186 
 BAR2 EZ I        23 5 27.84        11.1 0.30            169           22.6 186 
 BRR  HZ EP       23 5 12.16                             152    0.6610 69.8 300 
 BRR  HN ES       23 5 28.22                             152    0.5610 69.8 300 
 BRR  HZ I        23 5 30.29        16.6 0.30            154           69.8 300 
 PAM  EZ EP       23 5 12.98                             150    0.2410 78.9  40 
 PAM  EE ES       23 5 29.44                             150   -0.4310 78.9  40 
 PAM  EZ I        23 5 32.57         4.5 0.24            153           78.9  40 
 RUS  HZ EP   1   23 5 14.33                             143    0.14 7  100 175 
 RUS  HN ES   1   23 5 32.35                             143   -0.10 7  100 175 
 RUS  HZ I        23 5 34.32         2.9 0.34            144            100 175 
 PTB  HZ EP   1   23 5 16.89                             132   -0.42 7  146 259 
 PTB  HN ES       23 5 37.69                             132   -0.32 9  146 259 
 PTB  HZ I        23 5 41.16         3.2 0.22            133            146 259 
 SML  HN ES       23 5 54.95                             117   -0.63 8  243 336 
 CHI  HZ EP   1   23 5 27.68                             117   -0.52 6  248 195 
 CHI  HN ES       23 5 57.19                             117   -0.20 8  248 195 
 CHI  HZ I        23 6  1.07         2.6 0.48            118            248 195 
 PRA  HZ EP   1   23 5 45.10                             106    1.06 4  391 209 
 PRA  HE ES   1   23 6 25.18                             106   -0.40 4  391 209 
 PRA  HZ I        23 6 32.32         2.2 0.62            107            391 209 
                                                                                
