 2011  918 0814  2.4 L   6.773 -73.108145.3  RSN  7 0.4 1.6LRSN                1
 GAP=143        0.81       5.5     7.2  7.5  0.8575E+01 -0.6289E+01 -0.2630E+01E
 Epicentro: LOS SANTOS - SANTANDER                                             3
 ACTION:UPD 12-07-13 15:58 OP:ep   STATUS:               ID:20110918081402 L   I
 2011-09-18-0800-00M.COL___173                                                 6
 STAT SP IPHASW D HRMM SECON CODA AMPLIT PERI AZIMU VELO AIN AR TRES W  DIS CAZ7
 BAR2 SZ EP        814 21.83                             171   -0.1210 21.6 202 
 BAR2 SZ ES   1    814 36.69                             171   -0.50 7 21.6 202 
 BAR2 SZ I         814 37.97         5.8 0.46                          21.6 202 
 BTL  SZ EP        814 22.01                             170    0.0110 23.9 312 
 GIR2 SZ EP   2    814 22.01                             166   -0.13 5 35.1 344 
 GIR2 SZ ES   2    814 37.37                             166   -0.15 5 35.1 344 
 BRR  HZ EP        814 23.71                             151   -0.0910 76.3 299 
 BRR  HZ I         814 24.02         9.6 0.16                          76.3 299 
 BRR  HN ES   1    814 41.41                             151    0.92 7 76.3 299 
 PAM  SZ EP        814 24.30                             151   -0.2710 77.2  36 
 PAM  SE ES   2    814 42.05                             151    0.20 5 77.2  36 
 RUS  HZ EP        814 26.29                             144    0.4110 97.4 178 
 RUS  HN ES   1    814 44.18                             144   -0.01 7 97.4 178 
 ZAR  HE ES   2    815  0.13                             121   -0.89 4  209 292 
 ZAR  HZ I         815  6.92         3.9 0.30                           209 292 
                                                                                
