 2010 1218 0103 48.3 L   6.872 -73.250121.1  RSN  7 0.2 1.6LRSN                1
 GAP=143        0.53       3.1     6.7  4.6  0.7165E+01 -0.7902E+01 -0.2145E+01E
 Epicentro: BETULIA - SANTANDER                                                3
 ACTION:UP  11-01-14 15:25 OP:pat  STATUS:               ID:20101218010348 L   I
 2010-12-18-0100-32S.COL___136                                                 6
 STAT SP IPHASW D HRMM SECON CODA AMPLIT PERI AZIMU VELO SNR AR TRES W  DIS CAZ7
 BTL  SZ IP        1 4  4.94                             177     0.210    5 339 
 BTL  SZ ES   1    1 4 17.46                             177     0.0 7    5 339 
 BAR2 SZ IP        1 4  5.44                             164     0.210   32 167 
 BAR2 SZ ES   2    1 4 18.19                             164    -0.2 5   32 167 
 BAR2 SZ I         1 4 19.92        20.3 0.25                            32 167 
 BRR  HZ EP        1 4  5.83                             153    -0.210   57 297 
 BRR  HN ES   1    1 4 19.98                             153     0.2 7   57 297 
 BRR  HZ I         1 4 21.27        12.4 0.10                            57 297 
 RUS  HZ EP        1 4 10.40                             135    -0.110  110 170 
 RUS  HN ES   2    1 4 27.50                             135    -0.3 5  110 170 
 RUS  HZ I         1 4 29.11         3.3 0.33                           110 170 
 GRA  SZ ES   3    1 4 28.86                             132    -0.1 2  122  24 
 GRA  SZ I         1 4 32.62         4.6 0.23                           122  24 
 OCA  SZ EP        1 4 13.96                             125     0.0 9  151 357 
 OCA  SZ ES   2    1 4 33.31                             125    -0.6 5  151 357 
 OCA  SZ I         1 4 36.48         7.8 0.64                           151 357 
 NOR  SN ES   3    1 4 48.34                             113    -0.4 2  230 231 
                                                                                
