 2014  418 0628  8.5 L   6.806 -73.153140.7  RSN  5 0.5 1.5LRSN                1
 GAP=182        1.22       4.8     6.9 12.9  0.5044E+01  0.1061E+01 -0.2513E+02E
 Epicentro: LOS SANTOS - SANTANDER                                             3
 ACTION:UPD 14-05-13 23:09 OP:nd   STATUS:               ID:20140418062808 L   I
 OLDACT:REG 14-04-18 12:35 OP:nd   STATUS:               ID:20140418062039     3
 2014-04-18-0620-39M.COL___236                                                 6
 STAT SP IPHASW D HRMM SECON CODA AMPLIT PERI AZIMU VELO AIN AR TRES W  DIS CAZ7
 RUS  HZ EP        628 32.05                             142    0.2010  101 176 
 RUS  HN ES        628 50.07                             142    0.0410  101 176 
 RUS  HZ I         628 51.11         2.8 0.24            151            101 176 
 PTB  HZ EP        628 34.83                             131   -0.20 9  147 259 
 PTB  HN ES        628 55.00                             131   -0.70 9  147 259 
 PTB  HZ I         628 57.01         2.7 0.34            135            147 259 
 OCA  HZ EP        628 35.96                             128   -0.43 9  160 353 
 OCA  HN ES        628 58.48                             128    0.37 9  160 353 
 OCA  HZ I         629  4.79         4.7 0.20            131            160 353 
 ZAR  HZ EP        628 41.59                             121    1.04 9  203 292 
 ZAR  HN ES        629  6.10                             121    0.58 9  203 292 
 ZAR  HZ I         629 14.45         3.0 0.34            125            203 292 
 SML  HZ EP        628 44.17                             116   -0.61 8  243 335 
 SML  HN ES        629 12.74                             116   -0.31 8  243 335 
 SML  HZ I         629 19.16         5.2 0.10            120            243 335 
                                                                                
