 2010 1218 0621 40.0 L   7.379 -72.887118.9  RSN  4 0.5 1.5LRSN                1
 GAP=227        1.40      15.0    29.4 28.5  0.9486E+02 -0.3946E+03  0.4327E+02E
 Epicentro: CALIFORNIA - SANTANDER                                             3
 ACTION:UP  11-01-14 15:25 OP:pat  STATUS:               ID:20101218062140 L   I
 2010-12-18-0619-53S.COL___136                                                 6
 STAT SP IPHASW D HRMM SECON CODA AMPLIT PERI AZIMU VELO SNR AR TRES W  DIS CAZ7
 BTL  SZ IP        621 59.11                             149     0.710   66 220 
 BTL  SZ ES   2    622 12.88                             149     0.2 5   66 220 
 BAR2 SZ IP        621 59.57                             139    -0.710   93 201 
 BAR2 SZ I         621 59.80         5.8 0.12                            93 201 
 BRR  HZ IP     C  622  0.34                             138     0.110   96 252 
 BRR  HZ I         622  0.59         6.3 0.20                            96 252 
 BRR  HN ES   2    622 15.45                             138    -0.5 5   96 252 
 OCA  SZ ES   2    622 17.44                             135    -0.4 5  106 333 
 OCA  SZ I         622 20.87        10.1 0.16                           106 333 
                                                                                
