 2011  818 0930 11.6 L   6.857 -72.933142.8  RSN  4 0.3 1.8LRSN                1
 GAP=204        0.56       3.8    10.1  7.1  0.1948E+02 -0.3449E+02 -0.1206E+02E
 Epicentro: GUACA - SANTANDER                                                  3
 ACTION:UPD 12-07-13 15:52 OP:ep   STATUS:               ID:20110818093011 L   I
 2011-08-18-0925-04S.COL___149                                                 6
 STAT SP IPHASW D HRMM SECON CODA AMPLIT PERI AZIMU VELO AIN AR TRES W  DIS CAZ7
 BAR2 SZ EP   1    930 31.44                             163    0.13 7 40.2 223 
 BAR2 SZ ES   1    930 46.53                             163   -0.18 7 40.2 223 
 BAR2 SZ I         930 47.96        14.6 0.31                          40.2 223 
 BRR  HZ EP        930 33.68                             146    0.0710 90.4 288 
 BRR  HZ I         930 33.93        20.4 0.12                          90.4 288 
 BRR  HN ES   1    930 50.74                             146   -0.06 7 90.4 288 
 RUS  HZ EP   1    930 35.81                             141    0.22 7  108 189 
 RUS  HN ES   1    930 54.27                             141   -0.05 7  108 189 
 RUS  HZ I         930 55.71         7.7 0.22                           108 189 
 OCA  SZ EP   1    930 38.91                             129   -0.59 7  159 344 
 OCA  SZ ES   1    931  1.66                             129    0.38 7  159 344 
 OCA  SZ I         931  8.88         4.9 0.22                           159 344 
                                                                                
