 2010  618 0628 49.7 L   6.784 -73.097148.0  RSN 12 0.4 3.5LRSN                1
 GAP=130        1.09       4.0     6.5  6.6 -0.1187E+02  0.2357E+01  0.3962E+01E
 Epicentro: LOS SANTOS - SANTANDER                                             3
 ACTION:UP  10-08-24 10:11 OP:vdl  STATUS:               ID:20100618062849 L   I
 2010-06-18-0627-16S.COL___115                                                 6
 STAT SP IPHASW D HRMM SECON CODA AMPLIT PERI AZIMU VELO SNR AR TRES W  DIS CAZ7
 BAR2 SZ IP        629  9.51                             171    -0.110   23 204 
 BAR2 SZ ES   1    629 25.01                             171    -0.1 7   23 204 
 BRR  HZ IP     C  629 11.44                             151     0.010   77 298 
 BRR  HN ES   1    629 28.78                             151     0.4 7   77 298 
 BRR  HZ I         629 31.67       564.8 0.29                            77 298 
 BTN  SZ IP        629 11.73                             150    -0.410   82 360 
 BTN  SZ ES   1    629 29.08                             150    -0.6 7   82 360 
 RUS  HZ IP     D  629 13.33                             145    -0.210   99 179 
 RUS  HN ES   1    629 32.30                             145     0.2 7   99 179 
 RUS  HZ I         629 33.16       331.4 0.31                            99 179 
 BRI  SZ IP        629 14.05                             142     0.310  108  18 
 BRI  SZ ES   1    629 32.32                             142    -0.3 7  108  18 
 GUE  SZ IP        629 15.54                             140     0.910  117   9 
 GRA  SZ EP        629 15.34                             137     0.210  126  15 
 GRA  SZ ES   1    629 34.95                             137    -0.1 7  126  15 
 CHI  HZ IP     D  629 27.16                             117    -0.3 8  248 196 
 CHI  HN ES   1    629 56.33                             117    -0.6 6  248 196 
 CHI  HZ I         630  5.23       235.3 0.38                           248 196 
 ROSC BZ IP     D  629 28.99                             117     0.9 8  254 212 
 ROSC BE ES   1    629 58.52                             117     0.5 6  254 212 
 ROSC BZ I         630  7.30       327.8 0.58                           254 212 
 HEL  HZ EP   1    629 30.31                             115    -0.2 6  277 256 
 HEL  HN ES   1    630  2.11                             115    -0.3 6  277 256 
 HEL  HZ I         630  7.86       262.2 0.25                           277 256 
 DBB  SZ EP        629 37.21                             109    -0.7 7  345 274 
 SDV  BZ IP        629 38.90                             109    -0.6 6  357  49 
 SDV  BZ I         630 18.43        70.9 0.54                           357  49 
                                                                                
