 2013  718 0430 42.0 L   6.798 -73.183138.0  RSN  8 0.3 1.9LRSN                1
 GAP=176        0.61       3.0     4.1  5.7 -0.3084E+00  0.1792E+01  0.2992E+01E
 Epicentro: LOS SANTOS - SANTANDER                                             3
 ACTION:UPD 13-08-12 10:38 OP:ep   STATUS:               ID:20130718042959 L   I
 OLDACT:UPD 13-07-18 09:48 OP:stll STATUS:               ID:20130718042959 L   3
 2013-07-18-0429-59M.COL___267                                                 6
 STAT SP IPHASW D HRMM SECON CODA AMPLIT PERI AZIMU VELO AIN AR TRES W  DIS CAZ7
 BAR2 SZ ES   1    431 15.69                             170    0.46 7 22.7 180 
 BAR2 SZ I         431 17.41         5.4 0.38            169           22.7 180 
 GIR2 SZ EP   1    431  0.74                             167    0.02 7 31.1 358 
 BRR  HN ES        431 17.29                             152   -0.4910 67.7 300 
 BRR  HN I         431 20.07        14.1 0.22            136           67.7 300 
 RUS  HZ EP   1    431  4.87                             142   -0.11 7  101 174 
 RUS  HN ES   1    431 22.70                             142   -0.22 7  101 174 
 RUS  HN I         431 24.78        10.1 0.40            131            101 174 
 PTB  HZ EP   1    431  8.02                             131    0.08 7  144 259 
 PTB  HN ES        431 28.43                             131    0.23 9  144 259 
 PTB  HN I         431 33.97        12.7 0.32            118            144 259 
 SPBC HZ EP   1    431  9.56                             128   -0.06 7  160 218 
 SPBC HN ES   1    431 31.38                             128    0.19 7  160 218 
 OCA  HN ES   1    431 31.60                             128    0.32 7  160 355 
 OCA  HN I         431 34.10        18.7 0.26            109            160 355 
 NOR  HN ES   2    431 43.88                             117   -0.24 4  231 234 
 NOR  HN I         431 50.55        11.4 0.16            106            231 234 
                                                                                
