 2011  618 0145 46.7 L   6.771 -73.105149.5  RSN 16 0.3 2.5LRSN                1
 GAP=143        0.47       2.0     3.5  3.8 -0.3256E+01  0.3773E+00  0.2631E+01E
 Epicentro: LOS SANTOS - SANTANDER                                             3
 ACTION:UP  11-07-14 19:06 OP:ep   STATUS:               ID:20110618014546 L   I
 2011-06-18-0143-22S.COL___135                                                 6
 STAT SP IPHASW D HRMM SECON CODA AMPLIT PERI AZIMU VELO SNR AR TRES W  DIS CAZ7
 BAR2 SZ EP   1    146  6.83                             171     0.0 7   22 203 
 BAR2 SZ I         146 25.38        96.5 0.50                            22 203 
 BTL  SZ EP        146  6.97                             170     0.110   24 312 
 GIR2 SZ EP   1    146  6.90                             166    -0.1 7   35 344 
 GIR2 SZ ES   2    146 22.61                             166    -0.1 5   35 344 
 BRR  HZ IP     C  146  8.72                             151     0.110   77 299 
 BRR  HE ES   1    146 26.01                             151     0.3 7   77 299 
 BRR  HZ I         146 30.03        82.5 0.15                            77 299 
 PAM  SZ EP   2    146  8.98                             151    -0.4 5   77  35 
 PAM  SE ES   2    146 26.54                             151    -0.4 5   77  35 
 RUS  HZ EP   1    146 10.63                             145     0.0 7   97 179 
 RUS  HN ES   2    146 29.13                             145    -0.1 5   97 179 
 RUS  HZ I         146 31.18        49.0 0.28                            97 179 
 BRI  SZ EP   1    146 11.30                             142     0.2 7  110  18 
 BRI  SZ ES   2    146 30.30                             142     0.2 5  110  18 
 BRI  SZ I         146 35.50        24.0 0.46                           110  18 
 GRA  SZ IP        146 12.57                             137     0.110  128  15 
 GRA  SZ ES   1    146 32.30                             137    -0.2 7  128  15 
 GRA  SZ I         146 37.16        36.4 0.26                           128  15 
 OCA  SZ EP   1    146 15.95                             130     0.3 7  164 352 
 OCA  SZ ES   2    146 37.50                             130    -0.8 5  164 352 
 OCA  SZ I         146 42.59        38.2 0.40                           164 352 
 NOR  SZ EP   1    146 22.62                             119    -0.3 6  237 236 
 NOR  SN ES   1    146 50.70                             119    -0.4 6  237 236 
 CHI  HZ EP   1    146 24.56                             118     0.1 6  247 196 
 CHI  HE ES   1    146 53.85                             118     0.0 6  247 196 
 CHI  HZ I         147  0.10        19.8 0.44                           247 196 
 ROSC BZ EP   2    146 25.04                             117     0.0 4  252 212 
 ROSC BN ES   2    146 55.03                             117     0.1 4  252 212 
 ROSC BZ I         147  2.62        39.1 0.34                           252 212 
 VIL  SZ EP   2    146 30.16                             113     0.1 4  301 193 
 VIL  SE ES   2    147  4.36                             113     0.5 4  301 193 
 VIL  SZ I         147 17.94        13.1 0.27                           301 193 
 DBB  SZ EP   1    146 34.81                             110    -0.1 5  344 275 
 PRA  HZ EP   1    146 40.46                             107     0.1 4  391 210 
 PRA  HE ES   2    147 22.09                             107     0.0 3  391 210 
 SJA  SZ EP   1    146 40.69                             107    -0.5 4  398 194 
 SJA  SZ ES   2    147 23.20                             107    -0.4 3  398 194 
                                                                                
