 2013  718 0547 43.5 L   6.807 -73.147149.0  RSN 14 0.4 2.8LRSN                1
 GAP=113        0.93       2.9     3.4  5.6 -0.4861E+00  0.3321E+01  0.1632E+01E
 Epicentro: LOS SANTOS - SANTANDER                                             3
 ACTION:UPD 13-08-12 10:38 OP:ep   STATUS:               ID:20130718054743 L   I
 OLDACT:UP  13-07-18 13:20 OP:mh   STATUS:               ID:20130718054648     3
 OLDACT:UP  13-07-18 13:18 OP:mh   STATUS:               ID:20130718054648     3
 OLDACT:REG 13-07-18 13:08 OP:mh   STATUS:               ID:20130718054648     3
 2013-07-18-0546-48M.COL___230                                                 6
 STAT SP IPHASW D HRMM SECON CODA AMPLIT PERI AZIMU VELO AIN AR TRES W  DIS CAZ7
 BAR2 SZ EP        548  3.51                             170   -0.0510 24.1 189 
 BAR2 SZ ES   1    548 18.66                             170   -0.52 7 24.1 189 
 BAR2 SZ I         548 21.14        65.3 0.36            172           24.1 189 
 GIR2 SZ EP   1    548  3.55                             168   -0.01 7 30.5 350 
 GIR2 SZ I         548 20.50        42.5 0.36            164           30.5 350 
 BRR  HZ EP        548  5.35                             153    0.3610 70.7 298 
 BRR  HN ES        548 22.48                             153    0.7410 70.7 298 
 BRR  HN I         548 23.52       161.7 0.24            149           70.7 298 
 PAM  SZ EP        548  6.28                             152    0.2310 76.9  40 
 PAM  SN ES        548 23.48                             152   -0.1410 76.9  40 
 PAM  SN I         548 24.79        97.5 0.44            150           76.9  40 
 RUS  HZ EP   1    548  7.43                             144   -0.22 7  101 176 
 RUS  HN ES   1    548 26.40                             144   -0.07 7  101 176 
 RUS  HN I         548 27.76        50.9 0.36            146            101 176 
 PTB  HZ EP   1    548 10.04                             133   -0.72 7  148 259 
 PTB  HN ES        548 31.22                             133   -0.78 9  148 259 
 PTB  HN I         548 37.02       226.9 0.48            130            148 259 
 OCA  HZ EP   1    548 11.52                             130   -0.49 7  159 353 
 OCA  HN ES        548 34.44                             130    0.21 9  159 353 
 OCA  HN I         548 38.83       185.8 0.42            128            159 353 
 SPBC HZ EP        548 12.36                             130    0.04 9  164 219 
 SPBC HN ES   1    548 35.18                             130    0.40 7  164 219 
 YOP  SZ EP   1    548 14.18                             127    0.31 7  180 153 
 YOP  SN ES   1    548 37.47                             127   -0.08 7  180 153 
 ZAR  HZ EP   1    548 16.21                             123    0.08 6  204 292 
 ZAR  HE ES        548 41.86                             123    0.29 9  204 292 
 ZAR  HZ I         548 47.61        62.7 0.34            121            204 292 
 NOR  HZ EP   1    548 19.55                             119    0.07 6  235 234 
 NOR  HN ES        548 47.31                             119   -0.21 8  235 234 
 NOR  HN I         548 53.88        85.9 0.16            118            235 234 
 SML  HZ EP   1    548 19.81                             118   -0.44 6  243 335 
 SML  HN ES   1    548 48.05                             118   -0.84 6  243 335 
 SML  HZ I         548 58.79        35.3 0.30            116            243 335 
 ROSC BZ EP   4    548 23.40                             117    1.52 0  253 211 
 ROSC BN ES   4    548 53.80                             117    1.99 0  253 211 
 HEL  HZ EP   4    548 25.38                             115    1.47 0  272 256 
 HEL  HN ES   2    548 56.06                             115    0.65 4  272 256 
 HEL  HN I         549  2.59        27.7 0.26            114            272 256 
 RREF HZ EP   1    548 31.06                             111    1.21 5  322 229 
                                                                                
