 2014  218 0917 40.7 L   6.804 -73.148148.2  RSN  7 0.3 1.6LRSN                1
 GAP=136        0.73       3.7     3.5  5.6 -0.1598E+01  0.7984E+01 -0.1164E+01E
 Epicentro: LOS SANTOS - SANTANDER                                             3
 ACTION:UPD 14-03-10 08:11 OP:ep   STATUS:               ID:20140218091740 L   I
 OLDACT:UP  14-02-18 11:30 OP:cam  STATUS:               ID:20140218091000     3
 OLDACT:UP  14-02-18 11:30 OP:cam  STATUS:               ID:20140218091000     3
 OLDACT:REG 14-02-18 10:17 OP:fm   STATUS:               ID:20140218091000     3
 2014-02-18-0910-00M.COL___212                                                 6
 STAT SP IPHASW D HRMM SECON CODA AMPLIT PERI AZIMU VELO AIN AR TRES W  DIS CAZ7
 BAR2 SZ EP   1    918  0.41                             170   -0.24 7 23.7 189 
 BAR2 SZ ES        918 16.34                             170    0.1510 23.7 189 
 BAR2 SZ I         918 19.57        15.2 0.40            171           23.7 189 
 PAM  SZ EP        918  3.28                             151    0.1010 77.2  40 
 PAM  SN ES        918 20.74                             151    0.0410 77.2  40 
 PAM  SZ I         918 22.79         5.3 0.48            155           77.2  40 
 RUS  HZ EP   1    918  4.68                             144   -0.06 7  101 176 
 RUS  HN ES        918 23.42                             144   -0.0510  101 176 
 RUS  HZ I         918 25.98         3.4 0.24            148            101 176 
 PTB  HZ EP   1    918  7.44                             132   -0.43 7  148 259 
 PTB  HN ES        918 28.42                             132   -0.63 9  148 259 
 PTB  HZ I         918 30.65         5.4 0.36            134            148 259 
 SPBC HZ EP   1    918  9.53                             129    0.11 7  163 219 
 ZAR  HZ EP   1    918 13.38                             123    0.10 6  204 292 
 ZAR  HN ES        918 38.95                             123    0.26 9  204 292 
 ZAR  HZ I         918 46.03         4.5 0.44            124            204 292 
 NOR  HZ EP   1    918 16.72                             119    0.13 6  235 234 
 NOR  HE ES   1    918 45.54                             119    0.97 6  235 234 
 NOR  HZ I         918 48.22         5.0 0.18            121            235 234 
                                                                                
