 2017  818 0605 11.6 L   6.797 -73.108149.1  RSN 13 0.3 1.8LRSN                1
 GAP=116        0.80       2.8     3.2  4.7  0.1743E+01  0.1062E+01  0.1454E+01E
 Epicentro: LOS SANTOS - SANTANDER                                             3
 ACTION:UPD 17-09-04 20:21 OP:rebc STATUS:               ID:20170818060511 L   I
 OLDACT:REG 17-08-18 13:37 OP:lv   STATUS:               ID:20170818055739     3
 2017-08-18-0558-00M.COL___407                                                 6
 STAT SP IPHASW D HRMM SECON CODA AMPLIT PERI AZIMU VELO AIN AR TRES W  DIS CAZ7
 BAR2 EZ EP        6 5 31.54                             170   -0.1510 24.1 200 
 BAR2 EZ ES        6 5 47.29                             170   -0.0410 24.1 200 
 BAR2 EZ I         6 5 48.28        16.8 0.15            175           24.1 200 
 PAM  EN ES   4    6 5 49.77                             152   -1.81 0 75.0  37 
 PAM  EZ I         6 5 53.78         9.1 0.46            140           75.0  37 
 BRR  HZ IP     D  6 5 33.37                             152   -0.0010 75.0 297 
 BRR  HN ES        6 5 50.59                             152    0.2710 75.0 297 
 BRR  HZ I         6 5 51.78        11.3 0.16            144           75.0 297 
 PAM  EZ EP        6 5 34.53                             152    0.4510 75.0  37 
 RUS  HZ EP        6 5 35.72                             145    0.0310  100 178 
 RUS  HN ES        6 5 54.21                             145   -0.2310  100 178 
 RUS  HZ I         6 5 55.63         9.7 0.26            141            100 178 
 SPBC HN ES   4    6 6  2.06                             129   -1.18 0  166 220 
 SPBC HZ I         6 6  5.02        16.3 0.29            123            166 220 
 YPLC HZ IP     C  6 5 41.97                             128    0.50 9  175 152 
 YPLC HN ES        6 6  4.35                             128   -0.38 9  175 152 
 YPLC HZ I         6 6  8.77         8.4 0.22            121            175 152 
 ZAR  HE ES        6 6 10.01                             123   -0.50 8  208 292 
 ZAR  HZ I         6 6 15.23         8.3 0.38            114            208 292 
 NOR  HN ES        6 6 16.03                             119   -0.18 8  238 235 
 CHI  HZ EP        6 5 49.61                             118   -0.01 8  249 196 
 CHI  HE ES        6 6 19.56                             118    0.32 8  249 196 
 CHI  HZ I         6 6 25.24         3.2 0.30            112            249 196 
 HEL  HZ EP   4    6 5 53.97                             115    1.50 0  276 256 
 HEL  HE ES        6 6 24.94                             115    0.63 7  276 256 
 HEL  HZ I         6 6 30.67         1.6 0.24            108            276 256 
 GUY2CHZ EP   4    6 5 56.93                             113    1.16 0  304 235 
 GUY2CHN ES   4    6 6 29.04                             113   -1.16 0  304 235 
 GUY2CHZ I         6 6 41.80         2.6 0.44                           304 235 
 PTGC HZ EP   4    6 5 54.64                             112   -0.81 0  307 159 
 PTGC HN ES   4    6 6 27.57                             112   -2.05 0  307 159 
 LL6C HZ EP        6 5 56.92                             111   -0.63 7  325 357 
 LL6C HZ I         6 6 34.27         2.7 0.66            103            325 357 
 PRA  HZ EP        6 6  5.33                             107   -0.16 6  394 210 
 PRA  HE ES        6 6 47.02                             107   -0.48 6  394 210 
 PRA  HZ I         6 6 53.82         3.6 0.36            101            394 210 
                                                                                
