 2011  318 0220 34.1 L   6.786 -73.154149.1  RSN 10 0.4 2.3LRSN                1
 GAP=135        0.84       3.0     6.2  6.5 -0.5548E+01  0.1330E+02  0.2440E+01E
 Epicentro: LOS SANTOS - SANTANDER                                             3
 ACTION:DUP 11-06-16 14:34 OP:jfem STATUS:               ID:20110318022034 L   I
 2011-03-18-0218-52S.COL___135                                                 6
 STAT SP IPHASW D HRMM SECON CODA AMPLIT PERI AZIMU VELO SNR AR TRES W  DIS CAZ7
 BTL  SZ EP        220 53.33                             172    -0.710   19 320 
 BAR2 SZ EP        220 54.07                             171     0.010   22 189 
 BAR2 SZ ES   1    221  9.47                             171    -0.2 7   22 189 
 BAR2 SZ I         221 12.18        45.5 0.30                            22 189 
 RUS  HZ EP   1    220 57.95                             145    -0.1 7   99 175 
 RUS  HE ES   1    221 16.90                             145     0.2 7   99 175 
 RUS  HZ I         221 18.68        16.2 0.39                            99 175 
 GRA  SZ EP        220 59.94                             137     0.210  128  18 
 GRA  SZ ES        221 20.02                             137     0.210  128  18 
 GRA  SZ I         221 22.25        25.9 0.33                           128  18 
 OCA  SZ EP   1    221  2.73                             130     0.0 7  162 354 
 OCA  SZ ES   2    221 25.61                             130     0.4 5  162 354 
 OCA  SZ I         221 29.25        34.2 0.36                           162 354 
 YOP  SZ EP   1    221  4.62                             127     0.4 7  178 153 
 YOP  SN ES   1    221 27.54                             127    -0.3 7  178 153 
 NOR  SZ EP        221  9.64                             119    -0.2 8  233 235 
 NOR  SN ES   1    221 38.07                             119     0.4 6  233 235 
 CHI  HZ EP        221 12.07                             118     0.3 8  247 195 
 CHI  HN ES   1    221 41.88                             118     0.7 6  247 195 
 CHI  HZ I         221 49.84        11.1 0.33                           247 195 
 PRA  HZ EP        221 27.79                             107     0.3 6  390 210 
 PRA  HN ES   1    222  8.37                             107    -0.8 4  390 210 
 SJA  SZ EP   1    221 27.75                             107    -0.8 4  398 193 
 SJA  SZ ES   2    222 11.41                             107     0.4 3  398 193 
 SJA  SZ I         222 22.06        14.8 0.55                           398 193 
                                                                                
