 2014 1218 0634 37.1 L   6.791 -73.175139.5  RSN 14 0.4 1.8LRSN                1
 GAP=133        0.92       2.6     3.4  5.2 -0.1684E+01  0.5485E+01 -0.2192E-01E
 Epicentro: LOS SANTOS - SANTANDER                                             3
 ACTION:UPD 15-02-10 17:04 OP:nd   STATUS:               ID:20141218063437 L   I
 OLDACT:DUP 14-12-18 16:49 OP:fm   STATUS:               ID:20141218062736d    3
 2014-12-18-0627-35M.COL___296                                                 6
 STAT SP IPHASW D HRMM SECON CODA AMPLIT PERI AZIMU VELO AIN AR TRES W  DIS CAZ7
 BAR2 EZ EP        634 55.63                             171   -0.3210 22.0 182 
 BAR2 EZ ES        635 11.14                             171    0.4910 22.0 182 
 BAR2 EZ I         635 13.37        14.8 0.22            170           22.0 182 
 BRR  HZ EP     C  634 57.82                             152    0.3810 68.8 301 
 BRR  HE ES        635 13.69                             152    0.3910 68.8 301 
 BRR  HZ I         635 20.07        12.4 0.40            151           68.8 301 
 PAM  SZ EP        634 58.68                             149   -0.1510 80.2  41 
 PAM  SN ES        635 15.72                             149   -0.0610 80.2  41 
 PAM  SZ I         635 18.19        11.6 0.56            155           80.2  41 
 RUS  HZ EP        635  0.06                             143   -0.1310 99.9 174 
 RUS  HE ES        635 17.84                             143   -0.3610 99.9 174 
 RUS  HZ I         635 20.13         4.2 0.18            147           99.9 174 
 PTB  HZ EP        635  2.87                             131   -0.39 9  144 259 
 PTB  HN ES        635 23.15                             131   -0.50 9  144 259 
 PTB  HZ I         635 31.21        11.5 0.32            132            144 259 
 SPBC HZ EP        635  5.08                             128    0.22 9  160 218 
 SPBC HN ES        635 26.65                             128    0.14 9  160 218 
 SPBC HZ I         635 29.56        12.4 0.20            130            160 218 
 OCA  HZ EP        635  4.91                             128   -0.08 9  161 354 
 OCA  HN ES        635 26.71                             128   -0.03 9  161 354 
 OCA  HZ I         635 31.96         9.8 0.30            131            161 354 
 ZAR  HZ EP        635  8.79                             121   -0.08 9  201 293 
 ZAR  HN ES        635 33.55                             121   -0.10 9  201 293 
 ZAR  HZ I         635 41.03         9.4 0.36            123            201 293 
 NOR  HE ES        635 38.78                             118   -0.67 8  232 234 
 NOR  HZ I         635 45.20         4.9 0.16            120            232 234 
 CHI  HN ES        635 43.73                             116    0.47 8  247 194 
 CHI  HZ I         635 47.37         2.6 0.38            119            247 194 
 HEL  HZ EP        635 17.59                             114    0.96 8  269 256 
 HEL  HN ES        635 47.60                             114    0.15 8  269 256 
 HEL  HZ I         635 54.46         3.9 0.28            116            269 256 
 URE  HZ EP   4    635 20.60                             113    3.02 0  281 292 
 URE  HN ES   4    635 45.76                             113   -3.39 0  281 292 
 URE  HZ I         635 50.82         4.3 0.14            115            281 292 
 TOL  SE ES   4    636  0.39                             108   -1.56 0  341 224 
 TOL  SZ I         636  7.05         6.1 0.28            111            341 224 
 MON  HZ EP   4    635 29.33                             108    3.69 0  352 309 
 MON  HN ES   4    636  2.00                             108   -1.50 0  352 309 
 MON  HZ I         636  3.30         1.7 0.44            110            352 309 
                                                                                
