 2015 1118 0400 18.7 L   6.819 -73.130141.3  RSN  6 0.4 1.5LRSN                1
 GAP=138        0.88       3.7     4.8  6.8  0.2536E+01  0.7071E+01 -0.2694E+01E
 Epicentro: LOS SANTOS - SANTANDER                                             3
 ACTION:UPD 15-12-28 16:11 OP:cam  STATUS:               ID:20151118040018 L   I
 OLDACT:UP  15-11-18 15:57 OP:ak   STATUS:               ID:20151118035744d    3
 OLDACT:UP  15-11-18 15:56 OP:ak   STATUS:               ID:20151118035744d    3
 OLDACT:DUP 15-11-18 15:46 OP:ak   STATUS:               ID:20151118035744d    3
 2015-11-18-0357-43M.COL___313                                                 6
 STAT SP IPHASW D HRMM SECON CODA AMPLIT PERI AZIMU VELO AIN AR TRES W  DIS CAZ7
 BAR2 EZ EP        4 0 37.53                             169   -0.2810 25.7 193 
 BAR2 EZ ES        4 0 52.52                             169   -0.2210 25.7 193 
 BAR2 EZ I         4 0 54.01         9.6 0.05            169           25.7 193 
 BRR  HZ EP        4 0 39.39                             151    0.0210 71.8 296 
 BRR  HN ES        4 0 56.18                             151    0.6710 71.8 296 
 BRR  HZ I         4 0 56.75         5.7 0.27            151           71.8 296 
 PAM  EZ EP        4 0 40.45                             151    0.2110 74.7  40 
 PAM  EN ES        4 0 57.12                             151    0.0510 74.7  40 
 PAM  EZ I         4 0 59.39         9.5 0.46            153           74.7  40 
 RUS  HZ EP   1    4 0 42.03                             142   -0.09 7  103 177 
 RUS  HN ES        4 1  0.40                             142   -0.0210  103 177 
 RUS  HZ I         4 1  2.13         2.4 0.34            144            103 177 
 OCA  HZ EP   4    4 0 43.60                             129   -2.86 0  158 352 
 OCA  HN ES        4 1  7.77                             129   -0.36 9  158 352 
 ZAR  HZ EP   1    4 0 51.66                             121    0.75 6  205 291 
 ZAR  HN ES        4 1 15.54                             121   -0.52 9  205 291 
 ZAR  HZ I         4 1 21.24         5.3 0.16            122            205 291 
                                                                                
