 2017  618 0320 40.2 L   6.821 -73.156148.9  RSN 12 0.6 2.0LRSN                1
 GAP=184        1.15       5.2     5.0  7.5  0.7844E+01 -0.5160E+01 -0.6184E-01E
 Epicentro: LOS SANTOS - SANTANDER                                             3
 ACTION:UPD 17-09-14 16:52 OP:jn   STATUS:               ID:20170618032040 L   I
 OLDACT:UP  17-06-18 14:38 OP:cog  STATUS:               ID:20170618031739     3
 OLDACT:REG 17-06-18 12:53 OP:cog  STATUS:               ID:20170618031739     3
 2017-06-18-0318-00M.COL___350                                                 6
 STAT SP IPHASW D HRMM SECON CODA AMPLIT PERI AZIMU VELO AIN AR TRES W  DIS CAZ7
 BRR  HZ EP        321  1.58                             154    0.0210 69.2 297 
 BRR  HN ES        321 18.47                             154    0.2410 69.2 297 
 BRR  HZ I         321 23.13        31.6 0.12            154           69.2 297 
 PTB  HZ EP   9    321  6.79                             133   -0.56 0  147 258 
 PTB  HN ES        321 26.98                             131   -1.00 9  147 258 
 PTB  HZ I         321 29.68        14.7 0.22            134            147 258 
 SPBC HZ EP        321  9.16                             129    0.13 9  164 218 
 SPBC HN IS        321 31.00                             129            164 218 
 SPBC HN ES        321 31.00                             129   -0.52 9  164 218 
 SPBC HZ I         321 33.10        20.3 0.26            132            164 218 
 YPLC HZ EP        321 10.31                             127   -0.14 9  179 151 
 YPLC HN ES        321 34.45                             127    0.39 9  179 151 
 NOR  HZ EP        321 16.35                             119    0.20 8  235 234 
 NOR  HN ES        321 43.77                             119   -0.42 8  235 234 
 NOR  HZ I         321 46.48         7.7 0.16            121            235 234 
 CHI  HN EP   9    321 19.41                             117    1.14 0  251 195 
 CHI  HE ES        321 49.45                             116    0.34 8  251 195 
 HEL  HZ EP   3    321 21.80                             115    1.29 2  272 255 
 HEL  HN ES   4    321 54.79                             115    2.84 0  272 255 
 URE  HN ES        321 53.43                             114    0.24 7  282 292 
 PTGC HZ EP        321 23.46                             112   -1.01 7  311 159 
 PTGC HE ES   4    321 56.84                             112   -2.17 0  311 159 
 CBOC HZ EP        321 28.30                             110    1.11 7  333 252 
 CBOC HE ES        322  3.57                             110   -0.29 7  333 252 
 CBOC HZ I         322  7.74         1.6 0.20            112            333 252 
 ORTC HZ EP        321 35.18                             107    0.83 6  397 216 
 ORTC HN ES   3    322 16.46                             107   -0.14 1  397 216 
 SJC  HZ EP        321 34.59                             106   -0.97 6  407 327 
 SJC  HN ES   4    322 16.07                             106   -2.68 0  407 327 
                                                                                
