 2013  818 0133  0.7 L   6.338 -73.549105.8  RSN 11 0.5 1.8LRSN                1
 GAP= 78        1.15       3.0     4.4  7.0 -0.5246E+00  0.1195E+02  0.2279E+01E
 Epicentro: CONTRATACION - SANTANDER                                           3
 2013-08-18-0128-48M.COL___201                                                 6
 ACTION:UPD 14-01-14 09:04 OP:ep   STATUS:               ID:20130818013300 L   I
 OLDACT:UP  13-08-19 05:25 OP:CF   STATUS:               ID:20130818013300 L   3
 OLDACT:UP  13-08-18 10:19 OP:stll STATUS:               ID:20130818012848     3
 OLDACT:REG 13-08-18 09:11 OP:stll STATUS:               ID:20130818012848     3
 STAT SP IPHASW D HRMM SECON CODA AMPLIT PERI AZIMU VELO AIN AR TRES W  DIS CAZ7
 BAR2 SZ IP     C  133 16.60                             153   -0.0810 49.4  55 
 BAR2 SZ ES        133 29.43                             153    0.3210 49.4  55 
 BAR2 SZ I         133 30.88        36.6 0.24            138           49.4  55 
 BAR2 HZ I         133 30.90        32.4 0.24                          49.4  55 
 RUS  HZ EP        133 18.00                             144   -0.4510 71.3 134 
 RUS  HN ES        133 32.44                             144    0.1810 71.3 134 
 RUS  HZ I         133 34.15         7.3 0.24            135           71.3 134 
 BRR  HZ EP        133 18.34                             137   -0.6310 86.9 348 
 BRR  HN ES        133 32.81                             137   -0.3810 86.9 348 
 BRR  HZ I         133 40.30        10.6 0.12            118           86.9 348 
 SPBC HZ EP        133 20.23                             134    0.4210 95.4 217 
 SPBC HN ES        133 34.76                             134    0.0710 95.4 217 
 SPBC HZ I         133 38.67        13.1 0.10            122           95.4 217 
 PTB  HN EP   9    133 19.11                             132   -1.25 0  103 283 
 PTB  HE ES        133 34.20                                   -0.2210  103 283 
 CHI  HZ EP        133 29.18                             114   -0.70 9  190 186 
 CHI  HZ I         133 31.21         4.7 0.28            105            190 186 
 CHI  HN ES        133 52.69                             114    0.09 9  190 186 
 ZAR  HN ES        133 51.74                             113   -0.52 9  193 312 
 OCA  HN ES        133 57.45                             111    1.07 8  212   7 
 HEL  HN EP        133 33.84                             110    0.67 8  220 266 
 HEL  HZ I         134  0.95         4.7 0.24            101            220 266 
 GUY2CHZ EP        133 35.12                             109   -0.04 8  236 239 
 GUY2CHN ES        134  2.34                             109    0.33 8  236 239 
 GUY2CHZ I         134  6.75         3.4 1.16                           236 239 
 SML  HZ EP   4    133 37.84                             105   -1.70 0  278 348 
 SML  HZ I         134 14.96         7.5 0.10             98            278 348 
                                                                                
