 2017  318 0357 56.8 L   6.764 -73.104152.5  RSN  5 0.4 1.1LRSN                1
 GAP=144        0.93       5.2     5.0  7.9 -0.2715E+01  0.2963E+01  0.5045E+01E
 Epicentro: LOS SANTOS - SANTANDER                                             3
 ACTION:UPD 17-05-25 18:42 OP:jn   STATUS:               ID:20170318035756 L   I
 OLDACT:DUP 17-03-18 15:44 OP:cog  STATUS:               ID:20170318034743d    3
 2017-03-18-0348-00M.COL___367                                                 6
 STAT SP IPHASW D HRMM SECON CODA AMPLIT PERI AZIMU VELO AIN AR TRES W  DIS CAZ7
 BAR2 EZ EP        358 17.10                             172   -0.1310 20.8 205 
 BAR2 EZ ES   3    358 32.89                             172   -0.24 2 20.8 205 
 BAR2 EZ I         358 33.80         2.2 0.21            171           20.8 205 
 BRR  HZ EP        358 19.20                             152    0.1510 77.2 300 
 BRR  HN ES        358 36.82                             152    0.4510 77.2 300 
 BRR  HZ I         358 40.89         3.2 0.34            153           77.2 300 
 PAM  EZ EP        358 20.11                             152    0.3210 77.8  35 
 PAM  EE ES        358 37.25                             152   -0.4510 77.8  35 
 PAM  EZ I         358 37.96         1.3 0.18            155           77.8  35 
 RUS  HZ EP        358 21.39                             146    0.4310 96.4 179 
 RUS  HN ES        358 39.68                             146   -0.1010 96.4 179 
 RUS  HZ I         358 42.76         1.5 0.28            148           96.4 179 
 PTB  HZ EP        358 23.99                             133   -0.71 9  152 261 
 PTB  HN ES        358 46.37                             133   -0.06 9  152 261 
 PTB  HZ I         358 47.79         1.9 0.28            134            152 261 
                                                                                
