 2016 1118 0606 20.5 L   6.770 -73.186141.8  RSN  4 0.0 1.2LRSN                1
 GAP=219        0.30       3.8     1.7  4.1 -0.3266E+01  0.9325E+00  0.4656E+01E
 Epicentro: LOS SANTOS - SANTANDER                                             3
 ACTION:UPD 17-10-26 21:09 OP:lp   STATUS:               ID:20161118060620 L   I
 OLDACT:REG 16-11-18 12:48 OP:and  STATUS:               ID:20161118055746     3
 2016-11-18-0558-00M.COL___343                                                 6
 STAT SP IPHASW D HRMM SECON CODA AMPLIT PERI AZIMU VELO AIN AR TRES W  DIS CAZ7
 BRR  HZ EP        6 6 41.10                             153    0.0510 69.0 303 
 BRR  HN ES   4    6 6 58.42                             153    1.31 0 69.0 303 
 BRR  HZ I         6 6 59.08         3.3 0.16            128           69.0 303 
 PAM  EZ EP        6 6 42.56                             148   -0.0310 82.9  40 
 PAM  EE ES        6 6 59.85                             148    0.0010 82.9  40 
 PAM  EZ I         6 7  0.99         2.0 0.23            130           82.9  40 
 PTB  HZ EP        6 6 46.63                             132   -0.01 9  143 260 
 PTB  HN ES        6 7  7.05                             132   -0.01 9  143 260 
 PTB  HZ I         6 7  9.12         1.9 0.14            120            143 260 
 ZAR  HN ES        6 7 17.21                             122   -0.01 9  201 294 
 ZAR  HZ I         6 7 31.24         1.7 0.36            109            201 294 
                                                                                
