 2012  418 0840 14.4 L   6.780 -73.106150.7  RSN  5 0.4 1.2LRSN                1
 GAP=143        0.73       6.2     7.5  7.2  0.1906E+02  0.1390E+02 -0.3154E+01E
 Epicentro: LOS SANTOS - SANTANDER                                             3
 ACTION:UPD 12-07-05 11:54 OP:tino STATUS:               ID:20120418084014 L   I
 2012-04-18-0840-00M.COL___187                                                 6
 STAT SP IPHASW D HRMM SECON CODA AMPLIT PERI AZIMU VELO AIN AR TRES W  DIS CAZ7
 BAR2 SZ ES   1    840 49.98                             171    -0.4 9   22 202 
 PAM  SZ EP   2    840 37.78                             152     0.7 6   76  36 
 PAM  SE ES   2    840 54.39                             152    -0.4 6   76  36 
 BRR  HZ EP   2    840 36.10                             152    -0.3 6   76 298 
 BRR  HE ES   1    840 54.04                             152     0.5 9   76 298 
 BRR  HZ I         840 55.46         3.7 0.25                            76 298 
 RUS  HZ EP   1    840 38.47                             146     0.0 9   98 179 
 RUS  HE ES   1    840 57.45                             146     0.2 9   98 179 
 RUS  HZ I         840 58.03         1.7 0.33                            98 179 
 ZAR  HZ EP        840 47.54                             123    -0.210  209 292 
 ZAR  HN ES   2    841 13.48                             123    -0.2 5  209 292 
 ZAR  HZ I         841 20.08         1.6 0.31                           209 292 
                                                                                
