 2012  318 0609 33.7 L   6.777 -73.146140.3  RSN  8 0.3 1.8LRSN                1
 GAP=138        0.80       4.7     4.1  7.2 -0.1670E+01  0.1080E+02 -0.7970E-01E
 ACTION:UP  12-03-31 23:20 OP:EP   STATUS:               ID:20120318060933 L   I
 2012-03-18-0607-36M.COL___172                                                 6
 STAT SP IPHASW D HRMM SECON CODA AMPLIT PERI AZIMU VELO SNR AR TRES W  DIS CAZ7
 BAR2 SZ EP   1    6 9 52.75                             171     0.1 7   21 191 
 BAR2 SZ ES   1    610  7.17                             171    -0.2 7   21 191 
 BAR2 SZ I         610  9.17        22.1 0.13                            21 191 
 BRR  HZ EP   1    6 9 54.68                             151     0.3 7   72 300 
 BRR  HN ES   1    610 11.20                             151     0.8 7   72 300 
 BRR  HZ I         610 14.66        13.4 0.19                            72 300 
 PAM  SZ EP   1    6 9 55.74                             149     0.3 7   79  38 
 PAM  SN ES   1    610 11.94                             149    -0.5 7   79  38 
 PAM  SZ I         610 14.62        10.2 0.40                            79  38 
 RUS  HZ EP   1    6 9 56.89                             143     0.1 7   98 176 
 RUS  HZ I         6 9 58.19         6.3 0.15                            98 176 
 RUS  HN ES   1    610 14.71                             143     0.0 7   98 176 
 PTB  HZ EP   1    6 9 59.82                             131    -0.4 7  147 260 
 PTB  HN ES   1    610 20.48                             131    -0.4 7  147 260 
 PTB  HZ I         610 23.83         6.5 0.15                           147 260 
 ZAR  HZ EP   1    610  5.78                             121    -0.1 6  205 293 
 ZAR  HN ES   1    610 30.88                             121    -0.1 6  205 293 
 ZAR  HZ I         610 37.26        12.3 0.30                           205 293 
 NOR  SN ES   1    610 36.80                             117     0.3 6  233 235 
 HEL  HE ES   1    610 44.44                             114    -0.2 6  271 256 
                                                                                
