 2011  318 0220 12.0 L   7.404 -73.338120.0  RSN  4 0.3 1.5LRSN                1
 GAP=189        0.87       6.5    17.9 13.2 -0.7090E+02  0.1372E+03 -0.5120E+02E
 Epicentro: EL PLAYON - SANTANDER                                              3
 ACTION:UP  11-06-16 14:34 OP:jfem STATUS:               ID:20110318022012 L   I
 2011-03-18-0218-52S.COL___135                                                 6
 STAT SP IPHASW D HRMM SECON CODA AMPLIT PERI AZIMU VELO SNR AR TRES W  DIS CAZ7
 BTL  SZ EP        220 29.21                             154    -0.510   54 172 
 BTL  SZ ES   1    220 43.54                             154    -0.1 7   54 172 
 GRA  SZ IP        220 31.17                             144     0.010   79  48 
 GRA  SZ ES   1    220 46.15                             144     0.0 7   79  48 
 GRA  SZ I         220 47.22        10.5 0.29                            79  48 
 BAR2 SZ EP   1    220 32.57                             140     0.3 7   91 169 
 BAR2 SZ ES   1    220 48.42                             140     0.4 7   91 169 
 BAR2 SZ I         220 50.02         9.9 0.11                            91 169 
 OCA  SZ EP        220 32.41                             140     0.210   92   1 
 OCA  SZ I         220 51.08         4.4 0.22                            92   1 
                                                                                
