 2012  118 0427 14.0 L   6.759 -73.072133.4  RSN  4 0.4 1.3LRSN                1
 GAP=148        0.87       4.8     6.4  9.8 -0.3765E+01  0.1858E+02  0.3559E+01E
 Epicentro: LOS SANTOS - SANTANDER                                             3
 ACTION:DUP 12-02-03 08:18 OP:REBC STATUS:               ID:20120118042715dL   I
 2012-01-18-0420-00M.COL___187                                                 6
 STAT SP IPHASW D HRMM SECON CODA AMPLIT PERI AZIMU VELO SNR AR TRES W  DIS CAZ7
 PAM  SZ EP   1    427 35.36                             149     0.5 7   76  33 
 PAM  SZ I         427 35.67         4.5 0.17                            76  33 
 PAM  SN ES        427 50.66                             149    -0.410   76  33 
 BRR  HZ EP   1    427 34.59                             147     0.2 7   81 299 
 BRR  HN ES   1    427 50.82                             147     0.5 7   81 299 
 BRR  HZ I         427 55.47         8.1 0.14                            81 299 
 RUS  HZ EP   1    427 36.26                             142     0.1 7   96 181 
 RUS  HN ES        427 53.54                             142     0.010   96 181 
 RUS  HZ I         427 55.72         2.1 0.28                            96 181 
 PTB  HZ EP   1    427 40.37                             127    -0.3 7  155 261 
 PTB  HN ES   2    428  0.92                             127    -0.6 5  155 261 
                                                                                
