 2017 1218 0441 57.8 L   6.821 -73.144134.2  RSN  4 0.3 1.5LRSN                1
 GAP=258        0.77       5.4     5.3  6.8  0.5613E+01  0.1082E+02 -0.5806E+01E
 Epicentro: LOS SANTOS - SANTANDER                                             3
 ACTION:UPD 18-01-04 13:21 OP:rebc STATUS:               ID:20171218044157 L   I
 OLDACT:DUP 17-12-18 16:03 OP:dhb  STATUS:               ID:20171218043739d    3
 OLDACT:REG 17-12-18 12:35 OP:dhb  STATUS:               ID:20171218043738     3
 2017-12-18-0438-00M.COL___460                                                 6
 STAT SP IPHASW D HRMM SECON CODA AMPLIT PERI AZIMU VELO AIN AR TRES W  DIS CAZ7
 BAR2 EZ IP     C  442 16.58                             169    0.4410 25.6 190 
 BAR2 EZ ES        442 30.17                             169   -0.2410 25.6 190 
 BAR2 EZ I         442 32.60         7.4 0.32            166           25.6 190 
 PTB  HZ EP        442 23.49                             129   -0.47 9  148 258 
 PTB  HN ES        442 44.27                             129   -0.06 9  148 258 
 PTB  HZ I         442 51.43         2.7 0.52            129            148 258 
 SPBC HZ EP        442 25.80                             126    0.12 9  165 219 
 SPBC HN ES        442 47.50                             126    0.12 9  165 219 
 SPBC HZ I         442 50.40         5.4 0.30            128            165 219 
 ZAR  HZ EP        442 29.21                             120   -0.29 9  203 292 
 ZAR  HN ES        442 54.58                             120    0.39 9  203 292 
 ZAR  HZ I         443  0.09         3.5 0.48            121            203 292 
                                                                                
