 2012  218 0304 50.1 L   6.775 -73.122151.0  RSN 17 0.4 2.5LRSN                1
 GAP=141        0.66       2.6     3.7  4.3 -0.1643E+01  0.4366E+01  0.1156E+01E
 ACTION:UP  12-03-07 16:31 OP:epov STATUS:               ID:20120218030450 L   I
 2012-02-18-0300-00M.COL___188                                                 6
 STAT SP IPHASW D HRMM SECON CODA AMPLIT PERI AZIMU VELO AIN AR TRES W  DIS CAZ7
 BAR2 SZ EP        3 5 10.22                             172   -0.1510 21.3 198 
 BAR2 SZ ES   1    3 5 26.11                             172   -0.03 7 21.3 198 
 BAR2 SZ I         3 5 26.96        97.0 0.23                          21.3 198 
 GIR2 SZ EP   1    3 5 10.28                             167   -0.25 7 34.5 347 
 GIR2 SZ ES   2    3 5 26.89                             167    0.46 5 34.5 347 
 BRR  HZ IP     C  3 5 12.05                             152   -0.0210 74.8 299 
 BRR  HZ I         3 5 13.59        62.0 0.14                          74.8 299 
 BRR  HE ES   1    3 5 29.75                             152    0.59 7 74.8 299 
 PAM  SZ EP   1    3 5 13.14                             152    0.19 7 77.9  37 
 PAM  SE ES   2    3 5 30.58                             152   -0.16 5 77.9  37 
 RUS  HZ EP   1    3 5 14.11                             146   -0.10 7 97.7 177 
 RUS  HN ES   1    3 5 32.53                             146   -0.45 7 97.7 177 
 RUS  HZ I         3 5 34.12        29.7 0.45                          97.7 177 
 PTB  HZ EP   1    3 5 16.88                             133   -0.85 7  150 260 
 PTB  HE ES   2    3 5 39.00                             133   -0.25 5  150 260 
 OCA  SZ EP   2    3 5 19.84                             130    0.69 5  163 352 
 OCA  SZ ES   2    3 5 42.43                             130    0.65 5  163 352 
 ZAR  HZ EP   1    3 5 22.82                             123   -0.47 6  208 293 
 ZAR  HN ES   2    3 5 49.01                             123   -0.14 4  208 293 
 ZAR  HZ I         3 5 53.61        27.7 0.31                           208 293 
 NOR  SZ EP   1    3 5 26.01                             120   -0.23 6  235 235 
 NOR  SN ES   2    3 5 54.44                             120    0.04 4  235 235 
 CHI  HZ EP   1    3 5 28.29                             118    0.36 6  247 196 
 CHI  HN ES   1    3 5 58.05                             118    0.65 6  247 196 
 CHI  HZ I         3 6  5.76        14.0 0.30                           247 196 
 ROSC BZ EP   2    3 5 29.11                             118    0.66 4  252 212 
 ROSC BE ES   2    3 5 58.53                             118    0.20 4  252 212 
 ROSC BZ I         3 6  4.61        36.0 0.49                           252 212 
 HEL  HZ EP   1    3 5 31.67                             116    0.83 6  274 257 
 HEL  HE ES   1    3 6  2.09                             116   -0.49 6  274 257 
 HEL  HZ I         3 6  9.71        15.0 0.29                           274 257 
 VIL  SZ EP   2    3 5 33.65                             113    0.09 4  301 192 
 GUY  SZ EP   2    3 5 34.48                             113    0.15 4  304 236 
 GUY  SN ES   2    3 6  8.98                             113    0.19 4  304 236 
 GUY  SZ I         3 6 19.96        28.6 0.37                           304 236 
 RREF HZ EP   2    3 5 37.11                             112    0.56 3  322 230 
 RREF HE ES   2    3 6 12.97                             112    0.24 3  322 230 
 RREF HZ I         3 6 20.77        16.3 0.30                           322 230 
 COD  HZ EP   1    3 5 38.43                             110   -0.65 5  351 354 
 COD  HE ES   2    3 6 17.43                             110    0.18 3  351 354 
 PRA  HZ EP   1    3 5 43.72                             107   -0.01 4  391 210 
 PRA  HN ES   2    3 6 25.45                             107   -0.06 3  391 210 
                                                                                
