 2013  818 0658 48.1 L   6.658 -73.251140.0  RSN  5 0.3 1.2LRSN                1
 GAP=179        0.89       6.6     6.2  8.9  0.2572E+02  0.1385E+00 -0.3817E+01E
 Epicentro: BARICHARA - SANTANDER                                              3
 ACTION:UPD 14-01-14 09:04 OP:ep   STATUS:               ID:20130818065848 L   I
 OLDACT:DUP 13-08-18 13:27 OP:stll STATUS:               ID:20130818064848d    3
 OLDACT:REG 13-08-18 09:41 OP:stll STATUS:               ID:20130818064847     3
 2013-08-18-0648-47M.COL___201                                                 6
 STAT SP IPHASW D HRMM SECON CODA AMPLIT PERI AZIMU VELO AIN AR TRES W  DIS CAZ7
 BAR2 SZ EP        659  6.33                             175   -0.4810 10.6 134 
 BAR2 SZ I         659 22.66         3.1 0.38            161           10.6 134 
 BRR  HZ EP        659  8.57                             152   -0.0210 71.1 314 
 BRR  HN ES        659 24.67                             152    0.0710 71.1 314 
 BRR  HZ I         659 26.03         2.9 0.40            148           71.1 314 
 RUS  HZ EP        659 10.21                             147   -0.0710 86.7 168 
 RUS  HN ES        659 27.98                             147    0.3810 86.7 168 
 RUS  HZ I         659 29.05         2.9 0.26            144           86.7 168 
 PTB  HZ EP        659 13.64                             134    0.3210  134 264 
 PTB  HN ES        659 32.47                             134   -0.5410  134 264 
 ZAR  HN ES        659 44.85                             122    0.43 9  200 298 
                                                                                
