 2016 1118 0856 15.0 L   6.661 -73.218142.0  RSN  4 0.4 1.1LRSN                1
 GAP=201        0.87       9.4     6.1  7.0  0.2001E+02  0.1209E+02 -0.4301E+00E
 Epicentro: BARICHARA - SANTANDER                                              3
 ACTION:UPD 17-10-26 21:09 OP:lp   STATUS:               ID:20161118085615 L   I
 OLDACT:DUP 16-11-18 18:44 OP:and  STATUS:               ID:20161118084743d    3
 OLDACT:REG 16-11-18 12:59 OP:and  STATUS:               ID:20161118084742     3
 2016-11-18-0848-00M.COL___334                                                 6
 STAT SP IPHASW D HRMM SECON CODA AMPLIT PERI AZIMU VELO AIN AR TRES W  DIS CAZ7
 BAR2 EZ EP        856 33.98                             176    0.0110 8.54 153 
 BAR2 EZ ES        856 48.71                             176   -0.0610 8.54 153 
 BAR2 EZ I         856 50.52         3.5 0.30            175           8.54 153 
 BRR  HZ EP        856 35.74                             151   -0.1510 73.6 312 
 BRR  HN ES        856 52.35                             151    0.1710 73.6 312 
 PTB  HZ EP        856 40.35                             133   -0.40 9  138 264 
 PTB  HN ES        857  1.10                             133    0.26 9  138 264 
 PTB  HZ I         857  4.57         1.0 0.20            132            138 264 
 ZAR  HZ EP        856 47.85                             122    0.73 9  203 297 
 ZAR  HN ES        857 11.66                             122   -0.51 9  203 297 
 ZAR  HZ I         857 17.51         1.2 0.22            122            203 297 
                                                                                
