 2013  818 0252  2.5 L   6.797 -73.138144.4  RSN 17 0.5 2.3LRSN                1
 GAP= 72        1.09       2.6     2.9  4.9 -0.1061E+01  0.3112E+01  0.6639E+00E
 Epicentro: LOS SANTOS - SANTANDER                                             3
 ACTION:UPD 14-01-14 09:04 OP:ep   STATUS:               ID:20130818025202 L   I
 OLDACT:UP  13-08-19 05:25 OP:CF   STATUS:               ID:20130818025202 L   3
 OLDACT:REG 13-08-18 09:15 OP:stll STATUS:               ID:20130818024848     3
 2013-08-18-0248-48M.COL___198                                                 6
 STAT SP IPHASW D HRMM SECON CODA AMPLIT PERI AZIMU VELO AIN AR TRES W  DIS CAZ7
 BAR2 SZ EP        252 22.30                             170    0.3210 23.1 192 
 BAR2 SZ ES        252 36.64                             170   -0.5210 23.1 192 
 BAR2 SZ I         252 40.01        32.3 0.32            170           23.1 192 
 BRR  HZ EP        252 23.86                             152    0.2910 72.1 298 
 BRR  HN ES        252 41.01                             152    1.0210 72.1 298 
 BRR  HZ I         252 45.62        21.8 0.16            151           72.1 298 
 PAM  SZ EP        252 24.82                             151    0.2510 77.2  39 
 PAM  SN ES        252 41.80                             151    0.0210 77.2  39 
 RUS  HZ EP        252 25.74                             144   -0.3610  100 177 
 RUS  HN ES        252 44.28                             144   -0.2210  100 177 
 RUS  HZ I         252 45.67         9.8 0.34            146            100 177 
 CAPV BZ EP        252 29.78                             132   -0.00 9  149  38 
 PTB  HZ EP        252 29.20                             132   -0.24 9  149 259 
 PTB  HN ES        252 49.90                             132   -0.54 9  149 259 
 TAM  HZ EP        252 30.06                             130    0.06 9  154 105 
 TAM  HN ES        252 51.46                             130    0.02 9  154 105 
 OCA  HZ EP        252 31.07                             129    0.30 9  161 353 
 OCA  HN ES        252 52.74                             129   -0.06 9  161 353 
 SPBC HZ EP        252 30.80                             129   -0.13 9  163 219 
 SPBC HN ES        252 53.60                             129    0.50 9  163 219 
 SPBC HZ I         252 59.99        49.0 0.32            130            163 219 
 ZAR  HZ EP        252 34.54                             122   -0.43 9  205 292 
 ZAR  HN ES        253  0.17                             122   -0.11 9  205 292 
 ZAR  HZ I         253  6.32        28.6 0.16            123            205 292 
 NOR  HZ EP        252 37.72                             118   -0.50 8  235 235 
 NOR  HN ES        253  5.83                             118   -0.23 8  235 235 
 SML  HZ EP        252 38.45                             117   -0.69 8  244 335 
 SML  HN ES        253  7.21                             117   -0.50 8  244 335 
 SML  HZ I         253 12.17        38.7 0.10            119            244 335 
 CHI  HZ EP        252 39.93                             117   -0.19 8  248 195 
 CHI  HZ I         252 41.96         8.1 0.12            119            248 195 
 CHI  HN ES        253  8.80                             117   -0.66 8  248 195 
 ROSC BZ EP        252 41.59                             116    1.02 8  253 211 
 ROSC BN ES   4    253 12.00                             116    1.74 0  253 211 
 HEL  HZ EP        252 43.28                             114    0.54 8  273 256 
 HEL  HN ES        253 13.72                             114   -0.39 8  273 256 
 HEL  HZ I         253 21.55         9.5 0.24            116            273 256 
 SOCV BZ EP   4    252 43.96                             112   -1.49 0  301  57 
 GUY2CHZ EP        252 46.82                             112    0.71 7  302 235 
 GUY2CHN ES        253 20.84                             112    0.72 7  302 235 
 GUY2CHZ I         253 28.55        12.2 0.26                           302 235 
 CBOC HZ EP        252 49.49                             110    0.04 7  334 252 
                                                                                
