 2014 1018 0548 15.6 L   6.829 -73.162141.8  RSN 15 0.4 2.4LRSN                1
 GAP=133        0.96       2.5     3.6  5.2 -0.1430E+01  0.5237E+01  0.3915E+00E
 Epicentro: LOS SANTOS - SANTANDER                                             3
 ACTION:UPD 14-11-29 23:50 OP:nd   STATUS:               ID:20141018054815 L   I
 OLDACT:UP  14-10-18 17:20 OP:mher STATUS:               ID:20141018054743     3
 OLDACT:UP  14-10-18 17:18 OP:mher STATUS:               ID:20141018054743     3
 OLDACT:UP  14-10-18 17:18 OP:mher STATUS:               ID:20141018054743     3
 OLDACT:REG 14-10-18 12:21 OP:mh   STATUS:               ID:20141018054743     3
 2014-10-18-0547-43M.COL___277                                                 6
 STAT SP IPHASW D HRMM SECON CODA AMPLIT PERI AZIMU VELO AIN AR TRES W  DIS CAZ7
 BAR2 SZ EP     C  548 35.03                             169    0.1710 26.3 185 
 BAR2 SZ ES   1    548 49.43                             169   -0.42 7 26.3 185 
 BAR2 SZ I         548 51.15        55.0 0.18            166           26.3 185 
 BRR  HZ EP        548 36.78                             153    0.5910 68.1 297 
 BRR  HN ES        548 52.40                             153    0.1810 68.1 297 
 BRR  HZ I         548 54.97        33.7 0.19            150           68.1 297 
 PAM  SZ EP     D  548 37.75                             150    0.3910 76.2  42 
 PAM  SN ES        548 54.85                             150    0.5410 76.2  42 
 PAM  SZ I         548 56.35        49.2 0.18            156           76.2  42 
 RUS  HZ EP        548 38.68                             142   -0.5710  104 175 
 RUS  HN ES        548 57.65                             142   -0.0210  104 175 
 RUS  HZ I         548 58.94        22.6 0.24            143            104 175 
 PTB  HZ EP        548 41.77                             131   -0.42 9  147 257 
 PTB  HN ES        549  2.39                             131   -0.50 9  147 257 
 PTB  HZ I         549  8.54        33.0 0.38            130            147 257 
 OCA  HZ EP        548 42.73                             129   -0.60 9  157 354 
 OCA  HN ES        549  4.45                             129   -0.47 9  157 354 
 OCA  HZ I         549  7.71        34.5 0.26            131            157 354 
 SPBC HZ EP   1    548 44.05                             128    0.08 7  165 218 
 SPBC HN ES        549  5.84                             128   -0.23 9  165 218 
 ZAR  HZ EP   1    548 47.40                             122   -0.13 6  201 291 
 ZAR  HN ES        549 12.83                             122    0.42 9  201 291 
 ZAR  HZ I         549 18.80        30.9 0.40            122            201 291 
 SML  HZ EP   1    548 51.08                             117   -0.57 6  240 335 
 SML  HN ES        549 19.75                             117    0.02 8  240 335 
 SML  HZ I         549 21.45        33.6 0.26            118            240 335 
 ROSC BZ EP   1    548 54.59                             116    0.84 6  255 210 
 ROSC BN ES        549 23.39                             116   -0.08 8  255 210 
 ROSC BZ I         549 32.42        14.4 0.35            116            255 210 
 HEL  HZ EP        548 56.07                             114    0.52 8  271 255 
 HEL  HN ES        549 27.01                             114    0.34 8  271 255 
 HEL  HZ I         549 33.99        22.6 0.40            114            271 255 
 URE  HZ EP   4    548 57.85                             113    1.65 0  281 291 
 URE  HN ES   4    549 26.30                             113   -1.53 0  281 291 
 TOL  SZ EP        549  4.42                             109    0.56 7  345 224 
 TOL  SN ES   4    549 42.83                             109    1.37 0  345 224 
 TOL  SZ I         549 49.49        23.1 0.58            109            345 224 
 PRA  HZ EP   1    549  8.78                             106   -0.47 4  394 209 
 PRA  HN ES   1    549 50.93                             106   -0.13 4  394 209 
 PRA  HZ I         549 55.24        10.2 0.46            106            394 209 
 ORTC HZ EP   4    549  7.65                             106   -1.95 0  397 216 
 ORTC HN ES   4    549 53.03                             106    1.33 0  397 216 
 ORTC HZ I         549 58.84         7.0 0.53            106            397 216 
 SJC  HZ EP   1    549 10.04                             105   -0.60 4  406 327 
 SJC  HN ES   4    549 50.85                             105   -2.69 0  406 327 
 SJC  HZ I         549 54.43         5.0 0.38            106            406 327 
                                                                                
