 2016  218 0853 19.9 L   6.692 -73.181149.7  RSN  5 0.2 1.3LRSN                1
 GAP=225        0.52       4.2     4.0  4.3  0.1082E+02  0.4367E+01  0.1390E+01E
 Epicentro: VILLANUEVA - SANTANDER                                             3
 ACTION:UPD 16-03-04 21:27 OP:rebc STATUS:               ID:20160218085319 L   I
 OLDACT:UP  16-02-18 17:20 OP:drio STATUS:               ID:20160218084739d    3
 OLDACT:DUP 16-02-18 17:10 OP:drio STATUS:               ID:20160218084739d    3
 2016-02-18-0847-38M.COL___324                                                 6
 STAT SP IPHASW D HRMM SECON CODA AMPLIT PERI AZIMU VELO AIN AR TRES W  DIS CAZ7
 BAR2 EZ ES        853 55.12                             176   -0.2610 11.1 181 
 BRR  HZ EP        853 41.52                             152   -0.1510 74.4 308 
 BRR  HN ES        853 58.84                             152    0.2010 74.4 308 
 BRR  HZ I         854  1.25         4.9 0.12            153           74.4 308 
 RUS  HZ EP        853 43.40                             148    0.1310 89.1 173 
 RUS  HE ES        854  1.67                             148    0.1710 89.1 173 
 RUS  HZ I         854  2.98         3.1 0.52            149           89.1 173 
 PTB  HZ EP        853 46.56                             134   -0.13 9  142 263 
 PTB  HN ES        854  7.42                             134   -0.16 9  142 263 
 PTB  HZ I         854  9.40         1.9 0.12            135            142 263 
 ZAR  HE ES        854 18.56                             123    0.22 8  205 296 
                                                                                
