 2014  918 0034 22.1 L   6.790 -73.099147.8  RSN 10 0.5 1.7LRSN                1
 GAP=143        1.19       3.9     5.3  6.6 -0.5841E+01  0.1004E+02  0.7726E+00E
 Epicentro: LOS SANTOS - SANTANDER                                             3
 ACTION:UPD 14-10-03 23:06 OP:nd   STATUS:               ID:20140918003422 L   I
 OLDACT:REG 14-09-18 13:04 OP:carl STATUS:               ID:20140918002817     3
 2014-09-18-0028-17M.COL___287                                                 6
 STAT SP IPHASW D HRMM SECON CODA AMPLIT PERI AZIMU VELO AIN AR TRES W  DIS CAZ7
 BAR2 SZ EP        034 42.05                             170    0.0710 23.7 203 
 BAR2 SZ ES        034 57.12                             170   -0.3710 23.7 203 
 BAR2 SZ I         035  0.86         9.8 0.24            169           23.7 203 
 PAM  SZ EP        034 44.69                             152    0.2910 75.1  36 
 PAM  SN ES        035  2.04                             152    0.2510 75.1  36 
 PAM  SZ I         035  4.13         7.1 0.20            155           75.1  36 
 BRR  HZ EP        034 44.07                             151    0.3110 76.3 297 
 BRR  HN ES        035  1.48                             151    0.8310 76.3 297 
 RUS  HZ EP        034 46.10                             145    0.1510 99.2 179 
 RUS  HE ES        035  4.05                             145   -0.5110 99.2 179 
 RUS  HZ I         035  5.65         2.9 0.34            147           99.2 179 
 PTB  HZ EP        034 49.04                             131   -0.63 9  153 260 
 PTB  HE ES        035 10.52                             131   -0.67 9  153 260 
 PTB  HZ I         035 17.35         7.3 0.50            132            153 260 
 SPBC HZ EP        034 51.01                             129    0.02 9  166 221 
 SPBC HN ES        035 13.53                             129    0.01 9  166 221 
 SPBC HZ I         035 18.78         9.8 0.14            130            166 221 
 NOR  HE ES        035 26.78                             118    0.19 8  238 235 
 SML  HZ EP        034 58.98                             117   -0.21 8  247 334 
 SML  HN ES        035 27.30                             117   -0.81 8  247 334 
 SML  HZ I         035 31.70         8.4 0.10            119            247 334 
 GUY2CHZ EP        035  7.07                             112    0.86 7  305 236 
 GUY2CHN ES        035 41.52                             112    0.91 7  305 236 
 GUY2CHZ I         035 49.21         2.7 0.28                           305 236 
 PRA  HZ EP        035 14.98                             107   -0.90 6  394 210 
 PRA  HN ES        035 57.82                             107   -0.01 6  394 210 
 PRA  HZ I         036  2.61         2.0 0.40            108            394 210 
                                                                                
