 2017  518 0230 34.6 L   6.821 -73.126155.9  RSN  6 0.4 1.6LRSN                1
 GAP=180        0.84       5.0     4.8  6.9 -0.9686E+01  0.6753E+01  0.7654E+01E
 Epicentro: LOS SANTOS - SANTANDER                                             3
 ACTION:UPD 17-06-16 13:37 OP:jn   STATUS:               ID:20170518023034 L   I
 OLDACT:UP  17-05-18 13:46 OP:dnl  STATUS:               ID:20170518022727     3
 OLDACT:REG 17-05-18 12:16 OP:edw  STATUS:               ID:20170518022727     3
 2017-05-18-0228-00M.COL___344                                                 6
 STAT SP IPHASW D HRMM SECON CODA AMPLIT PERI AZIMU VELO AIN AR TRES W  DIS CAZ7
 BRR  HZ IP     D  230 57.14                             154    0.2010 72.0 296 
 BRR  HE ES        231 14.75                             154    0.4310 72.0 296 
 BRR  HZ I         231 15.01         7.6 0.32            154           72.0 296 
 PAM  EZ IP     D  230 58.05                             153    0.2810 74.2  39 
 PAM  EN ES        231 15.43                             153   -0.3710 74.2  39 
 PAM  EZ I         231 17.66         6.1 0.62            159           74.2  39 
 PTB  HZ EP        231  2.31                             134   -0.37 9  150 258 
 PTB  HN ES   4    231 22.91                             134   -1.63 0  150 258 
 PTB  HZ I         231 28.67         3.9 0.22            134            150 258 
 SPBC HZ EP   2    231  3.29                             131   -0.94 5  166 219 
 SPBC HN ES        231 27.14                             131   -0.17 9  166 219 
 SPBC HZ I         231 32.75         5.3 0.34            131            166 219 
 ZAR  HZ EP        231  7.91                             124    0.03 9  205 291 
 ZAR  HE ES        231 33.38                             124   -0.42 9  205 291 
 ZAR  HZ I         231 39.25         4.7 0.42            126            205 291 
 NOR  HZ EP        231 11.78                             120    0.47 8  238 234 
 NOR  HN ES        231 40.04                             120    0.14 8  238 234 
 NOR  HE ES        231 40.37                                            238 234 
 NOR  HZ I         231 45.55         2.4 0.38            121            238 234 
                                                                                
