 2012  718 0153 37.9 L   6.799 -73.163145.2  RSN  9 0.4 2.2LRSN                1
 GAP=112        0.87       3.8     4.1  7.4  0.2698E+01  0.4565E+01  0.2520E+01E
 Epicentro: LOS SANTOS - SANTANDER                                             3
 ACTION:UPD 12-08-14 11:45 OP:ep   STATUS:               ID:20120718015337 L   I
 2012-07-18-0150-00M.COL___197                                                 6
 STAT SP IPHASW D HRMM SECON CODA AMPLIT PERI AZIMU VELO AIN AR TRES W  DIS CAZ7
 BAR2 SZ EP   1    153 57.53                             171     0.1 7   23 185 
 BAR2 SZ ES   2    154 12.30                             171    -0.4 5   23 185 
 BAR2 SZ I         154 13.56        44.8 0.31            171             23 185 
 BRR  HZ EP   1    153 59.29                             153     0.4 7   70 299 
 BRR  HZ I         154 15.54        27.3 0.11            148             70 299 
 BRR  HN ES   1    154 15.78                             153     0.5 7   70 299 
 PAM  SZ EP   1    154  0.40                             150     0.3 7   79  41 
 PAM  SN ES   1    154 17.58                             150     0.1 7   79  41 
 RUS  HZ EP   1    154  1.46                             144    -0.1 7  101 175 
 RUS  HN ES   1    154 20.03                             144    -0.1 7  101 175 
 RUS  HZ I         154 21.43        15.1 0.42            143            101 175 
 PTB  HZ EP   1    154  3.75                             132    -0.9 7  146 259 
 PTB  HN ES   1    154 24.96                             132    -0.5 7  146 259 
 PTB  HZ I         154 26.37        13.2 0.24            128            146 259 
 OCA  HZ EP   1    154  5.93                             130    -0.2 7  160 354 
 OCA  HE ES   1    154 27.76                             130    -0.4 7  160 354 
 OCA  HZ I         154 30.60        35.4 0.27            126            160 354 
 YOP  SZ EP   1    154  8.42                             126     0.4 7  180 153 
 YOP  SN ES   1    154 31.31                             126    -0.1 7  180 153 
 ZAR  HZ EP   2    154  9.75                             123    -0.4 4  202 292 
 ZAR  HN ES   1    154 35.49                             123     0.2 6  202 292 
 ZAR  HZ I         154 42.68        22.9 0.23            119            202 292 
 HEL  HZ EP   2    154 18.08                             115     0.2 4  270 256 
 HEL  HN ES   1    154 49.77                             115     0.7 6  270 256 
 HEL  HZ I         154 55.71         9.1 0.44            112            270 256 
