 2011  518 0910 41.7 L   6.766 -73.074139.4  RSN  6 0.3 1.8LRSN                1
 GAP=148        0.66       3.1     6.3  6.0 -0.2281E+01 -0.2210E+01 -0.3021E+01E
 Epicentro: LOS SANTOS - SANTANDER                                             3
 ACTION:UP  11-06-29 08:54 OP:tino STATUS:               ID:20110518091041 L   I
 2011-05-18-0907-13S.COL___141                                                 6
 STAT SP IPHASW D HRMM SECON CODA AMPLIT PERI AZIMU VELO SNR AR TRES W  DIS CAZ7
 BAR2 SZ EP   1    911  0.53                             170     0.0 7   23 212 
 BAR2 SZ ES   1    911 15.51                             170     0.2 7   23 212 
 BAR2 SZ I         911 16.56        16.9 0.21                            23 212 
 PAM  SZ EP   1    911  3.18                             150     0.0 7   76  33 
 PAM  SN ES   1    911 19.87                             150     0.0 7   76  33 
 BRR  HZ EP   1    911  2.44                             148    -0.3 7   80 298 
 BRR  HZ I         911  2.89         9.9 0.09                            80 298 
 BRR  HN ES   1    911 19.31                             148     0.2 7   80 298 
 RUS  HZ EP   1    911  4.51                             144     0.0 7   97 181 
 RUS  HE ES   1    911 22.13                             144    -0.2 7   97 181 
 RUS  HZ I         911 24.20         6.7 0.41                            97 181 
 GRA  SZ EP   1    911  6.62                             135     0.1 7  127  14 
 GRA  SZ ES   1    911 25.90                             135     0.0 7  127  14 
 GRA  SZ I         911 30.61         7.2 0.44                           127  14 
 OCA  SZ EP   1    911 10.58                             127     0.6 7  165 351 
 OCA  SZ ES   1    911 31.45                             127    -0.6 7  165 351 
 OCA  SZ I         911 33.06         9.8 0.70                           165 351 
                                                                                
