 2017  718 0241  7.6 L   6.773 -73.134140.0  RSN 13 0.5 1.9LRSN                1
 GAP=114        1.20       4.4     4.1  7.8  0.1242E+01  0.9136E+01  0.4606E+01E
 Epicentro: LOS SANTOS - SANTANDER                                             3
 ACTION:UPD 17-08-30 15:34 OP:rebc STATUS:               ID:20170718024107 L   I
 OLDACT:UP  17-07-18 14:43 OP:dnl  STATUS:               ID:20170718023738     3
 OLDACT:UP  17-07-18 14:43 OP:dnl  STATUS:               ID:20170718023738     3
 OLDACT:REG 17-07-18 13:24 OP:dnl  STATUS:               ID:20170718023738     3
 2017-07-18-0238-00M.COL___371                                                 6
 STAT SP IPHASW D HRMM SECON CODA AMPLIT PERI AZIMU VELO AIN AR TRES W  DIS CAZ7
 BAR2 EZ EP        241 26.34                             171   -0.1410 20.7 195 
 BAR2 EZ ES        241 40.47                             171   -0.7410 20.7 195 
 BAR2 EZ I         241 42.05        19.9 0.32            168           20.7 195 
 BRR  HZ EP        241 28.31                             151    0.0310 73.8 300 
 BRR  HE ES        241 45.12                             151    0.7110 73.8 300 
 BRR  HZ I         241 48.27        15.3 0.14            149           73.8 300 
 PAM  EZ EP        241 29.35                             149    0.0610 78.9  37 
 PAM  EE ES        241 46.09                             149   -0.1310 78.9  37 
 PAM  EZ I         241 48.19        32.8 0.60            154           78.9  37 
 RUS  HZ EP        241 30.47                             144   -0.0910 97.5 177 
 RUS  HN ES        241 49.52                             144    1.0510 97.5 177 
 RUS  HZ I         241 50.54         9.3 0.36            143           97.5 177 
 PTB  HN EP        241 33.80                             131   -0.36 9  148 260 
 PTB  HE ES        241 54.06                             131   -0.83 9  148 260 
 PTB  HZ I         242  1.25         8.3 0.32            129            148 260 
 SPBC HZ EP   2    241 35.65                             128    0.14 5  162 220 
 SPBC HN ES        241 57.78                             128    0.49 9  162 220 
 SPBC HZ I         242  0.59        11.2 0.10            127            162 220 
 YPLC HZ EP   2    241 36.78                             126    0.13 4  174 151 
 YPLC HN ES        241 58.89                             126   -0.43 9  174 151 
 YPLC HZ I         242  4.25         7.3 0.46            127            174 151 
 ZAR  HZ EP   2    241 40.84                             121    0.92 4  206 293 
 ZAR  HN ES        242  5.42                             121    0.29 8  206 293 
 ZAR  HZ I         242 12.72        10.4 0.20            121            206 293 
 NOR  HZ EP   2    241 42.31                             117   -0.61 4  234 235 
 NOR  HN ES        242 10.12                             117   -0.36 8  234 235 
 NOR  HZ I         242 18.37         3.4 0.14            117            234 235 
 HEL  HZ EP   2    241 48.88                             114    1.30 4  273 256 
 HEL  HN ES        242 18.63                             114   -0.14 8  273 256 
 HEL  HZ I         242 27.98         2.4 0.26            114            273 256 
 GUY2CHZ EP   4    241 51.96                             111    1.09 0  301 235 
 GUY2CHN ES   4    242 26.83                             111    2.21 0  301 235 
 GUY2CHZ I         242 31.44         3.9 0.26                           301 235 
 PTGC HN ES   4    242 22.92                             111   -1.62 0  305 159 
 PTGC HZ I         242 25.16         7.4 0.40            112            305 159 
 SJC  HZ EP   4    242  0.82                             105   -2.53 0  412 327 
 SJC  HN ES   4    242 42.22                             105   -4.62 0  412 327 
 SJC  HZ I         242 46.29         3.1 0.50            105            412 327 
                                                                                
