 2016  318 0343 49.4 L   6.303 -73.737 40.0  RSN  5 0.2 0.9LRSN                1
 GAP=194        0.60       3.7     2.6  7.5  0.2472E+01  0.3153E+01 -0.2353E+01E
 Epicentro: LANDAZURI - SANTANDER                                              3
 ACTION:UPD 16-05-13 21:25 OP:cam  STATUS:               ID:20160318034349 L   I
 OLDACT:UP  16-03-29 14:33 OP:cam  STATUS:               ID:20160318034349 L   3
 OLDACT:UP  16-03-29 14:33 OP:cam  STATUS:               ID:20160318034349 L   3
 OLDACT:UP  16-03-28 15:35 OP:Mher STATUS:               ID:20160318034349 L   3
 OLDACT:REG 16-03-18 12:56 OP:dnl  STATUS:               ID:20160318033749     3
 2016-03-18-0337-49M.COL___315                                                 6
 STAT SP IPHASW D HRMM SECON CODA AMPLIT PERI AZIMU VELO AIN AR TRES W  DIS CAZ7
 BAR2 EZ ES   4    344 21.17                             141    3.35 0 69.2  62 
 BAR2 EZ I         344 22.82         9.1 0.32            143           69.2  62 
 SPBC HZ EP        344  6.00                             136   -0.1510 80.9 207 
 SPBC HE ES        344 18.91                             136   -0.2910 80.9 207 
 SPBC HZ I         344 20.03         3.8 0.18            147           80.9 207 
 PTB  HZ EP     C  344  6.14                             135   -0.1510 83.7 288 
 PTB  HE ES        344 19.50                             135    0.0410 83.7 288 
 PTB  HZ I         344 23.05         5.2 0.12            140           83.7 288 
 RUS  HZ EP   2    344  7.46                             135    0.37 5 85.4 122 
 RUS  HN ES        344 21.00                             135    0.1210 85.4 122 
 RUS  HZ I         344 22.48         0.8 0.60            142           85.4 122 
 NOR  HE ES        344 31.90                             117    0.38 9  150 237 
                                                                                
