 2014  118 0913 55.8 L   6.789 -73.194147.6  RSN  5 0.2 1.5LRSN                1
 GAP=196        0.44       2.6     3.6  4.8  0.3205E+01  0.1739E+01 -0.4510E+01E
 Epicentro: ZAPATOCA - SANTANDER                                               3
 ACTION:UPD 14-03-13 09:56 OP:ep   STATUS:               ID:20140118091355 L   I
 OLDACT:UP  14-01-18 13:37 OP:cam  STATUS:               ID:20140118091000     3
 OLDACT:REG 14-01-18 10:24 OP:cam  STATUS:               ID:20140118091000     3
 2014-01-18-0910-00M.COL___285                                                 6
 STAT SP IPHASW D HRMM SECON CODA AMPLIT PERI AZIMU VELO AIN AR TRES W  DIS CAZ7
 BAR2 SZ ES   1    914 31.30                             171    0.22 7 21.8 177 
 RUS  HZ EP   1    914 19.55                             144   -0.13 7 99.9 173 
 RUS  HN ES        914 38.23                             144   -0.0810 99.9 173 
 RUS  HZ I         914 39.34         2.6 0.36            147           99.9 173 
 PTB  HZ EP   1    914 22.66                             134    0.23 7  142 259 
 PTB  HN ES        914 43.15                             134   -0.05 9  142 259 
 PTB  HZ I         914 47.18         4.7 0.48            133            142 259 
 SML  HZ EP   2    914 32.98                             118    0.58 4  243 337 
 SML  HE ES        915  0.77                             118   -0.19 8  243 337 
 SML  HZ I         915  5.33         3.8 0.26            118            243 337 
 CHI  HZ EP   2    914 33.26                             118   -0.07 4  246 194 
                                                                                
