 2014  318 0545  3.8 L   6.805 -73.145139.8  RSN 13 0.4 2.0LRSN                1
 GAP= 71        0.82       2.8     2.6  5.0  0.7570E+00  0.3268E+01 -0.1273E+01E
 Epicentro: LOS SANTOS - SANTANDER                                             3
 ACTION:UPD 14-04-09 23:18 OP:nd   STATUS:               ID:20140318054503 L   I
 OLDACT:REG 14-03-18 08:13 OP:mh   STATUS:               ID:20140318053814     3
 2014-03-18-0538-14M.COL___223                                                 6
 STAT SP IPHASW D HRMM SECON CODA AMPLIT PERI AZIMU VELO AIN AR TRES W  DIS CAZ7
 BAR2 SZ EP        545 22.78                             170    0.0810 23.8 190 
 BAR2 SZ ES        545 37.11                             170   -0.3610 23.8 190 
 BAR2 SZ I         545 39.31        35.4 0.19            169           23.8 190 
 PAM  SZ EP   1    545 25.56                             150    0.23 7 76.9  40 
 PAM  SN ES        545 42.11                             150   -0.0410 76.9  40 
 PAM  SZ I         545 44.96        25.0 0.49            153           76.9  40 
 RUS  HZ EP        545 27.24                             142    0.2610  101 176 
 RUS  HN ES        545 45.10                             142    0.0110  101 176 
 RUS  HE I         545 46.60        17.2 0.27            144            101 176 
 PTB  HZ EP        545 29.96                             130   -0.32 9  148 259 
 PTB  HN ES        545 50.67                             130   -0.28 9  148 259 
 PTB  HZ I         545 53.02        12.0 0.07            130            148 259 
 TAM  HZ EP        545 31.23                             129    0.24 9  155 105 
 TAM  HN ES        545 52.53                             129    0.30 9  155 105 
 OCA  HZ EP   1    545 30.97                             128   -0.61 7  160 353 
 OCA  HN ES   4    545 54.89                             128    1.62 0  160 353 
 OCA  HZ I         546  0.28        14.1 0.23            129            160 353 
 SPBC HZ EP   1    545 31.38                             127   -0.48 7  164 219 
 SPBC HN ES   2    545 54.06                             127    0.28 5  164 219 
 SPBC HZ I         546  1.28        10.1 0.14            128            164 219 
 ZAR  HZ EP   1    545 35.94                             121    0.12 6  204 292 
 ZAR  HN ES        546  1.50                             121    0.68 9  204 292 
 ZAR  HZ I         546  7.94        12.3 0.24            121            204 292 
 SML  HZ EP   1    545 39.26                             116   -0.76 6  243 335 
 SML  HN ES        546  8.14                             116   -0.16 8  243 335 
 SML  HZ I         546 14.29        19.3 0.06            117            243 335 
 CHI  HZ EP   1    545 40.98                             116   -0.22 6  249 195 
 CHI  HN ES   2    546  9.62                             116   -0.78 4  249 195 
 CHI  HZ I         546 17.08         3.9 0.76            117            249 195 
 HEL  HZ EP   4    545 45.42                             113    1.71 0  272 256 
 HEL  HN ES   2    546 15.11                             113    0.25 4  272 256 
 HEL  HZ I         546 22.37         4.0 0.24            114            272 256 
 URE  HZ EP   4    545 43.26                             112   -1.28 0  284 292 
 URE  HN ES   2    546 17.52                             112    1.17 4  284 292 
 GUY2CHZ EP   1    545 48.10                             111    0.95 5  302 235 
 GUY2CHN ES   4    546 20.91                             111   -0.08 0  302 235 
 SJC  HZ EP   4    545 57.63                             105   -1.47 0  409 327 
 SJC  HN ES   4    546 36.63                             105   -5.62 0  409 327 
                                                                                
