 2017  218 0709 13.2 L   6.788 -73.153144.2  RSN  4 0.3 0.7LRSN                1
 GAP=136        0.73       4.0     3.8  6.5 -0.1713E+01  0.2223E+01  0.3645E+01E
 Epicentro: LOS SANTOS - SANTANDER                                             3
 ACTION:UPD 17-05-24 15:37 OP:jn   STATUS:               ID:20170218070913 L   I
 OLDACT:REG 17-02-18 13:49 OP:cara STATUS:               ID:20170218070644     3
 2017-02-18-0707-00M.COL___345                                                 6
 STAT SP IPHASW D HRMM SECON CODA AMPLIT PERI AZIMU VELO AIN AR TRES W  DIS CAZ7
 BRR  HZ EP        7 9 34.56                             152    0.3810 71.1 300 
 BRR  HN ES        7 9 50.79                             152    0.2510 71.1 300 
 PAM  EZ EP        7 9 35.45                             150    0.1110 78.9  39 
 PAM  EN ES        7 9 52.27                             150   -0.3410 78.9  39 
 PAM  EZ I         7 9 55.10         0.9 0.30            152           78.9  39 
 RUS  HZ EP        7 9 36.84                             144    0.1310 99.3 176 
 RUS  HN ES        7 9 55.06                             144    0.0210 99.3 176 
 RUS  HZ I         7 9 55.77         0.5 0.20            146           99.3 176 
 PTB  HZ EP        7 9 39.48                             132   -0.47 9  147 259 
 PTB  HN ES        710  0.64                             132   -0.17 9  147 259 
 PTB  HZ I         710  3.69         0.9 0.12            133            147 259 
                                                                                
