 2013  518 0845 50.2 L   6.769 -73.178130.7  RSN  6 0.3 1.1LRSN                1
 GAP=134        0.56       4.6     4.7  7.2 -0.1041E+01  0.9538E+01 -0.4483E+01E
 Epicentro: LOS SANTOS - SANTANDER                                             3
 ACTION:UPD 13-06-20 09:51 OP:ep   STATUS:               ID:20130518084550 L   I
 2013-05-18-0840-00M.COL___256                                                 6
 STAT SP IPHASW D HRMM SECON CODA AMPLIT PERI AZIMU VELO AIN AR TRES W  DIS CAZ7
 BAR2 SZ EP        846  8.10                             171    0.1510 19.6 181 
 GIR2 SZ EP   1    846  7.60                             164   -0.59 7 34.3 357 
 GIR2 SZ ES   1    846 22.37                             164    0.16 7 34.3 357 
 BRR  HZ EP        846  9.83                             150    0.1610 69.9 302 
 BRR  HZ I         846 31.48         3.7 0.56            138           69.9 302 
 PAM  SZ EP   2    846 11.10                             146   -0.07 5 82.3  40 
 RUS  HN ES   1    846 29.43                             141   -0.05 7 97.5 174 
 RUS  HZ I         846 32.01         1.3 0.30            137           97.5 174 
 PTB  HZ EP   1    846 15.79                             129    0.19 7  144 260 
 PTB  HN ES   1    846 35.18                             129   -0.22 7  144 260 
 PTB  HZ I         846 37.49         2.2 0.46            121            144 260 
                                                                                
