 2013  418 0908  3.0 L   6.739 -73.177149.0  RSN  5 0.2 1.3LRSN                1
 GAP=135        0.56       5.9     4.3  7.5 -0.3853E+01 -0.6538E+01 -0.2663E+01E
 Epicentro: VILLANUEVA - SANTANDER                                             3
 ACTION:UPD 13-05-22 14:39 OP:EP   STATUS:               ID:20130418090803 L   I
 2013-04-18-0900-00M.COL___250                                                 6
 STAT SP IPHASW D HRMM SECON CODA AMPLIT PERI AZIMU VELO AIN AR TRES W  DIS CAZ7
 BAR2 SZ EP        9 8 22.72                             173   -0.1910 16.3 182 
 BAR2 SZ I         9 8 39.23         6.0 0.42            168           16.3 182 
 BRR  HZ EP        9 8 24.79                             153    0.2510 71.7 305 
 BRR  HN ES   1    9 8 41.45                             153    0.11 7 71.7 305 
 BRR  HZ I         9 8 48.29         3.8 0.50            162           71.7 305 
 PAM  SZ IP     D  9 8 25.86                             149   -0.1610 84.8  38 
 RUS  HN ES   2    9 8 45.36                             146    0.29 5 94.2 174 
 PTB  HZ EP        9 8 30.02                             133    0.19 9  143 261 
 PTB  HN ES   1    9 8 50.38                             133   -0.38 7  143 261 
 PTB  HZ I         9 8 54.22         2.2 0.46            140            143 261 
                                                                                
