 2015  518 0207  1.4 L   6.804 -73.043176.0  RSN  5 0.4 1.6LRSN                1
 GAP=193        0.79       5.9     8.4  9.6  0.1569E+02 -0.8922E+01 -0.2537E+02E
 Epicentro: LOS SANTOS - SANTANDER                                             3
 ACTION:UPD 15-09-10 22:04 OP:cam  STATUS:               ID:20150518020701 L   I
 OLDACT:REG 15-05-18 12:27 OP:spq  STATUS:               ID:20150518015746     3
 2015-05-18-0157-46M.COL___286                                                 6
 STAT SP IPHASW D HRMM SECON CODA AMPLIT PERI AZIMU VELO AIN AR TRES W  DIS CAZ7
 BRR  HZ EP   1    2 7 26.81                             154    0.46 7 81.1 294 
 BRR  HE ES        2 7 46.28                             154    0.4410 81.1 294 
 BRR  HZ I         2 7 49.81         3.9 0.18            153           81.1 294 
 RUS  HN ES   1    2 7 48.69                             149   -0.46 7  101 182 
 RUS  HZ I         2 7 50.40         2.9 0.36            153            101 182 
 OCA  HE ES   1    2 7 56.23                             136   -0.18 7  162 349 
 OCA  HZ I         2 7 58.54         7.6 0.46            136            162 349 
 ZAR  HN ES        2 8  4.41                             127   -0.29 8  214 291 
 ZAR  HZ I         2 8  8.49         2.6 0.08            128            214 291 
 SML  HZ EP        2 7 40.37                             123    0.05 8  248 333 
 SML  HE ES   1    2 8 10.20                             123   -0.51 6  248 333 
 SML  HZ I         2 8 16.13         4.0 0.10            124            248 333 
                                                                                
