 2013 1018 0317 33.0 L   6.793 -73.132147.1  RSN 10 0.5 1.8LRSN                1
 GAP=139        1.14       3.9     5.1  6.8 -0.2099E+01  0.6910E+01  0.1607E+01E
 Epicentro: LOS SANTOS - SANTANDER                                             3
 ACTION:UPD 13-11-25 09:22 OP:ep   STATUS:               ID:20131018031733 L   I
 OLDACT:REG 13-10-18 08:21 OP:jn   STATUS:               ID:20131018030836d    3
 2013-10-18-0308-35M.COL___226                                                 6
 STAT SP IPHASW D HRMM SECON CODA AMPLIT PERI AZIMU VELO AIN AR TRES W  DIS CAZ7
 BAR2 SZ EP        317 52.93                             171    0.1810 22.9 194 
 BAR2 SZ ES        318  8.03                             171   -0.1510 22.9 194 
 BAR2 SZ I         318 10.58        14.5 0.22            169           22.9 194 
 BRR  HZ EP        317 54.75                             152    0.3910 73.0 299 
 BRR  HN ES        318 12.03                             152    0.9910 73.0 299 
 BRR  HZ I         318 15.95         8.6 0.14            150           73.0 299 
 PAM  SZ EP        317 55.65                             151    0.3510 77.0  38 
 PAM  SN ES        318 12.52                             151   -0.2110 77.0  38 
 PAM  SZ I         318 14.77         6.0 0.42            155           77.0  38 
 RUS  HZ EP        317 57.03                             144    0.2510 99.7 177 
 RUS  HN ES        318 14.82                             144   -0.5410 99.7 177 
 RUS  HZ I         318 16.71         6.1 0.36            146           99.7 177 
 PTB  HZ EP        317 59.51                             132   -0.66 9  149 259 
 PTB  HN ES        318 20.78                             132   -0.60 9  149 259 
 PTB  HZ I         318 27.78         7.7 0.38            132            149 259 
 OCA  HE ES   1    318 22.79                             130   -0.92 7  161 353 
 OCA  HZ I         318 26.98         8.8 0.22            131            161 353 
 SPBC HZ EP        318  1.80                             129    0.20 9  164 220 
 SPBC HE ES        318 24.20                             129    0.26 9  164 220 
 SPBC HZ I         318 25.79         8.9 0.20            130            164 220 
 ZAR  HZ EP   1    318  6.19                             122    0.51 6  206 292 
 ZAR  HN ES   1    318 30.95                             122   -0.24 6  206 292 
 ZAR  HZ I         318 37.00        12.1 0.36            123            206 292 
 SML  HZ EP   1    318  9.23                             118   -0.59 6  245 335 
 CHI  HZ EP   1    318 10.66                             117   -0.04 6  248 196 
 CHI  HN ES   1    318 40.12                             117   -0.01 6  248 196 
 CHI  HZ I         318 47.94         2.0 0.20            119            248 196 
                                                                                
