 2010  418 0559  8.9 L   6.825 -73.066144.5  RSN 10 0.5 2.2LRSN                1
 GAP=207        1.12       4.7     8.8  7.6 -0.1097E+02  0.6184E+01  0.1212E+02E
 Epicentro: LOS SANTOS - SANTANDER                                             3
 ACTION:UPD 10-08-24 09:59 OP:vdl  STATUS:               ID:20100418055916 L   I
 2010-04-18-0556-14S.COL___100                                                 6
 STAT SP IPHASW D HRMM SECON CODA AMPLIT PERI AZIMU VELO AIN AR TRES W  DIS CAZ7
 BAR2 SZ EP        559 28.27                             168    -0.210   29 207 
 BAR2 SZ ES   1    559 43.37                             168    -0.4 7   29 207 
 BRR  HZ IP     D  559 30.50                             150     0.210   78 294 
 BRR  HZ I         559 30.80        31.7 0.74                            78 294 
 BRR  HN ES        559 47.17                             150     0.210   78 294 
 OCA  SZ EP        559 36.92                             130     0.0 9  159 350 
 OCA  SZ ES   1    559 58.91                             130     0.1 7  159 350 
 CHI  HZ EP   1    559 46.60                             116    -0.4 6  254 197 
 CHI  HZ I         559 47.50         7.3 0.82                           254 197 
 CHI  HN ES   1    6 0 16.44                             116    -0.4 6  254 197 
 ROSC BZ EP        559 48.43                             116     0.7 8  260 212 
 ROSC BN ES   1    6 0 18.52                             116     0.6 6  260 212 
 ROSC BZ I         6 0 24.53         6.6 1.14                           260 212 
 HEL  HZ EP   1    559 50.15                             114     0.1 6  281 256 
 HEL  HN ES   1    6 0 21.41                             114    -0.7 6  281 256 
 HEL  HZ I         6 0 27.42        10.6 0.52                           281 256 
 RREF BZ EP        559 57.08                             110     1.2 7  330 230 
 RREF BE ES   1    6 0 33.05                             110     0.4 5  330 230 
 RREF BZ I         6 0 38.15         6.3 0.45                           330 230 
 DBB  SZ EP        559 56.18                             109    -1.1 6  348 274 
 TOL  SZ EP   1    559 57.37                             108    -0.6 5  352 225 
 PRA  HZ EP        6 0  2.74                             106    -0.4 6  399 210 
 PRA  HN ES        6 0 45.26                             106    -0.2 6  399 210 
 PRA  HZ I         6 0 51.01         5.0 1.29                           399 210 
                                                                                
