 2017 1218 0726 22.9 L   6.749 -73.185146.9  RSN  4 0.3 1.2LRSN                1
 GAP=184        0.82       4.2     6.6  7.1 -0.1339E+02  0.8666E+01 -0.6071E+01E
 Epicentro: VILLANUEVA - SANTANDER                                             3
 ACTION:UPD 18-01-04 13:21 OP:rebc STATUS:               ID:20171218072622 L   I
 OLDACT:DUP 17-12-18 17:25 OP:dhb  STATUS:               ID:20171218071745d    3
 OLDACT:REG 17-12-18 13:09 OP:dhb  STATUS:               ID:20171218071744     3
 2017-12-18-0718-00M.COL___448                                                 6
 STAT SP IPHASW D HRMM SECON CODA AMPLIT PERI AZIMU VELO AIN AR TRES W  DIS CAZ7
 BAR2 EZ EP        726 42.55                             173    0.0310 17.4 179 
 BAR2 EZ ES        726 57.68                             173   -0.1810 17.4 179 
 BAR2 EZ I         727  0.23         3.5 0.30            172           17.4 179 
 PTB  HZ EP        726 49.72                             133    0.28 9  143 261 
 PTB  HN ES        727  9.78                             133   -0.41 9  143 261 
 PTB  HZ I         727 12.50         1.0 0.38            134            143 261 
 SPBC HZ EP        726 50.50                             131   -0.28 9  156 219 
 SPBC HN ES        727 13.08                             131    0.52 9  156 219 
 SPBC HZ I         727 22.21         1.6 0.20            132            156 219 
 OCA  HZ EP        726 51.42                             129   -0.31 9  165 355 
 OCA  HN ES        727 14.65                             129    0.39 9  165 355 
 OCA  HZ I         727 17.83         4.4 0.58            132            165 355 
                                                                                
