 2012 1018 0022 48.1 L   6.733 -73.119137.9  RSN  6 0.3 2.1LRSN                1
 GAP= 98        0.57       3.6     3.3  5.0  0.2892E+01 -0.5439E+01 -0.4846E+00E
 Epicentro: JORDAN - SANTANDER                                                 3
 ACTION:UPD 12-11-22 17:04 OP:ep   STATUS:               ID:20121018002248 L   I
 2012-10-18-0020-00M.COL___224                                                 6
 STAT SP IPHASW D HRMM SECON CODA AMPLIT PERI AZIMU VELO AIN AR TRES W  DIS CAZ7
 BAR2 SZ EP   2    023  6.36                             173   -0.36 5 17.1 204 
 BAR2 SZ ES   1    023 21.16                             173   -0.04 7 17.1 204 
 BAR2 SZ I         023 22.53        33.7 0.19                          17.1 204 
 GIR2 SZ EP   2    023  6.54                             163   -0.59 5 39.1 348 
 BRR  HZ EP        023  8.72                             149   -0.1110 77.5 302 
 BRR  HN ES        023 25.33                             149    0.3610 77.5 302 
 BRR  HZ I         023 26.67        24.1 0.34                          77.5 302 
 PAM  SZ EP        023  9.71                             148   -0.0810 81.5  35 
 PAM  SZ I         023 10.10        37.6 0.21                          81.5  35 
 PAM  SN ES   1    023 26.42                             148   -0.26 7 81.5  35 
 RUS  HZ EP   1    023 10.58                             144    0.00 7 93.0 178 
 RUS  HN ES   1    023 27.90                             144   -0.18 7 93.0 178 
 RUS  HE I         023 30.18        13.7 0.21                          93.0 178 
 TAM  HZ EP        023 15.10                             130    0.32 9  150 103 
 TAM  HZ I         023 15.37        18.1 0.22                           150 103 
 TAM  HE ES   1    023 35.70                             130    0.15 7  150 103 
                                                                                
