 2012  718 0151 36.3 L   6.767 -73.140152.0  RSN  8 0.4 2.3LRSN                1
 GAP=139        0.86       3.7     4.9  6.7 -0.5491E+00  0.3933E+01  0.1166E+01E
 Epicentro: LOS SANTOS - SANTANDER                                             3
 ACTION:UPD 12-08-14 11:45 OP:ep   STATUS:               ID:20120718015136 L   I
 2012-07-18-0150-00M.COL___197                                                 6
 STAT SP IPHASW D HRMM SECON CODA AMPLIT PERI AZIMU VELO AIN AR TRES W  DIS CAZ7
 BAR2 SZ EP   1    151 56.68                             172     0.1 7   20 194 
 BAR2 SZ ES   1    152 12.04                             172    -0.4 7   20 194 
 BAR2 SZ I         152 13.56        70.1 0.22            168             20 194 
 BRR  HZ IP     C  151 58.66                             153     0.410   74 301 
 BRR  HZ I         151 58.93        53.2 0.20            148             74 301 
 BRR  HN ES   1    152 16.13                             153     0.7 7   74 301 
 PAM  SZ EP        151 59.60                             151     0.310   80  38 
 PAM  SN ES   1    152 17.04                             151    -0.2 7   80  38 
 RUS  HZ EP   1    152  0.66                             146     0.2 7   97 176 
 RUS  HN ES   1    152 19.02                             146    -0.2 7   97 176 
 RUS  HZ I         152 20.66        22.8 0.35            146             97 176 
 PTB  HZ EP   1    152  3.53                             133    -0.3 7  148 260 
 PTB  HN ES   1    152 24.75                             133    -0.5 7  148 260 
 PTB  HZ I         152 31.99        15.4 0.29            130            148 260 
 OCA  HZ EP   1    152  5.06                             130    -0.4 7  164 353 
 OCA  HN ES   1    152 27.76                             130    -0.4 7  164 353 
 OCA  HZ I         152 33.97        36.1 0.37            131            164 353 
 ZAR  HZ EP   2    152  8.88                             123    -0.5 4  206 293 
 ZAR  HN ES   1    152 35.24                             123     0.1 6  206 293 
 ZAR  HZ I         152 41.28        16.1 0.36            122            206 293 
 CHI  HZ EP   1    152 13.93                             119    -0.1 6  245 196 
 CHI  HE ES   1    152 43.49                             119     0.1 6  245 196 
 CHI  HZ I         152 51.88         9.0 0.16            118            245 196 
