 2016  518 0044 16.0 L   6.828 -73.134140.7  RSN  8 0.4 1.7LRSN                1
 GAP=137        1.01       4.3     4.7  6.7 -0.7606E+00  0.1479E+02  0.3903E+01E
 Epicentro: LOS SANTOS - SANTANDER                                             3
 ACTION:UPD 16-08-18 17:46 OP:cam  STATUS:               ID:20160518004416 L   I
 OLDACT:UP  16-05-18 13:46 OP:mh   STATUS:               ID:20160518003746d    3
 OLDACT:DUP 16-05-18 13:46 OP:mh   STATUS:               ID:20160518003746d    3
 2016-05-18-0037-45M.COL___304                                                 6
 STAT SP IPHASW D HRMM SECON CODA AMPLIT PERI AZIMU VELO AIN AR TRES W  DIS CAZ7
 BAR2 EZ EP        044 35.33                             169    0.2610 26.6 192 
 BAR2 EZ ES        044 49.21                             169   -0.7510 26.6 192 
 BAR2 EZ I         044 51.66                             168           26.6 192 
 PAM  EE ES        044 54.40                             151    0.1810 74.2  40 
 PAM  EZ I         044 57.14        15.1 0.54            153           74.2  40 
 RUS  HZ EP        044 39.48                             142    0.0210  104 177 
 RUS  HN ES        044 58.21                             142    0.4410  104 177 
 RUS  HZ I         044 59.85         4.6 0.26            143            104 177 
 PTB  HZ EP        044 42.20                             130   -0.51 9  150 258 
 PTB  HE ES        045  3.56                             130    0.00 9  150 258 
 PTB  HZ I         045  5.72         5.8 0.18            131            150 258 
 SPBC HZ EP        044 44.33                             127   -0.07 9  166 219 
 SPBC HN ES        045  6.77                             127    0.20 9  166 219 
 ZAR  HZ EP        044 48.67                             121    0.57 9  204 291 
 ZAR  HN ES        045 13.28                             121    0.12 9  204 291 
 ZAR  HZ I         045 16.16         4.1 0.21            122            204 291 
 NOR  HZ EP        044 50.79                             117   -0.93 8  238 234 
 NOR  HE ES     C  045 20.04                             117    0.43 8  238 234 
 NOR  HZ I         045 24.36         4.5 0.24            118            238 234 
 PRA  HZ EP        045  9.82                             105    0.11 6  395 210 
 PRA  HN ES        045 51.54                             105   -0.09 6  395 210 
 PRA  HZ I         045 57.10         2.1 0.28            107            395 210 
                                                                                
