 2013  418 0443 17.7 L   7.455 -73.287121.6  RSN  9 0.5 1.7LRSN                1
 GAP=104        1.06       4.7     5.1  8.2 -0.4536E+01  0.1120E+02  0.5012E+01E
 Epicentro: EL PLAYON - SANTANDER                                              3
 ACTION:UPD 13-05-22 14:39 OP:EP   STATUS:               ID:20130418044317 L   I
 2013-04-18-0440-00M.COL___250                                                 6
 STAT SP IPHASW D HRMM SECON CODA AMPLIT PERI AZIMU VELO AIN AR TRES W  DIS CAZ7
 BRR  HZ IP     C  443 35.58                             152   -0.0710 60.7 231 
 BRR  HN ES   1    443 49.61                             152   -0.04 7 60.7 231 
 BRR  HZ I         443 50.20        41.9 0.16            149           60.7 231 
 PAM  SZ EP        443 37.02                             150    0.3410 66.1 101 
 PAM  SN ES   1    443 51.92                             150    0.44 7 66.1 101 
 PAM  SZ I         443 52.83         8.1 0.18            154           66.1 101 
 OCA  HZ EP        443 37.49                             142   -0.1210 86.7 358 
 OCA  HN ES   1    443 52.77                             142   -0.37 7 86.7 358 
 OCA  HZ I         443 54.91         9.1 0.16            145           86.7 358 
 PTB  HZ EP        443 43.88                             123   -0.60 9  164 232 
 PTB  HN ES   1    444  4.66                             123   -0.70 7  164 232 
 PTB  HZ I         444  6.84         5.9 0.16            122            164 232 
 SML  HZ EP        443 44.92                             121   -0.35 9  172 330 
 SML  HN ES   4    444  4.36                             121   -2.42 0  172 330 
 SML  HZ I         444  6.98        17.0 0.10            123            172 330 
 ZAR  HZ EP        443 45.92                             121    0.49 9  173 271 
 ZAR  HN ES   1    444  7.94                             121    0.88 7  173 271 
 ZAR  HZ I         444 11.19         5.5 0.12            121            173 271 
 RUS  HZ EP        443 45.74                             121   -0.40 9  174 173 
 RUS  HN ES   4    444  7.28                             121   -1.04 0  174 173 
 RUS  HZ I         444 10.42         1.6 0.50            122            174 173 
 NOR  HZ EP        443 57.42                             109    0.93 8  273 220 
 NOR  HE ES   1    444 26.54                             109   -0.20 6  273 220 
 NOR  HZ I         444 33.10         4.7 0.48            110            273 220 
 HEL  HZ EP   4    443 59.56                             108    1.31 0  285 241 
 HEL  HN ES   4    444 32.56                             108    2.69 0  285 241 
 HEL  HZ I         444 37.68         2.1 0.24            109            285 241 
                                                                                
