 2014  118 0954 27.8 L   6.801 -73.160139.6  RSN 14 0.4 2.2LRSN                1
 GAP= 70        0.82       2.5     2.6  4.7 -0.1012E+01  0.3391E+01 -0.2398E+00E
 Epicentro: LOS SANTOS - SANTANDER                                             3
 ACTION:UPD 14-03-13 09:56 OP:ep   STATUS:               ID:20140118095427 L   I
 OLDACT:REG 14-01-18 10:25 OP:cam  STATUS:               ID:20140118095000     3
 2014-01-18-0950-00M.COL___285                                                 6
 STAT SP IPHASW D HRMM SECON CODA AMPLIT PERI AZIMU VELO AIN AR TRES W  DIS CAZ7
 BAR2 SZ EP        954 46.71                             170    0.0510 23.2 186 
 BAR2 SZ ES        955  1.43                             170    0.0310 23.2 186 
 BAR2 SZ I         955  2.77        80.8 0.16            172           23.2 186 
 PAM  SZ EP        954 49.59                             149    0.1910 78.3  40 
 PAM  SN ES        955  6.58                             149    0.3210 78.3  40 
 PAM  SZ I         955  8.98        23.0 0.68            150           78.3  40 
 RUS  HZ EP        954 50.62                             143   -0.3210  101 175 
 RUS  HN ES        955  8.70                             143   -0.3110  101 175 
 RUS  HZ I         955 10.32        19.1 0.30            145            101 175 
 PTB  HZ EP   1    954 53.83                             131   -0.28 7  146 259 
 PTB  HN ES        955 14.02                             131   -0.63 9  146 259 
 PTB  HZ I         955 17.26        17.3 0.26            131            146 259 
 TAM  HZ EP   1    954 55.12                             129    0.01 7  157 105 
 TAM  HN ES        955 16.61                             129    0.17 9  157 105 
 TAM  HZ I         955 18.76         8.7 0.38            131            157 105 
 OCA  HZ EP   1    954 55.39                             128   -0.20 7  160 354 
 OCA  HN ES   1    955 16.79                             128   -0.50 7  160 354 
 OCA  HZ I         955 21.52        20.4 0.20            129            160 354 
 SPBC HZ EP        954 55.74                             128    0.02 9  162 219 
 SPBC HE ES        955 17.90                             128    0.38 9  162 219 
 SPBC HZ I         955 18.60        22.2 0.20            129            162 219 
 ZAR  HZ EP   2    954 59.95                             121    0.27 4  203 292 
 ZAR  HE ES        955 25.37                             121    0.81 9  203 292 
 ZAR  HZ I         955 30.94        21.7 0.46            122            203 292 
 NOR  HZ EP        955  3.28                             117    0.26 8  233 234 
 NOR  HN ES        955 30.71                             117    0.19 8  233 234 
 NOR  HZ I         955 34.01         9.8 0.20            118            233 234 
 SML  HZ EP        955  3.32                             116   -0.67 8  243 336 
 SML  HN ES   4    955 34.02                             116    1.79 0  243 336 
 SML  HZ I         955 36.21        17.8 0.24            117            243 336 
 CHI  HZ EP   1    955  4.91                             116   -0.19 6  248 195 
 CHI  HN ES        955 34.03                             116   -0.19 8  248 195 
 CHI  HZ I         955 39.93         6.7 0.36            117            248 195 
 ROSC BZ EP   2    955  6.57                             115    1.08 4  252 211 
 HEL  HZ EP   2    955  7.84                             114    0.32 4  271 256 
 GUY2CHZ EP   2    955 11.19                             111    0.22 4  300 235 
 SJC  HZ EP   4    955 21.02                             105   -2.02 0  408 327 
                                                                                
