 2012 1218 0356 58.4 L   6.764 -73.144144.8  RSN  6 0.3 1.7LRSN                1
 GAP=138        0.80       4.7     4.6  5.8 -0.2947E+01  0.2619E+01  0.2508E+01E
 Epicentro: LOS SANTOS - SANTANDER                                             3
 ACTION:UPD 13-01-04 14:28 OP:ep   STATUS:               ID:20121218035658 L   I
 2012-12-18-0350-00M.COL___242                                                 6
 STAT SP IPHASW D HRMM SECON CODA AMPLIT PERI AZIMU VELO AIN AR TRES W  DIS CAZ7
 BAR2 SZ EP        357 17.96                             172    0.0810 19.4 193 
 BAR2 SZ ES        357 32.86                             172   -0.1910 19.4 193 
 BAR2 SZ I         357 34.19        14.7 0.30                          19.4 193 
 GIR2 SZ EP        357 18.05                             166   -0.0610 35.3 351 
 BRR  HZ EP     D  357 19.79                             152    0.1810 73.4 301 
 BRR  HZ I         357 19.98         7.9 0.15                          73.4 301 
 BRR  HN ES        357 36.55                             152    0.4310 73.4 301 
 PAM  SZ EP        357 20.99                             150    0.2510 80.4  38 
 PAM  SN ES        357 37.75                             150   -0.3710 80.4  38 
 PAM  SZ I         357 40.72         7.6 0.70                          80.4  38 
 RUS  HZ EP        357 22.09                             145    0.2810 96.6 176 
 RUS  HN ES   1    357 40.03                             145   -0.01 7 96.6 176 
 RUS  HN I         357 42.54         7.0 0.39                          96.6 176 
 PTB  HZ EP        357 24.62                             132   -0.66 9  147 260 
 PTB  HE ES   1    357 46.19                             132   -0.03 7  147 260 
                                                                                
