 2011  718 0202 25.1 L   7.376 -73.200135.3  RSN  5 0.1 1.5LRSN                1
 GAP=183        0.36       2.5     7.3  5.4 -0.3770E+01 -0.1827E+02  0.2111E+01E
 Epicentro: EL PLAYON - SANTANDER                                              3
 ACTION:UPD 12-07-25 14:01 OP:epov STATUS:               ID:20110718020225 L   I
 2011-07-18-0200-31S.COL___143                                                 6
 STAT SP IPHASW D HRMM SECON CODA AMPLIT PERI AZIMU VELO AIN AR TRES W  DIS CAZ7
 BTL  SZ EP   1    2 2 44.71                             158    0.27 7 51.2 188 
 BRR  HZ EP        2 2 44.71                             153   -0.0110 63.9 242 
 BRR  HN ES   1    2 2 59.98                             153   -0.04 7 63.9 242 
 BRR  HZ I         2 3  1.44        11.9 0.15                          63.9 242 
 BAR2 SZ ES   2    2 3  3.03                             146   -0.13 5 86.7 179 
 BAR2 SZ I         2 3  4.15         7.7 0.15                          86.7 179 
 OCA  SZ EP   1    2 2 46.94                             143   -0.12 7 96.3 352 
 OCA  SZ ES   1    2 3  4.20                             143    0.03 7 96.3 352 
 OCA  SZ I         2 3  5.52         2.4 0.19                          96.3 352 
 RUS  HZ EP   2    2 2 53.33                             127   -0.18 5  165 175 
                                                                                
