 2016  218 0435  3.4 L   6.768 -73.115146.2  RSN  7 0.3 1.4LRSN                1
 GAP=142        0.81       3.3     4.0  5.1 -0.2943E+01  0.1866E+01  0.4329E+01E
 Epicentro: LOS SANTOS - SANTANDER                                             3
 ACTION:UPD 16-03-04 21:27 OP:rebc STATUS:               ID:20160218043503 L   I
 OLDACT:REG 16-02-18 12:38 OP:drio STATUS:               ID:20160218042748     3
 2016-02-18-0427-48M.COL___333                                                 6
 STAT SP IPHASW D HRMM SECON CODA AMPLIT PERI AZIMU VELO AIN AR TRES W  DIS CAZ7
 BAR2 EZ EP        435 22.93                             172   -0.0710 20.9 201 
 BAR2 EZ ES        435 38.28                             172   -0.0310 20.9 201 
 BAR2 EZ I         435 40.58         4.7 0.26            169           20.9 201 
 BRR  HZ EP        435 25.01                             151    0.1910 75.9 300 
 BRR  HN ES        435 42.07                             151    0.5010 75.9 300 
 BRR  HZ I         435 45.17         4.8 0.26            149           75.9 300 
 PAM  EZ EP        435 25.79                             151    0.1310 78.1  36 
 PAM  EE ES        435 42.98                             151   -0.0810 78.1  36 
 PAM  EZ I         435 45.06         6.8 0.54            155           78.1  36 
 RUS  HZ EP        435 26.83                             145   -0.0610 96.9 178 
 RUS  HN ES        435 44.85                             145   -0.4010 96.9 178 
 RUS  HZ I         435 46.52         1.1 0.30            147           96.9 178 
 PTB  HZ EP        435 29.96                             132   -0.65 9  150 260 
 PTB  HE ES        435 51.50                             132   -0.36 9  150 260 
 PTB  HZ I         435 58.28         2.9 0.34            132            150 260 
 SPBC HZ EP        435 31.89                             129    0.05 9  163 221 
 SPBC HN ES        435 54.25                             129    0.19 9  163 221 
 SPBC HZ I         435 59.78         6.5 0.20            130            163 221 
 CHI  HZ EP        435 41.08                             117    0.26 8  246 196 
 CHI  HE ES        436 10.57                             117    0.54 8  246 196 
                                                                                
