 2011  918 0117 56.1 L   6.790 -73.116143.5  RSN  7 0.3 1.8LRSN                1
 GAP=141        0.67       4.2     6.1  6.3  0.4807E+00 -0.1476E+01 -0.3222E+00E
 Epicentro: LOS SANTOS - SANTANDER                                             3
 ACTION:UPD 12-07-13 15:58 OP:ep   STATUS:               ID:20110918011756 L   I
 2011-09-18-0113-31S.COL___171                                                 6
 STAT SP IPHASW D HRMM SECON CODA AMPLIT PERI AZIMU VELO AIN AR TRES W  DIS CAZ7
 BTL  SZ EP        118 15.59                             171    0.1710 21.9 310 
 BAR2 SZ EP        118 15.23                             170   -0.2110 23.1 199 
 BAR2 SZ ES   1    118 29.99                             170   -0.54 7 23.1 199 
 BAR2 SZ I         118 31.74        18.9 0.18                          23.1 199 
 GIR2 SZ EP        118 15.23                             166   -0.3010 33.0 345 
 BRR  HZ EP        118 17.22                             151    0.0410 74.6 298 
 BRR  HE ES   1    118 34.04                             151    0.40 7 74.6 298 
 BRR  HZ I         118 36.47        11.2 0.14                          74.6 298 
 PAM  SZ EP        118 18.26                             151    0.2810 76.2  37 
 PAM  SN ES   1    118 35.03                             151   -0.04 7 76.2  37 
 RUS  HZ EP        118 19.48                             144   -0.0410 99.4 178 
 RUS  HE ES   1    118 38.20                             144    0.39 7 99.4 178 
 ZAR  HN ES   3    118 53.12                             121   -1.09 2  208 292 
                                                                                
