 2010  818 0756 13.5 L   6.815 -73.030141.0  RSN 12 0.4 1.8LRSN                1
 GAP=171        0.92       3.2     5.9  6.1 -0.7409E+01  0.6376E+00  0.3283E+01E
 Epicentro: CEPITA - SANTANDER                                                 3
 ACTION:UP  10-09-07 10:56 OP:vdl  STATUS:               ID:20100818075613 L   I
 2010-08-18-0752-37S.COL___111                                                 6
 STAT SP IPHASW D HRMM SECON CODA AMPLIT PERI AZIMU VELO SNR AR TRES W  DIS CAZ7
 BAR2 SZ EP        756 32.68                             167     0.010   30 215 
 BAR2 SZ ES   1    756 47.57                             167    -0.1 7   30 215 
 BAR2 SZ I         756 50.35        17.2 0.46                            30 215 
 GIR2 SZ EP   3    756 33.18                             166     0.5 2   34 328 
 BRR  HZ EP        756 34.71                             148    -0.110   82 293 
 BRR  HZ I         756 34.90        15.1 0.05                            82 293 
 BRR  HN ES        756 51.22                             148    -0.210   82 293 
 RUS  HZ EP        756 36.62                             142    -0.310  102 183 
 RUS  HZ I         756 38.25         5.0 0.66                           102 183 
 RUS  HN ES   1    756 55.62                             142     0.5 7  102 183 
 GUE  SZ EP        756 37.58                             139     0.110  113   6 
 GUE  SZ I         757  1.29         3.2 0.19                           113   6 
 GRA  SZ EP        756 38.45                             137     0.610  121  12 
 GRA  SZ ES   1    756 57.16                             137     0.2 7  121  12 
 GRA  SZ I         756 59.21         8.4 0.33                           121  12 
 OCA  SZ EP        756 41.06                             128    -0.4 9  161 349 
 OCA  SZ ES   1    757  2.76                             128    -0.5 7  161 349 
 OCA  SZ I         757  8.88         6.9 1.00                           161 349 
 CHI  HZ EP   1    756 50.93                             115    -0.6 6  254 198 
 CHI  HN ES   1    757 20.42                             115    -0.7 6  254 198 
 CHI  HZ I         757 28.85         2.9 0.43                           254 198 
 ROSC BZ EP   1    756 52.80                             115     0.6 6  261 213 
 ROSC BN ES   1    757 23.23                             115     0.7 6  261 213 
 ROSC BZ I         757 30.61         6.7 0.73                           261 213 
 HEL  HZ EP   1    756 55.20                             113     0.3 6  285 256 
 HEL  HN ES   2    757 27.28                             113     0.1 4  285 256 
 HEL  HZ I         757 31.61         4.1 0.28                           285 256 
 RREF HZ EP   1    757  0.80                             109     0.1 5  333 231 
 RREF HN ES        757 37.82                             109     0.3 7  333 231 
 RREF HZ I         757 44.73         4.7 0.27                           333 231 
 PRA  HZ EP   1    757  7.20                             105    -0.6 4  400 211 
 PRA  HN ES   2    757 49.19                             105    -0.9 3  400 211 
 PRA  HZ I         757 54.74         2.8 0.41                           400 211 
                                                                                
