 2013  918 0301  9.5 L   6.847 -73.133146.4  RSN  9 0.4 2.5LRSN                1
 GAP=136        0.97       3.1     4.4  6.2 -0.1127E+01  0.7458E+01 -0.2871E+01E
 Epicentro: LOS SANTOS - SANTANDER                                             3
 ACTION:UPD 13-10-22 09:23 OP:ep   STATUS:               ID:20130918030109 L   I
 OLDACT:DUP 13-09-18 09:29 OP:carl STATUS:               ID:20130918030001d    3
 2013-09-18-0300-00M.COL___268                                                 6
 STAT SP IPHASW D HRMM SECON CODA AMPLIT PERI AZIMU VELO AIN AR TRES W  DIS CAZ7
 BAR2 SZ EP        3 1 29.39                             168    0.1010 28.7 191 
 BAR2 SZ ES   1    3 1 44.30                             168   -0.45 7 28.7 191 
 BAR2 SZ I         3 1 47.98        23.0 0.56            167           28.7 191 
 BRR  HZ IP     C  3 1 31.03                             153    0.4010 70.2 294 
 BRR  HN ES   1    3 1 48.09                             153    0.96 7 70.2 294 
 BRR  HZ I         3 1 52.32        42.9 0.18            151           70.2 294 
 PAM  SZ EP        3 1 31.84                             152    0.3710 72.5  41 
 PAM  SN ES        3 1 48.84                             152    0.2110 72.5  41 
 PAM  SZ I         3 1 50.91        41.7 0.46            159           72.5  41 
 RUS  HZ EP        3 1 33.59                             142   -0.0610  106 177 
 RUS  HN ES        3 1 52.11                             142   -0.4010  106 177 
 RUS  HZ I         3 1 54.18        16.8 0.28            146            106 177 
 PTB  HZ EP        3 1 36.60                             132   -0.12 9  150 257 
 PTB  HN ES        3 1 57.51                             132   -0.45 9  150 257 
 PTB  HZ I         3 2  2.32        26.7 0.22            133            150 257 
 OCA  HZ EP        3 1 37.45                             131    0.08 9  155 352 
 OCA  HN ES        3 1 58.62                             131   -0.51 9  155 352 
 OCA  HZ I         3 2  0.80      1892.1 1.36            135            155 352 
 SPBC HZ EP        3 1 38.68                             128    0.19 9  168 218 
 SPBC HN ES   1    3 2  1.03                             128   -0.09 7  168 218 
 SPBC HZ I         3 2  8.89        16.1 0.36            130            168 218 
 ZAR  HZ EP        3 1 42.37                             122    0.47 9  204 291 
 ZAR  HN ES   1    3 2  7.67                             122    0.47 6  204 291 
 ZAR  HZ I         3 2 13.81        35.3 0.32            125            204 291 
 SML  HZ EP        3 1 45.04                             118   -0.65 8  240 334 
 SML  HE ES        3 2 13.51                             118   -0.44 8  240 334 
 SML  HZ I         3 2 15.34        34.5 0.10            121            240 334 
                                                                                
