 2017  418 0556 57.7 L   6.792 -73.133147.1  RSN  9 0.4 1.8LRSN                1
 GAP=139        1.04       3.9     4.2  6.2 -0.1419E+01  0.5431E+01  0.5883E+01E
 Epicentro: LOS SANTOS - SANTANDER                                             3
 ACTION:UPD 17-05-30 21:13 OP:jn   STATUS:               ID:20170418055657 L   I
 OLDACT:UP  17-04-18 15:43 OP:cog  STATUS:               ID:20170418054658     3
 OLDACT:UP  17-04-18 15:43 OP:cog  STATUS:               ID:20170418054658     3
 OLDACT:REG 17-04-18 12:53 OP:cog  STATUS:               ID:20170418054658     3
 2017-04-18-0548-00M.COL___368                                                 6
 STAT SP IPHASW D HRMM SECON CODA AMPLIT PERI AZIMU VELO AIN AR TRES W  DIS CAZ7
 BAR2 EZ EP        557 17.44                             171   -0.0110 22.7 194 
 BAR2 EZ ES        557 32.70                             171   -0.1810 22.7 194 
 BAR2 EZ I         557 33.79        28.7 0.14            169           22.7 194 
 BRR  HZ EP        557 19.47                             152    0.4010 72.9 299 
 BRR  HN ES        557 36.65                             152    0.9010 72.9 299 
 BRR  HZ I         557 37.45         9.9 0.38            153           72.9 299 
 PAM  EZ EP        557 20.15                             151    0.1310 77.2  38 
 PAM  EE ES        557 36.79                             151   -0.6610 77.2  38 
 PAM  EZ I         557 39.65         7.2 0.48            154           77.2  38 
 RUS  HZ EP        557 21.51                             144    0.0210 99.6 177 
 RUS  HN ES        557 40.45                             144    0.3910 99.6 177 
 RUS  HZ I         557 41.70         9.2 0.26            144           99.6 177 
 PTB  HZ EP        557 24.25                             132   -0.62 9  149 259 
 PTB  HN ES        557 45.44                             132   -0.63 9  149 259 
 PTB  HZ I         557 47.25         8.8 0.38            133            149 259 
 SPBC HZ EP        557 26.39                             129    0.09 9  163 220 
 SPBC HN ES        557 48.62                             129    0.00 9  163 220 
 SPBC HZ I         557 51.11        15.7 0.18            130            163 220 
 ZAR  HZ EP   3    557 32.15                             123    1.77 2  206 292 
 ZAR  HN ES        557 55.67                             123   -0.22 8  206 292 
 NOR  HZ EP        557 33.46                             119   -0.09 8  235 235 
 NOR  HE ES        558  1.89                             119    0.36 8  235 235 
 NOR  HZ I         558  7.13         4.8 0.18            119            235 235 
 CHI  HZ EP        557 35.42                             118    0.02 8  248 196 
 CHI  HN ES        558  4.64                             118   -0.17 8  248 196 
 CHI  HZ I         558  8.85         2.4 0.32            118            248 196 
                                                                                
