 2017 1118 0126 30.0 L   6.772 -73.130139.1  RSN  4 0.2 1.3LRSN                1
 GAP=140        0.55       3.3     3.5  5.3 -0.3832E+01  0.1684E+01 -0.3632E+00E
 Epicentro: LOS SANTOS - SANTANDER                                             3
 ACTION:UPD 17-12-12 19:56 OP:rebc STATUS:               ID:20171118012630 L   I
 OLDACT:DUP 17-11-18 12:59 OP:osc  STATUS:               ID:20171118011745d    3
 OLDACT:DUP 17-11-18 12:55 OP:osc  STATUS:               ID:20171118011744d    3
 OLDACT:UP  17-11-18 12:54 OP:osc  STATUS:               ID:20171118011743     3
 OLDACT:REG 17-11-18 09:59 OP:mg   STATUS:               ID:20171118011743     3
 2017-11-18-0118-00M.COL___473                                                 6
 STAT SP IPHASW D HRMM SECON CODA AMPLIT PERI AZIMU VELO AIN AR TRES W  DIS CAZ7
 BAR2 EZ ES        127  3.73                             171    0.2910 20.8 196 
 PAM  EZ EP        126 51.58                             149   -0.0310 78.7  37 
 PAM  EN ES        127  8.33                             149   -0.1210 78.7  37 
 PAM  EZ I         127 10.66         4.1 0.54            149           78.7  37 
 RUS  HZ EP        126 53.08                             143    0.1910 97.4 177 
 RUS  HN ES        127 10.47                             143   -0.2610 97.4 177 
 RUS  HZ I         127 12.02         2.9 0.40            145           97.4 177 
 PTB  HE ES        127 17.17                             130   -0.09 9  149 260 
                                                                                
