 2017  818 0730 37.0 L   6.795 -73.173141.9  RSN  6 0.4 1.4LRSN                1
 GAP=133        0.64       3.3     3.8  5.7  0.1467E+01  0.6867E+01 -0.2046E+01E
 Epicentro: LOS SANTOS - SANTANDER                                             3
 ACTION:UPD 17-09-04 20:21 OP:rebc STATUS:               ID:20170818073037 L   I
 OLDACT:UP  17-08-18 14:12 OP:mg   STATUS:               ID:20170818072740     3
 OLDACT:UP  17-08-18 14:12 OP:mg   STATUS:               ID:20170818072740     3
 OLDACT:UP  17-08-18 14:11 OP:mg   STATUS:               ID:20170818072740     3
 OLDACT:UP  17-08-18 14:05 OP:mg   STATUS:               ID:20170818072740     3
 OLDACT:REG 17-08-18 12:32 OP:mg   STATUS:               ID:20170818072740     3
 2017-08-18-0728-00M.COL___407                                                 6
 STAT SP IPHASW D HRMM SECON CODA AMPLIT PERI AZIMU VELO AIN AR TRES W  DIS CAZ7
 BAR2 EZ EP        730 55.81                             171   -0.3110 22.5 183 
 BAR2 EZ ES        731 10.84                             171   -0.2210 22.5 183 
 BAR2 EZ I         731 11.90         9.5 0.32            172           22.5 183 
 BRR  HZ IP     C  730 57.62                             153    0.0510 68.8 300 
 BRR  HN ES   3    731 14.91                             153    1.27 2 68.8 300 
 BRR  HZ I         731 15.72         2.4 0.12            153           68.8 300 
 PAM  EZ EP     D  730 58.78                             149   -0.1410 79.7  41 
 PAM  EN ES        731 16.21                             149    0.1710 79.7  41 
 PAM  EZ I         731 17.92         5.8 0.66            151           79.7  41 
 RUS  HZ EP        731  0.58                             143    0.2510  100 174 
 RUS  HN ES        731 18.61                             143    0.0710  100 174 
 RUS  HZ I         731 19.49         2.4 0.32            146            100 174 
 ZAR  HZ EP   3    731 10.04                             122    1.14 2  201 293 
 ZAR  HN ES        731 33.91                             122    0.10 9  201 293 
 ZAR  HZ I         731 35.67         1.4 0.12            124            201 293 
 URE  HZ EP   4    731 12.59                             113   -4.98 0  281 292 
 URE  HN ES   3    731 47.25                             113   -1.98 2  281 292 
 URE  HZ I         731 47.96         2.1 0.18            115            281 292 
                                                                                
