 2012 1218 0448 56.7 L   6.243 -73.765 97.5  RSN  4 0.1 1.2LRSN                1
 GAP=176        0.41       3.4     1.8  4.4  0.2254E+01  0.8004E+00  0.1140E+01E
 Epicentro: LANDAZURI - SANTANDER                                              3
 ACTION:UPD 13-01-04 14:28 OP:ep   STATUS:               ID:20121218044856 L   I
 2012-12-18-0440-00M.COL___242                                                 6
 STAT SP IPHASW D HRMM SECON CODA AMPLIT PERI AZIMU VELO AIN AR TRES W  DIS CAZ7
 BAR2 SZ EP        449 13.74                             140    0.2010 75.2  59 
 BAR2 SZ ES        449 26.65                             140   -0.0310 75.2  59 
 PTB  HZ EP        449 13.78                             137   -0.1210 83.2 293 
 PTB  HN ES        449 27.41                             137    0.1010 83.2 293 
 PTB  HZ I         449 28.05         3.1 0.10                          83.2 293 
 RUS  HZ EP        449 14.77                             136    0.0710 84.9 117 
 RUS  HN ES   1    449 28.58                             136   -0.15 7 84.9 117 
 RUS  HN I         449 30.97         4.0 0.51                          84.9 117 
 BRR  HZ EP        449 14.85                             132   -0.1310 95.7   4 
 BRR  HZ I         449 20.89         5.3 0.24                          95.7   4 
                                                                                
