 2016  918 0651 30.9 L   6.801 -73.140147.3  RSN 11 0.4 2.0LRSN                1
 GAP=137        0.92       2.7     3.7  5.1 -0.1778E+01  0.3655E+01  0.1827E+01E
 Epicentro: LOS SANTOS - SANTANDER                                             3
 ACTION:UPD 17-08-17 21:13 OP:lp   STATUS:               ID:20160918065130 L   I
 OLDACT:REG 16-09-18 13:12 OP:y    STATUS:               ID:20160918064746     3
 2016-09-18-0648-00M.COL___354                                                 6
 STAT SP IPHASW D HRMM SECON CODA AMPLIT PERI AZIMU VELO AIN AR TRES W  DIS CAZ7
 BAR2 EZ EP        651 50.68                             170   -0.0110 23.6 191 
 BAR2 EZ ES        652  5.89                             170   -0.2510 23.6 191 
 BAR2 EZ I         652  7.28        53.3 0.18            170           23.6 191 
 BRR  HZ IP     C  651 52.53                             153    0.3210 71.7 298 
 BRR  HE ES        652  9.80                             153    0.9510 71.7 298 
 BRR  HZ I         652 10.52        16.1 0.28            152           71.7 298 
 PAM  EZ EP        651 53.51                             151    0.2910 76.9  39 
 PAM  EN ES        652 10.42                             151   -0.2310 76.9  39 
 PAM  EZ I         652 13.14         6.8 0.32            154           76.9  39 
 RUS  HZ EP        651 54.66                             144   -0.1210  101 176 
 RUS  HN ES        652 13.36                             144   -0.0610  101 176 
 RUS  HZ I         652 14.58        15.2 0.26            145            101 176 
 PTB  HZ EP        651 57.82                             132   -0.20 9  148 259 
 PTB  HN ES        652 18.36                             132   -0.83 9  148 259 
 PTB  HZ I         652 21.86         8.8 0.46            132            148 259 
 OCA  HZ EP        651 58.85                             130   -0.45 9  160 353 
 OCA  HN ES        652 21.34                             130   -0.12 9  160 353 
 OCA  HZ I         652 24.09        19.0 0.22            131            160 353 
 SPBC HZ EP        651 59.66                             129    0.13 9  164 219 
 SPBC HE ES        652 22.22                             129    0.33 9  164 219 
 SPBC HZ I         652 26.56        14.8 0.10            130            164 219 
 ZAR  HZ EP   2    652  4.31                             123    0.84 4  205 292 
 ZAR  HN ES        652 28.81                             123   -0.09 9  205 292 
 ZAR  HZ I         652 34.15         9.2 0.42            123            205 292 
 NOR  HZ EP        652  6.80                             119    0.05 8  235 235 
 NOR  HN ES        652 34.34                             119   -0.40 8  235 235 
 NOR  HZ I         652 39.22         6.7 0.18            119            235 235 
 CHI  HZ EP        652  8.81                             117    0.12 8  249 195 
 CHI  HN ES        652 38.26                             117    0.08 8  249 195 
 CHI  HZ I         652 43.75         4.6 0.40            118            249 195 
 GUY2CHZ EP   2    652 15.20                             113    0.58 4  302 235 
 GUY2CHN ES   2    652 49.18                             113    0.44 4  302 235 
 GUY2CHZ I         653  2.90         4.9 0.58                           302 235 
                                                                                
