 2016 1118 0741 40.7 L   6.707 -73.158144.0  RSN  4 0.3 1.2LRSN                1
 GAP=246        0.46       5.2     3.4  4.1  0.6664E+01  0.3507E+01  0.1016E+01E
 Epicentro: VILLANUEVA - SANTANDER                                             3
 ACTION:UPD 17-10-26 21:09 OP:lp   STATUS:               ID:20161118074140 L   I
 OLDACT:REG 16-11-18 12:53 OP:and  STATUS:               ID:20161118073744     3
 2016-11-18-0738-00M.COL___343                                                 6
 STAT SP IPHASW D HRMM SECON CODA AMPLIT PERI AZIMU VELO AIN AR TRES W  DIS CAZ7
 BAR2 EZ EP        742  0.02                             175    0.0310 12.9 192 
 BAR2 EZ ES        742 15.03                             175    0.0210 12.9 192 
 BAR2 EZ I         742 17.69         4.2 0.24            169           12.9 192 
 BRR  HZ EP        742  1.88                             151   -0.0710 75.5 306 
 BRR  HN ES        742 18.62                             151    0.1210 75.5 306 
 BRR  HZ I         742 22.82         4.5 0.42            149           75.5 306 
 PTB  HZ EP        742  7.08                             132   -0.21 9  145 263 
 PTB  HN ES        742 28.13                             132    0.13 9  145 263 
 PTB  HZ I         742 35.01         1.4 0.18            132            145 263 
 ZAR  HZ EP   3    742 14.74                             122    1.37 2  207 295 
 ZAR  HN ES        742 38.69                             122   -0.12 8  207 295 
 ZAR  HZ I         742 43.33         1.7 0.24            123            207 295 
                                                                                
