 2015  418 0458  7.5 L   6.817 -73.164145.9  RSN 11 0.4 2.3LRSN                1
 GAP=133        1.09       3.0     4.3  5.9 -0.2351E+01  0.6818E+01 -0.1155E+01E
 Epicentro: LOS SANTOS - SANTANDER                                             3
 ACTION:UPD 15-06-03 16:55 OP:cam  STATUS:               ID:20150418045807 L   I
 OLDACT:REG 15-04-18 15:49 OP:carl STATUS:               ID:20150418045742     3
 2015-04-18-0457-42M.COL___272                                                 6
 STAT SP IPHASW D HRMM SECON CODA AMPLIT PERI AZIMU VELO AIN AR TRES W  DIS CAZ7
 BAR2 EZ EP        458 27.10                             170   -0.0610 25.0 185 
 BAR2 EZ ES        458 42.36                             170   -0.1510 25.0 185 
 BAR2 EZ I         458 43.59        37.5 0.22            169           25.0 185 
 BRR  HZ EP        458 28.94                             154    0.4510 68.5 298 
 BRR  HN ES        458 45.71                             154    0.8310 68.5 298 
 BRR  HZ I         458 48.32        24.7 0.30            150           68.5 298 
 PAM  SZ EP        458 30.05                             151    0.3510 77.3  42 
 PAM  SN ES        458 47.19                             151    0.1610 77.3  42 
 PAM  SZ I         458 49.23        28.6 0.46            155           77.3  42 
 RUS  HZ EP        458 31.22                             143   -0.1710  103 175 
 RUS  HN ES        458 50.06                             143    0.0210  103 175 
 RUS  HZ I         458 50.91        18.6 0.36            146            103 175 
 PTB  HZ EP        458 33.60                             132   -0.71 9  146 258 
 PTB  HN ES        458 54.44                             132   -0.79 9  146 258 
 PTB  HZ I         458 57.18        18.0 0.10            131            146 258 
 OCA  HZ EP        458 35.44                             130   -0.16 9  158 354 
 OCA  HN ES        458 56.92                             130   -0.61 9  158 354 
 OCA  HZ I         459  3.64        32.5 0.46            131            158 354 
 SPBC HZ EP        458 36.08                             129    0.07 9  163 218 
 SPBC HN ES        458 57.97                             129   -0.29 9  163 218 
 SPBC HZ I         459  4.27        31.0 0.20            129            163 218 
 ZAR  HZ EP        458 39.93                             123    0.27 9  201 292 
 ZAR  HN ES        459  5.49                             123    0.73 9  201 292 
 ZAR  HZ I         459 13.79        13.2 0.24            122            201 292 
 NOR  HN ES        459 10.91                             119   -0.07 8  234 234 
 NOR  HZ I         459 18.88        15.1 0.18            119            234 234 
 SML  HZ EP        458 43.71                             118   -0.12 8  241 336 
 SML  HN ES        459 11.78                             118   -0.41 8  241 336 
 SML  HZ I         459 15.35        30.8 0.26            118            241 336 
 GUY2CHZ EP   4    458 52.21                             112    1.18 0  301 234 
 GUY2CHN ES   4    459 25.83                             112    0.83 0  301 234 
 ORTC HZ EP        459  1.69                             106    0.25 6  396 216 
 ORTC HN ES        459 44.40                             106    0.87 6  396 216 
 ORTC HZ I         459 50.99         4.4 0.28            107            396 216 
                                                                                
