 2012 1018 0114 49.5 L   6.809 -73.058142.7  RSN  4 0.1 1.8LRSN                1
 GAP=148        0.42       3.7     5.4  5.4  0.9397E+01 -0.5548E+01  0.2959E+01E
 Epicentro: LOS SANTOS - SANTANDER                                             3
 ACTION:UPD 12-11-22 17:04 OP:ep   STATUS:               ID:20121018011449 L   I
 2012-10-18-0110-00M.COL___224                                                 6
 STAT SP IPHASW D HRMM SECON CODA AMPLIT PERI AZIMU VELO AIN AR TRES W  DIS CAZ7
 BAR2 SZ EP        115  8.98                             168    0.1110 27.6 210 
 BAR2 SZ I         115 24.91         9.2 0.31                          27.6 210 
 PAM  SE ES   2    115 27.72                             153   -0.07 5 70.8  34 
 BRR  HZ EP        115 10.61                             149   -0.2110 79.5 295 
 BRR  HN ES        115 27.54                             149    0.0910 79.5 295 
 BRR  HN I         115 31.28        21.2 0.31                          79.5 295 
 RUS  HZ EP        115 13.13                             143    0.1110  101 182 
 RUS  HN ES   1    115 31.20                             143   -0.16 7  101 182 
 RUS  HN I         115 33.35         7.9 0.46                           101 182 
                                                                                
