 2013  218 0341 34.5 L   6.830 -73.134143.9  RSN 10 0.5 2.1LRSN                1
 GAP=136        0.99       3.8     5.5  7.2  0.1032E+01  0.1179E+02  0.1565E+01E
 Epicentro: LOS SANTOS - SANTANDER                                             3
 ACTION:UPD 13-03-12 09:33 OP:ep   STATUS:               ID:20130218034134 L   I
 2013-02-18-0340-00M.COL___240                                                 6
 STAT SP IPHASW D HRMM SECON CODA AMPLIT PERI AZIMU VELO AIN AR TRES W  DIS CAZ7
 BAR2 SZ EP   1    341 53.98                             169    0.04 7 26.8 191 
 BAR2 SZ ES   1    342  9.06                             169   -0.07 7 26.8 191 
 BAR2 SZ I         342 10.60        32.0 0.36            165           26.8 191 
 BRR  HZ EP     C  341 55.72                             152    0.3410 70.8 296 
 BRR  HN ES   1    342 12.43                             152    0.73 7 70.8 296 
 BRR  HZ I         342 15.71        33.9 0.38            143           70.8 296 
 PAM  SZ EP   1    341 56.83                             152    0.55 7 74.0  40 
 PAM  SN ES   1    342 13.63                             152    0.34 7 74.0  40 
 PAM  SZ I         342 15.85        34.6 0.46            148           74.0  40 
 RUS  HZ EP   1    341 58.05                             142   -0.22 7  104 177 
 RUS  HN ES   1    342 16.44                             142   -0.39 7  104 177 
 RUS  HZ I         342 17.96        14.4 0.34            136            104 177 
 PTB  HZ EP   1    342  0.78                             131   -0.67 7  150 258 
 PTB  HN ES   1    342 21.69                             131   -0.81 7  150 258 
 PTB  HZ I         342 23.13        14.7 0.20            122            150 258 
 OCA  HZ EP   1    342  1.63                             130   -0.70 7  157 353 
 OCA  HN ES   1    342 23.31                             130   -0.75 7  157 353 
 OCA  HZ I         342 28.71        15.7 0.28            122            157 353 
 ZAR  HZ EP   1    342  7.29                             122    0.51 6  204 291 
 ZAR  HE ES   1    342 32.44                             122    0.46 6  204 291 
 ZAR  HZ I         342 38.32        20.2 0.46            114            204 291 
 SML  HN ES   1    342 38.40                             117   -0.59 6  241 335 
 CHI  HZ EP   1    342 12.52                             116    0.08 6  252 195 
 CHI  HN ES   1    342 41.95                             116   -0.12 6  252 195 
 CHI  HZ I         342 47.00         4.5 0.32            109            252 195 
 HEL  HZ EP        342 15.42                             114    0.61 8  274 255 
 HEL  HZ I         342 52.28         6.4 0.38            107            274 255 
                                                                                
