 2013  218 0853  7.2 L   6.335 -73.689 98.0  RSN  6 0.4 1.4LRSN                1
 GAP=140        0.81       5.4     4.5  8.9  0.1144E+02  0.1968E+02  0.1112E+02E
 Epicentro: SANTA HELENA DEL OPON - SANTANDER                                  3
 ACTION:UPD 13-03-12 09:34 OP:ep   STATUS:               ID:20130218085307 L   I
 2013-02-18-0850-00M.COL___240                                                 6
 STAT SP IPHASW D HRMM SECON CODA AMPLIT PERI AZIMU VELO AIN AR TRES W  DIS CAZ7
 BAR2 SZ EP   1    853 23.13                             145   -0.03 7 62.8  63 
 BAR2 SZ ES   1    853 35.91                             145    0.29 7 62.8  63 
 BAR2 SZ I         853 37.01        30.6 0.12            131           62.8  63 
 RUS  HZ EP   1    853 25.10                             137    0.02 7 83.0 126 
 RUS  HN ES   1    853 39.16                             137    0.13 7 83.0 126 
 RUS  HZ I         853 40.88         3.5 0.34            118           83.0 126 
 BRR  HZ EP   1    853 24.11                             136   -0.49 7 85.4 358 
 BRR  HE ES   1    853 38.20                             136    0.01 7 85.4 358 
 BRR  HZ I         853 46.69         3.6 0.36            117           85.4 358 
 PTB  HZ EP   1    853 24.21                             135   -0.63 7 87.8 285 
 PTB  HN ES   1    853 38.33                             135   -0.27 7 87.8 285 
 PTB  HZ I         853 40.92         5.5 0.12            112           87.8 285 
 ZAR  HZ EP   1    853 34.28                             114   -0.24 7  182 315 
 ZAR  HN ES   1    853 56.56                             114    0.73 7  182 315 
 ZAR  HZ I         854  0.81         3.8 0.24             99            182 315 
 HEL  HZ EP   1    853 38.32                             112    0.80 6  204 266 
 HEL  HZ I         854  9.35         1.8 0.46             97            204 266 
                                                                                
