 2017  118 0905 55.3 L   6.795 -73.130153.6  RSN  6 0.4 1.4LRSN                1
 GAP=239        1.07       5.9     8.0  6.8  0.2693E+02  0.1651E+01  0.2066E+01E
 Epicentro: LOS SANTOS - SANTANDER                                             3
 ACTION:UPD 17-05-22 16:00 OP:jn   STATUS:               ID:20170118090555 L   I
 OLDACT:DUP 17-01-18 15:24 OP:edw  STATUS:               ID:20170118085745d    3
 OLDACT:UP  17-01-18 15:23 OP:edw  STATUS:               ID:20170118085744     3
 OLDACT:REG 17-01-18 13:00 OP:dani STATUS:               ID:20170118085744     3
 2017-01-18-0858-00M.COL___325                                                 6
 STAT SP IPHASW D HRMM SECON CODA AMPLIT PERI AZIMU VELO AIN AR TRES W  DIS CAZ7
 BAR2 EZ EP        9 6 15.51                             172   -0.3310 23.2 194 
 BAR2 EZ ES        9 6 31.77                             172   -0.1110 23.2 194 
 BAR2 EZ I         9 6 31.95         6.6 0.18            171           23.2 194 
 BRR  HZ EP        9 6 17.54                             153    0.1810 72.9 298 
 BRR  HN ES        9 6 35.39                             153    0.8010 72.9 298 
 RUS  HZ EP        9 6 19.82                             146    0.0710 99.9 177 
 RUS  HN ES        9 6 38.35                             146   -0.5010 99.9 177 
 RUS  HZ I         9 6 39.31         3.7 0.26            145           99.9 177 
 PTB  HZ EP   9    9 6 22.49                             134   -0.53 0  149 259 
 PTB  HN ES        9 6 43.66                             131   -0.48 9  149 259 
 PTB  HZ I         9 6 45.41         2.9 0.38            133            149 259 
 ZAR  HZ EP        9 6 28.44                             124    0.03 8  206 292 
 ZAR  HN ES        9 6 53.53                             124   -0.74 8  206 292 
 ZAR  HZ I         9 6 56.13         1.4 0.22            123            206 292 
 CHI  HZ EP        9 6 33.73                             119    0.32 8  249 196 
 CHI  HE ES        9 7  3.47                             119    0.32 8  249 196 
                                                                                
