 2013 1118 0148 31.4 L   7.113 -73.404 99.8  RSN  6 0.2 1.3LRSN                1
 GAP=178        0.48       1.9     3.3  4.9  0.8916E+00 -0.2586E+01 -0.7586E+00E
 Epicentro: LEBRIJA - SANTANDER                                                3
 ACTION:UPD 14-01-09 16:29 OP:ep   STATUS:               ID:20131118014831 L   I
 OLDACT:UP  13-11-18 13:33 OP:mh   STATUS:               ID:20131118014744     3
 OLDACT:REG 13-11-18 13:27 OP:mh   STATUS:               ID:20131118014744     3
 2013-11-18-0147-44M.COL___225                                                 6
 STAT SP IPHASW D HRMM SECON CODA AMPLIT PERI AZIMU VELO AIN AR TRES W  DIS CAZ7
 BRR  HZ EP   1    148 45.22                             160   -0.39 8 34.0 269 
 BRR  HN ES   1    148 56.92                             160    0.26 8 34.0 269 
 BRR  HZ I         148 58.73         5.3 0.15            158           34.0 269 
 BAR2 SZ EP   1    148 47.50                             146   -0.08 8 62.6 157 
 PTB  HZ EP   4    148 51.52                             123   -2.00 0  133 241 
 PTB  HN ES   1    149 10.51                             123   -0.24 8  133 241 
 PTB  HZ I         149 13.60         3.9 0.25            122            133 241 
 ZAR  HN ES        149 17.16                             117    0.0610  166 285 
 SPBC HZ EP        148 58.78                             115    0.2810  178 205 
 SPBC HE ES   1    149 19.51                             115   -0.09 7  178 205 
 SPBC HZ I         149 24.92         4.0 0.19            114            178 205 
 SML  HZ EP   1    149  1.02                             112    0.04 7  201 339 
 SML  HN ES        149 23.99                             112   -0.02 9  201 339 
                                                                                
