 2016 1118 0208 35.9 L   6.736 -73.139127.2  RSN  5 0.1 1.2LRSN                1
 GAP=161        0.37       3.7     2.0  5.2 -0.2400E+01  0.3401E+01  0.4527E+01E
 Epicentro: LOS SANTOS - SANTANDER                                             3
 ACTION:UPD 17-10-26 21:09 OP:lp   STATUS:               ID:20161118020835 L   I
 OLDACT:UP  16-11-18 14:08 OP:and  STATUS:               ID:20161118020744     3
 OLDACT:REG 16-11-18 12:29 OP:and  STATUS:               ID:20161118020744     3
 2016-11-18-0208-00M.COL___343                                                 6
 STAT SP IPHASW D HRMM SECON CODA AMPLIT PERI AZIMU VELO AIN AR TRES W  DIS CAZ7
 BAR2 EZ EP        2 8 53.29                             172    0.1710 16.6 197 
 BRR  HZ EP        2 8 55.18                             147   -0.1210 75.4 303 
 BRR  HE ES   4    2 9 12.30                             147    1.83 0 75.4 303 
 PAM  EZ EP        2 8 56.54                             145    0.0610 82.6  36 
 PAM  HN ES        2 9 12.50                             145   -0.0710 82.6  36 
 PAM  EZ I         2 9 14.11         2.6 0.26            142           82.6  36 
 PTB  HZ EP        2 9  1.16                             127   -0.16 9  147 262 
 PTB  HN ES        2 9 21.18                             127   -0.01 9  147 262 
 PTB  HZ I         2 9 23.64         2.5 0.16            126            147 262 
 ZAR  HZ EP   2    2 9  7.71                             117    0.18 4  207 294 
 ZAR  HN ES        2 9 32.35                             117    0.11 8  207 294 
 ZAR  HZ I         2 9 40.77         2.1 0.19            116            207 294 
                                                                                
