 2016 1218 0441 35.4 L   6.855 -73.143138.1  RSN  6 0.4 1.1LRSN                1
 GAP=134        1.09       5.3     4.7  7.4  0.2575E+01  0.9501E+01 -0.1138E+01E
 Epicentro: LOS SANTOS - SANTANDER                                             3
 ACTION:UPD 17-01-11 20:16 OP:rebc STATUS:               ID:20161218044135 L   I
 OLDACT:REG 16-12-18 14:35 OP:edw  STATUS:               ID:20161218043741     3
 2016-12-18-0438-00M.COL___381                                                 6
 STAT SP IPHASW D HRMM SECON CODA AMPLIT PERI AZIMU VELO AIN AR TRES W  DIS CAZ7
 BAR2 EZ EP        441 54.04                             167   -0.2310 29.3 188 
 BAR2 EZ ES        442  8.74                             167   -0.2310 29.3 188 
 BAR2 EZ I         442 10.45         2.8 0.38            170           29.3 188 
 BRR  HZ EP        441 56.22                             152    0.6210 68.8 294 
 BRR  HN ES        442 11.70                             152    0.3710 68.8 294 
 BRR  HZ I         442 17.16         3.1 0.44            151           68.8 294 
 PAM  EZ IP        441 57.23                             151    0.7010 72.6  42 
 PAM  EN ES        442 12.38                             151   -0.6210 72.6  42 
 PAM  EZ I         442 16.07         3.6 0.50            153           72.6  42 
 RUS  HZ EP        441 58.85                             140   -0.0310  107 176 
 RUS  HN ES        442 17.38                             140    0.2010  107 176 
 RUS  HZ I         442 19.37         1.1 0.30            145            107 176 
 PTB  HZ EP        442  1.41                             130   -0.50 9  149 257 
 PTB  HN ES        442 22.58                             130    0.00 9  149 257 
 PTB  HZ I         442 23.76         1.7 0.24            132            149 257 
 ZAR  HZ EP        442  6.63                             121   -0.54 9  202 291 
 ZAR  HN ES        442 31.98                             121    0.05 9  202 291 
 ZAR  HZ I         442 38.25         2.6 0.30            123            202 291 
                                                                                
