 2014  718 0215 30.5 L   6.811 -73.152142.9  RSN 28 0.5 2.8LRSN                1
 GAP= 70        0.97       2.2     2.7  4.4 -0.1377E+01  0.2931E+01  0.2058E+01E
 Epicentro: LOS SANTOS - SANTANDER                                             3
 ACTION:UPD 15-03-16 20:44 OP:nd   STATUS:               ID:20140718021530 L   I
 OLDACT:REG 14-07-18 12:45 OP:fm   STATUS:               ID:20140718020818     3
 2014-07-18-0208-18M.COL___269                                                 6
 STAT SP IPHASW D HRMM SECON CODA AMPLIT PERI AZIMU VELO AIN AR TRES W  DIS CAZ7
 BAR2 SZ IP     D  215 50.09                             170    0.2710 24.4 188 
 BAR2 SZ ES   1    216  5.01                             170    0.13 7 24.4 188 
 BAR2 SZ I         216  7.69       282.6 0.24            167           24.4 188 
 BRR  HZ EP        215 51.92                             152    0.6410 70.0 298 
 BRR  HE ES        216  8.25                             152    0.7710 70.0 298 
 BRR  HZ I         216 10.14        80.8 0.18            151           70.0 298 
 BRR  HZ E         216 10.91                                           70.0 298 
 PAM  SZ EP        215 52.85                             150    0.4510 76.9  41 
 PAM  SN ES        216  8.92                             150   -0.5410 76.9  41 
 PAM  SZ I         216 11.96        66.1 0.38            156           76.9  41 
 RUS  HZ EP        215 53.76                             143   -0.3210  102 176 
 RUS  HN ES   1    216 12.70                             143    0.25 7  102 176 
 RUS  HZ I         216 13.81        30.4 0.32            143            102 176 
 PTB  HZ EP        215 56.67                             131   -0.53 9  147 258 
 PTB  HE ES        216 17.51                             131   -0.51 9  147 258 
 PTB  HZ I         216 20.93        73.9 0.10            131            147 258 
 TAM  HZ IP     C  215 58.37                             130    0.31 9  156 105 
 TAM  HE ES   1    216 19.31                             130   -0.24 7  156 105 
 TAM  HZ I         216 20.54        33.1 0.32            134            156 105 
 OCA  HZ EP        215 58.28                             129   -0.20 9  159 353 
 OCA  HN ES        216 19.90                             129   -0.39 9  159 353 
 OCA  HZ I         216 23.36        70.7 0.22            132            159 353 
 OCA  HZ E         216 24.25                                            159 353 
 SPBC HZ EP        215 58.68                             128   -0.16 9  164 219 
 SPBC HN ES        216 20.28                             128   -0.65 9  164 219 
 SPBC HZ I         216 22.80        79.9 0.18            128            164 219 
 ZAR  HZ EP        216  2.43                             122   -0.23 9  203 292 
 ZAR  HN ES        216 27.80                             122    0.08 9  203 292 
 ZAR  HZ I         216 36.58        59.5 0.32            123            203 292 
 NOR  HZ IP     D  216  6.21                             118    0.12 8  235 234 
 NOR  HN ES        216 33.17                             118   -0.67 8  235 234 
 NOR  HZ I         216 39.35        53.9 0.22            118            235 234 
 SML  HZ EP        216  6.57                             117   -0.26 8  242 335 
 SML  HN ES        216 35.40                             117    0.25 8  242 335 
 SML  HZ I         216 37.28        52.5 0.13            119            242 335 
 CHI  HZ EP        216  7.54                             116   -0.62 8  250 195 
 CHI  HN ES   1    216 37.60                             116    0.07 6  250 195 
 CHI  HZ I         216 44.61        27.7 0.44            117            250 195 
 ROSC BZ EP   1    216  9.59                             116    1.04 6  253 211 
 ROSC BN ES        216 38.45                             116    0.23 8  253 211 
 ROSC BZ I         216 47.99        78.7 0.45            117            253 211 
 HEL  HZ EP        216 10.87                             114    0.33 8  272 256 
 HEL  HN ES   1    216 41.92                             114    0.17 6  272 256 
 HEL  HZ I         216 48.62        28.6 0.30            115            272 256 
 URE  HZ EP   4    216  9.78                             113   -1.54 0  283 292 
 URE  HE ES   4    216 40.76                             113   -2.38 0  283 292 
 URE  HZ I         216 50.64        42.7 0.20            114            283 292 
 GUY2CHZ EP        216 14.02                             112    0.02 7  301 234 
 GUY2CHN ES        216 48.78                             112    0.86 7  301 234 
 GUY2CHZ I         216 56.68        53.4 0.38                           301 234 
 VIL  SZ EP   4    216 12.82                             111   -1.10 0  304 191 
 VIL  SN ES   4    216 46.43                             111   -1.35 0  304 191 
 VIL  SZ I         216 50.59        41.1 0.36            113            304 191 
 PTGC HZ EP   4    216 13.06                             111   -1.34 0  310 159 
 PTGC HN ES   4    216 46.18                             111   -2.46 0  310 159 
 PTGC HZ I         216 53.40        29.9 0.50            113            310 159 
 RREF HZ EP   1    216 16.58                             110    0.02 5  322 229 
 RREF HE ES        216 52.77                             110    0.29 7  322 229 
 RREF HZ I         217  2.17        32.9 0.44            111            322 229 
 CBOC HZ EP        216 17.34                             109    0.07 7  333 252 
 CBOC HN ES        216 53.46                             109   -0.28 7  333 252 
 CBOC HZ I         217  8.83         9.7 0.38            110            333 252 
 DBB  SZ EP        216 17.34                             109   -0.44 7  339 274 
 DBB  SZ ES   4    216 52.36                             109   -2.29 0  339 274 
 DBB  SZ I         216 56.14        60.9 0.36            110            339 274 
 TOL  SZ EP        216 19.32                             109    0.62 7  344 224 
 TOL  SN ES        216 57.14                             109    0.86 7  344 224 
 TOL  SZ I         217  6.69        73.8 0.42            110            344 224 
 ANIL HZ EP        216 20.79                             108    0.54 6  358 224 
 ANIL HE ES        216 59.32                             108    0.28 6  358 224 
 PRA  HZ EP        216 23.49                             106   -0.53 6  393 209 
 PRA  HN ES        217  5.24                             106   -0.51 6  393 209 
 PRA  HZ I         217 12.67        35.4 0.30            107            393 209 
 ORTC HZ EP        216 24.31                             106   -0.09 6  396 216 
 ORTC HE ES        217  5.92                             106   -0.51 6  396 216 
 ORTC HZ I         217 14.36        28.5 0.34            107            396 216 
 PAL  HZ EP        216 25.98                             105    0.40 6  406 239 
 PAL  HN ES        217  7.79                             105   -0.74 6  406 239 
 PAL  HZ I         217 13.54        37.7 0.18            106            406 239 
 SJC  HZ EP   4    216 23.90                             105   -1.92 0  408 327 
 SJC  HN ES   4    217  4.45                             105   -4.50 0  408 327 
 SJC  HZ I         217  8.59         6.3 0.34            107            408 327 
 SMAR HZ EP   1    216 35.65                             102   -0.50 3  496 346 
 SMAR HE ES   4    217 17.87                             102   -9.48 0  496 346 
                                                                                
