 2013  118 0502 58.2 L   6.779 -73.177145.6  RSN  5 0.4 1.4LRSN                1
 GAP=179        0.84       5.3     7.7  9.8  0.8607E+01  0.1113E+02  0.1286E+01E
 Epicentro: LOS SANTOS - SANTANDER                                             3
 ACTION:UPD 13-02-15 09:15 OP:ep   STATUS:               ID:20130118050258 L   I
 2013-01-18-0500-00M.COL___241                                                 6
 STAT SP IPHASW D HRMM SECON CODA AMPLIT PERI AZIMU VELO AIN AR TRES W  DIS CAZ7
 BAR2 SZ ES   1    5 3 32.93                             172   -0.04 7 20.7 182 
 BRR  HN ES   1    5 3 36.34                             153    0.75 7 69.4 302 
 BRR  HZ I         5 3 37.51         4.1 0.12            152           69.4 302 
 RUS  HZ EP   1    5 3 21.99                             144    0.24 7 98.6 174 
 RUS  HN ES   1    5 3 39.86                             144   -0.29 7 98.6 174 
 RUS  HZ I         5 3 42.01         3.0 0.24            146           98.6 174 
 PTB  HZ EP   1    5 3 25.03                             133    0.26 7  144 259 
 PTB  HN ES   1    5 3 44.94                             133   -0.58 7  144 259 
 PTB  HZ I         5 3 49.01         3.0 0.16            132            144 259 
 OCA  HE ES   1    5 3 48.40                             129   -0.45 7  162 354 
 OCA  HZ I         5 3 51.14         5.2 0.26            130            162 354 
                                                                                
