 2017  118 0536 33.1 L   6.767 -73.166151.7  RSN  4 0.2 1.0LRSN                1
 GAP=135        0.46       3.1     3.0  4.6  0.2125E+01 -0.3286E+01 -0.2503E+01E
 Epicentro: LOS SANTOS - SANTANDER                                             3
 ACTION:UPD 17-05-22 16:00 OP:jn   STATUS:               ID:20170118053634dL   I
 OLDACT:DUP 17-01-18 17:13 OP:dani STATUS:               ID:20170118052746d    3
 OLDACT:REG 17-01-18 12:49 OP:dani STATUS:               ID:20170118052744     3
 2017-01-18-0528-00M.COL___331                                                 6
 STAT SP IPHASW D HRMM SECON CODA AMPLIT PERI AZIMU VELO AIN AR TRES W  DIS CAZ7
 BRR  HZ EP        536 54.81                             154   -0.1010 71.1 302 
 BRR  HE ES        537 12.03                             154    0.1310 71.1 302 
 BRR  HZ I         537 17.71         2.1 0.23            152           71.1 302 
 PAM  EZ EP        536 56.14                             150   -0.0810 81.7  39 
 RUS  HZ EP        536 57.19                             146   -0.0310 97.1 175 
 RUS  HN ES        537 16.05                             146    0.0310 97.1 175 
 RUS  HZ I         537 16.80         2.0 0.54            151           97.1 175 
 PTB  HZ EP        537  0.60                             134    0.28 9  145 260 
 PTB  HE ES        537 21.31                             134   -0.23 9  145 260 
 PTB  HZ I         537 27.59         0.8 0.47            135            145 260 
                                                                                
