 2013  118 0848 52.1 L   6.789 -73.153143.1  RSN  7 0.3 1.7LRSN                1
 GAP=136        0.86       3.5     4.8  5.6  0.1655E+01  0.8195E+01  0.4332E+01E
 Epicentro: LOS SANTOS - SANTANDER                                             3
 ACTION:UPD 13-02-15 09:15 OP:ep   STATUS:               ID:20130118084852 L   I
 2013-01-18-0847-45M.COL___180                                                 6
 STAT SP IPHASW D HRMM SECON CODA AMPLIT PERI AZIMU VELO AIN AR TRES W  DIS CAZ7
 BAR2 SZ EP        849 11.66                             171    0.2410 22.0 189 
 BAR2 SZ ES        849 26.57                             171    0.1110 22.0 189 
 BRR  HZ IP     C  849 13.14                             152    0.1510 71.1 300 
 BRR  HN ES        849 29.73                             152    0.4710 71.1 300 
 BRR  HZ I         849 31.07        12.1 0.19            140           71.1 300 
 PAM  SZ EP        849 14.23                             150    0.0810 78.8  39 
 PAM  SZ I         849 14.57        15.5 0.21            151           78.8  39 
 PAM  SN ES        849 31.06                             150   -0.2710 78.8  39 
 RUS  HZ EP        849 15.50                             144   -0.0410 99.4 176 
 RUS  HN ES        849 33.32                             144   -0.4810 99.4 176 
 RUS  HN I         849 36.17         6.1 0.13            136           99.4 176 
 PTB  HZ EP        849 18.12                             131   -0.67 9  147 259 
 PTB  HZ I         849 41.88         7.7 0.20            121            147 259 
 ZAR  HZ EP   1    849 24.41                             122    0.03 6  204 293 
 ZAR  HN ES   1    849 49.16                             122   -0.37 6  204 293 
 ZAR  HZ I         849 55.43         7.3 0.23            113            204 293 
 CHI  HZ EP        849 30.08                             117    0.54 8  247 195 
 CHI  HN ES        849 58.90                             117    0.19 8  247 195 
 CHI  HZ I         850  7.15         2.3 0.32            110            247 195 
                                                                                
