 2012  618 0516 49.1 L   6.765 -73.159132.0  RSN  4 0.3 0.9LRSN                1
 GAP=138        0.42       4.5     3.7 10.9 -0.4670E+01  0.7425E+01  0.1199E+01E
 Epicentro: LOS SANTOS - SANTANDER                                             3
 ACTION:UPD 12-08-06 17:50 OP:ep   STATUS:               ID:20120618051647 L   I
 2012-06-18-0510-00M.COL___199                                                 6
 STAT SP IPHASW D HRMM SECON CODA AMPLIT PERI AZIMU VELO AIN AR TRES W  DIS CAZ7
 BAR2 SZ EP   3    517  7.02                             171    0.00 2 19.3 188 
 BAR2 SZ I         517  7.35         3.0 0.40            171           19.3 188 
 PAM  SZ EP        517 10.26                             147    0.1110 81.3  39 
 PAM  SZ I         517 10.40         1.8 0.22            151           81.3  39 
 PAM  SN ES   3    517 25.65                             147   -0.90 2 81.3  39 
 RUS  HZ EP        517 11.19                             142   -0.0710 96.8 175 
 RUS  HN ES   3    517 29.20                             142    0.67 2 96.8 175 
 PTB  HZ EP        517 14.72                             129   -0.08 9  146 260 
 PTB  HN ES   2    517 35.02                             129    0.19 5  146 260 
 PTB  HZ I         517 39.31         0.9 0.32            130            146 260 
                                                                                
