 2011 1218 0934 14.9 L   6.396 -73.613110.0  RSN 11 0.3 2.0LRSN                1
 GAP= 88        0.54       2.5     3.0  5.7 -0.2353E+01  0.6715E+01  0.3146E+01E
 Epicentro: SANTA HELENA DEL OPON - SANTANDER                                  3
 ACTION:UPD 12-07-13 16:17 OP:ep   STATUS:               ID:20111218093415 L   I
 2011-12-18-0930-00M.COL___186                                                 6
 STAT SP IPHASW D HRMM SECON CODA AMPLIT PERI AZIMU VELO AIN AR TRES W  DIS CAZ7
 BAR2 SZ IP        934 31.55                             153    0.0710 52.3  65 
 BAR2 SZ ES   2    934 44.49                             153    0.09 5 52.3  65 
 BAR2 SZ I         934 46.45        56.2 0.35                          52.3  65 
 BRR  HZ EP        934 32.60                             141   -0.3410 79.4 352 
 BRR  HZ I         934 41.21        16.7 0.12                          79.4 352 
 BRR  HN ES   1    934 47.06                             141    0.06 7 79.4 352 
 RUS  HZ EP   2    934 33.40                             141   -0.34 5 80.8 134 
 RUS  HZ I         934 33.94        15.8 0.37                          80.8 134 
 RUS  HN ES   2    934 48.04                             141   -0.38 5 80.8 134 
 GIR2 SZ EP   1    934 34.09                             138    0.23 7 88.6  32 
 PAM  SZ EP   2    934 40.09                             123    0.50 5  145  44 
 PAM  SE ES   2    934 59.08                             123    0.24 5  145  44 
 NOR  SZ EP   2    934 41.14                             119   -0.15 5  167 237 
 NOR  SN ES   2    935  2.35                             119    0.49 5  167 237 
 CHI  HZ EP   1    934 44.60                             115   -0.31 6  196 184 
 CHI  HE ES   2    935  8.77                             115    0.46 4  196 184 
 CHI  HZ I         935 11.24         6.1 0.34                           196 184 
 OCA  SZ EP   2    934 45.69                             113   -0.07 4  206   9 
 OCA  SZ ES   2    935 10.11                             113    0.29 4  206   9 
 OCA  SZ I         935 16.92        15.6 0.46                           206   9 
 HEL  HZ EP   1    934 46.49                             112   -0.32 6  213 264 
 HEL  HN ES   2    935 11.23                             112   -0.45 4  213 264 
 HEL  HZ I         935 14.42         9.4 0.34                           213 264 
 GUY  SZ EP   1    934 50.13                             110    0.63 6  236 237 
 GUY  SE ES   2    935 17.12                             110    0.64 4  236 237 
 GUY  SZ I         935 20.71        10.3 0.28                           236 237 
 RREF HZ EP   1    934 51.52                             108   -0.23 6  253 229 
 RREF HN ES   2    935 20.46                             108   -0.02 4  253 229 
 RREF HZ I         935 25.84         6.4 0.53                           253 229 
                                                                                
