 2012  818 0642 47.2 L   6.794 -73.147142.0  RSN  8 0.4 1.9LRSN                1
 GAP=137        0.83       3.8     4.6  7.0 -0.5354E+00  0.1500E+02 -0.3504E+00E
 Epicentro: LOS SANTOS - SANTANDER                                             3
 ACTION:UPD 12-09-10 11:56 OP:ep   STATUS:               ID:20120818064247 L   I
 2012-08-18-0640-00M.COL___216                                                 6
 STAT SP IPHASW D HRMM SECON CODA AMPLIT PERI AZIMU VELO AIN AR TRES W  DIS CAZ7
 BAR2 SZ EP   1    643  6.22                             171   -0.11 7 22.6 190 
 BAR2 SZ ES   1    643 20.94                             171   -0.34 7 22.6 190 
 BAR2 SZ I         643 22.74        27.3 0.19                          22.6 190 
 BRR  HZ EP   1    643  8.10                             152    0.18 7 71.4 299 
 BRR  HN ES   1    643 24.91                             152    0.80 7 71.4 299 
 BRR  HZ I         643 25.66        15.8 0.10                          71.4 299 
 PAM  SZ EP   1    643  9.18                             150    0.16 7 78.0  39 
 PAM  SZ I         643  9.52         6.1 0.18                          78.0  39 
 PAM  SN ES        643 26.15                             150    0.0910 78.0  39 
 RUS  HZ EP   1    643 10.30                             143   -0.20 7 99.9 176 
 RUS  HZ I         643 11.43         7.1 0.09                          99.9 176 
 RUS  HN ES        643 28.77                             143    0.0710 99.9 176 
 PTB  HZ EP   1    643 13.03                             131   -0.78 7  148 259 
 PTB  HN ES   2    643 34.03                             131   -0.56 5  148 259 
 OCA  HN ES   1    643 36.72                             129   -0.43 7  161 353 
 OCA  HZ I         643 39.23        19.4 0.24                           161 353 
 ZAR  HZ EP   1    643 19.90                             122    0.51 6  204 292 
 ZAR  HN ES   1    643 43.92                             122   -0.60 6  204 292 
 ZAR  HZ I         643 51.68         7.3 0.21                           204 292 
 HEL  HZ EP   1    643 27.72                             114    0.56 6  272 256 
 HEL  HN ES   1    643 58.78                             114    0.42 6  272 256 
                                                                                
