 2011  318 0437 53.0 L   6.806 -73.291139.7  RSN  9 0.3 2.0LRSN                1
 GAP=129        0.78       3.1     9.2  6.2 -0.1358E+02  0.1774E+02  0.3877E+00E
 Epicentro: ZAPATOCA - SANTANDER                                               3
 ACTION:UP  11-06-16 14:34 OP:jfem STATUS:               ID:20110318043753 L   I
 2011-03-18-0436-18S.COL___135                                                 6
 STAT SP IPHASW D HRMM SECON CODA AMPLIT PERI AZIMU VELO SNR AR TRES W  DIS CAZ7
 BTL  SZ EP        438 11.44                             175    -0.310   13  12 
 BTL  SZ ES   2    438 26.13                             175    -0.2 5   13  12 
 BAR2 SZ IP        438 12.25                             169     0.310   26 153 
 BAR2 SZ ES   1    438 26.81                             169     0.1 7   26 153 
 BAR2 SZ I         438 28.37        41.7 0.30                            26 153 
 RUS  HZ EP        438 16.28                             142    -0.110  104 167 
 RUS  HZ I         438 17.51        12.6 0.13                           104 167 
 RUS  HN ES   1    438 34.46                             142    -0.1 7  104 167 
 GRA  SZ IP        438 18.03                             134    -0.110  131  24 
 GRA  SZ ES   1    438 37.42                             134    -0.3 7  131  24 
 GRA  SZ I         438 42.06        15.3 0.28                           131  24 
 OCA  SZ EP   1    438 20.52                             128    -0.1 7  159 359 
 OCA  SZ ES   1    438 42.78                             128     0.5 7  159 359 
 OCA  SZ I         438 47.23        21.7 0.34                           159 359 
 NOR  SN ES   2    438 53.30                             118    -0.3 4  222 232 
 CHI  HZ EP        438 30.62                             116     0.6 8  246 191 
 CHI  HN ES   1    438 59.24                             116     0.4 6  246 191 
 CHI  HZ I         439  2.70         3.7 0.32                           246 191 
 VIL  SZ EP        438 35.46                             111    -0.4 7  301 189 
 VIL  SZ I         439 23.54         5.1 0.28                           301 189 
 PRA  HE ES   1    439 25.78                             106    -0.6 4  385 207 
                                                                                
