 2012  818 0226  5.7 L   6.777 -73.143146.0  RSN  7 0.4 2.1LRSN                1
 GAP=183        0.89       4.7     6.3  7.8  0.7421E+01  0.6897E+01 -0.7830E+01E
 Epicentro: LOS SANTOS - SANTANDER                                             3
 ACTION:UPD 12-09-10 11:56 OP:ep   STATUS:               ID:20120818022606dL   I
 2012-08-18-0220-00M.COL___217                                                 6
 STAT SP IPHASW D HRMM SECON CODA AMPLIT PERI AZIMU VELO AIN AR TRES W  DIS CAZ7
 BAR2 SZ EP   1    226 25.34                             172    0.02 7 20.8 192 
 BAR2 SZ ES   1    226 40.16                             172   -0.46 7 20.8 192 
 BAR2 SZ I         226 41.86        68.7 0.21                          20.8 192 
 BRR  HZ IP     D  226 27.19                             152    0.2210 72.7 300 
 BRR  HN ES   1    226 44.39                             152    0.84 7 72.7 300 
 BRR  HZ I         226 48.19        23.2 0.12                          72.7 300 
 RUS  HZ EP   1    226 29.36                             145    0.06 7 98.0 176 
 RUS  HN ES        226 47.82                             145    0.1210 98.0 176 
 RUS  HZ I         226 48.84         9.5 0.21                          98.0 176 
 PTB  HZ EP   1    226 32.13                             132   -0.55 7  148 260 
 PTB  HN ES   1    226 52.93                             132   -0.79 7  148 260 
 PTB  HZ I         227  0.38         9.7 0.17                           148 260 
 OCA  HZ EP   1    226 33.93                             129   -0.35 7  163 353 
 OCA  HN ES   1    226 56.35                             129   -0.22 7  163 353 
 OCA  HZ I         226 58.65        34.1 0.29                           163 353 
 ZAR  HN ES   1    227  3.96                             122    0.24 6  205 293 
 HEL  HZ EP   1    226 46.58                             115    0.68 6  272 256 
 HEL  HZ I         227 25.70         3.0 0.31                           272 256 
                                                                                
