 2010 1218 0635 41.8 L   6.814 -73.102145.1  RSN 15 0.4 2.6LRSN                1
 GAP=139        0.79       2.6     5.1  5.0 -0.2633E+01  0.1136E+01  0.3407E+01E
 Epicentro: LOS SANTOS - SANTANDER                                             3
 ACTION:UP  11-01-14 15:25 OP:pat  STATUS:               ID:20101218063541 L   I
 2010-12-18-0631-12S.COL___136                                                 6
 STAT SP IPHASW D HRMM SECON CODA AMPLIT PERI AZIMU VELO SNR AR TRES W  DIS CAZ7
 BTL  SZ IP        636  1.69                             171     0.410   22 302 
 BTL  SZ ES   2    636 17.16                             171     0.6 5   22 302 
 BAR2 SZ IP        636  1.55                             169     0.110   26 200 
 BAR2 SZ ES   1    636 16.09                             169    -0.6 7   26 200 
 BAR2 SZ I         636 19.35        91.2 0.35                            26 200 
 BRR  HZ IP     C  636  3.29                             151     0.210   75 296 
 BRR  HZ I         636  3.55        68.2 0.11                            75 296 
 BRR  HN ES   1    636 20.13                             151     0.4 7   75 296 
 RUS  HZ EP        636  5.56                             143     0.010  102 179 
 RUS  HN ES   1    636 24.18                             143     0.0 7  102 179 
 RUS  HZ I         636 25.49        64.3 0.15                           102 179 
 GRA  SZ IP        636  6.30                             138    -0.510  123  16 
 GRA  SZ ES   1    636 26.00                             138    -0.2 7  123  16 
 GRA  SZ I         636 27.27        71.8 0.16                           123  16 
 OCA  SZ EP        636  9.94                             130     0.0 9  159 351 
 OCA  SZ ES   1    636 31.77                             130    -0.2 7  159 351 
 OCA  SZ I         636 35.88        33.1 0.64                           159 351 
 YOP  SZ EP        636 12.28                             126     0.5 9  178 155 
 YOP  SZ I         636 36.96        32.8 0.32                           178 155 
 NOR  SZ EP        636 17.56                             118    -0.5 8  240 235 
 NOR  SN ES   2    636 45.46                             118    -0.8 4  240 235 
 CHI  HZ EP        636 19.82                             117     0.1 8  251 196 
 CHI  HZ I         636 20.47        20.1 0.21                           251 196 
 CHI  HN ES   1    636 49.09                             117    -0.3 6  251 196 
 ROSC BN ES   2    636 50.03                             116    -0.3 4  257 212 
 ROSC BZ I         636 56.57        29.5 0.39                           257 212 
 HEL  HZ EP   1    636 22.80                             114     0.3 6  277 256 
 HEL  HN ES   3    636 54.70                             114     0.4 2  277 256 
 HEL  HZ I         637  1.72        14.3 0.48                           277 256 
 VIL  SZ EP        636 25.16                             112    -0.1 7  304 191 
 VIL  SN ES   2    636 59.02                             112    -0.1 4  304 191 
 VIL  SZ I         637  2.34        13.1 0.40                           304 191 
 GUY  SN ES   3    637  1.46                             112     1.1 2  306 235 
 RREF HZ EP   2    636 28.87                             110     0.4 3  326 230 
 RREF HN ES   2    637  4.62                             110    -0.2 3  326 230 
 RREF HZ I         637  8.77        20.5 0.62                           326 230 
 PRA  HN ES   3    637 17.75                             106     0.0 1  396 210 
                                                                                
