 2013  418 0800  9.2 L   6.754 -73.159138.6  RSN  7 0.5 1.4LRSN                1
 GAP=137        1.19       7.3     7.3  8.6  0.1505E+02  0.1244E+02 -0.1507E+02E
 Epicentro: LOS SANTOS - SANTANDER                                             3
 ACTION:UPD 13-05-22 14:39 OP:EP   STATUS:               ID:20130418080009 L   I
 2013-04-18-0800-00M.COL___250                                                 6
 STAT SP IPHASW D HRMM SECON CODA AMPLIT PERI AZIMU VELO AIN AR TRES W  DIS CAZ7
 BAR2 SZ EP        8 0 28.15                             172    0.2410 18.1 188 
 BAR2 SZ ES        8 0 41.49                             172   -0.9810 18.1 188 
 BAR2 SZ I         8 0 45.52         9.4 0.26            173           18.1 188 
 BRR  HZ IP     D  8 0 29.96                             151    0.2610 72.5 303 
 BRR  HN ES   1    8 0 46.53                             151    0.88 7 72.5 303 
 BRR  HZ I         8 0 50.79         4.6 0.20            150           72.5 303 
 PAM  SZ EP   2    8 0 31.11                             148    0.10 5 82.3  38 
 PAM  SN ES   2    8 0 48.05                             148    0.06 5 82.3  38 
 PAM  SZ I         8 0 49.64         3.7 0.40            152           82.3  38 
 RUS  HZ EP        8 0 32.15                             143    0.2210 95.6 175 
 RUS  HN ES   1    8 0 50.37                             143    0.74 7 95.6 175 
 RUS  HZ I         8 0 51.72         2.2 0.32            149           95.6 175 
 PTB  HZ EP        8 0 34.79                             131   -0.62 9  145 261 
 PTB  HN ES   1    8 0 55.42                             131   -0.40 7  145 261 
 PTB  HZ I         8 0 58.30         3.4 0.18            133            145 261 
 ZAR  HZ EP        8 0 41.42                             120    0.13 9  205 294 
 ZAR  HN ES   1    8 1  6.81                             120    0.52 6  205 294 
 ZAR  HZ I         8 1 12.52         3.3 0.36            123            205 294 
 SML  HZ EP        8 0 45.50                             115   -0.42 8  248 336 
                                                                                
