 2014 1118 0002 55.3 L   6.729 -73.034140.9  RSN  4 0.4 1.0LRSN                1
 GAP=155        1.13       6.6     6.5 10.9 -0.1018E+02  0.1702E+02 -0.4189E+01E
 Epicentro: ARATOCA - SANTANDER                                                3
 ACTION:UPD 14-12-19 15:44 OP:nd   STATUS:               ID:20141118000255 L   I
 OLDACT:REG 14-11-18 12:39 OP:fm   STATUS:               ID:20141118000000     3
 2014-11-18-0000-00M.COL___292                                                 6
 STAT SP IPHASW D HRMM SECON CODA AMPLIT PERI AZIMU VELO AIN AR TRES W  DIS CAZ7
 PAM  SZ EP        0 3 17.38                             150    0.3710 76.9  29 
 PAM  SN ES        0 3 33.28                             150   -0.6410 76.9  29 
 PAM  SZ I         0 3 40.93         1.5 0.36            155           76.9  29 
 BRR  HZ EP        0 3 17.02                             147    0.1510 85.8 299 
 BRR  HN ES        0 3 34.33                             147    0.6610 85.8 299 
 BRR  HZ I         0 3 37.17         3.7 0.68            154           85.8 299 
 RUS  HN ES        0 3 35.89                             145    0.1310 92.7 183 
 RUS  HZ I         0 3 42.26         0.9 0.38            149           92.7 183 
 PTB  HZ EP        0 3 22.67                             129   -0.27 9  159 262 
 PTB  HN ES        0 3 43.93                             129   -0.53 9  159 262 
 PTB  HZ I         0 3 45.92         1.6 0.12            136            159 262 
                                                                                
