 2010 1218 0129  9.7 L   6.800 -73.129148.0  RSN 19 0.4 2.5LRSN                1
 GAP=104        0.77       2.7     4.1  5.6 -0.1563E+01  0.2026E+01  0.4458E+01E
 Epicentro: LOS SANTOS - SANTANDER                                             3
 ACTION:UP  11-01-14 15:25 OP:pat  STATUS:               ID:20101218012909 L   I
 2010-12-18-0127-50S.COL___135                                                 6
 STAT SP IPHASW D HRMM SECON CODA AMPLIT PERI AZIMU VELO SNR AR TRES W  DIS CAZ7
 BTL  SZ IP        129 29.67                             172     0.110   20 311 
 BTL  SZ ES   2    129 44.71                             172    -0.3 5   20 311 
 BAR2 SZ IP        129 29.55                             170     0.010   24 195 
 BAR2 SZ ES   3    129 44.87                             170    -0.2 2   24 195 
 BAR2 SZ I         129 46.33        56.2 0.18                            24 195 
 BRR  HZ EP        129 31.41                             153     0.210   73 298 
 BRR  HN ES   1    129 48.74                             153     0.8 7   73 298 
 BRR  HZ I         129 51.93        43.3 0.41                            73 298 
 RUS  HZ IP     D  129 33.43                             144    -0.210  100 177 
 RUS  HN ES   2    129 51.93                             144    -0.4 5  100 177 
 RUS  HZ I         129 53.36        34.4 0.33                           100 177 
 GRA  SZ IP        129 35.31                             138     0.210  125  17 
 GRA  SZ ES   1    129 54.75                             138    -0.1 7  125  17 
 GRA  SZ I         129 56.00        37.9 0.30                           125  17 
 OCA  SZ EP        129 37.49                             130    -0.7 9  161 352 
 OCA  SZ ES   2    130  0.37                             130    -0.1 5  161 352 
 OCA  SZ I         130 11.33        28.9 0.12                           161 352 
 YOP  SZ IP        129 39.98                             127     0.2 9  178 154 
 YOP  SN ES   1    130  3.59                             127     0.3 7  178 154 
 NOR  SZ EP        129 45.64                             119    -0.1 8  236 235 
 NOR  SN ES   1    130 12.85                             119    -1.0 6  236 235 
 CHI  HZ IP     C  129 47.63                             118     0.1 8  249 196 
 CHI  HN ES   1    130 16.83                             118    -0.3 6  249 196 
 CHI  HZ I         130 22.83        17.5 0.62                           249 196 
 ROSC BZ EP   1    129 48.10                             117     0.1 6  254 211 
 ROSC BN ES   3    130 17.53                             117    -0.4 2  254 211 
 ROSC BZ I         130 22.86        27.7 0.57                           254 211 
 HEL  HZ EP   2    129 50.94                             115     0.7 4  274 256 
 HEL  HN ES   2    130 21.63                             115    -0.2 4  274 256 
 HEL  HZ I         130 27.98        17.2 0.58                           274 256 
 VIL  SN ES   3    130 26.31                             113    -0.6 2  302 190 
 VIL  SZ I         130 33.87        11.4 0.48                           302 190 
 GUY  SZ EP   3    129 53.33                             113    -0.2 2  303 235 
 GUY  SN ES   3    130 28.51                             113     0.7 2  303 235 
 GUY  SZ I         130 34.77        26.4 0.31                           303 235 
 RREF HZ EP   1    129 56.39                             111     0.3 5  323 230 
 RREF HN ES   3    130 32.49                             111     0.2 2  323 230 
 RREF HZ I         130 41.14        22.9 0.26                           323 230 
 DBB  SZ EP   3    129 57.53                             110     0.1 2  341 274 
 TOL  SZ EP   2    129 59.16                             110     1.0 3  345 225 
 MON  HN ES   3    130 36.46                             109    -0.8 2  354 308 
 MON  HZ I         130 52.04         8.0 0.54                           354 308 
 SDV  BZ EP   2    129 58.92                             109    -0.7 3  359  50 
 SDV  BZ I         130 38.00         6.6 0.44                           359  50 
 PRA  HZ EP   1    130  3.25                             107    -0.1 4  393 210 
 PRA  HN ES   2    130 45.88                             107     0.6 3  393 210 
                                                                                
