 2011  918 0835 11.3 L   6.785 -73.045149.9  RSN  6 0.3 1.6LRSN                1
 GAP=151        0.58       5.6     7.3  5.9  0.7004E+01 -0.4618E+01 -0.1490E+01E
 Epicentro: LOS SANTOS - SANTANDER                                             3
 ACTION:UPD 12-07-13 15:58 OP:ep   STATUS:               ID:20110918083511 L   I
 2011-09-18-0833-45S.COL___171                                                 6
 STAT SP IPHASW D HRMM SECON CODA AMPLIT PERI AZIMU VELO AIN AR TRES W  DIS CAZ7
 BAR2 SZ EP        835 31.09                             170   -0.3610 26.2 215 
 BAR2 SZ I         835 31.61         6.0 0.62                          26.2 215 
 BAR2 SZ ES   1    835 47.45                             170    0.26 7 26.2 215 
 BTL  SZ EP        835 31.81                             169    0.3010 28.6 301 
 GIR2 SZ EP        835 31.53                             166   -0.0410 36.3 333 
 GIR2 SZ ES   2    835 46.79                             166   -0.61 5 36.3 333 
 PAM  SZ EP   2    835 34.20                             153    0.57 5 72.2  32 
 PAM  SN ES   2    835 50.96                             153   -0.11 5 72.2  32 
 BRR  HZ EP        835 33.45                             150   -0.0310 81.8 296 
 BRR  HZ I         835 34.79         9.5 0.14                          81.8 296 
 BRR  HE ES   1    835 50.85                             150    0.05 7 81.8 296 
 RUS  HZ EP   2    835 35.09                             145   -0.21 5 98.8 182 
 RUS  HE ES   2    835 54.21                             145    0.17 5 98.8 182 
                                                                                
