 2016  718 0211 42.8 L   6.768 -73.325120.6  RSN  9 0.5 1.5LRSN                1
 GAP= 96        1.14       4.0     4.1  6.7  0.6275E-01  0.8894E+01  0.3832E+00E
 Epicentro: ZAPATOCA - SANTANDER                                               3
 ACTION:UPD 17-03-29 16:52 OP:lp   STATUS:               ID:20160718021142 L   I
 OLDACT:UP  16-07-18 17:22 OP:ar   STATUS:               ID:20160718020759     3
 OLDACT:REG 16-07-18 15:31 OP:ar   STATUS:               ID:20160718020759     3
 2016-07-18-0207-59S.COL___319                                                 6
 STAT SP IPHASW D HRMM SECON CODA AMPLIT PERI AZIMU VELO AIN AR TRES W  DIS CAZ7
 BAR2 EZ EP        211 59.13                             168   -0.2810 25.0 141 
 BAR2 EZ ES        212 12.47                             168    0.0710 25.0 141 
 BAR2 EZ I         212 13.59        10.1 0.18            167           25.0 141 
 BRR  HZ EP        211 59.86                             153   -0.5210 56.9 311 
 BRR  HN ES        212 14.18                             153    0.0610 56.9 311 
 BRR  HZ I         212 14.66         7.0 0.14            155           56.9 311 
 PAM  EZ EP        212  3.96                             140    0.4010 93.6  48 
 PAM  EN ES        212 20.26                             140    0.4710 93.6  48 
 PAM  EZ I         212 22.79         6.2 0.46            144           93.6  48 
 RUS  HZ EP        212  3.57                             138   -0.5510  100 165 
 RUS  HN ES        212 20.37                             138   -0.4110  100 165 
 RUS  HZ I         212 22.90         2.6 0.24            139            100 165 
 PTB  HZ EP   4    212  4.09                             130   -1.77 0  128 259 
 PTB  HE ES        212 23.88                             130    0.0010  128 259 
 PTB  HZ I         212 26.77         5.9 0.22            131            128 259 
 SPBC HZ EP        212  8.30                             125    0.32 9  149 214 
 SPBC HN ES        212 28.25                             125    0.60 9  149 214 
 SPBC HZ I         212 33.83         5.6 0.13            127            149 214 
 ZAR  HZ EP        212 11.01                             119   -0.88 9  187 295 
 ZAR  HN ES        212 34.61                             119    0.00 9  187 295 
 ZAR  HZ I         212 37.02         3.3 0.10            121            187 295 
 URE  HZ EP        212 21.09                             110    0.30 8  267 294 
 URE  HE ES   4    212 47.53                             110   -2.92 0  267 294 
 URE  HZ I         212 49.21         3.3 0.14            111            267 294 
 GUY2CHZ EP        212 24.07                             108    0.84 7  283 233 
 GUY2CHN ES   4    212 56.23                             108    1.43 0  283 233 
 GUY2CHZ I         213  1.76         1.2 0.42                           283 233 
                                                                                
