 2017 1218 0319 53.9 L   6.831 -73.156142.3  RSN 19 0.7 2.2LRSN                1
 GAP= 64        1.36       3.3     3.5  6.4 -0.1556E+01  0.4719E+01  0.1695E+01E
 Epicentro: LOS SANTOS - SANTANDER                                             3
 ACTION:UPD 18-01-04 13:21 OP:rebc STATUS:               ID:20171218031953 L   I
 OLDACT:UP  17-12-18 15:28 OP:dhb  STATUS:               ID:20171218031739     3
 OLDACT:REG 17-12-18 12:26 OP:dhb  STATUS:               ID:20171218031739     3
 2017-12-18-0318-00M.COL___457                                                 6
 STAT SP IPHASW D HRMM SECON CODA AMPLIT PERI AZIMU VELO AIN AR TRES W  DIS CAZ7
 BAR2 EZ IP        320 13.30                             169    0.1410 26.5 186 
 BAR2 EZ ES        320 28.00                             169   -0.1910 26.5 186 
 BAR2 EZ I         320 29.94        49.9 0.18            169           26.5 186 
 PAM  EZ EP        320 16.07                             151    0.4610 75.6  42 
 PAM  EN ES        320 32.04                             151   -0.5210 75.6  42 
 PAM  EZ I         320 35.48        34.4 0.48            142           75.6  42 
 PTB  HZ EP        320 19.98                             131   -0.54 9  147 257 
 PTB  HN ES        320 41.18                             131   -0.12 9  147 257 
 PTB  HZ I         320 48.45        11.1 0.36            125            147 257 
 OCA  HZ EP        320 21.57                             129   -0.01 9  157 353 
 OCA  HN ES        320 42.52                             129   -0.68 9  157 353 
 OCA  HZ I         320 48.27        38.3 0.28            121            157 353 
 TAM  HZ IP     D  320 21.66                             129    0.19 9  157 106 
 TAM  HN ES        320 43.21                             129    0.22 9  157 106 
 TAM  HZ I         320 55.61         5.8 0.44            121            157 106 
 SPBC HZ EP        320 22.28                             128   -0.01 9  165 218 
 SPBC HN ES        320 44.30                             128   -0.16 9  165 218 
 SPBC HZ I         320 49.08        36.2 0.26            121            165 218 
 YPLC HZ IP     D  320 23.68                             125   -0.09 9  180 152 
 YPLC HN ES        320 47.82                             125    0.74 9  180 152 
 YPLC HZ I         320 50.49        10.8 0.38            118            180 152 
 ZAR  HZ EP        320 26.09                             122    0.24 9  202 291 
 ZAR  HE ES        320 51.20                             122    0.41 9  202 291 
 ZAR  HZ I         320 56.49        13.9 0.26            115            202 291 
 NOR  HZ EP        320 29.14                             118   -0.37 8  236 234 
 NOR  HN ES        320 57.92                             118    0.61 8  236 234 
 NOR  HZ I         321  3.31         9.1 0.14            111            236 234 
 ROSC BZ EP   9    320 33.01                             116    0.95 0  255 210 
 ROSC BN ES        321  3.28                             116    0.49 8  255 210 
 ROSC BZ I         321  7.48        21.5 0.75            109            255 210 
 URE  HZ EP   9    320 33.32                             113   -1.19 0  281 291 
 URE  HE ES        321  4.71                             113   -0.31 7  281 291 
 URE  HZ I         321 20.24         6.0 0.18            107            281 291 
 GUY2CHZ EP        320 38.05                             112    0.61 7  302 234 
 GUY2CHN ES   4    321 15.89                             112    4.47 0  302 234 
 GUY2CHZ I         321 21.94         6.1 0.26                           302 234 
 PTGC HZ EP        320 36.42                             111   -1.56 7  312 159 
 PTGC HZ I         321  9.87         7.3 0.30            104            312 159 
 PTGC HN ES   3    321  9.97                             111   -2.42 2  312 159 
 LL6C HZ EP        320 38.64                             110   -0.39 7  321 358 
 LL6C HZ I         321 26.93         5.6 0.48            103            321 358 
 DRL02HZ EP        320 38.67                             110   -0.36 7  321 358 
 DRL02HE ES        321 16.22                             110    1.96 7  321 358 
 CBOC HZ EP        320 41.51                             109    0.87 7  334 251 
 CBOC HE ES        321 15.41                             109   -1.71 7  334 251 
 CBOC HZ I         321 18.62         3.7 0.40            103            334 251 
 PRA  HZ EP        320 47.09                             106   -0.46 6  394 209 
 PRA  HE ES        321 29.44                             106    0.02 6  394 209 
 PRA  HZ I         321 38.01         6.1 0.30            100            394 209 
 ORTC HZ EP        320 47.35                             106   -0.57 6  397 216 
 ORTC HN ES        321 31.24                             106    1.17 6  397 216 
 ORTC HZ I         321 34.37         3.9 0.46            100            397 216 
 PAL  HZ EP        320 48.98                             105   -0.03 6  406 239 
 PAL  HE ES        321 32.69                             105    0.68 6  406 239 
 PAL  HZ I         321 42.85         2.1 0.20            100            406 239 
                                                                                
