 2012  118 0226 56.5 L   6.770 -73.158147.3  RSN  6 0.4 1.7LRSN                1
 GAP=136        0.85       5.7     5.0  7.9  0.2798E+01  0.8662E+01 -0.7597E+00E
 Epicentro: LOS SANTOS - SANTANDER                                             3
 ACTION:UP  12-02-03 08:18 OP:REBC STATUS:               ID:20120118022656 L   I
 2012-01-18-0220-00M.COL___187                                                 6
 STAT SP IPHASW D HRMM SECON CODA AMPLIT PERI AZIMU VELO SNR AR TRES W  DIS CAZ7
 BAR2 SZ EP   1    227 16.16                             172    -0.1 7   20 188 
 BAR2 SZ ES   1    227 31.19                             172    -0.4 7   20 188 
 BAR2 SZ I         227 33.36        11.5 0.19                            20 188 
 BRR  HZ EP   1    227 18.35                             153     0.5 7   72 301 
 BRR  HZ I         227 18.68        33.1 0.14                            72 301 
 BRR  HN ES   1    227 35.13                             153     0.7 7   72 301 
 PAM  SZ EP   1    227 19.16                             150     0.1 7   81  39 
 PAM  SZ I         227 19.57         5.7 0.19                            81  39 
 PAM  SE ES   1    227 36.33                             150    -0.4 7   81  39 
 RUS  HZ EP   1    227 19.97                             145    -0.2 7   97 175 
 RUS  HN ES   1    227 38.93                             145     0.3 7   97 175 
 RUS  HZ I         227 40.37         4.8 0.25                            97 175 
 PTB  HZ EP   1    227 23.46                             133     0.1 7  146 260 
 PTB  HN ES   1    227 44.03                             133    -0.4 7  146 260 
 ZAR  HZ EP   2    227 28.51                             123    -0.5 4  204 293 
 ZAR  HN ES   1    227 54.15                             123    -0.3 6  204 293 
 ZAR  HZ I         228  0.28         4.1 0.24                           204 293 
                                                                                
