 2017  818 0756  4.5 L   6.169 -73.712108.0  RSN 17 0.5 1.8LRSN                1
 GAP= 41        0.93       2.3     2.2  5.0 -0.8684E+00  0.2076E+01  0.6398E+00E
 Epicentro: LANDAZURI - SANTANDER                                              3
 ACTION:UPD 17-09-04 20:21 OP:rebc STATUS:               ID:20170818075604 L   I
 OLDACT:UP  17-08-18 15:30 OP:mg   STATUS:               ID:20170818074736d    3
 OLDACT:UP  17-08-18 15:30 OP:mg   STATUS:               ID:20170818074736d    3
 OLDACT:UP  17-08-18 15:29 OP:mg   STATUS:               ID:20170818074736d    3
 OLDACT:UP  17-08-18 15:28 OP:mg   STATUS:               ID:20170818074736d    3
 OLDACT:UP  17-08-18 15:27 OP:mg   STATUS:               ID:20170818074736d    3
 OLDACT:UP  17-08-18 15:26 OP:mg   STATUS:               ID:20170818074736d    3
 OLDACT:DUP 17-08-18 15:07 OP:mg   STATUS:               ID:20170818074736d    3
 OLDACT:DUP 17-08-18 14:54 OP:mg   STATUS:               ID:20170818074735d    3
 2017-08-18-0748-00M.COL___407                                                 6
 STAT SP IPHASW D HRMM SECON CODA AMPLIT PERI AZIMU VELO AIN AR TRES W  DIS CAZ7
 SPBC HZ EP        756 21.38                             145   -0.3310 69.7 215 
 SPBC HN ES        756 35.31                             145    0.1510 69.7 215 
 SPBC HZ I         756 36.44        27.2 0.11            145           69.7 215 
 BAR2 EZ IP     D  756 22.51                             143    0.2110 75.0  51 
 BAR2 EZ ES        756 36.35                             143    0.1410 75.0  51 
 RUS  HZ IP        756 22.64                             143   -0.1010 76.0 114 
 RUS  HN ES        756 36.81                             143   -0.1710 76.0 114 
 RUS  HZ I         756 38.57        16.9 0.34            145           76.0 114 
 BRR  HZ IP        756 24.24                             133   -0.1010  104 360 
 BRR  HE ES        756 40.38                             133    0.5410  104 360 
 BRR  HZ I         756 43.43        17.7 0.16            135            104 360 
 NOR  HZ EP        756 28.17                             123   -0.21 9  145 242 
 NOR  HN ES        756 46.97                             123   -0.07 9  145 242 
 NOR  HZ I         756 49.98        12.6 0.40            123            145 242 
 CHI  HZ EP        756 31.59                             118    0.03 9  170 181 
 CHI  HN ES        756 52.70                             118    0.01 9  170 181 
 CHI  HZ I         756 58.31         5.1 0.46            119            170 181 
 YPLC HZ EP        756 31.43                             118    0.29 9  170 120 
 PAM  EZ EP   3    756 32.98                             118    1.23 2  171  41 
 PAM  EN ES        756 53.03                             118    0.00 9  171  41 
 PAM  EZ I         756 56.97         7.3 0.20            120            171  41 
 ZAR  HZ EP        756 33.29                             114   -0.31 9  194 319 
 ZAR  HN ES        756 56.59                             114    0.27 9  194 319 
 ZAR  HZ I         756 58.08        10.5 0.18            116            194 319 
 HEL  HZ EP   3    756 35.77                             113    0.87 2  201 271 
 HEL  HN ES        756 58.28                             113   -0.36 9  201 271 
 HEL  HZ I         757  1.87         6.8 0.22            114            201 271 
 GUY2CHZ EP        756 36.68                             112    0.55 8  211 240 
 GUY2CHN ES   4    757  2.60                             112    1.78 0  211 240 
 GUY2CHZ I         757  6.66         5.0 0.28                           211 240 
 TAM  HZ EP        756 36.31                             112    0.31 8  215  82 
 TAM  HN ES        756 59.93                             112   -0.67 8  215  82 
 TAM  HZ I         757  1.05         8.6 0.34            113            215  82 
 URE  HZ IP     D  756 40.78                             106   -1.21 8  267 311 
 URE  HN ES   4    757  8.53                             106   -2.73 0  267 311 
 URE  HZ I         757 10.91         9.3 0.14            108            267 311 
 PTGC HZ EP   2 C  756 42.41                             105   -1.06 4  279 141 
 PTGC HN ES   4    757 11.06                             105   -2.83 0  279 141 
 PTGC HZ I         757 13.87         2.2 0.23            107            279 141 
 PRA  HZ EP   2    756 47.16                             104    1.08 4  301 206 
 PRA  HN ES   1    757 18.31                             104   -0.23 5  301 206 
 PRA  HZ I         757 22.04         2.0 0.26            105            301 206 
 ORTC HZ EP        756 47.04                             104    0.82 7  302 214 
 ORTC HN ES   3    757 20.73                             104    1.94 2  302 214 
 ORTC HZ I         757 22.86         1.8 0.13            105            302 214 
 SJC  HZ EP   4    757  0.43                              97   -2.69 0  443 339 
 SJC  HE ES   4    757 45.89                              97   -2.98 0  443 339 
 SJC  HZ I         757 51.31         1.5 0.41             98            443 339 
                                                                                
