 2015  918 0645 14.0 L   6.782 -73.121150.3  RSN  5 0.5 1.9LRSN                1
 GAP=259        1.17       7.3     7.9  8.6  0.9481E+01  0.1171E+02  0.1340E+01E
 Epicentro: LOS SANTOS - SANTANDER                                             3
 ACTION:UPD 15-10-28 16:27 OP:cam  STATUS:               ID:20150918064514 L   I
 OLDACT:UP  15-09-18 19:37 OP:mh   STATUS:               ID:20150918063737     3
 OLDACT:UP  15-09-18 19:30 OP:mh   STATUS:               ID:20150918063737     3
 OLDACT:REG 15-09-18 12:37 OP:mh   STATUS:               ID:20150918063737     3
 2015-09-18-0637-37M.COL___352                                                 6
 STAT SP IPHASW D HRMM SECON CODA AMPLIT PERI AZIMU VELO AIN AR TRES W  DIS CAZ7
 BAR2 EZ EP        645 34.22                             171    0.1010 22.0 198 
 BAR2 EZ ES        645 49.21                             171   -0.6310 22.0 198 
 BRR  HZ EP        645 36.10                             152    0.3110 74.5 299 
 BRR  HN ES        645 53.48                             152    0.6610 74.5 299 
 PTB  HZ EP        645 40.87                             133   -0.64 9  150 260 
 PTB  HN ES        646  2.48                             133   -0.51 9  150 260 
 PTB  HZ I         646  9.86         8.6 0.32            128            150 260 
 SPBC HZ EP        645 43.22                             130    0.39 9  163 220 
 SPBC HN ES        646  5.82                             130    0.48 9  163 220 
 SPBC HZ I         646 10.93         9.9 0.38            127            163 220 
 ZAR  HZ EP        645 46.73                             123   -0.31 8  207 292 
 ZAR  HN ES        646 12.93                             123    0.09 8  207 292 
 ZAR  HZ I         646 19.00         7.4 0.45            121            207 292 
                                                                                
