 2017 1118 0118 12.4 L   6.777 -73.137146.2  RSN  8 0.4 1.3LRSN                1
 GAP=139        0.91       4.1     4.0  6.9 -0.4110E+01  0.9568E+01 -0.1565E+00E
 Epicentro: LOS SANTOS - SANTANDER                                             3
 ACTION:UPD 17-12-12 19:56 OP:rebc STATUS:               ID:20171118011812 L   I
 OLDACT:UP  17-11-18 12:54 OP:osc  STATUS:               ID:20171118011743     3
 OLDACT:REG 17-11-18 09:59 OP:mg   STATUS:               ID:20171118011743     3
 2017-11-18-0118-00M.COL___473                                                 6
 STAT SP IPHASW D HRMM SECON CODA AMPLIT PERI AZIMU VELO AIN AR TRES W  DIS CAZ7
 BAR2 EZ EP        118 32.15                             172    0.1310 21.1 194 
 BAR2 EZ ES        118 47.66                             172    0.3210 21.1 194 
 BAR2 EZ I         118 50.69         6.0 0.56            168           21.1 194 
 PAM  EZ EP        118 35.03                             150    0.3110 78.7  38 
 PAM  EN ES        118 51.73                             150   -0.4210 78.7  38 
 PAM  EZ I         118 53.11         1.6 0.14            157           78.7  38 
 RUS  HZ EP        118 36.13                             145    0.1410 98.0 177 
 RUS  HN ES        118 54.59                             145    0.1810 98.0 177 
 RUS  HZ I         118 58.15         1.4 0.18            145           98.0 177 
 PTB  HZ EP        118 39.25                             132   -0.17 9  148 260 
 PTB  HN ES        119  0.19                             132   -0.33 9  148 260 
 PTB  HZ I         119  4.34         1.8 0.14            134            148 260 
 SPBC HZ EP        118 40.33                             129   -0.45 9  162 220 
 SPBC HN ES        119  2.45                             129   -0.49 9  162 220 
 SPBC HZ I         119  9.65         4.1 0.21            131            162 220 
 ZAR  HN ES        119 10.92                             122    0.40 8  206 293 
 NOR  HE ES        119 15.94                             119    0.05 8  234 235 
 NOR  HZ I         119 21.61         2.4 0.34            121            234 235 
 GUY2CHE ES   2    119 31.64                             112    1.74 4  301 235 
                                                                                
