 2017  418 0818 48.5 L   6.772 -73.154147.9  RSN  8 0.4 1.6LRSN                1
 GAP=137        0.90       4.3     4.6  5.8  0.4520E+01  0.6903E+01  0.1265E+01E
 Epicentro: LOS SANTOS - SANTANDER                                             3
 ACTION:UPD 17-05-30 21:13 OP:jn   STATUS:               ID:20170418081848 L   I
 OLDACT:REG 17-04-18 13:01 OP:cog  STATUS:               ID:20170418081736     3
 2017-04-18-0818-00M.COL___368                                                 6
 STAT SP IPHASW D HRMM SECON CODA AMPLIT PERI AZIMU VELO AIN AR TRES W  DIS CAZ7
 BAR2 EZ EP        819  8.07                             172   -0.2910 20.1 189 
 BAR2 EZ ES        819 23.45                             172   -0.3710 20.1 189 
 BAR2 EZ I         819 26.56         9.6 0.22            171           20.1 189 
 BRR  HZ EP        819  9.99                             153    0.0410 72.0 301 
 BRR  HN ES        819 27.47                             153    0.8110 72.0 301 
 BRR  HZ I         819 31.76        11.2 0.12            152           72.0 301 
 PAM  EN ES   3    819 28.20                             150   -0.60 2 80.4  39 
 RUS  HZ EP        819 12.39                             145    0.1210 97.5 175 
 RUS  HN ES        819 30.98                             145    0.1810 97.5 175 
 RUS  HZ I         819 32.24         3.5 0.18            148           97.5 175 
 PTB  HZ EP        819 14.95                             133   -0.59 9  146 260 
 PTB  HN ES        819 36.26                             133   -0.35 9  146 260 
 PTB  HZ I         819 41.29         6.9 0.27            134            146 260 
 SPBC HZ EP        819 17.23                             130    0.32 9  160 219 
 SPBC HN ES        819 38.99                             130   -0.06 9  160 219 
 ZAR  HZ EP        819 21.49                             123    0.34 9  204 293 
 ZAR  HE ES        819 46.26                             123   -0.34 9  204 293 
 NOR  HZ EP        819 24.28                             119    0.17 8  232 235 
 NOR  HN ES        819 51.92                             119    0.06 8  232 235 
 NOR  HZ I         819 56.29         3.4 0.20            121            232 235 
                                                                                
