 2017  818 0042 16.8 L   6.363 -73.635101.7  RSN 12 0.3 1.7LRSN                1
 GAP= 64        0.89       2.2     2.6  5.2 -0.5285E+00  0.4408E+01  0.1939E+01E
 Epicentro: SANTA HELENA DEL OPON - SANTANDER                                  3
 ACTION:UPD 17-09-04 20:21 OP:rebc STATUS:               ID:20170818004216 L   I
 OLDACT:REG 17-08-18 12:48 OP:lv   STATUS:               ID:20170818003745     3
 2017-08-18-0038-00M.COL___404                                                 6
 STAT SP IPHASW D HRMM SECON CODA AMPLIT PERI AZIMU VELO AIN AR TRES W  DIS CAZ7
 BAR2 EZ IP     C  042 32.87                             149    0.1910 56.1  63 
 BAR2 EZ ES        042 45.38                             149    0.3010 56.1  63 
 RUS  HZ EP        042 34.88                             139    0.1010 80.2 130 
 RUS  HN ES        042 49.14                             139    0.3310 80.2 130 
 RUS  HZ I         042 50.80         7.1 0.14            139           80.2 130 
 BRR  HZ EP        042 33.87                             137   -0.4310 82.7 354 
 BRR  HN ES        042 47.80                             137   -0.1610 82.7 354 
 BRR  HZ I         042 48.92        12.0 0.32            138           82.7 354 
 SPBC HZ EP        042 35.03                             134   -0.2110 92.3 212 
 SPBC HN ES        042 48.93                             134   -0.7110 92.3 212 
 SPBC HZ I         042 51.50        20.8 0.18            134           92.3 212 
 PAM  EZ EP        042 41.08                             120   -0.30 9  149  44 
 PAM  EN ES        043  0.42                             120   -0.14 9  149  44 
 PAM  EZ I         043  4.72         4.5 0.25            120            149  44 
 NOR  HZ EP        042 42.32                             117    0.07 9  163 237 
 NOR  HN ES   4    043  0.84                             117   -1.27 0  163 237 
 NOR  HZ I         043  3.78         7.5 0.14            117            163 237 
 YPLC HZ IP     D  042 44.07                             115    0.42 9  175 128 
 YPLC HN ES   4    043  6.15                             115    1.55 0  175 128 
 YPLC HZ I         043  7.64        15.5 0.32            115            175 128 
 ZAR  HZ EP   1    042 45.26                             113    0.71 7  184 313 
 ZAR  HN ES        043  6.51                             113    0.31 9  184 313 
 ZAR  HZ I         043  9.52         9.1 0.15            114            184 313 
 CHI  HZ EP        042 45.73                             112   -0.22 9  192 183 
 CHI  HE ES        043  8.70                             112    0.00 9  192 183 
 CHI  HZ I         043 12.66         2.8 0.18            113            192 183 
 HEL  HZ EP        042 47.79                             110   -0.21 8  210 265 
 HEL  HN ES        043 12.76                             110    0.42 8  210 265 
 HEL  HZ I         043 15.82         4.8 0.34            110            210 265 
 GUY2CHZ EP   9    042 51.27                             108    0.97 0  229 237 
 GUY2CHN ES        043 18.09                                    0.68 8  229 237 
 GUY2CHZ I         043 21.15         3.6 0.28                           229 237 
 URE  HN ES   4    043 19.43                             105   -2.36 0  260 306 
 PRA  HZ EP        043  0.65                             100   -0.34 7  324 205 
 PRA  HE ES        043 35.91                             100    0.45 7  324 205 
 PRA  HZ I         043 39.05         3.1 0.30            101            324 205 
                                                                                
