 2012 1118 0444  4.6 L   6.775 -73.167147.4  RSN  8 0.4 1.5LRSN                1
 GAP=135        0.75       5.0     4.8  6.3 -0.1098E+01  0.4368E+01  0.7378E+01E
 Epicentro: LOS SANTOS - SANTANDER                                             3
 ACTION:UPD 12-12-05 15:34 OP:}ep  STATUS:               ID:20121118044404 L   I
 2012-11-18-0440-00M.COL___234                                                 6
 STAT SP IPHASW D HRMM SECON CODA AMPLIT PERI AZIMU VELO AIN AR TRES W  DIS CAZ7
 BAR2 SZ EP   1    444 24.40                             172   -0.01 7 20.3 185 
 BAR2 SZ ES   1    444 39.42                             172   -0.41 7 20.3 185 
 BAR2 SZ I         444 41.00        10.8 0.14                          20.3 185 
 GIR2 SZ EP   1    444 24.40                             166   -0.17 7 33.7 355 
 GIR2 SZ ES   1    444 40.12                             166    0.00 7 33.7 355 
 BRR  HE ES   1    444 43.48                             153    0.95 7 70.5 301 
 PAM  SZ EP   1    444 27.36                             150    0.11 7 81.0  40 
 PAM  SE ES   1    444 44.68                             150   -0.20 7 81.0  40 
 PAM  SZ I         444 46.55         7.4 0.44                          81.0  40 
 RUS  HZ EP   1    444 28.33                             145   -0.04 7 98.1 175 
 RUS  HN ES   1    444 47.09                             145    0.21 7 98.1 175 
 RUS  HZ I         444 48.13         4.1 0.26                          98.1 175 
 PTB  HZ EP   1    444 31.29                             133   -0.20 7  145 260 
 PTB  HN ES   1    444 51.95                             133   -0.48 7  145 260 
 PTB  HZ I         444 54.75         2.5 0.14                           145 260 
 ZAR  HN ES   2    445  2.01                             123   -0.37 4  203 293 
 PRA  HZ EP   1    444 58.62                             107    0.81 4  388 209 
                                                                                
