 2012 1018 0840 37.0 L   6.371 -73.649106.0  RSN  6 0.2 1.7LRSN                1
 GAP=106        0.42       2.2     2.3  4.6  0.9287E+00  0.7030E+01  0.3292E+01E
 Epicentro: SANTA HELENA DEL OPON - SANTANDER                                  3
 ACTION:UPD 12-11-22 17:04 OP:ep   STATUS:               ID:20121018084037 L   I
 2012-10-18-0840-00M.COL___224                                                 6
 STAT SP IPHASW D HRMM SECON CODA AMPLIT PERI AZIMU VELO AIN AR TRES W  DIS CAZ7
 BAR2 SZ EP        840 53.39                             150   -0.0310 57.1  65 
 BAR2 SZ ES        841  6.41                             150    0.1810 57.1  65 
 BAR2 SZ I         841  7.47        45.0 0.24                          57.1  65 
 BRR  HZ EP   2    840 54.43                             139   -0.40 5 81.7 355 
 BRR  HZ I         841  3.21         6.9 0.14                          81.7 355 
 BRR  HE ES   1    841  8.56                             139   -0.18 7 81.7 355 
 RUS  HZ EP        840 55.48                             140   -0.0610 82.0 130 
 RUS  HN ES   2    841  9.92                             140   -0.07 5 82.0 130 
 NOR  SZ EP        841  2.79                             118    0.17 9  162 237 
 NOR  SN ES   1    841 22.35                             118   -0.25 7  162 237 
 ZAR  HZ EP        841  4.62                             115   -0.16 9  182 313 
 ZAR  HE ES   1    841 26.73                             115    0.28 7  182 313 
 ZAR  HZ I         841 30.90         6.5 0.32                           182 313 
 HEL  HZ EP        841  8.39                             112    0.16 8  209 265 
 HEL  HN ES   2    841 32.56                             112   -0.03 4  209 265 
 HEL  HZ I         841 36.44         3.6 0.30                           209 265 
                                                                                
