 2012  218 0904 38.0 L   6.771 -73.138154.2  RSN  8 0.4 1.6LRSN                1
 GAP=139        0.59       4.6     5.2  6.6  0.2101E+01  0.7930E+01  0.5800E+01E
 ACTION:UP  12-03-07 16:31 OP:epov STATUS:               ID:20120218090438 L   I
 2012-02-18-0900-00M.COL___188                                                 6
 STAT SP IPHASW D HRMM SECON CODA AMPLIT PERI AZIMU VELO AIN AR TRES W  DIS CAZ7
 BAR2 SZ EP   1    9 4 58.62                             172    0.00 7 20.4 194 
 BAR2 SZ ES   2    9 5 13.94                             172   -0.74 5 20.4 194 
 BAR2 SZ I         9 5 16.27        10.0 0.24                          20.4 194 
 GIR2 SZ EP   2    9 4 58.51                             167   -0.28 5 34.5 350 
 GIR2 SZ ES   2    9 5 15.41                             167    0.42 5 34.5 350 
 BRR  HZ EP   1    9 5  0.56                             153    0.34 7 73.5 300 
 BRR  HZ I         9 5  0.69        18.0 0.12                          73.5 300 
 BRR  HN ES   2    9 5 18.47                             153    0.94 5 73.5 300 
 PAM  SZ EP   2    9 5  0.99                             152   -0.27 5 79.3  38 
 PAM  SE ES   2    9 5 19.21                             152   -0.17 5 79.3  38 
 RUS  HZ EP   2    9 5  2.41                             146    0.01 5 97.4 176 
 RUS  HN ES   2    9 5 21.29                             146   -0.12 5 97.4 176 
 RUS  HZ I         9 5 22.85         2.6 0.23                          97.4 176 
 PTB  HZ EP   2    9 5  5.38                             134   -0.34 5  148 260 
 PTB  HN ES   2    9 5 26.75                             134   -0.57 5  148 260 
 ZAR  HZ EP   2    9 5 11.06                             124   -0.18 4  206 293 
 ZAR  HN ES   2    9 5 36.85                             124   -0.29 4  206 293 
 ZAR  HZ I         9 5 42.34         4.5 0.46                           206 293 
 CHI  HZ EP   2    9 5 16.31                             119    0.41 4  246 196 
 CHI  HE ES   2    9 5 45.91                             119    0.46 4  246 196 
 CHI  HZ I         9 5 55.46         1.6 0.55                           246 196 
                                                                                
