 2013  518 0829 41.0 L   6.812 -73.212139.2  RSN  8 0.3 1.3LRSN                1
 GAP=128        0.69       3.0     3.8  5.3 -0.2477E+01  0.8034E+01 -0.3973E+01E
 Epicentro: ZAPATOCA - SANTANDER                                               3
 ACTION:UPD 13-06-20 09:51 OP:ep   STATUS:               ID:20130518082941 L   I
 2013-05-18-0827-50M.COL___224                                                 6
 STAT SP IPHASW D HRMM SECON CODA AMPLIT PERI AZIMU VELO AIN AR TRES W  DIS CAZ7
 BAR2 SZ EP        829 59.86                             170    0.0110 24.5 172 
 BAR2 SZ ES   1    830 14.61                             170    0.04 7 24.5 172 
 BAR2 SZ I         830 15.75        10.0 0.38            171           24.5 172 
 GIR2 SZ EP        829 59.94                             167    0.1110 29.6   4 
 GIR2 SZ ES        830 14.63                             167    0.1010 29.6   4 
 GIR2 SZ I         830 16.40         3.0 0.12            168           29.6   4 
 BRR  HZ EP        830  1.71                             154    0.6810 64.2 301 
 BRR  HN ES   4    830 18.75                             154    2.08 0 64.2 301 
 BRR  HZ I         830 19.23         3.9 0.10            153           64.2 301 
 PAM  SZ EP        830  2.84                             148    0.0910 81.3  44 
 PAM  SN ES        830 19.61                             148   -0.1210 81.3  44 
 PAM  SZ I         830 20.54         3.2 0.18            152           81.3  44 
 RUS  HN ES        830 22.11                             142   -0.2910  103 172 
 RUS  HZ I         830 23.43         4.5 0.38            145            103 172 
 PTB  HZ EP        830  6.49                             132   -0.30 9  141 258 
 PTB  HN ES        830 26.93                             132    0.00 9  141 258 
 PTB  HZ I         830 29.63         3.7 0.16            133            141 258 
 OCA  HN ES   1    830 29.67                             128   -0.47 7  158 356 
 SML  HZ EP   1    830 16.63                             116   -0.16 6  240 337 
 SML  HN ES   1    830 44.59                             116   -0.13 6  240 337 
                                                                                
