 2012  518 0753 19.0 L   6.807 -73.127153.4  RSN  5 0.5 1.5LRSN                1
 GAP=185        0.71       6.6    13.8 10.9  0.5840E+02 -0.5949E+02 -0.1596E+02E
 Epicentro: LOS SANTOS - SANTANDER                                             3
 ACTION:UP  12-07-05 12:06 OP:pat  STATUS:               ID:20120518075319 L   I
 2012-05-18-0750-00M.COL___200                                                 6
 STAT SP IPHASW D HRMM SECON CODA AMPLIT PERI AZIMU VELO SNR AR TRES W  DIS CAZ7
 BAR2 SZ EP   3    753 39.29                             170    -0.3 2   25 195 
 BAR2 SZ I         753 55.29         5.0 0.48                            25 195 
 BRR  HZ EP        753 41.35                             152     0.310   73 297 
 BRR  HZ I         753 42.80         7.0 0.12                            73 297 
 BRR  HN ES   1    753 58.45                             152     0.2 7   73 297 
 RUS  HZ EP        753 43.52                             145     0.010  101 177 
 RUS  HN ES   1    754  2.52                             145    -0.2 7  101 177 
 PTB  HZ EP   3    753 45.46                             132    -1.3 2  150 259 
 PTB  HE ES   3    754  7.56                             132    -0.9 2  150 259 
 OCA  HN ES   2    754  9.54                             131    -0.8 5  160 352 
                                                                                
