 2013  718 0810 38.2 L   6.768 -73.177140.0  RSN  5 0.2 1.4LRSN                1
 GAP=177        0.53       4.6     3.7  7.6  0.4041E+01 -0.1251E+01 -0.1665E+02E
 Epicentro: LOS SANTOS - SANTANDER                                             3
 ACTION:UPD 13-08-12 10:38 OP:ep   STATUS:               ID:20130718080959 L   I
 OLDACT:UPD 13-07-18 10:35 OP:stll STATUS:               ID:20130718080959 L   3
 2013-07-18-0809-59M.COL___267                                                 6
 STAT SP IPHASW D HRMM SECON CODA AMPLIT PERI AZIMU VELO AIN AR TRES W  DIS CAZ7
 GIR2 SZ EP   1    810 57.17                             165   -0.11 7 34.4 357 
 GIR2 SZ I         811 13.93         5.2 0.10            148           34.4 357 
 BRR  HZ EP   1    810 59.01                             152    0.35 7 70.0 302 
 RUS  HZ EP        811  0.86                             144   -0.2910 97.4 174 
 RUS  HN ES        811 19.20                             144    0.1510 97.4 174 
 RUS  HN I         811 20.76         2.5 0.16            164           97.4 174 
 PTB  HZ EP        811  4.23                             132   -0.10 9  144 260 
 PTB  HN ES        811 24.65                             132   -0.06 9  144 260 
 PTB  HN I         811 29.96         7.5 0.48            142            144 260 
 SPBC HZ EP   1    811  6.17                             129    0.38 7  158 219 
 SPBC HN ES   1    811 27.24                             129   -0.07 7  158 219 
                                                                                
