 2016  118 0842 46.5 L   6.799 -73.143145.7  RSN 11 0.4 1.9LRSN                1
 GAP=137        0.96       2.4     3.9  5.5 -0.1600E+01  0.6626E+01 -0.4134E+00E
 Epicentro: LOS SANTOS - SANTANDER                                             3
 ACTION:UPD 16-03-09 23:26 OP:cam  STATUS:               ID:20160118084246 L   I
 OLDACT:UP  16-01-18 17:31 OP:mh   STATUS:               ID:20160118083744     3
 OLDACT:UP  16-01-18 17:30 OP:mh   STATUS:               ID:20160118083744     3
 OLDACT:REG 16-01-18 12:56 OP:mh   STATUS:               ID:20160118083744     3
 2016-01-18-0837-44M.COL___319                                                 6
 STAT SP IPHASW D HRMM SECON CODA AMPLIT PERI AZIMU VELO AIN AR TRES W  DIS CAZ7
 BAR2 EZ EP        843  6.11                             170   -0.0310 23.3 191 
 BAR2 EZ ES        843 21.20                             170   -0.2410 23.3 191 
 BAR2 EZ I         843 22.28         9.9 0.30            169           23.3 191 
 PAM  EZ EP        843  8.99                             151    0.2610 77.3  39 
 PAM  EN ES        843 26.32                             151    0.2810 77.3  39 
 PAM  EZ I         843 28.08        19.8 0.56            155           77.3  39 
 RUS  HZ EP        843  9.98                             144   -0.2810  100 176 
 RUS  HN ES        843 28.89                             144    0.1210  100 176 
 RUS  HZ I         843 30.42         3.8 0.46            145            100 176 
 PTB  HZ EP        843 13.30                             132   -0.21 9  148 259 
 PTB  HN ES        843 34.11                             132   -0.44 9  148 259 
 PTB  HZ I         843 39.25         6.2 0.22            131            148 259 
 OCA  HZ EP        843 14.27                             130   -0.57 9  160 353 
 OCA  HN ES        843 36.70                             130   -0.23 9  160 353 
 OCA  HZ I         843 40.32        21.0 0.20            131            160 353 
 SPBC HZ EP        843 15.28                             129    0.25 9  163 219 
 SPBC HN ES        843 37.59                             129    0.33 9  163 219 
 SPBC HZ I         843 40.06         7.6 0.31            129            163 219 
 ZAR  HZ EP        843 19.53                             122    0.53 9  204 292 
 ZAR  HN ES        843 44.60                             122    0.28 9  204 292 
 ZAR  HZ I         843 49.64         8.7 0.30            123            204 292 
 NOR  HN ES        843 50.11                             118   -0.04 8  235 235 
 NOR  HZ I         843 56.51        17.8 0.04            119            235 235 
 SML  HZ EP        843 22.32                             117   -0.85 8  244 335 
 SML  HE ES        843 52.49                             117    0.74 8  244 335 
 SML  HZ I         843 53.69        14.3 0.10            119            244 335 
 CHI  HZ EP        843 24.31                             117    0.09 8  249 195 
 CHI  HN ES        843 53.74                             117    0.12 8  249 195 
 CHI  HZ I         844  2.15         2.2 0.36            118            249 195 
 PRA  HZ EP        843 40.92                             106    0.87 6  392 210 
 PRA  HN ES        844 20.97                             106   -0.83 6  392 210 
 PRA  HZ I         844 25.97         2.6 0.38            107            392 210 
                                                                                
