 2015 1118 0003  2.6 L   6.817 -73.124148.8  RSN  6 0.2 1.5LRSN                1
 GAP=138        0.59       2.3     3.9  4.5 -0.3682E+01  0.9085E+01 -0.2905E+01E
 Epicentro: LOS SANTOS - SANTANDER                                             3
 ACTION:UPD 15-12-28 16:11 OP:cam  STATUS:               ID:20151118000302 L   I
 OLDACT:DUP 15-11-18 13:37 OP:ak   STATUS:               ID:20151117235954d    3
 OLDACT:REG 15-11-18 12:28 OP:ak   STATUS:               ID:20151117235953     3
 2015-11-17-2359-53M.COL___313                                                 6
 STAT SP IPHASW D HRMM SECON CODA AMPLIT PERI AZIMU VELO AIN AR TRES W  DIS CAZ7
 BAR2 EZ EP        0 3 22.74                             170    0.1010 25.7 194 
 BAR2 EZ ES        0 3 38.31                             170    0.0410 25.7 194 
 PAM  EZ EP        0 3 25.35                             152    0.3910 74.4  39 
 PAM  EN ES        0 3 42.43                             152    0.0210 74.4  39 
 PAM  EZ I         0 3 45.18         3.4 0.34            156           74.4  39 
 RUS  HZ EP        0 3 26.54                             144   -0.2310  102 177 
 RUS  HE ES        0 3 45.39                             144   -0.2410  102 177 
 RUS  HZ I         0 3 46.33         2.7 0.20            146            102 177 
 SPBC HZ EP        0 3 31.83                             129    0.22 9  166 219 
 SPBC HE ES        0 3 54.15                             129   -0.09 9  166 219 
 SPBC HZ I         0 3 59.42         5.6 0.07            130            166 219 
 NOR  HZ EP        0 3 38.56                             119   -0.26 8  238 234 
 NOR  HE ES        0 4  7.47                             119    0.39 8  238 234 
 NOR  HZ I         0 4 11.69         2.9 0.25            120            238 234 
 SML  HZ EP        0 3 39.12                             118   -0.19 8  243 335 
 SML  HN ES        0 4  7.71                             118   -0.24 8  243 335 
                                                                                
