 2017 1018 0939 46.8 L   6.823 -73.151146.6  RSN  5 0.4 1.4LRSN                1
 GAP=239        0.99       7.9     7.3  8.9  0.3194E+02  0.1335E+02 -0.6900E+01E
 Epicentro: LOS SANTOS - SANTANDER                                             3
 ACTION:UPD 17-11-07 19:33 OP:rebc STATUS:               ID:20171018093946 L   I
 OLDACT:UP  17-10-18 17:28 OP:dani STATUS:               ID:20171018093742d    3
 OLDACT:DUP 17-10-18 17:26 OP:dani STATUS:               ID:20171018093742d    3
 OLDACT:DUP 17-10-18 17:22 OP:dani STATUS:               ID:20171018093741d    3
 OLDACT:UP  17-10-18 17:21 OP:dani STATUS:               ID:20171018093740     3
 OLDACT:UP  17-10-18 17:21 OP:dani STATUS:               ID:20171018093740     3
 OLDACT:UP  17-10-18 17:21 OP:dani STATUS:               ID:20171018093740     3
 OLDACT:UP  17-10-18 17:21 OP:dani STATUS:               ID:20171018093740     3
 OLDACT:UP  17-10-18 17:21 OP:dani STATUS:               ID:20171018093740     3
 OLDACT:UP  17-10-18 17:09 OP:dani STATUS:               ID:20171018093740     3
 OLDACT:UP  17-10-18 17:09 OP:dani STATUS:               ID:20171018093740     3
 OLDACT:REG 17-10-18 13:35 OP:dani STATUS:               ID:20171018093740     3
 2017-10-18-0938-00M.COL___413                                                 6
 STAT SP IPHASW D HRMM SECON CODA AMPLIT PERI AZIMU VELO AIN AR TRES W  DIS CAZ7
 BAR2 EZ EP        940  6.33                             170   -0.2910 25.7 188 
 BAR2 EZ ES        940 21.56                             170   -0.4910 25.7 188 
 BAR2 EZ I         940 23.98         6.1 0.30            171           25.7 188 
 BRR  HZ EP        940  8.09                             153    0.1010 69.5 297 
 BRR  HN ES        940 25.13                             153    0.6510 69.5 297 
 BRR  HZ I         940 28.05         6.0 0.33            153           69.5 297 
 RUS  HN ES        940 29.79                             143    0.2010  103 176 
 PTB  HZ EP        940 14.22                             132    0.35 9  148 258 
 PTB  HE ES        940 34.81                             132   -0.14 9  148 258 
 PTB  HZ I         940 37.67         1.6 0.26            134            148 258 
 ZAR  HE ES        940 43.93                             123   -0.49 9  203 292 
                                                                                
