 2017  318 0829 58.5 L   6.786 -73.121144.8  RSN  7 0.3 1.4LRSN                1
 GAP=140        0.78       3.9     4.1  5.2 -0.1394E+01  0.2178E+01  0.4100E+01E
 Epicentro: LOS SANTOS - SANTANDER                                             3
 ACTION:UPD 17-05-25 18:42 OP:jn   STATUS:               ID:20170318082958 L   I
 OLDACT:REG 17-03-18 14:23 OP:cog  STATUS:               ID:20170318081618     3
 2017-03-18-0828-00M.COL___352                                                 6
 STAT SP IPHASW D HRMM SECON CODA AMPLIT PERI AZIMU VELO AIN AR TRES W  DIS CAZ7
 BAR2 EZ EP        830 17.93                             171   -0.0210 22.4 198 
 BAR2 EZ ES        830 32.86                             171   -0.3010 22.4 198 
 BAR2 EZ I         830 35.70        12.7 0.28            168           22.4 198 
 BRR  HZ EP        830 19.86                             151    0.1810 74.3 299 
 BRR  HN ES        830 36.82                             151    0.5810 74.3 299 
 PAM  EZ EP        830 20.82                             151    0.2810 76.9  37 
 PAM  EE ES        830 37.37                             151   -0.4010 76.9  37 
 PAM  EZ I         830 40.96         3.8 0.38            155           76.9  37 
 RUS  HZ EP        830 22.06                             144    0.0710 98.8 178 
 RUS  HN ES        830 40.55                             144    0.2110 98.8 178 
 RUS  HZ I         830 41.94         3.8 0.26            144           98.8 178 
 PTB  HZ EP        830 25.02                             131   -0.54 9  150 260 
 PTB  HN ES        830 46.48                             131   -0.22 9  150 260 
 PTB  HZ I         830 52.29         3.4 0.32            132            150 260 
 SPBC HN ES   3    830 48.88                             129   -0.26 2  164 220 
 CHI  HZ EP        830 36.09                             117    0.08 8  248 196 
 CHI  HN ES   3    831  5.65                             117    0.34 2  248 196 
 CHI  HZ I         831 11.57         1.6 0.26            118            248 196 
                                                                                
