 2012 1018 0108  9.3 L   6.698 -73.188142.4  RSN  4 0.2 1.6LRSN                1
 GAP=225        0.41       7.5     9.7  6.0  0.6171E+02 -0.4057E+00 -0.8016E+00E
 Epicentro: VILLANUEVA - SANTANDER                                             3
 ACTION:UPD 12-11-22 17:04 OP:ep   STATUS:               ID:20121018010809 L   I
 2012-10-18-0100-00M.COL___224                                                 6
 STAT SP IPHASW D HRMM SECON CODA AMPLIT PERI AZIMU VELO AIN AR TRES W  DIS CAZ7
 BAR2 SZ EP   2    1 8 28.06                             175   -0.27 5 11.7 177 
 BAR2 SZ ES   2    1 8 42.84                             175   -0.34 5 11.7 177 
 BAR2 SZ I         1 8 45.97         9.7 0.23                          11.7 177 
 BRR  HZ EP        1 8 30.25                             151    0.0510 73.4 308 
 BRR  HZ I         1 8 37.53        13.0 0.33                          73.4 308 
 BRR  HN ES   2    1 8 46.88                             151    0.37 5 73.4 308 
 RUS  HZ EP        1 8 31.98                             146    0.0310 89.9 173 
 RUS  HN ES   2    1 8 49.75                             146    0.12 5 89.9 173 
 RUS  HN I         1 8 52.64         3.3 0.22                          89.9 173 
 ZAR  HE ES   2    1 9  6.39                             121   -0.30 4  204 296 
 ZAR  HZ I         1 9 12.60         3.5 0.17                           204 296 
                                                                                
