 2012  318 0939 10.1 L   6.057 -73.731 95.4  RSN  4 0.1 0.8LRSN                1
 GAP=200        0.34       3.1     2.6  5.9  0.5347E+01  0.6173E+01  0.3141E+00E
 ACTION:UP  12-03-31 23:20 OP:EP   STATUS:               ID:20120318093910 L   I
 2012-03-18-0937-38M.COL___172                                                 6
 STAT SP IPHASW D HRMM SECON CODA AMPLIT PERI AZIMU VELO SNR AR TRES W  DIS CAZ7
 RUS  HZ EP   1    939 26.98                             140    -0.1 7   74 104 
 RUS  HN ES        939 40.24                             140     0.010   74 104 
 RUS  HZ I         939 42.69         2.6 0.24                            74 104 
 PTB  HZ EP   1    939 28.48                             131     0.1 7   96 304 
 PTB  HN ES   1    939 42.50                             131     0.0 7   96 304 
 PTB  HZ I         939 48.04         1.0 0.12                            96 304 
 BRR  HN ES   1    939 45.96                             126     0.1 7  116   1 
 ZAR  HN ES   1    940  2.51                             111    -0.1 6  202 322 
                                                                                
