 2011  118 0409 23.8 L   6.776 -73.021145.4  RSN  7 0.4 1.7LRSN                1
 GAP=173        0.90       4.1    10.4  8.3 -0.1530E+02  0.2282E+02 -0.4298E+01E
 Epicentro: CEPITA - SANTANDER                                                 3
 ACTION:UP  11-02-08 08:41 OP:pat  STATUS:               ID:20110118040923 L   I
 2011-01-18-0407-21S.COL___134                                                 6
 STAT SP IPHASW D HRMM SECON CODA AMPLIT PERI AZIMU VELO SNR AR TRES W  DIS CAZ7
 BAR2 SZ EP   1    4 9 43.46                             169     0.0 8   27 222 
 BAR2 SZ ES   1    4 9 58.09                             169    -0.7 8   27 222 
 BAR2 SZ I         410  0.23        18.2 0.24                            27 222 
 RUS  HZ EP   1    4 9 47.60                             144     0.3 8   98 184 
 RUS  HN ES   1    410  6.08                             144     0.4 8   98 184 
 RUS  HZ I         410  7.45         4.3 0.27                            98 184 
 GRA  SZ IP        4 9 49.14                             137     0.210  125  11 
 GRA  SZ I         4 9 50.48         8.6 0.32                           125  11 
 GRA  SZ ES   1    410  8.75                             137     0.2 7  125  11 
 OCA  SZ EP   1    4 9 51.73                             128    -0.8 7  165 349 
 OCA  SZ ES   1    410 15.18                             128     0.2 7  165 349 
 OCA  SZ I         410 18.32         6.3 0.15                           165 349 
 NOR  SZ EP   2    410  0.42                             117    -0.2 4  245 237 
 CHI  HZ EP   1    410  1.67                             117     0.0 6  250 198 
 CHI  HZ I         410  2.66         1.6 0.44                           250 198 
 CHI  HE ES   2    410 30.56                             117    -0.6 4  250 198 
 HEL  HZ EP   2    410  5.39                             113     0.0 4  285 257 
 HEL  HN ES   2    410 38.71                             113     0.8 4  285 257 
 HEL  HZ I         410 43.37         3.5 0.27                           285 257 
                                                                                
