 2012  718 0346 56.6 L   6.637 -73.415123.2  RSN  4 0.3 1.2LRSN                1
 GAP=133        0.60       6.4     5.0  7.6  0.8439E+01  0.1295E+02  0.6498E+01E
 Epicentro: EL CARMEN DE CHUCURI - SANTANDER                                   3
 ACTION:UPD 12-08-14 11:45 OP:ep   STATUS:               ID:20120718034656 L   I
 2012-07-18-0340-00M.COL___197                                                 6
 STAT SP IPHASW D HRMM SECON CODA AMPLIT PERI AZIMU VELO AIN AR TRES W  DIS CAZ7
 BAR2 SZ EP   1    347 13.49                             167    -0.1 7   26 101 
 BAR2 SZ ES   1    347 26.52                             167    -0.4 7   26 101 
 BAR2 SZ I         347 28.39         5.8 0.36            171             26 101 
 BRR  HZ EP   1    347 14.88                             151     0.1 7   62 328 
 BRR  HN ES   1    347 29.25                             151     0.3 7   62 328 
 RUS  HN ES   2    347 34.21                             142     0.6 5   90 156 
 PTB  HZ EP   1    347 18.87                             134     0.0 7  116 265 
 PTB  HN ES   1    347 35.99                             134    -0.2 7  116 265 
 PTB  HZ I         347 41.73         2.4 0.27            133            116 265 
