 2013  218 0326 57.4 L   6.773 -73.168143.4  RSN  5 0.3 1.2LRSN                1
 GAP=135        0.61       5.2     5.2  7.3  0.6963E+01 -0.8318E+01 -0.7721E+01E
 Epicentro: LOS SANTOS - SANTANDER                                             3
 ACTION:UPD 13-03-12 09:33 OP:ep   STATUS:               ID:20130218032657 L   I
 2013-02-18-0325-49M.COL___184                                                 6
 STAT SP IPHASW D HRMM SECON CODA AMPLIT PERI AZIMU VELO AIN AR TRES W  DIS CAZ7
 BAR2 SZ ES   1    327 31.37                             172   -0.39 7 20.0 184 
 BAR2 SZ I         327 33.00         5.7 0.20            174           20.0 184 
 BRR  HZ EP   1    327 18.40                             152    0.11 7 70.5 302 
 BRR  HN ES   1    327 35.00                             152    0.44 7 70.5 302 
 BRR  HZ I         327 38.10         2.5 0.42            153           70.5 302 
 PAM  SZ EP   1    327 19.43                             149   -0.21 7 81.3  40 
 RUS  HZ EP   1    327 20.88                             144    0.12 7 97.8 174 
 RUS  HN ES   1    327 39.16                             144    0.22 7 97.8 174 
 RUS  HZ I         327 40.14         1.2 0.24            148           97.8 174 
 PTB  HN ES   1    327 44.27                             132   -0.34 7  145 260 
 PTB  HZ I         327 45.37         3.6 0.40            135            145 260 
                                                                                
