 2010 1018 0753 26.5 L   6.803 -73.092142.5  RSN  7 0.4 1.9LRSN                1
 GAP=243        0.63       4.9     7.4  7.4  0.1270E+02  0.6556E+01  0.7311E+01E
 Epicentro: LOS SANTOS - SANTANDER                                             3
 ACTION:UP  11-02-18 11:10 OP:tino STATUS:               ID:20101018075326 L   I
 2010-10-18-0740-00M.COL___113                                                 6
 STAT SP IPHASW D HRMM SECON CODA AMPLIT PERI AZIMU VELO SNR AR TRES W  DIS CAZ7
 BAR2 SZ IP        753 45.80                             169     0.010   26 203 
 BAR2 SZ I         754  2.27        14.5 0.42                            26 203 
 BRR  HZ IP     D  753 47.60                             150     0.010   76 296 
 BRR  HN ES   1    754  4.21                             150     0.1 7   76 296 
 BRR  HZ I         754  5.20        16.8 0.18                            76 296 
 RUS  HZ EP   1    753 49.86                             143    -0.1 7  101 179 
 RUS  HE ES   1    754  8.22                             143     0.0 7  101 179 
 RUS  HZ I         754 10.38         6.2 0.52                           101 179 
 NOR  SZ EP   2    754  2.37                             117    -0.3 4  240 235 
 NOR  SN ES   2    754 30.12                             117    -0.7 4  240 235 
 CHI  HZ EP   2    754  4.59                             116     0.3 4  251 196 
 CHI  HN ES   2    754 34.52                             116     0.8 4  251 196 
 CHI  HZ I         754 40.27         3.2 0.42                           251 196 
 HEL  HZ EP   2    754  8.04                             114     0.8 4  278 256 
 HEL  HZ I         754 45.38         2.9 0.21                           278 256 
 PRA  HZ EP   2    754 19.66                             106    -0.7 3  395 210 
 PRA  HZ I         755  8.79        11.4 0.44                           395 210 
                                                                                
