 2013 1018 0833 59.8 L   6.785 -74.215  0.0  RSN  5 0.2 0.8LRSN                1
 GAP=145        0.48       1.6     2.4  4.6 -0.9258E+00 -0.1062E+01 -0.2849E+01E
 Epicentro: PUERTO PARRA - SANTANDER                                           3
 ACTION:UPD 13-11-25 09:22 OP:ep   STATUS:               ID:20131018083359 L   I
 OLDACT:REG 13-10-18 08:55 OP:jn   STATUS:               ID:20131018082841d    3
 2013-10-18-0828-40M.COL___220                                                 6
 STAT SP IPHASW D HRMM SECON CODA AMPLIT PERI AZIMU VELO AIN AR TRES W  DIS CAZ7
 ZAR  HN ES   2    834 30.30                              47   -0.03 5  106 318 
 ZAR  HZ I         834 56.56         1.3 0.26             56            106 318 
 SPBC HZ EP        834 19.99                              47   -0.1610  126 173 
 SPBC HN ES        834 36.28                              47    0.2210  126 173 
 RUS  HZ EP   1    834 25.26                              47   -0.33 7  159 128 
 RUS  HZ I         834 43.35         2.1 0.28             97            159 128 
 PAM  SN ES        834 50.82                              47    0.01 9  178  70 
 OCA  HE ES   1    834 52.84                              37    0.23 7  189  32 
                                                                                
