 2010  618 0747 41.5 L   6.899 -73.104142.4  RSN  7 0.5 1.5LRSN                1
 GAP=158        0.96       6.0    12.9 10.6 -0.2365E+02 -0.6270E+02  0.7498E+01E
 Epicentro: PIEDECUESTA - SANTANDER                                            3
 ACTION:UP  10-08-24 10:11 OP:vdl  STATUS:               ID:20100618074741 L   I
 2010-06-18-0745-28S.COL___115                                                 6
 STAT SP IPHASW D HRMM SECON CODA AMPLIT PERI AZIMU VELO SNR AR TRES W  DIS CAZ7
 BAR2 SZ IP        748  0.83                             165    -0.210   35 195 
 BAR2 SZ ES   1    748 16.55                             165     0.3 7   35 195 
 BRR  HZ EP   2    748  1.78                             152    -0.5 5   71 289 
 BRR  HE ES   1    748 18.65                             152     0.2 7   71 289 
 BRR  HZ I         748 21.57         7.8 0.07                            71 289 
 BRI  SZ EP   1    748  4.82                             144     0.6 7   97  21 
 GUE  SZ EP   1    748  5.48                             142     0.5 7  105  11 
 RUS  HZ EP        748  5.55                             140    -0.210  111 179 
 RUS  HZ I         748 27.01         3.4 0.57                           111 179 
 GRA  SZ EP   1    748  5.84                             139     0.4 7  114  17 
 GRA  SZ ES   1    748 23.41                             139    -0.8 7  114  17 
 OCA  SZ EP   2    748  7.88                             131    -0.7 5  150 351 
                                                                                
