 2017  218 0046 45.9 L   6.128 -73.693 95.3  RSN  5 0.3 1.2LRSN                1
 GAP=109        0.75       3.1     2.6  7.1  0.7170E+00  0.7478E+01  0.8973E+01E
 Epicentro: CHIPATA - SANTANDER                                                3
 ACTION:UPD 17-05-24 15:37 OP:jn   STATUS:               ID:20170218004645 L   I
 OLDACT:UP  17-02-18 14:32 OP:cara STATUS:               ID:20170218003739     3
 OLDACT:REG 17-02-18 13:08 OP:cara STATUS:               ID:20170218003739     3
 2017-02-18-0038-00M.COL___352                                                 6
 STAT SP IPHASW D HRMM SECON CODA AMPLIT PERI AZIMU VELO AIN AR TRES W  DIS CAZ7
 RUS  HZ EP        047  2.66                             141   -0.0210 72.4 111 
 RUS  HN ES        047 15.56                             141   -0.1910 72.4 111 
 BAR2 EZ IP        047  2.73                             139    0.0910 76.4  48 
 BAR2 EZ ES        047 16.02                             139    0.3210 76.4  48 
 PTB  HZ EP        047  3.48                             131   -0.5710 95.9 298 
 PTB  HN ES        047 18.08                             131   -0.1210 95.9 298 
 PTB  HZ I         047 21.13         4.0 0.14            135           95.9 298 
 NOR  HZ EP        047  8.97                             119   -0.03 9  144 244 
 NOR  HZ EPg       047  9.19                             119    0.19 9  144 244 
 NOR  HN ES        047 27.44                             119    0.42 9  144 244 
 NOR  HZ I         047 30.42         4.3 0.28            121            144 244 
 CHI  HZ EP        047 12.07                             116    0.27 9  166 181 
 CHI  HN ES        047 31.70                             116   -0.30 9  166 181 
 CHI  HZ I         047 36.90         1.8 0.24            118            166 181 
                                                                                
