 2012  618 0404 13.6 L   6.796 -73.151142.1  RSN  9 0.4 2.2LRSN                1
 GAP=136        0.95       4.4     6.7  7.8 -0.6587E+01  0.2904E+02 -0.4097E+01E
 Epicentro: LOS SANTOS - SANTANDER                                             3
 ACTION:UPD 12-08-06 17:50 OP:ep   STATUS:               ID:20120618040417 L   I
 2012-06-18-0400-00M.COL___199                                                 6
 STAT SP IPHASW D HRMM SECON CODA AMPLIT PERI AZIMU VELO AIN AR TRES W  DIS CAZ7
 BAR2 SZ EP        4 4 32.93                             170    0.1510 22.8 189 
 BAR2 SZ ES   1    4 4 47.71                             170   -0.03 7 22.8 189 
 BAR2 SZ I         4 4 49.04        45.8 0.22            179           22.8 189 
 PAM  SZ EP        4 4 35.78                             150    0.3110 78.1  40 
 PAM  SN ES   1    4 4 52.74                             150    0.21 7 78.1  40 
 PAM  SZ I         4 4 54.96        15.9 0.58            140           78.1  40 
 RUS  HZ EP        4 4 36.83                             143   -0.1410  100 176 
 RUS  HE ES   1    4 4 55.26                             143    0.07 7  100 176 
 RUS  HZ I         4 4 56.32        20.6 0.26            147            100 176 
 PTB  HZ EP        4 4 39.60                             131   -0.61 9  147 259 
 PTB  HN ES   2    4 5  0.84                             131   -0.13 5  147 259 
 PTB  HZ I         4 5  2.83        16.6 0.16            129            147 259 
 OCA  HZ EP        4 4 41.09                             129   -0.57 9  161 353 
 OCA  HZ I         4 5  7.71        49.4 0.34            121            161 353 
 ZAR  HZ EP        4 4 45.65                             122   -0.12 9  204 292 
 ZAR  HN ES   3    4 5 11.35                             122    0.49 2  204 292 
 NOR  SZ EP        4 4 49.36                             118    0.32 8  234 234 
 CHI  HZ EP        4 4 50.96                             116   -0.08 8  248 195 
 CHI  HN ES   1    4 5 19.69                             116   -0.55 6  248 195 
 HEL  HZ EP        4 4 54.77                             114    1.21 8  271 256 
                                                                                
