 2013  918 0029 40.8 L   6.812 -73.126149.8  RSN  9 0.4 2.2LRSN                1
 GAP=203        0.89       3.3     4.8  5.3  0.2214E+01  0.4824E+01  0.4166E+00E
 Epicentro: LOS SANTOS - SANTANDER                                             3
 ACTION:UPD 13-10-22 09:23 OP:ep   STATUS:               ID:20130918002940 L   I
 OLDACT:REG 13-09-18 07:51 OP:carl STATUS:               ID:20130918002738     3
 2013-09-18-0027-38M.COL___232                                                 6
 STAT SP IPHASW D HRMM SECON CODA AMPLIT PERI AZIMU VELO AIN AR TRES W  DIS CAZ7
 BAR2 SZ EP        030  0.93                             170   -0.0410 25.1 194 
 BAR2 SZ ES        030 16.45                             170   -0.2410 25.1 194 
 BAR2 SZ I         030 18.74        16.3 0.42            168           25.1 194 
 BRR  HZ EP        030  2.85                             153    0.3810 72.5 297 
 BRR  HN ES        030 20.19                             153    0.8210 72.5 297 
 BRR  HN I         030 22.59        38.0 0.16            150           72.5 297 
 RUS  HZ EP        030  4.86                             144   -0.1910  102 177 
 RUS  HN ES        030 23.74                             144   -0.2210  102 177 
 RUS  HZ I         030 24.74         6.6 0.32            145            102 177 
 PTB  HZ EP        030  7.89                             132   -0.44 9  150 258 
 PTB  HN ES   1    030 29.12                             132   -0.67 7  150 258 
 PTB  HZ I         030 31.86        13.9 0.18            131            150 258 
 SPBC HZ EP        030  9.95                             129    0.10 9  166 219 
 SPBC HN ES        030 32.63                             129    0.13 9  166 219 
 SPBC HZ I         030 37.55        18.6 0.40            129            166 219 
 ZAR  HE ES        030 38.96                             123   -0.35 8  206 292 
 ZAR  HE I         030 41.06        36.1 0.16            123            206 292 
 NOR  HZ EP        030 17.05                             119   -0.00 8  237 234 
 NOR  HE ES        030 45.36                             119    0.04 8  237 234 
 NOR  HZ I         030 50.40         9.8 0.26            119            237 234 
 SML  HZ EP        030 17.70                             118    0.06 8  243 335 
 SML  HN ES   1    030 45.88                             118   -0.48 6  243 335 
 SML  HZ I         030 52.50        15.0 0.10            119            243 335 
 PRA  HZ EP        030 35.51                             107    0.77 6  394 210 
 PRA  HN ES        031 17.12                             107    0.32 6  394 210 
 PRA  HZ I         031 25.47         5.0 0.30            107            394 210 
                                                                                
