 2010  318 0539  3.4 L   7.518 -73.024148.0  RSN  6 0.2 2.0LRSN                1
 GAP=122        0.36       2.0     4.9  4.7 -0.1045E+01 -0.1397E+02 -0.1678E-01E
 Epicentro: SURATA - SANTANDER                                                 3
 ACTION:UP  10-08-24 09:54 OP:vdl  STATUS:               ID:20100318053903 L   I
 2010-03-18-0535-10S.COL___098                                                 6
 STAT SP IPHASW D HRMM SECON CODA AMPLIT PERI AZIMU VELO SNR AR TRES W  DIS CAZ7
 OCA  SZ EP        539 25.91                             148     0.010   86 338 
 OCA  SZ I         539 26.20        34.8 0.09                            86 338 
 OCA  SZ ES   1    539 43.56                             148     0.1 7   86 338 
 BRR  HZ IP        539 25.72                             148    -0.110   89 239 
 BRR  HN ES   1    539 43.34                             148     0.0 7   89 239 
 BRR  HZ I         539 46.27        12.2 0.13                            89 239 
 BAR2 SZ ES   1    539 45.96                             143     0.1 7  104 190 
 RUS  HZ EP   1    539 34.39                             127     0.2 7  180 182 
 RUS  HE ES   2    539 58.03                             127    -0.2 4  180 182 
 SDV  BZ EP   1    539 46.94                             113    -0.1 5  304  60 
 SDV  BZ I         540 15.96         4.1 0.09                           304  60 
 PRA  HZ EP   3    540  6.91                             104     0.9 1  469 206 
 PRA  HZ I         541  0.87         1.5 0.08                           469 206 
                                                                                
