 2012  718 0642 53.1 L   6.742 -73.136143.2  RSN  6 0.4 1.5LRSN                1
 GAP=140        0.80       6.0     6.6  9.1  0.5074E+01  0.2266E+02  0.4579E+01E
 Epicentro: JORDAN - SANTANDER                                                 3
 ACTION:UPD 12-08-14 11:45 OP:ep   STATUS:               ID:20120718064253 L   I
 2012-07-18-0640-00M.COL___197                                                 6
 STAT SP IPHASW D HRMM SECON CODA AMPLIT PERI AZIMU VELO AIN AR TRES W  DIS CAZ7
 BAR2 SZ EP   1    643 12.43                             172     0.1 7   17 197 
 BAR2 SZ I         643 12.60         7.2 0.24            170             17 197 
 BAR2 SZ ES   1    643 26.91                             172    -0.4 7   17 197 
 BRR  HZ EP   1    643 14.21                             151     0.0 7   75 302 
 BRR  HZ I         643 14.60        12.1 0.11            148             75 302 
 BRR  HN ES   1    643 31.36                             151     0.7 7   75 302 
 PAM  SN ES   1    643 32.32                             149    -0.3 7   82  36 
 RUS  HZ EP   2    643 16.14                             145     0.0 5   94 176 
 RUS  HN ES   1    643 34.37                             145     0.3 7   94 176 
 RUS  HZ I         643 35.81         2.8 0.34            145             94 176 
 PTB  HZ EP   1    643 19.91                             131     0.0 7  148 261 
 PTB  HN ES   2    643 39.97                             131    -0.8 5  148 261 
 PTB  HZ I         643 42.48         2.9 0.18            130            148 261 
 ZAR  HN ES   2    643 51.02                             121    -0.2 4  208 294 
 ZAR  HZ I         643 56.42         6.0 0.42            120            208 294 
