 2016  518 0324 44.4 L   6.804 -73.103151.9  RSN  6 0.2 1.4LRSN                1
 GAP=242        0.64       3.8     4.1  4.7  0.6622E+01  0.2874E+01  0.9565E+00E
 Epicentro: LOS SANTOS - SANTANDER                                             3
 ACTION:UPD 16-08-18 17:46 OP:cam  STATUS:               ID:20160518032444 L   I
 OLDACT:UP  16-05-18 14:19 OP:mh   STATUS:               ID:20160518031743d    3
 OLDACT:DUP 16-05-18 14:17 OP:mh   STATUS:               ID:20160518031743d    3
 2016-05-18-0317-42M.COL___304                                                 6
 STAT SP IPHASW D HRMM SECON CODA AMPLIT PERI AZIMU VELO AIN AR TRES W  DIS CAZ7
 BAR2 EZ EP   1    325  4.96                             170    0.13 7 25.0 200 
 BAR2 EZ ES        325 20.77                             170    0.0210 25.0 200 
 BAR2 EZ I         325 22.55         4.3 0.27            166           25.0 200 
 BRR  HZ EP        325  6.72                             152    0.2610 75.1 297 
 BRR  HN ES        325 23.73                             152    0.0810 75.1 297 
 BRR  HZ I         325 31.10         4.8 0.22            151           75.1 297 
 RUS  HZ EP        325  8.89                             145    0.0810  101 179 
 RUS  HN ES        325 27.47                             145   -0.3510  101 179 
 RUS  HZ I         325 31.52         1.5 0.24            146            101 179 
 PTB  HZ EP        325 12.12                             132   -0.20 9  152 259 
 PTB  HN ES        325 33.86                             132   -0.22 9  152 259 
 PTB  HZ I         325 39.86         3.1 0.36            133            152 259 
 SPBC HZ EP        325 13.52                             130   -0.20 9  167 220 
 SPBC HN ES        325 37.11                             130    0.55 9  167 220 
 SPBC HZ I         325 43.31         5.3 0.44            131            167 220 
 ZAR  HN ES        325 43.56                             123   -0.10 8  208 292 
                                                                                
