 2016  618 0748 34.7 L   6.782 -73.189155.0  RSN  5 0.5 1.4LRSN                1
 GAP=240        1.09       8.0     7.0 14.7  0.1556E+02  0.2595E+02 -0.1850E+02E
 Epicentro: ZAPATOCA - SANTANDER                                               3
 ACTION:UPD 16-07-21 22:20 OP:rebc STATUS:               ID:20160618074834 L   I
 OLDACT:DUP 16-06-18 18:51 OP:dani STATUS:               ID:20160618073743d    3
 OLDACT:UP  16-06-18 18:50 OP:dani STATUS:               ID:20160618073742     3
 OLDACT:REG 16-06-18 13:11 OP:dani STATUS:               ID:20160618073742     3
 2016-06-18-0737-42M.COL___340                                                 6
 STAT SP IPHASW D HRMM SECON CODA AMPLIT PERI AZIMU VELO AIN AR TRES W  DIS CAZ7
 RUS  HZ EP        748 59.10                             146   -0.1910 99.1 173 
 RUS  HE ES        749 18.18                             146   -0.2710 99.1 173 
 RUS  HZ I         749 18.68         2.6 0.30                          99.1 173 
 SPBC HZ EP        749  4.01                             132    0.47 9  159 218 
 SPBC HN ES        749 26.38                             132    0.37 9  159 218 
 SPBC HZ I         749 31.99         4.1 0.24                           159 218 
 ZAR  HN ES        749 32.92                             125   -0.01 9  200 293 
 ZAR  HZ I         749 37.24         1.6 0.26                           200 293 
 NOR  HE ES        749 38.86                             121    0.49 8  230 234 
 GUY2CHN ES        749 51.04                             114   -1.10 7  296 235 
                                                                                
