 2010  318 0409  1.3 L   6.832 -72.993143.0  RSN  5 0.2 1.9LRSN                1
 GAP=254        0.32       5.4    11.5  6.4  0.3848E+01  0.3770E+02 -0.4640E-01E
 Epicentro: CEPITA - SANTANDER                                                 3
 ACTION:UP  10-08-24 09:54 OP:vdl  STATUS:               ID:20100318040901 L   I
 2010-03-18-0400-00S.COL___089                                                 6
 STAT SP IPHASW D HRMM SECON CODA AMPLIT PERI AZIMU VELO SNR AR TRES W  DIS CAZ7
 BAR2 SZ EP   2    4 9 21.13                             166     0.3 5   34 218 
 BAR2 SZ ES   2    4 9 36.00                             166    -0.1 5   34 218 
 BRR  HZ EP   1    4 9 22.96                             148    -0.1 7   85 291 
 BRR  HZ I         4 9 23.20        21.5 0.27                            85 291 
 RUS  HZ EP   3    4 9 25.00                             142    -0.1 2  104 185 
 RUS  HE ES   3    4 9 43.77                             142     0.2 2  104 185 
 RREF BZ EP   3    4 9 49.37                             109     0.3 2  337 231 
 RREF BN ES   3    410 26.58                             109     0.3 2  337 231 
 RREF BZ I         410 32.70         2.4 0.30                           337 231 
 PRA  HZ EP   2    4 9 55.69                             105    -0.4 3  404 211 
 PRA  HE ES   3    410 39.01                             105     0.2 1  404 211 
 PRA  HZ I         410 42.83         1.9 0.66                           404 211 
                                                                                
