 2017  418 0353 30.6 L   6.796 -73.141146.8  RSN  7 0.3 1.3LRSN                1
 GAP=137        0.88       3.8     3.8  6.0 -0.7456E+00  0.4538E+01  0.2007E+01E
 Epicentro: LOS SANTOS - SANTANDER                                             3
 ACTION:UPD 17-05-30 21:13 OP:jn   STATUS:               ID:20170418035330 L   I
 OLDACT:REG 17-04-18 12:45 OP:cog  STATUS:               ID:20170418034737     3
 2017-04-18-0348-00M.COL___368                                                 6
 STAT SP IPHASW D HRMM SECON CODA AMPLIT PERI AZIMU VELO AIN AR TRES W  DIS CAZ7
 BAR2 EZ EP        353 50.35                             171   -0.0210 23.0 191 
 BAR2 EZ ES        354  5.49                             171   -0.2810 23.0 191 
 BAR2 EZ I         354  6.68         3.0 0.50            173           23.0 191 
 BRR  HZ EP        353 52.09                             152    0.1710 71.9 299 
 BRR  HN ES        354  9.17                             152    0.6410 71.9 299 
 BRR  HZ I         354 17.66         7.4 0.50            152           71.9 299 
 PAM  EZ EP        353 53.24                             151    0.2910 77.4  39 
 PAM  EN ES        354 10.09                             151   -0.2810 77.4  39 
 PAM  EZ I         354 12.11         5.0 0.48            154           77.4  39 
 RUS  HZ EP        353 54.47                             144    0.0310  100 176 
 RUS  HN ES        354 12.91                             144   -0.1110  100 176 
 RUS  HZ I         354 14.65         2.1 0.32            149            100 176 
 PTB  HZ EP        353 57.05                             132   -0.67 9  148 259 
 PTB  HN ES        354 18.54                             132   -0.30 9  148 259 
 PTB  HZ I         354 20.50         2.5 0.33            135            148 259 
 SPBC HZ EP        353 59.48                             129    0.28 9  163 219 
 SPBC HN ES        354 21.86                             129    0.37 9  163 219 
 ZAR  HZ EP   4    354  5.71                             122    2.50 0  205 292 
 ZAR  HN ES        354 28.44                             122   -0.18 9  205 292 
                                                                                
