 2015  518 0435 31.6 L   6.822 -73.101149.3  RSN 15 0.4 2.0LRSN                1
 GAP=122        0.82       2.7     3.9  5.0 -0.4876E+00  0.2654E+01  0.1527E+01E
 Epicentro: LOS SANTOS - SANTANDER                                             3
 ACTION:UPD 15-09-10 22:04 OP:cam  STATUS:               ID:20150518043531 L   I
 OLDACT:DUP 15-05-18 16:24 OP:spq  STATUS:               ID:20150518042750d    3
 2015-05-18-0427-49M.COL___283                                                 6
 STAT SP IPHASW D HRMM SECON CODA AMPLIT PERI AZIMU VELO AIN AR TRES W  DIS CAZ7
 BAR2 EZ EP     C  435 51.74                             169    0.0510 27.0 200 
 BAR2 EZ ES   1    436  6.85                             169   -0.54 7 27.0 200 
 BAR2 EZ I         436  8.12        23.9 0.16            166           27.0 200 
 PAM  SZ EP   1    435 54.62                             153    0.76 7 72.3  38 
 PAM  SN ES   1    436 11.68                             153    0.42 7 72.3  38 
 PAM  SZ I         436 14.14         8.9 0.48            158           72.3  38 
 BRR  HZ EP        435 53.62                             152    0.3510 74.5 295 
 BRR  HN ES        436 10.67                             152    0.4610 74.5 295 
 BRR  HZ I         436 13.10        10.9 0.14            150           74.5 295 
 RUS  HZ EP   1    435 55.74                             144   -0.07 7  103 179 
 RUS  HN ES   1    436 14.54                             144   -0.20 7  103 179 
 RUS  HZ I         436 15.56         7.5 0.36            145            103 179 
 OCA  HZ EP        435 59.86                             131   -0.11 9  158 351 
 OCA  HE ES        436 21.56                             131   -0.58 9  158 351 
 OCA  HZ I         436 24.93        26.8 0.22            133            158 351 
 SPBC HZ EP        436  0.70                             129   -0.10 9  168 220 
 SPBC HN ES   1    436 23.41                             129   -0.21 7  168 220 
 SPBC HZ I         436 28.53        15.5 0.18            129            168 220 
 ZAR  HZ EP   1    436  4.41                             123   -0.20 6  208 291 
 ZAR  HE ES        436 30.12                             123   -0.28 8  208 291 
 ZAR  HZ I         436 35.64         9.3 0.27            123            208 291 
 NOR  HZ EP        436  8.42                             119    0.34 8  240 235 
 NOR  HN ES        436 36.73                             119    0.17 8  240 235 
 NOR  HZ I         436 40.98         9.8 0.18            119            240 235 
 SML  HZ EP   1    436  8.38                             118    0.01 6  244 334 
 SML  HE ES   1    436 36.64                             118   -0.44 6  244 334 
 SML  HZ I         436 38.93        11.9 0.10            120            244 334 
 ROSC BZ EP   4    436 11.45                             117    1.07 0  257 212 
 ROSC BE ES   4    436 43.93                             117    3.27 0  257 212 
 ROSC BZ I         436 50.05         7.7 0.47            118            257 212 
 HEL  HZ EP   1    436 12.94                             115    0.39 6  277 256 
 HEL  HE ES   4    436 46.07                             115    1.55 0  277 256 
 HEL  HZ I         436 50.47         5.9 0.34            115            277 256 
 GUY2CHZ EP   4    436 17.17                             113    1.23 0  307 235 
 GUY2CHE ES   4    436 53.63                             113    3.06 0  307 235 
 GUY2CHZ I         436 58.11         6.8 0.34                           307 235 
 PTGC HZ EP        436 14.97                             112   -0.66 7  309 160 
 PTGC HN ES   4    436 48.57                             112   -1.44 0  309 160 
 PTGC HZ I         436 48.85        10.9 0.30            114            309 160 
 MON  HN ES   4    436 57.65                             109   -1.86 0  356 308 
 MON  HZ I         436 59.88         1.6 0.28            110            356 308 
 SJC  HZ EP   4    436 26.60                             106   -0.71 0  410 326 
 SJC  HN ES   4    437  7.40                             106   -3.40 0  410 326 
 SJC  HZ I         437 10.55         1.8 0.46            107            410 326 
                                                                                
