 2013  618 0712 46.2 L   6.715 -73.206144.6  RSN  4 0.2 1.3LRSN                1
 GAP=221        0.39       4.2     4.2  4.7  0.9673E+01  0.2169E+01  0.1109E+01E
 Epicentro: VILLANUEVA - SANTANDER                                             3
 ACTION:UPD 14-01-08 09:55 OP:ep   STATUS:               ID:20130618071246 L   I
 OLDACT:REG 13-06-18 08:08 OP:carl STATUS:               ID:20130618070959     3
 2013-06-18-0709-59M.COL___261                                                 6
 STAT SP IPHASW D HRMM SECON CODA AMPLIT PERI AZIMU VELO AIN AR TRES W  DIS CAZ7
 BAR2 SZ ES   2    713 20.70                             174    0.08 5 13.8 169 
 BRR  HZ EP   1    713  7.17                             152   -0.03 7 70.8 308 
 BRR  HN ES   1    713 23.56                             152   -0.02 7 70.8 308 
 BRR  HZ I         713 27.96         5.1 0.12            152           70.8 308 
 RUS  HZ EP   1    713  9.47                             146    0.24 7 91.9 171 
 RUS  HN ES   1    713 27.03                             146   -0.16 7 91.9 171 
 RUS  HZ I         713 28.70         2.1 0.24            151           91.9 171 
 PTB  HZ EP   1    713 12.12                             133   -0.22 7  140 262 
 PTB  HE ES   1    713 32.87                             133    0.14 7  140 262 
 PTB  HZ I         713 36.15         2.6 0.18            135            140 262 
                                                                                
