 2017  318 0924 19.4 L   6.790 -73.177137.2  RSN 20 0.3 2.8LRSN                1
 GAP=133        0.77       2.1     2.7  4.0 -0.2419E+00  0.4493E+01  0.1900E+00E
 Epicentro: LOS SANTOS - SANTANDER                                             3
 ACTION:UPD 17-05-25 18:42 OP:jn   STATUS:               ID:20170318092419 L   I
 OLDACT:REG 17-03-18 14:35 OP:cog  STATUS:               ID:20170318090658     3
 2017-03-18-0918-00M.COL___349                                                 6
 STAT SP IPHASW D HRMM SECON CODA AMPLIT PERI AZIMU VELO AIN AR TRES W  DIS CAZ7
 BAR2 EZ IP     C  924 37.96                             171   -0.0010 21.8 182 
 BAR2 EZ ES        924 52.66                             171    0.2110 21.8 182 
 BAR2 EZ I         924 53.77       165.0 0.44            167           21.8 182 
 BRR  HZ IP     C  924 39.90                             152    0.4210 68.7 301 
 BRR  HN ES   4    924 56.45                             152    1.30 0 68.7 301 
 BRR  HZ I         924 58.35       150.0 0.16            149           68.7 301 
 PAM  EZ IP     C  924 40.84                             148   -0.0610 80.5  41 
 PAM  EN ES        924 57.59                             148   -0.0910 80.5  41 
 PAM  EZ I         924 58.88        62.0 0.28            154           80.5  41 
 RUS  HZ EP     C  924 41.94                             142   -0.3110 99.7 174 
 RUS  HN ES        925  0.01                             142   -0.0610 99.7 174 
 RUS  HZ I         925  2.10        82.0 0.46            142           99.7 174 
 PTB  HZ EP        924 45.07                             131   -0.27 9  144 259 
 PTB  HN ES        925  5.82                             131    0.25 9  144 259 
 PTB  HZ I         925  7.92       111.3 0.26            129            144 259 
 SPBC HZ EP        924 46.95                             128   -0.00 9  160 218 
 SPBC HN ES        925  7.86                             128   -0.58 9  160 218 
 SPBC HZ I         925 12.19       116.5 0.20            126            160 218 
 ZAR  HZ EP        924 51.02                             121    0.01 9  201 293 
 ZAR  HN ES        925 16.26                             121    0.60 9  201 293 
 ZAR  HZ I         925 24.99        90.5 0.28            121            201 293 
 CHI  HZ EP        924 56.85                             115    0.44 8  247 194 
 CHI  HN ES        925 24.83                             115   -0.45 8  247 194 
 CHI  HZ I         925 35.07        17.2 0.48            116            247 194 
 ROSC BZ EP   4    924 58.94                             115    2.18 0  250 210 
 ROSC BN ES   4    925 29.16                             115    3.27 0  250 210 
 ROSC BZ I         925 31.85        36.9 0.35            115            250 210 
 URE  HZ EP   4    924 58.39                             112   -1.36 0  281 292 
 URE  HN ES        925 30.38                             112   -0.84 7  281 292 
 URE  HZ I         925 42.94        60.3 0.32            112            281 292 
 GUY2CHZ EP   4    925  3.28                             111    1.06 0  298 235 
 GUY2CHN ES        925 36.06                             111    0.44 7  298 235 
 GUY2CHZ  IAML     925 45.37        35.1 0.52                           298 235 
 VIL  EZ EP        925  2.55                             110    0.32 7  302 191 
 VIL  EE ES   4    925 36.68                             110    1.04 0  302 191 
 VIL  EZ I         925 46.84        22.8 0.54            111            302 191 
 PTGC HZ EP   4    925  1.31                             110   -1.60 0  309 158 
 PTGC HN ES   4    925 34.54                             110   -2.30 0  309 158 
 PTGC HZ I         925 36.58        28.7 0.22            111            309 158 
 CBOC HN ES        925 41.08                             108   -0.46 7  330 252 
 CBOC HZ I         925 44.81        11.4 0.18            109            330 252 
 DBB  EZ EP        925  6.17                             108    0.02 7  336 274 
 DBB  HN ES   4    925 41.43                             108   -1.18 0  336 274 
 DBB  EZ I         925 48.08        14.8 0.18            108            336 274 
 ARGC HZ EP        925  8.48                             107   -0.25 6  359 341 
 ARGC HE ES        925 47.39                             107    0.18 6  359 341 
 PRA  HZ EP        925 12.34                             105    0.03 6  389 209 
 PRA  HE ES        925 53.90                             105    0.31 6  389 209 
 PRA  HZ I         926  0.30        22.3 0.36            106            389 209 
 ORTC HZ EP        925 13.09                             105    0.41 6  392 216 
 ORTC HN ES        925 54.57                             105    0.32 6  392 216 
 ORTC HZ I         926  2.67        16.2 0.32            105            392 216 
 APAC HZ EP     C  925 12.69                             105   -0.27 6  395 288 
 APAC HN ES   4    925 53.63                             105   -1.11 0  395 288 
 APAC HZ I         925 58.97        11.6 0.52            105            395 288 
 SJC  HZ EP   4    925 12.53                             104   -2.05 0  408 327 
 SJC  HN ES   4    925 53.98                             104   -3.64 0  408 327 
 SJC  HZ I         925 58.07        16.6 0.30            105            408 327 
                                                                                
