 2013 1118 0534 19.3 L   6.803 -73.154149.5  RSN 10 0.4 1.7LRSN                1
 GAP=135        1.02       3.2     4.7  6.8 -0.1924E+01  0.1586E+01  0.1115E+01E
 Epicentro: LOS SANTOS - SANTANDER                                             3
 ACTION:UPD 14-01-09 16:29 OP:ep   STATUS:               ID:20131118053419 L   I
 OLDACT:UP  13-11-18 10:01 OP:mh   STATUS:               ID:20131118053000     3
 OLDACT:UP  13-11-18 09:58 OP:mh   STATUS:               ID:20131118053000     3
 OLDACT:REG 13-11-18 07:43 OP:mh   STATUS:               ID:20131118053000     3
 2013-11-18-0530-00M.COL___279                                                 6
 STAT SP IPHASW D HRMM SECON CODA AMPLIT PERI AZIMU VELO AIN AR TRES W  DIS CAZ7
 BAR2 SZ EP   1    534 39.46                             171    0.03 7 23.5 188 
 BAR2 SZ I         534 55.79        12.1 0.36            170           23.5 188 
 BRR  HZ EP        534 41.31                             153    0.4610 70.2 299 
 BRR  HN ES        534 58.63                             153    1.0110 70.2 299 
 BRR  HZ I         535  1.79         7.9 0.17            155           70.2 299 
 PAM  SZ EP        534 42.33                             151    0.3510 77.7  40 
 PAM  SN ES        534 59.46                             151   -0.1810 77.7  40 
 PAM  SZ I         535  1.67         8.0 0.23            153           77.7  40 
 RUS  HZ EP        534 43.36                             145   -0.1410  101 176 
 RUS  HN ES        535  1.71                             145   -0.6210  101 176 
 RUS  HZ I         535  3.81         4.5 0.23            145            101 176 
 PTB  HZ EP   1    534 46.35                             133   -0.20 7  147 259 
 PTB  HN ES        535  7.46                             133   -0.30 9  147 259 
 PTB  HZ I         535  9.74         5.8 0.17            134            147 259 
 OCA  HZ EP        534 47.88                             131   -0.03 9  160 353 
 OCA  HE ES        535  9.75                             131   -0.44 9  160 353 
 OCA  HZ I         535 14.20         6.8 0.27            132            160 353 
 SPBC HZ EP        534 48.46                             130    0.36 9  163 219 
 SPBC HN ES        535 10.51                             130   -0.02 9  163 219 
 SPBC HZ I         535 19.01         8.2 0.35            131            163 219 
 ZAR  HN ES   1    535 16.90                             123   -0.46 6  203 292 
 SML  HZ EP   1    534 55.84                             118   -0.27 6  243 335 
 SML  HN ES   1    535 24.24                             118   -0.55 6  243 335 
 SML  HZ I         535 28.32        10.0 0.09            119            243 335 
 CHI  HZ EP        534 57.37                             118    0.11 8  249 195 
 GUY2CHZ EP   4    535  4.39                             113    1.32 0  301 235 
 GUY2CHE ES   4    535 39.57                             113    2.40 0  301 235 
 SJC  HZ EP   4    535 11.74                             106   -3.20 0  408 327 
                                                                                
