 2013 1118 0807 59.8 L   6.820 -73.176134.1  RSN 10 0.5 1.7LRSN                1
 GAP=132        1.03       3.3     4.6  6.9 -0.4374E+01  0.6700E+01  0.3040E+01E
 Epicentro: LOS SANTOS - SANTANDER                                             3
 ACTION:UPD 14-01-09 16:29 OP:ep   STATUS:               ID:20131118080759 L   I
 OLDACT:UP  13-11-18 12:01 OP:mh   STATUS:               ID:20131118080002d    3
 OLDACT:DUP 13-11-18 11:53 OP:mh   STATUS:               ID:20131118080002d    3
 2013-11-18-0800-00M.COL___279                                                 6
 STAT SP IPHASW D HRMM SECON CODA AMPLIT PERI AZIMU VELO AIN AR TRES W  DIS CAZ7
 BAR2 SZ EP        8 8 18.25                             169    0.2310 25.2 182 
 BAR2 SZ ES   1    8 8 31.74                             169   -0.53 7 25.2 182 
 BAR2 SZ I         8 8 34.44        16.4 0.09            167           25.2 182 
 BRR  HZ EP        8 8 20.04                             152    0.6310 67.1 298 
 BRR  HN ES   1    8 8 35.45                             152    0.71 7 67.1 298 
 BRR  HZ I         8 8 37.31        12.3 0.10            153           67.1 298 
 PAM  SZ EP   1    8 8 20.97                             148    0.20 7 77.9  43 
 PAM  SN ES   1    8 8 37.75                             148    0.59 7 77.9  43 
 PAM  SZ I         8 8 40.00        18.9 0.39            154           77.9  43 
 RUS  HZ EP        8 8 22.28                             140   -0.2910  103 174 
 RUS  HN ES        8 8 40.10                             140   -0.2610  103 174 
 RUS  HZ I         8 8 42.72         7.3 0.26            142            103 174 
 PTB  HZ EP        8 8 25.05                             130   -0.47 9  145 258 
 PTB  HN ES        8 8 45.32                             130   -0.30 9  145 258 
 PTB  HZ I         8 8 48.81         5.2 0.10            132            145 258 
 OCA  HZ EP   1    8 8 26.43                             127   -0.50 7  158 354 
 OCA  HN ES        8 8 47.64                             127   -0.48 9  158 354 
 SPBC HZ EP        8 8 27.36                             126    0.01 9  163 218 
 SPBC HN ES        8 8 48.93                             126    0.06 9  163 218 
 SPBC HZ I         8 8 55.60         9.6 0.35            128            163 218 
 NOR  HZ EP   1    8 8 34.27                             116   -0.41 6  233 234 
 NOR  HN ES        8 9  1.57                             116   -0.34 8  233 234 
 NOR  HZ I         8 9  8.63         4.9 0.19            118            233 234 
 CHI  HZ EP        8 8 37.56                             114    0.58 8  250 194 
 CHI  HN ES   1    8 9  5.82                             114   -0.19 6  250 194 
 CHI  HZ I         8 9  9.14         2.0 0.24            117            250 194 
 GUY2CHZ EP   4    8 8 44.43                             110    1.75 0  300 234 
 GUY2CHN ES        8 9 17.12                             110    0.96 7  300 234 
                                                                                
