 2017  118 0047 19.0 L   6.795 -73.156146.1  RSN 16 0.6 2.2LRSN                1
 GAP= 73        0.97       3.3     2.9  5.1 -0.1684E+00  0.3133E+01  0.4240E+01E
 Epicentro: LOS SANTOS - SANTANDER                                             3
 ACTION:UPD 17-05-22 16:00 OP:jn   STATUS:               ID:20170118004719 L   I
 OLDACT:UP  17-01-18 13:20 OP:dani STATUS:               ID:20170118003742d    3
 OLDACT:UP  17-01-18 13:20 OP:dani STATUS:               ID:20170118003742d    3
 OLDACT:UP  17-01-18 13:19 OP:dani STATUS:               ID:20170118003742d    3
 OLDACT:UP  17-01-18 13:19 OP:dani STATUS:               ID:20170118003742d    3
 OLDACT:DUP 17-01-18 13:12 OP:dani STATUS:               ID:20170118003742d    3
 OLDACT:DUP 17-01-18 13:09 OP:dani STATUS:               ID:20170118003740d    3
 OLDACT:UP  17-01-18 13:08 OP:dani STATUS:               ID:20170118003739     3
 OLDACT:UP  17-01-18 13:08 OP:dani STATUS:               ID:20170118003739     3
 OLDACT:REG 17-01-18 12:30 OP:dani STATUS:               ID:20170118003739     3
 2017-01-18-0038-00M.COL___331                                                 6
 STAT SP IPHASW D HRMM SECON CODA AMPLIT PERI AZIMU VELO AIN AR TRES W  DIS CAZ7
 BAR2 EZ EP     D  047 38.59                             171   -0.1110 22.6 187 
 BAR2 EZ ES        047 53.73                             171   -0.3010 22.6 187 
 BAR2 EZ I         047 56.29        50.8 0.30            169           22.6 187 
 BRR  HZ EP     C  047 40.28                             153    0.0910 70.5 299 
 BRR  HN ES        047 57.44                             153    0.7610 70.5 299 
 BRR  HZ I         048  1.44        25.1 0.18            151           70.5 299 
 PAM  EZ EP     C  047 41.30                             150   -0.0710 78.6  40 
 PAM  EE ES        047 58.86                             150    0.0810 78.6  40 
 PAM  EZ I         048  0.64        34.0 0.50            153           78.6  40 
 RUS  HZ EP        047 42.46                             144   -0.3310  100 175 
 RUS  HN ES        048  1.08                             144   -0.2310  100 175 
 RUS  HZ I         048  2.36        24.9 0.38            144            100 175 
 PTB  HZ EP        047 45.08                             132   -0.85 9  147 259 
 PTB  HN ES        048  6.25                             132   -0.64 9  147 259 
 PTB  HZ I         048  8.80        13.8 0.14            131            147 259 
 TAM  HZ EP        047 46.91                             130    0.07 9  156 105 
 TAM  HN ES        048  8.72                             130    0.21 9  156 105 
 TAM  HZ I         048  9.90         9.9 0.37            133            156 105 
 ZAR  HZ EP        047 51.50                             122    0.07 9  203 292 
 ZAR  HN ES        048 16.93                             122    0.25 9  203 292 
 ZAR  HZ I         048 21.81        20.5 0.58            122            203 292 
 NOR  HZ EP        047 54.62                             119   -0.04 8  233 234 
 NOR  HE ES        048 22.27                             119   -0.16 8  233 234 
 NOR  HZ I         048 28.09        10.4 0.18            118            233 234 
 CHI  HZ EP     C  047 56.77                             117    0.10 8  248 195 
 CHI  HN ES        048 26.08                             117    0.07 8  248 195 
 CHI  HZ I         048 32.18         8.5 0.32            117            248 195 
 ROSC BZ EP   3    047 59.00                             117    1.94 2  252 211 
 ROSC BN ES        048 27.44                             117    0.73 8  252 211 
 ROSC BZ I         048 33.15        23.8 0.40            117            252 211 
 URE  HZ EP   4    048  3.48                             114    3.44 0  283 292 
 URE  HN ES   3    048 30.20                             114   -1.81 2  283 292 
 URE  HZ I         048 39.75        10.6 0.19            113            283 292 
 GUY2CHZ EP        048  3.49                             112    0.97 7  300 235 
 GUY2CHE ES   4    048 40.74                             112    4.30 0  300 235 
 GUY2CHZ I         048 48.69         8.8 0.47                           300 235 
 PTGC HZ EP   3    048  1.53                             112   -1.37 2  309 158 
 PTGC HE ES   4    048 35.08                             112   -2.02 0  309 158 
 PTGC HZ I         048 39.91         9.5 0.32            112            309 158 
 ELA  HE ES   3    048 44.26                             110    2.05 2  328 229 
 ORTC HZ EP        048 12.82                             106   -0.02 6  394 216 
 ORTC HE ES   3    048 56.17                             106    1.37 1  394 216 
 ORTC HZ I         049  1.78         4.8 0.31            106            394 216 
 SJC  HZ EP   3    048 12.66                             106   -1.94 1  409 327 
 SJC  HN ES   4    048 53.90                             106   -4.04 0  409 327 
 SJC  HZ I         049  4.56         2.8 0.43            106            409 327 
                                                                                
