 2012  718 0802  5.2 L   6.871 -73.223156.5  RSN  4 0.3 1.5LRSN                1
 GAP=259        0.66       9.5    10.9  8.9 -0.5683E+02 -0.1433E+02  0.1704E+02E
 Epicentro: ZAPATOCA - SANTANDER                                               3
 ACTION:UPD 12-08-14 11:45 OP:ep   STATUS:               ID:20120718080205 L   I
 2012-07-18-0800-00M.COL___197                                                 6
 STAT SP IPHASW D HRMM SECON CODA AMPLIT PERI AZIMU VELO AIN AR TRES W  DIS CAZ7
 BRR  HZ EP   1    8 2 27.24                             158     0.2 7   60 296 
 BRR  HZ I         8 2 28.68         6.4 0.14            145             60 296 
 BRR  HN ES   1    8 2 44.26                             158     0.3 7   60 296 
 PTB  HZ EP   1    8 2 32.49                             136    -0.1 7  141 255 
 PTB  HN ES   1    8 2 53.43                             136    -0.4 7  141 255 
 PTB  HZ I         8 2 56.54         2.3 0.22            128            141 255 
 OCA  HN ES   2    8 2 55.12                             134    -0.7 5  152 356 
 ZAR  HZ EP   1    8 2 37.48                             126     0.1 7  193 291 
 ZAR  HN ES   2    8 3  2.70                             126     0.3 4  193 291 
 ZAR  HZ I         8 3  8.76         4.1 0.32            119            193 291 
