 2014  918 0614  5.2 L   6.836 -73.142147.1  RSN 24 0.5 2.8LRSN                1
 GAP= 70        1.13       2.6     2.9  4.9 -0.9673E+00  0.3959E+01  0.1608E+01E
 Epicentro: LOS SANTOS - SANTANDER                                             3
 ACTION:UPD 14-10-03 23:06 OP:nd   STATUS:               ID:20140918061405 L   I
 OLDACT:REG 14-09-18 13:38 OP:carl STATUS:               ID:20140918060806     3
 2014-09-18-0608-06M.COL___287                                                 6
 STAT SP IPHASW D HRMM SECON CODA AMPLIT PERI AZIMU VELO AIN AR TRES W  DIS CAZ7
 BAR2 SZ IP     D  614 25.13                             169    0.0710 27.3 189 
 BAR2 SZ ES        614 40.48                             169   -0.0910 27.3 189 
 BAR2 SZ I         614 41.43       307.2 0.18            167           27.3 189 
 BRR  HZ IP     C  614 26.92                             153    0.5210 69.8 296 
 BRR  HN ES        614 43.74                             153    0.7910 69.8 296 
 BRR  HZ I         614 46.39        95.4 0.14            152           69.8 296 
 PAM  SZ IP     C  614 28.07                             152    0.7210 74.1  41 
 PAM  SN ES        614 45.10                             152    0.4610 74.1  41 
 PAM  SZ I         614 47.40       108.6 0.44            157           74.1  41 
 RUS  HZ IP     C  614 29.05                             143   -0.3010  105 176 
 RUS  HN ES        614 47.94                             143   -0.2610  105 176 
 PTB  HZ IP     C  614 31.52                             132   -0.85 9  149 257 
 PTB  HN ES        614 52.69                             132   -0.89 9  149 257 
 PTB  HZ I         615  0.03        93.3 0.48            132            149 257 
 OCA  HZ EP        614 32.89                             131   -0.35 9  156 353 
 OCA  HN ES        614 54.72                             131   -0.40 9  156 353 
 OCA  HZ I         614 58.30        75.2 0.26            133            156 353 
 TAM  HZ EP        614 32.60                             131   -0.43 9  156 106 
 TAM  HN ES        614 54.90                             131    0.15 9  156 106 
 SPBC HZ IP     C  614 33.95                             129   -0.15 9  167 218 
 SPBC HN ES        614 56.37                             129   -0.29 9  167 218 
 SPBC HZ I         615  3.54        72.2 0.20            129            167 218 
 ZAR  HZ EP        614 37.64                             123    0.03 9  203 291 
 ZAR  HN ES        615  2.63                             123   -0.27 9  203 291 
 ZAR  HZ I         615  9.16        64.6 0.40            124            203 291 
 NOR  HZ EP        614 41.69                             118    0.41 8  237 234 
 NOR  HN ES        615  9.14                             118   -0.29 8  237 234 
 NOR  HZ I         615 11.03        57.2 0.26            119            237 234 
 SML  HZ EP        614 41.33                             118   -0.19 8  240 335 
 SML  HN ES        615  9.38                             118   -0.48 8  240 335 
 SML  HZ I         615 12.72        42.1 0.12            120            240 335 
 CHI  HZ EP        614 43.46                             117    0.08 8  253 195 
 CHI  HN ES        615 12.59                             117   -0.59 8  253 195 
 CHI  HZ I         615 17.94        28.8 0.54            118            253 195 
 ROSC BZ EP   4 C  614 44.99                             117    1.22 0  256 211 
 ROSC BN ES   4    615 13.83                             117   -0.04 0  256 211 
 ROSC BZ I         615 21.74        73.3 0.35            118            256 211 
 HEL  HZ EP        614 45.45                             115   -0.17 8  273 255 
 HEL  HN ES        615 18.57                             115    1.41 8  273 255 
 HEL  HZ I         615 25.81        32.0 0.24            116            273 255 
 GUY2CHZ EP        614 49.53                             112    0.38 7  304 234 
 GUY2CHN ES        615 24.04                             112    0.59 7  304 234 
 GUY2CHZ I         615 34.07        40.0 0.62                           304 234 
 PTGC HZ EP   4    614 48.02                             112   -1.48 0  312 159 
 PTGC HN ES   4    615 21.37                             112   -2.70 0  312 159 
 PTGC HZ I         615 28.06        24.6 0.24            113            312 159 
 CBOC HZ EP        614 52.99                             110    0.65 7  335 251 
 CBOC HN ES        615 28.65                             110   -0.48 7  335 251 
 CBOC HZ I         615 38.48        14.4 0.40            111            335 251 
 DBB  SZ EP        614 52.79                             110    0.06 7  340 274 
 DBB  SZ ES        615 29.45                             110   -0.37 7  340 274 
 DBB  SZ I         615 34.54        71.7 0.32            111            340 274 
 TOL  SZ EP   4    614 54.91                             109    1.06 0  347 224 
 TOL  SN ES   4    615 28.81                             109   -3.00 0  347 224 
 MON  HZ EP   4    614 52.23                             109   -1.77 0  352 308 
 MON  HN ES   4    615 30.43                             109   -1.64 0  352 308 
 MON  HZ I         615 32.96         9.4 0.26            110            352 308 
 SDV  BZ EP   1    614 54.65                             109   -0.30 5  358  51 
 SDV  BN ES   4    615 31.99                             109   -1.77 0  358  51 
 ANIL HZ EP        614 56.04                             108    0.64 6  360 224 
 ANIL HN ES        615 35.01                             108    0.44 6  360 224 
 ANIL HZ I         615 42.69         9.6 0.28            110            360 224 
 PRA  HZ EP        614 59.00                             107   -0.18 6  396 209 
 PRA  HN ES        615 41.13                             107   -0.16 6  396 209 
 PRA  HZ I         615 45.69        33.4 0.30            108            396 209 
 ORTC HZ EP        615  0.56                             106    1.01 6  399 216 
 ORTC HN ES        615 41.88                             106   -0.08 6  399 216 
 ORTC HZ I         615 47.46        23.3 0.44            107            399 216 
 ORTC HZ E      C  615 57.73                                            399 216 
 SJC  HZ EP   4    614 59.05                             106   -1.38 0  406 327 
 SJC  HN ES   4    615 40.01                             106   -3.51 0  406 327 
 SJC  HZ I         615 44.50        10.4 0.60            107            406 327 
 PAL  HZ EP   4    614 59.54                             106   -1.13 0  408 239 
 PAL  HN ES   4    615 43.98                             106    0.03 0  408 239 
                                                                                
