 2015  918 0805 39.6 L   7.151 -73.172  4.0  RSN  6 0.5 1.0LRSN                1
 GAP=113        1.32       3.4     2.8  6.9 -0.1718E+01  0.3907E+01 -0.3317E+01E
 Epicentro: BUCARAMANGA - SANTANDER                                            3
 ACTION:UPD 15-10-28 16:27 OP:cam  STATUS:               ID:20150918080539 L   I
 OLDACT:DUP 15-09-18 20:00 OP:mh   STATUS:               ID:20150918075739d    3
 OLDACT:REG 15-09-18 12:41 OP:mh   STATUS:               ID:20150918075738     3
 2015-09-18-0757-38M.COL___352                                                 6
 STAT SP IPHASW D HRMM SECON CODA AMPLIT PERI AZIMU VELO AIN AR TRES W  DIS CAZ7
 PAM  EZ EP        8 5 49.11                              47   -0.0810 56.2  68 
 PAM  EN ES        8 5 56.09                              47   -0.6010 56.2  68 
 PAM  EZ I         8 5 57.67         6.7 0.16             47           56.2  68 
 BRR  HZ EP        8 5 48.77                              47   -0.4510 59.8 265 
 BRR  HN ES        8 5 56.36                              47   -0.4010 59.8 265 
 BRR  HZ I         8 5 57.18         6.4 0.36             47           59.8 265 
 BAR2 EZ EP        8 5 49.66                              47   -0.1110 61.8 181 
 BAR2 EZ ES        8 5 58.38                              47    0.6610 61.8 181 
 BAR2 EZ I         8 6  4.75         4.2 0.08             47           61.8 181 
 PTB  HZ EP        8 6  3.95                              47   -0.05 9  157 245 
 PTB  HN ES        8 6 22.78                              47   -0.27 9  157 245 
 PTB  HZ I         8 6 24.97         6.5 0.18             47            157 245 
 ZAR  HZ EP        8 6  9.34                              37    0.76 9  190 282 
 ZAR  HN ES        8 6 30.56                              37   -0.64 9  190 282 
 ZAR  HZ I         8 6 32.82         1.8 0.13             37            190 282 
 SML  HZ EP        8 6 11.59                              37    0.81 8  208 332 
 SML  HN ES        8 6 35.92                              37    0.79 8  208 332 
                                                                                
