 2012  618 0635  6.6 L   6.809 -73.212136.1  RSN  5 0.1 1.3LRSN                1
 GAP=128        0.38       2.7     4.3  5.1 -0.4280E+01  0.1240E+02 -0.2569E+01E
 Epicentro: ZAPATOCA - SANTANDER                                               3
 ACTION:UPD 12-08-06 17:50 OP:ep   STATUS:               ID:20120618063510 L   I
 2012-06-18-0630-00M.COL___199                                                 6
 STAT SP IPHASW D HRMM SECON CODA AMPLIT PERI AZIMU VELO AIN AR TRES W  DIS CAZ7
 BAR2 SZ EP        635 24.90                             169   -0.1810 24.2 172 
 BAR2 SZ ES   2    635 39.76                             169    0.26 5 24.2 172 
 BAR2 SZ I         635 41.00         6.5 0.26            140           24.2 172 
 PAM  SZ EP        635 28.07                             147    0.0210 81.5  44 
 PAM  SZ I         635 28.34         3.8 0.24            144           81.5  44 
 PAM  SN ES   1    635 44.79                             147    0.00 7 81.5  44 
 RUS  HZ EP        635 29.70                             141    0.1510  102 172 
 RUS  HE ES   1    635 47.28                             141   -0.16 7  102 172 
 RUS  HZ I         635 47.98         3.4 0.46            127            102 172 
 PTB  HZ EP        635 32.20                             131    0.05 9  141 258 
 PTB  HZ I         635 56.99         1.5 0.14            109            141 258 
 OCA  HN ES   3    635 55.21                             127   -0.17 2  159 356 
 OCA  HZ I         635 57.15         6.3 0.58            113            159 356 
                                                                                
