 2011 1118 0609 36.0 L   6.645 -73.211144.5  RSN  6 0.4 1.7LRSN                1
 GAP=155        0.55       4.6     6.5  9.4  0.5600E+01  0.1824E+02 -0.1391E+01E
 Epicentro: BARICHARA - SANTANDER                                              3
 ACTION:UPD 12-07-13 16:10 OP:ep   STATUS:               ID:20111118060936 L   I
 2011-11-18-0608-15S.COL___179                                                 6
 STAT SP IPHASW D HRMM SECON CODA AMPLIT PERI AZIMU VELO AIN AR TRES W  DIS CAZ7
 BAR2 SZ EP   2    6 9 55.15                             177   -0.10 5 6.62 151 
 BAR2 SZ I         6 9 57.59        11.6 0.54                          6.62 151 
 BAR2 SZ ES   2    610  9.83                             177   -0.44 5 6.62 151 
 BRR  HZ EP   2    6 9 57.11                             151   -0.13 5 75.4 313 
 BRR  HN ES   2    610 14.40                             151    0.58 5 75.4 313 
 BRR  HZ I         610 16.57         7.6 0.29                          75.4 313 
 RUS  HZ EP   2    6 9 59.12                             148    0.61 5 84.4 170 
 RUS  HZ I         6 9 59.67         5.1 0.53                          84.4 170 
 RUS  HE ES   2    610 16.10                             148    0.03 5 84.4 170 
 OCA  SZ ES   2    610 28.56                             126   -0.46 4  177 356 
 OCA  SZ I         610 33.25         9.4 0.49                           177 356 
 ZAR  HZ EP   3    610  8.01                             122   -0.40 2  205 297 
 ZAR  HN ES   2    610 34.08                             122    0.37 4  205 297 
 ZAR  HZ I         610 38.88         4.4 0.30                           205 297 
 NOR  SN ES   2    610 35.92                             120   -0.57 4  219 237 
                                                                                
