 2016 1218 0915 34.0 L   6.881 -73.287122.7  RSN  4 0.2 1.1LRSN                1
 GAP=222        0.58       5.9     3.9  4.9  0.8452E+01  0.2847E+01  0.8609E+01E
 Epicentro: BETULIA - SANTANDER                                                3
 ACTION:UPD 17-01-11 20:16 OP:rebc STATUS:               ID:20161218091534 L   I
 OLDACT:UP  16-12-26 16:17 OP:nlst STATUS:               ID:20161218091534 L   3
 OLDACT:UP  16-12-18 16:05 OP:edw  STATUS:               ID:20161218090750d    3
 OLDACT:DUP 16-12-18 16:01 OP:edw  STATUS:               ID:20161218090750d    3
 OLDACT:REG 16-12-18 15:26 OP:edw  STATUS:               ID:20161218090749     3
 2016-12-18-0908-00M.COL___375                                                 6
 STAT SP IPHASW D HRMM SECON CODA AMPLIT PERI AZIMU VELO AIN AR TRES W  DIS CAZ7
 BAR2 EZ EP        915 51.29                             164    0.1010 34.0 160 
 BAR2 EZ ES        916  4.79                             164    0.2010 34.0 160 
 BAR2 EZ I         916  5.45         3.6 0.22            163           34.0 160 
 BRR  HZ EP        915 51.69                             155    0.0210 53.2 298 
 BRR  HN ES        916  5.23                             155   -0.2110 53.2 298 
 RUS  HZ EP        915 56.16                             135   -0.3410  112 168 
 PTB  HZ EP        915 58.24                             129    0.2910  135 254 
 PTB  HN ES        916 16.55                             129   -0.0610  135 254 
                                                                                
