 2012  918 0821 35.5 L   6.765 -73.174142.2  RSN  6 0.3 1.6LRSN                1
 GAP=135        0.56       4.7     4.2  6.5  0.8044E+01 -0.3220E+01 -0.8829E+01E
 Epicentro: LOS SANTOS - SANTANDER                                             3
 ACTION:UPD 12-10-22 14:19 OP:ep   STATUS:               ID:20120918082135 L   I
 2012-09-18-0820-00M.COL___227                                                 6
 STAT SP IPHASW D HRMM SECON CODA AMPLIT PERI AZIMU VELO AIN AR TRES W  DIS CAZ7
 BAR2 SZ ES   1    822  9.15                             172   -0.34 7 19.1 183 
 BAR2 SZ I         822 10.84        15.3 0.18                          19.1 183 
 BRR  HZ EP        821 56.34                             152    0.1610 70.5 303 
 BRR  HN ES   1    822 12.78                             152    0.44 7 70.5 303 
 PAM  SZ EP   1    821 57.32                             149   -0.28 7 82.4  39 
 RUS  HZ EP   1    821 58.76                             144    0.17 7 97.0 174 
 RUS  HN ES   1    822 16.69                             144    0.05 7 97.0 174 
 RUS  HZ I         822 18.46         3.6 0.24                          97.0 174 
 PTB  HE ES   1    822 22.17                             132   -0.15 7  144 260 
 ZAR  HN ES   1    822 32.26                             122   -0.28 6  203 293 
                                                                                
