 2011  718 0119 26.4 L   6.801 -73.099143.5  RSN 14 0.4 2.0LRSN                1
 GAP=129        0.64       2.6     4.6  4.3 -0.3466E+01  0.3314E+00  0.1819E+01E
 Epicentro: LOS SANTOS - SANTANDER                                             3
 ACTION:UPD 12-07-25 14:01 OP:epov STATUS:               ID:20110718011926 L   I
 2011-07-18-0118-40S.COL___142                                                 6
 STAT SP IPHASW D HRMM SECON CODA AMPLIT PERI AZIMU VELO AIN AR TRES W  DIS CAZ7
 BTL  SZ EP        119 46.01                             171    0.3010 22.7 305 
 BTL  SZ ES   2    120  0.73                             171   -0.07 5 22.7 305 
 BAR2 SZ EP   1    119 45.38                             170   -0.37 7 24.9 202 
 BAR2 SZ ES   2    120  0.42                             170   -0.46 5 24.9 202 
 BAR2 SZ I         120  1.92        20.6 0.18                          24.9 202 
 GIR2 SZ EP   1    119 45.64                             167   -0.15 7 32.4 341 
 GIR2 SZ ES   1    120  0.98                             167    0.03 7 32.4 341 
 PAM  SZ EP   2    119 48.77                             152    0.63 5 74.1  37 
 PAM  SN ES   2    120  4.67                             152   -0.46 5 74.1  37 
 BRR  HZ EP        119 47.65                             151    0.1310 75.7 297 
 BRR  HN ES   1    120  4.45                             151    0.41 7 75.7 297 
 BRR  HZ I         120  6.74        20.2 0.19                          75.7 297 
 RUS  HZ EP   1    119 49.78                             143   -0.10 7  101 179 
 RUS  HE ES   1    120  8.40                             143    0.17 7  101 179 
 RUS  HZ I         120  9.67         7.4 0.33                           101 179 
 BRI  SZ EP   1    119 50.40                             141    0.51 7  107  18 
 BRI  SZ I         120 14.01        12.7 0.51                           107  18 
 OCA  SZ EP   1    119 54.07                             129   -0.47 7  161 351 
 OCA  SZ ES   1    120 16.09                             129   -0.44 7  161 351 
 OCA  SZ I         120 24.55        17.2 0.27                           161 351 
 NOR  SN ES   2    120 29.98                             118   -0.57 4  239 235 
 CHI  HZ EP   2    120  4.21                             116    0.11 4  250 196 
 CHI  HN ES   1    120 33.59                             116    0.05 6  250 196 
 CHI  HZ I         120 37.11         9.6 0.40                           250 196 
 HEL  HZ EP   2    120  7.18                             114    0.17 4  277 256 
 HEL  HN ES   2    120 38.25                             114   -0.48 4  277 256 
 RREF HZ EP   2    120 14.11                             110    1.25 3  326 230 
 RREF HZ I         120 55.43         8.0 0.30                           326 230 
 SDV  BZ EP   1    120 15.45                             108   -0.39 5  356  50 
 SDV  BZ I         120 16.12         4.1 0.29                           356  50 
 PRA  HZ EP   1    120 20.00                             106   -0.11 4  395 210 
 PRA  HN ES   1    121  1.42                             106   -0.63 4  395 210 
                                                                                
