 2013  818 0356  2.9 L   6.800 -73.111142.6  RSN  5 0.2 1.4LRSN                1
 GAP=241        0.49       3.8     3.6  4.4  0.8804E+01  0.2642E+00 -0.1595E+01E
 Epicentro: LOS SANTOS - SANTANDER                                             3
 ACTION:UPD 14-01-14 09:04 OP:ep   STATUS:               ID:20130818035602 L   I
 OLDACT:REG 13-08-18 09:18 OP:stll STATUS:               ID:20130818034838     3
 2013-08-18-0348-38M.COL___204                                                 6
 STAT SP IPHASW D HRMM SECON CODA AMPLIT PERI AZIMU VELO AIN AR TRES W  DIS CAZ7
 BAR2 SZ EP        356 22.15                             170   -0.0210 24.3 199 
 BAR2 SZ ES        356 37.01                             170   -0.1910 24.3 199 
 BAR2 SZ I         356 38.71         4.8 0.20            174           24.3 199 
 BRR  HZ EP        356 24.12                             151    0.2110 74.6 297 
 BRR  HN ES        356 40.47                             151    0.1810 74.6 297 
 BRR  HZ I         356 45.30         3.5 0.36            150           74.6 297 
 RUS  HZ EP        356 26.25                             143   -0.0810  100 178 
 RUS  HN ES        356 44.64                             143    0.0410  100 178 
 PTB  HE ES        356 51.19                             130    0.12 9  152 259 
 ZAR  HN ES        357  0.63                             121   -0.33 8  208 292 
 ZAR  HZ I         357  5.49         2.6 0.38            122            208 292 
                                                                                
