 2011  818 0713 39.5 L   7.044 -73.406118.8  RSN  5 0.3 1.8LRSN                1
 GAP=150        0.52       2.6     6.2  4.8  0.5818E+01 -0.9422E+01 -0.1594E+01E
 Epicentro: SAN VICENTE DE CHUCURI - SANTANDER                                 3
 ACTION:UPD 12-07-13 15:52 OP:ep   STATUS:               ID:20110818071339 L   I
 2011-08-18-0713-24S.COL___150                                                 6
 STAT SP IPHASW D HRMM SECON CODA AMPLIT PERI AZIMU VELO AIN AR TRES W  DIS CAZ7
 BRR  HZ EP   1    713 56.18                             162    0.24 7 34.6 282 
 BRR  HZ I         713 56.44        39.8 0.11                          34.6 282 
 BRR  HN ES        714  8.75                             162    0.0310 34.6 282 
 BAR2 SZ EP   1    713 57.42                             153    0.16 7 55.7 154 
 BAR2 SZ ES   1    714 10.91                             153   -0.16 7 55.7 154 
 BAR2 SZ I         714 12.14         8.9 0.18                          55.7 154 
 OCA  SZ EP   1    714  3.33                             128    0.17 7  132   4 
 OCA  SZ ES   1    714 21.19                             128   -0.38 7  132   4 
 OCA  SZ I         714 23.21        35.1 0.36                           132   4 
 RUS  HZ EP   1    714  3.86                             128    0.28 7  132 164 
 RUS  HN ES   1    714 22.14                             128   -0.19 7  132 164 
 RUS  HZ I         714 28.15         2.1 0.23                           132 164 
 NOR  SZ EP   2    714 12.75                             112   -0.62 4  230 225 
                                                                                
