 2012 1118 0034  1.3 L   6.781 -73.151148.5  RSN  9 0.4 1.7LRSN                1
 GAP=137        0.81       3.5     5.1  5.9  0.8403E+00  0.5879E+01  0.1593E+01E
 Epicentro: LOS SANTOS - SANTANDER                                             3
 ACTION:UPD 12-12-05 15:34 OP:}ep  STATUS:               ID:20121118003401 L   I
 2012-11-18-0030-00M.COL___234                                                 6
 STAT SP IPHASW D HRMM SECON CODA AMPLIT PERI AZIMU VELO AIN AR TRES W  DIS CAZ7
 BAR2 SZ EP   1    034 21.18                             172   -0.08 7 21.2 190 
 BAR2 SZ ES   1    034 36.29                             172   -0.50 7 21.2 190 
 BAR2 SZ I         034 37.96        18.7 0.46                          21.2 190 
 GIR2 SZ EP   1    034 22.08                             167    0.69 7 33.2 352 
 GIR2 SZ ES   1    034 37.03                             167    0.00 7 33.2 352 
 BRR  HZ EP   1    034 23.04                             153    0.23 7 71.7 300 
 BRR  HN ES   1    034 40.44                             153    0.88 7 71.7 300 
 BRR  HZ I         034 40.83         6.8 0.34                          71.7 300 
 PAM  SZ EP   1    034 23.98                             151    0.02 7 79.3  39 
 PAM  SN ES   1    034 41.30                             151   -0.30 7 79.3  39 
 PAM  SZ I         034 43.58         6.0 0.64                          79.3  39 
 RUS  HZ EP   1    034 25.19                             145   -0.03 7 98.6 176 
 RUS  HN ES   1    034 43.82                             145   -0.02 7 98.6 176 
 RUS  HZ I         034 46.62         6.9 0.44                          98.6 176 
 PTB  HZ EP   1    034 27.87                             133   -0.58 7  147 260 
 PTB  HN ES   1    034 49.01                             133   -0.58 7  147 260 
 PTB  HZ I         034 52.50         8.7 0.17                           147 260 
 ZAR  HN ES   2    034 59.73                             123    0.27 4  204 293 
 SML  HZ EP   1    034 37.75                             118   -0.55 6  245 336 
 SML  HN ES   1    035  7.13                             118    0.00 6  245 336 
 CHI  HZ EP   1    034 39.25                             118    0.29 6  247 195 
 CHI  HN ES   1    035  8.64                             118    0.34 6  247 195 
 CHI  HZ I         035 14.09         2.1 0.33                           247 195 
                                                                                
