 2015 1118 0736  4.3 L   6.765 -73.075144.1  RSN  6 0.3 1.5LRSN                1
 GAP=242        0.67       3.6     4.7  4.5 -0.3856E-01  0.6100E+01  0.4688E+01E
 Epicentro: LOS SANTOS - SANTANDER                                             3
 ACTION:UPD 15-12-28 16:11 OP:cam  STATUS:               ID:20151118073604 L   I
 OLDACT:UP  15-11-18 16:36 OP:ak   STATUS:               ID:20151118072743     3
 OLDACT:REG 15-11-18 12:58 OP:ak   STATUS:               ID:20151118072743     3
 2015-11-18-0727-43M.COL___313                                                 6
 STAT SP IPHASW D HRMM SECON CODA AMPLIT PERI AZIMU VELO AIN AR TRES W  DIS CAZ7
 BAR2 EZ EP        736 23.60                             171   -0.1110 22.5 212 
 BAR2 EZ ES        736 38.96                             171    0.1110 22.5 212 
 BAR2 EZ I         736 39.78         6.4 0.23            166           22.5 212 
 BRR  HZ EP        736 25.64                             149   -0.1510 79.9 298 
 BRR  HN ES        736 42.66                             149    0.1210 79.9 298 
 RUS  HZ EP        736 27.60                             145    0.0110 96.5 181 
 RUS  HN ES        736 45.93                             145    0.1710 96.5 181 
 RUS  HZ I         736 47.17         1.8 0.34            143           96.5 181 
 SPBC HZ EP        736 32.44                             128   -0.44 9  165 222 
 SPBC HN ES        736 54.82                             128   -0.34 9  165 222 
 SPBC HZ I         736 59.06         5.6 0.11            127            165 222 
 GUY2CHZ EP        736 49.12                             112    0.80 7  305 236 
 GUY2CHE ES        737 22.67                             112    0.03 7  305 236 
 GUY2CHZ I         737 30.19         2.5 0.36                           305 236 
 PRA  HZ EP        736 58.01                             106    0.17 6  393 211 
 PRA  HN ES        737 39.67                             106    0.08 6  393 211 
 PRA  HZ I         737 46.10         1.2 0.30            106            393 211 
                                                                                
