 2014  818 0240 55.9 L   6.822 -73.201144.7  RSN 15 0.5 2.1LRSN                1
 GAP= 67        1.13       3.0     3.8  5.3 -0.3296E+01  0.4374E+01  0.1742E+01E
 Epicentro: ZAPATOCA - SANTANDER                                               3
 ACTION:UPD 14-09-15 21:50 OP:nd   STATUS:               ID:20140818024055 L   I
 OLDACT:REG 14-08-18 14:22 OP:stll STATUS:               ID:20140818023820     3
 2014-08-18-0238-20M.COL___263                                                 6
 STAT SP IPHASW D HRMM SECON CODA AMPLIT PERI AZIMU VELO AIN AR TRES W  DIS CAZ7
 BAR2 SZ IP     D  241 15.47                             170    0.0010 25.5 175 
 BAR2 SZ ES        241 30.70                             170   -0.0110 25.5 175 
 BAR2 SZ I         241 32.01        37.8 0.16            170           25.5 175 
 BRR  HZ IP     C  241 17.31                             155    0.7110 64.6 299 
 BRR  HN ES        241 33.71                             155    0.9910 64.6 299 
 BRR  HZ I         241 38.51        12.2 0.26            151           64.6 299 
 PAM  SZ IP     D  241 18.42                             150    0.2610 79.7  44 
 PAM  SZ I         241 18.61        38.7 0.22            154           79.7  44 
 PAM  SN ES        241 35.28                             150   -0.2310 79.7  44 
 RUS  HZ EP        241 19.64                             143   -0.1510  104 173 
 RUS  HN ES        241 38.08                             143   -0.3210  104 173 
 RUS  HZ I         241 39.32        19.5 0.32            145            104 173 
 PTB  HZ EP        241 22.37                             133    0.07 9  142 257 
 PTB  HN ES        241 42.23                             133   -0.65 9  142 257 
 PTB  HZ I         241 48.83         9.5 0.30            132            142 257 
 OCA  HZ EP        241 23.77                             130   -0.09 9  157 355 
 OCA  HN ES        241 45.55                             130   -0.11 9  157 355 
 OCA  HZ I         241 49.80         8.3 0.48            131            157 355 
 SPBC HZ EP        241 24.27                             129    0.11 9  161 217 
 SPBC HN ES        241 46.28                             129    0.09 9  161 217 
 SPBC HZ I         241 49.08        21.2 0.32            130            161 217 
 TAM  HZ EP        241 23.74                             129   -0.39 9  162 105 
 NOR  HZ EP        241 31.49                             119    0.28 8  231 233 
 NOR  HE ES        241 58.59                             119   -0.14 8  231 233 
 NOR  HZ I         242  5.13         8.0 0.16            119            231 233 
 SML  HZ EP        241 32.04                             118    0.07 8  239 336 
 SML  HN ES        241 59.28                             118   -0.81 8  239 336 
 SML  HZ I         242  4.44        15.8 0.10            119            239 336 
 CHI  HZ EP   1    241 33.58                             117   -0.07 6  249 194 
 HEL  HZ EP        241 35.37                             115   -0.12 8  267 255 
 HEL  HN ES        242  5.21                             115   -1.14 8  267 255 
 HEL  HZ I         242 14.52         4.5 0.24            115            267 255 
 GUY2CHZ EP        241 40.24                             112    1.16 7  298 234 
 GUY2CHN ES        242 13.21                             112    0.47 7  298 234 
 GUY2CHZ I         242 22.96         4.0 0.66                           298 234 
 PRA  HZ EP        241 48.91                             106   -0.39 6  391 209 
 PRA  HN ES        242 30.13                             106   -0.81 6  391 209 
 PRA  HZ I         242 37.46         5.6 0.42            107            391 209 
 ORTC HZ EP        241 49.96                             106    0.35 6  394 215 
 ORTC HN ES        242 31.98                             106    0.49 6  394 215 
 ORTC HZ I         242 39.08         3.8 0.68            107            394 215 
                                                                                
