 2013  718 0451 26.2 L   6.804 -73.148142.9  RSN 20 0.4 3.1LRSN                1
 GAP= 65        0.94       2.1     2.6  4.8 -0.7017E-02  0.2974E+01  0.9736E+00E
 Epicentro: LOS SANTOS - SANTANDER                                             3
 ACTION:UPD 13-08-12 10:38 OP:ep   STATUS:               ID:20130718044960dL   I
 OLDACT:DUP 13-07-18 10:17 OP:mh   STATUS:               ID:20130718044960dL   3
 OLDACT:UPD 13-07-18 09:48 OP:stll STATUS:               ID:20130718044959 L   3
 2013-07-18-0449-59M.COL___267                                                 6
 STAT SP IPHASW D HRMM SECON CODA AMPLIT PERI AZIMU VELO AIN AR TRES W  DIS CAZ7
 BAR2 SZ IP     D  451 45.76                             170    0.2210 23.8 189 
 BAR2 SZ ES   1    451 59.90                             170   -0.69 7 23.8 189 
 BAR2 SZ I         452  2.45       163.6 0.42            171           23.8 189 
 GIR2 SZ EP        451 45.86                             167    0.3010 30.8 351 
 BRR  HZ EP     C  451 47.63                             152    0.5710 70.7 298 
 BRR  HN ES   1    452  3.74                             152    0.44 7 70.7 298 
 BRR  HN I         452  9.13       402.7 0.18            151           70.7 298 
 PAM  SZ EP        451 48.61                             150    0.4710 77.2  40 
 PAM  SN ES        452  5.55                             150    0.3210 77.2  40 
 PAM  SZ I         452  9.78        57.6 0.50            154           77.2  40 
 RUS  HZ EP        451 49.59                             143   -0.1610  101 176 
 RUS  HN ES        452  7.71                             143   -0.3810  101 176 
 RUS  HN I         452  8.84       211.5 0.30            147            101 176 
 PTB  HZ EP   1    451 52.21                             131   -0.76 7  148 259 
 PTB  HN ES   1    452 13.71                             131   -0.10 7  148 259 
 PTB  HN I         452 19.04       344.6 0.38            132            148 259 
 TAM  HZ IP     D  451 53.91                             130    0.18 9  155 105 
 TAM  HN ES        452 14.79                             130   -0.38 9  155 105 
 TAM  HN I         452 15.73        71.0 0.18            135            155 105 
 OCA  HZ EP   1    451 54.43                             129    0.14 7  160 353 
 OCA  HE ES        452 16.15                             129   -0.01 9  160 353 
 OCA  HE I         452 21.40       308.1 0.30            131            160 353 
 SPBC HZ EP        451 54.55                             128    0.00 9  163 219 
 SPBC HN ES        452 17.11                             128    0.49 9  163 219 
 YOP  SZ EP        451 56.28                             125    0.14 9  179 153 
 YOP  SN ES   1    452 19.16                             125   -0.29 7  179 153 
 YOP  SN I         452 23.48       137.9 0.40            130            179 153 
 ZAR  HZ EP        451 57.98                             122   -0.48 9  204 292 
 ZAR  HE ES        452 23.19                             122   -0.40 9  204 292 
 ZAR  HE I         452 30.82       512.4 0.46            123            204 292 
 NOR  HZ EP        452  1.63                             118   -0.19 8  235 234 
 NOR  HN ES        452 29.58                             118    0.02 8  235 234 
 NOR  HN I         452 36.65       220.2 0.14            120            235 234 
 SML  HZ EP        452  2.02                             117   -0.63 8  243 335 
 SML  HN ES        452 30.61                             117   -0.44 8  243 335 
 SML  HZ I         452 41.01       121.3 0.10            119            243 335 
 ROSC BZ EP        452  5.35                             116    1.11 8  253 211 
 ROSC BN ES   4    452 36.15                             116    2.27 0  253 211 
 HEL  HZ EP   1    452  7.03                             114    0.73 6  272 256 
 HEL  HN ES        452 37.51                             114   -0.03 8  272 256 
 HEL  HZ I         452 43.91        48.0 0.30            116            272 256 
 GUY2CHZ EP   1    452 10.10                             112    0.37 5  301 235 
 GUY2CHN ES   4    452 46.55                             112    2.90 0  301 235 
 VIL  SZ EP   1    452  9.22                             111   -0.36 5  304 192 
 VIL  SN ES        452 42.74                             111   -0.64 7  304 192 
 VIL  SZ I         452 49.91        50.0 0.36            114            304 192 
 COD  HZ EP   1    452 13.76                             108   -0.69 5  348 355 
 COD  HN ES   1    452 52.18                             108    0.13 5  348 355 
 COD  HN I         452 54.85        24.5 0.52            110            348 355 
 PRA  HZ EP   1    452 19.32                             106   -0.38 4  392 210 
 PRA  HN ES        453  1.39                             106   -0.01 6  392 210 
 PRA  HZ I         453  4.77        39.1 0.26            108            392 210 
 SJC  HZ EP   4    452 19.42                             105   -2.23 0  409 327 
 SJC  HN ES   4    453  1.00                             105   -3.86 0  409 327 
 SJC  HN I         453  6.92        21.4 0.18            107            409 327 
                                                                                
