 2017 1218 0923 18.5 L   6.790 -73.105143.4  RSN  5 0.3 1.4LRSN                1
 GAP=210        0.87       3.8     5.4  7.4 -0.5275E+01  0.7028E+01 -0.4763E+01E
 Epicentro: LOS SANTOS - SANTANDER                                             3
 ACTION:UPD 18-01-04 13:21 OP:rebc STATUS:               ID:20171218092318 L   I
 OLDACT:REG 17-12-18 13:28 OP:dhb  STATUS:               ID:20171218091741     3
 2017-12-18-0918-00M.COL___448                                                 6
 STAT SP IPHASW D HRMM SECON CODA AMPLIT PERI AZIMU VELO AIN AR TRES W  DIS CAZ7
 BAR2 EZ EP        923 38.11                             170    0.3010 23.5 201 
 BAR2 EZ ES        923 52.73                             170   -0.1710 23.5 201 
 BAR2 EZ I         923 54.67         4.7 0.18            170           23.5 201 
 PTB  HZ EP        923 44.89                             131   -0.74 9  152 260 
 PTB  HE ES        924  6.53                             131   -0.29 9  152 260 
 PTB  HZ I         924  6.92         1.3 0.12            131            152 260 
 OCA  HZ EP        923 46.67                             129   -0.08 9  162 352 
 OCA  HN ES        924  8.87                             129    0.06 9  162 352 
 OCA  HZ I         924 13.13         5.7 0.52            130            162 352 
 SPBC HZ EP        923 47.25                             128    0.27 9  165 220 
 SPBC HN ES        924  9.47                             128    0.25 9  165 220 
 SPBC HZ I         924 15.32         2.6 0.34            129            165 220 
 ZAR  HE ES        924 17.24                             121    0.45 8  209 292 
 ZAR  HZ I         924 22.23         2.0 0.24            122            209 292 
                                                                                
