 2010  118 0410 37.5 L   6.780 -73.081142.9  RSN  8 0.4 1.8LRSN                1
 GAP=189        0.81       3.4     8.3  6.7 -0.6497E+01  0.2492E+02 -0.1856E+01E
 Epicentro: LOS SANTOS - SANTANDER                                             3
 ACTION:UP  10-08-24 09:44 OP:vdl  STATUS:               ID:20100118041037 L   I
 2010-01-18-0407-01S.COL___096                                                 6
 STAT SP IPHASW D HRMM SECON CODA AMPLIT PERI AZIMU VELO SNR AR TRES W  DIS CAZ7
 BAR2 SZ EP   1    410 56.83                             170     0.0 7   24 209 
 BAR2 SZ ES   1    411 11.42                             170    -0.4 7   24 209 
 GIR2 SZ EP        410 56.82                             165    -0.110   35 339 
 RUS  BZ EP        411  0.89                             144     0.110   98 180 
 RUS  BN ES        411 18.99                             144     0.010   98 180 
 RUS  BZ I         411 20.15         7.6 0.26                            98 180 
 OCA  SZ EP        411  5.51                             128    -0.4 9  163 351 
 OCA  SZ ES   1    411 28.94                             128     0.9 7  163 351 
 CHI  HZ EP        411 14.97                             117     0.0 8  248 197 
 CHI  HE ES   2    411 45.00                             117     0.7 4  248 197 
 CHI  HZ I         411 50.81         3.1 0.68                           248 197 
 HEL  HN ES   2    411 49.44                             114    -0.6 4  278 257 
 HEL  HZ I         411 55.04         3.5 0.44                           278 257 
 RREF BZ EP        411 23.62                             110    -0.4 7  326 230 
 RREF BN ES   1    412  0.74                             110     0.5 5  326 230 
 RREF BZ I         412  5.05         3.5 0.48                           326 230 
 PRA  HZ EP        411 31.25                             106     0.1 6  394 211 
 PRA  HE ES   2    412 13.21                             106     0.3 3  394 211 
 PRA  HZ I         412 18.55         4.5 0.15                           394 211 
                                                                                
