 2016  718 0436 28.8 L   6.830 -73.118151.6  RSN  4 0.3 1.2LRSN                1
 GAP=139        0.73       4.0     5.4  6.5 -0.3762E+01  0.2564E+01  0.6626E+01E
 Epicentro: LOS SANTOS - SANTANDER                                             3
 ACTION:UPD 17-03-29 16:52 OP:lp   STATUS:               ID:20160718043628 L   I
 OLDACT:REG 16-07-18 16:14 OP:ar   STATUS:               ID:20160718042759     3
 2016-07-18-0427-59S.COL___319                                                 6
 STAT SP IPHASW D HRMM SECON CODA AMPLIT PERI AZIMU VELO AIN AR TRES W  DIS CAZ7
 BRR  HZ EP        436 50.41                             153   -0.2510 72.5 295 
 BRR  HN ES        437  7.68                             153   -0.0210 72.5 295 
 BRR  HZ I         437 11.59         2.8 0.28            151           72.5 295 
 PAM  EZ EP        436 51.84                             153    0.4510 72.9  39 
 PAM  EN ES        437  9.04                             153    0.0410 72.9  39 
 PAM  EZ I         437 11.15         2.4 0.62            158           72.9  39 
 RUS  HZ EP        436 53.24                             144   -0.1210  104 178 
 RUS  HN ES        437 12.26                             144   -0.2410  104 178 
 RUS  HZ I         437 12.57         2.0 0.20            146            104 178 
 SPBC HZ EP        436 58.09                             129   -0.09 9  168 219 
 SPBC HE ES   2    437 22.14                             129    1.05 5  168 219 
 SPBC HZ I         437 27.30         2.6 0.18            130            168 219 
                                                                                
