 2016 1218 0044 43.6 L   6.776 -73.253130.0  RSN  7 0.3 1.5LRSN                1
 GAP=114        0.75       3.0     3.0  5.3 -0.6251E+00  0.5473E+01  0.3548E+01E
 Epicentro: ZAPATOCA - SANTANDER                                               3
 ACTION:UPD 17-01-11 20:16 OP:rebc STATUS:               ID:20161218004443 L   I
 OLDACT:DUP 16-12-18 15:25 OP:cara STATUS:               ID:20161218003745d    3
 OLDACT:REG 16-12-18 14:14 OP:edw  STATUS:               ID:20161218003744     3
 2016-12-18-0038-00M.COL___387                                                 6
 STAT SP IPHASW D HRMM SECON CODA AMPLIT PERI AZIMU VELO AIN AR TRES W  DIS CAZ7
 BAR2 EZ EP        045  1.10                             170   -0.1910 21.8 159 
 BAR2 EZ ES        045 15.47                             170    0.3710 21.8 159 
 BAR2 EZ I         045 17.66        10.4 0.66            172           21.8 159 
 PAM  EZ IP        045  4.45                             144   -0.3810 87.3  44 
 PAM  EN ES        045 21.71                             144    0.3110 87.3  44 
 PAM  EZ I         045 23.87         4.7 0.26            148           87.3  44 
 RUS  HZ EP        045  5.69                             141   -0.0510 99.5 169 
 RUS  HZ ES        045 22.80                             141   -0.2110 99.5 169 
 RUS  HZ I         045 25.10         5.4 0.20            144           99.5 169 
 PTB  HN ES        045 26.89                             131   -0.45 9  136 259 
 PTB  HZ I         045 31.14         4.4 0.42            131            136 259 
 ZAR  HZ EP   4    045 15.45                             120    1.44 0  194 294 
 ZAR  HN ES        045 37.80                             120    0.07 9  194 294 
 ZAR  HZ I         045 44.61         4.9 0.38            121            194 294 
 CHI  HZ EP        045 19.85                             114   -0.01 8  243 193 
 CHI  HN ES        045 48.17                             114    0.03 8  243 193 
 CHI  HZ I         045 52.44         2.3 0.64            116            243 193 
 GUY2CHZ EP        045 25.69                             110    0.46 7  290 234 
 GUY2CHN ES        045 58.16                             110    0.46 7  290 234 
 GUY2CHZ I         046  7.69         2.2 0.38                           290 234 
                                                                                
