 2015  918 0329 17.0 L   6.808 -73.143147.0  RSN 27 0.5 2.8LRSN                1
 GAP= 71        1.00       2.5     2.8  4.5 -0.3978E+00  0.3110E+01  0.1771E+01E
 Epicentro: LOS SANTOS - SANTANDER                                             3
 ACTION:UPD 15-10-28 16:26 OP:cam  STATUS:               ID:20150918032917 L   I
 OLDACT:UP  15-09-21 10:16 OP:STLL STATUS:               ID:20150918032917 L   3
 OLDACT:UP  15-09-18 16:39 OP:mh   STATUS:               ID:20150918032741     3
 OLDACT:UP  15-09-18 16:39 OP:mh   STATUS:               ID:20150918032741     3
 OLDACT:UP  15-09-18 16:15 OP:mh   STATUS:               ID:20150918032741     3
 OLDACT:UP  15-09-18 16:09 OP:mh   STATUS:               ID:20150918032741     3
 OLDACT:REG 15-09-18 12:25 OP:mh   STATUS:               ID:20150918032741     3
 2015-09-18-0327-41M.COL___352                                                 6
 STAT SP IPHASW D HRMM SECON CODA AMPLIT PERI AZIMU VELO AIN AR TRES W  DIS CAZ7
 BAR2 EZ EP     D  329 36.78                             170   -0.0110 24.3 190 
 BAR2 EZ ES        329 52.00                             170   -0.2310 24.3 190 
 BAR2 EZ I         329 54.32       145.0 0.24            167           24.3 190 
 BRR  HZ EP     D  329 38.63                             153    0.3710 71.0 298 
 BRR  HN ES        329 55.13                             153    0.2710 71.0 298 
 BRR  HZ I         330  0.35        86.6 0.16            150           71.0 298 
 PAM  EZ IP     D  329 39.53                             151    0.2510 76.5  40 
 PAM  EN ES        329 56.76                             151    0.0810 76.5  40 
 PAM  EZ I         329 59.18       113.7 0.53            156           76.5  40 
 RUS  HZ EP   1    329 40.64                             144   -0.28 7  101 176 
 RUS  HN ES        329 59.66                             144    0.0610  101 176 
 RUS  HZ I         329 59.87        50.4 0.44            143            101 176 
 PTB  HZ EP        329 43.23                             132   -0.87 9  148 259 
 PTB  HN ES        330  4.68                             132   -0.56 9  148 259 
 PTB  HZ I         330  7.73        69.9 0.38            131            148 259 
 TAM  HZ EP     C  329 44.96                             131    0.20 9  155 105 
 TAM  HN ES        330  6.19                             131   -0.23 9  155 105 
 TAM  HZ I         330  7.01        45.0 0.50            134            155 105 
 OCA  HZ EP     D  329 44.77                             130   -0.54 9  159 353 
 OCA  HN ES        330  8.09                             130    0.68 9  159 353 
 SPBC HZ EP        329 45.73                             129    0.07 9  164 219 
 SPBC HN ES        330  8.45                             129    0.42 9  164 219 
 SPBC HZ I         330  8.63        84.3 0.24            128            164 219 
 ZAR  HZ EP        329 49.23                             123   -0.27 9  204 292 
 ZAR  HN ES        330 14.95                             123    0.08 9  204 292 
 ZAR  HZ I         330 20.91        89.6 0.34            122            204 292 
 NOR  HZ EP        329 53.01                             119    0.14 8  235 234 
 NOR  HE ES        330 20.22                             119   -0.64 8  235 234 
 NOR  HZ I         330 23.78        38.2 0.22            118            235 234 
 SML  HZ EP   1    329 52.75                             118   -0.86 6  243 335 
 SML  HN ES        330 21.66                             118   -0.51 8  243 335 
 SML  HZ I         330 24.62       142.2 0.10            119            243 335 
 CHI  HZ EP   1    329 54.84                             117   -0.01 6  250 195 
 CHI  HN ES        330 23.92                             117   -0.47 8  250 195 
 CHI  HZ I         330 31.92        15.2 0.46            117            250 195 
 ROSC BZ EP        329 55.97                             117    0.70 8  254 211 
 ROSC BN ES   4    330 27.39                             117    2.25 0  254 211 
 ROSC BZ I         330 32.70        26.3 0.30            117            254 211 
 HEL  HZ EP        329 58.27                             115    0.95 8  273 256 
 HEL  HN ES   1    330 29.45                             115    0.68 6  273 256 
 HEL  HZ I         330 34.90        30.2 0.26            115            273 256 
 URE  HZ EP   4    329 56.54                             114   -1.57 0  284 292 
 URE  HN ES   4    330 28.22                             114   -1.96 0  284 292 
 URE  HZ I         330 34.63        35.9 0.34            114            284 292 
 GUY2CHZ EP   1    330  1.67                             112    0.93 5  302 235 
 GUY2CHN ES   4 C  330 33.44                             112   -1.42 0  302 235 
 GUY2CHZ I         330 43.22        19.7 0.22                           302 235 
 VIL  SZ EP        330  0.20                             112   -0.36 7  304 192 
 VIL  SN ES   4    330 34.45                             112   -0.11 0  304 192 
 VIL  SZ I         330 39.88        21.5 0.34            112            304 192 
 PTGC HZ EP   4    329 59.76                             112   -1.22 0  309 159 
 PTGC HN ES   4    330 32.62                             112   -2.68 0  309 159 
 PTGC HZ I         330 36.62        17.4 0.38            113            309 159 
 ELA  HZ EP   4    330  6.41                             110    2.43 0  330 229 
 ELA  HN ES   4    330 42.49                             110    1.85 0  330 229 
 ELA  HZ I         330 56.19        18.3 0.46            110            330 229 
 CBOC HZ EP   1    330  4.56                             110    0.55 5  334 252 
 CBOC HN ES   1    330 40.81                             110    0.11 5  334 252 
 CBOC HZ I         330 56.32        11.5 0.50            110            334 252 
 DBB  SZ EP   1    330  4.30                             110   -0.24 5  340 274 
 DBB  SZ ES   4    330 40.25                             110   -1.38 0  340 274 
 DBB  SZ I         330 45.17        65.8 0.44            110            340 274 
 ANIL HZ I         330 51.87        40.2 0.26            109            358 224 
 ARGC HZ EP   4    330 13.53                             108    6.93 0  358 340 
 ARGC HN ES   4    330 40.75                             108   -4.55 0  358 340 
 ARGC HZ I         330 45.16        16.2 0.36            109            358 340 
 ANIL HE ES   4    330 48.07                             109    2.18 0  358 224 
 SDV  BE ES   4    330 42.95                             108   -3.03 0  360  50 
 PRA  HZ EP        330 10.35                             107   -0.31 6  393 210 
 PRA  HN ES        330 52.85                             107    0.33 6  393 210 
 PRA  HZ I         330 56.61        15.2 0.35            107            393 210 
 ORTC HZ EP        330 11.40                             106    0.35 6  396 216 
 ORTC HN ES   4    330 54.94                             106    1.72 0  396 216 
 ORTC HZ I         330 57.49        10.5 0.24            107            396 216 
 ELOV BZ EP   4 C  330 10.59                             106   -1.42 0  405  87 
 ELOV BN ES   4    330 52.08                             106   -2.85 0  405  87 
 SJC  HZ EP   4    330 10.48                             106   -2.04 0  409 327 
 SJC  HN ES   4    330 52.05                             106   -3.78 0  409 327 
 CRJC HZ EP   4    330 16.89                             104   -2.52 0  467   4 
 CRJC HN ES   4    331  6.23                             104   -1.87 0  467   4 
 CRJC HZ I         331  9.92        15.9 0.18            105            467   4 
 SMAR HZ EP   4    330 21.19                             102   -1.60 0  496 346 
 SMAR HN ES   4    331  8.90                             102   -5.22 0  496 346 
 SMAR HZ I         331 11.68        12.7 0.16            103            496 346 
                                                                                
