 2013  118 0713  8.3 L   6.772 -73.128147.2  RSN  9 0.4 2.1LRSN                1
 GAP=140        0.99       3.8     5.0  6.1  0.1251E+01  0.9002E+01  0.3462E+01E
 Epicentro: LOS SANTOS - SANTANDER                                             3
 ACTION:UPD 13-02-15 09:15 OP:ep   STATUS:               ID:20130118071308 L   I
 2013-01-18-0710-00M.COL___241                                                 6
 STAT SP IPHASW D HRMM SECON CODA AMPLIT PERI AZIMU VELO AIN AR TRES W  DIS CAZ7
 BAR2 SZ EP        713 28.17                             172    0.0710 20.8 197 
 BAR2 SZ ES        713 43.07                             172   -0.4410 20.8 197 
 BAR2 SZ I         713 46.19        29.2 0.48            164           20.8 197 
 BRR  HZ EP     C  713 30.08                             152    0.2510 74.4 300 
 BRR  HZ I         713 30.38        31.6 0.20            141           74.4 300 
 BRR  HE ES        713 47.29                             152    0.7010 74.4 300 
 PAM  SZ EP        713 31.08                             151    0.2910 78.6  37 
 PAM  SN ES        713 48.32                             151    0.0210 78.6  37 
 PAM  SZ I         713 50.68        15.9 0.56            150           78.6  37 
 RUS  HZ EP        713 32.03                             145    0.0210 97.4 177 
 RUS  HN ES        713 50.28                             145   -0.2010 97.4 177 
 RUS  HN I         713 52.41        15.5 0.14            139           97.4 177 
 PTB  HZ EP        713 34.85                             132   -0.70 9  149 260 
 PTB  HE ES   1    713 56.43                             132   -0.34 7  149 260 
 PTB  HZ I         714  3.48        24.3 0.30            123            149 260 
 OCA  HN ES   1    713 58.95                             129   -0.54 7  164 353 
 OCA  HZ I         714  3.09        16.0 0.34            123            164 353 
 ZAR  HZ EP        713 40.59                             122   -0.60 8  207 293 
 ZAR  HN ES   1    714  7.20                             122    0.40 6  207 293 
 ZAR  HZ I         714 14.37        12.7 0.41            115            207 293 
 CHI  HZ EP        713 46.16                             118    0.30 8  246 196 
 CHI  HN ES   1    714 15.65                             118    0.53 6  246 196 
 CHI  HZ I         714 21.08         3.5 0.66            112            246 196 
 HEL  HZ EP   1    713 49.41                             115    0.66 6  273 257 
 HEL  HZ I         714 27.37         7.5 0.32            109            273 257 
                                                                                
