 2015  818 0250 11.7 L   6.866 -73.125148.1  RSN  6 0.3 1.2LRSN                1
 GAP=203        0.71       4.2     6.5  6.8  0.1448E+02  0.4905E+01 -0.3469E+00E
 Epicentro: LOS SANTOS - SANTANDER                                             3
 ACTION:UPD 15-09-15 23:03 OP:cam  STATUS:               ID:20150818025011 L   I
 OLDACT:REG 15-08-18 12:30 OP:spq  STATUS:               ID:20150818024739     3
 2015-08-18-0247-39M.COL___325                                                 6
 STAT SP IPHASW D HRMM SECON CODA AMPLIT PERI AZIMU VELO AIN AR TRES W  DIS CAZ7
 BAR2 EZ ES   1    250 47.09                             168   -0.37 7 30.9 192 
 BAR2 EZ I         250 48.77         3.3 0.22            165           30.9 192 
 BRR  HZ EP        250 33.12                             153    0.0610 70.2 292 
 BRR  HE ES        250 50.17                             153    0.4710 70.2 292 
 BRR  HZ I         250 53.31         2.8 0.26            149           70.2 292 
 RUS  HZ EP   1    250 36.59                             142    0.38 7  108 178 
 RUS  HN ES   1    250 55.09                             142   -0.23 7  108 178 
 RUS  HZ I         250 55.56         0.7 0.16            143            108 178 
 SPBC HZ EP   1    250 41.14                             128    0.07 7  170 218 
 SPBC HN ES   1    251  3.69                             128   -0.27 7  170 218 
 SPBC HZ I         251  7.56         2.6 0.10            128            170 218 
 ZAR  HN ES        251  9.52                             123   -0.13 9  204 290 
 ZAR  HZ I         251 15.22         2.8 0.32            122            204 290 
 SML  HN ES   1    251 15.48                             119   -0.59 6  238 334 
 SML  HZ I         251 18.61         2.6 0.10            119            238 334 
                                                                                
