 2015  818 0240 16.5 L   6.815 -73.130142.8  RSN 20 0.4 2.0LRSN                1
 GAP= 71        0.88       2.3     2.5  4.9 -0.7802E+00  0.3709E+01  0.3192E+00E
 Epicentro: LOS SANTOS - SANTANDER                                             3
 ACTION:UPD 15-09-15 23:03 OP:cam  STATUS:               ID:20150818024016 L   I
 OLDACT:REG 15-08-18 12:27 OP:spq  STATUS:               ID:20150818023749     3
 2015-08-18-0237-49M.COL___325                                                 6
 STAT SP IPHASW D HRMM SECON CODA AMPLIT PERI AZIMU VELO AIN AR TRES W  DIS CAZ7
 BAR2 EZ EP        240 35.72                             170   -0.1310 25.3 193 
 BAR2 EZ ES   1    240 50.38                             170   -0.53 7 25.3 193 
 BAR2 EZ I         240 51.64        17.4 0.18            168           25.3 193 
 BRR  HZ EP        240 37.66                             152    0.2610 72.0 297 
 BRR  HN ES        240 54.29                             152    0.6110 72.0 297 
 BRR  HZ I         240 58.81        20.7 0.12            151           72.0 297 
 PAM  EZ EP        240 38.68                             151    0.3910 75.0  39 
 PAM  EN ES   1    240 55.65                             151    0.39 7 75.0  39 
 PAM  EZ I         240 57.82        17.6 0.58            154           75.0  39 
 RUS  HZ EP        240 39.67                             143   -0.4410  102 177 
 RUS  HE ES        240 58.10                             143   -0.3910  102 177 
 RUS  HZ I         240 58.92         7.8 0.22            143            102 177 
 TAM  HZ EP        240 44.10                             130    0.24 9  154 106 
 TAM  HE ES        241  5.45                             130    0.28 9  154 106 
 TAM  HZ I         241  9.30        14.9 0.34            133            154 106 
 OCA  HZ EP        240 44.30                             129   -0.18 9  159 352 
 OCA  HN ES        241  5.77                             129   -0.50 9  159 352 
 OCA  HZ I         241  8.95        38.9 0.30            131            159 352 
 SPBC HZ EP        240 44.89                             128   -0.14 9  166 219 
 SPBC HE ES        241  7.47                             128    0.21 9  166 219 
 SPBC HZ I         241 10.46         8.7 0.22            128            166 219 
 ZAR  HZ EP        240 48.86                             122   -0.03 9  205 292 
 ZAR  HN ES        241 14.60                             122    0.47 9  205 292 
 ZAR  HZ I         241 19.69        15.5 0.42            122            205 292 
 NOR  HZ EP   1    240 52.05                             118   -0.30 6  237 234 
 NOR  HN ES        241 19.89                             118   -0.39 8  237 234 
 NOR  HZ I         241 25.48         5.4 0.14            118            237 234 
 SML  HZ EP        240 52.30                             117   -0.61 8  243 335 
 SML  HN ES   1    241 21.07                             117   -0.21 6  243 335 
 SML  HZ I         241 25.50        13.3 0.08            118            243 335 
 CHI  HE ES   1    241 23.68                             116   -0.06 6  251 195 
 CHI  HZ I         241 27.23         3.6 0.30            117            251 195 
 ROSC BZ EP   4    240 56.14                             116    1.40 0  255 211 
 ROSC BN ES   1    241 24.53                             116   -0.02 6  255 211 
 ROSC BZ I         241 31.98         5.2 0.40            116            255 211 
 HEL  HZ EP   4    240 57.99                             114    1.16 0  274 256 
 HEL  HE ES   1    241 27.54                             114   -0.72 6  274 256 
 HEL  HZ I         241 34.79         4.2 0.40            114            274 256 
 GUY2CHZ EP   4    241  1.28                             112    1.01 0  304 235 
 GUY2CHN ES        241 35.17                             112    0.78 7  304 235 
 GUY2CHZ I         241 41.03         3.4 0.28                           304 235 
 CBOC HZ EP   1    241  4.55                             109    0.98 5  336 252 
 CBOC HN ES        241 39.88                             109   -0.39 7  336 252 
 CBOC HZ I         241 43.46         1.8 0.31            110            336 252 
 DBB  SZ ES   1    241 40.93                             109   -0.23 5  341 274 
 TOL  SN ES        241 42.76                             109    0.05 6  346 225 
 TOL  SZ I         241 52.49         3.1 0.36            109            346 225 
 ORTC HE ES   1    241 53.59                             106    0.77 4  398 216 
 ORTC HZ I         241 58.66         2.4 0.38            106            398 216 
 PAL  HZ EP        241 11.97                             105    0.10 6  408 239 
 PAL  HE ES   4    241 53.49                             105   -1.54 0  408 239 
 PAL  HZ I         241 59.11         1.7 0.48            106            408 239 
 SJC  HZ EP   4    241 10.60                             105   -1.34 0  409 327 
 SJC  HN ES   4    241 52.11                             105   -3.06 0  409 327 
 SJC  HZ I         241 55.83         2.9 0.72            106            409 327 
                                                                                
