 2017  518 0115 33.7 L   6.441 -73.015120.9  RSN  4 0.2 1.4LRSN                1
 GAP=255        0.48       6.5     2.8  7.5 -0.1003E+02 -0.4668E+01  0.3163E+02E
 Epicentro: MOGOTES - SANTANDER                                                3
 ACTION:UPD 17-06-16 13:37 OP:jn   STATUS:               ID:20170518011533 L   I
 OLDACT:UP  17-05-18 13:16 OP:dnl  STATUS:               ID:20170518010737     3
 OLDACT:REG 17-05-18 12:12 OP:edw  STATUS:               ID:20170518010737     3
 2017-05-18-0108-00M.COL___347                                                 6
 STAT SP IPHASW D HRMM SECON CODA AMPLIT PERI AZIMU VELO AIN AR TRES W  DIS CAZ7
 PAM  EZ EP        115 55.72                             137    0.2610  105  19 
 PAM  EN ES        116 12.38                             137   -0.0710  105  19 
 PAM  EZ I         116 12.94         2.6 0.32            139            105  19 
 BRR  HZ EP        115 54.68                             136   -0.2110  107 314 
 BRR  HN ES        116 11.40                             136   -0.0510  107 314 
 BRR  HZ I         116 13.01         8.3 0.34            136            107 314 
 PTB  HZ EP        115 59.80                             123   -0.15 9  160 274 
 PTB  HN ES        116 20.62                             123    0.17 9  160 274 
 PTB  HZ I         116 23.27         2.4 0.16            124            160 274 
 ZAR  HZ EP   4    116  6.02                             113   -1.99 0  235 300 
 ZAR  HN ES        116 34.86                             113    0.06 8  235 300 
 ZAR  HZ I         116 37.02         3.4 0.36            114            235 300 
                                                                                
