 2012 1118 0539 35.2 L   6.785 -73.162147.3  RSN  8 0.4 1.6LRSN                1
 GAP=135        0.80       4.3     4.7  7.1  0.3388E+00  0.5810E+01  0.1754E+01E
 Epicentro: LOS SANTOS - SANTANDER                                             3
 ACTION:UPD 12-12-05 15:34 OP:}ep  STATUS:               ID:20121118053935 L   I
 2012-11-18-0537-50M.COL___208                                                 6
 STAT SP IPHASW D HRMM SECON CODA AMPLIT PERI AZIMU VELO AIN AR TRES W  DIS CAZ7
 BAR2 SZ EP   1    539 55.02                             171    0.07 7 21.4 186 
 BAR2 SZ ES   1    540 10.27                             171   -0.11 7 21.4 186 
 GIR2 SZ EP   1    539 55.14                             167    0.07 7 32.7 354 
 GIR2 SZ ES   1    540  9.91                             167   -0.68 7 32.7 354 
 BRR  HN ES   1    540 14.07                             153    1.03 7 70.4 300 
 PAM  SZ EP   1    539 57.99                             150    0.29 7 79.8  40 
 PAM  SN ES   1    540 15.30                             150    0.03 7 79.8  40 
 PAM  SZ I         540 17.88         5.8 0.62                          79.8  40 
 RUS  HZ EP   1    539 59.03                             145    0.06 7 99.0 175 
 RUS  HN ES   1    540 17.60                             145    0.07 7 99.0 175 
 RUS  HZ I         540 18.96         5.6 0.28                          99.0 175 
 PTB  HZ EP   1    540  1.73                             133   -0.35 7  146 259 
 PTB  HN ES   1    540 22.68                             133   -0.38 7  146 259 
 PTB  HZ I         540 24.78         6.2 0.12                           146 259 
 OCA  HN ES   1    540 25.70                             130   -0.33 7  162 354 
 ZAR  HE ES   1    540 33.04                             123    0.12 6  203 293 
 ZAR  HZ I         540 37.99         3.6 0.13                           203 293 
                                                                                
