 2010  618 0526 36.2 L   6.785 -73.074148.8  RSN  8 0.5 1.7LRSN                1
 GAP=164        1.09       4.2    10.9  8.6 -0.1679E+02 -0.9815E+01  0.1827E+01E
 Epicentro: LOS SANTOS - SANTANDER                                             3
 ACTION:UP  10-08-24 10:11 OP:vdl  STATUS:               ID:20100618052636 L   I
 2010-06-18-0523-32S.COL___115                                                 6
 STAT SP IPHASW D HRMM SECON CODA AMPLIT PERI AZIMU VELO SNR AR TRES W  DIS CAZ7
 BAR2 SZ EP        526 56.19                             170     0.010   25 209 
 BAR2 SZ ES   1    527 12.02                             170     0.2 7   25 209 
 BRR  HZ IP        526 57.96                             151    -0.210   79 297 
 BRR  HZ I         526 58.26        23.7 0.26                            79 297 
 BRR  HN ES   1    527 15.48                             151     0.2 7   79 297 
 RUS  HZ EP   1    527  0.45                             145     0.3 7   99 181 
 RUS  HN ES   1    527 18.89                             145     0.1 7   99 181 
 RUS  HZ I         527 19.94         3.8 0.21                            99 181 
 BRI  SZ EP   1    526 59.63                             142    -0.7 7  107  17 
 BRI  SZ ES   1    527 18.22                             142    -0.9 7  107  17 
 GUE  SZ EP        527  2.11                             140     0.910  117   8 
 GUE  SZ ES   1    527 21.03                             140     0.3 7  117   8 
 GRA  SZ IP        527  1.88                             138     0.210  125  14 
 GRA  SZ ES   1    527 21.40                             138    -0.1 7  125  14 
 OCA  SZ EP   1    527  4.74                             130    -0.3 7  163 350 
 OCA  SZ ES   1    527 27.06                             130    -0.4 7  163 350 
 OCA  SZ I         527 32.29         6.9 0.19                           163 350 
 CHI  HZ EP   2    527 14.10                             117     0.0 4  249 197 
 CHI  HE ES   1    527 42.93                             117    -0.8 6  249 197 
 CHI  HZ I         527 51.37         2.5 0.24                           249 197 
                                                                                
