 2012  618 0111 58.1 L   6.809 -73.145148.4  RSN  4 0.4 1.1LRSN                1
 GAP=136        0.67       5.9     8.9 14.2 -0.1454E+02  0.7526E+02 -0.5025E+01E
 Epicentro: LOS SANTOS - SANTANDER                                             3
 ACTION:UPD 12-08-06 17:50 OP:ep   STATUS:               ID:20120618011157 L   I
 2012-06-18-0110-00M.COL___199                                                 6
 STAT SP IPHASW D HRMM SECON CODA AMPLIT PERI AZIMU VELO AIN AR TRES W  DIS CAZ7
 PAM  SZ EP        112 20.30                             151   -0.2310 76.5  40 
 PAM  SN ES   2    112 38.38                             151    0.34 5 76.5  40 
 RUS  HZ EP        112 22.55                             143    0.3910  102 176 
 RUS  HE ES   2    112 40.33                             143   -0.62 5  102 176 
 RUS  HZ I         112 43.49         1.6 0.32            127            102 176 
 PTB  HZ EP        112 25.16                             132   -0.13 9  148 258 
 PTB  HZ I         112 48.15         2.2 0.34            110            148 258 
 OCA  HE ES   3    112 49.14                             130    0.46 2  159 353 
                                                                                
