 2017  218 0349 28.4 L   6.715 -73.202147.6  RSN  4 0.3 1.2LRSN                1
 GAP=223        0.81       6.3     6.0  6.5  0.1838E+02  0.4640E+01  0.1702E+01E
 Epicentro: VILLANUEVA - SANTANDER                                             3
 ACTION:UPD 17-05-24 15:37 OP:jn   STATUS:               ID:20170218034928 L   I
 OLDACT:REG 17-02-18 13:29 OP:cara STATUS:               ID:20170218034742     3
 2017-02-18-0348-00M.COL___351                                                 6
 STAT SP IPHASW D HRMM SECON CODA AMPLIT PERI AZIMU VELO AIN AR TRES W  DIS CAZ7
 BAR2 EZ IP        349 47.97                             174   -0.1610 13.7 171 
 BAR2 EZ ES        350  3.01                             174   -0.4810 13.7 171 
 BAR2 EZ I         350  4.93         3.8 0.17            171           13.7 171 
 BRR  HZ EP        349 49.67                             153   -0.1110 71.2 308 
 BRR  HE ES        350  6.94                             153    0.5110 71.2 308 
 BRR  HZ I         350  9.96         3.5 0.62            151           71.2 308 
 RUS  HZ EP        349 51.87                             147    0.1110 91.8 172 
 RUS  HN ES        350 10.26                             147    0.3110 91.8 172 
 RUS  HZ I         350 11.94         1.6 0.46            147           91.8 172 
 PTB  HZ EP        349 54.93                             134    0.06 9  140 262 
 PTB  HN ES        350 15.23                             134   -0.26 9  140 262 
 PTB  HZ I         350 21.09         1.9 0.46            133            140 262 
                                                                                
