 2011 1218 0725 28.5 L   6.781 -73.103143.3  RSN  5 0.2 1.6LRSN                1
 GAP=143        0.41       3.9     5.7  5.2 -0.8610E+00 -0.1822E+01  0.3133E-01E
 Epicentro: LOS SANTOS - SANTANDER                                             3
 ACTION:UPD 12-07-13 16:17 OP:ep   STATUS:               ID:20111218072528 L   I
 2011-12-18-0720-00M.COL___186                                                 6
 STAT SP IPHASW D HRMM SECON CODA AMPLIT PERI AZIMU VELO AIN AR TRES W  DIS CAZ7
 BAR2 SZ EP   1    725 47.71                             171   -0.11 7 22.7 203 
 BAR2 SZ ES   2    726  2.54                             171   -0.36 5 22.7 203 
 BAR2 SZ I         726  3.84        15.3 0.18                          22.7 203 
 GIR2 SZ EP   1    725 47.78                             166   -0.19 7 34.4 343 
 GIR2 SZ ES   2    726  3.30                             166    0.14 5 34.4 343 
 PAM  SZ EP   1    725 50.63                             151    0.25 7 76.1  36 
 PAM  SE ES   2    726  7.42                             151   -0.03 5 76.1  36 
 BRR  HZ EP   1    725 49.53                             151   -0.16 7 76.3 298 
 BRR  HE ES   2    726  6.58                             151    0.36 5 76.3 298 
 BRR  HZ I         726  8.90         7.7 0.19                          76.3 298 
 RUS  HZ EP   2    725 52.02                             144    0.17 5 98.3 179 
 RUS  HE ES   2    726 10.26                             144    0.21 5 98.3 179 
 RUS  HZ I         726 11.79         4.6 0.46                          98.3 179 
                                                                                
