 2011  918 0609  0.8 L   6.789 -73.077142.0  RSN  5 0.3 1.2LRSN                1
 GAP=146        0.57       3.9     6.1  6.5  0.2459E+01 -0.8241E+01  0.1681E+01E
 Epicentro: LOS SANTOS - SANTANDER                                             3
 ACTION:UPD 12-07-13 15:58 OP:ep   STATUS:               ID:20110918060900 L   I
 2011-09-18-0605-15S.COL___171                                                 6
 STAT SP IPHASW D HRMM SECON CODA AMPLIT PERI AZIMU VELO AIN AR TRES W  DIS CAZ7
 BAR2 SZ EP        6 9 19.68                             170   -0.3110 24.7 208 
 BAR2 SZ ES   3    6 9 35.13                             170    0.16 2 24.7 208 
 BAR2 SZ I         6 9 37.35         5.7 0.36                          24.7 208 
 GIR2 SZ ES   2    6 9 34.50                             166   -0.68 5 34.6 338 
 PAM  SZ EP        6 9 22.57                             151    0.1810 73.8  34 
 PAM  SE ES   2    6 9 39.41                             151    0.17 5 73.8  34 
 BRR  HZ EP        6 9 21.90                             150   -0.0710 78.5 297 
 BRR  HE ES   1    6 9 38.83                             150    0.34 7 78.5 297 
 BRR  HZ I         6 9 42.78         3.6 0.14                          78.5 297 
 RUS  HZ EP        6 9 24.07                             144    0.0110 99.1 180 
 RUS  HN ES   1    6 9 42.44                             144    0.23 7 99.1 180 
 RUS  HZ I         6 9 44.06         2.0 0.38                          99.1 180 
                                                                                
