 2016  318 0951  2.7 L   6.736 -73.149152.0  RSN  9 0.5 1.9LRSN                1
 GAP=165        1.05       4.4     5.1  7.7  0.4526E+01  0.3715E+01 -0.3550E+01E
 Epicentro: LOS SANTOS - SANTANDER                                             3
 ACTION:UPD 16-05-13 21:25 OP:cam  STATUS:               ID:20160318095102 L   I
 OLDACT:DUP 16-03-18 18:32 OP:mh   STATUS:               ID:20160318094751d    3
 OLDACT:UP  16-03-18 18:32 OP:mh   STATUS:               ID:20160318094750     3
 OLDACT:UP  16-03-18 18:29 OP:mh   STATUS:               ID:20160318094750     3
 OLDACT:REG 16-03-18 13:45 OP:dnl  STATUS:               ID:20160318094750     3
 2016-03-18-0947-50M.COL___309                                                 6
 STAT SP IPHASW D HRMM SECON CODA AMPLIT PERI AZIMU VELO AIN AR TRES W  DIS CAZ7
 BAR2 EZ EP        951 22.91                             174   -0.0910 16.4 193 
 BAR2 EZ ES   1    951 38.19                             174   -0.62 7 16.4 193 
 BAR2 EZ I         951 40.64         8.8 0.18            173           16.4 193 
 RUS  HZ EP        951 26.93                             147    0.3010 93.6 176 
 RUS  HN ES        951 45.47                             147    0.2010 93.6 176 
 RUS  HZ I         951 47.54         3.0 0.22            142           93.6 176 
 PTB  HZ EP        951 29.59                             134   -0.50 9  146 262 
 PTB  HN ES        951 51.92                             134    0.50 9  146 262 
 PTB  HZ I         951 53.93         7.5 0.26            127            146 262 
 OCA  HZ EP        951 32.00                             130   -0.18 9  167 354 
 OCA  HN ES        951 55.60                             130    0.45 9  167 354 
 OCA  HZ I         952  0.43        10.7 0.44            122            167 354 
 ZAR  HZ EP   1    951 35.68                             123   -0.17 6  207 294 
 ZAR  HN ES        952  1.20                             123   -0.47 8  207 294 
 ZAR  HZ I         952  6.62        13.6 0.26            116            207 294 
 HEL  HZ EP        951 44.06                             116    1.00 8  270 257 
 HEL  HN ES   1    952 13.89                             116   -0.62 6  270 257 
 HEL  HZ I         952 22.95         4.2 0.32            110            270 257 
 URE  HZ EP   4    951 47.18                             115    2.80 0  286 293 
 URE  HE ES   4    952 14.30                             115   -2.57 0  286 293 
 URE  HZ I         952 17.61         5.6 0.14            108            286 293 
 PTGC HZ EP        951 45.68                             113   -0.48 7  302 158 
 PTGC HN ES   4    952 18.57                             113   -1.46 0  302 158 
 PTGC HZ I         952 27.50         9.8 0.44            108            302 158 
 MON  HZ EP   4    951 49.67                             109   -2.80 0  358 309 
 MON  HZ I         952 27.72         1.3 0.50            104            358 309 
 MON  HN ES   4    952 28.34                             109   -2.91 0  358 309 
                                                                                
