 2016 1018 0051  2.8 L   6.817 -73.149142.9  RSN 18 0.6 2.1LRSN                1
 GAP= 53        1.20       3.3     3.4  5.8 -0.2939E+01  0.2273E+01  0.2681E+01E
 Epicentro: LOS SANTOS - SANTANDER                                             3
 ACTION:UPD 16-11-09 19:20 OP:rebc STATUS:               ID:20161018005102 L   I
 OLDACT:UP  16-10-18 14:09 OP:and  STATUS:               ID:20161018004734     3
 OLDACT:UP  16-10-18 14:07 OP:and  STATUS:               ID:20161018004734     3
 OLDACT:UP  16-10-18 14:07 OP:and  STATUS:               ID:20161018004734     3
 OLDACT:UP  16-10-18 13:50 OP:and  STATUS:               ID:20161018004734     3
 OLDACT:UP  16-10-18 13:48 OP:and  STATUS:               ID:20161018004734     3
 OLDACT:REG 16-10-18 12:17 OP:y    STATUS:               ID:20161018004734     3
 2016-10-18-0048-00M.COL___342                                                 6
 STAT SP IPHASW D HRMM SECON CODA AMPLIT PERI AZIMU VELO AIN AR TRES W  DIS CAZ7
 BAR2 EZ IP     C  051 22.02                             170   -0.0810 25.1 188 
 BAR2 EZ ES        051 36.78                             170   -0.3910 25.1 188 
 BAR2 EZ I         051 38.06        43.8 0.22            170           25.1 188 
 BRR  HZ IP     C  051 23.92                             152    0.3810 70.0 297 
 BRR  HE ES        051 41.06                             152    1.3210 70.0 297 
 BRR  HZ I         051 45.81        31.7 0.22            152           70.0 297 
 PAM  EZ EP     C  051 24.88                             150    0.2710 76.2  41 
 PAM  EN ES        051 42.03                             150    0.3910 76.2  41 
 PAM  EZ I         051 45.68         9.2 0.34            153           76.2  41 
 RUS  HZ EP        051 26.07                             143   -0.3210  103 176 
 RUS  HE ES        051 44.44                             143   -0.3610  103 176 
 RUS  HZ I         051 45.68        14.1 0.28            145            103 176 
 PTB  HZ EP        051 29.12                             131   -0.39 9  148 258 
 PTB  HN ES        051 49.69                             131   -0.67 9  148 258 
 PTB  HZ I         051 52.00        17.8 0.19            132            148 258 
 TAM  HZ IP     C  051 30.39                             130    0.08 9  156 106 
 TAM  HN ES        051 51.82                             130    0.04 9  156 106 
 TAM  HZ I         051 52.90        14.0 0.19            133            156 106 
 OCA  HZ EP        051 30.33                             129   -0.35 9  158 353 
 OCA  HN ES        051 51.88                             129   -0.56 9  158 353 
 OCA  HZ I         051 59.82        36.6 0.27            131            158 353 
 SPBC HZ EP        051 31.07                             128   -0.10 9  164 218 
 SPBC HN ES        051 53.06                             128   -0.26 9  164 218 
 SPBC HZ I         052  0.22        16.6 0.13            129            164 218 
 NOR  HZ EP        051 38.38                             118   -0.04 8  235 234 
 NOR  HN ES        052  5.39                             118   -0.84 8  235 234 
 NOR  HZ I         052  8.76        10.7 0.18            119            235 234 
 CHI  HZ EP        051 40.98                             116    0.47 8  250 195 
 CHI  HN ES        052 10.74                             116    0.81 8  250 195 
 CHI  HZ I         052 15.45         3.4 0.23            118            250 195 
 ROSC BZ EP   3    051 42.46                             116    1.56 2  254 211 
 ROSC BN ES   3    052 12.66                             116    2.03 2  254 211 
 ROSC BZ I         052 18.04         9.5 0.45            117            254 211 
 HEL  HZ EP        051 43.88                             114    1.03 8  272 255 
 HEL  HE ES        052 14.10                             114   -0.01 8  272 255 
 HEL  HZ I         052 21.38         8.7 0.30            115            272 255 
 SOCV BZ EP        051 45.33                             112   -0.28 7  301  57 
 SOCV BN ES   3    052 16.24                             112   -2.78 2  301  57 
 GUY2CHZ EP   3    051 47.64                             112    1.30 2  302 234 
 GUY2CHE ES        052 20.00                             112   -0.32 7  302 234 
 GUY2CHZ I         052 29.62         5.9 0.68                           302 234 
 PTGC HZ EP   9    051 45.27                             111   -1.45 0  311 159 
 PTGC HN ES        052 18.86                                   -0.69 7  311 159 
 LL6C HZ EP   9    051 28.45                             110   -19.7 0  323 358 
 LL6C HN ES   2    052  4.68                                    0.85 3  323 358 
 PRA  HZ EP   2    051 57.08                             106    0.71 3  393 209 
 PRA  HN ES        052 38.30                             106    0.13 6  393 209 
 PRA  HZ I         052 42.49         4.5 0.17            107            393 209 
 SJC  HZ EP   9    051 56.87                             105   -1.16 0  407 327 
 SJC  HN ES        052 39.16                                   -0.81 6  407 327 
 SJC  HZ I         052 41.96         3.0 0.35            106            407 327 
                                                                                
