 2016 1118 0353 51.7 L   6.809 -73.149147.8  RSN 10 0.4 1.6LRSN                1
 GAP=102        0.92       4.1     3.2  5.6 -0.1286E+01  0.6535E+00  0.8608E+01E
 Epicentro: LOS SANTOS - SANTANDER                                             3
 ACTION:UPD 17-10-26 21:09 OP:lp   STATUS:               ID:20161118035351 L   I
 OLDACT:UP  16-11-18 14:43 OP:and  STATUS:               ID:20161118034741     3
 OLDACT:REG 16-11-18 12:37 OP:and  STATUS:               ID:20161118034741     3
 2016-11-18-0348-00M.COL___343                                                 6
 STAT SP IPHASW D HRMM SECON CODA AMPLIT PERI AZIMU VELO AIN AR TRES W  DIS CAZ7
 BAR2 EZ EP        354 11.41                             170   -0.2010 24.2 189 
 BAR2 EZ ES        354 26.71                             170   -0.4210 24.2 189 
 BAR2 EZ I         354 28.58        12.3 0.28            169           24.2 189 
 BRR  HZ EP        354 13.49                             153    0.4510 70.4 298 
 BRR  HN ES        354 30.41                             153    0.7310 70.4 298 
 PAM  EZ EP     C  354 14.17                             151    0.0510 76.9  40 
 PAM  EN ES        354 31.45                             151   -0.1410 76.9  40 
 PAM  EZ I         354 33.66         8.4 0.48            154           76.9  40 
 PTB  HZ EP        354 18.25                             132   -0.58 9  148 258 
 PTB  HN ES        354 39.52                             132   -0.47 9  148 258 
 PTB  HZ I         354 44.37         4.8 0.14            131            148 258 
 TAM  HZ IP     C  354 19.86                             131    0.25 9  156 105 
 ZAR  HZ EP        354 23.85                             123   -0.37 9  203 292 
 ZAR  HE ES        354 49.54                             123   -0.04 9  203 292 
 ZAR  HZ I         354 59.91         3.5 0.19            122            203 292 
 NOR  HE ES        354 56.02                             119    0.45 8  235 234 
 NOR  HZ I         354 58.43         4.2 0.14            119            235 234 
 CHI  HZ EP        354 29.81                             117    0.20 8  249 195 
 CHI  HN ES        354 59.28                             117    0.10 8  249 195 
 CHI  HZ I         355  5.33         2.0 0.19            118            249 195 
 PTGC HZ EP        354 35.73                             112   -0.05 7  310 159 
 PTGC HN ES   4    355  8.14                             112   -2.00 0  310 159 
 CBOC HZ EP   4    354 39.89                             110    1.18 0  334 252 
 CBOC HE ES        355 15.53                             110    0.17 7  334 252 
 CBOC HZ I         355 21.55         0.9 0.24            110            334 252 
                                                                                
