 2015  318 0203 32.2 L   6.731 -73.217154.3  RSN  5 0.4 0.9LRSN                1
 GAP=125        0.98       6.6     6.3  9.7  0.9963E+01 -0.1567E+02 -0.1168E+02E
 Epicentro: VILLANUEVA - SANTANDER                                             3
 ACTION:UPD 15-04-30 16:26 OP:nd   STATUS:               ID:20150318020332 L   I
 OLDACT:DUP 15-03-18 15:16 OP:stll STATUS:               ID:20150318015752d    3
 OLDACT:DUP 15-03-18 15:11 OP:stll STATUS:               ID:20150318015751d    3
 OLDACT:REG 15-03-18 13:09 OP:stll STATUS:               ID:20150318015750     3
 2015-03-18-0157-50M.COL___272                                                 6
 STAT SP IPHASW D HRMM SECON CODA AMPLIT PERI AZIMU VELO AIN AR TRES W  DIS CAZ7
 BAR2 EZ EP        2 3 52.52                             174   -0.2310 15.8 166 
 BAR2 EZ I         2 3 52.56         2.7 0.40            173           15.8 166 
 BRR  HZ EP        2 3 54.40                             155    0.2410 68.7 307 
 BRR  HE ES        2 4 11.66                             155    0.3810 68.7 307 
 PAM  SZ EP        2 3 55.55                             149   -0.4510 88.3  40 
 PAM  SZ I         2 4 13.20         1.5 0.24            141           88.3  40 
 RUS  HZ EP        2 3 56.54                             147    0.1810 93.9 171 
 RUS  HN ES        2 4 15.26                             147    0.0610 93.9 171 
 RUS  HZ I         2 4 17.02         0.5 0.46            152           93.9 171 
 PTB  HZ EP        2 3 59.56                             136    0.46 9  139 261 
 PTB  HN ES        2 4 19.41                             136   -0.66 9  139 261 
 PTB  HZ I         2 4 25.72         1.2 0.44            138            139 261 
                                                                                
