 2010 1218 0008 38.6 L   6.336 -73.779138.8  RSN  4 0.3 1.6LRSN                1
 GAP=243        0.69      23.1    29.0 19.8  0.5666E+03  0.3698E+03  0.3568E+03E
 Epicentro: LANDAZURI - SANTANDER                                              3
 ACTION:UP  11-01-14 15:25 OP:pat  STATUS:               ID:20101218000838 L   I
 2010-12-18-0000-00M.COL___136                                                 6
 STAT SP IPHASW D HRMM SECON CODA AMPLIT PERI AZIMU VELO SNR AR TRES W  DIS CAZ7
 BAR2 SZ EP        0 8 59.08                             147    -0.310   72  67 
 BAR2 SZ I         0 9 14.00         6.2 0.62                            72  67 
 BTL  SZ EP        0 9  0.66                             143     0.410   86  41 
 BTL  SZ ES   3    0 9 16.58                             143    -0.6 2   86  41 
 BRR  HZ EP        0 8 59.81                             143    -0.110   86   5 
 BRR  HZ I         0 9  0.12         9.0 0.14                            86   5 
 BRR  HN ES   1    0 9 16.49                             143     0.0 7   86   5 
 RUS  HN ES   3    0 9 18.67                             143     0.2 2   91 122 
                                                                                
