 2015  118 0825 57.6 L   6.798 -73.142147.6  RSN 10 0.4 1.8LRSN                1
 GAP=137        1.03       3.2     4.2  6.1 -0.1273E+01  0.5816E+01  0.3084E+01E
 Epicentro: LOS SANTOS - SANTANDER                                             3
 ACTION:UPD 15-03-02 15:40 OP:nd   STATUS:               ID:20150118082557 L   I
 OLDACT:DUP 15-01-18 18:59 OP:carl STATUS:               ID:20150118081746d    3
 2015-01-18-0817-44M.COL___258                                                 6
 STAT SP IPHASW D HRMM SECON CODA AMPLIT PERI AZIMU VELO AIN AR TRES W  DIS CAZ7
 BAR2 EZ EP        826 17.28                             171   -0.1310 23.2 191 
 BAR2 EZ ES        826 32.31                             171   -0.5810 23.2 191 
 BAR2 EZ I         826 33.93        16.9 0.24            169           23.2 191 
 BRR  HZ EP        826 19.25                             153    0.3110 71.7 299 
 BRR  HN ES        826 36.47                             153    0.8710 71.7 299 
 BRR  HZ I         826 39.42         9.9 0.24            152           71.7 299 
 PAM  SZ EP        826 20.24                             151    0.2710 77.3  39 
 PAM  SN ES        826 37.51                             151    0.0710 77.3  39 
 PAM  SZ I         826 39.76         6.8 0.68            155           77.3  39 
 RUS  HZ EP        826 21.24                             144   -0.2410  100 176 
 RUS  HN ES        826 40.25                             144    0.1210  100 176 
 RUS  HZ I         826 41.23         6.8 0.28            145            100 176 
 PTB  HZ EP        826 24.02                             132   -0.69 9  148 259 
 PTB  HN ES        826 45.25                             132   -0.64 9  148 259 
 PTB  HZ I         826 50.22         9.3 0.18            132            148 259 
 OCA  HN ES        826 47.87                             130   -0.39 9  161 353 
 OCA  HZ I         826 52.09         5.7 0.52            132            161 353 
 SPBC HZ EP        826 26.43                             129    0.22 9  163 219 
 SPBC HN ES        826 48.43                             129   -0.12 9  163 219 
 SPBC HZ I         826 54.26        11.8 0.28            130            163 219 
 ZAR  HZ EP        826 30.07                             123   -0.11 9  205 292 
 ZAR  HN ES        826 55.97                             123    0.36 9  205 292 
 ZAR  HZ I         827  0.28         6.0 0.36            123            205 292 
 NOR  HE ES        827  1.59                             119    0.20 8  235 235 
 CHI  HZ EP        826 35.55                             117    0.20 8  249 195 
 CHI  HN ES        827  5.27                             117    0.44 8  249 195 
 CHI  HZ I         827 14.85         2.8 0.42            119            249 195 
                                                                                
