 2011  618 0633 56.7 L   6.800 -73.107139.9  RSN  8 0.3 1.7LRSN                1
 GAP=160        0.63       3.3     8.0  6.6 -0.1058E+02 -0.1103E+01  0.1133E+01E
 Epicentro: LOS SANTOS - SANTANDER                                             3
 ACTION:UP  11-07-14 19:06 OP:ep   STATUS:               ID:20110618063356 L   I
 2011-06-18-0628-58S.COL___135                                                 6
 STAT SP IPHASW D HRMM SECON CODA AMPLIT PERI AZIMU VELO SNR AR TRES W  DIS CAZ7
 BAR2 SZ EP   1    634 15.41                             170    -0.2 8   24 200 
 BAR2 SZ ES   2    634 29.91                             170    -0.5 5   24 200 
 BRR  HZ EP   1    634 17.37                             150     0.0 8   75 297 
 BRR  HZ I         634 18.94        12.9 0.19                            75 297 
 BRR  HN ES   2    634 34.01                             150     0.4 5   75 297 
 RUS  HZ EP   1    634 20.24                             143     0.4 8  100 178 
 RUS  HN ES   2    634 37.90                             143     0.0 5  100 178 
 RUS  HZ I         634 39.58         3.5 0.47                           100 178 
 BRI  SZ EP   1    634 20.05                             141     0.1 8  107  19 
 BRI  SZ ES   2    634 38.43                             141     0.4 5  107  19 
 BRI  SZ I         634 43.57         6.1 0.72                           107  19 
 GRA  SZ IP        634 21.27                             136     0.010  125  16 
 GRA  SZ I         634 22.40         8.5 0.34                           125  16 
 GRA  SZ ES   2    634 40.57                             136     0.1 5  125  16 
 OCA  SZ EP   1    634 23.97                             128    -0.6 7  161 352 
 OCA  SZ ES   2    634 46.58                             128     0.2 5  161 352 
 OCA  SZ I         634 49.01         9.8 0.28                           161 352 
 CHI  HE ES   2    635  2.98                             116    -0.5 4  250 196 
 CHI  HZ I         635  6.75         2.9 0.15                           250 196 
 PRA  HZ EP   1    634 50.73                             105     0.5 5  394 210 
 PRA  HN ES   2    635 32.11                             105     0.1 3  394 210 
                                                                                
