 2014  318 0448  4.3 L   6.865 -73.368121.4  RSN 12 0.4 1.7LRSN                1
 GAP= 53        0.85       2.3     2.6  6.1  0.7419E-01  0.4150E+01 -0.1174E+01E
 Epicentro: SAN VICENTE DE CHUCURI - SANTANDER                                 3
 ACTION:UPD 14-04-09 23:18 OP:nd   STATUS:               ID:20140318044804 L   I
 OLDACT:UP  14-03-18 11:35 OP:mh   STATUS:               ID:20140318043815     3
 OLDACT:UP  14-03-18 11:34 OP:mh   STATUS:               ID:20140318043815     3
 OLDACT:UP  14-03-18 11:31 OP:mh   STATUS:               ID:20140318043815     3
 OLDACT:REG 14-03-18 08:10 OP:mh   STATUS:               ID:20140318043815     3
 2014-03-18-0438-15M.COL___223                                                 6
 STAT SP IPHASW D HRMM SECON CODA AMPLIT PERI AZIMU VELO AIN AR TRES W  DIS CAZ7
 BAR2 SZ EP   1    448 21.81                             162    0.39 7 36.5 146 
 BAR2 SZ ES   1    448 35.25                             162    0.48 7 36.5 146 
 BAR2 SZ I         448 36.52        81.9 0.25            167           36.5 146 
 PAM  SZ EP        448 25.36                             141    0.4010 90.6  55 
 PAM  SN ES        448 41.13                             141    0.0710 90.6  55 
 PAM  SZ I         448 45.29         6.5 0.35            145           90.6  55 
 RUS  HZ EP        448 27.25                             135    0.5410  112 164 
 RUS  HN ES        448 43.82                             135   -0.3710  112 164 
 RUS  HZ I         448 45.41         6.8 0.23            138            112 164 
 PTB  HZ EP        448 27.11                             131   -0.1710  126 253 
 PTB  HN ES   1    448 44.50                             131   -0.69 7  126 253 
 PTB  HZ I         448 50.72         7.2 0.05            131            126 253 
 OCA  HZ EP   1    448 29.46                             125   -0.55 7  152   2 
 OCA  HN ES        448 49.84                             125   -0.22 9  152   2 
 OCA  HZ I         448 56.78         9.9 0.17            127            152   2 
 SPBC HN ES   1    448 50.03                             124   -0.43 7  155 210 
 ZAR  HZ EP   4    448 34.46                             120    1.91 0  179 293 
 ZAR  HN ES   1    448 55.30                             120    0.72 7  179 293 
 ZAR  HZ I         449  0.53         5.8 0.38            121            179 293 
 TAM  HZ EP   1    448 32.53                             120   -0.30 7  181 105 
 TAM  HN ES        448 54.64                             120   -0.43 9  181 105 
 TAM  HZ I         448 55.29         4.0 0.10            124            181 105 
 NOR  HN ES   1    449  3.00                             114    0.36 6  220 229 
 SML  HZ EP        448 37.90                             113    0.01 8  228 340 
 SML  HN ES        449  4.04                             113   -0.04 8  228 340 
 SML  HZ I         449 10.63        11.7 0.06            115            228 340 
 CHI  HZ EP        448 41.25                             111    0.27 8  250 189 
 CHI  HN ES   2 C  449  9.62                             111    0.03 4  250 189 
 CHI  HZ I         449 19.58         1.2 0.26            113            250 189 
 URE  HN ES   1    449 10.04                             110   -0.25 6  258 292 
 URE  HZ I         449 17.28         3.6 0.16            111            258 292 
                                                                                
