 2013  418 0840 38.5 L   6.778 -73.167144.0  RSN  8 0.3 1.6LRSN                1
 GAP=135        0.57       3.8     3.6  5.0 -0.3018E+01  0.2265E+01  0.1355E+01E
 Epicentro: LOS SANTOS - SANTANDER                                             3
 ACTION:UPD 13-05-22 14:39 OP:EP   STATUS:               ID:20130418084038 L   I
 2013-04-18-0840-00M.COL___250                                                 6
 STAT SP IPHASW D HRMM SECON CODA AMPLIT PERI AZIMU VELO AIN AR TRES W  DIS CAZ7
 BAR2 SZ EP        840 57.91                             172    0.0210 20.6 185 
 BAR2 SZ ES   1    841 13.03                             172    0.04 7 20.6 185 
 GIR2 SZ EP     D  840 57.98                             166   -0.0710 33.4 355 
 GIR2 SZ I         841 14.87         7.7 0.10            162           33.4 355 
 BRR  HZ EP        840 59.79                             153    0.3510 70.4 301 
 BRR  HN ES   1    841 15.84                             153    0.09 7 70.4 301 
 BRR  HZ I         841 21.07        10.0 0.26            148           70.4 301 
 PAM  SZ EP        841  0.70                             149   -0.0610 80.8  40 
 PAM  SN ES   1    841 18.16                             149    0.06 7 80.8  40 
 PAM  SZ I         841 20.20         5.7 0.48            149           80.8  40 
 RUS  HZ EP   1    841  2.00                             144    0.06 7 98.3 175 
 RUS  HN ES   2    841 20.22                             144    0.02 5 98.3 175 
 RUS  HZ I         841 21.82        12.0 0.34            146           98.3 175 
 PTB  HZ EP        841  4.59                             132   -0.51 9  145 260 
 PTB  HN ES   1    841 25.61                             132   -0.21 7  145 260 
 PTB  HZ I         841 31.41         6.8 0.34            130            145 260 
 OCA  HN ES   2    841 29.08                             129    0.04 5  162 354 
 HEL  HZ EP   2    841 19.25                             115    0.92 4  269 256 
 HEL  HN ES   4    841 51.82                             115    2.44 0  269 256 
 HEL  HZ I         841 55.95         1.9 0.46            113            269 256 
                                                                                
