 2014  518 0921 42.1 L   6.805 -73.087148.2  RSN  7 0.5 1.7LRSN                1
 GAP=206        1.16       4.2     7.9  9.3  0.8119E+01 -0.2272E+00 -0.7355E+01E
 Epicentro: LOS SANTOS - SANTANDER                                             3
 ACTION:UPD 15-03-16 16:58 OP:nd   STATUS:               ID:20140518092142 L   I
 OLDACT:REG 14-05-18 13:16 OP:spq  STATUS:               ID:20140518091808     3
 2014-05-18-0918-08M.COL___239                                                 6
 STAT SP IPHASW D HRMM SECON CODA AMPLIT PERI AZIMU VELO AIN AR TRES W  DIS CAZ7
 BRR  HZ EP        922  4.30                             151    0.4610 76.7 296 
 BRR  HN ES        922 21.67                             151    0.8810 76.7 296 
 RUS  HZ EP   1    922  6.55                             145    0.42 7  101 180 
 RUS  HE ES        922 23.97                             145   -0.8810  101 180 
 RUS  HZ I         922 26.22         2.4 0.40            145            101 180 
 SPBC HZ EP   1    922 11.06                             129   -0.17 7  168 221 
 SPBC HN ES        922 33.95                             129    0.01 9  168 221 
 SPBC HZ I         922 38.28         6.4 0.40            129            168 221 
 ZAR  HZ EP        922 15.18                             122   -0.14 8  210 291 
 ZAR  HE ES        922 40.62                             122   -0.59 8  210 291 
 ZAR  HZ I         922 46.53         4.8 0.30            122            210 291 
 NOR  HE ES        922 47.25                             118    0.23 8  240 235 
 SML  HZ EP        922 19.14                             118    0.01 8  246 334 
 SML  HE ES        922 47.49                             118   -0.51 8  246 334 
 SML  HZ I         922 50.70         7.3 0.24            118            246 334 
 CHI  HZ EP   1    922 20.53                             118    0.34 6  251 197 
 CHI  HN ES   1    922 49.71                             118   -0.18 6  251 197 
                                                                                
