 2015  618 0104 49.9 L   6.818 -73.113149.4  RSN 12 0.4 2.0LRSN                1
 GAP=186        0.96       2.8     4.5  5.3 -0.1640E+01  0.8715E+01 -0.1724E+01E
 Epicentro: LOS SANTOS - SANTANDER                                             3
 ACTION:UPD 15-09-10 22:13 OP:cam  STATUS:               ID:20150618010449 L   I
 OLDACT:REG 15-06-18 12:17 OP:drio STATUS:               ID:20150618005750     3
 2015-06-18-0057-50M.COL___318                                                 6
 STAT SP IPHASW D HRMM SECON CODA AMPLIT PERI AZIMU VELO AIN AR TRES W  DIS CAZ7
 BAR2 EZ EP        1 5 10.11                             170    0.0510 26.1 197 
 BAR2 EZ ES        1 5 25.35                             170   -0.4010 26.1 197 
 BAR2 EZ I         1 5 26.14        13.3 0.32            169           26.1 197 
 BRR  HZ EP     C  1 5 11.91                             152    0.3110 73.5 296 
 BRR  HN ES        1 5 29.29                             152    0.7910 73.5 296 
 BRR  HZ I         1 5 32.97        15.5 0.52            151           73.5 296 
 RUS  HZ EP        1 5 14.60                             144    0.4310  102 178 
 RUS  HE ES        1 5 32.60                             144   -0.4810  102 178 
 RUS  HZ I         1 5 35.08         5.1 0.34            146            102 178 
 OCA  HZ EP        1 5 18.17                             131   -0.22 9  159 352 
 OCA  HN ES        1 5 40.57                             131   -0.01 9  159 352 
 OCA  HZ I         1 5 46.73        23.8 0.38            132            159 352 
 ZAR  HZ EP        1 5 23.39                             123    0.51 8  207 291 
 ZAR  HN ES        1 5 48.48                             123   -0.10 8  207 291 
 ZAR  HZ I         1 5 54.33        13.0 0.26            123            207 291 
 NOR  HZ EP        1 5 26.25                             119   -0.06 8  239 235 
 NOR  HE ES        1 5 54.39                             119   -0.29 8  239 235 
 NOR  HZ I         1 5 57.41         6.7 0.38            120            239 235 
 SML  HZ EP        1 5 26.23                             118   -0.51 8  243 334 
 SML  HE ES        1 5 55.23                             118   -0.21 8  243 334 
 SML  HZ I         1 5 57.20        16.0 0.10            120            243 334 
 HEL  HZ EP        1 5 30.85                             115    0.08 7  276 256 
 HEL  HN ES        1 6  1.70                             115   -0.92 7  276 256 
 HEL  HZ I         1 6  7.29         3.7 0.48            116            276 256 
 URE  HZ EP        1 5 31.25                             114   -0.22 7  286 291 
 URE  HN ES   4    1 6  1.67                             114   -2.20 0  286 291 
 URE  HZ I         1 6  3.48         9.5 0.14            115            286 291 
 GUY2CHZ EP        1 5 34.66                             113    0.49 7  305 235 
 GUY2CHN ES        1 6  9.16                             113    0.49 7  305 235 
 GUY2CHZ I         1 6 18.15         3.9 0.58                           305 235 
 TOL  SE ES        1 6 17.04                             110    0.15 6  347 225 
 TOL  SZ I         1 6 27.01         2.4 0.36            111            347 225 
 SJC  HZ EP        1 5 45.44                             106   -0.22 6  410 326 
 SJC  HN ES   4    1 6 25.45                             106   -3.66 0  410 326 
 SJC  HZ I         1 6 29.62         2.8 0.50            107            410 326 
                                                                                
