 2013  318 0950 50.0 L   6.793 -73.161148.9  RSN 12 0.5 2.5LRSN                1
 GAP= 71        0.97       3.0     4.7  5.7  0.1791E+01  0.1501E+01 -0.1618E+00E
 Epicentro: LOS SANTOS - SANTANDER                                             3
 ACTION:UPD 13-04-09 14:03 OP:ep   STATUS:               ID:20130318095050 L   I
 2013-03-18-0950-00M.COL___243                                                 6
 STAT SP IPHASW D HRMM SECON CODA AMPLIT PERI AZIMU VELO AIN AR TRES W  DIS CAZ7
 BAR2 SZ IP        951 10.14                             171    0.1510 22.3 186 
 BAR2 SZ ES   1    951 25.22                             171   -0.37 7 22.3 186 
 BAR2 SZ I         951 27.86        46.2 0.26            168           22.3 186 
 BRR  HZ EP     D  951 12.00                             153    0.5710 70.1 300 
 BRR  HN ES        951 29.00                             153    0.8510 70.1 300 
 BRR  HN I         951 29.95        68.0 0.24            148           70.1 300 
 PAM  SZ EP        951 12.90                             151    0.2510 79.0  40 
 PAM  SN ES   2    951 30.00                             151   -0.32 5 79.0  40 
 PAM  SN I         951 31.57        51.6 0.46            155           79.0  40 
 RUS  HZ EP        951 14.07                             145    0.0510 99.9 175 
 RUS  HN ES        951 32.43                             145   -0.3310 99.9 175 
 RUS  HN I         951 34.15        39.8 0.44            146           99.9 175 
 PTB  HZ EP        951 16.59                             133   -0.48 9  146 259 
 PTB  HN ES   2    951 37.81                             133   -0.37 5  146 259 
 PTB  HZ I         951 43.96        15.4 0.30            130            146 259 
 TAM  HZ EP        951 18.29                             131    0.23 9  157 105 
 OCA  HZ EP        951 18.58                             130   -0.03 9  161 354 
 OCA  HN ES        951 40.21                             130   -0.72 9  161 354 
 OCA  HN I         951 44.56       129.1 0.30            130            161 354 
 ZAR  HZ EP        951 22.81                             123    0.28 9  203 293 
 ZAR  HN ES   2    951 48.56                             123    0.66 4  203 293 
 ZAR  HN I         951 54.88        40.0 0.32            122            203 293 
 SML  HZ EP        951 26.51                             118   -0.30 8  244 336 
 SML  HN ES   1    951 54.94                             118   -0.58 6  244 336 
 SML  HN I         952  3.80        68.8 0.30            118            244 336 
 CHI  HZ EP   1    951 28.20                             118    0.45 6  247 195 
 CHI  HN ES        951 56.72                             118   -0.48 8  247 195 
 CHI  HN I         952  4.76        13.0 0.62            118            247 195 
 ROSC BZ EP   4    951 30.65                             117    2.52 0  251 211 
 URE  HZ EP   4    951 27.50                             114   -3.59 0  283 292 
 URE  HN ES   2    952  2.26                             114   -0.87 4  283 292 
 URE  HN I         952 11.24        19.9 0.26            113            283 292 
 PRA  HZ EP        951 43.70                             107    0.24 6  391 209 
 PRA  HN ES   2    952 24.41                             107   -0.75 3  391 209 
 PRA  HN I         952 29.47         5.3 0.30            107            391 209 
 SJC  HE ES   4    952 24.57                             106   -4.46 0  409 327 
                                                                                
