 2013  818 0405 44.4 L   6.820 -73.142136.0  RSN  6 0.4 1.3LRSN                1
 GAP=201        0.69       6.7     5.5 10.6  0.2409E+02 -0.2466E+02 -0.5268E+02E
 Epicentro: LOS SANTOS - SANTANDER                                             3
 ACTION:UPD 14-01-14 09:04 OP:ep   STATUS:               ID:20130818040543 L   I
 OLDACT:UP  13-08-20 15:00 OP:ep   STATUS:               ID:20130818040543 L   3
 OLDACT:UP  13-08-19 05:25 OP:CF   STATUS:               ID:20130818040543 L   3
 OLDACT:DUP 13-08-18 12:53 OP:stll STATUS:               ID:20130818035852d    3
 2013-08-18-0358-50M.COL___201                                                 6
 STAT SP IPHASW D HRMM SECON CODA AMPLIT PERI AZIMU VELO AIN AR TRES W  DIS CAZ7
 BAR2 SZ EP   3    4 6  2.72                             167   -0.22 3 25.6 190 
 BAR2 SZ ES   3    4 6 17.69                             167    0.32 3 25.6 190 
 BAR2 SZ I         4 6 19.41         4.3 0.38            168           25.6 190 
 BRR  HZ EP   3    4 6  5.21                             150    0.71 3 70.6 297 
 BRR  HN ES   3    4 6 20.79                             150    0.65 3 70.6 297 
 BRR  HN I         4 6 23.97         5.9 0.24            150           70.6 297 
 RUS  HZ EP        4 6  7.15                             139   -0.2510  103 176 
 RUS  HN ES        4 6 25.24                             139   -0.0710  103 176 
 PTB  HZ EP        4 6 11.28                             128    0.58 9  149 258 
 PTB  HN ES        4 6 31.10                             128   -0.09 9  149 258 
 PTB  HZ I         4 6 38.83         2.8 0.48            131            149 258 
 ZAR  HZ EP        4 6 16.57                             119    0.35 9  204 292 
 ZAR  HN ES        4 6 40.60                             119   -0.41 9  204 292 
 SML  HZ EP        4 6 20.10                             115   -0.23 8  242 335 
 SML  HN ES   4    4 6 46.48                             115   -1.85 0  242 335 
                                                                                
