 2011  918 0915 59.2 L   6.800 -73.132141.7  RSN  8 0.3 2.0LRSN                1
 GAP=138        0.59       3.4     6.5  5.1 -0.1549E+01  0.2069E+01 -0.3210E+01E
 Epicentro: LOS SANTOS - SANTANDER                                             3
 ACTION:UPD 12-07-13 15:58 OP:ep   STATUS:               ID:20110918091559 L   I
 2011-09-18-0900-00M.COL___173                                                 6
 STAT SP IPHASW D HRMM SECON CODA AMPLIT PERI AZIMU VELO AIN AR TRES W  DIS CAZ7
 BTL  SZ EP        916 18.52                             172    0.2310 19.8 311 
 BAR2 SZ EP        916 18.33                             170   -0.0310 23.7 193 
 BAR2 SZ I         916 18.62        22.5 0.36                          23.7 193 
 BAR2 SZ ES   1    916 33.47                             170    0.17 7 23.7 193 
 GIR2 SZ EP        916 18.28                             167   -0.1310 31.5 348 
 GIR2 SZ ES   2    916 32.25                             167   -1.14 5 31.5 348 
 BRR  HZ EP   2    916 20.03                             151    0.03 5 72.5 298 
 BRR  HE ES   2    916 36.55                             151    0.34 5 72.5 298 
 PAM  SZ EP        916 20.94                             150    0.0010 76.4  39 
 PAM  SN ES   1    916 38.15                             150    0.26 7 76.4  39 
 RUS  HZ EP        916 22.30                             143   -0.2610  101 177 
 RUS  HE ES   1    916 40.95                             143    0.17 7  101 177 
 OCA  SZ EP        916 27.29                             129    0.07 9  160 353 
 OCA  SZ I         916 52.07         8.5 0.37                           160 353 
 ZAR  HN ES   3    916 56.78                             121    0.03 2  205 292 
 ZAR  HZ I         917  1.98         9.4 0.26                           205 292 
                                                                                
