 2016  718 0928 25.0 L   6.804 -73.135143.2  RSN 10 0.4 2.1LRSN                1
 GAP=101        1.09       3.8     3.8  5.9 -0.1186E+01  0.2971E+01  0.4200E+01E
 Epicentro: LOS SANTOS - SANTANDER                                             3
 ACTION:UPD 17-03-29 16:52 OP:lp   STATUS:               ID:20160718092825 L   I
 OLDACT:DUP 16-07-18 19:46 OP:ar   STATUS:               ID:20160718091760d    3
 OLDACT:REG 16-07-18 16:25 OP:ar   STATUS:               ID:20160718091759     3
 2016-07-18-0917-59S.COL___307                                                 6
 STAT SP IPHASW D HRMM SECON CODA AMPLIT PERI AZIMU VELO AIN AR TRES W  DIS CAZ7
 BAR2 EZ EP        928 44.05                             170   -0.3010 24.0 193 
 BAR2 EZ ES        928 58.72                             170   -0.7110 24.0 193 
 BAR2 EZ I         928 59.84        49.3 0.34            168           24.0 193 
 BRR  HZ IP     C  928 45.90                             152   -0.0310 72.0 298 
 BRR  HN ES        929  3.11                             152    0.8610 72.0 298 
 BRR  HZ I         929  5.83        21.9 0.38            151           72.0 298 
 PAM  EZ EP        928 47.04                             151    0.1510 76.3  39 
 PAM  EN ES        929  4.09                             151    0.1410 76.3  39 
 PAM  EZ I         929  5.51        37.9 0.70            155           76.3  39 
 RUS  HZ EP        928 48.74                             143    0.2010  101 177 
 RUS  HE ES        929  6.70                             143   -0.2010  101 177 
 RUS  HZ I         929  8.84        11.0 0.46            144            101 177 
 PTB  HZ EP        928 51.03                             131   -0.86 9  149 259 
 PTB  HE ES        929 12.65                             131   -0.20 9  149 259 
 TAM  HZ EP        928 52.45                             130    0.06 9  154 105 
 SPBC HZ EP        928 53.17                             128   -0.25 9  164 219 
 SPBC HN ES        929 15.90                             128    0.31 9  164 219 
 SPBC HZ I         929 21.24        20.2 0.26            128            164 219 
 ZAR  HZ EP        928 57.31                             122   -0.08 9  205 292 
 ZAR  HE ES        929 22.84                             122    0.20 9  205 292 
 ZAR  HZ I         929 27.87        20.3 0.40            122            205 292 
 NOR  HZ EP        929  0.42                             118   -0.31 8  236 235 
 NOR  HN ES        929 28.51                             118   -0.08 8  236 235 
 NOR  HZ I         929 33.85         6.9 0.26            118            236 235 
 CHI  HZ EP        929  3.45                             116    0.79 8  249 195 
 CHI  HN ES        929 32.66                             116    0.64 8  249 195 
 CHI  HZ I         929 37.70         5.1 0.26            117            249 195 
                                                                                
