 2011  118 0744 17.7 L   6.796 -73.205137.6  RSN  5 0.2 1.6LRSN                1
 GAP=162        0.49       2.4    11.3  5.1 -0.6521E+01  0.1017E+02 -0.3372E+01E
 Epicentro: ZAPATOCA - SANTANDER                                               3
 ACTION:UP  11-02-08 08:41 OP:pat  STATUS:               ID:20110118074417 L   I
 2011-01-18-0740-09S.COL___134                                                 6
 STAT SP IPHASW D HRMM SECON CODA AMPLIT PERI AZIMU VELO SNR AR TRES W  DIS CAZ7
 BAR2 SZ EP   1    744 36.45                             170     0.1 8   23 174 
 BAR2 SZ ES   1    744 51.13                             170     0.3 8   23 174 
 BAR2 SZ I         744 52.68        21.6 0.26                            23 174 
 RUS  HZ EP   1    744 40.68                             142     0.0 8  101 172 
 RUS  HE ES   1    744 58.29                             142    -0.3 8  101 172 
 RUS  HZ I         745  0.02         4.9 0.40                           101 172 
 GRA  SZ IP        744 42.54                             134     0.110  128  20 
 GRA  SZ I         744 43.92         7.2 0.25                           128  20 
 GRA  SZ ES   1    745  1.63                             134    -0.1 7  128  20 
 OCA  SZ EP   1    744 45.46                             128     0.1 7  160 355 
 OCA  SZ ES   1    745  6.68                             128    -0.3 7  160 355 
 OCA  SZ I         745  8.53         8.1 0.47                           160 355 
 CHI  HZ EP   2    744 54.59                             115    -0.1 4  247 194 
 CHI  HZ I         744 57.10         1.1 0.29                           247 194 
                                                                                
