 2011 1218 0325 39.5 L   6.758 -73.105139.3  RSN 11 0.3 2.0LRSN                1
 GAP=144        0.43       2.5     3.0  4.9 -0.3088E+01  0.3307E+01  0.2640E+01E
 Epicentro: LOS SANTOS - SANTANDER                                             3
 ACTION:UPD 12-07-13 16:16 OP:ep   STATUS:               ID:20111218032539 L   I
 2011-12-18-0320-00M.COL___187                                                 6
 STAT SP IPHASW D HRMM SECON CODA AMPLIT PERI AZIMU VELO AIN AR TRES W  DIS CAZ7
 BAR2 SZ IP        325 58.25                             171   -0.0610 20.3 205 
 BAR2 SZ I         325 58.80        32.4 0.40                          20.3 205 
 GIR2 SZ EP        325 58.37                             165   -0.2210 36.7 345 
 GIR2 SZ ES   2    326 13.46                             165    0.00 5 36.7 345 
 BRR  HZ IP     C  326  0.15                             149   -0.2010 77.4 300 
 BRR  HZ I         326  0.54        32.8 0.09                          77.4 300 
 BRR  HN ES   2    326 17.07                             149    0.48 5 77.4 300 
 PAM  SZ EP        326  1.28                             149    0.1710 78.3  35 
 PAM  SN ES   2    326 18.03                             149    0.08 5 78.3  35 
 RUS  HZ EP   1    326  2.26                             144   -0.03 7 95.8 179 
 RUS  HN ES   2    326 20.23                             144    0.18 5 95.8 179 
 RUS  HZ I         326 22.06         8.2 0.26                          95.8 179 
 OCA  SZ EP   2    326  8.33                             127    0.49 5  165 352 
 OCA  SZ ES   2    326 29.72                             127   -0.20 5  165 352 
 OCA  SZ I         326 31.00        14.2 0.49                           165 352 
 NOR  SN ES   1    326 42.88                             117    0.20 6  236 236 
 CHI  HZ EP   2    326 16.60                             116    0.08 4  245 196 
 CHI  HN ES   2    326 45.09                             116   -0.29 4  245 196 
 CHI  HZ I         326 48.96         2.7 0.41                           245 196 
 HEL  HZ EP   2    326 20.14                             113    0.35 4  275 257 
 HEL  HN ES   2    326 50.65                             113   -0.54 4  275 257 
 HEL  HZ I         326 57.30         6.5 0.57                           275 257 
 GUY  SZ EP   2    326 23.43                             111    0.19 4  305 236 
 GUY  SE ES   2    326 56.88                             111   -0.45 4  305 236 
 GUY  SZ I         327  2.29         7.1 0.44                           305 236 
 RREF HN ES   1    327  1.69                             110    0.41 5  322 231 
 RREF HZ I         327  6.40         4.4 0.63                           322 231 
                                                                                
