 2013  618 0234 37.0 L   6.792 -73.135150.2  RSN  5 0.4 1.7LRSN                1
 GAP=202        0.73       5.7     7.2  7.2  0.1691E+02 -0.3186E+01 -0.1288E+02E
 Epicentro: LOS SANTOS - SANTANDER                                             3
 ACTION:UPD 14-01-08 09:55 OP:ep   STATUS:               ID:20130618023437 L   I
 OLDACT:DUP 13-06-18 09:42 OP:carl STATUS:               ID:20130618022960d    3
 2013-06-18-0229-59M.COL___261                                                 6
 STAT SP IPHASW D HRMM SECON CODA AMPLIT PERI AZIMU VELO AIN AR TRES W  DIS CAZ7
 BAR2 SZ EP   1    234 57.20                             171    0.05 7 22.7 193 
 BAR2 SZ ES   1    235 12.25                             171   -0.62 7 22.7 193 
 BAR2 SZ I         235 13.85         5.8 0.22            173           22.7 193 
 BRR  HZ EP   1    234 59.02                             153    0.31 7 72.7 299 
 BRR  HN ES   1    235 16.35                             153    0.70 7 72.7 299 
 BRR  HN I         235 20.76        14.1 0.20            154           72.7 299 
 RUS  HZ EP   1    235  1.21                             145    0.09 7 99.6 177 
 RUS  HN ES   1    235 20.06                             145    0.12 7 99.6 177 
 RUS  HZ I         235 22.67         4.0 0.36            149           99.6 177 
 PTB  HZ EP   1    235  4.29                             133   -0.13 7  149 259 
 PTB  HN ES   1    235 25.45                             133   -0.36 7  149 259 
 PTB  HZ I         235 27.30         5.1 0.38            136            149 259 
 SML  HZ EP   1    235 13.94                             118   -0.07 6  245 335 
 SML  HE ES   2    235 42.27                             118   -0.62 4  245 335 
 SML  HZ I         235 45.08         5.6 0.10            121            245 335 
                                                                                
