 2017  218 0204 25.9 L   6.779 -73.184133.7  RSN  9 0.3 1.6LRSN                1
 GAP=133        0.88       3.2     3.4  5.3  0.2918E+00  0.5539E+01  0.3519E+01E
 Epicentro: LOS SANTOS - SANTANDER                                             3
 ACTION:UPD 17-05-24 15:37 OP:jn   STATUS:               ID:20170218020425 L   I
 OLDACT:REG 17-02-18 13:14 OP:cara STATUS:               ID:20170218015742     3
 2017-02-18-0158-00M.COL___352                                                 6
 STAT SP IPHASW D HRMM SECON CODA AMPLIT PERI AZIMU VELO AIN AR TRES W  DIS CAZ7
 BAR2 EZ EP        2 4 43.98                             171   -0.0010 20.7 180 
 BAR2 EZ ES        2 4 57.93                             171   -0.1910 20.7 180 
 BAR2 EZ I         2 4 59.68        12.7 0.28            169           20.7 180 
 BRR  HZ EP        2 4 45.68                             151    0.1110 68.7 302 
 BRR  HE ES        2 5  1.64                             151    0.7010 68.7 302 
 PAM  EZ IP     C  2 4 46.83                             147   -0.2710 81.8  41 
 PAM  EN ES        2 5  3.43                             147   -0.2310 81.8  41 
 PAM  EZ I         2 5  5.59         8.3 0.52            152           81.8  41 
 RUS  HZ EP        2 4 48.43                             142    0.1310 98.7 174 
 RUS  HN ES        2 5  6.06                             142    0.2610 98.7 174 
 RUS  HZ I         2 5  8.46         4.5 0.30            142           98.7 174 
 PTB  HZ EP        2 4 51.00                             130   -0.44 9  143 259 
 PTB  HN ES        2 5 10.61                             130   -0.79 9  143 259 
 PTB  HZ I         2 5 15.13         4.8 0.12            130            143 259 
 ZAR  HZ EP        2 4 57.68                             120    0.45 9  201 293 
 ZAR  HN ES        2 5 21.77                             120    0.07 9  201 293 
 ZAR  HZ I         2 5 27.68         6.9 0.18            121            201 293 
 NOR  HZ EP        2 5  0.38                             116   -0.02 8  230 234 
 NOR  HN ES        2 5 27.47                             116    0.13 8  230 234 
 NOR  HZ I         2 5 33.12         2.4 0.18            117            230 234 
 CHI  HZ EP        2 5  2.74                             115    0.19 8  245 194 
 CHI  HE ES        2 5 31.17                             115   -0.00 8  245 194 
 CHI  HZ I         2 5 36.17         1.3 0.24            116            245 194 
 URE  HZ EP   4    2 5  7.19                             111    1.16 0  281 293 
 URE  HE ES   4    2 5 34.87                             111   -2.49 0  281 293 
 URE  HZ I         2 5 37.06         5.5 0.34            113            281 293 
                                                                                
