 2010  918 0850 51.2 L   5.999 -73.676111.4  RSN 16 0.4 2.3LRSN                1
 GAP= 82        0.87       2.9     4.3  7.5 -0.6850E+01  0.1403E+02 -0.3099E+01E
 Epicentro: VELEZ - SANTANDER                                                  3
 ACTION:UP  11-02-18 11:03 OP:tino STATUS:               ID:20100918085051 L   I
 2010-09-18-0846-43S.COL___121                                                 6
 STAT SP IPHASW D HRMM SECON CODA AMPLIT PERI AZIMU VELO SNR AR TRES W  DIS CAZ7
 RUS  HZ IP     D  851  9.08                             147    -0.110   67 100 
 RUS  HZ I         851  9.73        23.9 0.37                            67 100 
 RUS  HN ES   2    851 23.26                             147     0.1 5   67 100 
 BAR2 SZ IP     C  851 10.29                             140     0.210   85  40 
 BAR2 SZ ES   1    851 24.80                             140    -0.1 7   85  40 
 BAR2 SZ I         851 26.19        94.8 0.34                            85  40 
 BTL  SZ EP        851 12.46                             132     0.110  111  24 
 BRR  HZ EP        851 12.97                             128    -0.110  123 358 
 BRR  HN ES   1    851 30.47                             128     0.3 7  123 358 
 BRR  HZ I         851 34.43        30.8 0.15                           123 358 
 GIR2 SZ EP        851 13.80                             127    -0.310  131  24 
 GIR2 SZ ES   2    851 31.50                             127    -0.4 5  131  24 
 NOR  HZ EP        851 14.32                             124    -0.7 9  141 250 
 NOR  HN ES   2    851 34.10                             124     0.6 5  141 250 
 ROSC BZ EP        851 16.75                             123     0.7 9  147 209 
 ROSC BZ I         851 41.49        17.4 0.41                           147 209 
 CHI  HZ EP        851 16.16                             122    -0.4 9  152 182 
 CHI  HE ES   1    851 36.05                             122    -0.2 7  152 182 
 CHI  HZ I         851 43.99        20.9 0.23                           152 182 
 HEL  HZ EP        851 22.37                             114     0.0 8  206 276 
 HEL  HN ES   3    851 45.35                             114    -1.3 2  206 276 
 HEL  HZ I         851 47.41         9.2 0.14                           206 276 
 GUY  SZ EP        851 22.81                             114     0.3 8  206 246 
 GUY  SE ES   2    851 47.00                             114     0.1 4  206 246 
 GUE  SZ EP        851 24.17                             112     0.5 8  219  22 
 RREF HZ EP   1    851 24.18                             112    -0.2 6  222 237 
 RREF HZ I         851 57.21        12.3 0.13                           222 237 
 GRA  SZ EP        851 25.08                             111     0.3 8  230  25 
 GRA  SZ I         851 54.72        34.5 0.75                           230  25 
 TOL  SZ EP        851 26.12                             110    -0.1 8  240 229 
 OCA  SZ EP        851 26.89                             109    -0.3 8  251   9 
 OCA  SZ ES   1    851 54.97                             109    -0.3 6  251   9 
 OCA  SZ I         852  4.74        19.5 0.40                           251   9 
 ANIL HZ EP   2    851 27.25                             108    -0.5 4  254 229 
 ANIL HE ES   2    851 56.91                             108     0.7 4  254 229 
 ANIL HZ I         852  2.65        32.8 0.28                           254 229 
                                                                                
