 2012 1118 0023 47.2 L   6.777 -73.134138.0  RSN  7 0.4 1.5LRSN                1
 GAP=139        0.78       4.9     4.5  7.0  0.1079E+01  0.6410E+01  0.4218E+01E
 Epicentro: LOS SANTOS - SANTANDER                                             3
 ACTION:UPD 12-12-05 15:34 OP:}ep  STATUS:               ID:20121118002347 L   I
 2012-11-18-0020-00M.COL___234                                                 6
 STAT SP IPHASW D HRMM SECON CODA AMPLIT PERI AZIMU VELO AIN AR TRES W  DIS CAZ7
 BAR2 SZ EP   1    024  5.75                             171   -0.10 7 21.1 195 
 BAR2 SZ ES   1    024 20.62                             171    0.22 7 21.1 195 
 BAR2 SZ I         024 21.78        12.2 0.16                          21.1 195 
 GIR2 SZ EP   1    024  5.73                             165   -0.30 7 34.0 349 
 GIR2 SZ ES   1    024 20.38                             165   -0.34 7 34.0 349 
 BRR  HN ES   1    024 24.33                             150    0.72 7 73.6 300 
 PAM  SZ EP   1    024  8.87                             149    0.20 7 78.6  38 
 PAM  SN ES   1    024 25.13                             149   -0.29 7 78.6  38 
 PAM  SZ I         024 27.80         5.8 0.44                          78.6  38 
 RUS  HZ EP   1    024 10.09                             143    0.10 7 97.9 177 
 RUS  HZ I         024 26.94         3.6 0.58                          97.9 177 
 RUS  HN ES   1    024 27.93                             143    0.15 7 97.9 177 
 PTB  HZ EP   1    024 13.83                             130    0.22 7  149 260 
 PTB  HN ES   1    024 33.34                             130   -0.88 7  149 260 
 PTB  HZ I         024 36.35         3.7 0.12                           149 260 
 ZAR  HN ES   1    024 44.75                             120    0.28 6  206 293 
                                                                                
