 2017 1118 0019 19.2 L   6.791 -73.159143.9  RSN 12 0.6 1.7LRSN                1
 GAP=118        1.08       3.1     4.2  5.9 -0.2183E+01  0.4545E+01  0.9246E+00E
 Epicentro: LOS SANTOS - SANTANDER                                             3
 ACTION:UPD 17-12-12 19:56 OP:rebc STATUS:               ID:20171118001919 L   I
 OLDACT:UP  17-11-18 11:50 OP:mg   STATUS:               ID:20171118001742     3
 OLDACT:UP  17-11-18 11:50 OP:mg   STATUS:               ID:20171118001742     3
 OLDACT:REG 17-11-18 09:51 OP:mg   STATUS:               ID:20171118001742     3
 2017-11-18-0018-00M.COL___473                                                 6
 STAT SP IPHASW D HRMM SECON CODA AMPLIT PERI AZIMU VELO AIN AR TRES W  DIS CAZ7
 BAR2 EZ ES        019 53.79                             171    0.0410 22.1 187 
 BAR2 EZ I         019 54.99        15.3 0.34            169           22.1 187 
 PAM  EZ EP        019 41.51                             150    0.1510 79.1  40 
 PAM  EE ES        019 58.45                             150   -0.1710 79.1  40 
 PAM  EZ I         020  0.75         6.0 0.54            154           79.1  40 
 RUS  HZ EP        019 42.84                             144    0.0910 99.7 175 
 RUS  HN ES        020  1.44                             144    0.3610 99.7 175 
 RUS  HZ I         020  2.27         7.1 0.26            144           99.7 175 
 PTB  HZ EP        019 45.94                             132    0.03 9  146 259 
 PTB  HN ES        020  6.36                             132   -0.36 9  146 259 
 PTB  HZ I         020 12.68         3.4 0.28            131            146 259 
 SPBC HZ EP   2    019 48.76                             129    1.32 5  161 219 
 SPBC HN ES        020  9.58                             129    0.15 9  161 219 
 SPBC HZ I         020 14.03         9.4 0.19            129            161 219 
 ZAR  HN ES        020 15.95                             122   -0.66 9  203 293 
 ZAR  HZ I         020 23.76         6.0 0.16            122            203 293 
 NOR  HZ EP        019 54.30                             118   -0.37 8  233 234 
 NOR  HN ES        020 22.01                             118   -0.30 8  233 234 
 NOR  HZ I         020 31.87         2.1 0.21            118            233 234 
 CHI  HZ EP        019 57.57                             117    0.88 8  247 195 
 CHI  HN ES        020 26.38                             117    0.48 8  247 195 
 CHI  HZ I         020 28.49         2.3 0.07            118            247 195 
 DRL03HZ EP        020  0.51                             113   -0.35 7  290 353 
 DRL03HN ES        020 34.17                             113    0.85 7  290 353 
 GUY2CHZ EP   3    020  3.76                             112    1.19 2  299 235 
 GUY2CHN ES   3    020 38.76                             112    2.40 2  299 235 
 PTGC HZ EP        020  1.98                             111   -0.99 7  308 158 
 PTGC HN ES   2    020 35.65                             111   -1.42 4  308 158 
 PTGC HZ I         020 41.10         6.4 0.48            113            308 158 
 PRA  HZ EP        020 12.61                             106    0.10 6  390 209 
 PRA  HN ES        020 53.27                             106   -0.79 6  390 209 
 PRA  HZ I         020 58.87         3.4 0.49            107            390 209 
                                                                                
