 2017  718 0902  7.3 L   6.186 -73.660107.9  RSN  7 0.3 1.4LRSN                1
 GAP= 96        0.75       2.7     2.6  6.0  0.2241E+01  0.2493E+00 -0.1045E+01E
 Epicentro: LA PAZ - SANTANDER                                                 3
 ACTION:UPD 17-08-30 15:34 OP:rebc STATUS:               ID:20170718090207 L   I
 OLDACT:REG 17-07-18 13:56 OP:dnl  STATUS:               ID:20170718085743     3
 2017-07-18-0858-00M.COL___368                                                 6
 STAT SP IPHASW D HRMM SECON CODA AMPLIT PERI AZIMU VELO AIN AR TRES W  DIS CAZ7
 BAR2 EZ EP        9 2 24.88                             145    0.1410 69.3  50 
 BAR2 EZ ES        9 2 38.65                             145    0.3210 69.3  50 
 BAR2 EZ I         9 2 40.34        19.8 0.42             56           69.3  50 
 RUS  HZ EP        9 2 24.99                             144   -0.2810 71.7 117 
 RUS  HN ES        9 2 38.94                             144   -0.3310 71.7 117 
 RUS  HZ I         9 2 40.11         3.0 0.34             56           71.7 117 
 SPBC HZ EP        9 2 25.25                             143    0.3310 74.6 218 
 SPBC HN ES        9 2 38.95                             143    0.3110 74.6 218 
 SPBC HZ I         9 2 40.29         5.9 0.18             56           74.6 218 
 PTB  HZ EP   2    9 2 25.79                             135   -0.77 5 96.3 294 
 PTB  HN ES        9 2 41.09                             135   -0.4810 96.3 294 
 PTB  HZ I         9 2 43.58         3.2 0.12            102           96.3 294 
 BRR  HZ EP        9 2 27.04                             133    0.0110  102 357 
 BRR  HN ES        9 2 42.44                             133    0.0310  102 357 
 BRR  HZ I         9 2 47.80         5.0 0.24             56            102 357 
 YPLC HZ EP   2    9 2 33.84                             118    0.27 5  167 122 
 YPLC HN ES        9 2 53.95                             118   -0.10 9  167 122 
 YPLC HZ I         9 2 56.51         5.7 0.28             55            167 122 
 ZAR  HZ I         9 0 46.10         2.6 0.38            140            196 318 
 ZAR  HN ES        9 2 59.85                             114    0.22 9  196 318 
                                                                                
