 2012  618 0605 54.5 L   6.809 -73.186144.0  RSN  8 0.4 2.3LRSN                1
 GAP=131        0.62       2.8     3.8  4.7 -0.2242E+01  0.4772E+01  0.5426E+00E
 Epicentro: LOS SANTOS - SANTANDER                                             3
 ACTION:UPD 12-08-06 17:50 OP:ep   STATUS:               ID:20120618060600 L   I
 2012-06-18-0600-00M.COL___199                                                 6
 STAT SP IPHASW D HRMM SECON CODA AMPLIT PERI AZIMU VELO AIN AR TRES W  DIS CAZ7
 BAR2 SZ IP        6 6 14.12                             170    0.1410 24.0 179 
 BAR2 SZ ES   1    6 6 28.87                             170   -0.26 7 24.0 179 
 BAR2 SZ I         6 6 30.29        80.2 0.24            171           24.0 179 
 PAM  SZ EP        6 6 16.91                             150    0.2110 79.5  42 
 PAM  SZ I         6 6 17.14        22.7 0.24            142           79.5  42 
 PAM  SN ES   1    6 6 34.26                             150    0.28 7 79.5  42 
 RUS  HZ EP        6 6 18.14                             143   -0.0910  102 174 
 RUS  HE ES   1    6 6 36.76                             143    0.06 7  102 174 
 RUS  HZ I         6 6 37.40        21.0 0.46            144            102 174 
 PTB  HZ EP        6 6 20.72                             133   -0.27 9  144 258 
 PTB  HN ES   1    6 6 41.88                             133    0.26 7  144 258 
 PTB  HZ I         6 6 48.93        17.3 0.50            123            144 258 
 OCA  HZ EP        6 6 22.17                             130   -0.41 9  159 355 
 OCA  HZ I         6 6 50.15        32.7 0.22            120            159 355 
 ZAR  HZ EP   3    6 6 27.36                             123    0.95 2  200 292 
 ZAR  HN ES   2    6 6 51.60                             123    0.34 4  200 292 
 ZAR  HZ I         6 6 58.79        23.2 0.32            114            200 292 
 CHI  HZ EP        6 6 32.15                             117    0.02 8  249 194 
 CHI  HN ES   1    6 7  1.01                             117   -0.44 6  249 194 
 CHI  HZ I         6 7  4.64         5.5 0.52            113            249 194 
 PRA  HZ EP        6 6 48.02                             106    0.16 6  391 209 
 PRA  HE ES   2    6 7 30.90                             106    1.46 3  391 209 
 PRA  HZ I         6 7 37.09        18.2 0.28            102            391 209 
                                                                                
