 2010 1118 0432 43.5 L   6.782 -73.092143.5  RSN  5 0.3 1.5LRSN                1
 GAP=165        0.64       5.7     9.5  7.8  0.1027E+02 -0.3193E+02 -0.1612E+02E
 Epicentro: LOS SANTOS - SANTANDER                                             3
 ACTION:UP  10-12-17 16:53 OP:REBC STATUS:               ID:20101118043243 L   I
 2010-11-18-0427-53S.COL___128                                                 6
 STAT SP IPHASW D HRMM SECON CODA AMPLIT PERI AZIMU VELO SNR AR TRES W  DIS CAZ7
 BAR2 SZ EP   2    433  2.69                             171    -0.2 5   23 206 
 BAR2 SZ ES   1    433 17.73                             171    -0.3 8   23 206 
 BAR2 SZ I         433 19.30        15.0 0.26                            23 206 
 BRR  HZ EP   1    433  4.33                             150    -0.5 8   77 298 
 BRR  HZ I         433  5.09         6.4 0.11                            77 298 
 BRR  HE ES   1    433 21.66                             150     0.3 8   77 298 
 RUS  HZ EP   2    433  6.94                             144     0.0 5   98 179 
 RUS  HE ES   2    433 25.52                             144     0.4 5   98 179 
 RUS  HZ I         433 26.63         3.1 0.41                            98 179 
 GRA  SZ IP        433  8.76                             136     0.210  126  15 
 GRA  SZ I         433 10.14         4.0 0.15                           126  15 
 PRA  HZ EP   2    433 37.30                             106     0.2 3  393 210 
                                                                                
