 2017  718 0606 56.2 L   7.095 -73.722 17.1  RSN  7 0.4 1.8LRSN                1
 GAP=110        0.86       3.4     2.5  2.3  0.2305E+01  0.2090E+01  0.3018E+01E
 Epicentro: BARRANCABERMEJA - SANTANDER                                        3
 ACTION:UPD 17-08-30 15:34 OP:rebc STATUS:               ID:20170718060656 L   I
 OLDACT:UP  17-07-18 16:20 OP:dnl  STATUS:               ID:20170718055743d    3
 OLDACT:UP  17-07-18 16:19 OP:dnl  STATUS:               ID:20170718055743d    3
 OLDACT:DUP 17-07-18 16:10 OP:dnl  STATUS:               ID:20170718055743d    3
 2017-07-18-0558-00M.COL___371                                                 6
 STAT SP IPHASW D HRMM SECON CODA AMPLIT PERI AZIMU VELO AIN AR TRES W  DIS CAZ7
 BRR  HZ IP     C  6 6 58.89                             174   -0.1510 1.73  39 
 BRR  HZ I         6 7  1.07       201.6 0.12             91           1.73  39 
 BRR  HE ES        6 7  1.49                             174    0.2210 1.73  39 
 BAR2 EZ EP        6 7  9.33                             100   -0.2210 81.5 133 
 BAR2 EZ ES   4    6 7 17.78                             100   -2.19 0 81.5 133 
 BAR2 EZ I         6 7 23.00        19.4 0.62             47           81.5 133 
 PTB  HZ IP     D  6 7 12.42                              98    0.0710  102 233 
 PTB  HN ES        6 7 24.62                              98   -0.3410  102 233 
 PTB  HZ I         6 7 25.64        37.2 0.28             47            102 233 
 ZAR  HZ EP        6 7 17.19                              56    0.2410  133 289 
 ZAR  HN ES        6 7 32.79                              56   -0.3510  133 289 
 ZAR  HZ I         6 7 35.27        37.2 0.24             47            133 289 
 RUS  HZ EP        6 7 20.15                              56    0.42 9  151 152 
 RUS  HN ES        6 7 37.65                              56   -0.45 9  151 152 
 RUS  HZ I         6 7 41.36        13.3 0.18             47            151 152 
 NOR  HZ EP   2    6 7 27.52                              56    0.68 4  212 217 
 NOR  HN ES        6 7 51.48                              56    0.73 8  212 217 
 NOR  HZ I         6 7 54.89         2.6 0.16             37            212 217 
 HEL  HZ EP   4    6 7 31.14                              56    2.45 0  223 244 
 HEL  HN ES        6 7 53.94                              56   -0.11 8  223 244 
 HEL  HZ I         6 8  1.49         4.6 0.24             37            223 244 
                                                                                
