 2014  818 0637 23.4 L   6.792 -73.160147.0  RSN 11 0.6 2.1LRSN                1
 GAP=147        1.22       4.1     5.3  6.7 -0.7883E+01  0.8509E+01  0.4889E+01E
 Epicentro: LOS SANTOS - SANTANDER                                             3
 ACTION:UPD 14-09-15 21:51 OP:nd   STATUS:               ID:20140818063723 L   I
 OLDACT:REG 14-08-18 14:35 OP:stll STATUS:               ID:20140818062805     3
 2014-08-18-0628-05M.COL___257                                                 6
 STAT SP IPHASW D HRMM SECON CODA AMPLIT PERI AZIMU VELO AIN AR TRES W  DIS CAZ7
 BAR2 SZ IP     D  637 43.22                             171    0.1110 22.2 187 
 BAR2 SZ I         637 43.52        20.9 0.10            172           22.2 187 
 BAR2 SZ ES        637 58.56                             171    0.0410 22.2 187 
 BRR  HZ IP     C  637 45.08                             153    0.4910 70.3 300 
 BRR  HZ I         637 45.32        18.8 0.26            149           70.3 300 
 BRR  HE ES        638  1.86                             153    0.7110 70.3 300 
 PAM  SZ EP        637 45.95                             151    0.1510 79.1  40 
 PAM  SZ I         637 46.27        31.8 0.24            151           79.1  40 
 PAM  SE ES        638  2.69                             151   -0.6210 79.1  40 
 PTB  HZ EP        637 50.13                             133   -0.14 9  146 259 
 PTB  HN ES        638 10.98                             133   -0.28 9  146 259 
 PTB  HZ I         638 13.69        10.0 0.12            131            146 259 
 SPBC HZ EP        637 52.15                             130    0.36 9  161 219 
 SPBC HN ES        638 14.04                             130    0.07 9  161 219 
 SPBC HZ I         638 16.85        23.9 0.40            129            161 219 
 SML  HZ EP        637 59.48                             118   -0.59 8  244 336 
 SML  HN ES        638 28.34                             118   -0.37 8  244 336 
 SML  HZ I         638 35.47        14.1 0.20            117            244 336 
 CHI  HZ EP        638  1.10                             118    0.12 8  247 195 
 CHI  HZ I         638  2.02         6.8 0.50            118            247 195 
 CHI  HN ES        638 30.12                             118   -0.21 8  247 195 
 HEL  HZ EP   2    638  4.46                             115    1.02 4  270 256 
 HEL  HN ES        638 34.89                             115    0.19 8  270 256 
 HEL  HZ I         638 41.35         4.0 0.58            114            270 256 
 GUY2CHZ EP   2    638  7.83                             113    1.01 4  299 235 
 GUY2CHN ES        638 40.80                             113    0.08 7  299 235 
 GUY2CHZ I         638 48.03         5.4 0.34                           299 235 
 RREF HZ EP        638  8.59                             111   -0.76 7  320 229 
 RREF HN ES        638 44.49                             111   -0.73 7  320 229 
 TOL  SZ EP        638 12.96                             110    1.50 7  342 225 
 TOL  SE ES        638 47.58                             110   -1.40 7  342 225 
                                                                                
