 2017  918 0731 33.2 L   6.598 -73.391124.0  RSN  5 0.2 1.7LRSN                1
 GAP=124        0.52       2.5     3.0  4.2  0.3086E+01  0.6993E+01  0.2713E+01E
 Epicentro: HATO - SANTANDER                                                   3
 ACTION:UPD 17-10-05 19:13 OP:rebc STATUS:               ID:20170918073133 L   I
 OLDACT:UP  17-09-18 15:55 OP:leo  STATUS:               ID:20170918072742     3
 OLDACT:UP  17-09-18 15:53 OP:leo  STATUS:               ID:20170918072742     3
 OLDACT:UP  17-09-18 15:51 OP:leo  STATUS:               ID:20170918072742     3
 OLDACT:REG 17-09-18 13:52 OP:leo  STATUS:               ID:20170918072742     3
 2017-09-18-0728-00M.COL___423                                                 6
 STAT SP IPHASW D HRMM SECON CODA AMPLIT PERI AZIMU VELO AIN AR TRES W  DIS CAZ7
 BAR2 EZ EP        731 50.17                             169   -0.0610 23.1  91 
 BAR2 EZ ES        732  3.76                             169    0.2610 23.1  91 
 BAR2 EZ I         732  4.20        14.1 0.38            174           23.1  91 
 BRR  HZ EP        731 51.60                             150   -0.1710 66.6 328 
 BRR  HN ES        732  6.10                             150   -0.1410 66.6 328 
 BRR  HZ I         732  6.69        19.9 0.14            149           66.6 328 
 RUS  HZ EP        731 53.45                             144   -0.2610 85.1 156 
 RUS  HN ES        732  9.78                             144    0.0910 85.1 156 
 RUS  HZ I         732 10.52         5.4 0.30            146           85.1 156 
 ZAR  HZ EP        732  3.20                             119    0.38 9  190 301 
 ZAR  HE ES        732 25.88                             119   -0.03 9  190 301 
 ZAR  HZ I         732 31.18         6.3 0.38            119            190 301 
 NOR  HZ EP        732  4.05                             118    0.12 9  200 235 
 NOR  HN ES        732 27.79                             118   -0.09 9  200 235 
 NOR  HZ I         732 30.61         4.0 0.32            118            200 235 
                                                                                
