 2015  818 0721 38.7 L   6.797 -73.126151.0  RSN  7 0.3 1.5LRSN                1
 GAP=185        0.61       2.3     4.1  4.7  0.1110E+01  0.8410E+00 -0.1394E+01E
 Epicentro: LOS SANTOS - SANTANDER                                             3
 ACTION:UPD 15-09-15 23:03 OP:cam  STATUS:               ID:20150818072138 L   I
 OLDACT:DUP 15-08-18 15:46 OP:spq  STATUS:               ID:20150818071747d    3
 2015-08-18-0717-46M.COL___322                                                 6
 STAT SP IPHASW D HRMM SECON CODA AMPLIT PERI AZIMU VELO AIN AR TRES W  DIS CAZ7
 BAR2 EZ EP        721 58.72                             171   -0.2510 23.5 195 
 BAR2 EZ ES   1    722 14.85                             171    0.08 7 23.5 195 
 BAR2 EZ I         722 16.63         5.5 0.46            169           23.5 195 
 BRR  HZ EP        722  0.90                             153    0.3610 73.3 298 
 BRR  HE ES        722 17.87                             153    0.3010 73.3 298 
 BRR  HZ I         722 23.45         2.9 0.15            150           73.3 298 
 RUS  HZ EP   1    722  2.87                             145   -0.07 7  100 177 
 RUS  HE ES   1    722 21.75                             145   -0.10 7  100 177 
 RUS  HZ I         722 22.63         2.1 0.38            149            100 177 
 OCA  HZ EP   1    722  7.58                             131    0.10 7  161 352 
 OCA  HN ES        722 29.71                             131   -0.22 9  161 352 
 OCA  HZ I         722 34.30         5.7 0.44            132            161 352 
 SPBC HZ EP        722  7.85                             130    0.13 9  164 220 
 SPBC HE ES        722 30.15                             130   -0.19 9  164 220 
 SPBC HZ I         722 36.43         5.0 0.10            132            164 220 
 ZAR  HZ EP   1    722 12.28                             123    0.56 6  206 292 
 ZAR  HE ES        722 37.08                             123   -0.38 8  206 292 
 ZAR  HZ I         722 42.14         2.2 0.26            124            206 292 
 SML  HZ EP   1    722 15.46                             118   -0.30 6  245 335 
 SML  HE ES   1    722 44.62                             118   -0.04 6  245 335 
 SML  HZ I         722 51.53         3.6 0.24            120            245 335 
                                                                                
