 2017  218 0719 11.8 L   6.801 -73.170144.3  RSN  5 0.3 1.0LRSN                1
 GAP=133        0.74       3.9     4.1  6.1  0.3421E+01  0.3328E+01 -0.5899E+00E
 Epicentro: LOS SANTOS - SANTANDER                                             3
 ACTION:UPD 17-05-24 15:37 OP:jn   STATUS:               ID:20170218071911 L   I
 OLDACT:REG 17-02-18 13:49 OP:cara STATUS:               ID:20170218071740     3
 2017-02-18-0718-00M.COL___345                                                 6
 STAT SP IPHASW D HRMM SECON CODA AMPLIT PERI AZIMU VELO AIN AR TRES W  DIS CAZ7
 BAR2 EZ ES        719 46.23                             170   -0.2110 23.1 183 
 BAR2 EZ I         719 48.92         2.7 0.36            172           23.1 183 
 BRR  HZ EP        719 32.39                             153   -0.2910 68.8 300 
 BRR  HN ES        719 49.42                             153    0.4810 68.8 300 
 BRR  HZ I         719 52.64         3.0 0.38            153           68.8 300 
 PAM  EZ EP        719 33.93                             150   -0.0510 79.0  41 
 PAM  EE ES        719 51.25                             150   -0.0110 79.0  41 
 PAM  EZ I         719 53.69         1.3 0.44            152           79.0  41 
 RUS  HZ EP        719 35.86                             143    0.4110  101 175 
 RUS  HN ES        719 53.71                             143   -0.1710  101 175 
 RUS  HZ I         719 54.74         1.3 0.22            147            101 175 
 ZAR  HN ES        720  8.73                             122   -0.21 9  202 292 
 ZAR  HZ I         720 11.78         1.4 0.18            124            202 292 
                                                                                
