 2013 1018 0823 43.2 L   6.342 -73.587105.2  RSN  6 0.4 1.4LRSN                1
 GAP=141        1.10       3.9     4.4  9.0  0.1788E+01  0.1085E+02 -0.4668E+01E
 Epicentro: SANTA HELENA DEL OPON - SANTANDER                                  3
 ACTION:UPD 13-11-25 09:22 OP:ep   STATUS:               ID:20131018082343 L   I
 OLDACT:REG 13-10-18 08:54 OP:jn   STATUS:               ID:20131018081840     3
 2013-10-18-0818-40M.COL___220                                                 6
 STAT SP IPHASW D HRMM SECON CODA AMPLIT PERI AZIMU VELO AIN AR TRES W  DIS CAZ7
 RUS  HZ EP        824  1.20                             142    0.1410 74.7 132 
 RUS  HE ES        824 14.62                             142   -0.4010 74.7 132 
 RUS  HZ I         824 18.56         1.9 0.24            152           74.7 132 
 BRR  HZ EP        824  1.52                             138    0.2910 85.7 351 
 BRR  HN ES        824 15.90                             138    0.5710 85.7 351 
 BRR  HZ I         824 25.63         5.8 0.34            140           85.7 351 
 SPBC HE ES        824 16.92                             135    0.2110 93.3 215 
 PTB  HZ EP        824  1.65                             133   -0.7110 98.6 283 
 PTB  HN ES        824 16.77                             133   -0.5710 98.6 283 
 PTB  HZ I         824 19.69         8.5 0.14            139           98.6 283 
 NOR  HZ EP        824  9.26                             117    0.09 9  166 239 
 NOR  HE ES        824 30.12                             117    0.65 9  166 239 
 NOR  HZ I         824 31.55         8.6 0.18            125            166 239 
 ZAR  HZ EP        824 11.61                             114   -0.08 9  189 312 
 ZAR  HE ES        824 33.86                             114   -0.09 9  189 312 
 ZAR  HZ I         824 41.81         5.4 0.28            119            189 312 
                                                                                
