 2017  418 0430 42.8 L   6.806 -73.122142.7  RSN  4 0.2 1.0LRSN                1
 GAP=241        0.60       4.8     4.8  5.5  0.1175E+02 -0.1825E+01 -0.1131E+01E
 Epicentro: LOS SANTOS - SANTANDER                                             3
 ACTION:UPD 17-05-30 21:13 OP:jn   STATUS:               ID:20170418043042 L   I
 OLDACT:UP  17-05-10 15:30 OP:nlst STATUS:               ID:20170418043042 L   3
 OLDACT:REG 17-04-18 12:48 OP:cog  STATUS:               ID:20170418042740     3
 2017-04-18-0428-00M.COL___368                                                 6
 STAT SP IPHASW D HRMM SECON CODA AMPLIT PERI AZIMU VELO AIN AR TRES W  DIS CAZ7
 BAR2 EZ EP        431  1.97                             170   -0.0910 24.6 196 
 BAR2 EZ ES        431 16.70                             170   -0.4010 24.6 196 
 BAR2 EZ I         431 20.08         3.0 0.24            175           24.6 196 
 BRR  HZ EP        431  3.84                             151    0.1310 73.2 297 
 BRR  HN ES        431 20.26                             151    0.2310 73.2 297 
 BRR  HZ I         431 26.49         2.3 0.40            153           73.2 297 
 RUS  HZ EP        431  6.25                             143   -0.0110  101 178 
 RUS  HN ES        431 24.88                             143    0.2910  101 178 
 RUS  HZ I         431 26.46         1.5 0.26            150            101 178 
 PTB  HZ EP   3    431  9.22                             130   -0.52 2  150 259 
 PTB  HN ES        431 30.64                             130   -0.14 9  150 259 
                                                                                
