 2010 1218 0847  8.2 L   6.805 -73.121135.8  RSN  5 0.2 1.5LRSN                1
 GAP=186        0.61       5.6    17.5  7.7  0.6348E+02  0.1469E+02 -0.4862E+01E
 Epicentro: LOS SANTOS - SANTANDER                                             3
 ACTION:UP  11-01-14 15:25 OP:pat  STATUS:               ID:20101218084708 L   I
 2010-12-18-0843-11S.COL___136                                                 6
 STAT SP IPHASW D HRMM SECON CODA AMPLIT PERI AZIMU VELO SNR AR TRES W  DIS CAZ7
 BTL  SZ EP        847 26.86                             171     0.310   21 308 
 BAR2 SZ EP        847 26.69                             170     0.010   25 197 
 BAR2 SZ ES   1    847 41.20                             170     0.1 7   25 197 
 BAR2 SZ I         847 42.51         6.2 0.09                            25 197 
 BRR  HZ EP        847 28.34                             150    -0.110   73 297 
 BRR  HZ I         847 28.59         7.0 0.14                            73 297 
 RUS  HZ EP        847 31.02                             142     0.010  101 178 
 RUS  HN ES   1    847 48.45                             142    -0.4 7  101 178 
 OCA  SZ ES   2    847 56.70                             127    -0.5 5  160 352 
 OCA  SZ I         848  0.44         3.8 0.19                           160 352 
                                                                                
