 2013  218 0138  5.3 L   6.705 -73.148140.4  RSN  7 0.4 1.7LRSN                1
 GAP=140        0.82       4.5     4.8  7.2  0.2060E+01  0.6781E+01 -0.7134E+01E
 Epicentro: VILLANUEVA - SANTANDER                                             3
 ACTION:UPD 13-03-12 09:33 OP:ep   STATUS:               ID:20130218013805 L   I
 2013-02-18-0135-42M.COL___183                                                 6
 STAT SP IPHASW D HRMM SECON CODA AMPLIT PERI AZIMU VELO AIN AR TRES W  DIS CAZ7
 BAR2 SZ EP   1    138 24.23                             174    0.15 7 13.1 197 
 BAR2 SZ ES   1    138 38.78                             174    0.02 7 13.1 197 
 BAR2 SZ I         138 40.45        23.4 0.22            171           13.1 197 
 BRR  HZ EP   1    138 26.33                             150    0.18 7 76.5 306 
 BRR  HN ES   1    138 43.03                             150    0.58 7 76.5 306 
 BRR  HZ I         138 46.04        10.9 0.32            146           76.5 306 
 PAM  SZ EP   1    138 27.25                             147   -0.20 7 85.9  35 
 PAM  SN ES   1    138 44.25                             147   -0.51 7 85.9  35 
 PAM  SZ I         138 46.26         8.4 0.54            151           85.9  35 
 RUS  HZ EP   1    138 28.17                             146    0.42 7 90.2 175 
 RUS  HN ES   1    138 45.40                             146    0.11 7 90.2 175 
 PTB  HZ EP   1    138 30.91                             131   -0.71 7  146 263 
 PTB  HN ES   1    138 51.43                             131   -0.75 7  146 263 
 PTB  HZ I         138 57.75         4.9 0.20            130            146 263 
 ZAR  HN ES   1    139  3.58                             121    0.45 6  208 295 
 ZAR  HZ I         139 10.66         3.6 0.24            121            208 295 
 SML  HZ EP   1    138 43.02                             115    0.39 6  253 336 
 SML  HN ES   1    139 11.69                             115   -0.08 6  253 336 
                                                                                
