 2013  218 0534 23.0 L   6.779 -73.140147.6  RSN 11 0.4 2.1LRSN                1
 GAP= 72        0.85       3.2     3.2  5.7  0.1066E+01  0.2745E+01  0.1819E+00E
 Epicentro: LOS SANTOS - SANTANDER                                             3
 ACTION:UPD 13-03-12 09:33 OP:ep   STATUS:               ID:20130218053423 L   I
 2013-02-18-0530-00M.COL___240                                                 6
 STAT SP IPHASW D HRMM SECON CODA AMPLIT PERI AZIMU VELO AIN AR TRES W  DIS CAZ7
 BAR2 SZ IP        534 42.83                             171    0.0310 21.2 193 
 BAR2 SZ EP        534 42.84                             171           21.2 193 
 BAR2 SZ ES   1    534 58.19                             171   -0.06 7 21.2 193 
 BAR2 SZ I         534 59.65        49.1 0.36            170           21.2 193 
 BRR  HZ IP     C  534 44.60                             152    0.1810 72.8 300 
 BRR  HN ES   1    535  1.83                             152    0.68 7 72.8 300 
 BRR  HZ I         535  5.60        14.8 0.12            150           72.8 300 
 PAM  SZ EP   1    534 45.59                             151    0.11 7 78.8  38 
 PAM  SN ES   1    535  2.95                             151   -0.08 7 78.8  38 
 PAM  SZ I         535  5.04        26.5 0.48            155           78.8  38 
 RUS  HZ EP   1    534 46.57                             145   -0.18 7 98.3 176 
 RUS  HN ES   1    535  4.99                             145   -0.30 7 98.3 176 
 RUS  HZ I         535  7.05        13.4 0.40            147           98.3 176 
 PTB  HZ EP   1    534 49.41                             132   -0.71 7  148 260 
 PTB  HN ES   1    535 10.57                             132   -0.71 7  148 260 
 PTB  HZ I         535 16.54        19.8 0.28            132            148 260 
 TAM  HZ IP     D  534 50.85                             131    0.15 9  154 104 
 TAM  HN ES   1    535 12.59                             131    0.27 7  154 104 
 OCA  HZ EP   1    534 50.83                             130   -0.83 7  163 353 
 OCA  HN ES   1    535 13.59                             130   -0.43 7  163 353 
 OCA  HZ I         535 18.69        14.1 0.20            132            163 353 
 ZAR  HZ EP   1    534 55.85                             123    0.15 6  205 293 
 ZAR  HE ES   1    535 20.99                             123   -0.22 6  205 293 
 ZAR  HZ I         535 27.82        17.2 0.46            123            205 293 
 SML  HZ EP   1    534 59.54                             118   -0.42 6  246 335 
 SML  HN ES   1    535 29.82                             118    1.01 6  246 335 
 CHI  HZ EP   1    535  0.69                             118    0.13 6  247 195 
 CHI  HN ES   1    535 30.15                             118    0.28 6  247 195 
 CHI  HZ I         535 34.11         3.0 0.44            120            247 195 
 HEL  HZ EP   1    535  4.09                             115    0.80 6  272 256 
 HEL  HN ES   1    535 35.18                             115    0.45 6  272 256 
 HEL  HZ I         535 41.25         8.0 0.30            116            272 256 
 URE  HN ES   4    535 34.04                             114   -2.49 0  285 292 
 SJC  HN EP   4    535 16.57                             106   -2.30 0  411 327 
 SJC  HN ES   4    535 57.94                             106   -4.52 0  411 327 
                                                                                
