 2013  118 0203 45.4 L   6.814 -73.173135.9  RSN 12 0.3 2.3LRSN                1
 GAP= 69        0.64       2.5     2.5  4.9  0.1700E+00  0.4122E+01  0.1882E+01E
 Epicentro: LOS SANTOS - SANTANDER                                             3
 ACTION:UPD 13-02-15 09:14 OP:ep   STATUS:               ID:20130118020345 L   I
 2013-01-18-0200-00M.COL___241                                                 6
 STAT SP IPHASW D HRMM SECON CODA AMPLIT PERI AZIMU VELO AIN AR TRES W  DIS CAZ7
 BAR2 SZ EP        2 4  3.92                             169    0.0710 24.5 182 
 BAR2 SZ ES   1    2 4 18.03                             169   -0.23 7 24.5 182 
 BRR  HZ EP        2 4  5.68                             152    0.4010 67.8 299 
 BRR  HN ES   4    2 4 22.59                             152    1.80 0 67.8 299 
 BRR  HZ I         2 4 25.70        49.8 0.30            142           67.8 299 
 PAM  SZ EP   1    2 4  6.75                             149    0.14 7 78.2  42 
 PAM  SN ES   1    2 4 23.39                             149    0.22 7 78.2  42 
 PAM  SZ I         2 4 25.81        51.1 0.48            145           78.2  42 
 RUS  HZ EP   1    2 4  8.09                             141   -0.22 7  102 174 
 RUS  HN ES   1    2 4 26.39                             141    0.20 7  102 174 
 RUS  HZ I         2 4 28.38        27.1 0.32            136            102 174 
 PTB  HZ EP   1    2 4 10.61                             130   -0.71 7  145 258 
 PTB  HN ES   2    2 4 31.33                             130   -0.21 5  145 258 
 PTB  HZ I         2 4 33.21        27.6 0.24            121            145 258 
 OCA  HN ES   1    2 4 33.59                             128   -0.54 7  158 354 
 TAM  HZ IP     C  2 4 12.42                             128   -0.20 9  158 105 
 TAM  HE ES   1    2 4 33.90                             128    0.04 7  158 105 
 TAM  HZ I         2 4 34.59        13.5 0.30            123            158 105 
 ZAR  HZ EP   1    2 4 16.82                             121   -0.03 6  201 292 
 ZAR  HN ES   1    2 4 41.70                             121    0.30 6  201 292 
 ZAR  HZ I         2 4 47.48        36.4 0.32            113            201 292 
 CHI  HZ EP   1    2 4 22.46                             115   -0.17 6  249 194 
 CHI  HN ES   1    2 4 51.31                             115   -0.37 6  249 194 
 CHI  HZ I         2 4 59.16         9.8 0.66            109            249 194 
 ROSC BZ EP   1    2 4 23.61                             115    0.65 6  253 210 
 ROSC BN ES   1    2 4 52.40                             115    0.13 6  253 210 
 ROSC BZ I         2 4 58.83        26.7 0.35            109            253 210 
 HEL  HZ EP   1    2 4 25.42                             113    0.59 6  270 255 
 HEL  HN ES   1    2 4 55.37                             113   -0.22 6  270 255 
 HEL  HZ I         2 5  2.30        11.8 0.30            106            270 255 
 DBB  SZ EP   1    2 4 31.95                             108   -0.17 5  336 274 
 DBB  SZ I         2 5 11.92        13.7 0.34            102            336 274 
                                                                                
