 2011  218 0625 48.9 L   6.789 -73.197147.1  RSN  8 0.3 2.1LRSN                1
 GAP=153        0.84       3.4     6.8  7.1 -0.1085E+02  0.2106E+02 -0.4423E+01E
 Epicentro: ZAPATOCA - SANTANDER                                               3
 ACTION:UP  11-03-28 15:09 OP:jfem STATUS:               ID:20110218062548 L   I
 2011-02-18-0622-32S.COL___137                                                 6
 STAT SP IPHASW D HRMM SECON CODA AMPLIT PERI AZIMU VELO SNR AR TRES W  DIS CAZ7
 BTL  SZ EP        626  9.14                             173     0.510   16 331 
 BAR2 SZ IP        626  8.68                             171     0.010   22 176 
 BAR2 SZ ES   1    626 23.82                             171    -0.3 7   22 176 
 BAR2 SZ I         626 26.71        24.4 0.39                            22 176 
 RUS  HZ EP        626 12.28                             144    -0.510  100 173 
 RUS  HN ES        626 31.33                             144     0.010  100 173 
 RUS  HZ I         626 32.35         8.5 0.25                           100 173 
 GRA  SZ IP        626 14.50                             137     0.010  129  20 
 GRA  SZ ES   1    626 34.75                             137     0.2 7  129  20 
 GRA  SZ I         626 36.45        20.3 0.28                           129  20 
 OCA  SZ EP   1    626 17.38                             130     0.0 7  161 355 
 OCA  SZ ES   1    626 39.39                             130    -0.2 7  161 355 
 OCA  SZ I         626 45.73        15.5 0.46                           161 355 
 NOR  SZ EP   1    626 24.22                             119     0.0 6  230 234 
 NOR  SN ES        626 51.69                             119     0.0 8  230 234 
 CHI  HZ EP   1    626 26.75                             118     0.3 6  246 194 
 CHI  HN ES   1    626 56.36                             118     0.7 6  246 194 
 CHI  HZ I         627  3.98         6.8 0.32                           246 194 
 RREF HZ EP        626 34.15                             111    -0.4 7  317 229 
 RREF HZ I         627 20.91         8.4 0.40                           317 229 
                                                                                
