 2011  518 0156  2.7 L   6.629 -73.589106.9  RSN  4 0.1 1.6LRSN                1
 GAP=200        0.38       5.1     7.9  5.1  0.3181E+02  0.1436E+02  0.1097E+02E
 Epicentro: EL CARMEN DE CHUCURI - SANTANDER                                   3
 ACTION:UP  11-06-29 08:54 OP:tino STATUS:               ID:20110518015602 L   I
 2011-05-18-0151-42S.COL___141                                                 6
 STAT SP IPHASW D HRMM SECON CODA AMPLIT PERI AZIMU VELO SNR AR TRES W  DIS CAZ7
 BAR2 SZ EP   1    156 18.75                             156     0.2 7   45  95 
 BAR2 SZ ES   1    156 31.00                             156     0.1 7   45  95 
 BAR2 SZ I         156 32.03        20.6 0.14                            45  95 
 BRR  HZ EP   1    156 18.89                             151     0.1 7   55 346 
 BRR  HN ES   1    156 31.15                             151    -0.1 7   55 346 
 BRR  HZ I         156 32.35        16.2 0.10                            55 346 
 GIR2 SZ EP   1    156 19.53                             146    -0.2 7   66  41 
 RUS  HZ EP   1    156 22.69                             134    -0.1 7   99 145 
 RUS  HN ES   2    156 38.28                             134    -0.1 5   99 145 
 RUS  HZ I         156 41.07         4.9 0.21                            99 145 
                                                                                
