 2015  918 0601 47.7 L   6.776 -73.146152.0  RSN  6 0.4 1.3LRSN                1
 GAP=236        1.08       6.1     7.5  9.5  0.2252E+02 -0.3627E+01  0.9718E+01E
 Epicentro: LOS SANTOS - SANTANDER                                             3
 ACTION:UPD 15-10-28 16:27 OP:cam  STATUS:               ID:20150918060147 L   I
 OLDACT:UP  15-09-18 18:53 OP:mh   STATUS:               ID:20150918055749     3
 OLDACT:UP  15-09-18 18:53 OP:mh   STATUS:               ID:20150918055749     3
 OLDACT:REG 15-09-18 12:34 OP:mh   STATUS:               ID:20150918055749     3
 2015-09-18-0557-49M.COL___352                                                 6
 STAT SP IPHASW D HRMM SECON CODA AMPLIT PERI AZIMU VELO AIN AR TRES W  DIS CAZ7
 BAR2 EZ EP        6 2  7.37                             172   -0.6810 20.7 191 
 BAR2 EZ I         6 2 24.78         4.3 0.46            174           20.7 191 
 BRR  HZ EP        6 2  9.85                             153    0.2310 72.5 300 
 BRR  HN ES        6 2 27.35                             153    0.6510 72.5 300 
 BRR  HZ I         6 2 29.78         3.2 0.31            155           72.5 300 
 RUS  HZ EP        6 2 11.93                             146    0.0210 97.9 176 
 RUS  HN ES   1    6 2 30.51                             146   -0.26 7 97.9 176 
 RUS  HZ I         6 2 32.24         1.7 0.29            148           97.9 176 
 PTB  HZ EP        6 2 14.65                             133   -0.51 9  147 260 
 PTB  HN ES        6 2 36.11                             133   -0.45 9  147 260 
 PTB  HZ I         6 2 41.40         3.5 0.38            136            147 260 
 ZAR  HZ EP   1    6 2 21.06                             124    0.38 6  205 293 
 ZAR  HN ES        6 2 46.36                             124   -0.03 9  205 293 
 ZAR  HZ I         6 2 52.20         3.4 0.60            125            205 293 
 CHI  HZ EP        6 2 26.04                             119    0.54 8  246 195 
 CHI  HE ES        6 2 55.42                             119    0.46 8  246 195 
 CHI  HZ I         6 2 59.53         1.3 0.19            120            246 195 
                                                                                
