 2015  518 0810  7.3 L   6.870 -73.050138.7  RSN  4 0.4 1.3LRSN                1
 GAP=276        0.83       9.9     9.0  6.9  0.5105E+02  0.1990E+02  0.2901E+01E
 Epicentro: PIEDECUESTA - SANTANDER                                            3
 ACTION:UPD 15-09-10 22:05 OP:cam  STATUS:               ID:20150518081007 L   I
 OLDACT:REG 15-05-18 13:13 OP:spq  STATUS:               ID:20150518080742     3
 2015-05-18-0807-42M.COL___286                                                 6
 STAT SP IPHASW D HRMM SECON CODA AMPLIT PERI AZIMU VELO AIN AR TRES W  DIS CAZ7
 BAR2 EZ EP   1    810 26.33                             166   -0.06 7 34.1 206 
 BAR2 EZ ES        810 40.93                             166   -0.3310 34.1 206 
 BAR2 EZ I         810 42.06         5.1 0.26            166           34.1 206 
 BRR  HZ EP        810 28.22                             149    0.1110 77.7 290 
 BRR  HE ES        810 44.88                             149    0.5510 77.7 290 
 BRR  HZ I         810 46.10         3.3 0.22            149           77.7 290 
 ZAR  HZ EP        810 39.96                             120   -0.12 8  211 289 
 ZAR  HE ES        811  5.08                             120   -0.55 8  211 289 
 ZAR  HZ I         811  6.49         1.5 0.09            121            211 289 
 GUY2CHZ EP   1    810 52.76                             110    0.64 5  314 235 
 GUY2CHN ES   2    811 27.11                             110    0.05 3  314 235 
 GUY2CHZ I         811 31.71         0.9 0.32                           314 235 
                                                                                
