 2016 1118 0634  5.7 L   6.718 -73.079147.2  RSN  5 0.3 1.2LRSN                1
 GAP=188        0.77       6.5     3.8  5.6 -0.5596E+01  0.5835E+01 -0.5639E+00E
 Epicentro: JORDAN - SANTANDER                                                 3
 ACTION:UPD 17-10-26 21:09 OP:lp   STATUS:               ID:20161118063405 L   I
 OLDACT:REG 16-11-18 12:49 OP:and  STATUS:               ID:20161118062746     3
 2016-11-18-0628-00M.COL___343                                                 6
 STAT SP IPHASW D HRMM SECON CODA AMPLIT PERI AZIMU VELO AIN AR TRES W  DIS CAZ7
 BAR2 EZ EP        634 25.65                             173    0.1910 18.0 219 
 BAR2 EZ ES        634 40.96                             173    0.1310 18.0 219 
 PAM  EZ EP        634 28.51                             150    0.2110 80.5  31 
 PAM  EN ES        634 45.49                             150   -0.4110 80.5  31 
 PAM  EZ I         634 48.09         2.6 0.43            148           80.5  31 
 BRR  HZ EP        634 27.56                             149   -0.1410 82.1 302 
 BRR  HE ES        634 45.16                             149    0.3410 82.1 302 
 PTB  HZ EP        634 32.89                             131   -0.47 9  154 263 
 PTB  HE ES        634 54.70                             131   -0.20 9  154 263 
 PTB  HZ I         634 56.52         1.2 0.07            131            154 263 
 ZAR  HZ EP        634 39.82                             121    0.47 8  214 294 
 ZAR  HN ES        635  5.45                             121   -0.11 8  214 294 
 ZAR  HZ I         635 10.64         1.7 0.24            120            214 294 
                                                                                
