 2010  718 0950 30.7 L   6.795 -73.077142.8  RSN  7 0.4 1.7LRSN                1
 GAP=166        0.68       4.8     8.3  7.1  0.5936E+01 -0.7920E+01  0.2828E+01E
 Epicentro: LOS SANTOS - SANTANDER                                             3
 ACTION:UPD 10-12-01 15:18 OP:pat  STATUS:               ID:20100718095030 L   I
 2010-07-18-0949-11S.COL___120                                                 6
 STAT SP IPHASW D HRMM SECON CODA AMPLIT PERI AZIMU VELO AIN AR TRES W  DIS CAZ7
 BAR2 SZ EP   1    950 49.99                             169    -0.1 7   25 208 
 BAR2 SZ I         950 50.45        11.2 0.11                            25 208 
 BAR2 SZ ES   2    951  4.91                             169    -0.2 5   25 208 
 GIR2 SZ EP   2    950 49.13                             166    -1.0 5   34 338 
 GIR2 SZ ES   2    951  4.84                             166    -0.4 5   34 338 
 BRR  HZ IP     C  950 51.96                             150     0.010   78 296 
 BRR  HE ES   1    951  8.83                             150     0.3 7   78 296 
 BRR  HZ I         951  9.75        18.3 0.13                            78 296 
 RUS  HZ IP     D  950 54.25                             143     0.110  100 180 
 RUS  HE ES   2    951 12.74                             143     0.3 5  100 180 
 RUS  HZ I         951 14.67         6.8 0.26                           100 180 
 GRA  SZ EP   2    950 55.90                             137     0.3 5  124  14 
 GRA  SZ ES   2    951 15.49                             137     0.5 5  124  14 
 GRA  SZ I         951 16.63         5.6 0.30                           124  14 
 OCA  SZ EP   2    950 58.88                             129    -0.1 5  162 350 
 OCA  SZ I         951 24.29         4.9 0.20                           162 350 
 HEL  HZ EP   2    951 11.62                             113     0.0 4  279 256 
 HEL  HZ I         951 48.50         3.2 0.23                           279 256 
                                                                                
