 2013  618 0151  8.8 L   6.712 -73.221144.9  RSN  4 0.2 1.1LRSN                1
 GAP=214        0.53       5.1     4.9  5.4  0.1134E+02  0.1665E+01 -0.1228E+01E
 Epicentro: VILLANUEVA - SANTANDER                                             3
 ACTION:UPD 14-01-08 09:55 OP:ep   STATUS:               ID:20130618015108 L   I
 OLDACT:REG 13-06-18 07:21 OP:carl STATUS:               ID:20130618014959     3
 2013-06-18-0149-59M.COL___261                                                 6
 STAT SP IPHASW D HRMM SECON CODA AMPLIT PERI AZIMU VELO AIN AR TRES W  DIS CAZ7
 BAR2 SZ EP        151 27.97                             174   -0.1910 13.9 162 
 BAR2 SZ ES   1    151 42.94                             174   -0.33 7 13.9 162 
 BAR2 SZ I         151 44.40         4.0 0.18            166           13.9 162 
 BRR  HZ EP        151 29.75                             153   -0.0010 69.7 309 
 BRR  HN ES   1    151 46.52                             153    0.41 7 69.7 309 
 RUS  HZ EP   1    151 32.01                             146    0.17 7 91.9 170 
 RUS  HN ES   1    151 50.07                             146    0.24 7 91.9 170 
 RUS  HZ I         151 52.80         1.2 0.34            143           91.9 170 
 PTB  HZ EP   1    151 34.82                             134    0.01 7  138 262 
 PTB  HN ES   1    151 54.91                             134   -0.19 7  138 262 
 PTB  HZ I         152  0.68         2.5 0.14            131            138 262 
                                                                                
