 2013  518 0706 15.5 L   6.833 -73.184142.3  RSN 10 0.5 1.8LRSN                1
 GAP=130        1.09       4.0     5.3  7.2 -0.2805E+01  0.1259E+02 -0.4842E+01E
 Epicentro: ZAPATOCA - SANTANDER                                               3
 ACTION:UPD 13-06-20 09:51 OP:ep   STATUS:               ID:20130518070615 L   I
 2013-05-18-0700-00M.COL___256                                                 6
 STAT SP IPHASW D HRMM SECON CODA AMPLIT PERI AZIMU VELO AIN AR TRES W  DIS CAZ7
 BAR2 SZ EP   1    7 6 34.70                             169   -0.11 7 26.6 180 
 BAR2 SZ ES   1    7 6 49.41                             169   -0.44 7 26.6 180 
 BAR2 SZ I         7 6 51.07        12.7 0.20            163           26.6 180 
 GIR2 SZ EP        7 6 34.90                             169    0.2210 27.2 358 
 GIR2 SZ ES   1    7 6 49.66                             169    0.04 7 27.2 358 
 GIR2 SZ I         7 6 51.69        12.6 0.44            169           27.2 358 
 BRR  HZ EP     C  7 6 36.73                             154    0.7310 65.8 298 
 BRR  HN ES   1    7 6 53.13                             154    1.16 7 65.8 298 
 BRR  HZ I         7 6 56.78         9.1 0.16            148           65.8 298 
 PAM  SZ EP   1    7 6 37.69                             150    0.31 7 77.5  44 
 PAM  SN ES        7 6 54.51                             150    0.0910 77.5  44 
 PAM  SZ I         7 6 56.68        22.3 0.46            146           77.5  44 
 RUS  HZ EP   1    7 6 39.33                             142    0.10 7  105 174 
 RUS  HN ES        7 6 57.45                             142   -0.2710  105 174 
 RUS  HZ I         7 6 59.08         6.7 0.28            133            105 174 
 PTB  HZ EP        7 6 41.82                             132   -0.09 9  144 257 
 PTB  HN ES        7 7  1.73                             132   -0.75 9  144 257 
 PTB  HZ I         7 7  5.94         6.1 0.50            123            144 257 
 OCA  HZ EP   1    7 6 42.47                             130   -0.72 7  156 355 
 OCA  HN ES   1    7 7  3.90                             130   -0.86 7  156 355 
 OCA  HZ I         7 7 10.13         5.8 0.26            123            156 355 
 SML  HZ EP        7 6 51.21                             117   -0.21 8  239 336 
 SML  HE ES        7 7 19.40                             117   -0.01 8  239 336 
 SML  HZ I         7 7 29.55         6.2 0.10            111            239 336 
 HEL  HN ES   1    7 7 26.80                             114    0.63 6  269 255 
 PRA  HZ EP   1    7 7  9.49                             106    0.43 4  393 209 
 PRA  HZ I         7 7 56.88         1.8 0.26            100            393 209 
                                                                                
