 2016  818 0555 58.4 L   6.823 -73.185149.4  RSN  6 0.4 1.4LRSN                1
 GAP=235        1.04       6.1     6.4  8.7  0.1430E+02  0.1232E+02 -0.1083E+01E
 Epicentro: ZAPATOCA - SANTANDER                                               3
 ACTION:UPD 16-10-29 15:36 OP:rebc STATUS:               ID:20160818055558 L   I
 OLDACT:REG 16-08-18 13:00 OP:ak   STATUS:               ID:20160818054759     3
 2016-08-18-0547-59S.COL___346                                                 6
 STAT SP IPHASW D HRMM SECON CODA AMPLIT PERI AZIMU VELO AIN AR TRES W  DIS CAZ7
 BAR2 EZ EP        556 18.22                             170   -0.2810 25.5 179 
 BAR2 EZ ES        556 33.97                             170   -0.2210 25.5 179 
 BAR2 EZ I         556 34.97         4.5 0.11                          25.5 179 
 BRR  HZ IP     C  556 20.36                             155    0.7010 66.1 298 
 BRR  HN ES        556 36.62                             155    0.3710 66.1 298 
 BRR  HZ I         556 44.22         4.7 0.35                          66.1 298 
 RUS  HZ EP   2    556 23.18                             144    0.48 5  103 174 
 RUS  HN ES        556 41.39                             144   -0.2910  103 174 
 RUS  HZ I         556 42.24         2.4 0.20                           103 174 
 PTB  HZ EP        556 24.70                             134   -0.62 9  144 258 
 PTB  HN ES        556 46.50                             134    0.18 9  144 258 
 PTB  HZ I         556 48.44         2.7 0.26                           144 258 
 SPBC HZ EP   2    556 27.40                             130    0.30 5  162 217 
 SPBC HN ES        556 49.90                             130    0.40 9  162 217 
 SPBC HZ I         556 52.03         4.1 0.23                           162 217 
 ZAR  HN ES        556 55.10                             124   -0.56 9  199 292 
                                                                                
