 2016  118 0848 53.5 L   6.810 -73.265133.0  RSN  4 0.2 1.2LRSN                1
 GAP=189        0.53       2.1     6.9  4.7 -0.1923E+01  0.1203E+02 -0.2641E+01E
 Epicentro: ZAPATOCA - SANTANDER                                               3
 ACTION:UPD 16-03-09 23:26 OP:cam  STATUS:               ID:20160118084853 L   I
 OLDACT:REG 16-01-18 12:56 OP:mh   STATUS:               ID:20160118084750     3
 2016-01-18-0847-50M.COL___319                                                 6
 STAT SP IPHASW D HRMM SECON CODA AMPLIT PERI AZIMU VELO AIN AR TRES W  DIS CAZ7
 BAR2 EZ EP        849 12.01                             168    0.4010 25.8 159 
 BAR2 EZ ES        849 25.63                             168   -0.1410 25.8 159 
 BAR2 EZ I         849 28.32         2.1 0.13            170           25.8 159 
 PAM  EZ EP        849 14.74                             146   -0.1510 85.7  47 
 PAM  EN ES        849 31.68                             146    0.0910 85.7  47 
 PAM  EZ I         849 33.84         2.6 0.58            148           85.7  47 
 RUS  HZ EP        849 15.99                             140   -0.2110  103 169 
 RUS  HN ES        849 33.97                             140    0.0410  103 169 
 RUS  HZ I         849 35.16         2.8 0.32            143            103 169 
 OCA  HZ EP        849 20.64                             127    0.04 9  158 358 
 OCA  HN ES        849 41.70                             127   -0.07 9  158 358 
 OCA  HZ I         849 43.20         4.4 0.18            129            158 358 
                                                                                
