 2017  718 0431 38.2 L   6.782 -73.154149.1  RSN  6 0.3 1.6LRSN                1
 GAP=235        0.81       4.5     4.6  5.8  0.1251E+01  0.4811E+01  0.3306E+01E
 Epicentro: LOS SANTOS - SANTANDER                                             3
 ACTION:UPD 17-08-30 15:34 OP:rebc STATUS:               ID:20170718043138 L   I
 OLDACT:REG 17-07-18 13:44 OP:dnl  STATUS:               ID:20170718042720     3
 2017-07-18-0428-00M.COL___371                                                 6
 STAT SP IPHASW D HRMM SECON CODA AMPLIT PERI AZIMU VELO AIN AR TRES W  DIS CAZ7
 BAR2 EZ IP     C  431 58.07                             172   -0.1510 21.3 188 
 BAR2 EZ ES        432 13.31                             172   -0.5110 21.3 188 
 BAR2 EZ I         432 15.10         8.3 0.30            167           21.3 188 
 BRR  HZ EP        431 59.83                             153    0.0810 71.3 300 
 BRR  HN ES        432 17.01                             153    0.4810 71.3 300 
 BRR  HZ I         432 20.08         6.9 0.26            151           71.3 300 
 RUS  HZ EP        432  2.24                             145    0.0610 98.7 175 
 RUS  HN ES        432 21.14                             145    0.2810 98.7 175 
 RUS  HZ I         432 21.84         3.5 0.22            144           98.7 175 
 PTB  HZ EP        432  4.80                             133   -0.56 9  146 260 
 PTB  HE ES        432 26.48                             133   -0.03 9  146 260 
 PTB  HZ I         432 27.87         3.7 0.16            132            146 260 
 SPBC HZ EP        432  7.21                             130    0.42 9  161 219 
 SPBC HN ES        432 29.04                             130   -0.03 9  161 219 
 SPBC HZ I         432 36.12         6.8 0.22            129            161 219 
 NOR  HZ EP   2    432 14.20                             119    0.25 4  233 235 
 NOR  HN ES        432 41.67                             119   -0.15 8  233 235 
 NOR  HZ I         432 48.88         2.8 0.18            119            233 235 
                                                                                
