 2013 1218 0621 36.5 L   6.861 -73.352123.9  RSN  9 0.5 1.7LRSN                1
 GAP= 94        1.30       3.7     4.9  8.2 -0.1616E+01  0.7108E+01 -0.7498E+01E
 Epicentro: SAN VICENTE DE CHUCURI - SANTANDER                                 3
 ACTION:UPD 14-01-13 10:19 OP:ep   STATUS:               ID:20131218062136 L   I
 OLDACT:REG 13-12-18 07:27 OP:jn   STATUS:               ID:20131218062000     3
 2013-12-18-0620-00M.COL___285                                                 6
 STAT SP IPHASW D HRMM SECON CODA AMPLIT PERI AZIMU VELO AIN AR TRES W  DIS CAZ7
 BAR2 SZ EP        621 54.27                             163    0.3910 35.1 148 
 BAR2 SZ ES        622  7.47                             163    0.0510 35.1 148 
 BAR2 SZ I         622  8.65        75.3 0.44            165           35.1 148 
 BRR  HZ EP        621 54.65                             157    0.5810 48.2 304 
 BRR  HN ES        622  8.28                             157    0.5310 48.2 304 
 BRR  HZ I         622 10.59        10.3 0.20            157           48.2 304 
 PAM  SZ EP        621 57.60                             142    0.2810 89.4  54 
 PAM  SN ES        622 13.52                             142   -0.0210 89.4  54 
 PAM  SZ I         622 16.07         5.6 0.26            146           89.4  54 
 RUS  HZ EP        621 59.25                             136    0.1810  111 164 
 RUS  HN ES        622 15.73                             136   -0.9310  111 164 
 RUS  HZ I         622 24.33         2.0 0.30            138            111 164 
 PTB  HZ EP        621 59.51                             131   -0.3410  127 254 
 PTB  HN ES        622 17.05                             131   -0.9910  127 254 
 OCA  HZ EP        622  2.17                             126   -0.27 9  152   1 
 OCA  HN ES        622 22.14                             126   -0.52 9  152   1 
 OCA  HZ I         622 23.52         8.4 0.20            129            152   1 
 SPBC HN ES        622 23.93                             125    0.84 9  156 211 
 ZAR  HN ES   1    622 27.83                             121    0.40 7  180 293 
 ZAR  HZ I         622 36.27         5.8 0.10            122            180 293 
 SML  HZ EP        622 10.25                             114   -0.09 8  229 340 
 SML  HN ES        622 36.74                             114    0.01 8  229 340 
                                                                                
