 2014  818 0812 29.2 L   6.810 -73.158143.3  RSN  9 0.4 2.0LRSN                1
 GAP= 70        1.16       3.5     3.9  6.7  0.7559E-01  0.1715E+01 -0.1371E+01E
 Epicentro: LOS SANTOS - SANTANDER                                             3
 ACTION:UPD 14-09-15 21:51 OP:nd   STATUS:               ID:20140818081229 L   I
 OLDACT:DUP 14-08-18 18:56 OP:stll STATUS:               ID:20140818080819d    3
 2014-08-18-0808-18M.COL___251                                                 6
 STAT SP IPHASW D HRMM SECON CODA AMPLIT PERI AZIMU VELO AIN AR TRES W  DIS CAZ7
 BAR2 SZ EP        812 48.70                             170    0.1110 24.2 186 
 BAR2 SZ ES        813  3.43                             170   -0.2510 24.2 186 
 BAR2 SZ I         813  4.60        25.2 0.20            171           24.2 186 
 BRR  HZ EP        812 50.57                             153    0.5510 69.5 298 
 BRR  HN ES        813  7.13                             153    0.9010 69.5 298 
 BRR  HZ I         813 11.82        16.8 0.12            151           69.5 298 
 PAM  SZ EP        812 51.62                             150    0.4310 77.4  41 
 PAM  SZ I         812 51.84        33.7 0.22            152           77.4  41 
 PAM  SN ES        813  8.54                             150    0.2310 77.4  41 
 RUS  HZ EP        812 53.25                             143    0.4210  102 175 
 RUS  HN ES        813 10.92                             143   -0.3210  102 175 
 RUS  HZ I         813 11.84        10.4 0.52            146            102 175 
 PTB  HZ EP        812 55.93                             132    0.03 9  147 258 
 PTB  HN ES        813 16.04                             132   -0.66 9  147 258 
 PTB  HZ I         813 18.43         8.4 0.16            132            147 258 
 TAM  HZ EP        812 57.07                             130    0.20 9  157 105 
 TAM  HN ES        813 17.74                             130   -0.68 9  157 105 
 OCA  HN ES        813 18.59                             129   -0.49 9  159 354 
 OCA  HZ I         813 22.30        11.9 0.34            130            159 354 
 SPBC HZ EP        812 57.62                             128    0.07 9  163 218 
 SPBC HN ES        813 19.47                             128   -0.16 9  163 218 
 SPBC HZ I         813 23.39        10.3 0.20            130            163 218 
 SML  HZ EP        813  5.22                             117   -0.33 8  242 335 
 SML  HN ES        813 33.23                             117   -0.65 8  242 335 
 SML  HZ I         813 38.48         8.3 0.24            118            242 335 
                                                                                
