 2017  318 0456 46.8 L   5.860 -74.055 96.0  RSN 10 0.5 1.3LRSN                1
 GAP= 79        1.31       3.1     3.5  7.6 -0.2556E+01  0.3312E+00  0.1943E+01E
 Epicentro: LA BELLEZA - SANTANDER                                             3
 ACTION:UPD 17-05-25 18:42 OP:jn   STATUS:               ID:20170318045646 L   I
 OLDACT:DUP 17-03-18 16:47 OP:cog  STATUS:               ID:20170318044743d    3
 2017-03-18-0448-00M.COL___367                                                 6
 STAT SP IPHASW D HRMM SECON CODA AMPLIT PERI AZIMU VELO AIN AR TRES W  DIS CAZ7
 SPBC HZ IPg       457  0.13                             166   -0.1610 23.1 185 
 SPBC HN ES        457 10.46                             166   -0.3210 23.1 185 
 PTB  HZ EP   3    457  3.27                             134   -0.98 2 87.3 329 
 PTB  HN ES        457 18.98                             134    1.1410 87.3 329 
 PTB  HZ I         457 21.23         6.5 0.26            140           87.3 329 
 NOR  HZ EP        457  4.60                             132   -0.4910 95.9 250 
 NOR  HN ES        457 18.54                             132   -0.7810 95.9 250 
 RUS  HZ EP        457  6.80                             129    0.0110  108  88 
 RUS  HN ES        457 22.26                             129   -0.0910  108  88 
 RUS  HZ I         457 26.68         2.7 0.54            130            108  88 
 BAR2 EZ EP        457  7.18                             124   -1.1010  126  50 
 BAR2 EZ ES        457 25.05                             124    0.0410  126  50 
 BAR2 EZ I         457 32.14         4.7 0.22            126            126  50 
 CHI  HZ EP        457 10.67                             121    0.62 9  141 165 
 CHI  HE ES        457 28.83                             121    0.68 9  141 165 
 CHI  HZ I         457 36.02         1.5 0.44            123            141 165 
 BRR  HZ EP        457  9.60                             120   -0.16 9  143  15 
 BRR  HN ES        457 27.83                             120    0.19 9  143  15 
 BRR  HZ I         457 28.85         9.8 0.16            123            143  15 
 GUY2CHZ EP        457 12.47                             117    0.12 9  161 244 
 GUY2CHN ES        457 32.23                             117   -0.03 9  161 244 
 ZAR  HE ES        457 39.54                             111    0.32 9  201 334 
 PRA  HZ EP        457 22.68                             106    0.12 8  255 201 
 PRA  HN ES     C  457 50.71                             106    0.28 8  255 201 
                                                                                
