 2016  818 0506  7.0 L   6.796 -73.103145.9  RSN 10 0.4 1.6LRSN                1
 GAP=142        0.95       3.7     3.9  5.6 -0.2832E+01  0.6565E+01  0.1050E+01E
 Epicentro: LOS SANTOS - SANTANDER                                             3
 ACTION:UPD 16-10-29 15:36 OP:rebc STATUS:               ID:20160818050607 L   I
 OLDACT:REG 16-08-18 12:56 OP:ak   STATUS:               ID:20160818045659     3
 2016-08-18-0456-59S.COL___346                                                 6
 STAT SP IPHASW D HRMM SECON CODA AMPLIT PERI AZIMU VELO AIN AR TRES W  DIS CAZ7
 BAR2 EZ EP        5 6 26.62                             170   -0.0710 24.2 201 
 BAR2 EZ ES        5 6 42.19                             170    0.1610 24.2 201 
 BAR2 EZ I         5 6 42.75         9.0 0.12                          24.2 201 
 PAM  EZ EP        5 6 29.66                             151    0.5610 74.8  37 
 PAM  EN ES        5 6 46.40                             151    0.0810 74.8  37 
 PAM  EZ I         5 6 48.77        13.3 0.64                          74.8  37 
 BRR  HZ IP     C  5 6 28.67                             151    0.2310 75.5 297 
 BRR  HN ES        5 6 45.29                             151    0.1510 75.5 297 
 BRR  HZ I         5 6 48.56         7.6 0.50                          75.5 297 
 RUS  HZ EP        5 6 30.27                             144   -0.4710100.0 179 
 RUS  HN ES        5 6 49.05                             144   -0.2010100.0 179 
 RUS  HZ I         5 6 50.14         4.8 0.32                         100.0 179 
 PTB  HZ EP        5 6 34.41                             131   -0.00 9  152 259 
 PTB  HN ES        5 6 55.11                             131   -0.67 9  152 259 
 PTB  HZ I         5 6 56.67         6.0 0.14                           152 259 
 SPBC HZ EP        5 6 35.72                             129   -0.07 9  166 220 
 SPBC HN ES        5 6 57.83                             129   -0.39 9  166 220 
 SPBC HZ I         5 7  1.57         5.5 0.18                           166 220 
 ZAR  HZ EP   2    5 6 39.68                             122   -0.26 4  209 292 
 ZAR  HE ES        5 7  5.51                             122   -0.10 8  209 292 
 ZAR  HZ I         5 7 11.48         5.2 0.14                           209 292 
 NOR  HZ EP        5 6 43.74                             118    0.60 8  238 235 
 NOR  HN ES        5 7 11.89                             118    0.57 8  238 235 
 NOR  HZ I         5 7 13.20         3.3 0.18                           238 235 
 URE  HN ES   4    5 7 18.04                             113   -2.99 0  288 292 
 GUY2CHZ EP   2    5 6 51.08                             112    0.04 4  305 235 
 GUY2CHE ES        5 7 25.90                             112    0.52 7  305 235 
 GUY2CHZ I         5 7 35.48         1.3 0.09                           305 235 
 SJC  HZ EP        5 7  1.67                             106   -1.26 6  412 326 
 SJC  HN ES   4    5 7 43.03                             106   -3.50 0  412 326 
                                                                                
