 2017  718 0947  8.9 L   6.813 -73.180143.7  RSN  6 0.3 1.4LRSN                1
 GAP=132        0.60       3.4     2.9  5.4 -0.9717E+00  0.6139E+01 -0.4159E+01E
 Epicentro: ZAPATOCA - SANTANDER                                               3
 ACTION:UPD 17-08-30 15:34 OP:rebc STATUS:               ID:20170718094708 L   I
 OLDACT:REG 17-07-18 13:57 OP:dnl  STATUS:               ID:20170718093740     3
 2017-07-18-0938-00M.COL___368                                                 6
 STAT SP IPHASW D HRMM SECON CODA AMPLIT PERI AZIMU VELO AIN AR TRES W  DIS CAZ7
 BAR2 EZ EP        947 28.20                             170   -0.0710 24.4 181 
 BAR2 EZ ES        947 43.21                             170   -0.1910 24.4 181 
 BAR2 EZ I         947 44.52         5.9 0.24            174           24.4 181 
 BRR  HZ EP   2    947 29.91                             154    0.34 5 67.1 299 
 BRR  HZ I         947 47.70         5.0 0.28            146           67.1 299 
 PAM  EZ EP        947 30.94                             150   -0.0110 78.8  42 
 PAM  EN ES        947 48.15                             150   -0.0210 78.8  42 
 PAM  EZ I         947 50.06         4.2 0.54            145           78.8  42 
 RUS  HZ EP   2    947 32.56                             143    0.01 5  102 174 
 RUS  HN ES        947 51.36                             143    0.3510  102 174 
 RUS  HZ I         947 52.73         3.4 0.34            144            102 174 
 PTB  HZ EP        947 34.98                             132   -0.37 9  144 258 
 PTB  HN ES        947 55.80                             132   -0.21 9  144 258 
 PTB  HZ I         947 57.61         2.6 0.42            128            144 258 
 ZAR  HZ EP   2    947 41.09                             122    0.33 4  200 292 
 ZAR  HN ES        948  6.04                             122    0.41 9  200 292 
 ZAR  HZ I         948 15.38         2.2 0.24            118            200 292 
                                                                                
