 2012  918 0132 25.6 L   6.767 -73.138143.4  RSN  9 0.3 2.1LRSN                1
 GAP=139        0.71       3.4     4.0  5.3 -0.2910E+01  0.3132E+01  0.4543E+01E
 Epicentro: LOS SANTOS - SANTANDER                                             3
 ACTION:UPD 12-10-22 14:19 OP:ep   STATUS:               ID:20120918013225 L   I
 2012-09-18-0130-00M.COL___226                                                 6
 STAT SP IPHASW D HRMM SECON CODA AMPLIT PERI AZIMU VELO AIN AR TRES W  DIS CAZ7
 BAR2 SZ EP        132 44.74                             172   -0.1010 20.0 194 
 BAR2 SZ ES   1    132 59.70                             172   -0.18 7 20.0 194 
 BAR2 SZ I         133  1.91        41.1 0.26                          20.0 194 
 GIR2 SZ EP        132 44.87                             166   -0.1910 35.0 350 
 GIR2 SZ ES   1    133  0.35                             166    0.09 7 35.0 350 
 BRR  HZ EP        132 46.75                             151    0.1510 73.7 301 
 BRR  HN ES   1    133  3.68                             151    0.67 7 73.7 301 
 BRR  HZ I         133  8.85        21.0 0.16                          73.7 301 
 PAM  SZ EP   1    132 47.54                             150   -0.12 7 79.7  37 
 PAM  SN ES   1    133  4.66                             150   -0.24 7 79.7  37 
 PAM  SZ I         133  6.79        27.9 0.56                          79.7  37 
 RUS  HZ EP        132 48.71                             144   -0.1110 96.9 176 
 RUS  HN ES   1    133  7.39                             144    0.44 7 96.9 176 
 RUS  HZ I         133  8.86        16.6 0.42                          96.9 176 
 PTB  HN ES   1    133 12.45                             131   -0.80 7  148 260 
 ZAR  HZ EP   1    132 58.55                             121    0.47 6  206 293 
 ZAR  HZ I         133 26.34         8.3 0.38                           206 293 
 NOR  SN ES        133 28.60                             118   -0.06 8  233 235 
 CHI  HZ EP   1    133  3.19                             117    0.41 6  245 196 
 CHI  HN ES   1    133 31.75                             117   -0.05 6  245 196 
                                                                                
