 2012  118 0801 38.1 L   6.797 -73.141140.6  RSN 10 0.5 2.1LRSN                1
 GAP=137        1.16       4.6     5.8  8.6 -0.2322E+01  0.1560E+02  0.3656E+01E
 Epicentro: LOS SANTOS - SANTANDER                                             3
 ACTION:UP  12-02-03 08:18 OP:REBC STATUS:               ID:20120118080138 L   I
 2012-01-18-0800-00M.COL___187                                                 6
 STAT SP IPHASW D HRMM SECON CODA AMPLIT PERI AZIMU VELO SNR AR TRES W  DIS CAZ7
 BAR2 SZ EP   1    8 1 57.26                             170     0.2 7   23 191 
 BAR2 SZ ES   1    8 2 11.89                             170     0.0 7   23 191 
 BAR2 SZ I         8 2 13.25        41.1 0.23                            23 191 
 BRR  HZ IP     C  8 1 59.03                             151     0.310   72 299 
 BRR  HZ I         8 1 59.29        77.1 0.18                            72 299 
 BRR  HN ES   1    8 2 15.23                             151     0.4 7   72 299 
 PAM  SZ EP   1    8 2  0.24                             150     0.5 7   77  39 
 PAM  SZ I         8 2  0.34         7.9 0.17                            77  39 
 PAM  SE ES   1    8 2 16.88                             150     0.2 7   77  39 
 RUS  HZ EP   1    8 2  0.72                             143    -0.6 7  100 176 
 RUS  HN ES   1    8 2 19.33                             143    -0.1 7  100 176 
 RUS  HZ I         8 2 21.54        11.9 0.24                           100 176 
 PTB  HZ EP   1    8 2  3.83                             131    -0.9 7  148 259 
 PTB  HN ES   1    8 2 24.66                             131    -0.8 7  148 259 
 OCA  SZ EP   1    8 2  5.29                             128    -0.8 7  161 353 
 OCA  SZ ES   1    8 2 27.16                             128    -0.7 7  161 353 
 OCA  SZ I         8 2 31.90        23.8 0.21                           161 353 
 ZAR  HZ EP   1    8 2 10.86                             121     0.6 6  205 292 
 ZAR  HN ES   1    8 2 35.95                             121     0.6 6  205 292 
 ZAR  HZ I         8 2 40.24        12.9 0.11                           205 292 
 CHI  HZ EP   1    8 2 15.63                             116     0.1 6  248 195 
 CHI  HN ES   1    8 2 44.93                             116     0.3 6  248 195 
 CHI  HZ I         8 2 47.99         5.7 0.32                           248 195 
 HEL  HZ EP   1    8 2 19.00                             114     0.9 6  272 256 
 HEL  HN ES   1    8 2 48.97                             114    -0.3 6  272 256 
 HEL  HZ I         8 2 55.33         6.4 0.43                           272 256 
 RREF HE ES   1    8 2 59.90                             110     0.0 5  322 229 
 RREF HZ I         8 3  6.95         7.0 0.40                           322 229 
                                                                                
