 2013  218 0820 40.7 L   6.804 -73.156148.8  RSN  9 0.4 1.5LRSN                1
 GAP= 70        0.84       3.3     5.0  6.5  0.8658E-01  0.8674E-01  0.1228E+01E
 Epicentro: LOS SANTOS - SANTANDER                                             3
 ACTION:UPD 13-03-12 09:34 OP:ep   STATUS:               ID:20130218082040 L   I
 2013-02-18-0820-00M.COL___240                                                 6
 STAT SP IPHASW D HRMM SECON CODA AMPLIT PERI AZIMU VELO AIN AR TRES W  DIS CAZ7
 BAR2 SZ EP   1    821  0.67                             171   -0.06 7 23.6 187 
 BAR2 SZ ES   1    821 16.14                             171   -0.19 7 23.6 187 
 BAR2 SZ I         821 17.10         9.8 0.24            168           23.6 187 
 BRR  HZ EP     C  821  2.52                             153    0.3810 70.0 299 
 BRR  HN ES   1    821 19.93                             153    1.09 7 70.0 299 
 BRR  HZ I         821 24.22         5.0 0.46            150           70.0 299 
 PAM  SZ EP   1    821  3.55                             151    0.26 7 77.7  40 
 PAM  SN ES   1    821 20.69                             151   -0.20 7 77.7  40 
 PAM  SZ I         821 22.89         9.4 0.56            156           77.7  40 
 RUS  HZ EP   1    821  4.95                             144    0.13 7  101 175 
 RUS  HN ES   1    821 23.39                             144   -0.22 7  101 175 
 RUS  HZ I         821 24.42         4.2 0.22            145            101 175 
 PTB  HZ EP   1    821  7.71                             133   -0.15 7  147 259 
 PTB  HN ES   1    821 28.56                             133   -0.46 7  147 259 
 PTB  HZ I         821 34.62         4.7 0.39            131            147 259 
 TAM  HZ EP   1    821  8.82                             131    0.06 7  156 105 
 OCA  HZ EP   1    821  9.33                             130    0.11 7  160 354 
 OCA  HN ES   1    821 30.79                             130   -0.66 7  160 354 
 OCA  HZ I         821 36.44         5.6 0.32            132            160 354 
 SML  HN ES   1    821 45.48                             118   -0.58 6  243 335 
 CHI  HZ EP   1    821 18.92                             118    0.30 6  249 195 
 CHI  HN ES   1    821 47.64                             118   -0.53 6  249 195 
 CHI  HZ I         821 58.05         1.4 0.50            118            249 195 
                                                                                
