 2017 1118 0224 38.0 L   6.778 -73.135150.4  RSN  7 0.4 1.2LRSN                1
 GAP=138        0.88       4.0     3.5  7.2 -0.2789E+01  0.5936E+01  0.2965E+01E
 Epicentro: LOS SANTOS - SANTANDER                                             3
 ACTION:UPD 17-12-12 19:56 OP:rebc STATUS:               ID:20171118022438 L   I
 OLDACT:REG 17-11-18 10:15 OP:mg   STATUS:               ID:20171118021738     3
 2017-11-18-0218-00M.COL___473                                                 6
 STAT SP IPHASW D HRMM SECON CODA AMPLIT PERI AZIMU VELO AIN AR TRES W  DIS CAZ7
 PAM  EZ EP        225  1.05                             151    0.3010 78.6  38 
 PAM  EN ES        225 18.26                             151   -0.2610 78.6  38 
 PAM  EZ I         225 20.79         2.8 0.60            152           78.6  38 
 RUS  HZ EP        225  2.06                             145    0.0610 98.1 177 
 RUS  HN ES        225 20.70                             145   -0.0510 98.1 177 
 RUS  HZ I         225 21.89         2.3 0.42            148           98.1 177 
 PTB  HZ EP        225  5.09                             133   -0.29 9  148 260 
 PTB  HN ES        225 26.91                             133    0.15 9  148 260 
 PTB  HZ I         225 29.04         1.6 0.14            135            148 260 
 SPBC HE ES        225 29.29                             130    0.15 9  162 220 
 YPLC HZ EP        225  8.06                             128    0.22 9  174 151 
 YPLC HE ES        225 30.98                             128   -0.17 9  174 151 
 NOR  HZ EP        225 13.75                             119   -0.17 8  234 235 
 NOR  HE ES        225 42.75                             119    0.79 8  234 235 
 GUY2CHZ EP   4    225 20.33                             113   -1.41 0  301 235 
 GUY2CHN ES        225 54.91                             113   -0.97 7  301 235 
 GUY2CHZ I         226  4.15         1.3 0.44                           301 235 
                                                                                
