 2017  618 0947 25.6 L   6.062 -73.700117.8  RSN  5 0.3 1.5LRSN                1
 GAP=156        0.86       4.6     5.6  8.4  0.1100E+02 -0.2387E+02 -0.1606E+02E
 Epicentro: VELEZ - SANTANDER                                                  3
 ACTION:UPD 17-09-14 16:52 OP:jn   STATUS:               ID:20170618094725 L   I
 OLDACT:UP  17-06-18 16:41 OP:cog  STATUS:               ID:20170618093743d    3
 OLDACT:UP  17-06-18 16:40 OP:cog  STATUS:               ID:20170618093743d    3
 OLDACT:DUP 17-06-18 16:33 OP:cog  STATUS:               ID:20170618093743d    3
 2017-06-18-0938-00M.COL___341                                                 6
 STAT SP IPHASW D HRMM SECON CODA AMPLIT PERI AZIMU VELO AIN AR TRES W  DIS CAZ7
 SPBC HZ EP        947 43.37                             151    0.0810 61.3 222 
 SPBC HN ES        947 56.77                             151   -0.3310 61.3 222 
 SPBC HZ I         947 58.60         8.3 0.28            151           61.3 222 
 PTB  HZ EP        947 45.25                             137   -0.6610 99.0 302 
 PTB  HN ES        948  2.17                             137    0.4010 99.0 302 
 PTB  HZ I         948  3.65         4.1 0.20            138           99.0 302 
 NOR  HZ EP        947 49.68                             126   -0.11 9  141 247 
 NOR  HN ES        948  8.99                             126    0.33 9  141 247 
 NOR  HZ I         948 10.58         4.8 0.22            127            141 247 
 YPLC HZ EP        947 52.45                             122    0.32 9  164 117 
 HEL  HZ EP   4    947 58.36                             116    1.64 0  203 274 
 HEL  HN ES   4    948 24.34                             116    3.34 0  203 274 
 ZAR  HZ EP        947 56.40                             116    0.08 9  204 321 
 ZAR  HN ES        948 20.27                             116   -0.02 9  204 321 
 ZAR  HZ I         948 21.63         5.5 0.30            117            204 321 
 URE  HE ES   4    948 33.86                             108   -0.99 0  276 313 
                                                                                
