 2013  218 0305  8.4 L   6.806 -73.153147.2  RSN  4 0.4 1.2LRSN                1
 GAP=135        0.84       6.2     5.9  9.8 -0.4283E+01  0.4935E+01  0.8882E+01E
 Epicentro: LOS SANTOS - SANTANDER                                             3
 ACTION:UPD 13-03-12 09:33 OP:ep   STATUS:               ID:20130218030508 L   I
 2013-02-18-0300-00M.COL___240                                                 6
 STAT SP IPHASW D HRMM SECON CODA AMPLIT PERI AZIMU VELO AIN AR TRES W  DIS CAZ7
 BRR  HZ EP   1    3 5 29.79                             153    0.19 7 70.2 298 
 BRR  HN ES   1    3 5 46.75                             153    0.57 7 70.2 298 
 BRR  HZ I         3 5 49.45         3.9 0.50            153           70.2 298 
 PAM  SZ EP   1    3 5 30.88                             151    0.15 7 77.4  40 
 PAM  SN ES   1    3 5 47.68                             151   -0.50 7 77.4  40 
 PAM  SZ I         3 5 49.52         4.4 0.64            154           77.4  40 
 RUS  HZ EP   1    3 5 32.83                             144    0.53 7  101 176 
 RUS  HN ES   1    3 5 50.82                             144   -0.16 7  101 176 
 RUS  HZ I         3 5 51.90         1.2 0.42            147            101 176 
 PTB  HZ EP   1    3 5 34.72                             132   -0.66 7  147 259 
 PTB  HN ES   1    3 5 56.21                             132   -0.25 7  147 259 
 PTB  HZ I         3 5 58.62         3.3 0.52            134            147 259 
                                                                                
