 2013  118 0814 43.5 L   6.738 -73.174152.7  RSN  5 0.2 1.3LRSN                1
 GAP=229        0.51       4.5     4.0  5.7  0.1075E+02 -0.3808E+01 -0.6979E+01E
 Epicentro: VILLANUEVA - SANTANDER                                             3
 ACTION:UPD 13-02-15 09:15 OP:ep   STATUS:               ID:20130118081443 L   I
 2013-01-18-0810-00M.COL___241                                                 6
 STAT SP IPHASW D HRMM SECON CODA AMPLIT PERI AZIMU VELO AIN AR TRES W  DIS CAZ7
 BAR2 SZ EP        815  3.70                             174   -0.1410 16.2 183 
 BAR2 SZ I         815  3.97         6.0 0.13            170           16.2 183 
 BRR  HZ IP     C  815  5.56                             153    0.1110 72.1 304 
 BRR  HZ I         815  5.90         3.9 0.11            151           72.1 304 
 BRR  HE ES   1    815 22.44                             153   -0.13 7 72.1 304 
 RUS  HZ EP        815  7.70                             147    0.2110 94.1 174 
 RUS  HE ES        815 26.22                             147    0.0210 94.1 174 
 RUS  HE I         815 28.01         2.0 0.28            147           94.1 174 
 PTB  HZ EP        815 10.35                             134   -0.32 9  144 261 
 PTB  HE ES        815 31.85                             134    0.00 9  144 261 
 PTB  HZ I         815 36.00         1.5 0.17            133            144 261 
 ZAR  HN ES   1    815 42.42                             124    0.38 6  204 294 
 ZAR  HZ I         815 47.63         1.8 0.35            123            204 294 
                                                                                
