 2013 1218 0443  5.7 L   6.794 -73.128142.6  RSN 17 0.5 2.3LRSN                1
 GAP= 72        1.17       3.0     3.6  5.7 -0.6941E+00  0.4880E+01  0.1883E+01E
 Epicentro: LOS SANTOS - SANTANDER                                             3
 ACTION:UPD 14-01-13 10:18 OP:ep   STATUS:               ID:20131218044305 L   I
 OLDACT:REG 13-12-18 06:47 OP:jn   STATUS:               ID:20131218044000     3
 2013-12-18-0440-00M.COL___285                                                 6
 STAT SP IPHASW D HRMM SECON CODA AMPLIT PERI AZIMU VELO AIN AR TRES W  DIS CAZ7
 BAR2 SZ IP     D  443 25.11                             170    0.1510 23.1 195 
 BAR2 SZ ES        443 39.86                             170   -0.1110 23.1 195 
 BAR2 SZ I         443 41.52        90.1 0.46            164           23.1 195 
 BRR  HZ EP     D  443 27.06                             151    0.4210 73.3 298 
 BRR  HN ES        443 44.03                             151    1.0710 73.3 298 
 BRR  HZ I         443 46.95        35.5 0.18            142           73.3 298 
 PAM  SZ EP     D  443 27.95                             151    0.4010 76.7  38 
 PAM  SN ES        443 44.89                             151    0.3110 76.7  38 
 PAM  SZ I         443 47.17        27.3 0.54            149           76.7  38 
 RUS  HZ EP     C  443 28.99                             143   -0.1010 99.8 177 
 RUS  HN ES        443 46.78                             143   -0.5510 99.8 177 
 RUS  HZ I         443 48.28        14.4 0.42            136           99.8 177 
 PTB  HZ EP   1    443 32.56                             131   -0.03 7  150 259 
 PTB  HN ES   2    443 52.73                             131   -0.82 5  150 259 
 PTB  HZ I         443 58.14        21.1 0.30            121            150 259 
 TAM  HZ IP     C  443 33.38                             130    0.44 9  153 105 
 TAM  HE ES        443 53.95                             130   -0.23 9  153 105 
 TAM  HZ I         443 54.17        13.0 0.28            126            153 105 
 OCA  HZ EP        443 32.95                             129   -0.91 9  161 352 
 OCA  HN ES        443 55.13                             129   -0.69 9  161 352 
 OCA  HZ I         443 59.86        28.0 0.24            122            161 352 
 SPBC HZ EP        443 34.14                             128    0.10 9  164 220 
 SPBC HN ES        443 55.80                             128   -0.33 9  164 220 
 SPBC HZ I         444  2.90        30.4 0.40            120            164 220 
 ZAR  HN ES        444  3.55                             121    0.06 8  206 292 
 ZAR  HZ I         444  9.11        26.0 0.58            113            206 292 
 NOR  HZ EP        443 41.51                             118    0.12 8  236 235 
 NOR  HN ES        444  8.96                             118   -0.26 8  236 235 
 NOR  HZ I         444 14.82        22.8 0.46            110            236 235 
 SML  HZ EP        443 41.61                             117   -0.71 8  245 335 
 SML  HN ES   1    444 10.61                             117   -0.26 6  245 335 
 CHI  HZ EP        443 43.19                             117   -0.03 8  249 196 
 CHI  HN ES        444 11.98                             117   -0.50 8  249 196 
 CHI  HZ I         444 18.52        12.4 0.26            110            249 196 
 ROSC BZ EP   1    443 44.77                             116    1.06 6  253 211 
 HEL  HZ EP   2    443 45.12                             114   -0.84 4  274 256 
 GUY2CHZ EP   1    443 49.45                             112    0.14 5  302 235 
 GUY2CHZ I         444 31.77        16.0 0.48                           302 235 
 RREF HZ EP        443 52.89                             110    1.05 7  323 230 
 RREF HZ I         444 37.59        13.4 0.24            104            323 230 
 CBOC HZ EP        443 52.87                             109    0.18 7  335 252 
 CBOC HZ I         444 32.23         4.6 0.24            103            335 252 
 SJC  HZ EP   4    443 59.78                             105   -1.58 0  411 327 
 SJC  HN ES   4    444 39.38                             105   -5.39 0  411 327 
                                                                                
