 2013  318 0254 33.7 L   6.662 -73.234149.4  RSN  4 0.2 1.4LRSN                1
 GAP=190        0.46       4.2     5.3  4.7  0.1452E+02  0.7023E+00 -0.2508E-01E
 Epicentro: BARICHARA - SANTANDER                                              3
 ACTION:UPD 13-04-09 14:03 OP:ep   STATUS:               ID:20130318025433 L   I
 2013-03-18-0250-00M.COL___243                                                 6
 STAT SP IPHASW D HRMM SECON CODA AMPLIT PERI AZIMU VELO AIN AR TRES W  DIS CAZ7
 BAR2 SZ EP        254 53.23                             176   -0.3110 9.61 143 
 BAR2 SZ I         255 10.27         4.0 0.28            175           9.61 143 
 BRR  HZ EP        254 55.26                             153    0.0010 72.2 313 
 BRR  HN ES        255 12.19                             153    0.0910 72.2 313 
 BRR  HN I         255 12.59         9.1 0.40            151           72.2 313 
 RUS  HZ EP        254 56.96                             148    0.1210 86.7 169 
 RUS  HN ES        255 14.96                             148    0.0510 86.7 169 
 RUS  HN I         255 16.78         2.4 0.26            146           86.7 169 
 PTB  HZ EP        255  0.01                             135    0.13 9  136 264 
 PTB  HN ES   2    255 20.03                             135   -0.30 5  136 264 
 PTB  HE I         255 26.75         3.5 0.28            133            136 264 
                                                                                
