 2015 1018 0441 53.7 L   6.820 -73.117145.7  RSN 21 0.5 2.5LRSN                1
 GAP=139        1.18       2.8     4.1  5.7 -0.2207E+01  0.9066E+01  0.2037E+01E
 Epicentro: LOS SANTOS - SANTANDER                                             3
 ACTION:UPD 15-12-22 20:41 OP:cam  STATUS:               ID:20151018044153 L   I
 OLDACT:REG 15-10-18 14:43 OP:ak   STATUS:               ID:20151018043748     3
 2015-10-18-0437-48M.COL___343                                                 6
 STAT SP IPHASW D HRMM SECON CODA AMPLIT PERI AZIMU VELO AIN AR TRES W  DIS CAZ7
 BAR2 EZ IP     D  442 13.38                             169    0.0410 26.2 196 
 BAR2 EZ ES        442 28.45                             169   -0.2410 26.2 196 
 BAR2 EZ I         442 29.65        43.4 0.32            165           26.2 196 
 BRR  HZ EP     C  442 15.24                             152    0.3410 73.0 296 
 BRR  HN ES        442 32.12                             152    0.6510 73.0 296 
 BRR  HZ I         442 35.79        26.4 0.15            148           73.0 296 
 PAM  EZ EP        442 16.21                             152    0.5610 73.7  39 
 PAM  EN ES        442 33.20                             152    0.4010 73.7  39 
 PAM  EZ I         442 35.49        35.5 0.54            158           73.7  39 
 RUS  HZ EP        442 17.32                             143   -0.2310  103 178 
 RUS  HN ES        442 35.50                             143   -0.6810  103 178 
 RUS  HZ I         442 36.96        15.7 0.41            145            103 178 
 OCA  HZ EP        442 21.44                             130   -0.36 9  158 352 
 OCA  HN ES        442 43.69                             130   -0.05 9  158 352 
 OCA  HZ I         442 48.31        81.2 0.18            132            158 352 
 SPBC HZ EP        442 22.30                             128   -0.20 9  167 219 
 SPBC HN ES        442 45.33                             128    0.33 9  167 219 
 SPBC HZ I         442 51.56        51.3 0.36            128            167 219 
 ZAR  HZ EP   4    442 24.87                             122   -1.45 0  206 291 
 ZAR  HE ES        442 51.71                             122   -0.08 8  206 291 
 ZAR  HZ I         442 57.11        25.9 0.12            122            206 291 
 NOR  HZ EP        442 29.80                             118    0.00 8  239 234 
 NOR  HN ES        442 57.45                             118   -0.53 8  239 234 
 NOR  HZ I         443  2.80        25.3 0.32            118            239 234 
 SML  HZ EP        442 29.39                             117   -0.82 8  243 334 
 SML  HN ES        442 57.82                             117   -0.90 8  243 334 
 SML  HZ I         443  0.49        32.1 0.25            119            243 334 
 CHI  HZ EP        442 31.37                             117   -0.31 8  252 196 
 CHI  HN ES        443  0.43                             117   -0.90 8  252 196 
 CHI  HZ I         443  6.49                             118            252 196 
 ROSC BZ EP        442 33.13                             116    0.97 8  256 211 
 ROSC BN ES   4    443  4.10                             116    1.91 0  256 211 
 ROSC BZ I         443 11.28        25.9 0.40            117            256 211 
 HEL  HZ EP        442 35.17                             114    0.90 7  276 256 
 HEL  HE ES        443  6.43                             114    0.49 7  276 256 
 HEL  HZ I         443 12.76        18.4 0.36            115            276 256 
 URE  HZ EP   4    442 32.49                             113   -2.47 0  286 291 
 URE  HE ES   4    443  4.25                             113   -2.93 0  286 291 
 URE  HZ I         443 15.30        13.0 0.12            114            286 291 
 GUY2CHZ EP        442 38.52                             112    0.82 7  305 235 
 GUY2CHN ES        443 12.29                             112    0.24 7  305 235 
 GUY2CHZ I         443 20.69        17.6 0.28                           305 235 
 ELA  HZ EP   4    442 43.48                             110    2.53 0  333 230 
 ELA  HN ES        443 17.69                             110   -0.14 7  333 230 
 ELA  HZ I         443 26.11        11.8 0.38            111            333 230 
 CBOC HZ EP        442 41.17                             110    0.18 7  337 252 
 CBOC HE ES        443 16.93                             110   -0.98 7  337 252 
 CBOC HZ I         443 29.25         5.3 0.42            110            337 252 
 DBB  SZ EP   1    442 40.73                             109   -0.75 5  342 274 
 DBB  SZ ES        443 18.54                             109   -0.24 7  342 274 
 DBB  SZ I         443 31.87        28.3 0.48            110            342 274 
 MON  HZ EP   4    442 40.60                             108   -2.19 0  355 308 
 MON  HN ES   4    443 18.78                             108   -2.33 0  355 308 
 MON  HZ I         443 21.46         6.0 0.48            110            355 308 
 ANIL HZ EP   1    442 44.62                             108    0.72 5  361 225 
 ANIL HE ES        443 23.20                             108    0.11 6  361 225 
 ANIL HZ I         443 30.21        22.3 0.27            109            361 225 
 ORTC HZ EP        442 47.75                             106   -0.25 6  399 216 
 ORTC HN ES        443 31.26                             106    0.87 6  399 216 
 ORTC HZ I         443 35.78         5.4 0.22            107            399 216 
 SJC  HZ EP   4    442 47.90                             106   -1.31 0  409 326 
 SJC  HN ES   4    443 27.50                             106   -5.03 0  409 326 
 SJC  HZ I         443 33.05         6.9 0.58            107            409 326 
                                                                                
