 2016 1018 0345  9.1 L   6.792 -73.141150.0  RSN  8 0.4 1.5LRSN                1
 GAP=137        0.84       3.8     4.5  6.6 -0.6013E+01  0.4548E+01  0.1765E+01E
 Epicentro: LOS SANTOS - SANTANDER                                             3
 ACTION:UPD 16-11-09 19:20 OP:rebc STATUS:               ID:20161018034509 L   I
 OLDACT:UP  16-10-18 15:58 OP:and  STATUS:               ID:20161018033745     3
 OLDACT:REG 16-10-18 12:49 OP:y    STATUS:               ID:20161018033745     3
 2016-10-18-0338-00M.COL___341                                                 6
 STAT SP IPHASW D HRMM SECON CODA AMPLIT PERI AZIMU VELO AIN AR TRES W  DIS CAZ7
 BRR  HZ IP        345 30.92                             153    0.1210 72.1 299 
 BRR  HN ES        345 48.38                             153    0.6910 72.1 299 
 BRR  HZ I         345 50.63         4.2 0.12            152           72.1 299 
 PAM  EZ EP        345 31.75                             152   -0.0910 77.8  39 
 PAM  EN ES        345 49.18                             152   -0.3510 77.8  39 
 PAM  EZ I         345 50.33         4.0 0.13            157           77.8  39 
 RUS  HZ EP   2    345 33.62                             145    0.37 5 99.7 176 
 RUS  HN ES        345 52.19                             145    0.1410 99.7 176 
 RUS  HZ I         345 54.50         3.5 0.44            147           99.7 176 
 PTB  HZ EP        345 36.15                             133   -0.34 9  148 259 
 PTB  HN ES        345 57.24                             133   -0.58 9  148 259 
 PTB  HZ I         346  4.71         4.9 0.47            133            148 259 
 OCA  HZ EP   2    345 38.15                             131    0.27 5  161 353 
 OCA  HN ES   2    346  0.26                             131   -0.03 5  161 353 
 SPBC HZ EP        345 38.13                             130    0.19 9  163 219 
 SPBC HN ES        346  0.15                             130   -0.24 9  163 219 
 SPBC HZ I         346  4.20         5.9 0.13            131            163 219 
 NOR  HZ EP   2    345 45.39                             119    0.28 4  235 235 
 NOR  HN ES   2    346 14.04                             119    0.88 4  235 235 
 NOR  HZ I         346 17.60         2.7 0.18            121            235 235 
 GUY2CHZ EP   4    345 54.49                             113    1.55 0  301 235 
 GUY2CHN ES   4    346 29.72                             113    2.62 0  301 235 
 GUY2CHZ I         346 37.00         1.6 0.51                           301 235 
                                                                                
