 2016 1218 0049 30.4 L   6.767 -73.151145.6  RSN  4 0.3 1.1LRSN                1
 GAP=137        0.74       4.0     3.9  6.5 -0.1736E+01  0.2242E+01  0.3351E+01E
 Epicentro: LOS SANTOS - SANTANDER                                             3
 ACTION:UPD 17-01-11 20:16 OP:rebc STATUS:               ID:20161218004931 L   I
 OLDACT:UP  16-12-26 16:17 OP:nlst STATUS:               ID:20161218004931 L   3
 OLDACT:REG 16-12-18 14:14 OP:edw  STATUS:               ID:20161218004742     3
 2016-12-18-0048-00M.COL___387                                                 6
 STAT SP IPHASW D HRMM SECON CODA AMPLIT PERI AZIMU VELO AIN AR TRES W  DIS CAZ7
 BRR  HZ EP        049 51.85                             152    0.2010 72.5 301 
 BRR  HE ES        050  8.63                             152    0.4410 72.5 301 
 PAM  EZ EP        049 52.94                             150    0.1010 80.6  38 
 PAM  EE ES        050  9.91                             150   -0.3910 80.6  38 
 PAM  EZ I         050 11.15         2.0 0.30            152           80.6  38 
 RUS  HZ EP        049 54.06                             145    0.1410 97.0 176 
 RUS  HN ES        050 12.26                             145    0.0310 97.0 176 
 RUS  HZ I         050 14.06         2.8 0.26            145           97.0 176 
 PTB  HZ EP        049 57.05                             132   -0.24 9  147 260 
 PTB  HN ES        050 17.86                             132   -0.36 9  147 260 
 PTB  HZ I         050 20.32         1.8 0.18            133            147 260 
                                                                                
