 2011  618 0941 60.0 L   6.788 -73.107142.8  RSN  6 0.3 1.8LRSN                1
 GAP=160        0.64       3.6     5.4  5.9 -0.6943E+01  0.3502E+01 -0.5463E+00E
 Epicentro: LOS SANTOS - SANTANDER                                             3
 ACTION:UP  11-07-14 19:06 OP:ep   STATUS:               ID:20110618094160 L   I
 2011-06-18-0940-00M.COL___122                                                 6
 STAT SP IPHASW D HRMM SECON CODA AMPLIT PERI AZIMU VELO SNR AR TRES W  DIS CAZ7
 BAR2 SZ EP   2    942 19.02                             170    -0.2 5   23 201 
 BAR2 SZ ES   1    942 33.93                             170    -0.3 7   23 201 
 BAR2 SZ I         942 36.08        18.6 0.28                            23 201 
 BRR  HZ EP   1    942 21.18                             150     0.1 7   76 298 
 BRR  HN ES   1    942 37.88                             150     0.4 7   76 298 
 BRR  HZ I         942 39.20        11.9 0.18                            76 298 
 RUS  HZ EP   1    942 23.37                             144     0.0 7   99 178 
 RUS  HN ES   1    942 41.81                             144     0.3 7   99 178 
 RUS  HZ I         942 43.46         9.9 0.16                            99 178 
 BRI  SZ EP   2    942 23.19                             141    -0.4 5  108  18 
 GRA  SZ EP   1    942 25.18                             136     0.2 7  126  15 
 GRA  SZ ES   1    942 44.22                             136    -0.2 7  126  15 
 GRA  SZ I         942 46.01         8.6 0.40                           126  15 
 NOR  SZ EP   1    942 36.01                             117     0.2 6  237 235 
 NOR  SE ES   1    943  3.26                             117    -0.5 6  237 235 
                                                                                
