 2015  818 0835 45.9 L   6.848 -73.075148.8  RSN  4 0.2 1.3LRSN                1
 GAP=230        0.45       6.2     5.2  5.3  0.2125E+02 -0.1086E+02 -0.2002E+02E
 Epicentro: LOS SANTOS - SANTANDER                                             3
 ACTION:UPD 15-09-15 23:03 OP:cam  STATUS:               ID:20150818083545 L   I
 OLDACT:REG 15-08-18 13:45 OP:spq  STATUS:               ID:20150818082746     3
 2015-08-18-0827-46M.COL___322                                                 6
 STAT SP IPHASW D HRMM SECON CODA AMPLIT PERI AZIMU VELO AIN AR TRES W  DIS CAZ7
 BAR2 EZ EP        836  5.99                             168   -0.0710 30.6 203 
 BAR2 EZ ES   1    836 21.59                             168   -0.20 7 30.6 203 
 BAR2 EZ I         836 24.68         3.1 0.26            171           30.6 203 
 BRR  HZ EP   1    836  7.97                             152    0.32 7 76.0 292 
 BRR  HE ES        836 24.78                             152    0.1610 76.0 292 
 BRR  HZ I         836 25.07         3.2 0.18            150           76.0 292 
 ZAR  HN ES        836 44.80                             122   -0.19 8  209 290 
 ZAR  HZ I         836 49.73         1.4 0.14            123            209 290 
 SML  HZ EP        836 22.55                             118   -0.00 8  242 333 
 SML  HE ES   2    836 51.01                             118   -0.13 4  242 333 
 SML  HZ I         836 55.37         1.7 0.10            119            242 333 
                                                                                
