 2017  118 0427 29.2 L   6.789 -73.175149.8  RSN  6 0.4 1.4LRSN                1
 GAP=133        0.92       6.0     5.4  7.2  0.8699E+01 -0.3000E+01 -0.7368E+01E
 Epicentro: LOS SANTOS - SANTANDER                                             3
 ACTION:UPD 17-05-22 16:00 OP:jn   STATUS:               ID:20170118042729 L   I
 OLDACT:UP  17-01-18 15:30 OP:dani STATUS:               ID:20170118041742     3
 OLDACT:REG 17-01-18 12:45 OP:dani STATUS:               ID:20170118041742     3
 2017-01-18-0418-00M.COL___331                                                 6
 STAT SP IPHASW D HRMM SECON CODA AMPLIT PERI AZIMU VELO AIN AR TRES W  DIS CAZ7
 BAR2 EZ EP        427 49.09                             171   -0.2210 21.7 182 
 BAR2 EZ ES        428  4.42                             171   -0.5510 21.7 182 
 BAR2 EZ I         428  5.75         7.9 0.14            174           21.7 182 
 BRR  HZ EP     D  427 50.95                             154    0.2610 69.0 301 
 BRR  HN ES        428  7.95                             154    0.5110 69.0 301 
 BRR  HZ I         428  9.43         5.7 0.50            148           69.0 301 
 PAM  EZ EP        427 52.08                             150    0.0310 80.4  41 
 PAM  EZ I         428 11.29         6.5 0.47            138           80.4  41 
 RUS  HZ EP        427 53.27                             145   -0.0410 99.6 174 
 RUS  HN ES        428 12.37                             145    0.2810 99.6 174 
 RUS  HZ I         428 13.38         1.8 0.42            145           99.6 174 
 PTB  HZ EP        427 56.32                             134    0.10 9  144 259 
 PTB  HN ES        428 17.17                             134   -0.11 9  144 259 
 PTB  HZ I         428 23.97         1.6 0.18            132            144 259 
 ZAR  HE ES   2    428 25.57                             124   -1.43 4  202 293 
                                                                                
