 2010  118 0743  9.9 L   6.786 -72.976144.7  RSN  7 0.5 1.5LRSN                1
 GAP=200        0.99       4.3    11.5  8.6 -0.7232E+01  0.4697E+02 -0.5329E+01E
 Epicentro: CEPITA - SANTANDER                                                 3
 ACTION:UP  10-08-24 09:44 OP:vdl  STATUS:               ID:20100118074309 L   I
 2010-01-18-0738-56S.COL___096                                                 6
 STAT SP IPHASW D HRMM SECON CODA AMPLIT PERI AZIMU VELO SNR AR TRES W  DIS CAZ7
 BAR2 SZ ES   1    743 44.86                             167    -0.1 7   31 227 
 RUS  BZ EP        743 33.83                             144     0.310  100 187 
 RUS  BN ES        743 51.62                             144    -0.310  100 187 
 RUS  BZ I         743 53.35         2.9 0.40                           100 187 
 OCA  SZ EP        743 38.03                             128    -0.6 9  165 347 
 OCA  SZ ES   1    744  1.94                             128     1.0 7  165 347 
 CHI  HZ EP   1    743 47.80                             116    -0.2 6  253 199 
 CHI  HN ES   1    744 18.15                             116     0.4 6  253 199 
 CHI  HZ I         744 24.97         1.7 0.59                           253 199 
 HEL  HZ EP        743 51.86                             113    -0.2 7  290 257 
 HEL  HN ES   2    744 24.46                             113    -0.5 4  290 257 
 HEL  HZ I         744 28.68         3.2 0.37                           290 257 
 RREF BZ EP        743 57.66                             110     0.1 7  335 232 
 PRA  HN ES   1    744 47.68                             106     0.8 4  400 212 
                                                                                
