 2017 1018 0522 29.8 L   6.800 -73.147144.6  RSN  8 0.5 1.6LRSN                1
 GAP=213        1.11       5.2     5.7  6.6  0.1721E+02  0.7062E+01  0.8526E+01E
 Epicentro: LOS SANTOS - SANTANDER                                             3
 ACTION:UPD 17-11-07 19:33 OP:rebc STATUS:               ID:20171018052229 L   I
 OLDACT:UP  17-10-18 14:39 OP:dani STATUS:               ID:20171018051737     3
 OLDACT:REG 17-10-18 13:22 OP:dani STATUS:               ID:20171018051737     3
 2017-10-18-0518-00M.COL___426                                                 6
 STAT SP IPHASW D HRMM SECON CODA AMPLIT PERI AZIMU VELO AIN AR TRES W  DIS CAZ7
 BAR2 EZ EP        522 49.00                             170   -0.2710 23.3 190 
 BAR2 EZ ES        523  4.00                             170   -0.4810 23.3 190 
 BAR2 EZ I         523  6.84         8.3 0.27            164           23.3 190 
 BRR  HZ EP        522 50.84                             152    0.0510 71.0 299 
 BRR  HN ES        523  7.95                             152    0.7610 71.0 299 
 BRR  HZ I         523 10.63         5.5 0.34            150           71.0 299 
 RUS  HZ EP        522 52.81                             144   -0.6110  101 176 
 RUS  HN ES        523 11.92                             144    0.0610  101 176 
 RUS  HZ I         523 13.00         5.3 0.26            141            101 176 
 PTB  HZ EP        522 56.55                             132   -0.09 9  148 259 
 PTB  HN ES        523 16.91                             132   -0.68 9  148 259 
 PTB  HZ I         523 21.77         2.4 0.12            130            148 259 
 YPLC HN E         519  1.15                                            177 151 
 YPLC HZ EP        522 59.41                             126   -0.09 9  177 151 
 YPLC HN ES        523 23.31                             126    0.62 9  177 151 
 YPLC HZ I         523 24.47         4.5 0.28            127            177 151 
 ZAR  HZ EP        523  2.87                             122    0.74 9  204 292 
 ZAR  HN ES        523 27.32                             122   -0.04 9  204 292 
 ZAR  HZ I         523 32.81         3.7 0.41            122            204 292 
 CHI  HZ EP        523  7.21                             117   -0.20 8  249 195 
 CHI  HN ES        523 37.28                             117    0.51 8  249 195 
 CHI  HZ I         523 46.34         1.9 0.60            117            249 195 
 PRA  HZ EP        523 22.96                             106   -0.29 6  392 210 
 PRA  HE ES        524  5.34                             106    0.38 6  392 210 
 PRA  HZ I         524 11.21         2.3 0.38            107            392 210 
                                                                                
