 2017  918 0439 57.3 L   6.792 -73.129146.0  RSN 22 0.6 2.4LRSN                1
 GAP= 67        1.03       2.6     2.9  4.7 -0.2322E+00  0.3774E+01  0.3943E+00E
 Epicentro: LOS SANTOS - SANTANDER                                             3
 ACTION:UPD 17-10-05 19:13 OP:rebc STATUS:               ID:20170918043957 L   I
 OLDACT:UP  17-09-18 16:59 OP:and  STATUS:               ID:20170918043740     3
 OLDACT:UP  17-09-18 16:59 OP:and  STATUS:               ID:20170918043740     3
 OLDACT:UP  17-09-18 16:58 OP:and  STATUS:               ID:20170918043740     3
 OLDACT:UP  17-09-18 16:58 OP:and  STATUS:               ID:20170918043740     3
 OLDACT:UP  17-09-18 16:52 OP:y    STATUS:               ID:20170918043740     3
 OLDACT:REG 17-09-18 12:57 OP:and  STATUS:               ID:20170918043740     3
 2017-09-18-0438-00M.COL___430                                                 6
 STAT SP IPHASW D HRMM SECON CODA AMPLIT PERI AZIMU VELO AIN AR TRES W  DIS CAZ7
 BAR2 EZ IP     C  440 16.82                             171   -0.1410 22.9 195 
 BAR2 EZ ES        440 31.77                             171   -0.5110 22.9 195 
 BAR2 EZ I         440 32.88       140.4 0.22            169           22.9 195 
 BRR  HZ IP     D  440 18.64                             152    0.0410 73.2 298 
 BRR  HN ES        440 35.76                             152    0.5610 73.2 298 
 BRR  HZ I         440 38.85        63.7 0.28            150           73.2 298 
 PAM  EZ IP     C  440 19.58                             150    0.0610 76.9  38 
 PAM  EN ES        440 36.64                             150   -0.2110 76.9  38 
 PAM  EZ I         440 39.03        67.4 0.66            147           76.9  38 
 RUS  HZ IP     C  440 20.78                             144   -0.2310 99.6 177 
 RUS  HN ES        440 39.09                             144   -0.4110 99.6 177 
 RUS  HZ I         440 40.39        32.7 0.20            140           99.6 177 
 TAM  HZ IP     C  440 25.12                             130    0.30 9  153 105 
 TAM  HZ I         440 53.72        12.1 0.58            126            153 105 
 YPLC HZ IP     C  440 27.17                             126    0.21 9  175 152 
 YPLC HN ES        440 50.51                             126    0.42 9  175 152 
 YPLC HZ I         440 53.58        14.3 0.46            122            175 152 
 ZAR  HZ EP        440 29.56                             122   -0.42 8  206 292 
 ZAR  HN ES        440 55.27                             122   -0.19 8  206 292 
 ZAR  HZ I         441  1.49        49.0 0.28            119            206 292 
 NOR  HZ EP        440 33.16                             118    0.00 8  236 235 
 NOR  HN ES        441  1.08                             118   -0.04 8  236 235 
 NOR  HZ I         441  5.94        16.7 0.32            115            236 235 
 CHI  HN ES        441  3.69                             117   -0.67 8  248 196 
 ROSC BZ EP   4    440 36.74                             116    1.28 0  253 211 
 ROSC BN ES   4    441  7.87                             116    2.65 0  253 211 
 ROSC BZ I         441 12.61        15.8 0.35            113            253 211 
 HEL  HZ EP        440 39.07                             114    1.36 8  274 256 
 HEL  HN ES        441  9.49                             114    0.27 8  274 256 
 HEL  HZ I         441 16.97        10.4 0.36            112            274 256 
 URE  HZ EP   9    440 36.93                             113   -1.69 0  286 292 
 URE  HN ES        441  8.56                             114   -0.59 7  286 292 
 URE  HZ I         441 16.49        17.9 0.14            110            286 292 
 GUY2CHZ EP   9    440 42.93                             112    1.89 0  302 235 
 GUY2CHN ES        441 16.90                             112   -0.14 7  302 235 
 GUY2CHZ I         441 21.75         9.1 0.28                           302 235 
 PTGC HZ IP   3 C  440 39.93                             111   -1.08 2  307 159 
 PTGC HN ES   4    441 13.34                             111   -1.75 0  307 159 
 PTGC HZ I         441 15.89        11.1 0.34            108            307 159 
 LL6C HZ EP        440 42.51                             110   -0.62 7  326 357 
 LL6C HE ES        441 19.22                             110    0.35 7  326 357 
 ELA  HZ EP   4    440 49.31                             110    5.05 0  330 230 
 ELA  HN ES        441 21.20                             110    0.31 7  330 230 
 ELA  HZ I         441 29.07         8.8 0.24            107            330 230 
 CBOC HZ EP        440 45.83                             109    1.43 7  335 252 
 CBOC HN ES        441 20.48                             109   -0.65 7  335 252 
 CBOC HZ I         441 32.25         5.0 0.42            107            335 252 
 ARGC HZ EP   3    440 44.63                             108   -2.51 2  361 340 
 ARGC HN ES        441 25.82                             108   -0.19 6  361 340 
 PRA  HZ EP        440 51.33                             106    0.48 6  392 210 
 PRA  HN ES        441 32.51                             106   -0.11 6  392 210 
 PRA  HZ I         441 38.66         7.9 0.28            104            392 210 
 APAC HZ EP        440 51.26                             106   -0.48 6  400 288 
 APAC HN ES   3    441 32.07                             106   -2.13 1  400 288 
 APAC HZ I         441 38.99         6.3 0.42            103            400 288 
 PAL  HZ EP        440 52.86                             105    0.25 6  407 239 
 PAL  HN ES        441 35.39                             105   -0.35 6  407 239 
 PAL  HZ I         441 37.14         4.0 0.68            103            407 239 
 SJC  HZ EP   3    440 51.01                             105   -2.07 1  411 327 
 SJC  HN ES   4    441 32.36                             105   -4.23 0  411 327 
 SJC  HZ I         441 36.64         6.7 0.54            103            411 327 
                                                                                
