 2013  218 0031  5.1 L   6.766 -73.185156.0  RSN  5 0.4 1.1LRSN                1
 GAP=197        0.84       6.2     8.3  8.9  0.2296E+02  0.2081E+01 -0.9123E+01E
 Epicentro: VILLANUEVA - SANTANDER                                             3
 ACTION:UPD 13-03-12 09:33 OP:ep   STATUS:               ID:20130218003105 L   I
 2013-02-18-0030-00M.COL___241                                                 6
 STAT SP IPHASW D HRMM SECON CODA AMPLIT PERI AZIMU VELO AIN AR TRES W  DIS CAZ7
 BAR2 SZ EP   1    031 25.73                             173   -0.15 7 19.2 179 
 BAR2 SZ ES   1    031 42.33                             173    0.24 7 19.2 179 
 BRR  HZ EP   1    031 27.75                             155    0.50 7 69.3 303 
 BRR  HN ES   1    031 44.90                             155    0.36 7 69.3 303 
 BRR  HZ I         031 48.79         3.8 0.40            151           69.3 303 
 RUS  HZ EP   1    031 30.00                             147    0.37 7 97.3 173 
 RUS  HE ES   1    031 48.05                             147   -0.73 7 97.3 173 
 RUS  HZ I         031 49.57         0.9 0.38            148           97.3 173 
 PTB  HZ EP   1    031 32.54                             135    0.07 7  143 260 
 PTB  HN ES   1    031 53.65                             135   -0.18 7  143 260 
 PTB  HZ I         031 59.61         2.2 0.26            133            143 260 
 SML  HN ES   1    032 10.86                             119   -0.78 6  245 337 
                                                                                
