 2016  618 0844 49.4 L   6.772 -73.139142.5  RSN 11 0.5 1.8LRSN                1
 GAP=139        1.24       5.1     5.7  7.0 -0.8513E+01  0.1246E+02  0.3852E+01E
 Epicentro: LOS SANTOS - SANTANDER                                             3
 ACTION:UPD 16-07-21 22:20 OP:rebc STATUS:               ID:20160618084449 L   I
 OLDACT:UP  16-06-18 18:40 OP:dani STATUS:               ID:20160618083744     3
 OLDACT:UP  16-06-18 18:40 OP:dani STATUS:               ID:20160618083744     3
 OLDACT:UP  16-06-18 18:38 OP:dani STATUS:               ID:20160618083744     3
 OLDACT:REG 16-06-18 13:31 OP:dani STATUS:               ID:20160618083744     3
 2016-06-18-0837-44M.COL___340                                                 6
 STAT SP IPHASW D HRMM SECON CODA AMPLIT PERI AZIMU VELO AIN AR TRES W  DIS CAZ7
 BAR2 EZ EP        845  8.36                             171   -0.2110 20.5 194 
 BAR2 EZ ES        845 22.82                             171   -0.7110 20.5 194 
 BAR2 EZ I         845 24.48        13.9 0.24                          20.5 194 
 BRR  HZ EP        845 10.11                             151   -0.2010 73.4 300 
 BRR  HE ES        845 27.52                             151    0.8910 73.4 300 
 PAM  EZ EP        845 11.19                             150   -0.1810 79.3  38 
 PAM  EE ES        845 28.58                             150    0.0610 79.3  38 
 PAM  EZ I         845 30.51         5.5 0.24                          79.3  38 
 RUS  HZ EP        845 12.68                             144    0.0910 97.4 176 
 RUS  HE ES        845 31.20                             144    0.5110 97.4 176 
 RUS  HZ I         845 32.03         5.4 0.28                          97.4 176 
 PTB  HZ EP   4    845 14.96                             131   -1.15 0  148 260 
 PTB  HE ES        845 36.13                             131   -0.82 9  148 260 
 PTB  HZ I         845 37.97         7.5 0.42                           148 260 
 SPBC HZ EP        845 17.25                             129   -0.21 9  161 220 
 SPBC HE ES        845 39.89                             129    0.54 9  161 220 
 SPBC HZ I         845 43.62        11.6 0.22                           161 220 
 ZAR  HZ EP        845 21.79                             121   -0.03 8  206 293 
 ZAR  HN ES   4    845 46.11                             121   -1.00 0  206 293 
 ZAR  HZ I         845 51.62         6.3 0.42                           206 293 
 NOR  HZ EP        845 24.32                             118   -0.49 8  234 235 
 NOR  HE ES        845 52.22                             118   -0.21 8  234 235 
 NOR  HZ I         846  1.59         3.7 0.14                           234 235 
 HEL  HZ EP        845 30.35                             114    0.91 8  272 256 
 HEL  HE ES   4    846  2.70                             114    2.03 0  272 256 
 HEL  HZ I         846  6.32         3.1 0.30                           272 256 
 GUY2CHZ EP        845 33.36                             112    0.64 7  300 235 
 GUY2CHE ES   4    846 10.06                             112    3.55 0  300 235 
 GUY2CHZ I         846 14.51         3.3 0.34                           300 235 
 PRA  HZ EP   4    845 40.25                             106   -2.28 0  390 210 
 PRA  HE ES        846 23.40                             106   -0.58 6  390 210 
 PRA  HZ I         846 30.16         3.2 0.30                           390 210 
                                                                                
