 2012  918 0510 42.9 L   6.670 -73.177149.7  RSN  5 0.2 1.5LRSN                1
 GAP=176        0.48       5.0     4.7  6.1  0.7880E+01 -0.2481E+01 -0.1164E+02E
 Epicentro: VILLANUEVA - SANTANDER                                             3
 ACTION:UPD 12-10-22 14:19 OP:ep   STATUS:               ID:20120918051042 L   I
 2012-09-18-0510-00M.COL___227                                                 6
 STAT SP IPHASW D HRMM SECON CODA AMPLIT PERI AZIMU VELO AIN AR TRES W  DIS CAZ7
 BAR2 SZ EP   1    511  2.92                             177    0.07 7 8.62 184 
 BAR2 SZ ES   1    511 18.19                             177   -0.19 7 8.62 184 
 BAR2 SZ I         511 19.91         7.6 0.48                          8.62 184 
 GIR2 SZ EP   1    511  3.19                             162   -0.34 7 45.3 358 
 BRR  HZ EP        511  4.98                             151    0.1610 76.4 309 
 BRR  HZ I         511  5.26         6.9 0.24                          76.4 309 
 BRR  HN ES   1    511 22.09                             151    0.21 7 76.4 309 
 RUS  HN ES   1    511 24.37                             149    0.13 7 86.6 173 
 RUS  HZ I         511 26.25         3.2 0.30                          86.6 173 
 PTB  HN ES   1    511 30.46                             134   -0.20 7  142 264 
                                                                                
