 2013  818 0826  9.9 L   6.814 -73.113147.4  RSN  6 0.4 1.5LRSN                1
 GAP=204        1.05       4.4     9.1  7.2  0.1161E+02  0.7518E+01 -0.5968E+01E
 Epicentro: LOS SANTOS - SANTANDER                                             3
 ACTION:UPD 14-01-14 09:04 OP:ep   STATUS:               ID:20130818082610 L   I
 OLDACT:UP  13-08-19 05:25 OP:CF   STATUS:               ID:20130818082610 L   3
 OLDACT:REG 13-08-18 09:43 OP:stll STATUS:               ID:20130818081848     3
 2013-08-18-0818-48M.COL___201                                                 6
 STAT SP IPHASW D HRMM SECON CODA AMPLIT PERI AZIMU VELO AIN AR TRES W  DIS CAZ7
 BAR2 SZ EP        826 30.02                             170    0.2310 25.7 197 
 BAR2 SZ ES        826 44.85                             170   -0.4510 25.7 197 
 BAR2 SZ I         826 46.45         4.6 0.52            170           25.7 197 
 BRR  HZ EP        826 31.99                             152    0.6110 73.7 296 
 BRR  HN ES        826 48.78                             152    0.6510 73.7 296 
 BRR  HN I         826 52.68        13.0 0.16            151           73.7 296 
 RUS  HZ EP        826 34.00                             144    0.0710  102 178 
 RUS  HN ES        826 52.40                             144   -0.2610  102 178 
 RUS  HZ I         826 53.68         2.1 0.46            146            102 178 
 PTB  HZ EP        826 37.15                             131   -0.21 9  152 259 
 PTB  HN ES   4    826 56.64                             131   -2.13 0  152 259 
 SPBC HZ EP        826 39.02                             129    0.15 9  167 220 
 SPBC HN ES        827  1.17                             129   -0.28 9  167 220 
 SPBC HZ I         827  2.33         4.1 0.22            131            167 220 
 SML  HZ EP        826 46.60                             118   -0.05 8  244 334 
 SML  HN ES        827 14.46                             118   -0.84 8  244 334 
                                                                                
