 2015  418 0119 40.6 L   6.804 -73.158141.2  RSN 13 0.5 2.7LRSN                1
 GAP=135        1.35       3.8     5.3  7.4 -0.3525E+01  0.1110E+02 -0.3466E+01E
 Epicentro: LOS SANTOS - SANTANDER                                             3
 ACTION:UPD 15-06-03 16:55 OP:cam  STATUS:               ID:20150418011940 L   I
 OLDACT:REG 15-04-18 15:46 OP:carl STATUS:               ID:20150418011747     3
 2015-04-18-0117-47M.COL___269                                                 6
 STAT SP IPHASW D HRMM SECON CODA AMPLIT PERI AZIMU VELO AIN AR TRES W  DIS CAZ7
 BAR2 EZ IP     D  119 59.90                             170    0.1810 23.6 187 
 BAR2 EZ ES        120 14.26                             170   -0.3510 23.6 187 
 BAR2 EZ I         120 15.66        78.1 0.22            169           23.6 187 
 BRR  HZ IP     D  120  1.82                             152    0.6110 69.8 299 
 BRR  HN ES        120 18.17                             152    0.9110 69.8 299 
 BRR  HZ I         120 22.04        63.0 0.24            147           69.8 299 
 PAM  SZ IP     D  120  2.81                             150    0.4110 77.9  40 
 PAM  SN ES        120 19.48                             150    0.1110 77.9  40 
 PAM  SZ I         120 22.47        78.8 0.44            153           77.9  40 
 RUS  HZ IP     D  120  3.87                             143   -0.1110  101 175 
 RUS  HN ES        120 22.19                             143    0.0010  101 175 
 RUS  HZ I         120 23.38        56.7 0.28            146            101 175 
 PTB  HZ EP        120  6.45                             131   -0.67 9  147 259 
 PTB  HN ES        120 26.91                             131   -0.87 9  147 259 
 PTB  HZ I         120 30.06        89.9 0.14            130            147 259 
 OCA  HZ EP        120  8.33                             129   -0.21 9  160 354 
 OCA  HN ES        120 29.72                             129   -0.58 9  160 354 
 OCA  HZ I         120 31.31        71.1 0.14            129            160 354 
 SPBC HZ EP        120  8.90                             128    0.16 9  163 219 
 SPBC HN ES        120 30.10                             128   -0.56 9  163 219 
 ZAR  HZ EP        120 13.24                             122    0.60 9  203 292 
 ZAR  HN ES        120 38.56                             122    0.96 9  203 292 
 ZAR  HZ I         120 46.69        60.4 0.34            121            203 292 
 NOR  HZ EP        120 16.15                             118    0.14 8  234 234 
 NOR  HN ES        120 43.81                             118    0.20 8  234 234 
 NOR  HZ I         120 49.36        47.5 0.36            118            234 234 
 SML  HZ EP        120 16.70                             117   -0.20 8  243 336 
 SML  HN ES        120 44.14                             117   -1.05 8  243 336 
 SML  HZ I         120 59.01        38.3 0.10            117            243 336 
 ROSC BZ EP   4    120 20.42                             116    1.95 0  252 211 
 ROSC BN ES   4    120 50.78                             116    2.79 0  252 211 
 ROSC BZ I         120 54.35        33.3 0.40            117            252 211 
 HEL  HZ EP   4    120 20.45                             114   -0.03 0  271 256 
 HEL  HN ES   4    120 51.99                             114    0.42 0  271 256 
 HEL  HZ I         120 58.80        37.3 0.52            114            271 256 
 GUY2CHZ EP   4    120 24.49                             112    0.55 0  300 235 
 GUY2CHN ES   4    120 58.75                             112    1.03 0  300 235 
 GUY2CHZ I         121  7.32        23.8 0.66                           300 235 
                                                                                
