 2015  418 0935  2.8 L   6.749 -73.158144.6  RSN  5 0.4 1.5LRSN                1
 GAP=232        1.04       6.1     6.6  7.7  0.8805E+01  0.7005E+01  0.4543E+01E
 Epicentro: LOS SANTOS - SANTANDER                                             3
 ACTION:UPD 15-06-03 16:55 OP:cam  STATUS:               ID:20150418093502 L   I
 OLDACT:DUP 15-04-18 16:58 OP:carl STATUS:               ID:20150418092748d    3
 2015-04-18-0927-47M.COL___263                                                 6
 STAT SP IPHASW D HRMM SECON CODA AMPLIT PERI AZIMU VELO AIN AR TRES W  DIS CAZ7
 BAR2 EZ EP        935 22.18                             173    0.0010 17.5 189 
 BAR2 EZ ES        935 36.80                             173   -0.5010 17.5 189 
 BAR2 EZ I         935 39.90         7.0 0.22            168           17.5 189 
 BRR  HZ EP        935 24.00                             152    0.0910 72.9 303 
 BRR  HN ES        935 41.00                             152    0.6110 72.9 303 
 BRR  HZ I         935 44.25         6.1 0.42            151           72.9 303 
 RUS  HZ EP        935 26.38                             145    0.3510 95.1 175 
 RUS  HN ES        935 44.03                             145   -0.1410 95.1 175 
 RUS  HZ I         935 46.23         3.4 0.30            146           95.1 175 
 PTB  HZ EP        935 28.74                             132   -0.71 9  145 261 
 PTB  HN ES        935 49.90                             132   -0.34 9  145 261 
 PTB  HZ I         935 54.94         4.3 0.18            132            145 261 
 SPBC HZ EP        935 30.85                             130    0.15 9  158 220 
 SPBC HN ES        935 52.93                             130    0.45 9  158 220 
 SPBC HZ I         935 58.61         6.9 0.22            130            158 220 
                                                                                
