 2016  418 0431 21.4 L   6.820 -73.138144.8  RSN 14 0.4 1.9LRSN                1
 GAP=126        0.72       2.2     2.8  4.3 -0.8493E+00  0.3783E+01  0.1457E+00E
 Epicentro: LOS SANTOS - SANTANDER                                             3
 ACTION:UPD 16-05-05 14:22 OP:rebc STATUS:               ID:20160418043121 L   I
 OLDACT:ARG 16-04-18 12:56 OP:cara STATUS:               ID:20160418042747     3
 2016-04-18-0427-47M.COL___300                                                 6
 STAT SP IPHASW D HRMM SECON CODA AMPLIT PERI AZIMU VELO AIN AR TRES W  DIS CAZ7
 BAR2 EZ EP        431 41.05                             169    0.0510 25.7 191 
 BAR2 EZ ES        431 56.39                             169    0.1310 25.7 191 
 BAR2 EZ I         431 57.68        10.4 0.40            169           25.7 191 
 RUS  HZ EP        431 45.00                             143   -0.2510  103 177 
 RUS  HN ES        432  3.56                             143   -0.2710  103 177 
 RUS  HZ I         432  4.87         5.2 0.36            146            103 177 
 PTB  HZ EP        431 48.11                             131   -0.33 9  149 258 
 PTB  HN ES        432  9.15                             131   -0.35 9  149 258 
 PTB  HZ I         432 16.52         8.6 0.07            130            149 258 
 OCA  HZ EP        431 49.82                             130    0.35 9  158 353 
 OCA  HN ES        432 11.59                             130    0.25 9  158 353 
 OCA  HZ I         432 16.84        22.0 0.36            130            158 353 
 SPBC HZ EP        431 49.98                             128   -0.10 9  165 219 
 SPBC HN ES        432 12.37                             128   -0.05 9  165 219 
 SPBC HZ I         432 14.39        12.3 0.25            129            165 219 
 ZAR  HZ EP   2    431 54.41                             122    0.60 4  204 291 
 ZAR  HN ES        432 18.84                             122   -0.22 9  204 291 
 ZAR  HZ I         432 24.70        10.5 0.32            122            204 291 
 NOR  HZ EP        431 57.36                             118    0.04 8  237 234 
 NOR  HE ES        432 25.79                             118    0.47 8  237 234 
 NOR  HZ I         432 32.77         7.1 0.18            119            237 234 
 CHI  HZ EP   1    431 59.73                             117    0.39 6  251 195 
 CHI  HN ES        432 29.77                             117    0.86 8  251 195 
 HEL  HZ EP   2    432  1.37                             114   -0.38 4  273 255 
 HEL  HE ES        432 33.27                             114    0.07 8  273 255 
 HEL  HZ I         432 39.74         4.8 0.32            115            273 255 
 GUY2CHZ EP   2    432  6.01                             112    0.78 4  303 235 
 GUY2CHE ES        432 39.31                             112   -0.07 7  303 235 
 GUY2CHZ I         432 47.91         7.1 0.76                           303 235 
 CBOC HZ EP        432  8.61                             110    0.13 7  335 252 
 CBOC HE ES        432 44.78                             110   -0.40 7  335 252 
 CBOC HZ I         432 53.34         1.1 0.52            110            335 252 
 SDV  BZ EP   2    432 10.21                             108   -0.99 3  358  50 
 SDV  BN ES   4    432 44.54                             108   -5.47 0  358  50 
 SDV  BZ I         432 49.82         0.9 0.35            110            358  50 
 ORTC HZ EP        432 15.00                             106   -0.59 6  398 216 
 ORTC HE ES        432 57.38                             106   -0.46 6  398 216 
 ORTC HZ I         433  3.40         2.1 0.18            107            398 216 
 PAL  HZ EP   2    432 16.56                             106   -0.22 3  408 239 
 PAL  HE ES        433  0.42                             106    0.46 6  408 239 
 PAL  HZ I         433  5.46         2.2 0.50            106            408 239 
                                                                                
