 2012  818 0300 59.5 L   6.815 -73.082139.0  RSN  8 0.4 2.0LRSN                1
 GAP=144        0.88       4.0     5.5  7.6  0.5641E+01 -0.6055E+00 -0.7111E+01E
 Epicentro: LOS SANTOS - SANTANDER                                             3
 ACTION:UPD 12-09-10 11:56 OP:ep   STATUS:               ID:20120818030059 L   I
 2012-08-18-0300-00M.COL___217                                                 6
 STAT SP IPHASW D HRMM SECON CODA AMPLIT PERI AZIMU VELO AIN AR TRES W  DIS CAZ7
 BAR2 SZ EP   1    3 1 18.32                             169   -0.05 7 27.1 204 
 BAR2 SZ I         3 1 18.72        27.4 0.07                          27.1 204 
 BAR2 SZ ES   1    3 1 32.86                             169   -0.25 7 27.1 204 
 PAM  SZ EP   1    3 1 21.37                             152    0.75 7 71.7  36 
 BRR  HZ IP     C  3 1 20.25                             149    0.0310 76.8 295 
 BRR  HZ I         3 1 20.70        28.5 0.09                          76.8 295 
 BRR  HN ES        3 1 37.04                             149    0.6310 76.8 295 
 RUS  HZ EP   1    3 1 22.34                             142   -0.33 7  102 180 
 RUS  HN ES        3 1 40.67                             142   -0.0910  102 180 
 RUS  HZ I         3 1 41.66         5.6 0.22                           102 180 
 PTB  HN ES   2    3 1 46.79                             129   -0.93 5  155 259 
 OCA  HZ EP   1    3 1 27.08                             128   -0.12 7  160 351 
 OCA  HN ES        3 1 48.33                             128   -0.49 9  160 351 
 OCA  HZ I         3 1 50.01        13.8 0.20                           160 351 
 ZAR  HN ES        3 1 57.46                             120   -0.11 8  210 291 
 HEL  HZ EP   1    3 1 40.50                             113    0.34 6  279 256 
                                                                                
