 2013  718 0551 44.4 L   6.737 -73.186150.1  RSN  4 0.2 1.4LRSN                1
 GAP=184        0.42       5.9     6.4  8.1 -0.1306E+02 -0.1812E+02  0.2327E+02E
 Epicentro: VILLANUEVA - SANTANDER                                             3
 ACTION:UPD 13-08-12 10:38 OP:ep   STATUS:               ID:20130718054959 L   I
 OLDACT:UPD 13-07-18 10:35 OP:stll STATUS:               ID:20130718054959 L   3
 2013-07-18-0549-59M.COL___266                                                 6
 STAT SP IPHASW D HRMM SECON CODA AMPLIT PERI AZIMU VELO AIN AR TRES W  DIS CAZ7
 BAR2 SZ EP   1    552  4.32                             174   -0.12 7 16.1 179 
 BAR2 SZ I         552 21.75         2.8 0.18            136           16.1 179 
 BRR  HZ EP   1    552  6.19                             153    0.17 7 71.0 305 
 BRR  HN ES   1    552 23.03                             153    0.15 7 71.0 305 
 BRR  HN I         552 24.27         8.6 0.28            159           71.0 305 
 PTB  HZ EP   1    552 11.31                             134    0.07 7  142 261 
 PTB  HN ES   2    552 31.79                             134   -0.38 5  142 261 
 OCA  HN ES   2    552 36.19                             129   -0.29 5  167 355 
                                                                                
