 2012  118 0313 22.2 L   6.790 -73.168141.8  RSN 12 0.4 2.1LRSN                1
 GAP=134        0.79       3.3     3.8  5.4 -0.1652E+01  0.6275E+01  0.3028E+01E
 Epicentro: LOS SANTOS - SANTANDER                                             3
 ACTION:UP  12-02-03 08:18 OP:REBC STATUS:               ID:20120118031322 L   I
 2012-01-18-0310-00M.COL___187                                                 6
 STAT SP IPHASW D HRMM SECON CODA AMPLIT PERI AZIMU VELO SNR AR TRES W  DIS CAZ7
 BAR2 SZ EP   1    313 41.27                             171     0.0 7   22 184 
 BAR2 SZ ES   1    313 56.15                             171    -0.1 7   22 184 
 BAR2 SZ I         313 57.87        48.6 0.23                            22 184 
 BRR  HZ EP   1    313 43.14                             152     0.3 7   70 300 
 BRR  HN ES   1    313 59.41                             152     0.5 7   70 300 
 BRR  HZ I         314  2.65        20.5 0.12                            70 300 
 PAM  SZ EP   1    313 44.22                             149     0.1 7   80  40 
 PAM  SN ES   1    314  1.07                             149    -0.2 7   80  40 
 PAM  SZ I         314  3.50         6.9 0.30                            80  40 
 RUS  HZ EP   1    313 45.25                             143    -0.2 7  100 175 
 RUS  HN ES   1    314  3.72                             143     0.1 7  100 175 
 RUS  HZ I         314  5.65         9.7 0.25                           100 175 
 PTB  HZ EP   1    313 47.95                             132    -0.6 7  145 259 
 PTB  HN ES   1    314  8.70                             132    -0.5 7  145 259 
 OCA  SZ EP   1    313 50.45                             129     0.2 7  161 354 
 OCA  SZ ES   1    314 12.21                             129     0.0 7  161 354 
 OCA  SZ I         314 20.78        10.3 0.17                           161 354 
 ZAR  HZ EP   1    313 54.01                             122    -0.2 6  202 293 
 ZAR  HN ES   1    314 18.47                             122    -0.7 6  202 293 
 ZAR  HZ I         314 25.78        17.7 0.44                           202 293 
 NOR  SZ EP   1    313 57.35                             118     0.0 6  232 234 
 NOR  SN ES   1    314 25.11                             118     0.3 6  232 234 
 CHI  HZ EP   1    313 59.36                             116    -0.1 6  247 195 
 CHI  HZ I         314 34.57         5.1 0.33                           247 195 
 HEL  HZ EP   1    314  2.57                             114     0.7 6  269 256 
 HEL  HN ES   1    314 33.39                             114     0.5 6  269 256 
 HEL  HZ I         314 40.25         8.0 0.34                           269 256 
 RREF HZ EP   1    314  8.43                             110     0.6 5  319 229 
 RREF HZ I         314 53.08         8.1 0.36                           319 229 
 PRA  HZ EP   1    314 14.68                             106    -0.6 4  390 209 
 PRA  HN ES   1    314 56.85                             106     0.1 4  390 209 
 PRA  HZ I         315  1.05        13.9 0.33                           390 209 
                                                                                
