 2015 1118 0600  2.3 L   6.805 -73.096150.0  RSN  9 0.4 1.8LRSN                1
 GAP=188        0.84       2.5     4.4  4.9 -0.8928E+00  0.5493E+01 -0.1275E+01E
 Epicentro: LOS SANTOS - SANTANDER                                             3
 ACTION:UPD 15-12-28 16:11 OP:cam  STATUS:               ID:20151118060002 L   I
 OLDACT:REG 15-11-18 12:52 OP:ak   STATUS:               ID:20151118055738     3
 2015-11-18-0557-38M.COL___313                                                 6
 STAT SP IPHASW D HRMM SECON CODA AMPLIT PERI AZIMU VELO AIN AR TRES W  DIS CAZ7
 BAR2 EZ EP        6 0 22.41                             170   -0.0410 25.3 202 
 BAR2 EZ ES        6 0 38.00                             170   -0.1910 25.3 202 
 BAR2 EZ I         6 0 40.05         9.7 0.47            169           25.3 202 
 BRR  HZ EP     C  6 0 24.44                             152    0.3010 75.8 296 
 BRR  HN ES        6 0 41.51                             152    0.3110 75.8 296 
 BRR  HZ I         6 0 44.83         7.6 0.14            150           75.8 296 
 RUS  HZ EP        6 0 26.46                             145   -0.0010  101 179 
 RUS  HE ES        6 0 45.30                             145   -0.0310  101 179 
 RUS  HZ I         6 0 46.73         3.8 0.20            148            101 179 
 OCA  HZ EP        6 0 31.31                             130    0.38 9  160 351 
 OCA  HN ES        6 0 53.23                             130   -0.06 9  160 351 
 OCA  HZ I         6 0 58.46        17.8 0.40            132            160 351 
 SPBC HZ EP        6 0 31.42                             129   -0.04 9  167 220 
 SPBC HE ES        6 0 54.31                             129    0.08 9  167 220 
 SPBC HZ I         6 0 56.92        14.1 0.15            131            167 220 
 ZAR  HZ EP        6 0 35.31                             123   -0.18 8  209 291 
 ZAR  HE ES        6 1  1.93                             123    0.52 8  209 291 
 ZAR  HZ I         6 1  8.94         4.5 0.23            123            209 291 
 NOR  HZ EP        6 0 38.72                             119   -0.04 8  239 235 
 NOR  HN ES        6 1  6.34                             119   -0.87 8  239 235 
 NOR  HZ I         6 1 10.21         4.5 0.16            121            239 235 
 SML  HZ EP        6 0 38.99                             118   -0.35 8  246 334 
 SML  HN ES        6 1  7.53                             118   -0.72 8  246 334 
 GUY2CHZ EP        6 0 47.26                             113    0.65 7  306 235 
 GUY2CHN ES        6 1 21.29                             113    0.09 7  306 235 
 GUY2CHZ I         6 1 27.41         3.4 0.30                           306 235 
 MON  HZ EP   4    6 0 49.78                             109   -2.12 0  358 308 
 MON  HN ES   4    6 1 26.71                             109   -3.89 0  358 308 
                                                                                
