 2012  318 0700 33.4 L   6.788 -73.186145.3  RSN  6 0.3 1.7LRSN                1
 GAP=132        0.82       5.0     4.9  7.8  0.2425E+01  0.1215E+02 -0.7693E+01E
 ACTION:UP  12-03-31 23:20 OP:EP   STATUS:               ID:20120318070033 L   I
 2012-03-18-0700-00M.COL___202                                                 6
 STAT SP IPHASW D HRMM SECON CODA AMPLIT PERI AZIMU VELO SNR AR TRES W  DIS CAZ7
 BAR2 SZ EP   1    7 0 52.65                             171    -0.3 7   22 179 
 BAR2 SZ ES   1    7 1  7.97                             171    -0.2 7   22 179 
 BAR2 SZ I         7 1 10.13        15.5 0.31                            22 179 
 BRR  HZ EP        7 0 54.91                             154     0.610   68 301 
 BRR  HZ I         7 0 55.21        24.3 0.16                            68 301 
 BRR  HN ES   2    7 1 10.96                             154     0.3 5   68 301 
 PAM  SZ EP   1    7 0 55.82                             149     0.0 7   81  41 
 PAM  SN ES   1    7 1 12.96                             149    -0.3 7   81  41 
 PAM  SZ I         7 1 15.62         3.7 0.25                            81  41 
 RUS  HZ EP   1    7 0 57.04                             144     0.0 7  100 173 
 RUS  HN ES        7 1 15.64                             144     0.210  100 173 
 RUS  HZ I         7 1 17.32         4.3 0.22                           100 173 
 PTB  HZ EP   1    7 0 59.69                             133    -0.2 7  143 259 
 PTB  HN ES   1    7 1 20.23                             133    -0.3 7  143 259 
 PTB  HZ I         7 1 22.77         6.0 0.25                           143 259 
 ZAR  HZ EP   1    7 1  4.95                             123    -0.5 6  200 293 
 ZAR  HN ES   1    7 1 30.55                             123     0.1 6  200 293 
 ZAR  HZ I         7 1 38.16         6.5 0.21                           200 293 
                                                                                
