 2014 1218 0126 49.8 L   6.108 -73.268160.4  RSN 22 0.5 2.4LRSN                1
 GAP= 62        1.14       2.5     2.9  5.1 -0.1352E+01  0.3569E+01  0.6901E-01E
 Epicentro: OIBA - SANTANDER                                                   3
 ACTION:UPD 15-02-10 17:04 OP:nd   STATUS:               ID:20141218012649 L   I
 OLDACT:DUP 14-12-18 13:41 OP:fm   STATUS:               ID:20141218011745d    3
 2014-12-18-0117-44M.COL___296                                                 6
 STAT SP IPHASW D HRMM SECON CODA AMPLIT PERI AZIMU VELO AIN AR TRES W  DIS CAZ7
 RUS  HZ IP     D  127 12.44                             169    0.7310 31.5 139 
 RUS  HE ES        127 28.66                             169   -0.1710 31.5 139 
 RUS  HZ I         127 31.35        33.8 0.32            170           31.5 139 
 BAR2 EZ EP        127 12.58                             160    0.5010 54.3  10 
 BAR2 EZ ES        127 30.15                             160    0.6610 54.3  10 
 BAR2 EZ I         127 31.13        33.0 0.30            162           54.3  10 
 SPBC HZ EP     D  127 15.12                             146    0.5910  102 241 
 SPBC HE ES        127 34.04                             146    0.2010  102 241 
 SPBC HZ I         127 38.94        50.9 0.20            147            102 241 
 PTB  HZ EP        127 17.14                             137   -0.15 9  140 290 
 PTB  HE ES        127 38.81                             137    0.05 9  140 290 
 PTB  HZ I         127 42.29        42.9 0.24            138            140 290 
 PAM  SN ES        127 41.72                             135    0.27 9  150  25 
 PAM  SZ I         127 44.18        10.9 0.36            137            150  25 
 TAM  HZ EP        127 20.28                             131    0.54 9  167  77 
 TAM  HN ES        127 42.35                             131   -0.78 9  167  77 
 TAM  HZ I         127 43.80        13.4 0.13            134            167  77 
 CHI  HZ EP        127 20.76                             131    0.15 9  171 197 
 CHI  HN ES        127 44.13                             131   -0.55 9  171 197 
 CHI  HZ I         127 46.79        14.0 0.60            132            171 197 
 ROSC BZ EP        127 22.63                             129    1.02 9  182 220 
 ROSC BE ES        127 46.69                             129    0.24 9  182 220 
 ROSC BZ I         127 53.87        14.6 0.35            130            182 220 
 NOR  HZ EP        127 21.76                             128    0.14 9  187 251 
 NOR  HN ES        127 45.74                             128   -0.73 9  187 251 
 NOR  HZ I         127 47.37        24.6 0.54            129            187 251 
 VIL  SZ EP        127 25.02                             123   -0.54 8  226 192 
 VIL  SN ES        127 53.17                             123   -0.31 8  226 192 
 VIL  SZ I         127 55.14        26.2 0.32            124            226 192 
 ZAR  HZ EP        127 25.97                             122   -0.18 8  233 311 
 ZAR  HN ES        127 54.06                             122   -0.47 8  233 311 
 ZAR  HZ I         128  0.30        31.9 0.46            123            233 311 
 OCA  HZ EP        127 26.02                             121   -0.60 8  236 359 
 OCA  HE ES        127 54.75                             121   -0.61 8  236 359 
 OCA  HZ I         128  0.76        28.3 0.32            123            236 359 
 PTGC HN ES        127 56.07                             120   -0.82 8  246 149 
 PTGC HZ I         128  5.40        10.8 0.48            122            246 149 
 HEL  HZ EP        127 28.83                             120    0.39 8  250 272 
 HEL  HN ES        127 58.02                             120   -0.59 8  250 272 
 TOL  SZ EP        127 32.33                             117    0.42 7  283 234 
 TOL  SN ES        128  4.33                             117   -0.45 7  283 234 
 TOL  SZ I         128 10.24        23.3 0.46            118            283 234 
 ANIL HZ EP        127 33.57                             115    0.23 7  297 233 
 ANIL HN ES        128  7.29                             115   -0.05 7  297 233 
 CBOC HZ EP        127 34.46                             115    0.34 7  305 265 
 CBOC HN ES        128  8.71                             115   -0.00 7  305 265 
 CBOC HZ I         128 12.85         8.5 0.24            116            305 265 
 SML  HZ EP        127 33.84                             114   -0.68 7  311 343 
 SML  HN ES        128  9.10                             114   -0.34 7  311 343 
 SML  HZ I         128 16.58        25.5 0.10            116            311 343 
 ORTC HZ EP        127 36.10                             113   -0.36 7  327 222 
 ORTC HE ES   4    128 10.06                             113   -2.83 0  327 222 
 ORTC HZ I         128 17.20         8.0 0.24            114            327 222 
 DBB  SZ EP        127 38.55                             112    0.57 7  340 287 
 PAL  HZ EP        127 39.79                             111   -0.34 6  360 248 
 PAL  HN ES        128 19.57                             111    0.15 6  360 248 
 PAL  HZ I         128 25.56         6.2 0.30            112            360 248 
 SJC  HZ EP   4    127 50.23                             105   -2.59 0  469 333 
 SJC  HN ES   4    128 34.59                             105   -7.41 0  469 333 
 SJC  HZ I         128 40.66         4.3 0.44            107            469 333 
                                                                                
