 2017  718 0302 15.8 L   6.753 -73.177144.0  RSN  5 0.3 1.3LRSN                1
 GAP=230        0.67       3.9     4.4  5.5  0.2935E+01  0.4431E+01  0.2352E+01E
 Epicentro: LOS SANTOS - SANTANDER                                             3
 ACTION:UPD 17-08-30 15:34 OP:rebc STATUS:               ID:20170718030215 L   I
 OLDACT:DUP 17-07-18 15:02 OP:dnl  STATUS:               ID:20170718025742d    3
 2017-07-18-0258-00M.COL___371                                                 6
 STAT SP IPHASW D HRMM SECON CODA AMPLIT PERI AZIMU VELO AIN AR TRES W  DIS CAZ7
 BAR2 EZ EP        3 2 34.84                             173   -0.2510 17.7 182 
 BAR2 EZ ES        3 2 49.79                             173   -0.3610 17.7 182 
 BAR2 EZ I         3 2 50.89         4.6 0.18            170           17.7 182 
 BRR  HZ EP        3 2 36.88                             152    0.1710 70.9 304 
 BRR  HN ES        3 2 53.32                             152    0.2810 70.9 304 
 BRR  HZ I         3 2 57.58         3.8 0.44            152           70.9 304 
 RUS  HZ EP   2    3 2 38.87                             145   -0.13 5 95.7 174 
 RUS  HN ES        3 2 57.39                             145    0.2810 95.7 174 
 RUS  HZ I         3 2 59.63         2.0 0.20            145           95.7 174 
 PTB  HZ EP   2    3 2 41.66                             132   -0.54 5  143 261 
 PTB  HN ES        3 3  2.64                             132   -0.17 9  143 261 
 PTB  HZ I         3 3  5.25         1.6 0.18            132            143 261 
 SPBC HZ EP        3 2 43.87                             130    0.33 9  157 219 
 SPBC HN ES        3 3  5.09                             130   -0.11 9  157 219 
 SPBC HZ I         3 3 10.95         4.1 0.22            130            157 219 
                                                                                
