 2010  318 0717 31.5 L   6.790 -72.990136.9  RSN  4 0.1 1.7LRSN                1
 GAP=199        0.42       3.8     7.6  5.5  0.4372E+01 -0.1580E+02 -0.1019E+02E
 Epicentro: CEPITA - SANTANDER                                                 3
 ACTION:UP  10-08-24 09:54 OP:vdl  STATUS:               ID:20100318071731 L   I
 2010-03-18-0715-29S.COL___098                                                 6
 STAT SP IPHASW D HRMM SECON CODA AMPLIT PERI AZIMU VELO SNR AR TRES W  DIS CAZ7
 BAR2 SZ EP   2    717 50.40                             167     0.1 5   31 224 
 BAR2 SZ ES   1    718  4.89                             167     0.0 7   31 224 
 BRR  HZ EP        717 52.60                             146    -0.210   87 294 
 BRR  HZ I         717 52.97         9.9 0.05                            87 294 
 BRR  HE ES   1    718  9.47                             146     0.1 7   87 294 
 RUS  HN ES   3    718 12.02                             142    -0.1 2  100 186 
 OCA  SZ EP        717 59.74                             127     0.2 9  164 347 
 OCA  SZ ES   1    718 21.25                             127    -0.2 7  164 347 
 OCA  SZ I         718 22.23         6.0 0.19                           164 347 
                                                                                
