 2010  118 0219 44.9 L   6.853 -72.947143.3  RSN  6 0.4 1.8LRSN                1
 GAP=203        0.92       3.8    12.3  7.7 -0.1096E+02  0.3376E+02 -0.2100E+01E
 Epicentro: CEPITA - SANTANDER                                                 3
 ACTION:UP  10-08-24 09:44 OP:vdl  STATUS:               ID:20100118021944 L   I
 2010-01-18-0219-45S.COL___096                                                 6
 STAT SP IPHASW D HRMM SECON CODA AMPLIT PERI AZIMU VELO SNR AR TRES W  DIS CAZ7
 BAR2 SZ ES   1    220 19.26                             164    -0.8 8   39 222 
 RUS  BZ EP        220  9.00                             141     0.110  107 188 
 RUS  BN ES        220 28.08                             141     0.410  107 188 
 RUS  BZ I         220 30.00         2.6 0.45                           107 188 
 OCA  SZ EP        220 12.85                             129     0.0 9  159 345 
 OCA  SZ ES   1    220 35.03                             129     0.3 7  159 345 
 CHI  HZ EP        220 23.36                             115    -0.4 8  261 200 
 CHI  HN ES        220 54.27                             115     0.1 8  261 200 
 CHI  HZ I         220 59.37         3.4 0.43                           261 200 
 RREF BZ EP        220 33.68                             109     0.4 7  342 231 
 RREF BN ES   1    221 11.18                             109     0.1 5  342 231 
 RREF BZ I         221 17.99         4.4 0.58                           342 231 
 PRA  HZ EP   1    220 39.44                             105    -0.8 4  408 212 
 PRA  HE ES   2    221 23.31                             105    -0.1 3  408 212 
 PRA  HZ I         221 28.07         3.9 0.32                           408 212 
                                                                                
