 2010  918 0441 31.7 L   6.840 -73.050145.7  RSN 14 0.4 2.2LRSN                1
 GAP=169        0.91       3.6     7.4  6.7 -0.1042E+02  0.3317E+01  0.2499E+01E
 Epicentro: LOS SANTOS - SANTANDER                                             3
 ACTION:UP  11-02-18 11:03 OP:tino STATUS:               ID:20100918044131 L   I
 2010-09-18-0439-40S.COL___121                                                 6
 STAT SP IPHASW D HRMM SECON CODA AMPLIT PERI AZIMU VELO SNR AR TRES W  DIS CAZ7
 BTL  SZ IP        441 51.65                             170     0.310   26 290 
 BAR2 SZ EP   1    441 51.33                             167    -0.2 7   31 208 
 BAR2 SZ ES   2    442  6.56                             167    -0.4 5   31 208 
 BAR2 SZ I         442  9.98        23.8 0.36                            31 208 
 GIR2 SZ EP   2    441 51.26                             168    -0.1 5   31 329 
 GIR2 SZ ES   2    442  6.55                             168    -0.1 5   31 329 
 BRR  HZ EP        441 53.19                             150    -0.110   79 292 
 BRR  HE ES   1    442 10.09                             150    -0.1 7   79 292 
 BRR  HZ I         442 11.14        40.0 0.41                            79 292 
 RUS  HZ EP        441 55.57                             143    -0.210  105 182 
 RUS  HN ES   1    442 14.70                             143     0.2 7  105 182 
 RUS  HZ I         442 16.30        12.2 0.22                           105 182 
 GUE  SZ EP        441 55.05                             141    -0.910  110   7 
 GRA  SZ IP        441 56.90                             139     0.510  119  13 
 GRA  SZ I         441 58.21        26.8 0.25                           119  13 
 GRA  SZ ES   1    442 16.38                             139     0.8 7  119  13 
 OCA  SZ EP        441 59.61                             130    -0.2 9  158 349 
 OCA  SZ ES   2    442 21.97                             130     0.3 5  158 349 
 OCA  SZ I         442 25.54        13.8 0.23                           158 349 
 NOR  HZ EP   1    442  8.53                             117    -0.1 6  246 235 
 CHI  HZ EP   1    442 10.41                             116     0.2 6  256 197 
 CHI  HE ES   1    442 40.20                             116     0.0 6  256 197 
 CHI  HZ I         442 47.44         7.8 0.34                           256 197 
 ROSC BZ EP   2    442 10.87                             116     0.0 4  262 213 
 ROSC BE ES   2    442 41.97                             116     0.6 4  262 213 
 ROSC BZ I         442 47.64        13.2 0.63                           262 213 
 HEL  HZ EP   2    442 13.44                             114     0.3 4  283 255 
 HEL  HN ES   3    442 44.24                             114    -1.3 2  283 255 
 HEL  HZ I         442 50.61         8.0 0.40                           283 255 
 GUY  SN ES   3    442 51.38                             112    -0.2 2  313 235 
 RREF HZ EP   1    442 19.33                             110     0.2 5  333 230 
 RREF HN ES   2    442 57.12                             110     1.1 3  333 230 
 RREF HZ I         443  2.20         6.8 0.25                           333 230 
                                                                                
