 2010  518 0958 30.8 L   6.790 -73.122152.8  RSN 11 0.6 2.6LRSN                1
 GAP=176        1.20       6.2     8.9 10.3 -0.2755E+02 -0.2611E+01  0.1718E+02E
 Epicentro: LOS SANTOS - SANTANDER                                             3
 ACTION:UP  10-08-24 10:05 OP:vdl  STATUS:               ID:20100518095830 L   I
 2010-05-18-0953-41S.COL___108                                                 6
 STAT SP IPHASW D HRMM SECON CODA AMPLIT PERI AZIMU VELO SNR AR TRES W  DIS CAZ7
 BAR2 SZ EP        958 50.65                             171    -0.610   23 197 
 BAR2 SZ ES   2    959  6.47                             171    -0.7 5   23 197 
 BRR  HZ EP        958 53.31                             153     0.510   74 298 
 BRR  HZ I         958 53.55       121.6 0.14                            74 298 
 BRR  HN ES   1    959 10.91                             153     0.9 7   74 298 
 BRI  SZ EP        958 56.23                             143     0.910  109  19 
 BRI  SZ ES   2    959 14.02                             143    -0.5 5  109  19 
 GUE  SZ EP        958 56.66                             141     0.510  117  11 
 GRA  SZ EP        958 56.38                             139    -0.310  126  16 
 GRA  SZ ES   2    959 16.20                             139    -0.7 5  126  16 
 OCA  SZ EP        958 59.17                             131    -0.6 9  162 352 
 OCA  SZ ES   1    959 21.70                             131    -0.7 7  162 352 
 OCA  SZ I         959 25.82        53.2 0.36                           162 352 
 CHI  HZ EP   1    959  8.83                             119     0.0 6  248 196 
 CHI  HZ I         959 11.16        12.8 0.35                           248 196 
 CHI  HE ES   2    959 39.06                             119     0.6 4  248 196 
 HEL  HZ EP   2    959 12.09                             116     0.5 4  274 256 
 HEL  HE ES   2    959 42.65                             116    -0.8 4  274 256 
 HEL  HZ I         959 50.22        18.5 0.30                           274 256 
 RREF BZ EP   2    959 17.62                             112     0.3 3  323 230 
 RREF BE ES   2    959 53.70                             112     0.0 3  323 230 
 RREF BZ I        10 0  3.09        22.3 0.42                           323 230 
 DBB  SZ EP   1    959 18.49                             111    -0.3 5  342 274 
 DBB  SZ ES   2    959 55.95                             111    -0.4 3  342 274 
 PRA  HZ EP   1    959 24.22                             108    -0.3 4  392 210 
 PRA  HN ES   1   10 0  6.04                             108    -0.5 4  392 210 
 PRA  HZ I        10 0  9.35        10.0 0.39                           392 210 
                                                                                
