 2017  818 0117 30.9 L   6.787 -73.088140.9  RSN  4 0.6 1.3LRSN                1
 GAP=145        1.55       8.1    12.0 12.6 -0.2725E+01 -0.1046E+02  0.4378E+01E
 Epicentro: LOS SANTOS - SANTANDER                                             3
 ACTION:UPD 17-09-04 20:21 OP:rebc STATUS:               ID:20170818011730 L   I
 OLDACT:DUP 17-08-18 14:29 OP:lv   STATUS:               ID:20170818010750d    3
 2017-08-18-0108-00M.COL___404                                                 6
 STAT SP IPHASW D HRMM SECON CODA AMPLIT PERI AZIMU VELO AIN AR TRES W  DIS CAZ7
 BAR2 EZ EP        117 49.24                             170   -0.7610 24.0 206 
 BAR2 EZ ES        118  3.83                             170   -1.0410 24.0 206 
 BAR2 EZ I         118  6.39         5.1 0.16            172           24.0 206 
 PAM  EZ EP        117 52.74                             151    0.2710 74.6  35 
 PAM  EE ES        118  9.51                             151    0.2410 74.6  35 
 PAM  EZ I         118 12.20         5.2 0.56            151           74.6  35 
 BRR  HZ EP        117 51.77                             149   -0.1710 77.5 297 
 BRR  HN ES        118  8.92                             149    0.5910 77.5 297 
 RUS  HZ EP        117 54.16                             143    0.0710 98.9 180 
 RUS  HN ES        118 12.96                             143    0.8010 98.9 180 
 RUS  HZ I         118 13.51         1.7 0.24            145           98.9 180 
                                                                                
