 2017  818 0104 21.3 L   6.806 -73.056147.5  RSN  4 0.3 1.5LRSN                1
 GAP=247        0.73       5.6    11.2  6.1  0.3919E+02 -0.3597E+01  0.4087E+01E
 Epicentro: LOS SANTOS - SANTANDER                                             3
 ACTION:UPD 17-09-04 20:21 OP:rebc STATUS:               ID:20170818010421 L   I
 OLDACT:DUP 17-08-18 14:24 OP:lv   STATUS:               ID:20170818005741d    3
 2017-08-18-0058-00M.COL___404                                                 6
 STAT SP IPHASW D HRMM SECON CODA AMPLIT PERI AZIMU VELO AIN AR TRES W  DIS CAZ7
 BAR2 EZ EP   1    1 4 40.55                             169   -0.66 7 27.5 211 
 BAR2 EZ ES        1 4 56.66                             169   -0.0910 27.5 211 
 BAR2 EZ I         1 4 58.00         9.2 0.17            160           27.5 211 
 BRR  HZ EP        1 4 43.13                             150    0.0110 79.7 295 
 BRR  HN ES        1 5  0.26                             150    0.1110 79.7 295 
 BRR  HZ I         1 5  3.64         9.3 0.46            144           79.7 295 
 RUS  HZ EP        1 4 45.32                             144    0.0810  101 182 
 RUS  HN ES        1 5  4.17                             144    0.2410  101 182 
 RUS  HZ I         1 5  5.58         1.8 0.22            141            101 182 
 CHI  HZ EP   1    1 5  0.04                             117    0.59 6  252 197 
 CHI  HE ES   1    1 5 28.66                             117   -0.56 6  252 197 
 CHI  HZ I         1 5 33.05         2.0 0.32            116            252 197 
                                                                                
