 2012  118 0641 59.9 L   6.728 -73.175137.5  RSN  8 0.4 1.5LRSN                1
 GAP=136        0.87       3.6     5.2  6.8 -0.7741E+00  0.6959E+01  0.1003E+01E
 Epicentro: VILLANUEVA - SANTANDER                                             3
 ACTION:UP  12-02-03 08:18 OP:REBC STATUS:               ID:20120118064159 L   I
 2012-01-18-0640-00M.COL___187                                                 6
 STAT SP IPHASW D HRMM SECON CODA AMPLIT PERI AZIMU VELO SNR AR TRES W  DIS CAZ7
 BAR2 SZ EP   1    642 18.73                             173     0.4 7   15 183 
 BAR2 SZ ES   1    642 33.15                             173     0.4 7   15 183 
 BAR2 SZ I         642 35.08         6.3 0.16                            15 183 
 BRR  HZ EP   1    642 20.83                             150     0.6 7   73 305 
 BRR  HN ES   1    642 36.26                             150     0.2 7   73 305 
 BRR  HZ I         642 41.25         8.4 0.11                            73 305 
 PAM  SZ EP   1    642 21.58                             147    -0.2 7   86  38 
 PAM  SN ES   1    642 38.37                             147    -0.4 7   86  38 
 PAM  SZ I         642 42.38         2.3 0.33                            86  38 
 RUS  HZ EP   1    642 22.54                             144     0.3 7   93 174 
 RUS  HZ I         642 23.73         6.2 0.18                            93 174 
 RUS  HN ES   1    642 39.56                             144    -0.1 7   93 174 
 PTB  HZ EP   1    642 25.58                             131    -0.2 7  143 262 
 PTB  HN ES   1    642 45.37                             131    -0.6 7  143 262 
 PTB  HZ I         642 48.92         0.0 0.12                           143 262 
 OCA  SZ EP   1    642 28.32                             126     0.0 7  168 355 
 OCA  SZ ES   1    642 49.91                             126    -0.5 7  168 355 
 OCA  SZ I         642 54.08         7.1 0.54                           168 355 
 ZAR  HZ EP   1    642 31.89                             120     0.1 6  204 295 
 ZAR  HN ES   2    642 57.29                             120     0.6 4  204 295 
 ZAR  HZ I         643  2.97         5.2 0.31                           204 295 
 CHI  HZ EP   1    642 36.29                             116     0.1 6  240 195 
 CHI  HN ES   1    643  3.92                             116    -0.6 6  240 195 
 CHI  HZ I         643 11.73         1.8 0.29                           240 195 
                                                                                
