 2017  718 0721 34.1 L   6.833 -73.116156.0  RSN  5 0.2 1.2LRSN                1
 GAP=261        0.48       5.5     4.8  5.3 -0.4938E+01  0.5164E+01  0.1008E+02E
 Epicentro: LOS SANTOS - SANTANDER                                             3
 ACTION:UPD 17-08-30 15:34 OP:rebc STATUS:               ID:20170718072134 L   I
 OLDACT:UP  17-07-18 16:37 OP:dnl  STATUS:               ID:20170718071740     3
 OLDACT:UP  17-07-18 16:37 OP:dnl  STATUS:               ID:20170718071740     3
 OLDACT:REG 17-07-18 13:50 OP:dnl  STATUS:               ID:20170718071740     3
 2017-07-18-0718-00M.COL___368                                                 6
 STAT SP IPHASW D HRMM SECON CODA AMPLIT PERI AZIMU VELO AIN AR TRES W  DIS CAZ7
 BAR2 EZ EP        721 54.82                             169   -0.2010 27.6 195 
 BAR2 EZ ES        722 11.50                             169    0.1410 27.6 195 
 BAR2 EZ I         722 23.06        10.5 0.18            145           27.6 195 
 BRR  HZ EP   2    721 56.71                             154    0.31 5 72.5 295 
 BRR  HE ES        722 13.82                             154   -0.0010 72.5 295 
 BRR  HZ I         722 14.19         2.8 0.30            170           72.5 295 
 RUS  HZ EP   4    721 57.27                             145   -1.81 0  104 178 
 RUS  HZ I         722 21.29         0.9 0.34            127            104 178 
 PTB  HZ EP   2    722  1.86                             134   -0.38 5  152 258 
 PTB  HN ES   4    722 21.86                             134   -2.34 0  152 258 
 PTB  HZ I         722 26.23         1.2 0.12            133            152 258 
 NOR  HZ EP   2    722 11.52                             120    0.60 4  239 234 
 NOR  HN ES        722 39.60                             120   -0.05 8  239 234 
 NOR  HZ I         722 44.45         1.7 0.32            115            239 234 
                                                                                
