 2017  418 0024 38.7 L   6.783 -73.145140.7  RSN  5 0.3 1.5LRSN                1
 GAP=137        0.60       3.4     5.4  4.6 -0.5417E+01 -0.1166E+01 -0.1232E+01E
 Epicentro: LOS SANTOS - SANTANDER                                             3
 ACTION:UPD 17-05-30 21:13 OP:jn   STATUS:               ID:20170418002438 L   I
 OLDACT:UP  17-04-18 13:36 OP:cog  STATUS:               ID:20170418001742     3
 OLDACT:REG 17-04-18 12:22 OP:cog  STATUS:               ID:20170418001742     3
 2017-04-18-0018-00M.COL___368                                                 6
 STAT SP IPHASW D HRMM SECON CODA AMPLIT PERI AZIMU VELO AIN AR TRES W  DIS CAZ7
 BAR2 EZ EP        024 57.50                             171   -0.2110 21.5 191 
 BAR2 EZ ES        025 12.17                             171   -0.3410 21.5 191 
 BAR2 EZ I         025 13.43        10.6 0.28            172           21.5 191 
 BRR  HZ EP        024 59.30                             151   -0.0810 72.2 300 
 BRR  HN ES   3    025 16.78                             151    1.28 2 72.2 300 
 BRR  HZ I         025 20.10        12.9 0.32            149           72.2 300 
 PAM  EZ EP        025  0.55                             149    0.0610 78.8  39 
 PAM  EE ES        025 17.60                             149    0.1410 78.8  39 
 PAM  EZ I         025 19.41         5.2 0.50            151           78.8  39 
 RUS  HZ EP        025  2.07                             143    0.2310 98.7 176 
 RUS  HE ES        025 19.99                             143    0.1210 98.7 176 
 RUS  HZ I         025 20.80         3.4 0.24            147           98.7 176 
 PTB  HZ EP   9    025  4.14                             131   -1.12 0  148 260 
 PTB  HN ES        025 25.04                             132    0.20 9  148 260 
 PTB  HZ I         025 27.68         2.7 0.24            131            148 260 
                                                                                
