 2015  818 0920 42.1 L   6.787 -73.156152.0  RSN  6 0.4 1.5LRSN                1
 GAP=200        0.97       4.5     7.7  7.6  0.1137E+02  0.9511E+00 -0.7505E+01E
 Epicentro: LOS SANTOS - SANTANDER                                             3
 ACTION:UPD 15-09-15 23:03 OP:cam  STATUS:               ID:20150818092042 L   I
 OLDACT:REG 15-08-18 13:48 OP:spq  STATUS:               ID:20150818091738     3
 2015-08-18-0917-38M.COL___322                                                 6
 STAT SP IPHASW D HRMM SECON CODA AMPLIT PERI AZIMU VELO AIN AR TRES W  DIS CAZ7
 BAR2 EZ EP        921  2.27                             171   -0.2210 21.8 188 
 BAR2 EZ ES   1    921 17.69                             171   -0.67 7 21.8 188 
 BAR2 EZ I         921 18.49         3.1 0.18            170           21.8 188 
 BRR  HZ EP   1    921  4.11                             154    0.17 7 70.8 300 
 BRR  HE ES        921 21.40                             154    0.4510 70.8 300 
 BRR  HZ I         921 26.84         7.2 0.54            150           70.8 300 
 RUS  HZ EP   1    921  6.48                             145    0.07 7 99.3 175 
 RUS  HE ES        921 25.62                             145    0.2710 99.3 175 
 RUS  HZ I         921 26.13         2.1 0.28            148           99.3 175 
 SPBC HZ EP        921 11.58                             131    0.63 9  161 219 
 SPBC HN ES        921 32.88                             131   -0.54 9  161 219 
 SPBC HZ I         921 35.85         4.7 0.40            131            161 219 
 ZAR  HE ES   1    921 40.34                             124   -0.18 6  203 293 
 ZAR  HZ I         921 45.38         2.3 0.38            124            203 293 
 SML  HZ EP        921 18.64                             119   -0.56 8  244 336 
 SML  HE ES   1    921 48.37                             119    0.26 6  244 336 
 SML  HZ I         921 50.65         4.4 0.26            120            244 336 
                                                                                
