 2014  618 0234 34.6 L   6.807 -73.153142.0  RSN 22 0.5 2.4LRSN 3.2WRSN        1
 SPEC AVERAGE  MO 13.9 ST0.108 OM  2.0 f0 1.29 R1.6906 AL 0.00 WI 30.0 MW  3.2 3
 SPEC SD       MO  0.3 ST0.144 OM  0.5 f00.409 R0.7491 AL      WI      MW  0.2 3
 GAP=135        0.93       2.5     3.2  4.8 -0.1480E+01  0.5514E+01  0.1345E+01E
 Epicentro: LOS SANTOS - SANTANDER                                             3
 SPEC PAM SH Z MO 14.5 ST0.042 OM  2.6 f00.590 R3.2610 AL-0.00 WI 30.0 MW  3.6 3
 SPEC PAM SH Z T 23512 K 0.000 GD  161 VS 5.20 DE 3.50 Q0750.0 QA 1.50 VS 5.20 3
 SPEC ROSCBH Z MO 13.8 ST0.119 OM  1.6 f0 1.48 R1.3000 AL-0.00 WI 30.0 MW  3.1 3
 SPEC ROSCBH Z T 23543 K 0.000 GD  290 VS 5.20 DE 3.50 Q0750.0 QA 1.50 VS 5.20 3
 SPECGUY2CHH Z MO 13.7 ST  0.1 OM  1.5 f0 1.18 R  1.63 AL-0.00 WI 30.0 MW  3.1 3
 SPECGUY2CHH Z T 23554 K       GD332.8 VS 5.20 DE 3.50 Q0750.0 QA 1.50 VS 5.20 3
 SPEC CBOCHH Z MO 13.7 ST0.043 OM  1.4 f0 1.14 R1.6877 AL-0.00 WI 30.0 MW  3.1 3
 SPEC CBOCHH Z T 23557 K 0.000 GD  362 VS 5.20 DE 3.50 Q0750.0 QA 1.50 VS 5.20 3
 SPEC TOL SH Z MO 14.0 ST0.301 OM  1.7 f0 1.72 R1.1186 AL-0.00 WI 30.0 MW  3.3 3
 SPEC TOL SH Z T 236 0 K 0.000 GD  371 VS 5.20 DE 3.50 Q0750.0 QA 1.50 VS 5.20 3
 SPEC PRA HH Z MO 13.7 ST0.067 OM  1.4 f0 1.26 R1.5270 AL-0.00 WI 30.0 MW  3.1 3
 SPEC PRA HH Z T 236 8 K 0.000 GD  416 VS 5.20 DE 3.50 Q0750.0 QA 1.50 VS 5.20 3
 SPEC ORTCHH Z MO 13.5 ST0.078 OM  1.2 f0 1.54 R1.2494 AL-0.00 WI 30.0 MW  3.0 3
 SPEC ORTCHH Z T 236 9 K 0.000 GD  420 VS 5.20 DE 3.50 Q0750.0 QA 1.50 VS 5.20 3
 OLDACT:UP  14-06-18 14:31 OP:mh   STATUS:               ID:20140618022815     3
 OLDACT:UP  14-06-18 14:30 OP:mh   STATUS:               ID:20140618022815     3
 OLDACT:UP  14-06-18 14:25 OP:mh   STATUS:               ID:20140618022815     3
 OLDACT:REG 14-06-18 12:28 OP:mh   STATUS:               ID:20140618022815     3
 ACTION:UPD 14-07-01 22:54 OP:nd   STATUS:               ID:20140618023434 L   I
 OLDACT:UP  14-06-18 14:32 OP:mh   STATUS:               ID:20140618022815     3
 OLDACT:UP  14-06-18 14:32 OP:mh   STATUS:               ID:20140618022815     3
 2014-06-18-0228-15M.COL___262                                                 6
 STAT SP IPHASW D HRMM SECON CODA AMPLIT PERI AZIMU VELO AIN AR TRES W  DIS CAZ7
 BAR2 SZ EP        234 53.76                             170   -0.0410 24.0 188 
 BAR2 SZ ES   1    235  8.92                             170    0.15 7 24.0 188 
 BAR2 SZ I         235 11.24        42.2 0.28            167           24.0 188 
 BRR  HZ EP     C  234 55.47                             152    0.1810 70.1 298 
 BRR  HN ES   1    235 11.76                             152    0.34 7 70.1 298 
 BRR  HZ I         235 16.25        28.0 0.16            153           70.1 298 
 PAM  SZ EP        234 56.56                             150    0.1410 77.3  40 
 PAM  SN ES        235 13.61                             150    0.1810 77.3  40 
 PAM  SZ I         235 15.90        45.9 0.33            155           77.3  40 
 RUS  HZ EP   1    234 57.79                             143   -0.26 7  101 176 
 RUS  HN ES        235 16.35                             143    0.0110  101 176 
 RUS  HZ I         235 18.17        25.5 0.36            143            101 176 
 PTB  HZ EP        235  0.43                             131   -0.78 9  147 258 
 PTB  HN ES        235 21.86                             131   -0.10 9  147 258 
 PTB  HZ I         235 23.80        45.7 0.40            132            147 258 
 OCA  HZ EP        235  2.58                             129    0.03 9  159 353 
 OCA  HN ES        235 24.40                             129    0.06 9  159 353 
 OCA  HZ I         235 27.60        27.4 0.18            133            159 353 
 SPBC HZ EP        235  2.67                             128   -0.16 9  163 219 
 SPBC HN ES        235 24.93                             128    0.09 9  163 219 
 SPBC HZ I         235 30.73        37.7 0.38            129            163 219 
 ZAR  HZ EP   1    235  6.48                             122   -0.22 6  203 292 
 ZAR  HN ES        235 31.78                             122    0.05 9  203 292 
 ZAR  HZ I         235 37.79        29.8 0.21            124            203 292 
 NOR  HZ EP        235  9.72                             118   -0.37 8  234 234 
 NOR  HN ES        235 37.49                             118   -0.28 8  234 234 
 NOR  HZ I         235 42.92        20.8 0.16            119            234 234 
 SML  HZ EP   1    235 10.52                             117   -0.39 6  243 335 
 SML  HN ES   1    235 38.38                             117   -0.85 6  243 335 
 CHI  HZ EP   1    235 11.46                             116   -0.70 6  249 195 
 CHI  HN ES   1    235 40.50                             116   -0.94 6  249 195 
 ROSC BZ EP   2    235 13.53                             116    0.98 4  253 211 
 ROSC BN ES   4    235 45.16                             116    3.02 0  253 211 
 ROSC BZ I         235 51.23        18.2 0.30            117            253 211 
 HEL  HZ EP   1    235 15.48                             114    0.92 6  271 256 
 HEL  HN ES        235 44.99                             114   -0.73 8  271 256 
 HEL  HZ I         235 52.99        13.7 0.62            116            271 256 
 GUY2CHZ EP        235 18.71                             112    0.69 7  301 235 
 GUY2CHN ES   4    235 56.37                             112    4.50 0  301 235 
 GUY2CHZ I         236  2.30        15.1 0.42                           301 235 
 PTGC HZ EP   4    235 16.68                             111   -1.73 0  310 159 
 PTGC HN ES   4    235 50.01                             111   -2.57 0  310 159 
 PTGC HZ I         236  2.70        19.5 0.46            112            310 159 
 RREF HZ EP        235 20.98                             110    0.41 7  322 229 
 RREF HN ES   4    235 59.70                             110    3.28 0  322 229 
 RREF HZ I         236  4.81        14.3 0.21            111            322 229 
 CBOC HZ EP        235 21.86                             109    0.56 7  333 252 
 CBOC HN ES        235 58.81                             109    1.08 7  333 252 
 DBB  SZ EP   1    235 22.11                             109    0.28 5  339 274 
 DBB  SZ ES        235 58.57                             109   -0.09 7  339 274 
 TOL  SZ EP   1    235 23.78                             109    1.07 5  343 224 
 TOL  SN ES   4    236  2.41                             109    2.18 0  343 224 
 PRA  HZ EP   1    235 27.44                             106   -0.59 4  392 209 
 PRA  HN ES   1    236  9.70                             106    0.00 4  392 209 
 PRA  HZ I         236 15.76        10.5 0.32            107            392 209 
 ORTC HZ EP        235 28.02                             106   -0.39 6  396 216 
 ORTC HN ES        236 11.22                             106    0.84 6  396 216 
 ORTC HZ I         236 17.76         7.4 0.50            107            396 216 
 SJC  HZ EP   4    235 27.46                             105   -2.46 0  408 327 
 SJC  HN ES   4    236  7.59                             105   -5.47 0  408 327 
 SJC  HZ I         236 12.62         5.3 0.25            107            408 327 
                                                                                
