 2017  918 0012 40.5 L   6.774 -73.118144.0  RSN  4 0.3 1.3LRSN                1
 GAP=141        0.72       3.9     5.7  6.7 -0.4013E+00 -0.2294E+01  0.2921E+01E
 Epicentro: LOS SANTOS - SANTANDER                                             3
 ACTION:UPD 17-10-05 19:13 OP:rebc STATUS:               ID:20170918001240 L   I
 OLDACT:UP  17-09-18 13:35 OP:and  STATUS:               ID:20170918000746     3
 OLDACT:UP  17-09-18 13:34 OP:and  STATUS:               ID:20170918000746     3
 OLDACT:UP  17-09-18 13:34 OP:and  STATUS:               ID:20170918000746     3
 OLDACT:REG 17-09-18 12:24 OP:and  STATUS:               ID:20170918000746     3
 2017-09-18-0008-00M.COL___439                                                 6
 STAT SP IPHASW D HRMM SECON CODA AMPLIT PERI AZIMU VELO AIN AR TRES W  DIS CAZ7
 BAR2 EZ IP     D  012 59.74                             171   -0.1110 21.3 199 
 BAR2 EZ ES   2    013 13.98                             171   -0.99 5 21.3 199 
 BAR2 EZ I         013 15.57         6.9 0.12            172           21.3 199 
 BRR  HZ EP        013  1.33                             151   -0.3410 75.3 299 
 BRR  HN ES        013 18.51                             151    0.3110 75.3 299 
 BRR  HZ I         013 19.40         4.5 0.12            153           75.3 299 
 PAM  EZ IP     C  013  2.47                             151   -0.0610 77.8  36 
 PAM  EN ES        013 19.86                             151    0.1410 77.8  36 
 PAM  EZ I         013 21.51         3.0 0.58            151           77.8  36 
 RUS  HZ EP        013  4.08                             144    0.2510 97.5 178 
 RUS  HN ES        013 22.11                             144    0.0610 97.5 178 
 RUS  HZ I         013 23.51         2.6 0.26            146           97.5 178 
                                                                                
