 2017 1018 0557 45.5 L   6.696 -73.180150.1  RSN  5 0.3 1.5LRSN                1
 GAP=225        0.81       6.2     5.7  5.9  0.2161E+02  0.5050E+01 -0.2544E+01E
 Epicentro: VILLANUEVA - SANTANDER                                             3
 ACTION:UPD 17-11-07 19:33 OP:rebc STATUS:               ID:20171018055745 L   I
 OLDACT:UP  17-10-18 14:50 OP:dani STATUS:               ID:20171018054743     3
 OLDACT:UP  17-10-18 14:50 OP:dani STATUS:               ID:20171018054743     3
 OLDACT:REG 17-10-18 13:23 OP:dani STATUS:               ID:20171018054743     3
 2017-10-18-0548-00M.COL___420                                                 6
 STAT SP IPHASW D HRMM SECON CODA AMPLIT PERI AZIMU VELO AIN AR TRES W  DIS CAZ7
 BAR2 EZ EP        558  5.09                             175   -0.3410 11.4 181 
 BAR2 EZ ES        558 20.65                             175   -0.3710 11.4 181 
 BAR2 EZ I         558 21.98         6.4 0.32            174           11.4 181 
 BRR  HZ EP     C  558  7.19                             152   -0.0610 74.3 308 
 BRR  HN ES        558 24.59                             152    0.3410 74.3 308 
 BRR  HZ I         558 28.87         3.5 0.16            150           74.3 308 
 RUS  HZ EP        558  9.34                             148    0.4610 89.4 173 
 RUS  HN ES        558 27.39                             148    0.2410 89.4 173 
 RUS  HZ I         558 28.44         8.7 0.28            151           89.4 173 
 PTB  HZ EP        558 11.96                             134   -0.33 9  142 263 
 PTB  HN ES        558 32.96                             134   -0.25 9  142 263 
 PTB  HZ I         558 36.95         2.3 0.12            134            142 263 
 ZAR  HZ EP        558 18.31                             123    0.01 9  205 296 
 ZAR  HE ES        558 44.27                             123    0.34 9  205 296 
 ZAR  HZ I         558 50.33         3.8 0.22            124            205 296 
                                                                                
