 2012 1018 0917  8.3 L   6.746 -73.157160.3  RSN  5 0.4 1.7LRSN                1
 GAP=181        0.84       9.9    10.5  8.6  0.6978E+02  0.1734E+02  0.2400E+02E
 Epicentro: JORDAN - SANTANDER                                                 3
 ACTION:UPD 12-11-22 17:04 OP:ep   STATUS:               ID:20121018091707 L   I
 2012-10-18-0910-00M.COL___224                                                 6
 STAT SP IPHASW D HRMM SECON CODA AMPLIT PERI AZIMU VELO AIN AR TRES W  DIS CAZ7
 BAR2 SZ EP   1    917 29.84                             174    0.31 7 17.2 189 
 BAR2 SZ ES   1    917 46.28                             174    0.15 7 17.2 189 
 BAR2 SZ I         917 46.85         8.4 0.41                          17.2 189 
 GIR2 SZ EP   1    917 30.04                             166    0.23 7 37.0 354 
 GIR2 SZ ES   1    917 46.06                             166   -0.56 7 37.0 354 
 BRR  HZ EP   1    917 31.68                             154    0.59 7 73.2 303 
 BRR  HE ES   1    917 49.03                             154    0.13 7 73.2 303 
 BRR  HN I         917 49.78        17.8 0.23                          73.2 303 
 RUS  HZ EP        917 32.58                             148   -0.4910 94.7 175 
 RUS  HN ES   2    917 53.03                             148    0.60 5 94.7 175 
 RUS  HN I         917 54.02         3.5 0.18                          94.7 175 
 ZAR  HN ES   1    918  7.63                             125   -0.34 6  205 294 
                                                                                
