 2010 1118 0143 21.6 L   6.822 -73.090146.0  RSN 11 0.4 2.2LRSN                1
 GAP=165        0.92       3.8     6.9  6.9 -0.1021E+02  0.9899E+01  0.3536E+00E
 Epicentro: LOS SANTOS - SANTANDER                                             3
 ACTION:UP  10-12-17 16:53 OP:REBC STATUS:               ID:20101118014321 L   I
 2010-11-18-0139-16S.COL___129                                                 6
 STAT SP IPHASW D HRMM SECON CODA AMPLIT PERI AZIMU VELO SNR AR TRES W  DIS CAZ7
 BTL  SZ EP        143 41.38                             171     0.210   22 298 
 BAR2 SZ IP        143 41.01                             169    -0.310   28 202 
 BAR2 SZ ES   1    143 56.43                             169    -0.3 7   28 202 
 BAR2 SZ I         143 57.75        33.1 0.30                            28 202 
 BRR  HZ EP        143 42.89                             151    -0.110   76 295 
 BRR  HZ I         143 43.21        38.4 0.11                            76 295 
 BRR  HE ES   1    143 59.52                             151    -0.2 7   76 295 
 RUS  HZ EP   1    143 44.95                             143    -0.5 7  103 180 
 RUS  HE ES   1    144  4.87                             143     0.7 7  103 180 
 RUS  HZ I         144  5.43         8.8 0.48                           103 180 
 GRA  SZ IP        143 46.75                             138     0.310  122  15 
 GRA  SZ ES   1    144  5.71                             138    -0.2 7  122  15 
 GRA  SZ I         144  8.64        17.9 0.25                           122  15 
 OCA  SZ EP        143 49.34                             130    -0.4 9  159 351 
 OCA  SZ ES   1    144 12.55                             130     0.8 7  159 351 
 OCA  SZ I         144 16.18        16.5 0.36                           159 351 
 NOR  SZ EP   2    143 57.49                             118    -0.5 4  241 235 
 NOR  SE ES   2    144 25.55                             118    -0.9 4  241 235 
 ROSC BZ EP   2    144  0.84                             116     0.6 4  258 212 
 ROSC BE ES   2    144 31.45                             116     1.0 4  258 212 
 ROSC BZ I         144 38.57         9.0 0.30                           258 212 
 HEL  HZ EP   1    144  2.86                             114     0.3 6  279 256 
 HEL  HE ES   2    144 34.77                             114     0.3 4  279 256 
 HEL  HZ I         144 39.69         7.7 0.24                           279 256 
 RREF HZ EP   2    144  8.71                             110     0.3 3  328 230 
 RREF HE ES   2    144 45.19                             110     0.2 3  328 230 
 RREF HZ I         144 53.76         8.6 0.42                           328 230 
 PRA  HZ EP   1    144 15.70                             106     0.0 4  397 210 
 PRA  HE ES   1    144 57.68                             106    -0.2 4  397 210 
 PRA  HZ I         145  0.08        14.7 0.50                           397 210 
                                                                                
