 2016  218 0336 37.9 L   6.793 -73.151150.6  RSN  5 0.4 1.2LRSN                1
 GAP=140        1.09       6.0     6.3  9.3 -0.1525E+02  0.1065E+02  0.5877E+01E
 Epicentro: LOS SANTOS - SANTANDER                                             3
 ACTION:UPD 16-03-04 21:27 OP:rebc STATUS:               ID:20160218033637 L   I
 OLDACT:UP  16-02-18 13:53 OP:drio STATUS:               ID:20160218032747     3
 OLDACT:UP  16-02-18 13:53 OP:drio STATUS:               ID:20160218032747     3
 OLDACT:REG 16-02-18 12:37 OP:drio STATUS:               ID:20160218032747     3
 2016-02-18-0327-47M.COL___334                                                 6
 STAT SP IPHASW D HRMM SECON CODA AMPLIT PERI AZIMU VELO AIN AR TRES W  DIS CAZ7
 PAM  EZ EP        337  1.02                             151    0.3310 78.3  40 
 PAM  EN ES        337 18.57                             151    0.1010 78.3  40 
 RUS  HZ EP        337  1.96                             145   -0.1310 99.9 176 
 RUS  HE ES        337 20.47                             145   -0.4810 99.9 176 
 RUS  HZ I         337 22.03         1.0 0.46            145           99.9 176 
 PTB  HZ EP        337  4.52                             133   -0.70 9  147 259 
 PTB  HE ES        337 26.34                             133   -0.18 9  147 259 
 PTB  HZ I         337 32.06         2.3 0.40            133            147 259 
 SPBC HZ EP        337  7.15                             130    0.45 9  162 219 
 SPBC HE ES        337 29.94                             130    0.78 9  162 219 
 SPBC HZ I         337 34.99         3.3 0.16            130            162 219 
 CHI  HZ EP        337 15.66                             118   -0.13 8  248 195 
 CHI  HN ES   4    337 46.53                             118    1.19 0  248 195 
 CHI  HZ I         337 49.63         0.9 0.42            119            248 195 
                                                                                
