 2010 1218 0844 55.8 L   6.817 -73.001146.2  RSN 12 0.5 2.5LRSN                1
 GAP=148        0.96       3.4     6.8  6.4 -0.2552E+01  0.8719E+01  0.4101E+01E
 Epicentro: CEPITA - SANTANDER                                                 3
 ACTION:UP  11-01-14 15:25 OP:pat  STATUS:               ID:20101218084455 L   I
 2010-12-18-0843-11S.COL___136                                                 6
 STAT SP IPHASW D HRMM SECON CODA AMPLIT PERI AZIMU VELO SNR AR TRES W  DIS CAZ7
 BTL  SZ IP        845 16.00                             167     0.310   31 291 
 BAR2 SZ IP        845 15.96                             167     0.210   32 219 
 BAR2 SZ ES   1    845 30.76                             167    -0.5 7   32 219 
 BAR2 SZ I         845 33.84        74.1 0.43                            32 219 
 BRR  HZ IP        845 17.78                             148    -0.110   85 292 
 BRR  HZ I         845 18.15        77.5 0.11                            85 292 
 BRR  HN ES   1    845 35.44                             148     0.4 7   85 292 
 RUS  HZ EP        845 19.89                             143     0.110  103 185 
 RUS  HN ES   1    845 38.07                             143    -0.4 7  103 185 
 RUS  HZ I         845 39.36        30.9 0.23                           103 185 
 GRA  SZ IP        845 20.67                             138     0.010  120  10 
 GRA  SZ ES   1    845 39.49                             138    -0.5 7  120  10 
 GRA  SZ I         845 43.15        53.5 0.36                           120  10 
 OCA  SZ EP        845 24.12                             130    -0.1 9  161 347 
 OCA  SZ ES   2    845 47.13                             130     0.7 5  161 347 
 OCA  SZ I         845 50.46        46.8 0.15                           161 347 
 YOP  SZ EP   2    845 26.44                             127     1.0 4  174 158 
 YOP  SN ES   1    845 48.72                             127     0.2 7  174 158 
 NOR  SZ EP        845 32.31                             117    -0.8 8  249 236 
 CHI  HZ EP        845 34.03                             116    -0.2 8  255 199 
 CHI  HZ I         845 35.56        13.6 0.42                           255 199 
 CHI  HN ES   2    846  4.44                             116     0.2 4  255 199 
 ROSC BZ IP     D  845 35.68                             116     0.6 8  263 214 
 ROSC BN ES   2    846  6.57                             116     0.9 4  263 214 
 ROSC BZ I         846 11.80        31.7 0.46                           263 214 
 RREF HZ EP        845 43.41                             110    -0.1 7  335 231 
 RREF HN ES   2    846 21.57                             110     0.8 3  335 231 
 RREF HZ I         846 25.87        18.2 0.42                           335 231 
 PRA  HZ EP        845 49.91                             106    -0.6 6  402 211 
 PRA  HN ES   2    846 32.28                             106    -0.9 3  402 211 
                                                                                
