 2016  318 0313 25.7 L   6.808 -73.177142.1  RSN  5 0.3 1.5LRSN                1
 GAP=276        0.62       6.3     4.9  7.2  0.6867E+01  0.1527E+02  0.5343E+01E
 Epicentro: LOS SANTOS - SANTANDER                                             3
 ACTION:UPD 16-05-13 21:25 OP:cam  STATUS:               ID:20160318031325 L   I
 OLDACT:REG 16-03-18 12:55 OP:dnl  STATUS:               ID:20160318030750     3
 2016-03-18-0307-50M.COL___318                                                 6
 STAT SP IPHASW D HRMM SECON CODA AMPLIT PERI AZIMU VELO AIN AR TRES W  DIS CAZ7
 BAR2 EZ EP   2    313 44.35                             170   -0.51 5 23.8 181 
 BAR2 EZ ES        313 59.72                             170   -0.1210 23.8 181 
 BAR2 EZ I         314  2.40         8.2 0.28             47           23.8 181 
 RUS  HZ EP   2    313 49.41                             143    0.27 5  102 174 
 RUS  HN ES        314  7.73                             143    0.2810  102 174 
 RUS  HZ I         314  9.41         3.8 0.26             47            102 174 
 PTB  HZ EP   2    313 51.91                             132   -0.13 5  145 258 
 PTB  HN ES        314 12.93                             132    0.32 9  145 258 
 PTB  HZ I         314 15.02         2.4 0.15             47            145 258 
 SPBC HZ EP   2    313 53.86                             129    0.12 5  162 218 
 SPBC HN ES        314 15.19                             129   -0.45 9  162 218 
 SPBC HZ I         314 18.54         9.0 0.20             47            162 218 
 NOR  HZ EP   2    314  0.95                             118    0.02 4  232 234 
 NOR  HZ I         314 31.74         2.6 0.26             47            232 234 
                                                                                
