 2013  218 0827  5.9 L   6.123 -73.658114.2  RSN  7 0.5 1.1LRSN                1
 GAP=115        0.92       3.6     5.9  8.8  0.3141E+01  0.1555E+02  0.5081E+01E
 Epicentro: CHIPATA - SANTANDER                                                3
 ACTION:UPD 13-03-12 09:34 OP:ep   STATUS:               ID:20130218082705 L   I
 2013-02-18-0820-00M.COL___240                                                 6
 STAT SP IPHASW D HRMM SECON CODA AMPLIT PERI AZIMU VELO AIN AR TRES W  DIS CAZ7
 RUS  HZ EP   1    827 23.68                             147   -0.61 8 68.6 112 
 RUS  HN ES   1    827 38.05                             147   -0.57 8 68.6 112 
 RUS  HZ I         827 40.21         1.9 0.20            151           68.6 112 
 BAR2 SZ ES   1    827 38.93                             145    0.31 8 73.9  45 
 PTB  HZ EP   1    827 25.60                             136   -0.39 8 99.6 298 
 PTB  HN ES   1    827 41.43                             136   -0.21 8 99.6 298 
 PTB  HZ I         827 43.48         5.0 0.28            138           99.6 298 
 BRR  HZ EP   1    827 26.78                             133    0.00 8  109 357 
 BRR  HN ES   1    827 43.43                             133    0.38 8  109 357 
 BRR  HZ I         827 47.62         2.6 0.32            137            109 357 
 CHI  HZ EP     C  827 33.15                             120    0.2810  165 183 
 CHI  HN ES   1    827 54.60                             120    0.71 7  165 183 
 CHI  HZ I         827 59.17         1.6 0.38            123            165 183 
 OCA  HN ES   1    828  8.05                             111    0.72 7  237   9 
 SML  HZ EP   1    827 46.83                             105   -0.67 6  300 351 
                                                                                
