 2013  718 0744  5.7 L   6.756 -73.136138.6  RSN  6 0.4 1.5LRSN                1
 GAP=187        0.76       4.4     5.7  7.1  0.4765E+01  0.4431E+01  0.7020E+01E
 Epicentro: LOS SANTOS - SANTANDER                                             3
 ACTION:UPD 13-08-12 10:38 OP:ep   STATUS:               ID:20130718073959 L   I
 OLDACT:UPD 13-07-18 10:35 OP:stll STATUS:               ID:20130718073959 L   3
 2013-07-18-0739-59M.COL___267                                                 6
 STAT SP IPHASW D HRMM SECON CODA AMPLIT PERI AZIMU VELO AIN AR TRES W  DIS CAZ7
 BAR2 SZ EP   1    744 24.57                             172    0.15 7 18.8 196 
 BAR2 SZ I         744 40.55         5.1 0.16            171           18.8 196 
 GIR2 SZ EP   1    744 24.72                             164    0.01 7 36.3 350 
 GIR2 SZ ES   1    744 38.91                             164   -0.60 7 36.3 350 
 GIR2 SZ I         744 40.33         6.8 0.10            158           36.3 350 
 BRR  HZ EP   1    744 26.52                             150    0.20 7 74.6 301 
 BRR  HN ES        744 42.82                             150    0.4510 74.6 301 
 BRR  HN I         744 43.54         9.8 0.22            149           74.6 301 
 RUS  HZ EP   1    744 28.63                             144    0.21 7 95.6 176 
 RUS  HN ES        744 46.02                             144   -0.1010 95.6 176 
 RUS  HN I         744 47.80         2.7 0.16            139           95.6 176 
 PTB  HZ EP   1    744 31.41                             130   -0.74 7  148 261 
 PTB  HN ES   1    744 52.41                             130   -0.33 7  148 261 
 PTB  HN I         744 54.44        11.2 0.22            128            148 261 
 SPBC HZ EP   1    744 33.60                             128    0.20 7  160 220 
 SPBC HN ES   1    744 55.15                             128    0.18 7  160 220 
                                                                                
