 2014  618 0846 48.9 L   6.786 -73.153145.9  RSN 21 0.5 2.5LRSN                1
 GAP= 65        0.94       2.3     3.0  5.0 -0.9634E+00  0.3363E+01  0.8899E+00E
 Epicentro: LOS SANTOS - SANTANDER                                             3
 ACTION:UPD 14-07-01 22:54 OP:nd   STATUS:               ID:20140618084648 L   I
 OLDACT:UP  14-06-18 16:55 OP:mh   STATUS:               ID:20140618083818     3
 OLDACT:REG 14-06-18 12:35 OP:mh   STATUS:               ID:20140618083818     3
 2014-06-18-0838-18M.COL___256                                                 6
 STAT SP IPHASW D HRMM SECON CODA AMPLIT PERI AZIMU VELO AIN AR TRES W  DIS CAZ7
 BAR2 SZ EP     D  847  8.66                             171    0.1410 21.7 189 
 BAR2 SZ ES   1    847 24.20                             171    0.38 7 21.7 189 
 PAM  SZ EP        847 11.67                             150    0.4310 79.1  39 
 PAM  SN ES   1    847 28.27                             150   -0.39 7 79.1  39 
 PAM  SZ I         847 30.77        34.8 0.48            155           79.1  39 
 RUS  HZ EP     C  847 12.48                             144   -0.0910 99.1 176 
 RUS  HN ES        847 31.23                             144    0.2010 99.1 176 
 RUS  HZ I         847 32.21        28.3 0.46            147           99.1 176 
 PTB  HZ EP     C  847 15.12                             132   -0.67 9  147 259 
 PTB  HN ES   1    847 36.26                             132   -0.49 7  147 259 
 PTB  HZ I         847 42.02        43.3 0.44            131            147 259 
 TAM  HZ IP     C  847 16.90                             130    0.26 9  156 104 
 TAM  HN ES   4    847 35.79                             130   -2.47 0  156 104 
 TAM  HZ I         847 37.75        19.1 0.26            137            156 104 
 SPBC HZ EP     C  847 17.48                             129    0.22 9  161 219 
 SPBC HN ES        847 39.54                             129    0.17 9  161 219 
 SPBC HZ I         847 44.00        61.3 0.16            130            161 219 
 OCA  HZ EP        847 17.55                             129    0.19 9  162 353 
 OCA  HN ES        847 39.31                             129   -0.24 9  162 353 
 OCA  HZ I         847 43.10        27.2 0.38            131            162 353 
 ZAR  HZ EP        847 21.58                             122    0.24 9  204 293 
 ZAR  HN ES        847 46.77                             122    0.13 9  204 293 
 ZAR  HZ I         847 53.73        42.5 0.18            123            204 293 
 NOR  HZ EP        847 24.43                             119   -0.05 8  233 235 
 NOR  HN ES        847 52.48                             119    0.25 8  233 235 
 NOR  HZ I         847 59.51        26.2 0.16            119            233 235 
 SML  HZ EP        847 25.38                             117   -0.27 8  245 336 
 SML  HN ES        847 53.90                             117   -0.41 8  245 336 
 SML  HZ I         847 58.87        38.1 0.10            119            245 336 
 CHI  HZ EP        847 26.27                             117   -0.17 8  247 195 
 CHI  HN ES        847 54.89                             117   -0.81 8  247 195 
 CHI  HZ I         847 59.77        13.6 0.58            119            247 195 
 ROSC BZ EP   4    847 28.20                             117    1.35 0  251 211 
 ROSC BN ES   1    847 56.81                             117    0.37 6  251 211 
 ROSC BZ I         848  6.29        29.5 0.43            118            251 211 
 HEL  HZ EP        847 29.64                             115    0.64 8  271 256 
 HEL  HN ES        848  0.50                             115    0.23 8  271 256 
 HEL  HZ I         848  7.55        17.6 0.34            116            271 256 
 URE  HZ EP   4    847 28.35                             114   -1.61 0  284 292 
 URE  HN ES   4    847 59.37                             114   -2.61 0  284 292 
 URE  HZ I         848 15.50        20.1 0.18            114            284 292 
 GUY2CHZ EP        847 32.76                             112    0.41 7  300 235 
 GUY2CHN ES   4    848  9.32                             112    3.09 0  300 235 
 GUY2CHZ I         848 15.03        19.6 0.35                           300 235 
 PTGC HZ EP     C  847 31.46                             112   -1.19 7  308 158 
 PTGC HZ I         847 33.95        22.3 0.18            114            308 158 
 PTGC HN ES   4    848  4.22                             112   -2.55 0  308 158 
 RREF HZ EP   4    847 36.09                             111    1.22 0  320 229 
 RREF HN ES   4    848 12.47                             111    1.74 0  320 229 
 CBOC HZ EP        847 36.29                             110    0.60 7  332 252 
 CBOC HN ES        848 11.39                             110   -0.78 7  332 252 
 TOL  SZ EP        847 37.73                             109    0.75 7  342 225 
 TOL  SN ES   1    848 13.38                             109   -1.10 5  342 225 
 TOL  SZ I         848 21.32        32.6 0.40            111            342 225 
 PRA  HZ EP     C  847 42.00                             107   -0.24 6  390 210 
 PRA  HN ES   1    848 24.26                             107    0.43 4  390 210 
 ORTC HZ EP        847 42.82                             106    0.18 6  394 216 
 ORTC HN ES   1    848 24.58                             106    0.04 4  394 216 
 ORTC HZ I         848 32.64         7.9 0.30            108            394 216 
 SJC  HZ EP   4    847 42.28                             106   -2.29 0  410 327 
 SJC  HN ES   4    848 23.67                             106   -4.31 0  410 327 
 SJC  HZ I         848 32.20         3.9 0.50            107            410 327 
                                                                                
