 2017 1218 0529 47.0 L   6.845 -73.148142.1  RSN  6 0.2 1.5LRSN                1
 GAP=195        0.62       2.5     3.6  4.7 -0.2867E+01  0.4290E+01 -0.1424E+01E
 Epicentro: LOS SANTOS - SANTANDER                                             3
 ACTION:UPD 18-01-04 13:21 OP:rebc STATUS:               ID:20171218052947 L   I
 OLDACT:REG 17-12-18 12:39 OP:dhb  STATUS:               ID:20171218052744     3
 2017-12-18-0528-00M.COL___460                                                 6
 STAT SP IPHASW D HRMM SECON CODA AMPLIT PERI AZIMU VELO AIN AR TRES W  DIS CAZ7
 BAR2 EZ IP     C  530  6.22                             168   -0.0410 28.2 188 
 BAR2 EZ ES        530 21.33                             168    0.0210 28.2 188 
 BAR2 EZ I         530 22.42         7.6 0.30            167           28.2 188 
 PTB  HZ EP        530 13.70                             131    0.00 9  149 257 
 PTB  HE ES        530 34.07                             131   -0.48 9  149 257 
 PTB  HZ I         530 38.42         1.9 0.24            130            149 257 
 OCA  HZ EP        530 14.67                             130    0.16 9  155 353 
 OCA  HE ES        530 35.86                             130   -0.14 9  155 353 
 OCA  HZ I         530 40.47         7.6 0.20            131            155 353 
 SPBC HZ EP        530 15.51                             127   -0.03 9  167 218 
 SPBC HE ES        530 38.28                             127    0.45 9  167 218 
 SPBC HZ I         530 43.17         4.0 0.10            128            167 218 
 ZAR  HZ EP        530 19.00                             122    0.05 9  202 291 
 ZAR  HE ES        530 44.29                             122    0.39 9  202 291 
 ZAR  HZ I         530 51.46         2.7 0.26            122            202 291 
 NOR  HZ EP        530 22.48                             117   -0.29 8  237 233 
 NOR  HN ES        530 50.60                             117   -0.10 8  237 233 
 NOR  HZ I         530 58.25         1.7 0.14            118            237 233 
                                                                                
