 2017  718 0834 18.8 L   6.724 -73.199152.8  RSN  5 0.3 1.2LRSN                1
 GAP=225        0.68       5.9     5.8  7.3  0.2148E+02  0.1575E+02  0.2696E+01E
 Epicentro: VILLANUEVA - SANTANDER                                             3
 ACTION:UPD 17-08-30 15:34 OP:rebc STATUS:               ID:20170718083419dL   I
 OLDACT:DUP 17-07-18 16:55 OP:dnl  STATUS:               ID:20170718082740d    3
 2017-07-18-0828-00M.COL___368                                                 6
 STAT SP IPHASW D HRMM SECON CODA AMPLIT PERI AZIMU VELO AIN AR TRES W  DIS CAZ7
 BAR2 EZ EP   2    834 38.92                             174   -0.19 5 14.7 173 
 BAR2 EZ ES        834 54.46                             174   -0.5110 14.7 173 
 BAR2 EZ I         834 55.38         4.8 0.14            175           14.7 173 
 BRR  HZ EP   2    834 40.65                             154   -0.01 5 70.8 307 
 BRR  HE ES        834 58.20                             154    0.4710 70.8 307 
 BRR  HZ I         835  1.51         4.0 0.48            151           70.8 307 
 RUS  HZ EP   2    834 42.89                             147    0.20 5 92.8 172 
 RUS  HN ES        835  1.61                             147    0.2610 92.8 172 
 RUS  HZ I         835  2.68         2.1 0.36            149           92.8 172 
 PTB  HZ EP   2    834 45.57                             135   -0.11 5  141 262 
 PTB  HN ES        835  6.52                             135   -0.16 9  141 262 
 PTB  HZ I         835  9.58         1.0 0.30            134            141 262 
 ZAR  HZ EP   2    834 51.35                             124   -0.12 4  202 295 
 ZAR  HE ES        835 16.95                             124   -0.03 9  202 295 
 ZAR  HZ I         835 23.70         1.7 0.32            123            202 295 
                                                                                
