 2011  518 0445 37.5 L   7.391 -73.178128.3  RSN 10 0.2 1.9LRSN                1
 GAP=107        0.46       2.6     3.2  3.8 -0.2642E+01  0.2416E-01  0.1383E+01E
 Epicentro: EL PLAYON - SANTANDER                                              3
 ACTION:UP  11-06-29 08:54 OP:tino STATUS:               ID:20110518044537 L   I
 2011-05-18-0444-44S.COL___141                                                 6
 STAT SP IPHASW D HRMM SECON CODA AMPLIT PERI AZIMU VELO SNR AR TRES W  DIS CAZ7
 GIR2 SZ EP        445 55.28                             164     0.110   35 183 
 BTL  SZ EP   1    445 56.19                             156     0.1 7   53 191 
 PAM  SZ EP   1    445 56.58                             156     0.1 7   53  96 
 PAM  SN ES   1    446 11.15                             156    -0.1 7   53  96 
 BRI  SZ EP   1    445 56.41                             155     0.3 7   55  49 
 BRR  HZ IP     D  445 56.48                             151     0.010   67 242 
 BRR  HN ES        446 11.37                             151     0.010   67 242 
 BRR  HZ I         446 12.66        36.2 0.15                            67 242 
 GRA  SZ EP   1    445 56.77                             150    -0.1 7   68  37 
 GRA  SZ ES   1    446 11.87                             150     0.0 7   68  37 
 GRA  SZ I         446 13.34        49.7 0.28                            68  37 
 BAR2 SZ EP   1    445 58.52                             143     0.3 7   88 180 
 BAR2 SZ ES   2    446 14.55                             143     0.1 5   88 180 
 BAR2 SZ I         446 17.57        20.3 0.37                            88 180 
 OCA  SZ EP   1    445 58.36                             141    -0.3 7   95 351 
 OCA  SZ ES   2    446 14.97                             141    -0.2 5   95 351 
 OCA  SZ I         446 18.13        15.3 0.18                            95 351 
 RUS  HZ EP   1    446  5.37                             124    -0.1 7  166 176 
 RUS  HN ES   2    446 26.71                             124    -0.7 5  166 176 
 RUS  HZ I         446 30.04         3.0 0.20                           166 176 
 HEL  HZ EP   2    446 18.94                             109    -0.2 4  292 243 
 HEL  HZ I         446 57.08         3.4 0.21                           292 243 
                                                                                
