 2016  118 0338 31.6 L   6.808 -73.208139.4  RSN  4 0.3 1.4LRSN                1
 GAP=299        0.72       9.2     5.9  9.5 -0.1071E+02  0.2104E+02 -0.4184E+02E
 Epicentro: ZAPATOCA - SANTANDER                                               3
 ACTION:UPD 16-03-09 23:26 OP:cam  STATUS:               ID:20160118033831 L   I
 OLDACT:UP  16-01-18 19:10 OP:mh   STATUS:               ID:20160118033449d    3
 OLDACT:UP  16-01-18 19:10 OP:mh   STATUS:               ID:20160118033449d    3
 OLDACT:DUP 16-01-18 19:08 OP:mh   STATUS:               ID:20160118033449d    3
 OLDACT:REG 16-01-18 19:01 OP:mh   STATUS:               ID:20160118033448     3
 2016-01-18-0334-48M.COL___327                                                 6
 STAT SP IPHASW D HRMM SECON CODA AMPLIT PERI AZIMU VELO AIN AR TRES W  DIS CAZ7
 RUS  HZ EP        338 54.51                             142   -0.3110  102 172 
 RUS  HN ES        339 12.99                             142    0.0410  102 172 
 RUS  HZ I         339 14.38         1.5 0.18            137            102 172 
 SPBC HZ EP   1    338 59.69                             128    0.44 7  160 217 
 SPBC HN ES   1    339 21.44                             128    0.60 7  160 217 
 SPBC HZ I         339 23.80         6.3 0.05            124            160 217 
 NOR  HZ EP        339  6.51                             118    0.11 8  230 233 
 NOR  HN ES        339 33.08                             118   -0.48 8  230 233 
 NOR  HZ I         339 39.86         2.4 0.06            115            230 233 
 CHI  HZ EP        339  9.02                             116    0.19 8  248 194 
 CHI  HN ES        339 37.75                             116   -0.14 8  248 194 
 CHI  HZ I         339 43.55         1.5 0.48            113            248 194 
                                                                                
