 2017  718 0524 11.4 L   6.805 -73.159150.2  RSN  6 0.4 1.5LRSN                1
 GAP=237        1.00       5.8     6.3  8.1  0.1303E+02  0.1132E+02 -0.2870E+01E
 Epicentro: LOS SANTOS - SANTANDER                                             3
 ACTION:UPD 17-08-30 15:34 OP:rebc STATUS:               ID:20170718052411 L   I
 OLDACT:REG 17-07-18 13:46 OP:dnl  STATUS:               ID:20170718051740     3
 2017-07-18-0518-00M.COL___371                                                 6
 STAT SP IPHASW D HRMM SECON CODA AMPLIT PERI AZIMU VELO AIN AR TRES W  DIS CAZ7
 BAR2 EZ EP        524 31.56                             171   -0.0510 23.6 186 
 BAR2 EZ ES        524 46.97                             171   -0.3710 23.6 186 
 BAR2 EZ I         524 49.02         6.6 0.26            170           23.6 186 
 BRR  HZ IP     C  524 33.34                             154    0.3510 69.7 299 
 BRR  HN ES        524 50.46                             154    0.6710 69.7 299 
 BRR  HZ I         524 54.31         5.8 0.42            152           69.7 299 
 RUS  HZ EP   2    524 35.68                             145    0.00 5  101 175 
 RUS  HN ES        524 54.34                             145   -0.2410  101 175 
 RUS  HZ I         524 56.08         2.6 0.50            147            101 175 
 PTB  HZ EP        524 38.33                             133   -0.33 9  146 259 
 PTB  HN ES        524 59.32                             133   -0.56 9  146 259 
 PTB  HZ I         525  1.47         3.1 0.58            134            146 259 
 SPBC HZ EP   2    524 40.70                             130    0.46 5  163 218 
 SPBC HN ES        525  3.38                             130    0.68 9  163 218 
 SPBC HZ I         525  6.77         4.9 0.10            131            163 218 
 ZAR  HZ EP   2    524 44.07                             124    0.05 4  202 292 
 ZAR  HN ES        525  9.10                             124   -0.33 9  202 292 
 ZAR  HZ I         525 15.11         2.8 0.38            125            202 292 
                                                                                
