 2012  218 0540 46.7 L   6.794 -73.102149.9  RSN 14 0.4 2.5LRSN                1
 GAP=142        0.53       3.3     3.5  4.9 -0.1946E+01  0.4077E+01  0.5451E+01E
 ACTION:UP  12-03-07 16:31 OP:epov STATUS:               ID:20120218054046 L   I
 2012-02-18-0540-00M.COL___188                                                 6
 STAT SP IPHASW D HRMM SECON CODA AMPLIT PERI AZIMU VELO AIN AR TRES W  DIS CAZ7
 BAR2 SZ EP   1    541  6.73                             171   -0.14 7 24.0 202 
 BAR2 SZ ES   2    541 21.73                             171   -0.85 5 24.0 202 
 BAR2 SZ I         541 23.85        50.7 0.47                          24.0 202 
 GIR2 SZ EP   2    541  6.83                             167   -0.11 5 33.1 342 
 GIR2 SZ ES   2    541 23.13                             167    0.43 5 33.1 342 
 PAM  SZ EP   1    541  9.61                             152    0.36 7 74.9  36 
 PAM  SN ES   2    541 26.92                             152    0.11 5 74.9  36 
 BRR  HZ EP   1    541  8.62                             152    0.03 7 75.8 297 
 BRR  HE ES   2    541 26.17                             152    0.54 5 75.8 297 
 BRR  HZ I         541 28.99        50.1 0.21                          75.8 297 
 RUS  HZ EP   1    541 10.81                             145   -0.02 7 99.7 179 
 RUS  HN ES   2    541 29.48                             145   -0.14 5 99.7 179 
 RUS  HZ I         541 31.14        23.3 0.35                          99.7 179 
 PTB  HZ EP   2    541 13.28                             132   -1.17 5  152 259 
 PTB  HE ES   2    541 35.90                             132   -0.18 5  152 259 
 ZAR  HZ EP   2    541 19.31                             123   -0.63 4  209 292 
 ZAR  HN ES   2    541 45.55                             123   -0.28 4  209 292 
 ZAR  HZ I         541 51.89        44.8 0.38                           209 292 
 NOR  SZ EP   2    541 22.61                             119   -0.47 4  238 235 
 NOR  SN ES   2    541 51.81                             119    0.37 4  238 235 
 CHI  HZ EP   1    541 24.85                             118    0.12 6  249 196 
 CHI  HE ES   2    541 54.40                             118    0.03 4  249 196 
 CHI  HZ I         542  0.05        11.4 0.44                           249 196 
 ROSC BZ EP   2    541 25.59                             117    0.30 4  255 212 
 ROSC BN ES   2    541 55.60                             117    0.23 4  255 212 
 ROSC BZ I         542  2.56        23.1 0.65                           255 212 
 HEL  HZ EP   2    541 28.00                             115    0.34 4  277 256 
 HEL  HN ES   2    541 59.56                             115   -0.02 4  277 256 
 HEL  HZ I         542  4.20        12.0 0.39                           277 256 
 GUY  SZ EP   2    541 31.69                             113    0.49 4  307 236 
 GUY  SN ES   2    542  6.53                             113    0.65 4  307 236 
 GUY  SZ I         542 12.32        21.8 0.47                           307 236 
 RREF HZ EP   2    541 33.75                             111    0.32 3  325 230 
 RREF HE ES   2    542  9.98                             111    0.13 3  325 230 
 RREF HZ I         542 18.00        14.1 0.52                           325 230 
 PRA  HZ EP   2    541 40.56                             107   -0.05 3  394 210 
 PRA  HN ES   2    542 22.36                             107   -0.27 3  394 210 
                                                                                
