 2011  118 0820  5.8 L   6.806 -73.117144.1  RSN 15 0.4 2.8LRSN                1
 GAP=104        0.86       2.9     4.3  5.9 -0.3821E+01  0.7603E+01 -0.1379E+00E
 Epicentro: LOS SANTOS - SANTANDER                                             3
 ACTION:UP  11-02-08 08:41 OP:pat  STATUS:               ID:20110118082005 L   I
 2011-01-18-0818-02S.COL___134                                                 6
 STAT SP IPHASW D HRMM SECON CODA AMPLIT PERI AZIMU VELO SNR AR TRES W  DIS CAZ7
 BAR2 SZ IP        820 25.29                             170     0.010   25 197 
 BAR2 SZ ES   1    820 39.97                             170    -0.5 7   25 197 
 BAR2 SZ I         820 41.62       175.0 0.23                            25 197 
 RUS  HZ IP     C  820 29.29                             143    -0.110  101 178 
 RUS  HZ I         820 29.97        59.6 0.39                           101 178 
 RUS  HE ES   1    820 47.84                             143     0.0 7  101 178 
 GRA  SZ IP        820 31.07                             137     0.310  124  16 
 GRA  SZ ES   1    820 50.01                             137    -0.2 7  124  16 
 GRA  SZ I         820 51.67        70.8 0.40                           124  16 
 OCA  SZ EP   1    820 33.85                             129    -0.1 7  160 352 
 OCA  SZ ES   1    820 56.68                             129     0.7 7  160 352 
 OCA  SZ I         820 58.72       102.3 0.21                           160 352 
 YOP  SZ EP   1    820 36.01                             126     0.4 7  178 154 
 YOP  SE ES   1    820 59.21                             126     0.3 7  178 154 
 YOP  SZ I         821  0.82        41.8 0.34                           178 154 
 NOR  SZ IP        820 41.71                             118    -0.1 8  238 235 
 NOR  SE ES   1    821  9.33                             118    -0.5 6  238 235 
 CHI  HZ EP   1    820 43.46                             117    -0.1 6  250 196 
 CHI  HE ES   1    821 12.95                             117    -0.1 6  250 196 
 CHI  HZ I         821 20.13        34.4 0.55                           250 196 
 ROSC BZ EP   1    820 45.01                             116     0.9 6  255 212 
 ROSC BE ES   1    821 14.19                             116     0.3 6  255 212 
 ROSC BZ I         821 19.14        55.5 0.61                           255 212 
 HEL  HZ EP   1    820 45.83                             114    -0.5 6  275 256 
 HEL  HE ES   1    821 18.16                             114     0.3 6  275 256 
 HEL  HZ I         821 25.05        32.7 0.71                           275 256 
 VIL  SZ EP   2    820 48.52                             112    -0.6 4  303 190 
 VIL  SZ I         821 27.32        29.0 0.54                           303 190 
 GUY  SZ EP   1    820 49.80                             112     0.1 5  304 235 
 GUY  SZ I         821 30.93        49.3 0.30                           304 235 
 RREF HZ EP   1    820 51.70                             110    -0.5 5  325 230 
 RREF HN ES   1    821 28.40                             110     0.0 5  325 230 
 RREF HZ I         821 39.32        45.3 0.30                           325 230 
 DBB  SZ EP   1    820 53.04                             109    -0.5 5  343 274 
 DBB  SZ I         821 33.85         6.1 0.51                           343 274 
 TOL  SZ EP   1    820 54.88                             109     0.6 5  346 225 
 SDV  BZ EP        820 54.75                             108    -0.7 6  358  50 
 SDV  BZ I         820 55.62        22.5 0.16                           358  50 
                                                                                
