 2010  618 0138 24.2 L   6.765 -73.033147.0  RSN 13 0.5 2.5LRSN                1
 GAP=135        1.13       3.9     8.0  6.9 -0.1482E+02  0.5713E+00  0.4484E+01E
 Epicentro: CEPITA - SANTANDER                                                 3
 ACTION:UP  10-08-24 10:11 OP:vdl  STATUS:               ID:20100618013824 L   I
 2010-06-18-0136-51S.COL___115                                                 6
 STAT SP IPHASW D HRMM SECON CODA AMPLIT PERI AZIMU VELO SNR AR TRES W  DIS CAZ7
 BAR2 SZ IP        138 43.76                             170    -0.310   25 221 
 BAR2 SZ ES   1    138 58.88                             170    -0.6 7   25 221 
 BRR  HZ EP   1    138 45.60                             149    -0.6 7   84 297 
 BRR  HN ES   1    139  3.47                             149     0.0 7   84 297 
 BRR  HZ I         139  6.36        60.5 0.06                            84 297 
 RUS  HZ EP        138 47.58                             145    -0.210   97 183 
 RUS  HE ES   1    139  6.44                             145     0.2 7   97 183 
 RUS  HZ I         139  7.54        39.5 0.10                            97 183 
 BRI  SZ EP        138 48.34                             142     0.110  108  14 
 BRI  SZ ES   1    139  7.88                             142     1.0 7  108  14 
 GUE  SZ EP   1    138 50.00                             139     0.8 7  118   6 
 GUE  SZ ES   1    139  9.44                             139     0.8 7  118   6 
 GRA  SZ IP        138 49.50                             137    -0.110  126  12 
 GRA  SZ ES   1    139  8.89                             137    -0.5 7  126  12 
 OCA  SZ EP        138 52.64                             129    -0.5 9  166 349 
 OCA  SZ ES   1    139 15.46                             129    -0.3 7  166 349 
 OCA  SZ I         139 19.21        34.6 0.33                           166 349 
 CHI  HZ IP        139  1.91                             117     0.0 8  249 198 
 CHI  HE ES   1    139 31.08                             117    -0.3 6  249 198 
 CHI  HZ I         139 37.10        20.6 0.55                           249 198 
 ROSC BZ EP   1    139  3.65                             117     0.9 6  256 214 
 ROSC BE ES   1    139 33.44                             117     0.6 6  256 214 
 ROSC BZ I         139 37.08        21.7 0.48                           256 214 
 HEL  HZ EP   1    139  5.81                             114     0.1 6  283 257 
 HEL  HZ I         139 42.22        19.4 0.60                           283 257 
 TOL  SZ EP        139 13.77                             109     0.6 6  350 227 
 DBB  SZ EP   1    139 12.91                             109    -0.3 5  352 275 
 SDV  BZ EP        139 13.10                             109    -0.4 6  353  48 
 SDV  BZ I         139 52.24         8.7 0.27                           353  48 
                                                                                
