 2017 1018 0820 37.3 L   6.763 -73.119146.3  RSN 11 0.4 1.7LRSN                1
 GAP=116        0.88       3.8     4.5  5.2 -0.4712E+01 -0.2317E+01  0.5558E+01E
 Epicentro: LOS SANTOS - SANTANDER                                             3
 ACTION:UPD 17-11-07 19:33 OP:rebc STATUS:               ID:20171018082037 L   I
 OLDACT:UP  17-10-18 16:37 OP:dani STATUS:               ID:20171018081744     3
 OLDACT:UP  17-10-18 16:36 OP:dani STATUS:               ID:20171018081744     3
 OLDACT:REG 17-10-18 13:31 OP:dani STATUS:               ID:20171018081744     3
 2017-10-18-0818-00M.COL___416                                                 6
 STAT SP IPHASW D HRMM SECON CODA AMPLIT PERI AZIMU VELO AIN AR TRES W  DIS CAZ7
 BAR2 EZ EP        820 56.50                             172   -0.4110 20.1 200 
 BAR2 EZ ES        821 11.96                             172   -0.2710 20.1 200 
 BAR2 EZ I         821 12.58        14.2 0.13            169           20.1 200 
 BRR  HZ EP        820 58.51                             150   -0.2410 75.8 300 
 BRR  HE ES        821 15.89                             150    0.3910 75.8 300 
 BRR  HZ I         821 19.14         7.7 0.18            148           75.8 300 
 PAM  EZ EP        820 59.64                             150    0.0010 78.8  36 
 PAM  EE ES        821 17.06                             150   -0.0210 78.8  36 
 PAM  EZ I         821 19.04        12.0 0.44            152           78.8  36 
 RUS  HZ EP        821  1.64                             145    0.8610 96.3 178 
 RUS  HE ES        821 18.90                             145   -0.2110 96.3 178 
 RUS  HZ I         821 20.17         7.7 0.34            145           96.3 178 
 PTB  HZ EP   9    821  3.07                             131   -1.42 0  150 261 
 PTB  HN ES        821 24.20                             131   -0.09 9  150 261 
 PTB  HZ I         821 28.23         5.4 0.16            129            150 261 
 YPLC HZ EP        821  6.43                             127   -0.19 9  172 152 
 YPLC HE ES   3    821 29.86                             127    0.35 2  172 152 
 YPLC HZ I         821 31.07         7.3 0.32            128            172 152 
 NOR  HN ES        821 40.80                             118   -0.15 8  235 236 
 NOR  HZ I         821 47.27         5.4 0.23            117            235 236 
 CHI  HZ EP   9    821 14.12                             117   -0.54 0  245 196 
 CHI  HE ES        821 42.64                             115   -0.64 8  245 196 
 CHI  HZ I         821 46.47         1.7 0.23            117            245 196 
 PTGC HZ EP   3    821 19.36                             112   -1.25 2  304 159 
 PTGC HN ES   4    821 52.10                             112   -2.30 0  304 159 
 PTGC HZ I         821 54.22         3.6 0.57            112            304 159 
 PRA  HZ EP        821 31.08                             106    0.51 6  390 210 
 PRA  HN ES        822 12.21                             106    0.07 6  390 210 
 PRA  HZ I         822 17.36         1.3 0.28            106            390 210 
 SJC  HZ EP   3    821 32.09                             105   -1.36 1  414 327 
 SJC  HE ES   4    822 13.63                             105   -3.63 0  414 327 
 SJC  HZ I         822 20.53         1.1 0.34            105            414 327 
                                                                                
