 2017 1018 0938 22.0 L   6.762 -73.134150.6  RSN  6 0.4 1.2LRSN                1
 GAP=140        1.14       7.9     6.3  9.7  0.1465E+02  0.4346E+00 -0.2511E+02E
 Epicentro: LOS SANTOS - SANTANDER                                             3
 ACTION:UPD 17-11-07 19:33 OP:rebc STATUS:               ID:20171018093822 L   I
 OLDACT:DUP 17-10-18 17:22 OP:dani STATUS:               ID:20171018093741d    3
 OLDACT:UP  17-10-18 17:21 OP:dani STATUS:               ID:20171018093740     3
 OLDACT:UP  17-10-18 17:21 OP:dani STATUS:               ID:20171018093740     3
 OLDACT:UP  17-10-18 17:21 OP:dani STATUS:               ID:20171018093740     3
 OLDACT:UP  17-10-18 17:21 OP:dani STATUS:               ID:20171018093740     3
 OLDACT:UP  17-10-18 17:21 OP:dani STATUS:               ID:20171018093740     3
 OLDACT:UP  17-10-18 17:09 OP:dani STATUS:               ID:20171018093740     3
 OLDACT:UP  17-10-18 17:09 OP:dani STATUS:               ID:20171018093740     3
 OLDACT:REG 17-10-18 13:35 OP:dani STATUS:               ID:20171018093740     3
 2017-10-18-0938-00M.COL___413                                                 6
 STAT SP IPHASW D HRMM SECON CODA AMPLIT PERI AZIMU VELO AIN AR TRES W  DIS CAZ7
 BAR2 EZ EP        938 42.24                             172    0.0710 19.5 196 
 BAR2 EZ ES        938 57.02                             172   -0.8610 19.5 196 
 BAR2 EZ I         938 58.69         4.3 0.26            172           19.5 196 
 BRR  HZ EP        938 44.02                             152    0.1410 74.4 301 
 BRR  HN ES        939  1.37                             152    0.4510 74.4 301 
 BRR  HZ I         939  4.81         4.2 0.22            151           74.4 301 
 PAM  EZ EP        938 45.12                             151    0.2210 79.9  37 
 RUS  HE ES        939  5.00                             146    0.3810 96.3 177 
 PTB  HZ EP        938 48.83                             133   -0.61 9  148 261 
 PTB  HE ES        939 11.19                             133    0.37 9  148 261 
 PTB  HZ I         939 15.19         1.4 0.41            133            148 261 
 ZAR  HN ES        939 20.59                             123   -0.27 8  207 293 
                                                                                
