 2011  218 0525 33.6 L   6.811 -73.172131.5  RSN  6 0.3 1.8LRSN                1
 GAP=156        0.64       2.9     5.5  6.6 -0.6350E+01  0.1593E+02 -0.4125E+01E
 Epicentro: LOS SANTOS - SANTANDER                                             3
 ACTION:UP  11-03-28 15:09 OP:jfem STATUS:               ID:20110218052533 L   I
 2011-02-18-0522-09S.COL___137                                                 6
 STAT SP IPHASW D HRMM SECON CODA AMPLIT PERI AZIMU VELO SNR AR TRES W  DIS CAZ7
 BAR2 SZ EP        525 51.67                             169     0.110   24 183 
 BAR2 SZ ES   1    526  5.65                             169     0.1 7   24 183 
 BAR2 SZ I         526  7.09        24.7 0.25                            24 183 
 RUS  HZ EP        525 55.91                             140    -0.210  102 174 
 RUS  HN ES   1    526 13.66                             140     0.0 7  102 174 
 RUS  HZ I         526 16.05         5.9 0.29                           102 174 
 GRA  SZ EP   1    525 57.48                             134    -0.2 7  126  19 
 GRA  SZ ES   1    526 16.65                             134     0.3 7  126  19 
 GRA  SZ I         526 19.11        10.3 0.31                           126  19 
 OCA  SZ EP   1    526  0.61                             126    -0.1 7  159 354 
 OCA  SZ ES   1    526 21.63                             126    -0.2 7  159 354 
 OCA  SZ I         526 25.28        10.2 0.32                           159 354 
 NOR  SZ EP   1    526  9.19                             116     0.8 6  233 234 
 NOR  SN ES   1    526 35.17                             116    -0.4 6  233 234 
 HEL  HZ EP   2    526 13.22                             112     0.3 4  269 255 
 HEL  HN ES   2    526 43.38                             112    -0.1 4  269 255 
 HEL  HZ I         526 52.95         2.5 0.26                           269 255 
                                                                                
