 2012 1218 0138 27.4 L   6.783 -73.130141.2  RSN  5 0.1 1.4LRSN                1
 GAP=139        0.38       2.1     2.4  3.7  0.2450E+00  0.2945E-01  0.5311E+00E
 Epicentro: LOS SANTOS - SANTANDER                                             3
 ACTION:UPD 13-01-04 14:28 OP:ep   STATUS:               ID:20121218013827 L   I
 2012-12-18-0130-00M.COL___242                                                 6
 STAT SP IPHASW D HRMM SECON CODA AMPLIT PERI AZIMU VELO AIN AR TRES W  DIS CAZ7
 GIR2 SZ EP        138 46.44                             166   -0.1510 33.4 348 
 BRR  HZ EP        138 48.40                             151    0.2010 73.6 299 
 BRR  HN ES        139  4.49                             151    0.0710 73.6 299 
 BRR  HZ I         139  7.19         5.3 0.69                          73.6 299 
 PAM  SZ EP   1    138 49.18                             150    0.03 7 77.7  38 
 PAM  SE ES   1    139  5.99                             150   -0.13 7 77.7  38 
 PAM  SZ I         139  8.45         5.6 0.49                          77.7  38 
 RUS  HZ EP        138 50.52                             143   -0.0410 98.6 177 
 RUS  HE ES        139  8.70                             143    0.0810 98.6 177 
 RUS  HE I         139 10.07         2.9 0.26                          98.6 177 
 PTB  HZ EP   1    138 54.13                             131    0.01 7  149 260 
 PTB  HE ES   1    139 14.74                             131   -0.23 7  149 260 
 PTB  HZ I         139 17.04         2.7 0.12                           149 260 
                                                                                
