 2017 1118 0613 35.2 L   6.814 -73.194146.5  RSN  4 0.2 1.6LRSN                1
 GAP=145        0.62       4.1     6.8  5.9 -0.1277E+02  0.2048E+02 -0.5874E+01E
 Epicentro: ZAPATOCA - SANTANDER                                               3
 ACTION:UPD 17-12-12 19:56 OP:rebc STATUS:               ID:20171118061335 L   I
 OLDACT:UP  17-11-18 20:26 OP:edw  STATUS:               ID:20171118060748d    3
 OLDACT:DUP 17-11-18 20:05 OP:edw  STATUS:               ID:20171118060748d    3
 OLDACT:REG 17-11-18 10:50 OP:mg   STATUS:               ID:20171118060747     3
 2017-11-18-0608-00M.COL___473                                                 6
 STAT SP IPHASW D HRMM SECON CODA AMPLIT PERI AZIMU VELO AIN AR TRES W  DIS CAZ7
 BAR2 EZ EP        613 54.65                             170   -0.3410 24.5 177 
 BAR2 EZ ES        614 10.61                             170    0.2110 24.5 177 
 BAR2 EZ I         614 12.75        11.1 0.26            171           24.5 177 
 PAM  EZ EP        613 58.04                             150    0.3510 79.7  43 
 PAM  EN ES        614 14.98                             150   -0.2110 79.7  43 
 PAM  EZ I         614 18.28         4.4 0.54            152           79.7  43 
 RUS  HZ EP        613 59.23                             143    0.0110  103 173 
 RUS  HN ES        614 17.90                             143   -0.0210  103 173 
 RUS  HZ I         614 20.16         8.3 0.14            146            103 173 
 PTB  HZ EP        614  1.83                             133   -0.01 9  143 258 
                                                                                
