 2010  518 0025 28.6 L   6.092 -73.661  0.0  RSN  4 0.2 2.2LRSN                1
 GAP=164        0.38       4.1     3.6  5.6 -0.1096E+02  0.4510E+01 -0.2721E+01E
 Epicentro: CHIPATA - SANTANDER                                                3
 ACTION:UP  10-08-24 10:05 OP:vdl  STATUS:               ID:20100518002528 L   I
 2010-05-18-0020-00S.COL___103                                                 6
 STAT SP IPHASW D HRMM SECON CODA AMPLIT PERI AZIMU VELO SNR AR TRES W  DIS CAZ7
 BAR2 SZ EP   2    025 41.27                              47    -0.3 5   76  44 
 BAR2 SZ ES   2    025 51.94                              47     0.2 5   76  44 
 HEL  HZ EP   2    026  1.06                              37     0.2 4  207 273 
 HEL  HE ES   2    026 25.96                              37     0.0 4  207 273 
 HEL  HZ I         026 27.14        35.3 0.40                           207 273 
 RREF BZ EP   2    026  3.69                              37    -0.2 4  229 235 
 RREF BZ I         026 31.86        10.6 0.23                           229 235 
 PRA  HZ EP   2    026 11.71                              36     0.1 4  296 207 
 PRA  HE ES   2    026 45.19                              36     0.1 4  296 207 
 PRA  HZ I         026 49.10         7.1 0.29                           296 207 
                                                                                
