 2016 1218 0917 49.9 L   6.682 -73.116135.3  RSN  5 0.4 1.2LRSN                1
 GAP=232        1.01       7.3     7.1  7.3  0.3188E+02  0.9477E+01 -0.3839E+01E
 Epicentro: JORDAN - SANTANDER                                                 3
 ACTION:UPD 17-01-11 20:16 OP:rebc STATUS:               ID:20161218091749 L   I
 OLDACT:REG 16-12-18 15:26 OP:edw  STATUS:               ID:20161218090749     3
 2016-12-18-0908-00M.COL___375                                                 6
 STAT SP IPHASW D HRMM SECON CODA AMPLIT PERI AZIMU VELO AIN AR TRES W  DIS CAZ7
 BAR2 HZ EP        918  8.44                             174    0.3610 12.4 216 
 BAR2 HZ ES        918 21.76                             174   -0.5110 12.4 216 
 BAR2 HZ I         918 24.25         3.8 0.22            169           12.4 216 
 BRR  HZ EP        918 10.47                             147   -0.0510 80.9 306 
 BRR  HN ES        918 26.90                             147    0.2810 80.9 306 
 RUS  HZ EP        918 11.12                             145   -0.5510 87.4 178 
 RUS  HN ES        918 29.16                             145    0.5010 87.4 178 
 RUS  HZ I         918 31.43         2.0 0.30            145           87.4 178 
 PTB  HZ EP        918 16.59                             129    0.45 9  149 264 
 PTB  HN ES        918 36.24                             129   -0.38 9  149 264 
 PTB  HZ I         918 39.46         2.1 0.06            128            149 264 
 ZAR  HZ EP        918 22.23                             119   -0.31 8  212 295 
 ZAR  HE ES        918 48.19                             119    0.17 8  212 295 
 ZAR  HZ I         918 55.25         1.6 0.20            119            212 295 
                                                                                
