 2012  318 0848 56.2 L   6.579 -73.512106.4  RSN  4 0.1 1.2LRSN                1
 GAP=180        0.39       3.8     2.9  5.5 -0.9596E-02  0.8821E+01 -0.2685E+01E
 ACTION:UP  12-03-31 23:20 OP:EP   STATUS:               ID:20120318084856 L   I
 2012-03-18-0847-36M.COL___172                                                 6
 STAT SP IPHASW D HRMM SECON CODA AMPLIT PERI AZIMU VELO SNR AR TRES W  DIS CAZ7
 BAR2 SZ ES   1    849 23.62                             160     0.0 8   36  88 
 BRR  HZ EP   1    849 12.43                             147    -0.2 8   62 339 
 BRR  HZ I         849 12.60         7.7 0.11                            62 339 
 BRR  HN ES   1    849 25.53                             147     0.0 8   62 339 
 PTB  HZ EP   1    849 16.20                             132     0.2 7  105 268 
 PTB  HN ES        849 31.43                             132    -0.110  105 268 
 PTB  HZ I         849 32.52         2.4 0.08                           105 268 
 ZAR  HN ES        849 45.22                             115     0.0 9  180 304 
                                                                                
