 2017 1018 0631 34.1 L   6.809 -73.138151.7  RSN  5 0.2 1.4LRSN                1
 GAP=239        0.49       4.6     3.7  5.3  0.8820E+01  0.2017E+01 -0.4884E+01E
 Epicentro: LOS SANTOS - SANTANDER                                             3
 ACTION:UPD 17-11-07 19:33 OP:rebc STATUS:               ID:20171018063134 L   I
 OLDACT:UP  17-10-18 15:11 OP:dani STATUS:               ID:20171018062744d    3
 OLDACT:DUP 17-10-18 15:06 OP:dani STATUS:               ID:20171018062744d    3
 OLDACT:UP  17-10-18 15:06 OP:dani STATUS:               ID:20171018062743     3
 OLDACT:UP  17-10-18 15:06 OP:dani STATUS:               ID:20171018062743     3
 OLDACT:REG 17-10-18 13:25 OP:dani STATUS:               ID:20171018062743     3
 2017-10-18-0628-00M.COL___420                                                 6
 STAT SP IPHASW D HRMM SECON CODA AMPLIT PERI AZIMU VELO AIN AR TRES W  DIS CAZ7
 BAR2 EZ EP        631 54.33                             170   -0.1310 24.5 192 
 BAR2 EZ ES        632 10.12                             170   -0.2310 24.5 192 
 BAR2 EZ I         632 11.09         3.9 0.15            173           24.5 192 
 BRR  HZ EP        631 55.99                             153    0.0910 71.5 297 
 BRR  HE ES        632 13.01                             153    0.1010 71.5 297 
 BRR  HZ I         632 16.17         4.1 0.11            151           71.5 297 
 RUS  HE ES   1    632 17.89                             145    0.35 7  102 177 
 PTB  HZ EP   3    632  1.25                             133   -0.40 2  149 259 
 PTB  HN ES        632 22.97                             133   -0.17 9  149 259 
 PTB  HZ I         632 24.61         3.0 0.13            133            149 259 
 ZAR  HZ EP   4    632  9.99                             123    3.02 0  204 292 
 ZAR  HN ES        632 32.82                             123    0.20 9  204 292 
 ZAR  HZ I         632 37.89         5.0 0.42            123            204 292 
                                                                                
