 2013 1018 0414 39.9 L   6.778 -73.137144.0  RSN 10 0.5 1.6LRSN                1
 GAP=139        1.19       3.9     5.3  7.7 -0.2343E+01  0.9316E+01  0.1077E+01E
 Epicentro: LOS SANTOS - SANTANDER                                             3
 ACTION:UPD 13-11-25 09:22 OP:ep   STATUS:               ID:20131018041439 L   I
 OLDACT:REG 13-10-18 08:25 OP:jn   STATUS:               ID:20131018040845     3
 2013-10-18-0408-45M.COL___226                                                 6
 STAT SP IPHASW D HRMM SECON CODA AMPLIT PERI AZIMU VELO AIN AR TRES W  DIS CAZ7
 BAR2 SZ EP        414 59.29                             171   -0.0010 21.1 194 
 BAR2 SZ ES        415 14.07                             171   -0.3310 21.1 194 
 BAR2 SZ I         415 17.38        12.3 0.30            171           21.1 194 
 BRR  HZ EP        415  1.37                             152    0.3810 73.2 300 
 BRR  HN ES        415 18.57                             152    1.1410 73.2 300 
 BRR  HZ I         415 21.75         5.3 0.32            154           73.2 300 
 PAM  SZ EP        415  2.29                             150    0.2610 78.7  38 
 PAM  SN ES        415 18.65                             150   -0.6210 78.7  38 
 PAM  SZ I         415 21.83         5.4 0.68            154           78.7  38 
 RUS  HZ EP        415  3.17                             144   -0.1410 98.0 177 
 RUS  HN ES        415 21.86                             144    0.3010 98.0 177 
 RUS  HZ I         415 24.72         4.4 0.42            147           98.0 177 
 PTB  HZ EP        415  6.31                             131   -0.47 9  148 260 
 PTB  HN ES        415 27.27                             131   -0.47 9  148 260 
 PTB  HZ I         415 29.40         7.3 0.16            135            148 260 
 SPBC HZ EP        415  8.23                             129    0.07 9  162 220 
 SPBC HN ES        415 30.00                             129   -0.18 9  162 220 
 SPBC HZ I         415 32.95         6.7 0.24            132            162 220 
 OCA  HE ES        415 30.53                             129    0.03 9  163 353 
 ZAR  HN ES   1    415 37.00                             122   -0.80 6  206 293 
 SML  HE ES   1    415 45.30                             117   -0.15 6  246 335 
 GUY2CHZ EP   1    415 24.31                             112    0.94 5  301 235 
 GUY2CHZ I         416  5.79         2.3 0.64                           301 235 
                                                                                
