 2014  318 0906  9.4 L   6.818 -73.164146.0  RSN 14 0.4 2.5LRSN                1
 GAP=133        0.86       2.3     3.5  4.7 -0.1509E+01  0.5532E+01 -0.1495E+01E
 Epicentro: LOS SANTOS - SANTANDER                                             3
 OLDACT:REG 14-03-18 08:20 OP:mh   STATUS:               ID:20140318085815     3
 ACTION:UPD 14-04-09 23:18 OP:nd   STATUS:               ID:20140318090609 L   I
 OLDACT:UP  14-03-18 13:06 OP:mh   STATUS:               ID:20140318085815     3
 OLDACT:UP  14-03-18 13:06 OP:mh   STATUS:               ID:20140318085815     3
 2014-03-18-0858-15M.COL___223                                                 6
 OLDACT:UP  14-03-18 13:06 OP:mh   STATUS:               ID:20140318085815     3
 STAT SP IPHASW D HRMM SECON CODA AMPLIT PERI AZIMU VELO AIN AR TRES W  DIS CAZ7
 BAR2 SZ IP     C  9 6 29.25                             170    0.1510 25.0 185 
 BAR2 SZ ES        9 6 44.39                             170   -0.0710 25.0 185 
 BAR2 SZ I         9 6 45.20        68.4 0.36            171           25.0 185 
 PAM  SZ EP        9 6 32.07                             151    0.4410 77.2  42 
 PAM  SN ES        9 6 49.03                             151    0.0610 77.2  42 
 PAM  SZ I         9 6 51.21        45.6 0.30            153           77.2  42 
 RUS  HZ EP        9 6 33.06                             143   -0.2710  103 175 
 RUS  HN ES   1    9 6 51.69                             143   -0.30 7  103 175 
 RUS  SZ I         9 6 52.82        25.7 0.36            147            103 175 
 PTB  HZ EP        9 6 36.12                             132   -0.13 9  146 258 
 PTB  HN ES        9 6 56.87                             132   -0.31 9  146 258 
 PTB  SZ I         9 7  2.69        24.1 0.18            131            146 258 
 OCA  HZ EP        9 6 37.22                             130   -0.31 9  158 354 
 OCA  HN ES   1    9 6 59.23                             130   -0.24 7  158 354 
 OCA  SZ I         9 7  5.33        30.8 0.38            130            158 354 
 SPBC HZ EP        9 6 38.18                             129    0.23 9  163 218 
 SPBC HN ES        9 7  0.41                             129    0.20 9  163 218 
 SPBC SZ I         9 7  5.25        46.3 0.16            130            163 218 
 ZAR  HZ EP        9 6 41.88                             123    0.28 9  201 292 
 ZAR  HN ES        9 7  7.18                             123    0.47 9  201 292 
 ZAR  SZ I         9 7 13.53        36.2 0.30            122            201 292 
 NOR  HZ EP        9 6 44.94                             119   -0.15 8  234 234 
 NOR  HN ES        9 7 12.84                             119   -0.09 8  234 234 
 NOR  SZ I         9 7 15.34        23.0 0.12            119            234 234 
 SML  HZ EP        9 6 45.58                             118   -0.18 8  241 336 
 SML  HN ES        9 7 14.29                             118    0.17 8  241 336 
 SML  SZ I         9 7 18.91        46.5 0.08            118            241 336 
 CHI  HZ EP        9 6 47.33                             117    0.07 8  250 195 
 CHI  HN ES   1    9 7 16.77                             117   -0.02 6  250 195 
 CHI  SZ I         9 7 22.39        13.5 0.38            119            250 195 
 URE  HZ EP        9 6 48.95                             114   -1.25 7  281 292 
 URE  HN ES   4    9 7 20.22                             114   -1.79 0  281 292 
 URE  SZ I         9 7 22.95        14.3 0.12            114            281 292 
 RREF HZ EP        9 6 56.50                             111    0.97 7  322 229 
 RREF HE ES   4    9 7 33.02                             111    1.52 0  322 229 
 RREF SZ I         9 7 40.19        16.2 0.30            112            322 229 
 ARGC HZ EP        9 6 58.61                             108   -0.17 6  357 341 
 ARGC HE ES   1    9 7 37.88                             108    0.59 5  357 341 
 ARGC SZ I         9 8  3.60        13.7 2.88            109            357 341 
 SJC  HZ EP   4    9 7  3.47                             106   -1.18 0  406 327 
 SJC  HE ES   4    9 7 44.14                             106   -3.61 0  406 327 
 SJC  SZ I         9 7 44.55        10.4 2.20            106            406 327 
                                                                                
