 2012  418 0957 54.7 L   6.771 -73.134147.1  RSN 15 0.4 2.8LRSN                1
 GAP=139        0.78       2.6     3.9  5.1 -0.2393E+01  0.6101E+01  0.1038E+01E
 Epicentro: LOS SANTOS - SANTANDER                                             3
 ACTION:UPD 12-07-05 11:54 OP:tino STATUS:               ID:20120418095754 L   I
 2012-04-18-0950-00M.COL___187                                                 6
 STAT SP IPHASW D HRMM SECON CODA AMPLIT PERI AZIMU VELO AIN AR TRES W  DIS CAZ7
 BAR2 SZ IP        958 14.49                             172     0.010   20 195 
 BAR2 SZ ES   1    958 29.45                             172    -0.4 7   20 195 
 BAR2 SZ I         958 31.60       108.1 0.39                            20 195 
 BRR  HZ EP        958 16.31                             152     0.210   74 300 
 BRR  HZ I         958 21.00       113.0 0.12                            74 300 
 BRR  HE ES   1    958 33.73                             152     0.8 7   74 300 
 PAM  SZ IP        958 17.23                             150     0.110   79  37 
 PAM  SN ES   1    958 34.41                             150    -0.3 7   79  37 
 RUS  HZ EP   1    958 18.40                             145     0.0 7   97 177 
 RUS  HE ES   1    958 36.76                             145     0.0 7   97 177 
 RUS  HZ I         958 39.66        60.5 0.54                            97 177 
 OCA  SZ EP   1    958 23.13                             129    -0.3 7  164 353 
 OCA  SZ ES   1    958 46.08                             129     0.2 7  164 353 
 ZAR  HZ EP   1    958 26.99                             122    -0.5 6  206 293 
 ZAR  HN ES   1    958 52.62                             122    -0.4 6  206 293 
 ZAR  HZ I         959  0.17        52.5 0.24                           206 293 
 NOR  SZ EP   1    958 30.02                             119    -0.4 6  234 235 
 NOR  SN ES   1    958 57.35                             119    -0.9 6  234 235 
 CHI  HZ EP   1    958 32.51                             118     0.3 6  246 196 
 CHI  HN ES   1    959  1.79                             118     0.4 6  246 196 
 CHI  HZ I         959 10.00        24.8 0.57                           246 196 
 ROSC BN ES   2    959  1.91                             117    -0.4 4  251 212 
 ROSC BZ I         959  9.34        44.6 0.37                           251 212 
 HEL  HZ EP   1    958 35.69                             115     0.6 6  273 257 
 HEL  HN ES   1    959  6.97                             115     0.5 6  273 257 
 HEL  HZ I         959 12.69        28.6 0.30                           273 257 
 VIL  SZ EP   2    958 37.94                             112     0.1 4  300 192 
 VIL  SE ES   2    959 11.41                             112    -0.1 4  300 192 
 GUY  SZ EP   2    958 39.23                             112     0.7 4  303 236 
 GUY  SN ES   1    959 12.61                             112    -0.1 5  303 236 
 GUY  SZ I         959 20.46        44.8 0.55                           303 236 
 RREF HZ EP   1    958 41.29                             111     0.5 5  321 230 
 RREF HN ES   2    959 16.50                             111    -0.2 3  321 230 
 RREF HZ I         959 25.46        34.9 0.27                           321 230 
 COD  HZ EP   1    958 43.23                             109    -0.3 5  352 354 
 COD  HN ES   1    959 21.48                             109    -0.1 5  352 354 
 COD  HZ I         959 24.72        17.9 0.45                           352 354 
 PRA  HZ EP   1    958 47.92                             107    -0.1 4  390 210 
 PRA  HN ES   1    959 29.51                             107    -0.1 4  390 210 
                                                                                
