 2012  618 0539 21.4 L   6.872 -73.200152.8  RSN  7 0.6 1.8LRSN                1
 GAP=126        1.04       5.6     8.7 13.6 -0.8508E+01  0.2651E+02  0.9602E+01E
 Epicentro: ZAPATOCA - SANTANDER                                               3
 ACTION:UPD 12-08-06 17:50 OP:ep   STATUS:               ID:20120618053922 L   I
 2012-06-18-0537-44M.COL___164                                                 6
 STAT SP IPHASW D HRMM SECON CODA AMPLIT PERI AZIMU VELO AIN AR TRES W  DIS CAZ7
 BAR2 SZ EP        539 42.30                             168    0.2410 31.0 176 
 BAR2 SZ I         539 59.39        16.3 0.26            170           31.0 176 
 PAM  SZ EP        539 45.00                             152    0.7110 75.7  47 
 PAM  SZ I         539 45.09         6.9 0.20            156           75.7  47 
 PAM  SN ES   2    540  2.12                             152   -0.01 5 75.7  47 
 RUS  HZ EP        539 46.17                             143   -0.3010  109 173 
 RUS  HE ES   2    540  5.22                             143   -0.79 5  109 173 
 RUS  HZ I         540  6.57         9.0 0.38            148            109 173 
 PTB  HZ EP        539 48.69                             134    0.08 9  144 255 
 PTB  HN ES   2    540  9.71                             134   -0.11 5  144 255 
 PTB  HZ I         540 12.62         7.0 0.14            134            144 255 
 OCA  HZ EP        539 48.62                             133   -0.89 9  152 355 
 OCA  HE ES   2    540 11.46                             133    0.04 5  152 355 
 OCA  HZ I         540 16.66        15.0 0.40            134            152 355 
 ZAR  HN ES   3    540 20.02                             125    1.54 2  196 291 
 ZAR  HZ I         540 28.33         5.1 0.56            125            196 291 
 CHI  HZ EP        540  0.61                             118    0.43 8  255 193 
 CHI  HN ES   2    540 29.82                             118   -0.60 4  255 193 
 CHI  HZ I         540 33.10         3.4 0.22            121            255 193 
                                                                                
