 2017  918 0342 16.4 L   6.826 -73.144144.3  RSN 15 0.5 1.9LRSN                1
 GAP=118        1.04       3.4     4.0  5.4 -0.3499E+00  0.8781E+01  0.3194E+01E
 Epicentro: LOS SANTOS - SANTANDER                                             3
 ACTION:UPD 17-10-05 19:13 OP:rebc STATUS:               ID:20170918034216 L   I
 OLDACT:UP  17-09-18 16:24 OP:and  STATUS:               ID:20170918033739     3
 OLDACT:UP  17-09-18 16:24 OP:and  STATUS:               ID:20170918033739     3
 OLDACT:UP  17-09-18 16:23 OP:and  STATUS:               ID:20170918033739     3
 OLDACT:UP  17-09-18 16:22 OP:and  STATUS:               ID:20170918033739     3
 OLDACT:UP  17-09-18 16:22 OP:and  STATUS:               ID:20170918033739     3
 OLDACT:UP  17-09-18 16:21 OP:and  STATUS:               ID:20170918033739     3
 OLDACT:UP  17-09-18 16:19 OP:and  STATUS:               ID:20170918033739     3
 OLDACT:REG 17-09-18 12:45 OP:and  STATUS:               ID:20170918033739     3
 2017-09-18-0338-00M.COL___430                                                 6
 STAT SP IPHASW D HRMM SECON CODA AMPLIT PERI AZIMU VELO AIN AR TRES W  DIS CAZ7
 BAR2 EZ IP     C  342 35.71                             169   -0.1810 26.2 189 
 BAR2 EZ ES        342 51.04                             169   -0.0710 26.2 189 
 BAR2 EZ I         342 53.46        14.4 0.14            167           26.2 189 
 BRR  HZ IP     C  342 37.31                             152    0.0110 70.1 296 
 BRR  HN ES        342 54.34                             152    0.7210 70.1 296 
 BRR  HZ I         342 58.10        11.6 0.28            152           70.1 296 
 PAM  EZ IP     C  342 38.39                             151    0.0910 75.0  41 
 PAM  EN ES        342 55.02                             151   -0.3710 75.0  41 
 PAM  EZ I         342 57.33        18.3 0.48            157           75.0  41 
 RUS  HZ EP        342 40.17                             143   -0.0210  103 176 
 RUS  HN ES        342 58.92                             143    0.1510  103 176 
 RUS  HZ I         343  0.23        11.9 0.30            143            103 176 
 ZAR  HZ EP        342 48.39                             122   -0.25 9  203 291 
 ZAR  HN ES        343 13.63                             122   -0.17 9  203 291 
 ZAR  HZ I         343 19.34        15.6 0.34            123            203 291 
 NOR  HZ EP        342 52.20                             118   -0.02 8  237 234 
 NOR  HN ES        343 19.46                             118   -0.72 8  237 234 
 NOR  HZ I         343 25.17         8.6 0.18            119            237 234 
 CHI  HZ EP        342 53.98                             116   -0.32 8  251 195 
 CHI  HN ES        343 23.35                             116   -0.53 8  251 195 
 CHI  HZ I         343 27.51         3.5 0.32            118            251 195 
 ROSC BZ EP        342 55.85                             116    1.15 8  255 211 
 ROSC BN ES        343 24.66                             116    0.07 8  255 211 
 ROSC BZ I         343 30.69         7.0 0.40            117            255 211 
 HEL  HZ EP        342 57.69                             114    1.07 8  273 255 
 HEL  HN ES        343 27.68                             114   -0.33 8  273 255 
 HEL  HZ I         343 35.31         6.0 0.40            115            273 255 
 URE  HZ EP        342 56.60                             113   -0.68 7  283 291 
 GUY2CHZ EP   9    343  1.33                             112    1.20 0  303 234 
 GUY2CHN ES        343 35.79                             112    0.34 7  303 234 
 GUY2CHZ I         343 44.01         4.8 0.68                           303 234 
 PTGC HZ EP   9    342 59.08                             111   -1.38 0  311 159 
 PTGC HN ES        343 32.75                             112   -0.72 7  311 159 
 PTGC HZ I         343 38.81         4.4 0.20            113            311 159 
 CBOC HZ EP        343  3.64                             109    0.28 7  335 252 
 CBOC HN ES        343 39.96                             109   -0.04 7  335 252 
 CBOC HZ I         343 43.66         1.3 0.24            110            335 252 
 PRA  HZ EP        343 10.32                             106    0.17 6  395 209 
 PRA  HN ES   3    343 54.16                             106    2.06 1  395 209 
 PRA  HZ I         344  0.08         4.5 0.28            107            395 209 
 SJC  HZ EP   4    343  9.72                             105   -1.90 0  407 327 
 SJC  HN ES   4    343 50.90                             105   -3.81 0  407 327 
 SJC  HZ I         343 55.11         2.1 0.48            107            407 327 
                                                                                
