 2016  318 0737 42.3 L   6.807 -73.211134.0  RSN  4 0.4 1.1LRSN                1
 GAP=146        0.78       7.7     6.6  8.6 -0.2721E+02  0.2567E+02 -0.1340E+02E
 Epicentro: ZAPATOCA - SANTANDER                                               3
 ACTION:UPD 16-05-13 21:25 OP:cam  STATUS:               ID:20160318073742 L   I
 OLDACT:DUP 16-03-18 18:29 OP:dnl  STATUS:               ID:20160318072751d    3
 OLDACT:REG 16-03-18 13:26 OP:dnl  STATUS:               ID:20160318072750     3
 2016-03-18-0727-50M.COL___309                                                 6
 STAT SP IPHASW D HRMM SECON CODA AMPLIT PERI AZIMU VELO AIN AR TRES W  DIS CAZ7
 BAR2 EZ EP   2    738  0.86                             170    0.35 5 23.9 172 
 BAR2 EZ ES        738 15.06                             170    0.3310 23.9 172 
 PAM  EZ EP   2    738  3.82                             148    0.29 5 81.6  44 
 PAM  EN ES   2    738 19.16                             148   -0.95 5 81.6  44 
 PAM  EZ I         738 22.19         2.9 0.18            151           81.6  44 
 PTB  HZ EP        738  7.38                             131   -0.29 9  141 258 
 PTB  HN ES        738 27.72                             131    0.24 9  141 258 
 PTB  HZ I         738 31.52         1.5 0.10            132            141 258 
 SPBC HZ EP   2    738  9.98                             128    0.45 5  159 217 
 SPBC HN ES        738 30.43                             128   -0.36 9  159 217 
 SPBC HZ I         738 35.78         1.5 0.10            129            159 217 
                                                                                
