 2017  318 0234 17.4 L   6.770 -73.162145.7  RSN  7 0.3 1.2LRSN                1
 GAP=136        0.75       3.3     3.2  5.4 -0.5845E+00  0.3293E+01 -0.7445E-01E
 Epicentro: LOS SANTOS - SANTANDER                                             3
 ACTION:UPD 17-05-25 18:41 OP:jn   STATUS:               ID:20170318023417 L   I
 OLDACT:REG 17-03-18 13:15 OP:cog  STATUS:               ID:20170318022740     3
 2017-03-18-0228-00M.COL___400                                                 6
 STAT SP IPHASW D HRMM SECON CODA AMPLIT PERI AZIMU VELO AIN AR TRES W  DIS CAZ7
 BAR2 EZ EP        234 36.91                             172   -0.0110 19.8 186 
 BAR2 EZ ES        234 51.92                             172   -0.2510 19.8 186 
 BAR2 EZ I         234 52.78         4.8 0.36            174           19.8 186 
 BRR  HZ EP        234 38.88                             152    0.3710 71.3 302 
 BRR  HN ES        234 55.50                             152    0.5010 71.3 302 
 BRR  HZ I         235  0.65         4.7 0.44            152           71.3 302 
 PAM  EZ EP        234 39.82                             150    0.0210 81.1  39 
 PAM  EN ES        234 57.15                             150   -0.1410 81.1  39 
 PAM  EZ I         234 58.63         2.9 0.32            152           81.1  39 
 RUS  HZ EP        234 40.81                             145   -0.0710 97.5 175 
 RUS  HE ES        234 59.16                             145   -0.0710 97.5 175 
 RUS  HZ I         235  0.38         1.4 0.36            148           97.5 175 
 PTB  HZ EP        234 43.95                             132   -0.16 9  145 260 
 PTB  HN ES        235  4.53                             132   -0.44 9  145 260 
 PTB  HZ I         235  6.80         2.1 0.56            134            145 260 
 SPBC HN ES        235  7.89                             130    0.43 9  159 219 
 ZAR  HN ES        235 14.78                             122   -0.25 9  204 293 
                                                                                
