 2011  718 0816 58.8 L   6.776 -73.139141.4  RSN 20 0.5 3.4LRSN                1
 GAP=123        0.85       2.7     4.4  4.4 -0.5455E+01  0.4143E+01  0.2148E+01E
 Epicentro: LOS SANTOS - SANTANDER                                             3
 ACTION:UPD 12-07-25 14:01 OP:epov STATUS:               ID:20110718081658 L   I
 2011-07-18-0815-24S.COL___143                                                 6
 STAT SP IPHASW D HRMM SECON CODA AMPLIT PERI AZIMU VELO AIN AR TRES W  DIS CAZ7
 BAR2 SZ IP        817 17.94                             171    0.0610 20.9 193 
 BAR2 SZ ES   1    817 32.68                             171   -0.07 7 20.9 193 
 BAR2 SZ I         817 35.27       895.1 0.32                          20.9 193 
 BTL  SZ IP        817 18.22                             171    0.3310 21.2 318 
 BTL  SZ ES   1    817 32.71                             171   -0.05 7 21.2 318 
 GIR2 SZ IP        817 18.08                             166    0.0310 34.0 350 
 BRR  HZ IP     D  817 19.87                             151    0.2510 73.2 300 
 BRR  HE ES   1    817 36.52                             151    0.68 7 73.2 300 
 BRR  HZ I         817 37.86       487.0 0.26                          73.2 300 
 PAM  SZ EP   1    817 20.89                             149    0.22 7 78.9  38 
 PAM  SN ES   1    817 37.19                             149   -0.52 7 78.9  38 
 RUS  HZ EP   1    817 21.85                             144   -0.10 7 97.9 176 
 RUS  HE ES   1    817 40.25                             144    0.26 7 97.9 176 
 RUS  HZ I         817 41.98       470.2 0.29                          97.9 176 
 BRI  SZ EP        817 22.70                             140    0.2310  111  20 
 BRI  SZ ES   1    817 40.78                             140   -0.14 7  111  20 
 BRI  SZ I         817 43.09       494.8 0.31                           111  20 
 GRA  SZ IP        817 24.04                             135    0.1710  128  17 
 GRA  SZ ES   1    817 43.20                             135   -0.21 7  128  17 
 GRA  SZ I         817 44.90       459.9 0.36                           128  17 
 OCA  SZ EP        817 26.86                             128   -0.19 9  163 353 
 OCA  SZ ES   1    817 48.44                             128   -0.64 7  163 353 
 OCA  SZ I         817 51.97       246.8 0.15                           163 353 
 NOR  SZ EP        817 33.93                             118   -0.27 8  234 235 
 NOR  SN ES   1    818  0.94                             118   -0.87 6  234 235 
 CHI  HZ EP   1    817 35.85                             116   -0.18 6  246 196 
 CHI  HE ES   1    818  4.67                             116   -0.38 6  246 196 
 CHI  HZ I         818  8.89       141.3 0.44                           246 196 
 ROSC BZ EP   1    817 37.70                             116    1.20 6  251 211 
 ROSC BZ I         818 15.46       165.4 0.25                           251 211 
 HEL  HZ EP   1    817 38.46                             114   -0.37 6  272 256 
 HEL  HN ES   2    818  8.99                             114   -1.05 4  272 256 
 VIL  SZ EP   1    817 42.02                             111    0.25 5  301 192 
 VIL  SN ES   1    818 14.55                             111   -0.72 5  301 192 
 VIL  SZ I         818 22.22        70.4 0.71                           301 192 
 GUY  SZ EP   1    817 43.24                             111    0.84 5  303 236 
 GUY  SN ES   1    818 15.83                             111   -0.56 5  303 236 
 DBB  SZ EP        817 46.66                             109    0.42 7  340 275 
 TOL  SZ EP   2    817 47.85                             109    1.10 3  342 225 
 SDV  BZ EP   1    817 47.87                             107   -0.95 5  361  50 
 SDV  BZ I         818 29.89       134.1 0.56                           361  50 
 PRA  HZ EP        817 51.33                             106   -0.64 6  390 210 
 PRA  HN ES   1    818 34.09                             106    0.66 4  390 210 
 GUA  SZ EP   1    818  1.24                             102   -0.29 4  471 173 
                                                                                
