 2016  318 0915 16.1 L   6.809 -73.153143.0  RSN 17 0.3 2.0LRSN                1
 GAP= 65        0.72       2.1     2.2  3.7 -0.7779E+00  0.2222E+01  0.4363E+00E
 Epicentro: LOS SANTOS - SANTANDER                                             3
 ACTION:UPD 16-05-13 21:25 OP:cam  STATUS:               ID:20160318091516 L   I
 OLDACT:UP  16-03-29 15:18 OP:cam  STATUS:               ID:20160318091516 L   3
 OLDACT:UP  16-03-28 15:35 OP:Mher STATUS:               ID:20160318091516 L   3
 OLDACT:UP  16-03-18 18:21 OP:mh   STATUS:               ID:20160318090749     3
 OLDACT:UP  16-03-18 18:17 OP:mh   STATUS:               ID:20160318090749     3
 OLDACT:UP  16-03-18 18:17 OP:mh   STATUS:               ID:20160318090749     3
 OLDACT:UP  16-03-18 18:17 OP:mh   STATUS:               ID:20160318090749     3
 OLDACT:REG 16-03-18 13:34 OP:dnl  STATUS:               ID:20160318090749     3
 2016-03-18-0907-49M.COL___309                                                 6
 STAT SP IPHASW D HRMM SECON CODA AMPLIT PERI AZIMU VELO AIN AR TRES W  DIS CAZ7
 BAR2 EZ EP        915 35.37                             170   -0.0810 24.2 188 
 BAR2 EZ ES        915 50.61                             170    0.0910 24.2 188 
 BAR2 EZ I         915 52.09        24.9 0.11            168           24.2 188 
 PAM  EZ EP        915 38.29                             150    0.2510 77.1  40 
 PAM  EN ES        915 55.47                             150    0.3410 77.1  40 
 PAM  EZ I         915 58.86         9.0 0.28            154           77.1  40 
 RUS  HZ EP        915 39.36                             143   -0.3310  102 176 
 RUS  HN ES   1    915 58.04                             143   -0.03 7  102 176 
 RUS  HZ I         915 59.59         7.9 0.42            142            102 176 
 PTB  HN EP        915 42.25                             131   -0.57 9  147 258 
 PTB  HZ ES        916  3.28                             131   -0.36 9  147 258 
 PTB  HN I         916  9.44        15.4 0.34            130            147 258 
 TAM  HZ EP        915 43.73                             130    0.04 9  156 105 
 TAM  HN ES   1    916  4.76                             130   -0.42 7  156 105 
 TAM  HZ I         916  7.17         6.7 0.50            132            156 105 
 OCA  HZ EP   1    915 44.11                             129   -0.01 7  159 353 
 OCA  HN ES   1    916  6.21                             129    0.25 7  159 353 
 OCA  HZ I         916  8.49        18.1 0.28            131            159 353 
 SPBC HZ EP     D  915 44.32                             128   -0.13 9  163 219 
 SPBC HN ES        916  6.55                             128    0.02 9  163 219 
 SPBC HZ I         916 13.99        14.2 0.22            128            163 219 
 ZAR  HZ EP        915 48.15                             122   -0.13 9  203 292 
 ZAR  HN ES        916 13.30                             122   -0.06 9  203 292 
 ZAR  HZ I         916 18.60        10.2 0.16            122            203 292 
 NOR  HZ EP   1    915 51.28                             118   -0.41 6  235 234 
 NOR  HE ES        916 19.17                             118   -0.26 8  235 234 
 NOR  HZ I         916 29.22         5.9 0.52            118            235 234 
 CHI  HZ EP        915 53.58                             116   -0.18 8  249 195 
 CHI  HN ES        916 23.72                             116    0.61 8  249 195 
 CHI  HZ I         916 26.87         4.7 0.25            116            249 195 
 ROSC BZ EP   9    915 55.83                             116    1.68 0  253 211 
 ROSC BE ES        916 25.17                             116   -0.32 8  253 211 
 ROSC BZ I         916 30.21        16.3 0.23            116            253 211 
 HEL  HZ EP   1    915 56.73                             114    0.59 6  272 256 
 HEL  HN ES   1    916 27.88                             114    0.52 6  272 256 
 HEL  HZ I         916 33.55         4.4 0.24            114            272 256 
 URE  HZ EP   4    916  0.37                             113    3.43 0  283 292 
 URE  HN ES   4    916 25.70                             113   -3.08 0  283 292 
 GUY2CHZ EP        915 59.99                             112    0.39 7  301 235 
 GUY2CHN ES   4    916 37.86                             112    4.35 0  301 235 
 GUY2CHZ I         916 41.60         5.5 0.41                           301 235 
 PTGC HZ EP   9    915 57.70                             111   -2.30 0  310 159 
 PTGC HN ES        916 31.78                             111   -0.14 7  310 159 
 PTGC HZ I         916 48.05                             111            310 159 
 LL6C HZ EP   9    916  0.33                             110   -1.26 0  324 358 
 LL6C HN ES        916 35.14                             110   -0.65 7  324 358 
 MON  HZ EP        916  5.22                             108    0.34 6  352 308 
 MON  HN ES   4    916 40.51                             108   -2.40 0  352 308 
 MON  HZ I         916 56.07         2.3 0.42            108            352 308 
 SDV  BZ EP   4    916  4.77                             108   -1.29 0  360  50 
 SDV  BN ES   4    916 35.05                             108   -10.0 0  360  50 
 ORTC HZ EP        916  9.96                             106   -0.04 6  396 216 
 ORTC HN ES        916 52.62                             106    0.61 6  396 216 
 ORTC HZ I         916 56.82         2.8 0.17            106            396 216 
                                                                                
