 2015  318 0803 55.9 L   6.834 -73.176139.1  RSN  8 0.6 1.7LRSN                1
 GAP=131        1.51       4.9     7.2 11.7 -0.3789E+01  0.8683E+01 -0.6173E+01E
 Epicentro: ZAPATOCA - SANTANDER                                               3
 ACTION:UPD 15-04-30 16:26 OP:nd   STATUS:               ID:20150318080355 L   I
 OLDACT:DUP 15-03-18 19:08 OP:stll STATUS:               ID:20150318075738d    3
 2015-03-18-0757-37M.COL___272                                                 6
 STAT SP IPHASW D HRMM SECON CODA AMPLIT PERI AZIMU VELO AIN AR TRES W  DIS CAZ7
 BAR2 EZ EP        8 4 14.65                             169   -0.1710 26.7 182 
 BAR2 EZ I         8 4 14.96         8.2 0.36            170           26.7 182 
 BAR2 EZ ES        8 4 28.48                             169   -1.0910 26.7 182 
 BRR  HZ EP        8 4 16.38                             153    0.3010 66.5 297 
 BRR  HN ES        8 4 32.78                             153    0.9710 66.5 297 
 BRR  HZ I         8 4 33.86        11.4 0.44            149           66.5 297 
 PAM  SZ EP        8 4 17.50                             150    0.1110 76.7  43 
 PAM  SZ I         8 4 17.62        12.4 0.14            150           76.7  43 
 PAM  SN ES        8 4 34.60                             150    0.4710 76.7  43 
 RUS  HZ EP        8 4 19.34                             141    0.0210  105 174 
 RUS  HN ES        8 4 37.39                             141   -0.1910  105 174 
 RUS  HZ I         8 4 39.18         3.8 0.30            142            105 174 
 PTB  HN ES        8 4 42.01                             131   -0.55 9  145 257 
 PTB  HZ I         8 4 44.80         5.1 0.18            129            145 257 
 OCA  HN ES        8 4 44.80                             129    0.10 9  156 354 
 OCA  HZ I         8 4 49.81         9.0 0.36            127            156 354 
 SPBC HN ES        8 4 46.63                             127    0.73 9  164 217 
 SPBC HZ I         8 4 48.94         4.9 0.26            127            164 217 
 SML  HN ES        8 4 58.55                             116   -0.98 8  239 336 
 SML  HZ I         8 5  5.84         6.1 0.10            115            239 336 
                                                                                
