 2017  318 0723  9.1 L   6.138 -73.769103.7  RSN  4 0.3 0.7LRSN                1
 GAP=191        0.66       7.1     3.2  8.3  0.5253E+01  0.1079E+01  0.2029E+02E
 Epicentro: LANDAZURI - SANTANDER                                              3
 ACTION:UPD 17-05-25 18:42 OP:jn   STATUS:               ID:20170318072309 L   I
 OLDACT:DUP 17-03-18 17:18 OP:cog  STATUS:               ID:20170318071743d    3
 2017-03-18-0718-00M.COL___355                                                 6
 STAT SP IPHASW D HRMM SECON CODA AMPLIT PERI AZIMU VELO AIN AR TRES W  DIS CAZ7
 RUS  HZ EP        723 27.45                             139    0.1010 80.6 110 
 RUS  HN ES   3    723 41.77                             139    0.22 2 80.6 110 
 RUS  HZ I         723 46.85         0.6 0.44            143           80.6 110 
 BAR2 EZ EP        723 26.60                             138   -0.5110 82.0  52 
 BAR2 EZ ES        723 41.26                             138    0.1310 82.0  52 
 BAR2 EZ I         723 42.54         3.5 0.14            149           82.0  52 
 PTB  HZ EP        723 27.46                             136    0.1610 88.1 300 
 PTB  HN ES        723 41.32                             136   -0.1510 88.1 300 
 PTB  HZ I         723 43.54         0.8 0.36            146           88.1 300 
 BRR  HZ EP        723 29.23                             130    0.2410  107   3 
                                                                                
