 2012 1118 0932 58.3 L   6.785 -73.148149.5  RSN  8 0.4 1.5LRSN                1
 GAP=137        0.76       3.1     4.6  7.0  0.8416E+00  0.4734E+01  0.2101E+01E
 Epicentro: LOS SANTOS - SANTANDER                                             3
 ACTION:UPD 12-12-05 15:34 OP:}ep  STATUS:               ID:20121118093258 L   I
 2012-11-18-0930-00M.COL___234                                                 6
 STAT SP IPHASW D HRMM SECON CODA AMPLIT PERI AZIMU VELO AIN AR TRES W  DIS CAZ7
 BRR  HZ EP     C  933 20.22                             153    0.2910 71.8 300 
 BRR  HN ES   1    933 37.35                             153    0.58 7 71.8 300 
 BRR  HZ I         933 38.55         6.8 0.17                          71.8 300 
 PAM  SZ EP   1    933 21.26                             151    0.22 7 78.8  39 
 PAM  SN ES   1    933 38.52                             151   -0.22 7 78.8  39 
 PAM  SZ I         933 41.26         2.8 0.65                          78.8  39 
 RUS  HZ EP   1    933 22.26                             145   -0.09 7 99.0 176 
 RUS  HN ES   1    933 40.86                             145   -0.21 7 99.0 176 
 RUS  HZ I         933 42.26         6.2 0.24                          99.0 176 
 PTB  HZ EP   1    933 25.07                             133   -0.50 7  147 259 
 PTB  HN ES   1    933 46.27                             133   -0.54 7  147 259 
 PTB  HZ I         933 48.40         5.4 0.18                           147 259 
 OCA  HN ES   1    933 49.00                             130   -0.52 7  162 353 
 ZAR  HN ES   1    933 56.64                             123    0.03 6  204 293 
 ZAR  HZ I         934  2.91         3.3 0.42                           204 293 
 SML  HZ EP   1    933 34.85                             118   -0.48 6  245 335 
 SML  HN ES   1    934  4.86                             118    0.68 6  245 335 
 CHI  HZ EP   1    933 36.32                             118    0.24 6  247 195 
 CHI  HN ES   1    934  5.86                             118    0.35 6  247 195 
 CHI  HZ I         934 15.55         2.3 0.38                           247 195 
                                                                                
