 2014 1218 0715 45.9 L   6.796 -73.169141.3  RSN  9 0.5 1.4LRSN                1
 GAP=134        1.21       3.7     5.0  7.2 -0.5161E+00  0.8160E+01  0.4105E+01E
 Epicentro: LOS SANTOS - SANTANDER                                             3
 ACTION:UPD 15-02-10 17:04 OP:nd   STATUS:               ID:20141218071545 L   I
 OLDACT:REG 14-12-18 13:09 OP:fm   STATUS:               ID:20141218070738     3
 2014-12-18-0707-38M.COL___293                                                 6
 STAT SP IPHASW D HRMM SECON CODA AMPLIT PERI AZIMU VELO AIN AR TRES W  DIS CAZ7
 BAR2 EZ EP        716  5.13                             170    0.1810 22.6 184 
 BAR2 EZ ES        716 19.70                             170   -0.1310 22.6 184 
 BAR2 EZ I         716 21.60        11.8 0.18            168           22.6 184 
 BRR  HZ EP        716  6.94                             152    0.5110 69.2 300 
 BRR  HE ES        716 22.98                             152    0.5310 69.2 300 
 BRR  HZ I         716 28.21         5.1 0.16            151           69.2 300 
 PAM  SZ EP        716  8.06                             149    0.3210 79.4  41 
 PAM  SE ES        716 24.68                             149   -0.1110 79.4  41 
 PAM  SZ I         716 27.52         3.8 0.58            155           79.4  41 
 RUS  HZ EP        716  9.21                             143    0.0410  100 175 
 RUS  HN ES        716 27.48                             143    0.1410  100 175 
 RUS  HZ I         716 29.03         2.9 0.36            145            100 175 
 PTB  HZ EP        716 11.07                             131   -1.17 9  145 259 
 PTB  HN ES        716 32.78                             131   -0.02 9  145 259 
 PTB  HZ I         716 37.15         3.5 0.14            132            145 259 
 OCA  HE ES        716 34.73                             129   -0.95 9  160 354 
 OCA  HZ I         716 38.53         3.5 0.20            132            160 354 
 SPBC HZ EP        716 14.10                             128    0.25 9  161 218 
 SPBC HE ES        716 35.37                             128   -0.29 9  161 218 
 SPBC HZ I         716 44.87         4.8 0.10            129            161 218 
 ZAR  HZ EP        716 18.62                             122    0.82 9  202 293 
 ZAR  HN ES        716 42.79                             122    0.08 9  202 293 
 ZAR  HZ I         716 50.11         2.7 0.40            123            202 293 
 CHI  HZ EP        716 23.10                             116   -0.11 8  248 195 
 CHI  HN ES        716 52.01                             116   -0.32 8  248 195 
 CHI  HZ I         716 59.73         1.4 0.50            118            248 195 
                                                                                
