 2011  318 0915 12.9 L   6.815 -73.191139.5  RSN 10 0.3 1.8LRSN                1
 GAP=154        0.64       2.9     4.9  5.1 -0.3645E+01  0.9419E+01 -0.3444E+00E
 Epicentro: ZAPATOCA - SANTANDER                                               3
 ACTION:UP  11-06-16 14:34 OP:jfem STATUS:               ID:20110318091513 L   I
 2011-03-18-0912-41S.COL___135                                                 6
 STAT SP IPHASW D HRMM SECON CODA AMPLIT PERI AZIMU VELO SNR AR TRES W  DIS CAZ7
 BTL  SZ EP        915 31.04                             174    -0.610   14 323 
 BTL  SZ ES   2    915 46.37                             174     0.2 5   14 323 
 BAR2 SZ EP   1    915 31.84                             169     0.1 7   25 178 
 BAR2 SZ ES   1    915 46.25                             169    -0.3 7   25 178 
 BAR2 SZ I         915 50.37        19.2 0.41                            25 178 
 GIR2 SZ EP   1    915 32.28                             168     0.5 7   29 359 
 GIR2 SZ ES   2    915 46.48                             168     0.0 5   29 359 
 RUS  HZ EP   1    915 36.14                             142     0.0 7  103 173 
 RUS  HN ES   1    915 54.73                             142     0.4 7  103 173 
 RUS  HZ I         915 55.63        10.7 0.32                           103 173 
 GRA  SZ EP   1    915 37.80                             135     0.2 7  126  20 
 GRA  SZ I         916  2.19         7.8 0.27                           126  20 
 OCA  SZ EP   1    915 40.66                             128     0.2 7  158 355 
 OCA  SZ ES   2    916  1.98                             128    -0.1 5  158 355 
 OCA  SZ I         916  6.78        10.8 0.38                           158 355 
 NOR  SZ EP   1    915 47.71                             117    -0.2 6  232 234 
 NOR  SN ES   1    916 15.36                             117     0.1 6  232 234 
 CHI  HZ EP   1    915 50.06                             116    -0.2 6  249 194 
 CHI  HN ES   1    916 19.54                             116     0.1 6  249 194 
 CHI  HZ I         916 24.52         4.7 0.64                           249 194 
 DBB  SZ ES   1    916 36.07                             109     0.2 5  334 274 
 DBB  SZ I         916 37.92         1.3 0.27                           334 274 
 PRA  HZ EP   1    916  6.15                             105     0.1 4  391 209 
 PRA  HN ES   2    916 47.69                             105     0.1 3  391 209 
                                                                                
