 2017  818 0934 49.9 L   6.784 -73.151145.4  RSN  9 0.4 1.6LRSN                1
 GAP=137        0.82       3.0     3.6  4.9 -0.1416E+01  0.3814E+01  0.3263E+01E
 Epicentro: LOS SANTOS - SANTANDER                                             3
 ACTION:UPD 17-09-04 20:21 OP:rebc STATUS:               ID:20170818093449 L   I
 OLDACT:UP  17-08-18 16:49 OP:mg   STATUS:               ID:20170818092741     3
 OLDACT:UP  17-08-18 16:49 OP:mg   STATUS:               ID:20170818092741     3
 OLDACT:UP  17-08-18 16:48 OP:mg   STATUS:               ID:20170818092741     3
 OLDACT:REG 17-08-18 13:20 OP:mg   STATUS:               ID:20170818092741     3
 2017-08-18-0928-00M.COL___407                                                 6
 STAT SP IPHASW D HRMM SECON CODA AMPLIT PERI AZIMU VELO AIN AR TRES W  DIS CAZ7
 BAR2 EZ EP        935  9.33                             171   -0.1610 21.5 189 
 BAR2 EZ ES        935 24.72                             171   -0.0210 21.5 189 
 BAR2 EZ I         935 25.99        10.0 0.26            170           21.5 189 
 BRR  HZ EP   3    935  8.72                             152   -2.35 2 71.6 300 
 BRR  HN ES        935 27.85                             152    0.3010 71.6 300 
 BRR  HZ I         935 29.55         4.1 0.09            154           71.6 300 
 PAM  EZ EP     C  935 12.17                             150   -0.0510 79.1  39 
 PAM  EN ES        935 29.49                             150   -0.1110 79.1  39 
 PAM  EZ I         935 31.47         7.9 0.52            153           79.1  39 
 RUS  HZ EP        935 13.68                             144    0.1510 98.8 176 
 RUS  HN ES        935 32.20                             144    0.2710 98.8 176 
 RUS  HZ I         935 34.81         7.0 0.40            144           98.8 176 
 SPBC HZ EP        935 18.65                             129    0.40 9  161 219 
 SPBC HN ES        935 39.66                             129   -0.67 9  161 219 
 SPBC HZ I         935 42.42         6.1 0.10            130            161 219 
 ZAR  HZ EP   1    935 22.92                             122    0.54 6  204 293 
 ZAR  HN ES        935 47.32                             122   -0.36 9  204 293 
 ZAR  HZ I         935 49.45         3.6 0.07            124            204 293 
 NOR  HZ EP        935 25.46                             119   -0.03 8  233 235 
 NOR  HN ES        935 53.69                             119    0.47 8  233 235 
 NOR  HZ I         935 55.54         3.1 0.24            119            233 235 
 CHI  HZ EP        935 27.25                             117   -0.17 8  247 195 
 CHI  HN ES        935 56.42                             117   -0.23 8  247 195 
 CHI  HZ I         936  2.83         1.9 0.52            118            247 195 
 GUY2CHZ EP   9    935 34.88                             112    1.51 0  300 235 
 GUY2CHN ES        936  8.79                             112    0.04 7  300 235 
 GUY2CHZ I         936 16.41         2.5 0.38                           300 235 
                                                                                
