 2010 1118 0103 26.8 L   6.753 -73.159148.9  RSN  6 0.4 2.0LRSN                1
 GAP=232        0.77       6.6     8.6  7.5  0.2138E+02  0.2294E+02  0.1308E+02E
 Epicentro: LOS SANTOS - SANTANDER                                             3
 ACTION:UP  10-12-17 16:53 OP:REBC STATUS:               ID:20101118010326 L   I
 2010-11-18-0100-00M.COL___116                                                 6
 STAT SP IPHASW D HRMM SECON CODA AMPLIT PERI AZIMU VELO SNR AR TRES W  DIS CAZ7
 BAR2 SZ IP        1 3 46.56                             173    -0.110   18 189 
 BAR2 SZ ES   1    1 4  1.66                             173    -0.6 7   18 189 
 BAR2 SZ I         1 4  3.05        36.8 0.22                            18 189 
 BRR  HZ IP     C  1 3 48.39                             152     0.010   73 303 
 BRR  HZ I         1 3 48.61        23.9 0.09                            73 303 
 BRR  HN ES   1    1 4  5.66                             152     0.5 7   73 303 
 RUS  HZ EP   1    1 3 50.43                             146    -0.1 7   96 175 
 RUS  HN ES   1    1 4  9.38                             146     0.4 7   96 175 
 RUS  HZ I         1 4 10.32        14.1 0.25                            96 175 
 NOR  SZ EP   2    1 4  1.91                             119    -0.4 4  231 235 
 HEL  HZ EP   2    1 4  7.24                             115     0.4 4  269 257 
 HEL  HN ES   2    1 4 37.33                             115    -0.8 4  269 257 
 HEL  HZ I         1 4 43.09         3.7 0.69                           269 257 
 PRA  HZ EP   1    1 4 20.44                             107     0.6 4  387 210 
 PRA  HN ES   2    1 5  1.16                             107     0.0 3  387 210 
                                                                                
