 2016  918 0156  2.4 L   6.764 -73.180152.3  RSN  8 0.3 1.8LRSN                1
 GAP=231        0.63       4.0     4.3  5.3  0.8940E+01 -0.1245E+01 -0.3881E+01E
 Epicentro: LOS SANTOS - SANTANDER                                             3
 ACTION:UPD 17-08-17 21:13 OP:lp   STATUS:               ID:20160918015602 L   I
 OLDACT:UP  16-09-18 16:53 OP:and  STATUS:               ID:20160918014739     3
 OLDACT:UP  16-09-18 16:47 OP:and  STATUS:               ID:20160918014739     3
 OLDACT:REG 16-09-18 12:51 OP:and  STATUS:               ID:20160918014739     3
 2016-09-18-0148-00M.COL___360                                                 6
 STAT SP IPHASW D HRMM SECON CODA AMPLIT PERI AZIMU VELO AIN AR TRES W  DIS CAZ7
 BAR2 EZ EP   2    156 22.45                             173   -0.28 5 19.0 181 
 BAR2 EZ ES   2    156 37.84                             173   -0.75 5 19.0 181 
 BAR2 EZ I         156 38.69        13.7 0.26            170           19.0 181 
 BRR  HN EP        156 24.40                             154    0.2210 70.0 303 
 BRR  HE ES        156 41.48                             154    0.3010 70.0 303 
 BRR  HN I         156 42.10        35.1 0.24            152           70.0 303 
 RUS  HZ EP        156 26.47                             147   -0.0710 96.9 174 
 RUS  HN ES        156 45.55                             147    0.1810 96.9 174 
 RUS  HZ I         156 46.23         5.9 0.28            145           96.9 174 
 PTB  HZ EP        156 29.20                             135   -0.30 9  143 260 
 PTB  HN ES        156 50.33                             135   -0.32 9  143 260 
 PTB  HZ I         156 52.23         6.7 0.16            132            143 260 
 SPBC HZ EP   2    156 30.73                             132   -0.16 5  158 219 
 SPBC HN ES   2    156 53.84                             132    0.72 5  158 219 
 ZAR  HZ EP   2    156 35.27                             124    0.20 4  202 294 
 ZAR  HE ES        157  0.59                             124    0.03 9  202 294 
 ZAR  HZ I         157  5.62         6.9 0.32            123            202 294 
 CHI  HZ EP   9    156 41.09                             119    1.15 0  244 195 
 CHI  HN ES        157 10.26                                   -0.12 8  244 195 
 CHI  HZ I         157 12.34         3.5 0.42            118            244 195 
 GUY2CHZ EP   4    156 47.40                             114    1.70 0  296 235 
 GUY2CHN ES   4    157 22.98                             114    3.50 0  296 235 
 GUY2CHZ I         157 28.70         2.9 0.32                           296 235 
                                                                                
