 2015  318 0001 20.7 L   6.776 -73.137142.0  RSN  7 0.6 1.6LRSN                1
 GAP=139        1.32       6.1     6.1  9.3 -0.1358E+02  0.1104E+02  0.1295E+02E
 Epicentro: LOS SANTOS - SANTANDER                                             3
 ACTION:UPD 15-04-30 16:26 OP:nd   STATUS:               ID:20150318000120 L   I
 OLDACT:REG 15-03-18 13:06 OP:stll STATUS:               ID:20150318000003     3
 2015-03-18-0000-03M.COL___244                                                 6
 STAT SP IPHASW D HRMM SECON CODA AMPLIT PERI AZIMU VELO AIN AR TRES W  DIS CAZ7
 BRR  HZ EP        0 1 41.70                             151    0.1810 73.3 300 
 BRR  HN ES        0 1 58.54                             151    0.7510 73.3 300 
 PAM  SZ EP        0 1 42.56                             150   -0.0110 78.9  38 
 PAM  SZ I         0 1 42.76         6.6 0.22            155           78.9  38 
 PAM  SN ES        0 1 59.53                             150   -0.1210 78.9  38 
 RUS  HZ EP        0 1 43.72                             144   -0.1210 97.9 176 
 RUS  HZ I         0 1 44.60         2.0 0.30            145           97.9 176 
 RUS  HN ES        0 2  1.85                             144   -0.0710 97.9 176 
 PTB  HZ EP        0 1 46.60                             131   -0.76 9  148 260 
 PTB  HN ES        0 2  7.30                             131   -0.88 9  148 260 
 PTB  HZ I         0 2 15.11         6.0 0.46            131            148 260 
 SPBC HZ EP        0 1 48.72                             129   -0.01 9  162 220 
 SPBC HN ES        0 2 11.01                             129    0.39 9  162 220 
 SPBC HZ I         0 2 16.54         9.1 0.14            129            162 220 
 NOR  HZ EP        0 1 55.83                             118   -0.25 8  234 235 
 NOR  HN ES        0 2 23.09                             118   -0.63 8  234 235 
 NOR  HZ I         0 2 27.96         4.5 0.22            119            234 235 
 GUY2CHZ EP        0 2  5.02                             112    1.02 7  300 235 
 GUY2CHN ES        0 2 38.90                             112    1.09 7  300 235 
 GUY2CHZ I         0 2 46.42         2.6 0.34                           300 235 
                                                                                
