 2016 1118 0952 29.1 L   6.869 -73.142148.8  RSN 14 0.6 1.8LRSN                1
 GAP= 65        1.27       4.2     3.6  6.5  0.1199E+01  0.6851E+01  0.4152E+01E
 Epicentro: LOS SANTOS - SANTANDER                                             3
 ACTION:UPD 17-10-26 21:09 OP:lp   STATUS:               ID:20161118095229 L   I
 OLDACT:UP  16-11-18 19:09 OP:and  STATUS:               ID:20161118094748     3
 OLDACT:UP  16-11-18 19:08 OP:and  STATUS:               ID:20161118094748     3
 OLDACT:UP  16-11-18 19:07 OP:and  STATUS:               ID:20161118094748     3
 OLDACT:UP  16-11-18 19:06 OP:and  STATUS:               ID:20161118094748     3
 OLDACT:UP  16-11-18 19:04 OP:and  STATUS:               ID:20161118094748     3
 OLDACT:REG 16-11-18 13:02 OP:and  STATUS:               ID:20161118094748     3
 2016-11-18-0948-00M.COL___334                                                 6
 STAT SP IPHASW D HRMM SECON CODA AMPLIT PERI AZIMU VELO AIN AR TRES W  DIS CAZ7
 BAR2 EZ EP     C  952 49.01                             168   -0.2710 30.9 188 
 BAR2 EZ ES        953  4.35                             168   -0.6610 30.9 188 
 BAR2 EZ I         953  5.52        28.7 0.24            167           30.9 188 
 BRR  HZ EP        952 50.92                             154    0.4910 68.3 293 
 BRR  HN ES        953  7.82                             154    0.7610 68.3 293 
 BRR  HZ I         953  9.84        10.9 0.22            152           68.3 293 
 PAM  EZ IP     C  952 51.87                             153    0.5610 71.4  43 
 PAM  EN ES        953  8.71                             153    0.0910 71.4  43 
 PAM  EZ I         953 11.14         5.6 0.44            157           71.4  43 
 PTB  HZ EP        952 55.89                             132   -0.62 9  150 256 
 PTB  HN ES        953 17.14                             132   -0.75 9  150 256 
 PTB  HZ I         953 24.45         7.3 0.20            132            150 256 
 TAM  HZ EP        952 57.26                             131    0.08 9  157 108 
 TAM  HN ES        953 18.96                             131   -0.12 9  157 108 
 ZAR  HZ EP        953  1.89                             123    0.37 9  202 290 
 ZAR  HN ES        953 27.56                             123    0.77 9  202 290 
 ZAR  HZ I         953 34.40         5.6 0.14            123            202 290 
 NOR  HZ EP   4    953  6.74                             119    1.21 0  240 233 
 NOR  HN ES        953 33.78                             119   -0.16 8  240 233 
 NOR  HZ I         953 38.96         4.4 0.30            119            240 233 
 CHI  HZ EP        953  7.95                             117    0.17 8  256 195 
 CHI  HN ES        953 38.15                             117    0.20 8  256 195 
 CHI  HZ I         953 41.96         3.3 0.30            118            256 195 
 URE  HZ EP        953  9.90                             114   -0.17 7  282 290 
 URE  HN ES        953 41.57                             114   -0.45 7  282 290 
 URE  HZ I         953 51.75         4.9 0.20            115            282 290 
 PTGC HZ EP   9    953 12.00                             112   -1.88 0  316 159 
 PTGC HN ES        953 46.48                             112   -0.45 7  316 159 
 LL6C HZ EP   9    952 54.92                             111   -19.2 0  317 357 
 LL6C HE ES        953 30.23                                    0.23 7  317 357 
 CBOC HZ EP        953 17.67                             110    1.20 7  336 251 
 CBOC HE ES        953 53.85                             110    0.43 7  336 251 
 PRA  HZ EP        953 22.87                             107   -0.66 6  399 209 
 PRA  HN ES        954  5.64                             107   -0.34 6  399 209 
 PRA  HZ I         954  9.96         3.2 0.31            108            399 209 
 SJC  HZ EP        953 23.46                             106   -0.60 6  403 326 
 SJC  HN ES        954  5.16                             106   -1.76 6  403 326 
                                                                                
