 2011  618 0708 10.0 L   6.796 -73.124144.5  RSN 12 0.2 2.3LRSN                1
 GAP=140        0.44       2.2     4.3  4.0 -0.4817E+01  0.3483E+01  0.1115E+01E
 Epicentro: LOS SANTOS - SANTANDER                                             3
 ACTION:UP  11-07-14 19:06 OP:ep   STATUS:               ID:20110618070810 L   I
 2011-06-18-0707-06S.COL___135                                                 6
 STAT SP IPHASW D HRMM SECON CODA AMPLIT PERI AZIMU VELO SNR AR TRES W  DIS CAZ7
 BTL  SZ EP   1    7 8 29.43                             171     0.0 7   21 311 
 BAR2 SZ IP        7 8 29.31                             170    -0.110   23 196 
 BAR2 SZ ES   2    7 8 44.18                             170    -0.4 5   23 196 
 BAR2 SZ I         7 8 45.25        58.9 0.28                            23 196 
 GIR2 SZ EP   1    7 8 29.39                             167    -0.1 7   32 346 
 BRR  HZ IP     C  7 8 31.19                             151     0.110   74 298 
 BRR  HE ES   2    7 8 48.21                             151     0.6 5   74 298 
 BRR  HZ I         7 8 51.63        51.3 0.14                            74 298 
 PAM  SE ES   2    7 8 49.39                             151     0.3 5   76  38 
 RUS  HZ EP   2    7 8 33.42                             144    -0.1 5  100 177 
 RUS  HE ES   2    7 8 51.95                             144     0.0 5  100 177 
 RUS  HZ I         7 8 52.99        18.4 0.07                           100 177 
 BRI  SZ EP   1    7 8 33.91                             141     0.2 7  108  19 
 BRI  SZ ES   2    7 8 52.30                             141     0.1 5  108  19 
 BRI  SZ I         7 8 57.37        34.9 0.40                           108  19 
 GRA  SZ IP        7 8 35.21                             137     0.110  126  16 
 GRA  SZ ES   1    7 8 54.48                             137    -0.2 7  126  16 
 GRA  SZ I         7 8 55.83        32.8 0.54                           126  16 
 OCA  SZ EP   1    7 8 38.03                             129    -0.2 7  161 352 
 OCA  SZ ES   2    7 8 59.87                             129    -0.4 5  161 352 
 OCA  SZ I         7 9  3.03        33.4 0.16                           161 352 
 NOR  SZ EP   1    7 8 45.79                             118     0.0 6  236 235 
 NOR  SN ES   2    7 9 13.48                             118    -0.3 4  236 235 
 CHI  HZ EP   1    7 8 47.68                             117     0.1 6  249 196 
 CHI  HN ES   2    7 9 17.30                             117     0.3 4  249 196 
 CHI  HZ I         7 9 24.11        10.8 0.52                           249 196 
 PRA  HZ EP   1    7 9  3.64                             106     0.1 4  393 210 
 PRA  HN ES   2    7 9 45.12                             106    -0.2 3  393 210 
                                                                                
