 2010  418 0454 29.4 L   5.994 -73.714105.9  RSN  7 0.4 1.6LRSN                1
 GAP=166        0.86       5.9     7.2 12.3 -0.2917E+02  0.4439E+01  0.2477E+02E
 Epicentro: BOLIVAR - SANTANDER                                                3
 ACTION:UPD 10-08-24 09:59 OP:vdl  STATUS:               ID:20100418045433 L   I
 2010-04-18-0452-04S.COL___100                                                 6
 STAT SP IPHASW D HRMM SECON CODA AMPLIT PERI AZIMU VELO AIN AR TRES W  DIS CAZ7
 BAR2 SZ EP   1    454 47.69                             138    -0.4 8   88  42 
 BAR2 SZ ES   2    455  3.00                             138     0.3 5   88  42 
 BRR  HZ EP        454 50.57                             127    -0.410  123   0 
 BRR  HZ I         454 59.90        14.6 0.11                           123   0 
 BRR  HN ES        455  7.93                             127     0.210  123   0 
 HEL  HZ EP   1    454 59.69                             113    -0.2 7  202 276 
 HEL  HZ I         455  1.52         3.6 0.88                           202 276 
 HEL  HN ES   2    455 23.11                             113    -0.5 4  202 276 
 RREF BZ EP        455  1.94                             111     0.0 9  218 236 
 RREF BN ES   1    455 27.95                             111     0.6 6  218 236 
 RREF BZ I         455 32.19         3.1 0.55                           218 236 
 TOL  SZ ES   2    455 30.09                             109    -0.5 4  237 229 
 OCA  SZ EP        455  5.97                             108     0.6 8  252  10 
 PRA  HE ES   2    455 40.13                             105     0.4 4  284 207 
 PRA  HZ I         455 44.38         1.9 0.05                           284 207 
                                                                                
