 2016  718 0549 14.9 L   6.760 -73.096141.8  RSN  5 0.2 1.6LRSN                1
 GAP=173        0.63       3.4     3.4  4.6 -0.2510E+01  0.4372E+01  0.8748E+00E
 Epicentro: LOS SANTOS - SANTANDER                                             3
 ACTION:UPD 17-03-29 16:52 OP:lp   STATUS:               ID:20160718054914 L   I
 OLDACT:REG 16-07-18 16:18 OP:ar   STATUS:               ID:20160718054759     3
 2016-07-18-0547-59S.COL___312                                                 6
 STAT SP IPHASW D HRMM SECON CODA AMPLIT PERI AZIMU VELO AIN AR TRES W  DIS CAZ7
 BAR2 EZ EP        549 33.83                             171   -0.1410 20.9 207 
 BAR2 EZ ES        549 48.99                             171    0.1110 20.9 207 
 PAM  EZ EP        549 36.61                             150   -0.0610 77.6  34 
 PAM  EN ES        549 53.63                             150   -0.0510 77.6  34 
 PAM  EZ I         549 56.00         9.1 0.32            151           77.6  34 
 BRR  HZ EP        549 35.78                             149   -0.2210 78.2 299 
 BRR  HN ES        549 52.74                             149    0.2510 78.2 299 
 BRR  HZ I         549 56.52         5.5 0.30            147           78.2 299 
 SPBC HZ EP        549 43.24                             128    0.16 9  163 221 
 SPBC HE ES        550  4.95                             128   -0.15 9  163 221 
 SPBC HZ I         550  6.56         3.6 0.56            130            163 221 
 ZAR  HZ EP        549 48.31                             121    0.55 8  211 293 
 ZAR  HN ES        550 13.04                             121   -0.39 8  211 293 
 ZAR  HZ I         550 18.56         3.7 0.34            121            211 293 
                                                                                
