 2017  518 0522 34.2 L   6.769 -73.122150.2  RSN  8 0.5 1.6LRSN                1
 GAP=115        1.18       5.0     4.2  8.7  0.3158E+01  0.3356E+01  0.1568E+02E
 Epicentro: LOS SANTOS - SANTANDER                                             3
 ACTION:UPD 17-06-16 13:37 OP:jn   STATUS:               ID:20170518052234 L   I
 OLDACT:UP  17-05-18 13:48 OP:edw  STATUS:               ID:20170518051736     3
 OLDACT:REG 17-05-18 12:33 OP:edw  STATUS:               ID:20170518051736     3
 2017-05-18-0518-00M.COL___347                                                 6
 STAT SP IPHASW D HRMM SECON CODA AMPLIT PERI AZIMU VELO AIN AR TRES W  DIS CAZ7
 BRR  HZ EP        522 56.22                             152    0.1410 75.2 300 
 BRR  HN ES        523 13.84                             152    0.7110 75.2 300 
 BRR  HZ I         523 19.81         4.6 0.24            150           75.2 300 
 PAM  EZ EP     D  522 57.20                             151    0.2210 78.5  36 
 PAM  EN ES        523 14.56                             151   -0.1710 78.5  36 
 PAM  EZ I         523 16.46         7.3 0.48            153           78.5  36 
 PTB  HZ EP        523  1.26                             133   -0.47 9  150 260 
 PTB  HN ES        523 22.37                             133   -0.82 9  150 260 
 PTB  HZ I         523 29.86         4.2 0.38            130            150 260 
 SPBC HZ EP        523  3.15                             130    0.18 9  162 220 
 SPBC HN ES        523 25.65                             130    0.25 9  162 220 
 SPBC HZ I         523 27.79         9.5 0.22            127            162 220 
 YPLC HZ EP     C  523  4.54                             128    0.61 9  172 152 
 YPLC HN ES        523 26.62                             128   -0.48 9  172 152 
 YPLC HZ I         523 29.42         4.3 0.28            127            172 152 
 ZAR  HZ EP        523  7.33                             123   -0.02 8  208 293 
 ZAR  HE ES        523 32.65                             123   -0.53 8  208 293 
 ZAR  HZ I         523 37.90         5.6 0.34            121            208 293 
 PTGC HZ EP        523 17.30                             113   -0.51 7  304 159 
 PTGC HZ I         523 35.72         3.1 0.54            112            304 159 
 PTGC HN ES   4    523 50.03                             113   -1.78 0  304 159 
 CBOC HZ EP   4    523 22.83                             111    1.34 0  335 253 
 CBOC HN ES        523 59.30                             111    0.94 7  335 253 
 CBOC HZ I         524 13.97         0.6 0.62            109            335 253 
                                                                                
