 2014  618 0153 44.7 L   6.791 -73.188138.6  RSN  9 0.4 1.8LRSN                1
 GAP=179        0.74       3.3     4.8  5.4 -0.1579E+01  0.4667E+01  0.2444E+01E
 Epicentro: LOS SANTOS - SANTANDER                                             3
 ACTION:UPD 14-07-01 22:54 OP:nd   STATUS:               ID:20140618015344 L   I
 OLDACT:DUP 14-06-18 14:10 OP:mh   STATUS:               ID:20140618014819d    3
 OLDACT:UP  14-06-18 14:10 OP:mh   STATUS:               ID:20140618014818     3
 OLDACT:REG 14-06-18 12:27 OP:mh   STATUS:               ID:20140618014818     3
 2014-06-18-0148-18M.COL___262                                                 6
 STAT SP IPHASW D HRMM SECON CODA AMPLIT PERI AZIMU VELO AIN AR TRES W  DIS CAZ7
 BAR2 SZ EP        154  3.40                             171   -0.0310 22.0 179 
 BAR2 SZ ES        154 18.23                             171    0.1810 22.0 179 
 BAR2 SZ I         154 18.94        17.4 0.28            168           22.0 179 
 BRR  HZ EP     C  154  5.31                             152    0.4510 67.7 301 
 BRR  HN ES   1    154 21.05                             152    0.45 7 67.7 301 
 BRR  HZ I         154 27.06         9.2 0.20            146           67.7 301 
 RUS  HZ EP        154  7.37                             143   -0.3310  100 173 
 RUS  HN ES   1    154 25.47                             143   -0.18 7  100 173 
 RUS  HZ I         154 26.91         6.7 0.21            146            100 173 
 PTB  HZ EP   1    154 10.25                             131   -0.39 7  143 259 
 PTB  HN ES   1    154 30.41                             131   -0.48 7  143 259 
 PTB  HZ I         154 36.65         4.5 0.10            128            143 259 
 SPBC HZ EP   1    154 12.23                             128   -0.06 7  160 218 
 SPBC HN ES   1    154 33.88                             128    0.05 7  160 218 
 OCA  HZ EP   2    154 13.20                             128    0.70 5  161 355 
 OCA  HN ES   1    154 33.54                             128   -0.65 7  161 355 
 OCA  HZ I         154 37.91        10.2 0.28            128            161 355 
 ZAR  HZ EP   4    154 24.97                             121    8.70 0  200 293 
 ZAR  HN ES   4    154 42.92                             121    2.02 0  200 293 
 ZAR  HZ I         154 49.20         9.7 0.08            120            200 293 
 NOR  HN ES   1    154 46.63                             118   -0.10 6  230 234 
 NOR  HZ I         154 50.01         3.5 0.22            117            230 234 
 PRA  HZ EP        154 37.83                             105    0.23 6  389 209 
 PRA  HN ES   1    155 19.55                             105    0.68 4  389 209 
 PRA  HZ I         155 25.73         3.1 0.17            106            389 209 
 SJC  HZ EP   4    154 37.75                             105   -2.07 0  408 328 
 SJC  HN ES   4    155 18.17                             105   -4.66 0  408 328 
                                                                                
