 2013  618 0537 16.0 L   6.806 -73.187146.5  RSN  6 0.4 1.7LRSN                1
 GAP=175        0.73       5.0     6.1  6.8  0.5712E+01  0.5750E+01  0.3485E+01E
 Epicentro: ZAPATOCA - SANTANDER                                               3
 ACTION:UPD 14-01-08 09:55 OP:ep   STATUS:               ID:20130618053716 L   I
 OLDACT:DUP 13-06-18 09:57 OP:carl STATUS:               ID:20130618052960d    3
 2013-06-18-0529-59M.COL___261                                                 6
 STAT SP IPHASW D HRMM SECON CODA AMPLIT PERI AZIMU VELO AIN AR TRES W  DIS CAZ7
 BAR2 SZ EP   1    537 35.84                             170    0.15 7 23.6 179 
 BAR2 SZ ES   1    537 50.44                             170   -0.64 7 23.6 179 
 BAR2 SZ I         537 51.95         7.5 0.22            168           23.6 179 
 GIR2 SZ EP   1    537 35.76                             168    0.06 7 30.2 359 
 GIR2 SZ ES   1    537 51.14                             168    0.05 7 30.2 359 
 GIR2 SZ I         537 51.92         8.7 0.10            169           30.2 359 
 BRR  HZ EP   1    537 37.11                             154    0.15 7 66.9 300 
 BRR  HN ES   1    537 54.05                             154    0.71 7 66.9 300 
 BRR  HN I         537 55.05        19.8 0.54            153           66.9 300 
 RUS  HZ EP   1    537 40.01                             144    0.15 7  102 173 
 RUS  HE ES   1    537 58.67                             144    0.16 7  102 173 
 RUS  HZ I         538  0.19         6.0 0.30            144            102 173 
 PTB  HZ EP   1    537 42.28                             133   -0.32 7  143 258 
 PTB  HN ES   1    538  3.08                             133   -0.30 7  143 258 
 PTB  HZ I         538  6.56         5.8 0.10            132            143 258 
 OCA  HN ES   2    538  5.62                             130   -0.66 5  159 355 
                                                                                
