 2012  318 0818  9.7 L   6.723 -73.247156.0  RSN  4 0.2 1.6LRSN                1
 GAP=219        0.63       6.1     6.4  6.5  0.2415E+02  0.9476E+00 -0.8490E+00E
 ACTION:UP  12-03-31 23:20 OP:EP   STATUS:               ID:20120318081809 L   I
 2012-03-18-0810-00M.COL___201                                                 6
 STAT SP IPHASW D HRMM SECON CODA AMPLIT PERI AZIMU VELO SNR AR TRES W  DIS CAZ7
 BRR  HZ EP        818 31.86                             156     0.110   67 310 
 BRR  HZ I         818 32.06         7.7 0.13                            67 310 
 BRR  HN ES        818 48.96                             156     0.110   67 310 
 RUS  HZ EP   1    818 34.07                             148     0.1 7   94 169 
 RUS  HN ES   1    818 52.58                             148    -0.4 7   94 169 
 RUS  HZ I         818 54.61         5.7 0.40                            94 169 
 PTB  HZ EP   1    818 36.68                             137     0.2 7  135 261 
 PTB  HN ES   1    818 57.53                             137     0.2 7  135 261 
 PTB  HZ I         818 59.87         3.2 0.13                           135 261 
 ZAR  HZ EP   1    818 41.83                             125    -0.3 6  197 296 
 ZAR  HN ES   1    819  7.05                             125    -0.4 6  197 296 
 ZAR  HZ I         819 13.29         3.6 0.08                           197 296 
                                                                                
