 2015  318 0522 47.7 L   6.796 -73.134147.8  RSN  6 0.4 1.3LRSN                1
 GAP=138        1.00       4.8     5.1  6.9 -0.6035E+01  0.5474E+01  0.3466E+01E
 Epicentro: LOS SANTOS - SANTANDER                                             3
 ACTION:UPD 15-04-30 16:26 OP:nd   STATUS:               ID:20150318052247 L   I
 OLDACT:REG 15-03-18 13:16 OP:stll STATUS:               ID:20150318051749     3
 2015-03-18-0517-49M.COL___272                                                 6
 STAT SP IPHASW D HRMM SECON CODA AMPLIT PERI AZIMU VELO AIN AR TRES W  DIS CAZ7
 BAR2 EZ ES        523 22.99                             171   -0.1110 23.2 193 
 BAR2 EZ I         523 23.70         6.2 0.18            170           23.2 193 
 BRR  HZ EP        523  9.49                             152    0.3110 72.5 298 
 BRR  HN ES        523 26.14                             152    0.2410 72.5 298 
 BRR  HZ I         523 30.25         3.3 0.12            151           72.5 298 
 PAM  SZ EP        523 10.43                             151    0.2910 76.9  39 
 PAM  SZ I         523 10.66         5.0 0.24            154           76.9  39 
 PAM  SN ES        523 27.41                             151   -0.2010 76.9  39 
 RUS  HZ EP        523 11.50                             144   -0.1510  100 177 
 RUS  HN ES        523 30.22                             144   -0.0810  100 177 
 RUS  HZ I         523 31.24         1.4 0.28            146            100 177 
 PTB  HZ EP        523 15.01                             132    0.04 9  149 259 
 PTB  HN ES        523 35.56                             132   -0.66 9  149 259 
 PTB  HZ I         523 37.59         2.4 0.40            132            149 259 
 SPBC HZ EP        523 15.90                             129   -0.54 9  164 219 
 SPBC HE ES        523 39.64                             129    0.82 9  164 219 
 SPBC HZ I         523 43.50         2.8 0.44            130            164 219 
                                                                                
