 2012  918 0812  3.3 L   6.861 -73.301123.1  RSN  7 0.3 2.1LRSN                1
 GAP=105        0.57       2.7     3.2  4.3  0.2300E+01  0.3532E+01  0.2604E+01E
 Epicentro: ZAPATOCA - SANTANDER                                               3
 ACTION:UPD 12-10-22 14:19 OP:ep   STATUS:               ID:20120918081203 L   I
 2012-09-18-0810-00M.COL___227                                                 6
 STAT SP IPHASW D HRMM SECON CODA AMPLIT PERI AZIMU VELO AIN AR TRES W  DIS CAZ7
 GIR2 SZ EP        812 20.12                             167   -0.0810 26.8  26 
 BAR2 SZ EP        812 20.49                             164   -0.0210 32.5 156 
 BAR2 SZ ES   1    812 33.73                             164   -0.18 7 32.5 156 
 BAR2 SZ I         812 34.92        97.6 0.22                          32.5 156 
 BRR  HZ IP     D  812 20.90                             155   -0.1310 53.0 301 
 BRR  HN ES        812 35.04                             155    0.2110 53.0 301 
 BRR  HZ I         812 35.98        55.7 0.14                          53.0 301 
 PAM  SZ EP   1    812 23.69                             144   -0.04 7 84.9  51 
 PAM  SN ES   1    812 40.01                             144    0.38 7 84.9  51 
 PAM  SZ I         812 42.80        14.8 0.16                          84.9  51 
 RUS  HZ EP   1    812 25.53                             136   -0.17 7  110 167 
 RUS  HN ES   1    812 42.76                             136   -0.38 7  110 167 
 RUS  HZ I         812 44.09        11.1 0.22                           110 167 
 ZAR  HZ EP        812 32.27                             120   -0.17 9  186 292 
 ZAR  HN ES   1    812 55.11                             120   -0.02 7  186 292 
 CHI  HZ EP   1    812 40.55                             112    0.36 6  251 191 
 CHI  HN ES   1    813  9.66                             112    0.72 6  251 191 
 CHI  HZ I         813 14.67         5.3 0.42                           251 191 
                                                                                
