 2014  218 0546  5.3 L   6.812 -73.121144.8  RSN 10 0.4 1.8LRSN                1
 GAP=139        0.98       3.1     6.1  7.6  0.2214E+01  0.1714E+02 -0.1366E+01E
 Epicentro: LOS SANTOS - SANTANDER                                             3
 ACTION:UPD 14-03-10 08:11 OP:ep   STATUS:               ID:20140218054605 L   I
 OLDACT:REG 14-02-18 09:18 OP:fm   STATUS:               ID:20140218054000     3
 2014-02-18-0540-00M.COL___212                                                 6
 STAT SP IPHASW D HRMM SECON CODA AMPLIT PERI AZIMU VELO AIN AR TRES W  DIS CAZ7
 BAR2 SZ IP     D  546 24.85                             170    0.0110 25.2 196 
 BAR2 SZ ES        546 40.01                             170   -0.0810 25.2 196 
 BAR2 SZ I         546 40.65        15.6 0.34            167           25.2 196 
 PAM  SZ EP     D  546 27.82                             151    0.5810 74.7  39 
 PAM  SN ES        546 44.63                             151    0.2710 74.7  39 
 PAM  SZ I         546 46.72         9.3 0.34            154           74.7  39 
 RUS  HZ EP        546 28.90                             143   -0.1310  102 178 
 RUS  HN ES        546 47.40                             143   -0.1410  102 178 
 RUS  HZ I         546 48.85         6.4 0.26            143            102 178 
 PTB  HZ EP   4    546 31.85                             131   -0.59 0  151 259 
 PTB  HN ES   4    546 52.15                             131   -1.47 0  151 259 
 PTB  HZ I         546 55.98         7.5 0.14            128            151 259 
 OCA  HN ES        546 54.55                             130   -0.84 9  159 352 
 OCA  HZ I         547  0.45         7.2 0.32            128            159 352 
 ZAR  HZ EP   4    546 38.72                             122    0.84 0  206 292 
 ZAR  HE ES        547  3.58                             122    0.28 8  206 292 
 ZAR  HZ I         547  9.19         7.1 0.32            120            206 292 
 SML  HZ EP        546 41.21                             117   -0.64 8  244 335 
 SML  HE ES        547 10.95                             117    0.57 8  244 335 
 SML  HZ I         547 16.83         7.8 0.10            116            244 335 
 CHI  HZ EP   2    546 43.47                             117    0.33 4  251 196 
 CHI  HN ES        547 12.66                             117   -0.01 8  251 196 
 CHI  HZ I         547 19.40         2.1 0.34            116            251 196 
 HEL  HZ EP   4    546 47.56                             114    1.79 0  275 256 
 HEL  HN ES   4    547 19.74                             114    2.38 0  275 256 
 HEL  HZ I         547 24.58         2.7 0.30            113            275 256 
 GUY2CHZ EP   4    546 50.54                             112    1.36 0  304 235 
 GUY2CHE ES   4    547 25.38                             112    1.96 0  304 235 
 GUY2CHN I         547 29.93         6.6 0.58                           304 235 
                                                                                
