 2010  618 0714 37.6 L   6.768 -73.059139.6  RSN  5 0.4 1.0LRSN                1
 GAP=169        0.90       7.9    36.7 10.7 -0.2064E+03 -0.9085E+02 -0.4860E+01E
 Epicentro: LOS SANTOS - SANTANDER                                             3
 ACTION:UP  10-08-24 10:11 OP:vdl  STATUS:               ID:20100618071437 L   I
 2010-06-18-0712-47S.COL___115                                                 6
 STAT SP IPHASW D HRMM SECON CODA AMPLIT PERI AZIMU VELO SNR AR TRES W  DIS CAZ7
 BAR2 SZ IP        714 56.20                             170    -0.310   24 215 
 BAR2 SZ ES   1    715 11.08                             170    -0.1 7   24 215 
 BTN  SZ IP        714 59.42                             147     0.210   84 357 
 RUS  HZ EP   1    715  0.20                             143    -0.2 7   97 182 
 RUS  HN ES   2    715 19.07                             143     0.8 5   97 182 
 RUS  HZ I         715 19.77         1.8 0.37                            97 182 
 GUE  SZ EP   1    715  2.74                             137     0.9 7  118   7 
 GRA  SZ IP        715  2.06                             135    -0.310  127  13 
 GRA  SZ ES   1    715 21.44                             135    -0.2 7  127  13 
                                                                                
