 2010 1218 0811 58.4 L   6.804 -73.099141.2  RSN  8 0.3 2.0LRSN                1
 GAP=164        0.81       3.2     8.8  7.0 -0.9402E+01  0.1745E+02 -0.1665E+01E
 Epicentro: LOS SANTOS - SANTANDER                                             3
 ACTION:UP  11-01-14 15:25 OP:pat  STATUS:               ID:20101218081158 L   I
 2010-12-18-0810-48S.COL___135                                                 6
 STAT SP IPHASW D HRMM SECON CODA AMPLIT PERI AZIMU VELO SNR AR TRES W  DIS CAZ7
 BTL  SZ EP        812 17.94                             170     0.510   23 304 
 BAR2 SZ EP        812 17.75                             169     0.310   25 202 
 BAR2 SZ ES   1    812 32.20                             169    -0.2 7   25 202 
 BAR2 SZ I         812 34.01        51.6 0.20                            25 202 
 BRR  HZ EP        812 19.58                             150     0.310   76 296 
 BRR  HZ I         812 19.78        23.1 0.17                            76 296 
 RUS  HZ EP        812 21.69                             143     0.010  101 179 
 RUS  HN ES   1    812 39.59                             143    -0.3 7  101 179 
 RUS  HZ I         812 41.18        13.4 0.20                           101 179 
 GRA  SZ EP        812 22.57                             137    -0.510  124  15 
 GRA  SZ ES   1    812 42.14                             137    -0.1 7  124  15 
 GRA  SZ I         812 43.54        11.3 0.37                           124  15 
 OCA  SZ EP        812 26.14                             129    -0.2 9  161 351 
 OCA  SZ ES   1    812 47.96                             129    -0.2 7  161 351 
 OCA  SZ I         812 52.89        21.3 0.30                           161 351 
 NOR  SZ EP   1    812 34.01                             117    -0.3 6  239 235 
 NOR  SN ES   2    813  1.87                             117    -0.5 4  239 235 
 CHI  HZ EP        812 36.06                             116     0.1 8  250 196 
 CHI  HN ES   2    813  5.39                             116     0.0 4  250 196 
 CHI  HZ I         813 10.98         4.4 0.19                           250 196 
                                                                                
