 2013 1118 0957 33.1 L   6.771 -73.148148.9  RSN 10 0.4 1.9LRSN                1
 GAP=138        0.92       3.2     4.3  6.4 -0.2703E+01  0.5975E+01 -0.3527E+01E
 Epicentro: LOS SANTOS - SANTANDER                                             3
 ACTION:UPD 14-01-09 16:29 OP:ep   STATUS:               ID:20131118095733 L   I
 OLDACT:UP  13-11-18 13:12 OP:mh   STATUS:               ID:20131118095000     3
 OLDACT:UP  13-11-18 13:11 OP:mh   STATUS:               ID:20131118095000     3
 OLDACT:REG 13-11-18 07:57 OP:mh   STATUS:               ID:20131118095000     3
 2013-11-18-0950-00M.COL___279                                                 6
 STAT SP IPHASW D HRMM SECON CODA AMPLIT PERI AZIMU VELO AIN AR TRES W  DIS CAZ7
 BAR2 SZ EP   1    957 53.42                             172    0.38 7 20.1 191 
 BAR2 SZ I         958  9.49        30.6 0.33            169           20.1 191 
 BRR  HZ EP        957 55.17                             153    0.5210 72.5 301 
 BRR  HN ES        958 12.18                             153    0.7010 72.5 301 
 BRR  HZ I         958 14.73        11.7 0.16            148           72.5 301 
 PAM  SZ EP   1    957 56.27                             151    0.47 7 80.0  38 
 PAM  SN ES        958 13.03                             151   -0.4810 80.0  38 
 RUS  HZ EP        957 57.05                             145    0.1210 97.4 176 
 RUS  HN ES        958 15.20                             145   -0.3310 97.4 176 
 RUS  HZ I         958 17.92         4.6 0.42            146           97.4 176 
 PTB  HZ EP        958  0.12                             133   -0.12 9  147 260 
 PTB  HN ES        958 20.97                             133   -0.45 9  147 260 
 PTB  HZ I         958 26.33         5.7 0.13            130            147 260 
 SPBC HN ES   1    958 24.05                             130    0.24 7  161 220 
 OCA  HZ EP        958  1.71                             130   -0.23 9  163 353 
 OCA  HN ES        958 24.42                             130   -0.02 9  163 353 
 OCA  HZ I         958 27.21         9.0 0.23            129            163 353 
 ZAR  HZ EP        958  6.14                             123    0.30 9  205 293 
 ZAR  HN ES   2    958 31.17                             123   -0.22 4  205 293 
 ZAR  HZ I         958 50.75        22.6 0.07            121            205 293 
 NOR  HN ES   1    958 36.13                             119   -0.49 6  233 235 
 SML  HZ EP        958  9.72                             118   -0.47 8  247 336 
 SML  HN ES   1    958 38.80                             118   -0.34 6  247 336 
 SML  HZ I         958 44.21         9.9 0.09            117            247 336 
 GUY2CHZ EP   4    958 19.29                             113    2.68 0  299 235 
 SJC  HZ EP   4    958 28.15                             106   -0.90 0  412 327 
 SJC  HN ES   4    959  8.27                             106   -4.43 0  412 327 
                                                                                
