 2017  118 0350 53.4 L   6.780 -73.144143.3  RSN  7 0.4 1.3LRSN                1
 GAP=138        0.99       4.5     5.1  6.8  0.6928E+01  0.1567E+01  0.3141E+01E
 Epicentro: LOS SANTOS - SANTANDER                                             3
 ACTION:UPD 17-05-22 16:00 OP:jn   STATUS:               ID:20170118035053 L   I
 OLDACT:UP  17-01-18 14:53 OP:dani STATUS:               ID:20170118034742     3
 OLDACT:UP  17-01-18 14:53 OP:dani STATUS:               ID:20170118034742     3
 OLDACT:UP  17-01-18 14:53 OP:dani STATUS:               ID:20170118034742     3
 OLDACT:REG 17-01-18 12:43 OP:dani STATUS:               ID:20170118034742     3
 2017-01-18-0348-00M.COL___331                                                 6
 STAT SP IPHASW D HRMM SECON CODA AMPLIT PERI AZIMU VELO AIN AR TRES W  DIS CAZ7
 BAR2 EZ EP        351 12.52                             171   -0.1610 21.2 192 
 BAR2 EZ ES        351 27.52                             171   -0.2010 21.2 192 
 BAR2 EZ I         351 28.95        10.0 0.22            168           21.2 192 
 BRR  HZ EP        351 14.56                             152    0.2210 72.4 300 
 BRR  HN ES        351 31.23                             152    0.5510 72.4 300 
 BRR  HZ I         351 34.61         5.5 0.35            152           72.4 300 
 PAM  EZ EP        351 15.29                             150   -0.1510 79.0  38 
 RUS  HZ EP        351 16.54                             144   -0.1910 98.4 176 
 RUS  HN ES        351 35.10                             144    0.1510 98.4 176 
 RUS  HZ I         351 36.03         1.8 0.24            143           98.4 176 
 PTB  HZ EP        351 19.89                             132   -0.24 9  148 260 
 PTB  HN ES        351 40.10                             132   -0.89 9  148 260 
 PTB  HZ I         351 42.87         2.1 0.18            131            148 260 
 ZAR  HN ES        351 51.46                             122    0.42 9  205 293 
 CHI  HZ EP        351 30.87                             117    0.15 8  247 195 
 CHI  HN ES        352  0.44                             117    0.60 8  247 195 
 CHI  HZ I         352  7.04         0.8 0.24            117            247 195 
                                                                                
