 2014  318 0002 40.1 L   6.803 -73.120142.0  RSN 12 0.5 1.9LRSN                1
 GAP=140        0.99       3.3     4.9  6.4  0.1393E+00  0.1221E+02  0.2498E+01E
 Epicentro: LOS SANTOS - SANTANDER                                             3
 ACTION:UPD 14-04-09 23:18 OP:nd   STATUS:               ID:20140318000240 L   I
 OLDACT:REG 14-03-18 07:47 OP:mh   STATUS:               ID:20140318000012     3
 2014-03-18-0000-12M.COL___238                                                 6
 STAT SP IPHASW D HRMM SECON CODA AMPLIT PERI AZIMU VELO AIN AR TRES W  DIS CAZ7
 BAR2 SZ EP   1    0 2 59.55                             170    0.27 7 24.3 197 
 BAR2 SZ ES   1    0 3 13.84                             170   -0.41 7 24.3 197 
 BAR2 SZ I         0 3 16.31        35.9 0.20            167           24.3 197 
 BRR  HZ EP        0 3  1.49                             151    0.5310 73.6 297 
 BRR  HN ES        0 3 18.00                             151    0.7510 73.6 297 
 BRR  HZ I         0 3 22.11         9.7 0.17            149           73.6 297 
 PAM  SN ES        0 3 18.31                             151   -0.3810 75.3  38 
 RUS  HZ EP   1    0 3  3.72                             143    0.24 7  101 178 
 RUS  HN ES        0 3 21.81                             143    0.0910  101 178 
 RUS  HZ I         0 3 23.56         6.4 0.52            144            101 178 
 PTB  HZ EP        0 3  6.28                             131   -0.73 9  151 259 
 PTB  HN ES   1    0 3 27.11                             131   -0.91 7  151 259 
 PTB  HZ I         0 3 30.99         7.5 0.15            130            151 259 
 OCA  HN ES   2    0 3 30.50                             129    0.54 5  160 352 
 SPBC HZ EP        0 3  8.58                             128    0.09 9  165 220 
 SPBC HN ES   1    0 3 30.99                             128    0.33 7  165 220 
 ZAR  HZ EP   1    0 3 12.71                             121    0.16 6  207 292 
 ZAR  HE ES        0 3 37.96                             121    0.09 8  207 292 
 ZAR  HZ I         0 3 43.21        10.9 0.30            122            207 292 
 NOR  HZ EP   1    0 3 15.83                             117   -0.04 6  237 235 
 NOR  HN ES     C  0 3 43.64                             117   -0.14 8  237 235 
 NOR  HZ I         0 3 49.09         8.2 0.12            118            237 235 
 SML  HZ EP   1    0 3 16.45                             117   -0.15 6  245 335 
 SML  HN ES   1    0 3 44.23                             117   -0.85 6  245 335 
 SML  HZ I         0 3 47.53        13.4 0.08            118            245 335 
 CHI  HZ EP   2    0 3 17.34                             116   -0.35 4  250 196 
 CHI  HN ES   1    0 3 46.56                             116   -0.47 6  250 196 
 CHI  HZ I         0 3 54.78         2.5 0.22            118            250 196 
 RREF HZ EP   1    0 3 27.24                             110    0.90 5  324 230 
 RREF HN ES   4    0 4  5.01                             110    2.59 0  324 230 
                                                                                
