 2015 1218 0857 54.1 L   6.534 -73.514115.2  RSN 15 0.4 2.7LRSN                1
 GAP= 66        0.93       2.0     2.6  4.9 -0.1362E+01  0.6241E+01 -0.8704E+00E
 Epicentro: EL CARMEN - SANTANDER                                              3
 ACTION:UPD 16-02-04 15:05 OP:cam  STATUS:               ID:20151218085754 L   I
 OLDACT:DUP 15-12-18 18:51 OP:cara STATUS:               ID:20151218084751d    3
 OLDACT:REG 15-12-18 13:55 OP:cara STATUS:               ID:20151218084750     3
 2015-12-18-0847-50M.COL___331                                                 6
 STAT SP IPHASW D HRMM SECON CODA AMPLIT PERI AZIMU VELO AIN AR TRES W  DIS CAZ7
 BAR2 EZ IP     D  858 10.60                             161    0.1210 37.2  80 
 BAR2 EZ ES        858 23.46                             161    0.1710 37.2  80 
 BAR2 EZ I         858 24.16       331.0 0.50            165           37.2  80 
 BRR  HZ IP        858 11.51                             148   -0.2110 67.0 341 
 BRR  HE ES        858 25.51                             148    0.0210 67.0 341 
 BRR  HZ I         858 26.73        67.0 0.32            148           67.0 341 
 RUS  HZ EP        858 13.55                             141   -0.1810 85.5 146 
 RUS  HN ES        858 29.33                             141    0.2610 85.5 146 
 RUS  HZ I         858 31.45        34.7 0.38            143           85.5 146 
 SPBC HZ EP        858 15.27                             132   -0.4410  115 212 
 SPBC HE ES        858 32.73                             132    0.1410  115 212 
 SPBC HZ I         858 37.39       102.0 0.10            132            115 212 
 PAM  EZ EP        858 17.49                             129    0.2110  127  45 
 PAM  EN ES        858 35.20                             129   -0.1910  127  45 
 PAM  EZ I         858 36.75        83.0 0.30            132            127  45 
 ZAR  HZ EP        858 22.80                             118    0.46 9  182 306 
 ZAR  HN ES        858 44.72                             118    0.31 9  182 306 
 ZAR  HZ I         858 47.23       121.0 0.44            118            182 306 
 NOR  HZ EP        858 22.08                             117   -0.55 9  184 234 
 NOR  HE ES        858 44.38                             117   -0.53 9  184 234 
 NOR  HZ I         858 47.37        63.7 0.18            118            184 234 
 OCA  HZ EP        858 22.96                             117   -0.37 9  190   6 
 OCA  HN ES        858 45.83                             117   -0.32 9  190   6 
 OCA  HZ I         858 51.16       122.7 0.26            118            190   6 
 CHI  HZ EP        858 26.78                             114    0.66 8  212 187 
 CHI  HN ES        858 50.43                             114   -0.69 8  212 187 
 CHI  HZ I         858 57.79        16.5 0.36            115            212 187 
 HEL  HZ EP        858 27.70                             112    0.06 8  226 260 
 HEL  HN ES        858 54.12                             112    0.28 8  226 260 
 HEL  HZ I         858 57.33        27.6 0.44            113            226 260 
 GUY2CHZ EP        858 31.32                             110    0.71 8  251 235 
 GUY2CHN ES        858 59.35                             110    0.23 8  251 235 
 GUY2CHZ I         859  3.90        36.4 0.26                           251 235 
 SML  HZ EP        858 30.53                             109   -0.29 8  258 346 
 SML  HE ES        858 59.89                             109    0.39 8  258 346 
 SML  HZ I         859  6.33        48.4 0.10            110            258 346 
 CBOC HZ EP        858 34.92                             107    0.61 7  286 255 
 CBOC HN ES        859  5.07                             107   -0.64 7  286 255 
 CBOC HZ I         859 18.20        11.3 0.60            107            286 255 
 DBB  SZ IP        858 36.20                             105    0.06 7  303 280 
 DBB  SZ ES        859  8.35                             105   -0.61 7  303 280 
 DBB  SZ I         859 13.35        49.9 0.30            106            303 280 
 ANIL HZ EP   4    858 38.32                             105    1.30 0  308 223 
 ANIL HN ES        859 11.08                             105    0.56 7  308 223 
 ANIL HZ I         859 15.67        48.1 0.32            106            308 223 
                                                                                
