 2013 1118 0617 11.0 L   6.783 -73.165144.7  RSN  5 0.4 1.2LRSN                1
 GAP=135        0.85       4.2     4.4  7.6 -0.5937E+01  0.4682E+01  0.2955E+01E
 Epicentro: LOS SANTOS - SANTANDER                                             3
 ACTION:UPD 14-01-09 16:29 OP:ep   STATUS:               ID:20131118061711 L   I
 OLDACT:REG 13-11-18 07:44 OP:mh   STATUS:               ID:20131118061000     3
 2013-11-18-0610-00M.COL___279                                                 6
 STAT SP IPHASW D HRMM SECON CODA AMPLIT PERI AZIMU VELO AIN AR TRES W  DIS CAZ7
 BRR  HZ EP   1    617 31.57                             152   -0.44 7 70.3 301 
 BRR  HN ES   1    617 49.23                             152    0.85 7 70.3 301 
 PAM  SZ EP        617 33.57                             150    0.2710 80.2  40 
 PAM  SN ES        617 50.23                             150   -0.4410 80.2  40 
 PAM  SZ I         617 52.64         3.4 0.38            155           80.2  40 
 RUS  HZ EP        617 34.71                             144    0.1610 98.9 175 
 RUS  HN ES        617 52.99                             144    0.0910 98.9 175 
 RUS  HZ I         617 55.05         2.1 0.28            146           98.9 175 
 PTB  HZ EP        617 37.72                             132    0.03 9  145 259 
 PTB  HN ES        617 58.27                             132   -0.21 9  145 259 
 PTB  HZ I         618  4.32         2.4 0.28            133            145 259 
 SPBC HZ EP   1    617 39.42                             129    0.24 7  160 219 
 SPBC HN ES        618  0.81                             129   -0.33 9  160 219 
 SPBC HZ I         618  7.51         2.5 0.21            131            160 219 
                                                                                
