 2015  218 0644 37.7 L   6.707 -73.150146.6  RSN  5 0.4 1.1LRSN                1
 GAP=230        1.00       6.3     6.9  9.1  0.1393E+02 -0.2628E+01  0.1570E+01E
 Epicentro: VILLANUEVA - SANTANDER                                             3
 ACTION:UPD 15-04-30 21:27 OP:nd   STATUS:               ID:20150218064437 L   I
 OLDACT:UP  15-02-18 19:28 OP:mh   STATUS:               ID:20150218063741     3
 OLDACT:REG 15-02-18 12:43 OP:mh   STATUS:               ID:20150218063741     3
 2015-02-18-0637-41M.COL___299                                                 6
 STAT SP IPHASW D HRMM SECON CODA AMPLIT PERI AZIMU VELO AIN AR TRES W  DIS CAZ7
 BAR2 EZ EP        644 57.21                             175   -0.0910 13.2 196 
 BAR2 EZ I         645 15.16         2.4 0.20            167           13.2 196 
 BRR  HZ EP        644 59.17                             151   -0.1010 76.3 305 
 BRR  HN ES        645 16.46                             151    0.4010 76.3 305 
 BRR  HZ I         645 39.78         2.4 0.44            150           76.3 305 
 RUS  HZ EP        645  1.29                             147    0.4310 90.4 175 
 RUS  HN ES        645 18.47                             147   -0.4310 90.4 175 
 RUS  HZ I         645 20.48         1.4 0.24            165           90.4 175 
 PTB  HZ EP        645  4.52                             133   -0.06 9  146 263 
 PTB  HN ES        645 24.94                             133   -0.59 9  146 263 
 PTB  HZ I         645 27.20         2.0 0.34            144            146 263 
 SPBC HZ EP        645  5.45                             131   -0.09 9  155 221 
 SPBC HN ES   1    645 28.14                             131    0.92 7  155 221 
 SPBC HZ I         645 32.04         3.0 0.24            149            155 221 
                                                                                
