 2013  218 0609 55.6 L   6.764 -73.167147.8  RSN  8 0.3 1.4LRSN                1
 GAP=135        0.68       3.1     4.8  6.1  0.1519E+01  0.7974E+01  0.4123E+01E
 Epicentro: LOS SANTOS - SANTANDER                                             3
 ACTION:UPD 13-03-12 09:33 OP:ep   STATUS:               ID:20130218060955 L   I
 2013-02-18-0608-51M.COL___184                                                 6
 STAT SP IPHASW D HRMM SECON CODA AMPLIT PERI AZIMU VELO AIN AR TRES W  DIS CAZ7
 BAR2 SZ ES   1    610 30.51                             172   -0.29 7 19.1 185 
 BAR2 SZ I         610 32.94        13.2 0.22            172           19.1 185 
 BRR  HZ EP   1    610 17.11                             153    0.18 7 71.1 302 
 BRR  HN ES   1    610 33.92                             153    0.33 7 71.1 302 
 BRR  HZ I         610 36.65         5.1 0.14            154           71.1 302 
 PAM  SZ EP   1    610 18.19                             150   -0.08 7 81.9  39 
 PAM  SN ES   1    610 35.73                             150   -0.25 7 81.9  39 
 PAM  SZ I         610 37.72         3.8 0.58            153           81.9  39 
 RUS  HZ EP   1    610 19.25                             145    0.00 7 96.8 174 
 RUS  HN ES   1    610 38.00                             145    0.27 7 96.8 174 
 RUS  HZ I         610 39.15         2.9 0.30            147           96.8 174 
 PTB  HZ EP   1    610 21.60                             133   -0.82 7  145 260 
 OCA  HN ES   1    610 47.14                             129    0.29 7  164 354 
 OCA  HZ I         610 48.81         2.9 0.18            132            164 354 
 ZAR  HN ES   1    610 53.43                             123    0.00 6  203 293 
 CHI  HZ EP   1    610 33.48                             118    0.58 6  244 195 
 CHI  HN ES   1    611  1.93                             118   -0.09 6  244 195 
 CHI  HZ I         611  6.40         1.1 0.40            120            244 195 
                                                                                
