 2016  318 0956 52.2 L   6.871 -73.130148.2  RSN  6 0.4 1.4LRSN                1
 GAP=185        0.86       5.1     5.1  7.7  0.1110E+02  0.3666E+01 -0.1536E+02E
 Epicentro: LOS SANTOS - SANTANDER                                             3
 ACTION:UPD 16-05-13 21:25 OP:cam  STATUS:               ID:20160318095652 L   I
 OLDACT:UP  16-03-18 18:37 OP:mh   STATUS:               ID:20160318094750     3
 OLDACT:UP  16-03-18 18:32 OP:mh   STATUS:               ID:20160318094750     3
 OLDACT:UP  16-03-18 18:32 OP:mh   STATUS:               ID:20160318094750     3
 OLDACT:UP  16-03-18 18:29 OP:mh   STATUS:               ID:20160318094750     3
 OLDACT:REG 16-03-18 13:45 OP:dnl  STATUS:               ID:20160318094750     3
 2016-03-18-0947-50M.COL___309                                                 6
 STAT SP IPHASW D HRMM SECON CODA AMPLIT PERI AZIMU VELO AIN AR TRES W  DIS CAZ7
 BAR2 EZ EP        957 12.59                             167    0.2810 31.4 191 
 BAR2 EZ ES        957 27.68                             167   -0.3210 31.4 191 
 BAR2 EZ I         957 28.29         8.4 0.34            163           31.4 191 
 RUS  HZ EP        957 16.67                             142   -0.0810  108 177 
 RUS  HN ES        957 36.11                             142    0.2010  108 177 
 RUS  HZ I         957 36.30         2.0 0.44            141            108 177 
 PTB  HZ EP        957 19.47                             132   -0.20 9  151 256 
 PTB  HN ES        957 40.78                             132   -0.33 9  151 256 
 PTB  HZ I         957 47.72         2.8 0.20            130            151 256 
 OCA  HZ EP   1    957 19.70                             132   -0.30 7  153 352 
 OCA  HN ES   2    957 41.98                             132    0.30 5  153 352 
 ZAR  HZ EP   1    957 25.01                             123    0.33 6  203 290 
 ZAR  HN ES        957 50.82                             123    0.80 9  203 290 
 URE  HZ EP   4    957 36.16                             114    2.91 0  283 290 
 URE  HE ES   4    958  4.14                             114   -1.14 0  283 290 
 PTGC HE ES   4    958  8.60                             111   -3.21 0  315 159 
 MON  HN ES        958 18.26                             109   -0.62 6  350 307 
                                                                                
