 2016 1018 0129 48.0 L   6.822 -73.152147.2  RSN 10 0.4 1.6LRSN                1
 GAP=135        0.90       4.1     4.4  6.0 -0.4842E+01  0.4231E+01  0.3361E+01E
 Epicentro: LOS SANTOS - SANTANDER                                             3
 ACTION:UPD 16-11-09 19:20 OP:rebc STATUS:               ID:20161018012948 L   I
 OLDACT:UP  16-10-18 14:53 OP:and  STATUS:               ID:20161018012742d    3
 OLDACT:UP  16-10-18 14:50 OP:and  STATUS:               ID:20161018012742d    3
 OLDACT:DUP 16-10-18 14:47 OP:and  STATUS:               ID:20161018012742d    3
 2016-10-18-0128-00M.COL___344                                                 6
 STAT SP IPHASW D HRMM SECON CODA AMPLIT PERI AZIMU VELO AIN AR TRES W  DIS CAZ7
 BAR2 EZ IP     D  130  7.69                             170   -0.1910 25.6 188 
 BAR2 EZ ES        130 22.79                             170   -0.5810 25.6 188 
 BRR  HZ EP        130  9.57                             153    0.3310 69.4 297 
 BRR  HN ES        130 26.50                             153    0.7210 69.4 297 
 BRR  HZ I         130 29.50         8.7 0.16            151           69.4 297 
 PAM  EZ IP     C  130 10.55                             151    0.2310 76.0  41 
 PAM  EN ES        130 27.47                             151   -0.2310 76.0  41 
 PAM  EZ I         130 29.51         7.6 0.46            158           76.0  41 
 RUS  HZ EP        130 12.15                             143    0.0410  103 176 
 RUS  HE ES        130 31.27                             143    0.3910  103 176 
 RUS  HZ I         130 31.81         2.6 0.20            144            103 176 
 PTB  HZ EP        130 14.57                             132   -0.53 9  148 258 
 PTB  HE ES        130 35.86                             132   -0.35 9  148 258 
 PTB  HZ I         130 42.54         5.5 0.13            131            148 258 
 SPBC HZ EP        130 16.83                             129    0.05 9  165 218 
 SPBC HN ES        130 39.05                             129   -0.16 9  165 218 
 SPBC HZ I         130 45.83         7.2 0.10            129            165 218 
 NOR  HZ EP   2    130 24.38                             119    0.44 4  236 234 
 NOR  HN ES   2    130 51.79                             119   -0.16 4  236 234 
 NOR  HZ I         130 58.01         3.4 0.17            119            236 234 
 CHI  HN ES   2    130 56.19                             117    0.49 4  251 195 
 CHI  HZ I         131  0.85         1.9 0.28            118            251 195 
 GUY2CHZ EP   3    130 33.55                             112    1.75 2  302 234 
 GUY2CHE ES   4    131  8.52                             112    2.57 0  302 234 
 GUY2CHZ I         131 16.02         2.4 0.44                           302 234 
 SJC  HZ EP   3    130 42.05                             106   -1.31 1  407 327 
 SJC  HE ES   4    131 22.42                             106   -4.09 0  407 327 
 SJC  HZ I         131 26.32         0.7 0.16            107            407 327 
                                                                                
