 2017  318 0038  1.3 L   6.801 -73.140147.7  RSN  7 0.4 1.3LRSN                1
 GAP=137        0.86       3.8     4.3  5.9 -0.4053E+00  0.6300E+01  0.2125E+01E
 Epicentro: LOS SANTOS - SANTANDER                                             3
 ACTION:UPD 17-05-25 18:41 OP:jn   STATUS:               ID:20170318003801 L   I
 OLDACT:REG 17-03-18 13:07 OP:cog  STATUS:               ID:20170318002744     3
 2017-03-18-0028-00M.COL___400                                                 6
 STAT SP IPHASW D HRMM SECON CODA AMPLIT PERI AZIMU VELO AIN AR TRES W  DIS CAZ7
 BAR2 EZ EP        038 21.01                             170   -0.1410 23.6 191 
 BAR2 EZ ES        038 36.78                             170    0.1310 23.6 191 
 BAR2 EZ I         038 38.79         7.4 0.44            172           23.6 191 
 BRR  HZ EP        038 23.06                             153    0.3910 71.7 298 
 BRR  HN ES        038 39.87                             153    0.5210 71.7 298 
 PAM  EZ EP        038 24.00                             152    0.3210 76.9  39 
 PAM  EN ES        038 40.60                             152   -0.5510 76.9  39 
 PAM  EZ I         038 43.92         4.4 0.64            153           76.9  39 
 RUS  HZ EP        038 25.20                             144   -0.0310  101 176 
 RUS  HE ES        038 43.71                             144   -0.2010  101 176 
 RUS  HZ I         038 44.61         1.9 0.50            146            101 176 
 PTB  HZ EP        038 28.17                             132   -0.29 9  148 259 
 PTB  HN ES   3    038 48.68                             132   -0.98 2  148 259 
 PTB  HZ I         038 51.66         3.0 0.24            134            148 259 
 SPBC HZ EP        038 29.98                             129    0.00 9  164 219 
 SPBC HN ES        038 52.63                             129    0.28 9  164 219 
 ZAR  HN ES        038 58.84                             123   -0.51 9  205 292 
                                                                                
