 2017  818 0754 42.6 L   6.872 -73.295120.8  RSN  4 0.1 1.1LRSN                1
 GAP=124        0.31       2.4     2.0  3.1  0.2286E+01  0.6974E+00 -0.2469E+01E
 Epicentro: BETULIA - SANTANDER                                                3
 ACTION:UPD 17-09-04 20:21 OP:rebc STATUS:               ID:20170818075442 L   I
 OLDACT:DUP 17-08-18 14:54 OP:mg   STATUS:               ID:20170818074735d    3
 2017-08-18-0748-00M.COL___407                                                 6
 STAT SP IPHASW D HRMM SECON CODA AMPLIT PERI AZIMU VELO AIN AR TRES W  DIS CAZ7
 BAR2 EZ IP     D  754 59.46                             164   -0.0310 33.4 158 
 BAR2 EZ ES        755 12.66                             164   -0.0410 33.4 158 
 PAM  EZ EP        755  2.67                             143    0.0410 83.7  52 
 PAM  HN ES   4    755 20.74                             143    2.46 0 83.7  52 
 PAM  EZ I         755 21.85         2.0 0.21            144           83.7  52 
 RUS  HZ EP        755  4.86                             135    0.0510  111 168 
 RUS  HN ES   1    755 22.18                             135    0.01 7  111 168 
 RUS  HZ I         755 23.72         1.9 0.31            140            111 168 
 ZAR  HZ EP        755 11.41                             119   -0.12 9  186 292 
 ZAR  HN ES        755 34.21                             119    0.08 9  186 292 
 ZAR  HZ I         755 36.57         2.1 0.14            122            186 292 
                                                                                
