 2017  818 0554 22.2 L   6.814 -73.081142.0  RSN  5 0.5 1.2LRSN                1
 GAP=144        0.92       4.9     6.9  7.4 -0.1036E+00 -0.1380E+01  0.1367E+01E
 Epicentro: LOS SANTOS - SANTANDER                                             3
 ACTION:UPD 17-09-04 20:21 OP:rebc STATUS:               ID:20170818055422 L   I
 OLDACT:DUP 17-08-18 17:28 OP:lv   STATUS:               ID:20170818054744d    3
 2017-08-18-0548-00M.COL___407                                                 6
 STAT SP IPHASW D HRMM SECON CODA AMPLIT PERI AZIMU VELO AIN AR TRES W  DIS CAZ7
 BAR2 EZ EP        554 41.08                             169   -0.3910 27.0 205 
 BAR2 EZ ES        554 56.28                             169   -0.2210 27.0 205 
 BAR2 EZ I         554 57.64         3.0 0.23            168           27.0 205 
 PAM  EZ EP        554 44.13                             152    0.4310 71.8  36 
 PAM  EN ES        555  0.37                             152   -0.0910 71.8  36 
 PAM  EZ I         555  3.83         2.7 0.36            153           71.8  36 
 BRR  HZ EP        554 42.89                             150   -0.4110 76.9 295 
 BRR  HE ES        555  0.13                             150    0.3910 76.9 295 
 BRR  HZ I         555  3.09         5.5 0.28            146           76.9 295 
 RUS  HZ EP        554 45.58                             143   -0.1210  102 180 
 RUS  HE ES        555  4.36                             143    0.3510  102 180 
 RUS  HZ I         555  4.85         1.3 0.28            146            102 180 
 ZAR  HZ EP   3    554 57.41                             121    2.36 2  210 291 
 ZAR  HN ES   3    555 19.47                             121   -1.20 2  210 291 
 ZAR  HZ I         555 27.68         3.7 0.14            120            210 291 
                                                                                
