 2010 1118 0313 40.2 L   6.795 -73.085139.1  RSN  8 0.4 2.0LRSN                1
 GAP=166        1.00       4.3    10.1  8.3 -0.9472E+01  0.6838E+01  0.1188E+01E
 Epicentro: LOS SANTOS - SANTANDER                                             3
 ACTION:UP  10-12-17 16:53 OP:REBC STATUS:               ID:20101118031340 L   I
 2010-11-18-0312-55S.COL___128                                                 6
 STAT SP IPHASW D HRMM SECON CODA AMPLIT PERI AZIMU VELO SNR AR TRES W  DIS CAZ7
 BAR2 SZ EP   1    313 59.30                             169     0.2 7   25 206 
 BAR2 SZ ES   1    314 13.49                             169    -0.3 7   25 206 
 BAR2 SZ I         314 15.52        28.7 0.34                            25 206 
 BRR  HZ IP     D  314  1.02                             149     0.010   78 297 
 BRR  HN ES   1    314 17.81                             149     0.5 7   78 297 
 BRR  HZ I         314 22.11        22.7 0.11                            78 297 
 RUS  HZ EP   1    314  3.33                             143     0.1 7  100 180 
 RUS  HN ES   1    314 20.87                             143    -0.4 7  100 180 
 RUS  HZ I         314 23.36        11.9 0.20                           100 180 
 GRA  SZ EP   1    314  4.99                             136     0.2 7  124  14 
 GRA  SZ ES   1    314 24.55                             136     0.6 7  124  14 
 GRA  SZ I         314 26.80         8.6 0.33                           124  14 
 OCA  SZ EP   1    314  7.55                             128    -0.6 7  162 351 
 OCA  SZ ES   1    314 29.23                             128    -0.7 7  162 351 
 OCA  SZ I         314 32.62        17.6 0.23                           162 351 
 NOR  SZ EP   2    314 15.59                             116    -0.6 4  240 236 
 ROSC BZ EP   1    314 19.00                             115     0.7 6  256 212 
 ROSC BZ I         314 56.05         5.5 0.27                           256 212 
 PRA  HN ES   1    315 15.63                             105    -0.1 4  395 210 
                                                                                
