 2010 1018 0029 58.3 L   6.767 -73.080142.0  RSN  4 0.2 1.8LRSN                1
 GAP=242        0.47       5.3    10.1  6.2  0.3771E+02  0.1062E+01  0.4132E+01E
 Epicentro: LOS SANTOS - SANTANDER                                             3
 ACTION:UP  11-02-18 11:10 OP:tino STATUS:               ID:20101018002958 L   I
 2010-10-18-0020-00M.COL___113                                                 6
 STAT SP IPHASW D HRMM SECON CODA AMPLIT PERI AZIMU VELO SNR AR TRES W  DIS CAZ7
 BRR  HZ EP   1    030 19.29                             149    -0.2 7   79 298 
 BRR  HN ES   1    030 36.13                             149     0.1 7   79 298 
 BRR  HZ I         030 40.74        13.8 0.17                            79 298 
 RUS  HZ EP   1    030 21.37                             144     0.0 7   97 180 
 RUS  HN ES   1    030 39.51                             144     0.1 7   97 180 
 RUS  HZ I         030 40.93         8.0 0.26                            97 180 
 CHI  HZ EP   2    030 35.69                             117     0.1 4  247 197 
 CHI  HN ES   2    031  4.21                             117    -0.5 4  247 197 
 CHI  HZ I         031 12.12         4.0 0.77                           247 197 
 HEL  HZ EP   2    030 39.40                             114     0.4 4  278 257 
 HEL  HZ I         031 16.98         5.1 0.41                           278 257 
                                                                                
