 2011 1218 0957 28.0 L   6.313 -73.521116.7  RSN  5 0.2 1.5LRSN                1
 GAP=159        0.38       3.5     5.1  7.3 -0.8336E+01  0.2130E+02 -0.3942E+00E
 Epicentro: CONTRATACION - SANTANDER                                           3
 ACTION:UPD 12-07-13 16:17 OP:ep   STATUS:               ID:20111218095728 L   I
 2011-12-18-0950-00M.COL___186                                                 6
 STAT SP IPHASW D HRMM SECON CODA AMPLIT PERI AZIMU VELO AIN AR TRES W  DIS CAZ7
 BAR2 SZ EP   1    957 45.17                             156    0.12 7 48.5  50 
 BAR2 SZ ES   2    957 58.50                             156    0.11 5 48.5  50 
 BAR2 SZ I         957 59.81        17.9 0.43                          48.5  50 
 RUS  HZ EP   1    957 46.46                             148   -0.03 7 67.1 134 
 RUS  HZ I         957 47.09         3.6 0.28                          67.1 134 
 RUS  HN ES   2    958  0.82                             148   -0.12 5 67.1 134 
 PAM  SE ES   2    958 12.53                             125   -0.19 5  145  39 
 CHI  HZ EP   2    957 57.88                             118    0.46 4  188 187 
 CHI  HN ES   2    958 20.18                             118   -0.22 4  188 187 
 CHI  HZ I         958 24.43         2.4 0.53                           188 187 
 GUY  SZ EP   2    958  2.78                             111   -0.49 4  240 240 
 GUY  SN ES   2    958 30.99                             111    0.18 4  240 240 
 GUY  SZ I         958 35.37         4.3 0.33                           240 240 
                                                                                
