 2010 1018 0946 13.4 L   6.939 -72.968140.0  RSN  4 0.3 1.5LRSN                1
 GAP=263        0.68      10.6    16.8 10.0  0.1414E+03 -0.6707E+02 -0.4490E+02E
 Epicentro: PIEDECUESTA - SANTANDER                                            3
 ACTION:UP  11-02-18 11:10 OP:tino STATUS:               ID:20101018094613 L   I
 2010-10-18-0940-00M.COL___113                                                 6
 STAT SP IPHASW D HRMM SECON CODA AMPLIT PERI AZIMU VELO SNR AR TRES W  DIS CAZ7
 BAR2 SZ EP   1    946 32.94                             162     0.0 7   45 212 
 BAR2 SZ ES   2    946 48.41                             162     0.1 5   45 212 
 BAR2 SZ I         946 50.17         5.2 0.16                            45 212 
 BRR  HZ IP        946 34.51                             147    -0.210   84 283 
 BRR  HE ES   1    946 51.59                             147     0.2 7   84 283 
 BRR  HZ I         946 55.98         7.5 0.05                            84 283 
 RUS  HZ EP   2    946 38.67                             139     0.9 5  116 186 
 RUS  HE ES   1    946 56.60                             139    -0.2 7  116 186 
 HEL  HZ EP   2    946 55.82                             112    -0.1 4  295 254 
 HEL  HZ I         947 32.42         1.8 0.16                           295 254 
                                                                                
