 2017  318 0226  6.3 L   6.871 -73.347122.4  RSN  7 0.5 1.6LRSN                1
 GAP=111        1.12       4.4     4.6  7.8  0.1396E+01  0.1164E+02  0.2202E+00E
 Epicentro: SAN VICENTE DE CHUCURI - SANTANDER                                 3
 ACTION:UPD 17-05-25 18:41 OP:jn   STATUS:               ID:20170318022606 L   I
 OLDACT:REG 17-03-18 13:14 OP:cog  STATUS:               ID:20170318021740     3
 2017-03-18-0218-00M.COL___400                                                 6
 STAT SP IPHASW D HRMM SECON CODA AMPLIT PERI AZIMU VELO AIN AR TRES W  DIS CAZ7
 BAR2 EZ EP        226 23.68                             163    0.1510 35.8 150 
 BAR2 EZ ES        226 36.57                             163   -0.3710 35.8 150 
 BAR2 EZ I         226 38.01        24.2 0.40            165           35.8 150 
 BRR  HZ EP        226 24.06                             157    0.3710 48.1 303 
 BRR  HN ES        226 37.96                             157    0.7310 48.1 303 
 BRR  HZ I         226 38.84        14.7 0.32            157           48.1 303 
 PAM  EZ EP        226 27.21                             142    0.3210 88.3  54 
 PAM  EE ES        226 42.47                             142   -0.4610 88.3  54 
 PAM  EZ I         226 45.87         7.2 0.22            145           88.3  54 
 RUS  HZ EP        226 28.68                             135   -0.1410  112 165 
 RUS  HN ES        226 46.09                             135   -0.2710  112 165 
 RUS  HZ I         226 47.16         4.5 0.24            138            112 165 
 PTB  HZ EP        226 29.08                             130   -0.5310  128 253 
 PTB  HN ES   3    226 46.20                             130   -1.56 2  128 253 
 PTB  HZ I         226 52.67         6.4 0.42            132            128 253 
 SPBC HN ES        226 53.42                             124    0.49 9  157 211 
 ZAR  HZ EP        226 35.20                             120    0.36 9  181 292 
 ZAR  HN ES        226 56.46                             120   -0.61 9  181 292 
                                                                                
