 2017 1018 0629 46.6 L   6.504 -73.726 96.9  RSN  8 0.6 1.6LRSN                1
 GAP= 70        1.28       5.0     4.2  8.2  0.2775E+01  0.2949E+01  0.8887E+01E
 Epicentro: SANTA HELENA DEL OPON - SANTANDER                                  3
 ACTION:UPD 17-11-07 19:33 OP:rebc STATUS:               ID:20171018062946 L   I
 OLDACT:UP  17-10-18 15:06 OP:dani STATUS:               ID:20171018062743     3
 OLDACT:UP  17-10-18 15:06 OP:dani STATUS:               ID:20171018062743     3
 OLDACT:REG 17-10-18 13:25 OP:dani STATUS:               ID:20171018062743     3
 2017-10-18-0628-00M.COL___420                                                 6
 STAT SP IPHASW D HRMM SECON CODA AMPLIT PERI AZIMU VELO AIN AR TRES W  DIS CAZ7
 BAR2 EZ EP     D  630  2.29                             146   -0.0210 60.9  81 
 BAR2 EZ ES        630 15.36                             146    0.7910 60.9  81 
 BAR2 EZ I         630 16.42        12.9 0.16            147           60.9  81 
 BRR  HZ EP        630  2.23                             143   -0.1610 66.7   1 
 BRR  HE ES        630 15.28                             143    0.5610 66.7   1 
 BRR  HZ I         630 16.00        12.4 0.12            147           66.7   1 
 PTB  HZ EP        630  3.00                             137   -0.5510 80.9 273 
 PTB  HN ES        630 16.33                             137   -0.4410 80.9 273 
 PTB  HZ I         630 17.65         6.4 0.10            137           80.9 273 
 RUS  HZ EP        630  5.49                             132   -0.2210 98.1 134 
 RUS  HN ES        630 20.11                             132   -0.5210 98.1 134 
 RUS  HZ I         630 21.73         4.9 0.14            131           98.1 134 
 PAM  EZ EP        630 10.11                             120   -0.44 9  146  51 
 PAM  EN ES        630 28.89                             120   -0.35 9  146  51 
 PAM  EZ I         630 30.04        12.8 0.18            121            146  51 
 ZAR  HZ EP        630 12.43                             116    0.33 9  166 311 
 ZAR  HE ES   3    630 33.77                             116    1.77 2  166 311 
 YPLC HZ EP        630 15.45                             112    0.25 9  193 129 
 YPLC HE ES   3    630 38.69                             112    1.18 2  193 129 
 YPLC HZ I         630 40.82         3.3 0.22            112            193 129 
 PRA  HZ EP        630 33.35                             102    1.46 7  334 203 
 PRA  HE ES   4    631 10.48                             102    3.26 0  334 203 
 PRA  HZ I         631 16.51         2.0 0.22            102            334 203 
                                                                                
