 2017 1018 0753  5.9 L   6.762 -73.136152.5  RSN  4 0.4 1.0LRSN                1
 GAP=236        0.94       7.9     7.7  8.4  0.2425E+02  0.1121E+02 -0.7128E+01E
 Epicentro: LOS SANTOS - SANTANDER                                             3
 ACTION:UPD 17-11-07 19:33 OP:rebc STATUS:               ID:20171018075305 L   I
 OLDACT:REG 17-10-18 13:30 OP:dani STATUS:               ID:20171018074743     3
 2017-10-18-0748-00M.COL___407                                                 6
 STAT SP IPHASW D HRMM SECON CODA AMPLIT PERI AZIMU VELO AIN AR TRES W  DIS CAZ7
 BAR2 EZ EP        753 25.73                             172   -0.5810 19.5 195 
 BAR2 EZ ES        753 41.99                             172   -0.2210 19.5 195 
 BAR2 EZ I         753 43.97         3.4 0.26            170           19.5 195 
 BRR  HZ EP        753 28.19                             153    0.2010 74.2 301 
 BRR  HE ES        753 45.50                             153    0.3210 74.2 301 
 BRR  HZ I         753 46.46         2.3 0.35            151           74.2 301 
 RUS  HE ES        753 49.24                             146    0.3510 96.3 177 
 PTB  HZ EP        753 33.81                             133    0.32 9  148 261 
 PTB  HN ES        753 54.58                             133   -0.40 9  148 261 
 PTB  HZ I         753 58.67         0.7 0.30            133            148 261 
                                                                                
