 2017 1018 0407 33.8 L   6.826 -73.147146.9  RSN 26 0.5 3.0LRSN                1
 GAP= 74        1.02       2.8     2.7  4.3  0.1799E+00  0.2077E+01  0.2251E+01E
 Epicentro: LOS SANTOS - SANTANDER                                             3
 ACTION:UPD 17-11-07 19:33 OP:rebc STATUS:               ID:20171018040733 L   I
 OLDACT:UP  17-10-18 14:27 OP:dani STATUS:               ID:20171018035740     3
 OLDACT:UP  17-10-18 14:26 OP:dani STATUS:               ID:20171018035740     3
 OLDACT:REG 17-10-18 13:16 OP:dani STATUS:               ID:20171018035740     3
 2017-10-18-0358-00M.COL___425                                                 6
 STAT SP IPHASW D HRMM SECON CODA AMPLIT PERI AZIMU VELO AIN AR TRES W  DIS CAZ7
 BAR2 EZ IP     C  4 7 53.54                             169   -0.1310 26.1 189 
 BAR2 HN ES        4 8  8.83                             169   -0.3110 26.1 189 
 BAR2 EZ I         4 8  9.98       276.1 0.18            166           26.1 189 
 BRR  HZ EP        4 7 55.50                             153    0.4610 69.7 297 
 BRR  HE ES        4 8 12.33                             153    0.7610 69.7 297 
 BRR  HZ I         4 8 15.62       144.4 0.36            153           69.7 297 
 PAM  EZ EP        4 7 56.42                             152    0.3610 75.3  41 
 PAM  EN ES        4 8 13.49                             152    0.1010 75.3  41 
 PAM  EZ I         4 8 14.11        84.7 0.20            157           75.3  41 
 RUS  HZ EP     C  4 7 57.54                             143   -0.3710  103 176 
 RUS  HN ES        4 8 16.06                             143   -0.6310  103 176 
 RUS  HZ I         4 8 17.58        95.2 0.22            142            103 176 
 PTB  HZ EP        4 8  0.41                             132   -0.53 9  148 258 
 PTB  HN ES        4 8 21.33                             132   -0.75 9  148 258 
 PTB  HZ I         4 8 22.80        79.2 0.30            131            148 258 
 TAM  HZ EP        4 8  1.94                             131    0.24 9  156 106 
 TAM  HE ES        4 8 23.35                             131   -0.07 9  156 106 
 TAM  HZ I         4 8 24.92        62.1 0.56            133            156 106 
 YPLC HZ IP     C  4 8  4.03                             127    0.06 9  179 152 
 YPLC HN ES        4 8 28.17                             127    0.70 9  179 152 
 YPLC HZ I         4 8 30.70        77.5 0.24            127            179 152 
 ZAR  HZ EP        4 8  6.41                             123    0.17 9  203 291 
 ZAR  HE ES        4 8 31.76                             123    0.25 9  203 291 
 ZAR  HZ I         4 8 38.10       120.4 0.18            123            203 291 
 TABC EZ EP   3    4 8 11.20                             119    1.29 2  232 210 
 TABC EZ ES   4    4 8 41.03                             119    2.99 0  232 210 
 TABC EZ I         4 8 45.24       115.4 0.62            119            232 210 
 NOR  HZ EP        4 8  9.73                             119   -0.07 8  236 234 
 NOR  HN ES        4 8 37.31                             119   -0.54 8  236 234 
 NOR  HZ I         4 8 42.61        85.2 0.24            118            236 234 
 CHI  HZ EP        4 8 11.82                             117   -0.08 8  251 195 
 CHI  HN ES        4 8 41.51                             117   -0.07 8  251 195 
 CHI  HZ I         4 8 48.22        58.2 0.50            117            251 195 
 ROSC BZ EP   9    4 8 13.47                             117    1.19 0  255 211 
 ROSC BN ES        4 8 44.32                             117    0.87 8  255 211 
 ROSC BZ I         4 8 50.20        95.5 0.35            116            255 211 
 URE  HZ EP        4 8 14.22                             114   -0.61 7  283 291 
 URE  HN ES   4    4 8 44.43                             114   -2.38 0  283 291 
 URE  HZ I         4 8 46.07        58.5 0.38            114            283 291 
 GUY2CHZ EP        4 8 18.13                             112    0.46 7  303 234 
 GUY2CHE ES   3    4 8 53.47                             112    1.61 2  303 234 
 GUY2CHZ I         4 9  0.13        42.8 0.56                           303 234 
 VIL  EZ EP        4 8 17.07                             112   -0.55 7  306 191 
 VIL  EE ES        4 8 51.89                             112    0.12 7  306 191 
 VIL  EZ I         4 8 55.52        77.4 0.34            112            306 191 
 ELA  HZ EP   9    4 8 22.54                             110    1.60 0  331 229 
 ELA  HN ES        4 9  0.12                             110    0.85 7  331 229 
 ELA  HZ I         4 9  5.72        42.2 0.32            110            331 229 
 DBB  EZ EP        4 8 22.01                             110    0.69 7  339 274 
 DBB  EN ES   3    4 8 57.03                             110   -1.33 2  339 274 
 DBB  EZ I         4 8 59.80        24.5 0.16            110            339 274 
 SDV  BZ EP        4 8 23.16                             109   -0.57 6  359  51 
 ANIL HZ EP   9    4 8 25.80                             109    1.89 0  359 224 
 ANIL HN ES        4 9  4.88                             108    0.03 6  359 224 
 PRA  HZ EP        4 8 27.12                             107   -0.56 6  394 209 
 PRA  HN ES        4 9 10.43                             107    0.75 6  394 209 
 PRA  HZ I         4 9 14.92        58.2 0.52            107            394 209 
 ORTC HZ EP        4 8 28.26                             106    0.20 6  398 216 
 ORTC HN ES        4 9 11.54                             106    1.19 6  398 216 
 ORTC HZ I         4 9 19.10        37.2 0.34            107            398 216 
 SJC  HZ EP   3    4 8 27.35                             106   -1.80 1  407 327 
 SJC  HN ES   4    4 9  8.97                             106   -3.33 0  407 327 
 PAL  HZ EP        4 8 29.37                             106    0.17 6  407 239 
 PAL  HN ES   3    4 9 11.21                             106   -1.16 1  407 239 
 PAL  HZ I         4 9 16.52        13.0 0.18            106            407 239 
 SJC  HZ I         4 9 13.26        17.9 0.52            107            407 327 
 GUA  EZ EP   3    4 8 36.27                             103   -1.09 1  477 173 
 GUA  EN ES        4 9 26.82                             103   -0.09 5  477 173 
 GUA  EZ I         4 9 32.44        12.0 0.32            104            477 173 
 MACC HZ EP   4    4 8 40.76                             102   -2.15 0  523 189 
 MACC HN ES   4    4 9 33.13                             102   -3.66 0  523 189 
 MACC HZ I         4 9 39.22        10.8 0.50            102            523 189 
 POP2 HZ EP        4 8 53.80                              99   -0.33 3  615 220 
                                                                                
