 2013  718 0827 49.4 L   6.767 -73.164142.6  RSN  6 0.4 1.5LRSN                1
 GAP=180        0.83       4.9     6.1  7.7  0.2297E+01  0.6217E+01 -0.3877E+01E
 Epicentro: LOS SANTOS - SANTANDER                                             3
 ACTION:UPD 13-08-12 10:38 OP:ep   STATUS:               ID:20130718081959 L   I
 OLDACT:UP  13-07-18 12:07 OP:mh   STATUS:               ID:20130718081959 L   3
 OLDACT:UPD 13-07-18 10:35 OP:stll STATUS:               ID:20130718081959 L   3
 2013-07-18-0819-59M.COL___267                                                 6
 STAT SP IPHASW D HRMM SECON CODA AMPLIT PERI AZIMU VELO AIN AR TRES W  DIS CAZ7
 BAR2 SZ EP   1    828  8.68                             172    0.05 7 19.4 186 
 BAR2 SZ ES   1    828 23.73                             172    0.15 7 19.4 186 
 BAR2 SZ I         828 25.11         6.0 0.18            173           19.4 186 
 GIR2 SZ EP   1    828  8.68                             166   -0.16 7 34.7 355 
 GIR2 SZ I         828 25.59         8.8 0.10            153           34.7 355 
 BRR  HZ IP     D  828 10.48                             152    0.2210 71.3 302 
 BRR  HN ES   1    828 26.80                             152    0.30 7 71.3 302 
 BRR  HN I         828 30.73        15.3 0.18            147           71.3 302 
 RUS  HZ EP   1    828 12.73                             144    0.09 7 97.1 175 
 RUS  HN ES        828 30.28                             144   -0.4510 97.1 175 
 RUS  HN I         828 32.36         3.3 0.20            147           97.1 175 
 PTB  HZ EP   1    828 15.31                             132   -0.60 7  145 260 
 PTB  HN ES   1    828 35.90                             132   -0.66 7  145 260 
 PTB  HZ I         828 39.20         4.2 0.28            132            145 260 
 SPBC HZ EP   1    828 17.64                             129    0.33 7  159 219 
 SPBC HN ES        828 39.58                             129    0.54 9  159 219 
                                                                                
