 2016  218 0849  6.5 L   6.797 -73.151147.3  RSN 12 0.3 1.9LRSN                1
 GAP=101        0.87       3.0     2.6  4.7 -0.2598E+00  0.2049E+01  0.2088E+01E
 Epicentro: LOS SANTOS - SANTANDER                                             3
 ACTION:UPD 16-03-04 21:27 OP:rebc STATUS:               ID:20160218084906 L   I
 OLDACT:REG 16-02-18 12:47 OP:drio STATUS:               ID:20160218084738     3
 2016-02-18-0847-38M.COL___324                                                 6
 STAT SP IPHASW D HRMM SECON CODA AMPLIT PERI AZIMU VELO AIN AR TRES W  DIS CAZ7
 BAR2 EZ EP        849 26.17                             171   -0.1410 22.9 189 
 BAR2 EZ ES        849 41.11                             171   -0.6510 22.9 189 
 BAR2 EZ I         849 43.95        14.8 0.28            170           22.9 189 
 BRR  HZ EP        849 28.10                             153    0.3010 70.9 299 
 BRR  HN ES        849 45.17                             153    0.7610 70.9 299 
 BRR  HZ I         849 48.80        10.5 0.32            152           70.9 299 
 PAM  EZ EP        849 28.91                             151   -0.0010 78.0  40 
 PAM  EN ES        849 46.24                             151   -0.1610 78.0  40 
 PAM  EZ I         849 48.36        12.4 0.62            155           78.0  40 
 RUS  HZ EP        849 30.34                             144   -0.0410  100 176 
 RUS  HE ES        849 49.17                             144    0.1610  100 176 
 RUS  HZ I         849 51.63         7.9 0.30            146            100 176 
 PTB  HZ EP        849 32.88                             132   -0.66 9  147 259 
 PTB  HN ES        849 54.30                             132   -0.33 9  147 259 
 PTB  HZ I         849 58.70        10.9 0.16            133            147 259 
 TAM  HZ EP        849 34.34                             131    0.00 9  156 105 
 TAM  HE ES        849 56.34                             131    0.29 9  156 105 
 SPBC HZ EP        849 35.25                             129    0.19 9  163 219 
 SPBC HN ES        849 57.35                             129    0.02 9  163 219 
 SPBC HZ I         849 59.86        16.2 0.36            131            163 219 
 ZAR  HZ EP        849 38.61                             123   -0.40 9  204 292 
 ZAR  HE ES        850  4.53                             123    0.17 9  204 292 
 ZAR  HZ I         850 12.11         4.0 0.10            124            204 292 
 NOR  HZ EP        849 42.71                             119    0.46 8  234 234 
 NOR  HE ES        850 10.19                             119    0.06 8  234 234 
 NOR  HZ I         850 15.60         8.1 0.42            120            234 234 
 CHI  HZ EP        849 44.16                             117   -0.07 8  248 195 
 CHI  HN ES        850 13.77                             117    0.11 8  248 195 
 CHI  HZ I         850 19.16         2.7 0.28            119            248 195 
 GUY2CHZ EP   4    849 51.52                             113    1.41 0  301 235 
 GUY2CHN ES   4    850 25.92                             113    1.80 0  301 235 
 GUY2CHZ I         850 32.75         4.8 0.26                           301 235 
 PTGC HZ EP   9    849 49.10                             112   -1.31 0  309 159 
 PTGC HE ES        850 22.93                                   -0.42 7  309 159 
 SJC  HZ EP   4    850  0.33                             106   -1.78 0  409 327 
 SJC  HN ES   4    850 41.55                             106   -3.94 0  409 327 
                                                                                
