 2013  318 0216 43.0 L   6.794 -73.116143.5  RSN  8 0.5 2.1LRSN                1
 GAP=141        0.93       3.9     5.4  6.7  0.2664E+01  0.1028E+02 -0.9727E+00E
 Epicentro: LOS SANTOS - SANTANDER                                             3
 ACTION:UPD 13-04-09 14:03 OP:ep   STATUS:               ID:20130318021643 L   I
 2013-03-18-0210-00M.COL___243                                                 6
 STAT SP IPHASW D HRMM SECON CODA AMPLIT PERI AZIMU VELO AIN AR TRES W  DIS CAZ7
 BAR2 SZ EP        217  2.29                             170   -0.0610 23.4 198 
 BAR2 SZ ES   1    217 17.13                             170   -0.32 7 23.4 198 
 BAR2 SZ I         217 18.04        17.4 0.44            168           23.4 198 
 BRR  HZ EP     C  217  4.22                             151    0.1410 74.4 298 
 BRR  HN ES        217 20.86                             151    0.3310 74.4 298 
 BRR  HN I         217 25.27        32.9 0.18            147           74.4 298 
 PAM  SZ EP        217  5.30                             151    0.4210 75.9  37 
 PAM  SE ES        217 21.99                             151    0.0410 75.9  37 
 PAM  SE I         217 23.40        10.2 0.68            154           75.9  37 
 RUS  HZ EP        217  6.31                             144   -0.1410 99.7 178 
 RUS  HN ES        217 24.80                             144    0.0410 99.7 178 
 RUS  HN I         217 26.31        12.0 0.24            146           99.7 178 
 PTB  HZ EP        217  9.44                             131   -0.61 9  151 259 
 PTB  HN ES   4    217 29.34                             131   -1.82 0  151 259 
 PTB  HN I         217 35.20        17.8 0.36            130            151 259 
 OCA  HN ES   1    217 32.31                             129   -0.95 7  161 352 
 OCA  HN I         217 33.11        26.9 0.18            130            161 352 
 ZAR  HZ EP   1    217 15.98                             121    0.35 6  207 292 
 ZAR  HE ES   1    217 41.53                             121    0.44 6  207 292 
 ZAR  HN I         217 47.85        12.4 0.34            121            207 292 
 SML  HZ EP   1    217 20.40                             117    0.69 6  246 335 
 SML  HN ES   2    217 47.23                             117   -1.12 4  246 335 
 SML  HN I         217 55.20        12.9 0.10            117            246 335 
                                                                                
