 2012  418 0555  7.0 L   6.782 -73.102148.9  RSN 16 0.4 3.0LRSN                1
 GAP=143        0.82       3.0     4.4  5.4 -0.3117E+01  0.8719E+01  0.2456E+01E
 Epicentro: LOS SANTOS - SANTANDER                                             3
 ACTION:UP  12-07-05 11:54 OP:tino STATUS:               ID:20120418055507 L   I
 2012-04-18-0550-00M.COL___187                                                 6
 STAT SP IPHASW D HRMM SECON CODA AMPLIT PERI AZIMU VELO AIN AR TRES W  DIS CAZ7
 BAR2 SZ EP   1    555 26.98                             171     0.013   23 203 
 BAR2 SZ ES   1    555 41.94                             171    -0.613   23 203 
 BAR2 SZ I         555 44.12       243.6 0.43                            23 203 
 PAM  SZ EP   1    555 29.78                             152     0.313   76  36 
 PAM  SN ES   1    555 46.90                             152    -0.113   76  36 
 PAM  SZ I         555 49.72        59.8 0.49                            76  36 
 BRR  HZ EP   1    555 28.91                             151     0.213   76 298 
 BRR  HN ES   1    555 46.35                             151     0.613   76 298 
 BRR  HZ I         555 49.45       188.6 0.16                            76 298 
 RUS  HZ EP   1    555 30.82                             145    -0.113   98 179 
 RUS  HN ES   1    555 49.49                             145     0.013   98 179 
 RUS  HZ I         555 51.40       123.0 0.56                            98 179 
 OCA  SZ EP   1    555 35.79                             130     0.012  163 352 
 OCA  SZ ES   1    555 58.70                             130     0.512  163 352 
 ZAR  HZ EP   1    555 39.46                             122    -0.711  209 292 
 ZAR  HN ES   1    556  5.55                             122    -0.511  209 292 
 ZAR  HZ I         556 11.20       136.8 0.40                           209 292 
 NOR  SZ EP   1    555 42.74                             119    -0.410  237 236 
 NOR  SN ES   1    556 11.41                             119     0.010  237 236 
 CHI  HZ EP   1    555 44.99                             118     0.210  248 196 
 CHI  HN ES   2    556 13.49                             118    -0.8 7  248 196 
 CHI  HZ I         556 19.70        54.9 0.28                           248 196 
 ROSC BN ES   1    556 15.63                             117     0.310  254 212 
 ROSC BZ I         556 22.84       114.3 0.42                           254 212 
 HEL  HZ EP   1    555 48.19                             115     0.410  276 256 
 HEL  HN ES   1    556 19.44                             115    -0.210  276 256 
 HEL  HZ I         556 25.19        52.5 0.28                           276 256 
 GUY  SZ EP   1    555 52.09                             112     0.8 9  306 236 
 GUY  SZ I         556 32.57       101.8 0.40                           306 236 
 RREF HZ EP   1    555 54.11                             111     0.6 9  324 230 
 RREF HZ I         556 38.22        64.6 0.42                           324 230 
 COD  HZ EP   1    555 54.75                             109    -1.0 8  351 354 
 COD  HZ I         556 39.62        28.1 0.39                           351 354 
 PRA  HZ EP   1    556  0.66                             107     0.0 7  393 210 
 PRA  HN ES        556 42.75                             107     0.210  393 210 
 PAL  HZ EP   1    556  2.68                             106     0.1 7  409 240 
 PAL  HN ES   1    556 46.09                             106     0.1 7  409 240 
 PAL  HZ I         556 48.78        33.8 0.16                           409 240 
 YOT  HZ EP   1    556  9.86                             104    -0.5 6  474 229 
 YOT  HN ES   1    556 59.72                             104    -0.1 6  474 229 
                                                                                
