 2010  918 0637  2.7 L   6.787 -73.115147.1  RSN 14 0.4 2.6LRSN                1
 GAP=162        0.89       3.2     5.8  5.5 -0.6486E+01  0.8286E+01  0.2528E+01E
 Epicentro: LOS SANTOS - SANTANDER                                             3
 ACTION:UP  11-02-18 11:03 OP:tino STATUS:               ID:20100918063702 L   I
 2010-09-18-0633-09S.COL___121                                                 6
 STAT SP IPHASW D HRMM SECON CODA AMPLIT PERI AZIMU VELO SNR AR TRES W  DIS CAZ7
 BTL  SZ EP        637 22.80                             171     0.310   22 311 
 BAR2 SZ IP        637 22.42                             171    -0.110   23 199 
 BAR2 SZ ES   1    637 37.56                             171    -0.4 7   23 199 
 BAR2 SZ I         637 39.19       150.6 0.21                            23 199 
 GIR2 SZ EP        637 22.52                             166    -0.110   33 345 
 GIR2 SZ ES   1    637 38.46                             166     0.3 7   33 345 
 BRR  HZ IP     C  637 24.30                             151     0.010   75 298 
 BRR  HZ I         637 24.59       139.9 0.15                            75 298 
 BRR  HN ES   1    637 41.70                             151     0.7 7   75 298 
 RUS  HZ EP        637 26.29                             145    -0.210   99 178 
 RUS  HZ I         637 27.11        24.7 0.29                            99 178 
 RUS  HE ES   1    637 44.78                             145    -0.3 7   99 178 
 GRA  SZ IP        637 28.24                             137     0.110  126  16 
 GRA  SZ ES   1    637 48.28                             137     0.3 7  126  16 
 GRA  SZ I         637 49.51        57.5 0.29                           126  16 
 OCA  SZ EP        637 30.83                             130    -0.5 9  162 352 
 OCA  SZ ES   1    637 53.14                             130    -0.5 7  162 352 
 OCA  SZ I         637 57.56        45.7 0.20                           162 352 
 NOR  HZ EP        637 38.35                             119    -0.4 8  237 235 
 NOR  HN ES   2    638  6.56                             119    -0.3 4  237 235 
 CHI  HZ EP        637 40.37                             118    -0.1 8  248 196 
 CHI  HN ES   1    638 10.50                             118     0.6 6  248 196 
 CHI  HZ I         638 13.33        21.3 0.63                           248 196 
 ROSC BZ EP   2    637 40.97                             117     0.0 4  253 212 
 ROSC BN ES   2    638 11.57                             117     0.7 4  253 212 
 ROSC BZ I         638 16.33        25.5 0.26                           253 212 
 HEL  HZ EP        637 43.93                             115     0.6 8  275 256 
 HEL  HN ES   2    638 14.02                             115    -1.0 4  275 256 
 HEL  HZ I         638 20.98        19.2 0.44                           275 256 
 GUY  SZ EP   1    637 47.33                             112     0.7 5  303 235 
 GUY  SN ES   2    638 20.57                             112    -0.3 4  303 235 
 RREF HZ EP   2    637 49.90                             111     0.8 3  323 230 
 RREF HE ES   2    638 24.56                             111    -0.8 3  323 230 
 RREF HZ I         638 34.92        34.3 0.31                           323 230 
 TOL  SZ EP   1    637 51.57                             109     0.4 5  345 225 
                                                                                
