 2017  118 0323 21.2 L   6.708 -73.164146.9  RSN  5 0.3 1.3LRSN                1
 GAP=228        0.88       6.8     6.3  7.8  0.2715E+02  0.2566E+01 -0.3790E+01E
 Epicentro: VILLANUEVA - SANTANDER                                             3
 ACTION:UPD 17-05-22 16:00 OP:jn   STATUS:               ID:20170118032321 L   I
 OLDACT:DUP 17-01-18 14:28 OP:dani STATUS:               ID:20170118031747d    3
 OLDACT:UP  17-01-18 14:27 OP:dani STATUS:               ID:20170118031746d    3
 OLDACT:UP  17-01-18 14:27 OP:dani STATUS:               ID:20170118031746d    3
 OLDACT:DUP 17-01-18 14:24 OP:dani STATUS:               ID:20170118031746d    3
 OLDACT:UP  17-01-18 14:24 OP:dani STATUS:               ID:20170118031745     3
 OLDACT:REG 17-01-18 12:41 OP:dani STATUS:               ID:20170118031745     3
 2017-01-18-0318-00M.COL___331                                                 6
 STAT SP IPHASW D HRMM SECON CODA AMPLIT PERI AZIMU VELO AIN AR TRES W  DIS CAZ7
 BAR2 EZ EP        323 40.56                             175   -0.2610 12.9 189 
 BAR2 EZ ES        323 55.61                             175   -0.4910 12.9 189 
 BAR2 EZ I         323 57.43         5.3 0.31            176           12.9 189 
 BRR  HZ EP        323 42.75                             151    0.0510 74.9 306 
 BRR  HN ES        323 59.86                             151    0.4110 74.9 306 
 BRR  HZ I         324  3.25         5.4 0.13            154           74.9 306 
 RUS  HZ EP        323 44.39                             147    0.0010 90.6 174 
 RUS  HN ES        324  2.93                             147    0.4710 90.6 174 
 RUS  HZ I         324  5.45         2.8 0.41            150           90.6 174 
 PTB  HN ES        324  8.42                             133   -0.37 9  144 263 
 PTB  HZ I         324  9.06         2.3 0.12            136            144 263 
 ZAR  HN ES        324 19.68                             122    0.18 8  206 295 
                                                                                
