 2015 1218 0848 44.0 L   6.824 -73.149143.5  RSN 15 0.4 2.3LRSN                1
 GAP=135        1.01       2.5     3.6  5.2 -0.1094E+01  0.8483E+01  0.1060E+01E
 Epicentro: LOS SANTOS - SANTANDER                                             3
 ACTION:UPD 16-02-04 15:05 OP:cam  STATUS:               ID:20151218084844 L   I
 OLDACT:REG 15-12-18 13:55 OP:cara STATUS:               ID:20151218084750     3
 2015-12-18-0847-50M.COL___331                                                 6
 STAT SP IPHASW D HRMM SECON CODA AMPLIT PERI AZIMU VELO AIN AR TRES W  DIS CAZ7
 BAR2 EZ EP        849  3.36                             169   -0.0310 25.9 188 
 BAR2 EZ ES        849 17.95                             169   -0.5810 25.9 188 
 BAR2 EZ I         849 19.56        41.2 0.42            170           25.9 188 
 BRR  HZ IP     D  849  5.22                             153    0.4310 69.6 297 
 BRR  HN ES        849 21.48                             153    0.4610 69.6 297 
 BRR  HZ I         849 26.20        21.7 0.12            150           69.6 297 
 PAM  EZ IP     D  849  6.34                             151    0.5010 75.6  41 
 PAM  EN ES        849 23.40                             151    0.5010 75.6  41 
 PAM  EZ I         849 26.58        24.4 0.46            154           75.6  41 
 RUS  HZ IP        849  7.30                             143   -0.4010  103 176 
 RUS  HN ES        849 26.26                             143    0.0510  103 176 
 RUS  HZ I         849 27.62        18.1 0.34            147            103 176 
 OCA  HN ES        849 33.29                             130   -0.31 9  158 353 
 OCA  HZ I         849 41.84        44.6 0.30            131            158 353 
 SPBC HZ EP        849 12.21                             128   -0.27 9  165 218 
 SPBC HN ES        849 34.51                             128   -0.20 9  165 218 
 SPBC HZ I         849 35.74        29.0 0.10            130            165 218 
 ZAR  HZ EP        849 16.58                             122    0.45 9  203 291 
 ZAR  HN ES        849 40.95                             122   -0.26 9  203 291 
 ZAR  HZ I         849 46.62        23.7 0.60            122            203 291 
 NOR  HZ EP        849 19.47                             118   -0.24 8  236 234 
 NOR  HE ES        849 47.32                             118   -0.26 8  236 234 
 NOR  HZ I         849 56.89        13.8 0.62            119            236 234 
 SML  HZ IP        849 19.72                             117   -0.47 8  241 335 
 SML  HN ES        849 47.68                             117   -0.76 8  241 335 
 SML  HZ I         849 57.48        26.9 0.10            118            241 335 
 CHI  HZ EP        849 21.32                             116   -0.50 8  251 195 
 CHI  HN ES        849 51.00                             116   -0.34 8  251 195 
 CHI  HZ I         849 56.01        17.6 0.40            119            251 195 
 HEL  HZ EP        849 24.75                             114    0.65 8  272 255 
 HEL  HN ES        849 55.67                             114    0.27 8  272 255 
 HEL  HZ I         850  1.57        11.5 0.40            115            272 255 
 GUY2CHZ EP        849 28.22                             112    0.60 7  302 234 
 GUY2CHN ES        850  2.54                             112    0.88 7  302 234 
 GUY2CHZ I         850  9.72        15.6 0.56                           302 234 
 CBOC HZ EP        849 31.23                             109    0.38 7  334 252 
 CBOC HE ES        850  7.03                             109   -0.38 7  334 252 
 CBOC HZ I         850 19.82         3.9 0.56            111            334 252 
 DBB  SZ EP        849 31.00                             109   -0.29 7  339 274 
 DBB  SZ ES        850  7.85                             109   -0.35 7  339 274 
 DBB  SZ I         850  9.70        34.1 0.60            110            339 274 
 ANIL HE ES        850 13.27                             108    0.46 6  359 224 
                                                                                
