 2017 1118 0023 57.4 L   6.812 -73.168144.1  RSN 10 0.3 1.2LRSN                1
 GAP=133        0.79       2.6     3.3  5.1 -0.2209E+01  0.6677E+01 -0.4264E+00E
 Epicentro: LOS SANTOS - SANTANDER                                             3
 ACTION:UPD 17-12-12 19:56 OP:rebc STATUS:               ID:20171118002357 L   I
 OLDACT:DUP 17-11-18 12:06 OP:osc  STATUS:               ID:20171118001743d    3
 OLDACT:UP  17-11-18 11:50 OP:mg   STATUS:               ID:20171118001742     3
 OLDACT:UP  17-11-18 11:50 OP:mg   STATUS:               ID:20171118001742     3
 OLDACT:REG 17-11-18 09:51 OP:mg   STATUS:               ID:20171118001742     3
 2017-11-18-0018-00M.COL___473                                                 6
 STAT SP IPHASW D HRMM SECON CODA AMPLIT PERI AZIMU VELO AIN AR TRES W  DIS CAZ7
 BAR2 EZ EP        024 16.89                             170    0.0610 24.4 184 
 BAR2 EZ ES        024 32.39                             170    0.3910 24.4 184 
 BAR2 EZ I         024 32.61         4.2 0.07            168           24.4 184 
 PAM  EZ EP        024 19.76                             150    0.3010 78.0  42 
 PAM  EN ES        024 36.20                             150   -0.4710 78.0  42 
 PAM  EZ I         024 37.39         2.1 0.54            156           78.0  42 
 RUS  HZ EP        024 20.94                             143   -0.1510  102 175 
 RUS  HE ES        024 39.82                             143    0.2510  102 175 
 RUS  HZ I         024 40.82         1.4 0.26            144            102 175 
 PTB  HZ EP        024 24.31                             132    0.29 9  146 258 
 PTB  HE ES        024 44.92                             132    0.13 9  146 258 
 PTB  HZ I         024 49.88         1.7 0.29            132            146 258 
 SPBC HZ EP        024 25.93                             129    0.22 9  163 218 
 SPBC HE ES        024 47.40                             129   -0.40 9  163 218 
 SPBC HZ I         024 55.84         3.5 0.07            129            163 218 
 ZAR  HN ES        024 54.25                             122   -0.17 9  201 292 
 NOR  HZ EP        024 32.87                             118   -0.02 8  233 234 
 NOR  HN ES        025  0.73                             118    0.15 8  233 234 
 NOR  HZ I         025  8.88         1.3 0.24            119            233 234 
 CHI  HE ES        025  3.69                             117   -0.76 8  249 195 
 DRL03HN ES        025 10.67                             113   -0.31 7  287 353 
 GUY2CHZ EP        024 41.19                             112    0.41 7  300 234 
 GUY2CHE ES        025 14.36                             112   -0.26 7  300 234 
 GUY2CHZ I         025 21.19         1.3 0.24                           300 234 
                                                                                
