 2013 1118 0017 12.9 L   6.840 -73.141152.0  RSN  9 0.4 1.5LRSN                1
 GAP=135        0.96       4.3     4.4  8.1 -0.1831E+01  0.4843E+01  0.1454E+02E
 Epicentro: LOS SANTOS - SANTANDER                                             3
 ACTION:UPD 14-01-09 16:29 OP:ep   STATUS:               ID:20131118001712 L   I
 OLDACT:REG 13-11-18 07:32 OP:mh   STATUS:               ID:20131118001000     3
 2013-11-18-0010-00M.COL___279                                                 6
 STAT SP IPHASW D HRMM SECON CODA AMPLIT PERI AZIMU VELO AIN AR TRES W  DIS CAZ7
 BAR2 SZ EP   1    017 33.54                             169    0.12 7 27.8 189 
 BRR  HZ EP   1    017 35.29                             154    0.61 7 69.6 295 
 BRR  HN ES        017 52.02                             154    0.3810 69.6 295 
 BRR  HZ I         017 55.83         5.9 0.28            160           69.6 295 
 PAM  SZ EP   1    017 35.95                             153    0.33 7 73.7  41 
 PAM  SN ES        017 53.17                             153   -0.1310 73.7  41 
 PAM  SZ I         017 54.23         4.1 0.25            154           73.7  41 
 RUS  HZ EP   1    017 37.44                             144   -0.18 7  105 176 
 RUS  HZ I         017 57.50         2.3 0.36            138            105 176 
 PTB  HZ EP        017 40.19                             133   -0.36 9  149 257 
 PTB  HN ES        018  1.62                             133   -0.46 9  149 257 
 PTB  HZ I         018  6.18         7.9 0.05            134            149 257 
 ZAR  HN ES        018 11.73                             124    0.51 9  203 291 
 NOR  HZ EP        017 49.77                             119    0.41 8  238 234 
 NOR  HN ES        018 17.81                             119    0.05 8  238 234 
 NOR  HZ I         018 23.03         4.0 0.24            119            238 234 
 SML  HN ES        018 17.23                             119   -0.82 8  240 335 
 CHI  HZ EP   1    017 51.73                             118    0.27 6  253 195 
 CHI  HN ES   1    018 20.73                             118   -0.78 6  253 195 
 CHI  HZ I         018 26.48         1.8 0.28            116            253 195 
                                                                                
