 2016  618 0950  4.4 L   6.803 -73.127143.4  RSN 23 0.5 2.5LRSN                1
 GAP= 72        1.08       2.8     2.9  4.8 -0.1400E+01  0.4152E+01  0.2173E+01E
 Epicentro: LOS SANTOS - SANTANDER                                             3
 ACTION:UPD 16-07-21 22:20 OP:rebc STATUS:               ID:20160618095004 L   I
 OLDACT:UP  16-06-18 18:53 OP:dani STATUS:               ID:20160618094747     3
 OLDACT:UP  16-06-18 18:49 OP:dani STATUS:               ID:20160618094747     3
 OLDACT:REG 16-06-18 13:39 OP:dani STATUS:               ID:20160618094747     3
 2016-06-18-0947-47M.COL___337                                                 6
 STAT SP IPHASW D HRMM SECON CODA AMPLIT PERI AZIMU VELO AIN AR TRES W  DIS CAZ7
 BAR2 EZ IP     C  950 23.75                             170   -0.0110 24.1 195 
 BAR2 EZ ES        950 38.49                             170   -0.3810 24.1 195 
 BAR2 EZ I         950 40.56        68.9 0.16                          24.1 195 
 BRR  HZ EP        950 25.60                             152    0.2110 72.8 298 
 BRR  HE ES        950 42.44                             152    0.6810 72.8 298 
 BRR  HZ I         950 46.58        74.4 0.18                          72.8 298 
 PAM  EZ EP        950 26.48                             151    0.2110 75.8  39 
 PAM  EN ES        950 43.68                             151    0.3410 75.8  39 
 PAM  EZ I         950 44.13        39.9 0.32                          75.8  39 
 RUS  HZ EP        950 27.79                             143   -0.1510  101 177 
 RUS  HE ES        950 45.93                             143   -0.3710  101 177 
 RUS  HZ I         950 47.25        23.3 0.34                           101 177 
 PTB  HZ EP        950 30.45                             131   -0.92 9  150 259 
 PTB  HN ES   4    950 50.57                             131   -1.83 0  150 259 
 PTB  HZ I         950 54.86        41.2 0.12                           150 259 
 TAM  HZ EP        950 32.07                             130    0.35 9  153 105 
 TAM  HN ES        950 53.56                             130    0.53 9  153 105 
 TAM  HZ I         950 54.23        39.1 0.54                           153 105 
 OCA  HZ EP        950 31.98                             129   -0.54 9  160 352 
 OCA  HE ES        950 53.71                             129   -0.75 9  160 352 
 OCA  HZ I         950 57.13        60.2 0.30                           160 352 
 SPBC HZ EP        950 32.71                             128   -0.16 9  165 219 
 SPBC HN ES        950 54.43                             128   -0.64 9  165 219 
 SPBC HZ I         950 57.26        91.3 0.14                           165 219 
 ZAR  HZ EP        950 36.69                             122   -0.18 8  206 292 
 ZAR  HN ES        951  2.74                             122    0.54 8  206 292 
 ZAR  HZ I         951  7.48        58.7 0.28                           206 292 
 NOR  HZ EP        950 40.25                             118    0.06 8  237 235 
 NOR  HN ES   4    951  6.75                             118   -1.36 0  237 235 
 NOR  HZ I         951 14.58        33.3 0.18                           237 235 
 CHI  HZ EP        950 42.29                             116    0.23 8  249 196 
 CHI  HN ES        951 11.02                             116   -0.42 8  249 196 
 CHI  HZ I         951 15.08         9.4 0.22                           249 196 
 ROSC BZ EP   4    950 43.70                             116    1.16 0  254 211 
 ROSC BE ES   4    951 14.89                             116    2.60 0  254 211 
 HEL  HZ EP        950 45.23                             114    0.51 8  274 256 
 HEL  HN ES        951 16.95                             114    0.78 8  274 256 
 HEL  HZ I         951 22.60        24.7 0.36                           274 256 
 URE  HZ EP   4    950 44.08                             113   -1.47 0  286 292 
 URE  HZ I         951 25.35        23.7 0.20                           286 292 
 SOCV BZ EP        950 46.93                             112   -0.20 7  299  57 
 SOCV BE ES   4    951 18.60                             112   -1.86 0  299  57 
 GUY2CHZ EP        950 48.34                             112    0.23 7  303 235 
 GUY2CHN ES        951 22.90                             112    0.70 7  303 235 
 GUY2CHZ I         951 30.58        13.9 0.26                           303 235 
 PTGC HZ EP   4    950 47.04                             111   -1.07 0  308 159 
 PTGC HE ES   4    951 19.19                             111   -3.01 0  308 159 
 ELA  HZ EP   4    950 52.78                             110    1.43 0  331 230 
 ELA  HN ES        951 27.24                             110   -0.74 7  331 230 
 ELA  HZ I         951 36.20        13.1 0.58                           331 230 
 CBOC HZ EP        950 51.75                             109    0.30 7  336 252 
 CBOC HN ES        951 27.74                             109   -0.41 7  336 252 
 CBOC HZ I         951 43.21         6.8 0.64                           336 252 
 DBB  SZ EP        950 51.74                             109   -0.27 7  341 274 
 DBB  SZ ES   4    951 27.57                             109   -1.58 0  341 274 
 DBB  SZ I         951 44.66        36.3 0.68                           341 274 
 ANIL HZ EP   4    950 56.29                             108    1.98 0  359 225 
 ANIL HE ES   4    951 35.96                             108    2.73 0  359 225 
 ANIL HZ I         951 41.88        37.2 0.30                           359 225 
 PRA  HZ EP        950 58.01                             106    0.02 6  393 210 
 PRA  HN ES        951 39.92                             106    0.13 6  393 210 
 PRA  HZ I         951 45.49        10.3 0.32                           393 210 
 ORTC HZ EP        950 58.39                             106   -0.02 6  397 216 
 ORTC HN ES        951 41.81                             106    1.27 6  397 216 
 PAL  HZ EP        950 59.74                             105    0.03 6  408 239 
 PAL  HE ES   4    951 41.98                             105   -0.87 0  408 239 
 PAL  HZ I         951 46.27         5.7 0.18                           408 239 
 SJC  HZ EP   4    950 57.85                             105   -2.13 0  410 327 
 SJC  HN ES   4    951 39.76                             105   -3.57 0  410 327 
 SJC  HZ I         951 43.47         5.3 0.54                           410 327 
                                                                                
