 2011  218 0519 38.2 L   6.808 -73.144144.0  RSN  5 0.5 1.4LRSN                1
 GAP=159        1.07       5.5    12.1 11.2 -0.2730E+02  0.4251E+02 -0.1785E+02E
 Epicentro: LOS SANTOS - SANTANDER                                             3
 ACTION:UP  11-03-28 15:09 OP:jfem STATUS:               ID:20110218051938 L   I
 2011-02-18-0515-57S.COL___137                                                 6
 STAT SP IPHASW D HRMM SECON CODA AMPLIT PERI AZIMU VELO SNR AR TRES W  DIS CAZ7
 BAR2 SZ EP   1    519 57.19                             170    -0.4 7   24 190 
 BAR2 SZ ES        520 13.32                             170     0.610   24 190 
 BAR2 SZ I         520 13.82         5.6 0.21                            24 190 
 RUS  HZ EP   1    520  1.78                             144     0.0 7  101 176 
 RUS  HZ I         520  2.75         2.4 0.13                           101 176 
 RUS  HN ES   1    520 19.63                             144    -0.6 7  101 176 
 GRA  SZ EP   2    520  4.07                             137     0.9 5  125  17 
 GRA  SZ ES   1    520 22.77                             137     0.1 7  125  17 
 GRA  SZ I         520 24.65         2.9 0.34                           125  17 
 OCA  SZ EP   1    520  6.31                             130     0.1 7  159 353 
 OCA  SZ ES   1    520 27.55                             130    -0.6 7  159 353 
 OCA  SZ I         520 33.31         5.5 0.35                           159 353 
 NOR  SN ES   1    520 41.85                             118     0.1 6  235 234 
                                                                                
