 2010 1018 0308 20.4 L   6.850 -72.967141.1  RSN  5 0.2 1.5LRSN                1
 GAP=178        0.45       3.2     6.7  7.1  0.8904E+00  0.1658E+01 -0.2130E+01E
 Epicentro: CEPITA - SANTANDER                                                 3
 ACTION:UP  11-02-18 11:10 OP:tino STATUS:               ID:20101018030820 L   I
 2010-10-18-0305-20S.COL___123                                                 6
 STAT SP IPHASW D HRMM SECON CODA AMPLIT PERI AZIMU VELO SNR AR TRES W  DIS CAZ7
 BAR2 SZ EP   1    3 8 39.85                             164     0.1 7   37 220 
 BAR2 SZ I         3 8 56.58         9.1 0.31                            37 220 
 BRR  HZ EP   1    3 8 41.68                             146    -0.3 7   87 289 
 BRR  HZ I         3 8 41.97        16.7 0.17                            87 289 
 BRR  HN ES   2    3 8 59.13                             146     0.2 5   87 289 
 RUS  HZ EP   1    3 8 44.13                             141     0.0 7  107 187 
 RUS  HN ES   1    3 9  2.61                             141     0.0 7  107 187 
 RUS  HZ I         3 9  5.89         2.3 0.25                           107 187 
 GRA  SZ EP   2    3 8 44.61                             138     0.3 5  116   9 
 GRA  SZ ES   2    3 9  3.03                             138     0.0 5  116   9 
 GRA  SZ I         3 9  6.78         4.6 0.31                           116   9 
 HEL  HZ EP   2    3 9  2.95                             112     0.3 4  293 256 
 HEL  HZ I         3 9 38.84         1.7 0.40                           293 256 
                                                                                
