 2016  318 0045  4.7 L   6.813 -73.172144.0  RSN 24 0.3 2.5LRSN                1
 GAP= 69        0.73       1.9     2.0  3.5 -0.5753E+00  0.1925E+01  0.2160E+00E
 Epicentro: LOS SANTOS - SANTANDER                                             3
 ACTION:UPD 16-05-13 21:25 OP:cam  STATUS:               ID:20160318004504 L   I
 OLDACT:UP  16-03-28 15:35 OP:Mher STATUS:               ID:20160318004504 L   3
 OLDACT:REG 16-03-18 12:51 OP:dnl  STATUS:               ID:20160318003747     3
 2016-03-18-0037-47M.COL___322                                                 6
 STAT SP IPHASW D HRMM SECON CODA AMPLIT PERI AZIMU VELO AIN AR TRES W  DIS CAZ7
 BAR2 EZ EP     D  045 24.26                             170    0.0810 24.4 183 
 BAR2 EZ ES        045 39.37                             170    0.0310 24.4 183 
 BAR2 EZ I         045 42.10        89.7 0.26            170           24.4 183 
 PAM  EZ EP     C  045 27.07                             150    0.2610 78.2  42 
 PAM  EN ES        045 44.33                             150    0.3010 78.2  42 
 PAM  EZ I         045 47.04        33.1 0.64            151           78.2  42 
 RUS  HZ EP     D  045 28.22                             143   -0.2210  102 174 
 RUS  HE ES        045 46.85                             143   -0.0710  102 174 
 RUS  HZ I         045 48.36        35.5 0.24            145            102 174 
 PTB  HZ EP        045 30.88                             132   -0.45 9  145 258 
 PTB  HN ES        045 51.91                             132   -0.16 9  145 258 
 PTB  HZ I         045 54.66        33.4 0.14            130            145 258 
 TAM  HZ IP     C  045 32.67                             130    0.10 9  158 105 
 TAM  HN ES        045 54.45                             130    0.17 9  158 105 
 TAM  HZ I         045 55.78        21.1 0.50            133            158 105 
 OCA  HZ EP        045 32.21                             130   -0.53 9  159 354 
 OCA  HN ES        045 54.23                             130   -0.36 9  159 354 
 OCA  HZ I         045 57.89        70.7 0.16            128            159 354 
 SPBC HZ EP        045 33.21                             129    0.17 9  163 218 
 SPBC HE ES        045 55.13                             129    0.02 9  163 218 
 SPBC HZ I         046  0.18        54.6 0.16            128            163 218 
 ZAR  HZ EP        045 37.19                             122    0.46 9  201 292 
 ZAR  HN ES        046  2.11                             122    0.42 9  201 292 
 ZAR  HZ I         046  7.51        42.2 0.26            120            201 292 
 NOR  HZ EP        045 40.35                             118    0.15 8  233 234 
 NOR  HE ES        046  7.78                             118   -0.09 8  233 234 
 NOR  HZ I         046 13.81        20.0 0.28            117            233 234 
 CHI  HZ EP        045 42.52                             117    0.11 8  249 194 
 CHI  HN ES        046 11.75                             117   -0.04 8  249 194 
 CHI  HZ I         046 17.99        14.9 0.32            117            249 194 
 ROSC BZ EP   4    045 44.31                             116    1.58 0  253 210 
 ROSC BN ES   4    046 15.09                             116    2.72 0  253 210 
 ROSC BZ I         046 18.99        58.5 0.40            116            253 210 
 CBOG1EZ E         045 53.51                                            260 203 
 HEL  HZ EP   4    045 45.75                             115    1.16 0  270 255 
 HEL  HE ES        046 15.59                             115   -0.08 8  270 255 
 HEL  HE IS        046 15.79                             114            270 255 
 HEL  HZ I         046 22.38        10.6 0.32            114            270 255 
 URE  HZ EP        045 44.84                             114   -0.52 7  281 292 
 URE  HN ES   4    046 14.40                             114   -2.65 0  281 292 
 URE  HZ I         046 25.70        16.2 0.14            112            281 292 
 GUY2CHZ EP        045 48.91                             112    0.82 7  300 234 
 GUY2CHN ES        046 21.78                             112   -0.13 7  300 234 
 GUY2CHZ I         046 30.51        21.1 0.36                           300 234 
 VIL  SZ EP        045 47.89                             112   -0.28 7  304 191 
 VIL  SN ES        046 21.48                             112   -0.57 7  304 191 
 PTGC HZ EP   4    045 47.47                             111   -1.32 0  311 158 
 PTGC HE ES   4    046 19.65                             111   -3.50 0  311 158 
 LL6C HZ EP        045 49.82                             110   -0.36 7  323 358 
 LL6C HE ES   4    046 22.75                             110   -2.88 0  323 358 
 LL6C HZ I         046 38.11         8.4 0.40            110            323 358 
 ELA  HZ EP   4    045 52.78                             110    1.41 0  328 229 
 ELA  HN ES   2    046 28.21                             110    0.47 3  328 229 
 ELA  HZ I         046 37.00        14.0 0.56            110            328 229 
 CBOC HZ EP        045 51.92                             110    0.61 7  331 252 
 CBOC HN ES   4    046 29.34                             110    1.70 0  331 252 
 CBOC HZ I         046 39.29         4.7 0.50            109            331 252 
 MON  HZ EP   9    045 51.58                             108   -1.72 0  351 308 
 MON  HN ES        046 29.93                             108    0.47 6  351 308 
 MON  HZ I         046 44.96         8.9 0.48            108            351 308 
 ANIL HZ EP   9    045 55.98                             108    1.62 0  356 224 
 ANIL HN ES        046 34.80                             108    0.11 6  356 224 
 ANIL HZ I         046 40.56        36.6 0.32            108            356 224 
 PAL  HZ EP        045 59.79                             106    0.15 6  404 239 
 PAL  HN ES   4    046 41.32                             106   -1.14 0  404 239 
 PAL  HZ I         046 47.85         4.0 0.20            105            404 239 
 SJC  HZ EP   4    045 58.57                             106   -1.34 0  406 327 
 SJC  HE ES   4    046 37.18                             106   -5.77 0  406 327 
 SJC  HZ I         046 54.39         5.3 0.44            105            406 327 
 CRJC HZ EP   4    046  4.68                             103   -2.36 0  466   4 
 CRJC HN ES   4    046 47.46                             103   -8.17 0  466   4 
 CRJC HZ I         046 59.73        10.2 0.18            103            466   4 
                                                                                
