 2014  818 0252 30.4 L   6.812 -73.145137.6  RSN 10 0.6 1.9LRSN                1
 GAP=130        1.34       4.7     5.0  7.4  0.2952E+01  0.4617E+01 -0.4157E+01E
 Epicentro: LOS SANTOS - SANTANDER                                             3
 ACTION:UPD 14-09-15 21:50 OP:nd   STATUS:               ID:20140818025230 L   I
 OLDACT:REG 14-08-18 14:23 OP:stll STATUS:               ID:20140818024820     3
 2014-08-18-0248-20M.COL___260                                                 6
 STAT SP IPHASW D HRMM SECON CODA AMPLIT PERI AZIMU VELO AIN AR TRES W  DIS CAZ7
 BAR2 SZ EP        252 49.28                             169    0.1610 24.6 190 
 BAR2 SZ ES        253  3.47                             169   -0.2210 24.6 190 
 BAR2 SZ I         253  6.03        16.0 0.44            169           24.6 190 
 BRR  HZ EP        252 51.15                             151    0.4710 70.6 298 
 BRR  HZ I         252 51.40        19.1 0.24            149           70.6 298 
 BRR  HN ES        253  7.26                             151    0.7910 70.6 298 
 RUS  HZ EP        252 53.29                             142   -0.2110  102 176 
 RUS  HN ES        253 11.41                             142   -0.0710  102 176 
 RUS  HZ I         253 12.77         8.1 0.26            144            102 176 
 PTB  HZ EP        252 55.84                             130   -0.95 9  148 258 
 PTB  HN ES        253 16.86                             130   -0.47 9  148 258 
 PTB  HZ I         253 20.55        10.6 0.14            130            148 258 
 TAM  HZ EP        252 57.37                             129   -0.15 9  155 105 
 SPBC HZ EP        252 58.11                             127   -0.32 9  164 219 
 SPBC HE ES        253 20.59                             127    0.33 9  164 219 
 SPBC HZ I         253 22.63        10.5 0.30            128            164 219 
 ZAR  HZ EP        253  3.24                             121    0.92 9  204 292 
 ZAR  HN ES        253 27.04                             121   -0.15 9  204 292 
 ZAR  HZ I         253 34.03         8.7 0.36            121            204 292 
 SML  HZ EP        253  5.85                             116   -0.65 8  243 335 
 SML  HN ES        253 34.26                             116   -0.36 8  243 335 
 SML  HZ I         253 37.09        12.9 0.10            117            243 335 
 HEL  HZ EP        253 11.27                             113    0.97 8  272 256 
 HEL  HN ES        253 40.47                             113   -0.91 8  272 256 
 HEL  HZ I         253 47.88         2.8 0.32            114            272 256 
 GUY2CHZ EP        253 14.75                             111    0.97 7  302 235 
 GUY2CHN ES        253 47.58                             111    0.00 7  302 235 
 GUY2CHZ I         253 58.09         3.7 0.46                           302 235 
                                                                                
