 2011  918 0416 20.8 L   7.163 -73.045156.0  RSN  8 0.4 1.9LRSN                1
 GAP=119        0.74       4.9     5.9  6.1  0.1282E+01  0.1436E+01 -0.3650E+01E
 Epicentro: BUCARAMANGA - SANTANDER                                            3
 ACTION:UPD 12-07-13 15:58 OP:ep   STATUS:               ID:20110918041620 L   I
 2011-09-18-0413-17S.COL___171                                                 6
 STAT SP IPHASW D HRMM SECON CODA AMPLIT PERI AZIMU VELO AIN AR TRES W  DIS CAZ7
 GIR2 SZ EP        416 41.56                             173    0.0810 18.9 240 
 GIR2 SZ ES   2    416 56.94                             173   -0.64 5 18.9 240 
 BTL  SZ EP        416 42.21                             166    0.1910 36.6 222 
 PAM  SZ EP        416 42.67                             164    0.0810 42.8  63 
 PAM  SN ES   1    416 59.31                             164   -0.24 7 42.8  63 
 BAR2 SZ EP        416 43.27                             156    0.1410 64.9 194 
 BAR2 SZ ES   1    417  0.27                             156   -0.25 7 64.9 194 
 BAR2 SZ I         417  3.98        11.9 0.16                          64.9 194 
 BRR  HZ EP        416 43.26                             153    0.0110 73.9 265 
 BRR  HZ I         416 43.54        19.2 0.12                          73.9 265 
 BRR  HN ES   1    417  1.47                             153    0.74 7 73.9 265 
 OCA  SZ EP        416 46.74                             140   -0.0310  123 346 
 RUS  HZ EP        416 48.72                             136    0.03 9  141 182 
 RUS  HN ES   2    417  9.94                             136   -0.48 5  141 182 
 ZAR  HZ EP   2    416 52.53                             125   -1.39 4  203 280 
 ZAR  HN ES   2    417 19.18                             125   -0.53 4  203 280 
 ZAR  HZ I         417 20.57         7.0 0.10                           203 280 
                                                                                
