 2014  518 0343 33.5 L   6.805 -73.123144.0  RSN 18 0.5 2.2LRSN                1
 GAP= 72        0.97       2.8     2.7  5.7 -0.9277E+00  0.3011E+01  0.4022E+01E
 Epicentro: LOS SANTOS - SANTANDER                                             3
 ACTION:UPD 15-03-16 16:58 OP:nd   STATUS:               ID:20140518034333 L   I
 OLDACT:REG 14-05-18 12:33 OP:spq  STATUS:               ID:20140518033813     3
 2014-05-18-0338-13M.COL___245                                                 6
 STAT SP IPHASW D HRMM SECON CODA AMPLIT PERI AZIMU VELO AIN AR TRES W  DIS CAZ7
 BRR  HZ EP        343 55.16                             152    0.5410 73.2 297 
 BRR  HN ES        344 11.85                             152    0.7910 73.2 297 
 BRR  HZ I         344 16.12        17.2 0.52            150           73.2 297 
 PAM  SZ EP        343 55.98                             151    0.5210 75.4  38 
 PAM  SN ES        344 12.87                             151    0.3210 75.4  38 
 PAM  SZ I         344 15.52        26.4 0.20            156           75.4  38 
 RUS  HZ EP        343 57.13                             143   -0.0310  101 178 
 RUS  HN ES   1    344 14.93                             143   -0.64 7  101 178 
 RUS  HZ I         344 17.30        10.5 0.36            146            101 178 
 PTB  HZ EP        344  0.15                             131   -0.46 9  150 259 
 PTB  HN ES        344 21.07                             131   -0.65 9  150 259 
 PTB  HZ I         344 27.10        20.0 0.22            132            150 259 
 TAM  HZ EP        344  1.42                             130    0.55 9  153 105 
 TAM  HE ES        344 21.78                             130   -0.41 9  153 105 
 TAM  HZ I         344 22.20        12.1 0.44            136            153 105 
 OCA  HZ EP   1    344  1.32                             129   -0.38 7  160 352 
 OCA  HN ES   1    344 23.26                             129   -0.41 7  160 352 
 OCA  HZ I         344 31.63        13.8 0.38            132            160 352 
 SPBC HZ EP        344  2.21                             128    0.11 9  165 220 
 SPBC HN ES        344 23.71                             128   -0.67 9  165 220 
 SPBC HZ I         344 30.15        28.5 0.13            130            165 220 
 ZAR  HZ EP        344  5.75                             122   -0.35 8  206 292 
 ZAR  HE ES        344 31.54                             122    0.05 8  206 292 
 ZAR  HZ I         344 37.70        15.6 0.04            123            206 292 
 NOR  HZ EP        344  9.31                             118   -0.12 8  237 235 
 NOR  HN ES        344 37.55                             118    0.13 8  237 235 
 NOR  HZ I         344 41.11        11.8 0.24            119            237 235 
 SML  HZ EP   2    344  9.49                             117   -0.65 4  244 335 
 SML  HN ES   1    344 38.08                             117   -0.60 6  244 335 
 SML  HZ I         344 41.87        28.8 0.10            119            244 335 
 CHI  HZ EP   1    344 11.27                             117   -0.01 6  250 196 
 CHI  HE ES        344 40.39                             117   -0.32 8  250 196 
 CHI  HZ I         344 46.77         5.3 0.28            119            250 196 
 ROSC BZ EP   4    344 13.13                             116    1.37 0  255 211 
 ROSC BE ES   4    344 41.77                             116    0.20 0  255 211 
 ROSC BZ I         344 47.73        15.6 0.40            118            255 211 
 HEL  HZ EP   1    344 14.47                             114    0.51 6  275 256 
 HEL  HN ES   1    344 45.07                             114   -0.41 6  275 256 
 HEL  HZ I         344 51.97         8.1 0.36            116            275 256 
 URE  HZ I         344 54.18         7.8 0.22            115            286 292 
 GUY2CHZ EP   1    344 17.70                             112    0.36 5  304 235 
 GUY2CHE ES        344 52.03                             112    0.53 7  304 235 
 GUY2CHZ I         344 59.97        10.4 0.35                           304 235 
 RREF HZ EP   4    344 21.46                             110    1.59 0  324 230 
 RREF HN ES   1    344 56.32                             110    0.32 5  324 230 
 RREF HZ I         345  4.99         9.4 0.48            112            324 230 
 PRA  HZ EP   1    344 26.92                             106   -0.29 4  394 210 
 PRA  HE ES   1    345  9.53                             106    0.47 4  394 210 
 PRA  HZ I         345 15.07         9.7 0.36            108            394 210 
 ORTC HZ EP   1    344 27.41                             106   -0.22 4  397 216 
 ORTC HN ES   1    345 10.50                             106    0.68 4  397 216 
 ORTC HZ I         345 17.98         5.9 0.24            108            397 216 
                                                                                
