 2014  418 0005 18.8 L   6.824 -73.171147.9  RSN  4 0.3 1.4LRSN                1
 GAP=145        0.77       4.4     4.5  7.4 -0.8599E+01  0.9083E+01 -0.6278E+00E
 Epicentro: LOS SANTOS - SANTANDER                                             3
 ACTION:UPD 14-05-13 23:09 OP:nd   STATUS:               ID:20140418000518 L   I
 OLDACT:REG 14-04-18 12:20 OP:nd   STATUS:               ID:20140418000039     3
 2014-04-18-0000-39M.COL___161                                                 6
 STAT SP IPHASW D HRMM SECON CODA AMPLIT PERI AZIMU VELO AIN AR TRES W  DIS CAZ7
 PAM  SZ EP        0 5 41.53                             151    0.2810 77.2  42 
 PAM  SN ES        0 5 58.77                             151    0.0210 77.2  42 
 PAM  SZ I         0 6  2.80         2.9 0.42            155           77.2  42 
 RUS  HZ EP        0 5 42.84                             143   -0.1410  103 175 
 RUS  HN ES        0 6  1.52                             143   -0.3110  103 175 
 RUS  HZ I         0 6  2.39         2.9 0.20            147            103 175 
 PTB  HZ EP        0 5 45.46                             133   -0.30 9  146 258 
 PTB  HN ES        0 6  6.60                             133   -0.18 9  146 258 
 PTB  HZ I         0 6  8.85         4.9 0.12            135            146 258 
 SPBC HZ EP        0 5 47.55                             129    0.04 9  163 218 
 SPBC HN ES        0 6 10.52                             129    0.63 9  163 218 
 SPBC HZ I         0 6 17.70         4.5 0.22            132            163 218 
                                                                                
