 2016  918 0146  6.7 L   6.749 -73.179150.0  RSN  5 0.4 1.3LRSN                1
 GAP=230        0.51       8.3     6.8  9.0  0.4219E+02  0.4859E+01 -0.1254E+02E
 Epicentro: LOS SANTOS - SANTANDER                                             3
 ACTION:UPD 17-08-17 21:13 OP:lp   STATUS:               ID:20160918014606 L   I
 OLDACT:UP  16-09-18 16:37 OP:and  STATUS:               ID:20160918013732d    3
 OLDACT:DUP 16-09-18 16:33 OP:and  STATUS:               ID:20160918013732d    3
 OLDACT:UP  16-09-18 16:26 OP:and  STATUS:               ID:20160918013731d    3
 OLDACT:UP  16-09-18 16:24 OP:and  STATUS:               ID:20160918013731d    3
 OLDACT:UP  16-09-18 16:22 OP:and  STATUS:               ID:20160918013731d    3
 OLDACT:UP  16-09-18 16:18 OP:and  STATUS:               ID:20160918013731d    3
 OLDACT:DUP 16-09-18 16:13 OP:and  STATUS:               ID:20160918013731d    3
 2016-09-18-0138-00M.COL___360                                                 6
 STAT SP IPHASW D HRMM SECON CODA AMPLIT PERI AZIMU VELO AIN AR TRES W  DIS CAZ7
 BAR2 EZ EP   2    146 26.50                             173   -0.26 6 17.3 181 
 BAR2 EZ ES   2    146 41.88                             173   -0.51 6 17.3 181 
 BAR2 EZ I         146 52.12         3.2 0.22            173           17.3 181 
 BRR  HZ EP   2    146 28.61                             153    0.29 6 70.9 304 
 BRR  HN ES   3    146 46.40                             153    1.24 3 70.9 304 
 RUS  HZ EP   2    146 30.94                             146    0.41 6 95.3 174 
 RUS  HN ES   2    146 49.18                             146    0.08 6 95.3 174 
 RUS  HZ I         146 50.01         1.7 0.26            162           95.3 174 
 PTB  HZ EP   2    146 33.35                             134   -0.28 5  143 261 
 PTB  HN ES   2    146 54.65                             134    0.04 5  143 261 
 PTB  HZ I         146 56.55         2.8 0.14            145            143 261 
 ZAR  HE ES        147  4.72                             123   -0.0410  203 294 
 ZAR  HZ I         147 10.62         3.7 0.12            131            203 294 
                                                                                
