 2017  218 0837  5.2 L   6.844 -73.131122.0  RSN  4 0.3 0.9LRSN                1
 GAP=246        0.75       6.7     5.5  6.7  0.2322E+02  0.3879E+01 -0.1365E+02E
 Epicentro: LOS SANTOS - SANTANDER                                             3
 ACTION:UPD 17-05-24 15:37 OP:jn   STATUS:               ID:20170218083705 L   I
 OLDACT:REG 17-02-18 13:54 OP:cara STATUS:               ID:20170218082745     3
 2017-02-18-0828-00M.COL___345                                                 6
 STAT SP IPHASW D HRMM SECON CODA AMPLIT PERI AZIMU VELO AIN AR TRES W  DIS CAZ7
 BAR2 EZ EP        837 22.40                             166    0.2610 28.4 192 
 BAR2 EZ ES        837 35.06                             166   -0.2710 28.4 192 
 BAR2 EZ I         837 36.59         3.7 0.62            157           28.4 192 
 RUS  HZ EP        837 26.82                             137   -0.2910  105 177 
 RUS  HN ES        837 44.55                             137    0.3710  105 177 
 RUS  HZ I         837 49.51         0.7 0.52            134            105 177 
 PTB  HZ EP        837 30.19                             125   -0.43 9  150 257 
 PTB  HN ES        837 50.43                             125   -0.01 9  150 257 
 PTB  HZ I         837 55.64         1.0 0.18            123            150 257 
 ZAR  HZ EP        837 36.51                             117    0.30 9  204 291 
 ZAR  HN ES        838  0.52                             117    0.14 9  204 291 
 ZAR  HZ I         838  7.04         1.6 0.56            116            204 291 
                                                                                
