 2017  318 0956  9.2 L   6.733 -73.183137.9  RSN  4 0.3 1.0LRSN                1
 GAP=137        0.71       4.2     4.1  6.0 -0.5208E+01  0.6702E+01 -0.2851E+01E
 Epicentro: VILLANUEVA - SANTANDER                                             3
 ACTION:UPD 17-05-25 18:42 OP:jn   STATUS:               ID:20170318095610dL   I
 OLDACT:UP  17-03-18 17:12 OP:cara STATUS:               ID:20170318094228     3
 OLDACT:REG 17-03-18 14:39 OP:cog  STATUS:               ID:20170318094228     3
 2017-03-18-0948-00M.COL___346                                                 6
 STAT SP IPHASW D HRMM SECON CODA AMPLIT PERI AZIMU VELO AIN AR TRES W  DIS CAZ7
 BAR2 EZ EP        956 28.15                             173    0.3710 15.6 180 
 BAR2 EZ ES        956 42.48                             173    0.2310 15.6 180 
 BAR2 EZ I         956 45.10         4.1 0.54            172           15.6 180 
 PAM  EZ EP        956 31.19                             147    0.0310 85.7  39 
 PAM  EN ES        956 48.02                             147   -0.2410 85.7  39 
 PAM  EZ I         956 50.01         2.2 0.32            152           85.7  39 
 RUS  HZ EP        956 31.91                             144    0.2010 93.6 173 
 RUS  HN ES        956 48.90                             144   -0.3410 93.6 173 
 RUS  HZ I         956 53.19         0.7 0.36            147           93.6 173 
 PTB  HZ EP        956 34.70                             131   -0.38 9  142 261 
 PTB  HN ES        956 55.32                             131    0.08 9  142 261 
 PTB  HZ I         957  1.40         2.0 0.16            133            142 261 
                                                                                
