 2010 1018 0609 37.6 L   6.830 -73.023142.8  RSN  7 0.3 1.6LRSN                1
 GAP=172        0.63       3.5     8.1  8.0 -0.7278E+01 -0.1204E+01  0.5574E+01E
 Epicentro: CEPITA - SANTANDER                                                 3
 ACTION:UP  11-02-18 11:10 OP:tino STATUS:               ID:20101018060937 L   I
 2010-10-18-0607-12S.COL___123                                                 6
 STAT SP IPHASW D HRMM SECON CODA AMPLIT PERI AZIMU VELO SNR AR TRES W  DIS CAZ7
 BAR2 SZ EP        6 9 57.23                             167     0.210   32 214 
 BAR2 SZ I         610 14.02        12.6 0.30                            32 214 
 BRR  HZ EP   1    6 9 59.14                             148     0.1 7   82 292 
 BRR  HE ES   2    610 15.88                             148     0.0 5   82 292 
 BRR  HZ I         610 20.40         7.4 0.55                            82 292 
 RUS  HZ EP   1    610  1.16                             142    -0.1 7  104 184 
 RUS  HN ES   2    610 19.85                             142     0.1 5  104 184 
 RUS  HZ I         610 21.21         3.5 0.29                           104 184 
 GRA  SZ IP        610  2.02                             138     0.010  119  12 
 GRA  SZ ES   1    610 21.05                             138     0.0 7  119  12 
 GRA  SZ I         610 22.78         6.5 0.18                           119  12 
 OCA  SZ EP   1    610  5.94                             129     0.4 7  159 348 
 OCA  SZ ES   2    610 26.52                             129    -0.9 5  159 348 
 OCA  SZ I         610 32.79         7.3 0.55                           159 348 
 CHI  HZ EP   1    610 15.44                             116    -0.5 6  256 198 
 CHI  HZ I         610 50.61         2.4 0.59                           256 198 
 HEL  HZ EP   2    610 19.38                             113     0.2 4  286 256 
 HEL  HZ I         610 56.21         2.4 0.46                           286 256 
                                                                                
