 2014  718 0832 42.9 L   6.835 -73.171148.0  RSN  6 0.4 1.4LRSN                1
 GAP=207        0.76       3.9     5.7  7.9  0.3528E+01  0.2949E+01 -0.9093E+01E
 Epicentro: ZAPATOCA - SANTANDER                                               3
 ACTION:UPD 15-03-16 20:44 OP:nd   STATUS:               ID:20140718083242 L   I
 OLDACT:REG 14-07-18 15:10 OP:fm   STATUS:               ID:20140718082948     3
 2014-07-18-0829-48M.COL___257                                                 6
 STAT SP IPHASW D HRMM SECON CODA AMPLIT PERI AZIMU VELO AIN AR TRES W  DIS CAZ7
 BAR2 SZ EP   1    833  3.13                             169    0.21 8 26.8 183 
 BAR2 SZ ES   1    833 18.06                             169   -0.43 8 26.8 183 
 BAR2 SZ I         833 20.49         4.5 0.26            175           26.8 183 
 PTB  HZ EP   1    833  9.99                             132    0.08 7  146 257 
 PTB  HN ES        833 30.51                             132   -0.4410  146 257 
 PTB  HZ I         833 38.25         3.4 0.34            124            146 257 
 SPBC HZ EP        833 11.95                             129    0.2210  164 217 
 SPBC HN ES        833 34.37                             129    0.1910  164 217 
 SPBC HZ I         833 36.84         3.6 0.28            122            164 217 
 ZAR  HN ES        833 40.52                             123    0.30 9  200 291 
 ZAR  HZ I         833 49.40         1.4 0.16            113            200 291 
 SML  HE ES   1    833 47.97                             118    0.50 6  239 336 
 SJC  HZ EP   1    833 37.00                             106   -1.02 5  404 327 
 SJC  HZ I         834 19.94         1.2 0.58             98            404 327 
 SJC  HN ES   1    834 20.53                             106   -0.45 5  404 327 
                                                                                
