 2014  118 0732 35.3 L   6.802 -73.111151.4  RSN 16 0.6 2.4LRSN                1
 GAP=122        1.08       2.6     3.9  6.4 -0.1729E+01  0.5919E+01  0.3847E+00E
 Epicentro: LOS SANTOS - SANTANDER                                             3
 ACTION:UPD 14-03-13 09:56 OP:ep   STATUS:               ID:20140118073235 L   I
 OLDACT:REG 14-01-18 10:22 OP:cam  STATUS:               ID:20140118073000     3
 2014-01-18-0730-00M.COL___285                                                 6
 STAT SP IPHASW D HRMM SECON CODA AMPLIT PERI AZIMU VELO AIN AR TRES W  DIS CAZ7
 PAM  SZ EP     C  732 58.40                             152    0.4810 74.8  37 
 PAM  SN ES        733 15.80                             152    0.1910 74.8  37 
 PAM  SZ I         733 17.89        28.0 0.46            158           74.8  37 
 RUS  HZ EP        732 59.44                             145   -0.1210  101 178 
 RUS  HE ES        733 18.64                             145    0.1210  101 178 
 RUS  HZ I         733 21.07        25.2 0.36            147            101 178 
 PTB  HZ EP        733  2.23                             132   -0.79 9  152 259 
 PTB  HN ES        733 23.85                             132   -0.83 9  152 259 
 PTB  HZ I         733 30.74        43.6 0.54            133            152 259 
 OCA  HN ES        733 26.46                             131   -0.02 9  161 352 
 SPBC HZ EP        733  4.57                             130    0.14 9  166 220 
 SPBC HN ES        733 27.22                             130    0.03 9  166 220 
 SPBC HZ I         733 32.27        39.6 0.30            131            166 220 
 ZAR  HZ EP        733  8.27                             123   -0.15 8  208 292 
 ZAR  HN ES        733 34.17                             123   -0.13 8  208 292 
 ZAR  HZ I         733 39.92        24.3 0.64            125            208 292 
 NOR  HZ EP        733 11.59                             119   -0.07 8  238 235 
 NOR  HE ES        733 40.22                             119    0.17 8  238 235 
 NOR  HZ I         733 43.12        30.1 0.18            121            238 235 
 SML  HZ EP        733 12.20                             118   -0.15 8  245 334 
 SML  HE ES        733 41.99                             118    0.70 8  245 334 
 SML  HZ I         733 43.44        37.6 0.10            121            245 334 
 CHI  HZ EP        733 13.33                             118   -0.07 8  250 196 
 CHI  HN ES        733 42.85                             118   -0.31 8  250 196 
 CHI  HZ I         733 50.84         7.2 0.36            120            250 196 
 ROSC BZ EP   4    733 15.57                             118    1.65 0  255 212 
 HEL  HZ EP   1    733 17.10                             115    0.93 6  276 256 
 HEL  HN ES        733 48.63                             115    0.54 7  276 256 
 HEL  HZ I         733 54.63        15.3 0.36            117            276 256 
 GUY2CHZ EP   1    733 20.47                             113    0.98 5  304 235 
 GUY2CHE ES   4    733 56.53                             113    2.53 0  304 235 
 GUY2CHZ I         734  2.39        20.4 0.78                           304 235 
 PTGC HZ EP        733 18.43                             113   -0.80 7  308 159 
 PTGC HE ES   4    733 51.76                             113   -1.78 0  308 159 
 CBOC HZ EP   1    733 23.50                             111    0.67 5  337 252 
 CBOC HE ES        733 59.58                             111   -0.36 7  337 252 
 CBOC HZ I         734  6.87         4.6 0.60            112            337 252 
 COD  HZ EP   1    733 24.74                             110    0.86 5  348 354 
 COD  HN ES        734  1.04                             110   -0.76 6  348 354 
 ORTC HZ EP   2    733 30.53                             107    0.88 3  398 217 
 ORTC HN ES        734 13.28                             107    1.19 6  398 217 
 ORTC HZ I         734 18.53         6.9 0.50            109            398 217 
 SJC  HZ EP   1    733 29.99                             106   -1.24 4  411 326 
 SJC  HN ES   4    734 10.97                             106   -3.92 0  411 326 
 SJC  HZ I         734 15.58         4.0 0.32            109            411 326 
                                                                                
