 2010  718 0741 44.6 L   6.805 -73.081142.5  RSN 12 0.5 2.9LRSN                1
 GAP=191        1.08       5.9     9.4  7.5 -0.3816E+02  0.6824E+01  0.6198E+01E
 Epicentro: LOS SANTOS - SANTANDER                                             3
 ACTION:UPD 10-12-01 15:18 OP:pat  STATUS:               ID:20100718074144 L   I
 2010-07-18-0740-51S.COL___119                                                 6
 STAT SP IPHASW D HRMM SECON CODA AMPLIT PERI AZIMU VELO AIN AR TRES W  DIS CAZ7
 BAR2 SZ IP        742  3.96                             169     0.110   26 206 
 BAR2 SZ ES   1    742 18.91                             169     0.0 7   26 206 
 BAR2 SZ I         742 20.32       226.7 0.20                            26 206 
 GIR2 SZ IP        742  3.01                             166    -0.910   33 338 
 GIR2 SZ ES   2    742 18.25                             166    -0.7 5   33 338 
 BRR  HZ IP     C  742  5.81                             150     0.110   77 296 
 BRR  HZ I         742  6.08       119.8 0.25                            77 296 
 BRR  HE ES   1    742 22.56                             150     0.3 7   77 296 
 GUE  SZ EP        742  8.84                             139     0.010  115   9 
 GRA  SZ IP        742  9.79                             137     0.410  123  14 
 GRA  SZ I         742 11.20        87.6 0.18                           123  14 
 GRA  SZ ES   1    742 29.36                             137     0.7 7  123  14 
 OCA  SZ IP        742 12.37                             129    -0.3 9  161 351 
 OCA  SZ ES   2    742 34.77                             129     0.1 5  161 351 
 OCA  SZ I         742 38.96        64.5 0.32                           161 351 
 ROSC BZ EP   1    742 23.74                             116     0.7 6  257 212 
 ROSC BN ES   1    742 53.77                             116     0.8 6  257 212 
 ROSC BZ I         743  2.66        29.4 0.33                           257 212 
 HEL  HZ EP   1    742 25.41                             113     0.0 6  279 256 
 HEL  HZ I         743  2.67        33.6 0.30                           279 256 
 GUY  SZ EP   1    742 29.41                             111     0.6 5  308 236 
 GUY  SN ES   1    743  3.12                             111    -0.1 5  308 236 
 GUY  SZ I         743 12.69        71.3 0.52                           308 236 
 RREF HZ EP   1    742 31.01                             110    -0.3 5  328 230 
 RREF HE ES   1    743  7.53                             110    -0.1 5  328 230 
 RREF HZ I         743 14.07        25.9 0.54                           328 230 
 DBB  SZ EP   2    742 32.09                             108    -0.7 3  347 274 
 PRA  HZ EP   1    742 37.90                             106    -0.6 4  396 210 
 PRA  HN ES   1    743 20.02                             106    -0.5 4  396 210 
 PRA  HZ I         743 27.28        34.8 0.56                           396 210 
                                                                                
