 2013 1118 0740 26.8 L   6.808 -73.148149.8  RSN 12 0.4 2.0LRSN                1
 GAP=136        1.00       2.7     4.3  6.4 -0.1171E+01  0.1121E+01 -0.2243E+00E
 Epicentro: LOS SANTOS - SANTANDER                                             3
 ACTION:UPD 14-01-09 16:29 OP:ep   STATUS:               ID:20131118074026 L   I
 OLDACT:UP  13-11-18 11:34 OP:mh   STATUS:               ID:20131118074000     3
 OLDACT:REG 13-11-18 07:47 OP:mh   STATUS:               ID:20131118074000     3
 2013-11-18-0740-00M.COL___279                                                 6
 STAT SP IPHASW D HRMM SECON CODA AMPLIT PERI AZIMU VELO AIN AR TRES W  DIS CAZ7
 BRR  HZ EP        740 48.59                             153    0.2610 70.6 298 
 BRR  HN ES        741  5.94                             153    0.7910 70.6 298 
 BRR  HZ I         741  9.16        16.1 0.33            157           70.6 298 
 PAM  SZ EP        740 49.76                             152    0.3710 76.8  40 
 PAM  SZ I         741  9.05        18.7 0.15            150           76.8  40 
 RUS  HZ EP   1    740 50.74                             144   -0.25 7  102 176 
 RUS  HN ES        741  9.50                             144   -0.3810  102 176 
 RUS  HZ I         741 11.21         8.2 0.24            146            102 176 
 PTB  HZ EP        740 53.56                             133   -0.52 9  148 258 
 PTB  HN ES        741 14.92                             133   -0.45 9  148 258 
 PTB  HZ I         741 22.47         8.0 0.16            137            148 258 
 OCA  HZ EP   1    740 55.74                             131    0.42 7  159 353 
 OCA  HN ES        741 17.23                             131   -0.35 9  159 353 
 OCA  HZ I         741 21.92        11.3 0.30            132            159 353 
 SPBC HZ EP        740 55.85                             130    0.21 9  164 219 
 SPBC HN ES        741 17.66                             130   -0.50 9  164 219 
 SPBC HZ I         741 23.88        19.1 0.20            133            164 219 
 ZAR  HZ EP        740 59.50                             123    0.07 9  204 292 
 ZAR  HN ES        741 25.15                             123    0.24 9  204 292 
 NOR  HZ EP        741  3.09                             119    0.31 8  235 234 
 NOR  HN ES        741 31.65                             119    0.78 8  235 234 
 NOR  HZ I         741 33.55         7.0 0.25            122            235 234 
 SML  HZ EP        741  2.97                             118   -0.56 8  243 335 
 SML  HN ES        741 31.77                             118   -0.43 8  243 335 
 SML  HZ I         741 34.80        20.3 0.09            120            243 335 
 CHI  HZ EP   1    741  5.06                             118    0.27 6  249 195 
 CHI  HN ES        741 34.29                             118   -0.15 8  249 195 
 CHI  HZ I         741 38.90         3.2 0.36            120            249 195 
 HEL  HZ EP   1    741  7.66                             116    0.46 6  272 256 
 HEL  HN ES        741 38.29                             116   -0.44 8  272 256 
 HEL  HZ I         741 45.30         4.4 0.48            118            272 256 
 GUY2CHZ EP   1    741 10.92                             113    0.31 5  302 235 
                                                                                
