 2017  118 0356 17.1 L   6.799 -73.168148.1  RSN  7 0.4 1.3LRSN                1
 GAP=134        0.93       4.3     4.8  6.4  0.6278E+01  0.9167E+00  0.2816E+01E
 Epicentro: LOS SANTOS - SANTANDER                                             3
 ACTION:UPD 17-05-22 16:00 OP:jn   STATUS:               ID:20170118035617 L   I
 OLDACT:DUP 17-01-18 14:54 OP:dani STATUS:               ID:20170118034743d    3
 OLDACT:UP  17-01-18 14:53 OP:dani STATUS:               ID:20170118034742     3
 OLDACT:UP  17-01-18 14:53 OP:dani STATUS:               ID:20170118034742     3
 OLDACT:UP  17-01-18 14:53 OP:dani STATUS:               ID:20170118034742     3
 OLDACT:REG 17-01-18 12:43 OP:dani STATUS:               ID:20170118034742     3
 2017-01-18-0348-00M.COL___331                                                 6
 STAT SP IPHASW D HRMM SECON CODA AMPLIT PERI AZIMU VELO AIN AR TRES W  DIS CAZ7
 BAR2 EZ EP        356 36.69                             171   -0.3510 22.9 184 
 BAR2 EZ ES        356 52.42                             171   -0.1410 22.9 184 
 BAR2 EZ I         356 54.48         5.3 0.30            170           22.9 184 
 BRR  HZ EP        356 38.58                             154    0.1610 69.1 300 
 BRR  HN ES        356 55.66                             154    0.6410 69.1 300 
 BRR  HZ I         356 57.91         5.4 0.35            154           69.1 300 
 PAM  EZ EP        356 39.71                             151    0.0110 79.0  41 
 RUS  HZ EP        356 40.90                             144   -0.2310  101 175 
 RUS  HN ES        356 59.75                             144   -0.0810  101 175 
 RUS  HZ I         357  0.46         2.0 0.20            145            101 175 
 PTB  HZ EP        356 43.68                             133   -0.40 9  145 259 
 PTB  HN ES        357  4.59                             133   -0.50 9  145 259 
 PTB  HZ I         357  6.58         1.6 0.17            134            145 259 
 ZAR  HN ES        357 14.86                             123    0.11 9  202 292 
 CHI  HZ EP        356 55.59                             118    0.70 8  248 195 
 CHI  HN ES        357 24.76                             118    0.43 8  248 195 
 CHI  HZ I         357 28.19         1.2 0.39            119            248 195 
                                                                                
