 2017  118 0146 11.7 L   6.782 -73.129144.7  RSN 11 0.5 1.7LRSN                1
 GAP=139        0.98       3.6     3.9  6.0 -0.5995E+00  0.6968E+01  0.4095E+01E
 Epicentro: LOS SANTOS - SANTANDER                                             3
 ACTION:UPD 17-05-22 16:00 OP:jn   STATUS:               ID:20170118014611 L   I
 OLDACT:UP  17-01-18 13:30 OP:dani STATUS:               ID:20170118013744     3
 OLDACT:UP  17-01-18 13:30 OP:dani STATUS:               ID:20170118013744     3
 OLDACT:UP  17-01-18 13:30 OP:dani STATUS:               ID:20170118013744     3
 OLDACT:UP  17-01-18 13:29 OP:dani STATUS:               ID:20170118013744     3
 OLDACT:REG 17-01-18 12:34 OP:dani STATUS:               ID:20170118013744     3
 2017-01-18-0138-00M.COL___331                                                 6
 STAT SP IPHASW D HRMM SECON CODA AMPLIT PERI AZIMU VELO AIN AR TRES W  DIS CAZ7
 BAR2 EZ EP        146 31.23                             171    0.0810 21.8 196 
 BAR2 EZ ES        146 46.03                             171   -0.3110 21.8 196 
 BAR2 EZ I         146 47.13        13.4 0.40            170           21.8 196 
 BRR  HZ EP        146 33.00                             151    0.1410 73.7 299 
 BRR  HN ES        146 49.99                             151    0.6110 73.7 299 
 BRR  HZ I         146 53.81        16.7 0.34            151           73.7 299 
 PAM  EZ EP     D  146 33.98                             150    0.1710 77.8  38 
 PAM  EN ES        146 50.94                             150   -0.1310 77.8  38 
 PAM  EZ I         146 53.59         8.1 0.46            153           77.8  38 
 RUS  HZ EP        146 34.99                             144   -0.1910 98.5 177 
 RUS  HE ES        146 53.56                             144    0.0610 98.5 177 
 RUS  HZ I         146 55.10         3.6 0.20            145           98.5 177 
 PTB  HZ EP        146 37.93                             131   -0.76 9  149 260 
 PTB  HN ES        146 58.98                             131   -0.78 9  149 260 
 PTB  HZ I         147  0.81         9.5 0.24            131            149 260 
 ZAR  HZ EP        146 43.96                             122   -0.35 8  206 292 
 ZAR  HE ES        147 10.43                             122    0.67 8  206 292 
 ZAR  HZ I         147 15.32         8.1 0.48            122            206 292 
 NOR  HE ES        147 15.16                             118   -0.07 8  235 235 
 CHI  HZ EP        146 49.56                             117    0.40 8  247 196 
 CHI  HN ES        147 18.84                             117    0.44 8  247 196 
 CHI  HZ I         147 26.24         2.5 0.29            118            247 196 
 GUY2CHZ EP   3    146 56.95                             112    1.67 2  302 235 
 GUY2CHE ES        147 29.62                             112    0.34 7  302 235 
 GUY2CHZ I         147 35.76         3.5 0.42                           302 235 
 CBOC HZ EP   3    147  0.20                             110    1.52 2  335 253 
 CBOC HN ES   3    147 33.98                             110   -1.35 2  335 253 
 CBOC HZ I         147 42.08         1.2 0.13            110            335 253 
 SJC  HZ EP   3    147  5.77                             105   -1.75 1  412 327 
                                                                                
