 2015  318 0223 30.6 L   6.819 -73.163146.9  RSN  4 0.4 0.9LRSN                1
 GAP=133        1.08       6.0     5.6  9.5 -0.4078E+01  0.4395E+01  0.8690E+01E
 Epicentro: LOS SANTOS - SANTANDER                                             3
 ACTION:UPD 15-04-30 16:26 OP:nd   STATUS:               ID:20150318022330 L   I
 OLDACT:REG 15-03-18 13:10 OP:stll STATUS:               ID:20150318021740     3
 2015-03-18-0217-40M.COL___269                                                 6
 STAT SP IPHASW D HRMM SECON CODA AMPLIT PERI AZIMU VELO AIN AR TRES W  DIS CAZ7
 BRR  HZ EP        223 52.14                             154    0.3910 68.5 298 
 BRR  HN ES        224  8.88                             154    0.6610 68.5 298 
 PAM  SZ EP        223 52.94                             151    0.0010 77.0  42 
 PAM  SZ I         223 53.40         2.5 0.22            153           77.0  42 
 PAM  SN ES        224  9.82                             151   -0.5210 77.0  42 
 RUS  HZ EP        223 54.87                             143    0.2210  103 175 
 RUS  HN ES        224 13.43                             143    0.0510  103 175 
 RUS  HZ I         224 14.78         0.8 0.30            143            103 175 
 PTB  HZ EP        223 57.28                             133   -0.27 9  146 258 
 PTB  HN ES        224 17.92                             133   -0.64 9  146 258 
 PTB  HZ I         224 21.08         1.2 0.14            132            146 258 
                                                                                
