 2012  318 0317 54.3 L   6.806 -73.096145.8  RSN  6 0.2 1.3LRSN                1
 GAP=143        0.41       3.0     3.0  5.0  0.3161E+00  0.2287E+01  0.5111E-01E
 ACTION:UP  12-03-31 23:20 OP:EP   STATUS:               ID:20120318031754 L   I
 2012-03-18-0310-00M.COL___202                                                 6
 STAT SP IPHASW D HRMM SECON CODA AMPLIT PERI AZIMU VELO SNR AR TRES W  DIS CAZ7
 BAR2 SZ EP   1    318 13.92                             170    -0.1 7   25 202 
 PAM  SZ EP   1    318 16.53                             152     0.2 7   74  37 
 PAM  SN ES   1    318 33.21                             152    -0.2 7   74  37 
 PAM  SZ I         318 36.40         3.8 0.26                            74  37 
 BRR  HZ EP   1    318 15.79                             151     0.1 7   76 296 
 BRR  HZ I         318 21.81         6.2 0.20                            76 296 
 BRR  HE ES   1    318 32.64                             151     0.2 7   76 296 
 RUS  HZ EP   2    318 18.00                             144    -0.1 5  101 179 
 RUS  HN ES   1    318 36.67                             144     0.0 7  101 179 
 RUS  HZ I         318 37.73         2.6 0.34                           101 179 
 PTB  HN ES   2    318 42.93                             131    -0.3 5  153 259 
 ZAR  HZ EP   2    318 27.02                             122    -0.2 4  209 291 
 ZAR  HN ES   2    318 52.88                             122    -0.1 4  209 291 
                                                                                
