 2017  718 0847 21.6 L   6.673 -73.274130.0  RSN  8 0.2 1.6LRSN                1
 GAP= 91        0.80       3.4     3.4  5.5  0.4495E+00  0.4597E+01  0.1665E+01E
 Epicentro: GALAN - SANTANDER                                                  3
 ACTION:UPD 17-08-30 15:34 OP:rebc STATUS:               ID:20170718084721 L   I
 OLDACT:UP  17-07-18 17:09 OP:dnl  STATUS:               ID:20170718083740d    3
 OLDACT:DUP 17-07-18 17:06 OP:dnl  STATUS:               ID:20170718083740d    3
 2017-07-18-0838-00M.COL___368                                                 6
 STAT SP IPHASW D HRMM SECON CODA AMPLIT PERI AZIMU VELO AIN AR TRES W  DIS CAZ7
 BAR2 EZ EP        847 39.03                             174   -0.1110 13.5 131 
 BAR2 EZ ES        847 52.47                             174   -0.3610 13.5 131 
 BAR2 EZ I         847 53.98        16.7 0.22            177           13.5 131 
 BRR  HZ EP        847 40.69                             150   -0.1710 68.2 315 
 BRR  HE ES        847 56.41                             150    0.5110 68.2 315 
 BRR  HZ I         847 59.50         7.2 0.24            148           68.2 315 
 RUS  HZ EP        847 42.96                             143    0.0310 88.9 166 
 RUS  HN ES        847 59.67                             143    0.0810 88.9 166 
 RUS  HZ I         848  1.20         3.5 0.20            146           88.9 166 
 PAM  EZ EP   2    847 43.64                             141    0.09 5 97.2  41 
 PAM  EN ES        848  0.61                             141   -0.0810 97.2  41 
 PAM  EZ I         848  2.73         6.5 0.32            142           97.2  41 
 PTB  HZ EP   9    847 44.54                             131   -1.25 0  132 264 
 PTB  HN ES        848  2.63                             131   -0.8010  132 264 
 PTB  HZ I         848  6.32         3.6 0.24            130            132 264 
 ZAR  HZ EP   2    847 52.01                             119   -0.29 4  197 297 
 ZAR  HN ES        848 16.18                             119   -0.08 9  197 297 
 ZAR  HZ I         848 22.85         5.4 0.46            119            197 297 
 NOR  HZ EP   2    847 54.52                             117    0.23 4  215 235 
 NOR  HN ES        848 19.99                             117    0.19 8  215 235 
 NOR  HZ I         848 23.94         3.3 0.26            117            215 235 
 GUY2CHZ EP   4    848  4.02                             110    1.77 0  282 235 
 GUY2CHN ES   4    848 36.60                             110    2.63 0  282 235 
 GUY2CHZ I         848 43.24         2.7 0.42                           282 235 
                                                                                
