 2013 1118 0218  1.9 L   6.793 -73.102153.1  RSN 13 0.4 2.0LRSN                1
 GAP=142        0.96       2.8     4.1  5.4 -0.2018E+01  0.5164E+01  0.8090E+00E
 Epicentro: LOS SANTOS - SANTANDER                                             3
 ACTION:UPD 14-01-09 16:29 OP:ep   STATUS:               ID:20131118021801 L   I
 OLDACT:UP  13-11-18 08:48 OP:mh   STATUS:               ID:20131118021001d    3
 OLDACT:DUP 13-11-18 08:48 OP:mh   STATUS:               ID:20131118021001d    3
 2013-11-18-0210-00M.COL___279                                                 6
 STAT SP IPHASW D HRMM SECON CODA AMPLIT PERI AZIMU VELO AIN AR TRES W  DIS CAZ7
 BAR2 SZ EP   1    218 22.42                             171    0.03 7 23.9 202 
 BAR2 SZ ES   1    218 38.04                             171   -0.37 7 23.9 202 
 BAR2 SZ I         218 39.15        20.1 0.32            167           23.9 202 
 PAM  SZ EP        218 25.36                             153    0.6310 75.0  36 
 PAM  SN ES        218 42.50                             153   -0.0710 75.0  36 
 BRR  HZ EP        218 24.38                             152    0.3110 75.8 297 
 BRR  HN ES        218 41.94                             152    0.5510 75.8 297 
 BRR  HZ I         218 46.72        14.7 0.14            150           75.8 297 
 RUS  HZ EP        218 25.58                             146   -0.7010 99.6 179 
 RUS  HN ES   1    218 45.10                             146   -0.23 7 99.6 179 
 RUS  HZ I         218 46.60         4.3 0.16            146           99.6 179 
 PTB  HZ EP        218 29.12                             133   -0.73 9  152 259 
 PTB  HN ES   1    218 51.64                             133   -0.04 7  152 259 
 PTB  HZ I         218 56.37        12.4 0.19            132            152 259 
 OCA  HZ EP        218 31.25                             131    0.37 9  162 351 
 OCA  HN ES        218 53.35                             131   -0.17 9  162 351 
 SPBC HZ EP   1    218 31.38                             130    0.21 7  166 220 
 SPBC HN ES        218 54.12                             130    0.09 9  166 220 
 SPBC HZ I         219  0.51        22.1 0.24            130            166 220 
 ZAR  HZ EP   1    218 34.91                             123   -0.37 6  209 292 
 ZAR  HN ES        219  1.19                             123   -0.16 8  209 292 
 NOR  HZ EP   1    218 38.01                             120   -0.39 6  238 235 
 NOR  HN ES   1    219  6.49                             120   -0.41 6  238 235 
 SML  HZ EP        218 38.92                             119   -0.28 8  246 334 
 SML  HN ES   1    219  7.49                             119   -0.84 6  246 334 
 SML  HZ I         219 12.23        18.2 0.07            120            246 334 
 CHI  HZ EP   1    218 40.19                             119    0.15 6  249 196 
 CHI  HN ES        219 10.11                             119    0.28 8  249 196 
 CHI  HZ I         219 17.66         3.2 0.24            120            249 196 
 HEL  HZ EP        218 43.62                             116    0.67 7  277 256 
 HEL  HN ES   1    219 15.40                             116    0.40 6  277 256 
 HEL  HZ I         219 21.39         4.3 0.27            116            277 256 
 GUY2CHZ EP   1    218 46.97                             113    0.75 5  305 235 
                                                                                
