 2014  418 0034 23.8 L   6.785 -73.124148.2  RSN 14 0.5 2.1LRSN                1
 GAP=140        1.24       3.2     4.5  6.8 -0.3259E+01  0.7233E+01  0.2173E+01E
 Epicentro: LOS SANTOS - SANTANDER                                             3
 ACTION:UPD 14-05-13 23:09 OP:nd   STATUS:               ID:20140418003423 L   I
 OLDACT:REG 14-04-18 12:21 OP:nd   STATUS:               ID:20140418003047     3
 2014-04-18-0030-47M.COL___251                                                 6
 STAT SP IPHASW D HRMM SECON CODA AMPLIT PERI AZIMU VELO AIN AR TRES W  DIS CAZ7
 BRR  HZ IP     C  034 45.65                             152    0.2910 74.1 299 
 BRR  HN ES        035  2.94                             152    0.7410 74.1 299 
 BRR  HZ I         035  5.31        26.6 0.12            150           74.1 299 
 PAM  SZ EP        034 46.64                             151    0.3910 77.2  37 
 PAM  SN ES        035  3.82                             151    0.0410 77.2  37 
 PAM  SZ I         035  5.95        35.8 0.92            155           77.2  37 
 RUS  HZ EP        034 47.25                             145   -0.4010 98.8 177 
 RUS  HN ES        035  6.19                             145   -0.0810 98.8 177 
 RUS  HZ I         035  7.61        17.4 0.24            147           98.8 177 
 PTB  HZ EP        034 50.20                             132   -0.94 9  150 260 
 PTB  HN ES        035 11.49                             132   -0.98 9  150 260 
 PTB  HZ I         035 13.51        12.1 0.14            132            150 260 
 OCA  HZ EP        034 52.60                             130    0.13 9  162 352 
 OCA  HN ES        035 15.01                             130    0.17 9  162 352 
 OCA  HZ I         035 19.60         7.3 0.18            132            162 352 
 SPBC HZ EP        034 52.48                             130   -0.02 9  163 220 
 SPBC HN ES        035 14.86                             130   -0.03 9  163 220 
 SPBC HZ I         035 21.36        20.4 0.32            131            163 220 
 ZAR  HZ EP        034 56.47                             122   -0.21 8  207 292 
 ZAR  HN ES        035 22.47                             122    0.13 8  207 292 
 ZAR  HZ I         035 27.33        10.4 0.22            123            207 292 
 NOR  HZ EP        034 59.36                             119   -0.40 8  236 235 
 NOR  HN ES        035 27.69                             119   -0.14 8  236 235 
 NOR  HZ I         035 34.29        14.4 0.22            120            236 235 
 SML  HZ EP        035  0.37                             118   -0.45 8  246 335 
 SML  HN ES        035 29.23                             118   -0.48 8  246 335 
 SML  HZ I         035 32.65        13.9 0.32            119            246 335 
 CHI  HZ EP        035  1.54                             118    0.02 8  248 196 
 CHI  HN ES        035 30.37                             118   -0.58 8  248 196 
 CHI  HZ I         035 33.93         4.0 0.32            120            248 196 
 HEL  HZ EP        035  4.53                             115    0.19 8  274 256 
 HEL  HN ES        035 35.62                             115   -0.35 8  274 256 
 HEL  HZ I         035 43.07         6.4 0.30            116            274 256 
 GUY2CHZ EP        035  8.36                             113    0.74 7  302 235 
 GUY2CHN ES        035 42.91                             113    1.10 7  302 235 
 GUY2CHZ I         035 49.74         7.4 0.26                           302 235 
 RREF HZ EP        035 11.47                             111    1.35 7  323 230 
 RREF HN ES        035 46.99                             111    0.73 7  323 230 
 RREF HZ I         035 53.15         7.1 0.24            113            323 230 
 SJC  HZ EP   4    035 18.04                             106   -1.70 0  412 327 
 SJC  HN ES   4    035 59.13                             106   -4.26 0  412 327 
 SJC  HZ I         036  8.95         2.1 0.48            107            412 327 
                                                                                
