 2012  118 0959 46.4 L   6.761 -73.131142.5  RSN  7 0.3 1.6LRSN                1
 GAP=140        0.64       3.9     4.9  6.0  0.1187E+01  0.5136E+01  0.3238E+01E
 Epicentro: LOS SANTOS - SANTANDER                                             3
 ACTION:UP  12-02-03 08:18 OP:REBC STATUS:               ID:20120118095946 L   I
 2012-01-18-1000-00M.COL___187                                                 6
 STAT SP IPHASW D HRMM SECON CODA AMPLIT PERI AZIMU VELO SNR AR TRES W  DIS CAZ7
 BAR2 SZ EP   1   10 0  5.57                             172     0.0 7   20 197 
 BAR2 SZ ES   1   10 0 20.13                             172    -0.4 7   20 197 
 BAR2 SZ I        10 0 22.93        10.7 0.31                            20 197 
 BRR  HZ EP       10 0  7.38                             151     0.010   75 301 
 BRR  HE ES   1   10 0 24.26                             151     0.5 7   75 301 
 BRR  HZ I        10 0 28.34        12.0 0.20                            75 301 
 PAM  SZ EP   1   10 0  8.45                             149     0.1 7   80  37 
 PAM  SN ES   2   10 0 25.45                             149    -0.1 5   80  37 
 RUS  HZ EP   2   10 0  9.46                             144     0.0 5   96 177 
 RUS  HN ES   2   10 0 27.91                             144     0.4 5   96 177 
 RUS  HZ I        10 0 29.80         4.4 0.28                            96 177 
 PTB  HZ EP   1   10 0 12.57                             131    -0.6 7  149 261 
 PTB  HN ES   2   10 0 33.80                             131    -0.3 5  149 261 
 ZAR  HZ EP   2   10 0 19.58                             121     0.6 4  207 293 
 ZAR  HE ES   2   10 0 44.22                             121    -0.1 4  207 293 
 ZAR  HZ I        10 0 52.87         5.9 0.31                           207 293 
 CHI  HZ EP   2   10 0 23.71                             117     0.2 4  245 196 
 CHI  HN ES   1   10 0 52.65                             117     0.2 6  245 196 
 CHI  HZ I        10 0 59.92         1.5 0.34                           245 196 
                                                                                
