 2013 1118 0306 34.3 L   6.805 -73.120144.1  RSN 14 0.5 2.2LRSN                1
 GAP= 72        1.04       2.8     3.9  5.4 -0.1240E+01  0.5350E+01  0.5775E+00E
 Epicentro: LOS SANTOS - SANTANDER                                             3
 ACTION:UPD 14-01-09 16:29 OP:ep   STATUS:               ID:20131118030634 L   I
 OLDACT:REG 13-11-18 07:37 OP:mh   STATUS:               ID:20131118030000     3
 2013-11-18-0300-00M.COL___279                                                 6
 STAT SP IPHASW D HRMM SECON CODA AMPLIT PERI AZIMU VELO AIN AR TRES W  DIS CAZ7
 BAR2 SZ EP        3 6 53.94                             170    0.1610 24.5 196 
 BAR2 SZ ES        3 7  8.63                             170   -0.3210 24.5 196 
 BAR2 SZ I         3 7 10.27        40.6 0.20            170           24.5 196 
 BRR  HZ IP     C  3 6 55.83                             151    0.4010 73.5 297 
 BRR  HN ES        3 7 12.50                             151    0.6110 73.5 297 
 BRR  HZ I         3 7 16.64        19.5 0.17            150           73.5 297 
 PAM  SZ EP   1    3 6 56.90                             151    0.67 7 75.2  38 
 PAM  SN ES        3 7 13.68                             151    0.3610 75.2  38 
 RUS  HZ EP        3 6 58.04                             143    0.1010  101 178 
 RUS  HN ES        3 7 16.02                             143   -0.3410  101 178 
 RUS  HZ I         3 7 18.40        20.1 0.29            146            101 178 
 PTB  HZ EP   1    3 7  0.51                             131   -0.92 7  151 259 
 PTB  HN ES   1    3 7 22.03                             131   -0.54 7  151 259 
 TAM  HZ EP   1    3 7  1.45                             131   -0.18 7  152 105 
 OCA  HZ EP        3 7  2.24                             129   -0.26 9  160 352 
 OCA  HN ES        3 7 23.70                             129   -0.76 9  160 352 
 OCA  HZ I         3 7 28.82        14.0 0.28            130            160 352 
 SPBC HZ EP        3 7  2.98                             128    0.07 9  165 220 
 SPBC HN ES        3 7 24.60                             128   -0.61 9  165 220 
 SPBC HZ I         3 7 27.70        31.4 0.23            130            165 220 
 ZAR  HZ EP        3 7  7.35                             122    0.43 8  207 292 
 ZAR  HN ES        3 7 33.01                             122    0.67 8  207 292 
 ZAR  HZ I         3 7 38.16        30.1 0.46            122            207 292 
 NOR  HZ EP   1    3 7 10.55                             118    0.30 6  237 235 
 NOR  HN ES        3 7 38.62                             118    0.36 8  237 235 
 SML  HZ EP   1    3 7 10.20                             117   -0.74 6  244 335 
 SML  HN ES   1    3 7 39.35                             117   -0.15 6  244 335 
 SML  HZ I         3 7 47.06        23.6 0.06            118            244 335 
 CHI  HZ EP   1    3 7 12.37                             117    0.30 6  250 196 
 CHI  HN ES        3 7 41.78                             117    0.27 8  250 196 
 CHI  HZ I         3 7 46.14         4.1 0.25            118            250 196 
 HEL  HZ EP        3 7 14.13                             114   -0.65 8  275 256 
 HEL  HN ES   1    3 7 46.10                             114   -0.23 6  275 256 
 GUY2CHZ EP   1    3 7 18.54                             112    0.38 5  304 235 
 GUY2CHN ES   4    3 7 53.71                             112    1.36 0  304 235 
 GUY2CHZ I         3 8  0.57         5.7 0.28                           304 235 
                                                                                
