 2014  218 0833  2.6 L   6.807 -73.134147.6  RSN 12 0.4 1.7LRSN                1
 GAP= 71        0.76       2.4     2.9  4.6 -0.2093E+00  0.3322E+01  0.5164E+00E
 Epicentro: LOS SANTOS - SANTANDER                                             3
 ACTION:UPD 14-03-10 08:11 OP:ep   STATUS:               ID:20140218083302 L   I
 OLDACT:REG 14-02-18 10:02 OP:fm   STATUS:               ID:20140218083000     3
 2014-02-18-0830-00M.COL___212                                                 6
 STAT SP IPHASW D HRMM SECON CODA AMPLIT PERI AZIMU VELO AIN AR TRES W  DIS CAZ7
 BAR2 SZ EP        833 22.38                             170   -0.1110 24.4 193 
 BAR2 SZ ES        833 38.21                             170    0.2210 24.4 193 
 BAR2 SZ I         833 39.08        15.9 0.22            169           24.4 193 
 PAM  SZ IP     D  833 25.19                             152    0.2510 76.0  39 
 PAM  SN ES        833 42.46                             152    0.1010 76.0  39 
 PAM  SZ I         833 44.41        12.4 0.56            155           76.0  39 
 RUS  HZ EP        833 26.35                             144   -0.2510  101 177 
 RUS  HN ES        833 45.23                             144   -0.0710  101 177 
 RUS  HZ I         833 46.69         3.3 0.42            146            101 177 
 PTB  HZ EP   1    833 29.44                             132   -0.42 7  149 259 
 PTB  HN ES        833 50.70                             132   -0.41 9  149 259 
 PTB  HZ I         833 57.76         5.9 0.54            132            149 259 
 TAM  HZ EP     D  833 30.51                             131    0.17 9  154 105 
 OCA  HN ES   1    833 52.73                             130   -0.43 7  160 353 
 OCA  HZ I         833 57.22         5.3 0.32            132            160 353 
 SPBC HZ EP   1    833 31.49                             129    0.10 7  165 219 
 ZAR  HZ EP        833 35.21                             123   -0.06 9  205 292 
 ZAR  HN ES        834  0.89                             123    0.14 9  205 292 
 ZAR  HZ I         834  4.78         4.3 0.58            123            205 292 
 SML  HZ EP   1    833 38.57                             118   -0.75 6  244 335 
 SML  HE ES   1    834  8.50                             118    0.54 6  244 335 
 SML  HZ I         834  9.89         9.3 0.10            119            244 335 
 CHI  HZ EP   1    833 40.60                             117    0.07 6  250 195 
 CHI  HN ES        834  9.78                             117   -0.33 8  250 195 
 CHI  HZ I         834 17.70         1.5 0.60            119            250 195 
 GUY2CHZ EP   2    833 47.68                             113    1.20 4  303 235 
 GUY2CHE ES        834 21.50                             113    0.81 7  303 235 
 GUY2CHE I         834 28.66         6.2 0.64                           303 235 
 PRA  HZ EP   2    833 57.08                             107    0.73 3  393 210 
                                                                                
