 2016  118 0949 38.0 L   6.825 -73.121155.4  RSN  5 0.4 1.2LRSN                1
 GAP=138        0.88       5.3     5.0  8.0  0.2855E+01  0.1911E+02 -0.1139E+01E
 Epicentro: LOS SANTOS - SANTANDER                                             3
 ACTION:UPD 16-03-09 23:26 OP:cam  STATUS:               ID:20160118094938 L   I
 OLDACT:UP  16-01-18 18:14 OP:mh   STATUS:               ID:20160118094744     3
 OLDACT:UP  16-01-18 18:14 OP:mh   STATUS:               ID:20160118094744     3
 OLDACT:REG 16-01-18 13:00 OP:mh   STATUS:               ID:20160118094744     3
 2016-01-18-0947-44M.COL___319                                                 6
 STAT SP IPHASW D HRMM SECON CODA AMPLIT PERI AZIMU VELO AIN AR TRES W  DIS CAZ7
 BAR2 EZ EP        949 58.81                             170   -0.0110 26.6 195 
 BAR2 EZ ES        950 15.38                             170    0.2910 26.6 195 
 BAR2 EZ I         950 16.48         3.6 0.36            170           26.6 195 
 PAM  EN ES        950 18.70                             154   -0.2710 73.6  39 
 PAM  EZ I         950 21.35         3.2 0.69            156           73.6  39 
 RUS  HZ EP   1    950  3.03                             145    0.18 7  103 178 
 RUS  HN ES        950 22.36                             145    0.0910  103 178 
 RUS  HZ I         950 23.09         1.1 0.16            149            103 178 
 PTB  HZ EP        950  6.04                             133    0.03 9  151 258 
 PTB  HN ES        950 27.20                             133   -0.69 9  151 258 
 PTB  HZ I         950 32.72         2.5 0.22            134            151 258 
 ZAR  HZ EP   1    950 10.91                             124   -0.29 6  206 291 
 ZAR  HN ES        950 37.80                             124    0.67 8  206 291 
 ZAR  HZ I         950 44.88         1.9 0.48            125            206 291 
                                                                                
