 2014 1218 0941  0.4 L   6.777 -73.183148.1  RSN  6 0.5 1.5LRSN                1
 GAP=139        1.23       5.7     6.1  9.1 -0.3096E+01  0.1372E+02  0.1586E+02E
 Epicentro: LOS SANTOS - SANTANDER                                             3
 ACTION:UPD 15-02-10 17:04 OP:nd   STATUS:               ID:20141218094100 L   I
 OLDACT:REG 14-12-18 13:16 OP:fm   STATUS:               ID:20141218093745     3
 2014-12-18-0937-45M.COL___293                                                 6
 STAT SP IPHASW D HRMM SECON CODA AMPLIT PERI AZIMU VELO AIN AR TRES W  DIS CAZ7
 BAR2 EZ EP        941 20.46                             172    0.2610 20.4 180 
 BAR2 EZ ES        941 35.00                             172   -0.6910 20.4 180 
 BAR2 EZ I         941 36.86        11.1 0.12            169           20.4 180 
 BRR  HE ES        941 39.18                             154    0.9710 68.9 302 
 PAM  SZ EP        941 23.33                             150    0.2410 82.0  41 
 PAM  SN ES        941 40.53                             150   -0.3010 82.0  41 
 PAM  SZ I         941 42.72         4.6 0.54            154           82.0  41 
 ZAR  HZ EP        941 32.15                             123   -0.50 9  201 293 
 ZAR  HN ES        941 57.66                             123   -0.19 9  201 293 
 ZAR  HZ I         942  5.33         2.4 0.26            123            201 293 
 NOR  HE ES        942  2.79                             120   -0.47 8  230 234 
 NOR  HZ I         942  8.60         2.9 0.14            119            230 234 
 CHI  HZ EP        941 37.84                             118    0.04 8  245 194 
 CHI  HE ES        942  7.51                             118    0.51 8  245 194 
 CHI  HZ I         942 15.45         1.5 0.52            118            245 194 
                                                                                
