 2017  118 0307 58.2 L   6.752 -73.194151.1  RSN  4 0.3 1.2LRSN                1
 GAP=228        0.88       7.1     6.7  7.1  0.2302E+02  0.4277E+01  0.1168E+01E
 Epicentro: VILLANUEVA - SANTANDER                                             3
 ACTION:UPD 17-05-22 16:00 OP:jn   STATUS:               ID:20170118030758 L   I
 OLDACT:REG 17-01-18 12:40 OP:dani STATUS:               ID:20170118025745     3
 2017-01-18-0258-00M.COL___331                                                 6
 STAT SP IPHASW D HRMM SECON CODA AMPLIT PERI AZIMU VELO AIN AR TRES W  DIS CAZ7
 BAR2 EZ EP        3 8 17.79                             173   -0.5510 17.7 176 
 BAR2 EZ ES        3 8 34.49                             173    0.4110 17.7 176 
 BAR2 EZ I         3 8 37.35         3.1 0.30            171           17.7 176 
 BRR  HZ EP        3 8 19.78                             154   -0.0210 69.4 305 
 BRR  HE ES        3 8 36.60                             154   -0.0710 69.4 305 
 BRR  HZ I         3 8 39.94         6.1 0.35            153           69.4 305 
 RUS  HZ EP        3 8 22.20                             146    0.0810 95.8 173 
 RUS  HN ES        3 8 40.68                             146   -0.1110 95.8 173 
 RUS  HZ I         3 8 41.95         1.7 0.31            148           95.8 173 
 PTB  HZ EP        3 8 25.60                             134    0.57 9  142 261 
 PTB  HN ES        3 8 45.69                             134   -0.28 9  142 261 
 PTB  HZ I         3 8 51.28         1.9 0.34            135            142 261 
                                                                                
