 2013 1118 0805  9.1 L   5.968 -73.752104.4  RSN  8 0.4 1.2LRSN                1
 GAP= 83        0.97       2.8     3.1  6.5 -0.1825E+01  0.4040E+01  0.1240E+01E
 Epicentro: GUAVATA - SANTANDER                                                3
 ACTION:UPD 14-01-09 16:29 OP:ep   STATUS:               ID:20131118080509 L   I
 OLDACT:DUP 13-11-18 11:39 OP:mh   STATUS:               ID:20131118080001d    3
 2013-11-18-0800-00M.COL___279                                                 6
 STAT SP IPHASW D HRMM SECON CODA AMPLIT PERI AZIMU VELO AIN AR TRES W  DIS CAZ7
 SPBC HZ EP        8 5 24.78                             153    0.0510 49.8 225 
 SPBC HN ES        8 5 36.78                             153   -0.1210 49.8 225 
 SPBC HZ I         8 5 38.90         4.6 0.15            156           49.8 225 
 RUS  HZ EP        8 5 27.20                             142    0.2610 74.5  96 
 RUS  HN ES        8 5 40.99                             142    0.1610 74.5  96 
 RUS  HZ I         8 5 45.67         2.4 0.31            145           74.5  96 
 BAR2 SZ EP        8 5 28.51                             135    0.3810 93.5  42 
 BAR2 SZ ES        8 5 43.09                             135    0.1510 93.5  42 
 PTB  HZ EP        8 5 27.41                             132   -1.0210  100 309 
 PTB  HN ES        8 5 43.55                             132    0.0710  100 309 
 PTB  HZ I         8 5 45.12         2.0 0.17            137            100 309 
 BRR  HZ EP        8 5 30.84                             125   -0.0110  126   2 
 BRR  HN ES        8 5 47.63                             125   -0.1610  126   2 
 BRR  HZ I         8 5 54.19         2.4 0.21            130            126   2 
 NOR  HZ EP   1    8 5 31.66                             124    0.18 7  132 250 
 NOR  HE ES   1    8 5 48.97                             124    0.06 7  132 250 
 NOR  HZ I         8 5 50.92        13.5 0.19            129            132 250 
 CHI  HZ EP        8 5 33.35                             121   -0.29 9  148 179 
 CHI  HN ES        8 5 52.31                             121   -0.45 9  148 179 
 CHI  HZ I         8 5 58.77         1.5 0.17            124            148 179 
 GUY2CHZ EP        8 5 39.46                             113    0.42 9  197 245 
 GUY2CHN ES        8 6  2.97                             113    0.61 9  197 245 
 SJC  HZ EP   4    8 4 56.86                              95   -73.2 0  462 340 
 SJC  HN ES   4    8 5 23.25                              95   -94.4 0  462 340 
                                                                                
