 2015  918 0532 42.2 L   6.763 -73.175154.0  RSN  6 0.2 1.5LRSN                1
 GAP=243        0.63       3.2     6.5  6.1 -0.3823E+01 -0.1075E+02 -0.3952E+01E
 Epicentro: LOS SANTOS - SANTANDER                                             3
 ACTION:UPD 15-10-28 16:27 OP:cam  STATUS:               ID:20150918053242 L   I
 OLDACT:UP  15-09-18 18:39 OP:mh   STATUS:               ID:20150918052743     3
 OLDACT:UP  15-09-18 18:39 OP:mh   STATUS:               ID:20150918052743     3
 OLDACT:UP  15-09-18 18:36 OP:mh   STATUS:               ID:20150918052743     3
 OLDACT:REG 15-09-18 12:32 OP:mh   STATUS:               ID:20150918052743     3
 2015-09-18-0527-43M.COL___352                                                 6
 STAT SP IPHASW D HRMM SECON CODA AMPLIT PERI AZIMU VELO AIN AR TRES W  DIS CAZ7
 BAR2 EZ I         533 19.28         6.4 0.21            170           18.9 183 
 BRR  HZ EP        533  3.93                             154   -0.2310 70.5 303 
 BRR  HZ I         533 21.48         7.0 0.80            155           70.5 303 
 BRR  HN ES        533 21.61                             154    0.2810 70.5 303 
 PTB  HZ EP        533  9.47                             135    0.00 9  144 260 
 PTB  HN ES        533 30.38                             135   -0.39 9  144 260 
 PTB  HZ I         533 34.01         1.3 0.10            133            144 260 
 SPBC HN ES        533 33.24                             132    0.06 9  158 219 
 SPBC HZ I         533 38.28         3.9 0.42            129            158 219 
 ZAR  HZ EP        533 15.38                             124    0.37 9  203 294 
 ZAR  HN ES        533 40.84                             124    0.20 9  203 294 
 ZAR  HZ I         533 47.76         2.0 0.20            123            203 294 
 SML  HZ EP        533 19.55                             119    0.03 8  246 336 
 SML  HN ES        533 48.35                             119   -0.31 8  246 336 
 SML  HZ I         533 50.98         3.4 0.06            117            246 336 
                                                                                
