 2014  118 0004 60.0 L   6.758 -73.172147.1  RSN  4 0.2 1.2LRSN                1
 GAP=135        0.49       3.0     3.0  5.7 -0.2225E+01  0.4732E+01 -0.5378E-01E
 Epicentro: LOS SANTOS - SANTANDER                                             3
 ACTION:UPD 14-03-13 09:56 OP:ep   STATUS:               ID:20140118000460 L   I
 OLDACT:REG 14-01-18 10:10 OP:cam  STATUS:               ID:20140118000000     3
 2014-01-18-0000-00M.COL___285                                                 6
 STAT SP IPHASW D HRMM SECON CODA AMPLIT PERI AZIMU VELO AIN AR TRES W  DIS CAZ7
 BRR  HZ EP   2    0 5 21.53                             153    0.26 5 71.0 303 
 PAM  SZ EP   1    0 5 22.42                             149   -0.25 7 82.8  39 
 PAM  SN ES        0 5 40.42                             149    0.0510 82.8  39 
 PAM  SZ I         0 5 41.97         4.1 0.62            154           82.8  39 
 RUS  HZ EP        0 5 23.82                             145    0.2610 96.3 174 
 RUS  HN ES        0 5 41.81                             145   -0.1410 96.3 174 
 RUS  HZ I         0 5 43.60         1.3 0.44            149           96.3 174 
 PTB  HZ EP   1    0 5 26.47                             133   -0.26 7  144 260 
 PTB  HN ES        0 5 47.63                             133    0.04 9  144 260 
 PTB  HZ I         0 5 53.22         3.2 0.32            134            144 260 
                                                                                
