 2012 1118 0512 45.9 L   6.776 -73.148146.5  RSN 10 0.4 1.6LRSN                1
 GAP=137        0.74       3.5     4.4  5.7  0.1073E+01  0.6467E+01  0.6885E+01E
 Epicentro: LOS SANTOS - SANTANDER                                             3
 ACTION:UPD 12-12-05 15:34 OP:}ep  STATUS:               ID:20121118051245 L   I
 2012-11-18-0510-00M.COL___234                                                 6
 STAT SP IPHASW D HRMM SECON CODA AMPLIT PERI AZIMU VELO AIN AR TRES W  DIS CAZ7
 BAR2 SZ EP   1    513  5.55                             172   -0.06 7 20.7 190 
 BAR2 SZ ES   1    513 20.38                             172   -0.57 7 20.7 190 
 BAR2 SZ I         513 22.13        13.1 0.34                          20.7 190 
 GIR2 SZ ES   1    513 21.36                             166    0.13 7 33.8 352 
 BRR  HZ EP   1    513  7.63                             152    0.40 7 72.2 300 
 BRR  HE ES   1    513 24.53                             152    0.70 7 72.2 300 
 BRR  HZ I         513 27.91         6.6 0.39                          72.2 300 
 PAM  SZ EP   1    513  8.48                             150    0.11 7 79.6  38 
 PAM  SN ES   1    513 25.60                             150   -0.26 7 79.6  38 
 PAM  SZ I         513 27.56         8.1 0.40                          79.6  38 
 RUS  HZ EP   1    513  9.44                             145   -0.14 7 98.0 176 
 RUS  HN ES   1    513 28.46                             145    0.45 7 98.0 176 
 RUS  HZ I         513 28.93         3.3 0.54                          98.0 176 
 PTB  HZ EP   1    513 12.28                             132   -0.62 7  147 260 
 PTB  HN ES   1    513 33.50                             132   -0.42 7  147 260 
 PTB  HZ I         513 39.42         6.5 0.26                           147 260 
 ZAR  HN ES   1    513 44.06                             122    0.15 6  205 293 
 ZAR  HZ I         513 54.52         4.2 0.28                           205 293 
 CHI  HZ EP   1    513 23.50                             117    0.10 6  246 195 
 CHI  HN ES   1    513 52.30                             117   -0.31 6  246 195 
 CHI  HZ I         513 59.15         2.0 0.48                           246 195 
 SML  HN ES   2    513 51.07                             117   -0.57 4  246 336 
 PRA  HZ EP   1    513 39.98                             107    0.77 4  390 210 
 PRA  HN ES   1    514 20.93                             107    0.18 4  390 210 
 PRA  HZ I         514 26.85         2.1 0.32                           390 210 
                                                                                
