 2010 1018 0633 11.6 L   6.836 -73.021139.2  RSN  5 0.2 1.5LRSN                1
 GAP=172        0.44       2.9     5.6  6.8 -0.3172E+01 -0.1542E+02  0.3495E+01E
 Epicentro: CEPITA - SANTANDER                                                 3
 ACTION:UP  11-02-18 11:10 OP:tino STATUS:               ID:20101018063311 L   I
 2010-10-18-0628-36S.COL___123                                                 6
 STAT SP IPHASW D HRMM SECON CODA AMPLIT PERI AZIMU VELO SNR AR TRES W  DIS CAZ7
 BAR2 SZ EP        633 30.66                             166     0.010   32 214 
 BAR2 SZ I         633 46.61         7.9 0.10                            32 214 
 BRR  HZ EP   1    633 32.59                             148    -0.1 7   82 291 
 BRR  HE ES   1    633 49.16                             148     0.0 7   82 291 
 BRR  HZ I         633 50.50         9.9 0.06                            82 291 
 RUS  HZ EP   1    633 34.76                             141    -0.2 7  105 184 
 RUS  HE ES   2    633 53.53                             141     0.3 5  105 184 
 RUS  HZ I         633 54.77         2.3 0.38                           105 184 
 GRA  SZ EP   1    633 35.74                             137     0.1 7  118  12 
 GRA  SZ ES   1    633 54.24                             137    -0.1 7  118  12 
 GRA  SZ I         633 56.41         4.3 0.34                           118  12 
 OCA  SZ EP   2    633 39.55                             128     0.3 5  159 348 
 OCA  SZ I         634  4.56         5.3 0.14                           159 348 
                                                                                
