 2017  318 0336 28.1 L   6.817 -73.397124.0  RSN  5 0.3 1.2LRSN                1
 GAP=184        0.83       5.9     5.1  6.8  0.1486E+02  0.7020E+01  0.8103E+01E
 Epicentro: SAN VICENTE DE CHUCURI - SANTANDER                                 3
 ACTION:UPD 17-05-25 18:41 OP:jn   STATUS:               ID:20170318033628 L   I
 OLDACT:REG 17-03-18 13:18 OP:cog  STATUS:               ID:20170318032740     3
 2017-03-18-0328-00M.COL___367                                                 6
 STAT SP IPHASW D HRMM SECON CODA AMPLIT PERI AZIMU VELO AIN AR TRES W  DIS CAZ7
 BAR2 EZ EP        336 45.35                             164   -0.1110 34.4 136 
 BAR2 EZ ES        336 58.38                             164   -0.6110 34.4 136 
 BRR  HZ EP        336 45.80                             158    0.1710 47.3 313 
 BRR  HN ES        336 59.69                             158    0.4010 47.3 313 
 BRR  HZ I         337  1.60         6.2 0.28            156           47.3 313 
 RUS  HZ EP        336 50.47                             137    0.0610  108 161 
 RUS  HN ES        337  8.24                             137    0.4510  108 161 
 PTB  HZ EP        336 50.62                             133   -0.2810  121 255 
 PTB  HE ES        337  8.58                             133   -0.0910  121 255 
 PTB  HZ I         337 12.38         1.7 0.16            132            121 255 
 ZAR  HN ES   3    337 18.58                             121    0.03 2  178 295 
                                                                                
