 2017  518 0941 18.7 L   7.178 -73.079163.5  RSN  4 0.4 1.7LRSN                1
 GAP=293        0.73       5.9     9.5  7.6  0.1252E+02 -0.1455E+02 -0.3260E+01E
 Epicentro: BUCARAMANGA - SANTANDER                                            3
 ACTION:UPD 17-06-16 13:37 OP:jn   STATUS:               ID:20170518094118 L   I
 OLDACT:REG 17-05-18 12:50 OP:edw  STATUS:               ID:20170518093729     3
 2017-05-18-0938-00M.COL___344                                                 6
 STAT SP IPHASW D HRMM SECON CODA AMPLIT PERI AZIMU VELO AIN AR TRES W  DIS CAZ7
 BRR  HZ EP   2    941 41.73                             156   -0.04 5 70.3 264 
 BRR  HE ES        941 59.79                             156    0.0410 70.3 264 
 BRR  HZ I         942  1.04         7.0 0.26            151           70.3 264 
 PTB  HZ EP        941 48.74                             132   -0.21 9  168 245 
 PTB  HN ES        942 12.03                             132   -0.50 9  168 245 
 PTB  HZ I         942 14.59         3.6 0.44            129            168 245 
 ZAR  HZ EP        941 51.77                             127   -0.16 9  199 280 
 ZAR  HN ES        942 18.26                             127    0.43 9  199 280 
 ZAR  HZ I         942 19.83         4.3 0.36            126            199 280 
 SPBC HZ EP   2    941 53.05                             127    0.83 4  201 213 
 SPBC HE ES        942 18.62                             127    0.27 9  201 213 
 SPBC HZ I         942 28.59         4.6 0.22            123            201 213 
                                                                                
