 2017  218 0651  0.9 L   6.775 -73.137146.3  RSN 11 0.3 1.9LRSN                1
 GAP=121        0.68       2.5     2.7  3.7  0.6733E+00  0.2654E+01  0.2944E+01E
 Epicentro: LOS SANTOS - SANTANDER                                             3
 ACTION:UPD 17-05-24 15:37 OP:jn   STATUS:               ID:20170218065100 L   I
 OLDACT:DUP 17-02-18 18:02 OP:cara STATUS:               ID:20170218064747d    3
 2017-02-18-0648-00M.COL___345                                                 6
 STAT SP IPHASW D HRMM SECON CODA AMPLIT PERI AZIMU VELO AIN AR TRES W  DIS CAZ7
 BAR2 EZ EP        651 20.66                             171    0.0710 20.8 194 
 BAR2 EZ ES        651 36.02                             171    0.1110 20.8 194 
 BAR2 EZ I         651 38.49        28.7 0.28            169           20.8 194 
 BRR  HZ EP        651 22.53                             152    0.2510 73.4 300 
 BRR  HN ES        651 39.17                             152    0.2610 73.4 300 
 BRR  HZ I         651 43.52        16.6 0.26            149           73.4 300 
 PAM  EZ EP     C  651 23.44                             150    0.1310 79.0  38 
 PAM  EN ES        651 40.31                             150   -0.4510 79.0  38 
 PAM  EZ I         651 43.42         9.9 0.64            154           79.0  38 
 RUS  HZ EP        651 24.77                             145    0.2310 97.7 177 
 RUS  HN ES        651 43.04                             145    0.0910 97.7 177 
 RUS  HZ I         651 44.70         9.0 0.32            145           97.7 177 
 PTB  HZ EP        651 27.46                             132   -0.53 9  148 260 
 PTB  HN ES        651 48.79                             132   -0.30 9  148 260 
 PTB  HZ I         651 55.05         9.7 0.34            130            148 260 
 ZAR  HZ EP        651 33.80                             122    0.17 8  206 293 
 ZAR  HN ES        651 59.02                             122   -0.10 8  206 293 
 ZAR  HZ I         652  4.48         9.9 0.24            122            206 293 
 CHI  HZ EP        651 38.82                             117    0.41 8  246 196 
 CHI  HN ES        652  7.62                             117   -0.00 8  246 196 
 CHI  HZ I         652 14.33         4.4 0.30            118            246 196 
 PTGC HZ EP        651 43.89                             112   -0.60 7  306 159 
 PTGC HN ES   4    652 17.08                             112   -1.37 0  306 159 
 PTGC HZ I         652 19.47         3.6 0.40            113            306 159 
 CBOC HZ EP        651 48.09                             110    0.20 7  334 253 
 CBOC HN ES        652 24.48                             110   -0.02 7  334 253 
 CBOC HZ I         652 35.39         1.3 0.54            110            334 253 
 PRA  HZ EP        651 54.44                             107    0.19 6  390 210 
 PRA  HE ES        652 35.51                             107   -0.32 6  390 210 
 PRA  HZ I         652 42.88         6.8 0.38            107            390 210 
 SJC  HZ EP   4    651 54.84                             106   -2.02 0  412 327 
 SJC  HN ES   4    652 32.35                             106   -8.13 0  412 327 
 SJC  HZ I         652 50.76         1.6 0.40            106            412 327 
                                                                                
