 2017 1218 0705 23.4 L   6.825 -73.098142.7  RSN  5 0.3 1.5LRSN                1
 GAP=209        0.80       3.5     5.0  6.5 -0.4206E+01  0.7249E+01 -0.4650E+01E
 Epicentro: LOS SANTOS - SANTANDER                                             3
 ACTION:UPD 18-01-04 13:21 OP:rebc STATUS:               ID:20171218070523 L   I
 OLDACT:DUP 17-12-18 17:13 OP:dhb  STATUS:               ID:20171218065745d    3
 OLDACT:REG 17-12-18 13:07 OP:dhb  STATUS:               ID:20171218065744     3
 2017-12-18-0658-00M.COL___448                                                 6
 STAT SP IPHASW D HRMM SECON CODA AMPLIT PERI AZIMU VELO AIN AR TRES W  DIS CAZ7
 BAR2 EZ EP        7 5 42.76                             169   -0.0110 27.3 200 
 BAR2 EZ ES        7 5 57.78                             169   -0.0810 27.3 200 
 BAR2 EZ I         7 5 59.17         6.9 0.20            166           27.3 200 
 PTB  HZ EP        7 5 50.03                             130   -0.64 9  153 258 
 PTB  HN ES        7 6 12.21                             130    0.29 9  153 258 
 PTB  HZ I         7 6 17.74         2.0 0.50            129            153 258 
 OCA  HZ EP        7 5 51.49                             129    0.18 9  158 351 
 OCA  HN ES        7 6 13.08                             129    0.02 9  158 351 
 OCA  HZ I         7 6 15.99         7.5 0.46            131            158 351 
 SPBC HZ EP        7 5 52.07                             127   -0.14 9  169 220 
 SPBC HE ES        7 6 14.93                             127    0.26 9  169 220 
 SPBC HZ I         7 6 21.33         3.7 0.18            128            169 220 
 ZAR  HZ EP        7 5 56.64                             121    0.56 8  208 291 
 ZAR  HE ES        7 6 21.17                             121   -0.38 8  208 291 
 ZAR  HZ I         7 6 26.55         3.7 0.62            121            208 291 
                                                                                
