 2013  218 0408 25.0 L   6.771 -73.128150.5  RSN  7 0.4 1.5LRSN                1
 GAP=140        0.82       4.4     5.8  7.1 -0.1614E+01  0.4890E+01  0.4126E+01E
 Epicentro: LOS SANTOS - SANTANDER                                             3
 ACTION:UPD 13-03-12 09:33 OP:ep   STATUS:               ID:20130218040825 L   I
 2013-02-18-0405-41M.COL___184                                                 6
 STAT SP IPHASW D HRMM SECON CODA AMPLIT PERI AZIMU VELO AIN AR TRES W  DIS CAZ7
 BAR2 SZ EP   1    4 8 45.09                             172   -0.02 7 20.7 197 
 BAR2 SZ ES   1    4 9  1.12                             172    0.29 7 20.7 197 
 BAR2 SZ I         4 9  4.17        11.5 0.48            158           20.7 197 
 BRR  HZ EP     C  4 8 46.97                             152    0.1710 74.5 300 
 BRR  HN ES   1    4 9  4.64                             152    0.80 7 74.5 300 
 BRR  HZ I         4 9  7.72         5.3 0.12            145           74.5 300 
 PAM  SZ EP   1    4 8 47.88                             151    0.13 7 78.6  37 
 PAM  SE ES   1    4 9  5.25                             151   -0.28 7 78.6  37 
 PAM  SZ I         4 9  6.20         3.9 0.22            145           78.6  37 
 RUS  HZ EP   1    4 8 49.19                             146    0.24 7 97.3 177 
 RUS  HN ES   1    4 9  7.13                             146   -0.54 7 97.3 177 
 RUS  HZ I         4 9  8.95         6.0 0.38            128           97.3 177 
 PTB  HZ EP   1    4 8 51.97                             133   -0.47 7  149 260 
 PTB  HN ES   1    4 9 13.38                             133   -0.49 7  149 260 
 PTB  HZ I         4 9 16.64         5.1 0.34            119            149 260 
 OCA  HN ES   1    4 9 16.13                             130   -0.44 7  164 353 
 CHI  HZ EP   1    4 9  3.10                             118    0.45 6  246 196 
 CHI  HZ I         4 9 38.85         1.1 0.26            105            246 196 
                                                                                
