 2012  118 0800 15.0 L   6.755 -73.050140.3  RSN  4 0.2 1.3LRSN                1
 GAP=151        0.49       3.8     5.2  7.3 -0.1243E+01  0.8409E-01 -0.1402E+01E
 Epicentro: LOS SANTOS - SANTANDER                                             3
 ACTION:UP  12-02-03 08:18 OP:REBC STATUS:               ID:20120118080015 L   I
 2012-01-18-0800-00M.COL___187                                                 6
 STAT SP IPHASW D HRMM SECON CODA AMPLIT PERI AZIMU VELO SNR AR TRES W  DIS CAZ7
 BAR2 SZ EP   1    8 0 33.82                             170    -0.1 7   23 219 
 BAR2 SZ I         8 0 50.34         5.7 0.18                            23 219 
 PAM  SZ EP   1    8 0 36.76                             150     0.3 7   75  31 
 PAM  SZ I         8 0 37.49         2.8 0.17                            75  31 
 PAM  SE ES   1    8 0 53.10                             150    -0.1 7   75  31 
 BRR  HZ EP   1    8 0 36.03                             148    -0.2 7   83 298 
 BRR  HZ I         8 0 36.59         4.5 0.12                            83 298 
 BRR  HN ES   1    8 0 52.98                             148     0.1 7   83 298 
 RUS  HN ES   1    8 0 55.66                             144     0.0 7   95 182 
                                                                                
