 2013  518 0238  1.8 L   6.860 -73.316124.8  RSN 12 0.5 2.2LRSN                1
 GAP=101        1.08       2.9     4.1  5.6 -0.3731E+00  0.7614E+01 -0.1130E+01E
 Epicentro: ZAPATOCA - SANTANDER                                               3
 ACTION:UPD 13-06-20 09:51 OP:ep   STATUS:               ID:20130518023801 L   I
 2013-05-18-0230-00M.COL___256                                                 6
 STAT SP IPHASW D HRMM SECON CODA AMPLIT PERI AZIMU VELO AIN AR TRES W  DIS CAZ7
 GIR2 SZ EP        238 19.18                             167    0.2910 27.7  29 
 GIR2 SZ ES        238 31.97                             167   -0.2510 27.7  29 
 GIR2 SZ I         238 33.46        56.5 0.54            168           27.7  29 
 BAR2 SZ EP     C  238 19.53                             164    0.3310 33.1 154 
 BAR2 SZ ES        238 32.69                             164   -0.0810 33.1 154 
 BAR2 SZ I         238 33.87       151.5 0.32            166           33.1 154 
 BRR  HZ IP     D  238 19.89                             156    0.2810 51.5 302 
 BRR  HN ES        238 33.88                             156    0.3810 51.5 302 
 BRR  HZ I         238 35.16        43.0 0.18            155           51.5 302 
 PAM  SZ EP        238 22.91                             143    0.4510 86.3  52 
 PAM  SE ES        238 38.85                             143    0.2810 86.3  52 
 PAM  SZ I         238 41.31        23.6 0.28            146           86.3  52 
 RUS  HZ EP   1    238 24.40                             136    0.06 7  110 166 
 RUS  HE ES        238 41.40                             136   -0.5210  110 166 
 RUS  HZ I         238 43.15         8.1 0.24            138            110 166 
 PTB  HZ EP        238 24.76                             130   -0.7910  131 254 
 PTB  HN ES   4    238 41.92                             130   -2.15 0  131 254 
 PTB  HZ I         238 46.78        31.5 0.26            131            131 254 
 OCA  HZ EP        238 27.71                             126   -0.09 9  152 360 
 OCA  HN ES        238 47.55                             126   -0.52 9  152 360 
 OCA  HZ I         238 51.89        29.2 0.12            127            152 360 
 ZAR  HZ EP        238 31.20                             120    0.36 9  184 292 
 ZAR  HN ES        238 53.96                             120    0.47 9  184 292 
 ZAR  HZ I         238 56.34        20.4 0.36            121            184 292 
 NOR  HN ES        239  1.33                             115    0.07 8  224 230 
 NOR  HZ I         239  7.42        14.3 0.50            116            224 230 
 SML  HZ EP        238 36.16                             114    0.32 8  230 339 
 SML  HN ES        239  1.27                             114   -1.11 8  230 339 
 CHI  HZ EP   1    238 39.20                             112    0.51 6  251 191 
 CHI  HN ES   1    239  6.79                             112   -0.68 6  251 191 
 SDV  BZ EP   1    238 52.10                             104   -0.28 5  371  53 
                                                                                
