 2011  718 0005 44.3 L   6.781 -73.137146.2  RSN 14 0.4 2.2LRSN                1
 GAP=127        0.76       3.2     4.7  4.5 -0.6655E+01  0.2657E+01  0.1192E+00E
 Epicentro: LOS SANTOS - SANTANDER                                             3
 ACTION:UPD 12-07-25 14:01 OP:epov STATUS:               ID:20110718000544 L   I
 2011-07-18-0003-54S.COL___143                                                 6
 STAT SP IPHASW D HRMM SECON CODA AMPLIT PERI AZIMU VELO AIN AR TRES W  DIS CAZ7
 BTL  SZ EP        0 6  4.15                             171    0.2410 21.0 317 
 BTL  SZ ES   1    0 6 19.53                             171    0.30 7 21.0 317 
 BAR2 SZ EP        0 6  3.99                             171    0.0710 21.4 193 
 BAR2 SZ ES   1    0 6 19.54                             171    0.30 7 21.4 193 
 BAR2 SZ I         0 6 20.59        34.8 0.22                          21.4 193 
 GIR2 SZ EP        0 6  4.07                             166    0.0110 33.5 349 
 GIR2 SZ ES   1    0 6 19.42                             166   -0.08 7 33.5 349 
 BRR  HZ EP        0 6  5.94                             152    0.3710 73.1 300 
 BRR  HZ I         0 6 27.04        58.1 0.14                          73.1 300 
 PAM  SZ EP   1    0 6  6.74                             151    0.14 7 78.5  38 
 PAM  SN ES   2    0 6 23.71                             151   -0.30 5 78.5  38 
 RUS  HZ EP        0 6  7.85                             145   -0.0610 98.4 177 
 RUS  HN ES   1    0 6 25.78                             145   -0.57 7 98.4 177 
 RUS  HZ I         0 6 29.39        15.9 0.35                          98.4 177 
 BRI  SZ EP        0 6  8.56                             141    0.2310  110  20 
 BRI  SZ I         0 6 31.98        13.6 0.31                           110  20 
 OCA  SZ EP        0 6 12.70                             129   -0.13 9  163 353 
 OCA  SZ ES   2    0 6 34.69                             129   -0.41 5  163 353 
 OCA  SZ I         0 6 37.88        26.9 0.40                           163 353 
 NOR  SZ EP   2    0 6 19.18                             119   -0.80 4  234 235 
 NOR  SN ES   1    0 6 47.14                             119   -0.69 6  234 235 
 CHI  HZ EP   1    0 6 21.85                             118    0.05 6  247 196 
 CHI  HE ES   1    0 6 51.11                             118    0.04 6  247 196 
 CHI  HZ I         0 6 57.26        10.8 0.33                           247 196 
 HEL  HZ EP   2    0 6 25.42                             115    0.87 4  272 256 
 HEL  HN ES   1    0 6 55.07                             115   -0.90 6  272 256 
 TOL  SZ EP   2    0 6 33.54                             110    1.09 3  343 225 
 SDV  BZ EP        0 6 33.46                             108   -0.94 6  361  50 
 SDV  BZ I         0 7 12.74         5.3 0.29                           361  50 
 PRA  HZ EP   1    0 6 37.77                             107    0.13 4  391 210 
 PRA  HN ES   1    0 7 19.89                             107    0.62 4  391 210 
                                                                                
