 2011  518 0711 13.5 L   6.790 -73.099140.4  RSN  8 0.2 1.8LRSN                1
 GAP=143        0.48       2.4     4.2  4.0 -0.2412E+01  0.2570E+01 -0.6676E+00E
 Epicentro: LOS SANTOS - SANTANDER                                             3
 ACTION:UP  11-06-29 08:54 OP:tino STATUS:               ID:20110518071113 L   I
 2011-05-18-0711-28S.COL___141                                                 6
 STAT SP IPHASW D HRMM SECON CODA AMPLIT PERI AZIMU VELO SNR AR TRES W  DIS CAZ7
 BAR2 SZ EP        711 32.57                             170     0.110   24 203 
 BAR2 SZ ES   1    711 47.23                             170    -0.1 7   24 203 
 BAR2 SZ I         711 48.82        18.9 0.27                            24 203 
 GIR2 SZ EP   1    711 32.60                             166     0.0 7   34 342 
 PAM  SZ EP   1    711 35.47                             151     0.5 7   75  36 
 PAM  SE ES   1    711 51.75                             151     0.0 7   75  36 
 BRR  HZ EP        711 34.38                             150     0.010   76 297 
 BRR  HZ I         711 34.84        18.8 0.10                            76 297 
 BRR  HE ES   1    711 50.84                             150     0.2 7   76 297 
 RUS  HZ EP   1    711 36.48                             143    -0.1 7   99 179 
 RUS  HE ES   1    711 54.51                             143    -0.1 7   99 179 
 RUS  HZ I         711 56.22         5.3 0.27                            99 179 
 GRA  SZ EP   1    711 38.28                             136     0.1 7  125  15 
 GRA  SZ I         711 39.83        10.1 0.22                           125  15 
 GRA  SZ ES   1    711 57.18                             136    -0.3 7  125  15 
 OCA  SZ EP   1    711 41.39                             128    -0.2 7  162 351 
 OCA  SZ ES   2    712  3.25                             128    -0.2 5  162 351 
 OCA  SZ I         712  6.34         5.9 0.27                           162 351 
 NOR  SZ EP   1    711 49.10                             117    -0.2 6  238 235 
                                                                                
