 2011  718 0942 41.1 L   6.813 -73.092144.0  RSN 11 0.4 2.0LRSN                1
 GAP=161        0.67       2.9     5.6  6.2 -0.6095E+01  0.2740E+01  0.3599E+01E
 Epicentro: LOS SANTOS - SANTANDER                                             3
 ACTION:UPD 12-07-25 14:01 OP:epov STATUS:               ID:20110718094241 L   I
 2011-07-18-0941-08S.COL___143                                                 6
 STAT SP IPHASW D HRMM SECON CODA AMPLIT PERI AZIMU VELO AIN AR TRES W  DIS CAZ7
 BTL  SZ EP        943  0.66                             171    0.1610 22.7 301 
 BAR2 SZ EP        943  0.53                             169   -0.0510 26.4 202 
 BAR2 SZ I         943 19.06        40.2 0.49                          26.4 202 
 BRR  HZ EP        943  2.29                             150   -0.0310 75.8 295 
 BRR  HN ES   1    943 18.82                             150   -0.06 7 75.8 295 
 BRR  HZ I         943 22.71        13.7 0.19                          75.8 295 
 RUS  HZ EP   1    943  4.51                             143   -0.25 7  102 179 
 RUS  HN ES   1    943 23.16                             143   -0.06 7  102 179 
 RUS  HZ I         943 25.08        10.1 0.20                           102 179 
 BRI  SZ EP   2    943  4.98                             142    0.42 5  105  18 
 GRA  SZ EP        943  6.27                             137    0.3410  123  15 
 GRA  SZ ES   1    943 25.39                             137    0.10 7  123  15 
 GRA  SZ I         943 26.99        19.7 0.33                           123  15 
 OCA  SZ EP   1    943  9.20                             129   -0.01 7  160 351 
 OCA  SZ ES   1    943 30.47                             129   -0.67 7  160 351 
 OCA  SZ I         943 32.14         7.3 0.09                           160 351 
 NOR  SZ EP   2    943 16.61                             117   -0.73 4  240 235 
 CHI  HZ EP   2    943 18.05                             116   -0.98 4  252 196 
 CHI  HZ I         943 52.17         3.7 0.20                           252 196 
 RREF HZ EP   1    943 27.97                             110    0.18 5  327 230 
 RREF HN ES   1    944  5.21                             110    1.00 5  327 230 
 RREF HZ I         944 12.56         4.9 0.22                           327 230 
 PRA  HZ EP   1    943 35.15                             106    0.10 4  396 210 
 PRA  HE ES   1    944 16.73                             106   -0.41 4  396 210 
                                                                                
