 2016  218 0053 58.6 L   6.798 -73.148153.8  RSN  5 0.4 1.7LRSN                1
 GAP=136        1.01       5.0     5.3  8.1 -0.7238E+01  0.2823E+01  0.6922E+01E
 Epicentro: LOS SANTOS - SANTANDER                                             3
 ACTION:UPD 16-03-04 21:27 OP:rebc STATUS:               ID:20160218005358 L   I
 OLDACT:REG 16-02-18 12:30 OP:drio STATUS:               ID:20160218004746     3
 2016-02-18-0047-46M.COL___337                                                 6
 STAT SP IPHASW D HRMM SECON CODA AMPLIT PERI AZIMU VELO AIN AR TRES W  DIS CAZ7
 BRR  HZ EP        054 21.02                             154    0.3710 71.1 299 
 BRR  HN ES        054 38.39                             154    0.5610 71.1 299 
 BRR  HZ I         054 51.21         7.8 0.40            153           71.1 299 
 PAM  EZ EP        054 21.84                             152    0.1110 77.8  40 
 PAM  EN ES        054 39.41                             152   -0.3410 77.8  40 
 PAM  EZ I         054 41.46         6.5 0.62            157           77.8  40 
 RUS  HZ EP        054 23.15                             145   -0.0210  100 176 
 RUS  HN ES        054 42.15                             145   -0.1610  100 176 
 RUS  HZ I         054 44.49         5.2 0.32            152            100 176 
 PTB  HZ EP        054 25.69                             134   -0.55 9  147 259 
 PTB  HN ES        054 47.12                             134   -0.65 9  147 259 
 PTB  HZ I         054 49.10         8.2 0.36            137            147 259 
 SPBC HZ EP        054 28.01                             131    0.28 9  163 219 
 SPBC HN ES        054 50.78                             131    0.36 9  163 219 
 SPBC HZ I         054 55.83         8.2 0.44            136            163 219 
                                                                                
