 2016  718 0317 47.0 L   6.759 -73.136145.5  RSN  8 0.4 1.6LRSN                1
 GAP=140        1.07       4.5     4.3  6.8 -0.1390E+01  0.8940E+01  0.3066E+00E
 Epicentro: LOS SANTOS - SANTANDER                                             3
 ACTION:UPD 17-03-29 16:52 OP:lp   STATUS:               ID:20160718031747 L   I
 OLDACT:DUP 16-07-18 17:47 OP:ar   STATUS:               ID:20160718030701d    3
 OLDACT:DUP 16-07-18 17:43 OP:ar   STATUS:               ID:20160718030760d    3
 2016-07-18-0307-59S.COL___319                                                 6
 STAT SP IPHASW D HRMM SECON CODA AMPLIT PERI AZIMU VELO AIN AR TRES W  DIS CAZ7
 BAR2 EZ EP        318  6.32                             172   -0.1910 19.1 196 
 BAR2 EZ ES        318 21.64                             172   -0.0910 19.1 196 
 BAR2 EZ I         318 22.26         9.1 0.42            172           19.1 196 
 BRR  HZ EP        318  8.44                             151    0.1510 74.4 301 
 BRR  HN ES        318 25.17                             151    0.2610 74.4 301 
 BRR  HZ I         318 28.83         7.6 0.48            150           74.4 301 
 PAM  EZ EP        318  9.48                             150    0.1310 80.3  37 
 PAM  EN ES        318 26.25                             150   -0.5410 80.3  37 
 PAM  EZ I         318 28.57         5.0 0.18            152           80.3  37 
 RUS  HZ EP        318 10.95                             145    0.5710 96.0 176 
 RUS  HN ES        318 28.72                             145    0.0910 96.0 176 
 PTB  HZ EP        318 13.15                             132   -0.80 9  148 261 
 PTB  HN ES        318 35.20                             132    0.21 9  148 261 
 PTB  HZ I         318 36.93         6.3 0.18            132            148 261 
 SPBC HZ EP        318 15.57                             129    0.38 9  160 220 
 SPBC HN ES        318 37.00                             129   -0.20 9  160 220 
 SPBC HZ I         318 41.09         5.5 0.22            131            160 220 
 ZAR  HZ EP        318 19.65                             122   -0.05 8  207 293 
 ZAR  HN ES        318 45.92                             122    0.71 8  207 293 
 ZAR  HZ I         318 51.15         6.3 0.32            122            207 293 
 HEL  HZ EP   4    318 24.70                             115   -2.48 0  272 257 
 HEL  HN ES        318 57.65                             115   -0.88 8  272 257 
 HEL  HZ I         319  0.61         1.9 0.26            116            272 257 
                                                                                
