 2011 1018 0719 41.6 L   7.350 -73.968 76.3  RSN  7 0.3 1.5LRSN                1
 GAP=117        0.42       2.6     1.9  5.3 -0.8122E+00  0.1086E+00  0.1245E+01E
 Epicentro: PUERTO WILCHES - SANTANDER                                         3
 ACTION:UPD 12-07-13 16:04 OP:ep   STATUS:               ID:20111018071941 L   I
 2011-10-18-0718-00S.COL___168                                                 6
 STAT SP IPHASW D HRMM SECON CODA AMPLIT PERI AZIMU VELO AIN AR TRES W  DIS CAZ7
 BRR  HZ EP   1    719 53.01                             150   -0.34 8 39.0 134 
 BRR  HN ES   2    720  2.86                             150    0.32 5 39.0 134 
 BRR  HZ I         720  3.01        16.7 0.18                          39.0 134 
 ZAR  HZ EP   1    719 58.46                             122   -0.18 8 99.5 279 
 ZAR  HN ES   2    720 12.02                             122    0.05 5 99.5 279 
 ZAR  HZ I         720 16.33         9.3 0.12                          99.5 279 
 OCA  SZ EP   2    720  1.47                             116    0.27 5  122  36 
 OCA  SZ ES   2    720 16.61                             116    0.09 5  122  36 
 OCA  SZ I         720 17.15         9.0 0.07                           122  36 
 PAM  SZ EP        720  3.84                             113    0.1410  140  90 
 PAM  SN ES   2    720 20.49                             113   -0.47 5  140  90 
 RUS  HZ EP   2    720  9.54                             106    0.20 5  189 149 
 RUS  HN ES   2    720 31.09                             106    0.08 5  189 149 
 RUS  HZ I         720 32.69         3.0 0.22                           189 149 
 HEL  HN ES   2    720 36.78                             104    0.43 4  215 233 
 HEL  HZ I         720 41.69         2.0 0.30                           215 233 
 NOR  SZ EP   2    720 12.71                             103    0.00 4  221 207 
 NOR  SN ES   2    720 36.82                             103   -0.19 4  221 207 
                                                                                
