 2012  618 0457  6.0 L   6.845 -73.207139.1  RSN  5 0.5 1.5LRSN                1
 GAP=127        0.87       5.3     7.3  9.2 -0.9764E+01  0.1993E+02 -0.1320E+02E
 Epicentro: ZAPATOCA - SANTANDER                                               3
 ACTION:UPD 12-08-06 17:50 OP:ep   STATUS:               ID:20120618045704 L   I
 2012-06-18-0450-00M.COL___199                                                 6
 STAT SP IPHASW D HRMM SECON CODA AMPLIT PERI AZIMU VELO AIN AR TRES W  DIS CAZ7
 BAR2 SZ EP   2    457 24.95                             167   -0.02 5 28.1 174 
 BAR2 SZ ES   1    457 39.05                             167   -0.70 7 28.1 174 
 BAR2 SZ I         457 43.81         7.9 0.38            169           28.1 174 
 PAM  SZ EP        457 27.77                             149    0.1710 78.3  46 
 PAM  SN ES   2    457 44.46                             149    0.04 5 78.3  46 
 RUS  HZ EP        457 29.80                             140    0.2410  106 173 
 RUS  HE ES   2    457 48.75                             140    0.84 5  106 173 
 PTB  HZ EP        457 31.77                             132   -0.18 9  142 256 
 PTB  HN ES   2    457 52.49                             132    0.32 5  142 256 
 OCA  HZ EP        457 32.85                             129   -0.44 9  155 355 
 OCA  HN ES   2    457 55.70                             129    1.14 5  155 355 
                                                                                
