 2017 1218 0738 50.4 L   6.780 -73.155142.3  RSN  5 0.3 1.6LRSN                1
 GAP=195        0.78       3.4     4.8  6.3 -0.3983E+01  0.6910E+01 -0.4856E+01E
 Epicentro: LOS SANTOS - SANTANDER                                             3
 ACTION:UPD 18-01-04 13:21 OP:rebc STATUS:               ID:20171218073850 L   I
 OLDACT:DUP 17-12-18 17:33 OP:dhb  STATUS:               ID:20171218073744d    3
 OLDACT:UP  17-12-18 17:32 OP:dhb  STATUS:               ID:20171218073743     3
 OLDACT:REG 17-12-18 13:13 OP:dhb  STATUS:               ID:20171218073743     3
 2017-12-18-0738-00M.COL___439                                                 6
 STAT SP IPHASW D HRMM SECON CODA AMPLIT PERI AZIMU VELO AIN AR TRES W  DIS CAZ7
 BAR2 EZ IP     D  739  9.50                             171   -0.0810 21.0 188 
 BAR2 EZ ES        739 24.57                             171    0.0510 21.0 188 
 BAR2 EZ I         739 25.87         6.6 0.16            171           21.0 188 
 PTB  HZ EP        739 16.31                             131   -0.66 9  146 260 
 PTB  HN ES        739 37.46                             131   -0.22 9  146 260 
 PTB  HZ I         739 43.26         3.7 0.56            132            146 260 
 SPBC HZ EP        739 18.31                             129   -0.12 9  161 219 
 SPBC HN ES        739 40.70                             129    0.43 9  161 219 
 SPBC HZ I         739 47.06         3.8 0.10            131            161 219 
 OCA  HZ EP        739 18.91                             128    0.26 9  162 354 
 OCA  HN ES        739 40.55                             128   -0.12 9  162 354 
 OCA  HZ I         739 48.22        10.2 0.44            130            162 354 
 ZAR  HZ EP        739 23.06                             122    0.44 9  204 293 
 ZAR  HE ES        739 47.89                             122    0.14 9  204 293 
 ZAR  HZ I         739 54.18         4.3 0.42            122            204 293 
                                                                                
