 2017 1118 0849 11.6 L   6.843 -73.129141.3  RSN  8 0.6 1.8LRSN                1
 GAP= 85        1.47       5.7     5.7  9.2 -0.1140E+02  0.1243E+02 -0.7240E+01E
 Epicentro: LOS SANTOS - SANTANDER                                             3
 ACTION:UPD 17-12-12 19:56 OP:rebc STATUS:               ID:20171118084911 L   I
 OLDACT:REG 17-11-18 11:21 OP:y    STATUS:               ID:20171118083738     3
 2017-11-18-0838-00M.COL___458                                                 6
 STAT SP IPHASW D HRMM SECON CODA AMPLIT PERI AZIMU VELO AIN AR TRES W  DIS CAZ7
 BAR2 EZ EP        849 30.50                             168   -0.3510 28.3 192 
 BAR2 EZ ES        849 45.19                             168   -0.6410 28.3 192 
 BAR2 EZ I         849 46.53        13.0 0.16            168           28.3 192 
 PAM  EZ EP        849 33.20                             152    0.1010 72.6  41 
 PAM  EN ES        849 50.25                             152    0.4210 72.6  41 
 PAM  EZ I         849 52.28        19.4 0.46            153           72.6  41 
 PTB  HZ EP        849 37.50                             130   -1.01 9  151 257 
 PTB  HN ES        849 59.03                             130   -0.44 9  151 257 
 PTB  HZ I         850  0.98         5.1 0.66            131            151 257 
 TAM  HZ EP        849 38.75                             130   -0.17 9  155 107 
 SPBC HZ EP        849 41.09                             127    0.82 9  168 218 
 SPBC HE ES        850  4.02                             127    1.42 9  168 218 
 ZAR  HZ EP        849 43.65                             121   -0.15 9  204 291 
 ZAR  HN ES        850  9.37                             121    0.48 9  204 291 
 ZAR  HZ I         850 11.57         6.8 0.10            122            204 291 
 NOR  HZ EP        849 47.52                             117   -0.06 8  239 234 
 NOR  HN ES        850 15.13                             117   -0.48 8  239 234 
 NOR  HZ I         850 21.63         2.6 0.20            118            239 234 
 DRL03HZ EP        849 52.39                             113   -0.15 7  284 352 
 DRL03HN ES        850 24.87                             113    0.43 7  284 352 
                                                                                
