 2011 1118 0936 17.1 L   6.812 -73.140140.2  RSN  5 0.2 1.3LRSN                1
 GAP=137        0.39       3.2     4.7  6.6  0.1414E+01  0.1311E+02 -0.2105E+01E
 Epicentro: LOS SANTOS - SANTANDER                                             3
 ACTION:UPD 12-07-13 16:10 OP:ep   STATUS:               ID:20111118093617 L   I
 2011-11-18-0931-32S.COL___179                                                 6
 STAT SP IPHASW D HRMM SECON CODA AMPLIT PERI AZIMU VELO AIN AR TRES W  DIS CAZ7
 BAR2 SZ EP   2    936 35.97                             169   -0.15 5 24.7 191 
 BAR2 SZ ES   2    936 50.73                             169   -0.20 5 24.7 191 
 BAR2 SZ I         936 54.45         7.2 0.48                          24.7 191 
 PAM  SZ EP   2    936 38.91                             150    0.24 5 76.0  40 
 PAM  SN ES   2    936 55.75                             150    0.28 5 76.0  40 
 RUS  HZ EP   2    936 40.43                             142    0.00 5  102 176 
 RUS  HE ES   2    936 58.62                             142    0.02 5  102 176 
 RUS  HZ I         936 59.65         1.5 0.37                           102 176 
 OCA  SZ ES   2    937  6.15                             128   -0.41 5  159 353 
 OCA  SZ I         937 12.36         3.7 0.14                           159 353 
 ZAR  HZ EP   2    936 49.03                             121   -0.20 4  204 292 
 ZAR  HN ES   2    937 14.68                             121    0.41 4  204 292 
 ZAR  HZ I         937 20.04         2.4 0.31                           204 292 
                                                                                
