 2012  318 0957 28.2 L   6.502 -73.076  4.0  RSN  4 0.4 0.8LRSN                1
 GAP=156        0.93       3.5     5.9  4.5  0.1150E+02 -0.6990E+01  0.4237E+01E
 ACTION:UP  12-03-31 23:20 OP:EP   STATUS:               ID:20120318095728 L   I
 2012-03-18-0950-00M.COL___202                                                 6
 STAT SP IPHASW D HRMM SECON CODA AMPLIT PERI AZIMU VELO SNR AR TRES W  DIS CAZ7
 BAR2 SZ EP   1    957 31.14                             104    -0.2 7   15 310 
 BAR2 SZ ES   1    957 33.32                             104    -0.5 7   15 310 
 BAR2 SZ I         957 33.97        17.9 0.15                            15 310 
 RUS  HZ EP        957 39.82                              47     0.310   67 181 
 RUS  HZ I         957 40.11         5.4 0.21                            67 181 
 RUS  HN ES   1    957 47.82                              47    -0.5 7   67 181 
 BRR  HZ EP   1    957 43.96                              47     0.5 7   97 314 
 BRR  HZ I         957 47.28         1.9 0.15                            97 314 
 BRR  HN ES   1    957 55.60                              47     0.2 7   97 314 
 PAM  SZ EP   1    957 44.39                              47    -0.2 7  101  24 
                                                                                
