 2014  118 0902 40.4 L   6.830 -73.172145.3  RSN 17 0.4 2.6LRSN                1
 GAP= 69        0.86       2.2     2.6  4.6 -0.2647E+00  0.3715E+01 -0.3503E+00E
 Epicentro: LOS SANTOS - SANTANDER                                             3
 ACTION:UPD 14-03-13 09:56 OP:ep   STATUS:               ID:20140118090240 L   I
 OLDACT:UP  14-01-18 13:35 OP:cam  STATUS:               ID:20140118090000     3
 OLDACT:REG 14-01-18 10:23 OP:cam  STATUS:               ID:20140118090000     3
 2014-01-18-0900-00M.COL___285                                                 6
 STAT SP IPHASW D HRMM SECON CODA AMPLIT PERI AZIMU VELO AIN AR TRES W  DIS CAZ7
 BAR2 SZ EP        9 3  0.11                             169    0.0210 26.4 183 
 BAR2 SZ ES        9 3 15.39                             169   -0.0210 26.4 183 
 BAR2 SZ I         9 3 16.27       201.2 0.24            169           26.4 183 
 PAM  SZ EP     D  9 3  3.07                             151    0.5010 76.7  43 
 PAM  SN ES        9 3 19.98                             151    0.1410 76.7  43 
 PAM  SZ I         9 3 22.04        82.7 0.46            147           76.7  43 
 RUS  HZ EP        9 3  4.12                             143   -0.2910  104 175 
 RUS  HE ES        9 3 23.10                             143   -0.0110  104 175 
 RUS  HZ I         9 3 23.69        70.9 0.26            140            104 175 
 PTB  HZ EP        9 3  6.54                             132   -0.64 9  146 257 
 PTB  HN ES        9 3 27.70                             132   -0.34 9  146 257 
 OCA  HZ EP   1    9 3  8.37                             130   -0.01 7  157 354 
 OCA  HN ES        9 3 30.04                             130   -0.12 9  157 354 
 OCA  HZ I         9 3 33.14        42.8 0.30            127            157 354 
 TAM  HZ EP     D  9 3  8.53                             130    0.10 9  159 106 
 TAM  HZ I         9 3 29.41        21.7 0.36            126            159 106 
 TAM  HN ES        9 3 30.28                             130    0.02 9  159 106 
 ZAR  HZ EP   1    9 3 12.44                             123   -0.02 6  200 292 
 ZAR  HE ES        9 3 37.93                             123    0.50 9  200 292 
 ZAR  HZ I         9 3 43.12        50.7 0.54            120            200 292 
 NOR  HZ EP        9 3 15.92                             118   -0.19 8  234 233 
 NOR  HN ES        9 3 44.65                             118    0.72 8  234 233 
 NOR  HZ I         9 3 49.71        33.7 0.26            116            234 233 
 SML  HZ EP        9 3 16.60                             118    0.02 8  239 336 
 SML  HN ES        9 3 44.62                             118   -0.15 8  239 336 
 SML  HZ I         9 3 49.00        53.5 0.10            115            239 336 
 CHI  HZ EP        9 3 18.12                             117   -0.27 8  251 194 
 CHI  HN ES        9 3 47.66                             117   -0.33 8  251 194 
 CHI  HZ I         9 3 52.81        31.3 0.32            114            251 194 
 ROSC BZ EP   4    9 3 20.17                             116    1.48 0  254 210 
 ROSC BE ES   4    9 3 50.31                             116    1.78 0  254 210 
 HEL  HZ EP   4    9 3 21.11                             115    0.69 0  270 255 
 CVER SZ EP   2    9 3 22.02                             114    1.01 4  274 201 
 URE  HZ EP   2    9 3 20.19                             114   -0.86 4  280 291 
 URE  HE ES   4    9 3 50.75                             114   -1.98 0  280 291 
 URE  HZ I         9 3 59.16        31.2 0.18            111            280 291 
 GUY2CHZ EP   4    9 3 24.38                             112    0.39 0  301 234 
 PTGC HZ EP   4    9 3 23.20                             111   -1.56 0  313 158 
 PTGC HN ES   4    9 3 57.09                             111   -2.23 0  313 158 
 CBOC HZ EP        9 3 28.40                             110    1.25 7  332 251 
 CBOC HN ES        9 4  3.20                             110   -0.37 7  332 251 
 CBOC HZ I         9 4  7.30         7.6 0.58            108            332 251 
 COD  HZ EP   2    9 3 28.01                             109   -0.37 3  345 355 
 COD  HN ES        9 4  5.26                             109   -0.52 7  345 355 
 COD  HZ I         9 4 12.05         8.5 0.44            106            345 355 
 ARGC HZ EP   2    9 3 30.37                             108    0.77 3  355 341 
 ORTC HZ EP   1    9 3 34.58                             106    0.11 4  396 216 
 SJC  HZ EP   4 C  9 3 34.31                             106   -1.16 0  405 327 
 SJC  HN ES   4    9 4 14.92                             106   -3.48 0  405 327 
 SJC  HZ I         9 4 21.34         6.5 0.68            104            405 327 
                                                                                
