 2010  218 0358  8.2 L   6.831 -73.054138.5  RSN  8 0.5 1.8LRSN                1
 GAP=132        0.77       4.1    10.6  7.6 -0.1397E+02 -0.9859E+01  0.6153E+00E
 Epicentro: LOS SANTOS - SANTANDER                                             3
 ACTION:UP  10-08-24 09:49 OP:vdl  STATUS:               ID:20100218035808 L   I
 2010-02-18-0340-00S.COL___093                                                 6
 STAT SP IPHASW D HRMM SECON CODA AMPLIT PERI AZIMU VELO SNR AR TRES W  DIS CAZ7
 BAR2 SZ EP        358 27.31                             167     0.210   30 209 
 BAR2 SZ ES   2    358 40.96                             167    -0.9 5   30 209 
 GIR2 SZ EP        358 27.14                             166     0.110   31 331 
 RUS  BZ EP        358 31.66                             141     0.210  104 182 
 RUS  BE ES   2    358 50.05                             141     0.4 5  104 182 
 RUS  BZ I         358 51.95         6.8 0.34                           104 182 
 OCA  SZ EP        358 36.11                             128     0.3 9  158 349 
 OCA  SZ ES   2    358 56.47                             128    -0.8 5  158 349 
 OCA  SZ I         359  0.90         9.5 0.40                           158 349 
 CHI  HZ EP        358 45.88                             115    -0.3 8  255 197 
 CHI  HN ES   3    359 15.11                             115    -0.7 2  255 197 
 CHI  HZ I         359 18.29         2.2 0.05                           255 197 
 HEL  HZ EP   3    358 48.67                             112    -0.6 2  283 256 
 SDV  BZ EP        358 56.36                             107    -0.4 6  350  50 
 PRA  HZ EP        359  2.33                             105    -0.1 6  400 211 
 PRA  HE ES   3    359 43.27                             105    -1.4 1  400 211 
 PRA  HZ I         359 49.81         2.9 0.41                           400 211 
                                                                                
