 2015  518 0021 48.4 L   6.816 -73.127148.0  RSN 17 0.4 2.2LRSN                1
 GAP= 67        0.92       2.7     3.0  4.9 -0.4358E+00  0.2594E+01  0.2356E+01E
 Epicentro: LOS SANTOS - SANTANDER                                             3
 ACTION:UPD 15-09-10 22:04 OP:cam  STATUS:               ID:20150518002148 L   I
 OLDACT:UP  15-05-19 07:19 OP:DRIO STATUS:               ID:20150518002148 L   3
 OLDACT:REG 15-05-18 12:21 OP:spq  STATUS:               ID:20150518001749     3
 2015-05-18-0017-49M.COL___285                                                 6
 STAT SP IPHASW D HRMM SECON CODA AMPLIT PERI AZIMU VELO AIN AR TRES W  DIS CAZ7
 BAR2 EZ EP        022  8.16                             170   -0.2210 25.5 194 
 BAR2 EZ ES   1    022 23.54                             170   -0.40 7 25.5 194 
 BAR2 EZ I         022 24.44        38.7 0.30            169           25.5 194 
 BRR  HZ EP        022 10.04                             153    0.1610 72.2 296 
 BRR  HN ES        022 27.14                             153    0.5310 72.2 296 
 BRR  HZ I         022 28.36        24.9 0.12            151           72.2 296 
 PAM  SZ EP        022 11.03                             152    0.3010 74.7  39 
 PAM  SN ES        022 28.16                             152    0.0410 74.7  39 
 PAM  SZ I         022 30.38        31.9 0.52            154           74.7  39 
 RUS  HZ EP        022 12.11                             144   -0.4210  102 177 
 RUS  HE ES   1    022 31.12                             144   -0.20 7  102 177 
 RUS  HZ I         022 31.99        11.0 0.26            145            102 177 
 TAM  HZ EP        022 16.67                             132    0.52 9  154 106 
 TAM  HN ES   1    022 38.47                             132    0.70 7  154 106 
 TAM  HZ I         022 41.19        10.3 0.42            133            154 106 
 OCA  HZ EP        022 16.27                             131   -0.51 9  159 352 
 OCA  HN ES        022 38.58                             131   -0.30 9  159 352 
 OCA  HZ I         022 46.73        34.6 0.22            131            159 352 
 SPBC HZ EP        022 17.40                             129    0.04 9  166 219 
 SPBC HE ES        022 40.07                             129    0.15 9  166 219 
 SPBC HZ I         022 43.81        24.4 0.10            129            166 219 
 ZAR  HZ EP   1    022 21.50                             123    0.35 6  205 291 
 ZAR  HN ES        022 46.27                             123   -0.40 8  205 291 
 ZAR  HZ I         022 51.55        17.0 0.40            122            205 291 
 NOR  HZ EP        022 24.39                             119   -0.20 8  237 234 
 NOR  HE ES   1    022 52.53                             119   -0.25 6  237 234 
 NOR  HZ I         022 57.74        10.4 0.18            119            237 234 
 SML  HZ EP        022 24.68                             118   -0.43 8  243 335 
 SML  HE ES   1    022 54.32                             118    0.61 6  243 335 
 SML  HZ I         022 56.69        25.7 0.10            118            243 335 
 ROSC BN ES   4    022 58.90                             117    1.89 0  255 211 
 ROSC BZ I         023  2.82        22.4 0.40            117            255 211 
 HEL  HN ES   1    023  0.62                             115   -0.08 6  275 256 
 HEL  HZ I         023  6.67         7.1 0.36            115            275 256 
 GUY2CHZ EP   1    022 32.88                             113    0.43 5  304 235 
 GUY2CHE ES   4    023  9.11                             113    2.32 0  304 235 
 GUY2CHZ I         023 14.50         7.7 0.32                           304 235 
 PTGC HZ EP        022 31.49                             112   -1.01 7  310 159 
 PTGC HN ES   4    023  5.33                             112   -1.54 0  310 159 
 PTGC HZ I         023  8.84        11.3 0.46            113            310 159 
 CBOC HZ EP   1    022 36.75                             110    1.02 5  336 252 
 CBOC HN ES   1    023 13.38                             110    0.76 5  336 252 
 CBOC HZ I         023 18.11         2.2 0.20            110            336 252 
 ANIL HE ES   4    023 19.08                             109    1.28 0  360 225 
 ORTC HZ EP        022 42.66                             107   -0.08 6  398 216 
 ORTC HN ES   1    023 25.70                             107    0.60 4  398 216 
 ORTC HZ I         023 29.63         7.0 0.30            107            398 216 
 SJC  HZ EP   4    022 42.43                             106   -1.60 0  409 327 
 SJC  HE ES   4    023 26.15                             106   -1.24 0  409 327 
 SJC  HZ I         023 31.35         3.1 0.32            106            409 327 
 CRJC HZ EP   4    022 48.55                             104   -2.22 0  466   3 
                                                                                
