 2012  318 0239 56.8 L   6.816 -73.157137.7  RSN  6 0.3 1.5LRSN                1
 GAP=134        0.70       4.5     4.0  6.8  0.1569E+01  0.5821E+01  0.7813E+00E
 ACTION:UP  12-03-31 23:20 OP:EP   STATUS:               ID:20120318023956 L   I
 2012-03-18-0237-39M.COL___172                                                 6
 STAT SP IPHASW D HRMM SECON CODA AMPLIT PERI AZIMU VELO SNR AR TRES W  DIS CAZ7
 BAR2 SZ EP   1    240 15.45                             169     0.0 7   25 186 
 BAR2 SZ ES   1    240 30.01                             169     0.0 7   25 186 
 BAR2 SZ I         240 32.17         6.8 0.12                            25 186 
 BRR  HZ EP   1    240 17.44                             152     0.5 7   69 298 
 BRR  HN ES   1    240 32.93                             152     0.2 7   69 298 
 BRR  HZ I         240 38.49        20.9 0.44                            69 298 
 PAM  SZ EP   1    240 18.40                             149     0.3 7   77  41 
 PAM  SN ES   1    240 34.32                             149    -0.4 7   77  41 
 PAM  SZ I         240 38.00         5.0 0.45                            77  41 
 RUS  HZ EP   1    240 19.86                             142     0.0 7  102 175 
 RUS  HN ES   1    240 37.96                             142     0.1 7  102 175 
 RUS  HZ I         240 39.57         5.2 0.34                           102 175 
 PTB  HZ EP   1    240 22.48                             130    -0.5 7  147 258 
 PTB  HN ES   1    240 43.48                             130     0.0 7  147 258 
 PTB  HZ I         240 45.56         2.0 0.19                           147 258 
 ZAR  HN ES   1    240 53.12                             121    -0.2 6  202 292 
                                                                                
