 2012  618 0306 22.7 L   6.819 -73.215143.0  RSN  7 0.2 1.6LRSN                1
 GAP=127        0.44       3.8     5.0  5.7 -0.9419E+01  0.1711E+02 -0.9138E+01E
 Epicentro: ZAPATOCA - SANTANDER                                               3
 ACTION:UPD 12-08-06 17:50 OP:ep   STATUS:               ID:20120618030628 L   I
 2012-06-18-0300-00M.COL___199                                                 6
 STAT SP IPHASW D HRMM SECON CODA AMPLIT PERI AZIMU VELO AIN AR TRES W  DIS CAZ7
 BAR2 SZ EP        3 6 42.09                             169    0.1010 25.3 172 
 BAR2 SZ ES   1    3 6 57.33                             169    0.26 7 25.3 172 
 BAR2 SZ I         3 6 59.28         9.1 0.18            132           25.3 172 
 PAM  SZ EP        3 6 44.89                             149    0.1010 81.0  45 
 PAM  SZ I         3 6 44.90         6.1 0.20            124           81.0  45 
 PAM  SN ES   1    3 7  1.78                             149   -0.28 7 81.0  45 
 RUS  HE ES   1    3 7  4.68                             142   -0.14 7  103 172 
 PTB  HZ EP        3 6 48.57                             133   -0.19 9  141 257 
 PTB  HZ I         3 7 12.19         6.7 0.44            106            141 257 
 OCA  HZ EP   3    3 6 51.09                             129    0.61 2  157 356 
 OCA  HZ I         3 7 16.13         8.6 0.16            106            157 356 
 ZAR  HN ES   3    3 7 19.01                             123    0.37 2  196 292 
 CHI  HZ EP   3    3 7  0.59                             116    0.37 2  249 193 
 CHI  HZ I         3 7  1.37         1.9 0.24            105            249 193 
                                                                                
