 2013  618 0002 19.0 L   6.824 -73.132147.7  RSN  6 0.5 1.9LRSN                1
 GAP=241        0.85       5.6     7.8  7.8  0.1140E+02  0.1571E+02  0.1186E+02E
 Epicentro: LOS SANTOS - SANTANDER                                             3
 ACTION:UPD 14-01-08 09:55 OP:ep   STATUS:               ID:20130618000219 L   I
 OLDACT:REG 13-06-18 07:17 OP:carl STATUS:               ID:20130617235935     3
 2013-06-17-2359-35M.COL___226                                                 6
 STAT SP IPHASW D HRMM SECON CODA AMPLIT PERI AZIMU VELO AIN AR TRES W  DIS CAZ7
 BAR2 SZ EP   1    0 2 38.93                             170    0.02 8 26.2 192 
 BAR2 SZ ES   1    0 2 54.59                             170    0.14 8 26.2 192 
 BAR2 SZ I         0 2 55.50        19.2 0.36            161           26.2 192 
 BRR  HZ EP   1    0 2 41.00                             153    0.65 8 71.3 296 
 BRR  HE ES   2    0 2 57.70                             153    0.68 5 71.3 296 
 BRR  HE I         0 3  2.20        26.3 0.18            146           71.3 296 
 RUS  HZ EP   1    0 2 43.02                             143   -0.09 8  103 177 
 RUS  HN ES   1    0 3  1.24                             143   -0.69 8  103 177 
 RUS  HZ I         0 3  3.00         9.8 0.26            143            103 177 
 PTB  HZ EP        0 2 45.84                             132   -0.4510  150 258 
 PTB  HN ES   1    0 3  7.21                             132   -0.39 7  150 258 
 PTB  HZ I         0 3 14.42        14.4 0.32            128            150 258 
 CHI  HZ EP   1    0 2 57.05                             117   -0.06 6  252 195 
 CHI  HN ES        0 3 27.41                             117    0.56 8  252 195 
 CHI  HZ I         0 3 32.14         2.8 0.18            118            252 195 
 PRA  HZ EP   1    0 3 12.65                             107   -0.28 5  395 210 
 PRA  HN ES   1    0 3 55.63                             107    0.63 5  395 210 
 PRA  HZ I         0 4  0.98         2.6 0.32            107            395 210 
                                                                                
