 2016  418 0332 40.2 L   6.775 -73.150144.4  RSN  4 0.3 1.4LRSN                1
 GAP=182        0.73       3.3     5.0  6.4  0.1509E+00  0.4323E+01 -0.6724E+01E
 Epicentro: LOS SANTOS - SANTANDER                                             3
 ACTION:UPD 16-05-05 14:22 OP:rebc STATUS:               ID:20160418033240 L   I
 OLDACT:ARG 16-04-18 12:56 OP:cara STATUS:               ID:20160418032743     3
 2016-04-18-0327-43M.COL___297                                                 6
 STAT SP IPHASW D HRMM SECON CODA AMPLIT PERI AZIMU VELO AIN AR TRES W  DIS CAZ7
 BAR2 EZ EP        332 59.46                             172   -0.1710 20.5 190 
 BAR2 EZ ES        333 14.72                             172   -0.0610 20.5 190 
 BAR2 EZ I         333 15.60         7.4 0.44            178           20.5 190 
 RUS  HZ EP        333  3.61                             144   -0.0310 97.8 176 
 RUS  HN ES        333 22.06                             144    0.1510 97.8 176 
 RUS  HZ I         333 22.99         2.0 0.20            151           97.8 176 
 PTB  HZ EP        333  6.56                             132   -0.43 9  147 260 
 PTB  HE ES        333 28.12                             132    0.25 9  147 260 
 PTB  HZ I         333 29.28         1.9 0.38            135            147 260 
 OCA  HZ EP        333  9.24                             129    0.56 9  163 353 
 OCA  HN ES        333 30.66                             129   -0.23 9  163 353 
 OCA  HZ I         333 41.19         5.1 0.54            128            163 353 
                                                                                
