 2010 1018 0420 18.3 L   6.796 -73.023138.0  RSN  4 0.2 1.6LRSN                1
 GAP=249        0.41       7.5    13.9  6.5  0.9463E+02 -0.4819E+02 -0.2614E+02E
 Epicentro: CEPITA - SANTANDER                                                 3
 ACTION:UP  11-02-18 11:10 OP:tino STATUS:               ID:20101018042018 L   I
 2010-10-18-0420-00M.COL___113                                                 6
 STAT SP IPHASW D HRMM SECON CODA AMPLIT PERI AZIMU VELO SNR AR TRES W  DIS CAZ7
 BAR2 SZ EP   2    420 37.45                             169     0.4 5   29 218 
 BAR2 SZ ES   2    420 51.85                             169     0.1 5   29 218 
 BAR2 SZ I         420 53.26        16.2 0.15                            29 218 
 BRR  HZ EP   1    420 39.15                             148    -0.2 8   84 294 
 BRR  HZ I         420 42.63         8.5 0.11                            84 294 
 BRR  HN ES   1    420 55.88                             148     0.1 8   84 294 
 RUS  HZ EP   1    420 41.18                             143    -0.1 7  100 184 
 RUS  HN ES        420 59.13                             143     0.010  100 184 
 RUS  HZ I         421  0.96         5.5 0.03                           100 184 
 HEL  HZ EP   3    420 59.77                             112     0.2 2  285 257 
 HEL  HZ I         421 36.25         2.0 0.32                           285 257 
                                                                                
