 2014  818 0535  7.4 L   6.809 -73.154146.3  RSN  9 0.4 1.5LRSN                1
 GAP= 70        1.03       3.2     4.5  6.0 -0.5414E+00  0.2295E+01 -0.6887E+00E
 Epicentro: LOS SANTOS - SANTANDER                                             3
 ACTION:UPD 14-09-15 21:50 OP:nd   STATUS:               ID:20140818053507 L   I
 OLDACT:REG 14-08-18 14:33 OP:stll STATUS:               ID:20140818052818     3
 2014-08-18-0528-18M.COL___260                                                 6
 STAT SP IPHASW D HRMM SECON CODA AMPLIT PERI AZIMU VELO AIN AR TRES W  DIS CAZ7
 BAR2 SZ EP        535 27.18                             170    0.1110 24.1 187 
 BAR2 SZ I         535 27.51         5.4 0.10            170           24.1 187 
 BAR2 SZ ES        535 42.04                             170   -0.4010 24.1 187 
 BRR  HZ EP        535 29.18                             153    0.6910 69.9 298 
 BRR  HN ES        535 45.67                             153    0.7010 69.9 298 
 BRR  HZ I         535 47.89         6.3 0.44            150           69.9 298 
 PAM  SN ES        535 47.18                             151    0.1910 77.3  41 
 RUS  HZ EP        535 31.35                             144    0.1210  102 176 
 RUS  HN ES        535 49.40                             144   -0.4610  102 176 
 RUS  HZ I         535 51.27         3.5 0.42            146            102 176 
 PTB  HZ EP        535 34.07                             132   -0.23 9  147 258 
 PTB  HN ES        535 55.15                             132   -0.16 9  147 258 
 PTB  HZ I         536  0.29         4.0 0.14            131            147 258 
 TAM  HZ EP        535 35.18                             130   -0.00 9  156 105 
 OCA  HN ES        535 57.46                             130   -0.18 9  159 353 
 OCA  HZ I         536  2.02         4.4 0.48            130            159 353 
 SPBC HZ EP        535 36.39                             129    0.48 9  163 219 
 SPBC HN ES        535 57.97                             129   -0.21 9  163 219 
 SPBC HZ I         536  2.11         4.7 0.20            129            163 219 
 SML  HZ EP        535 43.45                             118   -0.42 8  242 335 
 SML  HN ES        536 11.68                             118   -0.68 8  242 335 
 SML  HZ I         536 17.31         4.3 0.10            118            242 335 
                                                                                
