 2017  918 0940 31.2 L   6.749 -73.106144.2  RSN 12 0.4 1.7LRSN                1
 GAP= 69        0.76       2.9     2.8  4.3  0.6838E+00  0.8623E+00  0.3903E+01E
 Epicentro: LOS SANTOS - SANTANDER                                             3
 ACTION:UPD 17-10-05 19:13 OP:rebc STATUS:               ID:20170918094031 L   I
 OLDACT:UP  17-09-18 19:05 OP:leo  STATUS:               ID:20170918093744     3
 OLDACT:UP  17-09-18 19:03 OP:leo  STATUS:               ID:20170918093744     3
 OLDACT:UP  17-09-18 19:01 OP:leo  STATUS:               ID:20170918093744     3
 OLDACT:UP  17-09-18 19:01 OP:leo  STATUS:               ID:20170918093744     3
 OLDACT:UP  17-09-18 18:58 OP:and  STATUS:               ID:20170918093744     3
 OLDACT:UP  17-09-18 18:56 OP:and  STATUS:               ID:20170918093744     3
 OLDACT:REG 17-09-18 18:18 OP:leo  STATUS:               ID:20170918093744     3
 2017-09-18-0938-00M.COL___417                                                 6
 STAT SP IPHASW D HRMM SECON CODA AMPLIT PERI AZIMU VELO AIN AR TRES W  DIS CAZ7
 BAR2 EZ IP     C  940 50.51                             172   -0.0410 19.3 206 
 BAR2 EZ ES        941  5.42                             172   -0.2310 19.3 206 
 BAR2 EZ I         941  7.64         8.2 0.18            169           19.3 206 
 BRR  HZ EP        940 52.51                             150   -0.0410 77.7 301 
 BRR  HN ES        941  9.61                             150    0.4010 77.7 301 
 BRR  HZ I         941 13.38        11.9 0.26            149           77.7 301 
 PAM  EZ IP     C  940 53.59                             150    0.2510 79.2  35 
 PAM  EN ES        941 10.23                             150   -0.4010 79.2  35 
 PAM  EZ I         941 13.10         9.6 0.68            148           79.2  35 
 RUS  HZ EP        940 54.33                             145   -0.0410 94.8 178 
 RUS  HN ES        941 12.35                             145   -0.1010 94.8 178 
 RUS  HZ I         941 13.96        10.6 0.32            140           94.8 178 
 TAM  HZ IP     D  940 58.72                             131    0.50 9  150 103 
 TAM  HN ES   3    941 20.40                             131    1.09 2  150 103 
 YPLC HZ EP        941  0.54                             127    0.36 9  170 152 
 ZAR  HZ EP        941  3.99                             121   -0.18 8  210 293 
 ZAR  HN ES        941 29.93                             121    0.04 8  210 293 
 ZAR  HZ I         941 33.75         4.7 0.26            119            210 293 
 NOR  HZ EP   2    941  6.48                             118   -0.39 4  235 236 
 NOR  HN ES        941 34.53                             118   -0.16 8  235 236 
 NOR  HZ I         941 38.14         2.6 0.20            115            235 236 
 GUY2CHZ EP   4    941 17.04                             112    2.27 0  302 236 
 GUY2CHN ES   3    941 50.32                             112    1.56 2  302 236 
 GUY2CHZ I         941 58.45         1.8 0.12                           302 236 
 PTGC HZ EP        941 13.39                             112   -0.81 7  302 159 
 PTGC HZ I         941 45.79         4.0 0.42            108            302 159 
 PTGC HN ES   3    941 46.62                             112   -1.14 2  302 159 
 PRA  HZ EP        941 23.97                             106   -0.37 6  389 211 
 PRA  HE ES        942  6.41                             106    0.61 6  389 211 
 PRA  HZ I         942  9.86         1.0 0.18            104            389 211 
 SJC  HZ EP   9    941 25.13                             105   -2.40 0  416 327 
 SJC  HN ES        942  8.63                             106   -0.44 5  416 327 
 SJC  HZ I         942 10.96         1.1 0.60            103            416 327 
                                                                                
