 2015  318 0216 17.2 L   6.795 -73.116153.9  RSN  5 0.6 1.1LRSN                1
 GAP=140        1.48       8.5     8.0 12.8 -0.7424E+01  0.6671E+01  0.1544E+02E
 Epicentro: LOS SANTOS - SANTANDER                                             3
 ACTION:UPD 15-04-30 16:26 OP:nd   STATUS:               ID:20150318021617 L   I
 OLDACT:DUP 15-03-18 15:25 OP:stll STATUS:               ID:20150318020742d    3
 OLDACT:UP  15-03-18 15:25 OP:stll STATUS:               ID:20150318020741d    3
 OLDACT:DUP 15-03-18 15:22 OP:stll STATUS:               ID:20150318020741d    3
 2015-03-18-0207-39M.COL___272                                                 6
 STAT SP IPHASW D HRMM SECON CODA AMPLIT PERI AZIMU VELO AIN AR TRES W  DIS CAZ7
 BAR2 EZ EP        216 37.99                             171    0.1510 23.6 198 
 BRR  HZ EP        216 39.69                             153    0.2610 74.3 298 
 BRR  HN ES        216 57.72                             153    0.9810 74.3 298 
 PAM  SZ EP        216 39.62                             153   -0.6010 75.8  37 
 PAM  SN ES        216 57.81                             153   -0.3410 75.8  37 
 PAM  SZ I         217  0.14         2.5 0.60            157           75.8  37 
 RUS  HZ EP        216 42.30                             146    0.5710 99.9 178 
 RUS  HN ES        217  0.69                             146   -0.1610 99.9 178 
 RUS  HZ I         217  3.73         1.2 0.44            147           99.9 178 
 PTB  HZ EP        216 45.21                             133    0.07 9  151 259 
 PTB  HN ES        217  5.84                             133   -1.07 9  151 259 
 PTB  HZ I         217 12.00         1.8 0.60            135            151 259 
                                                                                
