 2011  918 0648 19.9 L   6.803 -73.153143.2  RSN 24 0.5 3.1LRSN                1
 GAP= 76        0.92       2.6     3.7  4.3 -0.1626E+01  0.5759E+01  0.1690E+01E
 Epicentro: LOS SANTOS - SANTANDER                                             3
 ACTION:UPD 12-07-13 15:58 OP:ep   STATUS:               ID:20110918064819 L   I
 2011-09-18-0640-00M.COL___173                                                 6
 STAT SP IPHASW D HRMM SECON CODA AMPLIT PERI AZIMU VELO AIN AR TRES W  DIS CAZ7
 SAN  SZ EP        648 39.75                             176    0.7810 9.81 116 
 SAN  SZ ES   1    648 53.53                             176   -0.31 7 9.81 116 
 BTL  SZ EP        648 39.34                             172    0.2210 17.9 315 
 BAR2 SZ IP        648 39.21                             170   -0.0110 23.6 188 
 BAR2 SZ ES   1    648 53.75                             170   -0.55 7 23.6 188 
 BAR2 SZ I         648 55.48       242.8 0.38                          23.6 188 
 GIR2 SZ EP        648 39.19                             167   -0.0610 30.8 352 
 GIR2 SZ ES   1    648 54.51                             167    0.16 7 30.8 352 
 BRR  HZ IP     C  648 40.98                             152    0.2610 70.3 299 
 BRR  HN ES   1    648 57.81                             152    0.85 7 70.3 299 
 BRR  HZ I         649  0.28       197.3 0.22                          70.3 299 
 PAM  SZ EP        648 42.00                             150    0.1410 77.6  40 
 PAM  SN ES   1    648 59.06                             150    0.07 7 77.6  40 
 RUS  HZ IP        648 43.07                             143   -0.3610  101 176 
 RUS  HZ I         648 44.48       118.1 0.14                           101 176 
 RUS  HN ES   1    649  1.36                             143   -0.42 7  101 176 
 BRI  SZ EP        648 43.65                             141    0.1110  108  21 
 OCA  SZ EP        648 48.18                             129    0.22 9  160 353 
 OCA  SZ ES   1    649  9.30                             129   -0.56 7  160 353 
 OCA  SZ I         649 12.87       146.2 0.20                           160 353 
 YOP  SZ IP        648 50.07                             126    0.24 9  180 153 
 YOP  SE ES   2    649 13.39                             126    0.22 4  180 153 
 ZAR  HZ EP        648 51.74                             122   -0.34 9  203 292 
 ZAR  HN ES   2    649 16.27                             122   -0.91 4  203 292 
 NOR  SZ EP        648 55.47                             118    0.04 8  234 234 
 NOR  SN ES   1    649 23.31                             118    0.17 6  234 234 
 CHI  HZ EP        648 57.44                             117   -0.03 8  249 195 
 CHI  HN ES   1    649 25.92                             117   -0.85 6  249 195 
 CHI  HZ I         649 38.08        65.3 0.40                           249 195 
 ROSC BZ EP   3    648 59.23                             116    1.37 2  253 211 
 ROSC BN ES   3    649 29.00                             116    1.52 2  253 211 
 ROSC BZ I         649 33.20       131.3 0.55                           253 211 
 HEL  HZ EP        648 59.36                             114   -0.54 8  271 256 
 HEL  HN ES   1    649 31.45                             114    0.35 6  271 256 
 HEL  HZ I         649 38.32        73.4 0.40                           271 256 
 GUY  SZ EP        649  3.57                             112   -0.02 7  303 235 
 GUY  SN ES   1    649 37.39                             112   -0.29 5  303 235 
 GUY  SZ I         649 44.75        87.2 0.36                           303 235 
 VIL  SZ EP        649  2.78                             112   -0.44 7  304 191 
 VIL  SN ES   2    649 36.73                             112   -0.28 4  304 191 
 RREF HZ EP        649  5.93                             110    0.05 7  321 229 
 RREF HN ES   2    649 41.83                             110    0.08 3  321 229 
 RREF HZ I         649 55.39        62.6 0.34                           321 229 
 DBB  SZ EP        649  7.73                             109    0.56 7  339 274 
 TOL  SZ EP        649  8.93                             109    0.92 7  343 224 
 COD  HZ EP        649  8.14                             108    0.02 6  348 355 
 COD  HZ I         649 51.08        44.0 0.40                           348 355 
 ANIL HZ EP   3    649 10.54                             108    0.98 2  357 224 
 ANIL HE ES   2    649 48.98                             108    0.68 3  357 224 
 PRA  HZ EP        649 12.56                             106   -0.76 6  392 209 
 PRA  HE ES   1    649 54.84                             106   -0.14 4  392 209 
 SJC  HZ EP        649 13.55                             105   -1.73 6  408 327 
 SJC  HZ I         649 57.58        18.5 0.54                           408 327 
                                                                                
