 2017  618 0326 53.7 L   6.831 -73.161153.1  RSN  6 0.2 2.1LRSN                1
 GAP=215        0.63       3.3     3.3  5.4  0.2624E+01 -0.3041E+01  0.5124E+01E
 Epicentro: LOS SANTOS - SANTANDER                                             3
 ACTION:UPD 17-09-14 16:52 OP:jn   STATUS:               ID:20170618032653 L   I
 OLDACT:UP  17-07-05 21:17 OP:nlst STATUS:               ID:20170618032653 L   3
 OLDACT:DUP 17-06-18 14:33 OP:cog  STATUS:               ID:20170618031740d    3
 2017-06-18-0318-00M.COL___350                                                 6
 STAT SP IPHASW D HRMM SECON CODA AMPLIT PERI AZIMU VELO AIN AR TRES W  DIS CAZ7
 BRR  HZ EP        327 15.85                             155    0.3410 68.1 297 
 BRR  HN ES        327 32.62                             155    0.1210 68.1 297 
 BRR  HZ I         327 36.16        20.5 0.14            156           68.1 297 
 PTB  HZ EP        327 20.85                             134   -0.37 9  147 257 
 PTB  HN ES        327 42.15                             134   -0.51 9  147 257 
 PTB  HZ I         327 46.82        10.1 0.24            135            147 257 
 SPBC HZ EP        327 22.97                             130    0.02 9  165 218 
 SPBC HE ES        327 45.93                             130    0.19 9  165 218 
 SPBC HZ I         327 51.91        20.7 0.22            131            165 218 
 YPLC HZ EP        327 24.32                             128   -0.12 9  181 151 
 YPLC HN ES        327 48.25                             128   -0.13 9  181 151 
 YPLC HZ I         327 49.39        22.9 0.26            130            181 151 
 NOR  HZ EP        327 30.06                             120    0.10 8  235 234 
 NOR  HN ES        327 58.52                             120    0.30 8  235 234 
 CHI  HZ EP        327 32.29                             118    0.14 8  251 195 
 CHI  HE ES        328  2.11                             118   -0.01 8  251 195 
 CHI  HZ I         328 11.61         4.6 0.58            120            251 195 
 ROSC BZ EP   4    327 33.92                             118    1.44 0  255 210 
 PTGC HZ EP   4    327 37.25                             113   -1.11 0  312 159 
 PTGC HN ES   4    328 10.33                             113   -2.83 0  312 159 
                                                                                
