 2016 1018 0422 59.1 L   6.795 -73.153147.6  RSN  7 0.4 1.4LRSN                1
 GAP=136        0.72       4.9     4.6  6.8 -0.1309E+02  0.2697E+01  0.5591E+01E
 Epicentro: LOS SANTOS - SANTANDER                                             3
 ACTION:UPD 16-11-09 19:20 OP:rebc STATUS:               ID:20161018042259 L   I
 OLDACT:UP  16-10-18 16:38 OP:and  STATUS:               ID:20161018041738d    3
 OLDACT:UP  16-10-18 16:31 OP:and  STATUS:               ID:20161018041738d    3
 OLDACT:DUP 16-10-18 16:26 OP:and  STATUS:               ID:20161018041738d    3
 2016-10-18-0418-00M.COL___335                                                 6
 STAT SP IPHASW D HRMM SECON CODA AMPLIT PERI AZIMU VELO AIN AR TRES W  DIS CAZ7
 BRR  HZ EP        423 20.64                             153    0.2610 70.8 299 
 BRR  HN ES   2    423 37.96                             153    0.95 5 70.8 299 
 PAM  EZ EP        423 21.52                             151    0.0010 78.3  40 
 PAM  EN ES        423 38.88                             151   -0.1610 78.3  40 
 PAM  EZ I         423 40.82         3.9 0.26            153           78.3  40 
 RUS  HZ EP   2    423 22.89                             144   -0.05 5  100 176 
 RUS  HN ES   2    423 41.33                             144   -0.25 5  100 176 
 RUS  HZ I         423 42.38         2.4 0.38            145            100 176 
 PTB  HZ EP        423 25.68                             133   -0.41 9  147 259 
 PTB  HN ES        423 46.79                             133   -0.39 9  147 259 
 PTB  HZ I         423 48.61         3.0 0.12            134            147 259 
 SPBC HZ EP        423 27.64                             130    0.04 9  162 219 
 SPBC HE ES        423 50.24                             130    0.37 9  162 219 
 SPBC HZ I         423 52.15         4.9 0.14            131            162 219 
 NOR  HZ EP   9    423 36.41                             119    1.62 0  234 234 
 NOR  HE ES   2    424  4.11                                   -0.17 4  234 234 
 GUY2CHZ EP   2    423 43.34                             113    0.70 4  300 235 
                                                                                
