 2012  418 0723 36.1 L   6.829 -73.110149.2  RSN  5 0.4 1.6LRSN                1
 GAP=140        0.90       6.5     6.7  9.5  0.1009E+02  0.1533E+02  0.1273E+01E
 Epicentro: LOS SANTOS - SANTANDER                                             3
 ACTION:UPD 12-07-05 11:54 OP:tino STATUS:               ID:20120418072336 L   I
 2012-04-18-0720-00M.COL___187                                                 6
 STAT SP IPHASW D HRMM SECON CODA AMPLIT PERI AZIMU VELO AIN AR TRES W  DIS CAZ7
 BAR2 SZ EP   2    723 56.35                             169     0.1 5   27 197 
 BAR2 SZ ES   2    724 11.87                             169     0.0 5   27 197 
 PAM  SZ EP   1    723 58.91                             153     0.5 7   72  39 
 PAM  SN ES   1    724 15.20                             153    -0.6 7   72  39 
 BRR  HZ EP   2    723 57.30                             152    -0.4 5   73 295 
 BRR  HN ES   1    724 15.30                             152     0.7 7   73 295 
 BRR  HZ I         724 18.23         8.2 0.17                            73 295 
 RUS  HZ EP   1    724  0.63                             144     0.2 7  104 178 
 RUS  HN ES   1    724 19.06                             144    -0.3 7  104 178 
 RUS  HZ I         724 20.59         4.2 0.39                           104 178 
 ZAR  HZ EP   1    724  8.70                             123    -0.3 6  206 291 
 ZAR  HN ES   1    724 34.29                             123    -0.4 6  206 291 
 ZAR  HZ I         724 39.99         3.7 0.29                           206 291 
                                                                                
