 2010  218 0930 42.9 L   6.791 -73.434134.2  RSN  4 0.2 1.2LRSN                1
 GAP=212        0.49       4.6    22.1  9.1 -0.4237E+01  0.1490E+03  0.1138E+02E
 Epicentro: SAN VICENTE DE CHUCURI - SANTANDER                                 3
 ACTION:UP  10-08-24 09:49 OP:vdl  STATUS:               ID:20100218093042 L   I
 2010-02-18-0927-25S.COL___094                                                 6
 STAT SP IPHASW D HRMM SECON CODA AMPLIT PERI AZIMU VELO SNR AR TRES W  DIS CAZ7
 BAR2 SZ EP        931  1.65                             166     0.210   35 128 
 BAR2 SZ ES   2    931 16.25                             166     0.3 5   35 128 
 GIR2 SZ EP        931  1.29                             163    -0.210   42  40 
 GIR2 SZ ES   2    931 16.15                             163     0.1 5   42  40 
 RUS  BZ EP        931  5.93                             140     0.010  107 159 
 RUS  BN ES   2    931 23.67                             140    -0.3 5  107 159 
 RUS  BZ I         931 25.52         2.0 0.21                           107 159 
 CHI  HZ EP        931 19.24                             116     0.1 8  241 188 
 CHI  HE ES   3    931 46.78                             116    -0.6 2  241 188 
 CHI  HZ I         931 52.34         1.3 0.36                           241 188 
                                                                                
