 2014  218 0638 52.3 L   6.791 -73.127146.7  RSN  5 0.2 1.3LRSN                1
 GAP=245        0.43       4.4     4.0  4.2  0.1257E+02  0.3453E+00 -0.3546E+01E
 Epicentro: LOS SANTOS - SANTANDER                                             3
 ACTION:UPD 14-03-10 08:11 OP:ep   STATUS:               ID:20140218063852 L   I
 OLDACT:UP  14-02-18 12:15 OP:cam  STATUS:               ID:20140218063740     3
 OLDACT:REG 14-02-18 12:07 OP:cam  STATUS:               ID:20140218063740     3
 2014-02-18-0637-40M.COL___219                                                 6
 STAT SP IPHASW D HRMM SECON CODA AMPLIT PERI AZIMU VELO AIN AR TRES W  DIS CAZ7
 BAR2 SZ EP        639 11.94                             171   -0.0810 22.8 196 
 BAR2 SZ ES   1    639 27.35                             171   -0.06 7 22.8 196 
 BAR2 SZ I         639 31.94         6.6 0.60            166           22.8 196 
 RUS  HZ EP        639 16.07                             144    0.0210 99.4 177 
 RUS  HN ES        639 34.68                             144    0.1010 99.4 177 
 RUS  HZ I         639 37.63         1.1 0.30            146           99.4 177 
 PTB  HZ EP   2    639 19.21                             132   -0.29 5  150 259 
 PTB  HN ES   1    639 40.43                             132   -0.29 7  150 259 
 PTB  HZ I         639 47.08         4.6 0.40            133            150 259 
 ZAR  HZ EP   1    639 24.85                             122   -0.19 6  206 292 
 ZAR  HN ES        639 50.87                             122    0.30 8  206 292 
 CHI  HZ EP   1    639 30.20                             117    0.20 6  248 196 
                                                                                
