 2017 1118 0212 31.6 L   5.887 -73.616125.0  RSN 19 0.8 2.0LRSN                1
 GAP= 44        1.76       3.5     3.6  7.8 -0.1673E+01  0.1136E+01 -0.1445E+01E
 Epicentro: BARBOSA - SANTANDER                                                3
 ACTION:UPD 17-12-12 19:56 OP:rebc STATUS:               ID:20171118021231 L   I
 OLDACT:UP  17-11-18 13:49 OP:osc  STATUS:               ID:20171118020741     3
 OLDACT:REG 17-11-18 10:12 OP:mg   STATUS:               ID:20171118020741     3
 2017-11-18-0208-00M.COL___473                                                 6
 STAT SP IPHASW D HRMM SECON CODA AMPLIT PERI AZIMU VELO AIN AR TRES W  DIS CAZ7
 SPBC HZ EP        212 49.80                             154   -0.0010 56.8 243 
 SPBC HE ES        213  4.54                             154    0.5210 56.8 243 
 SPBC HZ I         213  5.79        27.1 0.22            154           56.8 243 
 RUS  HZ EP     D  212 50.65                             153    0.1510 59.0  89 
 RUS  HN ES        213  5.64                             153    0.3810 59.0  89 
 RUS  HZ I         213  7.99         9.1 0.28            156           59.0  89 
 BAR2 EZ EP        212 52.40                             142    0.1210 91.5  32 
 BAR2 EZ ES        213  9.10                             142    0.6710 91.5  32 
 BAR2 EZ I         213  9.87        50.7 0.32            144           91.5  32 
 PTB  HZ EP        212 53.95                             134   -0.1810  118 308 
 PTB  HN ES        213 10.71                             134   -1.0210  118 308 
 PTB  HZ I         213 13.80        11.9 0.09            134            118 308 
 ROSC BE ES        213 17.11                             129    0.90 9  140 214 
 CHI  HZ EP        212 57.04                             129    0.36 9  140 185 
 CHI  HE ES        213 16.19                             129   -0.07 9  140 185 
 CHI  HZ I         213 19.31        13.7 0.30            131            140 185 
 NOR  HZ EP        212 56.88                             128    0.32 9  143 256 
 NOR  HE ES        213 16.34                             128    0.30 9  143 256 
 NOR  HZ I         213 20.25        24.3 0.22            129            143 256 
 YPLC HZ EP        212 57.49                             127    0.53 9  147 112 
 YPLC HN ES        213 16.69                             127   -0.07 9  147 112 
 YPLC HZ I         213 19.28        49.7 0.26            130            147 112 
 PAM  EZ EP        213  1.92                             120    0.06 9  190  32 
 PAM  EN ES        213 25.27                             120   -0.21 9  190  32 
 PAM  EZ I         213 30.08         5.0 0.22            122            190  32 
 VIL  EN ES        213 25.72                             119   -0.19 9  196 183 
 TAM  HZ EP        213  3.95                             117    0.41 8  211  73 
 TAM  HN ES        213 27.42                             117   -1.05 8  211  73 
 ZAR  HZ EP        213  5.69                             115    0.70 8  224 322 
 ZAR  HE ES        213 28.99                             115   -2.06 8  224 322 
 ZAR  HZ I         213 37.22        19.0 0.34            116            224 322 
 ELA  HE ES   4    213 35.40                             115    2.45 0  228 240 
 PTGC HZ EP        213  7.02                             112   -0.67 8  249 139 
 PTGC HE ES        213 34.63                             112   -1.24 8  249 139 
 CBOC HZ EP        213  9.40                             111   -0.41 8  265 270 
 CBOC HN ES        213 39.64                             111    0.01 8  265 270 
 CBOC HZ I         213 49.21         3.3 0.56            112            265 270 
 PRA  HZ EP        213 11.41                             110    0.26 7  279 210 
 PRA  HE ES        213 39.64                             110   -2.38 7  279 210 
 PRA  HZ I         213 45.02         5.9 0.22            111            279 210 
 ORTC HZ EP        213 12.14                             109    0.39 7  284 220 
 ORTC HE ES        213 43.81                             109    0.73 7  284 220 
 ORTC HZ I         213 47.02         3.1 0.23            110            284 220 
 URE  HZ EP   9    213 11.65                             108   -1.44 0  296 314 
 URE  HE ES        213 43.25                             109   -0.78 7  296 314 
 URE  HZ I         213 44.94         9.7 0.22            109            296 314 
 DRL03HZ EP        213 24.68                             103    0.78 6  388   2 
 DRL03HE ES        214  5.02                             103    0.31 6  388   2 
 DRL02HZ EP        213 30.87                             101    2.26 5  427   5 
 DRL02HE ES        214 12.73                             101   -0.37 5  427   5 
                                                                                
