 2015  318 0705 30.3 L   6.764 -73.170140.9  RSN  7 0.4 1.4LRSN                1
 GAP= 97        0.94       4.3     4.0  6.0 -0.4048E+01 -0.9615E+00  0.3725E+01E
 Epicentro: LOS SANTOS - SANTANDER                                             3
 ACTION:UPD 15-04-30 16:26 OP:nd   STATUS:               ID:20150318070530 L   I
 OLDACT:REG 15-03-18 13:34 OP:stll STATUS:               ID:20150318065747     3
 2015-03-18-0657-47M.COL___272                                                 6
 STAT SP IPHASW D HRMM SECON CODA AMPLIT PERI AZIMU VELO AIN AR TRES W  DIS CAZ7
 BAR2 EZ EP        7 5 49.26                             172    0.0110 19.1 184 
 BAR2 EZ ES        7 6  4.14                             172    0.1010 19.1 184 
 BAR2 EZ I         7 6  5.69         5.9 0.26            172           19.1 184 
 BRR  HZ EP        7 5 51.19                             152    0.3010 70.8 302 
 BRR  HN ES        7 6  7.59                             152    0.6310 70.8 302 
 BRR  HZ I         7 6 10.04         3.0 0.12            152           70.8 302 
 PAM  SZ IP     C  7 5 52.18                             148   -0.1110 82.2  39 
 PAM  SZ I         7 5 52.32         8.8 0.20            151           82.2  39 
 PAM  SN ES        7 6  9.10                             148   -0.3410 82.2  39 
 RUS  HZ EP        7 5 53.52                             144    0.2210 96.9 174 
 RUS  HN ES        7 6 11.09                             144   -0.1510 96.9 174 
 RUS  HZ I         7 6 12.95         3.4 0.30            145           96.9 174 
 PTB  HZ EP        7 5 56.29                             132   -0.26 9  144 260 
 PTB  HN ES        7 6 16.21                             132   -0.83 9  144 260 
 PTB  HZ I         7 6 19.53         2.5 0.16            132            144 260 
 TAM  HZ EP        7 5 57.60                             129   -0.15 9  157 103 
 SPBC HZ EP        7 5 58.41                             129    0.45 9  158 219 
 SPBC HN ES        7 6 19.61                             129    0.06 9  158 219 
 SPBC HZ I         7 6 21.85         5.0 0.16            130            158 219 
                                                                                
