 2013  918 0553 23.9 L   6.792 -73.140149.1  RSN 12 0.5 2.3LRSN                1
 GAP=138        1.12       3.0     4.5  5.7 -0.2225E+01  0.5018E+01  0.1541E+01E
 Epicentro: LOS SANTOS - SANTANDER                                             3
 ACTION:UPD 13-10-22 09:23 OP:ep   STATUS:               ID:20130918055323 L   I
 OLDACT:REG 13-09-18 07:43 OP:carl STATUS:               ID:20130918054959     3
 2013-09-18-0549-59M.COL___269                                                 6
 STAT SP IPHASW D HRMM SECON CODA AMPLIT PERI AZIMU VELO AIN AR TRES W  DIS CAZ7
 BAR2 SZ EP        553 44.01                             171    0.0910 22.6 192 
 BAR2 SZ ES        553 59.26                             171   -0.2710 22.6 192 
 BAR2 SZ I         554  0.20        51.3 0.34            169           22.6 192 
 BRR  HZ IP     D  553 45.88                             153    0.4110 72.2 299 
 BRR  HN ES        554  2.98                             153    0.6910 72.2 299 
 BRR  HZ I         554  6.76        24.7 0.44            151           72.2 299 
 PAM  SZ EP        553 46.79                             151    0.3010 77.6  39 
 PAM  SN ES        554  3.43                             151   -0.6810 77.6  39 
 PAM  SZ I         554  6.07        38.5 0.62            155           77.6  39 
 RUS  HZ EP        553 47.96                             145    0.0310 99.7 176 
 RUS  HN ES   1    554  6.13                             145   -0.53 7 99.7 176 
 RUS  HZ I         554  7.38        20.7 0.44            146           99.7 176 
 PTB  HZ EP        553 50.86                             133   -0.33 9  148 259 
 PTB  HN ES        554 11.90                             133   -0.57 9  148 259 
 PTB  HZ I         554 17.47        28.6 0.42            132            148 259 
 OCA  HZ EP        553 52.21                             130   -0.35 9  161 353 
 OCA  HE ES        554 16.04                             130    1.13 9  161 353 
 OCA  HZ I         554 18.13        41.8 0.20            132            161 353 
 SPBC HZ EP        553 53.11                             130    0.47 9  163 219 
 SPBC HE ES        554 15.47                             130    0.42 9  163 219 
 SPBC HZ I         554 17.48        29.6 0.18            130            163 219 
 ZAR  HZ EP        553 56.70                             123    0.03 9  205 292 
 ZAR  HE ES        554 22.14                             123   -0.07 9  205 292 
 ZAR  HZ I         554 27.96        24.4 0.44            123            205 292 
 NOR  HZ EP        553 59.73                             119   -0.11 8  235 235 
 NOR  HN ES        554 27.51                             119   -0.35 8  235 235 
 NOR  HZ I         554 35.76        17.5 0.14            120            235 235 
 SML  HZ EP        554  0.17                             118   -0.66 8  245 335 
 SML  HN ES        554 29.04                             118   -0.59 8  245 335 
 CHI  HZ EP        554  1.75                             118    0.03 8  248 195 
 CHI  HN ES   1    554 31.67                             118    0.45 6  248 195 
 CHI  HZ I         554 35.20         6.8 0.24            119            248 195 
 ROSC BZ EP   4    554  3.88                             117    1.71 0  252 211 
 ROSC BN ES   4    554 34.25                             117    2.24 0  252 211 
 PRA  HZ EP        554 17.66                             107    0.16 6  392 210 
 PRA  HN ES        554 59.36                             107    0.06 6  392 210 
 PRA  HZ I         555  4.84         9.8 0.26            108            392 210 
                                                                                
