 2015  918 0850 33.7 L   6.784 -73.132154.4  RSN  7 0.3 1.5LRSN                1
 GAP=139        0.76       3.7     3.8  5.3  0.1520E+01  0.4060E+01 -0.1717E+01E
 Epicentro: LOS SANTOS - SANTANDER                                             3
 ACTION:UPD 15-10-28 16:27 OP:cam  STATUS:               ID:20150918084735 L   I
 OLDACT:UPD 15-09-18 20:13 OP:nlst STATUS:               ID:20150918084735 L   3
 2015-09-18-0847-35M.COL___352                                                 6
 STAT SP IPHASW D HRMM SECON CODA AMPLIT PERI AZIMU VELO AIN AR TRES W  DIS CAZ7
 BAR2 EZ EP   1    850 54.16                             172   -0.15 7 21.9 195 
 BAR2 EZ ES   1    851  9.72                             172   -0.68 7 21.9 195 
 BAR2 EZ I         851 10.47         7.8 0.14            172           21.9 195 
 BRR  HZ EP        850 56.20                             153    0.3310 73.3 299 
 BRR  HE ES        851 13.77                             153    0.5910 73.3 299 
 BRR  HZ I         851 16.08         8.4 0.36            150           73.3 299 
 PAM  EZ EP        850 57.03                             152    0.2010 77.8  38 
 PAM  EN ES        851 14.69                             152   -0.2110 77.8  38 
 PAM  EZ I         851 16.57         3.1 0.64            153           77.8  38 
 RUS  HZ EP        850 58.38                             146    0.2310 98.7 177 
 RUS  HN ES   1    851 17.25                             146    0.01 7 98.7 177 
 RUS  HZ I         851 17.94         3.1 0.26            149           98.7 177 
 PTB  HZ EP        851  1.15                             134   -0.30 9  149 260 
 PTB  HE ES   1    851 22.93                             134   -0.19 7  149 260 
 PTB  HZ I         851 23.98         2.8 0.34            133            149 260 
 ZAR  HZ EP   1    851  6.52                             124   -0.37 6  206 292 
 ZAR  HN ES        851 32.76                             124   -0.05 8  206 292 
 ZAR  HZ I         851 42.70         1.6 0.26            123            206 292 
 SML  HZ EP        851 10.96                             119   -0.06 8  246 335 
 SML  HE ES   1    851 39.83                             119   -0.33 6  246 335 
 SML  HZ I         851 43.27         3.5 0.10            119            246 335 
                                                                                
