 2014  118 0056 43.0 L   6.737 -73.120146.8  RSN  4 0.3 1.3LRSN                1
 GAP=227        0.61      13.0     6.0  9.8 -0.5894E+02 -0.3395E+02  0.7838E+02E
 Epicentro: JORDAN - SANTANDER                                                 3
 ACTION:UPD 14-03-13 09:56 OP:ep   STATUS:               ID:20140118005643 L   I
 OLDACT:DUP 14-01-18 10:56 OP:cam  STATUS:               ID:20140118005001d    3
 2014-01-18-0050-00M.COL___285                                                 6
 STAT SP IPHASW D HRMM SECON CODA AMPLIT PERI AZIMU VELO AIN AR TRES W  DIS CAZ7
 BRR  HZ EP   1    057  4.73                             151    0.15 7 77.2 302 
 BRR  HN ES        057 21.72                             151    0.2910 77.2 302 
 PAM  SZ EP        057  5.63                             150    0.1010 81.3  35 
 PAM  SE ES   2    057 22.48                             150   -0.65 5 81.3  35 
 PAM  SZ I         057 24.59         3.8 0.58            158           81.3  35 
 PTB  HZ EP   1    057 10.19                             132    0.02 7  149 262 
 PTB  HN ES        057 31.13                             132   -0.25 9  149 262 
 PTB  HZ I         057 36.45         2.3 0.34            135            149 262 
 ZAR  HN ES   2    057 41.27                             122   -0.55 4  209 294 
                                                                                
