 2013  818 0735 30.7 L   6.773 -73.161139.4  RSN  7 0.4 1.2LRSN                1
 GAP=136        1.03       4.3     5.4  7.7 -0.1422E+00 -0.7028E+01 -0.7305E+01E
 Epicentro: LOS SANTOS - SANTANDER                                             3
 ACTION:UPD 14-01-14 09:04 OP:ep   STATUS:               ID:20130818073530 L   I
 OLDACT:REG 13-08-18 09:42 OP:stll STATUS:               ID:20130818072841     3
 2013-08-18-0728-41M.COL___198                                                 6
 STAT SP IPHASW D HRMM SECON CODA AMPLIT PERI AZIMU VELO AIN AR TRES W  DIS CAZ7
 BAR2 SZ ES        736  3.95                             171   -0.2010 20.1 187 
 BAR2 SZ I         736  6.17         3.4 0.58            168           20.1 187 
 BRR  HZ EP        735 51.54                             151    0.3910 71.2 301 
 BRR  HZ I         735 51.80         2.3 0.24            150           71.2 301 
 BRR  HN ES        736  7.77                             151    0.6610 71.2 301 
 PAM  SZ EP        735 52.54                             148    0.1010 80.8  39 
 PAM  SZ I         735 52.76         4.9 0.22            153           80.8  39 
 RUS  HZ EP        735 54.16                             143    0.5610 97.7 175 
 RUS  HN ES        736 11.14                             143   -0.3410 97.7 175 
 RUS  HZ I         736 15.09         1.3 0.36            142           97.7 175 
 PTB  HZ EP        735 56.65                             131   -0.29 9  146 260 
 PTB  HZ E      C  736 11.85                                            146 260 
 PTB  HN ES        736 17.02                             131   -0.39 9  146 260 
 PTB  HZ I         736 24.95         2.6 0.50            129            146 260 
 CAPV BZ EP        735 57.62                             130   -0.27 9  153  38 
 OCA  HN ES        736 20.28                             128   -0.41 9  163 354 
                                                                                
