 2011 1118 0039 23.2 L   6.779 -73.088149.4  RSN  9 0.2 2.1LRSN                1
 GAP=145        0.38       2.1     3.3  4.2 -0.7706E+00  0.2534E+01 -0.8772E+00E
 Epicentro: LOS SANTOS - SANTANDER                                             3
 ACTION:UPD 12-07-13 16:10 OP:ep   STATUS:               ID:20111118003923 L   I
 2011-11-18-0036-03S.COL___179                                                 6
 STAT SP IPHASW D HRMM SECON CODA AMPLIT PERI AZIMU VELO AIN AR TRES W  DIS CAZ7
 BAR2 SZ EP   1    039 43.11                             171   -0.13 7 23.2 207 
 BAR2 SZ ES   2    039 58.63                             171   -0.26 5 23.2 207 
 BAR2 SZ I         040  1.03        29.3 0.44                          23.2 207 
 PAM  SZ EP   1    039 46.01                             152    0.35 7 75.3  35 
 PAM  SE ES   2    040  3.26                             152    0.06 5 75.3  35 
 BRR  HZ EP        039 45.14                             151    0.0410 77.9 298 
 BRR  HZ I         039 45.33        28.6 0.18                          77.9 298 
 BRR  HE ES   2    040  2.62                             151    0.41 5 77.9 298 
 RUS  HZ EP   2    039 46.88                             145   -0.23 5 98.1 180 
 RUS  HN ES   2    040  5.53                             145   -0.25 5 98.1 180 
 RUS  HZ I         040  6.99         9.7 0.28                          98.1 180 
 OCA  SZ EP   2    039 51.85                             130   -0.22 5  163 351 
 OCA  SZ ES   2    040 14.40                             130   -0.20 5  163 351 
 OCA  SZ I         040 20.14        15.1 0.42                           163 351 
 ZAR  HZ EP   2    039 56.36                             122   -0.20 4  211 292 
 ZAR  HN ES   2    040 22.28                             122   -0.32 4  211 292 
 ZAR  HZ I         040 27.61        14.2 0.59                           211 292 
 NOR  SN ES   2    040 28.10                             119    0.20 4  239 236 
 CHI  HZ EP   2    040  0.85                             118   -0.18 4  248 197 
 CHI  HE ES   2    040 31.02                             118    0.46 4  248 197 
 CHI  HZ I         040 35.90         4.7 0.31                           248 197 
 COD  HZ EP   2    040 12.06                             109    0.02 3  351 354 
 COD  HZ I         040 49.25        15.6 0.57                           351 354 
 COD  HN ES   2    040 50.20                             109    0.06 3  351 354 
                                                                                
