 2015  318 0102 36.8 L   6.789 -73.171139.9  RSN  6 0.5 1.6LRSN                1
 GAP=134        1.18       5.4     5.7  8.1 -0.7513E+01  0.6662E+01  0.5013E+01E
 Epicentro: LOS SANTOS - SANTANDER                                             3
 ACTION:UPD 15-04-30 16:26 OP:nd   STATUS:               ID:20150318010236 L   I
 OLDACT:DUP 15-03-18 14:25 OP:stll STATUS:               ID:20150318005751d    3
 2015-03-18-0057-50M.COL___272                                                 6
 STAT SP IPHASW D HRMM SECON CODA AMPLIT PERI AZIMU VELO AIN AR TRES W  DIS CAZ7
 BAR2 EZ EP        1 2 55.68                             171    0.0110 21.8 183 
 BAR2 EZ ES        1 3 10.26                             171   -0.1410 21.8 183 
 BAR2 EZ I         1 3 11.52         9.2 0.44            171           21.8 183 
 BRR  HZ EP        1 2 57.70                             152    0.5210 69.4 300 
 BRR  HN ES        1 3 13.89                             152    0.7910 69.4 300 
 BRR  HZ I         1 3 16.12         8.9 0.20            152           69.4 300 
 PAM  SZ EP        1 2 58.53                             149   -0.0010 80.1  41 
 PAM  SZ I         1 2 58.91        17.3 0.20            151           80.1  41 
 PAM  SN ES        1 3 15.08                             149   -0.4210 80.1  41 
 RUS  HZ EP        1 2 59.88                             143   -0.0010 99.6 174 
 RUS  HN ES        1 3 17.86                             143   -0.0410 99.6 174 
 RUS  HZ I         1 3 19.72         2.4 0.30            145           99.6 174 
 PTB  HZ EP        1 3  2.59                             131   -0.41 9  145 259 
 PTB  HN ES        1 3 22.44                             131   -1.01 9  145 259 
 PTB  HZ I         1 3 26.68         4.7 0.18            132            145 259 
 SPBC HZ EP        1 3  4.75                             128    0.18 9  161 218 
 SPBC HZ I         1 3  5.18         4.3 0.24            129            161 218 
 SPBC HN ES        1 3 26.70                             128    0.45 9  161 218 
                                                                                
