 2011 1218 0533  6.1 L   6.771 -73.061143.4  RSN 14 0.4 2.3LRSN                1
 GAP=149        0.64       2.7     4.4  4.1 -0.2952E+01  0.3388E+01  0.1962E+01E
 Epicentro: LOS SANTOS - SANTANDER                                             3
 ACTION:UPD 12-07-13 16:16 OP:ep   STATUS:               ID:20111218053306 L   I
 2011-12-18-0530-00M.COL___188                                                 6
 STAT SP IPHASW D HRMM SECON CODA AMPLIT PERI AZIMU VELO AIN AR TRES W  DIS CAZ7
 BAR2 SZ IP        533 25.41                             170   -0.0710 23.9 214 
 BAR2 SZ ES   1    533 39.80                             170   -0.78 7 23.9 214 
 BAR2 SZ I         533 41.28        33.5 0.20                          23.9 214 
 GIR2 SZ EP   1    533 25.72                             165    0.03 7 37.0 337 
 GIR2 SZ ES   1    533 41.19                             165    0.25 7 37.0 337 
 PAM  SZ EP        533 28.43                             151    0.5110 74.4  32 
 PAM  SN ES   2    533 45.49                             151    0.58 5 74.4  32 
 BRR  HZ EP        533 27.44                             149   -0.1710 81.0 297 
 BRR  HE ES   1    533 44.50                             149    0.14 7 81.0 297 
 BRR  HZ I         533 49.20        49.4 0.15                          81.0 297 
 RUS  HZ EP        533 29.25                             144   -0.1510 97.2 181 
 RUS  HZ I         533 30.44        12.2 0.10                          97.2 181 
 RUS  HN ES   2    533 47.95                             144    0.40 5 97.2 181 
 OCA  SZ EP        533 34.32                             128   -0.37 9  165 350 
 OCA  SZ ES   1    533 56.91                             128   -0.05 7  165 350 
 OCA  SZ I         534  1.28        26.2 0.22                           165 350 
 NOR  SZ EP   2    533 41.90                             117   -0.46 4  241 236 
 NOR  SE ES   2    534 10.46                             117   -0.16 4  241 236 
 CHI  HZ EP   1    533 43.48                             117   -0.17 6  248 197 
 CHI  HN ES   2    534 12.60                             117   -0.32 4  248 197 
 CHI  HZ I         534 19.19         4.8 0.40                           248 197 
 ROSC BZ EP   2    533 44.48                             116    0.11 4  255 213 
 ROSC BZ I         534 21.13        16.2 0.56                           255 213 
 HEL  HZ EP   1    533 47.44                             113    0.29 6  280 257 
 HEL  HN ES   2    534 19.50                             113    0.35 4  280 257 
 HEL  HZ I         534 24.12         9.6 0.41                           280 257 
 GUY  SZ EP   1    533 51.28                             111    0.71 5  309 237 
 GUY  SZ I         534 32.79        22.3 0.38                           309 237 
 RREF HZ EP   1    533 53.24                             110    0.48 5  327 231 
 RREF HN ES   2    534 29.37                             110    0.24 3  327 231 
 RREF HZ I         534 36.09        11.6 0.34                           327 231 
 COD  HZ EP   2    533 54.26                             108   -0.63 3  352 353 
 COD  HN ES   2    534 32.48                             108   -0.45 3  352 353 
 COD  HZ I         534 34.91        12.3 0.63                           352 353 
 PRA  HZ EP   1    533 59.71                             106   -0.09 4  394 211 
                                                                                
