 2012  218 0357 11.9 L   6.858 -73.347113.4  RSN 10 0.3 1.6LRSN                1
 GAP= 95        0.46       2.4     2.7  4.1  0.5630E+00  0.2634E+01  0.1930E+01E
 ACTION:UP  12-03-07 16:31 OP:epov STATUS:               ID:20120218035711 L   I
 2012-02-18-0350-00M.COL___188                                                 6
 STAT SP IPHASW D HRMM SECON CODA AMPLIT PERI AZIMU VELO AIN AR TRES W  DIS CAZ7
 GIR2 SZ EP   2    357 27.72                             164    0.06 5 29.8  35 
 GIR2 SZ ES   2    357 40.24                             164    0.25 5 29.8  35 
 BAR2 SZ EP   1    357 27.81                             162   -0.16 7 34.6 148 
 BAR2 SZ I         357 28.06        26.7 0.12                          34.6 148 
 BAR2 SZ ES   2    357 40.51                             162   -0.03 5 34.6 148 
 BRR  HZ EP   1    357 27.99                             155   -0.27 7 48.8 304 
 BRR  HN ES   1    357 41.39                             155    0.34 7 48.8 304 
 BRR  HZ I         357 42.83        11.3 0.14                          48.8 304 
 PAM  SZ EP   2    357 31.90                             140    0.25 5 89.2  53 
 PAM  SN ES   2    357 46.96                             140   -0.13 5 89.2  53 
 RUS  HZ EP   1    357 33.35                             133   -0.12 7  111 165 
 RUS  HN ES   2    357 49.99                             133   -0.34 5  111 165 
 RUS  HZ I         357 51.52         4.2 0.42                           111 165 
 PTB  HZ EP   2    357 34.16                             128   -0.24 5  128 254 
 PTB  HN ES   2    357 51.56                             128   -0.43 5  128 254 
 OCA  SZ EP   2    357 37.21                             123    0.11 5  153   1 
 OCA  SZ ES   2    357 56.70                             123   -0.09 5  153   1 
 ZAR  HZ EP   1    357 39.78                             118   -0.12 7  181 293 
 ZAR  HN ES   2    358  1.86                             118    0.10 4  181 293 
 ZAR  HZ I         358  7.18         6.3 0.18                           181 293 
 CHI  HZ EP   2    357 49.04                             109    0.89 4  250 190 
 CHI  HE ES   2    358 17.15                             109    0.69 4  250 190 
 CHI  HZ I         358 23.03         2.3 0.47                           250 190 
 HEL  HN ES   2    358 17.08                             109    0.26 4  252 253 
                                                                                
