 2012  818 0141  2.9 L   6.776 -73.125141.0  RSN  8 0.5 2.3LRSN                1
 GAP=140        0.91       5.0     4.6  7.9 -0.3466E+01  0.1082E+02 -0.5778E+01E
 Epicentro: LOS SANTOS - SANTANDER                                             3
 ACTION:UPD 12-09-10 11:56 OP:ep   STATUS:               ID:20120818014102 L   I
 2012-08-18-0140-00M.COL___217                                                 6
 STAT SP IPHASW D HRMM SECON CODA AMPLIT PERI AZIMU VELO AIN AR TRES W  DIS CAZ7
 BAR2 SZ EP        141 21.92                             171    0.0510 21.2 197 
 BAR2 SZ I         141 22.09        72.6 0.17                          21.2 197 
 BAR2 SZ ES   1    141 36.05                             171   -0.66 7 21.2 197 
 BRR  HZ IP     C  141 23.90                             151    0.2210 74.5 300 
 BRR  HZ I         141 24.36        77.8 0.16                          74.5 300 
 BRR  HE ES   2    141 40.70                             151    0.77 5 74.5 300 
 PAM  SZ EP   1    141 24.79                             150    0.18 7 78.1  37 
 PAM  SN ES   1    141 41.91                             150    0.33 7 78.1  37 
 PAM  SZ I         141 42.66        22.4 0.32                          78.1  37 
 RUS  HZ EP   1    141 25.83                             144   -0.10 7 97.8 177 
 RUS  HN ES   1    141 44.32                             144    0.38 7 97.8 177 
 RUS  HZ I         141 45.05         9.0 0.31                          97.8 177 
 PTB  HZ EP   1    141 28.69                             131   -0.91 7  149 260 
 PTB  HN ES        141 50.35                             131   -0.11 9  149 260 
 PTB  HZ I         141 52.60        20.4 0.10                           149 260 
 OCA  HZ EP   1    141 30.77                             128   -0.31 7  163 352 
 OCA  HE ES   2    141 52.13                             128   -0.97 5  163 352 
 OCA  HZ I         141 57.21        32.0 0.31                           163 352 
 ZAR  HN ES   1    142  1.25                             121    0.61 6  207 293 
 ZAR  HZ I         142 11.34        18.6 0.10                           207 293 
 HEL  HZ EP   1    141 43.77                             114    0.77 6  274 256 
 HEL  HN ES   1    142 13.88                             114   -0.44 6  274 256 
 HEL  HZ I         142 20.91        11.8 0.27                           274 256 
                                                                                
