 2012  418 0848 35.8 L   6.785 -73.139151.0  RSN  5 0.4 1.7LRSN                1
 GAP=138        0.84       6.0     6.2  8.0  0.9078E+01  0.1145E+02 -0.2017E+01E
 Epicentro: LOS SANTOS - SANTANDER                                             3
 ACTION:UPD 12-07-05 11:54 OP:tino STATUS:               ID:20120418084835 L   I
 2012-04-18-0840-00M.COL___187                                                 6
 STAT SP IPHASW D HRMM SECON CODA AMPLIT PERI AZIMU VELO AIN AR TRES W  DIS CAZ7
 BAR2 SZ EP   1    848 55.75                             171    -0.3 7   22 193 
 BAR2 SZ ES   1    849 11.31                             171    -0.6 7   22 193 
 BAR2 SZ I         849 13.63        11.7 0.25                            22 193 
 BRR  HZ EP   1    848 57.92                             153     0.3 7   73 299 
 BRR  HE ES   1    849 15.08                             153     0.4 7   73 299 
 BRR  HZ I         849 17.34         8.0 0.19                            73 299 
 PAM  SZ EP   1    848 59.06                             151     0.4 7   78  38 
 PAM  SE ES   1    849 16.32                             151    -0.2 7   78  38 
 RUS  HZ EP   1    849  0.11                             145     0.1 7   99 176 
 RUS  HN ES   1    849 19.09                             145     0.3 7   99 176 
 RUS  HZ I         849 20.05         5.4 0.23                            99 176 
 ZAR  HZ EP   1    849  8.16                             123    -0.6 6  205 292 
 ZAR  HE ES   1    849 34.49                             123     0.0 6  205 292 
 ZAR  HZ I         849 42.57         4.2 0.45                           205 292 
                                                                                
