 2013  318 0056  0.6 L   6.806 -73.155146.3  RSN  7 0.6 1.8LRSN                1
 GAP=135        1.25       5.3     7.7  9.0  0.1024E+01  0.2520E+02  0.2822E+00E
 Epicentro: LOS SANTOS - SANTANDER                                             3
 ACTION:UPD 13-04-09 14:03 OP:ep   STATUS:               ID:20130318005600 L   I
 2013-03-18-0050-00M.COL___242                                                 6
 STAT SP IPHASW D HRMM SECON CODA AMPLIT PERI AZIMU VELO AIN AR TRES W  DIS CAZ7
 BAR2 SZ EP        056 20.25                             170    0.0010 23.9 187 
 BAR2 SZ ES        056 35.08                             170   -0.5410 23.9 187 
 BRR  HZ EP        056 22.04                             153    0.3510 70.0 298 
 BRR  HN ES        056 39.12                             153    0.9510 70.0 298 
 BRR  HN I         056 40.10        13.4 0.24            149           70.0 298 
 PAM  SZ EP   1    056 22.98                             151    0.15 7 77.5  40 
 PAM  SN ES        056 40.33                             151    0.1310 77.5  40 
 PAM  SN I         056 42.45         7.4 0.50            154           77.5  40 
 RUS  HZ EP   1    056 24.40                             144   -0.01 7  101 176 
 RUS  HN ES        056 42.74                             144   -0.2810  101 176 
 RUS  HN I         056 44.37         6.5 0.26            145            101 176 
 PTB  HZ EP   1    056 26.74                             132   -0.74 7  147 258 
 PTB  HN ES   2    056 47.67                             132   -0.82 5  147 258 
 PTB  HN I         056 53.57        10.9 0.26            130            147 258 
 NOR  HZ EP        056 37.00                             119    0.73 8  234 234 
 NOR  HE ES   2    057  4.12                             119    0.00 4  234 234 
 NOR  HN I         057 10.70         6.0 0.14            118            234 234 
 SML  HN ES        057  4.61                             118   -0.98 8  243 335 
 SML  HN I         057 11.64         7.9 0.24            118            243 335 
                                                                                
