 2014  318 0850 16.6 L   6.800 -73.171151.5  RSN  9 0.4 2.6LRSN                1
 GAP=133        0.91       2.8     4.4  5.8 -0.7379E+00  0.1012E+02 -0.2873E+01E
 Epicentro: LOS SANTOS - SANTANDER                                             3
 ACTION:UPD 14-04-09 23:18 OP:nd   STATUS:               ID:20140318085016 L   I
 OLDACT:UP  14-03-18 13:01 OP:mh   STATUS:               ID:20140318084816     3
 OLDACT:UP  14-03-18 13:01 OP:mh   STATUS:               ID:20140318084816     3
 OLDACT:REG 14-03-18 08:20 OP:mh   STATUS:               ID:20140318084816     3
 2014-03-18-0848-16M.COL___223                                                 6
 STAT SP IPHASW D HRMM SECON CODA AMPLIT PERI AZIMU VELO AIN AR TRES W  DIS CAZ7
 BAR2 SZ EP        850 37.02                             171    0.0910 23.0 183 
 BAR2 SZ ES        850 53.03                             171    0.2610 23.0 183 
 BAR2 SZ I    1    850 54.17        32.8 0.29            172           23.0 183 
 PAM  SZ EP        850 39.28                             151   -0.2710 79.2  41 
 PAM  SN ES        850 57.17                             151   -0.2710 79.2  41 
 PAM  SZ I         851  1.18         5.5 0.10            154           79.2  41 
 RUS  HZ EP   1    850 41.11                             145    0.16 7  101 174 
 RUS  HN ES        850 59.89                             145   -0.0410  101 174 
 RUS  HZ I         851  2.27        12.0 0.45            150            101 174 
 PTB  HZ EP        850 43.34                             134   -0.47 9  145 259 
 PTB  HN ES        851  5.05                             134    0.03 9  145 259 
 PTB  HZ I         851  7.15     65277.4 0.02            134            145 259 
 OCA  HZ EP        850 46.31                             131    0.96 9  160 354 
 OCA  HN ES        851  7.61                             131   -0.15 9  160 354 
 OCA  HZ I         851 12.01        13.0 0.25            132            160 354 
 ZAR  HZ EP        850 49.57                             124    0.39 9  201 292 
 ZAR  HN ES   1    851 15.04                             124    0.47 6  201 292 
 ZAR  HZ I         851 22.23        15.7 0.23            124            201 292 
 SML  HZ EP        850 53.42                             119   -0.03 8  243 336 
 SML  HN ES        851 21.90                             119   -0.27 8  243 336 
 SML  HZ I         851 27.41        27.2 0.05            120            243 336 
 CHI  HZ EP   1    850 54.92                             118    0.36 6  248 195 
 CHI  HN ES        851 23.95                             118   -0.21 8  248 195 
 URE  HZ EP        850 56.90                             115   -0.78 7  281 292 
 URE  HN ES   4    851 28.28                             115   -1.43 0  281 292 
 URE  HZ I         851 41.32         8.1 0.28            116            281 292 
 GUY2CHZ EP   4    851  3.06                             114    2.82 0  299 234 
 GUY2CHN ES   4    851 37.68                             114    3.42 0  299 234 
                                                                                
