 2015 1218 0123  4.2 L   6.812 -73.137149.3  RSN 13 0.4 2.1LRSN                1
 GAP=137        0.92       2.3     3.5  4.7 -0.1626E+01  0.4495E+01  0.4001E+00E
 Epicentro: LOS SANTOS - SANTANDER                                             3
 ACTION:UPD 16-02-04 15:05 OP:cam  STATUS:               ID:20151218012304 L   I
 OLDACT:REG 15-12-18 13:01 OP:cara STATUS:               ID:20151218011749     3
 2015-12-18-0117-49M.COL___341                                                 6
 STAT SP IPHASW D HRMM SECON CODA AMPLIT PERI AZIMU VELO AIN AR TRES W  DIS CAZ7
 BAR2 EZ IP        123 24.13                             170   -0.1910 24.8 192 
 BAR2 EZ ES        123 39.95                             170   -0.0310 24.8 192 
 BAR2 EZ I         123 41.03        18.8 0.36            169           24.8 192 
 BRR  HZ IP     C  123 26.04                             153    0.2610 71.4 297 
 BRR  HN ES        123 43.33                             153    0.7510 71.4 297 
 BRR  HZ I         123 48.43        13.5 0.12            150           71.4 297 
 PAM  EZ IP     C  123 26.94                             152    0.2110 75.7  40 
 PAM  EE ES        123 44.52                             152    0.2510 75.7  40 
 PAM  EZ I         123 45.43         8.4 0.18            156           75.7  40 
 RUS  HZ EP        123 28.56                             144    0.1410  102 177 
 RUS  HN ES        123 46.81                             144   -0.4810  102 177 
 RUS  HZ I         123 48.04        12.1 0.26            147            102 177 
 PTB  HZ EP        123 30.88                             133   -0.72 9  149 258 
 PTB  HN ES        123 52.37                             133   -0.57 9  149 258 
 PTB  HZ I         123 59.45        12.9 0.36            132            149 258 
 OCA  HZ EP        123 32.32                             131   -0.39 9  159 353 
 OCA  HE ES        123 54.61                             131   -0.31 9  159 353 
 OCA  HZ I         124  0.09        34.1 0.24            132            159 353 
 SPBC HZ EP        123 33.49                             130    0.33 9  165 219 
 SPBC HE ES        123 55.64                             130   -0.08 9  165 219 
 SPBC HZ I         123 58.04        22.3 0.26            130            165 219 
 ZAR  HZ EP        123 37.26                             123    0.31 9  204 292 
 ZAR  HE ES        124  2.77                             123    0.30 9  204 292 
 ZAR  HZ I         124  9.23        20.5 0.34            123            204 292 
 NOR  HZ EP        123 40.24                             119   -0.10 8  236 234 
 NOR  HE ES        124  7.96                             119   -0.54 8  236 234 
 NOR  HZ I         124 13.27         7.1 0.46            120            236 234 
 SML  HZ EP        123 40.87                             118   -0.10 8  243 335 
 SML  HE ES        124  9.33                             118   -0.30 8  243 335 
 SML  HZ I         124 12.13        23.2 0.30            120            243 335 
 CHI  HZ IP        123 42.57                             118    0.27 8  250 195 
 CHI  HN ES        124 12.04                             118    0.06 8  250 195 
 CHI  HZ I         124 17.46         3.0 0.30            120            250 195 
 GUY2CHZ EP        123 48.60                             113    0.42 7  303 235 
 GUY2CHN ES        124 22.65                             113    0.19 7  303 235 
 GUY2CHZ I         124 31.74         5.6 0.74                           303 235 
 ELA  HN ES        124 28.86                             111    0.64 7  331 229 
 ELA  HZ I         124 36.38         4.3 0.60            112            331 229 
                                                                                
