 2015  618 0544 38.3 L   6.821 -73.087140.0  RSN 10 0.4 1.9LRSN                1
 GAP=212        0.90       3.0     5.0  5.1 -0.4413E+01  0.6388E+01  0.7098E+00E
 Epicentro: LOS SANTOS - SANTANDER                                             3
 ACTION:UPD 15-09-10 22:13 OP:cam  STATUS:               ID:20150618054438 L   I
 OLDACT:REG 15-06-18 12:35 OP:drio STATUS:               ID:20150618053740     3
 2015-06-18-0537-40M.COL___309                                                 6
 STAT SP IPHASW D HRMM SECON CODA AMPLIT PERI AZIMU VELO AIN AR TRES W  DIS CAZ7
 BAR2 EZ EP     C  544 57.79                             168    0.4610 27.4 203 
 BAR2 EZ ES        545 11.53                             168   -0.6410 27.4 203 
 BAR2 EZ I         545 18.10         7.7 0.18            167           27.4 203 
 BRR  HZ EP        544 59.55                             150    0.4410 75.9 295 
 BRR  HE ES        545 15.78                             150    0.4410 75.9 295 
 BRR  HZ I         545 20.71        17.4 0.16            147           75.9 295 
 OCA  HZ EP        545  6.13                             128    0.10 9  159 351 
 OCA  HN ES        545 27.69                             128    0.03 9  159 351 
 OCA  HZ I         545 31.77        13.9 0.12            130            159 351 
 ZAR  HZ EP        545 11.03                             120    0.12 8  209 291 
 ZAR  HN ES        545 36.47                             120    0.12 8  209 291 
 ZAR  HZ I         545 41.61        12.8 0.44            121            209 291 
 NOR  HZ EP        545 14.32                             116   -0.10 8  241 235 
 NOR  HE ES        545 42.11                             116   -0.49 8  241 235 
 NOR  HZ I         545 43.71         5.9 0.18            119            241 235 
 SML  HZ EP        545 14.46                             116   -0.22 8  244 334 
 SML  HE ES        545 42.21                             116   -0.84 8  244 334 
 SML  HZ I         545 47.35        15.0 0.10            118            244 334 
 HEL  HZ EP        545 19.41                             113    0.42 7  279 256 
 HEL  HE ES        545 50.76                             113    0.03 7  279 256 
 HEL  HZ I         545 56.81         3.5 0.22            115            279 256 
 GUY2CHZ EP        545 22.19                             111   -0.21 7  308 235 
 GUY2CHE ES        545 57.19                             111    0.38 7  308 235 
 GUY2CHZ I         546  4.80         1.8 0.40                           308 235 
 MON  HZ EP        545 27.22                             107   -0.29 6  357 307 
 MON  HN ES   4    546  4.32                             107   -1.57 0  357 307 
 MON  HZ I         546 19.73         1.7 0.62            109            357 307 
 PRA  HZ EP        545 32.36                             105    0.11 6  397 210 
 PRA  HN ES        546 13.77                             105   -0.56 6  397 210 
 PRA  HZ I         546 17.57         1.9 0.34            108            397 210 
 SJC  HZ EP   4    545 32.46                             105   -1.40 0  411 326 
 SJC  HN ES   4    546 13.36                             105   -3.84 0  411 326 
                                                                                
