 2013  618 0954 15.7 L   6.819 -73.098142.3  RSN 13 0.5 2.4LRSN                1
 GAP=113        0.96       3.1     4.4  6.5  0.2172E+00  0.6356E+01 -0.1672E+00E
 Epicentro: LOS SANTOS - SANTANDER                                             3
 ACTION:UPD 14-01-08 09:55 OP:ep   STATUS:               ID:20130618095415 L   I
 OLDACT:REG 13-06-18 08:30 OP:carl STATUS:               ID:20130618094959     3
 2013-06-18-0949-59M.COL___261                                                 6
 STAT SP IPHASW D HRMM SECON CODA AMPLIT PERI AZIMU VELO AIN AR TRES W  DIS CAZ7
 BAR2 SZ IP     D  954 35.02                             169    0.0110 26.8 200 
 BAR2 SZ ES   1    954 49.32                             169   -0.74 7 26.8 200 
 BAR2 SZ I         954 50.94        45.6 0.34            167           26.8 200 
 BRR  HZ IP     D  954 36.85                             151    0.1310 74.9 295 
 BRR  HN ES   1    954 53.98                             151    0.89 7 74.9 295 
 BRR  HZ I         954 56.77        47.9 0.44            149           74.9 295 
 RUS  HZ EP        954 39.08                             143   -0.2010  102 179 
 RUS  HN ES   1    954 57.28                             143   -0.36 7  102 179 
 RUS  HZ I         954 59.50        13.6 0.20            143            102 179 
 TAM  HZ EP   1    954 43.55                             131    0.83 7  151 106 
 TAM  HE ES   1    955  3.98                             131    0.22 7  151 106 
 PTB  HZ EP   4    954 41.70                             130   -1.23 0  153 258 
 PTB  HN ES   4    955  2.84                             130   -1.30 0  153 258 
 PTB  HZ I         955  3.88        22.3 0.38            129            153 258 
 OCA  HZ EP   1    954 43.68                             129    0.04 7  159 351 
 OCA  HN ES   1    955  5.69                             129    0.28 7  159 351 
 OCA  HZ I         955  7.95        33.9 0.24            130            159 351 
 NOR  HZ EP   1    954 51.14                             117   -0.71 6  240 235 
 NOR  HN ES   4    955 19.04                             117   -0.99 0  240 235 
 NOR  HZ I         955 24.95        18.8 0.18            117            240 235 
 SML  HZ EP   1    954 51.36                             117   -0.84 6  244 334 
 SML  HN ES   1    955 19.41                             117   -1.23 6  244 334 
 SML  HZ I         955 24.80        29.6 0.26            117            244 334 
 CHI  HZ EP   1    954 53.28                             116   -0.33 6  252 196 
 CHI  HN ES   1    955 23.28                             116    0.12 6  252 196 
 CHI  HZ I         955 26.37        10.7 0.30            117            252 196 
 HEL  HZ EP   1    954 56.75                             113    0.36 6  278 256 
 HEL  HE ES   1    955 28.58                             113    0.48 6  278 256 
 HEL  HZ I         955 33.27        12.4 0.38            114            278 256 
 GUY2CHZ EP   1    955  0.56                             111    0.76 5  307 235 
 GUY2CHN ES   1    955 34.50                             111    0.32 5  307 235 
 GUY2CHZ I         955 42.94        11.3 0.48                           307 235 
 COD  HZ EP   1    955  3.55                             108   -0.24 5  347 354 
 COD  HN ES   1    955 42.05                             108    0.78 5  347 354 
 PRA  HZ EP   1    955  9.24                             106   -0.41 4  396 210 
 PRA  HN ES   1    955 51.53                             106   -0.18 4  396 210 
 PRA  HZ I         955 55.70        12.8 0.44            106            396 210 
                                                                                
