 2012  818 0204 48.2 L   6.473 -73.590113.2  RSN  4 0.1 1.7LRSN                1
 GAP=136        0.34       3.7     5.3  7.1  0.1002E+02  0.2783E+02  0.7484E+01E
 Epicentro: SANTA HELENA DEL OPON - SANTANDER                                  3
 ACTION:UPD 12-09-10 11:56 OP:ep   STATUS:               ID:20120818020448 L   I
 2012-08-18-0200-00M.COL___217                                                 6
 STAT SP IPHASW D HRMM SECON CODA AMPLIT PERI AZIMU VELO AIN AR TRES W  DIS CAZ7
 BAR2 SZ EP   1    2 5  4.90                             156    0.11 7 46.9  74 
 BAR2 SZ ES   1    2 5 17.63                             156   -0.13 7 46.9  74 
 BAR2 SZ I         2 5 18.83        42.7 0.29                          46.9  74 
 BRR  HZ EP   1    2 5  5.83                             145   -0.08 7 71.4 349 
 BRR  HZ I         2 5 13.15         4.8 0.18                          71.4 349 
 BRR  HN ES   2    2 5 19.95                             145    0.19 5 71.4 349 
 RUS  HN ES   1    2 5 22.87                             141    0.07 7 85.2 139 
 PTB  HZ EP   1    2 5  7.78                             137   -0.06 7 96.1 274 
                                                                                
