 2015  418 0511  4.0 L   6.808 -73.145143.5  RSN 11 0.5 2.2LRSN                1
 GAP=136        1.20       3.9     4.9  6.9 -0.1962E+01  0.1015E+02 -0.2419E+01E
 Epicentro: LOS SANTOS - SANTANDER                                             3
 ACTION:UPD 15-06-03 16:55 OP:cam  STATUS:               ID:20150418051104 L   I
 OLDACT:REG 15-04-18 15:50 OP:carl STATUS:               ID:20150418050746     3
 2015-04-18-0507-46M.COL___272                                                 6
 STAT SP IPHASW D HRMM SECON CODA AMPLIT PERI AZIMU VELO AIN AR TRES W  DIS CAZ7
 BAR2 EZ EP        511 23.29                             170   -0.0410 24.2 190 
 BAR2 EZ ES        511 38.19                             170   -0.2510 24.2 190 
 BAR2 EZ I         511 39.49        50.6 0.18            170           24.2 190 
 BRR  HZ EP        511 25.14                             152    0.3010 70.8 298 
 BRR  HN ES        511 41.78                             152    0.6610 70.8 298 
 BRR  HZ I         511 45.87        28.6 0.18            149           70.8 298 
 PAM  SZ EP        511 26.02                             151    0.1410 76.6  40 
 PAM  SN ES        511 43.02                             151    0.0310 76.6  40 
 PAM  SZ I         511 45.37        21.1 0.62            153           76.6  40 
 RUS  HZ EP        511 27.32                             143   -0.2310  101 176 
 RUS  HN ES        511 45.94                             143   -0.0110  101 176 
 RUS  HZ I         511 47.44        14.5 0.26            147            101 176 
 PTB  HZ EP        511 29.68                             131   -1.08 9  148 258 
 PTB  HN ES        511 51.39                             131   -0.28 9  148 258 
 PTB  HZ I         511 53.79        22.9 0.14            131            148 258 
 SPBC HZ EP        511 32.49                             128    0.14 9  164 219 
 SPBC HN ES        511 54.63                             128    0.13 9  164 219 
 SPBC HZ I         511 58.75        27.8 0.24            130            164 219 
 ZAR  HZ EP        511 37.51                             122    1.29 9  204 292 
 ZAR  HN ES        512  1.28                             122   -0.11 9  204 292 
 ZAR  HZ I         512  8.99        13.0 0.28            122            204 292 
 NOR  HZ EP        511 40.07                             118    0.45 8  235 234 
 NOR  HN ES        512  7.12                             118   -0.31 8  235 234 
 NOR  HZ I         512  9.32        17.3 0.22            119            235 234 
 SML  HZ EP        511 40.09                             117   -0.28 8  243 335 
 SML  HN ES        512  8.09                             117   -0.68 8  243 335 
 SML  HZ I         512 16.05        15.1 0.10            118            243 335 
 HEL  HZ EP   4    511 45.43                             114    1.35 0  272 256 
 HEL  HN ES   4    512 14.19                             114   -1.19 0  272 256 
 HEL  HZ I         512 21.80         8.9 0.32            115            272 256 
 GUY2CHZ EP   4    511 48.11                             112    0.59 0  302 235 
 GUY2CHN ES   4    512 22.47                             112    0.96 0  302 235 
 GUY2CHZ I         512 28.64         8.6 0.42                           302 235 
                                                                                
