 2016  818 0341 14.3 L   6.851 -73.155147.9  RSN 25 0.5 2.7LRSN                1
 GAP= 66        1.07       2.7     2.6  4.6 -0.1252E+01  0.2557E+01  0.3317E+00E
 Epicentro: LOS SANTOS - SANTANDER                                             3
 ACTION:UPD 16-10-29 15:36 OP:rebc STATUS:               ID:20160818034114 L   I
 OLDACT:REG 16-08-18 12:52 OP:ak   STATUS:               ID:20160818033759     3
 2016-08-18-0337-59S.COL___349                                                 6
 STAT SP IPHASW D HRMM SECON CODA AMPLIT PERI AZIMU VELO AIN AR TRES W  DIS CAZ7
 BAR2 EZ EP        341 34.33                             169    0.0110 28.8 186 
 BAR2 EZ ES        341 49.35                             169   -0.5810 28.8 186 
 BAR2 EZ I         341 50.56       158.2 0.24                          28.8 186 
 BRR  HZ IP     C  341 36.08                             154    0.5710 67.7 295 
 BRR  HN ES        341 52.49                             154    0.4510 67.7 295 
 BRR  HZ I         341 58.13        74.9 0.18                          67.7 295 
 PAM  EZ EP        341 37.30                             152    0.7510 73.8  43 
 PAM  EN ES        341 54.26                             152    0.3610 73.8  43 
 PAM  EZ I         341 56.51        93.5 0.48                          73.8  43 
 RUS  HZ EP        341 38.29                             143   -0.4010  106 176 
 RUS  HN ES        341 57.37                             143   -0.3410  106 176 
 RUS  HZ I         341 58.09        82.0 0.28                           106 176 
 PTB  HZ EP        341 40.82                             132   -0.65 9  148 257 
 PTB  HN ES        342  2.19                             132   -0.47 9  148 257 
 PTB  HZ I         342  9.13        56.3 0.36                           148 257 
 TAM  HZ IP     D  341 42.71                             130    0.31 9  158 107 
 TAM  HN ES        342  4.43                             130    0.13 9  158 107 
 SPBC HZ EP        341 43.03                             129   -0.31 9  167 217 
 SPBC HN ES        342  5.86                             129   -0.12 9  167 217 
 SPBC HZ I         342  7.77        68.0 0.10                           167 217 
 ZAR  HZ EP        341 46.92                             123    0.33 9  201 291 
 ZAR  HN ES        342 12.26                             123    0.50 9  201 291 
 ZAR  HZ I         342 17.65        37.1 0.33                           201 291 
 NOR  HZ EP        341 50.18                             119   -0.25 8  237 233 
 NOR  HE ES        342 18.01                             119   -0.60 8  237 233 
 NOR  HZ I         342 23.02        42.5 0.24                           237 233 
 CHI  HZ EP        341 52.48                             117   -0.21 8  254 195 
 CHI  HN ES        342 22.03                             117   -0.60 8  254 195 
 CHI  HZ I         342 25.07        34.0 0.36                           254 195 
 ROSC BZ EP   2    341 53.82                             117    0.80 4  257 210 
 ROSC BN ES        342 24.19                             117    0.97 8  257 210 
 ROSC BZ I         342 29.00        51.8 0.40                           257 210 
 HEL  HZ EP   2    341 55.26                             115    0.58 4  273 255 
 HEL  HN ES        342 25.82                             115   -0.35 8  273 255 
 HEL  HZ I         342 32.35        29.4 0.26                           273 255 
 URE  HZ EP        341 54.39                             114   -0.76 7  281 291 
 URE  HN ES        342 26.86                             114   -0.14 7  281 291 
 URE  HZ I         342 32.03        27.3 0.16                           281 291 
 SOCV BZ EP        341 57.22                             113    0.01 7  299  58 
 SOCV BN ES   4    342 28.81                             113   -1.87 0  299  58 
 GUY2CHZ EP        341 58.24                             113   -0.06 7  304 234 
 GUY2CHN ES        342 33.45                             113    0.84 7  304 234 
 GUY2CHZ I         342 40.47        25.8 0.26                           304 234 
 PTGC HZ IP   4 D  341 57.44                             112   -1.46 0  314 159 
 PTGC HN ES   4    342 30.61                             112   -3.08 0  314 159 
 PTGC HZ I         342 35.77        29.2 0.28                           314 159 
 LL6C HZ EP        341 58.78                             111   -0.68 7  319 358 
 LL6C HE ES        342 34.09                             111   -0.58 7  319 358 
 LL6C HZ I         342 40.24        11.3 0.71                           319 358 
 ELA  HZ EP   9    342  3.67                             110    2.08 0  332 229 
 ELA  HN ES        342 40.84                                    0.29 7  332 229 
 ELA  HZ I         342 46.13        18.5 0.42                           332 229 
 CBOC HZ EP        342  1.53                             110    0.12 7  334 251 
 CBOC HN ES        342 38.02                             110   -0.12 7  334 251 
 CBOC HZ I         342 43.87         8.3 0.46                           334 251 
 DBB  HZ EP   2    342  2.53                             110    0.82 3  338 273 
 DBB  HZ ES   4    342 37.89                             110   -0.80 0  338 273 
 ANIL HZ EP        342  5.50                             109    0.92 6  361 224 
 ANIL HN ES        342 44.79                             109    0.99 6  361 224 
 PRA  HZ EP        342  8.20                             107   -0.22 6  396 209 
 PRA  HN ES        342 50.41                             107   -0.22 6  396 209 
 PRA  HZ I         342 56.74        19.4 0.22                           396 209 
 SJC  HZ EP   4    342  8.14                             106   -1.18 0  404 327 
 SJC  HN ES   4    342 49.72                             106   -2.51 0  404 327 
 SJC  HZ I         342 54.29         5.1 0.20                           404 327 
 CRJC HZ EP   9    342 14.90                             104   -1.31 0  462   4 
 CRJC HN ES        343  2.65                                   -0.53 5  462   4 
 CRJC HZ I         343  5.54        11.1 0.20                           462   4 
 GUA  EZ EP   2    342 17.60                             103   -0.60 2  480 173 
 GUA  EN ES   4    343  5.62                             103   -2.42 0  480 173 
 GUA  EZ I         343  7.81        12.8 0.28                           480 173 
 GARC HZ EP   4    342 28.15                             100   -2.01 0  577 207 
 GARC HN ES   4    343 25.49                             100   -3.83 0  577 207 
                                                                                
