 2012  718 0116 41.8 L   6.755 -73.177150.6  RSN  5 0.4 1.6LRSN                1
 GAP=230        0.80       6.6     8.7 11.7  0.2426E+02 -0.7506E+01  0.1685E+02E
 Epicentro: VILLANUEVA - SANTANDER                                             3
 ACTION:UPD 12-08-14 11:45 OP:ep   STATUS:               ID:20120718011641 L   I
 2012-07-18-0110-00M.COL___197                                                 6
 STAT SP IPHASW D HRMM SECON CODA AMPLIT PERI AZIMU VELO AIN AR TRES W  DIS CAZ7
 BRR  HZ EP   1    117  3.47                             154     0.0 7   71 303 
 BRR  HN ES   1    117 20.68                             154     0.3 7   71 303 
 BRR  HZ I         117 21.17        14.4 0.16            150             71 303 
 RUS  HZ EP   1    117  5.95                             146     0.2 7   96 174 
 RUS  HZ I         117  6.98         4.1 0.16            144             96 174 
 RUS  HE ES   2    117 23.62                             146    -0.8 5   96 174 
 PTB  HZ EP   1    117  8.35                             134    -0.5 7  143 261 
 PTB  HN ES   1    117 29.54                             134    -0.3 7  143 261 
 PTB  HZ I         117 35.19         4.3 0.23            131            143 261 
 ZAR  HE ES   2    117 40.21                             124     0.3 4  203 294 
 CHI  HN ES   1    117 48.89                             119     0.6 6  243 195 
