 2010 1218 0758 10.9 L   5.921 -73.733112.7  RSN  4 0.2 1.2LRSN                1
 GAP=174        0.63       6.6     3.7  9.2 -0.3933E+01  0.1693E+02 -0.3739E+01E
 Epicentro: GUAVATA - SANTANDER                                                3
 ACTION:UP  11-01-14 15:25 OP:pat  STATUS:               ID:20101218075810 L   I
 2010-12-18-0740-00M.COL___136                                                 6
 STAT SP IPHASW D HRMM SECON CODA AMPLIT PERI AZIMU VELO SNR AR TRES W  DIS CAZ7
 RUS  HZ EP        758 29.49                             145     0.110   72  93 
 RUS  HZ I         758 29.83         3.7 0.31                            72  93 
 RUS  HN ES   1    758 43.59                             145    -0.1 7   72  93 
 NOR  SZ EP        758 33.52                             127    -0.410  132 253 
 NOR  SN ES   1    758 52.11                             127     0.3 7  132 253 
 CHI  HZ EP   1    758 35.66                             124     0.2 7  143 180 
 CHI  HN ES   2    758 54.34                             124    -0.2 5  143 180 
 CHI  HZ I         758 57.49         1.7 0.37                           143 180 
 HEL  HZ EP   1    758 41.70                             115     0.1 6  201 279 
 HEL  HZ I         759  9.88         2.0 0.36                           201 279 
                                                                                
