 2012  618 0626 33.3 L   6.816 -73.197144.8  RSN  6 0.3 2.0LRSN                1
 GAP=130        0.56       3.4     3.5  5.9 -0.2368E+01  0.5443E+01 -0.5299E+01E
 Epicentro: ZAPATOCA - SANTANDER                                               3
 ACTION:UPD 12-08-06 17:50 OP:ep   STATUS:               ID:20120618062640 L   I
 2012-06-18-0620-00M.COL___199                                                 6
 STAT SP IPHASW D HRMM SECON CODA AMPLIT PERI AZIMU VELO AIN AR TRES W  DIS CAZ7
 BAR2 SZ EP        626 52.93                             170    0.1110 24.8 176 
 BAR2 SZ ES   2    627  7.88                             170   -0.19 5 24.8 176 
 BAR2 SZ I         627 10.15        38.5 0.22            180           24.8 176 
 PAM  SZ EP        626 55.83                             150    0.2910 79.8  43 
 PAM  SE ES   1    627 12.71                             150   -0.19 7 79.8  43 
 PAM  SZ I         627 15.21        11.5 0.54            136           79.8  43 
 RUS  HZ EP        626 57.14                             143    0.0410  103 173 
 RUS  HE ES   1    627 15.73                             143    0.05 7  103 173 
 RUS  HZ I         627 17.05         9.4 0.50            144            103 173 
 PTB  HZ EP        626 59.43                             133   -0.27 9  143 258 
 PTB  HN ES   1    627 20.22                             133   -0.09 7  143 258 
 PTB  HZ I         627 22.94         9.8 0.22            125            143 258 
 OCA  HZ EP        627  1.05                             130   -0.25 9  158 355 
 OCA  HZ I         627 30.96        17.4 0.48            117            158 355 
 ZAR  HZ EP   3    627  5.91                             123    0.85 2  198 292 
 ZAR  HE ES   2    627 30.68                             123    0.84 4  198 292 
 ZAR  HZ I         627 36.93        13.3 0.48            114            198 292 
                                                                                
