 2011  518 0518  1.6 L   6.819 -73.109154.5  RSN  6 0.4 1.7LRSN                1
 GAP=140        0.85       4.9     7.4  9.5 -0.5807E+01  0.1931E+02  0.1143E+02E
 Epicentro: LOS SANTOS - SANTANDER                                             3
 ACTION:UP  11-06-29 08:54 OP:tino STATUS:               ID:20110518051801 L   I
 2011-05-18-0516-33S.COL___141                                                 6
 STAT SP IPHASW D HRMM SECON CODA AMPLIT PERI AZIMU VELO SNR AR TRES W  DIS CAZ7
 PAM  SZ EP   1    518 24.00                             154    -0.5 7   73  38 
 PAM  SN ES        518 42.65                             154     0.210   73  38 
 BRR  HZ EP   1    518 24.45                             153     0.6 7   74 296 
 BRR  HE ES   1    518 41.34                             153     0.1 7   74 296 
 BRR  HZ I         518 46.73         7.9 0.13                            74 296 
 RUS  HZ EP   1    518 26.71                             145     0.3 7  103 178 
 RUS  HE ES   1    518 45.35                             145    -0.3 7  103 178 
 RUS  HZ I         518 47.05         4.8 0.29                           103 178 
 OCA  SZ ES   1    518 52.51                             132    -0.5 7  159 352 
 OCA  SZ I         519  1.49         5.5 0.28                           159 352 
 NOR  SZ EP   2    518 38.21                             120    -0.2 4  239 235 
 NOR  SE ES   2    519  6.54                             120    -0.5 4  239 235 
 RREF HZ EP   2    518 48.95                             112     0.3 3  326 230 
 RREF HZ I         519 34.83         2.7 0.33                           326 230 
                                                                                
