 2012  318 0427 46.9 L   6.781 -73.200133.7  RSN  6 0.3 1.2LRSN                1
 GAP=131        0.64       5.1     3.8  7.2 -0.4747E+01  0.7486E+01 -0.3085E+01E
 ACTION:UP  12-03-31 23:20 OP:EP   STATUS:               ID:20120318042746 L   I
 2012-03-18-0420-00M.COL___202                                                 6
 STAT SP IPHASW D HRMM SECON CODA AMPLIT PERI AZIMU VELO SNR AR TRES W  DIS CAZ7
 BAR2 SZ ES   1    428 19.08                             171    -0.1 8   21 175 
 BAR2 SZ I         428 22.68         5.1 0.19                            21 175 
 BRR  HZ EP   1    428  7.16                             152     0.6 8   67 303 
 BRR  HZ I         428  7.66         7.3 0.10                            67 303 
 PAM  SZ EP   1    428  8.01                             147    -0.2 8   83  42 
 PAM  SN ES   1    428 24.86                             147     0.0 8   83  42 
 RUS  HZ EP   1    428  9.36                             142    -0.1 8   99 172 
 RUS  HN ES   2    428 27.23                             142     0.3 5   99 172 
 RUS  HZ I         428 29.05         2.0 0.39                            99 172 
 PTB  HZ EP   1    428 12.12                             130    -0.2 7  141 259 
 PTB  HN ES        428 32.13                             130    -0.110  141 259 
 PTB  HZ I         428 37.28         1.3 0.12                           141 259 
 ZAR  HN ES   2    428 42.42                             120     0.0 5  199 293 
 ZAR  HZ I         428 48.65         2.2 0.14                           199 293 
                                                                                
