 2014  418 0236 13.1 L   6.822 -73.172135.2  RSN 11 0.4 1.9LRSN                1
 GAP=132        0.88       2.5     3.6  6.8 -0.2979E+01  0.1060E+02 -0.1877E+01E
 Epicentro: LOS SANTOS - SANTANDER                                             3
 ACTION:UPD 14-05-13 23:09 OP:nd   STATUS:               ID:20140418023613 L   I
 OLDACT:REG 14-04-18 12:25 OP:nd   STATUS:               ID:20140418023040     3
 2014-04-18-0230-40M.COL___245                                                 6
 STAT SP IPHASW D HRMM SECON CODA AMPLIT PERI AZIMU VELO AIN AR TRES W  DIS CAZ7
 PAM  SZ EP        236 34.47                             149    0.3010 77.4  42 
 PAM  SN ES        236 51.10                             149    0.4710 77.4  42 
 PAM  SZ I         236 53.51        24.8 0.52            154           77.4  42 
 RUS  HZ EP        236 35.86                             141   -0.1410  103 175 
 RUS  HN ES        236 53.75                             141   -0.1410  103 175 
 RUS  HZ I         236 55.15        10.6 0.38            147            103 175 
 PTB  HZ EP        236 39.02                             130    0.05 9  145 258 
 PTB  HN ES        236 59.15                             130   -0.03 9  145 258 
 PTB  HZ I         237  2.71        11.5 0.12            133            145 258 
 OCA  HZ EP        236 39.98                             128   -0.33 9  158 354 
 OCA  HN ES        237  1.35                             128   -0.21 9  158 354 
 OCA  HZ I         237  5.49        10.5 0.48            131            158 354 
 SPBC HZ EP        236 40.59                             126   -0.20 9  163 218 
 SPBC HN ES        237  2.06                             126   -0.35 9  163 218 
 SPBC HZ I         237  6.48        11.6 0.18            131            163 218 
 ZAR  HZ EP        236 44.39                             120   -0.07 9  200 292 
 ZAR  HN ES   1    237  9.50                             120    0.55 6  200 292 
 ZAR  HZ I         237 15.85         9.1 0.28            123            200 292 
 NOR  HZ EP        236 48.18                             116    0.08 8  234 234 
 NOR  HN ES        237 14.98                             116   -0.46 8  234 234 
 NOR  HZ I         237 17.66         5.2 0.16            120            234 234 
 SML  HZ EP   2    236 47.91                             115   -0.83 4  240 336 
 SML  HN ES        237 16.09                             115   -0.48 8  240 336 
 SML  HZ I         237 22.62         9.1 0.10            119            240 336 
 HEL  HZ EP   1    236 53.97                             113    1.46 6  270 255 
 HEL  HN ES        237 23.48                             113    0.20 8  270 255 
 HEL  HZ I         237 28.59         2.7 0.30            116            270 255 
 GUY2CHZ EP   2    236 57.11                             110    1.01 4  300 234 
 GUY2CHN ES        237 30.02                             110    0.35 7  300 234 
 GUY2CHZ I         237 38.27         2.8 0.34                           300 234 
 SJC  HZ EP   4    237  6.49                             104   -1.38 0  406 327 
 SJC  HN ES   4    237 47.26                             104   -3.35 0  406 327 
 SJC  HZ I         237 48.72         1.5 0.42            107            406 327 
                                                                                
