 2010  618 0458 31.1 L   6.763 -73.052144.0  RSN  5 0.4 1.2LRSN                1
 GAP=167        0.81       7.2    12.6 12.6  0.3173E+02 -0.9126E+02 -0.3629E+02E
 Epicentro: LOS SANTOS - SANTANDER                                             3
 ACTION:UP  10-08-24 10:11 OP:vdl  STATUS:               ID:20100618045831 L   I
 2010-06-18-0455-21S.COL___115                                                 6
 STAT SP IPHASW D HRMM SECON CODA AMPLIT PERI AZIMU VELO SNR AR TRES W  DIS CAZ7
 BAR2 SZ EP        458 50.52                             170    -0.110   24 218 
 BAR2 SZ ES   2    459  5.71                             170     0.0 5   24 218 
 BRR  HZ IP        458 52.53                             149    -0.210   82 298 
 BRR  HN ES   1    459  9.86                             149     0.2 7   82 298 
 BRR  HZ I         459 11.55         5.0 0.09                            82 298 
 RUS  HZ EP   1    458 54.75                             145     0.3 7   96 182 
 RUS  HN ES   2    459 12.36                             145    -0.2 5   96 182 
 RUS  HZ I         459 14.83         1.3 0.17                            96 182 
 BRI  SZ EP   1    458 54.38                             141    -0.5 7  109  15 
 GUE  SZ EP   1    458 56.56                             138     0.7 7  119   7 
                                                                                
