 2017  218 0330 11.9 L   6.714 -73.169137.8  RSN  7 0.3 1.3LRSN                1
 GAP=137        0.71       2.7     3.1  4.5  0.9533E+00  0.3552E+01  0.2384E+01E
 Epicentro: VILLANUEVA - SANTANDER                                             3
 ACTION:UPD 17-05-24 15:37 OP:jn   STATUS:               ID:20170218033011 L   I
 OLDACT:REG 17-02-18 13:27 OP:cara STATUS:               ID:20170218032746     3
 2017-02-18-0328-00M.COL___351                                                 6
 STAT SP IPHASW D HRMM SECON CODA AMPLIT PERI AZIMU VELO AIN AR TRES W  DIS CAZ7
 BAR2 EZ EP        330 30.35                             174   -0.0910 13.5 186 
 BAR2 EZ ES        330 45.22                             174    0.3510 13.5 186 
 BAR2 EZ I         330 46.53         8.0 0.18            171           13.5 186 
 BRR  HN ES        330 48.17                             150   -0.1910 74.1 306 
 PAM  EZ EP        330 33.68                             146   -0.2210 86.5  37 
 PAM  EN ES        330 50.82                             146   -0.2110 86.5  37 
 PAM  EZ I         330 54.68         1.7 0.18            150           86.5  37 
 RUS  HZ EP        330 34.31                             145    0.0710 91.3 174 
 RUS  HN ES        330 51.98                             145    0.3510 91.3 174 
 RUS  HZ I         330 54.50         3.1 0.24            144           91.3 174 
 PTB  HZ EP        330 37.85                             131   -0.03 9  144 262 
 PTB  HN ES        330 57.74                             131   -0.38 9  144 262 
 PTB  HZ I         331  1.27         2.5 0.16            131            144 262 
 ZAR  HZ EP        330 44.43                             120    0.40 8  206 295 
 ZAR  HN ES        331  9.38                             120    0.32 8  206 295 
 ZAR  HZ I         331 14.01         5.1 0.38            121            206 295 
 CHI  HZ EP        330 48.23                             116    0.11 8  239 195 
 CHI  HN ES        331 15.88                             116   -0.46 8  239 195 
 CHI  HZ I         331 27.85         1.1 0.54            116            239 195 
                                                                                
