 2017  118 0724 15.3 L   6.722 -73.180149.0  RSN  5 0.3 1.0LRSN                1
 GAP=227        0.74       5.8     5.2  6.0  0.1864E+02  0.4618E+01  0.2445E+00E
 Epicentro: VILLANUEVA - SANTANDER                                             3
 ACTION:UPD 17-05-22 16:00 OP:jn   STATUS:               ID:20170118072415 L   I
 OLDACT:UP  17-01-18 14:17 OP:edw  STATUS:               ID:20170118071741     3
 OLDACT:REG 17-01-18 14:13 OP:edw  STATUS:               ID:20170118071741     3
 2017-01-18-0718-00M.COL___325                                                 6
 STAT SP IPHASW D HRMM SECON CODA AMPLIT PERI AZIMU VELO AIN AR TRES W  DIS CAZ7
 BAR2 EZ EP     D  724 35.23                             174    0.0810 14.4 181 
 BAR2 EZ ES        724 50.28                             174   -0.3710 14.4 181 
 BAR2 EZ I         724 50.94         1.7 0.18            170           14.4 181 
 BRR  HZ EP        724 36.95                             153    0.1010 72.6 306 
 BRR  HE ES        724 53.77                             153    0.1010 72.6 306 
 RUS  HZ EP        724 38.43                             147   -0.3510 92.4 173 
 RUS  HN ES        724 57.61                             147    0.5010 92.4 173 
 RUS  HZ I         724 59.32         1.6 0.28            145           92.4 173 
 PTB  HZ EP        724 42.04                             134   -0.01 9  143 262 
 PTB  HN ES        725  2.64                             134   -0.29 9  143 262 
 PTB  HZ I         725  5.39         2.1 0.44            133            143 262 
 ZAR  HE ES        725 13.66                             123    0.27 9  204 295 
                                                                                
