 2016  818 0446 31.1 L   6.787 -73.158141.6  RSN  5 0.1 1.0LRSN                1
 GAP=235        0.42       2.9     3.0  3.6  0.3088E+01  0.2695E+01  0.2349E+01E
 Epicentro: LOS SANTOS - SANTANDER                                             3
 ACTION:UPD 16-10-29 15:36 OP:rebc STATUS:               ID:20160818044631 L   I
 OLDACT:REG 16-08-18 12:55 OP:ak   STATUS:               ID:20160818043759     3
 2016-08-18-0437-59S.COL___346                                                 6
 STAT SP IPHASW D HRMM SECON CODA AMPLIT PERI AZIMU VELO AIN AR TRES W  DIS CAZ7
 BAR2 EZ ES        447  5.03                             171   -0.0710 21.7 187 
 BRR  HZ EP   2    446 51.61                             152   -0.16 5 70.7 300 
 BRR  HN ES        447  8.10                             152    0.2010 70.7 300 
 BRR  HZ I         447 11.42         2.1 0.16                          70.7 300 
 RUS  HZ EP        446 54.42                             143    0.0810 99.2 175 
 RUS  HN ES        447 12.37                             143   -0.1110 99.2 175 
 RUS  HZ I         447 13.18         1.4 0.23                          99.2 175 
 PTB  HZ EP        446 57.55                             131   -0.03 9  146 259 
 PTB  HN ES        447 17.99                             131   -0.24 9  146 259 
 PTB  HZ I         447 23.03         0.7 0.34                           146 259 
 SPBC HZ EP   2    446 59.07                             128   -0.02 5  161 219 
 SPBC HN ES        447 21.13                             128    0.21 9  161 219 
 SPBC HZ I         447 27.19         3.3 0.20                           161 219 
                                                                                
