 2013  118 0724 57.6 L   6.759 -73.174154.3  RSN  4 0.2 1.1LRSN                1
 GAP=231        0.50       4.8     4.3  5.5  0.9503E+01 -0.2942E+01  0.3171E+01E
 Epicentro: VILLANUEVA - SANTANDER                                             3
 ACTION:UPD 13-02-15 09:15 OP:ep   STATUS:               ID:20130118072457 L   I
 2013-01-18-0720-00M.COL___241                                                 6
 STAT SP IPHASW D HRMM SECON CODA AMPLIT PERI AZIMU VELO AIN AR TRES W  DIS CAZ7
 BAR2 SZ EP   1    725 17.79                             173   -0.41 7 18.5 183 
 BAR2 SZ I         725 36.44         3.7 0.25            162           18.5 183 
 BRR  HZ EP   1    725 19.66                             154   -0.02 7 70.8 303 
 BRR  HZ I         725 30.42         2.3 0.40            146           70.8 303 
 BRR  HE ES        725 37.00                             154    0.1110 70.8 303 
 RUS  HZ EP        725 22.21                             147    0.2710 96.3 174 
 RUS  HE ES   1    725 40.81                             147   -0.09 7 96.3 174 
 RUS  HE I         725 42.60         1.8 0.42            147           96.3 174 
 PTB  HZ EP        725 24.93                             135   -0.03 9  144 260 
 PTB  HE ES        725 46.21                             135   -0.07 9  144 260 
 PTB  HZ I         725 48.12         1.6 0.14            136            144 260 
                                                                                
