 2011 1118 0014 34.4 L   7.546 -72.988153.4  RSN 12 0.3 2.4LRSN                1
 GAP=136        0.47       2.4     4.0  5.0 -0.9369E+00  0.2281E+01  0.1202E+01E
 Epicentro: SURATA - SANTANDER                                                 3
 ACTION:UPD 12-07-13 16:10 OP:ep   STATUS:               ID:20111118001434 L   I
 2011-11-18-0012-55S.COL___179                                                 6
 STAT SP IPHASW D HRMM SECON CODA AMPLIT PERI AZIMU VELO AIN AR TRES W  DIS CAZ7
 PAM  SZ IP        014 56.04                             165    0.2910 39.2 126 
 PAM  SN ES   2    015 12.46                             165    0.07 5 39.2 126 
 OCA  SZ IP        014 57.74                             150    0.3110 84.9 335 
 OCA  SZ ES   2    015 15.27                             150   -0.10 5 84.9 335 
 OCA  SZ I         015 17.98        51.0 0.21                          84.9 335 
 BRR  HZ EP        014 57.42                             147   -0.3310 93.5 239 
 BRR  HE ES   2    015 16.15                             147    0.20 5 93.5 239 
 BRR  HZ I         015 18.28        44.4 0.21                          93.5 239 
 BAR2 SZ EP   1    014 58.81                             143   -0.27 7  108 192 
 BAR2 SZ ES   2    015 18.03                             143   -0.28 5  108 192 
 BAR2 SZ I         015 22.44        43.0 0.40                           108 192 
 RUS  HZ EP   1    015  5.87                             128   -0.08 7  183 183 
 RUS  HN ES   2    015 30.42                             128   -0.12 4  183 183 
 RUS  HZ I         015 31.88         8.9 0.34                           183 183 
 ZAR  HN ES   2    015 33.10                             124   -0.42 4  206 268 
 ZAR  HZ I         015 35.08        16.9 0.30                           206 268 
 COD  HZ EP   2    015 14.18                             116   -0.04 4  269 349 
 COD  HN ES   2    015 44.88                             116   -0.38 4  269 349 
 COD  HZ I         015 49.48        20.7 0.76                           269 349 
 NOR  SN ES   2    015 52.68                             114    0.74 4  302 224 
 CHI  HZ EP   2    015 21.84                             111   -0.04 3  333 194 
 CHI  HN ES   2    015 58.88                             111   -0.02 3  333 194 
 CHI  HZ I         016  6.31         5.9 0.69                           333 194 
 GUY  SN ES   3    016  7.03                             109    0.51 2  370 226 
 GUY  SZ I         016 19.30        10.2 0.62                           370 226 
 RREF HN ES   2    016 11.57                             108    0.07 3  392 222 
 RREF HZ I         016 22.15         8.1 0.44                           392 222 
 PRA  HZ EP   2    015 38.07                             104    0.35 2  473 206 
 PRA  HE ES   2    016 26.72                             104   -0.37 2  473 206 
                                                                                
