 2016  618 0722 38.6 L   6.990 -72.929  6.9  RSN  6 0.3 1.1LRSN                1
 GAP=155        0.78       1.8     2.6  6.1 -0.1815E+01  0.2242E+01  0.2401E+01E
 Epicentro: SANTA BARBARA - SANTANDER                                          3
 ACTION:UPD 16-07-21 22:20 OP:rebc STATUS:               ID:20160618072238 L   I
 OLDACT:UP  16-06-18 18:39 OP:dani STATUS:               ID:20160618071744     3
 OLDACT:UP  16-06-18 18:37 OP:dani STATUS:               ID:20160618071744     3
 OLDACT:REG 16-06-18 13:07 OP:dani STATUS:               ID:20160618071744     3
 2016-06-18-0717-44M.COL___340                                                 6
 STAT SP IPHASW D HRMM SECON CODA AMPLIT PERI AZIMU VELO AIN AR TRES W  DIS CAZ7
 PAM  EZ EP     D  722 46.75                              94    0.0310 46.2  33 
 PAM  EN ES        722 52.74                              94   -0.3110 46.2  33 
 PAM  EZ I         722 52.98        14.7 0.40                          46.2  33 
 BAR2 EZ EP        722 47.22                              94   -0.1410 52.2 213 
 BAR2 EZ ES        722 53.88                              94   -0.3110 52.2 213 
 BAR2 EZ I         722 54.45         9.2 0.40                          52.2 213 
 BRR  HN ES        723  3.24                              92   -0.0310 87.5 279 
 RUS  HZ EP        722 58.99                              91    0.7110  123 188 
 RUS  HN ES   2    723 13.44                              91   -0.19 5  123 188 
 RUS  HZ I         723 15.46         1.9 0.32                           123 188 
 OCA  HE ES        723 19.19                              91    0.22 9  145 343 
 SPBC HZ EP   4    723  5.65                              56   -2.40 0  195 221 
 SPBC HN ES        723 30.94                              56   -0.08 9  195 221 
 SPBC HZ I         723 38.71         2.6 0.20                           195 221 
                                                                                
