 2015  218 0210 28.5 L   6.860 -73.284124.0  RSN 12 0.5 2.2LRSN                1
 GAP= 55        1.12       3.2     3.1  5.8 -0.6428E+00  0.4101E+01 -0.1468E+00E
 Epicentro: BETULIA - SANTANDER                                                3
 ACTION:UPD 15-04-30 21:27 OP:nd   STATUS:               ID:20150218021028 L   I
 OLDACT:REG 15-02-18 12:04 OP:mh   STATUS:               ID:20150218020750     3
 2015-02-18-0207-50M.COL___299                                                 6
 STAT SP IPHASW D HRMM SECON CODA AMPLIT PERI AZIMU VELO AIN AR TRES W  DIS CAZ7
 BAR2 EZ EP        210 46.20                             165    0.4710 31.7 159 
 BAR2 EZ ES        210 59.02                             165   -0.1710 31.7 159 
 BAR2 EZ I         211  0.76        72.6 0.17            167           31.7 159 
 BRR  HZ IP     D  210 46.64                             154    0.2910 54.6 300 
 BRR  HN ES        211  0.60                             154    0.3110 54.6 300 
 BRR  HZ I         211  5.67        23.0 0.78            155           54.6 300 
 PAM  SZ EP        210 49.43                             144    0.5810 83.5  51 
 PAM  SN ES   1    211  5.07                             144    0.32 7 83.5  51 
 PAM  SZ I         211  7.55        32.0 0.28            147           83.5  51 
 RUS  HZ EP        210 50.91                             136    0.0410  109 168 
 RUS  HN ES        211  7.69                             136   -0.6510  109 168 
 PTB  HZ EP        210 51.57                             129   -0.9110  134 255 
 PTB  HN ES        211 11.69                             129    0.4910  134 255 
 PTB  HZ I         211 13.09        40.8 0.44            132            134 255 
 OCA  HZ EP        210 54.24                             126   -0.18 9  153 359 
 OCA  HN ES        211 14.23                             126   -0.42 9  153 359 
 OCA  HZ I         211 15.73        36.0 0.20            128            153 359 
 SPBC HZ EP        210 55.14                             124    0.10 9  160 213 
 SPBC HN ES        211 15.78                             124    0.03 9  160 213 
 SPBC HZ I         211 17.52        19.7 0.14            127            160 213 
 TAM  HZ EP   1    210 57.17                             122    0.97 7  172 106 
 TAM  HN ES        211 17.14                             122   -0.69 9  172 106 
 TAM  HZ I         211 17.85        18.8 0.32            126            172 106 
 ZAR  HZ EP        210 57.79                             119   -0.03 9  187 292 
 ZAR  HN ES        211 20.64                             119   -0.06 9  187 292 
 SML  HZ EP   1    211  1.54                             114   -1.08 6  232 338 
 SML  HN ES   4    211 28.08                             114   -1.17 0  232 338 
 GUY2CHZ EP        211 10.57                             108    0.35 7  293 232 
 GUY2CHN ES        211 42.74                             108   -0.03 7  293 232 
 GUY2CHZ I         211 49.90         7.2 0.28                           293 232 
 CBOC HZ EP        211 13.60                             106    0.46 7  321 250 
 CBOC HN ES   1    211 47.70                             106   -0.28 5  321 250 
 CBOC HZ I         211 50.98         2.6 0.35            109            321 250 
 MON  HZ EP   4    211 12.84                             105   -1.99 0  338 309 
 MON  HN ES   4    211 47.48                             105   -3.51 0  338 309 
                                                                                
