 2012  718 0558 33.8 L   6.689 -73.162145.0  RSN  4 0.3 1.6LRSN                1
 GAP=227        0.76       9.6     8.0  9.1  0.2202E+02  0.1658E+02 -0.2262E+00E
 Epicentro: VILLANUEVA - SANTANDER                                             3
 ACTION:UPD 12-08-14 11:45 OP:ep   STATUS:               ID:20120718055833 L   I
 2012-07-18-0550-00M.COL___197                                                 6
 STAT SP IPHASW D HRMM SECON CODA AMPLIT PERI AZIMU VELO AIN AR TRES W  DIS CAZ7
 BAR2 SZ EP   1    558 53.28                             176     0.1 7   11 192 
 BAR2 SZ ES   1    559  7.67                             176    -0.6 7   11 192 
 BAR2 SZ I         559 10.77         7.6 0.21            173             11 192 
 BRR  HZ EP   1    558 55.17                             150     0.0 7   76 307 
 BRR  HZ I         558 55.39        15.5 0.15            152             76 307 
 BRR  HN ES   1    559 12.22                             150     0.4 7   76 307 
 RUS  HN ES   2    559 15.05                             147     0.6 5   89 174 
 PTB  HZ EP   1    559  0.22                             132    -0.2 7  144 263 
 PTB  HN ES   1    559 21.00                             132    -0.1 7  144 263 
 PTB  HZ I         559 23.39         2.2 0.09            134            144 263 
