 2011  318 0818  2.8 L   6.778 -73.183146.0  RSN  8 0.3 1.6LRSN                1
 GAP=155        0.62       3.6     8.9  5.7 -0.1923E+02  0.2037E+02 -0.3778E+01E
 Epicentro: LOS SANTOS - SANTANDER                                             3
 ACTION:UP  11-06-16 14:34 OP:jfem STATUS:               ID:20110318081803 L   I
 2011-03-18-0816-30S.COL___135                                                 6
 STAT SP IPHASW D HRMM SECON CODA AMPLIT PERI AZIMU VELO SNR AR TRES W  DIS CAZ7
 BAR2 SZ EP   1    818 22.24                             172    -0.1 7   21 180 
 BAR2 SZ ES   1    818 37.61                             172    -0.1 7   21 180 
 BAR2 SZ I         818 39.15         8.2 0.23                            21 180 
 GIR2 SZ EP   2    818 22.49                             167     0.0 5   33 358 
 GIR2 SZ ES   2    818 37.38                             167    -0.6 5   33 358 
 RUS  HZ EP   1    818 26.51                             144     0.1 7   99 174 
 RUS  HN ES   1    818 44.91                             144     0.1 7   99 174 
 RUS  HZ I         818 46.27         5.7 0.30                            99 174 
 GRA  SZ EP   1    818 28.34                             136     0.0 7  129  19 
 GRA  SZ ES   1    818 48.76                             136     0.5 7  129  19 
 GRA  SZ I         818 49.27         4.0 0.38                           129  19 
 OCA  SZ EP   1    818 30.89                             129    -0.4 7  162 355 
 OCA  SZ I         818 58.23         4.5 0.67                           162 355 
 NOR  SN ES   2    819  6.27                             119     0.8 4  230 234 
 CHI  HZ EP   2    818 40.21                             117     0.1 4  245 194 
 CHI  HE ES   2    819  9.20                             117     0.0 4  245 194 
 CHI  HZ I         819 13.27         1.8 0.25                           245 194 
 PRA  HZ EP   1    818 56.21                             107     0.4 4  388 209 
 PRA  HE ES   1    819 36.69                             107    -0.5 4  388 209 
 PRA  HZ I         819 40.32         3.2 0.19                           388 209 
                                                                                
