 2012  718 0455 49.9 L   6.732 -73.160145.7  RSN  6 0.3 1.7LRSN                1
 GAP=138        0.78       6.4     5.4  7.3  0.1356E+02 -0.1612E+00 -0.1206E+02E
 Epicentro: VILLANUEVA - SANTANDER                                             3
 ACTION:UPD 12-08-14 11:45 OP:ep   STATUS:               ID:20120718045549 L   I
 2012-07-18-0450-00M.COL___197                                                 6
 STAT SP IPHASW D HRMM SECON CODA AMPLIT PERI AZIMU VELO AIN AR TRES W  DIS CAZ7
 BAR2 SZ EP        456  9.46                             174     0.010   16 189 
 BAR2 SZ I         456  9.76        13.2 0.11            170             16 189 
 BAR2 SZ ES   1    456 24.41                             174    -0.2 7   16 189 
 BRR  HZ EP        456 11.30                             152     0.110   74 304 
 BRR  HN ES   1    456 28.02                             152     0.2 7   74 304 
 BRR  HZ I         456 30.79        13.6 0.23            149             74 304 
 PAM  SZ EP   1    456 12.21                             149    -0.4 7   84  37 
 RUS  HZ EP   1    456 13.19                             146     0.0 7   93 175 
 RUS  HN ES   1    456 31.71                             146     0.4 7   93 175 
 RUS  HZ I         456 33.24         3.8 0.41            147             93 175 
 PTB  HZ EP   1    456 16.31                             133    -0.3 7  145 262 
 PTB  HN ES   1    456 36.89                             133    -0.6 7  145 262 
 PTB  HZ I         456 41.55         4.9 0.29            131            145 262 
 ZAR  HZ EP   1    456 22.98                             122     0.4 6  206 294 
 ZAR  HE ES   1    456 48.37                             122     0.4 6  206 294 
 ZAR  HZ I         456 53.56        10.1 0.30            122            206 294 
