 2011  118 0549 40.8 L   6.767 -73.039147.1  RSN  9 0.5 2.0LRSN                1
 GAP=171        1.06       4.7     9.6  9.0 -0.2154E+02  0.3254E+02 -0.2979E+01E
 Epicentro: CEPITA - SANTANDER                                                 3
 ACTION:UP  11-02-08 08:41 OP:pat  STATUS:               ID:20110118054940 L   I
 2011-01-18-0547-21S.COL___134                                                 6
 STAT SP IPHASW D HRMM SECON CODA AMPLIT PERI AZIMU VELO SNR AR TRES W  DIS CAZ7
 BAR2 SZ IP        550  0.57                             170     0.010   25 220 
 BAR2 SZ ES   1    550 15.92                             170    -0.2 7   25 220 
 BAR2 SZ I         550 17.23        19.6 0.24                            25 220 
 RUS  HZ EP   1    550  4.55                             145     0.1 7   97 183 
 RUS  HE ES   1    550 23.14                             145     0.3 7   97 183 
 RUS  HZ I         550 24.58         8.6 0.14                            97 183 
 GRA  SZ IP        550  6.34                             137     0.110  126  12 
 GRA  SZ I         550  7.66        10.9 0.43                           126  12 
 GRA  SZ ES   1    550 25.64                             137    -0.4 7  126  12 
 OCA  SZ EP   1    550  9.06                             129    -0.7 7  166 349 
 OCA  SZ ES   1    550 33.02                             129     0.7 7  166 349 
 OCA  SZ I         550 37.27        14.1 0.31                           166 349 
 NOR  SZ EP   1    550 16.72                             118    -0.7 6  243 237 
 NOR  SE ES   2    550 45.04                             118    -1.0 4  243 237 
 CHI  HZ EP   1    550 17.96                             117    -0.6 6  248 198 
 CHI  HE ES   2    550 47.26                             117    -0.7 4  248 198 
 CHI  HZ I         550 53.65         5.0 0.31                           248 198 
 ROSC BZ EP   1    550 20.28                             117     0.9 6  256 214 
 ROSC BZ I         550 56.88        12.4 0.60                           256 214 
 HEL  HZ EP   2    550 22.18                             114    -0.1 4  283 257 
 HEL  HE ES   2    550 54.42                             114    -0.2 4  283 257 
 HEL  HZ I         550 58.85         3.8 0.16                           283 257 
 RREF HZ EP   1    550 28.40                             111     0.6 5  329 231 
 RREF HN ES   1    551  5.16                             111     0.8 5  329 231 
 RREF HZ I         551  9.13         7.3 0.26                           329 231 
                                                                                
