 2012  518 0154 11.9 L   6.760 -73.098154.4  RSN  5 0.4 1.7LRSN                1
 GAP=145        0.82       8.3     7.9 10.7  0.1843E+02  0.1396E+02  0.3180E+02E
 Epicentro: LOS SANTOS - SANTANDER                                             3
 ACTION:UP  12-07-05 12:06 OP:pat  STATUS:               ID:20120518015411 L   I
 2012-05-18-0150-00M.COL___200                                                 6
 STAT SP IPHASW D HRMM SECON CODA AMPLIT PERI AZIMU VELO SNR AR TRES W  DIS CAZ7
 BAR2 SZ EP        154 32.66                             172     0.210   21 207 
 BAR2 SZ I         154 33.02         8.5 0.32                            21 207 
 PAM  SN ES   2    154 52.17                             152    -0.9 5   78  34 
 BRR  HZ EP        154 34.65                             152     0.310   78 300 
 BRR  HE ES   1    154 52.11                             152     0.3 7   78 300 
 BRR  HZ I         154 54.25        10.5 0.16                            78 300 
 RUS  HZ EP        154 36.03                             147    -0.110   96 179 
 RUS  HN ES   2    154 55.40                             147     0.3 5   96 179 
 PTB  HZ EP        154 39.72                             133    -0.2 9  152 261 
 PTB  HE ES   2    155  1.07                             133    -0.8 5  152 261 
                                                                                
