 2010  918 0043  4.0 L   6.768 -73.081139.4  RSN 10 0.4 2.0LRSN                1
 GAP=166        0.74       3.7     5.6  6.2 -0.9283E+01  0.2550E+01 -0.1730E+01E
 Epicentro: LOS SANTOS - SANTANDER                                             3
 ACTION:UP  11-02-18 11:03 OP:tino STATUS:               ID:20100918004304 L   I
 2010-09-18-0040-14S.COL___121                                                 6
 STAT SP IPHASW D HRMM SECON CODA AMPLIT PERI AZIMU VELO SNR AR TRES W  DIS CAZ7
 BAR2 SZ IP        043 22.95                             170     0.210   23 210 
 BAR2 SZ ES   1    043 37.07                             170    -0.4 7   23 210 
 BAR2 SZ I         043 40.34        27.1 0.33                            23 210 
 BTL  SZ IP        043 23.27                             169     0.410   27 309 
 BRR  HZ IP     C  043 24.72                             149    -0.210   79 298 
 BRR  HN ES   1    043 41.52                             149     0.3 7   79 298 
 BRR  HZ I         043 46.10        27.2 0.18                            79 298 
 RUS  HZ EP   1    043 27.10                             144     0.3 7   97 180 
 RUS  HN ES   1    043 44.60                             144     0.0 7   97 180 
 RUS  HZ I         043 47.31        13.9 0.29                            97 180 
 GUE  SZ EP        043 27.91                             137    -0.310  119   8 
 GRA  SZ IP        043 28.77                             135     0.010  127  14 
 GRA  SZ ES   1    043 48.24                             135     0.1 7  127  14 
 GRA  SZ I         043 49.34        17.8 0.30                           127  14 
 NOR  HZ EP   2    043 39.10                             117    -0.7 4  239 236 
 NOR  HN ES   1    044  7.10                             117    -0.6 6  239 236 
 CHI  HZ EP   2    043 41.08                             116    -0.1 4  247 197 
 CHI  HE ES   3    044 10.06                             116    -0.1 2  247 197 
 CHI  HZ I         044 18.21         2.8 0.23                           247 197 
 GUY  SZ EP   3    043 48.66                             111     0.9 2  305 236 
 GUY  SN ES   2    044 22.93                             111     1.0 4  305 236 
 RREF HN ES   2    044 26.33                             109     0.1 3  325 231 
 RREF HZ I         044 36.01         3.5 0.46                           325 231 
                                                                                
