 2016  218 0144  3.5 L   6.753 -73.158152.0  RSN  4 0.4 1.3LRSN                1
 GAP=232        0.94       5.7     7.8  8.3  0.2008E+02 -0.1263E+01  0.9631E+01E
 Epicentro: LOS SANTOS - SANTANDER                                             3
 ACTION:UPD 16-03-04 21:27 OP:rebc STATUS:               ID:20160218014403 L   I
 OLDACT:REG 16-02-18 12:35 OP:drio STATUS:               ID:20160218013735     3
 2016-02-18-0137-35M.COL___337                                                 6
 STAT SP IPHASW D HRMM SECON CODA AMPLIT PERI AZIMU VELO AIN AR TRES W  DIS CAZ7
 BRR  HZ EP        144 25.43                             153    0.0110 72.7 303 
 BRR  HE ES        144 43.06                             153    0.5510 72.7 303 
 BRR  HZ I         144 47.40         6.4 0.28            160           72.7 303 
 RUS  HZ EP        144 27.44                             147   -0.0910 95.5 175 
 RUS  HN ES        144 45.82                             147   -0.4510 95.5 175 
 RUS  HZ I         144 54.12         1.3 0.26            150           95.5 175 
 PTB  HZ EP        144 30.50                             134   -0.30 9  146 261 
 PTB  HN ES        144 51.72                             134   -0.36 9  146 261 
 PTB  HZ I         144 53.69         3.1 0.26            142            146 261 
 CHI  HZ EP        144 41.28                             119    0.29 8  243 195 
 CHI  HE ES        145 10.82                             119    0.59 8  243 195 
                                                                                
