 2010  818 0510 10.6 L   6.837 -73.093144.0  RSN  5 0.2 1.6LRSN                1
 GAP=278        0.52       8.9    10.1 10.2 -0.3375E+02 -0.7978E+02  0.4182E+01E
 Epicentro: LOS SANTOS - SANTANDER                                             3
 ACTION:UP  10-09-07 10:55 OP:vdl  STATUS:               ID:20100818051010 L   I
 2010-08-18-0507-47S.COL___111                                                 6
 STAT SP IPHASW D HRMM SECON CODA AMPLIT PERI AZIMU VELO SNR AR TRES W  DIS CAZ7
 BTL  SZ EP   1    510 29.73                             171    -0.2 7   21 295 
 BTL  SZ ES   3    510 44.73                             171    -0.3 2   21 295 
 BRR  HZ EP        510 31.71                             151     0.010   75 294 
 BRR  HZ I         510 33.35         9.4 0.29                            75 294 
 BRR  HN ES        510 48.32                             151     0.110   75 294 
 GUE  SZ EP        510 34.61                             140    -0.110  111  10 
 GRA  SZ EP        510 35.47                             138     0.310  120  15 
 GRA  SZ I         510 36.85         3.9 0.22                           120  15 
 OCA  SZ EP   1    510 38.17                             130    -0.3 7  157 351 
 OCA  SZ ES   3    510 59.56                             130    -0.6 2  157 351 
 OCA  SZ I         511  1.07         5.8 0.27                           157 351 
                                                                                
