 2017  818 0651 48.7 L   6.791 -73.095140.8  RSN 27 0.6 2.7LRSN                1
 GAP= 56        1.27       3.1     3.3  5.3 -0.1834E+01  0.3585E+01 -0.3430E+00E
 Epicentro: LOS SANTOS - SANTANDER                                             3
 ACTION:UPD 17-09-04 20:21 OP:rebc STATUS:               ID:20170818065148 L   I
 OLDACT:DUP 17-08-18 17:55 OP:lv   STATUS:               ID:20170818064742d    3
 2017-08-18-0648-00M.COL___407                                                 6
 STAT SP IPHASW D HRMM SECON CODA AMPLIT PERI AZIMU VELO AIN AR TRES W  DIS CAZ7
 BAR2 EZ IP     D  652  7.63                             170   -0.0910 24.0 204 
 BAR2 EZ ES        652 21.94                             170   -0.6410 24.0 204 
 BAR2 EZ I         652 23.27       212.9 0.26            164           24.0 204 
 PAM  EZ IP     D  652 10.51                             151    0.3110 74.7  36 
 PAM  HN ES        652 27.78                             151    0.7910 74.7  36 
 PAM  EZ I         652 29.79       117.0 0.36            151           74.7  36 
 BRR  HZ IP     D  652  9.58                             150   -0.0310 76.7 297 
 BRR  HN ES        652 26.19                             150    0.2410 76.7 297 
 BRR  HZ I         652 32.02       147.7 0.14            147           76.7 297 
 RUS  HZ EP        652 11.64                             143   -0.2110 99.4 179 
 RUS  HN ES        652 29.44                             143   -0.4910 99.4 179 
 TAM  HZ IP     C  652 15.97                             130    0.54 9  149 105 
 TAM  HN ES        652 36.19                             130   -0.11 9  149 105 
 TAM  HZ I         652 38.03        69.1 0.54            127            149 105 
 SPBC HZ EP        652 16.74                             127   -0.33 9  166 221 
 SPBC HN ES        652 38.97                             127   -0.26 9  166 221 
 SPBC HZ I         652 49.50        47.6 0.12            122            166 221 
 YPLC HZ IP     C  652 18.06                             126    0.30 9  173 153 
 YPLC HZ I         652 44.36        64.2 0.24            121            173 153 
 ZAR  HZ EP        652 20.74                             120   -0.65 8  210 292 
 ZAR  HN ES        652 46.73                             120   -0.17 8  210 292 
 ZAR  HZ I         652 54.86        97.1 0.20            117            210 292 
 TABC EZ EP   4    652 25.94                             118    1.58 0  232 212 
 TABC EZ ES   4    652 55.79                             118    3.59 0  232 212 
 TABC EZ I         653  0.21        29.5 0.54            113            232 212 
 NOR  HZ EP        652 24.43                             117   -0.13 8  239 235 
 NOR  HN ES        652 52.55                             117   -0.00 8  239 235 
 NOR  HZ I         652 57.45        27.8 0.34            113            239 235 
 CHI  HZ EP        652 26.12                             116   -0.05 8  249 196 
 CHI  HZ I         653  1.77        18.2 0.36            112            249 196 
 ROSC BZ EP   9    652 27.80                             115    1.04 0  255 212 
 ROSC BN ES        652 58.25                                    0.74 8  255 212 
 ROSC BZ I         653  6.14        34.8 0.50            111            255 212 
 HEL  HZ EP        652 29.43                             113    0.20 7  277 256 
 HEL  HN ES        653  1.55                             113    0.69 7  277 256 
 HEL  HZ I         653  8.36        29.4 0.24            110            277 256 
 URE  HZ EP   9    652 28.19                             112   -1.95 0  289 292 
 URE  HN ES        652 60.00                                   -0.53 7  289 292 
 URE  HZ I         653 12.61        65.1 0.18            109            289 292 
 GUY2CHZ EP        652 33.73                             111    1.21 7  305 236 
 GUY2CHN ES        653  5.49                             111   -1.23 7  305 236 
 GUY2CHZ I         653 15.37        17.5 0.64                           305 236 
 PTGC HZ IP   4 D  652 30.93                             111   -1.05 0  306 160 
 PTGC HN ES   4    653  3.69                             111   -2.07 0  306 160 
 PTGC HZ I         653  5.60        32.0 0.61            107            306 160 
 LL1C HZ EP        652 32.91                             111    0.65 7  308 351 
 LL1C HN ES        653  7.34                             111    1.09 7  308 351 
 LL6C HZ IP     D  652 32.59                             109   -1.72 7  326 357 
 DBB  EZ EP        652 35.97                             108   -0.64 7  345 274 
 DBB  EN ES   4    653 10.53                             108   -3.48 0  345 274 
 DBB  EZ I         653 17.77        14.8 0.14            105            345 274 
 SDV  BZ EP        652 37.48                             107   -0.62 6  357  49 
 SDV  B1 ES   4    653 14.53                             107   -2.12 0  357  49 
 ANIL HZ EP   4    652 40.01                             107    1.33 0  361 225 
 ANIL HN ES        653 18.80                             107    1.12 6  361 225 
 ANIL HZ I         653 28.06        29.3 0.26            104            361 225 
 ARGC HZ EP   4    652 39.11                             107    0.63 0  362 340 
 ARGC HN ES        653 17.23                             107   -0.09 6  362 340 
 ARGC HZ I         653 27.48         7.5 0.25            105            362 340 
 PRA  HZ EP        652 42.13                             105   -0.13 6  394 210 
 PRA  HN ES        653 24.44                             105    0.38 6  394 210 
 PRA  HZ I         653 29.24        13.5 0.38            102            394 210 
 ORTC HZ EP        652 42.85                             105    0.12 6  398 217 
 ORTC HN ES        653 25.62                             105    0.72 6  398 217 
 ORTC HZ I         653 30.68        11.5 0.46            102            398 217 
 VALLCHZ EP   4    652 42.18                             105   -2.12 0  411 358 
 VALLCHN ES   4    653 23.43                             105   -4.25 0  411 358 
 SJC  HZ EP   4    652 42.10                             105   -2.44 0  413 326 
 SJC  HN ES   4    653 23.76                             105   -4.35 0  413 326 
 LCBC HN ES   4    653 31.90                             104    0.99 0  427 303 
 GUA  EN ES   4    653 38.58                             102   -1.92 0  472 174 
 SMAR HZ EP        652 54.12                             101   -0.58 4  499 346 
 SMAR HN ES   4    653 41.48                             101   -4.71 0  499 346 
 URI  HZ EP   4    652 58.77                             100   -2.76 0  556  12 
 URI  HN ES   4    653 51.86                             100   -6.50 0  556  12 
 URI  HZ I         653 58.84         2.9 0.56             98            556  12 
 BBAC HZ EP        653 19.34                              97    0.17 1  700 221 
                                                                                
