 2011 1218 0407 39.6 L   6.775 -73.081148.6  RSN  5 0.2 1.7LRSN                1
 GAP=200        0.44       3.8     7.6  4.2  0.1277E+02  0.1039E+01  0.5786E+01E
 Epicentro: LOS SANTOS - SANTANDER                                             3
 ACTION:UPD 12-07-13 16:16 OP:ep   STATUS:               ID:20111218040739 L   I
 2011-12-18-0400-00M.COL___187                                                 6
 STAT SP IPHASW D HRMM SECON CODA AMPLIT PERI AZIMU VELO AIN AR TRES W  DIS CAZ7
 BAR2 SZ EP        4 7 59.51                             170   -0.0810 23.1 209 
 BAR2 SZ ES   1    4 8 14.89                             170   -0.27 7 23.1 209 
 BAR2 SZ I         4 8 16.06        14.3 0.12                          23.1 209 
 GIR2 SZ EP   2    4 7 59.68                             166   -0.08 5 35.8 340 
 GIR2 SZ ES   2    4 8 15.75                             166    0.28 5 35.8 340 
 BRR  HZ EP        4 8  1.38                             150   -0.1410 78.8 298 
 BRR  HE ES   1    4 8 18.76                             150    0.16 7 78.8 298 
 BRR  HZ I         4 8 20.64        11.2 0.19                          78.8 298 
 RUS  HZ EP   1    4 8  3.40                             145   -0.04 7 97.6 180 
 RUS  HZ I         4 8  4.59         3.9 0.20                          97.6 180 
 RUS  HN ES   2    4 8 22.46                             145    0.44 5 97.6 180 
 CHI  HZ EP        4 8 17.68                             118    0.28 8  248 197 
 CHI  HN ES   2    4 8 46.66                             118   -0.22 4  248 197 
 CHI  HZ I         4 8 55.57         2.7 0.64                           248 197 
                                                                                
