 2016 1018 0937 25.4 L   6.832 -73.169136.0  RSN  7 0.4 1.7LRSN                1
 GAP=132        0.84       3.3     4.6  6.7 -0.7655E+01  0.1447E+02 -0.6581E+01E
 Epicentro: ZAPATOCA - SANTANDER                                               3
 ACTION:UPD 16-11-09 19:20 OP:rebc STATUS:               ID:20161018093725 L   I
 OLDACT:DUP 16-10-18 19:10 OP:and  STATUS:               ID:20161018092746d    3
 2016-10-18-0928-00M.COL___329                                                 6
 STAT SP IPHASW D HRMM SECON CODA AMPLIT PERI AZIMU VELO AIN AR TRES W  DIS CAZ7
 BAR2 EZ EP        937 43.78                             168   -0.1510 26.5 183 
 BAR2 EZ ES        937 58.70                             168    0.3110 26.5 183 
 BAR2 EZ I         938  4.08        12.2 0.46            170           26.5 183 
 PAM  EZ IP     C  937 46.81                             149    0.2810 76.4  43 
 PAM  EN ES        938  3.28                             149    0.2810 76.4  43 
 PAM  EZ I         938  4.25         6.7 0.20            154           76.4  43 
 RUS  HZ EP   2    937 48.33                             141   -0.16 5  104 175 
 RUS  HE ES        938  6.21                             141   -0.2910  104 175 
 RUS  HZ I         938  7.83         4.8 0.36            145            104 175 
 PTB  HZ EP        937 51.21                             130   -0.22 9  146 257 
 PTB  HN ES        938 11.84                             130    0.11 9  146 257 
 PTB  HZ I         938 14.30         8.2 0.16            133            146 257 
 OCA  HZ EP        937 52.49                             128   -0.12 9  156 354 
 OCA  HN ES        938 13.43                             128   -0.40 9  156 354 
 OCA  HZ I         938 16.74        13.8 0.38            132            156 354 
 SPBC HN ES        938 14.54                             127   -0.50 9  164 218 
 SPBC HZ I         938 19.55         6.9 0.16            130            164 218 
 GUY2CHZ EP   2    938  9.39                             110    0.81 4  301 234 
 GUY2CHE ES        938 43.10                             110    0.85 7  301 234 
 GUY2CHZ I         938 53.47         2.0 0.28                           301 234 
                                                                                
