 2016  918 0244 23.9 L   6.052 -73.796  0.6  RSN  4 0.1 1.1LRSN                1
 GAP=197        0.35       2.4     1.8  5.1 -0.3289E+01 -0.2561E-01 -0.5208E+00E
 Epicentro: EL PENON - SANTANDER                                               3
 ACTION:UPD 17-08-17 21:13 OP:lp   STATUS:               ID:20160918024423 L   I
 OLDACT:REG 16-09-18 12:55 OP:and  STATUS:               ID:20160918023733     3
 2016-09-18-0238-00M.COL___360                                                 6
 STAT SP IPHASW D HRMM SECON CODA AMPLIT PERI AZIMU VELO AIN AR TRES W  DIS CAZ7
 BAR2 EZ EP   4    244 37.41                              47   -1.48 0 90.4  49 
 BAR2 EZ ES        244 50.65                              47    0.0510 90.4  49 
 BAR2 EZ I         244 52.44         4.3 0.50            119           90.4  49 
 PTB  HZ EP   4    244 36.35                              47   -2.37 0 90.8 306 
 PTB  HN ES   2    244 50.54                              47    0.24 5 90.8 306 
 PTB  HZ I         244 53.88         2.6 0.09            115           90.8 306 
 BRR  HZ EP   2    244 42.66                              47   -0.01 5  117   5 
 BRR  HN ES   2    244 57.04                              47   -0.30 5  117   5 
 BRR  HZ I         244 57.96         4.4 0.15            110            117   5 
 NOR  HZ EP   2    244 44.79                              47    0.01 5  131 246 
 NOR  HN ES        245  1.06                              47   -0.0410  131 246 
 NOR  HZ I         245  3.52         6.5 0.16            106            131 246 
                                                                                
