 2012  218 0625 37.9 L   6.787 -73.156150.0  RSN  8 0.4 1.3LRSN                1
 GAP=183        0.56       5.2     5.4  6.9  0.8976E+01  0.9578E+01  0.1298E+02E
 ACTION:UP  12-03-07 16:31 OP:epov STATUS:               ID:20120218062537 L   I
 2012-02-18-0620-00M.COL___188                                                 6
 STAT SP IPHASW D HRMM SECON CODA AMPLIT PERI AZIMU VELO AIN AR TRES W  DIS CAZ7
 BAR2 SZ EP   1    625 58.01                             171   -0.04 7 21.7 188 
 BAR2 SZ ES   2    626 13.18                             171   -0.55 5 21.7 188 
 BAR2 SZ I         626 14.42         5.7 0.47                          21.7 188 
 GIR2 SZ ES   2    626 14.33                             167    0.42 5 32.6 353 
 BRR  HZ EP   2    625 59.53                             153    0.00 5 70.9 300 
 BRR  HZ I         626 10.83         5.3 0.55                          70.9 300 
 BRR  HE ES   2    626 16.91                             153    0.54 5 70.9 300 
 RUS  HZ EP   1    626  1.99                             145   -0.02 7 99.2 175 
 RUS  HE ES   2    626 20.65                             145   -0.13 5 99.2 175 
 RUS  HZ I         626 21.89         1.6 0.40                          99.2 175 
 PTB  HZ EP   1    626  4.60                             133   -0.52 7  146 259 
 PTB  HN ES   2    626 26.08                             133   -0.25 5  146 259 
 ZAR  HN ES   2    626 36.29                             123    0.20 4  204 293 
 NOR  SN ES   2    626 41.88                             120    0.25 4  233 235 
 CHI  HZ EP   2    626 16.56                             118    0.87 4  247 195 
 CHI  HN ES   2    626 45.51                             118    0.38 4  247 195 
                                                                                
