 2011  118 0137 10.4 L   6.762 -73.102148.6  RSN  8 0.4 1.9LRSN                1
 GAP=164        0.86       4.0    10.7  8.0 -0.1866E+02  0.2644E+02 -0.5313E+01E
 Epicentro: LOS SANTOS - SANTANDER                                             3
 ACTION:UP  11-02-08 08:41 OP:pat  STATUS:               ID:20110118013710 L   I
 2011-01-18-0133-56S.COL___134                                                 6
 STAT SP IPHASW D HRMM SECON CODA AMPLIT PERI AZIMU VELO SNR AR TRES W  DIS CAZ7
 BAR2 SZ EP   1    137 30.32                             172     0.0 8   21 205 
 BAR2 SZ ES   1    137 46.33                             172     0.5 8   21 205 
 BAR2 SZ I         137 47.38        21.9 0.07                            21 205 
 GIR2 SZ EP   1    137 29.70                             165    -0.9 8   36 344 
 RUS  HZ EP   1    137 34.25                             146     0.1 8   96 179 
 RUS  HN ES   1    137 52.45                             146    -0.2 8   96 179 
 RUS  HZ I         137 54.03        13.3 0.33                            96 179 
 GRA  SZ IP        137 36.55                             137     0.410  128  15 
 GRA  SZ I         137 37.94        14.3 0.27                           128  15 
 GRA  SZ ES   1    137 55.65                             137    -0.5 7  128  15 
 OCA  SZ EP   1    137 39.37                             129     0.0 7  165 352 
 OCA  SZ ES   1    138  2.34                             129     0.4 7  165 352 
 OCA  SZ I         138  5.69        10.6 0.28                           165 352 
 NOR  SZ EP   2    137 46.64                             119     0.2 4  236 236 
 NOR  SN ES   2    138 14.56                             119    -0.1 4  236 236 
 CHI  HZ EP   1    137 48.03                             118     0.1 6  246 197 
 CHI  HE ES   2    138 17.36                             118     0.1 4  246 197 
 CHI  HZ I         138 19.75         2.7 0.32                           246 197 
 HEL  HZ EP   2    137 50.80                             115    -0.4 4  276 257 
 HEL  HZ I         138 29.44         3.9 0.23                           276 257 
                                                                                
