 2012  518 0418  6.9 L   6.760 -73.176144.9  RSN  4 0.2 1.5LRSN                1
 GAP=231        0.56       6.0     5.3  7.5  0.1332E+02 -0.4704E+01  0.6424E+01E
 Epicentro: VILLANUEVA - SANTANDER                                             3
 ACTION:UP  12-07-05 12:06 OP:pat  STATUS:               ID:20120518041806 L   I
 2012-05-18-0410-00M.COL___200                                                 6
 STAT SP IPHASW D HRMM SECON CODA AMPLIT PERI AZIMU VELO SNR AR TRES W  DIS CAZ7
 BAR2 SZ EP        418 26.03                             172    -0.310   19 182 
 BAR2 SZ I         418 42.09         6.2 0.36                            19 182 
 BRR  HZ EP        418 28.09                             152     0.210   71 303 
 BRR  HN ES   1    418 44.38                             152     0.1 7   71 303 
 BRR  HZ I         418 46.63         7.5 0.12                            71 303 
 RUS  HZ EP        418 30.26                             145     0.010   97 174 
 RUS  HN ES   2    418 48.89                             145     0.4 5   97 174 
 PTB  HZ EP        418 33.54                             133     0.1 9  144 260 
 PTB  HN ES   1    418 53.88                             133    -0.2 7  144 260 
                                                                                
