 2017  418 0336  1.5 L   6.804 -73.139138.0  RSN 10 0.5 1.6LRSN                1
 GAP=112        1.00       3.7     3.3  6.1  0.1022E+01  0.4247E+01  0.5933E+01E
 Epicentro: LOS SANTOS - SANTANDER                                             3
 ACTION:UPD 17-05-30 21:13 OP:jn   STATUS:               ID:20170418033601 L   I
 OLDACT:UP  17-04-18 14:53 OP:cog  STATUS:               ID:20170418032740d    3
 OLDACT:DUP 17-04-18 14:37 OP:cog  STATUS:               ID:20170418032740d    3
 2017-04-18-0328-00M.COL___368                                                 6
 STAT SP IPHASW D HRMM SECON CODA AMPLIT PERI AZIMU VELO AIN AR TRES W  DIS CAZ7
 BAR2 EZ EP        336 19.98                             170   -0.2710 23.9 192 
 BAR2 EZ ES        336 34.67                             170   -0.1710 23.9 192 
 BAR2 EZ I         336 36.83        10.7 0.34            169           23.9 192 
 BRR  HZ EP        336 21.85                             151   -0.0310 71.7 298 
 BRR  HN ES        336 37.83                             151    0.0810 71.7 298 
 BRR  HZ I         336 42.61         9.9 0.26            153           71.7 298 
 PAM  EZ EP        336 23.15                             150    0.2610 76.6  39 
 PAM  EN ES        336 39.67                             150    0.1410 76.6  39 
 PAM  EZ I         336 42.35         6.6 0.33            154           76.6  39 
 RUS  HZ EP        336 24.00                             142   -0.5610  101 177 
 RUS  HE ES        336 42.54                             142    0.0210  101 177 
 RUS  HZ I         336 43.20         3.5 0.22            144            101 177 
 PTB  HZ EP   3    336 26.79                             130   -1.17 2  149 259 
 PTB  HN ES        336 47.87                             130   -0.70 9  149 259 
 PTB  HZ I         336 49.98         7.0 0.16            132            149 259 
 SPBC HZ EP        336 29.13                             127   -0.40 9  164 219 
 SPBC HE ES        336 51.45                             127    0.09 9  164 219 
 SPBC HZ I         336 58.39         4.5 0.10            129            164 219 
 YPLC HZ EP        336 30.51                             125   -0.27 9  177 152 
 YPLC HN ES        336 54.46                             125    0.87 9  177 152 
 YPLC HZ I         336 56.77         6.5 0.24            128            177 152 
 ZAR  HN ES        336 59.10                             121    0.58 9  205 292 
 NOR  HZ EP        336 36.73                             117   -0.19 8  236 234 
 NOR  HN ES        337  5.14                             117    0.62 8  236 234 
 NOR  HZ I         337  5.91         3.2 0.16            119            236 234 
 CBOC HZ EP   3    336 49.46                             108    1.22 2  334 252 
 CBOC HE ES        337 25.26                             108    0.59 7  334 252 
                                                                                
