 2010  818 0153 58.7 L   6.464 -73.697 97.7  RSN 12 0.5 2.1LRSN                1
 GAP= 97        1.08       3.5     4.6  7.8 -0.4107E+01  0.1456E+02  0.5371E+01E
 Epicentro: SANTA HELENA DEL OPON - SANTANDER                                  3
 ACTION:UP  10-09-07 10:55 OP:vdl  STATUS:               ID:20100818015358 L   I
 2010-08-18-0150-58S.COL___111                                                 6
 STAT SP IPHASW D HRMM SECON CODA AMPLIT PERI AZIMU VELO SNR AR TRES W  DIS CAZ7
 BAR2 SZ EP        154 14.52                             147     0.210   58  76 
 BAR2 SZ ES   1    154 26.95                             147     0.4 7   58  76 
 BAR2 SZ I         154 28.21        75.7 0.06                            58  76 
 BTL  SZ IP        154 15.36                             142     0.310   69  43 
 BTL  SZ ES   1    154 27.30                             142    -0.6 7   69  43 
 BRR  HZ EP        154 14.75                             141    -0.110   71 359 
 BRR  HZ I         154 15.03        76.7 0.13                            71 359 
 BRR  HN ES        154 27.90                             141     0.410   71 359 
 GIR2 SZ EP        154 16.69                             135     0.210   88  39 
 RUS  HZ EP        154 17.09                             134    -0.310   93 133 
 RUS  HZ I         154 17.86        24.9 0.21                            93 133 
 RUS  HN ES   1    154 31.14                             134    -0.8 7   93 133 
 GUE  SZ EP        154 25.33                             115    -0.1 9  173  29 
 GUE  SZ I         154 48.06        18.1 0.25                           173  29 
 ROSC BZ EP   1    154 28.48                             113     0.8 7  192 201 
 ROSC BZ I         154 54.63         7.4 0.13                           192 201 
 OCA  SZ EP        154 28.22                             112    -0.1 9  201  12 
 OCA  SZ ES   1    154 51.35                             112    -0.1 6  201  12 
 OCA  SZ I         154 57.38        17.2 0.07                           201  12 
 CHI  HZ EP   1    154 28.92                             112     0.0 6  203 181 
 CHI  HE ES   3    154 53.26                                     0.8 2  203 181 
 CHI  HZ I         154 56.08         4.0 0.35                           203 181 
 HEL  HZ EP   1    154 28.99                                    -0.1 6  205 262 
 HEL  HN ES   1    154 51.69                             111    -1.1 6  205 262 
 HEL  HZ I         154 54.77         8.5 0.73                           205 262 
 RREF HZ EP        154 34.48                             107    -0.4 8  252 227 
 RREF HN ES        155  3.44                             107     0.4 8  252 227 
 RREF HZ I         155  6.66        10.7 0.19                           252 227 
 PRA  HZ EP   1    154 43.54                             102    -0.1 5  331 203 
 PRA  HN ES   2    155 19.78                             102     1.0 3  331 203 
 PRA  HZ I         155 23.21         7.1 0.40                           331 203 
                                                                                
