 2011  218 0854 39.4 L   6.800 -73.090142.1  RSN  5 0.4 1.3LRSN                1
 GAP=165        0.95       5.2    22.0 11.8 -0.5634E+02  0.6557E+02 -0.1752E+02E
 Epicentro: LOS SANTOS - SANTANDER                                             3
 ACTION:UP  11-03-28 15:09 OP:jfem STATUS:               ID:20110218085439 L   I
 2011-02-18-0852-50S.COL___137                                                 6
 STAT SP IPHASW D HRMM SECON CODA AMPLIT PERI AZIMU VELO SNR AR TRES W  DIS CAZ7
 BTL  SZ EP        854 58.42                             171    -0.210   24 304 
 BAR2 SZ EP        854 58.15                             169    -0.510   25 204 
 BAR2 SZ I         855  5.55         4.0 0.46                            25 204 
 BAR2 SZ ES   2    855 13.67                             169     0.0 5   25 204 
 RUS  HZ EP   1    855  2.69                             143    -0.1 7  100 180 
 RUS  HN ES   1    855 21.54                             143     0.5 7  100 180 
 RUS  HZ I         855 21.82         1.6 0.28                           100 180 
 GRA  SZ EP        855  4.61                             136     0.410  124  15 
 GRA  SZ ES        855 23.19                             136    -0.310  124  15 
 GRA  SZ I         855 26.54         4.0 0.27                           124  15 
 OCA  SZ EP   1    855  7.82                             128     0.3 7  161 351 
 OCA  SZ ES   2    855 29.83                             128     0.4 5  161 351 
 OCA  SZ I         855 33.75         4.4 0.31                           161 351 
                                                                                
