 2012 1118 0547 30.4 L   6.795 -73.157141.4  RSN  5 0.3 1.1LRSN                1
 GAP=135        0.68       4.7     4.2  7.6 -0.5292E+00  0.1013E+02 -0.2889E+01E
 Epicentro: LOS SANTOS - SANTANDER                                             3
 ACTION:UPD 12-12-05 15:34 OP:}ep  STATUS:               ID:20121118054730 L   I
 2012-11-18-0540-00M.COL___234                                                 6
 STAT SP IPHASW D HRMM SECON CODA AMPLIT PERI AZIMU VELO AIN AR TRES W  DIS CAZ7
 BAR2 SZ EP   1    547 49.48                             170   -0.02 7 22.6 187 
 BAR2 SZ ES   1    548  4.47                             170    0.08 7 22.6 187 
 BRR  HN ES   4    548  8.58                             152    1.45 0 70.4 299 
 PAM  SZ EP   1    547 52.50                             150    0.26 7 78.6  40 
 PAM  SE ES   1    548  8.91                             150   -0.36 7 78.6  40 
 PAM  SZ I         548 11.88         3.4 0.66                          78.6  40 
 RUS  HZ EP   1    547 53.64                             143   -0.06 7  100 175 
 RUS  HN ES   1    548 12.21                             143    0.34 7  100 175 
 RUS  HZ I         548 14.28         1.2 0.46                           100 175 
 PTB  HZ EP   1    547 56.57                             131   -0.33 7  146 259 
 PTB  HN ES   1    548 17.07                             131   -0.49 7  146 259 
 PTB  HZ I         548 18.55         2.4 0.16                           146 259 
 ZAR  HE ES   1    548 28.14                             121    0.65 6  203 292 
                                                                                
