 2010 1118 0000  8.9 L   6.774 -73.124135.7  RSN  8 0.4 2.4LRSN                1
 GAP=238        0.76       5.3     6.7  6.7  0.6755E+01  0.1891E+02  0.1100E+02E
 Epicentro: LOS SANTOS - SANTANDER                                             3
 ACTION:UP  10-12-17 16:53 OP:REBC STATUS:               ID:20101118000008 L   I
 2010-11-18-0000-00M.COL___116                                                 6
 STAT SP IPHASW D HRMM SECON CODA AMPLIT PERI AZIMU VELO SNR AR TRES W  DIS CAZ7
 BAR2 SZ IP        0 0 27.23                             170    -0.110   21 198 
 BAR2 SZ ES   1    0 0 41.37                             170    -0.3 7   21 198 
 BAR2 SZ I         0 0 45.22        49.3 0.45                            21 198 
 BRR  HZ IP     C  0 0 29.03                             149    -0.210   75 300 
 BRR  HZ I         0 0 29.30        51.6 0.17                            75 300 
 BRR  HN ES   1    0 0 45.47                             149     0.4 7   75 300 
 RUS  HZ EP   1    0 0 31.31                             142    -0.2 7   98 177 
 RUS  HE ES   1    0 0 49.39                             142     0.3 7   98 177 
 RUS  HZ I         0 0 52.07        22.9 0.35                            98 177 
 NOR  SZ EP   2    0 0 43.30                             116    -0.8 4  235 235 
 NOR  SN ES   2    0 1 11.35                             116    -0.3 4  235 235 
 ROSC BZ EP   2    0 0 46.80                             115     0.4 4  252 212 
 ROSC BZ I         0 1 23.86        14.3 0.43                           252 212 
 HEL  HZ EP   1    0 0 49.46                             113     0.6 6  274 257 
 HEL  HE ES   2    0 1 19.41                             113    -0.5 4  274 257 
 HEL  HZ I         0 1 25.64        10.8 0.65                           274 257 
 RREF HZ EP   2    0 0 55.57                             109     0.9 3  322 230 
 RREF HN ES   2    0 1 29.98                             109    -0.3 3  322 230 
 RREF HZ I         0 1 36.44        10.8 0.38                           322 230 
 PRA  HZ EP   1    0 1  1.58                             105    -0.4 4  391 210 
 PRA  HE ES   1    0 1 43.78                             105     0.4 4  391 210 
 PRA  HZ I         0 1 47.04        24.7 0.24                           391 210 
                                                                                
