 2011  518 0005 12.1 L   6.799 -73.109139.7  RSN  9 0.1 1.8LRSN                1
 GAP=141        0.37       1.9     2.5  3.0 -0.1607E+01  0.2118E+01 -0.5515E+00E
 Epicentro: LOS SANTOS - SANTANDER                                             3
 ACTION:UP  11-06-29 08:54 OP:tino STATUS:               ID:20110518000512 L   I
 2011-05-18-0002-16S.COL___141                                                 6
 STAT SP IPHASW D HRMM SECON CODA AMPLIT PERI AZIMU VELO SNR AR TRES W  DIS CAZ7
 BAR2 SZ EP        0 5 31.04                             170     0.010   24 200 
 BAR2 SZ ES   1    0 5 45.73                             170    -0.1 7   24 200 
 BAR2 SZ I         0 5 48.51         8.8 0.32                            24 200 
 GIR2 SZ EP   1    0 5 31.12                             166     0.0 7   32 343 
 BRR  HZ EP   1    0 5 32.75                             150    -0.1 7   75 297 
 BRR  HE ES   1    0 5 49.09                             150     0.1 7   75 297 
 BRR  HZ I         0 5 53.16        19.1 0.22                            75 297 
 PAM  SZ EP   1    0 5 33.89                             150     0.3 7   75  37 
 PAM  SZ I         0 5 34.13        13.2 0.18                            75  37 
 PAM  SE ES   1    0 5 50.29                             150     0.0 7   75  37 
 RUS  HZ EP   1    0 5 35.12                             143    -0.1 7  100 178 
 RUS  HE ES   1    0 5 53.35                             143     0.0 7  100 178 
 RUS  HZ I         0 5 55.78         7.8 0.30                           100 178 
 GRA  SZ EP   1    0 5 36.82                             136     0.1 7  125  16 
 GRA  SZ ES   1    0 5 55.71                             136    -0.2 7  125  16 
 GRA  SZ I         0 5 57.47        11.6 0.24                           125  16 
 OCA  SZ EP   1    0 5 39.93                             128    -0.1 7  161 352 
 OCA  SZ I         0 6 14.44         7.8 0.53                           161 352 
 NOR  SZ EP   2    0 5 47.66                             117    -0.2 4  238 235 
 HEL  HZ EP   1    0 5 52.48                             113     0.0 6  276 256 
 HEL  HN ES   1    0 6 24.02                             113     0.1 6  276 256 
 HEL  HZ I         0 6 29.04         4.3 0.40                           276 256 
                                                                                
