 2015  218 0813 36.7 L   6.786 -73.167147.5  RSN  5 0.5 1.5LRSN                1
 GAP=134        1.15       6.3     6.0 10.0 -0.4168E+01  0.4077E+01  0.9013E+01E
 Epicentro: LOS SANTOS - SANTANDER                                             3
 ACTION:UPD 15-04-30 21:27 OP:nd   STATUS:               ID:20150218081336 L   I
 OLDACT:UP  15-02-18 19:32 OP:mh   STATUS:               ID:20150218080746     3
 OLDACT:REG 15-02-18 12:45 OP:mh   STATUS:               ID:20150218080746     3
 2015-02-18-0807-46M.COL___290                                                 6
 STAT SP IPHASW D HRMM SECON CODA AMPLIT PERI AZIMU VELO AIN AR TRES W  DIS CAZ7
 BAR2 EZ EP   1    813 56.96                             171    0.46 7 21.5 185 
 BAR2 EZ I         814 12.00         7.0 0.30            171           21.5 185 
 BRR  HZ EP        813 58.63                             153    0.6710 69.9 301 
 BRR  HN ES        814 14.99                             153    0.4410 69.9 301 
 BRR  HZ I         814 19.22         4.2 0.07            152           69.9 301 
 PAM  SZ EP        813 59.23                             150   -0.0310 80.1  40 
 PAM  SN ES        814 16.32                             150   -0.5310 80.1  40 
 PAM  SZ I         814 18.35         8.4 0.48            149           80.1  40 
 RUS  HZ EP        814  0.71                             145    0.1810 99.3 175 
 RUS  HN ES        814 19.08                             145   -0.0310 99.3 175 
 RUS  HZ I         814 20.33         3.2 0.32            144           99.3 175 
 PTB  HZ EP        814  2.82                             133   -0.75 9  145 259 
 PTB  HN ES        814 24.19                             133   -0.34 9  145 259 
 PTB  HZ I         814 27.29         3.4 0.16            132            145 259 
                                                                                
