 2015  218 0041 12.1 L   6.809 -73.152144.0  RSN 21 0.4 2.7LRSN                1
 GAP= 70        0.98       2.2     3.0  4.3 -0.9016E+00  0.3665E+01  0.1042E+01E
 Epicentro: LOS SANTOS - SANTANDER                                             3
 ACTION:UPD 15-04-30 21:27 OP:nd   STATUS:               ID:20150218004112 L   I
 OLDACT:UP  15-02-18 13:19 OP:mher STATUS:               ID:20150218003739     3
 OLDACT:UP  15-02-18 13:18 OP:mher STATUS:               ID:20150218003739     3
 OLDACT:UP  15-02-18 13:17 OP:mher STATUS:               ID:20150218003739     3
 OLDACT:REG 15-02-18 12:01 OP:mh   STATUS:               ID:20150218003739     3
 2015-02-18-0037-39M.COL___296                                                 6
 STAT SP IPHASW D HRMM SECON CODA AMPLIT PERI AZIMU VELO AIN AR TRES W  DIS CAZ7
 BAR2 EZ EP        041 31.47                             170   -0.0410 24.2 188 
 BAR2 EZ ES        041 46.72                             170    0.0510 24.2 188 
 BAR2 EZ I         041 47.81       108.1 0.20            169           24.2 188 
 BRR  HZ EP        041 33.38                             153    0.4110 70.1 298 
 BRR  HN ES        041 50.09                             153    0.8210 70.1 298 
 BRR  HZ I         041 52.52        80.0 0.50            144           70.1 298 
 PAM  SZ EP        041 34.42                             151    0.3310 77.1  40 
 PAM  SN ES        041 51.38                             151    0.1310 77.1  40 
 PAM  SZ I         041 53.10        62.6 0.16            147           77.1  40 
 RUS  HZ EP     C  041 35.64                             143   -0.0910  102 176 
 RUS  HN ES        041 53.87                             143   -0.3110  102 176 
 RUS  HZ I         041 55.62        39.8 0.22            141            102 176 
 PTB  HZ EP        041 38.27                             132   -0.58 9  147 258 
 PTB  HN ES        041 59.35                             132   -0.39 9  147 258 
 PTB  HZ I         042  1.14        50.8 0.32            125            147 258 
 TAM  HZ EP     D  041 40.06                             130    0.36 9  156 105 
 TAM  HN ES        042  0.94                             130   -0.31 9  156 105 
 TAM  HZ I         042  2.33        31.8 0.24            128            156 105 
 OCA  HZ EP   1    041 39.91                             130   -0.24 7  159 353 
 OCA  HN ES        042  1.73                             130   -0.31 9  159 353 
 OCA  HZ I         042  4.26        70.6 0.28            123            159 353 
 SPBC HZ EP        041 40.57                             129    0.10 9  164 219 
 SPBC HN ES   1    042  2.98                             129    0.36 7  164 219 
 SPBC HZ I         042  9.71        66.4 0.16            123            164 219 
 NOR  HZ EP        041 47.53                             118   -0.17 8  235 234 
 NOR  HN ES   1    042 15.44                             118   -0.05 6  235 234 
 NOR  HZ I         042 21.26        45.1 0.18            113            235 234 
 SML  HZ EP        041 47.85                             117   -0.62 8  242 335 
 SML  HN ES        042 16.01                             117   -0.85 8  242 335 
 SML  HZ I         042 24.12        73.2 0.30            112            242 335 
 CHI  HZ EP        041 49.82                             117    0.06 8  249 195 
 CHI  HN ES        042 18.56                             117   -0.60 8  249 195 
 CHI  HZ I         042 26.91        22.8 0.44            113            249 195 
 ROSC BZ EP        041 50.33                             116    0.18 8  253 211 
 ROSC BN ES   4    042 22.09                             116    2.24 0  253 211 
 ROSC BZ I         042 28.26        41.8 0.40            112            253 211 
 GUY2CHZ EP   1    041 55.91                             112    0.31 5  301 235 
 GUY2CHN ES   4    042 31.02                             112    1.47 0  301 235 
 GUY2CHZ I         042 39.27        24.1 0.52                           301 235 
 PTGC HZ EP   4    041 54.94                             111   -1.05 0  310 159 
 PTGC HN ES   4    042 27.29                             111   -2.95 0  310 159 
 PTGC HZ I         042 35.22        16.1 0.28            108            310 159 
 RREF HZ EP        041 58.63                             111    0.48 7  322 229 
 RREF HN ES        042 33.56                             111   -0.54 7  322 229 
 DBB  SZ EP        041 59.13                             109   -0.26 7  339 274 
 DBB  SZ I         042 38.47                             105            339 274 
 TOL  SZ EP   1    042  0.80                             109    0.51 5  344 224 
 TOL  SN ES        042 38.80                             109    0.91 7  344 224 
 TOL  SZ I         042 45.21        26.3 0.36            105            344 224 
 ANIL HZ EP   4    042  3.11                             108    1.27 0  358 224 
 ANIL HN ES   4    042 42.59                             108    1.94 0  358 224 
 ANIL HZ I         042 46.12         6.7 0.32            104            358 224 
 ARGC HZ EP        042  1.37                             108   -0.16 6  358 340 
 ARGC HN ES        042 41.17                             108    1.07 6  358 340 
 ARGC HZ I         043 17.08        10.2 0.26            104            358 340 
 PRA  HZ EP        042  5.19                             106   -0.41 6  393 209 
 PRA  HN ES        042 47.44                             106    0.10 6  393 209 
 PRA  HZ I         042 51.71        27.2 0.42            103            393 209 
 ORTC HZ EP        042  6.64                             106    0.66 6  396 216 
 ORTC HN ES   4    042 49.20                             106    1.17 0  396 216 
 ORTC HZ I         042 56.77        19.7 0.50            103            396 216 
 PAL  HZ EP   4    042  7.16                             106   -0.01 0  406 239 
                                                                                
