 2013  518 0213  3.7 L   6.796 -73.165148.9  RSN  5 0.4 1.3LRSN                1
 GAP=199        1.07       5.8     8.1  8.6  0.2120E+02  0.3461E+01 -0.8191E+01E
 Epicentro: LOS SANTOS - SANTANDER                                             3
 ACTION:UPD 13-06-20 09:51 OP:ep   STATUS:               ID:20130518021303 L   I
 2013-05-18-0210-00M.COL___256                                                 6
 STAT SP IPHASW D HRMM SECON CODA AMPLIT PERI AZIMU VELO AIN AR TRES W  DIS CAZ7
 BAR2 SZ EP   1    213 23.56                             171   -0.18 7 22.7 185 
 BAR2 SZ ES        213 39.91                             171    0.5810 22.7 185 
 BRR  HZ EP        213 25.81                             154    0.6610 69.6 300 
 BRR  HN ES        213 41.43                             154   -0.4110 69.6 300 
 BRR  HZ I         213 46.13         6.3 0.50            153           69.6 300 
 RUS  HZ EP        213 27.86                             144    0.0710  100 175 
 RUS  HN ES        213 45.94                             144   -0.6010  100 175 
 RUS  HZ I         213 47.64         1.5 0.31            147            100 175 
 PTB  HZ EP        213 30.64                             133   -0.14 9  146 259 
 PTB  HN ES        213 52.06                             133    0.19 9  146 259 
 PTB  HZ I         213 54.83         2.9 0.11            134            146 259 
 SML  HE ES        214  8.79                             118   -0.37 8  243 336 
                                                                                
