 2016  418 0343 18.4 L   6.858 -73.092161.0  RSN  4 0.1 1.1LRSN                1
 GAP=283        0.43       4.1     3.0  3.7  0.1014E+01  0.1664E+01 -0.2920E+01E
 Epicentro: LOS SANTOS - SANTANDER                                             3
 ACTION:UPD 16-05-05 14:22 OP:rebc STATUS:               ID:20160418034318 L   I
 OLDACT:DUP 16-04-18 18:20 OP:cara STATUS:               ID:20160418033745d    3
 OLDACT:ARG 16-04-18 12:56 OP:cara STATUS:               ID:20160418033744     3
 2016-04-18-0337-44M.COL___297                                                 6
 STAT SP IPHASW D HRMM SECON CODA AMPLIT PERI AZIMU VELO AIN AR TRES W  DIS CAZ7
 BAR2 EZ EP        343 40.08                             169    0.1010 31.0 199 
 BAR2 EZ ES        343 56.68                             169   -0.1710 31.0 199 
 BAR2 EZ I         343 59.13         2.9 0.42            163           31.0 199 
 RUS  HZ EP        343 44.03                             145   -0.0310  107 179 
 RUS  HE ES        344  4.27                             145    0.1710  107 179 
 RUS  HZ I         344  5.77         1.0 0.16            143            107 179 
 PTB  HZ EP        343 47.37                             134    0.14 9  155 257 
 PTB  HN ES        344  9.79                             134    0.05 9  155 257 
 PTB  HZ I         344 11.26         2.3 0.12            133            155 257 
 SPBC HZ EP        343 48.61                             131   -0.25 9  172 219 
 SPBC HN ES        344 12.62                             131   -0.04 9  172 219 
 SPBC HZ I         344 18.84         1.2 0.22            129            172 219 
                                                                                
