 2014  318 0250 41.1 L   6.770 -73.187144.6  RSN  6 0.1 1.6LRSN                1
 GAP=197        0.35       1.9     2.1  3.2  0.9099E+00  0.1209E+01 -0.1946E+01E
 Epicentro: VILLANUEVA - SANTANDER                                             3
 ACTION:UPD 14-04-09 23:18 OP:nd   STATUS:               ID:20140318025041 L   I
 OLDACT:UP  14-03-18 11:03 OP:mh   STATUS:               ID:20140318024812     3
 OLDACT:UP  14-03-18 11:02 OP:mh   STATUS:               ID:20140318024812     3
 OLDACT:UP  14-03-18 11:02 OP:mh   STATUS:               ID:20140318024812     3
 OLDACT:REG 14-03-18 08:07 OP:mh   STATUS:               ID:20140318024812     3
 2014-03-18-0248-12M.COL___223                                                 6
 STAT SP IPHASW D HRMM SECON CODA AMPLIT PERI AZIMU VELO AIN AR TRES W  DIS CAZ7
 BAR2 SZ EP        251  0.67                             172    0.1510 19.6 179 
 BAR2 SZ ES        251 15.64                             172   -0.0310 19.6 179 
 BAR2 SZ I    1    251 17.03        20.7 0.15            176           19.6 179 
 RUS  HZ EP        251  4.43                             144   -0.1010 97.7 173 
 RUS  HN ES   1    251 22.83                             144    0.03 7 97.7 173 
 RUS  HZ I         251 24.43         3.2 0.45            150           97.7 173 
 PTB  HZ EP   1    251  7.41                             133   -0.11 7  143 260 
 PTB  HN ES        251 27.95                             133   -0.17 9  143 260 
 PTB  HZ I         251 31.36         2.6 0.17            134            143 260 
 SPBC HN ES        251 30.83                             130    0.08 9  158 218 
 ZAR  HZ EP        251 13.20                             122    0.03 9  201 294 
 ZAR  HN ES   1    251 38.44                             122    0.25 6  201 294 
 ZAR  HZ I         251 41.20         3.1 0.22            123            201 294 
 SML  HN ES   1    251 46.32                             117   -0.09 6  245 337 
 SML  HZ I         251 52.89         4.4 0.13            118            245 337 
                                                                                
