 2014 1018 0834 31.3 L   6.370 -73.562113.7  RSN 13 0.4 1.8LRSN                1
 GAP= 75        1.01       2.7     3.7  5.7 -0.1064E+01  0.5243E+01  0.3348E+00E
 Epicentro: SANTA HELENA DEL OPON - SANTANDER                                  3
 ACTION:UPD 14-11-29 23:50 OP:nd   STATUS:               ID:20141018083431 L   I
 OLDACT:UP  14-10-18 18:24 OP:mh   STATUS:               ID:20141018082743     3
 OLDACT:UP  14-10-18 18:24 OP:mh   STATUS:               ID:20141018082743     3
 OLDACT:UP  14-10-18 18:24 OP:mh   STATUS:               ID:20141018082743     3
 OLDACT:UP  14-10-18 18:24 OP:mh   STATUS:               ID:20141018082743     3
 OLDACT:UP  14-10-18 18:23 OP:mh   STATUS:               ID:20141018082743     3
 OLDACT:UP  14-10-18 18:22 OP:mh   STATUS:               ID:20141018082743     3
 OLDACT:UP  14-10-18 18:20 OP:mh   STATUS:               ID:20141018082743     3
 OLDACT:UP  14-10-18 18:20 OP:mh   STATUS:               ID:20141018082743     3
 OLDACT:REG 14-10-18 12:26 OP:mh   STATUS:               ID:20141018082743     3
 2014-10-18-0827-43M.COL___278                                                 6
 STAT SP IPHASW D HRMM SECON CODA AMPLIT PERI AZIMU VELO AIN AR TRES W  DIS CAZ7
 BAR2 SZ EP   1    834 48.30                             155    0.24 7 48.6  60 
 BAR2 SZ ES        835  1.68                             155    0.5410 48.6  60 
 BAR2 SZ I         835  2.25        41.1 0.26            157           48.6  60 
 RUS  HZ EP        834 49.87                             145   -0.1510 74.8 135 
 RUS  HN ES   1    835  4.82                             145    0.18 7 74.8 135 
 RUS  HZ I         835  5.94         8.4 0.18            148           74.8 135 
 BRR  HZ EP        834 50.14                             141    0.1910 83.2 348 
 BRR  HN ES        835  4.78                             141    0.2710 83.2 348 
 BRR  HZ I         835 12.08        14.0 0.14            142           83.2 348 
 SPBC HZ EP        834 51.04                             136   -0.1910 97.5 215 
 SPBC HN ES        835  6.53                             136   -0.2510 97.5 215 
 SPBC HZ I         835  9.61        11.4 0.32            139           97.5 215 
 PTB  HZ EP     D  834 50.95                             135   -0.4510  101 281 
 PTB  HN ES   1    835  6.28                             135   -0.81 7  101 281 
 PTB  HZ I         835  8.91        12.0 0.16            137            101 281 
 PAM  SZ EP        834 56.26                             125    0.22 9  143  42 
 PAM  SN ES        835 14.39                             125   -0.95 9  143  42 
 PAM  SZ I         835 17.77         4.7 0.22            127            143  42 
 ZAR  HZ EP        835  0.64                             116    0.37 9  190 311 
 ZAR  HN ES        835 23.47                             116    0.60 9  190 311 
 CHI  HZ EP        835  1.63                             116    0.42 9  193 186 
 CHI  HN ES   4    835 22.19                             116   -2.36 0  193 186 
 CHI  HZ I         835 28.64         2.8 0.38            118            193 186 
 OCA  HN ES   4    835 28.49                             114    1.58 0  208   7 
 OCA  HZ I         835 33.20        13.3 0.18            116            208   7 
 URE  HZ EP   4    835  7.80                             108   -1.13 0  266 305 
 URE  HN ES   4    835 36.70                             108   -1.60 0  266 305 
 URE  HZ I         835 39.70         8.0 0.54            109            266 305 
 SML  HZ EP        835  9.59                             107   -0.33 8  275 348 
 SML  HN ES     C  835 39.93                             107   -0.12 8  275 348 
 SML  HZ I         835 42.44         7.4 0.12            109            275 348 
 PRA  HZ EP        835 16.56                             103    0.26 7  328 207 
 PRA  HN ES        835 51.37                             103   -0.03 7  328 207 
 PRA  HZ I         835 55.91         3.0 0.24            105            328 207 
 MON  HZ EP   4    835 17.91                             102   -1.29 0  353 319 
 MON  HN ES   4    835 55.33                             102   -1.24 0  353 319 
 MON  HZ I         835 57.20         1.2 0.22            104            353 319 
                                                                                
