 2012 1118 0025 41.4 L   6.789 -73.167143.2  RSN  8 0.3 1.3LRSN                1
 GAP=134        0.61       3.4     3.5  5.8  0.1420E+01  0.3780E+01 -0.2311E+01E
 Epicentro: LOS SANTOS - SANTANDER                                             3
 ACTION:UPD 12-12-05 15:34 OP:}ep  STATUS:               ID:20121118002541 L   I
 2012-11-18-0020-00M.COL___234                                                 6
 STAT SP IPHASW D HRMM SECON CODA AMPLIT PERI AZIMU VELO AIN AR TRES W  DIS CAZ7
 BAR2 SZ EP   1    026  0.77                             171    0.04 7 21.8 184 
 BAR2 SZ ES   1    026 15.36                             171   -0.41 7 21.8 184 
 BAR2 SZ I         026 18.45        11.4 0.44                          21.8 184 
 GIR2 SZ EP   1    026  0.56                             167   -0.27 7 32.2 355 
 BRR  HZ EP   1    026  2.64                             153    0.41 7 69.8 300 
 BRR  HN ES   1    026 18.86                             153    0.41 7 69.8 300 
 BRR  HZ I         026 22.50         4.4 0.37                          69.8 300 
 PAM  SZ EP   1    026  3.64                             150    0.11 7 79.8  40 
 PAM  SN ES   1    026 20.70                             150   -0.06 7 79.8  40 
 PAM  SZ I         026 22.62         2.2 0.40                          79.8  40 
 RUS  HZ EP   1    026  5.11                             144    0.25 7 99.5 175 
 RUS  HN ES   1    026 23.13                             144    0.00 7 99.5 175 
 RUS  HZ I         026 24.63         3.1 0.26                          99.5 175 
 PTB  HZ EP   1    026  7.48                             132   -0.49 7  145 259 
 PTB  HE ES   1    026 28.95                             132    0.29 7  145 259 
 PTB  HZ I         026 34.85         2.5 0.27                           145 259 
 ZAR  HN ES   1    026 38.14                             122   -0.44 6  202 293 
 SML  HE ES   1    026 46.46                             117    0.05 6  244 336 
                                                                                
