 2015  318 0059 26.5 L   6.760 -73.166140.3  RSN  5 0.2 1.3LRSN                1
 GAP=136        0.49       2.8     2.8  5.3 -0.2083E+01  0.5054E+01 -0.1642E+01E
 Epicentro: LOS SANTOS - SANTANDER                                             3
 ACTION:UPD 15-04-30 16:26 OP:nd   STATUS:               ID:20150318005926 L   I
 OLDACT:REG 15-03-18 13:07 OP:stll STATUS:               ID:20150318005750     3
 2015-03-18-0057-50M.COL___272                                                 6
 STAT SP IPHASW D HRMM SECON CODA AMPLIT PERI AZIMU VELO AIN AR TRES W  DIS CAZ7
 BAR2 EZ EP        059 45.49                             172    0.1010 18.6 186 
 BAR2 EZ I         059 45.94         3.9 0.38            171           18.6 186 
 BRR  HZ EP        059 47.37                             151    0.2910 71.5 302 
 BRR  HZ I         059 48.33         7.0 0.82            152           71.5 302 
 PAM  SZ EP        059 48.50                             148    0.0610 82.2  39 
 PAM  SZ I         059 48.68         6.6 0.20            151           82.2  39 
 PAM  SN ES        1 0  5.40                             148   -0.1610 82.2  39 
 RUS  HZ EP        059 49.18                             144   -0.2310 96.4 175 
 RUS  HN ES        1 0  7.41                             144    0.1310 96.4 175 
 RUS  HZ I         1 0  9.43         1.5 0.28            145           96.4 175 
 PTB  HZ EP        059 52.63                             131   -0.12 9  145 260 
 PTB  HN ES        1 0 13.14                             131   -0.09 9  145 260 
 PTB  HZ I         1 0 15.13         2.0 0.28            132            145 260 
                                                                                
