 2012  418 0557 23.9 L   6.805 -73.115139.5  RSN  5 0.3 1.5LRSN                1
 GAP=140        0.57       4.4     4.5  5.5  0.2603E+01  0.5344E+01  0.9047E+00E
 Epicentro: LOS SANTOS - SANTANDER                                             3
 ACTION:UPD 12-07-05 11:54 OP:tino STATUS:               ID:20120418055723 L   I
 2012-04-18-0550-00M.COL___187                                                 6
 STAT SP IPHASW D HRMM SECON CODA AMPLIT PERI AZIMU VELO AIN AR TRES W  DIS CAZ7
 BAR2 SZ EP   1    557 42.73                             170    -0.1 7   25 198 
 BAR2 SZ ES   1    557 57.59                             170     0.0 7   25 198 
 BAR2 SZ I         558  0.10        14.3 0.17                            25 198 
 BRR  HZ EP   1    557 44.52                             150     0.0 7   74 297 
 BRR  HN ES   1    558  0.94                             150     0.3 7   74 297 
 BRR  HZ I         558 20.79         3.3 0.23                            74 297 
 PAM  SZ EP   1    557 45.67                             150     0.3 7   75  38 
 PAM  SN ES   1    558  1.76                             150    -0.3 7   75  38 
 PAM  SZ I         558  5.27         3.6 0.22                            75  38 
 RUS  HZ EP   1    557 46.82                             142    -0.3 7  101 178 
 RUS  HZ I         557 47.95         7.3 0.18                           101 178 
 RUS  HN ES   2    558  5.32                             142     0.2 5  101 178 
 ZAR  HZ EP   1    557 56.50                             120     0.2 6  207 292 
 ZAR  HN ES   2    558 20.95                             120    -0.6 4  207 292 
                                                                                
