 2014  718 0338 59.0 L   6.873 -73.296118.0  RSN  5 0.4 1.2LRSN                1
 GAP=159        0.86       4.4     6.6  8.8 -0.7449E+01  0.5603E+01  0.3747E+01E
 Epicentro: BETULIA - SANTANDER                                                3
 ACTION:UPD 15-03-16 20:44 OP:nd   STATUS:               ID:20140718033859 L   I
 OLDACT:REG 14-07-18 12:49 OP:fm   STATUS:               ID:20140718033818     3
 2014-07-18-0338-18M.COL___269                                                 6
 STAT SP IPHASW D HRMM SECON CODA AMPLIT PERI AZIMU VELO AIN AR TRES W  DIS CAZ7
 BAR2 SZ EP        339 16.02                             163    0.4210 33.5 158 
 BAR2 SZ ES   1    339 28.01                             163   -0.55 7 33.5 158 
 BAR2 SZ I         339 30.41        10.0 0.24            167           33.5 158 
 BRR  HZ EP        339 16.42                             154    0.3210 52.7 299 
 BRR  HN ES        339 29.65                             154    0.2010 52.7 299 
 BRR  HZ I         339 34.43         3.6 0.34            154           52.7 299 
 PTB  HZ EP   1    339 21.78                             128   -0.67 7  133 254 
 PTB  HN ES   1    339 40.73                             128   -0.01 7  133 254 
 PTB  HZ I         339 43.44         1.4 0.26            130            133 254 
 OCA  HE ES   1    339 43.69                             124   -0.46 7  151 359 
 OCA  HZ I         339 44.86         3.4 0.14            129            151 359 
 SPBC HN ES        339 45.58                             122   -0.06 9  160 212 
 SPBC HZ I         339 48.07         1.3 0.24            126            160 212 
                                                                                
