 2014  518 0617 30.8 L   6.812 -73.159147.2  RSN 11 0.5 1.8LRSN                1
 GAP=134        1.16       3.5     5.0  7.0  0.8949E-01  0.8200E+01  0.1236E+01E
 Epicentro: LOS SANTOS - SANTANDER                                             3
 ACTION:UPD 15-03-16 16:58 OP:nd   STATUS:               ID:20140518061730 L   I
 OLDACT:REG 14-05-18 12:55 OP:spq  STATUS:               ID:20140518060812     3
 2014-05-18-0608-12M.COL___245                                                 6
 STAT SP IPHASW D HRMM SECON CODA AMPLIT PERI AZIMU VELO AIN AR TRES W  DIS CAZ7
 BRR  HZ EP        617 52.17                             153    0.1810 69.3 298 
 BRR  HE ES        618  9.49                             153    0.9710 69.3 298 
 BRR  HZ I         618 12.32         9.5 0.34            152           69.3 298 
 PAM  SZ EP     D  617 53.36                             151    0.2010 77.4  41 
 PAM  SN ES        618 10.51                             151   -0.1010 77.4  41 
 PAM  SZ I         618 12.47         7.6 0.48            155           77.4  41 
 RUS  HZ EP        617 54.59                             144   -0.2010  102 175 
 RUS  HN ES        618 13.44                             144   -0.0610  102 175 
 RUS  HZ I         618 14.08         6.3 0.26            145            102 175 
 PTB  HZ EP        617 57.10                             133   -0.67 9  147 258 
 PTB  HN ES        618 18.27                             133   -0.54 9  147 258 
 PTB  HZ I         618 20.16         7.1 0.14            132            147 258 
 SPBC HZ EP        617 59.58                             129    0.17 9  163 218 
 SPBC HN ES        618 21.18                             129   -0.55 9  163 218 
 SPBC HZ I         618 25.60         8.1 0.46            130            163 218 
 ZAR  HZ EP        618  3.46                             123    0.32 9  202 292 
 ZAR  HE ES        618 28.39                             123    0.02 9  202 292 
 ZAR  HZ I         618 36.81         5.2 0.34            124            202 292 
 SML  HZ EP        618  7.14                             118   -0.16 8  242 335 
 SML  HN ES        618 34.91                             118   -0.87 8  242 335 
 SML  HZ I         618 39.32         9.6 0.10            119            242 335 
 CHI  HZ EP   1    618  8.60                             117   -0.06 6  249 195 
 CHI  HN ES        618 38.19                             117   -0.01 8  249 195 
 CHI  HZ I         618 43.20         3.4 0.36            119            249 195 
 ROSC BZ EP   4    618 10.66                             117    1.63 0  253 211 
 ROSC BE ES   4    618 41.50                             117    2.65 0  253 211 
 ROSC BZ I         618 45.07         7.9 0.35            118            253 211 
 HEL  HZ EP        618 12.01                             115    1.06 8  271 255 
 GUY2CHZ EP        618 14.79                             113    0.38 7  301 234 
                                                                                
