 2013  718 0710 47.7 L   6.805 -73.133140.9  RSN  7 0.4 1.9LRSN                1
 GAP=184        0.84       3.3     6.7  8.1 -0.2293E+01 -0.9214E+01 -0.6004E+00E
 Epicentro: LOS SANTOS - SANTANDER                                             3
 ACTION:UPD 13-08-12 10:38 OP:ep   STATUS:               ID:20130718070959 L   I
 OLDACT:UPD 13-07-18 10:35 OP:stll STATUS:               ID:20130718070959 L   3
 2013-07-18-0709-59M.COL___267                                                 6
 STAT SP IPHASW D HRMM SECON CODA AMPLIT PERI AZIMU VELO AIN AR TRES W  DIS CAZ7
 BAR2 SZ EP   1    711  7.22                             170    0.45 7 24.2 193 
 BAR2 SZ I         711 22.93         8.0 0.16            172           24.2 193 
 BRR  HZ EP   1    711  9.09                             151    0.70 7 72.2 298 
 BRR  HE ES        711 24.86                             151    0.3410 72.2 298 
 BRR  HE I         711 29.78        23.3 0.18            154           72.2 298 
 RUS  HZ EP   1    711 11.18                             143    0.16 7  101 177 
 RUS  HN ES   1    711 28.75                             143   -0.46 7  101 177 
 RUS  HN I         711 30.18         6.4 0.20            144            101 177 
 PTB  HZ EP   1    711 14.43                             131    0.01 7  149 259 
 PTB  HN ES   1    711 34.94                             131   -0.32 7  149 259 
 PTB  HZ I         711 37.86         5.6 0.58            134            149 259 
 OCA  HZ EP   2    711 15.02                             129   -0.58 5  160 353 
 OCA  HN ES        711 36.97                             129   -0.40 9  160 353 
 OCA  HN I         711 40.51        33.9 0.38            128            160 353 
 SPBC HZ EP   1    711 16.40                             128    0.43 7  165 219 
 SPBC HN ES        711 37.68                             128   -0.33 9  165 219 
 SML  HZ EP   1    711 23.47                             116   -0.60 6  244 335 
 SML  HE ES   2 C  711 52.92                             116    0.49 4  244 335 
 SML  HE I         711 59.54        13.1 0.10            117            244 335 
                                                                                
