 2015  818 0748 50.3 L   6.817 -73.140147.5  RSN  9 0.4 1.7LRSN                1
 GAP=184        0.95       3.2     5.1  6.6 -0.1740E+00  0.3832E+01 -0.2703E+01E
 Epicentro: LOS SANTOS - SANTANDER                                             3
 ACTION:UPD 15-09-15 23:03 OP:cam  STATUS:               ID:20150818074850 L   I
 OLDACT:REG 15-08-18 13:40 OP:spq  STATUS:               ID:20150818074737     3
 2015-08-18-0747-37M.COL___319                                                 6
 STAT SP IPHASW D HRMM SECON CODA AMPLIT PERI AZIMU VELO AIN AR TRES W  DIS CAZ7
 BAR2 EZ EP        749 10.24                             170    0.0510 25.3 191 
 BAR2 EZ ES   1    749 25.11                             170   -0.59 7 25.3 191 
 BAR2 EZ I         749 26.15        12.7 0.30            167           25.3 191 
 BRR  HZ EP     D  749 11.97                             153    0.3410 70.9 297 
 BRR  HE ES        749 29.12                             153    0.8610 70.9 297 
 BRR  HZ I         749 32.15         9.3 0.40            148           70.9 297 
 RUS  HZ EP        749 14.74                             144    0.3710  102 176 
 RUS  HE ES   1    749 32.68                             144   -0.45 7  102 176 
 RUS  HZ I         749 33.96         2.4 0.33            146            102 176 
 OCA  HZ EP        749 18.50                             130   -0.09 9  158 353 
 OCA  HN ES        749 40.33                             130   -0.32 9  158 353 
 OCA  HZ I         749 43.24        10.7 0.18            131            158 353 
 SPBC HZ EP        749 19.33                             129    0.21 9  165 219 
 SPBC HN ES        749 41.13                             129   -0.46 9  165 219 
 SPBC HZ I         749 44.42         5.2 0.06            129            165 219 
 ZAR  HZ EP        749 22.88                             123    0.02 9  204 292 
 ZAR  HE ES        749 48.22                             123   -0.02 9  204 292 
 ZAR  HZ I         749 56.81         4.4 0.20            122            204 292 
 SML  HZ EP        749 26.72                             118   -0.16 8  242 335 
 SML  HN ES   1    749 54.76                             118   -0.64 6  242 335 
 SML  HZ I         749 56.80         4.4 0.10            119            242 335 
 HEL  HN ES   1    750  1.57                             115   -0.69 6  273 255 
 HEL  HZ I         750  8.63         2.9 0.40            115            273 255 
 GUY2CHN ES   1    750  8.65                             113    0.25 5  303 235 
 GUY2CHZ I         750 18.58         1.4 0.56                           303 235 
                                                                                
