 2011  918 0806 58.5 L   6.823 -73.105152.7  RSN  6 0.3 1.4LRSN                1
 GAP=141        0.57       6.2    10.0  6.7  0.3250E+02 -0.1398E+02  0.2943E+01E
 Epicentro: LOS SANTOS - SANTANDER                                             3
 ACTION:UPD 12-07-13 15:58 OP:ep   STATUS:               ID:20110918080658 L   I
 2011-09-18-0800-00M.COL___173                                                 6
 STAT SP IPHASW D HRMM SECON CODA AMPLIT PERI AZIMU VELO AIN AR TRES W  DIS CAZ7
 BTL  SZ EP   2    8 7 19.44                             172    0.57 5 20.9 300 
 BAR2 SZ EP        8 7 18.94                             170   -0.0510 26.9 199 
 BAR2 SZ I         8 7 19.37         5.6 0.74                          26.9 199 
 BAR2 SZ ES   2    8 7 35.12                             170    0.11 5 26.9 199 
 GIR2 SZ EP        8 7 19.09                             169    0.1810 29.9 341 
 GIR2 SZ ES   2    8 7 34.58                             169   -0.29 5 29.9 341 
 PAM  SN ES   3    8 7 38.66                             154   -0.17 2 72.6  38 
 BRR  HZ EP        8 7 20.08                             153   -0.4310 74.1 295 
 BRR  HZ I         8 7 20.36         3.5 0.42                          74.1 295 
 BRR  HN ES   1    8 7 38.03                             153    0.31 7 74.1 295 
 RUS  HZ EP        8 7 23.14                             145    0.0910  103 179 
 RUS  HN ES   2    8 7 42.07                             145   -0.17 5  103 179 
                                                                                
