 2013  218 0038  9.3 L   6.808 -73.150157.3  RSN  6 0.4 1.3LRSN                1
 GAP=201        0.81       4.7     8.3  9.3  0.1539E+02 -0.9719E+01  0.1098E+01E
 Epicentro: LOS SANTOS - SANTANDER                                             3
 ACTION:UPD 13-03-12 09:33 OP:ep   STATUS:               ID:20130218003809 L   I
 2013-02-18-0030-00M.COL___241                                                 6
 STAT SP IPHASW D HRMM SECON CODA AMPLIT PERI AZIMU VELO AIN AR TRES W  DIS CAZ7
 BAR2 SZ EP   1    038 30.20                             171   -0.15 7 24.1 189 
 BRR  HZ EP   1    038 32.10                             155    0.41 7 70.4 298 
 BRR  HN ES   1    038 49.79                             155    0.66 7 70.4 298 
 BRR  HZ I         038 53.24         4.6 0.48            155           70.4 298 
 RUS  HZ EP   1    038 34.48                             146    0.20 7  101 176 
 RUS  HN ES   1    038 53.26                             146   -0.49 7  101 176 
 RUS  HZ I         038 55.59         1.1 0.40            149            101 176 
 PTB  HZ EP   1    038 37.13                             135   -0.10 7  147 258 
 PTB  HN ES   1    038 58.87                             135   -0.12 7  147 258 
 PTB  HZ I         039  2.74         4.1 0.16            136            147 258 
 SML  HN ES   1    039 14.74                             120   -0.79 6  243 335 
 CHI  HZ EP   1    038 48.24                             119    0.48 6  249 195 
 CHI  HN ES   1    039 17.37                             119   -0.37 6  249 195 
                                                                                
