 2010  618 0646 11.4 L   6.727 -73.281155.6  RSN  4 0.3 1.1LRSN                1
 GAP=145        0.81       7.6    15.3  8.6  0.7860E+02 -0.4486E+02 -0.2685E+02E
 Epicentro: GALAN - SANTANDER                                                  3
 ACTION:UP  10-08-24 10:11 OP:vdl  STATUS:               ID:20100618064611 L   I
 2010-06-18-0642-55S.COL___115                                                 6
 STAT SP IPHASW D HRMM SECON CODA AMPLIT PERI AZIMU VELO SNR AR TRES W  DIS CAZ7
 BAR2 SZ EP        646 31.62                             173    -0.510   18 144 
 BAR2 SZ ES   1    646 48.62                             173     0.3 7   18 144 
 BRR  HZ EP        646 33.44                             156     0.210   64 311 
 BRR  HE ES   1    646 50.19                             156    -0.1 7   64 311 
 BRR  HZ I         646 51.45         3.1 0.11                            64 311 
 RUS  HZ EP        646 36.09                             147     0.310   95 167 
 RUS  HN ES        646 54.68                             147    -0.110   95 167 
 RUS  HZ I         646 55.90         1.4 0.29                            95 167 
 GUE  SZ EP   1    646 38.07                             139     0.1 7  128  18 
                                                                                
