 2014  618 0326 55.4 L   6.749 -73.144130.1  RSN  8 0.4 1.9LRSN                1
 GAP=251        0.76       4.8     5.0  6.8 -0.3635E+01 -0.2459E+01  0.1759E+02E
 Epicentro: LOS SANTOS - SANTANDER                                             3
 ACTION:UPD 14-07-01 22:54 OP:nd   STATUS:               ID:20140618032655 L   I
 OLDACT:UP  14-06-18 17:51 OP:mh   STATUS:               ID:20140618032444     3
 OLDACT:REG 14-06-18 17:48 OP:mh   STATUS:               ID:20140618032444     3
 2014-06-18-0324-44M.COL___265                                                 6
 STAT SP IPHASW D HRMM SECON CODA AMPLIT PERI AZIMU VELO AIN AR TRES W  DIS CAZ7
 BAR2 SZ EP        327 12.90                             172   -0.1410 17.8 194 
 BAR2 SZ I         327 29.08        19.4 0.20            168           17.8 194 
 BRR  HZ EP     C  327 14.85                             148   -0.2210 74.2 302 
 BRR  HN ES        327 30.77                             148    0.3610 74.2 302 
 BRR  HZ I         327 32.87        14.1 0.26            157           74.2 302 
 PTB  HZ EP   4    327 19.39                             128   -1.67 0  147 261 
 PTB  HN ES        327 40.72                             128   -0.35 9  147 261 
 PTB  HZ I         327 43.13        10.5 0.08            134            147 261 
 ZAR  HZ EP        327 27.45                             118    0.32 8  206 294 
 ZAR  HN ES   1    327 51.87                             118   -0.00 6  206 294 
 ZAR  HZ I         327 57.72         6.0 0.18            123            206 294 
 NOR  HZ EP        327 29.33                             115   -0.60 8  232 236 
 NOR  HN ES        327 56.66                             115   -0.19 8  232 236 
 NOR  HZ I         328  2.19         6.8 0.11            119            232 236 
 HEL  HZ EP        327 34.96                             111    0.23 8  271 257 
 HEL  HN ES   1    328  5.45                             111    0.05 6  271 257 
 HEL  HZ I         328 12.67         3.4 0.35            115            271 257 
 GUY2CHZ EP        327 38.26                             109    0.29 7  298 236 
 GUY2CHN ES   4    328 14.86                             109    3.68 0  298 236 
 GUY2CHZ I         328 18.36         4.5 0.12                           298 236 
 PRA  HZ EP        327 47.81                             104   -0.04 6  387 210 
 PRA  HN ES        328 29.62                             104    0.86 6  387 210 
 PRA  HZ I         328 36.12         2.0 0.30            106            387 210 
 SJC  HZ EP   4    326 36.35                             103   -74.7 0  414 327 
 SJC  HN ES   4    327  2.00                             103   -92.5 0  414 327 
                                                                                
