 2016  418 0253 53.0 L   6.830 -73.146146.8  RSN 10 0.3 1.9LRSN                1
 GAP=135        0.79       2.7     3.4  5.1 -0.2257E+01  0.7337E+01  0.1611E+00E
 Epicentro: LOS SANTOS - SANTANDER                                             3
 ACTION:UPD 16-05-05 14:22 OP:rebc STATUS:               ID:20160418025353 L   I
 OLDACT:ARG 16-04-18 12:56 OP:cara STATUS:               ID:20160418024744     3
 2016-04-18-0247-44M.COL___298                                                 6
 STAT SP IPHASW D HRMM SECON CODA AMPLIT PERI AZIMU VELO AIN AR TRES W  DIS CAZ7
 BAR2 EZ IP     C  254 12.74                             169   -0.0410 26.6 189 
 BAR2 EZ ES        254 28.49                             169    0.2510 26.6 189 
 BAR2 EZ I         254 33.46        10.8 0.50            169           26.6 189 
 PAM  EZ EP        254 15.56                             152    0.4310 74.9  41 
 PAM  EZ I         254 15.72        29.6 0.20            156           74.9  41 
 PAM  EN ES        254 32.04                             152   -0.3910 74.9  41 
 RUS  HZ EP        254 16.92                             143   -0.1310  104 176 
 RUS  HE ES        254 35.89                             143    0.0510  104 176 
 RUS  HZ I         254 36.88         3.7 0.24            147            104 176 
 PTB  HZ EP        254 19.64                             132   -0.43 9  148 258 
 PTB  HN ES        254 40.74                             132   -0.47 9  148 258 
 PTB  HZ I         254 42.85         8.6 0.16            133            148 258 
 OCA  HE ES        254 43.12                             130    0.18 9  157 353 
 OCA  HZ I         254 47.46        21.4 0.26            133            157 353 
 SPBC HZ EP        254 21.74                             129   -0.04 9  166 218 
 SPBC HE ES        254 44.35                             129    0.09 9  166 218 
 SPBC HZ I         254 50.57         8.6 0.22            131            166 218 
 ZAR  HN ES        254 51.05                             123    0.45 9  203 291 
 ZAR  HZ I         254 56.97        11.6 0.42            124            203 291 
 NOR  HZ EP        254 28.97                             118    0.02 8  237 234 
 NOR  HN ES        254 56.72                             118   -0.31 8  237 234 
 NOR  HZ I         255  3.81         5.3 0.12            121            237 234 
 URE  HZ EP        254 33.50                             114   -0.44 7  283 291 
 URE  HN ES   4    255  4.08                             114   -1.82 0  283 291 
 URE  HZ I         255 13.92         5.7 0.24            115            283 291 
 GUY2CHZ EP        254 37.20                             112    0.37 7  303 234 
 GUY2CHN ES        255 11.68                             112    0.63 7  303 234 
 GUY2CHZ I         255 21.35         3.3 0.48                           303 234 
                                                                                
