 2016 1218 0125 52.9 L   6.728 -73.142149.2  RSN 11 0.3 1.8LRSN                1
 GAP= 92        0.86       3.9     3.1  4.9  0.8033E+00  0.2852E+01  0.3524E+01E
 Epicentro: JORDAN - SANTANDER                                                 3
 ACTION:UPD 17-01-11 20:16 OP:rebc STATUS:               ID:20161218012552 L   I
 OLDACT:UP  16-12-18 16:01 OP:cara STATUS:               ID:20161218011750     3
 OLDACT:REG 16-12-18 14:18 OP:edw  STATUS:               ID:20161218011750     3
 2016-12-18-0118-00M.COL___381                                                 6
 STAT SP IPHASW D HRMM SECON CODA AMPLIT PERI AZIMU VELO AIN AR TRES W  DIS CAZ7
 BAR2 EZ IP        126 12.74                             174   -0.0310 15.6 197 
 BAR2 EZ ES        126 28.16                             174   -0.1510 15.6 197 
 BAR2 EZ I         126 29.04        17.5 0.78            174           15.6 197 
 BRR  HZ EP        126 14.87                             152    0.2410 75.7 304 
 BRR  HN ES        126 32.24                             152    0.6210 75.7 304 
 BRR  HZ I         126 40.22         9.4 0.18            153           75.7 304 
 PAM  EZ IP     C  126 15.59                             149   -0.2110 83.5  36 
 PAM  EN ES        126 33.18                             149   -0.5210 83.5  36 
 PAM  EZ I         126 34.86        10.3 0.56            152           83.5  36 
 RUS  HZ EP        126 16.69                             147    0.3010 92.6 176 
 RUS  HN ES        126 34.78                             147    0.0310 92.6 176 
 RUS  HZ I         126 36.37         3.8 0.26            148           92.6 176 
 PTB  HZ EP        126 19.69                             133   -0.33 9  147 262 
 PTB  HN ES        126 40.84                             133   -0.37 9  147 262 
 PTB  HZ I         126 48.22         7.7 0.34            135            147 262 
 TAM  HZ EP        126 20.96                             132    0.36 9  153 102 
 TAM  HN ES   4    126 47.20                             132    4.96 0  153 102 
 TAM  HZ I         126 55.43        18.6 0.24            134            153 102 
 ZAR  HZ EP        126 25.70                             123   -0.19 8  208 294 
 ZAR  HN ES        126 52.15                             123    0.49 8  208 294 
 ZAR  HZ I         126 57.35         7.8 0.32            125            208 294 
 NOR  HZ EP        126 27.98                             120   -0.36 8  230 236 
 NOR  HE ES   4    126 57.05                             120    1.04 0  230 236 
 NOR  HZ I         127  0.51         5.4 0.18            122            230 236 
 CHI  HZ EP        126 30.21                             119    0.28 8  241 196 
 GUY2CHZ IP   4    126 38.17                             113    2.02 0  297 236 
 GUY2CHN ES   4    127 10.90                             113    0.98 0  297 236 
 GUY2CHZ I         127 20.05         3.7 0.28                           297 236 
 CBOC HZ EP   4    126 40.29                             111    0.60 0  332 253 
 CBOC HN ES        127 15.93                             111   -0.29 7  332 253 
 CBOC HZ I         127 21.38         1.2 0.18            112            332 253 
                                                                                
