 2017  918 0841 15.7 L   6.816 -73.102149.2  RSN  8 0.4 1.7LRSN                1
 GAP=116        0.97       4.0     4.3  6.0  0.7439E+00  0.5513E+01  0.7317E+01E
 Epicentro: LOS SANTOS - SANTANDER                                             3
 ACTION:UPD 17-10-05 19:13 OP:rebc STATUS:               ID:20170918084115 L   I
 OLDACT:UP  17-09-18 17:17 OP:leo  STATUS:               ID:20170918083741     3
 OLDACT:UP  17-09-18 17:15 OP:leo  STATUS:               ID:20170918083741     3
 OLDACT:REG 17-09-18 14:26 OP:leo  STATUS:               ID:20170918083741     3
 2017-09-18-0838-00M.COL___423                                                 6
 STAT SP IPHASW D HRMM SECON CODA AMPLIT PERI AZIMU VELO AIN AR TRES W  DIS CAZ7
 BAR2 EZ IP     D  841 35.45                             170   -0.4010 26.4 200 
 BAR2 EZ ES        841 51.01                             170   -0.5210 26.4 200 
 BAR2 EZ I         841 53.29        13.0 0.40            166           26.4 200 
 PAM  EZ EP        841 38.34                             153    0.2710 72.9  38 
 PAM  EN ES        841 55.48                             153   -0.0010 72.9  38 
 PAM  EZ I         841 56.07         5.5 0.22            158           72.9  38 
 BRR  HZ EP        841 37.29                             152   -0.1710 74.7 296 
 BRR  HN ES        841 54.75                             152    0.3510 74.7 296 
 BRR  HZ I         841 57.92         9.7 0.30            151           74.7 296 
 RUS  HZ EP        841 39.88                             144   -0.0710  102 179 
 RUS  HN ES        841 58.84                             144    0.0210  102 179 
 RUS  HZ I         841 59.11         3.9 0.20            143            102 179 
 YPLC HZ EP        841 45.77                             127    0.05 9  176 153 
 YPLC HE ES        842  9.87                             127    0.76 9  176 153 
 YPLC HZ I         842 13.71         6.2 0.42            128            176 153 
 NOR  HZ EP        841 52.05                             119   -0.16 8  240 235 
 NOR  HE ES        842 20.64                             119   -0.01 8  240 235 
 NOR  HZ I         842 25.00         6.7 0.40            118            240 235 
 CHI  HZ EP   1    841 53.75                             117   -0.22 6  252 196 
 CHI  HN ES   1    842 23.04                             117   -0.74 6  252 196 
 CHI  HZ I         842 30.51         2.1 0.28            118            252 196 
 HEL  HZ EP   1    841 56.33                             115   -0.37 6  277 256 
 HEL  HE ES   1    842 30.04                             115    1.39 6  277 256 
 HEL  HZ I         842 35.41         3.4 0.24            115            277 256 
                                                                                
