 2011 1218 0056 22.5 L   6.777 -73.094142.0  RSN 13 0.3 2.4LRSN                1
 GAP=144        0.48       2.3     3.2  3.8 -0.2243E+01  0.2540E+01  0.1781E+01E
 Epicentro: LOS SANTOS - SANTANDER                                             3
 ACTION:UPD 12-07-13 16:16 OP:ep   STATUS:               ID:20111218005622 L   I
 2011-12-18-0050-00M.COL___185                                                 6
 STAT SP IPHASW D HRMM SECON CODA AMPLIT PERI AZIMU VELO AIN AR TRES W  DIS CAZ7
 BAR2 SZ IP        056 41.61                             170   -0.0210 22.7 206 
 BAR2 SZ ES   2    056 56.20                             170   -0.38 5 22.7 206 
 BAR2 SZ I         056 59.31        45.8 0.35                          22.7 206 
 GIR2 SZ EP        056 41.62                             165   -0.1810 35.1 342 
 GIR2 SZ ES   1    056 57.03                             165    0.15 7 35.1 342 
 PAM  SZ EP        056 44.34                             151    0.1510 75.9  35 
 PAM  SE ES   2    057  1.21                             151    0.07 5 75.9  35 
 BRR  HZ IP        056 43.38                             150   -0.2010 77.5 298 
 BRR  HN ES   2    057  0.67                             150    0.62 5 77.5 298 
 BRR  HZ I         057  3.63        49.4 0.14                          77.5 298 
 RUS  HZ EP        056 45.68                             144    0.0310 97.9 179 
 RUS  HN ES   2    057  4.08                             144    0.35 5 97.9 179 
 RUS  HZ I         057  6.18        43.6 0.34                          97.9 179 
 OCA  SZ EP   1    056 50.92                             128    0.13 7  164 351 
 OCA  SZ ES   2    057 12.35                             128   -0.54 5  164 351 
 OCA  SZ I         057 16.55        23.9 0.19                           164 351 
 NOR  SN ES   2    057 26.08                             117   -0.23 4  238 236 
 CHI  HZ EP   1    056 59.97                             116    0.11 6  248 197 
 CHI  HN ES   2    057 28.08                             116   -0.96 4  248 197 
 CHI  HZ I         057 33.24         8.8 0.67                           248 197 
 ROSC BZ EP   2    057  0.89                             116    0.41 4  254 212 
 ROSC BN ES   2    057 30.24                             116    0.11 4  254 212 
 ROSC BZ I         057 36.68        24.4 0.49                           254 212 
 HEL  HZ EP   1    057  3.53                             114    0.49 6  277 257 
 HEL  HN ES   1    057 34.51                             114   -0.19 6  277 257 
 HEL  HZ I         057 40.32        15.8 0.29                           277 257 
 RREF HZ EP   2    057  9.13                             110    0.37 3  325 230 
 RREF HE ES   2    057 45.05                             110    0.17 3  325 230 
 RREF HZ I         057 54.53        11.1 0.42                           325 230 
 COD  HZ EP   2    057 10.68                             108   -0.37 3  351 354 
 PRA  HZ EP   2    057 15.86                             106   -0.08 3  393 210 
 PRA  HN ES   2    057 57.29                             106   -0.36 3  393 210 
                                                                                
