 2011  918 0952 40.5 L   6.777 -73.129142.8  RSN  8 0.2 1.7LRSN                1
 GAP=140        0.48       2.7     4.7  4.2  0.2065E+00 -0.2056E+01 -0.2182E+01E
 Epicentro: LOS SANTOS - SANTANDER                                             3
 ACTION:UPD 12-07-13 15:58 OP:ep   STATUS:               ID:20110918095240 L   I
 2011-09-18-0950-38S.COL___171                                                 6
 STAT SP IPHASW D HRMM SECON CODA AMPLIT PERI AZIMU VELO AIN AR TRES W  DIS CAZ7
 BAR2 SZ EP        952 59.59                             171   -0.1510 21.3 196 
 BAR2 SZ ES   1    953 14.27                             171   -0.47 7 21.3 196 
 BAR2 SZ I         953 22.18         8.0 0.54                          21.3 196 
 BTL  SZ EP        952 59.98                             171    0.2210 21.9 315 
 GIR2 SZ EP        952 59.91                             166    0.0010 34.1 348 
 BRR  HZ EP   3    953  1.54                             151    0.03 2 74.1 300 
 BRR  HZ I         953  1.73        16.8 0.14                          74.1 300 
 BRR  HE ES   1    953 18.15                             151    0.27 7 74.1 300 
 PAM  SZ EP        953  2.48                             150    0.0210 78.2  37 
 PAM  SN ES   1    953 19.68                             150    0.10 7 78.2  37 
 RUS  HZ EP        953  3.86                             144    0.0810 97.9 177 
 RUS  HN ES   1    953 22.04                             144    0.11 7 97.9 177 
 OCA  SZ EP        953  8.70                             128   -0.16 9  163 353 
 OCA  SZ I         953 35.99         4.7 0.27                           163 353 
 ZAR  HN ES   3    953 37.56                             121   -0.86 2  207 293 
                                                                                
