 2015 1018 0202 43.4 L   6.690 -73.032136.8  RSN  6 0.3 1.4LRSN                1
 GAP=157        0.68       3.8     5.5  4.8 -0.1316E+02  0.8700E+01  0.2523E+00E
 Epicentro: ARATOCA - SANTANDER                                                3
 ACTION:UPD 15-12-22 20:41 OP:cam  STATUS:               ID:20151018020243 L   I
 OLDACT:UP  15-10-18 15:25 OP:ak   STATUS:               ID:20151018015749     3
 OLDACT:REG 15-10-18 14:29 OP:ak   STATUS:               ID:20151018015749     3
 2015-10-18-0157-49M.COL___343                                                 6
 STAT SP IPHASW D HRMM SECON CODA AMPLIT PERI AZIMU VELO AIN AR TRES W  DIS CAZ7
 BAR2 EZ EP   1    2 3  1.72                             171   -0.14 7 19.9 237 
 BAR2 EZ ES        2 3 16.23                             171   -0.0510 19.9 237 
 BAR2 EZ I         2 3 18.32         5.5 0.54            169           19.9 237 
 PAM  EZ EP        2 3  4.65                             148   -0.2110 80.6  27 
 PAM  EN ES        2 3 21.76                             148    0.1510 80.6  27 
 PAM  EZ I         2 3 23.39         3.5 0.16            153           80.6  27 
 RUS  HZ EP        2 3  5.67                             145    0.2910 88.4 184 
 RUS  HN ES        2 3 22.59                             145    0.0510 88.4 184 
 RUS  HZ I         2 3 26.39         4.0 0.30            147           88.4 184 
 SPBC HZ EP        2 3 10.98                             127   -0.17 9  163 225 
 SPBC HN ES        2 3 32.45                             127   -0.36 9  163 225 
 SPBC HZ I         2 3 38.86         4.5 0.10            129            163 225 
 CHI  HZ EP   1    2 3 19.03                             116   -0.69 6  241 199 
 CHI  HN ES        2 3 48.27                             116    0.20 8  241 199 
 GUY2CHZ EP        2 3 27.63                             110    0.61 7  305 238 
 GUY2CHE ES        2 4  1.26                             110    0.20 7  305 238 
 GUY2CHZ I         2 4  8.54         1.2 0.50                           305 238 
                                                                                
