 2016  718 0603 21.4 L   6.790 -73.150149.1  RSN  6 0.2 1.8LRSN                1
 GAP=137        0.56       2.4     2.8  3.8  0.5282E-01  0.2865E+01  0.1678E+00E
 Epicentro: LOS SANTOS - SANTANDER                                             3
 ACTION:UPD 17-03-29 16:52 OP:lp   STATUS:               ID:20160718060321 L   I
 OLDACT:DUP 16-07-18 19:16 OP:ar   STATUS:               ID:20160718055760d    3
 2016-07-18-0557-59S.COL___312                                                 6
 STAT SP IPHASW D HRMM SECON CODA AMPLIT PERI AZIMU VELO AIN AR TRES W  DIS CAZ7
 BAR2 EZ EP        6 3 41.28                             171   -0.1410 22.2 189 
 BAR2 EZ ES        6 3 56.91                             171   -0.1210 22.2 189 
 BAR2 EZ I         6 3 57.28        21.9 0.32            170           22.2 189 
 BRR  HZ EP        6 3 42.94                             153    0.0110 71.4 299 
 BRR  HN ES        6 4  0.10                             153    0.3810 71.4 299 
 BRR  HZ I         6 4  3.13        10.5 0.32            151           71.4 299 
 PAM  EZ EP        6 3 44.15                             151    0.1010 78.5  39 
 PAM  EN ES        6 4  1.46                             151   -0.2510 78.5  39 
 PAM  EZ I         6 4  3.52        15.3 0.70            154           78.5  39 
 RUS  HZ EP        6 3 45.62                             145    0.2110 99.5 176 
 RUS  HE ES        6 4  4.27                             145    0.1310 99.5 176 
 RUS  HZ I         6 4  4.62         4.4 0.30            147           99.5 176 
 SPBC HZ EP        6 3 49.82                             130   -0.24 9  162 219 
 SPBC HN ES        6 4 12.29                             130   -0.12 9  162 219 
 SPBC HZ I         6 4 17.04         7.2 0.12            130            162 219 
 ZAR  HZ EP        6 3 54.31                             123    0.23 9  204 292 
 ZAR  HN ES        6 4 19.28                             123   -0.28 9  204 292 
 ZAR  HZ I         6 4 25.14         6.4 0.30            123            204 292 
                                                                                
