 2014 1018 0405 31.4 L   6.836 -73.222124.8  RSN 12 0.4 1.9LRSN                1
 GAP=175        0.95       2.8     4.5  5.2  0.1649E+01  0.5112E+01 -0.3023E+00E
 Epicentro: ZAPATOCA - SANTANDER                                               3
 ACTION:UPD 14-11-29 23:50 OP:nd   STATUS:               ID:20141018040531 L   I
 OLDACT:REG 14-10-18 12:19 OP:mh   STATUS:               ID:20141018035742     3
 2014-10-18-0357-42M.COL___277                                                 6
 STAT SP IPHASW D HRMM SECON CODA AMPLIT PERI AZIMU VELO AIN AR TRES W  DIS CAZ7
 BAR2 SZ EP     C  4 5 49.10                             167    0.4810 27.3 171 
 BAR2 SZ ES        4 6  1.71                             167   -0.3410 27.3 171 
 BAR2 SZ I         4 6  4.25        24.6 0.24            166           27.3 171 
 BRR  HZ EP        4 5 49.97                             152    0.2110 61.9 299 
 BRR  HN ES        4 6  4.39                             152    0.3210 61.9 299 
 BRR  HZ ES        4 6  4.64                             152           61.9 299 
 BRR  HZ I         4 6  5.38        19.4 0.13            149           61.9 299 
 RUS  HZ EP        4 5 53.61                             138    0.0610  105 172 
 RUS  HN ES        4 6 10.62                             138   -0.2110  105 172 
 RUS  HZ I         4 6 13.13         9.5 0.26            137            105 172 
 PTB  HZ EP        4 5 55.40                             128   -0.63 9  140 257 
 PTB  HN ES        4 6 15.72                             128    0.48 9  140 257 
 PTB  HZ I         4 6 17.24        17.8 0.58            126            140 257 
 OCA  HZ EP   1    4 5 57.94                             125    0.24 7  155 356 
 OCA  HN ES        4 6 18.04                             125   -0.16 9  155 356 
 OCA  HZ I         4 6 22.83         9.1 0.19            125            155 356 
 SPBC HZ EP        4 5 58.17                             124   -0.02 9  161 216 
 SPBC HN ES   1    4 6 18.90                             124   -0.18 7  161 216 
 SPBC HZ I         4 6 25.22         8.6 0.42            123            161 216 
 ZAR  HZ EP   1    4 6  1.22                             119   -0.35 6  195 292 
 ZAR  HN ES        4 6 24.99                             119   -0.11 9  195 292 
 ZAR  HZ I         4 6 28.50         8.3 0.52            117            195 292 
 SML  HZ EP        4 6  6.69                             113    0.54 8  237 337 
 SML  HE ES   1    4 6 32.96                             113   -0.29 6  237 337 
 SML  HZ I         4 6 39.05        10.6 0.12            113            237 337 
 HEL  HZ EP        4 6  8.94                             111   -0.88 8  265 255 
 HEL  HN ES   4    4 6 37.44                             111   -2.35 0  265 255 
 HEL  HZ I         4 6 45.28         4.9 0.24            110            265 255 
 URE  HZ EP   4    4 6  8.69                             110   -1.78 0  274 292 
 URE  HN ES   4    4 6 42.14                             110    1.20 0  274 292 
 RREF HZ EP   4    4 6 15.04                             107   -1.25 0  318 228 
 RREF HN ES   4    4 6 48.23                             107   -3.08 0  318 228 
 RREF HZ I         4 6 55.72         2.4 0.30            106            318 228 
 TOL  SZ EP   1    4 6 19.66                             105    1.11 5  341 223 
 TOL  SN ES   4    4 6 57.87                             105    2.55 0  341 223 
 TOL  SZ I         4 7  2.79         5.3 0.36            105            341 223 
 PRA  HZ EP        4 6 23.68                             103   -0.53 6  391 208 
 PRA  HN ES   1    4 7  6.14                             103    0.74 4  391 208 
 PRA  HZ I         4 7 13.53         3.4 0.36            102            391 208 
                                                                                
