 2016 1218 0959 26.5 L   6.711 -73.214150.9  RSN  5 0.3 1.1LRSN                1
 GAP=216        0.74       7.0     7.0  5.3  0.3756E+02 -0.6037E+01 -0.9829E+01E
 Epicentro: VILLANUEVA - SANTANDER                                             3
 ACTION:UPD 17-01-11 20:16 OP:rebc STATUS:               ID:20161218095926 L   I
 OLDACT:DUP 16-12-18 15:35 OP:edw  STATUS:               ID:20161218094747d    3
 OLDACT:UP  16-12-18 15:33 OP:edw  STATUS:               ID:20161218094746     3
 OLDACT:REG 16-12-18 15:29 OP:edw  STATUS:               ID:20161218094746     3
 2016-12-18-0948-00M.COL___375                                                 6
 STAT SP IPHASW D HRMM SECON CODA AMPLIT PERI AZIMU VELO AIN AR TRES W  DIS CAZ7
 BAR2 EZ EP        959 46.09                             175   -0.4810 13.6 165 
 BAR2 EZ ES       10 0  2.15                             175   -0.1010 13.6 165 
 BAR2 EZ I        10 0  2.88         1.6 0.16            169           13.6 165 
 BRR  HZ EP        959 48.21                             154    0.0710 70.3 309 
 BRR  HN ES       10 0  5.34                             154    0.3110 70.3 309 
 RUS  HZ EP        959 50.45                             147    0.3210 91.6 171 
 RUS  HN ES       10 0  8.55                             147   -0.0310 91.6 171 
 RUS  HZ I        10 0 11.04         2.0 0.32            144           91.6 171 
 PTB  HZ EP   9    959 53.47                             135    0.40 0  139 262 
 PTB  HN ES       10 0 14.40                             133    0.19 9  139 262 
 PTB  HZ I        10 0 16.28         2.0 0.11            131            139 262 
 ZAR  HZ EP        959 59.23                             124    0.27 9  201 296 
 ZAR  HE ES       10 0 23.91                             124   -0.39 9  201 296 
 ZAR  HZ I        10 0 29.83         2.0 0.30            122            201 296 
                                                                                
