 2014  518 0007 54.6 L   6.851 -73.083128.7  RSN 12 0.3 1.6LRSN                1
 GAP=142        0.63       2.4     3.1  5.1 -0.8868E+00  0.3791E+01  0.2065E+01E
 Epicentro: LOS SANTOS - SANTANDER                                             3
 ACTION:UPD 15-03-16 16:58 OP:nd   STATUS:               ID:20140518000754 L   I
 OLDACT:DUP 14-05-18 13:52 OP:spq  STATUS:               ID:20140518000009d    3
 2014-05-18-0000-07M.COL___248                                                 6
 STAT SP IPHASW D HRMM SECON CODA AMPLIT PERI AZIMU VELO AIN AR TRES W  DIS CAZ7
 PAM  SZ EP   1    0 8 14.24                             151   -0.19 8 68.6  38 
 PAM  SE ES   1    0 8 29.38                             151   -0.56 8 68.6  38 
 PAM  SZ I         0 8 36.71         2.6 0.67            154           68.6  38 
 BRR  HN ES   1    0 8 29.97                             148    0.56 8 75.1 292 
 RUS  HZ EP   1    0 8 17.49                             138    0.39 8  106 180 
 RUS  HN ES   1    0 8 34.91                             138    0.22 8  106 180 
 RUS  HZ I         0 8 37.81         4.0 0.29            144            106 180 
 PTB  HZ EP        0 8 20.88                             126   -0.0910  156 257 
 PTB  HN ES        0 8 41.76                             126    0.1910  156 257 
 PTB  HZ I         0 8 45.63         5.9 0.11            129            156 257 
 SPBC HN ES   1    0 8 44.46                             123   -0.18 7  172 220 
 SPBC HZ I         0 8 49.77         6.8 0.12            127            172 220 
 ZAR  HN ES   1    0 8 50.91                             118   -0.38 7  209 290 
 ZAR  HZ I         0 8 59.11         5.1 0.27            120            209 290 
 SML  HZ EP   1    0 8 30.48                             114    0.43 7  242 333 
 SML  HN ES   1    0 8 57.84                             114    0.10 7  242 333 
 SML  HZ I         0 9  5.51         5.4 0.10            117            242 333 
 NOR  HZ EP   1    0 8 30.04                             114   -0.31 6  244 234 
 NOR  HN ES   1    0 8 57.77                             114   -0.50 6  244 234 
 NOR  HZ I         0 9  2.45         3.6 0.20            117            244 234 
 CHI  HZ EP   1    0 8 32.05                             113   -0.14 6  256 196 
 CHI  HN ES   1    0 9  1.65                             113    0.10 6  256 196 
 HEL  HZ I         0 9 12.44         2.5 0.34            113            280 255 
 GUY2CHZ EP   1    0 8 38.94                             108    0.47 6  310 235 
 GUY2CHN ES   1    0 9 12.32                             108   -0.40 6  310 235 
 GUY2CHZ I         0 9 19.69         1.9 0.62                           310 235 
 RREF HN ES   1    0 9 17.38                             107    0.04 5  331 229 
 RREF HZ I         0 9 24.83         2.0 0.32            110            331 229 
                                                                                
