 2017  918 0106 44.8 L   6.800 -73.103139.5  RSN  5 0.2 1.4LRSN                1
 GAP=142        0.58       2.9     3.2  4.6  0.1869E+01  0.1929E+01 -0.9039E-01E
 Epicentro: LOS SANTOS - SANTANDER                                             3
 ACTION:UPD 17-10-05 19:13 OP:rebc STATUS:               ID:20170918010644 L   I
 OLDACT:DUP 17-09-18 14:15 OP:and  STATUS:               ID:20170918005742d    3
 OLDACT:UP  17-09-18 14:13 OP:and  STATUS:               ID:20170918005741d    3
 OLDACT:UP  17-09-18 14:12 OP:and  STATUS:               ID:20170918005741d    3
 OLDACT:UP  17-09-18 14:12 OP:and  STATUS:               ID:20170918005741d    3
 OLDACT:UP  17-09-18 14:12 OP:and  STATUS:               ID:20170918005741d    3
 OLDACT:DUP 17-09-18 14:11 OP:and  STATUS:               ID:20170918005741d    3
 2017-09-18-0058-00M.COL___439                                                 6
 STAT SP IPHASW D HRMM SECON CODA AMPLIT PERI AZIMU VELO AIN AR TRES W  DIS CAZ7
 BAR2 EZ EP        1 7  3.64                             170   -0.0710 24.6 201 
 BAR2 EZ ES        1 7 18.15                             170   -0.3110 24.6 201 
 BAR2 EZ I         1 7 19.38         6.9 0.30            170           24.6 201 
 PAM  EZ IP     D  1 7  6.40                             151    0.2210 74.5  37 
 PAM  EN ES        1 7 22.81                             151   -0.0510 74.5  37 
 PAM  EZ I         1 7 25.37         5.0 0.62            152           74.5  37 
 BRR  HZ IP     C  1 7  5.24                             150   -0.3010 75.4 297 
 BRR  HN ES        1 7 22.03                             150    0.3310 75.4 297 
 BRR  HZ I         1 7 26.01         5.7 0.44            149           75.4 297 
 RUS  HZ EP        1 7  7.97                             143    0.0410  100 179 
 RUS  HN ES        1 7 26.13                             143    0.1710  100 179 
 RUS  HZ I         1 7 27.07         2.1 0.30            146            100 179 
 ZAR  HN ES        1 7 42.63                             120   -0.04 8  208 292 
 ZAR  HZ I         1 7 47.18         2.0 0.06            121            208 292 
                                                                                
