 2011  218 0155 13.7 L   6.789 -73.172145.7  RSN  5 0.2 1.3LRSN                1
 GAP=156        0.54       4.1     6.0  7.4 -0.1677E+02  0.2134E+02 -0.1194E+02E
 Epicentro: LOS SANTOS - SANTANDER                                             3
 ACTION:UP  11-03-28 15:09 OP:jfem STATUS:               ID:20110218015513 L   I
 2011-02-18-0153-05S.COL___137                                                 6
 STAT SP IPHASW D HRMM SECON CODA AMPLIT PERI AZIMU VELO SNR AR TRES W  DIS CAZ7
 BTL  SZ EP   1    155 33.62                             173     0.4 9   18 323 
 BAR2 SZ EP   1    155 33.06                             171    -0.2 9   22 183 
 BAR2 SZ I         155 33.68         6.9 0.09                            22 183 
 BAR2 SZ ES   1    155 48.55                             171     0.0 9   22 183 
 RUS  HZ EP   2    155 36.98                             144    -0.4 6  100 174 
 RUS  HN ES   1    155 55.90                             144     0.1 9  100 174 
 RUS  HZ I         155 56.79         2.4 0.36                           100 174 
 GRA  SZ EP   1    155 39.25                             136     0.2 9  128  19 
 GRA  SZ ES   1    155 58.69                             136    -0.2 9  128  19 
 GRA  SZ I         156  0.90         2.0 0.28                           128  19 
 NOR  SN ES        156 16.65                             119    -0.110  232 234 
                                                                                
