 2016  318 0756 40.8 L   6.735 -73.127139.8  RSN  4 0.4 1.3LRSN                1
 GAP=275        0.83       8.0     6.5  8.4  0.1134E+02  0.2238E+02  0.9592E+01E
 Epicentro: JORDAN - SANTANDER                                                 3
 ACTION:UPD 16-05-13 21:25 OP:cam  STATUS:               ID:20160318075640 L   I
 OLDACT:UP  16-03-28 15:35 OP:Mher STATUS:               ID:20160318075640 L   3
 OLDACT:UP  16-03-18 18:42 OP:dnl  STATUS:               ID:20160318074750     3
 OLDACT:REG 16-03-18 13:27 OP:dnl  STATUS:               ID:20160318074750     3
 2016-03-18-0747-50M.COL___309                                                 6
 STAT SP IPHASW D HRMM SECON CODA AMPLIT PERI AZIMU VELO AIN AR TRES W  DIS CAZ7
 BAR2 EZ EP   2    756 59.77                             173    0.13 5 16.9 201 
 BAR2 EZ ES        757 14.65                             173    0.3510 16.9 201 
 BAR2 EZ I         757 16.18         2.8 0.21            169           16.9 201 
 RUS  HZ EP   2    757  3.47                             145   -0.02 5 93.3 177 
 RUS  HE ES        757 20.62                             145   -0.5210 93.3 177 
 RUS  HZ I         757 23.90         2.8 0.40            146           93.3 177 
 PTB  HE EP   2    757  7.13                             130   -0.28 5  149 262 
 PTB  HN ES        757 27.74                             130   -0.39 9  149 262 
 PTB  HE I         757 33.69         6.2 0.20            131            149 262 
 SPBC HZ EP        757  8.68                             128    0.19 9  159 221 
 SPBC HN ES        757 30.51                             128    0.46 9  159 221 
 SPBC HZ I         757 33.06         2.6 0.09            129            159 221 
                                                                                
