 2010  718 0757 46.5 L   6.802 -73.033140.9  RSN  8 0.2 1.5LRSN                1
 GAP=171        0.50       3.3     6.4  5.4  0.3513E+01 -0.7208E+01 -0.4407E+01E
 Epicentro: CEPITA - SANTANDER                                                 3
 ACTION:UPD 10-12-01 15:18 OP:pat  STATUS:               ID:20100718075746 L   I
 2010-07-18-0753-27S.COL___119                                                 6
 STAT SP IPHASW D HRMM SECON CODA AMPLIT PERI AZIMU VELO AIN AR TRES W  DIS CAZ7
 BAR2 SZ ES   2    758 20.56                             168    -0.1 5   29 216 
 BAR2 SZ I         758 22.06         8.9 0.34                            29 216 
 BRR  HZ EP   1    758  7.61                             148    -0.2 7   82 294 
 BRR  HE ES   1    758 24.61                             148     0.2 7   82 294 
 BRR  HZ I         758 28.68        13.8 0.10                            82 294 
 RUS  HZ EP   1    758  9.97                             143     0.2 7  101 183 
 RUS  HN ES   1    758 27.86                             143    -0.1 7  101 183 
 RUS  HZ I         758 30.40         3.7 0.19                           101 183 
 GUE  SZ EP   2    758 10.44                             139    -0.2 5  114   6 
 GUE  SZ I         758 31.27         2.0 0.14                           114   6 
 GRA  SZ EP   2    758 11.66                             137     0.6 5  122  12 
 GRA  SZ I         758 32.66         4.1 0.36                           122  12 
 OCA  SZ EP   1    758 14.43                             128    -0.2 7  162 349 
 OCA  SZ I         758 39.53         4.1 0.51                           162 349 
 HEL  HZ EP   2    758 27.80                             113     0.0 4  284 256 
 HEL  HZ I         759  4.22         1.6 0.55                           284 256 
 PRA  HZ EP   2    758 40.55                             105    -0.1 3  398 211 
 PRA  HE ES   2    759 23.13                             105     0.3 3  398 211 
 PRA  HZ I         759 24.77         2.1 0.20                           398 211 
                                                                                
