 2013  218 0553 33.2 L   7.411 -73.189132.6  RSN  4 0.1 1.4LRSN                1
 GAP=111        0.36       2.5     3.6  5.4  0.4345E+00 -0.2072E+01 -0.4556E+01E
 Epicentro: EL PLAYON - SANTANDER                                              3
 ACTION:UPD 13-03-12 09:33 OP:ep   STATUS:               ID:20130218055333 L   I
 2013-02-18-0550-00M.COL___240                                                 6
 STAT SP IPHASW D HRMM SECON CODA AMPLIT PERI AZIMU VELO AIN AR TRES W  DIS CAZ7
 PAM  SZ EP   1    553 52.87                             157    0.16 7 54.6  98 
 PAM  SN ES   1    554  7.97                             157    0.02 7 54.6  98 
 PAM  SZ I         554  9.64         4.0 0.14            157           54.6  98 
 BRR  HN ES   1    554  7.97                             152    0.13 7 66.8 240 
 BAR2 SZ ES   1    554 11.05                             144   -0.16 7 90.5 180 
 BAR2 SZ I         554 12.26        12.1 0.40            147           90.5 180 
 OCA  HZ EP   1    553 54.49                             143   -0.10 7 92.7 351 
 OCA  HN ES   1    554 11.24                             143   -0.05 7 92.7 351 
 OCA  HZ I         554 13.33         2.7 0.16            145           92.7 351 
                                                                                
