 2012  218 0517  0.5 L   5.820 -73.987 90.0  RSN 10 0.4 1.3LRSN                1
 GAP= 83        0.56       2.7     2.5  8.1 -0.2146E+01  0.1780E+01  0.2219E+01E
 ACTION:UP  12-03-07 16:31 OP:epov STATUS:               ID:20120218051700 L   I
 2012-02-18-0510-00M.COL___188                                                 6
 STAT SP IPHASW D HRMM SECON CODA AMPLIT PERI AZIMU VELO AIN AR TRES W  DIS CAZ7
 PTB  HZ EP   2    517 17.94                             130   -0.17 5 95.0 327 
 PTB  HE ES   2    517 31.17                             130   -0.70 5 95.0 327 
 RUS  HZ EP   2    517 19.03                             129   -0.23 5  100  85 
 RUS  HE ES   2    517 33.57                             129   -0.34 5  100  85 
 RUS  HZ I         517 35.34         1.9 0.32                           100  85 
 NOR  SZ EP   2    517 18.47                             128   -0.34 5  102 254 
 NOR  SN ES   2    517 33.22                             128    0.10 5  102 254 
 BAR2 SZ ES   1    517 38.14                             122    0.70 7  123  46 
 BAR2 SZ I         517 40.39        11.4 0.54                           123  46 
 CHI  HZ EP   1    517 22.50                             120   -0.17 7  135 168 
 CHI  HN ES   2    517 39.94                             120   -0.04 5  135 168 
 CHI  HZ I         517 42.45         2.3 0.44                           135 168 
 BRR  HZ EP   1    517 22.85                             117   -0.47 7  146  12 
 BRR  HZ I         517 23.42         2.7 0.30                           146  12 
 BRR  HE ES   2    517 41.29                             117    0.15 5  146  12 
 GIR2 SZ EP   1    517 25.71                             114    0.09 7  165  32 
 GUY  SZ EP   2    517 26.56                             114    0.02 5  169 247 
 GUY  SN ES   2    517 47.19                             114    0.32 5  169 247 
 GUY  SZ I         517 50.05         5.3 0.42                           169 247 
 HEL  HZ EP   2    517 27.39                             113    0.23 4  176 284 
 HEL  HN ES   2    517 48.24                             113    0.27 4  176 284 
 HEL  HZ I         517 52.60         3.2 0.56                           176 284 
 RREF HZ EP   2    517 28.32                             112    0.11 4  182 236 
 RREF HN ES   2    517 50.38                             112    0.54 4  182 236 
 RREF HZ I         517 55.24         2.8 0.28                           182 236 
                                                                                
