 2012 1118 0102 49.7 L   6.660 -73.228145.5  RSN  4 0.3 1.3LRSN                1
 GAP=141        0.55      10.0     5.6  8.0  0.4654E+01  0.1442E+02  0.3546E+02E
 Epicentro: BARICHARA - SANTANDER                                              3
 ACTION:UPD 12-12-05 15:34 OP:}ep  STATUS:               ID:20121118010249 L   I
 2012-11-18-0100-00M.COL___234                                                 6
 STAT SP IPHASW D HRMM SECON CODA AMPLIT PERI AZIMU VELO AIN AR TRES W  DIS CAZ7
 BAR2 SZ EP   1    1 3  9.04                             176   -0.03 7 9.05 146 
 BAR2 SZ ES   1    1 3 24.33                             176    0.14 7 9.05 146 
 BAR2 SZ I         1 3 25.76         6.3 0.40                          9.05 146 
 GIR2 SZ ES   2    1 3 24.86                             161   -0.66 5 46.5   5 
 BRR  HN ES   1    1 3 27.72                             152    0.29 7 72.8 313 
 PTB  HZ EP   1    1 3 15.75                             134    0.13 7  136 264 
 PTB  HN ES   1    1 3 35.60                             134   -0.25 7  136 264 
 PTB  HZ I         1 3 39.02         1.6 0.12                           136 264 
                                                                                
