 2013  518 0305 43.9 L   6.788 -73.155149.4  RSN  5 0.3 1.3LRSN                1
 GAP=200        0.68       5.0     5.2  5.8  0.1161E+02  0.3030E+01 -0.3524E+01E
 Epicentro: LOS SANTOS - SANTANDER                                             3
 ACTION:UPD 13-06-20 09:51 OP:ep   STATUS:               ID:20130518030543 L   I
 2013-05-18-0300-00M.COL___256                                                 6
 STAT SP IPHASW D HRMM SECON CODA AMPLIT PERI AZIMU VELO AIN AR TRES W  DIS CAZ7
 BAR2 SZ EP   1    3 6  4.07                             172    0.09 7 21.8 188 
 BAR2 SZ ES        3 6 19.59                             172   -0.0210 21.8 188 
 BAR2 SZ I         3 6 21.40         5.5 0.48            170           21.8 188 
 BRR  HZ EP        3 6  6.00                             153    0.5310 71.0 300 
 BRR  HN ES   1    3 6 22.50                             153    0.24 7 71.0 300 
 BRR  HZ I         3 6 27.70         6.6 0.28            151           71.0 300 
 RUS  HZ EP        3 6  7.86                             145   -0.1010 99.3 175 
 RUS  HN ES        3 6 26.57                             145   -0.1310 99.3 175 
 RUS  HZ I         3 6 27.84         1.4 0.38            149           99.3 175 
 PTB  HZ EP        3 6 10.93                             133   -0.17 9  147 259 
 PTB  HN ES        3 6 32.08                             133   -0.20 9  147 259 
 PTB  HZ I         3 6 37.87         3.3 0.50            133            147 259 
 SML  HN ES   2    3 6 48.72                             118   -0.94 4  245 336 
                                                                                
