 2010  118 0402 22.7 L   7.450 -72.957128.7  RSN  8 0.5 1.8LRSN                1
 GAP=209        0.96       4.2    12.0  7.6  0.3691E+01  0.2305E+02  0.7805E+01E
 Epicentro: SURATA - SANTANDER                                                 3
 ACTION:UP  10-08-24 09:44 OP:vdl  STATUS:               ID:20100118040222 L   I
 2010-01-18-0358-19S.COL___096                                                 6
 STAT SP IPHASW D HRMM SECON CODA AMPLIT PERI AZIMU VELO SNR AR TRES W  DIS CAZ7
 GIR2 SZ EP        4 2 41.01                             159     0.010   49 213 
 GIR2 SZ ES   1    4 2 55.56                             159     0.3 7   49 213 
 OCA  SZ EP        4 2 44.27                             141     0.310   96 335 
 OCA  SZ ES   1    4 3  0.84                             141     0.2 7   96 335 
 BAR2 SZ EP        4 2 44.20                             141    -0.110   98 195 
 BAR2 SZ ES   1    4 3  0.65                             141    -0.4 7   98 195 
 RUS  BZ EP        4 2 51.68                             123     0.2 9  173 185 
 RUS  BN ES   1    4 3 13.04                             123    -0.8 7  173 185 
 RUS  BZ I         4 3 17.33         4.3 0.72                           173 185 
 HEL  HZ EP        4 3  6.32                             108    -0.9 7  317 244 
 CHI  HZ EP   1    4 3  8.30                             107     0.2 5  323 195 
 CHI  HZ I         4 3  9.70         1.7 0.48                           323 195 
 CHI  HN ES   2    4 3 45.16                             107     1.7 3  323 195 
 RREF BN ES   1    4 3 57.19                             104     0.0 4  387 223 
 RREF BZ I         4 4  5.26         6.4 0.47                           387 223 
 PRA  HZ EP        4 3 24.66                             101     0.3 5  465 207 
 PRA  HN ES   1    4 4 13.19                             101     0.7 4  465 207 
                                                                                
