 2011 1018 0552 25.2 L   6.783 -73.082145.5  RSN  6 0.3 1.5LRSN                1
 GAP=146        0.42       3.2     4.5  6.3  0.3160E+01  0.5298E+01  0.1149E+01E
 Epicentro: LOS SANTOS - SANTANDER                                             3
 ACTION:UPD 12-07-13 16:04 OP:ep   STATUS:               ID:20111018055225 L   I
 2011-10-18-0548-51S.COL___168                                                 6
 STAT SP IPHASW D HRMM SECON CODA AMPLIT PERI AZIMU VELO AIN AR TRES W  DIS CAZ7
 BAR2 SZ EP   1    552 44.66                             170   -0.18 7 23.9 208 
 BAR2 SZ I         553  2.70         9.8 0.47                          23.9 208 
 PAM  SZ EP   2    552 47.75                             152    0.49 5 74.6  34 
 PAM  SN ES   2    553  4.60                             152    0.16 5 74.6  34 
 BRR  HZ EP   1    552 46.78                             150    0.01 7 78.3 297 
 BRR  HE ES   2    553  3.48                             150   -0.09 5 78.3 297 
 BRR  HZ I         553  5.42         7.6 0.19                          78.3 297 
 RUS  HZ EP   1    552 48.90                             144    0.09 7 98.5 180 
 RUS  HN ES   2    553  7.08                             144   -0.12 5 98.5 180 
 RUS  HZ I         553 10.59         2.7 0.79                          98.5 180 
 OCA  SZ EP   2    552 53.17                             129   -0.62 5  163 351 
 OCA  SZ ES   2    553 15.96                             129   -0.10 5  163 351 
 OCA  SZ I         553 19.56         4.9 0.47                           163 351 
 ZAR  HZ EP   2    552 58.65                             121    0.24 4  211 292 
 ZAR  HN ES   2    553 24.54                             121    0.24 4  211 292 
 ZAR  HZ I         553 28.87         3.1 0.35                           211 292 
                                                                                
