 2010  518 0647 39.3 L   6.796 -72.967143.9  RSN  9 0.5 2.0LRSN                1
 GAP=202        0.76       4.8     7.7  6.7 -0.1650E+02 -0.4299E+00  0.7259E+01E
 Epicentro: CEPITA - SANTANDER                                                 3
 ACTION:UP  10-08-24 10:05 OP:vdl  STATUS:               ID:20100518064739 L   I
 2010-05-18-0644-38S.COL___108                                                 6
 STAT SP IPHASW D HRMM SECON CODA AMPLIT PERI AZIMU VELO SNR AR TRES W  DIS CAZ7
 BAR2 SZ EP        647 59.05                             167     0.110   33 227 
 BAR2 SZ ES   1    648 13.78                             167    -0.5 7   33 227 
 BRR  HZ EP        648  1.50                             146     0.210   89 293 
 BRR  HE ES   1    648 18.69                             146     0.1 7   89 293 
 BRR  HZ I         648 22.01        16.9 0.13                            89 293 
 BRI  SZ EP   2    648  2.52                             142    -0.1 5  103  10 
 BRI  SZ ES   2    648 20.84                             142     0.0 5  103  10 
 GUE  SZ EP   2    648  4.05                             139     0.4 5  114   2 
 OCA  SZ EP   1    648  7.68                             128    -0.1 7  164 346 
 OCA  SZ ES   2    648 29.42                             128    -0.7 5  164 346 
 OCA  SZ I         648 33.52        12.8 0.15                           164 346 
 ROSC BZ EP   1    648 19.23                             115     0.8 6  263 215 
 ROSC BE ES   2    648 49.33                             115     0.4 4  263 215 
 ROSC BZ I         648 55.23         5.1 0.36                           263 215 
 HEL  HZ EP   2    648 20.70                             113    -0.8 4  291 257 
 HEL  HN ES   2    648 55.07                             113     0.6 4  291 257 
 HEL  HZ I         648 58.61         5.2 0.31                           291 257 
 RREF BE ES   2    649  3.92                             109    -0.4 3  337 232 
 RREF BZ I         649 11.60         5.5 0.48                           337 232 
 PRA  HZ EP   1    648 33.05                             106    -0.8 4  402 212 
 PRA  HN ES   2    649 15.62                             106    -0.8 3  402 212 
 PRA  HZ I         649 21.64         3.8 0.52                           402 212 
                                                                                
