 2012  218 0848 39.1 L   6.810 -73.163145.5  RSN  7 0.4 1.3LRSN                1
 GAP=134        0.57       5.3     4.8  5.2 -0.8619E-01  0.6926E+01  0.8526E+01E
 ACTION:UP  12-03-07 16:31 OP:epov STATUS:               ID:20120218084839 L   I
 2012-02-18-0840-00M.COL___188                                                 6
 STAT SP IPHASW D HRMM SECON CODA AMPLIT PERI AZIMU VELO AIN AR TRES W  DIS CAZ7
 BAR2 SZ EP   2    848 58.48                             170   -0.22 5 24.1 185 
 BAR2 SZ ES   2    849 13.20                             170   -0.81 5 24.1 185 
 BAR2 SZ I         849 15.34         3.6 0.27                          24.1 185 
 GIR2 SZ EP        848 58.45                             168   -0.2510 29.9 353 
 GIR2 SZ ISg       849 14.01                             168    0.0210 29.9 353 
 GIR2 SZ ES        849 14.01                             168    0.0210 29.9 353 
 BRR  HZ EP   2    849  0.68                             153    0.59 5 69.0 298 
 BRR  HN ES   2    849 17.02                             153    0.55 5 69.0 298 
 PAM  SZ EP   2    849  1.60                             151    0.30 5 77.8  41 
 PAM  SN ES   2    849 18.73                             151    0.11 5 77.8  41 
 RUS  HZ EP   2    849  3.28                             143    0.38 5  102 175 
 RUS  HN ES   2    849 21.77                             143    0.29 5  102 175 
 RUS  HZ I         849 23.56         2.3 0.46                           102 175 
 PTB  HZ EP   1    849  5.70                             132   -0.19 7  146 258 
 PTB  HE ES   2    849 27.16                             132    0.37 5  146 258 
 ZAR  HN ES   2    849 35.97                             123   -0.45 4  202 292 
 ZAR  HZ I         849 42.67         3.6 0.13                           202 292 
                                                                                
