 2017 1218 0840 21.1 L   6.866 -73.295120.3  RSN 14 0.5 1.8LRSN                1
 GAP=107        1.23       3.1     3.3  6.9 -0.2146E+00  0.3733E+01  0.3055E-02E
 Epicentro: BETULIA - SANTANDER                                                3
 ACTION:UPD 18-01-04 13:21 OP:rebc STATUS:               ID:20171218084021 L   I
 OLDACT:UP  17-12-18 17:43 OP:edw  STATUS:               ID:20171218083741d    3
 OLDACT:UP  17-12-18 17:41 OP:edw  STATUS:               ID:20171218083741d    3
 OLDACT:DUP 17-12-18 17:32 OP:edw  STATUS:               ID:20171218083741d    3
 OLDACT:REG 17-12-18 13:22 OP:dhb  STATUS:               ID:20171218083740     3
 2017-12-18-0838-00M.COL___448                                                 6
 STAT SP IPHASW D HRMM SECON CODA AMPLIT PERI AZIMU VELO AIN AR TRES W  DIS CAZ7
 BAR2 EZ IP     D  840 38.21                             164    0.2410 32.7 158 
 BAR2 EZ ES        840 51.44                             164    0.3210 32.7 158 
 PTB  HZ EP     C  840 43.47                             129   -1.2710  133 254 
 PTB  HE ES        841  2.66                             129   -0.5010  133 254 
 PTB  HZ I         841  5.21         6.9 0.14            128            133 254 
 OCA  HZ EP        840 46.32                             125   -0.42 9  152 359 
 OCA  HN ES        841  6.35                             125   -0.37 9  152 359 
 OCA  HZ I         841  8.16        32.4 0.24            125            152 359 
 SPBC HZ EP        840 47.37                             123   -0.05 9  159 213 
 SPBC HN ES        841  7.83                             123   -0.09 9  159 213 
 SPBC HZ I         841 10.14         8.3 0.20            123            159 213 
 TAM  HZ EP     D  840 49.15                             121    0.39 9  173 106 
 TAM  HN ES        841 10.58                             121    0.27 9  173 106 
 ZAR  HZ EP        840 50.65                             119    0.56 9  186 292 
 ZAR  HN ES        841 13.62                             119    0.93 9  186 292 
 ZAR  HZ I         841 17.24         8.4 0.20            118            186 292 
 YPLC HN ES        841 13.64                             118   -0.25 9  191 148 
 URE  HZ EP   4    841  0.26                             110    1.26 0  266 292 
 URE  HN ES   4    841 26.96                             110   -1.59 0  266 292 
 URE  HZ I         841 29.94         4.9 0.40            109            266 292 
 DRL03HZ EP        841  0.37                             108   -0.25 7  280 356 
 DRL03HN ES        841 31.55                             108    0.13 7  280 356 
 GUY2CHZ EP        841  3.24                             108    0.59 7  292 232 
 GUY2CHN ES        841 34.44                             108   -0.60 7  292 232 
 GUY2CHZ I         841 41.78         2.4 0.52                           292 232 
 DRL02HZ EP   4    841  6.09                             106    1.11 0  317   0 
 DRL02HE ES   4    841 40.16                             106    0.97 0  317   0 
 CBOC HZ EP        841  6.09                             106    0.54 7  320 250 
 CBOC HN ES        841 40.13                             106   -0.07 7  320 250 
 CBOC HZ I         841 42.82         1.9 0.30            105            320 250 
 PTGC HZ EP        841  4.64                             105   -0.86 7  322 156 
 PTGC HE ES   4    841 38.91                             105   -1.21 0  322 156 
 PTGC HZ I         841 43.97         3.7 0.40            106            322 156 
 PRA  HZ EP        841 13.89                             102    0.18 6  391 207 
 PRA  HN ES        841 55.48                             102    0.75 6  391 207 
 PRA  HZ I         842  0.12         1.7 0.28            102            391 207 
 ORTC HZ EP        841 14.71                             102    0.84 6  392 214 
 ORTC HN ES   4    841 56.30                             102    1.28 0  392 214 
 ORTC HZ I         841 59.27         1.1 0.44            102            392 214 
 SJC  HZ EP   4    841 12.41                             102   -1.76 0  394 328 
 SJC  HN ES   4    841 51.81                             102   -3.73 0  394 328 
                                                                                
