 2011  318 0329 39.8 L   6.815 -73.289141.3  RSN  5 0.3 1.2LRSN                1
 GAP=180        0.78       4.7    17.2  5.7 -0.5629E+02  0.5766E+01  0.1943E+00E
 Epicentro: ZAPATOCA - SANTANDER                                               3
 ACTION:UP  11-06-16 14:34 OP:jfem STATUS:               ID:20110318032939 L   I
 2011-03-18-0327-07S.COL___135                                                 6
 STAT SP IPHASW D HRMM SECON CODA AMPLIT PERI AZIMU VELO SNR AR TRES W  DIS CAZ7
 BTL  SZ EP        329 58.32                             175    -0.410   12  12 
 BTL  SZ ES        330 13.65                             175     0.210   12  12 
 BAR2 SZ EP        329 58.89                             168    -0.110   27 155 
 BAR2 SZ ES        330 13.68                             168    -0.210   27 155 
 BAR2 SZ I         330 15.21         3.4 0.36                            27 155 
 RUS  HZ EP        330  3.45                             142     0.110  105 167 
 RUS  HN ES   1    330 21.72                             142    -0.1 7  105 167 
 RUS  HZ I         330 23.22         2.1 0.28                           105 167 
 GRA  SZ EP        330  4.87                             135    -0.110  130  24 
 GRA  SZ ES        330 24.96                             135     0.310  130  24 
 GRA  SZ I         330 25.72         3.3 0.33                           130  24 
 CHI  HZ EP   2    330 16.86                             116    -0.2 4  247 191 
 CHI  HN ES   1    330 46.84                             116     0.8 6  247 191 
 CHI  HZ I         330 59.40         1.0 0.66                           247 191 
                                                                                
