 2017  118 0342 20.7 L   6.787 -73.134146.2  RSN 20 0.5 2.6LRSN                1
 GAP= 71        0.95       3.2     2.6  4.4  0.4653E+00  0.3707E+01  0.3197E+01E
 Epicentro: LOS SANTOS - SANTANDER                                             3
 ACTION:UPD 17-05-22 16:00 OP:jn   STATUS:               ID:20170118034220 L   I
 OLDACT:UP  17-01-18 14:44 OP:dani STATUS:               ID:20170118033742     3
 OLDACT:UP  17-01-18 14:44 OP:dani STATUS:               ID:20170118033742     3
 OLDACT:REG 17-01-18 12:42 OP:dani STATUS:               ID:20170118033742     3
 2017-01-18-0338-00M.COL___331                                                 6
 STAT SP IPHASW D HRMM SECON CODA AMPLIT PERI AZIMU VELO AIN AR TRES W  DIS CAZ7
 BAR2 EZ IP     C  342 40.29                             171   -0.1110 22.2 194 
 BAR2 HN ES        342 55.49                             171   -0.2410 22.2 194 
 BAR2 EZ I         342 56.64       140.3 0.20            166           22.2 194 
 BRR  HZ IP     C  342 42.19                             152    0.1510 73.1 299 
 BRR  HN ES        342 59.14                             152    0.4810 73.1 299 
 BRR  HZ I         343  5.43        74.7 0.44            149           73.1 299 
 PAM  EZ EP     C  342 43.15                             151    0.1310 77.7  38 
 PAM  EN ES        343  0.20                             151   -0.1910 77.7  38 
 PAM  EZ I         343  2.86        85.7 0.51            157           77.7  38 
 RUS  HZ EP     C  342 44.22                             144   -0.2110 99.1 177 
 RUS  HE ES        343  2.48                             144   -0.4210 99.1 177 
 RUS  HZ I         343  3.62        50.1 0.20            143           99.1 177 
 PTB  HZ EP        342 46.75                             132   -1.09 9  149 259 
 PTB  HN ES   3    343  7.80                             132   -1.17 2  149 259 
 PTB  HZ I         343 12.64        60.7 0.42            130            149 259 
 TAM  HZ EP     D  342 48.63                             131    0.33 9  153 105 
 TAM  HE ES        343 10.39                             131    0.60 9  153 105 
 TAM  HZ I         343 10.82        48.3 0.56            135            153 105 
 ZAR  HZ EP        342 53.36                             122   -0.04 8  206 292 
 ZAR  HE ES        343 19.41                             122    0.54 8  206 292 
 ZAR  HZ I         343 25.09        82.3 0.36            122            206 292 
 NOR  HZ EP        342 56.33                             119   -0.20 8  235 235 
 NOR  HN ES        343 24.30                             119   -0.13 8  235 235 
 NOR  HZ I         343 28.59        39.0 0.39            118            235 235 
 CHI  HZ EP        342 58.50                             117    0.15 8  248 196 
 CHI  HE ES        343 28.17                             117    0.48 8  248 196 
 CHI  HZ I         343 35.57        13.6 0.50            117            248 196 
 ROSC BZ EP   9    343  0.52                             117    1.69 0  252 211 
 ROSC BE ES        343 30.32                             117    0.10 8  252 211 
 ROSC BZ I         343 37.86        51.4 0.40            117            252 211 
 URE  HZ EP   9    343  0.55                             113   -1.48 0  286 292 
 URE  HE ES        343 32.52                             114   -0.23 7  286 292 
 URE  HZ I         343 44.84        47.4 0.24            114            286 292 
 GUY2CHZ EP        343  4.68                             112    0.28 7  301 235 
 GUY2CHE ES        343 39.25                             112    0.79 7  301 235 
 GUY2CHZ I         343 46.87        31.4 0.38                           301 235 
 PTGC HZ EP        343  3.48                             112   -0.93 7  307 159 
 PTGC HE ES   3    343 36.55                             112   -1.92 2  307 159 
 PTGC HZ I         343 43.63        12.9 0.23            113            307 159 
 ELA  HZ EP   3    343  9.16                             110    1.54 2  329 230 
 ELA  HE ES   3    343 42.87                             110   -1.32 2  329 230 
 ELA  HZ I         344  1.09        19.2 0.78            110            329 230 
 CBOC HZ EP        343  8.11                             110    0.34 7  334 252 
 CBOC HE ES   4    343 41.72                             110   -2.73 0  334 252 
 CBOC HZ I         343 56.94        11.3 0.64            110            334 252 
 DBB  EZ EP        343  8.27                             109   -0.13 7  341 274 
 DBB  EN ES        343 44.86                             109   -0.72 7  341 274 
 DBB  EZ I         343 52.61        10.8 0.41            110            341 274 
 ORTC HZ EP        343 14.76                             106    0.13 6  395 216 
 ORTC HE ES   3    343 58.19                             106    1.52 1  395 216 
 ORTC HZ I         344  6.29         9.7 0.50            107            395 216 
 APAC HZ EP        343 14.67                             106   -0.48 6  400 288 
 APAC HE ES   3    343 58.95                             106    1.37 1  400 288 
 APAC HZ I         344  5.60         9.5 0.32            107            400 288 
 PAL  HZ EP     C  343 16.23                             106    0.26 6  406 239 
 PAL  HE ES        343 59.84                             106    0.80 6  406 239 
 PAL  HZ I         344  3.25         8.9 0.26            106            406 239 
 SJC  HZ EP   9 C  343 15.00                             106   -1.55 0  411 327 
 SJC  HE ES        343 58.20                             106   -0.33 6  411 327 
 SJC  HZ I         344  0.01         6.6 0.41            107            411 327 
                                                                                
