 2017 1018 0401 10.8 L   6.718 -73.171143.9  RSN  5 0.4 1.5LRSN                1
 GAP=240        0.96       9.3     6.9  7.3  0.2518E+02  0.1395E+02  0.7962E+01E
 Epicentro: VILLANUEVA - SANTANDER                                             3
 ACTION:UPD 17-11-07 19:33 OP:rebc STATUS:               ID:20171018040110 L   I
 OLDACT:UP  17-10-18 14:31 OP:dani STATUS:               ID:20171018035741d    3
 OLDACT:UP  17-10-18 14:31 OP:dani STATUS:               ID:20171018035741d    3
 OLDACT:DUP 17-10-18 14:28 OP:dani STATUS:               ID:20171018035741d    3
 OLDACT:UP  17-10-18 14:27 OP:dani STATUS:               ID:20171018035740     3
 OLDACT:UP  17-10-18 14:26 OP:dani STATUS:               ID:20171018035740     3
 OLDACT:REG 17-10-18 13:16 OP:dani STATUS:               ID:20171018035740     3
 2017-10-18-0358-00M.COL___425                                                 6
 STAT SP IPHASW D HRMM SECON CODA AMPLIT PERI AZIMU VELO AIN AR TRES W  DIS CAZ7
 BAR2 EZ EP        4 1 30.62                             174    0.6010 14.0 185 
 BAR2 EZ ES        4 1 44.84                             174   -0.1910 14.0 185 
 BRR  HZ EP        4 1 31.43                             151   -0.4210 73.7 306 
 BRR  HN ES        4 1 48.39                             151    0.0910 73.7 306 
 BRR  HZ I         4 1 54.52         4.5 0.13             61           73.7 306 
 PTB  HZ EP        4 1 36.50                             132   -0.70 9  144 262 
 PTB  HN ES        4 1 57.96                             132    0.14 9  144 262 
 ZAR  HZ EP        4 1 43.41                             122    0.21 9  205 295 
 ZAR  HN ES        4 2  8.70                             122    0.20 9  205 295 
 ZAR  HZ I         4 2 13.74         2.8 0.42             61            205 295 
 PRA  HZ EP   1    4 2  3.69                             107    0.55 4  383 210 
 PRA  HZ I         4 2 56.80         1.0 0.27             60            383 210 
                                                                                
