 2014 1218 0415 29.1 L   6.712 -73.203140.9  RSN  7 0.4 1.4LRSN                1
 GAP=235        1.01       6.0     5.3  9.2  0.6419E+01  0.1242E+02 -0.1701E+02E
 Epicentro: VILLANUEVA - SANTANDER                                             3
 ACTION:UPD 15-02-10 17:04 OP:nd   STATUS:               ID:20141218041529 L   I
 OLDACT:DUP 14-12-18 15:11 OP:fm   STATUS:               ID:20141218040743d    3
 2014-12-18-0407-42M.COL___296                                                 6
 STAT SP IPHASW D HRMM SECON CODA AMPLIT PERI AZIMU VELO AIN AR TRES W  DIS CAZ7
 BAR2 EZ EP        415 47.97                             174   -0.0210 13.4 170 
 BAR2 EZ ES   1    416  3.28                             174    0.56 7 13.4 170 
 BAR2 EZ I         416  5.78         6.3 0.32            171           13.4 170 
 RUS  HZ EP        415 52.22                             145    0.4810 91.6 172 
 RUS  HE ES        416  8.90                             145   -0.4910 91.6 172 
 RUS  HZ I         416 14.12         1.6 0.34            149           91.6 172 
 PTB  HZ EP        415 55.04                             133    0.08 9  140 262 
 PTB  HN ES        416 14.98                             133   -0.15 9  140 262 
 PTB  HZ I         416 23.16         3.3 0.38            134            140 262 
 SPBC HE ES        416 16.94                             130   -0.29 9  152 219 
 SPBC HZ I         416 21.20         4.5 0.16            132            152 219 
 ZAR  HZ EP        416  0.19                             121   -0.85 9  202 295 
 ZAR  HN ES        416 26.20                             121    0.25 9  202 295 
 ZAR  HZ I         416 32.21         4.0 0.28            124            202 295 
 NOR  HE ES        416 30.57                             119    0.43 8  224 236 
 NOR  HZ I         416 37.44         2.8 0.18            122            224 236 
 HEL  HZ EP   1    416  8.67                             115    0.54 6  264 258 
                                                                                
