 2014  818 0450  4.8 L   6.814 -73.174145.9  RSN  6 0.4 1.3LRSN                1
 GAP=188        0.96       4.7     7.4  7.5 -0.1248E+02  0.8256E+01 -0.7148E+01E
 Epicentro: LOS SANTOS - SANTANDER                                             3
 ACTION:UPD 14-09-15 21:50 OP:nd   STATUS:               ID:20140818045004 L   I
 OLDACT:REG 14-08-18 14:32 OP:stll STATUS:               ID:20140818044816     3
 2014-08-18-0448-16M.COL___260                                                 6
 STAT SP IPHASW D HRMM SECON CODA AMPLIT PERI AZIMU VELO AIN AR TRES W  DIS CAZ7
 BAR2 SZ EP        450 24.38                             170   -0.1410 24.6 182 
 BAR2 SZ ES        450 39.64                             170   -0.2310 24.6 182 
 BAR2 SZ I         450 40.35         3.8 0.16            174           24.6 182 
 BRR  HZ EP        450 26.48                             154    0.6610 67.7 299 
 BRR  HN ES        450 42.70                             154    0.5210 67.7 299 
 BRR  HZ I         450 43.81         2.9 0.42            140           67.7 299 
 PTB  HZ EP        450 31.62                             133    0.04 9  145 258 
 PTB  HE ES        450 51.92                             133   -0.51 9  145 258 
 PTB  HZ I         450 54.84         2.2 0.16            122            145 258 
 OCA  HN ES        450 54.57                             130   -0.37 9  158 354 
 SPBC HN ES        450 55.50                             129    0.02 9  162 218 
 SML  HZ EP        450 41.03                             118   -0.16 8  241 336 
 SML  HZ I         451 18.77         1.6 0.10            106            241 336 
                                                                                
