 2010 1218 0422 51.4 L   6.837 -73.072143.4  RSN 19 0.5 2.7LRSN                1
 GAP=106        0.86       2.8     4.4  4.5 -0.2473E+01  0.2678E+01  0.2261E+01E
 Epicentro: LOS SANTOS - SANTANDER                                             3
 ACTION:UP  11-01-14 15:25 OP:pat  STATUS:               ID:20101218042251 L   I
 2010-12-18-0421-48S.COL___136                                                 6
 STAT SP IPHASW D HRMM SECON CODA AMPLIT PERI AZIMU VELO SNR AR TRES W  DIS CAZ7
 BTL  SZ IP        423 11.07                             170     0.310   23 293 
 BTL  SZ ES   1    423 25.76                             170    -0.1 7   23 293 
 BAR2 SZ IP        423 11.00                             168     0.110   30 204 
 BAR2 SZ ES   1    423 25.65                             168    -0.4 7   30 204 
 BAR2 SZ I         423 27.09        88.7 0.30                            30 204 
 BRR  HZ IP     C  423 12.74                             150     0.110   77 293 
 BRR  HN ES   1    423 29.42                             150     0.3 7   77 293 
 BRR  HZ I         423 32.97       125.7 0.30                            77 293 
 RUS  HZ IP     C  423 15.07                             142    -0.110  104 181 
 RUS  HN ES   1    423 33.28                             142    -0.5 7  104 181 
 RUS  HZ I         423 35.63        52.9 0.35                           104 181 
 GRA  SZ IP        423 15.63                             138    -0.310  120  14 
 GRA  SZ I         423 16.81        35.8 0.23                           120  14 
 GRA  SZ ES   1    423 34.90                             138    -0.1 7  120  14 
 OCA  SZ EP        423 19.22                             129     0.0 9  157 350 
 OCA  SZ ES   2    423 41.56                             129     0.6 5  157 350 
 OCA  SZ I         423 44.21        59.2 0.38                           157 350 
 YOP  SZ IP        423 21.90                             126     0.6 9  179 156 
 YOP  SZ I         423 22.61        30.4 0.27                           179 156 
 YOP  SN ES   2    423 45.04                             126     0.4 4  179 156 
 NOR  SZ IP        423 27.37                             117    -0.6 8  244 235 
 CHI  HZ IP     C  423 29.55                             116    -0.1 8  255 197 
 CHI  HN ES   1    423 58.78                             116    -0.7 6  255 197 
 CHI  HZ I         424  6.55        31.0 0.22                           255 197 
 ROSC BZ EP   2    423 30.07                             115    -0.2 4  260 212 
 ROSC BN ES   1    424  1.11                             115     0.6 6  260 212 
 ROSC BZ I         424  7.14        53.4 0.33                           260 212 
 HEL  HZ EP        423 32.21                             113    -0.3 7  281 255 
 HEL  HN ES   2    424  5.44                             113     0.9 4  281 255 
 HEL  HZ I         424 10.93        25.0 0.15                           281 255 
 VIL  SZ EP   2    423 34.58                             111    -0.6 4  307 191 
 VIL  SN ES   2    424  9.51                             111     0.3 4  307 191 
 VIL  SZ I         424 15.01        19.1 0.41                           307 191 
 GUY  SZ EP        423 36.49                             111     0.6 7  310 235 
 GUY  SZ I         424 18.01        36.2 0.27                           310 235 
 RREF HZ EP        423 38.15                             110    -0.3 7  331 230 
 RREF HN ES   3    424 15.01                             110    -0.1 2  331 230 
 RREF HZ I         424 24.06        27.7 0.64                           331 230 
 DBB  SZ EP   1    423 39.46                             108    -0.2 5  347 273 
 TOL  SZ EP        423 41.13                             108     0.6 6  352 225 
 SDV  BZ EP        423 40.34                             108     0.0 6  352  50 
 SDV  BZ I         424 19.70        12.0 0.45                           352  50 
 MON  HZ EP   3    423 38.28                             108    -2.4 2  357 307 
 MON  HN ES   3    424 17.57                             108    -1.6 2  357 307 
 MON  HZ I         424 31.59        13.7 0.44                           357 307 
 PRA  HZ EP   1    423 45.26                             106    -0.5 4  400 210 
 PRA  HN ES   3    424 27.61                             106    -0.5 1  400 210 
                                                                                
