 2010  518 0340 38.2 L   6.813 -72.929141.5  RSN  5 0.3 1.8LRSN                1
 GAP=282        0.47       7.0     6.3  6.8 -0.2961E+01  0.9615E+01  0.1319E+02E
 Epicentro: CEPITA - SANTANDER                                                 3
 ACTION:UP  10-08-24 10:05 OP:vdl  STATUS:               ID:20100518034038 L   I
 2010-05-18-0340-00S.COL___102                                                 6
 STAT SP IPHASW D HRMM SECON CODA AMPLIT PERI AZIMU VELO SNR AR TRES W  DIS CAZ7
 BAR2 SZ EP        340 57.83                             165     0.110   37 229 
 BAR2 SZ ES   2    341 13.01                             165     0.1 5   37 229 
 BRR  HZ EP        341  0.32                             145     0.010   92 291 
 BRR  HE ES   2    341 17.14                             145    -0.4 5   92 291 
 BRR  HZ I         341 20.60         9.8 0.18                            92 291 
 HEL  HZ EP   2    341 20.47                             112    -0.4 4  296 257 
 HEL  HE ES   2    341 54.85                             112     0.7 4  296 257 
 HEL  HZ I         341 56.43         3.8 0.48                           296 257 
 RREF BZ EP   2    341 26.52                             109     0.1 3  341 232 
 RREF BE ES   2    342  3.63                             109    -0.4 3  341 232 
 RREF BZ I         342 10.71         2.6 0.54                           341 232 
 PRA  HZ EP   2    341 32.77                             105    -0.4 3  406 212 
                                                                                
