 2017  218 0949 50.3 L   6.756 -73.112141.2  RSN  4 0.1 0.9LRSN                1
 GAP=143        0.35       1.8     2.3  4.2  0.1542E+00  0.4989E+01  0.8129E-01E
 Epicentro: LOS SANTOS - SANTANDER                                             3
 ACTION:UPD 17-05-24 15:37 OP:jn   STATUS:               ID:20170218094950 L   I
 OLDACT:REG 17-02-18 14:01 OP:cara STATUS:               ID:20170218094740     3
 2017-02-18-0948-00M.COL___321                                                 6
 STAT SP IPHASW D HRMM SECON CODA AMPLIT PERI AZIMU VELO AIN AR TRES W  DIS CAZ7
 PAM  EZ EP        950 12.12                             149   -0.0610 79.0  35 
 PAM  EE ES        950 29.25                             149    0.0510 79.0  35 
 PAM  EZ I         950 31.21         2.0 0.64            153           79.0  35 
 RUS  HZ EP        950 13.23                             144   -0.0610 95.6 178 
 RUS  HN ES        950 31.18                             144   -0.0110 95.6 178 
 RUS  HZ I         950 33.37         0.8 0.32            147           95.6 178 
 PTB  HZ EP        950 17.36                             130    0.16 9  151 261 
 PTB  HN ES   4    950 35.87                             130   -2.28 0  151 261 
 PTB  HZ I         950 40.12         1.4 0.28            133            151 261 
 ZAR  HE ES        950 48.47                             121   -0.09 8  209 293 
 ZAR  HZ I         950 49.47         0.7 0.10            123            209 293 
                                                                                
