 2010  618 0707  7.3 L   6.743 -73.122146.0  RSN  7 0.5 1.2LRSN                1
 GAP=159        1.14      10.0    15.6 14.8  0.3102E+02 -0.1212E+03 -0.8178E+02E
 Epicentro: JORDAN - SANTANDER                                                 3
 ACTION:UP  10-08-24 10:11 OP:vdl  STATUS:               ID:20100618070707 L   I
 2010-06-18-0706-19S.COL___115                                                 6
 STAT SP IPHASW D HRMM SECON CODA AMPLIT PERI AZIMU VELO SNR AR TRES W  DIS CAZ7
 BAR2 SZ EP        7 7 26.95                             173     0.010   18 202 
 BAR2 SZ ES   1    7 7 42.49                             173     0.3 7   18 202 
 BRR  HZ IP        7 7 28.76                             151    -0.110   77 302 
 BRR  HE ES   1    7 7 45.70                             151     0.1 7   77 302 
 BRR  HZ I         7 7 47.07         5.8 0.37                            77 302 
 BTN  SZ IP        7 7 29.12                             148    -0.810   86   2 
 RUS  HZ EP   2    7 7 31.22                             146     0.6 5   94 177 
 RUS  HE ES   2    7 7 48.23                             146    -0.6 5   94 177 
 RUS  HZ I         7 7 50.56         1.2 0.56                            94 177 
 BRI  SZ EP   1    7 7 31.52                             140    -0.1 7  113  18 
 GUE  SZ EP        7 7 33.36                             138     0.810  122  10 
 GRA  SZ EP        7 7 32.86                             136    -0.210  131  16 
                                                                                
