 2015  918 0312  1.1 L   6.733 -73.142142.1  RSN  7 0.4 1.4LRSN                1
 GAP=140        1.18       5.0     5.0  7.9 -0.1308E+01  0.1035E+02 -0.3370E+01E
 Epicentro: JORDAN - SANTANDER                                                 3
 ACTION:UPD 15-10-28 16:26 OP:cam  STATUS:               ID:20150918031201 L   I
 OLDACT:UP  15-09-18 15:41 OP:mh   STATUS:               ID:20150918030741     3
 OLDACT:UP  15-09-18 15:40 OP:mh   STATUS:               ID:20150918030741     3
 OLDACT:UP  15-09-18 15:39 OP:mh   STATUS:               ID:20150918030741     3
 OLDACT:REG 15-09-18 12:25 OP:mh   STATUS:               ID:20150918030741     3
 2015-09-18-0307-41M.COL___352                                                 6
 STAT SP IPHASW D HRMM SECON CODA AMPLIT PERI AZIMU VELO AIN AR TRES W  DIS CAZ7
 BAR2 EZ EP        312 20.41                             173    0.2910 16.2 196 
 BAR2 EZ ES        312 35.37                             173    0.3810 16.2 196 
 BAR2 EZ I         312 35.84         5.0 0.26            172           16.2 196 
 BRR  HZ EP        312 22.17                             150    0.1110 75.4 303 
 BRR  HN ES        312 39.11                             150    0.6710 75.4 303 
 BRR  HZ I         312 44.41         7.1 0.42            149           75.4 303 
 PAM  EZ EP     D  312 23.34                             148    0.1110 83.0  36 
 PAM  EN ES        312 39.93                             148   -0.6010 83.0  36 
 PAM  EZ I         312 40.46         4.3 0.30            152           83.0  36 
 RUS  HZ EP        312 24.41                             145    0.4910 93.1 176 
 RUS  HN ES        312 40.97                             145   -0.7810 93.1 176 
 RUS  HZ I         312 44.03         3.2 0.38            148           93.1 176 
 PTB  HZ EP        312 27.43                             131   -0.22 9  147 262 
 PTB  HN ES        312 47.77                             131   -0.63 9  147 262 
 PTB  HZ I         312 51.12         3.1 0.22            132            147 262 
 SPBC HN ES        312 50.75                             129    0.38 9  158 221 
 SPBC HZ I         312 52.35         4.8 0.28            131            158 221 
 ZAR  HZ EP        312 33.40                             121   -0.21 8  207 294 
 ZAR  HN ES        312 58.84                             121   -0.16 8  207 294 
 ZAR  HZ I         313  4.69         3.2 0.48            122            207 294 
                                                                                
