 2016  918 0814 11.3 L   6.771 -73.132146.0  RSN  8 0.4 1.6LRSN                1
 GAP=140        0.84       2.9     4.6  5.9 -0.2080E+01 -0.9468E+00  0.2171E+01E
 Epicentro: LOS SANTOS - SANTANDER                                             3
 ACTION:UPD 17-08-17 21:13 OP:lp   STATUS:               ID:20160918081411 L   I
 OLDACT:REG 16-09-18 13:18 OP:y    STATUS:               ID:20160918080733     3
 2016-09-18-0808-00M.COL___354                                                 6
 STAT SP IPHASW D HRMM SECON CODA AMPLIT PERI AZIMU VELO AIN AR TRES W  DIS CAZ7
 BAR2 EZ EP        814 30.88                             172   -0.0610 20.6 196 
 BAR2 EZ ES        814 46.15                             172   -0.0810 20.6 196 
 BAR2 EZ I         814 47.55        22.0 0.28            171           20.6 196 
 BRR  HZ EP     C  814 32.71                             152    0.0410 74.1 300 
 BRR  HE ES        814 49.89                             152    0.5710 74.1 300 
 BRR  HZ I         814 53.63         6.1 0.44            151           74.1 300 
 PAM  EZ EP        814 33.73                             150    0.0610 78.9  37 
 PAM  EE ES   2    814 50.26                             150   -0.82 5 78.9  37 
 PAM  EZ I         814 53.15         4.8 0.38            154           78.9  37 
 RUS  HZ EP        814 34.88                             145    0.0010 97.3 177 
 RUS  HE ES        814 53.08                             145   -0.1610 97.3 177 
 RUS  HZ I         814 54.74         4.1 0.20            146           97.3 177 
 PTB  HZ EP   2    814 37.43                             132   -0.97 5  149 260 
 PTB  HN ES        814 58.87                             132   -0.65 9  149 260 
 PTB  HZ I         815  2.23         3.7 0.10            133            149 260 
 SPBC HZ EP        814 39.45                             129   -0.26 9  162 220 
 SPBC HE ES        815  2.28                             129    0.43 9  162 220 
 SPBC HZ I         815  6.46         8.1 0.40            131            162 220 
 OCA  HZ EP   3    814 40.40                             129    0.42 2  164 353 
 OCA  HN ES        815  2.48                             129    0.16 9  164 353 
 OCA  HZ I         815  4.28         8.2 0.22            131            164 353 
 CHI  HZ EP   2    814 48.98                             118    0.22 4  246 196 
 CHI  HN ES        815 18.37                             118    0.42 8  246 196 
 CHI  HZ I         815 21.72         2.5 0.60            119            246 196 
                                                                                
