 2012  518 0419 55.1 L   7.228 -73.068147.3  RSN  6 0.4 1.7LRSN                1
 GAP=108        0.75       6.8     8.2 12.7  0.2278E+02  0.5185E+02  0.1980E+02E
 Epicentro: RIONEGRO - SANTANDER                                               3
 ACTION:UP  12-07-05 12:06 OP:pat  STATUS:               ID:20120518041955 L   I
 2012-05-18-0420-00M.COL___200                                                 6
 STAT SP IPHASW D HRMM SECON CODA AMPLIT PERI AZIMU VELO SNR AR TRES W  DIS CAZ7
 PAM  SN ES   2    420 32.53                             163     0.6 5   42  73 
 BAR2 SZ EP        420 16.56                             153    -0.210   71 190 
 BAR2 SZ ES   2    420 33.88                             153     0.2 5   71 190 
 BAR2 SZ I         420 38.00         5.5 0.40                            71 190 
 BRR  HZ EP        420 16.67                             152     0.210   72 259 
 BRR  HZ I         420 16.76        17.7 0.32                            72 259 
 OCA  HN ES   2    420 37.96                             140    -0.8 5  115 346 
 RUS  HE ES   2    420 43.87                             133    -0.6 5  148 181 
 ZAR  HZ EP   2    420 27.66                             123     0.5 4  200 279 
 ZAR  HN ES   1    420 52.15                             123    -0.1 6  200 279 
 ZAR  HZ I         420 53.82         4.1 0.10                           200 279 
                                                                                
