 2017  918 0149 52.3 L   6.797 -73.109144.5  RSN  5 0.2 1.5LRSN                1
 GAP=100        0.61       3.3     4.2  4.7  0.9052E-01 -0.5806E+01  0.1075E+01E
 Epicentro: LOS SANTOS - SANTANDER                                             3
 ACTION:UPD 17-10-05 19:13 OP:rebc STATUS:               ID:20170918014952 L   I
 OLDACT:UP  17-09-18 14:38 OP:and  STATUS:               ID:20170918014741     3
 OLDACT:REG 17-09-18 12:34 OP:and  STATUS:               ID:20170918014741     3
 2017-09-18-0148-00M.COL___439                                                 6
 STAT SP IPHASW D HRMM SECON CODA AMPLIT PERI AZIMU VELO AIN AR TRES W  DIS CAZ7
 BAR2 EZ IP     C  150 11.51                             170   -0.2510 24.0 200 
 BAR2 EZ ES        150 26.70                             170   -0.2710 24.0 200 
 BAR2 EZ I         150 27.34         5.3 0.36            171           24.0 200 
 BRR  HZ IP     D  150 13.46                             151   -0.0410 74.9 297 
 BRR  HN ES        150 30.29                             151    0.2310 74.9 297 
 BRR  HZ I         150 34.16         5.1 0.28            150           74.9 297 
 PAM  EZ EP        150 14.43                             151    0.2110 75.2  37 
 PAM  EN ES        150 31.26                             151   -0.0810 75.2  37 
 PAM  EZ I         150 33.46         9.3 0.58            152           75.2  37 
 RUS  HZ EP        150 15.62                             144   -0.2410  100 178 
 RUS  HN ES        150 34.58                             144    0.3210  100 178 
 RUS  HZ I         150 34.93         4.6 0.32            146            100 178 
 TAM  HZ EP        150 19.63                             131    0.15 9  151 105 
                                                                                
