 2013 1018 0701 20.2 L   6.818 -73.130149.2  RSN 10 0.5 1.5LRSN                1
 GAP=202        1.10       3.9     5.7  6.8  0.5578E+01  0.5634E+01  0.4400E+01E
 Epicentro: LOS SANTOS - SANTANDER                                             3
 ACTION:UPD 13-11-25 09:22 OP:ep   STATUS:               ID:20131018070120 L   I
 OLDACT:REG 13-10-18 08:34 OP:jn   STATUS:               ID:20131018065835     3
 2013-10-18-0658-35M.COL___217                                                 6
 STAT SP IPHASW D HRMM SECON CODA AMPLIT PERI AZIMU VELO AIN AR TRES W  DIS CAZ7
 BAR2 SZ EP        7 1 40.36                             170    0.0610 25.6 193 
 BAR2 SZ ES        7 1 56.18                             170    0.2110 25.6 193 
 BAR2 SZ I         7 1 57.99         8.5 0.18            165           25.6 193 
 BRR  HZ EP        7 1 42.32                             153    0.5510 71.8 296 
 BRR  HN ES        7 1 59.36                             153    0.7810 71.8 296 
 BRR  HZ I         7 2  1.89         3.4 0.16            151           71.8 296 
 RUS  HZ EP        7 1 44.40                             144   -0.0310  102 177 
 RUS  HE ES        7 2  2.50                             144   -0.8210  102 177 
 RUS  HZ I         7 2  3.85         1.5 0.60            143            102 177 
 PTB  HZ EP        7 1 47.27                             132   -0.38 9  150 258 
 PTB  HN ES        7 2  8.56                             132   -0.49 9  150 258 
 PTB  HZ I         7 2 15.80         4.3 0.40            131            150 258 
 SPBC HZ EP        7 1 49.29                             129    0.07 9  166 219 
 SPBC HE ES        7 2 11.54                             129   -0.31 9  166 219 
 SPBC HZ I         7 2 18.50         6.4 0.30            128            166 219 
 ZAR  HE ES        7 2 18.01                             123   -0.52 9  205 291 
 NOR  HE ES        7 2 25.35                             119    0.70 8  237 234 
 SML  HE ES        7 2 25.16                             118   -0.39 8  243 335 
 CHI  HZ EP        7 1 58.49                             118    0.13 8  251 195 
 CHI  HE ES        7 2 28.53                             118    0.42 8  251 195 
 CHI  HZ I         7 2 35.52         1.5 0.24            118            251 195 
 PRA  HZ EP        7 2 14.07                             107   -0.08 6  395 210 
 PRA  HE ES   1    7 2 56.44                             107    0.22 4  395 210 
 PRA  HZ I         7 3  0.99         1.2 0.42            108            395 210 
                                                                                
