 2014  918 0446  0.4 L   6.806 -73.118147.2  RSN 10 0.5 2.1LRSN                1
 GAP=158        1.21       5.0     5.3  7.4 -0.4905E+01  0.1205E+02  0.1473E+02E
 Epicentro: LOS SANTOS - SANTANDER                                             3
 ACTION:UPD 14-10-03 23:06 OP:nd   STATUS:               ID:20140918044600 L   I
 OLDACT:DUP 14-09-18 18:24 OP:carl STATUS:               ID:20140918043820d    3
 2014-09-18-0438-19M.COL___287                                                 6
 STAT SP IPHASW D HRMM SECON CODA AMPLIT PERI AZIMU VELO AIN AR TRES W  DIS CAZ7
 BAR2 SZ IP     D  446 20.19                             170   -0.0810 24.6 197 
 BAR2 SZ ES        446 35.93                             170    0.1910 24.6 197 
 BAR2 SZ I         446 36.86        33.8 0.22            167           24.6 197 
 BRR  HZ IP     C  446 22.05                             152    0.1710 73.6 297 
 BRR  HN ES        446 39.63                             152    1.0210 73.6 297 
 BRR  HZ I         446 44.34        13.4 0.16            152           73.6 297 
 PAM  SZ EP        446 23.06                             152    0.3910 75.0  38 
 PAM  SN ES        446 39.18                             152   -0.8310 75.0  38 
 PAM  SZ I         446 42.35        18.9 0.48            158           75.0  38 
 ZAR  HZ EP        446 32.88                             122   -0.37 8  207 292 
 ZAR  HN ES        446 58.02                             122   -0.82 8  207 292 
 ZAR  HZ I         447  4.66        16.2 0.52            124            207 292 
 NOR  HZ EP        446 36.33                             118   -0.23 8  238 235 
 NOR  HN ES        447  4.00                             118   -0.73 8  238 235 
 NOR  HZ I         447 11.22        10.1 0.26            120            238 235 
 CHI  HZ EP        446 38.30                             117   -0.07 8  250 196 
 CHI  HN ES        447  7.64                             117   -0.32 8  250 196 
 CHI  HZ I         447 16.18         4.7 0.66            119            250 196 
 HEL  HZ EP        446 42.18                             115    1.11 8  275 256 
 HEL  HN ES        447 12.48                             115   -0.28 8  275 256 
 HEL  HZ I         447 18.85         6.9 0.32            116            275 256 
 GUY2CHZ EP        446 44.38                             112   -0.06 7  304 235 
 GUY2CHE ES        447 18.90                             112    0.15 7  304 235 
 GUY2CHZ I         447 26.97        10.5 0.76                           304 235 
 TOL  SZ EP        446 49.72                             109    0.67 6  346 225 
 TOL  SN ES        447 27.20                             109    0.23 6  346 225 
 PRA  HZ EP        446 54.07                             107   -0.18 6  394 210 
 PRA  HN ES        447 36.28                             107    0.06 6  394 210 
 PRA  HZ I         447 44.39         5.0 0.40            108            394 210 
                                                                                
