 2016  718 0404 30.8 L   6.790 -73.139148.9  RSN  6 0.6 1.5LRSN                1
 GAP=138        1.41       6.0     6.3 10.4 -0.1548E+01  0.1338E+02  0.3830E+01E
 Epicentro: LOS SANTOS - SANTANDER                                             3
 ACTION:UPD 17-03-29 16:52 OP:lp   STATUS:               ID:20160718040430 L   I
 OLDACT:REG 16-07-18 16:12 OP:ar   STATUS:               ID:20160718035759     3
 2016-07-18-0357-59S.COL___319                                                 6
 STAT SP IPHASW D HRMM SECON CODA AMPLIT PERI AZIMU VELO AIN AR TRES W  DIS CAZ7
 BRR  HZ EP        4 4 52.39                             153    0.0510 72.4 299 
 BRR  HN ES        4 5  9.86                             153    0.7010 72.4 299 
 BRR  HZ I         4 5 12.70         5.9 0.38            152           72.4 299 
 PAM  EZ EP        4 4 53.60                             151    0.2410 77.7  39 
 PAM  EN ES        4 5 10.56                             151   -0.4110 77.7  39 
 PAM  EZ I         4 5 12.85         6.9 0.78            154           77.7  39 
 RUS  HZ EP        4 4 54.34                             145   -0.4310 99.4 176 
 RUS  HN ES        4 5 13.54                             145    0.0710 99.4 176 
 RUS  HZ I         4 5 14.31         2.3 0.32            147           99.4 176 
 PTB  HZ EP        4 4 57.29                             133   -0.77 9  148 259 
 PTB  HN ES        4 5 18.31                             133   -1.02 9  148 259 
 PTB  HZ I         4 5 20.11         3.5 0.54            134            148 259 
 SPBC HZ EP        4 4 59.78                             130    0.29 9  163 219 
 SPBC HN ES        4 5 22.56                             130    0.68 9  163 219 
 SPBC HZ I         4 5 26.90         3.7 0.54            132            163 219 
 ZAR  HZ EP        4 5  4.41                             123    0.86 9  205 292 
 ZAR  HE ES        4 5 28.97                             123   -0.14 9  205 292 
 ZAR  HZ I         4 5 34.82         3.0 0.08            124            205 292 
                                                                                
