 2016  918 0458  9.8 L   6.763 -73.107143.4  RSN  4 0.3 1.5LRSN                1
 GAP=143        0.70       3.7     5.5  5.7 -0.3788E+00 -0.2167E+01  0.6583E+00E
 Epicentro: LOS SANTOS - SANTANDER                                             3
 ACTION:UPD 17-08-17 21:13 OP:lp   STATUS:               ID:20160918045809 L   I
 OLDACT:DUP 16-09-18 21:37 OP:and  STATUS:               ID:20160918044742d    3
 2016-09-18-0448-00M.COL___360                                                 6
 STAT SP IPHASW D HRMM SECON CODA AMPLIT PERI AZIMU VELO AIN AR TRES W  DIS CAZ7
 BAR2 EZ EP        458 29.07                             171   -0.0510 20.7 204 
 BAR2 EZ ES        458 43.66                             171   -0.5110 20.7 204 
 BAR2 EZ I         458 44.81         9.2 0.20            172           20.7 204 
 BRR  HZ EP        458 30.87                             150   -0.1910 76.9 300 
 BRR  HN ES        458 47.90                             150    0.2910 76.9 300 
 BRR  HZ I         458 51.86         5.8 0.11            149           76.9 300 
 PAM  EZ EP        458 31.93                             150    0.1010 78.0  35 
 PAM  EN ES        458 49.08                             150    0.0910 78.0  35 
 PAM  EZ I         458 50.98         8.0 0.52            152           78.0  35 
 RUS  HZ EP        458 32.97                             144   -0.0710 96.3 178 
 RUS  HN ES        458 51.49                             144    0.3510 96.3 178 
 RUS  HZ I         458 52.29         2.8 0.20            147           96.3 178 
                                                                                
