 2017 1218 0721 35.4 L   6.791 -73.201130.0  RSN  4 0.4 1.1LRSN                1
 GAP=179        0.78       3.7     5.9  7.0 -0.1059E+02  0.9491E+01 -0.6485E+01E
 Epicentro: ZAPATOCA - SANTANDER                                               3
 ACTION:UPD 18-01-04 13:21 OP:rebc STATUS:               ID:20171218072135 L   I
 OLDACT:REG 17-12-18 13:09 OP:dhb  STATUS:               ID:20171218071744     3
 2017-12-18-0718-00M.COL___448                                                 6
 STAT SP IPHASW D HRMM SECON CODA AMPLIT PERI AZIMU VELO AIN AR TRES W  DIS CAZ7
 BAR2 EZ EP        721 53.17                             170    0.0510 22.1 175 
 BAR2 EZ ES        722  6.76                             170   -0.1710 22.1 175 
 BAR2 EZ I         722  9.48         2.2 0.30            172           22.1 175 
 PTB  HZ EP   2    721 59.01                             129   -1.54 5  142 259 
 PTB  HE ES        722 20.24                             129    0.09 9  142 259 
 PTB  HZ I         722 22.01         0.7 0.16            131            142 259 
 SPBC HZ EP        722  2.42                             126    0.12 9  159 217 
 SPBC HE ES        722 23.39                             126    0.12 9  159 217 
 SPBC HZ I         722 26.85         2.2 0.40            128            159 217 
 OCA  HZ EP        722  2.86                             126    0.28 9  161 355 
 OCA  HE ES        722 23.70                             126   -0.07 9  161 355 
 OCA  HZ I         722 28.00         3.3 0.22            127            161 355 
                                                                                
