 2012 1118 0731 51.4 L   6.706 -73.202151.8  RSN  4 0.1 1.0LRSN                1
 GAP=222        0.34       3.8     3.8  4.9  0.5987E+01 -0.1465E+00 -0.3020E+01E
 Epicentro: VILLANUEVA - SANTANDER                                             3
 ACTION:UPD 12-12-05 15:34 OP:}ep  STATUS:               ID:20121118073151 L   I
 2012-11-18-0730-00M.COL___234                                                 6
 STAT SP IPHASW D HRMM SECON CODA AMPLIT PERI AZIMU VELO AIN AR TRES W  DIS CAZ7
 BAR2 SZ EP   1    732 11.48                             175   -0.12 7 12.7 170 
 BRR  HZ EP   1    732 13.21                             153   -0.03 7 71.8 308 
 BRR  HN ES   1    732 30.34                             153    0.07 7 71.8 308 
 BRR  HZ I         732 35.89         1.6 0.14                          71.8 308 
 RUS  HN ES   1    732 33.62                             148    0.04 7 90.9 172 
 RUS  HZ I         732 35.10         1.7 0.36                          90.9 172 
 PTB  HZ EP   1    732 18.35                             135    0.16 7  140 263 
 PTB  HN ES   1    732 38.96                             135   -0.12 7  140 263 
 PTB  HZ I         732 41.58         1.7 0.22                           140 263 
                                                                                
