 2015  618 0948 41.6 L   6.794 -73.424112.7  RSN 13 0.4 1.7LRSN                1
 GAP=126        0.91       2.1     3.3  4.8 -0.3288E+00  0.7841E+01  0.3518E+00E
 Epicentro: SAN VICENTE DE CHUCURI - SANTANDER                                 3
 ACTION:UPD 15-09-10 22:13 OP:cam  STATUS:               ID:20150618094841 L   I
 OLDACT:REG 15-06-18 12:50 OP:drio STATUS:               ID:20150618093748     3
 2015-06-18-0937-48M.COL___306                                                 6
 STAT SP IPHASW D HRMM SECON CODA AMPLIT PERI AZIMU VELO AIN AR TRES W  DIS CAZ7
 BAR2 EZ EP        948 58.03                             162    0.3410 34.8 130 
 BAR2 EZ ES        949 10.47                             162    0.2710 34.8 130 
 BAR2 EZ I         949 11.08        41.9 0.20            163           34.8 130 
 BRR  HZ EP        948 57.89                             156    0.0210 47.0 317 
 BRR  HN ES        949 10.74                             156    0.2110 47.0 317 
 BRR  HZ I         949 11.62        23.0 0.14            155           47.0 317 
 RUS  HZ EP        949  2.96                             134    0.1210  107 159 
 RUS  HE ES        949 18.70                             134   -0.6610  107 159 
 RUS  HZ I         949 20.75         7.5 0.22            134            107 159 
 OCA  HZ EP        949  7.53                             121   -0.08 9  160   4 
 OCA  HE ES        949 27.67                             121   -0.19 9  160   4 
 OCA  HZ I         949 28.95        18.4 0.20            123            160   4 
 ZAR  HZ EP        949  9.55                             118    0.43 9  176 296 
 ZAR  HE ES        949 31.27                             118    0.72 9  176 296 
 ZAR  HZ I         949 32.79         9.2 0.50            118            176 296 
 NOR  HZ EP        949 13.04                             113    0.14 8  210 230 
 NOR  HN ES        949 36.46                             113   -0.81 8  210 230 
 NOR  HZ I         949 41.56         4.5 0.22            113            210 230 
 SML  HZ EP        949 15.46                             111    0.02 8  233 342 
 SML  HE ES        949 40.91                             111   -0.89 8  233 342 
 HEL  HZ EP        949 17.27                             110    0.33 8  242 254 
 HEL  HN ES        949 44.03                             110   -0.45 8  242 254 
 HEL  HZ I         949 48.39         4.0 0.28            110            242 254 
 GUY2CHZ EP        949 21.32                             107    0.30 7  276 231 
 GUY2CHN ES        949 51.89                             107    0.16 7  276 231 
 GUY2CHZ I         950  0.85         2.2 0.46                           276 231 
 CBOC HZ EP        949 23.89                             105   -0.04 7  304 250 
 CBOC HN ES        949 56.52                             105   -0.40 7  304 250 
 CBOC HZ I         950  2.06         1.0 0.20            105            304 250 
 TOL  SZ EP        949 26.44                             104    0.19 7  322 221 
 TOL  SN ES        950  1.37                             104    0.33 7  322 221 
 TOL  SZ I         950  7.00         2.6 0.42            104            322 221 
 MON  HZ EP        949 26.99                             103    0.17 7  331 312 
 MON  HN ES        950  1.62                             103   -0.43 7  331 312 
 MON  HZ I         950  2.34         1.8 0.16            104            331 312 
 PRA  HZ EP        949 32.16                             101   -0.29 6  377 206 
 PRA  HE ES        950 12.26                             101    0.18 6  377 206 
 PRA  HZ I         950 21.92         2.0 0.52            101            377 206 
                                                                                
