 2017  418 0156 40.6 L   6.779 -73.130147.2  RSN  8 0.4 1.7LRSN                1
 GAP=139        0.95       4.0     4.0  6.1 -0.2270E+01  0.5979E+01  0.3257E+01E
 Epicentro: LOS SANTOS - SANTANDER                                             3
 ACTION:UPD 17-05-30 21:13 OP:jn   STATUS:               ID:20170418015640 L   I
 OLDACT:REG 17-04-18 12:38 OP:cog  STATUS:               ID:20170418014630     3
 2017-04-18-0148-00M.COL___368                                                 6
 STAT SP IPHASW D HRMM SECON CODA AMPLIT PERI AZIMU VELO AIN AR TRES W  DIS CAZ7
 BAR2 EZ EP        157  0.34                             171   -0.0510 21.4 196 
 BAR2 EZ ES        157 15.66                             171   -0.1510 21.4 196 
 BAR2 EZ I         157 16.95        13.6 0.20            173           21.4 196 
 BRR  HZ EP        157  2.07                             152   -0.0110 73.8 299 
 BRR  HE ES        157 19.45                             152    0.6410 73.8 299 
 BRR  HZ I         157 22.88         9.7 0.17            152           73.8 299 
 PAM  EZ EP        157  3.08                             151    0.0410 78.1  37 
 PAM  EE ES        157 20.66                             151    0.1410 78.1  37 
 PAM  EZ I         157 26.39         7.7 0.60            153           78.1  37 
 RUS  HZ EP        157  4.15                             145   -0.1910 98.1 177 
 RUS  HN ES        157 22.63                             145   -0.2210 98.1 177 
 RUS  HZ I         157 24.52         4.6 0.24            150           98.1 177 
 PTB  HZ EP        157  7.28                             132   -0.54 9  149 260 
 PTB  HN ES        157 28.49                             132   -0.55 9  149 260 
 PTB  HZ I         157 37.87         7.6 0.32            134            149 260 
 SPBC HZ EP        157  9.36                             129    0.19 9  162 220 
 SPBC HN ES        157 31.44                             129    0.01 9  162 220 
 ZAR  HN ES        157 38.57                             122   -0.43 8  207 293 
 NOR  HZ EP        157 17.04                             119    0.60 8  235 235 
 NOR  HN ES        157 45.14                             119    0.76 8  235 235 
                                                                                
