 2010  918 0428 40.2 L   6.843 -73.158148.0  RSN  7 0.5 1.7LRSN                1
 GAP=157        1.13       9.8    17.2 25.5 -0.9842E+02 -0.2738E+02  0.6794E+02E
 Epicentro: LOS SANTOS - SANTANDER                                             3
 ACTION:UP  11-02-18 11:03 OP:tino STATUS:               ID:20100918042840 L   I
 2010-09-18-0426-06S.COL___121                                                 6
 STAT SP IPHASW D HRMM SECON CODA AMPLIT PERI AZIMU VELO SNR AR TRES W  DIS CAZ7
 BTL  SZ EP        429  0.49                             174     0.510   15 305 
 BRR  HZ EP   3    429  2.10                             155     0.6 2   68 296 
 BRR  HZ I         429 15.00        13.3 0.11                            68 296 
 RUS  HZ EP   1    429  4.28                             143    -0.3 7  105 175 
 GUE  SZ EP        429  3.92                             142    -0.910  112  13 
 GRA  SZ EP        429  5.91                             139     0.610  122  19 
 GRA  SZ ES   2    429 24.87                             139    -0.1 5  122  19 
 OCA  SZ EP   2    429  8.72                             132     0.4 5  155 353 
 OCA  SZ ES   2    429 29.98                             132    -0.2 5  155 353 
 OCA  SZ I         429 35.45         4.1 0.26                           155 353 
 NOR  HZ EP   2    429 16.35                             119     0.1 4  237 233 
 NOR  HN ES   2    429 43.96                             119    -0.5 4  237 233 
                                                                                
