 2010  918 0332 53.3 L   6.788 -73.105146.9  RSN  9 0.3 1.8LRSN                1
 GAP=163        0.61       3.1     5.1  5.9 -0.5654E+01  0.2244E+01  0.2229E+01E
 Epicentro: LOS SANTOS - SANTANDER                                             3
 ACTION:UP  11-02-18 11:03 OP:tino STATUS:               ID:20100918033253 L   I
 2010-09-18-0328-23S.COL___121                                                 6
 STAT SP IPHASW D HRMM SECON CODA AMPLIT PERI AZIMU VELO SNR AR TRES W  DIS CAZ7
 BTL  SZ EP        333 13.36                             171     0.310   23 309 
 BRR  HZ EP        333 14.90                             151     0.110   76 298 
 BRR  HE ES   1    333 31.61                             151     0.0 7   76 298 
 BRR  HZ I         333 36.10        18.6 0.24                            76 298 
 RUS  HZ EP        333 16.94                             144    -0.110   99 179 
 RUS  HE ES   1    333 35.58                             144     0.0 7   99 179 
 RUS  HZ I         333 36.34        10.7 0.25                            99 179 
 GUE  SZ EP   2    333 17.15                             139    -1.0 5  117  10 
 GRA  SZ EP        333 18.73                             137     0.110  126  15 
 GRA  SZ ES   1    333 38.26                             137    -0.1 7  126  15 
 GRA  SZ I         333 39.69         6.3 0.33                           126  15 
 OCA  SZ EP   2    333 21.75                             129    -0.1 5  162 352 
 OCA  SZ I         333 53.95         6.5 0.25                           162 352 
 NOR  HZ EP        333 29.46                             118     0.0 8  238 235 
 NOR  HN ES   2    333 56.84                             118    -0.7 4  238 235 
 CHI  HZ EP   2    333 30.95                             117    -0.1 4  249 196 
 CHI  HN ES   3    333 59.99                             117    -0.5 2  249 196 
 CHI  HZ I         334  4.29         2.4 0.34                           249 196 
 RREF HZ EP   2    333 40.27                             111     0.5 3  324 230 
 RREF HN ES   2    334 16.06                             111     0.0 3  324 230 
 RREF HZ I         334 25.18         3.5 0.26                           324 230 
                                                                                
