 2015  218 0628  0.7 L   6.810 -73.163146.2  RSN  9 0.4 1.4LRSN                1
 GAP=144        1.05       3.9     4.8  6.4 -0.5437E+01  0.3990E+01  0.3963E+01E
 Epicentro: LOS SANTOS - SANTANDER                                             3
 ACTION:UPD 15-04-30 21:27 OP:nd   STATUS:               ID:20150218062800 L   I
 OLDACT:UP  15-02-18 19:23 OP:mh   STATUS:               ID:20150218062746     3
 OLDACT:UP  15-02-18 19:22 OP:mh   STATUS:               ID:20150218062746     3
 OLDACT:UP  15-02-18 19:18 OP:mh   STATUS:               ID:20150218062746     3
 OLDACT:REG 15-02-18 12:42 OP:mh   STATUS:               ID:20150218062746     3
 2015-02-18-0627-46M.COL___299                                                 6
 STAT SP IPHASW D HRMM SECON CODA AMPLIT PERI AZIMU VELO AIN AR TRES W  DIS CAZ7
 BAR2 EZ EP   1    628 20.32                             170   -0.07 7 24.1 185 
 BAR2 EZ ES        628 35.34                             170   -0.4110 24.1 185 
 BAR2 EZ I         628 38.50         7.0 0.17            169           24.1 185 
 BRR  HZ EP        628 21.78                             153    0.0210 69.0 298 
 BRR  HN ES        628 38.84                             153    0.6410 69.0 298 
 BRR  HZ I         628 44.12         3.7 0.54            154           69.0 298 
 PAM  SZ EP        628 23.10                             151    0.1310 77.8  41 
 PAM  SN ES        628 40.64                             151    0.2910 77.8  41 
 PAM  SZ I         628 42.91         2.3 0.30            156           77.8  41 
 PTB  HZ EP        628 26.93                             132   -0.61 9  146 258 
 PTB  HN ES        628 47.95                             132   -0.54 9  146 258 
 PTB  HZ I         628 55.78         4.7 0.24            134            146 258 
 OCA  HZ EP        628 29.00                             130    0.09 9  159 354 
 OCA  HN ES        628 50.24                             130   -0.69 9  159 354 
 OCA  HZ I         628 56.23         2.9 0.26            134            159 354 
 SPBC HZ EP        628 29.54                             129    0.35 9  163 218 
 SPBC HN ES        628 51.20                             129   -0.22 9  163 218 
 SPBC HZ I         628 54.31         7.7 0.23            131            163 218 
 ZAR  HN ES        628 58.80                             123    0.70 9  202 292 
 CHI  HZ EP   1    628 38.34                             117   -0.13 6  249 195 
 CHI  HN ES   1    629  8.69                             117    0.75 6  249 195 
 CHI  HZ I         629 17.90         1.2 0.31            120            249 195 
 GUY2CHZ EP        628 44.28                             112    0.07 7  300 234 
 GUY2CHN ES   4    629 19.75                             112    1.59 0  300 234 
 GUY2CHZ I         629 29.42         1.7 0.32                           300 234 
                                                                                
