 2014  218 0432 17.5 L   6.781 -73.137142.2  RSN 11 0.4 2.0LRSN                1
 GAP=138        0.87       3.5     4.0  6.1 -0.2333E+00  0.8443E+01 -0.9633E+00E
 Epicentro: LOS SANTOS - SANTANDER                                             3
 ACTION:UPD 14-03-10 08:11 OP:ep   STATUS:               ID:20140218043217 L   I
 OLDACT:REG 14-02-18 09:10 OP:fm   STATUS:               ID:20140218043000     3
 2014-02-18-0430-00M.COL___212                                                 6
 STAT SP IPHASW D HRMM SECON CODA AMPLIT PERI AZIMU VELO AIN AR TRES W  DIS CAZ7
 BAR2 SZ EP        432 36.61                             171   -0.0610 21.4 193 
 BAR2 SZ ES   1    432 51.23                             171   -0.38 7 21.4 193 
 BAR2 SZ I         432 52.61        31.3 0.37            170           21.4 193 
 PAM  SZ EP     C  432 39.62                             150    0.2110 78.5  38 
 PAM  SN ES        432 56.89                             150    0.4010 78.5  38 
 PAM  SZ I         432 59.21        16.2 0.50            151           78.5  38 
 RUS  HZ EP   1    432 40.76                             144    0.01 7 98.4 177 
 RUS  HN ES        432 59.01                             144    0.1410 98.4 177 
 RUS  HZ I         432 59.86         6.3 0.21            144           98.4 177 
 PTB  HZ EP        432 43.71                             131   -0.52 9  148 260 
 PTB  HN ES        433  4.80                             131   -0.28 9  148 260 
 PTB  HZ I         433  6.36         9.7 0.11            129            148 260 
 SPBC HN ES   2    433  8.03                             129    0.46 5  162 220 
 OCA  HN ES   2    433  6.71                             129   -1.08 5  163 353 
 OCA  HZ I         433 12.50        13.2 0.13            128            163 353 
 ZAR  HZ EP        432 49.76                             122   -0.14 8  206 293 
 ZAR  HN ES        433 15.95                             122    0.79 8  206 293 
 ZAR  HZ I         433 21.53        13.1 0.56            120            206 293 
 SML  HZ EP   1    432 53.49                             117   -0.70 6  246 335 
 SML  HN ES   2    433 23.32                             117    0.52 4  246 335 
 SML  HZ I         433 24.43        14.3 0.10            116            246 335 
 CHI  HZ EP        432 54.79                             117   -0.02 8  247 196 
 CHI  HN ES   4    433 25.49                             117    1.58 0  247 196 
 CHI  HZ I         433 33.86         2.3 0.44            116            247 196 
 URE  HZ EP   4    432 57.87                             113   -0.72 0  285 292 
 URE  HN ES   4    433 27.37                             113   -3.27 0  285 292 
 URE  HZ I         433 37.55         6.6 0.22            112            285 292 
 GUY2CHZ EP   4    433  2.59                             112    1.69 0  301 235 
 PRA  HZ EP   1    433 11.06                             106    0.32 4  391 210 
 PRA  HN ES   4    433 53.89                             106    1.63 0  391 210 
 PRA  HZ I         433 56.95         2.8 0.21            106            391 210 
 SJC  HZ EP   4 D  433 11.60                             105   -1.63 0  412 327 
 SJC  HN ES   4    433 53.22                             105   -3.47 0  412 327 
                                                                                
