 2013  618 0917 24.5 L   6.820 -73.115148.0  RSN 14 0.5 2.5LRSN                1
 GAP=112        0.91       2.9     3.8  5.4 -0.4862E+00  0.3704E+01  0.9048E+00E
 Epicentro: LOS SANTOS - SANTANDER                                             3
 ACTION:UPD 14-01-08 09:55 OP:ep   STATUS:               ID:20130618091724 L   I
 OLDACT:REG 13-06-18 08:29 OP:carl STATUS:               ID:20130618090959     3
 2013-06-18-0909-59M.COL___261                                                 6
 STAT SP IPHASW D HRMM SECON CODA AMPLIT PERI AZIMU VELO AIN AR TRES W  DIS CAZ7
 BAR2 SZ IP     C  917 44.54                             169    0.0710 26.3 197 
 BAR2 SZ ES   1    917 59.31                             169   -0.73 7 26.3 197 
 BAR2 SZ I         918  2.33        66.9 0.38            169           26.3 197 
 GIR2 SZ EP   1    917 44.64                             168    0.23 7 29.9 343 
 GIR2 SZ ES   1    917 59.57                             168   -0.36 7 29.9 343 
 BRR  HZ IP     C  917 46.47                             152    0.4610 73.2 296 
 BRR  HN ES   1    918  3.40                             152    0.61 7 73.2 296 
 BRR  HZ I         918  7.71        69.2 0.16            150           73.2 296 
 RUS  HZ IP     D  917 48.38                             143   -0.2510  103 178 
 RUS  HN ES   1    918  7.50                             143    0.06 7  103 178 
 RUS  HZ I         918  8.20        14.9 0.24            146            103 178 
 TAM  HZ IP     D  917 52.72                             131    0.60 9  152 106 
 TAM  HE ES   1    918 13.68                             131    0.03 7  152 106 
 TAM  HE I         918 15.71        54.0 0.50            136            152 106 
 PTB  HZ EP   4    917 50.97                             132   -1.03 0  152 258 
 PTB  HN ES   4    918 12.48                             132   -0.97 0  152 258 
 PTB  HZ I         918 18.45        66.4 0.30            132            152 258 
 OCA  HZ EP   1    917 52.79                             130   -0.04 7  158 352 
 OCA  HE ES   1    918 15.09                             130    0.17 7  158 352 
 OCA  HZ I         918 19.72        26.8 0.26            132            158 352 
 NOR  HZ EP   1    918  0.67                             118   -0.14 6  239 235 
 NOR  HN ES   1    918 28.35                             118   -0.77 6  239 235 
 NOR  HZ I         918 36.38        28.5 0.56            119            239 235 
 SML  HZ EP   1    918  0.69                             118   -0.51 6  243 334 
 SML  HN ES   1    918 29.29                             118   -0.53 6  243 334 
 SML  HZ I         918 37.07        41.1 0.26            119            243 334 
 CHI  HZ EP   1    918  2.65                             117   -0.02 6  252 196 
 CHI  HN ES   1    918 31.75                             117   -0.68 6  252 196 
 CHI  HZ I         918 39.64        15.7 0.54            119            252 196 
 ROSC BZ EP   4    918  3.63                             117    0.48 0  256 211 
 ROSC BN ES   4    918 33.57                             117    0.27 0  256 211 
 HEL  HZ EP   1    918  6.38                             115    1.11 6  276 256 
 HEL  HN ES   1    918 37.62                             115    0.56 6  276 256 
 HEL  HZ I         918 43.20        14.8 0.36            116            276 256 
 GUY2CHZ EP   1    918  8.90                             112    0.22 5  305 235 
 GUY2CHN ES   1    918 43.74                             112    0.60 5  305 235 
 COD  HZ EP   1    918 12.08                             109   -0.68 5  346 354 
 COD  HN ES   1    918 49.47                             109   -0.92 5  346 354 
 COD  HZ I         918 54.40         6.8 0.32            111            346 354 
 PRA  HZ EP   1    918 18.06                             107   -0.47 4  396 210 
 PRA  HN ES   1    919  0.05                             107   -0.62 4  396 210 
 PRA  HZ I         919  3.17        16.2 0.74            108            396 210 
                                                                                
