 2016  318 0529 10.6 L   6.828 -73.159140.1  RSN  8 0.3 1.7LRSN                1
 GAP=182        0.66       3.4     3.8  4.9  0.3549E+01  0.3274E+01  0.9254E+00E
 Epicentro: LOS SANTOS - SANTANDER                                             3
 ACTION:UPD 16-05-13 21:25 OP:cam  STATUS:               ID:20160318052910 L   I
 OLDACT:UP  16-03-18 16:57 OP:dnl  STATUS:               ID:20160318052746     3
 OLDACT:REG 16-03-18 13:06 OP:dnl  STATUS:               ID:20160318052746     3
 2016-03-18-0527-46M.COL___309                                                 6
 STAT SP IPHASW D HRMM SECON CODA AMPLIT PERI AZIMU VELO AIN AR TRES W  DIS CAZ7
 BAR2 EZ EP        529 29.87                             169    0.2910 26.2 186 
 BAR2 EZ ES        529 44.35                             169   -0.0610 26.2 186 
 BAR2 EZ I         529 47.32        13.1 0.24            167           26.2 186 
 RUS  HZ EP        529 34.24                             142    0.2410  104 175 
 RUS  HE ES   2    529 52.25                             142   -0.04 5  104 175 
 RUS  HZ I         529 53.55         5.7 0.26            143            104 175 
 PTB  HZ EP        529 36.33                             131   -0.67 9  147 258 
 PTB  HN ES        529 57.52                             131   -0.11 9  147 258 
 PTB  HZ I         529 59.54         5.7 0.13            131            147 258 
 OCA  HZ EP   2    529 37.56                             129   -0.57 5  157 354 
 OCA  HN ES   4    529 56.48                             129   -3.15 0  157 354 
 SPBC HZ EP        529 38.92                             128    0.14 9  165 218 
 SPBC HE ES        530  0.86                             128    0.07 9  165 218 
 SPBC HZ I         530  7.99         4.6 0.11            128            165 218 
 ZAR  HZ EP   2    529 42.66                             121    0.28 4  202 291 
 ZAR  HE ES        530  7.45                             121    0.25 9  202 291 
 ZAR  HZ I         530 13.60         7.0 0.30            123            202 291 
 CHI  HZ EP   2    529 47.98                             116   -0.26 4  251 195 
 CHI  HN ES        530 17.40                             116   -0.24 8  251 195 
 CHI  HZ I         530 20.10         2.6 0.35            117            251 195 
 GUY2CHZ EP        529 54.24                             111    0.25 7  302 234 
 GUY2CHN ES   4    530 29.78                             111    1.92 0  302 234 
 GUY2CHZ I         530 37.95         2.6 0.27                           302 234 
                                                                                
