 2016  218 0804 15.9 L   5.940 -73.724122.0  RSN  8 0.3 1.1LRSN                1
 GAP= 86        0.84       2.4     3.1  5.5 -0.5728E-01  0.2407E+01 -0.1751E+01E
 Epicentro: GUAVATA - SANTANDER                                                3
 ACTION:UPD 16-03-04 21:27 OP:rebc STATUS:               ID:20160218080415 L   I
 OLDACT:DUP 16-02-18 16:24 OP:drio STATUS:               ID:20160218075744d    3
 2016-02-18-0757-42M.COL___327                                                 6
 STAT SP IPHASW D HRMM SECON CODA AMPLIT PERI AZIMU VELO AIN AR TRES W  DIS CAZ7
 SPBC HZ EP        8 4 33.60                             156    0.1310 50.0 231 
 SPBC HN ES        8 4 47.25                             156    0.0910 50.0 231 
 SPBC HZ I         8 4 48.44         3.6 0.10            157           50.0 231 
 RUS  HZ EP        8 4 35.28                             148    0.0310 71.1  94 
 RUS  HN ES        8 4 50.21                             148   -0.1310 71.1  94 
 BAR2 EZ EP        8 4 36.94                             140    0.4210 93.8  40 
 BAR2 EZ ES        8 4 52.47                             140   -0.1210 93.8  40 
 PTB  HZ EP        8 4 37.17                             136    0.0710  105 309 
 PTB  HE ES        8 4 53.98                             136    0.3510  105 309 
 BRR  HZ EP        8 4 39.65                             130    0.4010  129   1 
 BRR  HE ES        8 4 57.53                             130    0.0910  129   1 
 BRR  HZ I         8 4 58.60         3.1 0.42            130            129   1 
 CHI  HZ EP        8 4 41.26                             127   -0.05 9  145 180 
 CHI  HN ES        8 5  0.71                             127   -0.40 9  145 180 
 CHI  HZ I         8 5  4.69         1.0 0.24            127            145 180 
 PAM  EZ EP   4    8 4 47.59                             119    1.36 0  192  36 
 PAM  EE ES        8 5  9.58                             119   -0.29 9  192  36 
 PAM  EZ I         8 5 15.81         0.9 0.22            118            192  36 
 ZAR  HZ EP        8 4 47.89                             115    0.02 8  213 324 
 ZAR  HE ES        8 5 11.83                             115   -0.97 8  213 324 
 ZAR  HZ I         8 5 14.04         3.2 0.26            116            213 324 
                                                                                
