 2013  618 0101 28.3 L   7.455 -73.352122.0  RSN 10 0.3 2.2LRSN                1
 GAP=121        0.65       2.5     3.0  5.2  0.1656E+01  0.5658E+00  0.1290E+01E
 Epicentro: EL PLAYON - SANTANDER                                              3
 ACTION:UPD 14-01-08 09:55 OP:ep   STATUS:               ID:20130618010128 L   I
 OLDACT:REG 13-06-18 07:19 OP:carl STATUS:               ID:20130618005959     3
 2013-06-18-0059-59M.COL___261                                                 6
 STAT SP IPHASW D HRMM SECON CODA AMPLIT PERI AZIMU VELO AIN AR TRES W  DIS CAZ7
 GIR2 SZ IP     D  1 1 45.61                             158   -0.1010 45.1 157 
 GIR2 SZ ES   2    1 1 59.21                             158   -0.07 5 45.1 157 
 GIR2 SZ I         1 2  0.42        15.8 0.20            159           45.1 157 
 BRR  HZ IP     C  1 1 46.33                             154    0.3210 55.4 226 
 BRR  HE ES   1    1 2  0.46                             154    0.65 7 55.4 226 
 BRR  HZ I         1 2  0.89        75.5 0.14            151           55.4 226 
 OCA  HZ EP   2    1 1 48.16                             142   -0.10 5 86.7   2 
 OCA  HN ES   1    1 2  3.97                             142    0.15 7 86.7   2 
 OCA  HZ I         1 2  6.13        36.6 0.46            144           86.7   2 
 BAR2 SZ EP        1 1 49.21                             139    0.0110 97.3 169 
 BAR2 SZ ES   1    1 2  4.99                             139   -0.49 7 97.3 169 
 BAR2 SZ I         1 2  6.25       110.7 0.16            140           97.3 169 
 PTB  HZ EP        1 1 54.75                             124    0.20 9  159 230 
 PTB  HN ES   1    1 2 14.38                             124   -0.63 7  159 230 
 PTB  HZ I         1 2 19.82        11.9 0.28            123            159 230 
 SML  HZ EP   1    1 1 55.50                             122   -0.05 7  169 332 
 SML  HN ES   1    1 2 16.27                             122   -0.52 7  169 332 
 SML  HZ I         1 2 18.49        52.0 0.10            122            169 332 
 RUS  HZ EP   1    1 1 56.56                             121   -0.33 7  175 170 
 RUS  HN ES   2    1 2 18.71                             121   -0.47 4  175 170 
 RUS  HZ I         1 2 21.63         4.2 0.52            122            175 170 
 TAM  HZ EP   2    1 1 59.65                             116    0.05 4  206 123 
 TAM  HE ES        1 2 24.14                             116    0.15 8  206 123 
 HEL  HZ EP   2    1 2  8.46                             109    0.30 4  278 240 
 HEL  HN ES   2    1 2 39.62                             109    0.39 4  278 240 
 HEL  HZ I         1 2 45.72         6.0 0.36            109            278 240 
 CHI  HE ES   2    1 2 47.45                             106    0.47 3  315 188 
                                                                                
