 2016  718 0037 33.7 L   6.750 -73.135143.2  RSN 14 0.4 2.0LRSN                1
 GAP= 95        0.93       3.4     2.4  4.7 -0.1194E+00  0.2606E+01  0.2802E+01E
 Epicentro: LOS SANTOS - SANTANDER                                             3
 ACTION:UPD 17-03-29 16:52 OP:lp   STATUS:               ID:20160718003733 L   I
 OLDACT:UP  16-07-18 16:49 OP:ar   STATUS:               ID:20160718002760d    3
 OLDACT:DUP 16-07-18 16:32 OP:ar   STATUS:               ID:20160718002760d    3
 2016-07-18-0027-59S.COL___319                                                 6
 STAT SP IPHASW D HRMM SECON CODA AMPLIT PERI AZIMU VELO AIN AR TRES W  DIS CAZ7
 BAR2 EZ IP     C  037 52.80                             172   -0.1410 18.2 197 
 BAR2 EZ ES        038  7.71                             172   -0.2310 18.2 197 
 BAR2 EZ I         038  9.79        21.6 0.20            171           18.2 197 
 BRR  HZ IP     C  037 54.77                             151   -0.0310 75.1 302 
 BRR  HE ES        038 11.99                             151    0.7310 75.1 302 
 BRR  HZ I         038 15.96        16.9 0.14            149           75.1 302 
 PAM  EZ EP        037 55.72                             149   -0.1510 81.0  36 
 PAM  EN ES        038 12.74                             149   -0.4210 81.0  36 
 PAM  EZ I         038 13.18        17.9 0.34            152           81.0  36 
 RUS  HZ EP        037 56.71                             145   -0.0910 95.0 177 
 RUS  HE ES        038 14.71                             145   -0.1110 95.0 177 
 RUS  HZ I         038 15.79         9.6 0.40            147           95.0 177 
 PTB  HZ EP        037 59.58                             131   -0.91 9  148 261 
 PTB  HN ES        038 21.28                             131   -0.10 9  148 261 
 PTB  HZ I         038 23.41        19.9 0.30            131            148 261 
 TAM  HZ EP        038  0.92                             130   -0.03 9  153 103 
 TAM  HE ES        038 22.74                             130    0.55 9  153 103 
 SPBC HZ EP        038  1.88                             129    0.20 9  160 221 
 SPBC HE ES        038 23.64                             129    0.14 9  160 221 
 SPBC HZ I         038 25.43        13.9 0.10            129            160 221 
 ZAR  HZ EP        038  6.27                             121   -0.06 8  207 293 
 ZAR  HN ES        038 32.19                             121    0.42 8  207 293 
 ZAR  HZ I         038 39.63        13.7 0.48            121            207 293 
 NOR  HZ EP        038  9.40                             118    0.35 8  233 236 
 NOR  HN ES        038 36.97                             118    0.35 8  233 236 
 NOR  HZ I         038 43.73        10.2 0.22            119            233 236 
 HEL  HZ EP        038 14.09                             114    0.31 8  272 257 
 HEL  HN ES        038 44.48                             114   -0.55 8  272 257 
 HEL  HZ I         038 51.78         7.4 0.52            115            272 257 
 URE  HE E         040 19.52                                            287 293 
 GUY2CHZ EP   4    038 18.29                             112    1.34 0  299 236 
 GUY2CHE ES   4    038 53.92                             112    3.24 0  299 236 
 GUY2CHZ I         039  0.09         7.6 0.66                           299 236 
 PTGC HZ EP        038 17.14                             111    0.33 7  303 158 
 PTGC HE ES   2    038 49.43                             111   -1.00 4  303 158 
 CBOC HZ EP        038 20.81                             109    0.35 7  333 253 
 CBOC HE ES        038 56.48                             109   -0.44 7  333 253 
 CBOC HZ I         039  3.17         2.2 0.19            110            333 253 
                                                                                
