 2016  918 0436 46.8 L   6.823 -73.155149.5  RSN 25 0.4 2.8LRSN                1
 GAP= 53        0.99       2.5     2.6  4.3 -0.8494E+00  0.1151E+01  0.1110E+01E
 Epicentro: LOS SANTOS - SANTANDER                                             3
 ACTION:UPD 17-08-17 21:13 OP:lp   STATUS:               ID:20160918043646 L   I
 OLDACT:UP  16-09-18 21:16 OP:and  STATUS:               ID:20160918042734     3
 OLDACT:REG 16-09-18 13:03 OP:y    STATUS:               ID:20160918042734     3
 2016-09-18-0428-00M.COL___360                                                 6
 STAT SP IPHASW D HRMM SECON CODA AMPLIT PERI AZIMU VELO AIN AR TRES W  DIS CAZ7
 BAR2 EZ EP        437  7.03                             170    0.0910 25.7 187 
 BAR2 EZ ES        437 22.06                             170   -0.5710 25.7 187 
 BAR2 EZ I         437 23.24       255.0 0.24            169           25.7 187 
 BRR  HZ IP     C  437  8.82                             154    0.5710 69.1 297 
 BRR  HN ES        437 25.34                             154    0.3710 69.1 297 
 BRR  HZ I         437 29.01       111.4 0.28            151           69.1 297 
 PAM  EZ EP        437  9.82                             152    0.4810 76.1  41 
 PAM  EN ES        437 27.05                             152    0.1310 76.1  41 
 PAM  EZ I         437 29.19       150.5 0.46            154           76.1  41 
 RUS  HZ EP        437 11.00                             144   -0.1210  103 176 
 RUS  HN ES        437 29.89                             144   -0.1910  103 176 
 RUS  HZ I         437 30.76       134.0 0.28            144            103 176 
 PTB  HZ EP        437 13.49                             133   -0.55 9  147 258 
 PTB  HN ES        437 34.61                             133   -0.67 9  147 258 
 PTB  HZ I         437 41.81        97.4 0.30            131            147 258 
 TAM  HZ EP        437 15.42                             131    0.49 9  157 106 
 TAM  HN ES        437 37.20                             131    0.33 9  157 106 
 OCA  HZ EP        437 15.25                             131    0.09 9  158 353 
 OCA  HN ES        437 36.99                             131   -0.29 9  158 353 
 SPBC HZ EP     C  437 15.71                             130   -0.02 9  165 218 
 SPBC HN ES        437 38.76                             130    0.48 9  165 218 
 SPBC HZ I         437 42.40       147.3 0.24            128            165 218 
 ZAR  HZ EP        437 19.50                             123    0.19 9  202 292 
 ZAR  HE ES        437 44.64                             123   -0.01 9  202 292 
 ZAR  HZ I         437 47.48        55.7 0.10            122            202 292 
 NOR  HZ EP        437 22.94                             119    0.11 8  235 234 
 NOR  HN ES        437 50.73                             119   -0.20 8  235 234 
 NOR  HZ I         437 55.74        56.6 0.22            118            235 234 
 CHI  HZ EP        437 25.21                             118    0.25 8  251 195 
 CHI  HN ES        437 54.45                             118   -0.26 8  251 195 
 CHI  HZ I         437 57.78        49.4 0.36            117            251 195 
 ROSC BZ EP   4    437 26.88                             117    1.56 0  254 211 
 ROSC BN ES   4    437 57.65                             117    2.29 0  254 211 
 ROSC BZ I         438  1.63        79.4 0.35            117            254 211 
 HEL  HZ EP   4    437 28.60                             116    1.42 0  272 255 
 HEL  HN ES        437 59.33                             116    0.66 8  272 255 
 HEL  HZ I         438  4.98        41.7 0.28            115            272 255 
 URE  HZ EP   4    437 26.40                             114   -1.45 0  282 291 
 URE  HN ES   4    437 58.03                             114   -1.84 0  282 291 
 URE  HZ I         438  4.70        46.1 0.16            114            282 291 
 SOCV BZ EP        437 29.76                             113   -0.20 7  301  57 
 SOCV BN ES   4    438  1.44                             113   -2.18 0  301  57 
 GUY2CHZ EP        437 31.24                             113    0.57 7  302 234 
 GUY2CHN ES   4    438  6.70                             113    1.82 0  302 234 
 GUY2CHZ I         438 12.97        35.8 0.26                           302 234 
 VIL  EZ EP        437 30.73                             112    0.07 7  306 191 
 VIL  EN ES        438  4.42                             112   -0.44 7  306 191 
 VIL  EZ I         438 13.53        47.6 0.66            112            306 191 
 PTGC HZ IP     D  437 30.15                             112   -1.00 7  311 159 
 PTGC HN ES   4    438  3.72                             112   -2.01 0  311 159 
 PTGC HZ I         438  5.49        38.3 0.46            112            311 159 
 LL6C HZ EP        437 31.55                             111   -0.82 7  322 358 
 LL6C HN ES   4    438  9.22                             111    1.31 0  322 358 
 LL6C HZ I         438 13.05        19.1 0.40            111            322 358 
 CBOC HZ EP   4    437 35.41                             111    1.55 0  333 252 
 CBOC HN ES   4    438  9.64                             111   -0.93 0  333 252 
 CBOC HZ I         438 15.38        11.2 0.36            110            333 252 
 ARGC HZ EP   4    437 37.23                             109    0.94 0  356 340 
 ARGC HN ES   4    438 16.87                             109    1.99 0  356 340 
 ARGC HZ I         438 27.25        10.3 0.24            109            356 340 
 PAL  HZ EP        437 42.56                             106    0.41 6  406 239 
 PAL  HN ES        438 25.30                             106   -0.02 6  406 239 
 PAL  HZ I         438 28.97        14.0 0.42            106            406 239 
 SJC  HZ EP        437 41.21                             106   -0.97 6  407 327 
 SJC  HN ES   4    438 21.47                             106   -3.89 0  407 327 
 SJC  HZ I         438 27.15         7.9 0.27            106            407 327 
 CRJC HZ EP   4    437 47.31                             104   -1.81 0  465   4 
 CRJC HN ES   4    438 34.20                             104   -3.51 0  465   4 
 CRJC HZ I         438 38.23        18.0 0.22            104            465   4 
 MACC HZ EP   4    437 53.89                             102   -2.01 0  523 188 
 MACC HN ES   4    438 46.44                             102   -3.35 0  523 188 
 MACC HZ I         439  5.97         8.5 0.64            102            523 188 
                                                                                
