 2012  818 0514 11.2 L   6.777 -73.051139.2  RSN  4 0.2 1.4LRSN                1
 GAP=245        0.52       8.5     8.1  9.7  0.5576E+02 -0.1444E+02 -0.3708E+02E
 Epicentro: LOS SANTOS - SANTANDER                                             3
 ACTION:UPD 12-09-10 11:56 OP:ep   STATUS:               ID:20120818051411 L   I
 2012-08-18-0510-00M.COL___217                                                 6
 STAT SP IPHASW D HRMM SECON CODA AMPLIT PERI AZIMU VELO AIN AR TRES W  DIS CAZ7
 BAR2 SZ EP   1    514 30.29                             169    0.17 9 25.0 215 
 BAR2 SZ I         514 30.66         7.0 0.07                          25.0 215 
 BAR2 SZ ES   2    514 45.02                             169    0.18 6 25.0 215 
 BRR  HZ EP   1    514 31.90                             148   -0.43 9 81.6 297 
 BRR  HZ I         514 49.96         8.6 0.09                          81.6 297 
 RUS  HZ EP   1    514 34.37                             143    0.22 9 97.9 182 
 RUS  HZ I         514 35.01         1.9 0.19                          97.9 182 
 RUS  HN ES   1    514 51.83                             143   -0.19 9 97.9 182 
 ZAR  HE ES        515 10.35                             119    0.1110  215 292 
                                                                                
