 2011  918 0026 31.8 L   6.843 -73.087139.8  RSN  8 0.5 1.6LRSN                1
 GAP=142        0.98       5.6     8.4 10.1  0.5113E-01  0.1332E+02 -0.1064E+02E
 Epicentro: LOS SANTOS - SANTANDER                                             3
 ACTION:UPD 12-07-13 15:58 OP:ep   STATUS:               ID:20110918002631 L   I
 2011-09-18-0026-34S.COL___171                                                 6
 STAT SP IPHASW D HRMM SECON CODA AMPLIT PERI AZIMU VELO AIN AR TRES W  DIS CAZ7
 BTL  SZ EP        026 50.80                             171    0.1110 21.6 293 
 GIR2 SZ EP        026 50.27                             168   -0.4310 28.6 336 
 BAR2 SZ EP        026 51.25                             167    0.3810 29.6 201 
 BAR2 SZ ES   2    027  4.46                             167   -1.28 5 29.6 201 
 BAR2 SZ I         027  9.05         9.3 0.64                          29.6 201 
 PAM  SZ EP        026 53.43                             152    0.5010 69.6  38 
 PAM  SN ES   1    027  9.61                             152    0.20 7 69.6  38 
 BRR  HZ EP        026 52.34                             150   -0.2010 75.0 293 
 BRR  HZ I         026 54.15         9.3 0.14                          75.0 293 
 BRR  HE ES   2    027  9.02                             150    0.31 5 75.0 293 
 RUS  HZ EP        026 55.26                             141   -0.0510  105 180 
 RUS  HE ES   1    027 13.69                             141    0.04 7  105 180 
 RUS  HZ I         027 15.86         2.9 0.30                           105 180 
 OCA  SZ EP        026 58.79                             129   -0.51 9  156 351 
 OCA  SZ I         027 25.31         8.2 0.63                           156 351 
 ZAR  HN ES   2    027 30.91                             120    1.23 4  208 290 
                                                                                
