 2011  218 0812  9.9 L   6.773 -73.198139.6  RSN  7 0.2 2.2LRSN                1
 GAP=153        0.56       2.5     4.2  5.2 -0.6097E+01  0.9820E+01 -0.4566E+01E
 Epicentro: VILLANUEVA - SANTANDER                                             3
 ACTION:UP  11-03-28 15:09 OP:jfem STATUS:               ID:20110218081209 L   I
 2011-02-18-0808-11S.COL___143                                                 6
 STAT SP IPHASW D HRMM SECON CODA AMPLIT PERI AZIMU VELO SNR AR TRES W  DIS CAZ7
 BAR2 SZ EP        812 28.97                             171     0.210   20 175 
 BAR2 SZ ES   1    812 43.61                             171     0.2 7   20 175 
 BAR2 SZ I         812 46.42        48.7 0.48                            20 175 
 RUS  HZ EP        812 32.95                             143     0.110   98 173 
 RUS  HN ES        812 50.50                             143    -0.310   98 173 
 RUS  HZ I         812 52.85        22.2 0.38                            98 173 
 GRA  SZ EP        812 34.98                             134     0.010  130  19 
 GRA  SZ ES   1    812 54.74                             134     0.1 7  130  19 
 GRA  SZ I         812 55.96        22.0 0.46                           130  19 
 OCA  SZ EP        812 37.78                             128    -0.2 9  163 355 
 OCA  SZ ES   2    812 59.63                             128    -0.2 5  163 355 
 OCA  SZ I         813  3.96        21.8 0.17                           163 355 
 NOR  SN ES        813 11.81                             118     0.1 8  228 234 
 CHI  HZ EP   1    812 47.05                             116     0.3 6  244 194 
 CHI  HZ I         812 49.77         7.0 0.37                           244 194 
 RREF HN ES        813 30.08                             110    -0.2 7  315 229 
                                                                                
