 2017  118 0951 27.6 L   6.802 -73.111150.5  RSN 10 0.4 1.8LRSN                1
 GAP=122        0.83       3.2     3.7  4.7  0.9955E+00  0.5070E+01  0.4246E+01E
 Epicentro: LOS SANTOS - SANTANDER                                             3
 ACTION:UPD 17-05-22 16:00 OP:jn   STATUS:               ID:20170118095127 L   I
 OLDACT:UP  17-01-18 16:52 OP:dani STATUS:               ID:20170118094740     3
 OLDACT:REG 17-01-18 13:03 OP:dani STATUS:               ID:20170118094740     3
 2017-01-18-0948-00M.COL___325                                                 6
 STAT SP IPHASW D HRMM SECON CODA AMPLIT PERI AZIMU VELO AIN AR TRES W  DIS CAZ7
 BAR2 EZ EP     D  951 47.80                             170   -0.0010 24.5 199 
 BAR2 EZ ES        952  3.35                             170   -0.2210 24.5 199 
 BAR2 EZ I         952  5.90        11.9 0.34            167           24.5 199 
 BRR  HZ EP        951 49.62                             152    0.2010 74.5 297 
 BRR  HE ES        952  6.63                             152    0.1710 74.5 297 
 BRR  HZ I         952 12.08        11.1 0.33            153           74.5 297 
 PAM  EZ EP        951 50.66                             152    0.5110 74.8  37 
 PAM  EE ES        952  7.69                             152   -0.0710 74.8  37 
 PAM  EZ I         952  8.97         6.0 0.18            158           74.8  37 
 RUS  HZ EP        951 51.69                             145   -0.1110  101 178 
 RUS  HE ES        952 10.70                             145    0.0110  101 178 
 RUS  HZ I         952 14.51         3.3 0.32            145            101 178 
 PTB  HZ EP        951 55.32                             132    0.04 9  152 259 
 PTB  HN ES   3    952 15.89                             132   -0.99 2  152 259 
 PTB  HZ I         952 17.94        10.1 0.38            133            152 259 
 ZAR  HZ EP        952  0.33                             123   -0.36 8  208 292 
 ZAR  HN ES        952 26.04                             123   -0.47 8  208 292 
 ZAR  HZ I         952 32.69        10.3 0.48            125            208 292 
 NOR  HZ EP        952  3.60                             119   -0.33 8  238 235 
 NOR  HE ES        952 32.64                             119    0.35 8  238 235 
 NOR  HZ I         952 35.55         8.2 0.19            120            238 235 
 CHI  HZ EP        952  5.84                             118    0.16 8  250 196 
 CHI  HN ES        952 35.50                             118    0.11 8  250 196 
 CHI  HZ I         952 43.49         2.4 0.45            119            250 196 
 GUY2CHZ EP        952 12.60                             113    0.82 7  304 235 
 GUY2CHE ES   4    952 48.54                             113    2.29 0  304 235 
 GUY2CHZ I         952 57.30         4.3 0.70                           304 235 
 PTGC HZ EP        952 10.60                             112   -0.92 7  308 159 
 PTGC HN ES   4    952 43.13                             112   -2.66 0  308 159 
 PTGC HZ I         952 50.29         4.1 0.38            114            308 159 
                                                                                
