 2011  218 0752 24.7 L   6.795 -73.176140.5  RSN  5 0.2 1.5LRSN                1
 GAP=155        0.62       4.0    16.1  7.3 -0.2916E+02  0.3579E+02 -0.1515E+02E
 Epicentro: LOS SANTOS - SANTANDER                                             3
 ACTION:UP  11-03-28 15:09 OP:jfem STATUS:               ID:20110218075224 L   I
 2011-02-18-0750-21S.COL___137                                                 6
 STAT SP IPHASW D HRMM SECON CODA AMPLIT PERI AZIMU VELO SNR AR TRES W  DIS CAZ7
 BTL  SZ EP        752 43.89                             173     0.310   17 324 
 BAR2 SZ EP        752 43.62                             170     0.010   23 182 
 BAR2 SZ ES   1    752 58.10                             170    -0.4 7   23 182 
 BAR2 SZ I         752 59.54         7.6 0.12                            23 182 
 RUS  HZ EP   1    752 47.65                             143    -0.2 7  100 174 
 RUS  HN ES   1    753  6.20                             143     0.2 7  100 174 
 RUS  HZ I         753  7.44         3.3 0.35                           100 174 
 GRA  SZ EP        752 49.50                             135    -0.110  127  19 
 GRA  SZ I         752 50.88         5.0 0.24                           127  19 
 GRA  SZ ES   1    753  9.13                             135     0.1 7  127  19 
 OCA  SZ EP        752 52.49                             128    -0.1 9  160 354 
 OCA  SZ I         753 20.32         6.7 0.28                           160 354 
                                                                                
