 2016  118 0901  2.4 L   6.752 -73.170127.9  RSN  4 0.4 1.0LRSN                1
 GAP=136        0.91       4.5     4.2 10.5 -0.1005E+01  0.1746E+02 -0.2789E+01E
 Epicentro: LOS SANTOS - SANTANDER                                             3
 ACTION:UPD 16-03-09 23:26 OP:cam  STATUS:               ID:20160118090102 L   I
 OLDACT:REG 16-01-18 12:57 OP:mh   STATUS:               ID:20160118085735     3
 2016-01-18-0857-35M.COL___319                                                 6
 STAT SP IPHASW D HRMM SECON CODA AMPLIT PERI AZIMU VELO AIN AR TRES W  DIS CAZ7
 PAM  EZ EP        9 1 22.67                             145   -0.5210 83.2  39 
 PAM  EN ES        9 1 39.74                             145    0.3710 83.2  39 
 PAM  EZ I         9 1 42.39         3.6 0.70            151           83.2  39 
 RUS  HZ EP        9 1 24.31                             141    0.2210 95.5 174 
 RUS  HN ES        9 1 40.69                             141   -0.2910 95.5 174 
 RUS  HZ I         9 1 44.59         1.1 0.24            146           95.5 174 
 PTB  HZ EP        9 1 28.13                             128    0.46 9  144 261 
 PTB  HN ES        9 1 47.44                             128    0.09 9  144 261 
 PTB  HZ I         9 1 50.57         1.4 0.09            132            144 261 
 ZAR  HN ES        9 1 57.80                             118   -0.37 9  204 294 
 ZAR  HZ I         9 2  1.20         0.9 0.34            123            204 294 
                                                                                
