 2017  118 0542 16.7 L   6.826 -73.509121.2  RSN  4 0.4 1.0LRSN                1
 GAP=161        1.04       7.3     5.9  8.7  0.1876E+02  0.9477E+01  0.1627E+02E
 Epicentro: SAN VICENTE DE CHUCURI - SANTANDER                                 3
 ACTION:UPD 17-05-22 16:00 OP:jn   STATUS:               ID:20170118054216 L   I
 OLDACT:REG 17-01-18 12:50 OP:dani STATUS:               ID:20170118053740     3
 2017-01-18-0538-00M.COL___331                                                 6
 STAT SP IPHASW D HRMM SECON CODA AMPLIT PERI AZIMU VELO AIN AR TRES W  DIS CAZ7
 BRR  HZ EP        542 33.77                             161    0.2810 38.4 324 
 BRR  HE ES        542 46.93                             161    0.3310 38.4 324 
 BRR  HZ I         542 51.64         4.2 0.44            159           38.4 324 
 BAR2 EZ EP        542 33.76                             159   -0.3410 44.4 126 
 BAR2 EZ ES        542 47.18                             159   -0.5010 44.4 126 
 BAR2 EZ I         542 48.21         2.0 0.14            165           44.4 126 
 PTB  HZ EP        542 38.41                             135    0.2210  109 253 
 PTB  HN ES        542 54.62                             135   -0.3510  109 253 
 PTB  HZ I         543  0.18         1.5 0.07            136            109 253 
 RUS  HZ EP        542 38.89                             134   -0.3010  113 155 
 RUS  HE ES        542 57.42                             134    0.6710  113 155 
                                                                                
