 2017  318 0125 24.4 L   6.776 -73.136140.9  RSN 10 0.5 1.7LRSN                1
 GAP=139        1.17       4.2     4.6  7.6 -0.2714E+01  0.6987E+01  0.5026E+01E
 Epicentro: LOS SANTOS - SANTANDER                                             3
 ACTION:UPD 17-05-25 18:41 OP:jn   STATUS:               ID:20170318012524 L   I
 OLDACT:UP  17-03-18 14:51 OP:cog  STATUS:               ID:20170318011744     3
 OLDACT:REG 17-03-18 13:10 OP:cog  STATUS:               ID:20170318011744     3
 2017-03-18-0118-00M.COL___400                                                 6
 STAT SP IPHASW D HRMM SECON CODA AMPLIT PERI AZIMU VELO AIN AR TRES W  DIS CAZ7
 BAR2 EZ EP        125 43.71                             171    0.3010 20.9 194 
 BAR2 EZ ES        125 58.07                             171   -0.1610 20.9 194 
 BAR2 EZ I         125 59.31        13.6 0.14            169           20.9 194 
 BRR  HZ EP        125 45.45                             151    0.2810 73.4 300 
 BRR  HN ES        126  1.97                             151    0.6110 73.4 300 
 BRR  HZ I         126  6.20        13.0 0.54            152           73.4 300 
 PAM  EZ EP        125 46.23                             149    0.0310 78.8  38 
 PAM  EN ES        126  3.07                             149   -0.1310 78.8  38 
 PAM  EZ I         126  5.43        13.3 0.64            153           78.8  38 
 RUS  HZ EP        125 47.38                             144   -0.1110 97.9 177 
 RUS  HN ES        126  5.28                             144   -0.2110 97.9 177 
 RUS  HZ I         126  6.78         6.3 0.38            144           97.9 177 
 PTB  HZ EP        125 50.56                             131   -0.48 9  148 260 
 PTB  HN ES        126 11.01                             131   -0.80 9  148 260 
 PTB  HZ I         126 13.59         4.9 0.54            132            148 260 
 SPBC HZ EP        125 51.86                             128   -0.55 9  162 220 
 SPBC HE ES        126 13.82                             128   -0.43 9  162 220 
 SPBC HZ I         126 19.88         7.1 0.28            129            162 220 
 ZAR  HZ EP   4    125 55.01                             121   -1.74 0  206 293 
 ZAR  HN ES        126 22.25                             121    0.27 8  206 293 
 NOR  HN ES        126 27.91                             117    0.53 8  234 235 
 CHI  HZ EP   4    126  1.72                             116    0.13 0  246 196 
 CHI  HN ES        126 31.80                             116    1.20 8  246 196 
 CHI  HZ I         126 37.60         1.8 0.32            118            246 196 
 GUY2CHZ EP   9    126  9.98                             111    2.26 0  301 235 
 GUY2CHN ES        126 43.91                             111    0.15 7  301 235 
                                                                                
