 2017  318 0403  8.0 L   6.773 -73.147147.2  RSN 10 0.4 1.9LRSN                1
 GAP=138        0.98       3.4     4.1  6.1 -0.1247E+01  0.7260E+01  0.3319E+01E
 Epicentro: LOS SANTOS - SANTANDER                                             3
 ACTION:UPD 17-05-25 18:42 OP:jn   STATUS:               ID:20170318040308 L   I
 OLDACT:UP  17-03-18 16:25 OP:cog  STATUS:               ID:20170318035749     3
 OLDACT:REG 17-03-18 14:02 OP:cog  STATUS:               ID:20170318035749     3
 2017-03-18-0358-00M.COL___367                                                 6
 STAT SP IPHASW D HRMM SECON CODA AMPLIT PERI AZIMU VELO AIN AR TRES W  DIS CAZ7
 BAR2 EZ IP     D  4 3 27.67                             172   -0.1110 20.4 191 
 BAR2 EZ ES        4 3 42.42                             172   -0.7610 20.4 191 
 BAR2 EZ I         4 3 43.84        18.8 0.34            171           20.4 191 
 BRR  HZ EP        4 3 29.67                             152    0.2610 72.6 301 
 BRR  HE ES        4 3 46.91                             152    0.8210 72.6 301 
 BRR  HZ I         4 3 48.72        23.7 0.14            154           72.6 301 
 PAM  EZ EP        4 3 30.71                             150    0.1710 79.8  38 
 PAM  EN ES        4 3 48.25                             150    0.1510 79.8  38 
 PAM  EZ I         4 3 50.37        25.3 0.60            152           79.8  38 
 RUS  HZ EP        4 3 31.52                             145   -0.1910 97.6 176 
 RUS  HN ES        4 3 50.41                             145    0.2210 97.6 176 
 RUS  HZ I         4 3 52.75         7.7 0.40            146           97.6 176 
 PTB  HZ EP        4 3 34.38                             133   -0.68 9  147 260 
 PTB  HN ES        4 3 55.78                             133   -0.35 9  147 260 
 PTB  HZ I         4 3 57.09         9.0 0.14            134            147 260 
 SPBC HZ EP        4 3 36.30                             130   -0.12 9  161 220 
 SPBC HN ES        4 3 58.75                             130    0.19 9  161 220 
 ZAR  HZ EP        4 3 40.60                             123   -0.08 9  205 293 
 ZAR  HN ES        4 4  5.96                             123   -0.18 9  205 293 
 CHI  HZ EP   3    4 3 45.84                             118    0.34 2  246 195 
 CHI  HE ES        4 4 14.81                             118    0.09 8  246 195 
 CHI  HZ I         4 4 18.83         3.7 0.60            119            246 195 
 GUY2CHZ EP   4 D  4 3 53.14                             113    1.64 0  299 235 
 GUY2CHE ES        4 4 25.62                             113    0.21 7  299 235 
 GUY2CHZ  IAML     4 4 34.31         3.2 0.28                           299 235 
 PTGC HN ES   4    4 4 23.84                             112   -1.82 0  306 158 
 PRA  HZ EP   4    4 4  2.44                             107    1.15 0  389 210 
 PRA  HE ES        4 4 43.67                             107    0.83 6  389 210 
                                                                                
