 2012 1118 0911 14.1 L   6.700 -73.190149.0  RSN  4 0.1 1.1LRSN                1
 GAP=224        0.34       5.9     3.7  7.8  0.1160E+02 -0.8403E+01 -0.3063E+02E
 Epicentro: VILLANUEVA - SANTANDER                                             3
 ACTION:UPD 12-12-05 15:34 OP:}ep  STATUS:               ID:20121118091114 L   I
 2012-11-18-0910-00M.COL___234                                                 6
 STAT SP IPHASW D HRMM SECON CODA AMPLIT PERI AZIMU VELO AIN AR TRES W  DIS CAZ7
 BAR2 SZ EP   1    911 33.87                             175   -0.12 7 11.9 176 
 BAR2 SZ I         911 49.64         7.6 0.48                          11.9 176 
 BRR  HZ EP   1    911 35.85                             152    0.10 7 73.2 308 
 RUS  HZ EP   1    911 37.62                             147    0.12 7 90.1 172 
 RUS  HN ES   1    911 55.68                             147   -0.03 7 90.1 172 
 RUS  HN I         911 57.12         1.1 0.18                          90.1 172 
 PTB  HZ EP   1    911 40.67                             134   -0.12 7  141 263 
 PTB  HN ES   1    912  1.62                             134    0.04 7  141 263 
 PTB  HZ I         912  4.06         1.3 0.13                           141 263 
                                                                                
