 2011  418 0713 53.6 L   6.761 -73.124142.5  RSN  5 0.3 1.7LRSN                1
 GAP=163        0.57       5.1     7.5  6.8 -0.1584E+02  0.1522E+02 -0.9838E+01E
 Epicentro: LOS SANTOS - SANTANDER                                             3
 ACTION:UP  11-06-22 15:31 OP:REBC STATUS:               ID:20110418071353 L   I
 2011-04-18-0711-12S.COL___138                                                 6
 STAT SP IPHASW D HRMM SECON CODA AMPLIT PERI AZIMU VELO SNR AR TRES W  DIS CAZ7
 BAR2 SZ EP   1    714 12.78                             172     0.1 7   20 199 
 BAR2 SZ ES   1    714 27.30                             172    -0.4 7   20 199 
 BAR2 SZ I         714 29.33        13.6 0.19                            20 199 
 BRR  HZ EP   1    714 14.80                             150     0.2 7   75 301 
 BRR  HN ES   2    714 31.46                             150     0.4 5   75 301 
 BRR  HZ I         714 33.20         7.7 0.14                            75 301 
 PAM  SZ EP   2    714 15.57                             150     0.0 5   79  36 
 PAM  SE ES   1    714 32.93                             150     0.2 7   79  36 
 GRA  SZ ES   1    714 38.52                             135     0.0 7  129  16 
 GRA  SZ I         714 39.44         5.6 0.41                           129  16 
 OCA  SZ EP   1    714 21.84                             128    -0.2 7  165 353 
 OCA  SZ ES   2    714 43.82                             128    -0.5 5  165 353 
 OCA  SZ I         714 47.70         7.1 0.20                           165 353 
                                                                                
