 2016 1118 0132 32.6 L   6.746 -73.148145.3  RSN  5 0.3 1.5LRSN                1
 GAP=155        0.86       7.2     4.1  6.9 -0.6598E+01  0.6088E+01  0.1181E+01E
 Epicentro: LOS SANTOS - SANTANDER                                             3
 ACTION:UPD 17-10-26 21:09 OP:lp   STATUS:               ID:20161118013232 L   I
 OLDACT:UP  16-11-18 14:01 OP:and  STATUS:               ID:20161118012744     3
 OLDACT:UP  16-11-18 14:00 OP:and  STATUS:               ID:20161118012744     3
 OLDACT:REG 16-11-18 12:26 OP:and  STATUS:               ID:20161118012744     3
 2016-11-18-0128-00M.COL___343                                                 6
 STAT SP IPHASW D HRMM SECON CODA AMPLIT PERI AZIMU VELO AIN AR TRES W  DIS CAZ7
 BAR2 EZ EP        132 52.16                             173    0.1010 17.4 192 
 BAR2 EZ ES        133  7.37                             173    0.1210 17.4 192 
 BAR2 EZ I         133  8.65         5.5 0.20            171           17.4 192 
 BRR  HZ EP        132 53.96                             151    0.1110 74.0 303 
 BRR  HN ES        133 10.97                             151    0.5410 74.0 303 
 PAM  EZ IP     D  132 55.06                             149    0.0110 82.3  37 
 PAM  EE ES        133 12.13                             149   -0.4410 82.3  37 
 PTB  HZ EP        132 59.56                             132    0.17 9  146 261 
 PTB  HN ES        133 19.67                             132   -0.64 9  146 261 
 PTB  HZ I         133 25.48         3.3 0.16            131            146 261 
 ZAR  HN ES        133 30.61                             122   -0.05 8  206 294 
 ZAR  HZ I         133 36.16         4.2 0.38            121            206 294 
                                                                                
