 2011  418 0134 11.0 L   6.640 -73.034126.0  RSN  5 0.5 1.7LRSN                1
 GAP=250        0.97      11.2    12.4 13.9 -0.8062E+02 -0.4689E+02  0.6456E+02E
 Epicentro: CURITI - SANTANDER                                                 3
 ACTION:UP  11-06-22 15:31 OP:REBC STATUS:               ID:20110418013411 L   I
 2011-04-18-0120-00M.COL___140                                                 6
 STAT SP IPHASW D HRMM SECON CODA AMPLIT PERI AZIMU VELO SNR AR TRES W  DIS CAZ7
 BAR2 SZ EP   1    134 28.54                             172     0.4 7   17 252 
 BAR2 SZ I         134 28.94        10.0 0.11                            17 252 
 GIR2 SZ EP   1    134 29.05                             156    -0.1 7   52 340 
 GIR2 SZ ES   2    134 43.01                             156    -0.3 5   52 340 
 BRR  HZ EP   1    134 30.59                             142    -0.9 7   91 305 
 BRR  HN ES   1    134 47.67                             142     0.3 7   91 305 
 BRR  HZ I         134 50.04        13.1 0.52                            91 305 
 OCA  SZ EP   1    134 40.41                             121     0.6 7  180 350 
 OCA  SZ I         135 14.09         5.4 0.31                           180 350 
 NOR  SZ EP   2    134 45.36                             114    -0.4 4  235 240 
 NOR  SE ES   1    135 13.12                             114     0.2 6  235 240 
                                                                                
