 2017  718 0904  3.9 L   5.941 -73.785112.1  RSN  6 0.4 1.4LRSN                1
 GAP=131        0.84       3.8     3.3  6.6  0.1705E+01  0.2044E+01 -0.8149E+01E
 Epicentro: SUCRE - SANTANDER                                                  3
 ACTION:UPD 17-08-30 15:34 OP:rebc STATUS:               ID:20170718090403 L   I
 OLDACT:DUP 17-07-18 17:13 OP:dnl  STATUS:               ID:20170718085744d    3
 OLDACT:REG 17-07-18 13:56 OP:dnl  STATUS:               ID:20170718085743     3
 2017-07-18-0858-00M.COL___368                                                 6
 STAT SP IPHASW D HRMM SECON CODA AMPLIT PERI AZIMU VELO AIN AR TRES W  DIS CAZ7
 SPBC HZ EP        9 4 20.13                             156    0.0510 45.0 225 
 SPBC HN ES        9 4 32.88                             156    0.1710 45.0 225 
 SPBC HZ I         9 4 33.80        14.8 0.16            159           45.0 225 
 RUS  HZ EP        9 4 22.52                             143   -0.1710 77.9  94 
 RUS  HN ES        9 4 36.95                             143   -0.4010 77.9  94 
 BAR2 EZ EP        9 4 24.12                             136    0.1810 98.2  43 
 BAR2 EZ ES        9 4 39.87                             136    0.2810 98.2  43 
 PTB  HZ EP   2    9 4 22.80                             135   -0.95 5 99.5 312 
 PTB  HN ES        9 4 39.34                             135    0.1010 99.5 312 
 PTB  HZ I         9 4 40.14         2.1 0.54            136           99.5 312 
 BRR  HZ EP   2    9 4 26.68                             127    0.21 5  129   4 
 BRR  HN ES        9 4 44.13                             127    0.0510  129   4 
 BRR  HZ I         9 4 47.57         8.1 0.14            128            129   4 
 ZAR  HZ EP        9 4 35.46                             113    0.57 8  209 325 
 ZAR  HN ES        9 4 58.41                             113   -0.66 8  209 325 
 ZAR  HZ I         9 5  0.67         2.1 0.14            114            209 325 
                                                                                
