 2012 1018 0834 40.7 L   6.672 -73.292140.6  RSN  4 0.1 1.8LRSN                1
 GAP=209        0.34       7.5     7.2  6.7  0.4840E+02  0.2306E+02  0.2592E+02E
 Epicentro: GALAN - SANTANDER                                                  3
 ACTION:UPD 12-11-22 17:04 OP:ep   STATUS:               ID:20121018083440 L   I
 2012-10-18-0830-00M.COL___224                                                 6
 STAT SP IPHASW D HRMM SECON CODA AMPLIT PERI AZIMU VELO AIN AR TRES W  DIS CAZ7
 BRR  HZ EP   2    835  0.91                             153   -0.16 5 66.8 316 
 BRR  HE ES   2    835 16.78                             153   -0.16 5 66.8 316 
 BRR  HZ I         835 21.78        10.0 0.20                          66.8 316 
 RUS  HZ EP        835  3.23                             146    0.0610 89.2 165 
 ZAR  HZ EP        835 11.92                             122   -0.02 9  195 298 
 ZAR  HN ES   1    835 36.43                             122    0.15 6  195 298 
 ZAR  HZ I         835 44.67         6.2 0.29                           195 298 
 GUY  SZ EP   2    835 21.72                             113   -0.23 4  282 236 
 GUY  SZ I         836  2.16         5.6 0.59                           282 236 
                                                                                
