 2012 1118 0711  7.5 L   6.818 -73.164145.3  RSN 10 0.4 1.6LRSN                1
 GAP=133        0.85       3.4     4.9  7.3  0.1396E+01  0.6636E+01  0.2984E+01E
 Epicentro: LOS SANTOS - SANTANDER                                             3
 ACTION:UPD 12-12-05 15:34 OP:}ep  STATUS:               ID:20121118071107 L   I
 2012-11-18-0710-00M.COL___234                                                 6
 STAT SP IPHASW D HRMM SECON CODA AMPLIT PERI AZIMU VELO AIN AR TRES W  DIS CAZ7
 BAR2 SZ EP   1    711 27.30                             170    0.15 7 25.1 185 
 BAR2 SZ ES   1    711 41.94                             170   -0.50 7 25.1 185 
 GIR2 SZ EP   1    711 27.06                             168   -0.04 7 29.0 354 
 BRR  HZ EP   1    711 29.04                             153    0.55 7 68.5 298 
 BRR  HN ES   1    711 45.69                             153    0.87 7 68.5 298 
 BRR  HZ I         711 49.29         7.2 0.12                          68.5 298 
 PAM  SZ EP   1    711 30.14                             151    0.44 7 77.2  42 
 PAM  SN ES   1    711 47.15                             151    0.18 7 77.2  42 
 PAM  SZ I         711 47.78         5.7 0.18                          77.2  42 
 RUS  HZ EP   1    711 31.26                             143   -0.15 7  103 175 
 RUS  HN ES   1    711 49.62                             143   -0.39 7  103 175 
 RUS  HZ I         711 50.80         4.9 0.28                           103 175 
 PTB  HZ EP   1    711 34.08                             132   -0.25 7  146 258 
 PTB  HN ES   1    711 55.03                             132   -0.19 7  146 258 
 PTB  HZ I         711 57.68         6.1 0.20                           146 258 
 OCA  HN ES   1    711 57.12                             130   -0.38 7  158 354 
 ZAR  HN ES   1    712  4.99                             123    0.23 6  201 292 
 ZAR  HZ I         712 11.19         5.6 0.36                           201 292 
 SML  HN ES   1    712 11.11                             118   -1.07 6  241 336 
 CHI  HZ EP   1    711 45.59                             117    0.22 6  250 195 
 CHI  HN ES   1    712 14.84                             117   -0.03 6  250 195 
 CHI  HZ I         712 21.94         2.9 0.46                           250 195 
                                                                                
