 2013  718 0521  2.1 L   7.265 -74.275 15.6  RSN  8 0.4 1.8LRSN                1
 GAP= 76        0.92       2.7     2.5  5.0 -0.3610E+00 -0.7058E+00 -0.7439E+01E
 Epicentro: PUERTO WILCHES - SANTANDER                                         3
 ACTION:UPD 13-08-12 10:38 OP:ep   STATUS:               ID:20130718051959 L   I
 OLDACT:UP  13-07-18 10:57 OP:mh   STATUS:               ID:20130718051959 L   3
 OLDACT:UP  13-07-18 10:53 OP:mh   STATUS:               ID:20130718051959 L   3
 OLDACT:UP  13-07-18 10:52 OP:mh   STATUS:               ID:20130718051959 L   3
 OLDACT:UP  13-07-18 10:52 OP:mh   STATUS:               ID:20130718051959 L   3
 OLDACT:UPD 13-07-18 10:35 OP:stll STATUS:               ID:20130718051959 L   3
 2013-07-18-0519-59M.COL___267                                                 6
 STAT SP IPHASW D HRMM SECON CODA AMPLIT PERI AZIMU VELO AIN AR TRES W  DIS CAZ7
 BRR  HZ EP        521 12.79                             101    0.1510 64.6 106 
 BRR  HN ES   1    521 20.67                             101   -0.19 7 64.6 106 
 BRR  HN I         521 20.94        33.6 0.18             96           64.6 106 
 ZAR  HZ EP   1    521 13.67                             100    0.35 7 69.1 291 
 ZAR  HE ES   1    521 22.02                             100   -0.06 7 69.1 291 
 ZAR  HE I         521 22.73        87.5 0.46             97           69.1 291 
 PTB  HZ EP        521 15.42                              98    0.0510 82.7 194 
 PTB  HE ES        521 25.25                              98   -0.4710 82.7 194 
 PTB  HE I         521 25.42        63.2 0.32             95           82.7 194 
 BAR2 SZ EP   1    521 25.38                              56    1.00 7  142 122 
 BAR2 SZ I         521 43.78         6.8 0.28             93            142 122 
 OCA  HN ES   1    521 43.08                              56   -0.47 7  151  44 
 OCA  HN I         521 50.64        20.6 0.58             56            151  44 
 SML  HZ EP   1    521 28.35                              56    0.58 7  171   8 
 SML  HE ES        521 47.34                              56   -0.46 9  171   8 
 SML  HE I         521 49.33        15.7 0.10             56            171   8 
 HEL  HZ EP   4    521 32.08                              56    2.45 0  183 229 
 HEL  HN ES   1    521 51.23                              56    0.12 7  183 229 
 HEL  HN I         521 56.49         3.7 0.36             56            183 229 
 RUS  HN ES   4    521 57.34                              56    1.87 0  201 139 
 RUS  HN I         521 58.48        10.9 0.34             56            201 139 
                                                                                
