 2011  918 0738 44.0 L   6.781 -73.120144.4  RSN 14 0.5 2.6LRSN                1
 GAP=117        0.96       4.4     5.1  6.0 -0.3267E+00  0.9380E+01  0.1228E+02E
 Epicentro: LOS SANTOS - SANTANDER                                             3
 ACTION:UPD 12-07-13 15:58 OP:ep   STATUS:               ID:20110918073843 L   I
 2011-09-18-0737-10S.COL___170                                                 6
 STAT SP IPHASW D HRMM SECON CODA AMPLIT PERI AZIMU VELO AIN AR TRES W  DIS CAZ7
 BTL  SZ EP        739  3.60                             171    0.1210 22.3 313 
 BTL  SZ ES   1    739 18.83                             171    0.19 7 22.3 313 
 GIR2 SZ EP        739  3.54                             166   -0.0710 33.9 346 
 GIR2 SZ ES   1    739 18.55                             166   -0.33 7 33.9 346 
 BRR  HE ES   1    739 22.72                             151    0.95 7 74.7 299 
 PAM  SZ EP        739  6.27                             151    0.1810 77.2  37 
 PAM  SN ES   1    739 23.12                             151   -0.17 7 77.2  37 
 RUS  HZ EP        739  7.24                             144   -0.2510 98.4 178 
 RUS  HN ES   1    739 25.52                             144   -0.26 7 98.4 178 
 YOP  SZ EP        739 13.79                             126    0.12 9  176 154 
 ZAR  HZ EP        739 15.96                             122   -0.79 8  208 292 
 ZAR  HE ES   2    739 41.23                             122   -1.03 4  208 292 
 ZAR  HZ I         739 47.10        58.2 0.58                           208 292 
 NOR  SZ EP        739 19.03                             118   -0.78 8  236 235 
 NOR  SN ES   1    739 47.34                             118   -0.37 6  236 235 
 CHI  HZ EP        739 21.64                             117    0.12 8  247 196 
 CHI  HN ES   2    739 50.88                             117    0.11 4  247 196 
 CHI  HZ I         740  0.32        20.1 0.42                           247 196 
 HEL  HZ EP        739 25.16                             114    0.73 8  274 256 
 HEL  HZ I         740  3.98        14.9 0.24                           274 256 
 VIL  SE ES   2    740  0.67                             112   -0.25 4  302 192 
 VIL  SZ I         740 10.60        11.3 0.48                           302 192 
 GUY  SZ EP        739 28.92                             112    0.94 7  305 236 
 GUY  SZ I         740 10.91        36.0 0.38                           305 236 
 RREF HZ EP        739 30.53                             110    0.31 7  323 230 
 RREF HZ I         740 15.65        28.0 0.36                           323 230 
 PRA  HZ EP        739 37.49                             106    0.02 6  392 210 
 PRA  HN ES   1    740 19.18                             106    0.04 4  392 210 
                                                                                
