 2013 1118 0409 16.9 L   6.819 -73.154146.0  RSN 14 0.5 2.6LRSN                1
 GAP= 70        1.05       2.8     3.2  5.9  0.4885E+00  0.2336E+01  0.1277E+01E
 Epicentro: LOS SANTOS - SANTANDER                                             3
 ACTION:UPD 14-01-09 16:29 OP:ep   STATUS:               ID:20131118040916 L   I
 OLDACT:REG 13-11-18 13:27 OP:mh   STATUS:               ID:20131118040743     3
 2013-11-18-0407-43M.COL___219                                                 6
 STAT SP IPHASW D HRMM SECON CODA AMPLIT PERI AZIMU VELO AIN AR TRES W  DIS CAZ7
 BAR2 SZ EP   1    4 9 36.59                             170    0.01 7 25.3 187 
 BAR2 SZ ES   1    4 9 51.60                             170   -0.34 7 25.3 187 
 BAR2 SZ I         4 9 53.11       122.0 0.22            170           25.3 187 
 BRR  HZ EP   1    4 9 38.39                             153    0.43 7 69.4 297 
 BRR  HN ES        4 9 55.38                             153    0.9910 69.4 297 
 BRR  HZ I         4 9 59.73        66.7 0.10            152           69.4 297 
 PAM  SZ EP   1    4 9 39.45                             151    0.39 7 76.4  41 
 RUS  HZ EP   1    4 9 40.51                             143   -0.30 7  103 176 
 RUS  HN ES        4 9 59.20                             143   -0.2710  103 176 
 RUS  HZ I         410  0.38        33.3 0.23            142            103 176 
 PTB  HZ EP        4 9 43.22                             132   -0.61 9  147 258 
 PTB  HN ES        410  4.11                             132   -0.73 9  147 258 
 TAM  HZ EP        4 9 45.03                             130    0.32 9  157 106 
 TAM  HZ I         410  5.92        23.5 0.26            127            157 106 
 TAM  HN ES        410  6.64                             130    0.23 9  157 106 
 OCA  HZ EP        4 9 44.64                             130   -0.37 9  158 353 
 OCA  HN ES        410  6.51                             130   -0.43 9  158 353 
 OCA  HZ I         410 15.20        49.6 0.23            127            158 353 
 SPBC HZ EP   1    4 9 45.44                             129   -0.06 7  164 218 
 ZAR  HZ EP        4 9 49.99                             123    0.81 9  202 292 
 ZAR  HN ES   1    410 13.94                             123   -0.43 6  202 292 
 ZAR  HZ I         410 19.83        40.9 0.11            120            202 292 
 NOR  HZ EP        4 9 52.78                             118    0.10 8  235 234 
 NOR  HN ES        410 20.88                             118    0.28 8  235 234 
 NOR  HZ I         410 29.99        22.9 0.16            117            235 234 
 SML  HZ EP   1    4 9 52.71                             118   -0.56 6  241 335 
 SML  HN ES        410 21.37                             118   -0.29 8  241 335 
 SML  HZ I         410 31.05        36.3 0.08            115            241 335 
 CHI  HZ EP   1    4 9 54.83                             117    0.04 6  250 195 
 CHI  HN ES        410 24.38                             117    0.03 8  250 195 
 CHI  HZ I         410 29.46        27.0 0.32            115            250 195 
 ROSC BZ EP   4    4 9 56.90                             117    1.74 0  254 211 
 ROSC BN ES   4    410 27.24                             117    2.22 0  254 211 
 HEL  HZ EP        4 9 57.66                             115    0.59 8  272 255 
 HEL  HN ES        410 28.88                             115    0.47 8  272 255 
 HEL  HZ I         410 34.73        23.7 0.21            113            272 255 
 VIL  SZ EP        410  0.28                             112   -0.24 7  305 191 
 VIL  SN ES        410 34.13                             112   -0.43 7  305 191 
 VIL  SZ I         410 44.36        36.0 0.44            110            305 191 
                                                                                
