 2013 1118 0321 47.0 L   6.801 -73.168145.0  RSN 11 0.4 2.0LRSN                1
 GAP=134        0.88       2.3     3.7  5.4 -0.1381E+01  0.3131E+01  0.8244E+00E
 Epicentro: LOS SANTOS - SANTANDER                                             3
 ACTION:UPD 14-01-09 16:29 OP:ep   STATUS:               ID:20131118032147 L   I
 OLDACT:REG 13-11-18 07:37 OP:mh   STATUS:               ID:20131118032000     3
 2013-11-18-0320-00M.COL___279                                                 6
 STAT SP IPHASW D HRMM SECON CODA AMPLIT PERI AZIMU VELO AIN AR TRES W  DIS CAZ7
 BRR  HZ EP        322  8.50                             153    0.5810 69.0 299 
 BRR  HN ES        322 24.43                             153    0.1810 69.0 299 
 BRR  HZ I         322 27.63        10.5 0.10            153           69.0 299 
 PAM  SZ EP        322  9.47                             150    0.2710 78.9  41 
 PAM  SN ES        322 26.67                             150    0.1410 78.9  41 
 PAM  SZ I         322 28.83        11.8 0.48            154           78.9  41 
 RUS  HZ EP        322 10.55                             144   -0.1310  101 175 
 RUS  HN ES        322 28.92                             144   -0.2410  101 175 
 RUS  HZ I         322 30.91         9.7 0.31            146            101 175 
 PTB  HZ EP        322 13.37                             132   -0.30 9  145 259 
 PTB  HN ES        322 34.10                             132   -0.38 9  145 259 
 PTB  HZ I         322 37.39         9.3 0.17            133            145 259 
 OCA  HZ EP   1    322 15.10                             129   -0.09 7  160 354 
 OCA  HN ES        322 37.02                             129   -0.18 9  160 354 
 OCA  HZ I         322 42.26        12.5 0.32            132            160 354 
 SPBC HZ EP        322 15.55                             129    0.27 9  162 218 
 SPBC HN ES        322 37.54                             129    0.18 9  162 218 
 SPBC HZ I         322 42.71        16.8 0.11            131            162 218 
 ZAR  HZ EP   1    322 19.19                             123    0.05 6  202 292 
 ZAR  HN ES   1    322 45.23                             123    1.02 6  202 292 
 ZAR  HZ I         322 51.04        10.5 0.31            124            202 292 
 NOR  HN ES        322 49.63                             119   -0.50 8  233 234 
 SML  HZ EP        322 23.02                             117   -0.42 8  243 336 
 SML  HN ES        322 51.26                             117   -0.62 8  243 336 
 SML  HZ I         322 55.15        20.8 0.08            119            243 336 
 CHI  HZ EP        322 24.72                             117    0.14 8  248 195 
 CHI  HN ES        322 53.64                             117   -0.27 8  248 195 
 CHI  HZ I         323  2.46         3.4 0.32            119            248 195 
 GUY2CHZ EP   1    322 31.15                             112    0.81 5  299 234 
                                                                                
