 2012  318 0826 37.8 L   6.736 -73.190145.6  RSN  7 0.4 1.8LRSN                1
 GAP=134        1.01       5.5     5.1  8.8 -0.4952E+00  0.1260E+02 -0.6188E+01E
 ACTION:UP  12-03-31 23:20 OP:EP   STATUS:               ID:20120318082637 L   I
 2012-03-18-0820-00M.COL___201                                                 6
 STAT SP IPHASW D HRMM SECON CODA AMPLIT PERI AZIMU VELO SNR AR TRES W  DIS CAZ7
 BAR2 SZ EP   1    826 57.42                             173     0.2 7   16 177 
 BAR2 SZ ES   1    827 12.23                             173    -0.2 7   16 177 
 BAR2 SZ I         827 13.76        13.7 0.25                            16 177 
 BRR  HZ EP        826 59.37                             153     0.510   71 305 
 BRR  HZ I         826 59.65        37.9 0.17                            71 305 
 BRR  HN ES   1    827 15.98                             153     0.6 7   71 305 
 PAM  SZ EP   1    827  0.28                             148    -0.2 7   86  39 
 PAM  SZ I         827  0.53         8.6 0.19                            86  39 
 PAM  SN ES   1    827 17.53                             148    -0.7 7   86  39 
 RUS  HZ EP   1    827  1.33                             146     0.3 7   94 173 
 RUS  HN ES        827 19.29                             146     0.110   94 173 
 RUS  HZ I         827 21.34         6.6 0.26                            94 173 
 PTB  HZ EP   1    827  4.06                             133    -0.1 7  142 261 
 PTB  HN ES        827 24.83                             133     0.0 9  142 261 
 PTB  HZ I         827 32.81         8.9 0.38                           142 261 
 ZAR  HZ EP   1    827 10.04                             122     0.0 6  202 295 
 ZAR  HN ES   1    827 34.83                             122    -0.4 6  202 295 
 ZAR  HZ I         827 42.62         6.4 0.22                           202 295 
 NOR  SN ES   1    827 38.92                             119    -0.9 6  227 235 
                                                                                
