 2011  618 0800 14.3 L   6.798 -73.107143.9  RSN 10 0.3 1.7LRSN                1
 GAP=160        0.51       2.7     5.6  4.7 -0.6333E+01 -0.1429E+01  0.6219E+00E
 Epicentro: LOS SANTOS - SANTANDER                                             3
 ACTION:UP  11-07-14 19:06 OP:ep   STATUS:               ID:20110618080014 L   I
 2011-06-18-0756-15S.COL___135                                                 6
 STAT SP IPHASW D HRMM SECON CODA AMPLIT PERI AZIMU VELO SNR AR TRES W  DIS CAZ7
 BTL  SZ EP   1    8 0 33.74                             171     0.1 7   22 307 
 BTL  SZ ES   2    8 0 49.40                             171     0.6 5   22 307 
 BAR2 SZ EP   1    8 0 33.63                             170    -0.1 7   24 200 
 BAR2 SZ ES   2    8 0 48.22                             170    -0.6 5   24 200 
 BAR2 SZ I         8 0 49.59        15.6 0.25                            24 200 
 GIR2 SZ EP   1    8 0 33.64                             167    -0.1 7   33 343 
 GIR2 SZ ES   2    8 0 48.97                             167     0.0 5   33 343 
 BRR  HZ EP   1    8 0 35.43                             151     0.0 7   75 297 
 BRR  HN ES   2    8 0 52.25                             151     0.3 5   75 297 
 BRR  HZ I         8 0 55.41        15.1 0.16                            75 297 
 RUS  HZ EP   1    8 0 37.82                             143     0.0 7  100 179 
 RUS  HE ES   2    8 0 56.41                             143     0.2 5  100 179 
 RUS  HZ I         8 0 58.00         5.4 0.28                           100 179 
 BRI  SZ EP   1    8 0 38.10                             141     0.2 7  107  19 
 BRI  SZ ES   2    8 0 55.67                             141    -0.7 5  107  19 
 BRI  SZ I         8 1  1.61         6.8 0.32                           107  19 
 GRA  SZ EP   1    8 0 39.34                             137     0.1 7  125  16 
 GRA  SZ ES   1    8 0 58.84                             137     0.1 7  125  16 
 GRA  SZ I         8 1  0.30         5.8 0.32                           125  16 
 OCA  SZ EP   1    8 0 42.55                             129     0.0 7  161 352 
 OCA  SZ ES   2    8 1  4.41                             129    -0.1 5  161 352 
 OCA  SZ I         8 1  7.82         7.0 0.13                           161 352 
 NOR  SZ ES   2    8 1 17.98                             118    -0.4 4  238 235 
 CHI  HE ES   2    8 1 21.43                             117     0.1 4  250 196 
 CHI  HZ I         8 1 23.77         2.4 0.22                           250 196 
                                                                                
