 2011  518 0744 23.4 L   7.534 -73.102132.6  RSN  6 0.3 1.5LRSN                1
 GAP=108        0.79       5.4     6.8  7.8 -0.4093E+01  0.5211E+01  0.1517E+02E
 Epicentro: EL PLAYON - SANTANDER                                              3
 ACTION:UP  11-06-29 08:54 OP:tino STATUS:               ID:20110518074423 L   I
 2011-05-18-0738-39S.COL___141                                                 6
 STAT SP IPHASW D HRMM SECON CODA AMPLIT PERI AZIMU VELO SNR AR TRES W  DIS CAZ7
 PAM  SZ EP   1    744 42.81                             159     0.1 7   49 116 
 PAM  SE ES   1    744 58.23                             159     0.4 7   49 116 
 GRA  SZ EP   1    744 42.50                             158     0.2 7   51  40 
 GRA  SZ ES   1    744 56.28                             158    -0.8 7   51  40 
 OCA  SZ EP   1    744 44.23                             147     0.2 7   82 343 
 OCA  SZ ES   1    745  0.43                             147     0.3 7   82 343 
 OCA  SZ I         745  2.80         5.2 0.53                            82 343 
 BRR  HZ EP   1    744 43.54                             146    -0.4 7   82 235 
 BRR  HZ I         744 43.73        11.2 0.12                            82 235 
 BRR  HE ES   1    744 59.91                             146     0.1 7   82 235 
 BAR2 SZ EP   1    744 45.75                             139    -0.1 7  105 185 
 BAR2 SZ I         745  4.75        15.1 0.28                           105 185 
 RUS  HZ EP   1    744 53.37                             123     0.0 7  182 179 
 RUS  HZ I         745 25.56         1.3 0.37                           182 179 
                                                                                
