 2012  218 0445 19.9 L   6.781 -73.156 12.9  RSN  4 0.2 0.9LRSN                1
 GAP=165        0.37       1.3     3.7  8.1 -0.1759E+01 -0.1452E+02 -0.1250E+00E
 ACTION:UP  12-03-07 16:31 OP:epov STATUS:               ID:20120218044519 L   I
 2012-02-18-0440-00M.COL___188                                                 6
 STAT SP IPHASW D HRMM SECON CODA AMPLIT PERI AZIMU VELO AIN AR TRES W  DIS CAZ7
 BAR2 SZ EP   2    445 24.43                             119    0.13 5 21.0 188 
 BAR2 SZ ES   2    445 27.80                             119    0.08 5 21.0 188 
 BAR2 SZ I         445 28.62        18.2 0.29                          21.0 188 
 GIR2 SZ EP   1    445 25.87                             108   -0.03 7 33.2 353 
 GIR2 SZ ES   2    445 30.43                             108   -0.13 5 33.2 353 
 PAM  SZ EP   2    445 33.43                              97    0.25 5 79.7  39 
 PAM  SN ES   1    445 43.47                              97   -0.05 7 79.7  39 
 RUS  HZ EP   2    445 36.25                              96    0.24 5 98.5 175 
 RUS  HZ I         445 47.09         2.6 0.61                          98.5 175 
 RUS  HN ES   2    445 48.17                              96   -0.40 5 98.5 175 
                                                                                
