 2013 1018 0946 11.7 L   6.816 -73.169143.1  RSN  4 0.2 1.4LRSN                1
 GAP=199        0.47       2.7     4.0  6.8  0.3760E+01 -0.4733E+00 -0.9426E+01E
 Epicentro: LOS SANTOS - SANTANDER                                             3
 ACTION:UPD 13-11-25 09:22 OP:ep   STATUS:               ID:20131018094611 L   I
 OLDACT:REG 13-10-18 09:01 OP:jn   STATUS:               ID:20131018093845     3
 2013-10-18-0938-45M.COL___220                                                 6
 STAT SP IPHASW D HRMM SECON CODA AMPLIT PERI AZIMU VELO AIN AR TRES W  DIS CAZ7
 RUS  HZ EP        946 35.42                             143    0.0810  103 175 
 RUS  HN ES        946 53.83                             143    0.0510  103 175 
 RUS  HZ I         946 55.37         2.8 0.32            144            103 175 
 SPBC HZ EP        946 40.02                             128    0.04 9  163 218 
 SPBC HE ES        947  1.79                             128   -0.25 9  163 218 
 SPBC HZ I         947  4.53         3.5 0.28            129            163 218 
 ZAR  HN ES   1    947  9.00                             122    0.40 6  201 292 
 SML  HZ EP   1    946 47.83                             117   -0.07 6  241 336 
 SML  HN ES   1    947 15.86                             117   -0.27 6  241 336 
                                                                                
