 2011  918 0333 37.0 L   6.755 -73.105145.7  RSN  7 0.2 1.7LRSN                1
 GAP=144        0.56       3.6     5.4  5.4 -0.2810E+00 -0.1316E+01 -0.9263E+00E
 Epicentro: LOS SANTOS - SANTANDER                                             3
 ACTION:UPD 12-07-13 15:58 OP:ep   STATUS:               ID:20110918033337 L   I
 2011-09-18-0320-00M.COL___173                                                 6
 STAT SP IPHASW D HRMM SECON CODA AMPLIT PERI AZIMU VELO AIN AR TRES W  DIS CAZ7
 BAR2 SZ EP        333 56.33                             172   -0.2710 19.9 205 
 BAR2 SZ ES   2    334 11.61                             172   -0.24 5 19.9 205 
 BAR2 SZ I         334 13.11         8.3 0.38                          19.9 205 
 BTL  SZ EP        333 56.84                             170    0.1310 25.5 315 
 GIR2 SZ EP        333 56.52                             165   -0.3510 37.1 345 
 BRR  HZ EP        333 58.42                             151   -0.1310 77.6 300 
 BRR  HE ES   1    334 15.61                             151    0.28 7 77.6 300 
 BRR  HZ I         334 21.14         8.4 0.12                          77.6 300 
 PAM  SZ EP        333 59.44                             150    0.1210 78.7  35 
 PAM  SN ES   1    334 16.82                             150    0.12 7 78.7  35 
 RUS  HZ EP        334  0.73                             145    0.3210 95.4 179 
 RUS  HN ES   2    334 18.61                             145   -0.04 5 95.4 179 
 OCA  SZ EP        334  5.90                             129    0.03 9  166 352 
 OCA  SZ I         334 33.60         7.5 0.37                           166 352 
                                                                                
