 2012  718 0300  7.9 L   6.730 -73.172145.7  RSN  5 0.4 1.6LRSN                1
 GAP=136        0.94       7.8     7.0 10.1 -0.2810E+01  0.9044E+01 -0.1528E+02E
 Epicentro: VILLANUEVA - SANTANDER                                             3
 ACTION:UPD 12-08-14 11:45 OP:ep   STATUS:               ID:20120718030007 L   I
 2012-07-18-0300-00M.COL___197                                                 6
 STAT SP IPHASW D HRMM SECON CODA AMPLIT PERI AZIMU VELO AIN AR TRES W  DIS CAZ7
 BAR2 SZ EP   1    3 0 27.58                             174     0.2 7   15 184 
 BAR2 SZ ES   1    3 0 42.35                             174    -0.2 7   15 184 
 BAR2 SZ I         3 0 43.67         7.2 0.34            174             15 184 
 BRR  HZ EP   1    3 0 29.48                             152     0.3 7   73 305 
 BRR  HN ES   1    3 0 46.39                             152     0.7 7   73 305 
 BRR  HZ I         3 0 47.72        11.3 0.19            151             73 305 
 PAM  SZ EP   1    3 0 30.33                             148    -0.3 7   85  38 
 PAM  SN ES   2    3 0 47.73                             148    -0.6 5   85  38 
 RUS  HN ES   1    3 0 49.42                             146     0.2 7   93 174 
 PTB  HZ EP   1    3 0 34.56                             133     0.1 7  144 262 
 PTB  HN ES   1    3 0 54.46                             133    -0.8 7  144 262 
 PTB  HZ I         3 0 57.39         3.2 0.25            133            144 262 
