 2013  918 0842 23.3 L   6.833 -73.074145.2  RSN  9 0.4 1.9LRSN                1
 GAP=190        1.00       3.8     6.0  6.6 -0.1549E+01  0.1167E+02  0.3512E+01E
 Epicentro: LOS SANTOS - SANTANDER                                             3
 ACTION:UPD 13-10-22 09:23 OP:ep   STATUS:               ID:20130918084223 L   I
 OLDACT:REG 13-09-18 07:46 OP:carl STATUS:               ID:20130918083959     3
 2013-09-18-0839-59M.COL___269                                                 6
 STAT SP IPHASW D HRMM SECON CODA AMPLIT PERI AZIMU VELO AIN AR TRES W  DIS CAZ7
 BAR2 SZ EP        842 43.36                             168    0.3410 29.2 204 
 BAR2 SZ ES        842 58.50                             168    0.1210 29.2 204 
 BAR2 SZ I         842 59.77        11.0 0.24            165           29.2 204 
 BRR  HZ EP        842 45.14                             151    0.4010 76.8 293 
 BRR  HN ES        843  1.93                             151    0.4910 76.8 293 
 BRR  HZ I         843  2.66        15.9 0.12            147           76.8 293 
 RUS  HZ EP        842 47.08                             143   -0.1910  104 181 
 RUS  HN ES   1    843  5.59                             143   -0.36 7  104 181 
 RUS  HZ I         843  7.59         3.5 0.24            144            104 181 
 PTB  HZ EP   4    842 49.95                             130   -1.08 0  156 258 
 PTB  HN ES   4    843 11.05                             130   -1.59 0  156 258 
 PTB  HZ I         843 17.13         6.8 0.14            129            156 258 
 OCA  HN ES        843 12.84                             130   -0.39 9  158 350 
 OCA  HN I         843 17.00        30.1 0.16            131            158 350 
 SPBC HZ EP        842 52.40                             127   -0.14 9  171 220 
 SPBC HN ES        843 14.62                             127   -0.70 9  171 220 
 SPBC HZ I         843 20.78         7.7 0.22            128            171 220 
 ZAR  HZ EP        842 56.19                             121   -0.18 8  210 290 
 ZAR  HN ES   1    843 21.25                             121   -0.88 6  210 290 
 ZAR  HZ I         843 28.88         7.2 0.24            121            210 290 
 NOR  HZ EP        842 59.68                             117   -0.27 8  243 235 
 NOR  HE ES        843 28.55                             117    0.04 8  243 235 
 NOR  HZ I         843 33.57         6.1 0.22            118            243 235 
 GUY2CHZ EP        843  8.67                             112    0.79 7  310 235 
 GUY2CHN ES        843 43.22                             112    0.58 7  310 235 
 GUY2CHZ I         843 51.37         5.1 0.64                           310 235 
                                                                                
