 2010 1018 0527 55.0 L   7.231 -74.046 14.0  RSN  7 0.6 2.3LRSN                1
 GAP=161        1.44       5.4     6.3  8.1 -0.6387E+01  0.2214E+02  0.4324E+01E
 Epicentro: PUERTO WILCHES - SANTANDER                                         3
 ACTION:UP  11-02-18 11:10 OP:tino STATUS:               ID:20101018052755 L   I
 2010-10-18-0525-09S.COL___123                                                 6
 STAT SP IPHASW D HRMM SECON CODA AMPLIT PERI AZIMU VELO SNR AR TRES W  DIS CAZ7
 BRR  HZ IP     D  528  1.24                             105    -0.510   39 110 
 BRR  HE ES   1    528  6.75                             105    -0.3 7   39 110 
 BRR  HZ I         528  7.73       318.9 0.20                            39 110 
 BAR2 SZ EP   1    528 13.58                              95    -0.3 7  119 127 
 BAR2 SZ I         528 30.98        20.6 0.10                           119 127 
 OCA  SZ EP        528 17.25                              94     0.6 9  137  36 
 OCA  SZ ES   2    528 33.34                              94    -0.2 5  137  36 
 OCA  SZ I         528 43.91        22.7 0.38                           137  36 
 GUE  SZ EP        528 17.51                              94     0.2 9  140  62 
 GRA  SZ EP        528 19.01                              56     0.0 9  155  62 
 GRA  SZ ES   1    528 36.68                              56    -1.0 7  155  62 
 GRA  SZ I         528 38.72       128.5 0.35                           155  62 
 RUS  HZ IP     C  528 23.61                              56     0.8 9  182 144 
 RUS  HN ES   1    528 45.28                              56     0.8 7  182 144 
 RUS  HZ I         528 46.93        42.0 0.22                           182 144 
 HEL  HZ EP   1    528 24.91                              56     0.0 6  200 235 
 HEL  HN ES   1    528 47.40                              56    -0.8 6  200 235 
 HEL  HZ I         528 51.29        17.2 0.27                           200 235 
                                                                                
