 2010  518 0400 55.6 L   6.780 -72.978144.0  RSN  8 0.5 1.9LRSN                1
 GAP=201        0.70       6.8    11.0  8.5 -0.5067E+02 -0.8637E+01  0.1357E+02E
 Epicentro: CEPITA - SANTANDER                                                 3
 ACTION:UP  10-08-24 10:05 OP:vdl  STATUS:               ID:20100518040055 L   I
 2010-05-18-0357-43S.COL___108                                                 6
 STAT SP IPHASW D HRMM SECON CODA AMPLIT PERI AZIMU VELO SNR AR TRES W  DIS CAZ7
 BAR2 SZ EP        4 1 14.93                             168    -0.210   31 228 
 BAR2 SZ ES   2    4 1 30.27                             168    -0.2 5   31 228 
 BRR  HZ EP   2    4 1 16.69                             147    -0.9 5   89 294 
 BRR  HE ES   2    4 1 34.83                             147     0.0 5   89 294 
 BRR  HZ I         4 1 36.59        12.4 0.14                            89 294 
 BRI  SZ EP   2    4 1 19.49                             142     0.4 5  106  11 
 BRI  SZ ES   2    4 1 37.95                             142     0.6 5  106  11 
 GUE  SZ EP   1    4 1 20.21                             139     0.1 7  116   3 
 GRA  SZ EP   2    4 1 20.74                             137     0.3 5  124   9 
 GRA  SZ ES   2    4 1 40.13                             137     0.2 5  124   9 
 OCA  SZ EP   2    4 1 23.77                             128    -0.5 5  166 347 
 OCA  SZ I         4 1 24.92         6.7 0.30                           166 347 
 RREF BZ EP   2    4 1 44.01                             109     0.9 3  335 232 
 RREF BE ES   2    4 2 20.52                             109     0.3 3  335 232 
 RREF BZ I         4 2 27.30         3.4 0.32                           335 232 
 PRA  HZ EP   2    4 1 49.51                             106    -0.4 3  400 212 
 PRA  HE ES   2    4 2 33.33                             106     1.0 3  400 212 
 PRA  HZ I         4 2 34.66         3.0 0.33                           400 212 
                                                                                
