 2011  818 0653 36.0 L   6.792 -72.996151.2  RSN  9 0.4 2.1LRSN                1
 GAP=194        0.68       2.7     7.2  5.1 -0.2788E+01  0.5207E+01 -0.2351E+00E
 Epicentro: CEPITA - SANTANDER                                                 3
 ACTION:UPD 12-07-13 15:52 OP:ep   STATUS:               ID:20110818065336 L   I
 2011-08-18-0651-24S.COL___149                                                 6
 STAT SP IPHASW D HRMM SECON CODA AMPLIT PERI AZIMU VELO AIN AR TRES W  DIS CAZ7
 BAR2 SZ EP   1    653 56.47                             168    0.07 7 30.2 223 
 BAR2 SZ ES   1    654 12.22                             168   -0.11 7 30.2 223 
 BAR2 SZ I         654 14.75        28.5 0.36                          30.2 223 
 BRR  HZ EP        653 58.70                             149    0.1010 86.4 294 
 BRR  HZ I         653 59.03        31.3 0.15                          86.4 294 
 BRR  HN ES   1    654 16.18                             149   -0.08 7 86.4 294 
 RUS  HZ EP   1    654  0.58                             145    0.38 7 99.9 186 
 RUS  HN ES   1    654 18.92                             145   -0.19 7 99.9 186 
 RUS  HZ I         654 20.21        10.9 0.35                          99.9 186 
 OCA  SZ EP   1    654  5.22                             130    0.18 7  164 347 
 OCA  SZ ES   1    654 27.50                             130   -0.22 7  164 347 
 OCA  SZ I         654 33.82        19.3 0.36                           164 347 
 NOR  SZ EP   1    654 12.53                             118   -0.88 6  248 237 
 CHI  HZ EP   1    654 13.59                             118   -0.80 6  253 199 
 CHI  HN ES   1    654 45.05                             118    0.68 6  253 199 
 CHI  HZ I         654 48.21         4.1 0.46                           253 199 
 RREF HZ EP   1    654 23.76                             111    0.04 5  334 231 
 RREF HN ES   1    655  1.57                             111    0.59 5  334 231 
 COD  HZ EP   1    654 25.24                             110    0.36 5  351 352 
 COD  HN ES   1    655  3.24                             110    0.20 5  351 352 
 TOL  SZ EP   1    654 25.47                             109   -0.25 5  355 227 
                                                                                
