 2014  318 0711  7.4 L   6.804 -73.143149.7  RSN 11 0.4 2.0LRSN                1
 GAP= 71        0.99       2.8     3.4  5.9 -0.2293E+00  0.4685E+01 -0.1079E+01E
 Epicentro: LOS SANTOS - SANTANDER                                             3
 ACTION:UPD 14-04-09 23:18 OP:nd   STATUS:               ID:20140318071107 L   I
 OLDACT:REG 14-03-18 08:18 OP:mh   STATUS:               ID:20140318070815     3
 2014-03-18-0708-15M.COL___223                                                 6
 STAT SP IPHASW D HRMM SECON CODA AMPLIT PERI AZIMU VELO AIN AR TRES W  DIS CAZ7
 BAR2 SZ EP   1    711 27.92                             171    0.40 7 23.8 190 
 BAR2 SZ ES        711 43.32                             171    0.1110 23.8 190 
 BAR2 SZ I         711 44.46        36.9 0.22            170           23.8 190 
 PAM  SZ EP        711 30.50                             152    0.4810 76.9  40 
 PAM  SN ES        711 47.56                             152   -0.0910 76.9  40 
 PAM  SZ I         711 49.83        16.8 0.57            154           76.9  40 
 RUS  HZ EP        711 31.13                             144   -0.4510  101 176 
 RUS  HN ES        711 49.80                             144   -0.6310  101 176 
 RUS  HZ I         711 51.70         6.9 0.30            146            101 176 
 PTB  HZ EP        711 34.38                             133   -0.35 9  148 259 
 PTB  HN ES        711 55.49                             133   -0.55 9  148 259 
 PTB  HZ I         712  1.57        10.1 0.09            133            148 259 
 TAM  HZ EP   1    711 35.79                             131    0.40 7  155 105 
 TAM  HN ES        711 57.18                             131   -0.03 9  155 105 
 TAM  HZ I         711 58.79         6.1 0.42            135            155 105 
 OCA  HZ EP        711 35.83                             130   -0.16 9  160 353 
 OCA  HN ES        711 58.53                             130    0.25 9  160 353 
 OCA  HZ I         712  2.14        14.5 0.23            132            160 353 
 SPBC HZ EP   1    711 36.60                             130    0.34 7  164 219 
 SPBC HN ES        711 59.71                             130    0.95 9  164 219 
 SPBC HZ I         712  4.10        10.7 0.33            130            164 219 
 ZAR  HZ EP   1    711 40.71                             123    0.59 6  204 292 
 ZAR  HN ES        712  5.95                             123    0.31 9  204 292 
 ZAR  HZ I         712 11.68         9.0 0.06            124            204 292 
 SML  HZ EP   1    711 43.92                             118   -0.31 6  243 335 
 SML  HN ES   1    712 12.38                             118   -0.57 6  243 335 
 SML  HE I         712 17.38        38.3 0.09            119            243 335 
 CHI  HZ EP        711 45.43                             118    0.05 8  249 195 
 CHI  HN ES        712 14.92                             118   -0.08 8  249 195 
 CHI  HZ I         712 21.80         2.5 0.39            119            249 195 
 URE  HZ EP   1    711 48.06                             114   -0.62 6  284 292 
 URE  HN ES   4    712 18.06                             114   -2.81 0  284 292 
 CBOC HZ EP   4    711 55.67                             110    1.13 0  334 252 
 CBOC HN ES   4    712 37.03                             110    5.74 0  334 252 
 SJC  HZ EP   4    712  1.80                             106   -1.28 0  409 327 
 SJC  HN ES   4    712 43.22                             106   -3.28 0  409 327 
                                                                                
