 2013  418 0742 35.8 L   6.808 -73.129147.8  RSN 13 0.5 2.1LRSN                1
 GAP=138        0.94       3.3     5.5  5.9 -0.2250E+00  0.1223E+02  0.2620E+01E
 Epicentro: LOS SANTOS - SANTANDER                                             3
 ACTION:UPD 13-05-22 14:39 OP:EP   STATUS:               ID:20130418074235 L   I
 2013-04-18-0740-00M.COL___250                                                 6
 STAT SP IPHASW D HRMM SECON CODA AMPLIT PERI AZIMU VELO AIN AR TRES W  DIS CAZ7
 BAR2 SZ IP     C  742 55.73                             170    0.0510 24.5 194 
 BAR2 SZ ES   1    743 10.59                             170   -0.61 7 24.5 194 
 BAR2 SZ I         743 12.22        53.7 0.26            167           24.5 194 
 GIR2 SZ EP        742 55.79                             168    0.1010 30.8 347 
 GIR2 SZ ES   1    743 11.54                             168    0.33 7 30.8 347 
 GIR2 SZ I         743 12.77        19.2 0.14            165           30.8 347 
 BRR  HZ IP     D  742 57.57                             152    0.3510 72.4 297 
 BRR  HN ES   1    743 14.47                             152    0.53 7 72.4 297 
 BRR  HZ I         743 15.13        28.6 0.14            148           72.4 297 
 PAM  SZ EP        742 58.50                             152    0.3910 75.6  39 
 PAM  SN ES   1    743 15.70                             152    0.18 7 75.6  39 
 PAM  SZ I         743 16.42        14.6 0.16            157           75.6  39 
 RUS  HZ EP        742 59.80                             144    0.0110  101 177 
 RUS  HN ES   1    743 17.66                             144   -0.85 7  101 177 
 RUS  HZ I         743 19.65        17.8 0.32            145            101 177 
 PTB  HZ EP        743  2.51                             132   -0.59 9  150 259 
 PTB  HN ES   3    743 23.33                             132   -1.07 2  150 259 
 PTB  HZ I         743 29.08        23.2 0.30            130            150 259 
 OCA  HZ EP   2    743  3.30                             130   -0.90 5  160 352 
 OCA  HN ES   1    743 25.64                             130   -0.72 7  160 352 
 OCA  HZ I         743 30.50        10.1 0.32            131            160 352 
 ZAR  HZ EP        743  9.03                             123    0.52 8  205 292 
 ZAR  HE ES   1    743 34.24                             123    0.22 6  205 292 
 ZAR  HZ I         743 39.83        15.8 0.36            122            205 292 
 NOR  HZ EP        743 11.76                             119   -0.09 8  237 235 
 NOR  HN ES   4    743 38.24                             119   -1.73 0  237 235 
 NOR  HZ I         743 43.54         7.0 0.20            118            237 235 
 SML  HZ EP        743 12.11                             118   -0.42 8  244 335 
 SML  HN ES   4    743 39.53                             118   -1.65 0  244 335 
 SML  HZ I         743 41.98        12.4 0.09            119            244 335 
 CHI  HZ EP   2    743 14.02                             117    0.28 4  250 196 
 CHI  HN ES        743 43.96                             117    0.62 8  250 196 
 CHI  HZ I         743 47.56         6.2 0.54            118            250 196 
 HEL  HZ EP   4    743 17.74                             115    1.42 0  274 256 
 HEL  HN ES   4    743 49.92                             115    1.98 0  274 256 
 HEL  HZ I         743 55.20         9.3 0.36            115            274 256 
 URE  HZ EP   4    743 19.71                             114    2.60 0  285 292 
 URE  HN ES   4    743 52.28                             114    2.94 0  285 292 
 PRA  HZ EP   1    743 29.16                             107   -0.41 4  394 210 
 PRA  HN ES   1    744 11.21                             107   -0.31 4  394 210 
 PRA  HZ I         744 15.00         7.2 0.28            107            394 210 
                                                                                
