 2013  418 0304  8.4 L   6.782 -73.143140.7  RSN  6 0.5 1.6LRSN                1
 GAP=138        1.11       6.7     6.0 10.5  0.3278E+01  0.1450E+02  0.2506E+01E
 Epicentro: LOS SANTOS - SANTANDER                                             3
 ACTION:UPD 13-05-22 14:39 OP:EP   STATUS:               ID:20130418030408 L   I
 2013-04-18-0300-00M.COL___250                                                 6
 STAT SP IPHASW D HRMM SECON CODA AMPLIT PERI AZIMU VELO AIN AR TRES W  DIS CAZ7
 BRR  HZ IP     C  3 4 29.17                             151    0.0610 72.4 300 
 BRR  HZ I         3 4 44.14         9.3 0.34            148           72.4 300 
 BRR  HE ES   1    3 4 46.01                             151    0.77 7 72.4 300 
 PAM  SZ EP        3 4 30.17                             149   -0.0210 78.8  38 
 PAM  SN ES   1    3 4 46.64                             149   -0.53 7 78.8  38 
 PAM  SZ I         3 4 48.73         4.8 0.36            151           78.8  38 
 RUS  HZ EP        3 4 32.06                             143    0.5210 98.5 176 
 RUS  HN ES   1    3 4 49.42                             143   -0.14 7 98.5 176 
 RUS  HZ I         3 4 51.71         3.6 0.28            144           98.5 176 
 PTB  HZ EP        3 4 34.10                             131   -0.88 9  148 260 
 PTB  HN ES   1    3 4 55.34                             131   -0.35 7  148 260 
 PTB  HZ I         3 5  0.57         4.6 0.40            129            148 260 
 OCA  HN ES   4    3 4 57.62                             128   -0.86 0  162 353 
 ZAR  HZ EP        3 4 41.18                             121    0.52 9  205 293 
 ZAR  HN ES   1    3 5  5.66                             121   -0.14 6  205 293 
 ZAR  HZ I         3 5 11.77         6.0 0.30            120            205 293 
 NOR  HZ EP   4    3 4 43.83                             117    0.06 0  234 235 
 NOR  HN ES   4    3 5 10.80                             117   -0.53 0  234 235 
 SML  HZ EP   4    3 4 43.72                             116   -1.27 0  246 335 
 SML  HE ES   4    3 5 12.09                             116   -1.42 0  246 335 
 SML  HZ I         3 5 14.42         4.4 0.10            115            246 335 
                                                                                
