 2017 1018 0109  6.9 L   6.640 -73.623100.0  RSN  6 0.5 1.7LRSN                1
 GAP=119        1.12       6.0     4.8  7.7  0.1747E+02  0.7971E+01  0.1534E+02E
 Epicentro: EL CARMEN - SANTANDER                                              3
 ACTION:UPD 17-11-07 19:33 OP:rebc STATUS:               ID:20171018010906 L   I
 OLDACT:UP  17-10-18 14:09 OP:dani STATUS:               ID:20171018010211     3
 OLDACT:REG 17-10-18 13:02 OP:dani STATUS:               ID:20171018010211     3
 2017-10-18-0108-00M.COL___425                                                 6
 STAT SP IPHASW D HRMM SECON CODA AMPLIT PERI AZIMU VELO AIN AR TRES W  DIS CAZ7
 BAR2 EZ EP     D  1 9 21.77                             152   -0.4310 49.0  96 
 BAR2 EZ ES        1 9 34.12                             152   -0.0110 49.0  96 
 BAR2 EZ I         1 9 35.64        50.9 0.28            154           49.0  96 
 BRR  HZ EP     D  1 9 21.46                             150   -0.6110 52.6 349 
 BRR  HE ES        1 9 34.30                             150    0.4010 52.6 349 
 BRR  HZ I         1 9 40.83         7.6 0.14            152           52.6 349 
 PTB  HZ EP        1 9 24.76                             134   -0.4010 92.8 263 
 PTB  HN ES        1 9 39.31                             134   -0.1010 92.8 263 
 PTB  HZ I         1 9 40.61        12.3 0.16            139           92.8 263 
 RUS  HZ EP        1 9 26.40                             131   -0.2310  102 144 
 RUS  HE ES        1 9 42.58                             131    0.5610  102 144 
 RUS  HZ I         1 9 44.00        15.8 0.40            136            102 144 
 ZAR  HZ EP        1 9 33.37                             116    0.81 9  166 305 
 ZAR  HE ES   3    1 9 54.67                             116    2.10 2  166 305 
 YPLC HZ EP        1 9 35.73                             112   -0.12 9  194 135 
 YPLC HN ES        1 9 58.61                             112    0.19 9  194 135 
 YPLC HZ I         110  0.48         4.7 0.46            116            194 135 
                                                                                
