 2011  318 0058  0.1 L   6.800 -73.128147.0  RSN  7 0.2 1.8LRSN                1
 GAP=161        0.49       2.1     4.9  3.9 -0.4101E+01  0.4080E+01  0.2601E+00E
 Epicentro: LOS SANTOS - SANTANDER                                             3
 ACTION:UP  11-06-16 14:34 OP:jfem STATUS:               ID:20110318005800 L   I
 2011-03-18-0055-32S.COL___134                                                 6
 STAT SP IPHASW D HRMM SECON CODA AMPLIT PERI AZIMU VELO SNR AR TRES W  DIS CAZ7
 BTL  SZ ES   1    058 35.07                             172    -0.1 8   20 310 
 BAR2 SZ EP   1    058 19.80                             170     0.0 8   24 195 
 BAR2 SZ ES   1    058 35.19                             170    -0.1 8   24 195 
 BAR2 SZ I         058 36.57        18.0 0.25                            24 195 
 RUS  HZ EP        058 23.75                             144    -0.210  100 177 
 RUS  HN ES   1    058 42.61                             144     0.1 7  100 177 
 RUS  HZ I         058 44.21         5.2 0.48                           100 177 
 GRA  SZ EP   1    058 25.59                             137     0.2 7  125  17 
 GRA  SZ ES   1    058 45.25                             137     0.2 7  125  17 
 GRA  SZ I         058 47.49         9.6 0.30                           125  17 
 OCA  SZ EP   1    058 28.03                             130    -0.5 7  161 352 
 OCA  SZ ES   1    058 50.86                             130     0.2 7  161 352 
 OCA  SZ I         058 55.88         9.6 0.32                           161 352 
 NOR  SZ EP   1    058 36.26                             119     0.2 6  236 235 
 NOR  SN ES   1    059  4.03                             119    -0.1 6  236 235 
 CHI  HZ EP   1    058 37.85                             117     0.0 6  249 196 
 CHI  HN ES   1    059  7.73                             117     0.4 6  249 196 
 CHI  HZ I         059 13.75         2.8 0.68                           249 196 
                                                                                
