 2010  718 0509 54.1 L   7.337 -72.885  4.0  RSN  8 0.5 2.3LRSN                1
 GAP=179        1.27       2.9     6.3  7.8 -0.1006E+02  0.1127E+02 -0.2709E+00E
 Epicentro: VETAS - SANTANDER                                                  3
 ACTION:UPD 10-12-01 15:18 OP:pat  STATUS:               ID:20100718050954 L   I
 2010-07-18-0508-43S.COL___120                                                 6
 STAT SP IPHASW D HRMM SECON CODA AMPLIT PERI AZIMU VELO AIN AR TRES W  DIS CAZ7
 GIR2 SZ IP        510  1.82                              47     0.310   44 230 
 GIR2 SZ ES   1    510  6.61                              47    -0.8 7   44 230 
 GUE  SZ EP        510  2.88                              47    -0.410   55 355 
 GUE  SZ ES   1    510  9.64                              47    -0.8 7   55 355 
 GUE  SZ I         510 10.46       127.8 0.12                            55 355 
 GRA  SZ IP        510  4.43                              47     0.310   61   8 
 GRA  SZ ES   1    510 11.81                              47    -0.1 7   61   8 
 GRA  SZ I         510 13.97       314.4 0.50                            61   8 
 BAR2 SZ EP   1    510  8.56                              47     0.2 7   89 202 
 BAR2 SZ ES   1    510 18.69                              47    -0.8 7   89 202 
 BAR2 SZ I         510 20.20        64.4 0.21                            89 202 
 BRR  HZ IP     D  510  9.49                              47     0.510   95 255 
 BRR  HZ I         510 10.04        74.4 0.13                            95 255 
 BRR  HE ES   1    510 20.87                              47     0.2 7   95 255 
 OCA  SZ EP        510 12.07                              47     0.510  111 334 
 OCA  SZ ES   2    510 24.87                              47    -0.4 5  111 334 
 OCA  SZ I         510 27.03        60.3 0.31                           111 334 
 RUS  HZ EP   2    510 20.64                              47     1.0 5  161 188 
 RUS  HN ES   1    510 39.28                              47    -0.2 7  161 188 
 RUS  HZ I         510 41.74        43.3 0.27                           161 188 
 HEL  HN ES   2    511 15.62                              36     0.6 3  319 247 
 HEL  HZ I         511 17.62         7.1 0.31                           319 247 
                                                                                
