 2011  718 0857 17.8 L   6.783 -73.127149.1  RSN 14 0.5 2.5LRSN                1
 GAP=146        1.05       4.7     6.5  7.3 -0.1796E+02  0.1026E+02  0.4475E+01E
 Epicentro: LOS SANTOS - SANTANDER                                             3
 ACTION:UPD 12-07-25 14:01 OP:epov STATUS:               ID:20110718085717 L   I
 2011-07-18-0855-44S.COL___143                                                 6
 STAT SP IPHASW D HRMM SECON CODA AMPLIT PERI AZIMU VELO AIN AR TRES W  DIS CAZ7
 BTL  SZ EP        857 38.06                             171    0.2810 21.6 314 
 BAR2 SZ IP        857 37.82                             171    0.0410 22.0 196 
 BAR2 SZ ES   1    857 53.33                             171   -0.06 7 22.0 196 
 BAR2 SZ I         857 54.81        53.7 0.12                          22.0 196 
 BRR  HZ EP        857 39.83                             152    0.3910 73.9 299 
 BRR  HN ES   2    857 57.14                             152    0.81 5 73.9 299 
 BRR  HZ I         857 58.20        90.9 0.13                          73.9 299 
 PAM  SZ EP   1    857 40.82                             151    0.46 7 77.5  37 
 PAM  SN ES   1    857 57.83                             151   -0.14 7 77.5  37 
 BRI  SZ EP   1    857 42.62                             142    0.56 7  109  19 
 BRI  SZ ES   1    858  1.34                             142    0.34 7  109  19 
 GRA  SZ EP        857 42.19                             138   -1.2210  127  16 
 GRA  SZ I         858  3.08        40.6 0.34                           127  16 
 OCA  SZ EP        857 46.81                             130    0.27 9  162 352 
 OCA  SZ ES   1    858  8.26                             130   -0.72 7  162 352 
 OCA  SZ I         858 13.32        32.8 0.28                           162 352 
 NOR  SZ EP   1    857 53.75                             119   -0.02 6  235 235 
 NOR  SE ES   1    858 21.47                             119   -0.38 6  235 235 
 CHI  HZ EP   1    857 55.64                             118    0.11 6  247 196 
 CHI  HN ES   1    858 24.06                             118   -0.92 6  247 196 
 CHI  HZ I         858 29.05        12.2 0.56                           247 196 
 HEL  HZ EP   1    857 58.30                             115   -0.04 6  274 256 
 HEL  HN ES   1    858 29.43                             115   -0.54 6  274 256 
 HEL  HZ I         858 36.63        35.2 0.44                           274 256 
 RREF HZ EP   1    858  4.92                             111    0.81 5  322 230 
 RREF HN ES   1    858 39.59                             111   -0.66 5  322 230 
 RREF HZ I         858 45.35        17.6 0.26                           322 230 
 DBB  SZ EP   1    858  6.25                             110    0.60 5  342 275 
 SDV  BZ EP   1    858  7.54                             109   -0.36 5  360  50 
 SDV  BZ I         858  8.69         6.9 0.27                           360  50 
 PRA  HZ EP   1    858 11.11                             107   -0.24 4  391 210 
 PRA  HE ES        858 53.88                             107    0.74 6  391 210 
                                                                                
