 2016  118 0856 42.5 L   6.629 -73.475106.5  RSN  4 0.2 1.3LRSN                1
 GAP=193        0.66       2.8     6.3  6.6  0.1054E+01  0.2245E+02 -0.6509E+01E
 Epicentro: EL CARMEN - SANTANDER                                              3
 ACTION:UPD 16-03-09 23:26 OP:cam  STATUS:               ID:20160118085642 L   I
 OLDACT:DUP 16-01-18 17:35 OP:mh   STATUS:               ID:20160118084751d    3
 OLDACT:REG 16-01-18 12:56 OP:mh   STATUS:               ID:20160118084750     3
 2016-01-18-0847-50M.COL___319                                                 6
 STAT SP IPHASW D HRMM SECON CODA AMPLIT PERI AZIMU VELO AIN AR TRES W  DIS CAZ7
 BAR2 EZ EP     C  856 57.94                             162    0.2210 32.6  97 
 BAR2 EZ ES        857  9.49                             162   -0.1210 32.6  97 
 BAR2 EZ I         857 11.48         8.3 0.35            169           32.6  97 
 RUS  HZ EP        857  1.53                             136   -0.3710 92.3 152 
 RUS  HN ES        857 17.24                             136    0.1910 92.3 152 
 RUS  HZ I         857 19.11         2.8 0.21            142           92.3 152 
 PAM  EZ EP        857  4.40                             129    0.3510  116  47 
 PAM  EN ES        857 20.67                             129   -0.2010  116  47 
 PAM  EZ I         857 22.25         3.8 0.36            134            116  47 
 SML  HZ EP        857 17.62                             107   -0.24 8  249 345 
 SML  HN ES        857 45.60                             107    0.13 8  249 345 
 SML  HZ I         857 50.38         2.2 0.19            110            249 345 
                                                                                
