 2012  218 0631 46.7 L   6.759 -73.124139.3  RSN  5 0.3 0.9LRSN                1
 GAP=141        0.43       4.7     4.9  7.2  0.1218E+01  0.1108E+02  0.5426E+01E
 ACTION:UP  12-03-07 16:31 OP:epov STATUS:               ID:20120218063146 L   I
 2012-02-18-0630-00M.COL___188                                                 6
 STAT SP IPHASW D HRMM SECON CODA AMPLIT PERI AZIMU VELO AIN AR TRES W  DIS CAZ7
 BAR2 SZ ES   2    632 19.88                             172   -0.29 5 19.5 199 
 BRR  HZ EP   2    632  7.42                             150   -0.03 5 75.5 301 
 BRR  HE ES   2    632 24.13                             150    0.53 5 75.5 301 
 BRR  HZ I         632 28.61         3.9 0.18                          75.5 301 
 PAM  SE ES   2    632 25.13                             149   -0.17 5 79.5  36 
 RUS  HZ EP   2    632  9.57                             144    0.04 5 95.9 177 
 RUS  HZ I         632 10.69         0.6 0.14                          95.9 177 
 RUS  HN ES   2    632 27.51                             144    0.22 5 95.9 177 
 PTB  HZ EP   2    632 13.40                             130    0.07 5  149 261 
 PTB  HN ES   2    632 33.66                             130   -0.41 5  149 261 
                                                                                
