 2010  718 0745 40.2 L   6.086 -73.681114.9  RSN  5 0.2 1.8LRSN                1
 GAP=199        0.46       6.3     7.9  7.4 -0.1978E+02  0.9006E+01  0.1378E+02E
 Epicentro: CHIPATA - SANTANDER                                                3
 ACTION:UPD 10-12-01 15:18 OP:pat  STATUS:               ID:20100718074540 L   I
 2010-07-18-0742-59S.COL___119                                                 6
 STAT SP IPHASW D HRMM SECON CODA AMPLIT PERI AZIMU VELO AIN AR TRES W  DIS CAZ7
 BAR2 SZ ES   2    746 13.66                             143     0.0 5   78  44 
 BAR2 SZ I         746 14.72        31.9 0.23                            78  44 
 BRR  HZ IP     C  746  1.69                             132     0.210  113 358 
 BRR  HZ I         746  2.02        21.8 0.09                           113 358 
 BRR  HE ES   1    746 17.91                             132    -0.2 7  113 358 
 GUE  SZ EP   1    746 11.73                             114    -0.2 6  210  23 
 GUE  SZ I         746 40.08         2.3 0.18                           210  23 
 GUY  SZ EP   2    746 12.05                             114     0.0 4  210 243 
 GUY  SZ I         746 46.12         8.4 0.49                           210 243 
 OCA  SZ EP   2    746 15.14                             110    -0.1 4  241  10 
 OCA  SZ ES   2    746 42.90                             110     0.3 4  241  10 
 OCA  SZ I         746 45.83         3.8 0.58                           241  10 
                                                                                
