 2012 1118 0004  3.7 L   7.174 -73.379112.0  RSN  8 0.4 1.3LRSN                1
 GAP= 85        0.84       3.2     4.1  7.4  0.4834E+00  0.7006E+01 -0.2044E+01E
 Epicentro: LEBRIJA - SANTANDER                                                3
 ACTION:UPD 12-12-05 15:34 OP:}ep  STATUS:               ID:20121118000403 L   I
 2012-11-18-0000-00M.COL___234                                                 6
 STAT SP IPHASW D HRMM SECON CODA AMPLIT PERI AZIMU VELO AIN AR TRES W  DIS CAZ7
 BRR  HN ES   1    0 4 31.88                             160    0.24 7 37.5 259 
 BAR2 SZ EP   1    0 4 22.00                             147    0.60 7 67.9 161 
 BAR2 SZ ES   1    0 4 35.44                             147    0.21 7 67.9 161 
 PAM  SZ EP   1    0 4 22.93                             143    0.52 7 77.2  76 
 PAM  SE ES   1    0 4 37.13                             143    0.10 7 77.2  76 
 PAM  SZ I         0 4 39.17         3.3 0.25                          77.2  76 
 OCA  HZ EP   1    0 4 25.22                             130   -0.16 7  118   3 
 OCA  HE ES   1    0 4 41.79                             130   -0.52 7  118   3 
 PTB  HZ EP   1    0 4 27.08                             125   -0.08 7  138 240 
 PTB  HE ES   1    0 4 45.05                             125   -0.42 7  138 240 
 PTB  HZ I         0 4 49.37         3.9 0.26                           138 240 
 RUS  HZ EP   1    0 4 28.27                             124   -0.24 7  145 167 
 RUS  HN ES   1    0 4 47.07                             124   -0.82 7  145 167 
 ZAR  HZ EP   1    0 4 30.66                             119    0.53 7  167 282 
 ZAR  HE ES   2    0 4 51.43                             119    0.67 5  167 282 
 ZAR  HZ I         0 4 55.23         3.7 0.26                           167 282 
 SML  HN ES   1    0 4 55.81                             115   -0.42 6  195 337 
                                                                                
