 2012  618 0738 20.8 L   6.782 -73.158142.8  RSN  5 0.4 1.3LRSN                1
 GAP=136        0.66       6.7     7.3  8.3 -0.9012E+01  0.2323E+02 -0.1904E+02E
 Epicentro: LOS SANTOS - SANTANDER                                             3
 ACTION:UPD 12-08-06 17:50 OP:ep   STATUS:               ID:20120618073823 L   I
 2012-06-18-0730-00M.COL___199                                                 6
 STAT SP IPHASW D HRMM SECON CODA AMPLIT PERI AZIMU VELO AIN AR TRES W  DIS CAZ7
 BAR2 SZ EP   3    738 40.19                             171    0.11 2 21.1 187 
 BAR2 SZ I         738 40.48         9.0 0.34            138           21.1 187 
 BAR2 SZ ES   1    738 54.99                             171   -0.09 7 21.1 187 
 PAM  SZ EP        738 42.99                             149    0.1010 79.8  39 
 PAM  SZ I         738 43.18         3.2 0.24            142           79.8  39 
 RUS  HZ EP        738 44.21                             143    0.0410 98.7 175 
 RUS  HE ES   2    739  2.90                             143    0.54 5 98.7 175 
 RUS  HZ I         739  4.05         1.7 0.32            127           98.7 175 
 PTB  HZ EP        738 46.98                             132   -0.44 9  146 260 
 PTB  HZ I         739 11.31         2.8 0.14            110            146 260 
 ZAR  HZ EP   2    738 53.93                             122    0.88 4  204 293 
                                                                                
