 2016  818 0033 55.9 L   6.788 -73.148146.0  RSN 10 0.5 1.7LRSN                1
 GAP=236        1.03       4.0     5.0  6.2  0.4021E+01  0.8314E+01  0.5180E+01E
 Epicentro: LOS SANTOS - SANTANDER                                             3
 ACTION:UPD 16-10-29 15:36 OP:rebc STATUS:               ID:20160818003355 L   I
 OLDACT:REG 16-08-18 12:39 OP:ak   STATUS:               ID:20160818002759     3
 2016-08-18-0027-59S.COL___349                                                 6
 STAT SP IPHASW D HRMM SECON CODA AMPLIT PERI AZIMU VELO AIN AR TRES W  DIS CAZ7
 BAR2 EZ EP        034 15.35                             171   -0.2110 22.0 190 
 BAR2 EZ ES        034 30.99                             171    0.1210 22.0 190 
 BAR2 EZ I         034 31.92        19.1 0.19                          22.0 190 
 BRR  HZ IP     C  034 17.28                             153    0.1510 71.6 300 
 BRR  HN ES        034 34.32                             153    0.6610 71.6 300 
 BRR  HZ I         034 35.28         9.5 0.23                          71.6 300 
 RUS  HZ EP        034 19.32                             145   -0.2910 99.3 176 
 RUS  HN ES        034 38.16                             145    0.0810 99.3 176 
 RUS  HZ I         034 39.19         6.2 0.26                          99.3 176 
 PTB  HZ EP        034 21.78                             132   -1.09 9  147 259 
 PTB  HN ES        034 43.29                             132   -0.59 9  147 259 
 PTB  HZ I         034 45.03         5.5 0.12                           147 259 
 SPBC HZ EP        034 24.16                             130   -0.17 9  162 219 
 SPBC HN ES        034 46.61                             130    0.12 9  162 219 
 SPBC HZ I         034 49.25         8.2 0.20                           162 219 
 ZAR  HZ EP        034 28.61                             123    0.20 9  204 293 
 ZAR  HN ES        034 53.85                             123    0.10 9  204 293 
 ZAR  HZ I         034 59.73         3.2 0.18                           204 293 
 NOR  HZ EP   2    034 31.36                             119   -0.21 4  234 235 
 NOR  HN ES        034 59.28                             119   -0.08 8  234 235 
 NOR  HZ I         035  5.02         2.3 0.14                           234 235 
 CHI  HZ EP   2    034 34.27                             118    0.78 4  247 195 
 CHI  HN ES        035  3.14                             118    0.35 8  247 195 
 GUY2CHZ EP   2    034 40.24                             113    0.80 4  300 235 
 GUY2CHN ES        035 14.16                             113    0.78 7  300 235 
 GUY2CHZ I         035 22.20         2.2 0.39                           300 235 
 PRA  HZ EP        034 49.89                             107    0.58 6  391 210 
 PRA  HN ES        035 30.44                             107   -0.50 6  391 210 
 PRA  HZ I         035 37.87         2.2 0.44                           391 210 
                                                                                
