 2013  518 0059 50.1 L   6.700 -73.088143.0  RSN  6 0.5 1.5LRSN                1
 GAP=148        1.15       7.1    10.4  8.6  0.2796E+01  0.1184E+02  0.1040E+02E
 Epicentro: JORDAN - SANTANDER                                                 3
 ACTION:UPD 13-06-20 09:51 OP:ep   STATUS:               ID:20130518005950 L   I
 2013-05-18-0058-50M.COL___227                                                 6
 STAT SP IPHASW D HRMM SECON CODA AMPLIT PERI AZIMU VELO AIN AR TRES W  DIS CAZ7
 BAR2 SZ EP        1 0  9.38                             173    0.1410 15.8 221 
 BAR2 SZ ES        1 0 24.72                             173    0.5310 15.8 221 
 BAR2 SZ I         1 0 26.43         6.5 0.39            173           15.8 221 
 GIR2 SZ EP   1    1 0 10.11                             163    0.30 7 43.4 345 
 GIR2 SZ ES        1 0 25.10                             163   -0.1010 43.4 345 
 GIR2 SZ I         1 0 26.68         6.0 0.36            166           43.4 345 
 BRR  HZ EP        1 0 11.38                             148   -0.2210 82.3 303 
 BRR  HN ES   1    1 0 28.68                             148    0.30 7 82.3 303 
 PAM  SZ EP   1    1 0 12.17                             149   -0.16 7 82.7  31 
 PAM  SN ES   1    1 0 29.07                             149   -0.61 7 82.7  31 
 PAM  SZ I         1 0 31.59        11.0 0.54            151           82.7  31 
 RUS  HZ EP        1 0 13.45                             146    0.6910 89.3 180 
 RUS  HN ES   1    1 0 29.43                             146   -1.02 7 89.3 180 
 RUS  HZ I         1 0 33.73         2.7 0.22            147           89.3 180 
 PTB  HZ EP   1    1 0 16.47                             130   -0.77 7  152 263 
                                                                                
