 2012 1218 0720 45.4 L   6.794 -73.170143.3  RSN  6 0.3 1.6LRSN                1
 GAP=134        0.70       3.7     4.2  5.1 -0.1887E+01  0.4461E+01  0.1484E+01E
 Epicentro: LOS SANTOS - SANTANDER                                             3
 ACTION:UPD 13-01-04 14:28 OP:ep   STATUS:               ID:20121218072045 L   I
 2012-12-18-0720-00M.COL___242                                                 6
 STAT SP IPHASW D HRMM SECON CODA AMPLIT PERI AZIMU VELO AIN AR TRES W  DIS CAZ7
 BAR2 SZ EP        721  4.75                             171    0.0810 22.4 183 
 BAR2 SZ ES        721 19.40                             171   -0.3410 22.4 183 
 BAR2 SZ I         721 21.20        17.5 0.18                          22.4 183 
 BRR  HZ EP        721  6.54                             153    0.4110 69.2 300 
 BRR  HE ES   1    721 22.73                             153    0.40 7 69.2 300 
 BRR  HZ I         721 24.45         4.9 0.23                          69.2 300 
 PAM  SZ EP        721  7.53                             150    0.0810 79.6  41 
 PAM  SZ I         721  7.96         6.4 0.16                          79.6  41 
 PAM  SN ES        721 24.49                             150   -0.1910 79.6  41 
 RUS  HZ EP        721  8.81                             143   -0.0310  100 174 
 RUS  HN ES        721 27.40                             143    0.2510  100 174 
 RUS  HN I         721 28.65         8.4 0.37                           100 174 
 PTB  HZ EP        721 11.38                             132   -0.49 9  145 259 
 PTB  HN ES   1    721 32.44                             132   -0.12 7  145 259 
 PTB  HZ I         721 35.91         4.5 0.07                           145 259 
 CHI  HZ EP   1    721 22.78                             117    0.00 6  247 195 
                                                                                
