 2016 1218 0647 47.4 L   6.749 -73.196149.9  RSN  6 0.4 1.1LRSN                1
 GAP=228        1.05       5.5     6.7  6.9  0.2020E+02  0.1077E+02  0.6909E+01E
 Epicentro: VILLANUEVA - SANTANDER                                             3
 ACTION:UPD 17-01-11 20:16 OP:rebc STATUS:               ID:20161218064747 L   I
 OLDACT:UP  16-12-18 18:01 OP:edw  STATUS:               ID:20161218063739     3
 OLDACT:REG 16-12-18 14:48 OP:edw  STATUS:               ID:20161218063739     3
 2016-12-18-0638-00M.COL___375                                                 6
 STAT SP IPHASW D HRMM SECON CODA AMPLIT PERI AZIMU VELO AIN AR TRES W  DIS CAZ7
 BAR2 EZ EP        648  7.09                             173   -0.3210 17.5 175 
 BAR2 EZ ES        648 22.56                             173   -0.4710 17.5 175 
 BAR2 EZ I         648 23.54         2.0 0.14            172           17.5 175 
 BRR  HZ EP        648  8.91                             154    0.0310 69.4 305 
 BRR  HN ES        648 25.79                             154    0.1410 69.4 305 
 RUS  HZ EP        648 11.35                             146    0.1510 95.6 172 
 RUS  HN ES        648 30.44                             146    0.6710 95.6 172 
 RUS  HZ I         648 31.13         1.9 0.28            147           95.6 172 
 PTB  HZ EP        648 14.37                             134    0.25 9  141 261 
 PTB  HN ES        648 34.44                             134   -0.53 9  141 261 
 PTB  HZ I         648 36.92         1.4 0.12            133            141 261 
 ZAR  HZ EP        648 20.17                             124    0.37 9  201 294 
 ZAR  HE ES        648 45.35                             124    0.26 9  201 294 
 ZAR  HZ I         648 51.53         1.3 0.22            123            201 294 
 CHI  HZ EP        648 23.70                             119   -0.88 8  242 194 
 CHI  HE ES        648 53.83                             119    0.23 8  242 194 
                                                                                
