 2016  818 0510 45.7 L   6.790 -73.150147.6  RSN  8 0.3 1.5LRSN                1
 GAP=136        0.84       3.6     3.5  5.5 -0.1644E+01  0.5245E+01  0.2258E+01E
 Epicentro: LOS SANTOS - SANTANDER                                             3
 ACTION:UPD 16-10-29 15:36 OP:rebc STATUS:               ID:20160818051045 L   I
 OLDACT:REG 16-08-18 12:57 OP:ak   STATUS:               ID:20160818050759     3
 2016-08-18-0507-59S.COL___346                                                 6
 STAT SP IPHASW D HRMM SECON CODA AMPLIT PERI AZIMU VELO AIN AR TRES W  DIS CAZ7
 BAR2 EZ EP        511  5.40                             171   -0.1410 22.1 189 
 BAR2 EZ ES        511 21.15                             171    0.1410 22.1 189 
 BAR2 EZ I         511 22.21         8.2 0.14                          22.1 189 
 BRR  HZ EP        511  7.37                             153    0.3010 71.3 300 
 BRR  HN ES        511 23.96                             153    0.2410 71.3 300 
 BRR  HZ I         511 28.57         5.0 0.43                          71.3 300 
 PAM  EZ EP        511  8.42                             151    0.2210 78.6  39 
 PAM  EE ES        511 25.65                             151   -0.0810 78.6  39 
 PAM  EZ I         511 27.77         6.7 0.46                          78.6  39 
 RUS  HZ EP        511  9.10                             144   -0.4710 99.5 176 
 RUS  HN ES        511 28.29                             144    0.1110 99.5 176 
 RUS  HZ I         511 29.33         2.8 0.28                          99.5 176 
 PTB  HZ EP        511 12.31                             133   -0.46 9  147 259 
 PTB  HN ES        511 33.29                             133   -0.58 9  147 259 
 PTB  HZ I         511 34.56         2.3 0.27                           147 259 
 SPBC HZ EP   2    511 13.83                             130   -0.41 5  162 219 
 SPBC HN ES        511 36.60                             130    0.11 9  162 219 
 SPBC HZ I         511 41.41         5.2 0.16                           162 219 
 ZAR  HN ES        511 43.59                             123   -0.08 9  204 292 
 GUY2CHZ EP        511 29.96                             113    0.67 7  300 235 
 GUY2CHN ES        512  3.86                             113    0.59 7  300 235 
 GUY2CHZ I         512 11.81         1.7 0.36                           300 235 
                                                                                
