 2013  718 0117 16.5 L   6.774 -73.154136.1  RSN  4 0.1 1.6LRSN                1
 GAP=242        0.39       4.4     4.0  6.9  0.1294E+02 -0.8684E+01 -0.1420E+02E
 Epicentro: LOS SANTOS - SANTANDER                                             3
 ACTION:UPD 13-08-12 10:38 OP:ep   STATUS:               ID:20130718011716 L   I
 OLDACT:UP  13-07-18 08:09 OP:mh   STATUS:               ID:20130718010960d    3
 OLDACT:DUP 13-07-18 08:05 OP:mh   STATUS:               ID:20130718010960d    3
 OLDACT:REG 13-07-18 07:35 OP:mh   STATUS:               ID:20130718010959     3
 2013-07-18-0109-59M.COL___265                                                 6
 STAT SP IPHASW D HRMM SECON CODA AMPLIT PERI AZIMU VELO AIN AR TRES W  DIS CAZ7
 RUS  HZ EP   1    117 39.24                             142    0.10 8 97.8 175 
 RUS  HE ES   1    117 56.73                             142   -0.04 8 97.8 175 
 RUS  HE I         117 58.80         6.1 0.18            156           97.8 175 
 PTB  HZ EP   1    117 42.38                             130   -0.21 7  146 260 
 PTB  HN ES        118  2.77                             130   -0.1510  146 260 
 PTB  HZ I         118  7.52         2.8 0.14            137            146 260 
 SPBC HZ EP   1    117 44.04                             127    0.01 7  160 219 
 SPBC HN ES   1    118  5.68                             127    0.19 7  160 219 
 ZAR  HE ES        118 13.40                             120    0.16 9  204 293 
 ZAR  HE I         118 22.28         8.6 0.18            125            204 293 
                                                                                
