 2013  118 0144 19.3 L   6.753 -73.154145.5  RSN  7 0.4 1.6LRSN                1
 GAP=138        0.81       4.9     4.8  6.8  0.3165E+01  0.5996E+01  0.7730E+01E
 Epicentro: LOS SANTOS - SANTANDER                                             3
 ACTION:UPD 13-02-15 09:14 OP:ep   STATUS:               ID:20130118014419 L   I
 2013-01-18-0140-00M.COL___241                                                 6
 STAT SP IPHASW D HRMM SECON CODA AMPLIT PERI AZIMU VELO AIN AR TRES W  DIS CAZ7
 BAR2 SZ EP   1    144 38.82                             173    0.01 7 18.0 190 
 BAR2 SZ ES   1    144 54.25                             173    0.23 7 18.0 190 
 BRR  HZ EP        144 40.67                             152    0.1410 73.0 302 
 BRR  HE ES   1    144 57.87                             152    0.78 7 73.0 302 
 BRR  HZ I         145  0.98        10.2 0.44            143           73.0 302 
 PAM  SZ EP   1    144 41.71                             149   -0.07 7 82.1  38 
 PAM  SN ES   1    144 58.82                             149   -0.49 7 82.1  38 
 PAM  SZ I         145  1.08        10.4 0.44            139           82.1  38 
 RUS  HZ EP   1    144 42.75                             145    0.09 7 95.4 175 
 RUS  HN ES   1    145  0.61                             145   -0.28 7 95.4 175 
 RUS  HZ I         145  2.69        10.1 0.34            128           95.4 175 
 PTB  HZ EP   1    144 45.54                             132   -0.54 7  146 261 
 PTB  HN ES   1    145  6.31                             132   -0.66 7  146 261 
 PTB  HZ I         145  9.78         4.1 0.10            119            146 261 
 ZAR  HN ES   1    145 17.28                             122    0.04 6  205 294 
 CHI  HZ EP        144 56.85                             118    0.44 8  243 195 
 CHI  HZ I         145 31.89         2.0 0.32            106            243 195 
                                                                                
