 2012  518 0052 42.4 L   6.706 -73.232153.6  RSN  4 0.2 1.3LRSN                1
 GAP=220        0.50       6.2     6.6  6.7  0.2344E+02  0.7720E+00  0.7946E+01E
 Epicentro: VILLANUEVA - SANTANDER                                             3
 ACTION:UP  12-07-05 12:06 OP:pat  STATUS:               ID:20120518005242 L   I
 2012-05-18-0050-00M.COL___200                                                 6
 STAT SP IPHASW D HRMM SECON CODA AMPLIT PERI AZIMU VELO SNR AR TRES W  DIS CAZ7
 BRR  HZ EP        053  4.05                             155    -0.210   69 310 
 BRR  HZ I         053 10.72         5.7 0.54                            69 310 
 BRR  HN ES   1    053 21.51                             155     0.2 7   69 310 
 RUS  HZ EP        053  6.42                             148     0.110   91 170 
 RUS  HN ES   2    053 24.65                             148    -0.3 5   91 170 
 RUS  HZ I         053 25.72         1.9 0.48                            91 170 
 PTB  HZ EP        053  9.11                             136     0.1 9  137 262 
 PTB  HN ES   2    053 29.82                             136     0.0 5  137 262 
 PTB  HZ I         053 31.62         2.1 0.28                           137 262 
 ZAR  HN ES   3    053 39.66                             125    -0.6 2  200 296 
 ZAR  HZ I         053 42.51         1.8 0.32                           200 296 
                                                                                
