 2011 1218 0635 37.7 L   6.789 -73.074147.1  RSN 13 0.3 2.4LRSN                1
 GAP=146        0.48       2.3     3.3  3.9 -0.2816E+01  0.2534E+01  0.1948E+01E
 Epicentro: LOS SANTOS - SANTANDER                                             3
 ACTION:UPD 12-07-13 16:16 OP:ep   STATUS:               ID:20111218063537 L   I
 2011-12-18-0630-00M.COL___187                                                 6
 STAT SP IPHASW D HRMM SECON CODA AMPLIT PERI AZIMU VELO AIN AR TRES W  DIS CAZ7
 BAR2 SZ IP        635 57.42                             170   -0.0610 24.9 209 
 BAR2 SZ ES   2    636 12.43                             170   -0.51 5 24.9 209 
 BAR2 SZ I         636 13.92        51.6 0.37                          24.9 209 
 GIR2 SZ EP        635 57.52                             166   -0.0610 34.6 338 
 PAM  SZ EP        636  0.23                             152    0.4410 73.6  34 
 PAM  SN ES   2    636 17.41                             152    0.35 5 73.6  34 
 BRR  HZ IP     C  635 59.32                             150   -0.0710 78.8 297 
 BRR  HZ I         635 59.67        83.7 0.10                          78.8 297 
 BRR  HE ES   1    636 16.49                             150    0.15 7 78.8 297 
 RUS  HZ EP   1    636  1.40                             144   -0.04 7 99.2 181 
 RUS  HN ES   2    636 19.75                             144   -0.24 5 99.2 181 
 OCA  SZ EP        636  5.95                             129   -0.33 9  163 350 
 OCA  SZ ES   2    636 28.60                             129   -0.02 5  163 350 
 OCA  SZ I         636 34.58        28.0 0.36                           163 350 
 NOR  SZ EP        636 13.65                             118   -0.43 8  241 236 
 NOR  SN ES   2    636 42.40                             118   -0.10 4  241 236 
 CHI  HZ EP   1    636 15.79                             117    0.25 6  250 197 
 CHI  HN ES   2    636 44.89                             117   -0.20 4  250 197 
 CHI  HZ I         636 51.59        10.2 0.59                           250 197 
 ROSC BZ EP   2    636 16.05                             117   -0.14 4  256 213 
 ROSC BN ES   2    636 46.47                             117    0.22 4  256 213 
 ROSC BZ I         636 52.89        22.1 0.36                           256 213 
 HEL  HZ EP   1    636 18.86                             114    0.11 6  279 256 
 HEL  HN ES   2    636 50.81                             114   -0.01 4  279 256 
 HEL  HZ I         636 55.84        13.3 0.39                           279 256 
 GUY  SZ EP   1    636 22.62                             112    0.37 5  309 236 
 GUY  SN ES   2    636 57.62                             112    0.59 4  309 236 
 GUY  SZ I         637  5.53        18.8 0.50                           309 236 
 RREF HZ EP   2    636 24.62                             111    0.16 3  327 230 
 RREF HN ES   2    637  1.32                             111    0.36 3  327 230 
 RREF HZ I         637 11.38        10.8 0.42                           327 230 
 PRA  HZ EP   1    636 31.70                             107    0.14 4  395 211 
 PRA  HN ES   2    637 13.59                             107   -0.03 3  395 211 
                                                                                
