 2012  218 0557 36.9 L   6.733 -73.192150.8  RSN  6 0.3 1.3LRSN                1
 GAP=173        0.53       6.8     6.1  6.9  0.2213E+02  0.1266E+02  0.1403E+02E
 ACTION:UP  12-03-07 16:31 OP:epov STATUS:               ID:20120218055736 L   I
 2012-02-18-0550-00M.COL___188                                                 6
 STAT SP IPHASW D HRMM SECON CODA AMPLIT PERI AZIMU VELO AIN AR TRES W  DIS CAZ7
 BAR2 SZ EP   1    557 56.81                             174   -0.22 7 15.6 176 
 BAR2 SZ ES   2    558 12.25                             174   -0.46 5 15.6 176 
 BAR2 SZ I         558 12.90         3.8 0.26                          15.6 176 
 GIR2 SZ ES   2    558 13.20                             165   -0.16 5 38.2 360 
 BRR  HZ EP   2    557 58.62                             154    0.03 5 70.8 306 
 BRR  HZ I         557 58.81         4.7 0.18                          70.8 306 
 BRR  HN ES   2    558 16.22                             154    0.72 5 70.8 306 
 RUS  HZ EP   1    558  1.07                             147    0.38 7 93.7 173 
 RUS  HN ES   2    558 19.32                             147    0.08 5 93.7 173 
 RUS  HZ I         558 21.01         2.1 0.71                          93.7 173 
 PTB  HZ EP   1    558  3.53                             134   -0.22 7  141 261 
 PTB  HN ES   2    558 24.59                             134   -0.08 5  141 261 
 ZAR  HE ES   2    558 34.86                             124   -0.09 4  202 295 
                                                                                
