 2015  418 0505 40.1 L   6.780 -73.171142.8  RSN  5 0.5 1.4LRSN                1
 GAP=198        1.19       6.0     8.3  8.7  0.2070E+02 -0.2293E+01 -0.1685E+02E
 Epicentro: LOS SANTOS - SANTANDER                                             3
 ACTION:UPD 15-06-03 16:55 OP:cam  STATUS:               ID:20150418050540 L   I
 OLDACT:DUP 15-04-18 16:21 OP:carl STATUS:               ID:20150418045743d    3
 2015-04-18-0457-42M.COL___272                                                 6
 STAT SP IPHASW D HRMM SECON CODA AMPLIT PERI AZIMU VELO AIN AR TRES W  DIS CAZ7
 BAR2 EZ EP        5 5 59.33                             171    0.0310 20.8 184 
 BAR2 EZ ES        5 6 13.69                             171   -0.6110 20.8 184 
 BAR2 EZ I         5 6 15.07         9.1 0.16            167           20.8 184 
 BRR  HZ EP        5 6  1.31                             152    0.4810 69.9 301 
 BRR  HN ES        5 6 17.92                             152    0.9010 69.9 301 
 RUS  HZ EP        5 6  3.44                             144    0.0410 98.7 174 
 RUS  HN ES        5 6 21.50                             144   -0.0910 98.7 174 
 RUS  HZ I         5 6 22.58         3.5 0.24            142           98.7 174 
 PTB  HZ EP        5 6  6.74                             132    0.22 9  145 259 
 PTB  HN ES        5 6 26.64                             132   -0.51 9  145 259 
 PTB  HZ I         5 6 32.39         2.9 0.10            129            145 259 
 SML  HZ EP        5 6 16.51                             117   -0.12 8  245 336 
 SML  HE ES        5 6 44.47                             117   -0.67 8  245 336 
                                                                                
