 2017  118 0210 33.9 L   6.280 -73.648110.1  RSN  5 0.3 1.2LRSN                1
 GAP=163        0.88       5.1     4.5  8.9  0.1182E+02  0.1696E+02  0.7121E+01E
 Epicentro: SANTA HELENA DEL OPON - SANTANDER                                  3
 ACTION:UPD 17-05-22 16:00 OP:jn   STATUS:               ID:20170118021033 L   I
 OLDACT:UP  17-01-18 13:39 OP:dani STATUS:               ID:20170118020744     3
 OLDACT:UP  17-01-18 13:38 OP:dani STATUS:               ID:20170118020744     3
 OLDACT:UP  17-01-18 13:38 OP:dani STATUS:               ID:20170118020744     3
 OLDACT:UP  17-01-18 13:38 OP:dani STATUS:               ID:20170118020744     3
 OLDACT:REG 17-01-18 12:37 OP:dani STATUS:               ID:20170118020744     3
 2017-01-18-0208-00M.COL___331                                                 6
 STAT SP IPHASW D HRMM SECON CODA AMPLIT PERI AZIMU VELO AIN AR TRES W  DIS CAZ7
 BAR2 EZ ES        211  4.11                             149   -0.3010 62.1  56 
 RUS  HZ EP        210 52.38                             143    0.0510 75.8 124 
 RUS  HN ES        211  7.13                             143    0.4010 75.8 124 
 RUS  HZ I         211  8.25         2.9 0.18            151           75.8 124 
 BRR  HZ EP        210 52.61                             137   -0.2810 91.8 356 
 BRR  HE ES        211  7.83                             137    0.1110 91.8 356 
 BRR  HZ I         211 20.92         5.9 0.51            134           91.8 356 
 PTB  HZ EP        210 52.81                             136   -0.2810 93.9 288 
 PTB  HN ES        211  7.84                             136   -0.2410 93.9 288 
 PTB  HZ I         211 10.83         2.9 0.21            138           93.9 288 
 ZAR  HE ES        211 25.78                             115    0.70 9  189 315 
 ZAR  HZ I         211 33.09         2.9 0.30            117            189 315 
                                                                                
