 2013  118 0608 38.3 L   6.863 -73.295123.3  RSN  8 0.4 2.2LRSN                1
 GAP=106        0.81       3.2     4.8  6.6  0.2213E+01  0.8153E+01  0.1984E+01E
 Epicentro: ZAPATOCA - SANTANDER                                               3
 ACTION:UPD 13-02-15 09:15 OP:ep   STATUS:               ID:20130118060838 L   I
 2013-01-18-0607-49M.COL___183                                                 6
 STAT SP IPHASW D HRMM SECON CODA AMPLIT PERI AZIMU VELO AIN AR TRES W  DIS CAZ7
 BAR2 SZ EP        6 8 55.59                             164    0.0710 32.5 157 
 BAR2 SZ ES   1    6 9  8.89                             164   -0.04 7 32.5 157 
 BRR  HZ IP     D  6 8 55.99                             155   -0.0610 53.4 300 
 BRR  HN ES   1    6 9 10.13                             155    0.25 7 53.4 300 
 BRR  HZ I         6 9 12.06        26.3 0.16            143           53.4 300 
 PAM  SZ EP   1    6 8 59.06                             144    0.38 7 84.2  51 
 PAM  SN ES   1    6 9 15.24                             144    0.68 7 84.2  51 
 PAM  SZ I         6 9 17.41        27.0 0.26            142           84.2  51 
 RUS  HZ EP   1    6 9  0.56                             136   -0.15 7  110 168 
 RUS  HN ES   1    6 9 17.44                             136   -0.73 7  110 168 
 PTB  HZ EP   4    6 9  0.85                             129   -1.32 0  133 254 
 PTB  HZ I         6 9 22.87        29.8 0.30            119            133 254 
 OCA  HZ EP   1    6 9  3.96                             125   -0.22 7  152 359 
 OCA  HN ES   1    6 9 23.39                             125   -0.95 7  152 359 
 OCA  HZ I         6 9 27.98        23.8 0.15            118            152 359 
 ZAR  HZ EP   1    6 9  7.71                             119    0.23 7  186 292 
 ZAR  HN ES   1    6 9 30.37                             119    0.14 7  186 292 
 ZAR  HZ I         6 9 35.86        18.2 0.32            111            186 292 
 CHI  HZ EP   1    6 9 15.51                             112    0.28 6  252 191 
 CHI  HN ES   1    6 9 44.22                             112    0.21 6  252 191 
 CHI  HZ I         6 9 48.34        11.8 0.88            105            252 191 
                                                                                
