 2012 1018 0428  8.3 L   6.750 -73.340126.5  RSN  6 0.1 2.3LRSN                1
 GAP=133        0.31       3.0     2.4  3.3  0.4898E+01  0.2996E+00  0.6546E+00E
 Epicentro: ZAPATOCA - SANTANDER                                               3
 ACTION:UPD 12-11-22 17:04 OP:ep   STATUS:               ID:20121018042808 L   I
 2012-10-18-0420-00M.COL___224                                                 6
 STAT SP IPHASW D HRMM SECON CODA AMPLIT PERI AZIMU VELO AIN AR TRES W  DIS CAZ7
 BAR2 SZ EP        428 25.82                             168    0.1710 24.7 135 
 BAR2 SZ I         428 26.02       101.8 0.10                          24.7 135 
 BAR2 SZ ES   2    428 38.86                             168   -0.32 5 24.7 135 
 GIR2 SZ EP        428 25.95                             161   -0.0410 39.8  24 
 BRR  HZ IP     C  428 26.55                             154   -0.0210 57.0 314 
 BRR  HZ I         428 26.81        99.9 0.15                          57.0 314 
 BRR  HN ES   1    428 40.91                             154    0.09 7 57.0 314 
 RUS  HZ EP        428 30.05                             140   -0.0410 99.0 163 
 RUS  HE ES   2    428 47.12                             140    0.05 5 99.0 163 
 RUS  HE I         428 48.64        15.4 0.18                          99.0 163 
 TAM  HZ EP   2    428 36.53                             122    0.01 4  175 101 
 TAM  HN ES   2    428 58.55                             122    0.02 4  175 101 
 TAM  HZ I         429  7.22        12.5 0.32                           175 101 
 ZAR  HZ EP   1    428 37.57                             120   -0.15 7  187 296 
 ZAR  HN ES   1    429  0.67                             120    0.01 7  187 296 
 ZAR  HZ I         429  4.57        19.9 0.29                           187 296 
                                                                                
