 2014  318 0528 26.4 L   6.878 -73.355121.3  RSN 10 0.4 1.9LRSN                1
 GAP= 53        1.05       2.6     3.2  6.9 -0.2813E+00  0.3722E+01 -0.4029E+00E
 Epicentro: SAN VICENTE DE CHUCURI - SANTANDER                                 3
 ACTION:UPD 14-04-09 23:18 OP:nd   STATUS:               ID:20140318052826 L   I
 OLDACT:REG 14-03-18 08:12 OP:mh   STATUS:               ID:20140318051815     3
 2014-03-18-0518-15M.COL___223                                                 6
 STAT SP IPHASW D HRMM SECON CODA AMPLIT PERI AZIMU VELO AIN AR TRES W  DIS CAZ7
 BAR2 SZ EP        528 43.86                             162    0.3510 37.0 149 
 BAR2 SZ ES   1    528 57.12                             162    0.26 7 37.0 149 
 BAR2 SZ I         528 58.22       157.0 0.54            156           37.0 149 
 PAM  SZ EP        528 46.95                             142    0.0810 88.6  55 
 PAM  SN ES        529  3.20                             142    0.3510 88.6  55 
 PAM  SZ I         529  5.16         8.3 0.14            135           88.6  55 
 RUS  HZ EP        528 48.85                             134   -0.0310  113 165 
 RUS  HN ES        529  6.20                             134   -0.2210  113 165 
 RUS  HZ I         529  7.51         4.7 0.23            128            113 165 
 PTB  HZ EP   1    528 49.17                             130   -0.35 7  127 253 
 PTB  HN ES        529  6.42                             130   -1.1510  127 253 
 PTB  HZ I         529 10.91        16.2 0.17            126            127 253 
 OCA  HZ EP        528 51.66                             125   -0.28 9  151   2 
 OCA  HN ES        529 11.59                             125   -0.28 9  151   2 
 OCA  HZ I         529 15.88        18.1 0.10            120            151   2 
 SPBC HZ EP        528 52.56                             124    0.04 9  157 210 
 SPBC HN ES        529 13.28                             124    0.38 9  157 210 
 SPBC HZ I         529 20.34         5.8 0.17            119            157 210 
 ZAR  HZ EP        528 54.49                             120   -0.22 9  179 292 
 ZAR  HN ES        529 17.81                             120    1.01 9  179 292 
 TAM  HZ EP        528 54.68                             120   -0.12 9  180 106 
 TAM  HZ I         529 15.75         7.6 0.09            113            180 106 
 TAM  HN ES   1    529 16.53                             120   -0.43 7  180 106 
 SML  HZ EP   1    529  0.25                             114    0.38 6  227 340 
 SML  HN ES   1    529 25.81                             114   -0.17 6  227 340 
 SML  HZ I         529 31.92        15.4 0.10            109            227 340 
 CHI  HZ EP        529  3.51                             111    0.25 8  252 190 
 CHI  HN ES        529 32.19                             111    0.18 8  252 190 
 CHI  HZ I         529 36.80         2.2 0.31            106            252 190 
 SJC  HZ EP   4    529 16.86                             102   -2.05 0  390 329 
 SJC  HN ES   4    529 57.67                             102   -2.21 0  390 329 
                                                                                
