 2013  918 0727 44.3 L   6.837 -73.162141.9  RSN  9 0.5 2.1LRSN                1
 GAP=182        1.18       3.5     5.9  7.1 -0.1122E+01  0.6091E+01 -0.2618E+01E
 Epicentro: LOS SANTOS - SANTANDER                                             3
 ACTION:UPD 13-10-22 09:23 OP:ep   STATUS:               ID:20130918072744 L   I
 OLDACT:DUP 13-09-18 10:35 OP:carl STATUS:               ID:20130918071960d    3
 2013-09-18-0719-59M.COL___269                                                 6
 STAT SP IPHASW D HRMM SECON CODA AMPLIT PERI AZIMU VELO AIN AR TRES W  DIS CAZ7
 BAR2 SZ EP        728  3.63                             169    0.0910 27.1 185 
 BAR2 SZ ES        728 18.42                             169   -0.1310 27.1 185 
 BAR2 SZ I         728 19.83        39.4 0.18            166           27.1 185 
 BRR  HZ IP     C  728  5.47                             153    0.6510 67.7 296 
 BRR  HN ES        728 21.77                             153    0.9410 67.7 296 
 BRR  HZ I         728 26.18        24.9 0.44            149           67.7 296 
 RUS  HZ EP        728  8.21                             142    0.2410  105 175 
 RUS  HN ES   1    728 25.64                             142   -0.80 7  105 175 
 RUS  HZ I         728 26.77         8.1 0.52            144            105 175 
 PTB  HZ EP        728 10.55                             131   -0.30 9  147 257 
 PTB  HN ES   1    728 31.02                             131   -0.55 7  147 257 
 OCA  HZ EP        728 12.13                             130    0.23 9  156 354 
 OCA  HN ES        728 33.04                             130   -0.40 9  156 354 
 OCA  HZ I         728 34.75        13.4 0.16            131            156 354 
 SPBC HZ EP        728 12.77                             128    0.08 9  165 218 
 SPBC HN ES        728 34.43                             128   -0.41 9  165 218 
 SPBC HZ I         728 38.29        13.4 0.36            128            165 218 
 ZAR  HZ EP   1    728 15.97                             122   -0.18 6  201 291 
 ZAR  HN ES        728 41.35                             122    0.35 9  201 291 
 ZAR  HZ I         728 47.46        16.4 0.38            122            201 291 
 NOR  HZ EP        728 20.22                             118    0.33 8  236 233 
 NOR  HN ES        728 47.53                             118   -0.13 8  236 233 
 NOR  HZ I         728 56.25         7.2 0.14            118            236 233 
 SML  HZ EP        728 20.29                             117    0.07 8  239 335 
 SML  HE ES        728 47.07                             117   -1.17 8  239 335 
                                                                                
