 2011  918 0921 21.3 L   6.389 -73.712102.0  RSN  4 0.1 1.4LRSN                1
 GAP=269        0.30       7.6    64.0 33.5  0.4530E+03  0.2127E+04  0.2346E+03E
 Epicentro: SANTA HELENA DEL OPON - SANTANDER                                  3
 ACTION:UPD 12-07-13 15:58 OP:ep   STATUS:               ID:20110918092121 L   I
 2011-09-18-0920-00M.COL___173                                                 6
 STAT SP IPHASW D HRMM SECON CODA AMPLIT PERI AZIMU VELO AIN AR TRES W  DIS CAZ7
 BAR2 SZ EP        921 37.68                             150    0.0410 62.7  69 
 BAR2 SZ ES   1    921 50.44                             150    0.03 7 62.7  69 
 BAR2 SZ I         921 51.81         9.4 0.26                          62.7  69 
 BTL  SZ EP   3    921 38.45                             144   -0.20 2 76.4  40 
 RUS  HZ EP        921 40.01                             139    0.0210 88.7 128 
 RUS  HN ES   2    921 54.50                             139   -0.09 5 88.7 128 
 RUS  HZ I         921 55.90         4.7 0.30                          88.7 128 
 GIR2 SZ EP        921 40.07                             136   -0.0310 95.4  37 
                                                                                
