 2012  318 0952 41.2 L   6.766 -73.113129.7  RSN  5 0.5 1.5LRSN                1
 GAP=142        1.24       7.9     8.6 11.9  0.1392E+02  0.2610E+02 -0.5250E+01E
 ACTION:UP  12-03-31 23:20 OP:EP   STATUS:               ID:20120318095241 L   I
 2012-03-18-0950-00M.COL___202                                                 6
 STAT SP IPHASW D HRMM SECON CODA AMPLIT PERI AZIMU VELO SNR AR TRES W  DIS CAZ7
 BAR2 SZ EP   1    952 58.10                             170    -0.7 7   21 202 
 BAR2 SZ ES   1    953 12.66                             170     0.0 7   21 202 
 BAR2 SZ I         953 16.43         9.0 0.31                            21 202 
 BRR  HZ EP   1    953  0.82                             148    -0.1 7   76 300 
 BRR  HZ I         953  1.22         9.9 0.10                            76 300 
 BRR  HN ES   1    953 17.02                             148     0.7 7   76 300 
 PAM  SZ EP   1    953  1.62                             147    -0.2 7   78  36 
 PAM  SZ I         953  2.12         5.2 0.19                            78  36 
 PAM  SN ES   1    953 17.87                             147     0.0 7   78  36 
 RUS  HZ EP   1    953  3.50                             141     0.4 7   97 178 
 RUS  HN ES   1    953 20.11                             141    -0.1 7   97 178 
 RUS  HZ I         953 22.42         4.2 0.26                            97 178 
 ZAR  HZ EP   1    953 14.14                             118     1.0 6  209 293 
 ZAR  HN ES   1    953 37.12                             118    -1.0 6  209 293 
 ZAR  HZ I         953 43.81         2.9 0.21                           209 293 
                                                                                
