 2017 1218 0612 17.1 L   6.842 -73.157143.2  RSN 23 0.9 2.3LRSN                1
 GAP= 64        1.64       3.3     4.2  7.7 -0.4042E+00  0.9776E+01  0.2375E+01E
 Epicentro: LOS SANTOS - SANTANDER                                             3
 ACTION:UPD 18-01-04 13:21 OP:rebc STATUS:               ID:20171218061217 L   I
 OLDACT:UP  17-12-18 16:59 OP:dhb  STATUS:               ID:20171218060743     3
 OLDACT:REG 17-12-18 13:02 OP:dhb  STATUS:               ID:20171218060743     3
 2017-12-18-0608-00M.COL___460                                                 6
 STAT SP IPHASW D HRMM SECON CODA AMPLIT PERI AZIMU VELO AIN AR TRES W  DIS CAZ7
 BAR2 EZ EP        612 36.25                             168   -0.2810 27.8 186 
 BAR2 EZ ES        612 51.42                             168   -0.2510 27.8 186 
 BAR2 EZ I         612 54.07        62.4 0.28            168           27.8 186 
 PAM  EZ IP     C  612 39.28                             151    0.3910 74.7  43 
 PAM  EN ES        612 56.59                             151    0.7110 74.7  43 
 PAM  EZ I         612 58.49        38.2 0.50            156           74.7  43 
 PTB  HZ EP        612 42.89                             131   -0.96 9  148 257 
 PTB  HE ES        613  4.08                             131   -0.62 9  148 257 
 PTB  HZ I         613 11.08        14.5 0.34            132            148 257 
 OCA  HZ EP        612 44.53                             130   -0.24 9  156 353 
 OCA  HE ES        613  6.34                             130   -0.01 9  156 353 
 OCA  HZ I         613 10.21        71.3 0.22            133            156 353 
 TAM  HZ IP     D  612 44.68                             129   -0.13 9  158 107 
 TAM  HN ES        613  6.38                             129   -0.04 9  158 107 
 TAM  HZ I         613 16.42         7.1 0.58            134            158 107 
 SPBC HZ EP        612 45.09                             128   -0.60 9  166 218 
 SPBC HN ES        613  6.94                             128   -1.04 9  166 218 
 SPBC HZ I         613  9.69        44.5 0.24            129            166 218 
 YPLC HZ EP        612 46.66                             125   -0.52 9  181 152 
 YPLC HN ES        613 10.33                             125   -0.31 9  181 152 
 YPLC HZ I         613 11.60        36.3 0.28            128            181 152 
 ZAR  HZ EP        612 50.01                             122    0.92 9  201 291 
 ZAR  HN ES        613 14.71                             122    0.67 9  201 291 
 ZAR  HZ I         613 23.19        20.2 0.20            124            201 291 
 TABC EZ EP        612 53.78                             118    0.71 8  233 210 
 NOR  HZ EP        612 52.78                             118   -0.10 8  236 233 
 NOR  HN ES        613 20.15                             118   -0.63 8  236 233 
 NOR  HZ I         613 28.06        15.3 0.22            119            236 233 
 ROSC BZ EP        612 56.54                             116    1.08 8  256 210 
 ROSC BN ES        613 27.50                             116    2.13 8  256 210 
 ROSC BZ I         613 31.04        20.3 0.40            118            256 210 
 CVER HZ EP        612 57.69                             114   -0.08 7  276 202 
 CVER HE ES        613 31.11                             114    1.63 7  276 202 
 CVER HZ I         613 37.81        11.9 0.40            116            276 202 
 URE  HZ EP        612 56.82                             113   -0.92 7  281 291 
 URE  HN ES        613 27.85                             113   -1.57 7  281 291 
 URE  HZ I         613 38.56        11.4 0.18            115            281 291 
 DRL03HZ EP        612 58.23                             113    0.17 7  284 353 
 DRL03HE ES        613 30.93                             113    0.93 7  284 353 
 GUY2CHZ EP        613  1.51                             112    0.72 7  303 234 
 GUY2CHE ES   3    613 35.79                             112    0.92 2  303 234 
 GUY2CHZ I         613 41.48        11.1 0.32                           303 234 
 VIL  EZ EP        612 59.95                             111   -0.95 7  308 191 
 VIL  EE ES   2    613 36.86                             111    1.80 4  308 191 
 VIL  EZ I         613 43.21        11.4 0.50            113            308 191 
 PTGC HZ IP   2 C  612 59.43                             111   -1.97 3  313 159 
 PTGC HE ES   3    613 32.99                             111   -2.95 2  313 159 
 PTGC HZ I         613 37.70        13.5 0.30            113            313 159 
 CBOC HZ EP        613  4.53                             109    0.58 7  334 251 
 CBOC HE ES        613 40.67                             109    0.18 7  334 251 
 CBOC HZ I         613 57.05         3.7 0.64            111            334 251 
 ARGC HZ EP   2    613  7.27                             108    1.16 3  354 340 
 ARGC HN ES        613 45.18                             108    0.85 6  354 340 
 ARGC HZ I         613 56.56         3.4 0.24            110            354 340 
 PRA  HZ EP        613 10.09                             106   -0.86 6  395 209 
 PRA  HN ES        613 52.63                             106   -0.31 6  395 209 
 PRA  HZ I         613 58.50        12.8 0.42            108            395 209 
 ORTC HZ EP        613 11.29                             106   -0.01 6  398 216 
 ORTC HN ES        613 53.78                             106    0.21 6  398 216 
 ORTC HZ I         614  0.13         7.7 0.36            107            398 216 
 SJC  HZ EP        613 10.50                             105   -1.55 6  405 327 
 SJC  HN ES        613 54.80                             105   -0.10 6  405 327 
 SJC  HZ I         613 55.78         3.6 0.50            107            405 327 
 PAL  HZ EP        613 12.55                             105    0.20 6  407 238 
 PAL  HE ES   2    613 57.00                             105    1.57 3  407 238 
 PAL  HZ I         614  1.75         3.9 0.28            107            407 238 
                                                                                
