 2011  818 0831 55.1 L   6.741 -72.867144.8  RSN  5 0.3 1.7LRSN                1
 GAP=211        0.67       4.2    10.5  7.9 -0.4019E-01 -0.2616E+02  0.2347E+01E
 Epicentro: MOLAGAVITA - SANTANDER                                             3
 ACTION:UPD 12-07-13 15:52 OP:ep   STATUS:               ID:20110818083155 L   I
 2011-08-18-0830-19S.COL___149                                                 6
 STAT SP IPHASW D HRMM SECON CODA AMPLIT PERI AZIMU VELO AIN AR TRES W  DIS CAZ7
 BAR2 SZ EP   1    832 15.37                             165    0.40 7 38.5 245 
 BAR2 SZ ES   1    832 30.83                             165    0.33 7 38.5 245 
 BAR2 SZ I         832 32.39         6.7 0.27                          38.5 245 
 RUS  HZ EP   1    832 17.83                             145   -0.61 7 96.8 194 
 RUS  HZ I         832 39.99         4.3 0.28                          96.8 194 
 BRR  HZ EP   1    832 18.00                             143   -0.10 7  102 294 
 BRR  HZ I         832 18.28        21.1 0.14                           102 294 
 BRR  HN ES   1    832 35.78                             143   -0.29 7  102 294 
 OCA  SZ EP   1    832 24.74                             127    0.23 7  173 343 
 OCA  SZ ES   1    832 47.43                             127   -0.05 7  173 343 
 OCA  SZ I         832 52.63         5.1 0.31                           173 343 
 PRA  HN ES   1    833 32.88                             106    0.40 4  403 214 
                                                                                
