 2012  618 0950 21.1 L   6.814 -73.165145.0  RSN  6 0.3 2.2LRSN                1
 GAP=133        0.53       3.1     3.8  5.8 -0.1870E+01  0.7956E+01 -0.1852E+01E
 Epicentro: LOS SANTOS - SANTANDER                                             3
 ACTION:UPD 12-08-06 17:50 OP:ep   STATUS:               ID:20120618095020 L   I
 2012-06-18-0950-00M.COL___199                                                 6
 STAT SP IPHASW D HRMM SECON CODA AMPLIT PERI AZIMU VELO AIN AR TRES W  DIS CAZ7
 BAR2 SZ EP        950 40.71                             170    0.0110 24.6 184 
 BAR2 SZ ES   2    950 56.16                             170    0.20 5 24.6 184 
 BAR2 SZ I         950 57.02        37.8 0.18            171           24.6 184 
 PAM  SZ EP        950 43.42                             150    0.1410 77.6  41 
 PAM  SN ES   1    951  0.57                             150    0.02 7 77.6  41 
 RUS  HZ EP        950 45.01                             143    0.0810  102 175 
 RUS  HE ES   2    951  3.31                             143   -0.19 5  102 175 
 PTB  HZ EP        950 47.57                             132   -0.31 9  146 258 
 PTB  HN ES   2    951  8.52                             132   -0.22 5  146 258 
 PTB  HZ I         951 11.82        10.5 0.14            133            146 258 
 OCA  HZ EP        950 49.12                             130   -0.10 9  158 354 
 OCA  HN ES   2    951 10.65                             130   -0.47 5  158 354 
 OCA  HZ I         951 13.88        34.4 0.16            131            158 354 
 ZAR  HZ EP   2    950 54.25                             123    0.98 4  202 292 
 ZAR  HN ES   2    951 18.77                             123    0.44 4  202 292 
                                                                                
