 2013  518 0055 14.5 L   6.796 -73.129145.1  RSN  6 0.3 1.7LRSN                1
 GAP=139        0.63       4.8     4.7  7.8 -0.4351E+01 -0.3846E+00  0.2332E+01E
 Epicentro: LOS SANTOS - SANTANDER                                             3
 ACTION:UPD 13-06-20 09:51 OP:ep   STATUS:               ID:20130518005514 L   I
 2013-05-18-0051-50M.COL___227                                                 6
 STAT SP IPHASW D HRMM SECON CODA AMPLIT PERI AZIMU VELO AIN AR TRES W  DIS CAZ7
 BAR2 SZ EP   1    055 33.94                             170   -0.08 7 23.3 195 
 BAR2 SZ ES   1    055 49.20                             170   -0.07 7 23.3 195 
 BAR2 SZ I         055 50.85        10.4 0.24            167           23.3 195 
 GIR2 SZ ES   1    055 49.14                             167   -0.24 7 32.0 347 
 BRR  HN ES   1    055 52.79                             152    0.62 7 73.0 298 
 BRR  HZ I         055 56.78         9.3 0.12            148           73.0 298 
 PAM  SZ EP   1    055 36.75                             151    0.19 7 76.5  38 
 PAM  SE ES   1    055 53.57                             151   -0.22 7 76.5  38 
 PAM  SZ I         055 56.16        11.5 0.60            154           76.5  38 
 RUS  HN ES   1    055 56.74                             144    0.18 7  100 177 
 RUS  HZ I         056  0.03         3.3 0.16            144            100 177 
 PTB  HN ES   1    056  2.24                             131   -0.42 7  150 259 
 PTB  HZ I         056  9.46        11.0 0.36            129            150 259 
                                                                                
