 2017 1118 0511 34.2 L   6.806 -73.192137.3  RSN 15 0.6 1.8LRSN                1
 GAP=107        1.36       3.4     4.0  6.8 -0.2320E+00  0.9992E+01  0.4517E+00E
 Epicentro: ZAPATOCA - SANTANDER                                               3
 ACTION:UPD 17-12-12 19:56 OP:rebc STATUS:               ID:20171118051134 L   I
 OLDACT:REG 17-11-18 10:32 OP:mg   STATUS:               ID:20171118050743     3
 2017-11-18-0508-00M.COL___473                                                 6
 STAT SP IPHASW D HRMM SECON CODA AMPLIT PERI AZIMU VELO AIN AR TRES W  DIS CAZ7
 BAR2 EZ EP        511 52.48                             170   -0.3610 23.7 177 
 BAR2 EZ ES        512  7.55                             170    0.1910 23.7 177 
 BAR2 EZ I         512  9.72        13.5 0.24            168           23.7 177 
 PAM  EZ EP        511 55.36                             148   -0.3610 80.3  43 
 PAM  EE ES        512 12.49                             148   -0.0110 80.3  43 
 PAM  EZ I         512 14.34        14.5 0.46            156           80.3  43 
 RUS  HZ EP        511 56.88                             142   -0.3510  102 173 
 RUS  HN ES        512 15.53                             142    0.3510  102 173 
 RUS  HZ I         512 17.54         3.5 0.34            144            102 173 
 PTB  HZ EP        511 59.48                             131   -0.57 9  143 258 
 PTB  HN ES        512 20.55                             131    0.35 9  143 258 
 PTB  HZ I         512 28.37         4.8 0.36            131            143 258 
 SPBC HZ EP        512  2.19                             128    0.37 9  161 217 
 SPBC HN ES        512 23.23                             128   -0.12 9  161 217 
 SPBC HZ I         512 33.59        10.1 0.18            129            161 217 
 YPLC HZ EP        512  3.49                             124   -0.24 9  180 150 
 YPLC HN ES        512 27.35                             124    0.61 9  180 150 
 ZAR  HZ EP        512  6.47                             121    0.87 9  199 293 
 ZAR  HN ES        512 30.74                             121    0.67 9  199 293 
 ZAR  HZ I         512 36.50         8.8 0.44            123            199 293 
 NOR  HZ EP        512  8.59                             117   -0.47 8  231 234 
 NOR  HN ES        512 34.93                             117   -1.30 8  231 234 
 NOR  HZ I         512 38.88         5.5 0.14            119            231 234 
 CHI  HZ EP        512 11.14                             115   -0.25 8  248 194 
 CHI  HN ES        512 39.59                             115   -0.79 8  248 194 
 CHI  HZ I         512 48.58         2.6 0.34            118            248 194 
 URE  HZ EP        512 14.15                             112   -0.17 7  279 292 
 URE  HN ES        512 44.34                             112   -1.26 7  279 292 
 URE  HZ I         512 56.31         4.6 0.38            114            279 292 
 DRL03HZ EP        512 15.28                             112   -0.01 7  288 354 
 DRL03HE ES        512 47.49                             112    0.16 7  288 354 
 GUY2CHZ EP        512 18.47                             111    1.46 7  297 234 
 GUY2CHE ES        512 50.96                             111    0.57 7  297 234 
 GUY2CHZ I         513  1.34         4.5 0.36                           297 234 
 CBOC HZ EP        512 20.94                             109    0.69 7  329 252 
 CBOC HE ES        512 56.34                             109    0.18 7  329 252 
 CBOC HZ I         513  7.31         1.3 0.68            110            329 252 
 PRA  HZ EP        512 27.49                             105    0.26 6  390 209 
 PRA  HN ES        513  7.57                             105   -1.01 6  390 209 
 PRA  HZ I         513 13.23         2.8 0.30            107            390 209 
 ORTC HZ EP        512 27.69                             105    0.12 6  393 215 
 ORTC HN ES        513 10.44                             105    1.26 6  393 215 
 ORTC HZ I         513 15.88         1.8 0.18            107            393 215 
                                                                                
