 2017  218 0928 39.1 L   6.732 -73.183147.7  RSN 13 0.3 2.2LRSN                1
 GAP=119        0.83       3.0     3.1  5.0  0.2104E+01  0.3049E+01  0.3845E+01E
 Epicentro: VILLANUEVA - SANTANDER                                             3
 ACTION:UPD 17-05-24 15:37 OP:jn   STATUS:               ID:20170218092839 L   I
 OLDACT:REG 17-02-18 13:58 OP:cara STATUS:               ID:20170218092738     3
 2017-02-18-0928-00M.COL___330                                                 6
 STAT SP IPHASW D HRMM SECON CODA AMPLIT PERI AZIMU VELO AIN AR TRES W  DIS CAZ7
 BAR2 EZ IP     C  928 59.04                             174    0.2410 15.4 180 
 BAR2 EZ ES        929 13.92                             174   -0.2710 15.4 180 
 BAR2 EZ I         929 16.84        66.9 0.32            170           15.4 180 
 BRR  HZ EP        929  0.88                             153    0.4210 71.7 305 
 BRR  HN ES        929 17.49                             153    0.3510 71.7 305 
 BRR  HZ I         929 20.41        32.1 0.16            149           71.7 305 
 PAM  EZ EP        929  1.79                             149   -0.2210 85.8  38 
 PAM  EN ES        929 19.40                             149   -0.5010 85.8  38 
 PAM  EZ I         929 22.26        18.3 0.44            151           85.8  38 
 RUS  HZ EP        929  2.92                             146    0.4110 93.4 173 
 RUS  HN ES        929 21.28                             146    0.4810 93.4 173 
 RUS  HZ I         929 23.12        19.9 0.24            144           93.4 173 
 PTB  HZ EP        929  5.78                             133    0.06 9  142 261 
 PTB  HN ES        929 26.16                             133   -0.35 9  142 261 
 PTB  HZ I         929 29.40        20.2 0.14            129            142 261 
 ZAR  HZ EP        929 11.66                             123    0.10 9  203 295 
 ZAR  HN ES        929 36.66                             123   -0.25 9  203 295 
 ZAR  HZ I         929 42.24        25.7 0.24            120            203 295 
 CHI  HZ EP   4    929 17.43                             118    1.46 0  240 195 
 CHI  HN ES        929 44.36                             118   -0.40 8  240 195 
 CHI  HZ I         929 50.20         9.2 0.38            116            240 195 
 ROSC BZ EP   4    929 19.40                             118    3.03 0  244 211 
 ROSC BN ES   4    929 48.78                             118    3.32 0  244 211 
 ROSC BZ I         929 53.72        26.7 0.45            116            244 211 
 URE  HN EP   4    929 14.72                             114   -5.42 0  283 294 
 URE  HE ES   4    929 49.87                             114   -2.30 0  283 294 
 URE  HZ I         929 59.34         8.4 0.16            112            283 294 
 PTGC HZ EP        929 22.28                             112   -0.11 7  303 157 
 PTGC HN ES        929 55.91                             112   -0.27 7  303 157 
 PTGC HZ I         930  0.67         5.9 0.28            111            303 157 
 CBOC HZ EP   4    929 27.09                             111    1.73 0  327 253 
 CBOC HN ES        930  1.29                             111   -0.18 7  327 253 
 CBOC HZ I         930 14.04         2.4 0.50            109            327 253 
 PRA  HZ EP   4    929 32.81                             107    1.16 0  383 210 
 PRA  HN ES   4    930 14.18                             107    1.51 0  383 210 
 PRA  HZ I         930 21.34        11.1 0.36            106            383 210 
 SJC  HZ EP   4    929 32.74                             106   -2.44 0  413 328 
 SJC  HN ES   4    930 13.26                             106   -5.70 0  413 328 
 SJC  HZ I         930 28.99         3.0 0.28            105            413 328 
                                                                                
