 2017  418 0123 56.5 L   6.746 -73.128142.5  RSN 10 0.5 1.8LRSN                1
 GAP=115        0.93       3.5     3.6  5.1 -0.6868E+00  0.2267E+01  0.2464E+01E
 Epicentro: LOS SANTOS - SANTANDER                                             3
 ACTION:UPD 17-05-30 21:13 OP:jn   STATUS:               ID:20170418012356 L   I
 OLDACT:UP  17-04-18 13:56 OP:cog  STATUS:               ID:20170418011747d    3
 OLDACT:DUP 17-04-18 13:47 OP:cog  STATUS:               ID:20170418011747d    3
 2017-04-18-0118-00M.COL___368                                                 6
 STAT SP IPHASW D HRMM SECON CODA AMPLIT PERI AZIMU VELO AIN AR TRES W  DIS CAZ7
 BAR2 EZ EP        124 15.50                             172   -0.1710 18.0 200 
 BAR2 EZ ES        124 30.96                             172    0.3610 18.0 200 
 BAR2 EZ I         124 31.55        26.9 0.07            172           18.0 200 
 BRR  HZ EP        124 17.49                             150   -0.1110 75.9 302 
 BRR  HE ES        124 34.50                             150    0.4510 75.9 302 
 BRR  HZ I         124 38.82        11.7 0.12            150           75.9 302 
 PAM  EZ EP        124 18.62                             149    0.0110 80.9  36 
 PAM  EE ES        124 35.32                             149   -0.5210 80.9  36 
 PAM  EZ I         124 37.59         8.1 0.68            152           80.9  36 
 RUS  HZ EP        124 19.37                             145   -0.1510 94.5 177 
 RUS  HN ES        124 37.47                             145    0.0110 94.5 177 
 RUS  HZ I         124 38.63         9.1 0.28            146           94.5 177 
 PTB  HZ EP   9    124 22.61                             131   -0.70 0  149 261 
 PTB  HN ES        124 43.30                             132   -0.21 9  149 261 
 PTB  HZ I         124 44.28         6.7 0.20            132            149 261 
 SPBC HZ EP        124 24.48                             129    0.02 9  160 221 
 SPBC HN ES        124 45.96                             129   -0.29 9  160 221 
 SPBC HZ I         124 50.60        12.7 0.20            130            160 221 
 YPLC HZ EP        124 25.60                             127    0.13 9  171 151 
 YPLC HE ES   3    124 50.66                             127    2.60 2  171 151 
 ZAR  HZ EP        124 29.19                             121   -0.00 8  208 293 
 ZAR  HE ES        124 54.83                             121    0.15 8  208 293 
 NOR  HZ EP        124 32.55                             118    0.67 8  233 236 
 NOR  HN ES        124 58.66                             118   -0.79 8  233 236 
 NOR  HZ I         125  3.47         5.9 0.43            119            233 236 
 CHI  HN ES   3    125  4.43                             117    2.13 2  243 196 
                                                                                
