 2013  518 0148 30.4 L   6.816 -73.150148.5  RSN 18 0.4 2.8LRSN 3.3WRSN        1
 SPEC AVERAGE  MO 14.0 ST  5.3 OM  2.6 f0 2.94 R0.5673 AL 2.01 WI 20.5 MW  3.3 3
 SPEC SD       MO  0.2 ST  8.2 OM  0.4 f00.888 R0.1371 AL      WI      MW  0.1 3
 GAP= 55        0.96       2.4     2.7  4.3  0.2359E+00  0.1504E+01  0.1916E+01E
 Epicentro: LOS SANTOS - SANTANDER                                             3
 SPEC YOP SH N MO 14.1 ST  2.4 OM  2.3 f0 2.62 R0.5931 AL 1.90 WI 17.4 MW  3.3 3
 SPEC YOP SH N T 14924 K 0.000 GD  234 VS 4.20 DE 3.20 Q0300.0 QA 0.60 VS 4.20 3
 SPEC TAM HH E MO 14.0 ST  1.7 OM  2.3 f0 2.38 R0.6529 AL 1.99 WI 20.6 MW  3.3 3
 SPEC TAM HH E T 14919 K 0.000 GD  215 VS 4.20 DE 3.20 Q0300.0 QA 0.60 VS 4.20 3
 SPEC RUS HH E MO 13.9 ST  1.3 OM  2.2 f0 2.47 R0.6291 AL 1.89 WI 14.6 MW  3.2 3
 SPEC RUS HH E T 14912 K 0.000 GD  180 VS 4.20 DE 3.20 Q0300.0 QA 0.60 VS 4.20 3
 SPEC RUS HH N MO 13.7 ST  1.9 OM  2.0 f0 3.33 R0.4667 AL 2.59 WI 17.3 MW  3.0 3
 SPEC RUS HH N T 14912 K 0.000 GD  180 VS 4.20 DE 3.20 Q0300.0 QA 0.60 VS 4.20 3
 SPEC PRA HH N MO 14.1 ST  1.8 OM  2.1 f0 2.29 R0.6786 AL 1.59 WI 18.9 MW  3.4 3
 SPEC PRA HH N T 150 5 K 0.000 GD  420 VS 4.20 DE 3.20 Q0300.0 QA 0.60 VS 4.20 3
 SPEC NOR HH N MO 14.2 ST 31.7 OM  2.4 f0 5.38 R0.2888 AL 3.62 WI 24.9 MW  3.4 3
 SPEC NOR HH N T 14933 K 0.000 GD  277 VS 4.20 DE 3.20 Q0300.0 QA 0.60 VS 4.20 3
 SPEC OCA HH N MO 14.3 ST 13.3 OM  2.6 f0 3.75 R0.4144 AL 2.16 WI 22.2 MW  3.5 3
 SPEC OCA HH N T 14920 K 0.000 GD  216 VS 4.20 DE 3.20 Q0300.0 QA 0.60 VS 4.20 3
 SPEC PTB HH N MO 14.0 ST  4.0 OM  2.3 f0 3.21 R0.4841 AL 1.91 WI 18.1 MW  3.3 3
 SPEC PTB HH N T 14917 K 0.000 GD  209 VS 4.20 DE 3.20 Q0300.0 QA 0.60 VS 4.20 3
 SPEC PAM SH N MO 13.9 ST  1.1 OM  2.3 f0 2.24 R0.6937 AL 1.70 WI 17.0 MW  3.2 3
 SPEC PAM SH N T 149 9 K 0.000 GD  167 VS 4.20 DE 3.20 Q0300.0 QA 0.60 VS 4.20 3
 SPEC HEL HH N MO 14.0 ST  1.3 OM  2.1 f0 2.27 R0.6846 AL 1.68 WI 32.3 MW  3.3 3
 SPEC HEL HH N T 14942 K 0.000 GD  309 VS 4.20 DE 3.20 Q0300.0 QA 0.60 VS 4.20 3
 SPEC CHI HH N MO 14.1 ST  3.0 OM  2.2 f0 2.81 R0.5530 AL 1.99 WI 20.7 MW  3.3 3
 SPEC CHI HH N T 14936 K 0.000 GD  290 VS 4.20 DE 3.20 Q0300.0 QA 0.60 VS 4.20 3
 SPEC BRR HH N MO 14.0 ST  5.5 OM  2.4 f0 3.58 R0.4341 AL 1.84 WI 25.4 MW  3.3 3
 SPEC BRR HH N T 149 8 K 0.000 GD  164 VS 4.20 DE 3.20 Q0300.0 QA 0.60 VS 4.20 3
 SPEC BAR2SH Z MO 13.8 ST0.507 OM  2.2 f0 1.94 R0.8010 AL 1.26 WI 17.0 MW  3.1 3
 SPEC BAR2SH Z T 149 4 K 0.000 GD  150 VS 4.20 DE 3.20 Q0300.0 QA 0.60 VS 4.20 3
 ACTION:UPD 13-06-20 09:51 OP:ep   STATUS:               ID:20130518014830 L   I
 2013-05-18-0146-51M.COL___227                                                 6
 STAT SP IPHASW D HRMM SECON CODA AMPLIT PERI AZIMU VELO AIN AR TRES W  DIS CAZ7
 BAR2 SZ IP     C  148 50.40                             170    0.0410 25.0 188 
 BAR2 SZ ES        149  5.53                             170   -0.4210 25.0 188 
 BAR2 SZ I         149  8.34       153.7 0.39            168           25.0 188 
 GIR2 SZ EP        148 50.47                             168    0.1510 29.5 351 
 GIR2 SZ ES        149  5.70                             168   -0.1810 29.5 351 
 BRR  HZ IP     C  148 52.26                             153    0.5110 69.9 297 
 BRR  HE ES        149  9.00                             153    0.5810 69.9 297 
 BRR  HZ I         149 12.08        79.9 0.30            153           69.9 297 
 PAM  SZ EP     C  148 53.15                             152    0.3310 76.4  41 
 PAM  SE ES        149 10.38                             152    0.0610 76.4  41 
 PAM  SZ I         149 12.55       123.1 0.52            151           76.4  41 
 RUS  HZ EP     D  148 54.28                             144   -0.2410  102 176 
 RUS  HE ES        149 13.11                             144   -0.2410  102 176 
 RUS  HZ I         149 15.99        46.1 0.30            142            102 176 
 PTB  HZ EP        148 56.90                             133   -0.65 9  148 258 
 PTB  HN ES        149 18.13                             133   -0.62 9  148 258 
 PTB  HZ I         149 25.68       160.2 0.52            131            148 258 
 TAM  HZ EP     D  148 58.59                             131    0.24 9  156 106 
 TAM  HZ I         149 19.43        37.3 0.32            129            156 106 
 TAM  HE ES        149 20.14                             131   -0.03 9  156 106 
 OCA  HZ EP        148 58.42                             131   -0.31 9  158 353 
 OCA  HN ES        149 21.21                             131    0.37 9  158 353 
 OCA  HZ I         149 24.51        73.2 0.18            130            158 353 
 YOP  SZ EP        149  0.88                             127    0.09 9  181 153 
 YOP  SN ES   1    149 25.09                             127    0.58 7  181 153 
 YOP  SZ I         149 25.71        46.8 0.26            125            181 153 
 ZAR  HN ES        149 28.27                             123    0.03 9  203 292 
 ZAR  HZ I         149 34.53        72.4 0.26            122            203 292 
 NOR  HZ EP        149  6.17                             119   -0.16 8  235 234 
 NOR  HN ES        149 35.30                             119    0.93 8  235 234 
 SML  HN ES        149 34.98                             118   -0.51 8  242 335 
 CHI  HZ EP        149  8.58                             117    0.19 8  250 195 
 CHI  HN ES   1    149 37.37                             117   -0.67 6  250 195 
 CHI  HZ I         149 47.61        39.7 0.34            116            250 195 
 HEL  HZ EP   1    149 11.49                             115    0.77 6  272 255 
 HEL  HN ES   1    149 42.59                             115    0.40 6  272 255 
 HEL  HZ I         149 49.08        37.9 0.28            114            272 255 
 COD  HN ES   1    149 55.63                             109   -0.68 5  346 355 
 SDV  BZ EP   1    149 19.67                             109   -0.76 5  360  50 
 PRA  HZ EP        149 23.90                             107   -0.24 6  393 209 
 PRA  HN ES        150  5.78                             107   -0.29 6  393 209 
 PRA  HZ I         150 10.04        33.8 0.54            106            393 209 
 SJC  HZ EP   4    149 24.11                             106   -1.71 0  407 327 
 SJC  HN ES   4    150  5.35                             106   -3.72 0  407 327 
 SJC  HZ I         150 10.16        16.8 0.44            105            407 327 
                                                                                
