 2011  218 0530  1.4 L   6.786 -73.113144.8  RSN  9 0.4 2.4LRSN                1
 GAP=138        0.96       3.4     5.4  7.6 -0.3558E+01  0.1425E+02  0.1444E+01E
 Epicentro: LOS SANTOS - SANTANDER                                             3
 ACTION:UP  11-03-28 15:09 OP:jfem STATUS:               ID:20110218053001 L   I
 2011-02-18-0528-27S.COL___137                                                 6
 STAT SP IPHASW D HRMM SECON CODA AMPLIT PERI AZIMU VELO SNR AR TRES W  DIS CAZ7
 BAR2 SZ IP        530 20.78                             171    -0.110   23 200 
 BAR2 SZ ES   1    530 35.36                             171    -0.8 7   23 200 
 BAR2 SZ I         530 38.67        86.4 0.25                            23 200 
 RUS  HZ EP        530 24.79                             144    -0.110   99 178 
 RUS  HN ES   1    530 43.59                             144     0.3 7   99 178 
 RUS  HZ I         530 44.76        31.9 0.31                            99 178 
 GRA  SZ IP        530 26.60                             137     0.010  126  16 
 GRA  SZ ES   1    530 46.29                             137     0.0 7  126  16 
 GRA  SZ I         530 47.19        27.1 0.40                           126  16 
 OCA  SZ EP   1    530 29.36                             129    -0.5 7  162 352 
 OCA  SZ ES   1    530 52.98                             129     1.0 7  162 352 
 OCA  SZ I         530 54.90        24.1 0.21                           162 352 
 YOP  SZ EP   1    530 31.19                             126     0.1 7  176 154 
 YOP  SN ES   1    530 54.43                             126     0.2 7  176 154 
 NOR  SZ EP        530 36.92                             118    -0.4 8  237 235 
 NOR  SN ES   1    531  5.31                             118     0.0 6  237 235 
 CHI  HZ IP     C  530 39.12                             117     0.1 8  248 196 
 CHI  HZ I         530 39.66        13.5 0.19                           248 196 
 CHI  HN ES   1    531  9.11                             117     0.8 6  248 196 
 HEL  HZ EP   1    530 41.37                             114    -0.5 6  275 256 
 HEL  HN ES   1    531 14.11                             114     0.6 6  275 256 
 HEL  HZ I         531 19.33        15.2 0.42                           275 256 
 RREF HZ EP   1    530 48.01                             110     0.3 5  323 230 
 RREF HN ES   1    531 23.50                             110    -0.3 5  323 230 
 RREF HZ I         531 28.00        13.2 0.29                           323 230 
                                                                                
