 2016  918 0833 27.4 L   6.767 -73.193152.3  RSN  5 0.4 1.4LRSN                1
 GAP=229        0.91       6.3     8.5  9.7 -0.3637E+01 -0.2064E+02  0.1425E+02E
 Epicentro: ZAPATOCA - SANTANDER                                               3
 ACTION:UPD 17-08-17 21:13 OP:lp   STATUS:               ID:20160918083327 L   I
 OLDACT:REG 16-09-18 13:19 OP:y    STATUS:               ID:20160918082730     3
 2016-09-18-0828-00M.COL___354                                                 6
 STAT SP IPHASW D HRMM SECON CODA AMPLIT PERI AZIMU VELO AIN AR TRES W  DIS CAZ7
 BAR2 EZ EP   2    833 47.34                             172   -0.36 5 19.3 176 
 BAR2 EZ I         834  3.37         6.5 0.40            170           19.3 176 
 BRR  HZ EP        833 49.13                             155    0.0510 68.6 303 
 BRR  HE ES        834  6.31                             155    0.2910 68.6 303 
 BRR  HZ I         834  9.45         4.4 0.22            157           68.6 303 
 RUS  HZ EP   2    833 51.13                             146   -0.41 5 97.4 173 
 RUS  HN ES   2    834  9.81                             146   -0.59 5 97.4 173 
 RUS  HZ I         834 11.44         1.8 0.26            146           97.4 173 
 PTB  HZ EP        833 53.87                             135   -0.48 9  142 260 
 PTB  HN ES        834 14.99                             135   -0.42 9  142 260 
 PTB  HZ I         834 20.25         3.3 0.60            138            142 260 
 SPBC HZ EP        833 56.45                             132    0.65 9  157 218 
 SPBC HN ES        834 18.26                             132    0.28 9  157 218 
 SPBC HZ I         834 22.52         4.5 0.38            134            157 218 
 ZAR  HZ EP   4    833 50.33                             125   -9.56 0  201 294 
 ZAR  HN ES   4    834 22.30                             125   -2.97 0  201 294 
                                                                                
