 2014 1018 0244 38.0 L   6.889 -73.308 11.6  RSN  4 0.3 1.7LRSN                1
 GAP=253        0.75       5.7     8.0  5.3 -0.3985E+02  0.1456E+02 -0.6386E+01E
 Epicentro: BETULIA - SANTANDER                                                3
 ACTION:UPD 14-11-29 23:50 OP:nd   STATUS:               ID:20141018024438 L   I
 OLDACT:UP  14-10-18 18:59 OP:mh   STATUS:               ID:20141018023742     3
 OLDACT:UP  14-10-18 18:58 OP:mh   STATUS:               ID:20141018023742     3
 OLDACT:REG 14-10-18 12:18 OP:mh   STATUS:               ID:20141018023742     3
 2014-10-18-0237-42M.COL___277                                                 6
 STAT SP IPHASW D HRMM SECON CODA AMPLIT PERI AZIMU VELO AIN AR TRES W  DIS CAZ7
 PTB  HZ EP        244 58.84                              93    0.1210  133 253 
 PTB  HN ES        245 14.82                              93   -0.0810  133 253 
 PTB  HZ I         245 19.53        12.5 0.44            113            133 253 
 OCA  HZ EP   1    245  0.96                              93   -0.41 7  149 360 
 OCA  HN ES        245 19.96                              93    0.3310  149 360 
 ZAR  HZ EP        245  5.17                              56   -0.38 9  184 291 
 ZAR  HN ES   1    245 26.74                              56   -0.32 7  184 291 
 ZAR  HZ I         245 30.77         7.6 0.34            106            184 291 
 HEL  HE ES        245 44.78                              56    0.54 8  257 253 
 URE  HN ES   4    245 40.67                              56   -4.16 0  263 291 
                                                                                
