 2014 1018 0232 27.6 L   6.807 -73.119153.9  RSN  7 0.4 2.1LRSN                1
 GAP=203        0.98       3.6     6.5  6.9  0.6072E+01 -0.2407E+01 -0.3083E+01E
 Epicentro: LOS SANTOS - SANTANDER                                             3
 ACTION:UPD 14-11-29 23:50 OP:nd   STATUS:               ID:20141018023227 L   I
 OLDACT:UP  14-10-18 18:56 OP:mh   STATUS:               ID:20141018022735     3
 OLDACT:REG 14-10-18 12:17 OP:mh   STATUS:               ID:20141018022735     3
 2014-10-18-0227-35M.COL___277                                                 6
 STAT SP IPHASW D HRMM SECON CODA AMPLIT PERI AZIMU VELO AIN AR TRES W  DIS CAZ7
 BRR  HZ EP        232 49.71                             153   -0.0410 73.4 297 
 BRR  HN ES        233  7.72                             153    0.6910 73.4 297 
 BRR  HZ I         233 11.71        16.8 0.44            150           73.4 297 
 RUS  HZ EP   1    232 52.39                             145    0.19 7  101 178 
 RUS  HN ES        233 11.05                             145   -0.3410  101 178 
 RUS  HZ I         233 12.73         6.0 0.09            146            101 178 
 PTB  HZ EP        232 55.40                             133   -0.11 9  151 259 
 PTB  HN ES        233 16.42                             133   -0.86 9  151 259 
 PTB  HZ I         233 23.67        11.7 0.44            132            151 259 
 SPBC HZ EP        232 56.97                             130    0.01 9  166 220 
 SPBC HN ES        233 19.93                             130    0.06 9  166 220 
 SPBC HZ I         233 26.37        15.1 0.26            130            166 220 
 ZAR  HZ EP        233  0.90                             124    0.07 8  206 292 
 ZAR  HN ES        233 26.87                             124    0.12 8  206 292 
 ZAR  HZ I         233 32.37        12.4 0.38            124            206 292 
 SML  HZ EP        233  4.24                             119   -0.51 8  244 335 
 SML  HN ES        233 33.88                             119    0.16 8  244 335 
 SML  HZ I         233 36.51        15.7 0.10            121            244 335 
 RREF HZ EP   4    233 11.98                             112   -2.43 0  325 230 
 RREF HN ES   4    233 48.32                             112   -2.61 0  325 230 
 PRA  HZ EP        233 22.09                             108    0.43 6  394 210 
 PRA  HN ES        234  4.74                             108    0.91 6  394 210 
 PRA  HZ I         234  9.08         4.5 0.46            109            394 210 
                                                                                
