 2012  918 0306 42.6 L   6.846 -73.281123.0  RSN 10 0.2 2.5LRSN                1
 GAP=109        0.52       2.2     2.4  3.8  0.2897E+00  0.3099E+01  0.1630E+01E
 Epicentro: ZAPATOCA - SANTANDER                                               3
 ACTION:UPD 12-10-22 14:19 OP:ep   STATUS:               ID:20120918030642 L   I
 2012-09-18-0300-00M.COL___227                                                 6
 STAT SP IPHASW D HRMM SECON CODA AMPLIT PERI AZIMU VELO AIN AR TRES W  DIS CAZ7
 GIR2 SZ EP        3 6 59.50                             166    0.0810 27.6  21 
 GIR2 SZ ES   1    3 7 12.09                             166   -0.48 7 27.6  21 
 BAR2 SZ EP        3 6 59.74                             166    0.1110 30.1 159 
 BAR2 SZ ES   1    3 7 12.87                             166   -0.09 7 30.1 159 
 BAR2 SZ I         3 7 14.29       351.3 0.42                          30.1 159 
 BRR  HZ EP        3 7  0.36                             154   -0.0110 55.7 301 
 BRR  HN ES   1    3 7 14.57                             154    0.30 7 55.7 301 
 BRR  HZ I         3 7 15.22        81.5 0.38                          55.7 301 
 PAM  SZ EP   1    3 7  2.92                             144    0.03 7 84.3  50 
 PAM  SE ES   1    3 7 19.04                             144    0.29 7 84.3  50 
 PAM  SZ I         3 7 21.44        42.9 0.22                          84.3  50 
 RUS  HZ EP   1    3 7  4.74                             136    0.02 7  108 168 
 RUS  HE ES        3 7 21.81                             136   -0.2010  108 168 
 RUS  HZ I         3 7 23.19        27.4 0.22                           108 168 
 PTB  HN ES   1    3 7 25.65                             129    0.54 7  134 255 
 ZAR  HZ EP   1    3 7 11.65                             119   -0.27 7  188 292 
 ZAR  HN ES   1    3 7 34.45                             119   -0.38 7  188 292 
 ZAR  HZ I         3 7 38.09        23.6 0.14                           188 292 
 NOR  SN ES   1    3 7 42.03                             114   -0.19 6  226 231 
 NOR  SN I         3 7 46.50        82.4 0.16                           226 231 
 CHI  HZ EP   1    3 7 19.38                             112    0.12 6  250 192 
 CHI  HN ES   1    3 7 48.00                             112    0.11 6  250 192 
 CHI  HZ I         3 7 53.60         9.1 0.36                           250 192 
 HEL  HZ EP   1    3 7 20.13                             111   -0.08 6  259 254 
                                                                                
