 2013  818 0639 16.6 L   6.842 -73.131135.0  RSN  5 0.4 1.2LRSN                1
 GAP=139        0.99       4.4     5.8  8.6 -0.2128E+01  0.7157E+00 -0.1052E+02E
 Epicentro: LOS SANTOS - SANTANDER                                             3
 ACTION:UPD 14-01-14 09:04 OP:ep   STATUS:               ID:20130818063916 L   I
 OLDACT:REG 13-08-18 09:41 OP:stll STATUS:               ID:20130818063843     3
 2013-08-18-0638-43M.COL___204                                                 6
 STAT SP IPHASW D HRMM SECON CODA AMPLIT PERI AZIMU VELO AIN AR TRES W  DIS CAZ7
 BAR2 SZ EP        639 35.23                             168    0.2210 28.2 192 
 BAR2 SZ ES        639 49.71                             168    0.3110 28.2 192 
 BAR2 SZ I         639 50.90         3.5 0.28            171           28.2 192 
 RUS  HZ EP        639 39.35                             140   -0.2710  105 177 
 RUS  HN ES        639 57.19                             140   -0.4110  105 177 
 RUS  HZ I         639 59.40         1.8 0.38            144            105 177 
 CAPV BZ EP        639 43.24                             130    0.58 9  145  39 
 PTB  HZ EP        639 42.73                             129   -0.19 9  150 257 
 PTB  HE ES        640  3.82                             129    0.35 9  150 257 
 OCA  HN ES        640  4.15                             128   -0.59 9  156 352 
 OCA  HZ I         640  8.83         3.4 0.50            129            156 352 
                                                                                
