 2017  218 0736 28.5 L   6.763 -73.158144.6  RSN  7 0.3 1.3LRSN                1
 GAP=137        0.74       3.0     3.3  4.9  0.8476E+00  0.3056E+01  0.3483E+01E
 Epicentro: LOS SANTOS - SANTANDER                                             3
 ACTION:UPD 17-05-24 15:37 OP:jn   STATUS:               ID:20170218073628 L   I
 OLDACT:DUP 17-02-18 18:21 OP:cara STATUS:               ID:20170218072742d    3
 OLDACT:REG 17-02-18 13:50 OP:cara STATUS:               ID:20170218072741     3
 2017-02-18-0728-00M.COL___345                                                 6
 STAT SP IPHASW D HRMM SECON CODA AMPLIT PERI AZIMU VELO AIN AR TRES W  DIS CAZ7
 BAR2 EZ EP        736 47.88                             172   -0.0610 19.1 188 
 BAR2 EZ ES        737  3.11                             172    0.0310 19.1 188 
 BAR2 EZ I         737  4.33         5.6 0.50            171           19.1 188 
 BRR  HZ EP        736 49.61                             152    0.0110 72.0 302 
 BRR  HN ES        737  6.46                             152    0.4210 72.0 302 
 BRR  HZ I         737 10.75         3.4 0.14            149           72.0 302 
 PAM  EZ EP        736 50.88                             149    0.0110 81.4  38 
 PAM  EN ES        737  8.17                             149   -0.1210 81.4  38 
 PAM  EZ I         737  9.95         2.8 0.48            152           81.4  38 
 RUS  HZ EP        736 52.25                             145    0.3610 96.6 175 
 RUS  HN ES        737  9.73                             145   -0.3710 96.6 175 
 RUS  HZ I         737 11.63         2.6 0.26            147           96.6 175 
 PTB  HZ EP        736 54.75                             132   -0.47 9  146 260 
 PTB  HN ES        737 16.23                             132    0.21 9  146 260 
 PTB  HZ I         737 20.15         1.6 0.10            131            146 260 
 ZAR  HN ES        737 25.85                             122   -0.35 9  204 293 
 ZAR  HZ I         737 35.21         3.9 0.88            122            204 293 
 CHI  HZ EP        737  6.17                             117    0.47 8  244 195 
 CHI  HN ES        737 34.56                             117   -0.13 8  244 195 
 CHI  HZ I         737 37.90         0.9 0.40            119            244 195 
                                                                                
