 2012  618 0717 31.3 L   6.785 -73.196138.2  RSN  5 0.3 1.2LRSN                1
 GAP=131        0.38       4.2     3.6  7.3 -0.9315E+00  0.8320E+01  0.1003E+02E
 Epicentro: ZAPATOCA - SANTANDER                                               3
 ACTION:UPD 12-08-06 17:50 OP:ep   STATUS:               ID:20120618071727 L   I
 2012-06-18-0710-00M.COL___199                                                 6
 STAT SP IPHASW D HRMM SECON CODA AMPLIT PERI AZIMU VELO AIN AR TRES W  DIS CAZ7
 BAR2 SZ EP   3    717 50.00                             170    0.00 2 21.3 176 
 BAR2 SZ ES   3    718  5.14                             170    0.58 2 21.3 176 
 BAR2 SZ I         718 12.96         5.1 0.48            173           21.3 176 
 PAM  SZ EP   2    717 53.08                             148    0.04 5 82.3  42 
 PAM  SN ES   2    718  9.55                             148   -0.44 5 82.3  42 
 PAM  SZ I         718 11.25         1.2 0.34            156           82.3  42 
 RUS  HZ EP        717 54.38                             142    0.1310 99.4 173 
 RUS  HN ES   3    718 11.75                             142   -0.38 2 99.4 173 
 RUS  HZ I         718 14.85         1.5 0.44            152           99.4 173 
 PTB  HZ EP        717 57.06                             131   -0.09 9  142 259 
 PTB  HN ES   2    718 17.33                             131    0.03 5  142 259 
 PTB  HZ I         718 19.99         2.4 0.14            139            142 259 
 OCA  HN ES   3    718 21.39                             128    0.51 2  161 355 
 OCA  HZ I         718 25.47         5.8 0.38            136            161 355 
                                                                                
