 2012  118 0007 17.2 L   6.782 -73.131146.0  RSN  8 0.4 1.4LRSN                1
 GAP=139        1.01       5.1     5.6  8.0  0.3702E+00  0.1268E+02  0.8148E+01E
 Epicentro: LOS SANTOS - SANTANDER                                             3
 ACTION:DUP 12-02-03 08:18 OP:REBC STATUS:               ID:20120118000718dL   I
 2012-01-18-0000-00M.COL___188                                                 6
 STAT SP IPHASW D HRMM SECON CODA AMPLIT PERI AZIMU VELO SNR AR TRES W  DIS CAZ7
 BAR2 SZ EP   1    0 7 36.63                             171    -0.2 7   22 195 
 BAR2 SZ ES   1    0 7 51.82                             171    -0.3 7   22 195 
 BAR2 SZ I         0 7 54.05        16.0 0.35                            22 195 
 BRR  HZ EP   1    0 7 38.89                             152     0.4 7   74 299 
 BRR  HZ I         0 7 39.39        24.8 0.17                            74 299 
 BRR  HN ES   1    0 7 55.61                             152     0.5 7   74 299 
 PAM  SZ EP   1    0 7 39.80                             151     0.3 7   78  38 
 PAM  SZ I         0 7 40.26         9.1 0.20                            78  38 
 PAM  SN ES   1    0 7 56.53                             151    -0.3 7   78  38 
 RUS  HZ EP   1    0 7 40.96                             144     0.1 7   98 177 
 RUS  HN ES   1    0 7 59.55                             144     0.3 7   98 177 
 RUS  HZ I         0 8  1.07         5.0 0.30                            98 177 
 PTB  HZ EP   1    0 7 43.97                             132    -0.4 7  149 260 
 PTB  HN ES   1    0 8  5.02                             132    -0.4 7  149 260 
 PTB  HZ I         0 8 12.52         0.1 0.42                           149 260 
 ZAR  HZ EP   1    0 7 50.78                             122     0.9 6  206 293 
 ZAR  HN ES   1    0 8 15.17                             122    -0.2 6  206 293 
 ZAR  HZ I         0 8 21.85         5.3 0.14                           206 293 
 NOR  SZ EP   1    0 7 52.35                             118    -0.6 6  235 235 
 NOR  SN ES   1    0 8 21.10                             118     0.2 6  235 235 
 NOR  SZ I         0 8 30.86         0.3 0.16                           235 235 
 CHI  HZ EP   1    0 7 53.99                             117    -0.8 6  247 196 
 CHI  HZ I         0 8 20.47         2.3 0.42                           247 196 
 CHI  HN ES   1    0 8 24.72                             117     0.7 6  247 196 
                                                                                
