 2016  618 0009 18.0 L   6.884 -73.138152.8  RSN 29 0.6 3.1LRSN                1
 GAP= 68        1.24       3.0     3.2  5.8 -0.5611E+00  0.2858E+01  0.3310E+01E
 Epicentro: LOS SANTOS - SANTANDER                                             3
 ACTION:UPD 16-07-21 22:20 OP:rebc STATUS:               ID:20160618000918 L   I
 OLDACT:UP  16-06-18 13:56 OP:dani STATUS:               ID:20160618000002     3
 OLDACT:UP  16-06-18 13:56 OP:dani STATUS:               ID:20160618000002     3
 OLDACT:UP  16-06-18 13:53 OP:dani STATUS:               ID:20160618000002     3
 OLDACT:UP  16-06-18 13:52 OP:dani STATUS:               ID:20160618000002     3
 OLDACT:UP  16-06-18 13:51 OP:dani STATUS:               ID:20160618000002     3
 OLDACT:REG 16-06-18 12:10 OP:dani STATUS:               ID:20160618000002     3
 2016-06-18-0000-02M.COL___349                                                 6
 STAT SP IPHASW D HRMM SECON CODA AMPLIT PERI AZIMU VELO AIN AR TRES W  DIS CAZ7
 BAR2 EZ EP     C  0 9 38.62                             167   -0.0710 32.7 189 
 BAR2 EZ I         0 9 55.42       163.1 0.18                          32.7 189 
 BRR  HZ EP     C  0 9 40.24                             155    0.4910 68.0 291 
 BRR  HN ES        0 9 57.32                             155    0.6110 68.0 291 
 BRR  HZ I         0 9 57.89       213.4 0.18                          68.0 291 
 PAM  EZ EP     D  0 9 41.03                             154    0.4710 69.8  44 
 PAM  EE ES        0 9 58.15                             154   -0.0010 69.8  44 
 PAM  EZ I         0 9 58.78       199.1 0.22                          69.8  44 
 RUS  HZ EP     C  0 9 42.70                             143   -0.4210  110 177 
 RUS  HE ES        010  1.70                             143   -1.0110  110 177 
 RUS  HZ I         010  3.45        60.8 0.32                           110 177 
 PTB  HZ EP     C  0 9 45.18                             133   -0.63 9  151 255 
 PTB  HN ES        010  7.04                             133   -0.46 9  151 255 
 PTB  HZ I         010  8.91       234.2 0.58                           151 255 
 OCA  HZ EP        0 9 46.41                             133    0.37 9  151 352 
 OCA  HN ES        010  7.85                             133   -0.06 9  151 352 
 OCA  HZ I         010 12.97       219.9 0.28                           151 352 
 TAM  HZ IP     D  0 9 46.90                             132    0.49 9  157 108 
 TAM  HN ES        010  8.76                             132    0.18 9  157 108 
 TAM  HZ I         010 14.91        51.2 0.42                           157 108 
 SPBC HZ EP     C  0 9 47.72                             129   -0.07 9  171 217 
 SPBC HE ES        010 11.39                             129    0.37 9  171 217 
 SPBC HZ I         010 15.32       141.3 0.38                           171 217 
 ZAR  HZ EP   4    0 9 52.89                             124    2.23 0  202 290 
 ZAR  HE ES        010 17.11                             124    0.98 9  202 290 
 ZAR  HZ I         010 21.93       256.9 0.38                           202 290 
 NOR  HZ EP        0 9 54.62                             119   -0.19 8  241 233 
 NOR  HE ES   4    010 22.76                             119   -0.76 0  241 233 
 NOR  HZ I         010 28.89        96.8 0.20                           241 233 
 CHI  HZ EP        0 9 57.42                             118    0.33 8  258 195 
 CHI  HN ES        010 26.83                             118   -0.75 8  258 195 
 CHI  HZ I         010 32.64        42.4 0.28                           258 195 
 HEL  HZ EP   4    010  0.87                             116    1.93 0  275 254 
 HEL  HE ES   4    010 30.04                             116   -0.83 0  275 254 
 HEL  HZ I         010 37.41        72.1 0.42                           275 254 
 URE  HZ EP        0 9 59.05                             115   -0.09 7  281 290 
 URE  HE ES        010 29.44                             115   -1.79 7  281 290 
 URE  HZ I         010 39.85        93.4 0.22                           281 290 
 GUY2CHZ EP   9    010  3.97                             113    1.34 0  307 233 
 GUY2CHE ES        010 39.44                             113    0.66 7  307 233 
 GUY2CHZ I         010 46.98        84.7 0.36                           307 233 
 VIL  SZ EP        010  2.59                             113   -0.20 7  313 191 
 VIL  SN ES        010 37.70                             113   -0.03 7  313 191 
 LL6C HZ EP        010  2.56                             112   -0.40 7  316 357 
 LL6C HE ES   2    010 37.15                             112   -0.88 3  316 357 
 PTGC HZ EP   4    010  2.13                             112   -1.00 0  317 159 
 PTGC HN ES   4    010 35.86                             112   -2.47 0  317 159 
 PTGC HZ I         010 42.05        30.9 0.22                           317 159 
 ELA  HZ EP   4    010  8.77                             111    2.84 0  336 228 
 ELA  HE ES   4    010 47.90                             111    4.59 0  336 228 
 ELA  HZ I         010 54.93        56.0 0.46                           336 228 
 CBOC HZ EP   4    010  6.96                             111    1.31 0  337 251 
 CBOC HE ES        010 43.10                             111    0.29 7  337 251 
 CBOC HZ I         010 47.51        19.4 0.26                           337 251 
 DBB  SZ EP        010  6.17                             111    0.36 7  340 273 
 DBB  SZ ES        010 42.46                             111   -0.63 7  340 273 
 ANIL HZ EP   9    010 10.38                             109    1.46 0  365 224 
 ANIL HN ES        010 50.13                             109    0.03 6  365 224 
 ANIL HZ I         010 59.86       103.4 0.40                           365 224 
 PRA  HZ EP        010 12.77                             107    0.00 6  401 209 
 PRA  HN ES        010 55.77                             107    0.28 6  401 209 
 PRA  HZ I         011  2.17        55.4 0.38                           401 209 
 SJC  HZ EP   4    010 11.81                             107   -1.14 0  402 326 
 SJC  HN ES   4    010 53.34                             107   -2.47 0  402 326 
 SJC  HZ I         011 11.48        10.5 0.72                           402 326 
 ORTC HZ EP        010 14.00                             107    0.89 6  403 215 
 ORTC HN ES        010 57.45                             107    1.36 6  403 215 
 ORTC HZ I         011  3.59        45.3 0.42                           403 215 
 ELOV BZ EP        010 12.51                             107   -0.61 6  404  88 
 PAL  HZ EP   2    010 14.51                             107    0.45 3  411 238 
 PAL  HN ES   4    010 56.85                             107   -0.93 0  411 238 
 PAL  HZ I         011  1.48        16.5 0.26                           411 238 
 CRJC HZ EP   4    010 18.25                             105   -1.35 0  458   4 
 CRJC HN ES   4    011  5.01                             105   -2.64 0  458   4 
 CRJC HZ I         011 26.89        12.2 0.18                           458   4 
 YOT  HZ EP        010 22.32                             104    0.27 5  479 228 
 YOT  HN ES        011 13.09                             104    1.08 5  479 228 
 GARC HZ EP        010 33.50                             101   -0.95 3  581 207 
 GARC HZ I         011 58.35        18.6 0.32                           581 207 
                                                                                
