 2014 1118 0229  7.1 L   5.855 -73.796118.1  RSN  6 0.4 1.2LRSN                1
 GAP=167        0.93       3.8     5.1  6.6 -0.1130E+02 -0.9354E+01  0.6171E+01E
 Epicentro: JESUS MARIA - SANTANDER                                            3
 ACTION:UPD 14-12-19 15:44 OP:nd   STATUS:               ID:20141118022907 L   I
 OLDACT:REG 14-11-18 12:52 OP:fm   STATUS:               ID:20141118022743     3
 2014-11-18-0227-43M.COL___286                                                 6
 STAT SP IPHASW D HRMM SECON CODA AMPLIT PERI AZIMU VELO AIN AR TRES W  DIS CAZ7
 SPBC HZ EP        229 23.69                             161    0.0410 37.9 234 
 SPBC HN ES        229 36.48                             161   -0.0910 37.9 234 
 SPBC HZ I         229 38.97         4.9 0.10            161           37.9 234 
 PTB  HZ EP        229 28.24                             135    0.2810  105 316 
 PTB  HN ES        229 43.67                             135   -0.5710  105 316 
 PTB  HZ I         229 46.59         1.4 0.10            136            105 316 
 BAR2 SZ EP        229 28.47                             135    0.1310  106  40 
 BAR2 SZ ES        229 45.15                             135    0.2210  106  40 
 BAR2 SZ I         229 46.53         6.9 0.34            137            106  40 
 BRR  HZ EP        229 31.37                             127    0.33 9  139   4 
 BRR  HN ES        229 50.30                             127    0.58 9  139   4 
 BRR  HZ I         229 56.18         1.8 0.52            128            139   4 
 PAM  SZ EP        229 37.92                             116   -0.59 9  204  36 
 PAM  SN ES        230  2.43                             116   -0.59 9  204  36 
 PAM  SZ I         230  3.59         1.6 0.44            118            204  36 
 PRA  HZ EP        229 45.04                             109    0.12 8  266 207 
 PRA  HN ES        230 14.37                             109   -0.06 8  266 207 
 PRA  HZ I         230 19.29         0.7 0.38            110            266 207 
                                                                                
