 2016 1018 0808 34.1 L   6.813 -73.093153.1  RSN  5 0.3 1.5LRSN                1
 GAP=183        0.65       6.0     6.1  6.9 -0.2478E+02 -0.9125E+01  0.2070E+02E
 Epicentro: LOS SANTOS - SANTANDER                                             3
 ACTION:UPD 16-11-09 19:20 OP:rebc STATUS:               ID:20161018080834 L   I
 OLDACT:DUP 16-10-18 18:27 OP:and  STATUS:               ID:20161018075731d    3
 2016-10-18-0758-00M.COL___329                                                 6
 STAT SP IPHASW D HRMM SECON CODA AMPLIT PERI AZIMU VELO AIN AR TRES W  DIS CAZ7
 PAM  EZ EP     C  8 8 57.18                             153    0.3410 72.7  37 
 PAM  EN ES        8 9 14.30                             153   -0.2710 72.7  37 
 PAM  EZ I         8 9 15.95         3.8 0.16            159           72.7  37 
 BRR  HZ EP        8 8 56.36                             152    0.0710 75.7 295 
 BRR  HN ES        8 9 13.71                             152    0.1010 75.7 295 
 PTB  HZ EP   2    8 9  1.35                             132   -0.85 5  154 259 
 PTB  HN ES   4    8 9 22.24                             132   -1.89 0  154 259 
 PTB  HZ I         8 9 24.52         3.3 0.14            136            154 259 
 SPBC HZ EP        8 9  3.38                             130   -0.23 9  168 220 
 SPBC HE ES        8 9 26.73                             130    0.10 9  168 220 
 SPBC HZ I         8 9 32.92         4.6 0.14            131            168 220 
 GUY2CHZ EP   2    8 9 19.06                             113    0.39 4  307 235 
 GUY2CHE ES   4    8 9 55.65                             113    2.21 0  307 235 
 GUY2CHZ I         810  0.55         1.4 0.36                           307 235 
                                                                                
