 2013  518 0054 52.1 L   6.769 -73.141149.9  RSN  6 0.4 1.6LRSN                1
 GAP=139        0.85       5.5     5.6  7.6 -0.4712E+01  0.6712E+01  0.5187E+01E
 Epicentro: LOS SANTOS - SANTANDER                                             3
 ACTION:UPD 13-06-20 09:51 OP:ep   STATUS:               ID:20130518005452 L   I
 2013-05-18-0051-50M.COL___227                                                 6
 STAT SP IPHASW D HRMM SECON CODA AMPLIT PERI AZIMU VELO AIN AR TRES W  DIS CAZ7
 BAR2 SZ EP   1    055 12.03                             172   -0.13 7 20.1 193 
 BAR2 SZ ES   1    055 27.68                             172   -0.12 7 20.1 193 
 BAR2 SZ I         055 30.46         9.1 0.38            171           20.1 193 
 GIR2 SZ EP   1    055 12.41                             166    0.06 7 34.8 350 
 BRR  HZ EP        055 14.22                             152    0.4110 73.4 301 
 BRR  HN ES   1    055 31.49                             152    0.75 7 73.4 301 
 BRR  HZ I         055 34.31         7.6 0.34            154           73.4 301 
 PAM  SZ EP   1    055 15.06                             151    0.18 7 79.7  38 
 PAM  SN ES        055 32.20                             151   -0.4610 79.7  38 
 PAM  SZ I         055 33.38         3.4 0.16            155           79.7  38 
 RUS  HZ EP        055 16.03                             145    0.0210 97.1 176 
 RUS  HN ES   1    055 34.92                             145    0.26 7 97.1 176 
 RUS  HZ I         055 37.45         4.9 0.44            148           97.1 176 
 PTB  HZ EP   1    055 18.94                             133   -0.45 7  148 260 
 PTB  HN ES   1    055 40.03                             133   -0.65 7  148 260 
 PTB  HZ I         055 41.82        10.3 0.26            135            148 260 
                                                                                
