 2013  518 0343 56.4 L   6.709 -73.165148.0  RSN  4 0.1 1.1LRSN                1
 GAP=228        0.37       3.9     3.4  4.4  0.6397E+01  0.6545E+00  0.3757E+01E
 Epicentro: VILLANUEVA - SANTANDER                                             3
 ACTION:UPD 13-06-20 09:51 OP:ep   STATUS:               ID:20130518034356 L   I
 2013-05-18-0340-00M.COL___256                                                 6
 STAT SP IPHASW D HRMM SECON CODA AMPLIT PERI AZIMU VELO AIN AR TRES W  DIS CAZ7
 BAR2 SZ EP   1    344 16.00                             175   -0.15 7 13.1 189 
 BRR  HN ES        344 34.89                             152    0.0410 74.8 306 
 BRR  HZ I         344 39.48         3.5 0.48            154           74.8 306 
 RUS  HZ EP   1    344 19.93                             147    0.23 7 90.7 174 
 RUS  HE ES   1    344 37.80                             147   -0.07 7 90.7 174 
 RUS  HZ I         344 40.03         1.0 0.66            152           90.7 174 
 PTB  HZ EP        344 23.14                             133   -0.09 9  144 263 
 PTB  HN ES        344 44.17                             133    0.03 9  144 263 
 PTB  HZ I         344 46.14         2.7 0.48            138            144 263 
                                                                                
