 2014  318 0737  4.5 L   6.098 -73.961  4.1  RSN 21 0.6 2.4LRSN                1
 GAP= 68        1.33       2.9     2.6  7.3  0.1511E-01  0.4269E+01  0.8702E+00E
 Epicentro: EL PEON - SANTANDER                                                3
 OLDACT:UP  14-03-18 12:38 OP:mh   STATUS:               ID:20140318072815     3
 OLDACT:REG 14-03-18 08:18 OP:mh   STATUS:               ID:20140318072815     3
 ACTION:UPD 14-04-09 23:18 OP:nd   STATUS:               ID:20140318073704 L   I
 OLDACT:UP  14-03-18 23:57 OP:stll STATUS:               ID:20140318073704 L   3
 OLDACT:UP  14-03-18 13:28 OP:mh   STATUS:               ID:20140318072815     3
 OLDACT:UP  14-03-18 12:50 OP:mh   STATUS:               ID:20140318072815     3
 OLDACT:UP  14-03-18 12:50 OP:mh   STATUS:               ID:20140318072815     3
 2014-03-18-0728-15M.COL___223                                                 6
 STAT SP IPHASW D HRMM SECON CODA AMPLIT PERI AZIMU VELO AIN AR TRES W  DIS CAZ7
 SPBC HZ IPg       737 12.76                              90   -0.1310 50.7 194 
 SPBC HN ESg       737 18.43                              90   -0.9910 50.7 194 
 SPBC HZ I         737 22.80       139.0 0.06             90           50.7 194 
 PTB  HZ EP        737 16.39                              90    0.1510 73.4 312 
 PTB  HN ES        737 25.17                              90   -0.2210 73.4 312 
 PTB  HZ I         737 28.60       306.3 0.14             90           73.4 312 
 RUS  HZ EP        737 20.79                              90    0.0510 99.8 103 
 RUS  HN ES        737 33.11                              90   -0.2910 99.8 103 
 RUS  HZ I         737 34.72        57.1 0.52             90           99.8 103 
 BAR2 SZ EP        737 20.61                              90   -0.2110  102  58 
 BAR2 HZ I         737 44.10        88.4 0.94             90            102  58 
 NOR  HZ EP   1    737 22.94                              90    0.12 7  117 240 
 NOR  HN ES        737 37.28                              90    0.1710  117 240 
 NOR  HZ I         737 38.56       132.6 0.20             90            117 240 
 ROSC BZ EP   4    737 29.96                              90    2.54 0  145 196 
 ROSC BE ES   4    737 50.08                              90    4.79 0  145 196 
 ROSC HZ I         737 55.93        30.7 0.45             90            145 196 
 ROSC BZ I         737 56.41        30.1 0.39                           145 196 
 CHI  HZ EP   1    737 31.83                              90    1.40 7  164 171 
 CHI  HN ES   4    737 53.69                              90    3.05 0  164 171 
 CHI  HZ I         737 58.18        33.0 0.54             90            164 171 
 HEL  HZ IP     D  737 31.61                              90   -0.21 9  174 273 
 HEL  HE ES   1    737 52.25                              90   -0.87 7  174 273 
 HEL  HZ I         737 53.95       112.1 0.20             90            174 273 
 GUY2CHZ EP   1    737 34.22                              56    1.01 7  183 238 
 GUY2CHN ES   1    737 55.15                              56   -0.44 7  183 238 
 GUY2CHZ I         737 56.73        42.9 0.86                           183 238 
 ZAR  HZ EP   1    737 32.27                              56   -0.41 7  183 327 
 ZAR  HN ES   4    737 53.24                              56   -1.42 0  183 327 
 ZAR  HZ I         737 55.21        37.6 0.22             56            183 327 
 PAM  SZ EP   4    737 36.45                              56    1.64 0  196  45 
 PAM  SN ES   4    738  0.72                              56    2.27 0  196  45 
 PAM  HZ I         738  2.45        61.7 0.38             56            196  45 
 RREF HZ EP        737 37.25                              56    1.39 9  203 229 
 RREF HN ES        738  0.29                              56   -0.02 9  203 229 
 RREF HZ I         738  4.74        29.3 0.26             56            203 229 
 VIL  SZ EP   4    737 41.14                              56    3.53 0  222 172 
 VIL  SN ES   4    738  9.17                              56    5.74 0  222 172 
 VIL  HZ I         738 13.16        32.0 0.32             56            222 172 
 CBOC HZ EP   4    737 39.93                              56    1.40 0  229 264 
 CBOC HN ES   4    738  6.74                              56    1.68 0  229 264 
 CBOC HZ I         738 10.71        23.7 1.04             56            229 264 
 ANIL HN ES   4    738  9.76                              56    2.12 0  239 222 
 OCA  HZ EP   1    737 40.94                              56    0.10 6  247  17 
 OCA  HN ES   4    738  8.17                              56   -1.01 0  247  17 
 OCA  HZ I         738 25.63        18.0 0.86             56            247  17 
 URE  HZ EP   1    737 42.06                              56    0.76 6  252 317 
 URE  HN ES   4    738 10.27                              56    0.28 0  252 317 
 URE  HZ I         738 13.67        17.4 0.38             56            252 317 
 DBB  SZ EP   4    737 45.76                              56    2.32 0  269 292 
 DBB  HZ I         738 23.34        96.4 0.66             56            269 292 
 ORTC HZ EP   4    737 46.44                              56    1.54 0  281 211 
 ORTC HZ I         738 35.72        13.6 0.48             56            281 211 
 PTGC HZ EP   4    737 49.32                              55    3.09 0  292 136 
 PTGC HN ES   4    738 26.98                              55    8.21 0  292 136 
 PTGC HZ I         738 36.77        16.3 0.58             55            292 136 
 SML  HZ EP   1    737 46.45                              55   -0.69 5  299 358 
 MACC HZ EP   4    738  4.36                              55    0.16 0  437 178 
 MACC HN ES   4    739  2.07                              55   11.31 0  437 178 
 SJC  HZ EP   1    738  5.64                              55    0.91 4  441 342 
 SJC  HZ I         739 15.87         9.1 1.28             55            441 342 
                                                                                
