 2013 1018 0531 43.4 L   6.778 -73.162150.7  RSN  5 0.4 1.4LRSN                1
 GAP=147        0.97       7.0     5.5  7.7 -0.1172E+02  0.7648E+01 -0.3782E+01E
 Epicentro: LOS SANTOS - SANTANDER                                             3
 ACTION:UPD 13-11-25 09:22 OP:ep   STATUS:               ID:20131018053143 L   I
 OLDACT:REG 13-10-18 08:31 OP:jn   STATUS:               ID:20131018052839     3
 2013-10-18-0528-39M.COL___220                                                 6
 STAT SP IPHASW D HRMM SECON CODA AMPLIT PERI AZIMU VELO AIN AR TRES W  DIS CAZ7
 BAR2 SZ EP        532  3.52                             172   -0.0010 20.6 186 
 BAR2 SZ ES        532 19.52                             172    0.2610 20.6 186 
 BAR2 SZ I         532 22.07         5.5 0.20            172           20.6 186 
 BRR  HZ EP        532  5.32                             153    0.3110 70.8 301 
 BRR  HN ES        532 22.40                             153    0.4910 70.8 301 
 BRR  HZ I         532 26.18         4.6 0.14            154           70.8 301 
 PAM  SZ EP        532  6.50                             151    0.2310 80.4  39 
 PAM  SE ES        532 23.50                             151   -0.6510 80.4  39 
 PAM  SZ I         532 24.15         3.0 0.20            154           80.4  39 
 PTB  HZ EP        532 10.37                             134   -0.16 9  146 260 
 PTB  HN ES        532 31.16                             134   -0.56 9  146 260 
 PTB  HZ I         532 33.79         3.5 0.14            135            146 260 
 SML  HE ES   1    532 49.32                             118   -0.01 6  245 336 
                                                                                
