 2017 1018 0640 45.3 L   6.520 -73.571106.0  RSN  8 0.6 1.9LRSN                1
 GAP= 92        1.22       4.7     4.2  7.8  0.5860E+01  0.2519E+01  0.5131E+01E
 Epicentro: EL CARMEN - SANTANDER                                              3
 ACTION:UPD 17-11-07 19:33 OP:rebc STATUS:               ID:20171018064045 L   I
 OLDACT:UP  17-10-18 15:22 OP:dani STATUS:               ID:20171018063737     3
 OLDACT:UP  17-10-18 15:22 OP:dani STATUS:               ID:20171018063737     3
 OLDACT:UP  17-10-18 15:19 OP:dani STATUS:               ID:20171018063737     3
 OLDACT:UP  17-10-18 15:19 OP:dani STATUS:               ID:20171018063737     3
 OLDACT:REG 17-10-18 13:25 OP:dani STATUS:               ID:20171018063737     3
 2017-10-18-0638-00M.COL___419                                                 6
 STAT SP IPHASW D HRMM SECON CODA AMPLIT PERI AZIMU VELO AIN AR TRES W  DIS CAZ7
 BAR2 EZ EP     D  641  0.98                             156   -0.0410 43.7  79 
 BAR2 EZ ES        641 13.30                             156    0.0610 43.7  79 
 BRR  HZ EP        641  1.89                             146   -0.1710 66.8 346 
 BRR  HN ES        641 15.88                             146    0.7910 66.8 346 
 BRR  HZ I         641 23.48        12.8 0.44            148           66.8 346 
 RUS  HZ EP        641  4.67                             138    0.3110 87.9 142 
 RUS  HN ES        641 19.56                             138    0.3810 87.9 142 
 RUS  HZ I         641 20.89        10.6 0.38            145           87.9 142 
 PTB  HZ EP     C  641  3.90                             134   -0.6610 98.0 271 
 PTB  HE ES        641 19.13                             134   -0.4210 98.0 271 
 PTB  HZ I         641 24.53        10.4 0.24            136           98.0 271 
 PAM  EZ EP        641  8.92                             125    0.4810  132  47 
 PAM  EN ES        641 25.53                             125   -0.9210  132  47 
 PAM  EZ I         641 26.90        16.8 0.14            131            132  47 
 ZAR  HZ EP        641 13.06                             116    0.37 9  178 307 
 ZAR  HE ES   3    641 35.72                             116    1.71 2  178 307 
 ZAR  HZ I         641 40.19        14.0 0.22            119            178 307 
 YPLC HZ EP     D  641 12.83                             116   -0.25 9  181 133 
 YPLC HN ES        641 34.56                             116   -0.16 9  181 133 
 YPLC HZ I         641 36.70        28.8 0.42            121            181 133 
 GUY2CHZ EP   3    641 23.18                             108    2.34 2  245 234 
 GUY2CHE ES   4    641 52.57                             108    4.05 0  245 234 
 GUY2CHZ I         641 58.28         3.8 0.23                           245 234 
                                                                                
