 2017  418 0446 27.0 L   6.517 -73.594111.6  RSN  8 0.4 1.5LRSN                1
 GAP= 91        0.93       3.8     3.8  6.7 -0.5725E+00  0.7350E+01  0.6675E+01E
 Epicentro: SANTA HELENA DEL OPON - SANTANDER                                  3
 ACTION:UPD 17-05-30 21:13 OP:jn   STATUS:               ID:20170418044627 L   I
 OLDACT:UP  17-04-18 15:18 OP:cog  STATUS:               ID:20170418043739d    3
 OLDACT:DUP 17-04-18 15:11 OP:cog  STATUS:               ID:20170418043739d    3
 2017-04-18-0438-00M.COL___368                                                 6
 STAT SP IPHASW D HRMM SECON CODA AMPLIT PERI AZIMU VELO AIN AR TRES W  DIS CAZ7
 BAR2 EZ EP        446 43.50                             156    0.0910 46.3  80 
 BAR2 EZ ES        446 56.20                             156   -0.0210 46.3  80 
 BAR2 EZ I         446 57.22        18.0 0.28            158           46.3  80 
 BRR  HZ EP        446 44.13                             147   -0.1210 66.6 349 
 BRR  HN ES        446 58.05                             147    0.3410 66.6 349 
 RUS  HZ EP        446 46.44                             139   -0.1710 89.2 141 
 RUS  HE ES        447  1.66                             139   -0.2610 89.2 141 
 RUS  HZ I         447  2.57         2.7 0.20            140           89.2 141 
 PTB  HZ EP        446 45.66                             136   -0.8110 95.4 272 
 PTB  HE ES   3    447  0.32                             136   -1.34 2 95.4 272 
 PTB  HZ I         447  1.75         6.8 0.05            137           95.4 272 
 SPBC HZ EP        446 48.39                             132    0.6110  109 209 
 SPBC HN ES        447  4.01                             132    0.0110  109 209 
 SPBC HZ I         447  5.85         8.9 0.20            133            109 209 
 ZAR  HE ES   3    447 16.73                             118    0.89 2  176 308 
 NOR  HZ EP        446 54.29                             118   -0.17 9  176 233 
 NOR  HN ES        447 16.39                             118    0.50 9  176 233 
 NOR  HZ I         447 17.56         2.9 0.33            119            176 233 
 YPLC HZ EP        446 55.35                             117    0.15 9  183 133 
 CHI  HE ES   4    447 25.28                             113    2.09 0  209 184 
                                                                                
