 2011  618 0405 37.2 L   6.062 -74.196  5.4  RSN 12 0.3 2.0LRSN                1
 GAP=151        0.54       1.7     2.6  4.7 -0.2210E+01  0.4476E+01 -0.1084E+01E
 Epicentro: CIMITARRA - SANTANDER                                              3
 ACTION:UP  11-07-14 19:06 OP:ep   STATUS:               ID:20110618040537 L   I
 2011-06-18-0403-26S.COL___135                                                 6
 STAT SP IPHASW D HRMM SECON CODA AMPLIT PERI AZIMU VELO SNR AR TRES W  DIS CAZ7
 NOR  SZ EP   1    4 5 51.98                              91     0.1 8   93 234 
 NOR  SN ES   2    4 6  3.36                              91     0.0 5   93 234 
 BRR  HZ EP   2    4 5 57.25                              91     0.1 5  127  25 
 BRR  HE ES   2    4 6 12.70                              91     0.1 5  127  25 
 BAR2 SZ EP   1    4 5 56.71                              91    -0.5 8  127  62 
 ROSC BZ EP   2    4 5 58.94                              91     0.1 5  136 186 
 ROSC BZ I         4 6  0.47        10.8 0.39                           136 186 
 ROSC BN ES   2    4 6 15.16                              91    -0.5 5  136 186 
 BTL  SZ IP        4 5 59.17                              90    -0.110  140  47 
 GIR2 SZ EP   2    4 6  2.12                              90     0.2 5  158  45 
 CHI  HZ EP   1    4 6  3.57                              90     0.1 7  167 162 
 CHI  HN ES        4 6 24.10                              90     0.110  167 162 
 CHI  HZ I         4 6 27.57        12.7 0.24                           167 162 
 RREF HZ EP   1    4 6  5.66                              56    -0.1 7  181 225 
 RREF HN ES   2    4 6 27.13                              56    -0.9 5  181 225 
 RREF HZ I         4 6 29.91         9.2 0.27                           181 225 
 TOL  SZ EP   1    4 6  8.86                              56     0.4 7  205 217 
 BRI  SZ EP   2    4 6 12.60                              56     0.1 4  240  40 
 BRI  SZ I         4 6 49.52        13.4 0.80                           240  40 
 GRA  SZ ES   2    4 6 43.58                              56     0.5 4  254  37 
 GRA  SZ I         4 6 48.18        21.6 0.41                           254  37 
 PRA  HZ EP   2    4 6 16.51                              56     0.3 4  271 196 
 PRA  HN ES   2    4 6 46.64                              56     0.0 4  271 196 
                                                                                
