 2012 1118 0558  8.9 L   6.781 -73.094147.1  RSN  4 0.3 1.2LRSN                1
 GAP=144        0.62       4.5     6.7  6.7 -0.7269E+00 -0.3072E+01  0.1130E+01E
 Epicentro: LOS SANTOS - SANTANDER                                             3
 ACTION:UPD 12-12-05 15:34 OP:}ep  STATUS:               ID:20121118055808 L   I
 2012-11-18-0557-20M.COL___211                                                 6
 STAT SP IPHASW D HRMM SECON CODA AMPLIT PERI AZIMU VELO AIN AR TRES W  DIS CAZ7
 BAR2 SZ EP   1    558 28.52                             171   -0.16 7 23.0 205 
 BAR2 SZ ES   1    558 43.63                             171   -0.49 7 23.0 205 
 BAR2 SZ I         558 45.40         6.8 0.39                          23.0 205 
 PAM  SZ EP   1    558 31.45                             152    0.30 7 75.6  35 
 PAM  SN ES   1    558 48.50                             152   -0.01 7 75.6  35 
 PAM  SZ I         558 50.38         2.4 0.22                          75.6  35 
 BRR  HZ EP   1    558 30.41                             151   -0.13 7 77.2 298 
 BRR  HN ES   1    558 47.69                             151    0.27 7 77.2 298 
 BRR  HZ I         558 50.78         4.4 0.56                          77.2 298 
 RUS  HZ EP   1    558 32.39                             145   -0.22 7 98.2 179 
 RUS  HN ES   1    558 51.56                             145    0.45 7 98.2 179 
 RUS  HZ I         558 52.17         1.6 0.24                          98.2 179 
                                                                                
