 2012  718 0905 34.5 L   5.953 -73.697120.8  RSN 10 0.3 1.9LRSN                1
 GAP= 86        0.79       2.8     3.4  7.4 -0.6954E+00  0.9027E+01  0.5380E+00E
 Epicentro: VELEZ - SANTANDER                                                  3
 ACTION:UPD 12-08-14 11:45 OP:ep   STATUS:               ID:20120718090534 L   I
 2012-07-18-0900-00M.COL___197                                                 6
 STAT SP IPHASW D HRMM SECON CODA AMPLIT PERI AZIMU VELO AIN AR TRES W  DIS CAZ7
 RUS  HZ EP   1    9 5 53.71                             149     0.1 8   68  96 
 RUS  HN ES   1    9 6  8.35                             149    -0.1 8   68  96 
 RUS  HZ I         9 6 11.74        13.2 0.55            153             68  96 
 BAR2 SZ EP   1    9 5 55.10                             141     0.3 8   91  39 
 BAR2 SZ ES   1    9 6 10.71                             141     0.1 8   91  39 
 BAR2 SZ I         9 6 12.07        54.7 0.45            147             91  39 
 PTB  HZ EP   1    9 5 55.23                             136    -0.5 8  106 308 
 PTB  HN ES   1    9 6 11.79                             136    -0.5 8  106 308 
 PTB  HZ I         9 6 12.87         9.0 0.27            141            106 308 
 BRR  HZ EP   1    9 5 57.78                             130     0.2 8  128 359 
 BRR  HN ES   1    9 6 15.89                             130     0.2 8  128 359 
 BRR  HZ I         9 6 19.19        14.4 0.15            136            128 359 
 NOR  SZ EP        9 5 58.82                             128     0.310  137 252 
 NOR  SN ES   1    9 6 17.91                             128     0.6 7  137 252 
 CHI  HZ EP   1    9 5 59.54                             126    -0.4 7  146 182 
 CHI  HN ES   1    9 6 19.43                             126    -0.4 7  146 182 
 CHI  HZ I         9 6 27.55         4.4 0.30            129            146 182 
 HEL  HZ EP   1    9 6  6.13                             116     0.1 7  204 277 
 HEL  HN ES   1    9 6 30.82                             116     0.3 7  204 277 
 HEL  HZ I         9 6 34.72         8.6 0.25            120            204 277 
 ZAR  HZ EP   1    9 6  6.20                             115    -0.3 7  213 323 
 ZAR  HN ES   1    9 6 30.79                             115    -0.6 7  213 323 
 ZAR  HZ I         9 6 33.44         7.0 0.19            120            213 323 
 OCA  HN ES   1    9 6 40.56                             111     0.2 6  256   9 
 PRA  HE ES   2    9 6 45.47                             108     0.4 4  281 208 
