 2012  818 0915 46.1 L   6.787 -73.117151.7  RSN  7 0.3 1.6LRSN                1
 GAP=141        0.78       3.5     4.0  7.1  0.1075E+01  0.4610E+01 -0.1658E+01E
 Epicentro: LOS SANTOS - SANTANDER                                             3
 ACTION:UPD 12-09-10 11:57 OP:ep   STATUS:               ID:20120818091546 L   I
 2012-08-18-0910-00M.COL___217                                                 6
 STAT SP IPHASW D HRMM SECON CODA AMPLIT PERI AZIMU VELO AIN AR TRES W  DIS CAZ7
 BAR2 SZ EP   1    916  6.43                             171   -0.03 7 22.7 198 
 BAR2 SZ ES   1    916 21.98                             171   -0.34 7 22.7 198 
 BAR2 SZ I         916 24.71        12.7 0.14                          22.7 198 
 BRR  HZ EP   1    916  8.50                             152    0.38 7 74.6 298 
 BRR  HZ I         916  9.95         9.9 0.10                          74.6 298 
 BRR  HN ES        916 25.75                             152    0.4910 74.6 298 
 PAM  SZ EP   1    916  9.34                             152    0.41 7 76.5  37 
 PAM  SZ I         916  9.66         5.3 0.20                          76.5  37 
 PAM  SN ES   1    916 26.68                             152   -0.04 7 76.5  37 
 RUS  HZ EP   1    916 10.30                             145   -0.06 7 99.0 178 
 RUS  HN ES        916 29.32                             145    0.0610 99.0 178 
 RUS  HZ I         916 31.28         2.6 0.25                          99.0 178 
 PTB  HZ EP   1    916 13.41                             133   -0.43 7  151 260 
 PTB  HE ES        916 35.07                             133   -0.38 9  151 260 
 OCA  HN ES        916 37.16                             131   -0.49 9  162 352 
 ZAR  HE ES        916 45.51                             123    0.30 8  207 292 
                                                                                
