 2015  818 0658 48.5 L   7.160 -73.337121.4  RSN  4 0.2 1.2LRSN                1
 GAP=164        0.45       2.3     5.2  4.5  0.2681E+01 -0.5639E+01 -0.4657E+01E
 Epicentro: LEBRIJA - SANTANDER                                                3
 ACTION:UPD 15-09-15 23:03 OP:cam  STATUS:               ID:20150818065848 L   I
 OLDACT:REG 15-08-18 13:34 OP:spq  STATUS:               ID:20150818064736     3
 2015-08-18-0647-36M.COL___322                                                 6
 STAT SP IPHASW D HRMM SECON CODA AMPLIT PERI AZIMU VELO AIN AR TRES W  DIS CAZ7
 BRR  HZ EP        659  5.49                             160    0.0310 41.8 262 
 BRR  HN ES        659 18.80                             160    0.1010 41.8 262 
 BRR  HZ I         659 19.25         3.3 0.10            158           41.8 262 
 BAR2 EZ EP   1    659  7.16                             150    0.15 7 65.1 165 
 BAR2 EZ ES   1    659 21.16                             150   -0.31 7 65.1 165 
 BAR2 EZ I         659 22.24         5.4 0.42            152           65.1 165 
 OCA  HZ EP        659 11.07                             132   -0.0010  119   1 
 OCA  HE ES        659 28.82                             132    0.1210  119   1 
 OCA  HZ I         659 29.77         5.7 0.26            132            119   1 
 SML  HZ EP   1    659 18.91                             117    0.04 6  199 336 
 SML  HE ES   1    659 42.16                             117   -0.41 6  199 336 
 SML  HZ I         659 46.51         0.9 0.48            117            199 336 
                                                                                
