 2017  718 0613 47.8 L   6.755 -73.140140.4  RSN 13 0.4 1.9LRSN                1
 GAP=114        0.93       3.4     3.3  5.8  0.1097E+01  0.7543E+01  0.3581E+01E
 Epicentro: LOS SANTOS - SANTANDER                                             3
 ACTION:UPD 17-08-30 15:34 OP:rebc STATUS:               ID:20170718061347 L   I
 OLDACT:UP  17-07-18 16:24 OP:dnl  STATUS:               ID:20170718060738     3
 OLDACT:REG 17-07-18 13:48 OP:dnl  STATUS:               ID:20170718060738     3
 2017-07-18-0608-00M.COL___371                                                 6
 STAT SP IPHASW D HRMM SECON CODA AMPLIT PERI AZIMU VELO AIN AR TRES W  DIS CAZ7
 BAR2 EZ IP     C  614  6.62                             172   -0.0910 18.5 195 
 BAR2 EZ ES        614 20.96                             172   -0.4910 18.5 195 
 BAR2 EZ I         614 22.95        17.1 0.22            169           18.5 195 
 BRR  HZ IP     C  614  8.52                             150   -0.0510 74.2 302 
 BRR  HE ES        614 25.44                             150    0.6910 74.2 302 
 BRR  HZ I         614 26.02        14.5 0.28            150           74.2 302 
 PAM  EZ EP   2    614  9.67                             148   -0.02 5 81.0  37 
 PAM  EN ES        614 26.60                             148   -0.1410 81.0  37 
 PAM  EZ I         614 27.51        13.3 0.16            152           81.0  37 
 RUS  HZ EP   2    614 10.95                             144    0.27 5 95.5 176 
 RUS  HN ES        614 28.61                             144    0.1110 95.5 176 
 RUS  HZ I         614 30.41         6.5 0.32            143           95.5 176 
 PTB  HZ EP   2    614 13.56                             131   -0.77 5  147 261 
 PTB  HN ES        614 34.26                             131   -0.74 9  147 261 
 PTB  HZ I         614 36.64         7.9 0.24            130            147 261 
 SPBC HE ES        614 37.02                             128   -0.21 9  160 220 
 SPBC HZ I         614 40.28        15.6 0.12            127            160 220 
 YPLC HZ EP   2    614 17.15                             126    0.38 4  172 151 
 YPLC HN ES        614 39.87                             126    0.53 9  172 151 
 YPLC HZ I         614 43.30         6.6 0.36            126            172 151 
 ZAR  HZ EP        614 19.74                             121   -0.44 8  207 293 
 ZAR  HN ES        614 46.00                             121    0.58 8  207 293 
 ZAR  HZ I         614 50.57        14.2 0.24            121            207 293 
 NOR  HZ EP        614 23.15                             117    0.16 8  232 236 
 NOR  HN ES        614 50.38                             117   -0.03 8  232 236 
 NOR  HZ I         614 59.28         5.5 0.18            117            232 236 
 HEL  HZ EP   2    614 27.07                             114   -0.63 4  271 257 
 HEL  HN ES        614 59.48                             114    0.68 8  271 257 
 HEL  HZ I         615  5.83         5.6 0.50            113            271 257 
 GUY2CHZ EP   2    614 31.64                             111    0.72 4  299 236 
 GUY2CHN ES        615  4.33                             111   -0.20 7  299 236 
 GUY2CHZ I         615 11.28         2.9 0.50                           299 236 
 PTGC HZ EP   2    614 30.22                             111   -0.66 4  304 158 
 PTGC HN ES   4    615  2.77                             111   -1.70 0  304 158 
 PTGC HZ I         615  6.90         2.6 0.34            111            304 158 
 SJC  HZ EP   4    614 41.49                             104   -2.26 0  414 327 
 SJC  HN ES   4    615 21.44                             104   -5.93 0  414 327 
 SJC  HZ I         615 25.97         1.8 0.42            105            414 327 
                                                                                
