 2011  518 0221 43.1 L   6.769 -73.071147.5  RSN  9 0.3 1.8LRSN                1
 GAP=148        0.66       3.2     5.9  6.6 -0.3657E+01 -0.1181E+01 -0.1783E+01E
 Epicentro: LOS SANTOS - SANTANDER                                             3
 ACTION:UP  11-06-29 08:54 OP:tino STATUS:               ID:20110518022143 L   I
 2011-05-18-0220-04S.COL___141                                                 6
 STAT SP IPHASW D HRMM SECON CODA AMPLIT PERI AZIMU VELO SNR AR TRES W  DIS CAZ7
 BAR2 SZ EP   1    222  3.12                             171     0.1 7   23 212 
 BAR2 SZ I         222  3.50        11.6 0.13                            23 212 
 BAR2 SZ ES   2    222 18.75                             171     0.3 5   23 212 
 BTL  SZ EP   1    222  3.35                             169     0.3 7   27 307 
 GIR2 SZ EP   1    222  3.28                             165     0.1 7   37 338 
 PAM  SZ EP   1    222  5.75                             152     0.3 7   75  33 
 PAM  SE ES   2    222 22.40                             152    -0.4 5   75  33 
 BRR  HZ EP        222  5.03                             150     0.010   80 298 
 BRR  HZ I         222  5.51        19.9 0.07                            80 298 
 BRR  HE ES   1    222 22.20                             150     0.1 7   80 298 
 RUS  HZ EP   1    222  6.25                             145    -0.6 7   97 181 
 RUS  HN ES   1    222 25.30                             145     0.0 7   97 181 
 RUS  HZ I         222 28.54         5.0 0.45                            97 181 
 GRA  SZ EP   1    222  8.98                             137     0.3 7  127  13 
 GRA  SZ ES   1    222 28.06                             137    -0.5 7  127  13 
 GRA  SZ I         222 31.66         8.1 0.41                           127  13 
 OCA  SZ EP   1    222 11.94                             129    -0.1 7  165 350 
 OCA  SZ ES   1    222 34.38                             129    -0.2 7  165 350 
 OCA  SZ I         222 38.36         8.6 0.23                           165 350 
 NOR  SN ES   2    222 47.21                             118    -0.6 4  240 236 
                                                                                
