 2010  618 0121 50.3 L   6.786 -73.078144.3  RSN  9 0.4 2.0LRSN                1
 GAP=164        0.81       3.4     5.8  6.2 -0.6243E+01  0.2201E+01 -0.4767E+00E
 Epicentro: LOS SANTOS - SANTANDER                                             3
 ACTION:UP  10-08-24 10:11 OP:vdl  STATUS:               ID:20100618012150 L   I
 2010-06-18-0118-59S.COL___115                                                 6
 STAT SP IPHASW D HRMM SECON CODA AMPLIT PERI AZIMU VELO SNR AR TRES W  DIS CAZ7
 BAR2 SZ EP        122  9.57                             170    -0.210   24 209 
 BAR2 SZ ES   1    122 24.94                             170     0.0 7   24 209 
 BRR  HZ EP        122 11.51                             150    -0.210   79 297 
 BRR  HE ES   1    122 28.66                             150     0.2 7   79 297 
 BRR  HZ I         122 32.14        27.5 0.07                            79 297 
 RUS  HZ EP   1    122 13.50                             144    -0.3 7   99 180 
 RUS  HE ES   1    122 32.36                             144     0.3 7   99 180 
 RUS  HZ I         122 33.90        14.0 0.25                            99 180 
 BRI  SZ EP   1    122 14.11                             141     0.2 7  107  17 
 GUE  SZ EP   1    122 15.79                             139     0.9 7  117   8 
 GRA  SZ EP        122 15.29                             137    -0.110  125  14 
 GRA  SZ ES   1    122 34.59                             137    -0.3 7  125  14 
 OCA  SZ EP   1    122 18.34                             129    -0.4 7  163 351 
 OCA  SZ I         122 51.31        13.0 0.27                           163 351 
 CHI  HZ EP        122 27.79                             117    -0.2 8  249 197 
 CHI  HE ES   1    122 57.38                             117     0.0 6  249 197 
 CHI  HZ I         123  2.88         4.9 0.11                           249 197 
 HEL  HZ EP   1    122 31.89                             114     0.7 6  279 257 
 HEL  HN ES   1    123  2.77                             114    -0.3 6  279 257 
 HEL  HZ I         123  8.52         6.0 0.49                           279 257 
                                                                                
