 2016  218 0416  8.3 L   6.770 -73.162154.8  RSN  4 0.4 1.2LRSN                1
 GAP=233        1.09       6.9     8.2  9.8  0.1702E+02 -0.6180E+01  0.9539E+00E
 Epicentro: LOS SANTOS - SANTANDER                                             3
 ACTION:UPD 16-03-04 21:27 OP:rebc STATUS:               ID:20160218041608 L   I
 OLDACT:REG 16-02-18 12:37 OP:drio STATUS:               ID:20160218040748     3
 2016-02-18-0407-48M.COL___334                                                 6
 STAT SP IPHASW D HRMM SECON CODA AMPLIT PERI AZIMU VELO AIN AR TRES W  DIS CAZ7
 BRR  HZ EP        416 30.68                             154    0.2410 71.3 302 
 BRR  HN ES        416 48.02                             154    0.3110 71.3 302 
 RUS  HZ EP        416 32.41                             146   -0.3210 97.4 175 
 RUS  HE ES        416 51.54                             146   -0.2510 97.4 175 
 RUS  HZ I         416 52.18         1.3 0.44            143           97.4 175 
 PTB  HZ EP        416 35.45                             134   -0.36 9  145 260 
 PTB  HN ES        416 56.58                             134   -0.68 9  145 260 
 PTB  HZ I         417  2.50         1.8 0.24            130            145 260 
 SPBC HZ EP        416 37.66                             132    0.50 9  159 219 
 SPBC HE ES        417  0.28                             132    0.60 9  159 219 
 SPBC HZ I         417  6.61         3.6 0.26            127            159 219 
                                                                                
