 2017  318 0240 19.7 L   6.770 -73.133140.5  RSN  7 0.4 1.6LRSN                1
 GAP=140        0.93       4.2     4.2  7.3 -0.2694E+01  0.9427E+01 -0.3718E+01E
 Epicentro: LOS SANTOS - SANTANDER                                             3
 ACTION:UPD 17-05-25 18:41 OP:jn   STATUS:               ID:20170318024019 L   I
 OLDACT:REG 17-03-18 13:16 OP:cog  STATUS:               ID:20170318023744     3
 2017-03-18-0238-00M.COL___373                                                 6
 STAT SP IPHASW D HRMM SECON CODA AMPLIT PERI AZIMU VELO AIN AR TRES W  DIS CAZ7
 BAR2 EZ EP        240 38.62                             171    0.0310 20.4 195 
 BAR2 EZ ES        240 52.85                             171   -0.5110 20.4 195 
 BAR2 EZ I         240 54.90         7.1 0.46            174           20.4 195 
 BRR  HZ EP        240 40.50                             151    0.1010 74.0 300 
 BRR  HN ES        240 57.08                             151    0.5010 74.0 300 
 BRR  HZ I         241  2.01         6.5 0.26            151           74.0 300 
 PAM  EZ EP        240 41.59                             149    0.1710 79.1  37 
 PAM  EE ES        240 58.15                             149   -0.2410 79.1  37 
 PAM  EZ I         241  0.77         7.8 0.64            151           79.1  37 
 RUS  HN ES        241  1.04                             144    0.4710 97.2 177 
 PTB  HZ EP        240 45.77                             131   -0.50 9  149 260 
 PTB  HN ES        241  6.59                             131   -0.44 9  149 260 
 PTB  HZ I         241  9.08         5.9 0.30            133            149 260 
 SPBC HN ES        241  9.46                             128    0.07 9  162 220 
 ZAR  HN ES        241 17.61                             121    0.33 8  207 293 
                                                                                
