 2014  818 0138 53.0 L   6.589 -73.458114.7  RSN  9 0.6 1.9LRSN                1
 GAP=105        1.44       4.5     5.4  8.4 -0.3056E+01  0.1935E+02 -0.1242E+01E
 Epicentro: EL CARMEN - SANTANDER                                              3
 ACTION:UPD 14-09-15 21:50 OP:nd   STATUS:               ID:20140818013853 L   I
 OLDACT:REG 14-08-18 14:19 OP:stll STATUS:               ID:20140818013810     3
 2014-08-18-0138-10M.COL___266                                                 6
 STAT SP IPHASW D HRMM SECON CODA AMPLIT PERI AZIMU VELO AIN AR TRES W  DIS CAZ7
 BAR2 SZ IP     C  139  9.12                             164    0.0310 30.4  89 
 BAR2 SZ I         139  9.42        21.6 0.34            168           30.4  89 
 BAR2 SZ ES        139 21.97                             164    0.3210 30.4  89 
 BRR  HZ EP        139 10.65                             149    0.2810 63.8 334 
 BRR  HE ES        139 24.51                             149    0.5610 63.8 334 
 BRR  HZ I         139 25.69        18.6 0.14            147           63.8 334 
 RUS  HZ EP        139 12.60                             140   -0.1410 87.4 152 
 RUS  HZ I         139 12.86        10.8 0.22            143           87.4 152 
 RUS  HN ES        139 28.21                             140    0.0510 87.4 152 
 PTB  HZ EP        139 12.98                             133   -1.0510  111 267 
 PTB  HZ I         139 14.85        16.4 0.14            132            111 267 
 PTB  HN ES        139 29.89                             133   -0.5710  111 267 
 SPBC HZ EP        139 15.28                             129   -0.0810  124 213 
 SPBC HN ES        139 32.31                             129   -0.5210  124 213 
 SPBC HZ I         139 34.81        19.5 0.16            129            124 213 
 NOR  HZ EP        139 22.12                             116   -0.33 9  193 234 
 NOR  HN ES        139 44.89                             116   -0.55 9  193 234 
 NOR  HZ I         139 49.80         5.7 0.12            116            193 234 
 HEL  HZ EP        139 28.11                             111    0.76 8  233 259 
 HEL  HN ES        139 54.37                             111    0.21 8  233 259 
 HEL  HZ I         139 58.94         3.4 0.26            111            233 259 
 SML  HZ EP        139 29.30                             109    0.07 8  254 345 
 SML  HE ES        139 57.05                             109   -0.46 8  254 345 
 SML  HZ I         140  2.58        12.9 0.10            109            254 345 
 GUY2CHZ EP        139 30.84                             109    0.35 8  260 235 
 GUY2CHN ES        140  1.58                             109    1.83 8  260 235 
 GUY2CHZ I         140  9.76         3.7 0.32                           260 235 
                                                                                
