 2013  418 0107 10.4 L   6.796 -73.161147.1  RSN 10 0.3 1.8LRSN                1
 GAP=135        0.61       2.8     2.9  3.7 -0.1102E+01  0.3620E+01  0.4917E+00E
 Epicentro: LOS SANTOS - SANTANDER                                             3
 ACTION:UPD 13-05-22 14:39 OP:EP   STATUS:               ID:20130418010710 L   I
 2013-04-18-0100-00M.COL___250                                                 6
 STAT SP IPHASW D HRMM SECON CODA AMPLIT PERI AZIMU VELO AIN AR TRES W  DIS CAZ7
 BAR2 SZ EP        1 7 30.18                             171   -0.0310 22.7 186 
 BAR2 SZ ES        1 7 45.47                             171   -0.1710 22.7 186 
 BAR2 SZ I         1 7 46.39        33.4 0.24            171           22.7 186 
 GIR2 SZ EP        1 7 30.25                             167   -0.0210 31.4 354 
 GIR2 SZ ES        1 7 45.81                             167    0.0710 31.4 354 
 GIR2 SZ I         1 7 47.82        10.9 0.18            165           31.4 354 
 BRR  HZ IP     C  1 7 31.95                             153    0.3010 69.9 299 
 BRR  HN ES   1    1 7 48.53                             153    0.33 7 69.9 299 
 BRR  HZ I         1 7 52.98        14.4 0.38            150           69.9 299 
 PAM  SZ IP     C  1 7 33.14                             150    0.2610 78.8  40 
 PAM  SN ES   1    1 7 50.15                             150   -0.23 7 78.8  40 
 PAM  SZ I         1 7 52.00         7.0 0.70            154           78.8  40 
 RUS  HZ EP        1 7 34.11                             144   -0.1910  100 175 
 RUS  HN ES   1    1 7 53.10                             144    0.19 7  100 175 
 RUS  HZ I         1 7 53.95         8.1 0.26            148            100 175 
 PTB  HZ EP        1 7 36.75                             133   -0.60 9  146 259 
 PTB  HN ES   1    1 7 57.99                             133   -0.35 7  146 259 
 PTB  HZ I         1 7 59.74         9.4 0.12            132            146 259 
 ZAR  HZ EP        1 7 42.75                             123   -0.07 9  203 292 
 ZAR  HN ES   1    1 8  7.83                             123   -0.24 6  203 292 
 ZAR  HZ I         1 8 13.73         7.9 0.56            123            203 292 
 NOR  HZ EP        1 7 46.42                             119    0.36 8  233 234 
 NOR  HN ES        1 8 14.07                             119    0.21 8  233 234 
 NOR  HZ I         1 8 15.38                             120            233 234 
 SML  HZ EP   2    1 7 46.94                             118   -0.16 4  243 336 
 SML  HN ES   2    1 8 15.90                             118    0.21 4  243 336 
 HEL  HZ EP   4    1 7 52.30                             115    1.78 0  270 256 
 HEL  HN ES   2    1 8 22.24                             115    0.46 4  270 256 
 HEL  HZ I         1 8 29.74         4.2 0.20            116            270 256 
                                                                                
