 2016  918 0656 40.5 L   6.761 -73.128147.5  RSN  8 0.6 1.7LRSN                1
 GAP=141        0.90       5.2     7.7  7.1 -0.4490E+01  0.1211E+01  0.6576E+01E
 Epicentro: LOS SANTOS - SANTANDER                                             3
 ACTION:UPD 17-08-17 21:13 OP:lp   STATUS:               ID:20160918065640 L   I
 OLDACT:DUP 16-09-18 14:52 OP:dnl  STATUS:               ID:20160918064748d    3
 OLDACT:UP  16-09-18 14:48 OP:dnl  STATUS:               ID:20160918064747d    3
 OLDACT:UP  16-09-18 14:47 OP:dnl  STATUS:               ID:20160918064747d    3
 OLDACT:DUP 16-09-18 14:31 OP:dnl  STATUS:               ID:20160918064747d    3
 OLDACT:REG 16-09-18 13:12 OP:y    STATUS:               ID:20160918064746     3
 2016-09-18-0648-00M.COL___354                                                 6
 STAT SP IPHASW D HRMM SECON CODA AMPLIT PERI AZIMU VELO AIN AR TRES W  DIS CAZ7
 BAR2 EZ EP        657  0.25                             172    0.0110 19.6 198 
 BAR2 EZ ES        657 15.30                             172   -0.3610 19.6 198 
 BAR2 EZ I         657 18.18        13.4 0.34            172           19.6 198 
 BRR  HZ EP        657  2.06                             151    0.0410 75.1 301 
 BRR  HN ES        657 19.46                             151    0.6210 75.1 301 
 BRR  HZ I         657 24.54         5.2 0.66            152           75.1 301 
 PAM  EZ EP   3    657  2.90                             150   -0.09 2 79.5  36 
 PAM  EN ES   3    657 19.74                             150   -0.83 2 79.5  36 
 PAM  EZ I         657 22.38         8.3 0.58            152           79.5  36 
 RUS  HZ EP   2    657  4.47                             145    0.39 5 96.2 177 
 RUS  HE ES   2    657 22.73                             145    0.24 5 96.2 177 
 RUS  HZ I         657 24.55         5.2 0.40            148           96.2 177 
 PTB  HZ EP   2    657  7.26                             132   -0.42 5  149 261 
 PTB  HN ES   2    657 27.24                             132   -1.67 5  149 261 
 PTB  HZ I         657 30.52         4.9 0.12            133            149 261 
 SPBC HZ EP        657  9.18                             130    0.27 9  161 221 
 SPBC HN ES        657 31.05                             130   -0.04 9  161 221 
 SPBC HZ I         657 33.37         9.2 0.22            132            161 221 
 OCA  HZ EP   2    657  8.30                             129   -1.03 5  165 353 
 OCA  HN ES   4    657 30.05                             129   -1.80 0  165 353 
 OCA  HZ I         657 35.94        10.9 0.16            131            165 353 
 CHI  HZ EP   2    657 18.52                             118    0.65 4  245 196 
 CHI  HE ES   2    657 46.74                             118   -0.31 4  245 196 
 CHI  HZ I         657 53.17         2.3 0.34            120            245 196 
                                                                                
