 2014 1118 0516 49.9 L   6.774 -73.178149.4  RSN 11 0.4 1.6LRSN                1
 GAP=134        1.12       3.9     4.7  6.5 -0.6393E+01  0.7831E+01 -0.2595E+00E
 Epicentro: LOS SANTOS - SANTANDER                                             3
 ACTION:UPD 14-12-19 15:44 OP:nd   STATUS:               ID:20141118051649 L   I
 OLDACT:REG 14-11-18 13:10 OP:fm   STATUS:               ID:20141118050748     3
 2014-11-18-0507-48M.COL___277                                                 6
 STAT SP IPHASW D HRMM SECON CODA AMPLIT PERI AZIMU VELO AIN AR TRES W  DIS CAZ7
 BAR2 SZ EP        517 10.08                             172    0.2210 20.1 181 
 BAR2 SZ ES        517 25.15                             172   -0.3210 20.1 181 
 BAR2 SZ I         517 26.66        15.0 0.16            172           20.1 181 
 BRR  HZ EP        517 11.85                             154    0.5410 69.5 302 
 BRR  HN ES        517 28.89                             154    0.8610 69.5 302 
 BRR  HZ I         517 30.21         7.8 0.34            152           69.5 302 
 PAM  SZ EP        517 12.92                             150    0.1910 81.9  40 
 PAM  SN ES        517 29.92                             150   -0.6410 81.9  40 
 PAM  SZ I         517 32.43         8.0 0.52            153           81.9  40 
 RUS  HZ EP        517 14.15                             145    0.3610 98.1 174 
 RUS  HN ES        517 32.36                             145   -0.1010 98.1 174 
 RUS  HZ I         517 33.93         5.3 0.20            147           98.1 174 
 PTB  HZ EP        517 16.90                             134    0.14 9  144 260 
 PTB  HN ES        517 37.60                             134   -0.14 9  144 260 
 PTB  HZ I         517 40.25         4.2 0.38            134            144 260 
 SPBC HZ EP        517 18.67                             131    0.45 9  159 219 
 SPBC HN ES        517 40.26                             131   -0.08 9  159 219 
 SPBC HZ I         517 43.99        10.0 0.22            131            159 219 
 OCA  HZ EP        517 17.82                             130   -0.86 9  163 355 
 OCA  HN ES        517 41.15                             130   -0.01 9  163 355 
 OCA  HZ I         517 45.00         5.0 0.30            131            163 355 
 NOR  HN ES        517 52.20                             120   -0.77 8  230 235 
 NOR  HZ I         517 57.67         3.4 0.18            121            230 235 
 HEL  HZ EP        517 29.68                             116   -0.12 8  268 256 
 HEL  HN ES        518  0.76                             116   -0.19 8  268 256 
 HEL  HZ I         518  9.28         1.8 0.24            117            268 256 
 MON  HN ES   4    518 12.24                             109   -4.88 0  353 309 
 MON  HZ I         518 15.46         0.4 0.70            110            353 309 
 PRA  HZ EP   1    517 42.97                             107   -0.04 4  388 209 
                                                                                
