 2013  718 0426  5.5 L   6.818 -73.148143.1  RSN  9 0.4 1.9LRSN                1
 GAP=183        0.89       3.8     5.8  6.5  0.5064E+01  0.4745E+01 -0.4376E+01E
 Epicentro: LOS SANTOS - SANTANDER                                             3
 ACTION:UPD 13-08-12 10:38 OP:ep   STATUS:               ID:20130718042605 L   I
 OLDACT:REG 13-07-18 07:38 OP:mh   STATUS:               ID:20130718041959     3
 2013-07-18-0419-59M.COL___267                                                 6
 STAT SP IPHASW D HRMM SECON CODA AMPLIT PERI AZIMU VELO AIN AR TRES W  DIS CAZ7
 BAR2 SZ EP   1    426 24.94                             169    0.09 7 25.3 189 
 BAR2 SZ ES        426 39.64                             169   -0.3010 25.3 189 
 BAR2 SZ I         426 41.04        11.5 0.22            172           25.3 189 
 GIR2 SZ EP        426 24.95                             168    0.1510 29.2 350 
 GIR2 SZ I         426 40.98         8.7 0.10            165           29.2 350 
 BRR  HZ EP   1    426 26.70                             152    0.41 7 70.0 297 
 BRR  HN ES        426 42.82                             152    0.3110 70.0 297 
 BRR  HZ I         426 47.82        11.6 0.46            151           70.0 297 
 RUS  HZ EP   1    426 29.65                             143    0.51 7  103 176 
 RUS  HN ES   1    426 47.20                             143   -0.38 7  103 176 
 RUS  HN I         426 48.39         7.4 0.20            144            103 176 
 PTB  HZ EP   1    426 31.83                             131   -0.43 7  148 258 
 PTB  HN ES   1    426 52.33                             131   -0.80 7  148 258 
 PTB  HZ I         426 57.86         5.5 0.24            131            148 258 
 OCA  HN ES   1    426 55.47                             129    0.29 7  158 353 
 OCA  HN I         426 57.74        29.8 0.26            128            158 353 
 SPBC HZ EP   1    426 33.97                             128    0.04 7  165 218 
 SPBC HN ES   2    426 56.74                             128    0.64 5  165 218 
 ZAR  HZ EP   1    426 37.76                             122    0.10 6  203 292 
 ZAR  HE ES   1    427  3.58                             122    0.83 6  203 292 
 ZAR  HZ I         427  9.61         7.5 0.38            121            203 292 
 SML  HZ EP   1    426 41.09                             117   -0.67 6  242 335 
 SML  HE ES        427  9.52                             117   -0.53 8  242 335 
 SML  HZ I         427 12.59        11.2 0.24            116            242 335 
                                                                                
