 2016  518 0713 48.9 L   6.798 -73.135140.3  RSN  9 0.4 1.7LRSN                1
 GAP=138        1.03       3.4     4.1  5.9 -0.2301E+01  0.7692E+01 -0.1003E+01E
 Epicentro: LOS SANTOS - SANTANDER                                             3
 ACTION:UPD 16-08-18 17:47 OP:cam  STATUS:               ID:20160518071348 L   I
 OLDACT:UP  16-05-18 15:00 OP:mh   STATUS:               ID:20160518070746     3
 OLDACT:UP  16-05-18 15:00 OP:mh   STATUS:               ID:20160518070746     3
 OLDACT:REG 16-05-18 13:09 OP:mh   STATUS:               ID:20160518070746     3
 2016-05-18-0707-46M.COL___298                                                 6
 STAT SP IPHASW D HRMM SECON CODA AMPLIT PERI AZIMU VELO AIN AR TRES W  DIS CAZ7
 BAR2 EZ EP        714  8.04                             170    0.2010 23.4 193 
 BAR2 EZ ES        714 22.33                             170   -0.3110 23.4 193 
 BRR  HZ EP        714  9.73                             151    0.2410 72.3 298 
 BRR  HN ES        714 26.40                             151    0.8210 72.3 298 
 BRR  HZ I         714 31.09         9.3 0.06            150           72.3 298 
 PAM  EZ EP        714 10.88                             150    0.4210 76.8  39 
 PAM  EN ES        714 27.31                             150   -0.0110 76.8  39 
 PAM  EZ I         714 30.18        13.8 0.36            154           76.8  39 
 RUS  HZ EP        714 12.07                             143    0.0110  100 177 
 RUS  HN ES        714 30.08                             143   -0.0810  100 177 
 RUS  HZ I         714 31.54         6.4 0.34            146            100 177 
 PTB  HZ EP        714 15.00                             130   -0.49 9  149 259 
 PTB  HN ES        714 35.40                             130   -0.86 9  149 259 
 PTB  HZ I         714 38.17         5.2 0.24            131            149 259 
 OCA  HZ EP        714 16.48                             128   -0.30 9  161 353 
 OCA  HN ES        714 37.89                             128   -0.67 9  161 353 
 OCA  HZ I         714 39.96        11.7 0.60            130            161 353 
 SPBC HZ EP        714 16.97                             128   -0.03 9  164 219 
 SPBC HN ES        714 39.13                             128    0.18 9  164 219 
 SPBC HZ I         714 42.74         7.5 0.24            130            164 219 
 ZAR  HZ EP        714 21.31                             121    0.24 9  205 292 
 ZAR  HN ES        714 46.62                             121    0.42 9  205 292 
 ZAR  HZ I         714 53.38         4.6 0.41            122            205 292 
 CBOC HZ EP        714 35.86                             109    0.19 7  335 252 
 CBOC HN ES        715 12.22                             109    0.03 7  335 252 
 CBOC HZ I         715 18.66         0.9 0.19            110            335 252 
                                                                                
