 2016 1118 0457  7.8 L   7.401 -73.792 28.6  RSN  5 0.2 1.0LRSN                1
 GAP=178        0.67       3.0     1.7  2.7  0.5850E+00  0.3075E+00 -0.3232E+01E
 Epicentro: PUERTO WILCHES - SANTANDER                                         3
 ACTION:UPD 17-10-26 21:09 OP:lp   STATUS:               ID:20161118045707 L   I
 OLDACT:DUP 16-11-18 15:37 OP:and  STATUS:               ID:20161118044742d    3
 2016-11-18-0448-00M.COL___343                                                 6
 STAT SP IPHASW D HRMM SECON CODA AMPLIT PERI AZIMU VELO AIN AR TRES W  DIS CAZ7
 BRR  HZ EP        457 14.33                             125   -0.4410 33.6 165 
 BRR  HN ES        457 20.57                             125    0.3610 33.6 165 
 BRR  HZ I         457 21.04        11.6 0.12            122           33.6 165 
 BAR2 EZ EP        457 25.40                              61    0.1010  112 143 
 BAR2 EZ ES        457 38.67                              61   -0.2710  112 143 
 BAR2 EZ I         457 39.33         4.4 0.20             61            112 143 
 ZAR  HZ EP        457 25.60                              61   -0.1910  118 275 
 ZAR  HN ES        457 40.00                              61    0.1810  118 275 
 ZAR  HZ I         457 40.70         3.1 0.10             61            118 275 
 PTB  HZ EP        457 25.88                              61   -0.1910  120 218 
 PTB  HN ES        457 40.49                              61    0.1810  120 218 
 PTB  HZ I         457 41.78         1.1 0.10             61            120 218 
 PAM  EZ EP        457 26.85                              61    0.1510  121  93 
 PAM  EN ES        457 41.57                              61    0.1310  121  93 
 PAM  EZ I         457 41.84         3.9 0.20             61            121  93 
                                                                                
