 2012  318 0840 39.6 L   6.743 -73.184136.6  RSN  8 0.5 1.7LRSN                1
 GAP=134        1.21       7.0     5.9 10.1 -0.3979E+01  0.1496E+02 -0.1313E+02E
 ACTION:UP  12-03-31 23:20 OP:EP   STATUS:               ID:20120318084039 L   I
 2012-03-18-0840-00M.COL___202                                                 6
 STAT SP IPHASW D HRMM SECON CODA AMPLIT PERI AZIMU VELO SNR AR TRES W  DIS CAZ7
 BAR2 SZ EP   1    840 57.89                             173    -0.1 7   17 179 
 BAR2 SZ ES   1    841 12.37                             173     0.0 7   17 179 
 BAR2 SZ I         841 14.13        21.7 0.20                            17 179 
 BRR  HZ EP   1    841  0.13                             151     0.4 7   71 305 
 BRR  HE ES   1    841 16.11                             151     0.6 7   71 305 
 BRR  HZ I         841 18.13        15.0 0.14                            71 305 
 PAM  SZ EP        841  1.16                             147    -0.210   85  39 
 PAM  SZ I         841  1.51        10.5 0.22                            85  39 
 PAM  SN ES   1    841 17.56                             147    -0.8 7   85  39 
 RUS  HZ EP   1    841  2.69                             143     0.6 7   95 173 
 RUS  HN ES   1    841 19.87                             143     0.3 7   95 173 
 RUS  HZ I         841 22.86         7.5 0.35                            95 173 
 PTB  HZ EP   1    841  4.88                             131    -0.5 7  142 261 
 PTB  HZ I         841  7.65         3.7 0.09                           142 261 
 PTB  HN ES   1    841 24.66                             131    -0.8 7  142 261 
 OCA  SZ EP   1    841  8.24                             126     0.4 7  166 355 
 ZAR  HZ EP   1    841 11.33                             120     0.0 6  203 294 
 ZAR  HN ES   1    841 36.87                             120     0.8 6  203 294 
 ZAR  HZ I         841 39.16         4.8 0.13                           203 294 
 HEL  HN ES   1    841 48.63                             113    -0.7 6  266 257 
 HEL  HZ I         841 57.25         2.4 0.24                           266 257 
                                                                                
