 2015  918 0035 44.5 L   6.544 -73.550110.9  RSN 15 0.5 2.1LRSN                1
 GAP= 62        1.15       2.4     3.1  5.9 -0.8710E+00  0.5648E+01  0.4504E+00E
 Epicentro: EL CARMEN - SANTANDER                                              3
 ACTION:UPD 15-10-28 16:26 OP:cam  STATUS:               ID:20150918003544 L   I
 OLDACT:UP  15-09-18 14:07 OP:mh   STATUS:               ID:20150918002748     3
 OLDACT:REG 15-09-18 12:15 OP:mh   STATUS:               ID:20150918002748     3
 2015-09-18-0027-48M.COL___352                                                 6
 STAT SP IPHASW D HRMM SECON CODA AMPLIT PERI AZIMU VELO AIN AR TRES W  DIS CAZ7
 BAR2 EZ EP     D  036  0.64                             158    0.0910 41.0  83 
 BAR2 EZ ES        036 13.08                             158   -0.0210 41.0  83 
 BAR2 EZ I         036 14.22        72.5 0.46            160           41.0  83 
 BRR  HZ EP   1    036  1.34                             147   -0.19 7 64.8 344 
 BRR  HN ES        036 15.27                             147    0.4310 64.8 344 
 BRR  HZ I         036 15.53        18.7 0.12            146           64.8 344 
 RUS  HZ EP        036  3.47                             139   -0.5110 88.7 144 
 RUS  HE ES        036 19.28                             139    0.0810 88.7 144 
 RUS  HZ I         036 20.40         9.3 0.24            140           88.7 144 
 PTB  HZ EP   1    036  3.52                             135   -0.76 7  100 270 
 PTB  HE ES        036 18.95                             135   -0.8010  100 270 
 PTB  HZ I         036 19.48        38.0 0.18            133            100 270 
 SPBC HZ EP        036  5.69                             131    0.0410  114 210 
 SPBC HN ES        036 22.20                             131    0.0110  114 210 
 SPBC HZ I         036 28.40        36.3 0.10            130            114 210 
 PAM  EZ EP        036  7.26                             127   -0.3010  129  47 
 PAM  EN ES        036 25.10                             127   -0.4810  129  47 
 PAM  EZ I         036 26.01        11.9 0.20            127            129  47 
 ZAR  HZ EP        036 12.39                             117    0.31 9  179 306 
 ZAR  HN ES        036 34.38                             117    0.75 9  179 306 
 ZAR  HZ I         036 36.54        27.1 0.54            116            179 306 
 NOR  HZ EP        036 12.45                             117   -0.06 9  182 233 
 NOR  HE ES        036 35.14                             117    0.76 9  182 233 
 NOR  HZ I         036 37.52        16.4 0.20            116            182 233 
 OCA  HN ES        036 36.97                             116    0.94 9  189   8 
 OCA  HZ I         036 41.33        20.8 0.50            115            189   8 
 CHI  HZ EP        036 16.44                             113    0.06 8  213 185 
 CHI  HE ES        036 42.01                             113    0.72 8  213 185 
 HEL  HZ EP        036 17.22                             111   -0.20 8  222 260 
 HEL  HN ES        036 42.33                             111   -0.80 8  222 260 
 HEL  HZ I         036 49.95         7.5 0.22            111            222 260 
 GUY2CHZ EP   4    036 22.31                             109    1.78 0  248 234 
 GUY2CHN ES   4    036 51.44                             109    2.77 0  248 234 
 GUY2CHZ I         036 54.76         5.6 0.56                           248 234 
 SML  HZ EP        036 20.43                             108   -0.40 8  256 347 
 SML  HE ES        036 49.44                             108    0.25 8  256 347 
 SML  HZ I         036 58.76        16.9 0.10            107            256 347 
 URE  HZ EP   4    036 19.76                             108   -1.13 0  256 301 
 URE  HN ES   1    036 48.74                             108   -0.57 6  256 301 
 PRA  HZ EP        036 31.65                             102    0.13 6  346 205 
 PRA  HN ES        037  8.66                             102    0.43 6  346 205 
 PRA  HZ I         037 14.01         3.4 0.34            101            346 205 
                                                                                
