 2012  118 0957  7.0 L   6.741 -73.206133.7  RSN  5 0.3 0.9LRSN                1
 GAP=225        0.72       7.7     7.0  9.8  0.3953E+02  0.7649E+01  0.2860E+01E
 Epicentro: VILLANUEVA - SANTANDER                                             3
 ACTION:UP  12-02-03 08:18 OP:REBC STATUS:               ID:20120118095707 L   I
 2012-01-18-0950-00M.COL___187                                                 6
 STAT SP IPHASW D HRMM SECON CODA AMPLIT PERI AZIMU VELO SNR AR TRES W  DIS CAZ7
 BAR2 SZ EP   1    957 24.69                             173    -0.4 9   17 171 
 BAR2 SZ I         957 43.12         4.8 0.28                            17 171 
 BRR  HN ES   1    957 42.37                             151     0.2 9   69 306 
 RUS  HZ EP   1    957 29.70                             143     0.5 9   95 172 
 RUS  HN ES   1    957 46.20                             143    -0.2 9   95 172 
 RUS  HZ I         957 49.05         0.7 0.06                            95 172 
 PTB  HZ EP   1    957 32.16                             131    -0.1 8  140 261 
 PTB  HN ES   1    957 52.12                             131     0.1 8  140 261 
 PTB  HZ I         957 56.30         0.0 0.16                           140 261 
 ZAR  HE ES        958  2.63                             120    -0.110  201 295 
                                                                                
