 2011  918 0853 29.4 L   6.754 -73.086145.0  RSN  6 0.2 1.7LRSN                1
 GAP=146        0.52       3.9     6.2  4.5  0.2404E-01 -0.3541E+01  0.1826E+01E
 Epicentro: LOS SANTOS - SANTANDER                                             3
 ACTION:UPD 12-07-13 15:58 OP:ep   STATUS:               ID:20110918085329 L   I
 2011-09-18-0851-33S.COL___171                                                 6
 STAT SP IPHASW D HRMM SECON CODA AMPLIT PERI AZIMU VELO AIN AR TRES W  DIS CAZ7
 BAR2 SZ EP        853 48.78                             172   -0.1110 20.8 211 
 BAR2 SZ I         853 49.17        12.1 0.09                          20.8 211 
 BAR2 SZ ES   1    854  3.80                             172   -0.29 7 20.8 211 
 BTL  SZ EP        853 49.11                             169    0.0910 27.1 312 
 BTL  SZ ES   2    854  3.82                             169   -0.51 5 27.1 312 
 GIR2 SZ EP        853 48.93                             165   -0.2510 37.9 342 
 GIR2 SZ ES   1    854  5.00                             165    0.40 7 37.9 342 
 PAM  SZ EP        853 51.66                             151    0.1210 77.6  33 
 PAM  SE ES   2    854  8.79                             151   -0.03 5 77.6  33 
 BRR  HZ EP        853 50.86                             150   -0.0910 79.5 299 
 BRR  HN ES   2    854  8.14                             150    0.37 5 79.5 299 
 RUS  HZ EP        853 52.85                             145    0.1610 95.2 180 
 RUS  HN ES   2    854 11.11                             145    0.25 5 95.2 180 
                                                                                
