 2017 1018 0706 53.3 L   6.780 -73.178150.5  RSN  4 0.4 1.1LRSN                1
 GAP=232        1.08       8.8     8.2  8.7  0.3535E+02  0.5298E+01  0.8155E+00E
 Epicentro: LOS SANTOS - SANTANDER                                             3
 ACTION:UPD 17-11-07 19:33 OP:rebc STATUS:               ID:20171018070653 L   I
 OLDACT:REG 17-10-18 13:26 OP:dani STATUS:               ID:20171018065739     3
 2017-10-18-0658-00M.COL___419                                                 6
 STAT SP IPHASW D HRMM SECON CODA AMPLIT PERI AZIMU VELO AIN AR TRES W  DIS CAZ7
 BAR2 EZ EP        7 7 13.21                             172   -0.2810 20.8 181 
 BAR2 EZ ES        7 7 28.50                             172   -0.7010 20.8 181 
 BAR2 EZ I         7 7 29.48         4.7 0.24            174           20.8 181 
 BRR  HZ EP     C  7 7 15.03                             154    0.1410 69.2 302 
 BRR  HE ES        7 7 32.28                             154    0.5810 69.2 302 
 BRR  HZ I         7 7 37.07         2.3 0.18            153           69.2 302 
 RUS  HZ EP        7 7 17.77                             145    0.3510 98.7 174 
 RUS  HN ES        7 7 36.57                             145    0.3610 98.7 174 
 RUS  HZ I         7 7 36.98         1.9 0.25            149           98.7 174 
 PTB  HZ EP        7 7 19.94                             134   -0.41 9  144 259 
 PTB  HZ ES        7 7 41.30                             134   -0.11 9  144 259 
 PTB  HZ I         7 7 43.68         1.1 0.13            135            144 259 
                                                                                
