 2015  118 0728 12.9 L   6.780 -73.133151.1  RSN  6 0.2 1.3LRSN                1
 GAP=139        0.65       3.3     3.6  4.7 -0.1461E+01  0.3906E+01  0.3063E+01E
 Epicentro: LOS SANTOS - SANTANDER                                             3
 ACTION:UPD 15-03-02 15:40 OP:nd   STATUS:               ID:20150118072812 L   I
 OLDACT:DUP 15-01-18 18:53 OP:carl STATUS:               ID:20150118071736d    3
 2015-01-18-0717-35M.COL___259                                                 6
 STAT SP IPHASW D HRMM SECON CODA AMPLIT PERI AZIMU VELO AIN AR TRES W  DIS CAZ7
 BAR2 EZ EP        728 33.04                             172   -0.0710 21.5 195 
 BAR2 EZ ES        728 48.94                             172    0.0410 21.5 195 
 BAR2 EZ I         728 49.71         3.8 0.32            167           21.5 195 
 BRR  HZ EP        728 35.11                             153    0.3810 73.4 299 
 BRR  HN ES        728 52.14                             153    0.3610 73.4 299 
 PAM  SN ES        728 53.20                             151   -0.3210 78.2  38 
 RUS  HZ EP        728 37.09                             145    0.0910 98.3 177 
 RUS  HN ES        728 55.85                             145    0.0310 98.3 177 
 RUS  HZ I         728 56.61         1.7 0.36            145           98.3 177 
 PTB  HZ EP        728 40.12                             133   -0.25 9  149 260 
 PTB  HN ES        729  1.41                             133   -0.40 9  149 260 
 PTB  HZ I         729  6.72         2.3 0.58            131            149 260 
 SPBC HZ EP        728 41.76                             130    0.05 9  162 220 
 SPBC HN ES        729  4.23                             130    0.02 9  162 220 
 SPBC HZ I         729 10.69         3.7 0.34            129            162 220 
                                                                                
