 2012  718 0601 31.6 L   6.641 -73.180141.9  RSN  4 0.3 1.5LRSN                1
 GAP=231        0.63       9.9     6.3  7.2  0.1512E+02  0.1206E+02  0.4091E+01E
 Epicentro: BARICHARA - SANTANDER                                              3
 ACTION:UPD 12-08-14 11:45 OP:ep   STATUS:               ID:20120718060131 L   I
 2012-07-18-0600-00M.COL___197                                                 6
 STAT SP IPHASW D HRMM SECON CODA AMPLIT PERI AZIMU VELO AIN AR TRES W  DIS CAZ7
 BAR2 SZ EP   1    6 1 50.64                             178     0.1 7    5 182 
 BAR2 SZ I         6 1 50.75         6.5 0.24            168              5 182 
 BAR2 SZ ES   1    6 2  5.23                             178    -0.1 7    5 182 
 BRR  HZ EP   1    6 1 52.45                             150    -0.3 7   78 311 
 BRR  HZ I         6 1 52.90         8.9 0.13            145             78 311 
 BRR  HE ES   1    6 2  9.47                             150     0.2 7   78 311 
 PTB  HZ EP   1    6 1 57.62                             132    -0.1 7  142 266 
 PTB  HN ES   1    6 2 18.14                             132     0.1 7  142 266 
 PTB  HZ I         6 2 24.27         2.7 0.35            128            142 266 
 ZAR  HZ EP   2    6 2  4.98                             121     0.8 4  208 297 
 ZAR  HN ES   2    6 2 29.02                             121    -0.6 4  208 297 
 ZAR  HZ I         6 2 34.36         3.6 0.25            119            208 297 
