 2013  618 0650 38.6 L   6.817 -73.096151.2  RSN 13 0.5 2.1LRSN                1
 GAP=186        0.98       3.3     5.8  6.0 -0.3948E+01  0.7661E+01  0.1453E+00E
 Epicentro: LOS SANTOS - SANTANDER                                             3
 ACTION:UPD 14-01-08 09:55 OP:ep   STATUS:               ID:20130618065038 L   I
 OLDACT:REG 13-06-18 08:08 OP:carl STATUS:               ID:20130618064959     3
 2013-06-18-0649-59M.COL___261                                                 6
 STAT SP IPHASW D HRMM SECON CODA AMPLIT PERI AZIMU VELO AIN AR TRES W  DIS CAZ7
 BAR2 SZ IP     C  650 59.03                             170    0.0410 26.6 201 
 BAR2 SZ ES   1    651 14.21                             170   -0.65 7 26.6 201 
 BAR2 SZ I         651 17.03        16.3 0.36            168           26.6 201 
 GIR2 SZ EP   1    650 59.36                             168    0.42 7 30.9 340 
 GIR2 SZ ES   1    651 15.24                             168    0.45 7 30.9 340 
 GIR2 SZ I         651 15.97         9.8 0.20            164           30.9 340 
 BRR  HZ IP     C  651  0.96                             152    0.3610 75.2 295 
 BRR  HN ES   1    651 18.66                             152    0.93 7 75.2 295 
 BRR  HZ I         651 23.10        20.8 0.12            148           75.2 295 
 RUS  HZ EP   1    651  2.87                             144   -0.17 7  102 179 
 RUS  HN ES   1    651 21.86                             144   -0.22 7  102 179 
 RUS  HZ I         651 23.03         5.2 0.16            146            102 179 
 PTB  HZ EP   1    651  5.70                             132   -0.86 7  154 259 
 PTB  HN ES   1    651 27.30                             132   -1.05 7  154 259 
 PTB  HZ I         651 32.87        18.2 0.30            130            154 259 
 OCA  HZ EP   1    651  7.79                             131    0.52 7  159 351 
 OCA  HN ES   1    651 29.58                             131   -0.03 7  159 351 
 OCA  HZ I         651 34.88        16.7 0.38            130            159 351 
 NOR  HZ EP   1    651 15.19                             119   -0.08 6  240 235 
 NOR  HE ES   1    651 43.69                             119   -0.16 6  240 235 
 NOR  HZ I         651 47.10        11.8 0.18            119            240 235 
 SML  HZ EP   1    651 14.87                             119   -0.77 6  244 334 
 SML  HN ES   1    651 43.43                             119   -1.08 6  244 334 
 SML  HZ I         651 48.15        20.4 0.10            118            244 334 
 CHI  HZ EP   1    651 16.78                             118   -0.21 6  252 196 
 CHI  HN ES   1    651 47.12                             118    0.21 6  252 196 
 CHI  HZ I         651 55.26         3.6 0.38            118            252 196 
 HEL  HZ EP   1    651 20.23                             115    0.47 6  278 256 
 HEL  HN ES   1    651 52.82                             115    0.98 6  278 256 
 HEL  HZ I         651 58.69         5.7 0.28            115            278 256 
 GUY2CHZ EP   1    651 23.71                             113    0.59 5  307 235 
 GUY2CHE ES   1    651 57.93                             113    0.11 5  307 235 
 GUY2CHZ I         652  3.97         7.8 0.32                           307 235 
 COD  HZ EP   1    651 27.12                             110    0.04 5  347 354 
 COD  HN ES   1    652  4.76                             110   -0.11 5  347 354 
 COD  HZ I         652 17.32         5.2 0.82            110            347 354 
 PRA  HZ EP   1    651 32.96                             107    0.11 4  396 210 
 PRA  HN ES   1    652 14.83                             107   -0.31 4  396 210 
 PRA  HZ I         652 20.74         5.4 0.38            107            396 210 
                                                                                
