 2014  718 0655 50.9 L   6.936 -73.260134.0  RSN  4 0.3 1.3LRSN                1
 GAP=170        0.68       4.3     5.9  8.2 -0.8205E+01  0.1257E+02 -0.1014E+01E
 Epicentro: BETULIA - SANTANDER                                                3
 ACTION:UPD 15-03-16 20:44 OP:nd   STATUS:               ID:20140718065550 L   I
 OLDACT:REG 14-07-18 13:03 OP:fm   STATUS:               ID:20140718064819     3
 2014-07-18-0648-19M.COL___266                                                 6
 STAT SP IPHASW D HRMM SECON CODA AMPLIT PERI AZIMU VELO AIN AR TRES W  DIS CAZ7
 BAR2 SZ EP   1    656  9.01                             163   -0.56 8 39.0 167 
 BAR2 SZ ES   1    656 24.41                             163    0.27 8 39.0 167 
 BAR2 SZ I         656 25.38         5.1 0.24            171           39.0 167 
 PTB  HZ EP        656 16.13                             131   -0.0210  139 252 
 PTB  HN ES        656 35.81                             131   -0.0310  139 252 
 PTB  HZ I         656 41.15         1.6 0.52            132            139 252 
 OCA  HN ES   1    656 37.03                             130    0.06 7  144 357 
 OCA  HZ I         656 44.28         4.6 0.22            130            144 357 
 SPBC HZ EP   1    656 19.62                             125    0.61 7  168 212 
 SPBC HN ES   1    656 40.70                             125   -0.23 7  168 212 
 SPBC HZ I         656 43.44         2.4 0.20            129            168 212 
                                                                                
