 2015  118 0818 59.0 L   6.793 -73.206144.3  RSN  5 0.2 1.3LRSN                1
 GAP=230        0.50       2.9     3.1  3.7  0.2036E+01  0.1551E+01  0.1227E+01E
 Epicentro: ZAPATOCA - SANTANDER                                               3
 ACTION:UPD 15-03-02 15:40 OP:nd   STATUS:               ID:20150118081859 L   I
 OLDACT:REG 15-01-18 16:26 OP:carl STATUS:               ID:20150118081744     3
 2015-01-18-0817-44M.COL___258                                                 6
 STAT SP IPHASW D HRMM SECON CODA AMPLIT PERI AZIMU VELO AIN AR TRES W  DIS CAZ7
 BAR2 EZ EP        819 18.29                             171   -0.1910 22.4 173 
 BAR2 EZ ES        819 33.75                             171    0.1110 22.4 173 
 BAR2 EZ I         819 34.56         5.5 0.18            165           22.4 173 
 BRR  HZ EP        819 19.96                             154    0.2310 65.8 302 
 BRR  HN ES        819 35.89                             154    0.0210 65.8 302 
 RUS  HZ EP        819 22.61                             143   -0.0310  101 172 
 RUS  HN ES        819 40.92                             143   -0.1410  101 172 
 RUS  HZ I         819 42.31         1.9 0.30            141            101 172 
 PTB  HZ EP        819 25.02                             133   -0.26 9  141 259 
 PTB  HN ES        819 45.61                             133   -0.14 9  141 259 
 PTB  HZ I         819 50.69         2.2 0.40            130            141 259 
 SPBC HZ EP        819 27.27                             130    0.29 9  158 217 
 SPBC HN ES        819 48.92                             130    0.14 9  158 217 
 SPBC HZ I         819 55.06         3.1 0.68            127            158 217 
                                                                                
