 2010  618 0743 37.0 L   6.747 -72.808129.4  RSN  5 0.3 1.1LRSN                1
 GAP=198        0.72       6.6    13.9 13.7 -0.4971E+01 -0.3572E+02 -0.5808E+02E
 Epicentro: MOLAGAVITA - SANTANDER                                             3
 ACTION:UP  10-08-24 10:11 OP:vdl  STATUS:               ID:20100618074337 L   I
 2010-06-18-0740-14S.COL___115                                                 6
 STAT SP IPHASW D HRMM SECON CODA AMPLIT PERI AZIMU VELO SNR AR TRES W  DIS CAZ7
 BAR2 SZ EP   2    743 54.88                             160    -0.4 5   45 247 
 BAR2 SZ ES   2    744  9.71                             160     0.1 5   45 247 
 RUS  HZ EP   1    743 59.14                             140     0.1 8   99 198 
 RUS  HN ES   1    744 16.26                             140     0.0 8   99 198 
 RUS  HZ I         744 18.86         1.1 0.32                            99 198 
 BRR  HZ EP        743 58.99                             138     0.010  108 292 
 BRR  HZ I         744 17.34         3.9 0.13                           108 292 
 GUE  SZ EP   1    744  1.13                             134     0.6 7  120 354 
 GRA  SZ EP   1    744  0.28                             133    -0.5 7  126   0 
                                                                                
