 2013  818 0157 26.9 L   6.799 -73.148138.8  RSN 16 0.4 2.4LRSN                1
 GAP= 71        1.07       3.1     3.4  5.3 -0.1505E+01  0.1102E+01  0.2169E+01E
 Epicentro: LOS SANTOS - SANTANDER                                             3
 ACTION:UPD 14-01-14 09:04 OP:ep   STATUS:               ID:20130818015726 L   I
 OLDACT:REG 13-08-18 09:12 OP:stll STATUS:               ID:20130818014848     3
 2013-08-18-0148-48M.COL___201                                                 6
 STAT SP IPHASW D HRMM SECON CODA AMPLIT PERI AZIMU VELO AIN AR TRES W  DIS CAZ7
 BAR2 SZ EP        157 45.63                             170   -0.0910 23.2 190 
 BAR2 SZ ES        158  0.14                             170   -0.2310 23.2 190 
 BAR2 SZ I         158  2.02        95.2 0.18            166           23.2 190 
 BRR  HZ EP        157 47.68                             151    0.3610 71.1 299 
 BRR  HN ES        158  4.19                             151    0.9710 71.1 299 
 BRR  HZ I         158  7.88        32.5 0.30            148           71.1 299 
 PAM  SZ EP        157 48.63                             150    0.2110 77.6  40 
 PAM  SZ I         157 48.98        71.0 0.22            151           77.6  40 
 RUS  HZ EP        157 49.79                             142   -0.2010  100 176 
 RUS  HN ES        158  8.18                             142    0.2010  100 176 
 RUS  HZ I         158  9.33        32.6 0.20            138            100 176 
 PTB  HZ EP        157 52.33                             130   -0.98 9  148 259 
 PTB  HN ES        158 13.62                             130   -0.27 9  148 259 
 PTB  HZ I         158 15.88        35.5 0.30            126            148 259 
 CAPV BZ EP        157 53.57                             130   -0.22 9  150  38 
 TAM  HZ EP        157 54.07                             129   -0.01 9  155 105 
 TAM  HZ I         157 54.28        45.3 0.18            128            155 105 
 OCA  HN ES        158 15.83                             128   -0.56 9  160 353 
 SPBC HZ EP        157 54.70                             127   -0.18 9  163 219 
 SPBC HN ES        158 16.46                             127   -0.22 9  163 219 
 SPBC HZ I         158 21.68        36.5 0.22            123            163 219 
 ZAR  HZ EP        157 59.53                             121    0.62 9  204 292 
 ZAR  HN ES        158 23.40                             121   -0.46 9  204 292 
 ZAR  HZ I         158 30.07        22.9 0.26            118            204 292 
 NOR  HZ EP        158  1.98                             117   -0.25 8  234 234 
 NOR  HN ES        158 29.80                             117    0.03 8  234 234 
 NOR  HZ I         158 33.58        17.6 0.24            114            234 234 
 CHI  HZ EP        158  4.05                             116   -0.18 8  248 195 
 CHI  HN ES        158 33.38                             116    0.06 8  248 195 
 CHI  HZ I         158 39.88         7.1 0.30            113            248 195 
 ROSC BZ EP        158  5.48                             115    0.83 8  253 211 
 HEL  HZ EP        158  7.65                             113    0.88 8  272 256 
 HEL  HN ES        158 38.01                             113    0.17 8  272 256 
 HEL  HZ I         158 44.38        13.4 0.32            111            272 256 
 GUY2CHZ EP        158 10.28                             111    0.09 7  301 235 
 GUY2CHN ES        158 43.60                             111   -0.34 7  301 235 
 GUY2CHZ I         158 50.70         8.2 0.48                           301 235 
 PRA  HZ EP        158 20.14                             105   -0.05 6  392 210 
 PRA  HZ I         159  6.10         6.6 0.36            103            392 210 
                                                                                
