 2013 1218 0904  7.9 L   6.748 -73.087136.1  RSN  6 0.3 1.3LRSN                1
 GAP=146        0.81       4.9     5.8  6.3  0.1375E+02  0.1150E+02  0.1231E+01E
 Epicentro: LOS SANTOS - SANTANDER                                             3
 ACTION:UPD 14-01-13 10:19 OP:ep   STATUS:               ID:20131218090407 L   I
 OLDACT:REG 13-12-18 07:32 OP:jn   STATUS:               ID:20131218090000     3
 2013-12-18-0900-00M.COL___285                                                 6
 STAT SP IPHASW D HRMM SECON CODA AMPLIT PERI AZIMU VELO AIN AR TRES W  DIS CAZ7
 BAR2 SZ EP        9 4 26.46                             171    0.1210 20.2 211 
 BAR2 SZ ES        9 4 40.99                             171    0.2910 20.2 211 
 BAR2 SZ I         9 4 45.32         8.4 0.38            169           20.2 211 
 PAM  SE ES   1    9 4 45.42                             149   -0.34 7 78.2  33 
 BRR  HZ EP        9 4 28.38                             148   -0.1910 79.6 300 
 BRR  HN ES        9 4 44.96                             148    0.2910 79.6 300 
 BRR  HZ I         9 4 49.26         4.2 0.10            149           79.6 300 
 RUS  HZ EP        9 4 30.37                             144    0.0610 94.6 180 
 RUS  HN ES        9 4 47.45                             144   -0.3110 94.6 180 
 RUS  HZ I         9 4 49.61         1.9 0.22            146           94.6 180 
 OCA  HN ES   4    9 4 56.43                             126   -1.74 0  167 351 
 OCA  HZ I         9 4 57.94         2.5 0.14            131            167 351 
 ZAR  HZ EP        9 4 41.12                             119    0.49 8  212 293 
 ZAR  HN ES        9 5  5.54                             119   -0.60 8  212 293 
 ZAR  HZ I         9 5  8.71         2.2 0.60            122            212 293 
                                                                                
