 2017  418 0456 35.7 L   6.809 -73.142144.0  RSN 11 0.4 1.4LRSN                1
 GAP=112        0.92       3.6     3.3  5.1 -0.1305E+01  0.3311E+01  0.3070E+01E
 Epicentro: LOS SANTOS - SANTANDER                                             3
 ACTION:UPD 17-05-30 21:13 OP:jn   STATUS:               ID:20170418045635 L   I
 OLDACT:UP  17-04-18 15:26 OP:cog  STATUS:               ID:20170418044740     3
 OLDACT:REG 17-04-18 12:50 OP:cog  STATUS:               ID:20170418044740     3
 2017-04-18-0448-00M.COL___368                                                 6
 STAT SP IPHASW D HRMM SECON CODA AMPLIT PERI AZIMU VELO AIN AR TRES W  DIS CAZ7
 BAR2 EZ EP        456 54.97                             170   -0.2110 24.4 191 
 BAR2 EZ ES        457 11.02                             170    0.6810 24.4 191 
 BAR2 EZ I         457 11.45        11.0 0.52            168           24.4 191 
 BRR  HZ EP        456 56.86                             152    0.1710 71.1 298 
 BRR  HN ES        457 13.21                             152    0.1810 71.1 298 
 BRR  HZ I         457 15.63         4.4 0.12            151           71.1 298 
 PAM  EZ EP        456 57.69                             151   -0.0210 76.4  40 
 PAM  EN ES        457 14.76                             151   -0.0810 76.4  40 
 PAM  EZ I         457 16.27         4.5 0.40            154           76.4  40 
 RUS  HZ EP        456 59.02                             143   -0.3710  102 176 
 RUS  HN ES        457 17.87                             143    0.0410  102 176 
 RUS  HZ I         457 19.22         2.7 0.36            144            102 176 
 PTB  HZ EP        457  1.90                             132   -0.72 9  148 258 
 PTB  HN ES        457 23.06                             132   -0.52 9  148 258 
 PTB  HZ I         457 26.18         4.0 0.31            131            148 258 
 SPBC HZ EP        457  4.10                             129   -0.10 9  164 219 
 SPBC HN ES        457 26.29                             129   -0.11 9  164 219 
 YPLC HZ EP        457  5.45                             126   -0.02 9  178 152 
 ZAR  HN ES        457 33.20                             122   -0.09 9  204 292 
 NOR  HZ EP        457 11.77                             118    0.31 8  236 234 
 NOR  HN ES        457 39.42                             118    0.09 8  236 234 
 NOR  HZ I         457 46.62         3.0 0.22            118            236 234 
 ROSC BZ EP   9    457 15.90                             116    2.02 0  254 211 
 ROSC BE ES        457 45.65                             116    0.00 8  254 211 
 CBOC HZ EP        457 23.79                             110    1.13 7  334 252 
 CBOC HE ES        457 59.67                             110    0.41 7  334 252 
 CBOC HZ I         458  8.49         0.8 0.50            110            334 252 
                                                                                
