 2014  918 0313 10.7 L   6.799 -73.147151.2  RSN 12 0.4 1.8LRSN                1
 GAP=136        1.11       3.2     4.2  6.8 -0.3526E+01  0.6843E+01 -0.5538E-01E
 Epicentro: LOS SANTOS - SANTANDER                                             3
 ACTION:UPD 14-10-03 23:06 OP:nd   STATUS:               ID:20140918031310 L   I
 OLDACT:DUP 14-09-18 16:09 OP:carl STATUS:               ID:20140918030820d    3
 2014-09-18-0308-19M.COL___287                                                 6
 STAT SP IPHASW D HRMM SECON CODA AMPLIT PERI AZIMU VELO AIN AR TRES W  DIS CAZ7
 BAR2 SZ EP        313 30.91                             171   -0.1010 23.2 190 
 BRR  HZ EP        313 33.03                             153    0.5710 71.1 299 
 BRR  HN ES        313 50.50                             153    1.0910 71.1 299 
 BRR  HZ I         313 52.84        10.4 0.16            153           71.1 299 
 PAM  SZ EP        313 33.87                             152    0.3410 77.6  40 
 PAM  SN ES        313 50.81                             152   -0.5110 77.6  40 
 PAM  SZ I         313 53.29         7.8 0.54            155           77.6  40 
 RUS  HZ EP        313 34.93                             145   -0.0810  101 176 
 RUS  HN ES        313 53.95                             145   -0.0010  101 176 
 RUS  HZ I         313 56.96         3.4 0.24            148            101 176 
 PTB  HZ EP        313 37.68                             133   -0.44 9  148 259 
 PTB  HN ES        313 59.04                             133   -0.45 9  148 259 
 PTB  HZ I         314  1.08        11.1 0.12            134            148 259 
 OCA  HZ EP        313 39.84                             131    0.37 9  160 353 
 OCA  HN ES        314  1.32                             131   -0.57 9  160 353 
 OCA  HZ I         314  5.42         7.4 0.18            133            160 353 
 SPBC HZ EP        313 39.99                             130    0.36 9  163 219 
 SPBC HN ES        314  1.91                             130   -0.26 9  163 219 
 SPBC HZ I         314  9.18         8.0 0.28            132            163 219 
 ZAR  HN ES        314  9.24                             124    0.15 9  204 292 
 NOR  HZ EP        313 46.39                             120   -0.36 8  234 234 
 NOR  HN ES        314 14.27                             120   -0.59 8  234 234 
 NOR  HZ I         314 18.77         6.4 0.14            122            234 234 
 SML  HZ EP        313 47.51                             119   -0.15 8  244 335 
 SML  HN ES        314 16.07                             119   -0.40 8  244 335 
 SML  HZ I         314 23.14        10.1 0.22            121            244 335 
 HEL  HZ EP        313 51.68                             116    0.48 8  272 256 
 HEL  HN ES        314 22.67                             116   -0.10 8  272 256 
 HEL  HZ I         314 29.21         3.5 0.28            118            272 256 
 GUY2CHZ EP   4    313 55.84                             113    1.27 0  301 235 
 GUY2CHE ES        314 29.12                             113    0.36 7  301 235 
 GUY2CHZ I         314 36.87         2.9 0.58                           301 235 
                                                                                
