 2017 1218 0033  4.3 L   6.776 -73.160137.3  RSN 12 0.6 1.9LRSN                1
 GAP=110        1.35       3.7     4.1  7.9 -0.1820E+01  0.3018E+01 -0.1897E+00E
 Epicentro: LOS SANTOS - SANTANDER                                             3
 OLDACT:REG 17-12-18 12:07 OP:dhb  STATUS:               ID:20171218002358     3
 ACTION:UPD 18-01-04 13:21 OP:rebc STATUS:               ID:20171218003304 L   I
 OLDACT:UP  17-12-18 14:01 OP:dhb  STATUS:               ID:20171218002359d    3
 OLDACT:DUP 17-12-18 13:51 OP:dhb  STATUS:               ID:20171218002359d    3
 OLDACT:UP  17-12-18 13:49 OP:dhb  STATUS:               ID:20171218002358     3
 OLDACT:UP  17-12-18 13:48 OP:dhb  STATUS:               ID:20171218002358     3
 2017-12-18-0028-00M.COL___451                                                 6
 STAT SP IPHASW D HRMM SECON CODA AMPLIT PERI AZIMU VELO AIN AR TRES W  DIS CAZ7
 BAR2 EZ EP        033 22.50                             171   -0.3110 20.5 187 
 BAR2 EZ ES        033 37.88                             171    0.5910 20.5 187 
 BAR2 EZ I         033 38.97        30.0 0.40            169           20.5 187 
 PTB  HZ EP        033 29.43                             130   -0.92 9  146 260 
 PTB  HN ES        033 50.50                             130   -0.21 9  146 260 
 PTB  HZ I         034  0.21         4.2 0.32            132            146 260 
 TAM  HZ IP     D  033 30.74                             128   -0.63 9  156 104 
 TAM  HE ES        033 52.82                             128    0.31 9  156 104 
 SPBC HZ EP        033 31.45                             128   -0.37 9  160 219 
 SPBC HE ES        033 52.59                             128   -0.73 9  160 219 
 SPBC HZ I         033 57.15        13.1 0.10            129            160 219 
 OCA  HZ EP        033 32.30                             127    0.14 9  163 354 
 OCA  HE ES        033 54.03                             127    0.10 9  163 354 
 OCA  HZ I         033 57.63        13.8 0.58            131            163 354 
 YPLC HZ EP        033 32.77                             125   -0.53 9  175 150 
 YPLC HE ES   3    033 56.90                             125    0.95 2  175 150 
 YPLC HZ I         034  0.70         5.9 0.42            128            175 150 
 ZAR  HZ EP        033 36.11                             120    0.00 9  204 293 
 ZAR  HE ES        034  1.45                             120    0.49 9  204 293 
 ZAR  HZ I         034  6.36        10.8 0.38            123            204 293 
 NOR  HZ EP        033 38.90                             117   -0.30 8  232 235 
 NOR  HN ES        034  6.50                             117    0.05 8  232 235 
 NOR  HZ I         034 12.22         4.9 0.14            119            232 235 
 ROSC BZ EP        033 43.38                             115    1.80 8  250 211 
 ROSC BE ES        034 11.01                             115    0.31 8  250 211 
 ROSC BZ I         034 17.48         7.2 0.40            117            250 211 
 DRL03HZ EP        033 46.02                             111    0.27 7  291 353 
 DRL03HN ES        034 17.91                             111   -0.21 7  291 353 
 GUY2CHZ EP        033 48.35                             111    1.19 7  298 235 
 GUY2CHE ES   4    034 25.50                             111    4.87 0  298 235 
 GUY2CHZ I         034 26.93         2.8 0.46                           298 235 
 PRA  HZ EP        033 56.85                             105   -0.28 6  389 210 
 PRA  HE ES   2    034 38.79                             105    0.42 3  389 210 
 PRA  HZ I         034 44.54         3.7 0.26            107            389 210 
                                                                                
