 2017  818 0207 42.3 L   6.786 -73.081145.2  RSN 15 0.4 2.0LRSN                1
 GAP=119        1.03       3.2     3.6  5.5  0.2233E+01  0.6877E+01  0.4784E+01E
 Epicentro: LOS SANTOS - SANTANDER                                             3
 ACTION:UPD 17-09-04 20:21 OP:rebc STATUS:               ID:20170818020742 L   I
 OLDACT:DUP 17-08-18 14:58 OP:lv   STATUS:               ID:20170818015738d    3
 2017-08-18-0158-00M.COL___404                                                 6
 STAT SP IPHASW D HRMM SECON CODA AMPLIT PERI AZIMU VELO AIN AR TRES W  DIS CAZ7
 BAR2 EZ EP        2 8  1.79                             170   -0.0910 24.1 208 
 BAR2 EZ ES        2 8 16.26                             170   -0.8910 24.1 208 
 BAR2 EZ I         2 8 19.66        29.4 0.34            165           24.1 208 
 PAM  EZ IP     C  2 8  4.48                             151    0.2010 74.3  35 
 PAM  EN ES        2 8 21.76                             151    0.3410 74.3  35 
 PAM  EZ I         2 8 23.05         6.2 0.18            158           74.3  35 
 BRR  HZ IP     C  2 8  3.60                             150   -0.2010 78.3 297 
 BRR  HN ES        2 8 21.05                             150    0.4810 78.3 297 
 BRR  HZ I         2 8 22.13        13.5 0.26            150           78.3 297 
 RUS  HZ EP        2 8  5.74                             144   -0.1310 98.8 180 
 RUS  HN ES        2 8 24.50                             144    0.2610 98.8 180 
 RUS  HZ I         2 8 27.22         9.5 0.42            143           98.8 180 
 SPBC HZ EP        2 8 10.26                             128   -0.82 9  167 221 
 SPBC HN ES        2 8 33.05                             128   -0.48 9  167 221 
 SPBC HZ I         2 8 38.73        18.3 0.18            128            167 221 
 YPLC HZ EP        2 8 11.95                             127    0.36 9  172 153 
 YPLC HN ES        2 8 34.59                             127    0.15 9  172 153 
 YPLC HZ I         2 8 37.30         8.4 0.30            128            172 153 
 ZAR  HZ EP        2 8 14.74                             121   -0.72 8  211 292 
 ZAR  HN ES        2 8 41.66                             121    0.34 8  211 292 
 TABC EZ EP   4    2 8 19.44                             119    1.17 0  232 212 
 CHI  HZ EP        2 8 20.06                             117    0.04 8  249 197 
 CHI  HE ES        2 8 50.17                             117    0.74 8  249 197 
 CHI  HZ I         2 8 59.02         3.8 0.68            117            249 197 
 ROSC BZ EP   4    2 8 22.42                             116    1.77 0  255 213 
 ROSC BN ES   4    2 8 46.40                             116   -4.17 0  255 213 
 ROSC BZ I         2 8 57.89        10.2 0.35            116            255 213 
 HEL  HZ EP   4    2 8 24.95                             114    1.74 0  279 256 
 HEL  HN ES        2 8 55.40                             114    0.27 7  279 256 
 HEL  HZ I         2 9  0.21         6.0 0.32            114            279 256 
 URE  HZ EP   4    2 8 25.73                             113    1.58 0  291 292 
 URE  HN ES        2 8 56.89                             113    0.09 7  291 292 
 URE  HZ I         2 9  5.11         6.4 0.18            114            291 292 
 PTGC HZ EP   9    2 8 24.60                             112   -1.08 0  305 160 
 PTGC HE ES        2 8 57.79                                   -0.64 7  305 160 
 GUY2CHZ EP        2 8 26.86                             112    0.41 7  306 236 
 GUY2CHN ES        2 9  0.80                             112   -0.08 7  306 236 
 GUY2CHZ I         2 9  7.20         4.5 0.26                           306 236 
 PRA  HZ EP        2 8 35.84                             106   -0.22 6  394 211 
 PRA  HE ES   4    2 9 17.39                             106   -0.60 0  394 211 
 PRA  HZ I         2 9 22.53         3.5 0.40            107            394 211 
 ORTC HZ EP        2 8 36.59                             106    0.04 6  398 217 
 ORTC HN ES        2 9 19.36                             106    0.49 6  398 217 
 ORTC HZ I         2 9 25.60         2.7 0.44            107            398 217 
 SJC  HZ EP   4    2 8 36.47                             105   -1.99 0  414 326 
 SJC  HN ES   4    2 9 17.32                             105   -4.95 0  414 326 
                                                                                
