 2013  118 0133 23.5 L   6.786 -73.146146.4  RSN 13 0.5 2.5LRSN                1
 GAP= 72        0.87       3.4     3.2  5.7  0.2809E+00  0.4761E+01  0.3385E+01E
 Epicentro: LOS SANTOS - SANTANDER                                             3
 ACTION:UPD 13-02-15 09:14 OP:ep   STATUS:               ID:20130118013323 L   I
 2013-01-18-0130-00M.COL___241                                                 6
 STAT SP IPHASW D HRMM SECON CODA AMPLIT PERI AZIMU VELO AIN AR TRES W  DIS CAZ7
 BAR2 SZ EP   1    133 43.10                             171   -0.07 7 21.9 191 
 BAR2 SZ ES   1    133 58.30                             171   -0.22 7 21.9 191 
 BAR2 SZ I         134  1.05       101.7 0.36            168           21.9 191 
 BRR  HZ EP   1    133 45.02                             152    0.27 7 71.9 300 
 BRR  HN ES   1    134  2.37                             152    1.04 7 71.9 300 
 BRR  HZ I         134  6.69        37.5 0.28            153           71.9 300 
 PAM  SZ EP        133 45.87                             151    0.0310 78.5  39 
 PAM  SN ES   1    134  3.22                             151   -0.06 7 78.5  39 
 PAM  SZ I         134  5.39        40.8 0.50            150           78.5  39 
 RUS  HZ EP   1    133 46.91                             144   -0.28 7 99.1 176 
 RUS  HN ES   1    134  5.24                             144   -0.45 7 99.1 176 
 RUS  HZ I         134  8.58        27.9 0.34            141           99.1 176 
 PTB  HZ EP   1    133 50.00                             132   -0.48 7  147 259 
 PTB  HN ES   1    134 11.06                             132   -0.48 7  147 259 
 PTB  HZ I         134 16.99        52.4 0.42            131            147 259 
 TAM  HZ EP   1    133 51.25                             131    0.07 7  155 104 
 TAM  HZ I         134 11.96        24.0 0.34            128            155 104 
 TAM  HN ES   1    134 13.03                             131    0.25 7  155 104 
 OCA  HZ EP   1    133 51.81                             129   -0.18 7  162 353 
 OCA  HN ES   1    134 13.91                             129   -0.31 7  162 353 
 OCA  HZ I         134 18.85        49.9 0.44            129            162 353 
 ZAR  HZ EP   1    133 55.79                             122   -0.24 6  205 293 
 ZAR  HE ES   1    134 21.50                             122    0.08 6  205 293 
 ZAR  HZ I         134 27.52        40.7 0.24            121            205 293 
 CHI  HZ EP        134  1.03                             117   -0.03 8  247 195 
 CHI  HN ES   1    134 29.95                             117   -0.42 6  247 195 
 CHI  HZ I         134 39.32        13.5 0.64            115            247 195 
 ROSC BZ EP   1    134  2.70                             117    1.20 6  251 211 
 ROSC BE ES   2    134 31.86                             117    0.71 4  251 211 
 ROSC BZ I         134 40.91        41.0 0.45            115            251 211 
 HEL  HZ EP   1    134  4.41                             115    0.72 6  272 256 
 HEL  HN ES   1    134 35.75                             115    0.70 6  272 256 
 HEL  HZ I         134 42.09        20.1 0.44            113            272 256 
 URE  HN ES   4    134 34.93                             114   -1.83 0  284 292 
 RREF HZ EP   1    134  9.63                             111    0.09 5  321 230 
 DBB  SZ EP   1    134 10.51                             110   -0.49 5  340 274 
 DBB  SZ ES   1    134 46.97                             110   -1.09 5  340 274 
 DBB  SZ I         134 49.69        14.8 0.50            108            340 274 
                                                                                
