 2016 1218 0555 34.5 L   6.784 -73.190148.2  RSN  7 0.4 1.4LRSN                1
 GAP=132        1.12       5.3     4.7  8.1 -0.7868E+00  0.9791E+01  0.3989E+01E
 Epicentro: ZAPATOCA - SANTANDER                                               3
 ACTION:UPD 17-01-11 20:16 OP:rebc STATUS:               ID:20161218055534 L   I
 OLDACT:DUP 16-12-18 17:55 OP:cara STATUS:               ID:20161218054743d    3
 2016-12-18-0548-00M.COL___381                                                 6
 STAT SP IPHASW D HRMM SECON CODA AMPLIT PERI AZIMU VELO AIN AR TRES W  DIS CAZ7
 BAR2 EZ EP        555 53.96                             171   -0.4210 21.2 178 
 BAR2 EZ ES        556  9.63                             171   -0.2610 21.2 178 
 BAR2 EZ I         556 12.29         4.0 0.24            173           21.2 178 
 BRR  HZ EP        555 56.12                             154    0.3910 67.8 302 
 BRR  HN ES        556 13.07                             154    0.7910 67.8 302 
 BRR  HZ I         556 16.96         3.8 0.46            154           67.8 302 
 PAM  EZ IP        555 57.10                             150   -0.1510 81.9  41 
 PAM  EN ES        556 14.69                             150   -0.3010 81.9  41 
 PAM  EZ I         556 16.32         7.4 0.58            153           81.9  41 
 RUS  HZ EP        555 58.88                             145    0.4810 99.3 173 
 RUS  HN ES        556 16.90                             145   -0.1410 99.3 173 
 RUS  HZ I         556 18.53         3.6 0.34            148           99.3 173 
 PTB  HZ EP        556  1.56                             134    0.36 9  143 259 
 PTB  HN ES        556 22.14                             134    0.11 9  143 259 
 PTB  HZ I         556 25.10         1.7 0.12            135            143 259 
 ZAR  HN ES        556 30.99                             123   -0.84 9  200 293 
 ZAR  HZ I         556 35.28         2.5 0.20            125            200 293 
 GUY2CHN ES        556 50.96                             113   -0.35 7  296 234 
 GUY2CHZ I         556 59.38         1.2 0.30                           296 234 
                                                                                
