 2015  318 0158 37.0 L   6.785 -73.121142.7  RSN  7 0.4 1.4LRSN                1
 GAP=140        0.93       3.5     4.7  6.9 -0.3919E+01  0.5467E+01 -0.3435E+00E
 Epicentro: LOS SANTOS - SANTANDER                                             3
 ACTION:UPD 15-04-30 16:26 OP:nd   STATUS:               ID:20150318015837 L   I
 OLDACT:REG 15-03-18 13:09 OP:stll STATUS:               ID:20150318015750     3
 2015-03-18-0157-50M.COL___272                                                 6
 STAT SP IPHASW D HRMM SECON CODA AMPLIT PERI AZIMU VELO AIN AR TRES W  DIS CAZ7
 BAR2 EZ ES        159 10.89                             171   -0.3410 22.4 198 
 BAR2 EZ I         159 12.03         5.5 0.18            171           22.4 198 
 BRR  HZ EP        158 58.34                             151    0.3610 74.4 299 
 BRR  HN ES        159 14.95                             151    0.5810 74.4 299 
 BRR  HZ I         159 18.51         4.4 0.48            150           74.4 299 
 PAM  SZ EP        158 59.15                             150    0.3110 76.9  37 
 PAM  SZ I         158 59.55         8.7 0.24            152           76.9  37 
 PAM  SN ES        159 16.00                             150    0.1010 76.9  37 
 RUS  HZ EP        159  0.39                             144    0.0910 98.8 178 
 RUS  HN ES        159 18.43                             144   -0.0610 98.8 178 
 RUS  HZ I         159 19.55         1.9 0.26            146           98.8 178 
 PTB  HZ EP        159  3.67                             131   -0.25 9  150 260 
 PTB  HN ES        159 24.99                             131    0.06 9  150 260 
 PTB  HZ I         159 27.20         2.9 0.18            131            150 260 
 OCA  HN ES        159 26.53                             128   -0.75 9  162 352 
 SPBC HN ES        159 27.07                             128   -0.31 9  164 220 
                                                                                
