 2012  818 0957 59.1 L   6.833 -73.133144.0  RSN  6 0.4 1.7LRSN                1
 GAP=151        0.80       6.6     6.0  9.8 -0.4232E+01 -0.1594E+02 -0.1136E+02E
 Epicentro: LOS SANTOS - SANTANDER                                             3
 ACTION:UPD 12-09-10 11:57 OP:ep   STATUS:               ID:20120818095759 L   I
 2012-08-18-0957-35M.COL___194                                                 6
 STAT SP IPHASW D HRMM SECON CODA AMPLIT PERI AZIMU VELO AIN AR TRES W  DIS CAZ7
 BAR2 SZ EP   1    958 18.35                             169   -0.22 7 27.2 192 
 BAR2 SZ ES   2    958 32.88                             169   -0.91 5 27.2 192 
 BAR2 SZ I         958 34.64        12.4 0.19                          27.2 192 
 BRR  HZ EP   1    958 20.01                             153    0.00 7 70.8 295 
 BRR  HZ I         958 21.32        10.2 0.12                          70.8 295 
 BRR  HN ES        958 36.85                             153    0.5110 70.8 295 
 PAM  SZ EP   1    958 21.35                             152    0.47 7 73.6  40 
 PTB  HN ES   1    958 47.05                             131   -0.12 7  150 258 
 OCA  HZ EP   1    958 26.88                             130   -0.04 7  157 352 
 OCA  HN ES   1    958 48.14                             130   -0.50 7  157 352 
 ZAR  HN ES   1    958 56.34                             122   -0.28 6  204 291 
                                                                                
