 2016  718 0352 46.6 L   6.801 -73.116152.0  RSN 17 0.4 2.1LRSN                1
 GAP=100        0.92       3.2     2.8  4.7 -0.4753E+00  0.3799E+01  0.3133E+01E
 Epicentro: LOS SANTOS - SANTANDER                                             3
 ACTION:UPD 17-03-29 16:52 OP:lp   STATUS:               ID:20160718035246 L   I
 OLDACT:UP  16-07-18 18:43 OP:ar   STATUS:               ID:20160718034759     3
 OLDACT:UP  16-07-18 18:40 OP:ar   STATUS:               ID:20160718034759     3
 OLDACT:REG 16-07-18 16:12 OP:ar   STATUS:               ID:20160718034759     3
 2016-07-18-0347-59S.COL___319                                                 6
 STAT SP IPHASW D HRMM SECON CODA AMPLIT PERI AZIMU VELO AIN AR TRES W  DIS CAZ7
 BAR2 EZ EP        353  6.79                             171   -0.2210 24.2 198 
 BAR2 EZ ES        353 22.55                             171   -0.3710 24.2 198 
 BAR2 EZ I         353 24.68        22.2 0.28            166           24.2 198 
 BRR  HZ EP        353  8.74                             153    0.1510 74.0 297 
 BRR  HN ES        353 26.35                             153    0.6110 74.0 297 
 BRR  HZ I         353 29.67        14.0 0.18            151           74.0 297 
 PAM  EZ EP        353  9.67                             153    0.2910 75.3  38 
 PAM  EN ES        353 27.04                             153   -0.0910 75.3  38 
 PAM  EZ I         353 28.91        12.1 0.50            158           75.3  38 
 RUS  HZ EP        353 10.67                             145   -0.3110  101 178 
 RUS  HN ES        353 29.81                             145   -0.1710  101 178 
 RUS  HZ I         353 30.66         9.4 0.28            144            101 178 
 PTB  HZ EP        353 13.49                             133   -0.89 9  151 259 
 PTB  HN ES   2    353 35.58                             133   -0.46 5  151 259 
 PTB  HZ I         353 40.66        16.0 0.30            131            151 259 
 TAM  HZ EP        353 14.65                             133    0.14 9  152 105 
 TAM  HZ I         353 14.97        15.5 0.34            137            152 105 
 TAM  HE ES        353 36.68                             133    0.41 9  152 105 
 SPBC HZ EP        353 15.71                             130   -0.09 9  165 220 
 SPBC HN ES        353 38.60                             130    0.04 9  165 220 
 SPBC HZ I         353 44.77        33.7 0.34            129            165 220 
 ZAR  HZ EP        353 19.35                             123   -0.42 8  207 292 
 ZAR  HN ES        353 45.49                             123   -0.15 8  207 292 
 ZAR  HZ I         353 51.28        18.4 0.52            123            207 292 
 NOR  HZ EP        353 22.77                             119   -0.23 8  237 235 
 NOR  HN ES        353 51.55                             119    0.17 8  237 235 
 NOR  HZ I         353 54.80        11.7 0.18            119            237 235 
 CHI  HZ EP        353 24.60                             118   -0.17 8  250 196 
 CHI  HN ES        353 54.76                             118    0.23 8  250 196 
 CHI  HZ I         354  1.65         4.6 0.34            119            250 196 
 ROSC BZ EP   2    353 26.45                             118    1.18 4  255 212 
 ROSC BN ES   4    353 59.50                             118    4.08 0  255 212 
 ROSC BZ I         354  4.33        12.2 0.35            118            255 212 
 HEL  HZ EP        353 28.01                             116    0.51 8  275 256 
 HEL  HE ES   4    354  3.44                             116    4.05 0  275 256 
 HEL  HZ I         354  6.36         5.7 0.24            116            275 256 
 GUY2CHZ EP   4    353 32.88                             113    2.06 0  304 235 
 GUY2CHN ES   4    354  9.50                             113    4.20 0  304 235 
 GUY2CHZ I         354 13.62         6.4 0.34                           304 235 
 PTGC HZ EP   4    353 29.06                             113   -1.57 0  308 159 
 PTGC HN ES   4    354  3.04                             113   -1.93 0  308 159 
 PTGC HZ I         354  7.40         4.3 0.46            114            308 159 
 CBOC HZ EP        353 34.58                             111    0.43 7  337 252 
 CBOC HN ES        354 12.02                             111    0.80 7  337 252 
 CBOC HZ I         354 24.98         2.1 0.44            111            337 252 
 PRA  HZ EP        353 39.91                             107   -0.64 6  394 210 
 PRA  HN ES        354 23.07                             107    0.45 6  394 210 
 PRA  HZ I         354 27.84         7.7 0.60            108            394 210 
 SJC  HZ EP   4    353 41.11                             107   -1.47 0  411 327 
 SJC  HN ES   4    354 22.17                             107   -4.07 0  411 327 
 SJC  HZ I         354 27.30         2.1 0.32            108            411 327 
                                                                                
