 2017  818 0142  9.0 L   6.822 -73.138142.9  RSN 10 0.2 1.7LRSN                1
 GAP=112        0.46       1.7     2.1  3.3  0.4115E+00  0.2253E+01  0.1806E+01E
 Epicentro: LOS SANTOS - SANTANDER                                             3
 ACTION:UPD 17-09-04 20:21 OP:rebc STATUS:               ID:20170818014209 L   I
 OLDACT:REG 17-08-18 12:55 OP:lv   STATUS:               ID:20170818013741     3
 2017-08-18-0138-00M.COL___406                                                 6
 STAT SP IPHASW D HRMM SECON CODA AMPLIT PERI AZIMU VELO AIN AR TRES W  DIS CAZ7
 BAR2 EZ ES        142 43.63                             169    0.1510 25.9 191 
 BAR2 EZ I         142 44.43         8.3 0.28            169           25.9 191 
 BRR  HZ IP     C  142 29.76                             152   -0.1110 70.8 296 
 BRR  HZ I         142 50.49         7.3 0.44            146           70.8 296 
 PAM  EN EP        142 30.99                             151    0.1810 74.9  40 
 PAM  EE ES        142 47.89                             151    0.1010 74.9  40 
 PAM  EN I         142 48.71        10.5 0.44            149           74.9  40 
 RUS  HZ EP        142 32.66                             142   -0.0310  103 177 
 RUS  HN ES        142 50.93                             142   -0.2110  103 177 
 RUS  HZ I         142 52.39         4.4 0.40            142            103 177 
 YPLC HZ IP     D  142 38.75                             126   -0.06 9  179 152 
 YPLC HN ES        143  2.00                             126   -0.02 9  179 152 
 YPLC HZ I         143  4.28         4.6 0.32            125            179 152 
 ZAR  HN ES        143  6.14                             122   -0.31 9  204 291 
 ZAR  HZ I         143 11.91         8.1 0.34            118            204 291 
 CHI  HZ EP        142 46.92                             116    0.05 8  251 195 
 CHI  HN ES        143 16.16                             116   -0.22 8  251 195 
 CHI  HZ I         143 23.70         2.7 0.54            114            251 195 
 GUY2CHE ES        143 27.27                             112    0.40 7  303 234 
 GUY2CHZ I         143 37.50         2.5 0.54                           303 234 
 ORTC HN ES        143 45.70                             106    0.32 6  398 216 
 SJC  HZ EP   9    143  2.37                             105   -1.95 0  408 327 
 SJC  HN ES        143 45.48                                   -0.01 6  408 327 
 SJC  HZ I         143 47.40         1.9 0.39            103            408 327 
                                                                                
