 2014 1118 0604 40.0 L   6.817 -73.160144.4  RSN  8 0.4 1.6LRSN                1
 GAP=134        1.11       3.7     5.4  7.0 -0.4225E+01  0.4079E+01  0.6041E+01E
 Epicentro: LOS SANTOS - SANTANDER                                             3
 ACTION:UPD 14-12-19 15:44 OP:nd   STATUS:               ID:20141118060440 L   I
 OLDACT:REG 14-11-18 13:16 OP:fm   STATUS:               ID:20141118055742     3
 2014-11-18-0557-42M.COL___274                                                 6
 STAT SP IPHASW D HRMM SECON CODA AMPLIT PERI AZIMU VELO AIN AR TRES W  DIS CAZ7
 BAR2 SZ EP        6 4 59.64                             170    0.1410 25.0 186 
 BAR2 SZ ES        6 5 14.99                             170    0.2710 25.0 186 
 BAR2 SZ I         6 5 16.32        11.9 0.14            171           25.0 186 
 BRR  HZ EP        6 5  1.60                             153    0.7310 68.9 298 
 BRR  HN ES        6 5 17.65                             153    0.4910 68.9 298 
 BRR  HZ I         6 5 22.41         9.2 0.88            150           68.9 298 
 PAM  SZ EP        6 5  2.47                             151    0.4310 77.0  41 
 PAM  SN ES        6 5 18.81                             151   -0.4310 77.0  41 
 PAM  SZ I         6 5 22.06         4.2 0.50            152           77.0  41 
 RUS  HZ EP        6 5  3.82                             143    0.0610  103 175 
 RUS  HN ES        6 5 21.70                             143   -0.6010  103 175 
 RUS  HZ I         6 5 23.65         5.7 0.22            146            103 175 
 PTB  HZ EP        6 5  6.19                             132   -0.56 9  147 258 
 PTB  HE ES        6 5 27.11                             132   -0.51 9  147 258 
 PTB  HZ I         6 5 33.23         3.6 0.32            132            147 258 
 OCA  HN ES        6 5 29.40                             130   -0.46 9  158 354 
 OCA  HZ I         6 5 39.79         3.6 0.36            130            158 354 
 SPBC HZ EP        6 5  8.55                             129    0.11 9  164 218 
 SPBC HN ES        6 5 30.79                             129    0.16 9  164 218 
 SPBC HZ I         6 5 33.46         8.0 0.24            130            164 218 
 CHI  HZ EP        6 5 17.35                             117   -0.42 8  250 195 
 CHI  HN ES        6 5 47.67                             117    0.43 8  250 195 
 CHI  HZ I         6 5 52.84         1.9 0.22            119            250 195 
                                                                                
