 2016  618 0522 27.5 L   6.698 -73.110168.2  RSN 18 0.4 2.3LRSN                1
 GAP=126        0.93       2.9     3.6  4.9 -0.2254E+01  0.3943E+01  0.2672E+01E
 Epicentro: JORDAN - SANTANDER                                                 3
 ACTION:UPD 16-07-21 22:20 OP:rebc STATUS:               ID:20160618052227 L   I
 OLDACT:UP  16-06-18 18:08 OP:dani STATUS:               ID:20160618051743     3
 OLDACT:UP  16-06-18 18:08 OP:dani STATUS:               ID:20160618051743     3
 OLDACT:UP  16-06-18 18:07 OP:dani STATUS:               ID:20160618051743     3
 OLDACT:UP  16-06-18 18:07 OP:dani STATUS:               ID:20160618051743     3
 OLDACT:UP  16-06-18 18:06 OP:dani STATUS:               ID:20160618051743     3
 OLDACT:REG 16-06-18 12:55 OP:dani STATUS:               ID:20160618051743     3
 2016-06-18-0517-43M.COL___343                                                 6
 STAT SP IPHASW D HRMM SECON CODA AMPLIT PERI AZIMU VELO AIN AR TRES W  DIS CAZ7
 BAR2 EZ EP        522 49.76                             175    0.0310 14.1 214 
 BAR2 EZ I         523  7.73        25.4 0.18                          14.1 214 
 BRR  HZ EP     C  522 52.08                             153    0.4610 80.4 304 
 BRR  HN ES        523 11.08                             153    0.6610 80.4 304 
 BRR  HZ I         523 12.08        56.7 0.12                          80.4 304 
 PAM  EZ IP     D  522 52.98                             152    0.4410 84.2  33 
 PAM  EN ES        523 11.83                             152   -0.2310 84.2  33 
 PAM  EZ I         523 14.62        18.5 0.40                          84.2  33 
 RUS  HZ EP     C  522 52.92                             151    0.0910 89.1 178 
 RUS  HE ES        523 12.24                             151   -0.3310 89.1 178 
 RUS  HZ I         523 14.09        35.8 0.30                          89.1 178 
 PTB  HZ EP        522 55.78                             136   -0.80 9  150 263 
 PTB  HN ES        523 19.26                             136    0.01 9  150 263 
 PTB  HZ I         523 20.43        23.8 0.16                           150 263 
 SPBC HZ EP        522 57.39                             135    0.08 9  157 223 
 SPBC HN ES   4    523 21.77                             135    1.23 0  157 223 
 SPBC HZ I         523 24.85        25.7 0.26                           157 223 
 ZAR  HZ EP        523  1.76                             126   -0.56 8  212 295 
 ZAR  HE ES   4    523 28.13                             126   -1.33 0  212 295 
 ZAR  HZ I         523 30.73        21.0 0.54                           212 295 
 NOR  HZ EP        523  4.27                             123   -0.06 8  232 237 
 NOR  HE ES   4    523 31.62                             123   -1.42 0  232 237 
 NOR  HZ I         523 40.42        19.6 0.16                           232 237 
 CHI  HZ EP        523  5.59                             123    0.04 8  239 197 
 CHI  HN ES        523 34.83                             123   -0.38 8  239 197 
 CHI  HZ I         523 40.12         7.9 0.40                           239 197 
 HEL  HZ EP        523  9.33                             119    0.22 8  273 258 
 HEL  HN ES        523 41.42                             119   -0.12 8  273 258 
 HEL  HZ I         523 51.11         4.3 0.44                           273 258 
 URE  HN ES   4    523 41.03                             117   -3.24 0  292 294 
 PTGC HZ EP     C  523 10.83                             117   -0.33 7  297 159 
 PTGC HN ES   4    523 43.87                             117   -1.33 0  297 159 
 PTGC HZ I         523 57.80        10.9 0.30                           297 159 
 GUY2CHZ EP        523 12.24                             117    0.32 7  298 237 
 GUY2CHE ES   4 C  523 52.19                             117    5.64 0  298 237 
 GUY2CHZ I         523 56.84         8.2 0.56                           298 237 
 CBOC HZ EP        523 16.04                             114    0.54 7  334 254 
 CBOC HN ES        523 52.22                             114   -0.71 7  334 254 
 CBOC HZ I         523 57.28         3.0 0.58                           334 254 
 LL6C HZ EP        523 14.75                             113   -0.79 7  336 357 
 LL6C HE ES        523 52.89                             113   -0.11 7  336 357 
 LL6C HZ I         523 54.36         5.3 0.66                           336 357 
 PRA  HZ EP        523 21.86                             110    0.85 6  384 211 
 PRA  HN ES        524  2.57                             110   -0.16 6  384 211 
 PRA  HZ I         524  6.20         9.7 0.24                           384 211 
 ORTC HZ EP        523 22.30                             110    0.78 6  389 218 
 ORTC HE ES        524  3.87                             110    0.23 6  389 218 
 ORTC HZ I         524 10.44         5.1 0.32                           389 218 
 PAL  HZ EP        523 23.37                             109    0.13 6  403 241 
 PAL  HN ES        524  6.50                             109   -0.21 6  403 241 
 PAL  HZ I         524  9.40         3.6 0.52                           403 241 
 SJC  HZ EP   4    523 22.90                             109   -2.34 0  421 327 
 CRJC HZ EP   4    523 30.07                             106   -1.95 0  479   3 
 CRJC HN ES   4    524 19.51                             106   -2.82 0  479   3 
 CRJC HZ I         524 23.48         6.8 0.74                           479   3 
                                                                                
