 2016  718 0445 10.0 L   6.789 -73.147149.8  RSN  6 0.3 1.8LRSN                1
 GAP=151        0.83       4.5     4.5  5.7 -0.3978E+01  0.7553E+01  0.3229E+01E
 Epicentro: LOS SANTOS - SANTANDER                                             3
 ACTION:UPD 17-03-29 16:52 OP:lp   STATUS:               ID:20160718044510 L   I
 OLDACT:REG 16-07-18 16:14 OP:ar   STATUS:               ID:20160718043759     3
 2016-07-18-0437-59S.COL___319                                                 6
 STAT SP IPHASW D HRMM SECON CODA AMPLIT PERI AZIMU VELO AIN AR TRES W  DIS CAZ7
 BAR2 EZ EP        445 29.80                             171   -0.2710 22.1 190 
 BAR2 EZ ES        445 45.69                             171   -0.0510 22.1 190 
 BAR2 EZ I         445 46.16        15.0 0.16            170           22.1 190 
 BRR  HZ EP        445 31.72                             153    0.1310 71.6 299 
 BRR  HN ES        445 48.89                             153    0.4410 71.6 299 
 BRR  HZ I         445 51.81         5.7 0.42            151           71.6 299 
 PAM  EZ EP        445 32.84                             151    0.1610 78.4  39 
 PAM  EN ES        445 50.26                             151   -0.1310 78.4  39 
 PAM  EZ I         445 51.74        10.9 0.50            155           78.4  39 
 SPBC HZ EP        445 38.95                             130    0.26 9  162 219 
 SPBC HN ES        446  0.76                             130   -0.33 9  162 219 
 SPBC HZ I         446  6.55        12.0 0.20            131            162 219 
 ZAR  HZ EP        445 42.08                             123   -0.64 9  204 292 
 ZAR  HE ES        446  8.11                             123   -0.15 9  204 292 
 ZAR  HZ I         446 14.11         4.9 0.14            123            204 292 
 GUY2CHZ EP        445 54.36                             113    0.68 7  300 235 
 GUY2CHE ES   4    446 32.95                             113    5.18 0  300 235 
 GUY2CHZ I         446 37.51         2.7 0.60                           300 235 
                                                                                
