 2012  618 0314 53.4 L   6.826 -73.161144.2  RSN  8 0.5 2.0LRSN                1
 GAP=133        0.80       4.6     5.7  8.2 -0.4836E+01  0.1958E+02 -0.7600E+01E
 Epicentro: LOS SANTOS - SANTANDER                                             3
 ACTION:UPD 12-08-06 17:50 OP:ep   STATUS:               ID:20120618031507 L   I
 2012-06-18-0310-00M.COL___199                                                 6
 STAT SP IPHASW D HRMM SECON CODA AMPLIT PERI AZIMU VELO AIN AR TRES W  DIS CAZ7
 BAR2 SZ EP        315 12.98                             169    0.1310 26.0 185 
 BAR2 SZ ES   2    315 27.57                             169   -0.49 5 26.0 185 
 BAR2 SZ I         315 28.75        23.5 0.24             47           26.0 185 
 PAM  SZ EP        315 15.62                             151    0.2910 76.3  42 
 PAM  SN ES   1    315 32.69                             151    0.21 7 76.3  42 
 PAM  SZ I         315 34.52        18.3 0.56             47           76.3  42 
 RUS  HZ EP        315 17.14                             142   -0.0310  104 175 
 RUS  HE ES   1    315 35.73                             142   -0.02 7  104 175 
 RUS  HZ I         315 37.27         8.5 0.30             47            104 175 
 PTB  HZ EP        315 19.64                             132   -0.45 9  147 258 
 PTB  HN ES   2    315 40.82                             132   -0.12 5  147 258 
 PTB  HZ I         315 44.48         9.3 0.30             47            147 258 
 OCA  HZ EP        315 20.76                             130   -0.49 9  157 354 
 OCA  HZ I         315 47.85        31.2 0.32             47            157 354 
 ZAR  HZ EP   2    315 25.93                             122    0.52 4  201 292 
 ZAR  HZ I         315 27.28        11.2 0.32             47            201 292 
 ZAR  HN ES   2    315 50.94                             122    0.52 4  201 292 
 CHI  HZ EP   2    315 31.38                             116    0.16 4  251 195 
 CHI  HZ I         316 12.00         3.3 0.40             37            251 195 
 HEL  HZ EP   2    315 35.10                             114    1.72 4  271 255 
 HEL  HZ I         316 11.86         5.3 0.50             37            271 255 
                                                                                
