 2013  718 0450 20.0 L   6.522 -73.454114.5  RSN  4 0.3 1.7LRSN                1
 GAP=229        0.63      17.6     9.8  8.5  0.1341E+03  0.4722E+02  0.4810E+02E
 Epicentro: SIMACOTA - SANTANDER                                               3
 ACTION:UPD 13-08-12 10:38 OP:ep   STATUS:               ID:20130718044959 L   I
 OLDACT:UPD 13-07-18 09:48 OP:stll STATUS:               ID:20130718044959 L   3
 2013-07-18-0449-59M.COL___267                                                 6
 STAT SP IPHASW D HRMM SECON CODA AMPLIT PERI AZIMU VELO AIN AR TRES W  DIS CAZ7
 BAR2 SZ ES   1    450 48.74                             164    0.07 7 31.0  76 
 GIR2 SZ EP   1    450 38.15                             147    0.31 7 67.9  25 
 BRR  HZ EP   1    450 37.20                             146   -0.63 7 70.7 336 
 BRR  HN ES   1    450 51.72                             146   -0.01 7 70.7 336 
 BRR  HN I         450 58.65         6.9 0.18            124           70.7 336 
 ZAR  HZ EP   1    450 49.12                             117    0.20 7  189 305 
 ZAR  HE ES   1    451 11.61                             117    0.14 7  189 305 
 ZAR  HE I         451 14.24         9.5 0.24            110            189 305 
                                                                                
