 2012  718 0326 14.4 L   6.703 -73.202152.0  RSN  4 0.4 1.4LRSN                1
 GAP=222        0.71       8.9     7.4  9.0  0.2252E+02  0.1877E+01  0.6572E+01E
 Epicentro: VILLANUEVA - SANTANDER                                             3
 ACTION:UPD 12-08-14 11:45 OP:ep   STATUS:               ID:20120718032614 L   I
 2012-07-18-0320-00M.COL___197                                                 6
 STAT SP IPHASW D HRMM SECON CODA AMPLIT PERI AZIMU VELO AIN AR TRES W  DIS CAZ7
 BAR2 SZ EP   1    326 34.58                             175    -0.1 7   12 170 
 BAR2 SZ ES   2    326 49.75                             175    -0.7 5   12 170 
 BAR2 SZ I         326 51.07         4.9 0.14            173             12 170 
 BRR  HZ EP   1    326 36.36                             153     0.1 7   72 308 
 BRR  HZ I         326 36.55         9.2 0.15            152             72 308 
 BRR  HN ES   1    326 53.60                             153     0.2 7   72 308 
 RUS  HZ EP   2    326 38.83                             148     0.7 5   91 172 
 RUS  HN ES   2    326 56.71                             148     0.1 5   91 172 
 PTB  HZ EP   1    326 40.78                             135    -0.4 7  140 263 
 PTB  HN ES   1    327  2.24                             135     0.1 7  140 263 
 PTB  HZ I         327  4.81         1.8 0.20            134            140 263 
