 2010  518 0909 24.8 L   6.752 -72.956135.5  RSN  7 0.4 2.1LRSN                1
 GAP=165        0.69       4.9     6.2  5.2 -0.9507E+01 -0.1346E+01 -0.6911E+00E
 Epicentro: CEPITA - SANTANDER                                                 3
 ACTION:UP  10-08-24 10:05 OP:vdl  STATUS:               ID:20100518090924 L   I
 2010-05-18-0900-00S.COL___111                                                 6
 STAT SP IPHASW D HRMM SECON CODA AMPLIT PERI AZIMU VELO SNR AR TRES W  DIS CAZ7
 BAR2 SZ EP        9 9 43.61                             166     0.210   31 235 
 BAR2 SZ ES        9 9 57.60                             166    -0.310   31 235 
 BRR  HZ IP     D  9 9 46.11                             144    -0.110   92 295 
 BRR  HZ I         9 9 46.45        50.8 0.18                            92 295 
 BRR  HN ES   1    910  3.23                             144     0.3 7   92 295 
 OCA  SZ EP   1    9 9 52.88                             125    -0.3 7  169 346 
 OCA  SZ ES   2    910 15.77                             125     0.4 5  169 346 
 HEL  HZ EP   2    910  5.75                             111    -0.9 4  291 258 
 HEL  HN ES   2    910 38.83                             111    -0.5 4  291 258 
 HEL  HZ I         910 41.91         7.4 0.44                           291 258 
 RREF BZ EP   1    910 12.51                             108     0.5 5  335 232 
 RREF BE ES   2    910 49.70                             108     0.9 3  335 232 
 RREF BZ I         910 55.85         6.4 0.24                           335 232 
 SDV  BZ EP   1    910 13.14                             107     0.1 5  348  47 
 SDV  BZ I         910 13.94         1.6 0.21                           348  47 
 PRA  HZ EP   2    910 18.57                             104    -0.1 3  398 213 
 PRA  HN ES   2    911  0.57                             104    -0.2 3  398 213 
 PRA  HZ I         911  4.52         3.9 0.49                           398 213 
                                                                                
