 2012  918 0712  4.5 L   6.718 -73.235148.4  RSN  4 0.4 1.3LRSN                1
 GAP=208        0.74       7.7     7.5  9.0  0.2851E+02 -0.2835E+01 -0.1556E+00E
 Epicentro: VILLANUEVA - SANTANDER                                             3
 ACTION:UPD 12-10-22 14:19 OP:ep   STATUS:               ID:20120918071204 L   I
 2012-09-18-0710-00M.COL___227                                                 6
 STAT SP IPHASW D HRMM SECON CODA AMPLIT PERI AZIMU VELO AIN AR TRES W  DIS CAZ7
 BAR2 SZ EP   1    712 23.84                             174   -0.45 7 15.1 157 
 BAR2 SZ ES   1    712 39.28                             174   -0.46 7 15.1 157 
 BAR2 SZ I         712 39.91         6.7 0.36                          15.1 157 
 BRR  HZ EP   1    712 25.82                             154    0.08 7 68.0 309 
 BRR  HN ES   1    712 42.83                             154    0.51 7 68.0 309 
 RUS  HZ EP   1    712 28.19                             147    0.24 7 92.8 170 
 RUS  HE ES   1    712 46.58                             147    0.32 7 92.8 170 
 RUS  HZ I         712 47.21         2.2 0.24                          92.8 170 
 PTB  HE ES   1    712 50.83                             135   -0.27 7  137 262 
                                                                                
