 2010  618 0509 36.1 L   6.891 -72.974148.0  RSN  4 0.2 1.0LRSN                1
 GAP=174        0.37       6.0     8.9 15.0  0.1648E+02 -0.3888E+02 -0.2805E+02E
 Epicentro: PIEDECUESTA - SANTANDER                                            3
 ACTION:UP  10-08-24 10:11 OP:vdl  STATUS:               ID:20100618050936 L   I
 2010-06-18-0506-59S.COL___115                                                 6
 STAT SP IPHASW D HRMM SECON CODA AMPLIT PERI AZIMU VELO SNR AR TRES W  DIS CAZ7
 BAR2 SZ EP   1    5 9 56.36                             164    -0.1 7   40 215 
 BRR  HZ EP        5 9 58.32                             148     0.010   85 286 
 BRR  HZ I         510 15.69         3.8 0.73                            85 286 
 BRR  HE ES   3    510 16.02                             148     0.4 2   85 286 
 BRI  SZ EP   2    5 9 59.20                             146     0.1 5   93  12 
 RUS  HZ EP   2    510  1.14                             141     0.3 5  111 186 
 RUS  HZ I         510 17.69         0.7 0.25                           111 186 
 RUS  HN ES   3    510 19.96                             141    -0.2 2  111 186 
                                                                                
