 2017  218 0728 53.3 L   6.790 -73.101118.8  RSN  4 0.1 0.7LRSN                1
 GAP=143        0.34       2.4     2.0  3.2 -0.2629E+00  0.1061E+01 -0.2579E+01E
 Epicentro: LOS SANTOS - SANTANDER                                             3
 ACTION:UPD 17-05-24 15:37 OP:jn   STATUS:               ID:20170218072853 L   I
 OLDACT:REG 17-02-18 13:50 OP:cara STATUS:               ID:20170218072741     3
 2017-02-18-0728-00M.COL___345                                                 6
 STAT SP IPHASW D HRMM SECON CODA AMPLIT PERI AZIMU VELO AIN AR TRES W  DIS CAZ7
 BAR2 EZ EP        729  9.89                             168    0.1610 23.6 202 
 BAR2 EZ ES        729 22.46                             168   -0.0710 23.6 202 
 BAR2 EZ I         729 23.76         1.7 0.74            165           23.6 202 
 PAM  EZ EP        729 12.58                             146   -0.0210 75.2  36 
 RUS  HZ EP        729 14.31                             138   -0.1110 99.3 179 
 RUS  HN ES        729 30.93                             138    0.0510 99.3 179 
 RUS  HZ I         729 33.29         0.7 0.36            138           99.3 179 
 PTB  HZ EP        729 18.69                             124   -0.01 9  152 260 
 PTB  HN ES        729 38.50                             124   -0.00 9  152 260 
 PTB  HZ I         729 43.00         0.8 0.20            124            152 260 
                                                                                
