 2012  218 0637 20.9 L   5.877 -73.774103.4  RSN  5 0.2 0.8LRSN                1
 GAP= 89        0.38       2.5     3.0  8.4  0.4216E+00  0.1008E+01  0.2193E+01E
 ACTION:UP  12-03-07 16:31 OP:epov STATUS:               ID:20120218063720 L   I
 2012-02-18-0630-00M.COL___188                                                 6
 STAT SP IPHASW D HRMM SECON CODA AMPLIT PERI AZIMU VELO AIN AR TRES W  DIS CAZ7
 RUS  HZ EP   2    637 38.60                             141   -0.17 5 76.5  89 
 RUS  HZ I         637 45.58         0.8 0.37                          76.5  89 
 RUS  HN ES   2    637 52.80                             141    0.10 5 76.5  89 
 PTB  HE ES   2    637 55.49                             131   -0.42 5  105 314 
 NOR  SE ES   2    637 59.91                             125    0.32 5  126 254 
 BRR  HZ EP   2    637 43.58                             123   -0.01 5  136   3 
 BRR  HZ I         637 43.72         2.9 0.13                           136   3 
 BRR  HE ES   2    638  1.57                             123    0.29 5  136   3 
 CHI  HZ EP   2    637 44.34                             123    0.03 5  138 178 
 CHI  HN ES   2    638  2.46                             123   -0.11 5  138 178 
                                                                                
