 2011  118 0651 22.0 L   6.780 -73.055143.5  RSN  7 0.3 1.7LRSN                1
 GAP=169        0.59       3.4    10.2  5.8 -0.1934E+02  0.1890E+02 -0.1878E+01E
 Epicentro: LOS SANTOS - SANTANDER                                             3
 ACTION:UP  11-02-08 08:41 OP:pat  STATUS:               ID:20110118065122 L   I
 2011-01-18-0649-23S.COL___134                                                 6
 STAT SP IPHASW D HRMM SECON CODA AMPLIT PERI AZIMU VELO SNR AR TRES W  DIS CAZ7
 BAR2 SZ EP   1    651 41.21                             170    -0.2 8   25 214 
 BAR2 SZ ES   1    651 56.46                             170    -0.1 8   25 214 
 BAR2 SZ I         651 58.89        15.0 0.19                            25 214 
 RUS  HZ EP   1    651 45.46                             144     0.1 8   98 182 
 RUS  HN ES   2    652  3.77                             144     0.2 5   98 182 
 RUS  HZ I         652  4.97         6.4 0.13                            98 182 
 GRA  SZ IP        651 46.98                             137     0.010  125  13 
 GRA  SZ ES   1    652  6.83                             137     0.3 7  125  13 
 GRA  SZ I         652  9.36         6.0 0.33                           125  13 
 OCA  SZ EP   2    651 50.41                             128    -0.1 5  164 350 
 OCA  SZ ES   2    652 12.15                             128    -0.6 5  164 350 
 OCA  SZ I         652 17.23         6.6 0.29                           164 350 
 CHI  HZ EP   1    651 59.21                             117    -0.4 6  249 198 
 CHI  HZ I         652  1.92         2.5 0.36                           249 198 
 CHI  HE ES   2    652 28.93                             117    -0.1 4  249 198 
 HEL  HZ EP   2    652  3.29                             113     0.2 4  281 257 
 HEL  HZ I         652 40.19         2.1 0.29                           281 257 
 RREF HZ EP   1    652  9.38                             110     0.6 5  328 231 
 RREF HZ I         652 50.85         2.7 0.34                           328 231 
                                                                                
