 2011 1218 0332 25.9 L   6.767 -73.075145.4  RSN 14 0.3 2.8LRSN                1
 GAP=147        0.54       2.1     3.5  3.3 -0.2412E+01  0.2846E+01  0.4867E+00E
 Epicentro: LOS SANTOS - SANTANDER                                             3
 ACTION:UPD 12-07-13 16:16 OP:ep   STATUS:               ID:20111218033225 L   I
 2011-12-18-0330-00M.COL___187                                                 6
 STAT SP IPHASW D HRMM SECON CODA AMPLIT PERI AZIMU VELO AIN AR TRES W  DIS CAZ7
 BAR2 SZ IP        332 45.47                             171    0.0010 22.7 212 
 BAR2 SZ ES   1    333  0.82                             171    0.08 7 22.7 212 
 BAR2 SZ I         333  1.65       128.1 0.17                          22.7 212 
 GIR2 SZ IP        332 45.70                             165    0.0110 36.9 339 
 GIR2 SZ ES   1    333  0.90                             165   -0.23 7 36.9 339 
 PAM  SZ IP     C  332 48.47                             151    0.4910 75.7  33 
 PAM  SN ES   2    333  5.74                             151    0.55 5 75.7  33 
 BRR  HZ IP     D  332 47.50                             150   -0.0210 79.9 298 
 BRR  HZ I         332 50.41       160.8 0.11                          79.9 298 
 BRR  HE ES   1    333  4.76                             150    0.38 7 79.9 298 
 RUS  HZ IP     D  332 49.25                             145   -0.0910 96.7 181 
 RUS  HN ES   1    333  7.20                             145   -0.41 7 96.7 181 
 RUS  HZ I         333  9.51        62.2 0.30                          96.7 181 
 OCA  SZ EP        332 54.20                             129   -0.43 9  165 351 
 OCA  SZ ES   2    333 16.59                             129   -0.45 5  165 351 
 OCA  SZ I         333 25.00        72.6 0.26                           165 351 
 NOR  SZ EP   1    333  1.87                             118   -0.21 6  239 236 
 NOR  SE ES   2    333 30.02                             118   -0.28 4  239 236 
 CHI  HZ EP   1    333  3.45                             117    0.02 6  247 197 
 CHI  HN ES   2    333 32.40                             117   -0.30 4  247 197 
 CHI  HZ I         333 42.42        16.8 0.41                           247 197 
 ROSC BZ EP   2    333  4.22                             116    0.11 4  254 213 
 ROSC BN ES   2    333 33.62                             116   -0.30 4  254 213 
 ROSC BZ I         333 41.57        35.0 0.59                           254 213 
 HEL  HZ EP   1    333  7.25                             114    0.40 6  279 257 
 HEL  HE ES   2    333 38.34                             114   -0.44 4  279 257 
 HEL  HZ I         333 45.76        30.4 0.31                           279 257 
 GUY  SZ EP   1    333 10.62                             112    0.36 5  308 236 
 GUY  SN ES   2    333 45.42                             112    0.57 4  308 236 
 GUY  SZ I         333 51.09        42.1 0.48                           308 236 
 RREF HZ EP   1    333 12.50                             110    0.06 5  325 231 
 RREF HN ES   2    333 49.01                             110    0.26 3  325 231 
 RREF HZ I         333 52.97        25.4 0.30                           325 231 
 COD  HZ EP   1    333 14.57                             109   -0.21 5  353 353 
 COD  HN ES   2    333 52.39                             109   -0.52 3  353 353 
 COD  HZ I         333 56.16        23.5 0.45                           353 353 
 PRA  HZ EP   1    333 19.62                             106    0.12 4  393 211 
 PRA  HE ES   2    334  1.48                             106    0.18 3  393 211 
                                                                                
