 2017 1218 0245 30.2 L   6.909 -73.199137.6  RSN  5 0.4 1.4LRSN                1
 GAP=283        0.86       9.2     6.6  7.6 -0.2306E+02  0.1787E+02 -0.5319E+01E
 Epicentro: BETULIA - SANTANDER                                                3
 ACTION:UPD 18-01-04 13:21 OP:rebc STATUS:               ID:20171218024530 L   I
 OLDACT:REG 17-12-18 12:24 OP:dhb  STATUS:               ID:20171218023740     3
 2017-12-18-0238-00M.COL___457                                                 6
 STAT SP IPHASW D HRMM SECON CODA AMPLIT PERI AZIMU VELO AIN AR TRES W  DIS CAZ7
 BAR2 EZ EP        245 49.04                             165   -0.1610 35.1 177 
 BAR2 EZ ES        246  4.22                             165    0.2310 35.1 177 
 BAR2 EZ I         246  6.83         7.9 0.30            156           35.1 177 
 PTB  HZ EP        245 56.11                             131   -0.17 9  145 254 
 PTB  HN ES        246 16.54                             131   -0.05 9  145 254 
 PTB  HZ I         246 20.92         1.9 0.16            129            145 254 
 SPBC HZ EP        245 58.37                             126   -0.35 9  169 215 
 SPBC HE ES        246 20.85                             126   -0.08 9  169 215 
 SPBC HZ I         246 28.23         4.4 0.42            124            169 215 
 NOR  HZ EP        246  6.74                             116    0.95 8  237 231 
 NOR  HN ES        246 33.23                             116   -0.28 8  237 231 
 NOR  HZ I         246 42.42         1.5 0.42            116            237 231 
 GUY2CHZ EP   4    246 16.63                             110    2.87 0  304 232 
 GUY2CHN ES   3    246 49.10                             110    1.40 2  304 232 
 GUY2CHZ I         247  1.31         1.4 0.54                           304 232 
                                                                                
