 2014 1018 0747 30.8 L   6.822 -73.164143.9  RSN  7 0.2 1.9LRSN                1
 GAP=143        0.54       2.2     3.2  6.9 -0.1350E+01 -0.1172E+01  0.9304E+00E
 Epicentro: LOS SANTOS - SANTANDER                                             3
 ACTION:UPD 14-11-29 23:50 OP:nd   STATUS:               ID:20141018074730 L   I
 OLDACT:REG 14-10-18 12:24 OP:mh   STATUS:               ID:20141018073738     3
 2014-10-18-0737-38M.COL___278                                                 6
 STAT SP IPHASW D HRMM SECON CODA AMPLIT PERI AZIMU VELO AIN AR TRES W  DIS CAZ7
 BAR2 SZ EP   1    747 50.33                             169    0.08 7 25.4 184 
 BAR2 SZ I         748  8.44        10.2 0.23            170           25.4 184 
 PAM  SZ EP        747 53.10                             151    0.3110 76.9  42 
 PTB  HZ EP        747 57.41                             132   -0.07 9  146 258 
 PTB  HN ES   1    748 18.33                             132    0.05 7  146 258 
 PTB  HZ I         748 24.25         9.4 0.34            143            146 258 
 OCA  HN ES        748 20.29                             130   -0.21 9  158 354 
 OCA  HZ I         748 26.19         7.8 0.24            138            158 354 
 SPBC HZ EP        747 59.10                             128   -0.11 9  164 218 
 SPBC HN ES   1    748 21.05                             128   -0.32 7  164 218 
 SPBC HZ I         748 23.74         8.9 0.20            138            164 218 
 ZAR  HZ EP        748  3.14                             122    0.31 9  201 292 
 ZAR  HN ES        748 28.04                             122    0.22 9  201 292 
 ZAR  HZ I         748 35.03         6.5 0.08            133            201 292 
 SML  HZ EP        748  6.64                             117   -0.35 8  241 336 
 SML  HN ES        748 35.13                             117   -0.09 8  241 336 
 SML  HZ I         748 41.62        10.8 0.26            126            241 336 
                                                                                
