 2010  618 0825 41.5 L   6.762 -73.117143.0  RSN  6 0.4 1.7LRSN                1
 GAP=162        0.95       4.4    10.4  8.8 -0.2371E+01 -0.2175E+02 -0.9498E+01E
 Epicentro: LOS SANTOS - SANTANDER                                             3
 ACTION:UP  10-08-24 10:11 OP:vdl  STATUS:               ID:20100618082541 L   I
 2010-06-18-0822-43S.COL___115                                                 6
 STAT SP IPHASW D HRMM SECON CODA AMPLIT PERI AZIMU VELO SNR AR TRES W  DIS CAZ7
 BAR2 SZ EP        826  0.58                             172    -0.210   20 201 
 BAR2 SZ ES   1    826 15.54                             172    -0.2 7   20 201 
 BRR  HZ EP        826  2.40                             150    -0.210   76 300 
 BRR  HE ES   1    826 19.16                             150     0.0 7   76 300 
 BRR  HZ I         826 20.98         9.9 0.10                            76 300 
 RUS  HZ EP   1    826  5.14                             144     0.5 7   96 178 
 RUS  HN ES   1    826 22.83                             144     0.1 7   96 178 
 RUS  HZ I         826 24.14         5.5 0.25                            96 178 
 GUE  SZ EP        826  6.82                             138     0.610  120  10 
 GUE  SZ ES   2    826 25.98                             138     0.5 5  120  10 
 GRA  SZ IP        826  6.40                             136    -0.410  129  16 
 GRA  SZ ES   1    826 25.95                             136    -0.5 7  129  16 
 OCA  SZ EP   1    826  9.51                             128    -0.5 7  165 352 
 OCA  SZ ES   1    826 32.94                             128     0.7 7  165 352 
 OCA  SZ I         826 35.60         8.1 0.56                           165 352 
                                                                                
