 2012  218 0712 30.9 L   6.774 -73.154143.5  RSN  6 0.4 1.3LRSN                1
 GAP=137        0.63       5.7     5.3  7.8  0.6593E+01  0.2996E+01  0.7442E+01E
 ACTION:UP  12-03-07 16:31 OP:epov STATUS:               ID:20120218071230 L   I
 2012-02-18-0710-00M.COL___188                                                 6
 STAT SP IPHASW D HRMM SECON CODA AMPLIT PERI AZIMU VELO AIN AR TRES W  DIS CAZ7
 BAR2 SZ EP   2    712 50.10                             172   -0.15 5 20.3 189 
 BAR2 SZ ES   2    713  4.88                             172   -0.43 5 20.3 189 
 BAR2 SZ I         713  6.33         6.5 0.41                          20.3 189 
 BRR  HZ EP   1    712 51.95                             152    0.06 7 71.8 301 
 BRR  HE ES   1    713  8.85                             152    0.63 7 71.8 301 
 BRR  HZ I         713  9.81         6.3 0.08                          71.8 301 
 PAM  SZ EP   2    712 53.02                             149   -0.07 5 80.2  39 
 PAM  SN ES   2    713  9.87                             149   -0.50 5 80.2  39 
 RUS  HZ EP   1    712 54.62                             144    0.35 7 97.8 175 
 RUS  HN ES   2    713 12.37                             144   -0.10 5 97.8 175 
 RUS  HZ I         713 13.79         2.0 0.39                          97.8 175 
 PTB  HZ EP   2    712 57.37                             132   -0.23 5  146 260 
 PTB  HN ES   2    713 17.77                             132   -0.62 5  146 260 
 ZAR  HE ES   2    713 28.03                             122   -0.46 4  204 293 
                                                                                
