 2015 1018 0939 20.5 L   6.840 -73.109139.6  RSN  9 0.5 1.5LRSN                1
 GAP=204        1.07       3.4     5.7  6.4  0.4307E+01  0.9788E+01 -0.1344E+00E
 Epicentro: LOS SANTOS - SANTANDER                                             3
 ACTION:UPD 15-12-22 20:41 OP:cam  STATUS:               ID:20151018093920 L   I
 OLDACT:UP  15-10-18 18:09 OP:ak   STATUS:               ID:20151018093750     3
 OLDACT:REG 15-10-18 14:59 OP:ak   STATUS:               ID:20151018093750     3
 2015-10-18-0937-50M.COL___337                                                 6
 STAT SP IPHASW D HRMM SECON CODA AMPLIT PERI AZIMU VELO AIN AR TRES W  DIS CAZ7
 BAR2 EZ EP   1    939 40.02                             168    0.50 7 28.6 196 
 BAR2 EZ ES        939 53.91                             168   -0.4410 28.6 196 
 BAR2 EZ I         939 56.31         8.7 0.17            166           28.6 196 
 BRR  HZ EP        939 41.49                             151    0.4010 72.9 294 
 BRR  HE ES        939 57.75                             151    0.6110 72.9 294 
 BRR  HZ I         940  2.33         3.5 0.10            148           72.9 294 
 RUS  HZ EP        939 44.46                             141    0.4810  105 178 
 RUS  HE ES        940  2.18                             141   -0.1010  105 178 
 RUS  HZ I         940  3.74         3.1 0.34            144            105 178 
 SPBC HZ EP        939 49.02                             126   -0.10 9  169 219 
 SPBC HN ES        940 11.28                             126   -0.16 9  169 219 
 SPBC HZ I         940 13.74         4.5 0.22            128            169 219 
 ZAR  HZ EP        939 52.69                             121   -0.09 8  206 291 
 ZAR  HN ES        940 17.35                             121   -0.61 8  206 291 
 ZAR  HZ I         940 24.60         3.3 0.24            122            206 291 
 SML  HZ EP        939 56.37                             116   -0.18 8  241 334 
 SML  HN ES        940 23.99                             116   -0.67 8  241 334 
 CHI  HZ EP   1    939 58.28                             115   -0.18 6  254 196 
 CHI  HN ES        940 27.32                             115   -0.74 8  254 196 
 HEL  HE ES        940 33.41                             113    0.87 7  277 255 
 HEL  HZ I         940 38.62         1.5 0.19            114            277 255 
 GUY2CHZ EP        940  4.93                             111    0.42 7  307 235 
 GUY2CHN ES        940 38.50                             111   -0.32 7  307 235 
 GUY2CHZ I         940 46.43         2.4 0.32                           307 235 
                                                                                
