 2010  118 0825 34.7 L   6.804 -73.009140.0  RSN  7 0.6 1.7LRSN                1
 GAP=197        1.16       5.1    17.1  8.9 -0.3267E+02  0.4680E+02  0.2446E+01E
 Epicentro: CEPITA - SANTANDER                                                 3
 ACTION:UP  10-08-24 09:44 OP:vdl  STATUS:               ID:20100118082534 L   I
 2010-01-18-0820-45S.COL___096                                                 6
 STAT SP IPHASW D HRMM SECON CODA AMPLIT PERI AZIMU VELO SNR AR TRES W  DIS CAZ7
 BAR2 SZ EP   1    825 53.81                             167     0.0 8   30 219 
 BAR2 SZ ES   1    826  8.11                             167    -0.6 8   30 219 
 GIR2 SZ EP   1    825 53.80                             165     0.0 8   37 326 
 GIR2 SZ ES   1    826  8.80                             165     0.0 8   37 326 
 RUS  BN ES   1    826 16.19                             142     0.1 8  101 185 
 RUS  BZ I         826 18.10         7.5 0.68                           101 185 
 OCA  SZ EP        826  2.09                             128    -0.710  162 348 
 OCA  SZ ES   1    826 25.68                             128     1.0 7  162 348 
 CHI  HZ EP        826 13.18                             115     0.6 9  253 198 
 CHI  HN ES   1    826 42.90                             115     0.7 6  253 198 
 CHI  HZ I         826 48.48         2.8 0.18                           253 198 
 RREF BN ES   1    826 59.14                             109     0.3 5  334 231 
 RREF BZ I         827  6.29         3.3 0.33                           334 231 
 PRA  HZ EP        826 28.50                             105    -0.5 6  400 211 
 PRA  HN ES   1    827 10.19                             105    -1.1 5  400 211 
                                                                                
