 2015  118 0633 33.1 L   6.797 -73.148152.2  RSN 11 0.5 2.0LRSN                1
 GAP=136        1.33       3.5     5.3  6.9 -0.2247E+01  0.7977E+01 -0.1355E+00E
 Epicentro: LOS SANTOS - SANTANDER                                             3
 ACTION:UPD 15-03-02 15:40 OP:nd   STATUS:               ID:20150118063333 L   I
 OLDACT:REG 15-01-18 16:24 OP:carl STATUS:               ID:20150118062741     3
 2015-01-18-0627-41M.COL___259                                                 6
 STAT SP IPHASW D HRMM SECON CODA AMPLIT PERI AZIMU VELO AIN AR TRES W  DIS CAZ7
 BAR2 EZ EP        633 53.61                             171    0.0910 22.9 190 
 BAR2 EZ ES        634  8.74                             171   -0.6910 22.9 190 
 BAR2 EZ I         634 11.34        10.9 0.22            171           22.9 190 
 BRR  HZ EP        633 55.56                             154    0.5910 71.1 299 
 BRR  HN ES        634 12.78                             154    0.7710 71.1 299 
 BRR  HZ I         634 20.01         8.0 0.16            151           71.1 299 
 PAM  SZ EP        633 56.47                             152    0.4210 77.8  40 
 PAM  SN ES        634 13.74                             152   -0.2010 77.8  40 
 PAM  SZ I         634 15.64         9.5 0.58            156           77.8  40 
 RUS  HZ EP        633 57.30                             145   -0.1910  100 176 
 RUS  HN ES        634 16.22                             145   -0.2710  100 176 
 RUS  HZ I         634 18.74        10.4 0.50            150            100 176 
 PTB  HZ EP        633 59.34                             133   -1.25 9  147 259 
 PTB  HN ES        634 21.57                             133   -0.45 9  147 259 
 PTB  HZ I         634 26.05        13.6 0.30            134            147 259 
 OCA  HZ EP        634  1.12                             131   -0.85 9  161 353 
 OCA  HN ES        634 25.27                             131    0.80 9  161 353 
 OCA  HZ I         634 34.09         8.3 0.20            133            161 353 
 SPBC HZ EP        634  2.48                             131    0.40 9  163 219 
 SPBC HN ES        634 25.20                             131    0.53 9  163 219 
 SPBC HZ I         634 31.29        17.1 0.38            133            163 219 
 ZAR  HZ EP        634  6.25                             124    0.27 9  204 292 
 ZAR  HN ES        634 31.35                             124   -0.27 9  204 292 
 ZAR  HZ I         634 37.22        14.8 0.70            125            204 292 
 NOR  HZ EP        634  9.40                             120    0.21 8  234 234 
 NOR  HN ES        634 37.31                             120   -0.01 8  234 234 
 NOR  HZ I         634 44.80         7.7 0.22            122            234 234 
 SML  HZ EP        634  9.84                             119   -0.30 8  244 335 
 SML  HN ES        634 38.79                             119   -0.22 8  244 335 
 SML  HZ I         634 45.78        14.2 0.10            121            244 335 
 CHI  HZ EP        634 11.57                             118    0.43 8  248 195 
 CHI  HN ES        634 41.05                             118    0.25 8  248 195 
                                                                                
