 2015  918 0145 49.7 L   6.809 -73.162145.4  RSN  8 0.4 1.5LRSN                1
 GAP=134        1.02       4.2     4.5  6.8  0.2198E+01  0.5490E+01 -0.5667E+01E
 Epicentro: LOS SANTOS - SANTANDER                                             3
 ACTION:UPD 15-10-28 16:26 OP:cam  STATUS:               ID:20150918014549 L   I
 OLDACT:UP  15-09-18 14:26 OP:mh   STATUS:               ID:20150918013749     3
 OLDACT:UP  15-09-18 14:25 OP:mh   STATUS:               ID:20150918013749     3
 OLDACT:UP  15-09-18 14:25 OP:mh   STATUS:               ID:20150918013749     3
 OLDACT:REG 15-09-18 12:20 OP:mh   STATUS:               ID:20150918013749     3
 2015-09-18-0137-49M.COL___346                                                 6
 STAT SP IPHASW D HRMM SECON CODA AMPLIT PERI AZIMU VELO AIN AR TRES W  DIS CAZ7
 BAR2 EZ EP        146  8.90                             170   -0.4410 24.1 185 
 BAR2 EZ ES        146 24.56                             170   -0.0710 24.1 185 
 BAR2 EZ I         146 25.69         5.5 0.18            172           24.1 185 
 BRR  HZ EP        146 11.26                             153    0.5310 69.1 298 
 BRR  HN ES        146 27.26                             153    0.1610 69.1 298 
 BRR  HZ I         146 28.39         6.9 0.12            149           69.1 298 
 PAM  EZ IP     D  146 12.45                             151    0.5110 77.8  41 
 PAM  EN ES        146 29.08                             151   -0.1710 77.8  41 
 PAM  EZ I         146 31.62         4.3 0.32            151           77.8  41 
 RUS  HZ EP        146 13.42                             143   -0.1210  102 175 
 RUS  HN ES        146 32.28                             143    0.1810  102 175 
 PTB  HZ EP        146 16.21                             132   -0.33 9  146 258 
 PTB  HN ES        146 37.00                             132   -0.43 9  146 258 
 PTB  HZ I         146 43.92         2.4 0.42            131            146 258 
 ZAR  HN ES        146 47.79                             123    0.72 9  202 292 
 ZAR  HZ I         146 53.55         2.2 0.07            122            202 292 
 SML  HZ EP        146 26.25                             118    0.09 8  242 336 
 SML  HE ES        146 53.82                             118   -0.75 8  242 336 
 SML  HZ I         147  2.79         4.4 0.28            117            242 336 
 GUY2CHZ EP   4    146 35.04                             112    1.80 0  300 234 
 GUY2CHN ES   4    147 11.52                             112    4.36 0  300 234 
 GUY2CHZ I         147 14.76         1.2 0.47                           300 234 
                                                                                
