 2017  218 0645  9.4 L   6.764 -73.161149.9  RSN  9 0.4 1.6LRSN                1
 GAP=119        0.94       4.2     3.7  5.4  0.2367E+01  0.4367E+01  0.5223E+01E
 Epicentro: LOS SANTOS - SANTANDER                                             3
 ACTION:UPD 17-05-24 15:37 OP:jn   STATUS:               ID:20170218064509 L   I
 OLDACT:DUP 17-02-18 17:58 OP:cara STATUS:               ID:20170218063742d    3
 2017-02-18-0638-00M.COL___345                                                 6
 STAT SP IPHASW D HRMM SECON CODA AMPLIT PERI AZIMU VELO AIN AR TRES W  DIS CAZ7
 BAR2 EZ EP        645 29.55                             172    0.1210 19.1 187 
 BAR2 EZ ES        645 44.68                             172   -0.3910 19.1 187 
 BAR2 EZ I         645 47.39        13.2 0.38            163           19.1 187 
 BRR  HZ EP        645 31.50                             153    0.4910 71.7 302 
 BRR  HN ES        645 48.43                             153    0.5610 71.7 302 
 BRR  HZ I         645 50.60         9.7 0.32            152           71.7 302 
 PAM  EZ EP        645 32.32                             150    0.0310 81.6  39 
 PAM  EN ES        645 49.57                             150   -0.5810 81.6  39 
 PAM  EZ I         645 53.52         4.4 0.24            151           81.6  39 
 RUS  HZ EP        645 33.60                             146    0.3310 96.7 175 
 RUS  HN ES        645 52.11                             146    0.2110 96.7 175 
 RUS  HZ I         645 54.99         3.7 0.38            136           96.7 175 
 PTB  HZ EP        645 36.63                             133    0.16 9  145 260 
 PTB  HN ES        645 57.35                             133   -0.25 9  145 260 
 PTB  HZ I         646  4.87         7.5 0.50            127            145 260 
 ZAR  HZ EP        645 41.93                             123   -0.16 9  204 293 
 ZAR  HN ES        646  7.50                             123   -0.11 9  204 293 
 ZAR  HZ I         646 11.57         2.7 0.12            119            204 293 
 CHI  HZ EP        645 47.04                             118    0.20 8  244 195 
 CHI  HZ I         646 26.77         2.1 0.70            112            244 195 
 PTGC HZ EP        645 52.53                             112   -0.54 7  306 158 
 PTGC HN ES   4    646 26.01                             112   -1.14 0  306 158 
 CBOC HN ES        646 31.85                             111   -0.77 7  331 253 
                                                                                
