 2015 1018 0414 58.2 L   6.841 -73.132145.1  RSN 25 0.4 2.6LRSN                1
 GAP= 56        0.97       2.1     2.4  4.2 -0.2886E+00  0.2762E+01  0.1260E+01E
 Epicentro: LOS SANTOS - SANTANDER                                             3
 ACTION:UPD 15-12-22 20:41 OP:cam  STATUS:               ID:20151018041458 L   I
 OLDACT:REG 15-10-18 14:40 OP:ak   STATUS:               ID:20151018040748     3
 2015-10-18-0407-48M.COL___343                                                 6
 STAT SP IPHASW D HRMM SECON CODA AMPLIT PERI AZIMU VELO AIN AR TRES W  DIS CAZ7
 BAR2 EZ IP     D  415 17.88                             169    0.0410 28.1 191 
 BAR2 EZ ES        415 32.63                             169   -0.5510 28.1 191 
 BAR2 EZ I         415 35.09        52.0 0.18            168           28.1 191 
 BRR  HZ IP     D  415 19.58                             153    0.3510 70.5 295 
 BRR  HN ES        415 36.03                             153    0.3910 70.5 295 
 BRR  HZ I         415 37.87        70.0 0.10            149           70.5 295 
 PAM  EZ EP        415 20.66                             152    0.5910 72.9  41 
 PAM  EN ES        415 37.06                             152   -0.0810 72.9  41 
 PAM  EZ I         415 39.86        67.0 0.26            155           72.9  41 
 RUS  HZ EP        415 21.99                             142   -0.2110  105 177 
 RUS  HE ES        415 40.53                             142   -0.4010  105 177 
 RUS  HZ I         415 42.87        33.6 0.28            144            105 177 
 TAM  HZ EP        415 26.27                             130    0.48 9  155 107 
 TAM  HN ES        415 47.80                             130    0.48 9  155 107 
 TAM  HZ I         415 48.67        47.0 0.62            135            155 107 
 OCA  HZ EP        415 26.11                             130    0.07 9  156 352 
 OCA  HN ES        415 47.34                             130   -0.43 9  156 352 
 OCA  HZ I         415 53.01       115.6 0.26            130            156 352 
 SPBC HZ EP        415 26.81                             128   -0.25 9  168 218 
 SPBC HN ES        415 50.34                             128    0.75 9  168 218 
 SPBC HZ I         415 54.84        68.9 0.28            128            168 218 
 ZAR  HZ EP        415 30.65                             122    0.09 9  204 291 
 ZAR  HE ES        415 56.24                             122    0.42 9  204 291 
 ZAR  HZ I         416  2.26        81.5 0.24            121            204 291 
 NOR  HZ EP        415 33.82                             118   -0.48 8  239 234 
 NOR  HN ES        416  2.38                             118   -0.08 8  239 234 
 NOR  HZ I         416  8.33        38.7 0.15            118            239 234 
 SML  HZ EP        415 34.06                             118   -0.34 8  240 335 
 SML  HN ES        416  2.21                             118   -0.44 8  240 335 
 CHI  HZ EP        415 36.53                             116    0.16 8  253 195 
 CHI  HN ES        416  5.46                             116   -0.69 8  253 195 
 CHI  HZ I         416  9.49        14.7 0.40            117            253 195 
 ROSC BZ EP        415 37.44                             116    0.66 8  257 211 
 ROSC BN ES        416  6.95                             116    0.07 8  257 211 
 ROSC BZ I         416 18.19        21.6 0.25            117            257 211 
 HEL  HZ EP        415 38.21                             114   -0.45 8  275 255 
 HEL  HN ES        416 10.56                             114    0.34 8  275 255 
 HEL  HZ I         416 17.40        29.3 0.48            114            275 255 
 URE  HZ EP   4    415 37.37                             113   -1.83 0  284 291 
 URE  HE ES        416 10.35                             113   -0.83 7  284 291 
 URE  HZ I         416 20.14        34.5 0.23            113            284 291 
 GUY2CHZ EP        415 42.67                             112    0.47 7  305 234 
 GUY2CHN ES        416 16.76                             112    0.23 7  305 234 
 GUY2CHZ I         416 26.30        34.0 0.46                           305 234 
 VIL  SZ EP        415 41.32                             111   -0.79 7  308 192 
 VIL  SN ES        416 16.22                             111   -0.15 7  308 192 
 PTGC HZ EP   1    415 41.48                             111   -0.95 5  312 159 
 PTGC HN ES   4    416 14.88                             111   -2.06 0  312 159 
 CBOC HZ EP        415 45.78                             110    0.38 7  336 251 
 CBOC HN ES   4    416 20.39                             110   -1.84 0  336 251 
 CBOC HZ I         416 32.40         9.0 0.46            110            336 251 
 DBB  SZ EP        415 45.52                             109   -0.26 7  341 273 
 DBB  SZ ES        416 23.32                             109    0.43 7  341 273 
 DBB  SZ I         416 34.89        47.9 0.50            109            341 273 
 MON  HZ EP   4    415 44.72                             108   -2.26 0  352 308 
 MON  HE ES   4    416 22.13                             108   -2.90 0  352 308 
 MON  HZ I         416 43.25         8.2 0.42            109            352 308 
 SDV  BZ EP        415 47.78                             108    0.05 6  356  51 
 SDV  BN ES   4    416 23.94                             108   -2.44 0  356  51 
 SDV  BZ I         416 26.38         5.5 0.40            110            356  51 
 ANIL HZ EP   4    415 49.67                             108    1.21 0  362 224 
 ANIL HN ES        416 27.29                             108   -0.39 6  362 224 
 ORTC HZ EP        415 52.73                             106    0.11 6  400 216 
 ORTC HE ES        416 35.32                             106    0.25 6  400 216 
 ORTC HZ I         416 40.61        11.8 0.32            107            400 216 
 SJC  HZ EP   4    415 51.56                             106   -1.82 0  406 326 
 SJC  HN ES   4    416 32.76                             106   -3.67 0  406 326 
 SJC  HZ I         416 42.43         5.3 0.28            106            406 326 
 CAP2 HZ EP   4    416  2.63                             102   -2.65 0  507 293 
 CAP2 HN ES   4    416 50.06                             102   -7.56 0  507 293 
 CAP2 HZ I         416 58.43         3.8 0.29            102            507 293 
                                                                                
