 2014 1118 0400 48.5 L   6.804 -73.155149.9  RSN 15 0.5 2.0LRSN                1
 GAP=135        1.06       2.9     3.9  5.2 -0.2608E+01  0.7030E+01  0.1387E+01E
 Epicentro: LOS SANTOS - SANTANDER                                             3
 ACTION:UPD 14-12-19 15:44 OP:nd   STATUS:               ID:20141118040048 L   I
 OLDACT:REG 14-11-18 13:07 OP:fm   STATUS:               ID:20141118035743     3
 2014-11-18-0357-43M.COL___277                                                 6
 STAT SP IPHASW D HRMM SECON CODA AMPLIT PERI AZIMU VELO AIN AR TRES W  DIS CAZ7
 BAR2 SZ EP        4 1  8.81                             171    0.2010 23.6 187 
 BAR2 SZ ES        4 1 23.95                             171   -0.3610 23.6 187 
 BAR2 SZ I         4 1 25.20        33.3 0.42            169           23.6 187 
 BRR  HZ EP        4 1 10.67                             154    0.6610 70.1 299 
 BRR  HN ES        4 1 28.01                             154    1.2010 70.1 299 
 BRR  HZ I         4 1 30.29        10.3 0.36            152           70.1 299 
 PAM  SZ EP        4 1 11.54                             151    0.3910 77.7  40 
 PAM  SN ES        4 1 28.52                             151   -0.3210 77.7  40 
 PAM  SZ I         4 1 30.99        21.4 0.54            155           77.7  40 
 RUS  HZ EP        4 1 12.76                             144    0.0910  101 175 
 RUS  HN ES        4 1 31.23                             144   -0.3110  101 175 
 RUS  HZ I         4 1 32.68        17.0 0.28            145            101 175 
 PTB  HZ EP        4 1 15.57                             133   -0.13 9  147 259 
 PTB  HN ES        4 1 36.47                             133   -0.47 9  147 259 
 PTB  HZ I         4 1 38.66        11.9 0.18            132            147 259 
 OCA  HZ EP        4 1 16.77                             131   -0.29 9  160 353 
 OCA  HN ES        4 1 38.88                             131   -0.48 9  160 353 
 OCA  HZ I         4 1 43.52        11.3 0.32            132            160 353 
 SPBC HZ EP        4 1 17.36                             130    0.10 9  163 219 
 SPBC HN ES        4 1 39.41                             130   -0.31 9  163 219 
 SPBC HZ I         4 1 42.47        29.0 0.30            130            163 219 
 NOR  HZ EP        4 1 24.55                             119    0.17 8  234 234 
 NOR  HN ES        4 1 52.15                             119   -0.24 8  234 234 
 NOR  HZ I         4 2  0.88         7.7 0.18            119            234 234 
 CHI  HZ EP        4 1 26.87                             118    0.45 8  249 195 
 CHI  HN ES        4 1 55.74                             118   -0.28 8  249 195 
 CHI  HZ I         4 1 59.63         4.1 0.70            118            249 195 
 HEL  HZ EP        4 1 29.45                             116    0.65 8  271 256 
 HEL  HN ES        4 2  0.46                             116    0.20 8  271 256 
 HEL  HZ I         4 2  6.89         4.3 0.26            116            271 256 
 CBOC HZ EP        4 1 35.52                             111    0.05 7  333 252 
 CBOC HN ES        4 2 12.48                             111    0.36 7  333 252 
 CBOC HZ I         4 2 18.47         1.6 0.26            111            333 252 
 TOL  SZ EP        4 1 36.73                             110   -0.12 7  343 224 
 TOL  SN ES        4 2 14.26                             110   -0.32 7  343 224 
 TOL  SZ I         4 2 22.83        11.3 0.68            110            343 224 
 MON  HZ EP        4 1 36.65                             109   -0.87 6  353 308 
 MON  HN ES        4 2 14.93                             109   -0.84 6  353 308 
 PRA  HZ EP        4 1 42.14                             107    0.02 6  392 209 
 PRA  HN ES   4    4 2 20.33                             107   -3.64 0  392 209 
 PRA  HZ I         4 2 30.95         4.8 0.40            108            392 209 
 ORTC HZ EP   4    4 1 38.82                             107   -3.69 0  395 216 
 ORTC HN ES        4 2 24.54                             107   -0.11 6  395 216 
 ORTC HZ I         4 2 32.57         3.3 0.60            107            395 216 
                                                                                
