 2013  618 0326 11.7 L   6.168 -73.565120.1  RSN  9 0.4 1.6LRSN                1
 GAP= 78        0.77       2.9     6.1  8.9 -0.1943E+01  0.3568E+02  0.5261E+01E
 Epicentro: LA PAZ - SANTANDER                                                 3
 ACTION:UPD 14-01-08 09:55 OP:ep   STATUS:               ID:20130618032611 L   I
 OLDACT:REG 13-06-18 07:26 OP:carl STATUS:               ID:20130618031959     3
 2013-06-18-0319-59M.COL___261                                                 6
 STAT SP IPHASW D HRMM SECON CODA AMPLIT PERI AZIMU VELO AIN AR TRES W  DIS CAZ7
 RUS  HZ EP   1    326 29.94                             151   -0.28 8 61.4 120 
 RUS  HN ES   1    326 43.91                             151   -0.77 8 61.4 120 
 RUS  HZ I         326 45.56         3.9 0.34            150           61.4 120 
 BAR2 SZ EP   1    326 30.31                             150    0.35 8 63.2  42 
 BAR2 SZ ES   1    326 44.96                             150    0.75 8 63.2  42 
 BAR2 SZ I         326 45.43        22.1 0.16            151           63.2  42 
 BRR  HZ EP   1    326 32.52                             136   -0.19 8  105 351 
 BRR  HN ES   1    326 48.65                             136   -0.45 8  105 351 
 PTB  HZ EP   1    326 32.97                             135    0.09 8  107 293 
 PTB  HE ES   4    326 45.92                             135   -3.49 0  107 293 
 GIR2 SZ EP   1    326 33.60                             135    0.38 8  109  22 
 GIR2 SZ ES   2    326 50.03                             135    0.02 5  109  22 
 NOR  HZ EP   1    326 37.67                             123   -0.22 8  159 245 
 NOR  HN ES   4    326 55.57                             123   -2.76 0  159 245 
 NOR  HZ I         326 57.95         7.1 0.20            123            159 245 
 CHI  HZ EP   1    326 39.43                             121   -0.17 7  171 186 
 CHI  HN ES        327  1.77                             121    0.4010  171 186 
 CHI  HZ I         327  3.06         2.5 0.24            121            171 186 
 GUY2CHZ EP   1    326 45.31                             114   -0.21 7  225 242 
 GUY2CHN ES   2    327 12.46                             114    0.55 5  225 242 
 GUY2CHZ I         327 15.46         3.3 0.38                           225 242 
 PRA  HZ EP   1    326 54.46                             106   -0.08 6  308 208 
 PRA  HN ES   1    327 27.70                             106   -0.27 6  308 208 
 PRA  HZ I         327 32.94         3.0 0.32            106            308 208 
                                                                                
