 2010  318 0058 48.1 L   6.848 -72.951147.1  RSN  6 0.3 1.7LRSN                1
 GAP=259        0.44       3.9     6.9  4.5  0.1028E+02  0.3535E+00  0.4302E+01E
 Epicentro: CEPITA - SANTANDER                                                 3
 ACTION:UP  10-08-24 09:54 OP:vdl  STATUS:               ID:20100318005848 L   I
 2010-03-18-0055-58S.COL___098                                                 6
 STAT SP IPHASW D HRMM SECON CODA AMPLIT PERI AZIMU VELO SNR AR TRES W  DIS CAZ7
 BAR2 SZ EP   1    059  8.43                             165     0.2 7   38 222 
 BAR2 SZ ES   1    059 23.83                             165    -0.1 7   38 222 
 BRR  HZ EP        059 10.49                             147     0.110   89 289 
 BRR  HE ES   1    059 27.80                             147    -0.1 7   89 289 
 BRR  HZ I         059 31.85        16.0 0.46                            89 289 
 RUS  HZ EP   1    059 12.52                             142     0.1 7  107 188 
 RUS  HN ES   2    059 31.29                             142    -0.1 5  107 188 
 RUS  HZ I         059 32.53         3.5 0.32                           107 188 
 CHI  HZ EP   2    059 26.43                             116    -0.6 4  260 199 
 CHI  HN ES   2    059 57.57                             116     0.1 4  260 199 
 CHI  HZ I         059 58.09         1.6 0.41                           260 199 
 RREF BZ EP   2    059 36.70                             110     0.2 3  342 231 
 RREF BN ES   3    1 0 15.09                             110     0.7 2  342 231 
 RREF BZ I         1 0 20.64         2.2 0.33                           342 231 
 PRA  HZ EP   2    059 42.74                             106    -0.7 3  408 212 
 PRA  HZ I         1 0 25.55         3.0 0.73                           408 212 
 PRA  HN ES   2    1 0 26.91                             106     0.3 3  408 212 
                                                                                
