 2011  318 0239 23.5 L   7.463 -73.561110.5  RSN  5 0.3 1.5LRSN                1
 GAP=214        0.81       3.6    12.9 12.4 -0.5137E+01  0.7357E+02  0.1168E+02E
 Epicentro: SABANA DE TORRES - SANTANDER                                       3
 ACTION:UP  11-06-16 14:34 OP:jfem STATUS:               ID:20110318023923 L   I
 2011-03-18-0235-05S.COL___135                                                 6
 STAT SP IPHASW D HRMM SECON CODA AMPLIT PERI AZIMU VELO SNR AR TRES W  DIS CAZ7
 BTL  SZ EP        239 40.69                             146    -0.510   68 152 
 OCA  SZ EP   1    239 42.87                             138     0.2 7   90  17 
 OCA  SZ ES   1    239 57.46                             138    -0.1 7   90  17 
 OCA  SZ I         240  4.05        13.6 0.23                            90  17 
 GRA  SZ EP        239 43.20                             136     0.110   96  61 
 GRA  SZ ES   1    239 58.36                             136    -0.1 7   96  61 
 GRA  SZ I         240  1.96         7.3 0.33                            96  61 
 BAR2 SZ IP        239 44.52                             133     0.510  105 157 
 BAR2 SZ ES   1    240  0.32                             133     0.3 7  105 157 
 BAR2 SZ I         240  1.37         8.2 0.13                           105 157 
 RUS  HZ EP   1    239 51.80                             117    -0.3 7  182 163 
 RUS  HN ES   1    240 14.19                             117    -0.2 7  182 163 
 RUS  HZ I         240 23.39         1.3 0.69                           182 163 
                                                                                
