 2017 1118 0157 47.6 L   6.793 -73.179136.1  RSN  9 0.4 1.5LRSN                1
 GAP=157        1.00       3.2     3.7  6.0  0.2464E+01  0.3804E+01 -0.2633E+01E
 Epicentro: LOS SANTOS - SANTANDER                                             3
 ACTION:UPD 17-12-12 19:56 OP:rebc STATUS:               ID:20171118015747 L   I
 OLDACT:REG 17-11-18 10:03 OP:mg   STATUS:               ID:20171118014743     3
 2017-11-18-0148-00M.COL___473                                                 6
 STAT SP IPHASW D HRMM SECON CODA AMPLIT PERI AZIMU VELO AIN AR TRES W  DIS CAZ7
 BAR2 EZ EP        158  6.18                             170    0.1110 22.2 181 
 BAR2 EZ ES        158 20.06                             170   -0.3910 22.2 181 
 BAR2 EZ I         158 22.11         8.5 0.26            169           22.2 181 
 RUS  HZ EP        158 10.38                             142   -0.0210  100 174 
 RUS  HN ES        158 28.82                             142    0.6510  100 174 
 RUS  HZ I         158 29.53         3.9 0.28            142            100 174 
 PTB  HZ EP        158 13.34                             130   -0.13 9  144 259 
 PTB  HE ES        158 33.21                             130   -0.42 9  144 259 
 YPLC HZ EP        158 16.45                             124   -0.40 9  178 150 
 YPLC HE ES        158 39.55                             124   -0.09 9  178 150 
 ZAR  HZ EP        158 19.32                             120    0.19 9  201 293 
 ZAR  HN ES        158 43.65                             120   -0.06 9  201 293 
 NOR  HZ EP        158 22.23                             117   -0.21 8  231 234 
 NOR  HE ES        158 49.18                             117   -0.41 8  231 234 
 NOR  HZ I         158 55.27         2.2 0.16            117            231 234 
 CHI  HZ EP        158 23.82                             115   -0.80 8  247 194 
 CHI  HN ES        158 54.21                             115    0.73 8  247 194 
 DRL03HZ EP        158 28.88                             111    0.05 7  289 354 
 DRL03HE ES        159  1.50                             111    0.54 7  289 354 
 GUY2CHZ EP        158 30.65                             111    0.23 7  298 234 
 GUY2CHN ES        159  4.67                             111    0.88 7  298 234 
 GUY2CHZ I         159 14.50         1.9 0.36                           298 234 
                                                                                
