 2010  418 0735 49.8 L   6.724 -72.974134.7  RSN  6 0.3 1.9LRSN                1
 GAP=225        0.75       5.9     9.0 10.4 -0.1247E+02 -0.1030E+02  0.2799E+02E
 Epicentro: CEPITA - SANTANDER                                                 3
 ACTION:UPD 10-08-24 09:59 OP:vdl  STATUS:               ID:20100418073601 L   I
 2010-04-18-0732-18S.COL___100                                                 6
 STAT SP IPHASW D HRMM SECON CODA AMPLIT PERI AZIMU VELO AIN AR TRES W  DIS CAZ7
 BAR2 SZ EP        736  8.50                             168     0.410   27 238 
 BAR2 SZ ES   2    736 22.31                             168    -0.2 5   27 238 
 BRR  HZ EP        736 10.84                             147    -0.310   92 298 
 BRR  HN ES        736 27.73                             147     0.010   92 298 
 BRR  HZ I         736 30.59         9.0 0.04                            92 298 
 OCA  SZ ES   2    736 40.44                             128    -0.2 4  172 347 
 OCA  SZ I         736 43.64        15.5 0.29                           172 347 
 ROSC BN ES   2    736 56.50                             116    -0.7 4  256 216 
 ROSC BZ I         737  3.66         4.1 0.53                           256 216 
 RREF BN ES   1    737 13.55                             110     0.5 5  331 233 
 RREF BZ I         737 19.99         3.0 0.05                           331 233 
 PRA  HN ES   2    737 24.66                             106    -0.3 3  395 213 
 PRA  HZ I         737 30.17         1.9 0.68                           395 213 
                                                                                
