 2014 1118 0834  3.3 L   6.757 -73.153146.0  RSN  5 0.3 1.3LRSN                1
 GAP=138        0.84       4.5     4.3  6.1 -0.1778E+01  0.3205E+01  0.9924E+00E
 Epicentro: LOS SANTOS - SANTANDER                                             3
 ACTION:UPD 14-12-19 15:44 OP:nd   STATUS:               ID:20141118083403 L   I
 OLDACT:DUP 14-11-18 17:57 OP:fm   STATUS:               ID:20141118082749d    3
 2014-11-18-0827-48M.COL___274                                                 6
 STAT SP IPHASW D HRMM SECON CODA AMPLIT PERI AZIMU VELO AIN AR TRES W  DIS CAZ7
 BAR2 SZ EP        834 23.02                             172    0.1110 18.5 190 
 BAR2 SZ ES        834 38.00                             172   -0.1810 18.5 190 
 BAR2 SZ I         834 40.13         3.6 0.30            172           18.5 190 
 BRR  HZ EP        834 24.72                             152    0.1110 72.9 302 
 BRR  HN ES        834 41.80                             152    0.5910 72.9 302 
 BRR  HZ I         834 46.09         5.2 0.38            151           72.9 302 
 PAM  SZ EP        834 25.49                             149   -0.3510 81.6  38 
 PAM  SN ES        834 43.25                             149   -0.1410 81.6  38 
 PAM  SZ I         834 45.11         4.8 0.48            153           81.6  38 
 RUS  HZ EP        834 27.04                             145    0.2610 95.9 175 
 RUS  HN ES        834 45.10                             145    0.0410 95.9 175 
 RUS  HZ I         834 46.77         1.8 0.46            149           95.9 175 
 PTB  HZ EP        834 30.28                             132    0.10 9  146 261 
 PTB  HN ES        834 50.51                             132   -0.60 9  146 261 
 PTB  HZ I         834 56.79         3.7 0.20            133            146 261 
                                                                                
