 2013 1218 0932 34.5 L   6.779 -73.152146.0  RSN  5 0.4 1.3LRSN                1
 GAP=137        0.90       5.3     5.1  6.9  0.1763E+01  0.4499E+01  0.1100E+01E
 Epicentro: LOS SANTOS - SANTANDER                                             3
 ACTION:UPD 14-01-13 10:19 OP:ep   STATUS:               ID:20131218093234 L   I
 OLDACT:REG 13-12-18 07:34 OP:jn   STATUS:               ID:20131218093000     3
 2013-12-18-0930-00M.COL___285                                                 6
 STAT SP IPHASW D HRMM SECON CODA AMPLIT PERI AZIMU VELO AIN AR TRES W  DIS CAZ7
 BAR2 SZ EP   1    932 54.07                             171   -0.07 7 20.9 189 
 BAR2 SZ ES        933  9.14                             171   -0.3010 20.9 189 
 BAR2 SZ I         933 10.53         7.9 0.20            173           20.9 189 
 BRR  HZ EP        932 56.03                             152    0.3010 71.7 300 
 BRR  HN ES        933 12.78                             152    0.5110 71.7 300 
 BRR  HZ I         933 17.94         4.1 0.34            152           71.7 300 
 PAM  SZ EP   1    932 57.29                             150    0.39 7 79.6  39 
 PAM  SE ES   1    933 13.71                             150   -0.64 7 79.6  39 
 RUS  HZ EP        932 57.99                             145   -0.1510 98.3 176 
 RUS  HE ES        933 16.94                             145    0.3810 98.3 176 
 RUS  HZ I         933 17.93         1.4 0.18            148           98.3 176 
 PTB  HZ EP        933  1.10                             132   -0.31 9  147 260 
 PTB  HN ES        933 22.04                             132   -0.34 9  147 260 
 PTB  HZ I         933 23.81         2.0 0.44            134            147 260 
                                                                                
