 2016  118 0319 44.2 L   6.805 -73.174137.4  RSN 10 0.4 1.5LRSN                1
 GAP=133        0.97       2.9     3.7  6.0 -0.2070E+01  0.7907E+01  0.7919E+00E
 Epicentro: LOS SANTOS - SANTANDER                                             3
 ACTION:UPD 16-03-09 23:26 OP:cam  STATUS:               ID:20160118031944 L   I
 OLDACT:UP  16-01-18 15:10 OP:mh   STATUS:               ID:20160118031738     3
 OLDACT:UP  16-01-18 15:10 OP:mh   STATUS:               ID:20160118031738     3
 OLDACT:REG 16-01-18 12:46 OP:mh   STATUS:               ID:20160118031738     3
 2016-01-18-0317-38M.COL___328                                                 6
 STAT SP IPHASW D HRMM SECON CODA AMPLIT PERI AZIMU VELO AIN AR TRES W  DIS CAZ7
 BAR2 EZ EP   1    320  3.02                             170    0.18 7 23.5 182 
 BAR2 EZ ES        320 17.36                             170   -0.0110 23.5 182 
 BAR2 EZ I         320 18.89         4.7 0.06            168           23.5 182 
 PAM  EZ EP     C  320  6.08                             149    0.4410 79.0  42 
 PAM  EN ES        320 22.51                             149    0.1510 79.0  42 
 PAM  EZ I         320 23.27         3.5 0.34            154           79.0  42 
 RUS  HZ EP        320  7.03                             142   -0.1710  101 174 
 RUS  HN ES        320 25.30                             142    0.1510  101 174 
 RUS  HZ I         320 26.33         3.6 0.36            144            101 174 
 PTB  HZ EP        320  9.68                             131   -0.55 9  145 258 
 PTB  HN ES        320 30.61                             131    0.08 9  145 258 
 PTB  HZ I         320 33.89         4.4 0.11            130            145 258 
 OCA  HZ EP        320 12.41                             128    0.62 9  159 354 
 OCA  HN ES        320 32.33                             128   -0.98 9  159 354 
 OCA  HZ I         320 36.48        10.0 0.42            130            159 354 
 SPBC HZ EP        320 11.41                             127   -0.52 9  162 218 
 SPBC HN ES   1    320 33.78                             127    0.23 7  162 218 
 SPBC HZ I         320 40.87         4.9 0.44            128            162 218 
 ZAR  HN ES        320 40.65                             121    0.22 9  201 292 
 ZAR  HZ I         320 46.93         2.9 0.18            121            201 292 
 NOR  HZ EP   1    320 18.94                             117   -0.28 6  232 234 
 NOR  HN ES        320 46.63                             117    0.10 8  232 234 
 NOR  HZ I         320 54.26         3.0 0.22            118            232 234 
 CHI  HZ EP        320 21.67                             115    0.25 8  248 194 
 CHI  HN ES        320 49.94                             115   -0.51 8  248 194 
 CHI  HZ I         320 53.96         1.2 0.27            117            248 194 
 HEL  HZ EP        320 24.12                             113    0.44 8  269 256 
 HEL  HN ES        320 54.74                             113    0.27 8  269 256 
 HEL  HZ I         321  2.35         2.1 0.24            114            269 256 
                                                                                
