 2017  918 0849 13.7 L   6.759 -73.105136.3  RSN  4 0.4 1.2LRSN                1
 GAP=144        0.99       6.1     8.5  8.7  0.7876E+01 -0.8166E+01  0.3593E+01E
 Epicentro: LOS SANTOS - SANTANDER                                             3
 ACTION:UPD 17-10-05 19:13 OP:rebc STATUS:               ID:20170918084913 L   I
 OLDACT:UP  17-09-18 17:46 OP:leo  STATUS:               ID:20170918083743d    3
 OLDACT:DUP 17-09-18 17:37 OP:leo  STATUS:               ID:20170918083743d    3
 OLDACT:UP  17-09-18 17:17 OP:leo  STATUS:               ID:20170918083741     3
 OLDACT:UP  17-09-18 17:15 OP:leo  STATUS:               ID:20170918083741     3
 OLDACT:REG 17-09-18 14:26 OP:leo  STATUS:               ID:20170918083741     3
 2017-09-18-0838-00M.COL___423                                                 6
 STAT SP IPHASW D HRMM SECON CODA AMPLIT PERI AZIMU VELO AIN AR TRES W  DIS CAZ7
 BAR2 EZ EP        849 31.95                             171   -0.2310 20.3 205 
 BAR2 EZ ES        849 45.92                             171   -0.6410 20.3 205 
 BAR2 EZ I         849 49.42         4.5 0.36            172           20.3 205 
 BRR  HZ EP        849 33.88                             149   -0.3810 77.3 300 
 BRR  HN ES        849 50.73                             149    0.4710 77.3 300 
 BRR  HZ I         849 51.84         3.1 0.44            153           77.3 300 
 PAM  EZ EP   1    849 35.06                             149    0.04 7 78.3  35 
 PAM  EN ES   1    849 51.93                             149    0.32 7 78.3  35 
 PAM  EZ I         849 54.10         3.0 0.30            151           78.3  35 
 RUS  HZ EP        849 36.54                             143    0.3110 95.8 179 
 RUS  HN ES   1    849 54.22                             143    0.46 7 95.8 179 
 RUS  HZ I         849 56.38         1.9 0.34            146           95.8 179 
                                                                                
