 2010 1118 1305 51.1 L   6.754 -73.055146.6  RSN  5 0.2 1.8LRSN                1
 GAP=169        0.74       4.7     8.0  7.7 -0.1412E+01 -0.2496E+02 -0.1677E+01E
 Epicentro: LOS SANTOS - SANTANDER                                             3
 ACTION:UP  10-12-17 16:53 OP:REBC STATUS:               ID:20101118130551 L   I
 2010-11-18-1304-07S.COL___129                                                 6
 STAT SP IPHASW D HRMM SECON CODA AMPLIT PERI AZIMU VELO SNR AR TRES W  DIS CAZ7
 BAR2 SZ EP       13 6 10.72                             171    -0.110   23 218 
 BAR2 SZ ES   1   13 6 26.09                             171    -0.1 7   23 218 
 BAR2 SZ I        13 6 26.91        19.6 1.32                            23 218 
 BTL  SZ EP       13 6 11.48                             168     0.510   30 308 
 BRR  HZ EP       13 6 12.61                             149    -0.410   82 298 
 BRR  HZ I        13 6 12.90        16.9 0.22                            82 298 
 BRR  HN ES       13 6 30.09                             149     0.010   82 298 
 RUS  HZ EP   1   13 6 14.47                             145     0.0 7   95 182 
 RUS  HN ES   2   13 6 32.65                             145    -0.2 5   95 182 
 RUS  HZ I        13 6 35.00         3.4 0.08                            95 182 
 GRA  SZ EP       13 6 16.54                             137     0.010  128  13 
 GRA  SZ ES   1   13 6 36.36                             137    -0.1 7  128  13 
 GRA  SZ I        13 6 37.96         8.5 1.14                           128  13 
                                                                                
