 2014  418 1623  5.9 L   6.793 -73.178151.7  RSN  9 0.5 2.0LRSN                1
 GAP=133        1.22       3.9     5.5  9.0 -0.5837E+01  0.1087E+02 -0.1615E+01E
 Epicentro: LOS SANTOS - SANTANDER                                             3
 ACTION:UPD 14-05-13 23:09 OP:nd   STATUS:               ID:20140418162305 L   I
 OLDACT:REG 14-04-18 21:43 OP:stll STATUS:               ID:20140418161819     3
 2014-04-18-1618-19M.COL___242                                                 6
 STAT SP IPHASW D HRMM SECON CODA AMPLIT PERI AZIMU VELO AIN AR TRES W  DIS CAZ7
 BRR  HZ EP       1623 28.01                             154    0.5110 68.5 301 
 BRR  HN ES       1623 45.27                             154    0.8910 68.5 301 
 BRR  HZ I        1623 48.37        10.3 0.44            151           68.5 301 
 PAM  SZ EP       1623 28.93                             151    0.0610 80.3  41 
 PAM  SZ I        1623 29.22        18.9 0.24            151           80.3  41 
 PAM  SN ES       1623 46.01                             151   -0.8210 80.3  41 
 RUS  HZ EP       1623 30.33                             145    0.1710  100 174 
 RUS  HE ES       1623 49.35                             145    0.2310  100 174 
 PTB  HZ EP       1623 33.33                             134    0.35 9  144 259 
 PTB  HN ES       1623 54.13                             134   -0.02 9  144 259 
 PTB  HZ I        1623 56.31         5.3 0.20            134            144 259 
 PTB  HN I        1623 59.65        20.0 0.32                           144 259 
 SPBC HN ES       1623 56.22                             131   -0.71 9  160 218 
 NOR  HE ES       1624  9.12                             120   -0.32 8  231 234 
 SML  HZ EP       1623 42.89                             119    0.15 8  243 336 
 SML  HN ES       1624 10.86                             119   -0.65 8  243 336 
 SML  HZ I        1624 20.17         9.3 0.26            119            243 336 
 CHI  HN ES       1624 13.36                             119    0.13 8  247 194 
 GUY2CHN ES       1624 22.71                             114   -0.59 7  298 234 
                                                                                
