 2010  818 1742 50.1 L   6.845 -73.291122.7  RSN  6 0.5 1.8LRSN                1
 GAP=134        1.13       8.0    17.5 11.6  0.1741E+02 -0.7185E+02 -0.2410E+02E
 Epicentro: ZAPATOCA - SANTANDER                                               3
 ACTION:UP  10-09-07 10:56 OP:vdl  STATUS:               ID:20100818174250 L   I
 2010-08-18-1741-04S.COL___116                                                 6
 STAT SP IPHASW D HRMM SECON CODA AMPLIT PERI AZIMU VELO SNR AR TRES W  DIS CAZ7
 BTL  SZ EP       1743  7.63                             176     0.910    9  18 
 BTL  SZ ES   2   1743 20.26                             176     0.6 5    9  18 
 BAR2 SZ EP       1743  7.07                             165    -0.110   30 157 
 BAR2 SZ ES   1   1743 20.01                             165    -0.5 7   30 157 
 BAR2 SZ I        1743 21.22        38.2 0.31                            30 157 
 BRR  HZ EP   1   1743  7.72                             154    -0.1 7   55 302 
 BRR  HE ES   2   1743 21.15                             154    -0.5 5   55 302 
 BRR  HZ I        1743 27.01        11.7 0.55                            55 302 
 RUS  HZ EP       1743 12.09                             136    -0.210  108 168 
 RUS  HN ES   3   1743 29.35                             136    -0.2 2  108 168 
 GUE  SZ EP       1743 12.27                             134    -0.510  116  20 
 GRA  SZ EP   1   1743 13.66                             131     0.2 7  127  25 
 GRA  SZ I        1743 34.28         5.0 0.67                           127  25 
                                                                                
