 2017 1118 1917 12.9 L   6.846 -73.163139.2  RSN 19 0.5 2.6LRSN                1
 GAP= 63        1.07       2.6     3.1  5.5 -0.1531E+01  0.4872E+01 -0.2790E+01E
 Epicentro: LOS SANTOS - SANTANDER                                             3
 ACTION:UPD 17-12-12 19:57 OP:rebc STATUS:               ID:20171118191712 L   I
 OLDACT:REG 17-11-18 20:54 OP:lv   STATUS:               ID:20171118190109     3
 2017-11-18-1908-00M.COL___456                                                 6
 STAT SP IPHASW D HRMM SECON CODA AMPLIT PERI AZIMU VELO AIN AR TRES W  DIS CAZ7
 BAR2 EZ EP       1917 31.85                             168    0.0410 28.1 184 
 BAR2 EZ ES       1917 45.93                             168   -0.6610 28.1 184 
 BAR2 EZ I        1917 47.71       106.2 0.34            166           28.1 184 
 PAM  EZ IP     D 1917 34.59                             150    0.3710 74.9  43 
 PAM  EN ES       1917 51.54                             150    0.6510 74.9  43 
 PAM  EZ I        1917 53.38        84.9 0.70            154           74.9  43 
 PTB  HZ EP       1917 38.80                             131   -0.42 9  147 257 
 PTB  HN ES       1917 59.65                             131   -0.13 9  147 257 
 PTB  HZ I        1918  2.09        35.5 0.18            130            147 257 
 TAM  HZ IP     D 1917 40.24                             128   -0.09 9  158 107 
 TAM  HN ES       1918  1.48                             128   -0.28 9  158 107 
 SPBC HN ES       1918  3.85                             127    0.67 9  166 217 
 YPLC HZ EP       1917 42.42                             124   -0.30 9  182 152 
 YPLC HN ES       1918  6.21                             124    0.20 9  182 152 
 YPLC HZ I        1918  9.90        23.9 0.28            125            182 152 
 ZAR  HZ EP       1917 45.08                             121    0.58 9  200 291 
 ZAR  HN ES   4   1918 10.09                             121    0.91 0  200 291 
 ZAR  HZ I        1918 15.20        54.8 0.40            122            200 291 
 NOR  HZ EP       1917 48.41                             117    0.05 8  236 233 
 NOR  HN ES       1918 16.03                             117   -0.03 8  236 233 
 NOR  HZ I        1918 22.01        29.7 0.16            117            236 233 
 CHI  HZ EP       1917 50.72                             115    0.04 8  253 194 
 CHI  HN ES       1918 19.80                             115   -0.38 8  253 194 
 CHI  HZ I        1918 26.68        15.8 0.50            116            253 194 
 ROSC BZ EP   9   1917 52.83                             115    1.83 0  256 210 
 ROSC BN ES       1918 23.40                                    0.82 8  256 210 
 ROSC BZ I        1918 27.26        29.0 0.35            115            256 210 
 URE  HZ EP       1917 52.71                             113   -0.49 7  280 291 
 URE  HN ES   4   1918 23.39                             113   -1.28 0  280 291 
 URE  HZ I        1918 27.91        32.7 0.12            113            280 291 
 DRL03HZ EP       1917 54.22                             112    0.65 7  284 353 
 DRL03HN ES       1918 24.82                             112   -0.50 7  284 353 
 GUY2CHZ EP   4   1917 57.52                             111    1.20 0  303 234 
 GUY2CHN ES       1918 29.99                             111   -0.24 7  303 234 
 GUY2CHZ I        1918 38.21        21.0 0.30                           303 234 
 PTGC HZ EP   9   1917 55.22                             110   -1.83 0  314 159 
 PTGC HN ES       1918 28.87                                   -0.82 7  314 159 
 PTGC HZ I        1918 31.18        15.9 0.42            111            314 159 
 LL6C HZ EP       1917 57.35                             110   -0.35 7  320 358 
 LL6C HE ES   4   1918 30.86                             110   -1.81 0  320 358 
 LL6C HZ I        1918 34.49         7.3 0.40            111            320 358 
 ARGC HZ EP       1918  0.67                             107   -0.97 6  354 340 
 ARGC HE ES       1918 40.16                             107    0.47 6  354 340 
 PRA  HZ EP   9   1918  6.26                             105   -0.30 0  395 209 
 PRA  HE ES       1918 47.61                                   -0.54 6  395 209 
 PRA  HZ I        1918 53.68        12.6 0.32            106            395 209 
 ORTC HZ EP       1918  7.76                             105    0.85 6  398 216 
 ORTC HN ES       1918 49.26                             105    0.20 6  398 216 
 ORTC HZ I        1918 54.34         8.5 0.66            106            398 216 
 SJC  HZ EP   4   1918  6.27                             105   -1.31 0  404 327 
 SJC  HN ES   4   1918 47.75                             105   -2.52 0  404 327 
 SJC  HZ I        1918 51.41         8.1 0.48            106            404 327 
 CRJC HZ EP   4   1918 12.44                             102   -2.15 0  463   4 
 CRJC HN ES   4   1918 57.61                             102   -5.14 0  463   4 
 CAP2 HN ES   4   1919  5.81                             101   -5.50 0  504 294 
                                                                                
