 2010  618 1855 14.5 L   6.789 -73.082146.3  RSN  9 0.3 2.2LRSN                1
 GAP=163        0.58       2.9     6.5  5.5 -0.7215E+01  0.2992E+01  0.1215E+01E
 Epicentro: LOS SANTOS - SANTANDER                                             3
 ACTION:UP  10-08-24 10:11 OP:vdl  STATUS:               ID:20100618185514 L   I
 2010-06-18-1853-50S.COL___118                                                 6
 STAT SP IPHASW D HRMM SECON CODA AMPLIT PERI AZIMU VELO SNR AR TRES W  DIS CAZ7
 BAR2 SZ EP   1   1855 34.02                             170    -0.2 8   25 207 
 BAR2 SZ ES   2   1855 49.16                             170    -0.4 5   25 207 
 BRR  HZ EP   1   1855 35.98                             150    -0.1 8   78 297 
 BRR  HE ES   2   1855 53.38                             150     0.5 5   78 297 
 BRR  HZ I        1855 55.74        37.6 0.12                            78 297 
 RUS  HZ EP   1   1855 37.97                             144    -0.2 8   99 180 
 RUS  HN ES   2   1855 56.42                             144    -0.2 5   99 180 
 RUS  HZ I        1855 58.03        19.7 0.32                            99 180 
 BRI  SZ EP   1   1855 38.57                             142     0.3 8  107  17 
 BRI  SZ ES   2   1855 57.20                             142     0.3 5  107  17 
 GUE  SZ EP   1   1855 39.07                             139    -0.1 8  116   9 
 GUE  SZ ES   2   1855 58.51                             139     0.0 5  116   9 
 GRA  SZ IP       1855 39.85                             137     0.210  125  14 
 GRA  SZ ES   2   1855 59.35                             137     0.0 5  125  14 
 OCA  SZ EP   1   1855 43.05                             129     0.0 7  162 351 
 OCA  SZ ES   2   1856  4.80                             129    -0.5 5  162 351 
 CHI  HZ EP   1   1855 52.00                             117    -0.3 6  249 197 
 CHI  HN ES   2   1856 23.04                             117     1.3 4  249 197 
 CHI  HZ I        1856 27.11        11.5 0.35                           249 197 
 HEL  HZ EP   1   1855 55.31                             114    -0.1 6  279 256 
 HEL  HZ I        1856 32.34        10.3 0.23                           279 256 
                                                                                
