 2012  818 1000 10.6 L   6.797 -73.132146.3  RSN  7 0.3 2.1LRSN                1
 GAP=138        0.64       3.5     3.8  5.4 -0.3513E+00  0.3999E+01 -0.2006E+01E
 Epicentro: LOS SANTOS - SANTANDER                                             3
 ACTION:UPD 12-09-10 11:57 OP:ep   STATUS:               ID:20120818100010 L   I
 2012-08-18-1000-00M.COL___217                                                 6
 STAT SP IPHASW D HRMM SECON CODA AMPLIT PERI AZIMU VELO AIN AR TRES W  DIS CAZ7
 BAR2 SZ EP       10 0 30.38                             171    0.0510 23.4 194 
 BAR2 SZ I        10 0 30.68        25.8 0.10                          23.4 194 
 BAR2 SZ ES   1   10 0 45.78                             171    0.09 7 23.4 194 
 BRR  HZ EP       10 0 32.14                             152    0.2210 72.7 298 
 BRR  HN ES   1   10 0 48.78                             152    0.25 7 72.7 298 
 BRR  HZ I        10 0 52.66        25.8 0.12                          72.7 298 
 PAM  SZ EP       10 0 33.14                             151    0.2810 76.6  38 
 PAM  SZ I        10 0 33.58        44.8 0.22                          76.6  38 
 PAM  SN ES   1   10 0 49.83                             151   -0.36 7 76.6  38 
 RUS  HZ EP       10 0 34.37                             144   -0.0410  100 177 
 RUS  HE ES   1   10 0 52.76                             144   -0.19 7  100 177 
 RUS  HZ I        10 0 54.59        11.8 0.32                           100 177 
 OCA  HZ EP   1   10 0 38.32                             130   -0.71 7  161 353 
 OCA  HZ I        10 1  3.46        22.9 0.14                           161 353 
 ZAR  HZ EP   1   10 0 43.65                             122    0.38 6  206 292 
 ZAR  HE ES   1   10 1  8.47                             122   -0.26 6  206 292 
 ZAR  HZ I        10 1 14.84        18.2 0.39                           206 292 
 NOR  SN ES   1   10 1 14.17                             118   -0.32 6  236 235 
 NOR  SZ I        10 1 20.88         4.1 0.13                           236 235 
                                                                                
