 2014  718 1124 52.8 L   6.497 -73.498117.6  RSN  5 0.5 2.0LRSN                1
 GAP=127        1.32       7.5     9.4 12.6  0.3297E+02  0.5933E+02 -0.1559E+02E
 Epicentro: SIMACOTA - SANTANDER                                               3
 ACTION:UPD 15-03-16 20:44 OP:nd   STATUS:               ID:20140718112453 L   I
 OLDACT:UP  14-07-29 06:38 OP:FM   STATUS:               ID:20140718112453 L   3
 OLDACT:REG 14-07-18 21:05 OP:stll STATUS:               ID:20140718111820     3
 2014-07-18-1118-20M.COL___260                                                 6
 STAT SP IPHASW D HRMM SECON CODA AMPLIT PERI AZIMU VELO AIN AR TRES W  DIS CAZ7
 BAR2 SZ IP     D 1125  9.88                             161    0.3610 36.4  73 
 BAR2 SZ ES       1125 22.15                             161   -0.3810 36.4  73 
 RUS  HZ EP       1125 12.84                             143    0.4210 81.1 146 
 RUS  HN ES       1125 27.86                             143    0.1710 81.1 146 
 RUS  HZ I        1125 31.60         9.0 0.68            147           81.1 146 
 PTB  HZ IP       1125 12.67                             135   -1.1010  106 273 
 PTB  HZ I        1125 12.90        16.9 0.18            138            106 273 
 PTB  HN ES   4   1125 27.56                             135   -2.52 0  106 273 
 ZAR  HZ EP       1125 21.94                             118    0.25 9  186 306 
 ZAR  HE ES       1125 44.98                             118    0.79 9  186 306 
 ZAR  HZ I        1125 46.84        13.4 0.52            120            186 306 
 SML  HZ EP       1125 29.90                             109   -0.32 8  263 346 
 SML  HN ES       1125 59.22                             109   -0.16 8  263 346 
 SML  HZ I        1126  4.31        14.2 0.10            111            263 346 
                                                                                
