 2015  118 1053  3.9 L   6.804 -73.159141.6  RSN 13 0.4 2.1LRSN                1
 GAP= 70        0.98       2.5     3.6  5.3 -0.8659E+00  0.3181E+01  0.1312E+01E
 Epicentro: LOS SANTOS - SANTANDER                                             3
 ACTION:UPD 15-03-02 15:40 OP:nd   STATUS:               ID:20150118105303 L   I
 OLDACT:UP  15-01-18 22:51 OP:mh   STATUS:               ID:20150118104743     3
 OLDACT:REG 15-01-18 21:11 OP:mh   STATUS:               ID:20150118104743     3
 2015-01-18-1047-43M.COL___261                                                 6
 STAT SP IPHASW D HRMM SECON CODA AMPLIT PERI AZIMU VELO AIN AR TRES W  DIS CAZ7
 BAR2 EZ EP       1053 22.95                             170   -0.1210 23.5 186 
 BAR2 EZ ES       1053 37.95                             170   -0.0410 23.5 186 
 BAR2 EZ I        1053 39.24        25.4 0.20            168           23.5 186 
 BRR  HZ EP   1   1053 25.07                             152    0.52 7 69.7 299 
 BRR  HN ES       1053 41.19                             152    0.5610 69.7 299 
 BRR  HZ I        1053 43.92        18.6 0.48            149           69.7 299 
 PAM  SZ EP       1053 25.99                             150    0.2410 78.0  41 
 PAM  SN ES       1053 42.78                             150    0.0210 78.0  41 
 PAM  SZ I        1053 45.17        15.6 0.46            153           78.0  41 
 RUS  HZ EP       1053 27.25                             143   -0.0710  101 175 
 RUS  HN ES       1053 45.31                             143   -0.2510  101 175 
 RUS  HZ I        1053 46.85        11.1 0.24            143            101 175 
 PTB  HZ EP       1053 29.63                             131   -0.81 9  146 259 
 PTB  HN ES       1053 50.80                             131   -0.31 9  146 259 
 PTB  HZ I        1053 52.23        11.7 0.26            129            146 259 
 TAM  HZ EP   1   1053 31.50                             129    0.06 7  157 105 
 TAM  HN ES   4   1053 49.27                             129   -3.62 0  157 105 
 TAM  HZ I        1053 50.99        15.8 0.28            133            157 105 
 OCA  HZ EP       1053 31.98                             129    0.10 9  160 354 
 OCA  HN ES       1053 53.72                             129    0.06 9  160 354 
 OCA  HZ I        1053 55.94        15.9 0.28            129            160 354 
 SPBC HZ EP       1053 32.15                             128    0.09 9  163 218 
 SPBC HN ES       1053 53.59                             128   -0.40 9  163 218 
 SPBC HZ I        1054  1.17        17.5 0.60            127            163 218 
 ZAR  HZ EP   1   1053 36.74                             122    0.78 6  202 292 
 ZAR  HN ES       1054  1.26                             122    0.33 9  202 292 
 ZAR  HZ I        1054  9.69        11.7 0.34            120            202 292 
 NOR  HZ EP   1   1053 38.92                             118   -0.41 6  234 234 
 NOR  HN ES   2   1054  6.34                             118   -0.58 4  234 234 
 NOR  HZ I        1054 12.87         9.3 0.16            117            234 234 
 SML  HZ EP   4   1053 39.03                             117   -1.20 0  243 336 
 SML  HN ES       1054  7.62                             117   -0.91 8  243 336 
 SML  HZ I        1054 15.87        15.0 0.26            117            243 336 
 CHI  HZ EP       1053 41.54                             116    0.13 8  249 195 
 CHI  HN ES       1054 10.96                             116    0.32 8  249 195 
 CHI  HZ I        1054 17.85         4.6 0.42            116            249 195 
 TOL  SZ EP   4   1053 53.18                             109    1.24 0  343 224 
 TOL  SE ES       1054 30.39                             109    1.01 7  343 224 
 TOL  SZ I        1054 36.92        13.9 0.34            108            343 224 
                                                                                
