 2012 1018 1951 30.8 L   6.750 -73.116140.6  RSN  6 0.1 1.7LRSN                1
 GAP=143        0.36       2.4     2.7  3.5  0.1133E+01  0.1266E+01  0.2055E+00E
 Epicentro: LOS SANTOS - SANTANDER                                             3
 ACTION:UPD 12-11-22 17:04 OP:ep   STATUS:               ID:20121018195130 L   I
 2012-10-18-1950-00M.COL___230                                                 6
 STAT SP IPHASW D HRMM SECON CODA AMPLIT PERI AZIMU VELO AIN AR TRES W  DIS CAZ7
 BAR2 SZ ES   1   1952  4.65                             172    0.14 7 18.9 203 
 BAR2 SZ I        1952  5.86        14.9 0.16                          18.9 203 
 GIR2 SZ EP   1   1951 49.90                             164   -0.17 7 37.4 347 
 GIR2 SZ ES   1   1952  5.15                             164    0.07 7 37.4 347 
 BRR  HZ EP   1   1951 51.82                             150    0.07 7 76.8 301 
 BRR  HZ I        1951 52.33         8.6 0.26                          76.8 301 
 BRR  HN ES   1   1952  8.19                             150    0.11 7 76.8 301 
 PAM  SZ EP   1   1951 52.77                             149    0.13 7 79.8  35 
 PAM  SZ I        1951 52.97        11.4 0.26                          79.8  35 
 PAM  SN ES   1   1952  9.49                             149   -0.17 7 79.8  35 
 RUS  HZ EP   1   1951 53.81                             144    0.15 7 94.9 178 
 RUS  HN ES   1   1952 11.27                             144   -0.20 7 94.9 178 
 RUS  HN I        1952 13.82         6.5 0.22                          94.9 178 
 ZAR  HN ES   1   1952 28.78                             120   -0.17 6  209 293 
                                                                                
