 2014  918 1510  2.7 L   6.781 -73.114151.0  RSN 18 0.4 2.3LRSN                1
 GAP=141        0.77       2.2     3.2  4.0 -0.7364E+00  0.3024E+01  0.5868E+00E
 Epicentro: LOS SANTOS - SANTANDER                                             3
 ACTION:UPD 14-10-03 23:06 OP:nd   STATUS:               ID:20140918151002 L   I
 OLDACT:REG 14-09-18 22:07 OP:spq  STATUS:               ID:20140918150817     3
 2014-09-18-1508-17M.COL___284                                                 6
 STAT SP IPHASW D HRMM SECON CODA AMPLIT PERI AZIMU VELO AIN AR TRES W  DIS CAZ7
 BAR2 SZ EP       1510 22.78                             171   -0.1810 22.2 200 
 BAR2 SZ ES   1   1510 38.15                             171   -0.59 7 22.2 200 
 BAR2 SZ I        1510 40.50        57.6 0.30            168           22.2 200 
 BRR  HZ IP     C 1510 24.64                             152   -0.0310 75.3 299 
 BRR  HN ES       1510 42.11                             152    0.3210 75.3 299 
 BRR  HZ I        1510 45.02        41.1 0.14            150           75.3 299 
 PAM  SZ EP     C 1510 25.55                             152    0.0810 76.9  37 
 PAM  SN ES       1510 43.14                             152   -0.0710 76.9  37 
 PAM  SZ I        1510 44.99        30.6 0.52            156           76.9  37 
 RUS  HZ EP       1510 26.83                             145    0.0010 98.3 178 
 RUS  HE ES       1510 45.74                             145    0.1110 98.3 178 
 RUS  HZ I        1510 48.25        13.1 0.22            146           98.3 178 
 PTB  HZ EP   1   1510 29.54                             133   -0.85 7  151 260 
 PTB  HE ES       1510 51.76                             133   -0.22 9  151 260 
 PTB  HZ I        1510 56.45        34.0 0.44            131            151 260 
 OCA  HZ EP       1510 31.40                             130   -0.28 9  163 352 
 OCA  HN ES       1510 55.12                             130    0.85 9  163 352 
 OCA  HZ I        1510 57.89        25.2 0.24            132            163 352 
 SPBC HZ EP       1510 31.67                             130   -0.01 9  164 220 
 SPBC HE ES       1510 54.20                             130   -0.07 9  164 220 
 SPBC HZ I        1510 55.94        21.0 0.22            129            164 220 
 ZAR  HZ EP       1510 35.95                             123    0.02 8  208 292 
 ZAR  HN ES       1511  1.77                             123   -0.06 8  208 292 
 ZAR  HZ I        1511  6.34        26.7 0.34            123            208 292 
 SML  HZ EP       1510 39.78                             118   -0.23 8  247 335 
 SML  HE ES   1   1511  8.39                             118   -0.71 6  247 335 
 SML  HZ I        1511 14.62        23.7 0.26            119            247 335 
 CHI  HZ EP   1   1510 41.04                             118    0.45 6  248 196 
 CHI  HE ES   1   1511 10.66                             118    0.53 6  248 196 
 CHI  HZ I        1511 19.81         8.2 0.30            119            248 196 
 HEL  HZ EP   1   1510 43.69                             115    0.17 6  275 256 
 HEL  HE ES   4   1511 17.94                             115    2.59 0  275 256 
 HEL  HZ I        1511 21.21        14.1 0.30            116            275 256 
 GUY2CHZ EP       1510 46.80                             113    0.04 7  303 235 
 GUY2CHE ES   4   1511 23.67                             113    2.56 0  303 235 
 GUY2CHZ I        1511 31.46         8.5 0.52                           303 235 
 CBOC HZ EP   1   1510 50.69                             111    0.53 5  336 253 
 CBOC HN ES   1   1511 27.83                             111    0.66 5  336 253 
 TOL  SZ EP   4   1510 52.73                             110    1.43 0  344 225 
 TOL  SE ES   4   1511 32.05                             110    2.86 0  344 225 
 TOL  SZ I        1511 33.94        14.1 0.38            111            344 225 
 ANIL HN ES   4   1511 34.31                             109    2.38 0  358 225 
 ANIL HZ I        1511 39.27         2.4 0.35            110            358 225 
 PRA  HZ EP       1510 56.55                             107    0.14 6  392 210 
 PRA  HE ES   4   1511 39.57                             107    1.28 0  392 210 
 PRA  HZ I        1511 42.26        10.9 0.52            108            392 210 
 ORTC HZ EP       1510 56.76                             107   -0.11 6  396 217 
 ORTC HE ES   4   1511 41.71                             107    2.61 0  396 217 
 ORTC HZ I        1511 46.22         5.8 0.66            108            396 217 
 SJC  HZ EP   4   1510 56.97                             106   -1.92 0  413 327 
 SJC  HN ES   4   1511 38.31                             106   -4.40 0  413 327 
 SJC  HZ I        1511 42.51         3.7 0.42            107            413 327 
                                                                                
