 2016  718 1520 47.8 L   6.835 -73.155137.8  RSN 13 0.5 2.1LRSN                1
 GAP=134        1.23       4.4     5.1  6.8 -0.2756E+01  0.1546E+02  0.5426E+01E
 Epicentro: LOS SANTOS - SANTANDER                                             3
 ACTION:UPD 17-03-29 16:52 OP:lp   STATUS:               ID:20160718152047 L   I
 OLDACT:REG 16-07-18 20:33 OP:lv   STATUS:               ID:20160718151759     3
 2016-07-18-1517-59S.COL___310                                                 6
 STAT SP IPHASW D HRMM SECON CODA AMPLIT PERI AZIMU VELO AIN AR TRES W  DIS CAZ7
 BAR2 EZ IP     C 1521  6.24                             168   -0.2810 27.0 186 
 BAR2 EZ ES       1521 20.97                             168   -0.1710 27.0 186 
 BAR2 EZ I        1521 22.73        40.3 0.20            165           27.0 186 
 BRR  HZ IP     C 1521  8.03                             152    0.1310 68.5 296 
 BRR  HZ ES       1521 22.66                             152   -0.9410 68.5 296 
 BRR  HZ I        1521 25.80        28.2 0.14            148           68.5 296 
 PAM  EZ EP       1521  9.12                             150    0.1210 75.2  42 
 PAM  EE ES       1521 26.29                             150    0.7310 75.2  42 
 PAM  EZ I        1521 28.69        23.4 0.45            157           75.2  42 
 RUS  HZ EP       1521 10.26                             141   -0.7710  104 176 
 RUS  HN ES       1521 29.57                             141    0.3910  104 176 
 RUS  HZ I        1521 30.00        16.3 0.18            143            104 176 
 SPBC HZ EP       1521 15.40                             127   -0.49 9  166 218 
 SPBC HN ES       1521 38.36                             127    0.53 9  166 218 
 SPBC HZ I        1521 45.55        22.2 0.13            127            166 218 
 ZAR  HZ EP       1521 19.06                             121   -0.39 9  202 291 
 ZAR  HE ES       1521 44.64                             121    0.48 9  202 291 
 ZAR  HZ I        1521 51.50        13.3 0.30            121            202 291 
 NOR  HZ EP       1521 22.99                             116   -0.20 8  236 234 
 NOR  HE ES       1521 50.61                             116   -0.22 8  236 234 
 NOR  HZ I        1521 56.39        13.8 0.16            117            236 234 
 CHI  HZ EP   4   1521 23.80                             115   -1.61 0  252 195 
 CHI  HN ES   2   1521 55.62                             115    0.85 4  252 195 
 CHI  HZ I        1521 57.00         4.5 0.31            117            252 195 
 HEL  HZ EP       1521 28.49                             113    0.92 8  272 255 
 HEL  HN ES   4   1521 59.88                             113    1.25 0  272 255 
 HEL  HZ I        1522  6.63         8.0 0.31            114            272 255 
 GUY2CHZ EP       1521 31.83                             111    0.66 7  303 234 
 GUY2CHN ES   4   1522  8.21                             111    3.18 0  303 234 
 GUY2CHZ I        1522 15.70         8.3 0.45                           303 234 
 ELA  HZ EP   4   1521 36.93                             109    2.44 0  331 229 
 ELA  HN ES       1522 11.57                             109    0.64 7  331 229 
 ELA  HZ I        1522 20.02         6.6 0.32            110            331 229 
 CBOC HZ EP       1521 34.73                             108    0.35 7  334 251 
 CBOC HN ES       1522 10.57                             108   -0.17 7  334 251 
 CBOC HZ I        1522 19.76         3.0 0.26            109            334 251 
 PRA  HZ EP       1521 40.37                             105   -0.98 6  395 209 
 PRA  HE ES       1522 22.93                             105   -0.22 6  395 209 
 PRA  HZ I        1522 29.33         8.6 0.37            106            395 209 
                                                                                
