 2017 1218 1501  2.5 L   6.785 -73.160142.0  RSN  6 0.6 2.0LRSN                1
 GAP=147        0.86       6.1     4.3  6.8 -0.6243E+01  0.1166E+02  0.6747E+00E
 Epicentro: LOS SANTOS - SANTANDER                                             3
 ACTION:UPD 18-01-04 13:21 OP:rebc STATUS:               ID:20171218150102 L   I
 OLDACT:UP  17-12-18 22:32 OP:dani STATUS:               ID:20171218144956     3
 OLDACT:REG 17-12-18 20:39 OP:dani STATUS:               ID:20171218144956     3
 2017-12-18-1458-00M.COL___448                                                 6
 STAT SP IPHASW D HRMM SECON CODA AMPLIT PERI AZIMU VELO AIN AR TRES W  DIS CAZ7
 BAR2 EZ EP       15 1 21.52                             171   -0.0810 21.4 187 
 BAR2 EZ ES       15 1 36.70                             171    0.1710 21.4 187 
 BAR2 EZ I        15 1 39.40        29.7 0.36             47           21.4 187 
 PAM  EZ EP       15 1 24.31                             149   -0.1110 79.7  40 
 PAM  EN ES       15 1 41.62                             149    0.0710 79.7  40 
 PAM  EZ I        15 1 44.21        14.4 0.66             47           79.7  40 
 PTB  HZ EP       15 1 28.29                             131   -0.67 9  146 259 
 PTB  HN ES       15 1 49.50                             131   -0.13 9  146 259 
 PTB  HZ I        15 1 51.85         8.4 0.12             47            146 259 
 SPBC HZ EP       15 1 30.61                             129    0.15 9  161 219 
 SPBC HZ I        15 2  0.54        21.4 0.20             37            161 219 
 ZAR  HZ EP       15 1 34.97                             122    0.38 9  203 293 
 ZAR  HN ES       15 1 59.74                             122    0.10 9  203 293 
 GUY2CHZ EP   3   15 1 47.65                             112    2.00 2  299 235 
 GUY2CHE ES   3   15 2 22.79                             112    3.46 2  299 235 
 GUY2CHZ I        15 2 30.29         5.9 0.44                           299 235 
                                                                                
