 2013  418 1753 12.6 L   6.777 -73.160141.9  RSN  5 0.5 2.0LRSN                1
 GAP=136        1.29       6.8     6.6 11.3 -0.5975E+01  0.5324E+01  0.8676E+01E
 Epicentro: LOS SANTOS - SANTANDER                                             3
 ACTION:UPD 13-05-22 14:39 OP:EP   STATUS:               ID:20130418175312 L   I
 2013-04-18-1748-45M.COL___209                                                 6
 STAT SP IPHASW D HRMM SECON CODA AMPLIT PERI AZIMU VELO AIN AR TRES W  DIS CAZ7
 GIR2 SZ EP       1753 31.98                             166    0.1010 33.6 354 
 BRR  HZ EP       1753 33.81                             152    0.4910 71.1 301 
 BRR  HN ES       1753 50.22                             152    0.7410 71.1 301 
 BRR  HN I        1753 51.33        49.3 0.36            152           71.1 301 
 PAM  SZ EP       1753 34.85                             149    0.2610 80.4  39 
 PAM  SN ES       1753 50.93                             149   -0.8110 80.4  39 
 PAM  SN I        1753 53.08         7.7 0.56            152           80.4  39 
 RUS  HZ EP       1753 35.94                             144    0.1410 98.1 175 
 RUS  HN ES       1753 54.00                             144    0.1210 98.1 175 
 RUS  HN I        1753 55.36        14.3 0.26            145           98.1 175 
 PTB  HZ EP       1753 38.50                             131   -0.57 9  146 260 
 PTB  HN ES       1753 59.09                             131   -0.62 9  146 260 
 PTB  HN I        1754  2.71        13.3 0.20            133            146 260 
                                                                                
