 2014  318 1136 30.4 L   6.835 -73.151149.5  RSN 21 0.3 2.5LRSN                1
 GAP=125        0.68       1.7     2.5  3.5 -0.1237E+01  0.2411E+01 -0.9576E+00E
 Epicentro: LOS SANTOS - SANTANDER                                             3
 OLDACT:REG 14-03-18 15:00 OP:fm   STATUS:               ID:20140318112806     3
 ACTION:UPD 14-04-09 23:18 OP:nd   STATUS:               ID:20140318113630 L   I
 OLDACT:UP  14-03-18 18:46 OP:fm   STATUS:               ID:20140318112806     3
 2014-03-18-1128-06M.COL___226                                                 6
 STAT SP IPHASW D HRMM SECON CODA AMPLIT PERI AZIMU VELO AIN AR TRES W  DIS CAZ7
 BAR2 SZ EP       1136 50.66                             169    0.1110 27.1 187 
 BAR2 SZ ES       1137  6.03                             169   -0.2510 27.1 187 
 BAR2 SZ I        1137  7.26       127.8 0.14            167           27.1 187 
 PAM  SZ EP       1136 53.31                             152    0.4510 74.8  42 
 PAM  SN ES       1137 10.50                             152    0.1210 74.8  42 
 PAM  SZ I        1137 12.34        58.5 0.56            152           74.8  42 
 RUS  HZ EP       1136 54.91                             143    0.1210  105 176 
 RUS  HE ES       1137 13.88                             143    0.0510  105 176 
 RUS  SZ I        1137 14.38        26.8 0.30            141            105 176 
 PTB  HZ EP       1136 57.64                             133   -0.05 9  148 257 
 PTB  HE ES       1137 18.88                             133   -0.10 9  148 257 
 PTB  SZ I        1137 21.35        21.4 0.16            131            148 257 
 OCA  HZ EP       1136 58.07                             131   -0.56 9  156 353 
 OCA  HN ES       1137 20.75                             131    0.09 9  156 353 
 OCA  SZ I        1137 24.02        20.7 0.20            130            156 353 
 SPBC HZ EP       1136 59.50                             129    0.07 9  166 218 
 SPBC HN ES       1137 21.84                             129   -0.24 9  166 218 
 SPBC SZ I        1137 26.30        40.5 0.38            127            166 218 
 ZAR  HZ EP       1137  3.30                             123    0.42 9  202 291 
 ZAR  HN ES   1   1137 27.99                             123   -0.23 6  202 291 
 ZAR  SZ I        1137 31.03        19.2 0.16            122            202 291 
 NOR  HZ EP       1137  6.51                             119   -0.02 8  237 234 
 NOR  HE ES       1137 34.45                             119   -0.28 8  237 234 
 NOR  SZ I        1137 42.51        15.7 0.16            117            237 234 
 SML  HZ EP       1137  6.93                             119    0.11 8  240 335 
 SML  HE ES   4   1137 36.93                             119    1.69 0  240 335 
 SML  SZ I        1137 38.97        39.3 0.08            117            240 335 
 CHI  HZ EP       1137  8.83                             117    0.14 8  252 195 
 CHI  HE ES       1137 38.26                             117   -0.30 8  252 195 
 CHI  SZ I        1137 41.26        18.3 0.52            116            252 195 
 ROSC BZ EP   4   1137 11.46                             117    2.41 0  256 210 
 ROSC BN ES   4   1137 41.40                             117    2.20 0  256 210 
 ROSC SZ I        1137 44.28        34.1 0.40            115            256 210 
 HEL  HZ EP   4   1137 12.86                             115    2.02 0  272 255 
 HEL  HN ES       1137 42.88                             115    0.48 8  272 255 
 HEL  SZ I        1137 48.57         9.8 0.34            114            272 255 
 URE  HZ EP       1137 11.32                             114   -0.11 7  282 291 
 URE  HN ES   4   1137 42.17                             114   -1.26 0  282 291 
 URE  SZ I        1137 46.23        11.4 0.14            113            282 291 
 GUY2CHZ EP   4   1137 15.93                             113    1.55 0  303 234 
 GUY2CHE ES   4   1137 52.00                             113    3.32 0  303 234 
 GUY2CSZ I        1137 54.85         8.2 0.38                           303 234 
 VIL  SZ EP   2   1137 14.51                             112    0.11 4  307 191 
 VIL  SN ES       1137 48.82                             112    0.10 7  307 191 
 VIL  SZ I        1137 58.32        24.6 0.40            111            307 191 
 PTGC HZ EP   4   1137 13.78                             112   -1.07 0  313 159 
 PTGC HN ES   4   1137 47.44                             112   -2.09 0  313 159 
 PTGC SZ I        1138  2.18        23.1 0.38            111            313 159 
 CBOC HZ EP   4   1137 18.98                             110    1.44 0  334 251 
 CBOC HN ES   4   1137 49.11                             110   -5.20 0  334 251 
 CBOC SZ I        1137 58.15         6.6 0.80            109            334 251 
 COD  HZ EP   1   1137 18.11                             110   -0.36 5  344 355 
 COD  HN ES   1   1137 56.87                             110    0.91 5  344 355 
 COD  SZ I        1138  5.23        12.3 3.32            109            344 355 
 SDV  BZ EP       1137 19.93                             109   -0.41 6  358  51 
 SDV  BN ES   4   1137 56.93                             109   -2.37 0  358  51 
 ORTC HN ES   2   1138  8.37                             107    1.19 3  398 216 
 SJC  HZ EP       1137 24.87                             106   -0.79 6  406 327 
 SJC  HN ES   4   1138  3.38                             106   -5.39 0  406 327 
 SJC  SZ I        1138 13.18         6.5 1.68            105            406 327 
                                                                                
