 2017  518 1646 34.8 L   6.802 -73.137151.2  RSN 16 0.4 2.5LRSN                1
 GAP=113        0.98       3.5     3.4  6.1 -0.9725E-01  0.3428E+01  0.5876E+01E
 Epicentro: LOS SANTOS - SANTANDER                                             3
 ACTION:UPD 17-06-16 13:37 OP:jn   STATUS:               ID:20170518164634 L   I
 OLDACT:DUP 17-05-18 22:50 OP:lv   STATUS:               ID:20170518163611d    3
 2017-05-18-1638-00M.COL___356                                                 6
 STAT SP IPHASW D HRMM SECON CODA AMPLIT PERI AZIMU VELO AIN AR TRES W  DIS CAZ7
 BRR  HZ IP     D 1646 56.70                             153    0.1410 71.9 298 
 BRR  HN ES       1647 14.14                             153    0.6010 71.9 298 
 BRR  HZ I        1647 15.30        53.6 0.07            152           71.9 298 
 PAM  EZ EP       1646 57.58                             152    0.0510 76.6  39 
 PAM  EN ES       1647 14.95                             152   -0.3210 76.6  39 
 PAM  EZ I        1647 17.41        38.8 0.27            157           76.6  39 
 PTB  HZ EP       1647  1.51                             133   -0.78 9  149 259 
 PTB  HN ES       1647 23.07                             133   -0.67 9  149 259 
 SPBC HZ EP       1647  3.69                             130   -0.09 9  164 219 
 SPBC HN ES       1647 25.76                             130   -0.63 9  164 219 
 SPBC HZ I        1647 27.94        54.9 0.26            130            164 219 
 YPLC HZ EP       1647  4.93                             128   -0.02 9  177 152 
 YPLC HN ES       1647 28.94                             128    0.45 9  177 152 
 YPLC HZ I        1647 30.30        17.8 0.09            129            177 152 
 ZAR  HZ EP       1647  7.37                             123   -0.30 9  205 292 
 ZAR  HN ES       1647 33.91                             123    0.60 9  205 292 
 ZAR  HZ I        1647 39.41        45.5 0.23            124            205 292 
 TABC EZ EP   4   1647 12.39                             120    1.45 0  231 211 
 TABC EZ ES       1647 39.35                             120    0.22 8  231 211 
 TABC EZ I        1647 45.64        27.0 0.49            121            231 211 
 NOR  HZ EP       1647 10.98                             119    0.05 8  236 235 
 NOR  HN ES   4   1647 37.26                             119   -1.87 0  236 235 
 NOR  HZ I        1647 42.15        15.2 0.32            120            236 235 
 ROSC BZ EP   9   1647 14.54                             118    1.26 0  253 211 
 ROSC BN ES       1647 44.30                                   -0.27 8  253 211 
 ROSC BZ I        1647 50.73        26.6 0.29            118            253 211 
 HEL  HZ EP   4   1647 16.63                             116    1.24 0  273 256 
 HEL  HN ES       1647 47.39                             116    0.34 8  273 256 
 HEL  HZ I        1647 54.61        15.5 0.34            116            273 256 
 PTGC HZ EP   4   1647 17.64                             112   -1.24 0  309 159 
 PTGC HN ES   4   1647 50.88                             112   -2.39 0  309 159 
 PTGC HZ I        1647 51.94        17.2 0.23            114            309 159 
 CBOC HZ EP   4   1647 23.13                             111    1.09 0  335 252 
 CBOC HN ES   4   1647 56.58                             111   -2.32 0  335 252 
 CBOC HZ I        1648  3.44         6.0 0.22            111            335 252 
 DBB  EZ EP       1647 22.82                             110    0.23 7  340 274 
 DBB  EN ES   4   1647 57.86                             110   -2.02 0  340 274 
 DBB  EZ I        1648  1.54        12.4 0.34            111            340 274 
 ORTC HZ EP       1647 29.05                             107    0.07 6  396 216 
 ORTC HN ES       1648 11.92                             107    0.66 6  396 216 
 ORTC HZ I        1648 19.36        23.0 0.04            108            396 216 
 PAL  HZ EP       1647 30.58                             107    0.34 6  407 239 
 VALLCHZ EP   4   1647 32.14                             106    1.56 0  410 358 
 VALLCHN ES   4   1648 12.56                             106   -1.54 0  410 358 
 SJC  HZ EP   4   1647 29.08                             106   -1.48 0  410 327 
 SJC  HN ES   4   1648 10.69                             106   -3.38 0  410 327 
 SJC  HZ I        1648 15.23         5.6 0.15            108            410 327 
                                                                                
