 2011  718 1318 54.3 L   6.987 -73.153128.9  RSN  6 0.2 1.9LRSN                1
 GAP=124        0.44       3.0     4.8  4.5  0.1254E+01 -0.4426E+01 -0.6252E+00E
 Epicentro: FLORIDABLANCA - SANTANDER                                          3
 ACTION:UPD 12-07-25 14:01 OP:epov STATUS:               ID:20110718131854 L   I
 2011-07-18-1317-44S.COL___143                                                 6
 STAT SP IPHASW D HRMM SECON CODA AMPLIT PERI AZIMU VELO AIN AR TRES W  DIS CAZ7
 GIR2 SZ EP   1   1319 11.55                             175   -0.03 7 11.1 336 
 GIR2 SZ ES   2   1319 25.28                             175    0.24 5 11.1 336 
 BAR2 SZ EP   1   1319 12.58                             160   -0.02 7 43.8 184 
 BAR2 SZ I        1319 12.68        33.9 0.11                          43.8 184 
 BAR2 SZ ES   1   1319 26.84                             160    0.00 7 43.8 184 
 BRR  HZ EP   1   1319 12.82                             152   -0.38 7 63.1 282 
 BRR  HN ES   1   1319 28.04                             152    0.12 7 63.1 282 
 BRR  HZ I        1319 29.13        23.2 0.16                          63.1 282 
 PAM  SE ES   2   1319 28.84                             152   -0.38 5 63.5  52 
 BRI  SZ EP   1   1319 15.51                             143    0.31 7 89.8  26 
 RUS  HZ EP   1   1319 18.28                             134    0.10 7  121 176 
 RUS  HZ I        1319 18.40         5.4 0.10                           121 176 
 RUS  HN ES   1   1319 36.75                             134   -0.03 7  121 176 
                                                                                
