 2011 1218 1742 39.4 L   6.795 -73.130141.5  RSN 14 0.5 2.6LRSN                1
 GAP=139        0.83       3.6     5.0  5.9 -0.6360E+01  0.6280E+01  0.7431E+01E
 Epicentro: LOS SANTOS - SANTANDER                                             3
 ACTION:UPD 12-07-13 16:17 OP:ep   STATUS:               ID:20111218174239 L   I
 2011-12-18-1740-00M.COL___185                                                 6
 STAT SP IPHASW D HRMM SECON CODA AMPLIT PERI AZIMU VELO AIN AR TRES W  DIS CAZ7
 BAR2 SZ IP       1742 58.51                             170   -0.0210 23.1 195 
 BAR2 SZ ES   1   1743 12.55                             170   -0.89 7 23.1 195 
 BAR2 SZ I        1743 16.42        86.6 0.26                          23.1 195 
 GIR2 SZ IP       1742 58.63                             166    0.0210 32.2 347 
 GIR2 SZ ES   1   1743 13.86                             166    0.28 7 32.2 347 
 BRR  HZ IP     C 1743  0.42                             151    0.2110 73.0 298 
 BRR  HN ES   1   1743 17.01                             151    0.58 7 73.0 298 
 BRR  HZ I        1743 18.68        89.8 0.16                          73.0 298 
 PAM  SZ EP   1   1743  1.34                             150    0.20 7 76.7  38 
 PAM  SN ES   1   1743 18.09                             150    0.01 7 76.7  38 
 RUS  HZ EP       1743  2.43                             143   -0.2710 99.9 177 
 OCA  SZ EP   1   1743  7.57                             128    0.09 7  161 353 
 OCA  SZ ES   1   1743 29.19                             128   -0.17 7  161 353 
 OCA  SZ I        1743 32.88        38.3 0.22                           161 353 
 NOR  SZ EP   1   1743 14.46                             117   -0.56 6  236 235 
 NOR  SN ES   1   1743 42.25                             117   -0.54 6  236 235 
 CHI  HZ EP   1   1743 16.60                             116   -0.27 6  249 196 
 CHI  HE ES   1   1743 46.56                             116    0.48 6  249 196 
 CHI  HZ I        1743 53.13        12.0 0.22                           249 196 
 ROSC BN ES   1   1743 48.03                             116    1.09 6  253 211 
 ROSC BZ I        1743 54.32        42.2 0.40                           253 211 
 HEL  HZ EP   1   1743 20.04                             114    0.45 6  274 256 
 HEL  HE ES   1   1743 49.81                             114   -1.11 6  274 256 
 HEL  HZ I        1743 58.43        29.0 0.25                           274 256 
 GUY  SZ EP   2   1743 23.24                             111    0.02 4  305 235 
 GUY  SZ I        1744  4.66        37.0 0.27                           305 235 
 RREF HN ES   1   1744  1.85                             110    0.43 5  323 230 
 RREF HZ I        1744  9.71        20.3 0.44                           323 230 
 TOL  SZ EP   1   1743 27.68                             108    0.08 5  344 225 
 PRA  HZ EP   1   1743 32.71                             106   -0.13 4  392 210 
 PRA  HN ES   1   1744 14.76                             106    0.26 4  392 210 
                                                                                
