 2012  818 1220 18.2 L   7.403 -73.290119.9  RSN  6 0.2 2.3LRSN                1
 GAP=183        0.41       3.1     2.1  4.3  0.6989E+00  0.1075E+01  0.1106E+01E
 Epicentro: EL PLAYON - SANTANDER                                              3
 ACTION:UPD 12-09-10 11:57 OP:ep   STATUS:               ID:20120818122018 L   I
 2012-08-18-1220-00M.COL___217                                                 6
 STAT SP IPHASW D HRMM SECON CODA AMPLIT PERI AZIMU VELO AIN AR TRES W  DIS CAZ7
 BRR  HZ EP       1220 35.53                             153   -0.1810 56.9 235 
 BRR  HN ES   1   1220 49.35                             153   -0.05 7 56.9 235 
 PAM  SZ EP   1   1220 37.20                             150    0.27 7 65.6  96 
 PAM  SN ES   1   1220 51.53                             150   -0.03 7 65.6  96 
 BAR2 SZ EP       1220 38.28                             141   -0.0310 90.4 172 
 BAR2 SZ ES   1   1220 54.16                             141    0.14 7 90.4 172 
 BAR2 SZ I        1220 55.52        46.3 0.22                          90.4 172 
 PTB  HN ES   1   1221  5.24                             123    0.32 7  160 234 
 RUS  HZ EP   1   1220 45.96                             122    0.05 7  169 172 
 RUS  HZ I        1220 46.43        50.3 0.03                           169 172 
 RUS  HN ES   1   1221  7.29                             122   -0.25 7  169 172 
 ZAR  HN ES   1   1221  7.24                             121   -0.06 7  173 273 
 ZAR  HZ I        1221 10.84         8.6 0.17                           173 273 
                                                                                
