 2011  418 1811 50.7 L   6.786 -73.133144.0  RSN 16 0.3 2.9LRSN                1
 GAP=115        0.66       2.8     3.6  4.8 -0.4167E+01  0.3767E+01  0.4023E+01E
 Epicentro: LOS SANTOS - SANTANDER                                             3
 ACTION:UP  11-06-22 15:31 OP:REBC STATUS:               ID:20110418181150 L   I
 2011-04-18-1810-45S.COL___138                                                 6
 STAT SP IPHASW D HRMM SECON CODA AMPLIT PERI AZIMU VELO SNR AR TRES W  DIS CAZ7
 BAR2 SZ IP       1812 10.09                             171     0.010   22 194 
 BAR2 SZ ES   1   1812 24.56                             171    -0.6 7   22 194 
 BAR2 SZ I        1812 27.95       222.1 0.25                            22 194 
 GIR2 SZ EP   1   1812 10.19                             166     0.0 7   33 348 
 BRR  HZ IP     D 1812 11.89                             151     0.110   73 299 
 BRR  HN ES   2   1812 28.91                             151     0.7 5   73 299 
 BRR  HZ I        1812 30.95       117.9 0.22                            73 299 
 PAM  SZ EP       1812 12.89                             150     0.210   78  38 
 PAM  SZ I        1812 13.40        78.8 0.21                            78  38 
 PAM  SN ES   1   1812 29.54                             150    -0.4 7   78  38 
 BRI  SZ EP       1812 14.65                             140     0.210  109  20 
 BRI  SZ ES   2   1812 33.07                             140     0.0 5  109  20 
 BRI  SZ I        1812 38.43        86.8 0.32                           109  20 
 GRA  SZ IP       1812 15.90                             136     0.010  127  17 
 GRA  SZ ES   1   1812 35.35                             136    -0.1 7  127  17 
 GRA  SZ I        1812 38.60        95.8 0.43                           127  17 
 YOP  SZ EP   1   1812 20.80                             126     0.4 7  177 153 
 YOP  SN ES   2   1812 43.54                             126     0.0 4  177 153 
 NOR  SZ EP       1812 26.26                             118    -0.1 8  235 235 
 NOR  SN ES   1   1812 54.13                             118     0.0 6  235 235 
 CHI  HZ EP   1   1812 28.20                             117     0.0 6  248 196 
 CHI  HN ES   1   1812 57.80                             117     0.4 6  248 196 
 CHI  HZ I        1813  1.34        69.5 0.51                           248 196 
 ROSC BZ EP   1   1812 28.95                             116     0.3 6  252 211 
 HEL  HZ EP   2   1812 30.97                             114     0.1 4  273 256 
 HEL  HN ES   1   1813  2.51                             114     0.2 6  273 256 
 HEL  HZ I        1813  8.67        45.6 0.32                           273 256 
 VIL  SZ EP   1   1812 33.53                             112    -0.4 5  302 192 
 GUY  SZ EP   2   1812 33.64                             112    -0.9 4  304 235 
 DBB  SZ EP   1   1812 37.47                             109    -0.8 5  341 274 
 TOL  SZ EP   1   1812 39.08                             109     0.2 5  343 225 
 PRA  HZ EP   1   1812 43.41                             106    -0.7 4  391 210 
 PRA  HN ES   1   1813 25.56                             106    -0.2 4  391 210 
 PRA  HZ I        1813 32.25       106.8 0.32                           391 210 
                                                                                
