 2012 1218 1446 48.7 L   6.726 -73.151146.9  RSN  6 0.4 1.7LRSN                1
 GAP=139        0.79       5.3     4.8  7.7  0.2151E+01  0.6940E+01 -0.1671E-01E
 Epicentro: VILLANUEVA - SANTANDER                                             3
 ACTION:UPD 13-01-04 14:28 OP:ep   STATUS:               ID:20121218144648 L   I
 2012-12-18-1440-00M.COL___242                                                 6
 STAT SP IPHASW D HRMM SECON CODA AMPLIT PERI AZIMU VELO AIN AR TRES W  DIS CAZ7
 BAR2 SZ EP   1   1447  8.00                             174   -0.30 7 15.2 193 
 BAR2 SZ ES   1   1447 23.15                             174   -0.47 7 15.2 193 
 BAR2 SZ I        1447 24.41        21.9 0.22                          15.2 193 
 BRR  HZ EP   1   1447 10.47                             151    0.31 7 75.0 304 
 BRR  HN ES   1   1447 27.52                             151    0.60 7 75.0 304 
 BRR  HZ I        1447 31.12         9.9 0.18                          75.0 304 
 PAM  SZ EP   1   1447 11.55                             149    0.13 7 84.2  36 
 PAM  SN ES   1   1447 28.86                             149   -0.31 7 84.2  36 
 PAM  SZ I        1447 31.06         5.1 0.36                          84.2  36 
 RUS  HZ EP   1   1447 12.07                             146    0.10 7 92.5 175 
 RUS  HN ES   1   1447 30.68                             146    0.54 7 92.5 175 
 RUS  HZ I        1447 32.15         9.2 0.36                          92.5 175 
 PTB  HZ EP   1   1447 15.19                             133   -0.37 7  146 262 
 PTB  HN ES   1   1447 35.98                             133   -0.55 7  146 262 
 PTB  HZ I        1447 40.21         6.1 0.13                           146 262 
 ZAR  HE ES   1   1447 47.35                             122    0.30 6  207 294 
                                                                                
