 2011 1118 1003 42.5 L   6.790 -73.124138.9  RSN  6 0.4 1.7LRSN                1
 GAP=140        0.73       3.8     5.1  6.5  0.2522E+01  0.6435E+01 -0.4043E+01E
 Epicentro: LOS SANTOS - SANTANDER                                             3
 ACTION:UPD 12-07-13 16:10 OP:ep   STATUS:               ID:20111118100342 L   I
 2011-11-18-1000-16S.COL___179                                                 6
 STAT SP IPHASW D HRMM SECON CODA AMPLIT PERI AZIMU VELO AIN AR TRES W  DIS CAZ7
 BAR2 SZ EP   1   10 4  0.98                             170   -0.27 7 22.8 197 
 BAR2 SZ ES   1   10 4 15.66                             170   -0.25 7 22.8 197 
 BAR2 SZ I        10 4 16.67        12.2 0.29                          22.8 197 
 BRR  HZ EP   1   10 4  3.04                             150    0.01 7 73.9 298 
 BRR  HE ES   1   10 4 19.57                             150    0.50 7 73.9 298 
 BRR  HZ I        10 4 20.92        13.1 0.15                          73.9 298 
 PAM  SZ EP   1   10 4  3.98                             150    0.07 7 76.7  38 
 PAM  SN ES   1   10 4 20.64                             150    0.00 7 76.7  38 
 RUS  HZ EP   1   10 4  5.58                             143    0.14 7 99.3 177 
 RUS  HN ES   1   10 4 23.38                             143    0.01 7 99.3 177 
 RUS  HZ I        10 4 24.66         4.0 0.39                          99.3 177 
 OCA  SZ EP   1   10 4 11.16                             128    0.78 7  162 352 
 OCA  SZ ES   1   10 4 31.60                             128   -0.56 7  162 352 
 OCA  SZ I        10 4 34.96        12.6 0.40                           162 352 
 ZAR  HZ EP   1   10 4 14.11                             120   -0.64 6  207 292 
 ZAR  HN ES   1   10 4 40.02                             120    0.09 6  207 292 
 ZAR  HZ I        10 4 45.13         5.4 0.11                           207 292 
                                                                                
