 2011 1118 1134  6.9 L   6.812 -73.196132.9  RSN  6 0.4 1.7LRSN                1
 GAP=130        0.82       4.8     4.9  8.1  0.6514E+00  0.1122E+02  0.2219E+01E
 Epicentro: ZAPATOCA - SANTANDER                                               3
 ACTION:UPD 12-07-13 16:11 OP:ep   STATUS:               ID:20111118113406 L   I
 2011-11-18-1131-50S.COL___179                                                 6
 STAT SP IPHASW D HRMM SECON CODA AMPLIT PERI AZIMU VELO AIN AR TRES W  DIS CAZ7
 BAR2 SZ IP       1134 24.69                             169   -0.2810 24.3 176 
 BAR2 SZ ES   1   1134 39.07                             169   -0.02 7 24.3 176 
 BAR2 SZ I        1134 41.41        23.6 0.21                          24.3 176 
 BRR  HZ EP   1   1134 26.42                             152    0.11 7 65.7 300 
 BRR  HN ES   1   1134 40.96                             152   -0.52 7 65.7 300 
 BRR  HZ I        1134 42.47        18.7 0.15                          65.7 300 
 PAM  SZ EP   1   1134 27.60                             148   -0.30 7 80.1  43 
 PAM  SZ I        1134 27.75         4.7 0.15                          80.1  43 
 PAM  SE ES   1   1134 44.95                             148    0.63 7 80.1  43 
 RUS  HZ EP   1   1134 29.01                             141   -0.50 7  102 173 
 RUS  HN ES   1   1134 47.66                             141    0.48 7  102 173 
 RUS  HZ I        1134 48.49         5.2 0.27                           102 173 
 ZAR  HZ EP   2   1134 38.83                             120    0.92 4  198 292 
 ZAR  HN ES   1   1135  2.30                             120    0.18 6  198 292 
 ZAR  HZ I        1135  8.08         6.1 0.24                           198 292 
 NOR  SN ES   1   1135  8.76                             116    0.30 6  231 233 
                                                                                
