 2013  818 1903 37.3 L   6.811 -73.130143.3  RSN  6 0.4 1.4LRSN                1
 GAP=138        1.02       5.5     5.3  9.1  0.5715E+01  0.1882E+02  0.7041E+01E
 Epicentro: LOS SANTOS - SANTANDER                                             3
 ACTION:UPD 14-01-14 09:04 OP:ep   STATUS:               ID:20130818190337 L   I
 OLDACT:DUP 13-08-18 20:18 OP:jn   STATUS:               ID:20130818185960d    3
 OLDACT:REG 13-08-18 15:06 OP:jn   STATUS:               ID:20130818185959     3
 2013-08-18-1859-59M.COL___269                                                 6
 STAT SP IPHASW D HRMM SECON CODA AMPLIT PERI AZIMU VELO AIN AR TRES W  DIS CAZ7
 BAR2 SZ EP   1   19 3 56.88                             170    0.23 7 24.9 194 
 BAR2 SZ ES   1   19 4 11.93                             170    0.18 7 24.9 194 
 BAR2 SZ I        19 4 14.39         4.4 0.18            173           24.9 194 
 BRR  HZ EP       19 3 58.80                             152    0.5810 72.2 297 
 BRR  HN ES   1   19 4 15.31                             152    0.76 7 72.2 297 
 BRR  HZ I        19 4 17.76         8.3 0.36            151           72.2 297 
 PAM  SN ES       19 4 15.59                             151   -0.5410 75.3  39 
 PAM  SZ I        19 4 20.29         3.1 0.60            152           75.3  39 
 RUS  HZ EP       19 4  1.17                             143    0.2910  102 177 
 RUS  HN ES       19 4 19.13                             143   -0.1510  102 177 
 RUS  HZ I        19 4 20.46         2.5 0.28            148            102 177 
 PTB  HZ EP       19 4  3.77                             131   -0.46 9  150 258 
 PTB  HN ES       19 4 24.85                             131   -0.40 9  150 258 
 PTB  HZ I        19 4 26.43         3.7 0.14            133            150 258 
 ZAR  HN ES       19 4 34.85                             121   -0.12 8  205 292 
 ZAR  HZ I        19 4 41.87         4.8 0.26            123            205 292 
                                                                                
