 2013  418 1213  1.5 L   6.799 -73.159143.6  RSN  6 0.2 1.7LRSN                1
 GAP=135        0.56       3.2     3.1  4.3 -0.3660E+01  0.2951E+01 -0.3690E+01E
 Epicentro: LOS SANTOS - SANTANDER                                             3
 ACTION:UPD 13-05-22 14:39 OP:EP   STATUS:               ID:20130418121301 L   I
 2013-04-18-1208-35M.COL___218                                                 6
 STAT SP IPHASW D HRMM SECON CODA AMPLIT PERI AZIMU VELO AIN AR TRES W  DIS CAZ7
 BAR2 SZ EP       1213 20.80                             170   -0.0110 23.0 186 
 BAR2 SZ ES       1213 35.84                             170   -0.0710 23.0 186 
 BAR2 SZ I        1213 37.56        14.8 0.38            171           23.0 186 
 BRR  HZ EP       1213 22.72                             152    0.4310 70.0 299 
 PAM  SZ EP       1213 23.71                             150    0.2110 78.4  40 
 PAM  SZ I        1213 23.95         8.8 0.22            151           78.4  40 
 PAM  SN ES       1213 40.63                             150   -0.0610 78.4  40 
 RUS  HZ EP       1213 25.03                             143    0.0410  101 175 
 RUS  HN ES       1213 43.36                             143    0.0210  101 175 
 PTB  HZ EP       1213 27.86                             132   -0.25 9  146 259 
 PTB  HN ES       1213 48.82                             132   -0.08 9  146 259 
 CAPV BZ EP       1213 28.45                             131   -0.31 9  150  38 
                                                                                
