 2012 1218 1831 19.7 L   6.737 -73.191147.3  RSN  5 0.2 1.4LRSN                1
 GAP=173        0.49       4.5     4.8  5.3  0.8571E+01  0.9041E+01  0.7075E+01E
 Epicentro: VILLANUEVA - SANTANDER                                             3
 ACTION:UPD 13-01-04 14:28 OP:ep   STATUS:               ID:20121218183119 L   I
 2012-12-18-1830-00M.COL___242                                                 6
 STAT SP IPHASW D HRMM SECON CODA AMPLIT PERI AZIMU VELO AIN AR TRES W  DIS CAZ7
 BAR2 SZ ES   1   1831 54.58                             173   -0.13 7 16.1 177 
 GIR2 SZ ES   1   1831 55.08                             165   -0.26 7 37.7 360 
 BRR  HZ EP   1   1831 41.12                             153    0.17 7 70.6 305 
 BRR  HN ES   1   1831 57.88                             153    0.34 7 70.6 305 
 BRR  HZ I        1831 58.41         5.6 0.14                          70.6 305 
 RUS  HZ EP   1   1831 43.29                             146    0.17 7 94.2 173 
 RUS  HN ES   1   1832  1.47                             146    0.06 7 94.2 173 
 RUS  HZ I        1832  3.61         2.7 0.34                          94.2 173 
 PTB  HZ EP   1   1831 45.84                             134   -0.37 7  142 261 
 PTB  HN ES   1   1832  6.89                             134   -0.02 7  142 261 
 PTB  HZ I        1832  9.61         4.2 0.14                           142 261 
                                                                                
