 2016  918 1957 17.8 L   6.780 -73.169149.4  RSN  5 0.4 1.7LRSN                1
 GAP=135        0.97       5.1     4.4  8.5  0.1581E+01  0.5880E+01  0.4149E+01E
 Epicentro: LOS SANTOS - SANTANDER                                             3
 ACTION:UPD 17-08-17 21:13 OP:lp   STATUS:               ID:20160918195717 L   I
 OLDACT:UP  16-09-19 01:57 OP:ar   STATUS:               ID:20160918194733     3
 OLDACT:REG 16-09-18 23:25 OP:ar   STATUS:               ID:20160918194733     3
 2016-09-18-1948-00M.COL___354                                                 6
 STAT SP IPHASW D HRMM SECON CODA AMPLIT PERI AZIMU VELO AIN AR TRES W  DIS CAZ7
 BRR  HZ EP       1957 39.54                             153    0.2910 70.1 301 
 BRR  HE ES       1957 56.65                             153    0.6510 70.1 301 
 BRR  HZ I        1958  0.68         8.2 0.09            152           70.1 301 
 PAM  EZ EP       1957 40.63                             150    0.0610 80.7  40 
 PAM  EN ES       1957 57.83                             150   -0.5210 80.7  40 
 PAM  EZ I        1957 59.85        14.3 0.52            154           80.7  40 
 RUS  HZ EP       1957 41.98                             145    0.2410 98.6 174 
 RUS  HE ES       1958  0.46                             145    0.0210 98.6 174 
 RUS  HZ I        1958  1.56         6.9 0.30            149           98.6 174 
 PTB  HZ E      D 1952 12.49                                            145 259 
 PTB  HZ EP       1957 44.51                             133   -0.27 9  145 259 
 PTB  HN ES       1958  5.27                             133   -0.57 9  145 259 
 PTB  HZ I        1958 10.58         4.6 0.16            134            145 259 
 ZAR  HZ EP   4   1957 52.99                             123    2.69 0  203 293 
 ZAR  HN ES       1958 15.67                             123   -0.00 9  203 293 
 ZAR  HZ I        1958 22.31         3.2 0.30            124            203 293 
                                                                                
