 2013  418 1502 46.8 L   6.811 -73.154146.2  RSN  5 0.5 1.9LRSN                1
 GAP=135        1.25       6.9     6.5  9.5 -0.5624E+01  0.4949E+01  0.7576E+01E
 Epicentro: LOS SANTOS - SANTANDER                                             3
 ACTION:UPD 13-05-22 14:39 OP:EP   STATUS:               ID:20130418150246 L   I
 2013-04-18-1458-50M.COL___218                                                 6
 STAT SP IPHASW D HRMM SECON CODA AMPLIT PERI AZIMU VELO AIN AR TRES W  DIS CAZ7
 BAR2 SZ EP       15 3  6.68                             170    0.1710 24.3 187 
 BAR2 SZ ES       15 3 21.55                             170   -0.3210 24.3 187 
 BRR  HN ES       15 3 25.35                             153    0.9610 69.8 298 
 PAM  SZ EP       15 3  9.28                             151    0.2310 77.1  41 
 PAM  SN ES       15 3 25.79                             151   -0.6110 77.1  41 
 RUS  HZ EP       15 3 11.00                             143    0.3210  102 176 
 RUS  HE ES       15 3 29.41                             143    0.1010  102 176 
 RUS  HN I        15 3 30.26         8.5 0.30            143            102 176 
 PTB  HZ EP       15 3 13.30                             132   -0.44 9  147 258 
 PTB  HN ES       15 3 34.22                             132   -0.53 9  147 258 
 PTB  HN I        15 3 36.89        18.6 0.22            132            147 258 
 GUY  HZ EP   4   15 3 32.55                             112    1.87 0  303 235 
                                                                                
