 2016 1018 1724  4.4 L   6.783 -73.057146.9  RSN 18 0.5 2.4LRSN                1
 GAP=105        1.04       2.9     3.5  4.7 -0.2715E+01  0.9755E+00  0.2594E+01E
 Epicentro: LOS SANTOS - SANTANDER                                             3
 ACTION:UPD 16-11-09 19:20 OP:rebc STATUS:               ID:20161018172404 L   I
 OLDACT:UP  16-10-19 01:08 OP:ar   STATUS:               ID:20161018171733     3
 OLDACT:REG 16-10-18 22:00 OP:ar   STATUS:               ID:20161018171733     3
 2016-10-18-1718-00M.COL___338                                                 6
 STAT SP IPHASW D HRMM SECON CODA AMPLIT PERI AZIMU VELO AIN AR TRES W  DIS CAZ7
 BAR2 EZ EP       1724 24.14                             170   -0.0510 25.3 213 
 BAR2 EZ ES       1724 39.09                             170   -0.5510 25.3 213 
 BAR2 EZ I        1724 40.64        63.2 0.16            166           25.3 213 
 PAM  EZ EP       1724 27.01                             152    0.5410 73.1  33 
 PAM  EN ES       1724 44.35                             152    0.6510 73.1  33 
 PAM  EZ I        1724 46.89        17.4 0.38            156           73.1  33 
 BRR  HZ EP       1724 25.90                             150   -0.3210 80.8 296 
 BRR  HE ES       1724 43.11                             150   -0.1410 80.8 296 
 BRR  HZ I        1724 46.27        43.9 0.40            148           80.8 296 
 RUS  HZ EP       1724 28.11                             145    0.0110 98.5 182 
 RUS  HN ES       1724 47.00                             145    0.4010 98.5 182 
 RUS  HZ I        1724 47.73        17.0 0.30            144           98.5 182 
 PTB  HZ EP   9   1724 30.74                             130   -1.56 0  157 260 
 PTB  HN ES   2   1724 52.04                             131   -0.47 5  157 260 
 PTB  HZ I        1724 53.83        24.8 0.20            129            157 260 
 OCA  HZ EP       1724 33.11                             129    0.02 9  164 350 
 OCA  HN ES       1724 55.05                             129   -0.43 9  164 350 
 OCA  HZ I        1724 59.58        59.6 0.14            130            164 350 
 SPBC HZ EP       1724 33.07                             128   -0.37 9  168 222 
 SPBC HN ES       1724 56.20                             128    0.09 9  168 222 
 SPBC HZ I        1725  1.25        36.3 0.10            127            168 222 
 NOR  HZ EP       1724 40.28                             118   -0.66 8  242 236 
 NOR  HN ES   4   1725  8.13                             118   -1.32 0  242 236 
 CHI  HZ EP       1724 42.44                             117    0.19 8  250 197 
 CHI  HE ES       1725 11.78                             117   -0.01 8  250 197 
 CHI  HZ I        1725 16.72        10.2 0.48            117            250 197 
 ROSC BZ EP   4   1724 44.36                             116    1.40 0  256 213 
 ROSC BN ES   4   1725 15.71                             116    2.65 0  256 213 
 ROSC BZ I        1725 18.82        27.0 0.40            116            256 213 
 HEL  HZ EP       1724 45.74                             114    0.07 7  281 257 
 HEL  HN ES       1725 19.00                             114    1.13 7  281 257 
 HEL  HZ I        1725 24.42        13.1 0.30            114            281 257 
 SOCV BZ EP       1724 46.99                             113    0.31 7  294  56 
 SOCV BN ES       1725 19.14                             113   -0.53 7  294  56 
 PTGC HZ EP       1724 47.31                             112   -0.39 7  304 160 
 PTGC HN ES       1725 21.26                             112   -0.23 7  304 160 
 PTGC HZ I        1725 27.86        18.6 0.42            112            304 160 
 GUY2CHZ EP       1724 49.14                             112    0.30 7  308 236 
 GUY2CHN ES   4   1725 26.73                             112    3.21 0  308 236 
 GUY2CHZ I        1725 32.45        11.4 0.46                           308 236 
 ELA  HZ EP       1724 53.07                             110    1.06 7  335 231 
 ELA  HE ES   4   1725 30.84                             110    1.68 0  335 231 
 ELA  HZ I        1725 43.41         8.2 0.42            110            335 231 
 CBOC HZ EP       1724 52.38                             109    0.02 7  342 253 
 CBOC HE ES       1725 28.86                             109   -0.92 7  342 253 
 CBOC HZ I        1725 39.07         4.6 0.42            109            342 253 
 PRA  HZ EP       1724 57.98                             106   -0.36 6  395 211 
 PRA  HE ES   4   1725 39.48                             106   -0.94 0  395 211 
 PRA  HZ I        1725 44.13         9.1 0.32            106            395 211 
 CRJC HZ EP   4   1725  4.26                             103   -2.81 0  469   2 
 CRJC HN ES   4   1725 50.66                             103   -5.31 0  469   2 
 CRJC HZ I        1725 53.66         7.7 0.48            104            469   2 
                                                                                
