 2011  718 1404 58.0 L   6.155 -73.680110.0  RSN  7 0.3 1.7LRSN                1
 GAP=152        0.51       2.3     5.4  6.2 -0.1813E+01  0.1840E+02  0.1570E+01E
 Epicentro: LA PAZ - SANTANDER                                                 3
 ACTION:UPD 12-07-25 14:01 OP:epov STATUS:               ID:20110718140458 L   I
 2011-07-18-1402-54S.COL___142                                                 6
 STAT SP IPHASW D HRMM SECON CODA AMPLIT PERI AZIMU VELO AIN AR TRES W  DIS CAZ7
 RUS  HZ EP   1   14 5 15.96                             145   -0.20 7 72.2 114 
 RUS  HZ I        14 5 16.08         6.0 0.21                          72.2 114 
 RUS  HE ES   1   14 5 30.37                             145    0.02 7 72.2 114 
 BAR2 SZ EP   1   14 5 15.73                             144   -0.15 7 73.3  49 
 BAR2 SZ ES   1   14 5 30.19                             144    0.34 7 73.3  49 
 BAR2 SZ I        14 5 30.92        27.7 0.15                          73.3  49 
 BRR  HZ EP   1   14 5 17.94                             133   -0.22 7  105 358 
 BRR  HE ES   1   14 5 33.87                             133   -0.03 7  105 358 
 BRR  HZ I        14 5 35.53        11.4 0.14                           105 358 
 CHI  HZ EP   1   14 5 24.88                             119   -0.14 7  169 182 
 CHI  HZ I        14 5 25.47         4.4 0.18                           169 182 
 CHI  HE ES   2   14 5 46.08                             119   -0.04 5  169 182 
 PAM  SE ES   2   14 5 46.03                             119   -0.50 5  170  40 
 BRI  SZ EP   2   14 5 28.75                             114    0.80 4  198  29 
 BRI  SZ ES   1   14 5 51.40                             114    0.06 6  198  29 
 BRI  SZ I        14 5 53.15         6.4 0.54                           198  29 
 PRA  HZ EP   1   14 5 40.13                             104    0.47 5  301 206 
                                                                                
