 2015  618 1813 33.6 L   6.834 -73.114139.0  RSN 19 0.6 2.5LRSN                1
 GAP=186        1.32       3.1     5.5  6.5 -0.1362E+01  0.1164E+02  0.2884E+01E
 Epicentro: LOS SANTOS - SANTANDER                                             3
 ACTION:UPD 15-09-10 22:13 OP:cam  STATUS:               ID:20150618181333 L   I
 OLDACT:REG 15-06-18 20:58 OP:stll STATUS:               ID:20150618180748     3
 2015-06-18-1807-48M.COL___307                                                 6
 STAT SP IPHASW D HRMM SECON CODA AMPLIT PERI AZIMU VELO AIN AR TRES W  DIS CAZ7
 BAR2 EZ IP     C 1813 52.93                             168    0.4410 27.7 196 
 BAR2 EZ ES       1814  6.50                             168   -0.7410 27.7 196 
 BAR2 EZ I        1814  9.26        48.8 0.16            162           27.7 196 
 BRR  HZ IP     D 1813 54.66                             151    0.5910 72.6 295 
 BRR  HN ES       1814 11.11                             151    1.0510 72.6 295 
 BRR  HZ I        1814 15.21       143.1 0.96            139           72.6 295 
 RUS  HZ EP       1813 56.96                             141    0.0310  104 178 
 RUS  HE ES       1814 15.17                             141    0.0310  104 178 
 RUS  HZ I        1814 17.41        25.4 0.44            138            104 178 
 OCA  HZ EP       1814  0.99                             129   -0.06 9  157 352 
 OCA  HN ES       1814 22.28                             129   -0.20 9  157 352 
 OCA  HZ I        1814 28.12        49.7 0.24            122            157 352 
 ZAR  HZ EP       1814  6.02                             121    0.24 8  206 291 
 ZAR  HN ES       1814 30.72                             121   -0.18 8  206 291 
 ZAR  HZ I        1814 38.19        24.3 0.18            113            206 291 
 NOR  HZ EP       1814  9.52                             116    0.06 8  240 234 
 NOR  HE ES       1814 36.67                             116   -0.78 8  240 234 
 NOR  HZ I        1814 45.69        18.2 0.16            111            240 234 
 SML  HZ EP       1814  8.91                             116   -0.71 8  242 334 
 SML  HN ES       1814 36.97                             116   -0.76 8  242 334 
 SML  HZ I        1814 40.76        25.8 0.10            111            242 334 
 CHI  HZ EP       1814 11.15                             115   -0.25 8  253 196 
 CHI  HN ES       1814 40.40                             115   -0.50 8  253 196 
 CHI  HZ I        1814 47.21        14.2 0.30            111            253 196 
 ROSC BZ EP   4   1814 13.02                             115    1.14 0  258 211 
 ROSC BZ I        1814 14.49        25.5 0.25            110            258 211 
 ROSC BN ES       1814 42.02                             115    0.26 8  258 211 
 HEL  HZ EP       1814 15.22                             113    1.29 7  276 255 
 HEL  HN ES       1814 43.90                             113   -1.51 7  276 255 
 HEL  HZ I        1814 53.41        14.6 0.58            107            276 255 
 GUY2CHZ EP       1814 18.32                             111    0.88 7  306 235 
 GUY2CHE ES       1814 51.66                             111   -0.00 7  306 235 
 GUY2CHZ I        1814 59.25        14.4 0.30                           306 235 
 RREF HZ EP       1814 20.19                             109    0.18 7  327 229 
 RREF HN ES       1814 56.49                             109    0.26 7  327 229 
 RREF HZ I        1815  5.20         5.1 0.32            105            327 229 
 CBOC HZ EP       1814 21.18                             108    0.45 7  338 252 
 CBOC HZ I        1815 14.45         4.5 0.54            104            338 252 
 DBB  SZ EP       1814 20.67                             108   -0.48 7  343 274 
 DBB  SZ I        1815  0.95        21.8 0.24            103            343 274 
 TOL  SZ EP       1814 22.57                             108    0.42 6  349 225 
 TOL  SE ES       1815  0.88                             108    0.83 6  349 225 
 TOL  SZ I        1815  6.00         8.8 0.50            103            349 225 
 MON  HZ EP   9   1814 18.17                             107   -4.20 0  354 308 
 MON  HN ES       1814 57.25                                    1.02 6  354 308 
 MON  HZ I        1815 13.00         3.2 0.54            103            354 308 
 ANIL HN ES       1815  2.45                             107   -0.38 6  362 224 
 ANIL HZ I        1815  7.58        30.0 0.42            103            362 224 
 PRA  HZ EP       1814 26.92                             105   -0.53 6  397 210 
 PRA  HN ES       1815  8.87                             105   -0.60 6  397 210 
 PRA  HZ I        1815 15.87        14.2 0.34            101            397 210 
 ORTC HZ EP       1814 27.39                             105   -0.47 6  401 216 
 ORTC HN ES       1815 10.59                             105    0.38 6  401 216 
 ORTC HZ I        1815 17.22         9.3 0.40            101            401 216 
                                                                                
