 2016  718 1931 33.7 L   6.210 -73.470129.9  RSN  4 0.2 1.7LRSN                1
 GAP=159        0.59       5.2     3.7  5.9  0.1104E+02  0.8780E+01  0.1856E+01E
 Epicentro: EL GUACAMAYO - SANTANDER                                           3
 ACTION:UPD 17-03-29 16:52 OP:lp   STATUS:               ID:20160718193133 L   I
 OLDACT:REG 16-07-18 21:03 OP:lv   STATUS:               ID:20160718192759     3
 2016-07-18-1927-59S.COL___304                                                 6
 STAT SP IPHASW D HRMM SECON CODA AMPLIT PERI AZIMU VELO AIN AR TRES W  DIS CAZ7
 BAR2 EZ EP       1931 52.48                             157   -0.0110 52.9  37 
 BAR2 EZ ES       1932  7.13                             157   -0.0110 52.9  37 
 BAR2 EZ I        1932  8.85        14.0 0.34            155           52.9  37 
 RUS  HZ EP       1931 53.33                             156    0.3510 55.3 129 
 RUS  HN ES       1932  7.84                             156   -0.1710 55.3 129 
 RUS  HZ I        1932  9.12         4.1 0.18            159           55.3 129 
 PTB  HZ EP       1931 56.07                             136   -0.3910  115 289 
 PTB  HN ES       1932 14.40                             136    0.2010  115 289 
 PTB  HZ I        1932 15.60         9.7 0.32            136            115 289 
 ZAR  HZ EP   3   1932  6.04                             118    0.34 2  209 313 
 ZAR  HN ES       1932 30.67                             118    0.02 8  209 313 
 ZAR  HZ I        1932 35.87        10.6 0.30            118            209 313 
                                                                                
