 2017  718 1713 45.9 L   6.809 -73.147135.7  RSN  6 0.4 1.4LRSN                1
 GAP=238        1.06       6.1     5.9  7.7  0.1496E+02  0.1449E+02  0.8410E+01E
 Epicentro: LOS SANTOS - SANTANDER                                             3
 ACTION:UPD 17-08-30 15:34 OP:rebc STATUS:               ID:20170718171345 L   I
 OLDACT:REG 17-07-18 20:48 OP:lv   STATUS:               ID:20170718170730     3
 2017-07-18-1708-00M.COL___386                                                 6
 STAT SP IPHASW D HRMM SECON CODA AMPLIT PERI AZIMU VELO AIN AR TRES W  DIS CAZ7
 BAR2 EZ EP       1714  4.53                             170    0.1710 24.3 189 
 BAR2 EZ ES       1714 18.50                             170   -0.2410 24.3 189 
 BRR  HZ EP       1714  6.34                             151    0.3910 70.6 298 
 BRR  HN ES       1714 22.06                             151    0.4810 70.6 298 
 RUS  HZ EP       1714  9.03                             141    0.2610  102 176 
 RUS  HN ES       1714 26.27                             141   -0.3210  102 176 
 RUS  HZ I        1714 28.20         3.9 0.13            142            102 176 
 PTB  HZ EP       1714 11.33                             130   -0.76 9  148 258 
 PTB  HN ES       1714 32.22                             130   -0.28 9  148 258 
 PTB  HZ I        1714 34.35         2.5 0.10            128            148 258 
 ZAR  HN ES       1714 42.09                             120   -0.35 9  204 292 
 ZAR  HZ I        1714 48.64         3.3 0.14            120            204 292 
 NOR  HZ EP       1714 21.00                             116   -0.13 8  235 234 
 NOR  HN ES       1714 49.36                             116    0.76 8  235 234 
 NOR  HZ I        1714 51.00         2.1 0.31            116            235 234 
                                                                                
