 2015  518 1444  1.0 L   6.809 -73.134146.9  RSN 10 0.4 2.1LRSN                1
 GAP=202        0.90       3.4     4.5  5.5  0.1614E+00  0.7289E+01 -0.7324E+00E
 Epicentro: LOS SANTOS - SANTANDER                                             3
 ACTION:UPD 15-09-10 22:05 OP:cam  STATUS:               ID:20150518144401 L   I
 OLDACT:REG 15-05-18 21:06 OP:ak   STATUS:               ID:20150518143749     3
 2015-05-18-1437-49M.COL___283                                                 6
 STAT SP IPHASW D HRMM SECON CODA AMPLIT PERI AZIMU VELO AIN AR TRES W  DIS CAZ7
 BAR2 EZ IP     C 1444 20.82                             170    0.0310 24.5 193 
 BAR2 EZ ES       1444 35.74                             170   -0.4910 24.5 193 
 BAR2 EZ I        1444 37.40        45.2 0.20            166           24.5 193 
 BRR  HZ IP     C 1444 22.69                             152    0.3810 71.9 297 
 BRR  HN ES       1444 39.48                             152    0.5510 71.9 297 
 BRR  HZ I        1444 41.14        14.2 0.14            148           71.9 297 
 RUS  HZ EP       1444 24.89                             144   -0.0310  101 177 
 RUS  HN ES   1   1444 43.70                             144    0.11 7  101 177 
 RUS  HZ I        1444 44.70        17.1 0.28            145            101 177 
 SPBC HZ IP     D 1444 29.89                             129    0.16 9  165 219 
 SPBC HN ES       1444 51.79                             129   -0.36 9  165 219 
 SPBC HZ I        1444 54.55        26.4 0.24            128            165 219 
 ZAR  HZ EP       1444 33.45                             122   -0.15 9  205 292 
 ZAR  HE ES       1444 59.20                             122    0.16 9  205 292 
 ZAR  HZ I        1445  9.48        12.3 0.30            121            205 292 
 NOR  HZ EP       1444 37.23                             118    0.26 8  236 234 
 NOR  HN ES       1445  4.60                             118   -0.42 8  236 234 
 NOR  HZ I        1445  8.35        12.7 0.18            118            236 234 
 SML  HZ EP       1444 37.80                             117    0.15 8  243 335 
 SML  HN ES   1   1445  4.98                             117   -1.26 6  243 335 
 HEL  HZ EP   1   1444 42.05                             115    0.62 6  274 256 
 HEL  HE ES       1445 13.37                             115    0.39 8  274 256 
 HEL  HZ I        1445 19.86         7.9 0.26            114            274 256 
 GUY2CHZ EP   1   1444 44.45                             112   -0.39 5  303 235 
 GUY2CHN ES       1445 18.67                             112   -0.37 7  303 235 
 GUY2CHZ I        1445 27.53         6.9 0.23                           303 235 
 RREF HZ EP   4   1444 49.70                             111    2.33 0  323 229 
 RREF HN ES   4   1445 26.83                             111    3.28 0  323 229 
 RREF HZ I        1445 31.75         2.8 0.22            111            323 229 
 SJC  HZ EP   4   1444 55.16                             106   -1.42 0  409 327 
 SJC  HN ES   4   1445 38.19                             106   -1.75 0  409 327 
                                                                                
