 2016 1118 1230 52.6 L   6.771 -73.126139.7  RSN  5 0.1 1.4LRSN                1
 GAP=161        0.39       3.6     2.2  3.1 -0.3155E+01  0.1076E+01  0.5513E+00E
 Epicentro: LOS SANTOS - SANTANDER                                             3
 ACTION:UPD 17-10-26 21:09 OP:lp   STATUS:               ID:20161118123052 L   I
 OLDACT:REG 16-11-18 20:24 OP:edw  STATUS:               ID:20161118122745     3
 2016-11-18-1228-00M.COL___337                                                 6
 STAT SP IPHASW D HRMM SECON CODA AMPLIT PERI AZIMU VELO AIN AR TRES W  DIS CAZ7
 BAR2 EZ EP       1231 11.23                             171   -0.2110 20.7 197 
 BAR2 EZ ES       1231 26.18                             171    0.0410 20.7 197 
 BAR2 EZ I        1231 27.16         5.1 0.18            172           20.7 197 
 BRR  HZ EP       1231 13.51                             150    0.2210 74.6 300 
 BRR  HN ES       1231 29.40                             150   -0.0310 74.6 300 
 PAM  EZ EP       1231 14.21                             149   -0.0210 78.5  37 
 PAM  EN ES       1231 31.11                             149   -0.0010 78.5  37 
 PAM  EZ I        1231 33.09         6.3 0.48            150           78.5  37 
 PTB  HZ EP       1231 19.30                             130    0.09 9  149 260 
 PTB  HN ES       1231 39.96                             130   -0.02 9  149 260 
 PTB  HZ I        1231 42.09         2.7 0.16            131            149 260 
 ZAR  HN ES   2   1231 49.91                             120   -0.34 4  207 293 
                                                                                
