 2015  418 1645 17.3 L   6.785 -73.138152.0  RSN 16 0.4 2.5LRSN                1
 GAP=120        0.92       2.6     3.4  4.8 -0.1227E+01  0.2967E+01  0.1219E+01E
 Epicentro: LOS SANTOS - SANTANDER                                             3
 ACTION:UPD 15-06-03 16:55 OP:cam  STATUS:               ID:20150418164517 L   I
 OLDACT:UP  15-04-19 00:32 OP:spq  STATUS:               ID:20150418163737d    3
 OLDACT:REG 15-04-18 23:46 OP:spq  STATUS:               ID:20150418163737d    3
 2015-04-18-1637-36M.COL___272                                                 6
 STAT SP IPHASW D HRMM SECON CODA AMPLIT PERI AZIMU VELO AIN AR TRES W  DIS CAZ7
 BAR2 EZ EP     D 1645 37.71                             171    0.0510 21.9 193 
 BAR2 EZ ES   1   1645 52.90                             171   -0.64 7 21.9 193 
 BAR2 EZ I        1645 54.28       123.1 0.14            168           21.9 193 
 BRR  HZ IP     C 1645 39.60                             153    0.3810 72.8 299 
 BRR  HE ES       1645 57.16                             153    0.8510 72.8 299 
 BRR  HZ I        1646  0.08        57.0 0.32            150           72.8 299 
 PAM  SZ EP       1645 40.44                             152    0.2110 78.1  38 
 PAM  SN ES       1645 57.90                             152   -0.2110 78.1  38 
 PAM  SZ I        1645 60.00        57.0 0.58            151           78.1  38 
 RUS  HZ EP       1645 41.47                             146   -0.0910 98.9 176 
 RUS  HN ES       1646  0.41                             146   -0.0710 98.9 176 
 RUS  HZ I        1646  1.35        30.4 0.28            141           98.9 176 
 PTB  HZ EP       1645 44.21                             133   -0.63 9  148 260 
 PTB  HN ES       1646  5.75                             133   -0.57 9  148 260 
 PTB  HZ I        1646  8.65        40.0 0.12            129            148 260 
 OCA  HZ EP   1   1645 46.17                             131   -0.10 7  162 353 
 OCA  HE ES       1646  8.96                             131    0.10 9  162 353 
 OCA  HZ I        1646 13.61        53.1 0.28            128            162 353 
 SPBC HZ EP       1645 46.69                             131    0.46 9  162 220 
 SPBC HN ES       1646  8.93                             131    0.15 9  162 220 
 SPBC HZ I        1646 15.62        54.4 0.16            126            162 220 
 ZAR  HZ EP       1645 50.43                             124    0.11 8  205 292 
 ZAR  HN ES       1646 15.73                             124   -0.33 8  205 292 
 ZAR  HZ I        1646 18.37        35.9 0.18            120            205 292 
 NOR  HZ EP       1645 53.43                             120    0.04 8  234 235 
 NOR  HN ES       1646 21.40                             120   -0.12 8  234 235 
 NOR  HZ I        1646 25.33        20.3 0.24            116            234 235 
 SML  HZ EP       1645 54.41                             119   -0.08 8  246 335 
 SML  HN ES   1   1646 23.04                             119   -0.45 6  246 335 
 SML  HZ I        1646 30.18        38.8 0.14            116            246 335 
 CHI  HZ EP   1   1645 55.74                             119    0.52 6  247 195 
 CHI  HN ES   1   1646 25.23                             119    0.45 6  247 195 
 CHI  HZ I        1646 33.38         8.5 0.36            115            247 195 
 ROSC BN ES   4   1646 28.29                             118    2.69 0  252 211 
 ROSC BZ I        1646 31.94        19.7 0.40            115            252 211 
 HEL  HZ EP   1   1645 58.70                             116    0.80 6  273 256 
 HEL  HN ES   4   1646 32.25                             116    2.69 0  273 256 
 HEL  HZ I        1646 37.27        14.8 0.26            113            273 256 
 GUY2CHZ EP   1   1646  0.51                             113   -0.68 5  301 235 
 GUY2CHN ES       1646 35.58                             113    0.17 7  301 235 
 GUY2CHZ I        1646 40.72         9.2 0.32                           301 235 
 PTGC HZ EP       1646  0.62                             113   -0.63 7  307 159 
 MON  HZ EP   4   1646  4.88                             110   -1.88 0  355 308 
 MON  HN ES   4   1646 43.45                             110   -1.87 0  355 308 
 MON  HZ I        1646 45.67         5.1 0.38            107            355 308 
                                                                                
