 2014 1018 1818  7.1 L   6.308 -73.636106.4  RSN  6 0.3 1.6LRSN                1
 GAP=159        0.91       4.2     3.2  6.7  0.3020E+01  0.4257E+01 -0.3392E+01E
 Epicentro: SANTA HELENA DEL OPON - SANTANDER                                  3
 ACTION:UPD 14-11-29 23:50 OP:nd   STATUS:               ID:20141018181807 L   I
 OLDACT:UP  14-10-19 01:23 OP:cam  STATUS:               ID:20141018181747     3
 OLDACT:REG 14-10-19 01:11 OP:cam  STATUS:               ID:20141018181747     3
 2014-10-18-1817-47M.COL___279                                                 6
 STAT SP IPHASW D HRMM SECON CODA AMPLIT PERI AZIMU VELO AIN AR TRES W  DIS CAZ7
 BAR2 SZ EP       1818 23.65                             149   -0.0410 59.2  58 
 BAR2 SZ ES       1818 36.82                             149    0.1910 59.2  58 
 BAR2 SZ I        1818 38.10        21.2 0.38            149           59.2  58 
 RUS  HZ EP       1818 25.11                             142   -0.1410 76.5 127 
 RUS  HN ES       1818 39.65                             142    0.2410 76.5 127 
 BRR  HZ EP       1818 25.46                             137   -0.0810 88.8 355 
 BRR  HN ES       1818 40.12                             137    0.2010 88.8 355 
 PTB  HZ EP       1818 25.59                             135   -0.4410 94.3 286 
 PTB  HN ES       1818 40.55                             135   -0.2410 94.3 286 
 PTB  HZ I        1818 43.13         6.7 0.10            136           94.3 286 
 PAM  SZ EP       1818 33.04                             120    0.57 9  154  42 
 PAM  SN ES       1818 51.49                             120   -0.76 9  154  42 
 PAM  SN I        1818 55.58         5.1 0.56            121            154  42 
 ZAR  HZ EP       1818 35.86                             114    0.31 9  188 314 
 ZAR  HN ES       1818 58.03                             114    0.30 9  188 314 
 ZAR  HZ I        1818 59.84         4.2 0.10            115            188 314 
                                                                                
