 2017 1018 1449 40.8 L   6.788 -74.093 46.7  RSN  5 0.1 1.2LRSN                1
 GAP=100        0.39       2.0     1.4  8.0  0.1513E+01  0.6636E+01  0.1278E+02E
 Epicentro: PUERTO PARRA - SANTANDER                                           3
 ACTION:UPD 17-11-07 19:33 OP:rebc STATUS:               ID:20171018144940 L   I
 OLDACT:UP  17-10-18 23:22 OP:edw  STATUS:               ID:20171018143757     3
 OLDACT:REG 17-10-18 21:02 OP:edw  STATUS:               ID:20171018143757     3
 2017-10-18-1448-00M.COL___420                                                 6
 STAT SP IPHASW D HRMM SECON CODA AMPLIT PERI AZIMU VELO AIN AR TRES W  DIS CAZ7
 BRR  HZ EP       1449 51.15                             121   -0.1110 54.9  50 
 BRR  HE ES       1449 59.50                             121    0.0810 54.9  50 
 BRR  HZ I        1449 59.92         7.9 0.28            119           54.9  50 
 BAR2 EZ ES       1450  9.69                             102   -0.1510  103 102 
 ZAR  HN ES       1450 11.98                             100    0.0510  115 313 
 RUS  HZ EP       1450  3.08                              96    0.01 9  149 132 
 RUS  HN ES       1450 20.66                              96    0.21 9  149 132 
 RUS  HZ I        1450 23.07         3.2 0.20             95            149 132 
 NOR  HE ES       1450 21.86                              95   -0.07 9  160 212 
                                                                                
