 2012  718 1121 42.5 L   7.034 -73.332124.8  RSN  4 0.3 1.7LRSN                1
 GAP=143        0.76       9.0     5.6  9.0 -0.1727E+02  0.1660E+02  0.7486E+00E
 Epicentro: BETULIA - SANTANDER                                                3
 ACTION:UPD 12-08-14 11:45 OP:ep   STATUS:               ID:20120718112142 L   I
 2012-07-18-1120-00M.COL___197                                                 6
 STAT SP IPHASW D HRMM SECON CODA AMPLIT PERI AZIMU VELO AIN AR TRES W  DIS CAZ7
 BRR  HZ EP       1121 59.81        18.8 0.15            160    -0.110   43 281 
 BRR  HZ I        1121 59.94        18.8 0.15            161             43 281 
 BRR  HN ES   1   1122 13.12                             160    -0.4 7   43 281 
 BAR2 SZ EP   1   1122  0.66                             156     0.0 7   52 161 
 BAR2 SZ ES   1   1122 14.62                             156    -0.2 7   52 161 
 BAR2 SZ I        1122 16.09         8.7 0.22            154             52 161 
 PAM  SN ES   1   1122 18.57                             146     0.4 7   78  64 
 PTB  HZ EP   1   1122  6.42                             129    -0.3 7  136 246 
 PTB  HN ES   1   1122 26.20                             129     0.6 7  136 246 
