 2012 1118 1019  7.1 L   6.698 -73.287129.0  RSN 17 0.6 2.1LRSN 2.8WRSN        1
 SPEC AVERAGE  MO 13.2 ST  4.5 OM  2.5 f0 4.44 R0.3687 AL 2.47 WI 19.4 MW  2.8 3
 SPEC SD       MO  0.4 ST  3.2 OM  0.9 f0 1.30 R0.1288 AL      WI      MW  0.3 3
 GAP= 57        1.33       3.1     3.6  5.8 -0.1290E+01  0.5199E+01  0.1952E+01E
 Epicentro: GALAN - SANTANDER                                                  3
 SPEC RUS HH N MO 12.7 ST0.124 OM  1.1 f0 2.68 R0.5485 AL 1.43 WI 15.0 MW  2.4 3
 SPEC RUS HH N T101944 K 0.000 GD  158 VS 4.20 DE 3.00 Q0230.0 QA 0.60 VS 4.20 3
 SPEC OCA HH N MO 13.7 ST  7.8 OM  2.0 f0 4.84 R0.3037 AL 2.10 WI 24.3 MW  3.1 3
 SPEC OCA HH N T101956 K 0.000 GD  213 VS 4.20 DE 3.00 Q0230.0 QA 0.60 VS 4.20 3
 SPEC BRR HH N MO 13.3 ST  5.7 OM  1.8 f0 5.79 R0.2539 AL 3.88 WI 19.0 MW  2.8 3
 SPEC BRR HH N T101941 K 0.000 GD  144 VS 4.20 DE 3.00 Q0230.0 QA 0.60 VS 4.20 3
 ACTION:UPD 12-12-05 15:34 OP:}ep  STATUS:               ID:20121118101907 L   I
 2012-11-18-1018-17M.COL___195                                                 6
 STAT SP IPHASW D HRMM SECON CODA AMPLIT PERI AZIMU VELO AIN AR TRES W  DIS CAZ7
 BAR2 SZ EP       1019 24.59                             172    0.0310 16.4 135 
 BAR2 SZ ES       1019 37.93                             172   -0.2610 16.4 135 
 BAR2 SZ I        1019 39.88        29.1 0.18                          16.4 135 
 GIR2 SZ EP       1019 25.45                             160    0.2610 43.4  14 
 GIR2 SZ ES       1019 39.92                             160    0.5910 43.4  14 
 BRR  HZ EP       1019 26.42                             151    0.3410 65.2 314 
 BRR  HN ES       1019 41.82                             151    0.9210 65.2 314 
 BRR  HN I        1019 42.80        74.3 0.18                          65.2 314 
 RUS  HZ IP     D 1019 28.12                             143   -0.4310 91.8 166 
 RUS  HZ I        1019 28.91         7.9 0.16                          91.8 166 
 RUS  HN ES       1019 45.03                             143   -0.2710 91.8 166 
 PAM  SZ EP       1019 29.44                             141    0.5710 96.2  42 
 PAM  SN ES       1019 45.86                             141   -0.0110 96.2  42 
 PAM  SN I        1019 47.36        15.6 0.26                          96.2  42 
 PTB  HZ EP       1019 29.85                             132   -1.2610  130 262 
 PTB  HE ES       1019 48.66                             132   -1.2010  130 262 
 PTB  HN I        1019 53.36        16.7 0.50                           130 262 
 TAM  HZ IP     D 1019 35.08                             124    0.32 9  168 100 
 TAM  HZ I        1019 35.34        21.8 0.36                           168 100 
 TAM  HN ES       1019 56.09                             124   -0.26 9  168 100 
 OCA  HZ EP       1019 35.02                             124   -0.14 9  170 359 
 OCA  HN ES       1019 56.72                             124   -0.35 9  170 359 
 OCA  HN I        1020  1.20        72.8 0.24                           170 359 
 ZAR  HZ EP       1019 37.44                             120   -0.03 9  195 297 
 ZAR  HN ES       1020  1.26                             120    0.08 9  195 297 
 ZAR  HN I        1020  7.79        15.5 0.36                           195 297 
 CTAB SZ EP   1   1019 41.04                             118    1.07 6  212 209 
 CTAB SZ I        1020 12.89         5.6 0.44                           212 209 
 CHI  HZ EP       1019 42.22                             115   -0.05 8  234 192 
 CHI  HN ES       1020  9.18                             115   -0.53 8  234 192 
 CHI  HN I        1020 15.90         8.5 0.54                           234 192 
 SML  HZ EP       1019 42.81                             113   -0.51 8  248 340 
 HEL  HZ EP       1019 44.87                             113    0.40 8  254 257 
 HEL  HN I        1020 18.44         5.3 0.30                           254 257 
 GUY  SN ES       1020 20.40                             110    0.45 7  284 235 
 GUY  SN I        1020 29.94        32.8 0.68                           284 235 
 RREF HZ EP       1019 51.10                             109    0.78 7  303 229 
 RREF HN ES       1020 24.83                             109    0.78 7  303 229 
 RREF HZ I        1020 30.75        16.1 0.90                           303 229 
 COD  HZ EP   1   1019 55.60                             105   -0.44 5  358 357 
 COD  HZ I        1019 58.51         1.9 0.34                           358 357 
 COD  HN ES       1020 34.03                             105   -0.20 6  358 357 
 PRA  HN ES       1020 37.76                             104    0.04 6  375 208 
                                                                                
