 2011  518 1638 53.1 L   6.759 -73.126145.6  RSN  4 0.1 1.8LRSN                1
 GAP=141        0.34       2.2     3.3  3.3 -0.9187E-01 -0.7129E+00  0.1908E+00E
 Epicentro: LOS SANTOS - SANTANDER                                             3
 ACTION:UP  11-06-29 08:54 OP:tino STATUS:               ID:20110518163853 L   I
 2011-05-18-1633-00S.COL___135                                                 6
 STAT SP IPHASW D HRMM SECON CODA AMPLIT PERI AZIMU VELO SNR AR TRES W  DIS CAZ7
 BAR2 SZ EP       1639 12.68                             172     0.010   19 199 
 BAR2 SZ ES   1   1639 27.77                             172    -0.2 7   19 199 
 BAR2 SZ I        1639 29.43        21.9 0.31                            19 199 
 BRR  HZ EP       1639 14.48                             151     0.010   75 301 
 BRR  HZ I        1639 16.39        13.4 0.23                            75 301 
 BRR  HN ES   1   1639 31.29                             151     0.1 7   75 301 
 PAM  SZ EP       1639 15.55                             150     0.110   80  36 
 PAM  SN ES   1   1639 32.90                             150     0.0 7   80  36 
 RUS  HZ EP       1639 16.50                             145    -0.110   96 177 
 RUS  HZ I        1639 17.72         5.7 0.23                            96 177 
 RUS  HN ES   1   1639 34.97                             145     0.2 7   96 177 
                                                                                
