 2012  418 1727 44.6 L   6.795 -73.117142.7  RSN 14 0.4 2.8LRSN                1
 GAP=140        0.78       2.8     3.8  5.1 -0.1947E+01  0.7432E+01  0.2681E+01E
 Epicentro: LOS SANTOS - SANTANDER                                             3
 ACTION:UPD 12-07-05 11:54 OP:tino STATUS:               ID:20120418172744 L   I
 2012-04-18-1720-00M.COL___187                                                 6
 STAT SP IPHASW D HRMM SECON CODA AMPLIT PERI AZIMU VELO AIN AR TRES W  DIS CAZ7
 BAR2 SZ EP   1   1728  4.08                             170     0.2 7   24 198 
 BAR2 SZ ES   1   1728 18.64                             170    -0.3 7   24 198 
 BAR2 SZ I        1728 19.77       178.4 0.32                            24 198 
 BRR  HZ EP       1728  5.89                             151     0.210   74 298 
 BRR  HZ I        1728  6.97       265.8 0.11                            74 298 
 BRR  HN ES   1   1728 22.50                             151     0.5 7   74 298 
 PAM  SZ EP   1   1728  6.83                             151     0.4 7   76  37 
 PAM  SN ES   1   1728 23.52                             151     0.1 7   76  37 
 PAM  SZ I        1728 26.22       133.7 0.46                            76  37 
 RUS  HZ EP   1   1728  8.12                             143     0.1 7  100 178 
 RUS  HN ES   1   1728 26.06                             143    -0.2 7  100 178 
 RUS  HZ I        1728 28.15        45.7 0.30                           100 178 
 OCA  SZ EP   1   1728 12.66                             129    -0.1 7  161 352 
 OCA  SZ ES   1   1728 34.15                             129    -0.6 7  161 352 
 ZAR  HZ EP   1   1728 17.06                             121    -0.2 6  207 292 
 ZAR  HN ES   1   1728 42.33                             121    -0.3 6  207 292 
 ZAR  HZ I        1728 47.88       103.5 0.24                           207 292 
 NOR  SZ EP   1   1728 20.73                             117     0.3 6  237 235 
 NOR  SN ES       1728 47.70                             117    -0.7 8  237 235 
 CHI  HZ EP   1   1728 21.90                             116    -0.3 6  249 196 
 CHI  HN ES   1   1728 51.73                             116     0.2 6  249 196 
 CHI  HZ I        1728 59.61        20.4 0.32                           249 196 
 HEL  HZ EP   1   1728 24.63                             114    -0.4 6  275 256 
 HEL  HN ES       1728 57.17                             114     0.6 8  275 256 
 HEL  HZ I        1729  2.53        39.1 0.58                           275 256 
 GUY  SZ EP   1   1728 28.26                             111    -0.4 5  306 236 
 GUY  SN ES   1   1729  2.84                             111    -0.1 5  306 236 
 GUY  SZ I        1729 11.33        47.7 0.35                           306 236 
 RREF HZ EP   1   1728 30.71                             110    -0.2 5  324 230 
 RREF HE ES   1   1729  7.58                             110     0.6 5  324 230 
 RREF HZ I        1729 13.59        34.6 0.38                           324 230 
 DBB  SZ EP       1728 32.36                             109     0.0 7  343 274 
 TOL  SZ EP   1   1728 33.39                             109     0.4 5  345 225 
 PRA  HZ EP       1728 38.43                             106     0.2 6  393 210 
 PRA  HN ES   1   1729 19.57                             106    -0.4 4  393 210 
                                                                                
