 2011 1018 1502 58.9 L   6.789 -73.163141.3  RSN  4 0.4 1.7LRSN                1
 GAP=145        0.84      12.5     5.7  8.8 -0.4621E+01  0.1206E+02 -0.3244E+02E
 Epicentro: LOS SANTOS - SANTANDER                                             3
 ACTION:UPD 12-07-13 16:04 OP:ep   STATUS:               ID:20111018150258 L   I
 2011-10-18-1500-00M.COL___171                                                 6
 STAT SP IPHASW D HRMM SECON CODA AMPLIT PERI AZIMU VELO AIN AR TRES W  DIS CAZ7
 BAR2 SZ ES   1   15 3 32.54                             171   -0.34 7 21.9 186 
 BRR  HZ EP   1   15 3 19.93                             152    0.39 7 70.1 300 
 BRR  HN ES   1   15 3 36.30                             152    0.69 7 70.1 300 
 BRR  HZ I        15 3 37.96        12.6 0.14                          70.1 300 
 PAM  SZ EP       15 3 20.96                             149    0.1510 79.5  40 
 PAM  SN ES   1   15 3 37.49                             149   -0.39 7 79.5  40 
 ZAR  HZ EP   1   15 3 30.68                             121   -0.28 6  203 293 
 ZAR  HN ES   1   15 3 55.37                             121   -0.56 6  203 293 
 ZAR  HZ I        15 4  1.34         3.7 0.40                           203 293 
                                                                                
