 2017 1018 1117 19.5 L   6.749 -73.126138.0  RSN 14 0.5 2.0LRSN                1
 GAP=115        1.11       3.6     3.7  5.8  0.3996E+01  0.5105E+01  0.6613E+01E
 Epicentro: LOS SANTOS - SANTANDER                                             3
 ACTION:UPD 17-11-07 19:33 OP:rebc STATUS:               ID:20171018111719 L   I
 OLDACT:UP  17-10-18 22:27 OP:edw  STATUS:               ID:20171018110320     3
 OLDACT:UP  17-10-18 22:26 OP:edw  STATUS:               ID:20171018110320     3
 OLDACT:UP  17-10-18 22:25 OP:edw  STATUS:               ID:20171018110320     3
 OLDACT:UP  17-10-18 22:22 OP:edw  STATUS:               ID:20171018110320     3
 OLDACT:REG 17-10-18 20:28 OP:edw  STATUS:               ID:20171018110320     3
 2017-10-18-1108-00M.COL___420                                                 6
 STAT SP IPHASW D HRMM SECON CODA AMPLIT PERI AZIMU VELO AIN AR TRES W  DIS CAZ7
 BAR2 EZ IP     C 1117 38.08                             172    0.0210 18.5 200 
 BAR2 EZ ES       1117 52.82                             172    0.2610 18.5 200 
 BAR2 EZ I        1117 53.65        40.1 0.36            170           18.5 200 
 BRR  HZ EP       1117 39.96                             150   -0.0910 75.9 301 
 BRR  HN ES       1117 56.27                             150    0.1510 75.9 301 
 BRR  HZ I        1117 59.82        21.0 0.22            149           75.9 301 
 PAM  EZ EP       1117 41.18                             148    0.1410 80.5  36 
 PAM  EN ES       1117 57.74                             148   -0.1410 80.5  36 
 PAM  EZ I        1118  0.45        29.0 0.62            152           80.5  36 
 RUS  HZ EP       1117 42.13                             144    0.1010 94.9 177 
 RUS  HN ES       1118  0.24                             144    0.6110 94.9 177 
 RUS  HZ I        1118  1.27        12.2 0.26            144           94.9 177 
 PTB  HZ EP       1117 44.81                             130   -1.10 9  149 261 
 PTB  HN ES       1118  5.58                             130   -0.97 9  149 261 
 PTB  HZ I        1118  8.05        17.5 0.16            130            149 261 
 YPLC HZ EP       1117 48.22                             126    0.12 9  171 151 
 YPLC HN ES       1118 10.02                             126   -0.42 9  171 151 
 ZAR  HZ EP       1117 52.45                             120    0.60 8  208 293 
 ZAR  HN ES       1118 17.26                             120    0.15 8  208 293 
 ZAR  HZ I        1118 25.87        13.4 0.12            121            208 293 
 NOR  HZ EP       1117 54.81                             117    0.22 8  233 236 
 NOR  HN ES       1118 22.10                             117    0.10 8  233 236 
 CHI  HZ EP   4   1117 58.00                             116    1.79 0  244 196 
 CHI  HN ES       1118 24.78                             116   -0.09 8  244 196 
 CHI  HZ I        1118 32.95         3.5 0.54            117            244 196 
 URE  HZ EP   3   1117 59.81                             112   -0.82 2  288 293 
 URE  HN ES   4   1118 31.16                             112   -1.59 0  288 293 
 GUY2CHZ EP       1118  3.49                             111    0.93 7  300 236 
 GUY2CHN ES   4   1118 37.63                             111    1.45 0  300 236 
 GUY2CHZ I        1118 43.49         6.4 0.24                           300 236 
 PTGC HZ EP       1118  1.71                             110   -0.57 7  303 159 
 PTGC HN ES       1118 35.34                             110   -0.35 7  303 159 
 DBB  EZ EP   2   1118  6.76                             108   -0.18 3  342 275 
 DBB  EN ES   2   1118 43.81                             108   -0.16 3  342 275 
 DBB  EZ I        1118 44.16         5.0 0.28            109            342 275 
 PRA  HZ EP       1118 13.27                             105    0.99 6  388 210 
 PRA  HN ES   4   1118 50.31                             105   -3.16 0  388 210 
 PRA  HZ I        1119  0.59         2.9 0.34            106            388 210 
                                                                                
