 2010  718 1053 20.2 L   6.925 -73.178112.1  RSN  6 0.5 1.4LRSN                1
 GAP=159        1.29       9.5    15.3 16.6  0.6439E+02 -0.1547E+03 -0.9826E+02E
 Epicentro: BETULIA - SANTANDER                                                3
 ACTION:UPD 10-12-01 15:18 OP:pat  STATUS:               ID:20100718105320 L   I
 2010-07-18-1050-39S.COL___120                                                 6
 STAT SP IPHASW D HRMM SECON CODA AMPLIT PERI AZIMU VELO AIN AR TRES W  DIS CAZ7
 GIR2 SZ EP       1053 34.98                             170    -0.510   17 354 
 BAR2 SZ EP       1053 36.38                             162     0.210   37 181 
 BAR2 SZ ES   1   1053 49.06                             162     0.3 7   37 181 
 BAR2 SZ I        1053 50.67        29.9 0.41                            37 181 
 BRR  HZ EP       1053 36.82                             150    -0.410   62 289 
 BRR  HN ES       1053 50.72                             150     0.210   62 289 
 BRR  HZ I        1053 51.42        11.5 0.40                            62 289 
 GUE  SZ EP       1053 41.40                             134     0.610  104  16 
 GUE  SZ I        1053 41.68         2.5 0.03                           104  16 
 RUS  HN ES   2   1053 58.32                             132    -0.8 5  115 175 
 RUS  HZ I        1054  0.54         1.8 0.28                           115 175 
 OCA  SZ EP       1053 44.93                             124     0.3 9  146 354 
 OCA  SZ ES   2   1054  2.54                             124    -1.2 5  146 354 
 OCA  SZ I        1054  8.76         3.3 0.59                           146 354 
                                                                                
