 2016  618 1054 39.7 L   6.805 -73.159147.3  RSN  8 0.4 1.8LRSN                1
 GAP=135        0.94       4.5     4.5  6.1 -0.6600E+01  0.5736E+01  0.3917E+01E
 Epicentro: LOS SANTOS - SANTANDER                                             3
 ACTION:UPD 16-07-21 22:20 OP:rebc STATUS:               ID:20160618105439 L   I
 OLDACT:REG 16-06-18 20:42 OP:dnl  STATUS:               ID:20160618104744     3
 2016-06-18-1047-44M.COL___337                                                 6
 STAT SP IPHASW D HRMM SECON CODA AMPLIT PERI AZIMU VELO AIN AR TRES W  DIS CAZ7
 BAR2 EZ EP       1054 59.31                             170   -0.2110 23.6 186 
 BAR2 EZ ES       1055 14.64                             170   -0.3410 23.6 186 
 BAR2 EZ I        1055 15.85        14.6 0.18                          23.6 186 
 BRR  HZ EP       1055  1.10                             153    0.1710 69.6 299 
 BRR  HE ES       1055 18.10                             153    0.6210 69.6 299 
 BRR  HZ I        1055 22.08        16.7 0.26                          69.6 299 
 PAM  EZ EP       1055  2.31                             151    0.2010 78.0  41 
 PAM  EN ES       1055 19.54                             151   -0.0510 78.0  41 
 PAM  EZ I        1055 21.50         9.5 0.52                          78.0  41 
 RUS  HZ EP       1055  3.52                             144   -0.1310  101 175 
 RUS  HN ES       1055 22.46                             144    0.1310  101 175 
 RUS  HZ I        1055 24.03         6.4 0.28                           101 175 
 PTB  HZ EP       1055  6.08                             133   -0.59 9  146 259 
 PTB  HN ES       1055 27.09                             133   -0.61 9  146 259 
 PTB  HZ I        1055 29.17         7.6 0.10                           146 259 
 SPBC HZ EP       1055  8.27                             130    0.00 9  163 218 
 SPBC HN ES       1055 31.14                             130    0.59 9  163 218 
 SPBC HZ I        1055 36.54        13.0 0.20                           163 218 
 NOR  HZ EP   2   1055 15.84                             119    0.42 4  234 234 
 NOR  HE ES   2   1055 44.18                             119    0.90 4  234 234 
 NOR  HZ I        1055 45.70         6.1 0.28                           234 234 
 GUY2CHZ EP   2   1055 24.24                             113    0.96 4  300 235 
 GUY2CHN ES       1055 56.95                             113   -0.31 7  300 235 
 GUY2CHZ I        1056  9.58         3.6 0.48                           300 235 
                                                                                
