 2010  318 1735  6.2 L   6.813 -73.020147.9  RSN  4 0.1 1.6LRSN                1
 GAP=251        0.30       3.0     7.3  3.4  0.1383E+02  0.1192E+01  0.1074E+01E
 Epicentro: CEPITA - SANTANDER                                                 3
 ACTION:UP  10-08-24 09:54 OP:vdl  STATUS:               ID:20100318173506 L   I
 2010-03-18-1730-21S.COL___098                                                 6
 STAT SP IPHASW D HRMM SECON CODA AMPLIT PERI AZIMU VELO SNR AR TRES W  DIS CAZ7
 BAR2 SZ EP   2   1735 26.08                             168    -0.1 5   30 216 
 BAR2 SZ ES   2   1735 41.67                             168    -0.2 5   30 216 
 BRR  HZ IP       1735 28.24                             149     0.010   83 293 
 BRR  HZ I        1735 37.83        18.6 0.45                            83 293 
 BRR  HN ES   2   1735 45.56                             149     0.1 5   83 293 
 RUS  HZ EP   1   1735 30.29                             144     0.1 7  102 184 
 RUS  HN ES   1   1735 49.05                             144     0.1 7  102 184 
 RUS  HZ I        1735 50.22         4.2 0.31                           102 184 
 CHI  HZ IP       1735 44.54                             117     0.0 8  254 198 
 CHI  HZ I        1735 45.82         1.9 0.41                           254 198 
 CHI  HE ES   2   1736 14.37                             117    -0.1 4  254 198 
                                                                                
