 2015 1018 1426 27.3 L   6.821 -73.156144.0  RSN  7 0.5 1.6LRSN                1
 GAP=134        1.33       4.4     8.1 10.3 -0.1583E+01  0.8921E+01 -0.4775E+01E
 Epicentro: LOS SANTOS - SANTANDER                                             3
 ACTION:UPD 15-12-22 20:41 OP:cam  STATUS:               ID:20151018142627 L   I
 OLDACT:REG 15-10-18 21:06 OP:stll STATUS:               ID:20151018141749     3
 2015-10-18-1417-49M.COL___331                                                 6
 STAT SP IPHASW D HRMM SECON CODA AMPLIT PERI AZIMU VELO AIN AR TRES W  DIS CAZ7
 BAR2 EZ EP       1426 46.83                             169    0.1010 25.5 187 
 BAR2 EZ ES       1427  1.21                             169   -0.7010 25.5 187 
 BAR2 EZ I        1427  2.77        10.1 0.26            172           25.5 187 
 BRR  HZ EP       1426 48.50                             153    0.4010 69.1 297 
 BRR  HN ES       1427  5.38                             153    1.0210 69.1 297 
 PAM  EZ EP       1426 49.72                             151    0.4910 76.4  41 
 PAM  EN ES       1427  6.34                             151   -0.0210 76.4  41 
 PAM  EZ I        1427  7.29         5.3 0.20            150           76.4  41 
 RUS  HZ EP       1426 50.95                             143   -0.0610  103 176 
 RUS  HN ES       1427  9.57                             143    0.0310  103 176 
 RUS  HZ I        1427 11.68         3.2 0.68            145            103 176 
 OCA  HN ES       1427 16.59                             130   -0.41 9  158 353 
 OCA  HZ I        1427 24.82        11.7 0.48            129            158 353 
 SPBC HN ES       1427 17.47                             128   -0.46 9  164 218 
 SML  HN ES       1427 30.95                             117   -0.83 8  241 335 
                                                                                
