 2011  218 1029  3.9 L   6.792 -73.139137.5  RSN 16 0.4 2.7LRSN                1
 GAP=136        1.03       3.5     6.5  6.5 -0.5142E+01  0.1633E+02  0.1906E+01E
 Epicentro: LOS SANTOS - SANTANDER                                             3
 ACTION:UP  11-03-28 15:09 OP:jfem STATUS:               ID:20110218102903 L   I
 2011-02-18-1028-08S.COL___137                                                 6
 STAT SP IPHASW D HRMM SECON CODA AMPLIT PERI AZIMU VELO SNR AR TRES W  DIS CAZ7
 BTL  SZ IP       1029 22.73                             171     0.210   20 315 
 BAR2 SZ IP       1029 22.53                             170     0.010   23 193 
 BAR2 SZ ES   1   1029 37.10                             170     0.0 7   23 193 
 BAR2 SZ I        1029 40.40       145.5 0.35                            23 193 
 GIR2 SZ IP       1029 22.60                             166     0.010   32 349 
 GIR2 SZ ES   1   1029 37.30                             166     0.1 7   32 349 
 RUS  HZ IP       1029 26.51                             142    -0.310  100 176 
 RUS  HN ES   1   1029 44.23                             142    -0.4 7  100 176 
 RUS  HZ I        1029 46.48        55.6 0.39                           100 176 
 GRA  SZ IP       1029 29.32                             135     0.810  126  17 
 GRA  SZ I        1029 50.25        54.5 0.26                           126  17 
 OCA  SZ EP       1029 31.10                             127    -0.6 9  161 353 
 OCA  SZ ES   1   1029 53.48                             127     0.1 7  161 353 
 OCA  SZ I        1030  1.42        48.5 0.25                           161 353 
 YOP  SZ IP       1029 33.25                             125     0.0 9  178 153 
 YOP  SZ I        1029 57.93        29.2 0.35                           178 153 
 NOR  SZ EP       1029 38.64                             117    -0.6 8  235 235 
 NOR  SN ES   1   1030  6.13                             117    -0.6 6  235 235 
 CHI  HZ IP     C 1029 40.86                             115    -0.2 8  248 195 
 CHI  HN ES   1   1030 10.40                             115     0.3 6  248 195 
 CHI  HZ I        1030 16.24        23.5 0.07                           248 195 
 ROSC BN ES   1   1030 11.79                             115     0.9 6  252 211 
 ROSC BZ I        1030 17.16        65.8 0.41                           252 211 
 HEL  HZ EP       1029 44.19                             113     0.4 8  273 256 
 HEL  HZ I        1030 22.76        23.0 0.35                           273 256 
 GUY  SZ EP       1029 47.50                             111     0.3 7  301 235 
 GUY  SZ I        1030 28.68        56.4 0.32                           301 235 
 VIL  SZ EP   2   1029 46.09                             111    -0.6 4  301 190 
 VIL  SE ES   2   1030 20.74                             111     0.7 4  301 190 
 VIL  SZ I        1030 29.83        23.1 0.32                           301 190 
 RREF HZ EP   2   1029 50.14                             109     0.4 3  322 230 
 RREF HZ I        1030 29.76        24.8 0.30                           322 230 
 DBB  SZ EP       1029 51.04                             108    -0.1 7  340 274 
 TOL  SZ EP       1029 51.46                             108    -0.4 7  343 225 
                                                                                
