 2017 1018 1054  2.2 L   6.820 -73.160148.4  RSN  9 0.4 1.6LRSN                1
 GAP=214        1.04       4.9     5.3  6.2  0.1491E+02  0.5911E+01  0.7482E+01E
 Epicentro: LOS SANTOS - SANTANDER                                             3
 ACTION:UPD 17-11-07 19:33 OP:rebc STATUS:               ID:20171018105402 L   I
 OLDACT:UP  17-10-18 22:13 OP:edw  STATUS:               ID:20171018104735     3
 OLDACT:UP  17-10-18 22:10 OP:edw  STATUS:               ID:20171018104735     3
 OLDACT:REG 17-10-18 20:26 OP:edw  STATUS:               ID:20171018104735     3
 2017-10-18-1048-00M.COL___419                                                 6
 STAT SP IPHASW D HRMM SECON CODA AMPLIT PERI AZIMU VELO AIN AR TRES W  DIS CAZ7
 BAR2 EZ EP     C 1054 22.03                             170   -0.1610 25.3 186 
 BAR2 EZ ES       1054 37.18                             170   -0.6010 25.3 186 
 BAR2 EZ I        1054 39.81        10.7 0.32            164           25.3 186 
 BRR  HZ EP       1054 23.91                             154    0.4110 68.8 298 
 BRR  HE ES       1054 40.57                             154    0.4510 68.8 298 
 RUS  HZ EP       1054 26.10                             144   -0.2810  103 175 
 RUS  HN ES       1054 45.62                             144    0.3810  103 175 
 RUS  HZ I        1054 46.14         4.2 0.26            142            103 175 
 PTB  HZ EP       1054 28.39                             133   -0.90 9  147 258 
 PTB  HN ES       1054 49.95                             133   -0.47 9  147 258 
 PTB  HZ I        1054 54.97         3.7 0.46            130            147 258 
 YPLC HZ EP     C 1054 32.51                             127    0.06 9  179 151 
 YPLC HN ES       1054 56.43                             127    0.39 9  179 151 
 YPLC HZ I        1054 57.43         5.0 0.26            127            179 151 
 ZAR  HZ EP       1054 34.68                             123    0.09 9  202 292 
 ZAR  HN ES       1055  0.38                             123    0.53 9  202 292 
 ZAR  HZ I        1055  4.93         4.0 0.20            123            202 292 
 NOR  HZ EP   4   1054 35.39                             119   -2.70 0  235 234 
 NOR  HE ES   3   1055  6.16                             119    0.08 2  235 234 
 NOR  HZ I        1055 11.42         3.5 0.14            118            235 234 
 CHI  HZ EP       1054 40.24                             117    0.01 8  250 195 
 CHI  HN ES       1055  9.61                             117   -0.29 8  250 195 
 CHI  HZ I        1055 14.91         2.3 0.36            117            250 195 
 PRA  HZ EP       1054 56.19                             107    0.24 6  393 209 
 PRA  HN ES       1055 38.66                             107    0.79 6  393 209 
 PRA  HZ I        1055 42.19         2.0 0.32            107            393 209 
                                                                                
