 2013 1018 1841 13.7 L   6.735 -73.167154.8  RSN  4 0.2 1.7LRSN                1
 GAP=230        0.67       5.5     5.2  5.4  0.1395E+02  0.2147E+01  0.1131E+00E
 Epicentro: VILLANUEVA - SANTANDER                                             3
 ACTION:UPD 13-11-25 09:22 OP:ep   STATUS:               ID:20131018184113 L   I
 OLDACT:UP  13-10-18 17:06 OP:cam  STATUS:               ID:20131018183848     3
 OLDACT:REG 13-10-18 16:20 OP:cam  STATUS:               ID:20131018183848     3
 2013-10-18-1838-48M.COL___220                                                 6
 STAT SP IPHASW D HRMM SECON CODA AMPLIT PERI AZIMU VELO AIN AR TRES W  DIS CAZ7
 BAR2 SZ EP       1841 34.12                             174   -0.2110 15.9 186 
 BAR2 SZ ES       1841 49.98                             174   -0.4110 15.9 186 
 BAR2 SZ I        1841 50.27        13.5 0.28            165           15.9 186 
 BRR  HZ EP       1841 36.10                             153    0.1410 73.0 304 
 BRR  HN ES       1841 53.63                             153    0.3310 73.0 304 
 RUS  HZ EP       1841 37.97                             148    0.0610 93.6 174 
 RUS  HN ES       1841 57.07                             148    0.3010 93.6 174 
 RUS  HZ I        1842  0.00         3.3 0.18            143           93.6 174 
 PTB  HZ EP       1841 41.04                             135   -0.10 9  144 261 
 PTB  HN ES       1842  2.37                             135   -0.15 9  144 261 
 PTB  HZ I        1842  8.05        10.5 0.40            131            144 261 
 GUY2CHZ EP   4   1841 59.02                             114    1.92 0  295 236 
                                                                                
