 2015  818 1305  1.5 L   6.817 -73.152143.0  RSN 11 0.5 2.2LRSN                1
 GAP=135        1.17       3.8     4.9  6.7 -0.1842E+01  0.1253E+02 -0.7667E+00E
 Epicentro: LOS SANTOS - SANTANDER                                             3
 ACTION:UPD 15-09-15 23:03 OP:cam  STATUS:               ID:20150818130501 L   I
 OLDACT:REG 15-08-18 20:35 OP:ar   STATUS:               ID:20150818125748     3
 2015-08-18-1257-48M.COL___328                                                 6
 STAT SP IPHASW D HRMM SECON CODA AMPLIT PERI AZIMU VELO AIN AR TRES W  DIS CAZ7
 BAR2 EZ EP       13 5 20.41                             170   -0.3910 25.1 188 
 BAR2 EZ ES       13 5 35.31                             170   -0.5710 25.1 188 
 BAR2 EZ I        13 5 36.44        20.0 0.20            168           25.1 188 
 BRR  HN ES       13 5 39.31                             153    0.8810 69.7 297 
 PAM  EZ EP       13 5 23.38                             151    0.0510 76.4  41 
 PAM  EN ES       13 5 40.54                             151    0.1610 76.4  41 
 PAM  EZ I        13 5 42.43        30.0 0.48            154           76.4  41 
 RUS  HZ EP       13 5 25.42                             143    0.3310  103 176 
 RUS  HE ES       13 5 43.73                             143    0.2210  103 176 
 RUS  HZ I        13 5 44.10        14.1 0.22            144            103 176 
 SPBC HZ EP       13 5 29.65                             128   -0.21 9  164 218 
 SPBC HN ES       13 5 51.57                             128   -0.43 9  164 218 
 SPBC HZ I        13 5 53.82        24.8 0.38            128            164 218 
 ZAR  HZ EP       13 5 32.97                             122   -0.63 9  203 292 
 ZAR  HN ES       13 5 58.35                             122   -0.31 9  203 292 
 ZAR  HZ I        13 6  3.48         9.4 0.44            121            203 292 
 NOR  HN ES       13 6  4.74                             118   -0.15 8  235 234 
 NOR  HZ I        13 6 12.15        11.7 0.14            118            235 234 
 SML  HZ EP       13 5 36.83                             117   -0.90 8  242 335 
 SML  HE ES       13 6  6.37                             117    0.37 8  242 335 
 SML  HZ I        13 6  8.59        24.3 0.28            117            242 335 
 HEL  HZ EP   2   13 5 42.81                             114    1.29 4  272 255 
 HEL  HN ES       13 6 12.98                             114    0.22 8  272 255 
 HEL  HZ I        13 6 19.24         7.4 0.42            114            272 255 
 URE  HN ES   4   13 6 16.61                             113    2.54 0  282 292 
 GUY2CHZ EP       13 5 45.70                             112    0.69 7  302 234 
 GUY2CHE ES   4   13 6 20.48                             112    1.51 0  302 234 
 GUY2CHZ I        13 6 24.49         5.5 0.34                           302 234 
 TOL  SZ EP       13 5 50.47                             109    0.75 7  344 224 
 TOL  SE ES   4   13 6 29.13                             109    1.78 0  344 224 
 TOL  SZ I        13 6 33.77         5.9 0.56            109            344 224 
                                                                                
