 2017  618 1031 16.7 L   6.792 -73.169152.1  RSN  5 0.4 1.7LRSN                1
 GAP=278        0.94       5.2     8.7  8.4 -0.5039E+01 -0.1786E+02  0.9389E+01E
 Epicentro: LOS SANTOS - SANTANDER                                             3
 ACTION:UPD 17-09-14 16:52 OP:jn   STATUS:               ID:20170618103116 L   I
 OLDACT:DUP 17-06-18 21:46 OP:osc  STATUS:               ID:20170618102730d    3
 2017-06-18-1028-00M.COL___338                                                 6
 STAT SP IPHASW D HRMM SECON CODA AMPLIT PERI AZIMU VELO AIN AR TRES W  DIS CAZ7
 BRR  HZ EP       1031 38.38                             154   -0.1010 69.4 300 
 BRR  HE ES       1031 55.83                             154    0.3910 69.4 300 
 BRR  HZ I        1031 58.48         8.6 0.12            151           69.4 300 
 PTB  HZ EP       1031 43.58                             134   -0.41 9  145 259 
 PTB  HN ES       1032  4.61                             134   -0.64 9  145 259 
 PTB  HZ I        1032 10.06         4.4 0.18            133            145 259 
 SPBC HZ EP       1031 45.55                             131    0.03 9  161 218 
 SPBC HN ES       1032  7.69                             131   -0.27 9  161 218 
 SPBC HZ I        1032 12.61         6.7 0.10            132            161 218 
 ZAR  HZ EP       1031 49.49                             124    0.09 9  202 293 
 ZAR  HE ES       1032 14.92                             124    0.05 9  202 293 
 ZAR  HZ I        1032 21.00         6.2 0.31            125            202 293 
 NOR  HZ EP       1031 52.90                             120    0.33 8  232 234 
 NOR  HE ES       1032 21.28                             120    0.77 8  232 234 
 NOR  HZ I        1032 21.99         3.1 0.16            121            232 234 
                                                                                
