 2016  818 1943 57.0 L   6.867 -73.179142.2  RSN  5 0.1 2.1LRSN                1
 GAP=285        0.44       6.9     3.7  4.3 -0.1387E+02  0.5660E+01 -0.6212E+01E
 Epicentro: ZAPATOCA - SANTANDER                                               3
 ACTION:UPD 16-10-29 15:36 OP:rebc STATUS:               ID:20160818194357 L   I
 OLDACT:REG 16-08-18 20:39 OP:dnl  STATUS:               ID:20160818193622     3
 2016-08-18-1938-00M.COL___361                                                 6
 STAT SP IPHASW D HRMM SECON CODA AMPLIT PERI AZIMU VELO AIN AR TRES W  DIS CAZ7
 BAR2 EZ EP       1944 16.46                             167    0.0910 30.4 181 
 BAR2 EZ ES       1944 31.38                             167   -0.1010 30.4 181 
 BAR2 EZ I        1944 32.85        39.9 0.18                          30.4 181 
 PTB  HZ EP       1944 23.41                             132   -0.08 9  146 256 
 PTB  HE ES       1944 44.32                             132    0.16 9  146 256 
 PTB  HZ I        1944 46.66        11.9 0.30                           146 256 
 NOR  HZ EP   2   1944 32.82                             118    0.14 4  236 232 
 NOR  HE ES       1945  0.35                             118   -0.16 8  236 232 
 NOR  HZ I        1945  5.57         9.3 0.26                           236 232 
 GUY2CHZ EP   9   1944 42.17                             112    1.58 0  303 233 
 GUY2CHN ES       1945 16.60                                    0.42 7  303 233 
 GUY2CHZ I        1945 22.93         6.2 0.32                           303 233 
 PRA  HZ EP   2   1944 51.14                             106    0.19 3  397 209 
 PRA  HN ES   4   1945 31.69                             106   -1.34 0  397 209 
 PRA  HZ I        1945 37.01         5.3 0.22                           397 209 
                                                                                
