 2016  418 1413 54.2 L   6.019 -73.701102.2  RSN  5 0.4 1.5LRSN                1
 GAP= 98        0.97       4.0     3.5 10.5 -0.1997E+00  0.1446E+02  0.8782E+01E
 Epicentro: VELEZ - SANTANDER                                                  3
 ACTION:UPD 16-05-05 14:22 OP:rebc STATUS:               ID:20160418141354 L   I
 OLDACT:UP  16-04-19 11:08 OP:mh   STATUS:               ID:20160418140751     3
 OLDACT:ARG 16-04-18 20:49 OP:ar   STATUS:               ID:20160418140751     3
 2016-04-18-1407-51M.COL___295                                                 6
 STAT SP IPHASW D HRMM SECON CODA AMPLIT PERI AZIMU VELO AIN AR TRES W  DIS CAZ7
 RUS  HZ EP       1414 11.23                             143   -0.2510 69.8 102 
 RUS  HN ES       1414 25.04                             143    0.1110 69.8 102 
 RUS  HZ I        1414 27.29         3.3 0.40            149           69.8 102 
 BAR2 EZ EP       1414 12.10                             137   -0.2510 85.5  42 
 BAR2 EZ ES       1414 26.80                             137    0.3110 85.5  42 
 BAR2 EZ I        1414 28.08        17.5 0.15            143           85.5  42 
 PTB  HZ EP       1414 14.06                             131    0.6010  102 305 
 PTB  HE ES       1414 27.82                             131   -0.6310  102 305 
 PTB  HZ I        1414 30.41         3.4 0.18            136            102 305 
 NOR  HZ EP       1414 17.05                             122   -0.13 9  139 249 
 NOR  HN ES       1414 35.50                             122    0.42 9  139 249 
 NOR  HZ I        1414 37.88         9.6 0.18            126            139 249 
 CHI  HN ES       1414 38.53                             119   -0.17 9  154 181 
                                                                                
