 2012 1018 1457  5.3 L   6.771 -73.130141.3  RSN  6 0.3 2.1LRSN                1
 GAP=140        0.65       4.2     4.6  5.5  0.4242E+01  0.6257E+01  0.7881E+00E
 Epicentro: LOS SANTOS - SANTANDER                                             3
 ACTION:UPD 12-11-22 17:04 OP:ep   STATUS:               ID:20121018145705 L   I
 2012-10-18-1450-00M.COL___227                                                 6
 STAT SP IPHASW D HRMM SECON CODA AMPLIT PERI AZIMU VELO AIN AR TRES W  DIS CAZ7
 BAR2 SZ EP   1   1457 24.37                             171    0.00 7 20.6 196 
 BAR2 SZ I        1457 24.92        35.6 0.26                          20.6 196 
 BAR2 SZ ES   1   1457 38.85                             171   -0.37 7 20.6 196 
 GIR2 SZ EP   1   1457 24.48                             165   -0.10 7 34.7 348 
 GIR2 SZ ES   1   1457 39.70                             165    0.12 7 34.7 348 
 BRR  HZ EP   1   1457 26.28                             151    0.10 7 74.3 300 
 BRR  HZ I        1457 26.62        30.3 0.24                          74.3 300 
 BRR  HN ES   1   1457 43.12                             151    0.68 7 74.3 300 
 PAM  SZ EP   1   1457 27.28                             150    0.12 7 78.8  37 
 PAM  SZ I        1457 27.74         7.1 0.20                          78.8  37 
 PAM  SN ES   1   1457 43.94                             150   -0.24 7 78.8  37 
 RUS  HZ EP   1   1457 28.42                             144    0.01 7 97.3 177 
 RUS  HN ES   1   1457 46.46                             144    0.05 7 97.3 177 
 RUS  HN I        1457 47.33        13.9 0.34                          97.3 177 
 ZAR  HZ EP   1   1457 38.03                             121    0.24 6  207 293 
 ZAR  HN ES   1   1458  2.37                             121   -0.73 6  207 293 
 ZAR  HN I        1458  5.60        22.5 0.16                           207 293 
                                                                                
