 2012  918 1126 42.9 L   6.716 -73.163153.4  RSN  5 0.2 1.9LRSN                1
 GAP=138        0.43       4.5     5.1  6.2  0.6325E+01 -0.1353E+02 -0.3321E+01E
 Epicentro: VILLANUEVA - SANTANDER                                             3
 ACTION:UPD 12-10-22 14:19 OP:ep   STATUS:               ID:20120918112642 L   I
 2012-09-18-1120-00M.COL___227                                                 6
 STAT SP IPHASW D HRMM SECON CODA AMPLIT PERI AZIMU VELO AIN AR TRES W  DIS CAZ7
 BAR2 SZ EP       1127  3.39                             175    0.1010 13.8 189 
 BAR2 SZ ES   2   1127 18.71                             175   -0.49 5 13.8 189 
 BAR2 SZ I        1127 20.33        18.3 0.15                          13.8 189 
 BRR  HZ EP   1   1127  4.92                             153   -0.13 7 74.5 306 
 BRR  HZ I        1127  5.70        13.2 0.14                          74.5 306 
 BRR  HE ES   1   1127 22.58                             153    0.25 7 74.5 306 
 PAM  SZ EP   1   1127  6.34                             150   -0.09 7 85.9  37 
 RUS  HZ EP   1   1127  6.83                             148    0.05 7 91.5 174 
 RUS  HN ES   2   1127 25.56                             148    0.14 5 91.5 174 
 PTB  HE ES   2   1127 31.22                             134   -0.26 5  144 262 
                                                                                
