 2016 1118 1630 43.7 L   6.805 -73.136149.2  RSN  7 0.4 1.9LRSN                1
 GAP=153        0.98       5.3     4.5  6.3 -0.6257E+01  0.6492E+01  0.9658E+01E
 Epicentro: LOS SANTOS - SANTANDER                                             3
 ACTION:UPD 17-10-26 21:09 OP:lp   STATUS:               ID:20161118163043 L   I
 OLDACT:REG 16-11-18 20:48 OP:edw  STATUS:               ID:20161118162743     3
 2016-11-18-1628-00M.COL___340                                                 6
 STAT SP IPHASW D HRMM SECON CODA AMPLIT PERI AZIMU VELO AIN AR TRES W  DIS CAZ7
 BAR2 EZ EP       1631  3.59                             170   -0.1710 24.1 192 
 BAR2 EZ ES       1631 19.14                             170   -0.2610 24.1 192 
 BAR2 EZ I        1631 21.33        14.1 0.52            168           24.1 192 
 BRR  HZ EP       1631  5.70                             153    0.4410 71.8 298 
 BRR  HN ES       1631 22.54                             153    0.4710 71.8 298 
 PAM  EZ EP       1631  6.43                             152    0.2110 76.2  39 
 PAM  EE ES       1631 23.70                             152   -0.0810 76.2  39 
 PAM  EZ I        1631 25.62         9.9 0.20            156           76.2  39 
 PTB  HZ EP       1631 10.49                             132   -0.57 9  149 259 
 PTB  HN ES       1631 31.83                             132   -0.56 9  149 259 
 PTB  HZ I        1631 37.23         9.9 0.16            133            149 259 
 ZAR  HZ EP       1631 15.87                             123   -0.58 9  205 292 
 ZAR  HN ES       1631 42.41                             123    0.42 9  205 292 
 NOR  HZ EP       1631 19.78                             119    0.01 8  236 234 
 NOR  HN ES       1631 48.00                             119    0.11 8  236 234 
 NOR  HZ I        1631 51.05         6.9 0.26            120            236 234 
 PRA  HZ EP       1631 37.82                             107    0.35 6  393 210 
 PRA  HN ES       1632 20.29                             107    0.89 6  393 210 
 PRA  HZ I        1632 25.05         3.9 0.60            108            393 210 
                                                                                
