 2013  318 1624 54.6 L   6.804 -73.121148.0  RSN 10 0.5 2.7LRSN                1
 GAP=139        1.10       3.7     4.5  6.3 -0.6600E+00  0.8691E+01  0.1606E+01E
 Epicentro: LOS SANTOS - SANTANDER                                             3
 ACTION:UPD 13-04-09 14:03 OP:ep   STATUS:               ID:20130318162454 L   I
 2013-03-18-1620-00M.COL___244                                                 6
 STAT SP IPHASW D HRMM SECON CODA AMPLIT PERI AZIMU VELO AIN AR TRES W  DIS CAZ7
 BAR2 SZ EP       1625 14.54                             170    0.0110 24.4 196 
 BAR2 SZ ES       1625 29.68                             170   -0.3910 24.4 196 
 BAR2 SZ I        1625 31.31       108.6 0.40            170           24.4 196 
 BRR  HZ IP     C 1625 16.42                             152    0.3010 73.4 297 
 BRR  HN ES   1   1625 33.66                             152    0.76 7 73.4 297 
 BRR  HN I        1625 38.02       149.1 0.20            149           73.4 297 
 PAM  SZ EP       1625 17.36                             152    0.4210 75.3  38 
 PAM  SN ES       1625 34.81                             152    0.4410 75.3  38 
 PAM  SN I        1625 35.61        64.4 0.46            153           75.3  38 
 RUS  HZ EP       1625 18.40                             144   -0.2010  101 178 
 RUS  HN ES       1625 37.31                             144   -0.0110  101 178 
 RUS  HN I        1625 37.65        70.8 0.30            146            101 178 
 PTB  HZ EP       1625 21.03                             132   -0.98 9  150 259 
 PTB  HN ES       1625 42.80                             132   -0.58 9  150 259 
 PTB  HN I        1625 48.09       106.4 0.42            131            150 259 
 ZAR  HZ EP   1   1625 27.33                             123   -0.11 6  206 292 
 ZAR  HE ES       1625 52.86                             123   -0.19 8  206 292 
 ZAR  HE I        1625 57.17       118.3 0.40            122            206 292 
 CHI  HZ EP       1625 32.71                             117    0.15 8  250 196 
 CHI  HN ES       1626  1.91                             117   -0.25 8  250 196 
 CHI  HN I        1626  6.96        29.7 0.52            118            250 196 
 HEL  HZ EP       1625 36.15                             115    0.91 8  275 256 
 HEL  HE ES       1626  7.44                             115    0.51 8  275 256 
 HEL  HE I        1626 13.83        28.3 0.34            115            275 256 
 COD  HZ EP   2   1625 42.79                             109   -0.26 3  348 354 
 COD  HN ES       1626 20.08                             109   -0.75 6  348 354 
 COD  HN I        1626 30.14         7.8 0.24            110            348 354 
 PRA  HZ EP       1625 48.20                             107   -0.21 6  394 210 
 PRA  HE ES   1   1626 31.43                             107    1.06 4  394 210 
 PRA  HE I        1626 33.55        15.9 0.32            107            394 210 
                                                                                
