 2017  218 1605 21.0 L   6.742 -73.112147.1  RSN  5 0.3 1.4LRSN                1
 GAP=171        0.81       9.0     4.1  9.1 -0.1221E+02 -0.1009E+01  0.3880E+02E
 Epicentro: LOS SANTOS - SANTANDER                                             3
 ACTION:UPD 17-05-24 15:37 OP:jn   STATUS:               ID:20170218160521 L   I
 OLDACT:UP  17-02-18 23:45 OP:dani STATUS:               ID:20170218155749d    3
 OLDACT:UP  17-02-18 23:44 OP:dani STATUS:               ID:20170218155749d    3
 OLDACT:DUP 17-02-18 23:42 OP:dani STATUS:               ID:20170218155749d    3
 2017-02-18-1558-00M.COL___355                                                 6
 STAT SP IPHASW D HRMM SECON CODA AMPLIT PERI AZIMU VELO AIN AR TRES W  DIS CAZ7
 BAR2 EZ EP       16 5 40.83                             173    0.1610 18.3 205 
 BAR2 EZ I        16 6  0.96         4.5 0.28            151           18.3 205 
 BRR  HZ EP       16 5 42.85                             151    0.2110 77.6 301 
 BRR  HE ES       16 5 59.77                             151    0.2310 77.6 301 
 BRR  HZ I        16 6  4.15         5.3 0.12            161           77.6 301 
 PAM  EZ EP       16 5 43.85                             150    0.3510 80.2  35 
 PAM  EN ES       16 6  0.64                             150   -0.4310 80.2  35 
 PAM  EZ I        16 6  2.18         3.0 0.18            154           80.2  35 
 PTB  HZ EP       16 5 47.71                             132   -0.58 9  150 262 
 PTB  HN ES       16 6  9.62                             132    0.03 9  150 262 
 PTB  HZ I        16 6 10.81         4.2 0.22            132            150 262 
 ZAR  HE ES       16 6 19.91                             122   -0.06 8  210 293 
                                                                                
