 2017  918 1120  6.3 L   6.039 -73.645118.0  RSN 12 0.7 2.0LRSN                1
 GAP= 68        1.23       3.5     3.9  8.2 -0.3978E+01  0.1146E+02  0.4709E+01E
 Epicentro: CHIPATA - SANTANDER                                                3
 ACTION:UPD 17-10-05 19:13 OP:rebc STATUS:               ID:20170918112006 L   I
 OLDACT:REG 17-09-18 19:57 OP:lv   STATUS:               ID:20170918111741     3
 2017-09-18-1118-00M.COL___435                                                 6
 STAT SP IPHASW D HRMM SECON CODA AMPLIT PERI AZIMU VELO AIN AR TRES W  DIS CAZ7
 RUS  HZ EP       1120 24.76                             150   -0.0210 64.2 105 
 RUS  HN ES       1120 39.23                             150    0.0310 64.2 105 
 RUS  HZ I        1120 40.29        28.0 0.32            152           64.2 105 
 BAR2 EZ IP     C 1120 25.54                             143    0.0810 79.8  40 
 BAR2 EZ ES       1120 40.25                             143   -0.1610 79.8  40 
 BRR  HZ EP       1120 28.30                             131   -0.0210  118 356 
 BRR  HN ES       1120 46.20                             131    0.7110  118 356 
 BRR  HZ I        1120 48.46        12.3 0.14            133            118 356 
 NOR  HZ EP       1120 30.02                             125   -0.96 9  145 249 
 NOR  HN ES       1120 49.60                             125   -0.63 9  145 249 
 NOR  HZ I        1120 53.41        30.7 0.18            126            145 249 
 YPLC HZ EP       1120 32.57                             123    0.39 9  157 117 
 YPLC HE ES   4   1120 53.80                             123    1.44 0  157 117 
 YPLC HZ I        1120 55.82        15.4 0.42            125            157 117 
 PAM  EZ EP       1120 35.15                             119    0.27 9  178  36 
 PAM  EN ES       1120 56.56                             119   -0.62 9  178  36 
 PAM  EZ I        1120 59.02         4.7 0.22            121            178  36 
 ZAR  HZ EP       1120 37.75                             115    0.06 8  209 320 
 ZAR  HN ES       1121  2.04                             115   -0.14 8  209 320 
 ZAR  HZ I        1121  5.67        10.9 0.38            116            209 320 
 GUY2CHZ EP       1120 38.88                             115    0.43 8  211 245 
 GUY2CHN ES       1121  4.38                             115    0.86 8  211 245 
 GUY2CHZ I        1121  7.94        11.1 0.44                           211 245 
 PTGC HZ EP   9   1120 43.11                             109   -0.70 0  263 140 
 PTGC HN ES       1121 11.55                                   -0.82 8  263 140 
 URE  HZ EP   3   1120 42.40                             107   -3.55 2  282 312 
 URE  HN ES   3   1121 12.83                             107   -4.04 2  282 312 
 URE  HZ I        1121 20.62         7.7 0.20            108            282 312 
 PRA  HZ EP       1120 46.74                             107   -0.38 7  292 208 
 PRA  HN ES       1121 18.88                             107   -0.08 7  292 208 
 PRA  HZ I        1121 23.10         7.5 0.52            108            292 208 
 ORTC HZ EP       1120 48.02                             106    0.51 7  295 217 
 ORTC HN ES       1121 19.88                             106    0.23 7  295 217 
 ORTC HZ I        1121 25.58         5.1 0.50            107            295 217 
 SJC  HZ EP   4   1121  4.49                              99   -2.58 0  459 338 
 SJC  HN ES   4   1121 50.18                              99   -4.30 0  459 338 
                                                                                
