 2013 1018 1118 53.3 L   6.824 -73.138147.6  RSN 17 0.5 3.3LRSN 3.6WRSN        1
 SPEC AVERAGE  MO 14.4 ST 61.6 OM  3.0 f0 4.76 R0.5862 AL 0.00 WI 20.0 MW  3.6 3
 SPEC SD       MO  0.2 ST 75.5 OM  0.4 f0 3.36 R0.3870 AL      WI      MW  0.1 3
 GAP= 71        1.08       3.2     3.6  5.6 -0.8616E+00  0.4538E+01  0.4795E+01E
 Epicentro: LOS SANTOS - SANTANDER                                             3
 SPEC NOR HH N MO 14.2 ST204.1 OM  2.4 f0 10.0 R0.1554 AL 0.00 WI 29.0 MW  3.4 3
 SPEC NOR HH N T111955 K 0.000 GD  279 VS 4.20 DE 3.20 Q0300.0 QA 0.60 VS 4.20 3
 SPEC ZAR HH N MO 14.3 ST115.1 OM  2.5 f0 7.92 R0.1962 AL 0.00 WI 20.3 MW  3.5 3
 SPEC ZAR HH N T111949 K 0.000 GD  251 VS 4.20 DE 3.20 Q0300.0 QA 0.60 VS 4.20 3
 SPEC TAM HH N MO 14.7 ST  1.8 OM  3.0 f0 1.42 R1.0944 AL 0.00 WI 14.5 MW  3.8 3
 SPEC TAM HH N T111943 K 0.000 GD  214 VS 4.20 DE 3.20 Q0300.0 QA 0.60 VS 4.20 3
 SPEC RUS HH N MO 14.4 ST  1.7 OM  2.7 f0 1.85 R0.8400 AL 0.00 WI 22.8 MW  3.5 3
 SPEC RUS HH N T111933 K 0.000 GD  179 VS 4.20 DE 3.20 Q0300.0 QA 0.60 VS 4.20 3
 SPEC PAM SH E MO 14.6 ST  2.0 OM  3.0 f0 1.62 R0.9593 AL 0.00 WI 14.5 MW  3.7 3
 SPEC PAM SH E T111932 K 0.000 GD  165 VS 4.20 DE 3.20 Q0300.0 QA 0.60 VS 4.20 3
 SPEC BRR HH E MO 14.3 ST 44.7 OM  2.7 f0 5.72 R0.2717 AL 0.00 WI 18.9 MW  3.5 3
 SPEC BRR HH E T111931 K 0.000 GD  163 VS 4.20 DE 3.20 Q0300.0 QA 0.60 VS 4.20 3
 ACTION:UPD 13-11-25 09:22 OP:ep   STATUS:               ID:20131018111853 L   I
 OLDACT:UP  13-10-18 16:33 OP:cam  STATUS:               ID:20131018110841     3
 OLDACT:UP  13-10-18 16:31 OP:cam  STATUS:               ID:20131018110841     3
 OLDACT:REG 13-10-18 15:59 OP:cam  STATUS:               ID:20131018110841     3
 2013-10-18-1108-41M.COL___220                                                 6
 STAT SP IPHASW D HRMM SECON CODA AMPLIT PERI AZIMU VELO AIN AR TRES W  DIS CAZ7
 BAR2 SZ EP       1119 12.98                             169   -0.2510 26.1 191 
 BAR2 SZ ES       1119 28.32                             169   -0.4410 26.1 191 
 BAR2 SZ I        1119 29.27       617.6 0.32            170           26.1 191 
 BRR  HZ EP       1119 14.82                             153    0.1810 70.8 296 
 BRR  HE ES       1119 32.12                             153    0.8510 70.8 296 
 BRR  HZ I        1119 35.14       282.9 0.30            151           70.8 296 
 PAM  SZ EP       1119 15.88                             152    0.3010 74.8  40 
 PAM  SE ES       1119 33.02                             152    0.0810 74.8  40 
 PAM  SZ I        1119 33.75       159.0 0.36            147           74.8  40 
 RUS  HZ EP       1119 16.90                             143   -0.5410  103 177 
 RUS  HN ES       1119 35.96                             143   -0.2910  103 177 
 RUS  HZ I        1119 37.19       177.7 0.38            141            103 177 
 PTB  HZ EP   4   1119 19.38                             132   -1.18 0  149 258 
 PTB  HN ES   4   1119 40.71                             132   -1.10 0  149 258 
 PTB  HZ I        1119 47.95       232.5 0.34            129            149 258 
 TAM  HZ IP     D 1119 21.44                             131    0.31 9  155 106 
 TAM  HZ I        1119 42.18       157.0 0.38            127            155 106 
 TAM  HN ES       1119 43.23                             131    0.41 9  155 106 
 OCA  HZ EP   1   1119 21.25                             131   -0.29 7  158 353 
 OCA  HN ES       1119 43.00                             131   -0.55 9  158 353 
 OCA  HZ I        1119 51.37       166.9 0.46            126            158 353 
 SPBC HZ EP   1   1119 22.10                             129   -0.11 7  166 219 
 SPBC HE ES   1   1119 44.18                             129   -0.56 7  166 219 
 SPBC HZ I        1119 48.83       261.5 0.26            126            166 219 
 YOP  SZ EP   4   1119 23.76                             126    0.07 0  181 154 
 ZAR  HZ EP   1   1119 25.54                             123   -0.33 6  204 291 
 ZAR  HN ES   1   1119 51.14                             123   -0.11 6  204 291 
 ZAR  HZ I        1119 56.17       198.1 0.46            120            204 291 
 NOR  HZ EP       1119 28.99                             119   -0.41 8  237 234 
 NOR  HN ES   1   1119 56.95                             119   -0.59 6  237 234 
 NOR  HZ I        1120  2.59       109.8 0.18            116            237 234 
 CHI  HZ EP       1119 31.16                             117   -0.26 8  251 195 
 ROSC BZ EP   1   1119 32.72                             117    0.88 6  255 211 
 ROSC BE ES       1120  3.25                             117    1.37 8  255 211 
 HEL  HZ EP   1   1119 34.29                             115    0.50 6  274 255 
 HEL  HN ES   1   1120  5.61                             115    0.25 6  274 255 
 HEL  HZ I        1120 11.00       110.5 0.36            112            274 255 
 GUY2CHZ EP       1119 37.37                             112    0.10 7  303 234 
 GUY2CHN ES   4   1120 15.39                             112    3.84 0  303 234 
 GUY2CHZ I        1120 19.45       143.2 0.60                           303 234 
 VIL  SZ EP       1119 36.80                             112   -0.33 7  306 192 
 VIL  SN ES       1120 11.02                             112   -0.29 7  306 192 
 VIL  SZ I        1120 20.74       213.6 0.44            109            306 192 
 CBOC HZ EP   4   1119 40.64                             110    0.14 0  335 252 
 CBOC HN E      C 1119 42.55                                            335 252 
 COD  HZ EP   4   1119 40.89                             109   -0.58 0  346 354 
 SDV  BZ EP   4   1119 42.44                             109   -0.71 0  358  50 
 ANIL HZ EP   2   1119 44.35                             109    0.87 3  360 224 
 ORTC HZ EP   4   1119 47.21                             106   -0.40 0  398 216 
 SJC  HZ EP   4   1119 47.19                             106   -1.55 0  407 327 
 MACC HZ EP   4   1119 59.97                             102   -2.43 0  523 189 
                                                                                
