 2010  718 1619 14.6 L   6.788 -73.110146.9  RSN 11 0.7 2.3LRSN                1
 GAP=160        1.72       5.9     9.9 11.6 -0.2229E+01  0.2928E+02 -0.4602E+01E
 Epicentro: LOS SANTOS - SANTANDER                                             3
 ACTION:UPD 10-12-01 15:18 OP:pat  STATUS:               ID:20100718161914 L   I
 2010-07-18-1616-40S.COL___119                                                 6
 STAT SP IPHASW D HRMM SECON CODA AMPLIT PERI AZIMU VELO AIN AR TRES W  DIS CAZ7
 BAR2 SZ IP       1619 34.32                             171     0.010   23 200 
 BAR2 SZ ES   1   1619 49.34                             171    -0.4 7   23 200 
 BAR2 SZ I        1619 50.25        52.1 0.35                            23 200 
 GIR2 SZ EP       1619 34.53                             167     0.110   33 344 
 BRR  HZ EP       1619 36.32                             151     0.210   75 298 
 BRR  HN ES       1619 53.58                             151     0.710   75 298 
 BRR  HZ I        1619 54.54        41.9 0.22                            75 298 
 RUS  HZ EP       1619 38.26                             144    -0.110   99 178 
 RUS  HN ES       1619 56.44                             144    -0.410   99 178 
 RUS  HZ I        1619 58.21        40.1 0.43                            99 178 
 BRI  SZ ES   2   1619 57.10                             142    -0.2 5  108  19 
 BRI  SZ I        1620  0.34        21.1 0.76                           108  19 
 GUE  SZ EP       1619 39.54                             139     0.110  117  10 
 GUE  SZ I        1620  1.61        12.3 0.32                           117  10 
 GRA  SZ ES   1   1620  0.12                             137     0.4 7  126  16 
 GRA  SZ I        1620  1.19        34.3 0.29                           126  16 
 OCA  SZ EP       1619 43.32                             130     0.1 9  162 352 
 OCA  SZ ES       1620  5.23                             130    -0.2 9  162 352 
 OCA  SZ I        1620  9.51        44.9 0.57                           162 352 
 HEL  HZ EP   1   1619 57.87                             115     2.6 6  276 256 
 HEL  HN ES   1   1620 26.42                             115    -0.6 6  276 256 
 HEL  HZ I        1620 32.50        10.9 0.57                           276 256 
 MON  HZ EP   1   1620  2.33                             109    -1.7 5  357 308 
 MON  HN ES       1620 41.31                             109    -1.3 6  357 308 
 MON  HZ I        1620 43.19         5.5 0.79                           357 308 
 PRA  HZ EP   1   1620  7.97                             107    -0.3 4  393 210 
 PRA  HN ES   1   1620 50.51                             107     0.4 4  393 210 
 PRA  HZ I        1620 56.59         9.9 0.10                           393 210 
                                                                                
