 2017  718 1000 47.7 L   6.098 -74.156 85.3  RSN  4 0.1 1.3LRSN                1
 GAP=106        0.34       1.5     1.4  3.1 -0.7505E+00 -0.7493E+00 -0.2945E+00E
 Epicentro: CIMITARRA - SANTANDER                                              3
 ACTION:UPD 17-08-30 15:34 OP:rebc STATUS:               ID:20170718100047 L   I
 OLDACT:UP  17-07-18 21:27 OP:lv   STATUS:               ID:20170718095740     3
 OLDACT:REG 17-07-18 20:10 OP:lv   STATUS:               ID:20170718095740     3
 2017-07-18-0958-00M.COL___365                                                 6
 STAT SP IPHASW D HRMM SECON CODA AMPLIT PERI AZIMU VELO AIN AR TRES W  DIS CAZ7
 SPBC HZ EP       10 1  1.33                             147    0.0610 50.1 169 
 SPBC HN ES       10 1 11.87                             147    0.0110 50.1 169 
 SPBC HZ I        10 1 12.85        11.5 0.32            149           50.1 169 
 PTB  HZ EP       10 1  1.68                             142   -0.1210 59.1 326 
 PTB  HN ES       10 1 12.91                             142    0.0910 59.1 326 
 PTB  HZ I        10 1 14.23         7.8 0.04            144           59.1 326 
 NOR  HZ EP       10 1  5.49                             127    0.1310 98.6 233 
 NOR  HN ES       10 1 19.02                             127   -0.1310 98.6 233 
 NOR  HZ I        10 1 22.43         2.4 0.10            128           98.6 233 
 BAR2 EZ EP       10 1  7.88                             121   -0.0010  121  63 
 BAR2 EZ ES       10 1 23.60                             121   -0.0410  121  63 
 BAR2 EZ I        10 1 25.14         5.1 0.05            123            121  63 
                                                                                
