 2014 1218 1040 43.7 L   6.746 -73.141146.6  RSN  9 0.4 1.6LRSN                1
 GAP=140        0.88       3.5     3.9  6.1 -0.2820E+01  0.5385E+01  0.3549E+01E
 Epicentro: LOS SANTOS - SANTANDER                                             3
 ACTION:UPD 15-02-10 17:04 OP:nd   STATUS:               ID:20141218104043 L   I
 OLDACT:REG 14-12-18 20:09 OP:spq  STATUS:               ID:20141218103745     3
 2014-12-18-1037-45M.COL___293                                                 6
 STAT SP IPHASW D HRMM SECON CODA AMPLIT PERI AZIMU VELO AIN AR TRES W  DIS CAZ7
 BAR2 EZ ES   1   1041 18.17                             173   -0.43 7 17.6 195 
 BAR2 EZ I        1041 19.37        11.2 0.16            171           17.6 195 
 BRR  HZ EP       1041  5.27                             151    0.1710 74.7 302 
 BRR  HN ES       1041 22.36                             151    0.5410 74.7 302 
 BRR  HZ I        1041 24.12        10.8 0.36            151           74.7 302 
 PAM  SZ EP       1041  6.28                             150    0.0510 81.8  37 
 PAM  SN ES       1041 23.53                             150   -0.3110 81.8  37 
 PAM  SZ I        1041 25.45         6.3 0.58            152           81.8  37 
 RUS  HE ES   1   1041 25.95                             146    0.62 7 94.6 176 
 RUS  HZ I        1041 27.27         4.9 0.30            146           94.6 176 
 PTB  HZ EP       1041 10.58                             132   -0.07 9  147 261 
 PTB  HN ES       1041 31.12                             132   -0.58 9  147 261 
 PTB  HZ I        1041 34.79         4.4 0.14            132            147 261 
 SPBC HZ EP       1041 12.08                             130    0.26 9  159 220 
 SPBC HN ES       1041 33.59                             130   -0.20 9  159 220 
 SPBC HZ I        1041 34.77        10.8 0.12            130            159 220 
 ZAR  HZ EP   1   1041 15.76                             122   -0.69 6  207 294 
 ZAR  HN ES       1041 42.26                             122    0.23 8  207 294 
 ZAR  HZ I        1041 47.40         4.2 0.68            122            207 294 
 NOR  HN ES       1041 47.07                             119    0.30 8  232 236 
 NOR  HZ I        1041 52.32         3.2 0.56            119            232 236 
 CHI  HZ EP   1   1041 21.03                             118    0.23 6  243 196 
 CHI  HN ES   1   1041 49.22                             118   -0.54 6  243 196 
 CHI  HZ I        1041 54.19         1.5 0.26            118            243 196 
                                                                                
