 2013  418 1033 31.5 L   6.766 -73.113145.4  RSN  5 0.1 1.3LRSN                1
 GAP=142        0.40       2.9     4.9  4.0  0.6836E+01 -0.9235E+01 -0.4558E+01E
 Epicentro: LOS SANTOS - SANTANDER                                             3
 ACTION:UPD 13-05-22 14:39 OP:EP   STATUS:               ID:20130418103331 L   I
 2013-04-18-1028-48M.COL___215                                                 6
 STAT SP IPHASW D HRMM SECON CODA AMPLIT PERI AZIMU VELO AIN AR TRES W  DIS CAZ7
 BAR2 SZ EP       1033 51.06                             172    0.0710 20.6 202 
 BAR2 SZ ES       1034  6.06                             172   -0.1610 20.6 202 
 GIR2 SZ EP       1033 51.04                             165   -0.1710 35.8 346 
 BRR  HZ EP       1033 52.81                             151   -0.0410 76.2 300 
 BRR  HN ES       1034  9.66                             151    0.1110 76.2 300 
 PAM  SZ EP       1033 53.82                             150    0.1410 78.2  36 
 PAM  SZ I        1033 54.01         5.1 0.16            151           78.2  36 
 RUS  HZ EP       1033 54.81                             145   -0.0710 96.6 178 
 RUS  HE ES       1034 13.28                             145    0.1210 96.6 178 
 RUS  HZ I        1034 14.77         2.3 0.30            144           96.6 178 
                                                                                
