 2011  518 1037  1.4 L   6.821 -73.139139.6  RSN 14 0.5 2.5LRSN                1
 GAP=136        1.04       4.7     6.3  6.2 -0.1283E+02  0.9367E+01  0.3364E+01E
 Epicentro: LOS SANTOS - SANTANDER                                             3
 ACTION:UP  11-06-29 08:54 OP:tino STATUS:               ID:20110518103701 L   I
 2011-05-18-1035-37S.COL___141                                                 6
 STAT SP IPHASW D HRMM SECON CODA AMPLIT PERI AZIMU VELO SNR AR TRES W  DIS CAZ7
 BTL  SZ IP       1037 20.37                             172     0.210   18 307 
 BTL  SZ ES   2   1037 34.89                             172     0.1 5   18 307 
 BAR2 SZ IP       1037 20.29                             169     0.010   26 191 
 BAR2 SZ ES   1   1037 34.67                             169    -0.4 7   26 191 
 BAR2 SZ I        1037 36.71        57.0 0.21                            26 191 
 GIR2 SZ IP       1037 20.36                             168     0.110   29 348 
 GIR2 SZ ES   1   1037 34.28                             168    -0.7 7   29 348 
 BRR  HZ IP     C 1037 22.04                             151     0.210   71 297 
 BRR  HZ I        1037 22.31       100.3 0.14                            71 297 
 BRR  HN ES   1   1037 38.56                             151     0.7 7   71 297 
 PAM  SZ EP       1037 23.01                             150     0.210   75  40 
 PAM  SN ES   1   1037 40.22                             150     0.7 7   75  40 
 RUS  HZ EP       1037 24.53                             142    -0.210  103 177 
 RUS  HZ I        1037 44.62        26.0 0.29                           103 177 
 BRI  SZ IP       1037 24.68                             141     0.210  106  21 
 BRI  SZ ES   1   1037 42.30                             141    -0.2 7  106  21 
 GRA  SZ IP       1037 25.97                             136     0.110  123  17 
 GRA  SZ I        1037 27.11        41.2 0.27                           123  17 
 GRA  SZ ES   1   1037 44.64                             136    -0.3 7  123  17 
 OCA  SZ IP       1037 28.64                             129    -0.4 9  158 353 
 OCA  SZ ES   1   1037 49.93                             129    -0.6 7  158 353 
 OCA  SZ I        1037 53.69        48.2 0.20                           158 353 
 HEL  HZ EP       1037 42.32                             113     0.9 8  273 255 
 HEL  HN ES   2   1038 12.98                             113     0.3 4  273 255 
 HEL  HZ I        1038 18.67        11.0 0.39                           273 255 
 RREF HZ EP   2   1037 47.39                             109    -0.1 3  324 229 
 RREF HN ES   2   1038 22.13                             109    -1.4 3  324 229 
 RREF HZ I        1038 32.89        11.5 0.36                           324 229 
 DBB  SZ EP       1037 48.10                             108    -0.6 7  340 274 
 MON  HZ EP   4   1037 47.56                             107    -2.5 0  353 308 
 MON  HZ I        1038 42.19        10.8 0.40                           353 308 
 PRA  HZ EP   2   1037 54.40                             105    -0.6 3  394 210 
 PRA  HN ES   1   1038 37.06                             105     0.3 4  394 210 
 PRA  HZ I        1038 39.12        19.5 0.26                           394 210 
                                                                                
