 2010  618 1441 52.4 L   6.798 -73.086146.9  RSN 11 0.4 2.8LRSN                1
 GAP=162        0.75       3.6     7.6  6.9 -0.1284E+02  0.7086E+01  0.2104E+01E
 Epicentro: LOS SANTOS - SANTANDER                                             3
 ACTION:UP  10-08-24 10:11 OP:vdl  STATUS:               ID:20100618144152 L   I
 2010-06-18-1438-01S.COL___118                                                 6
 STAT SP IPHASW D HRMM SECON CODA AMPLIT PERI AZIMU VELO SNR AR TRES W  DIS CAZ7
 BAR2 SZ IP       1442 12.19                             170     0.010   25 205 
 BAR2 SZ ES   2   1442 27.10                             170    -0.5 5   25 205 
 BRR  HZ IP     C 1442 14.05                             151     0.110   77 296 
 BRR  HE ES   2   1442 30.98                             151     0.1 5   77 296 
 BRR  HZ I        1442 35.17       195.7 0.17                            77 296 
 RUS  HZ EP   1   1442 16.17                             144     0.0 7  100 180 
 RUS  HE ES   2   1442 35.00                             144     0.2 5  100 180 
 RUS  HZ I        1442 36.38        62.4 0.53                           100 180 
 BRI  SZ IP       1442 15.77                             142    -0.410  106  17 
 BRI  SZ ES   2   1442 33.98                             142    -0.8 5  106  17 
 GUE  SZ EP   1   1442 17.12                             140     0.0 7  116   9 
 GUE  SZ ES   2   1442 36.61                             140     0.2 5  116   9 
 GRA  SZ IP       1442 18.06                             138     0.510  124  15 
 GRA  SZ ES   2   1442 37.54                             138     0.3 5  124  15 
 OCA  SZ EP   1   1442 20.82                             130     0.0 7  161 351 
 OCA  SZ ES   2   1442 43.37                             130     0.3 5  161 351 
 OCA  SZ I        1442 45.81        80.3 0.18                           161 351 
 CHI  HZ EP   1   1442 30.64                             117     0.4 6  250 197 
 CHI  HE ES   2   1442 59.75                             117    -0.1 4  250 197 
 CHI  HZ I        1443  7.28        21.8 0.52                           250 197 
 ROSC BE ES   2   1443  1.68                             116     0.7 4  256 212 
 ROSC BZ I        1443  7.95        36.9 0.53                           256 212 
 HEL  HZ EP   1   1442 33.09                             114    -0.2 6  278 256 
 HEL  HZ I        1443 11.95        39.5 0.40                           278 256 
 TOL  SZ EP   1   1442 40.27                             109    -0.9 5  348 225 
                                                                                
