 2017  218 1350 53.4 L   6.758 -73.029145.6  RSN  4 0.4 1.2LRSN                1
 GAP=154        0.93       5.0     6.3  8.5  0.4587E+00  0.1289E+02 -0.3432E+01E
 Epicentro: CEPITA - SANTANDER                                                 3
 ACTION:UPD 17-05-24 15:37 OP:jn   STATUS:               ID:20170218135053 L   I
 OLDACT:UP  17-02-18 23:19 OP:dani STATUS:               ID:20170218134743     3
 OLDACT:REG 17-02-18 21:31 OP:dani STATUS:               ID:20170218134743     3
 2017-02-18-1348-00M.COL___355                                                 6
 STAT SP IPHASW D HRMM SECON CODA AMPLIT PERI AZIMU VELO AIN AR TRES W  DIS CAZ7
 BAR2 EZ EP       1351 12.58                             170   -0.4810 24.9 223 
 BAR2 EZ ES       1351 27.87                             170   -0.5110 24.9 223 
 BAR2 EZ I        1351 29.15         5.7 0.23            171           24.9 223 
 PAM  EZ EP       1351 15.42                             152    0.0110 73.9  29 
 PAM  EE ES       1351 32.87                             152    0.3010 73.9  29 
 PAM  EZ I        1351 34.58         3.6 0.58            152           73.9  29 
 RUS  HZ EP       1351 16.84                             145    0.0310 95.8 184 
 RUS  HN ES       1351 35.55                             145    0.4810 95.8 184 
 RUS  HZ I        1351 36.18         1.6 0.24            147           95.8 184 
 ZAR  HN ES       1351 53.95                             120    0.26 8  218 292 
                                                                                
