 2014 1218 1134 59.5 L   6.783 -73.135145.0  RSN  7 0.3 1.4LRSN                1
 GAP=139        0.82       4.1     4.1  6.6 -0.3511E+01  0.3574E+01  0.3464E+01E
 Epicentro: LOS SANTOS - SANTANDER                                             3
 ACTION:UPD 15-02-10 17:05 OP:nd   STATUS:               ID:20141218113459 L   I
 OLDACT:REG 14-12-18 20:12 OP:spq  STATUS:               ID:20141218112744     3
 2014-12-18-1127-44M.COL___292                                                 6
 STAT SP IPHASW D HRMM SECON CODA AMPLIT PERI AZIMU VELO AIN AR TRES W  DIS CAZ7
 BAR2 EZ EP       1135 19.08                             171    0.1210 21.7 194 
 BAR2 EZ ES   1   1135 34.04                             171   -0.14 7 21.7 194 
 BAR2 EZ I        1135 35.38         6.1 0.32            170           21.7 194 
 BRR  HZ EP       1135 20.82                             152    0.1910 73.1 299 
 BRR  HN ES       1135 37.79                             152    0.6410 73.1 299 
 BRR  HZ I        1135 42.38         7.8 0.26            151           73.1 299 
 PAM  SZ EP       1135 21.82                             150    0.1810 78.1  38 
 PAM  SN ES       1135 38.40                             150   -0.5410 78.1  38 
 PAM  SZ I        1135 40.98         3.8 0.54            155           78.1  38 
 RUS  HZ EP   1   1135 23.19                             144    0.20 7 98.6 177 
 RUS  HN ES   1   1135 41.49                             144    0.14 7 98.6 177 
 RUS  HZ I        1135 42.96         1.7 0.32            147           98.6 177 
 PTB  HZ EP   1   1135 25.90                             132   -0.53 7  149 260 
 PTB  HN ES   1   1135 47.26                             132   -0.21 7  149 260 
 PTB  HZ I        1135 48.66         2.6 0.18            133            149 260 
 SPBC HZ EP   1   1135 28.01                             129    0.18 7  162 220 
 SPBC HN ES       1135 49.69                             129   -0.27 9  162 220 
 SPBC HZ I        1135 55.79         4.6 0.10            131            162 220 
 ZAR  HE ES   1   1135 56.94                             122   -0.51 6  206 293 
 ZAR  HZ I        1136  1.01         2.6 0.12            124            206 293 
                                                                                
