 2012 1218 1616 35.0 L   6.806 -73.185139.9  RSN  9 0.3 1.8LRSN                1
 GAP=131        0.64       3.0     3.6  5.6 -0.2364E+00  0.7968E+01  0.1073E+01E
 Epicentro: ZAPATOCA - SANTANDER                                               3
 ACTION:UPD 13-01-04 14:28 OP:ep   STATUS:               ID:20121218161635 L   I
 2012-12-18-1610-00M.COL___242                                                 6
 STAT SP IPHASW D HRMM SECON CODA AMPLIT PERI AZIMU VELO AIN AR TRES W  DIS CAZ7
 BAR2 SZ EP   1   1616 53.98                             170    0.03 7 23.6 179 
 BAR2 SZ ES   1   1617  8.40                             170   -0.31 7 23.6 179 
 BAR2 SZ I        1617 12.61        22.2 0.20                          23.6 179 
 BRR  HZ EP   1   1616 55.62                             153    0.32 7 67.1 300 
 BRR  HN ES   4   1617 12.66                             153    1.54 0 67.1 300 
 BRR  HZ I        1617 13.18        19.3 0.12                          67.1 300 
 PAM  SZ EP   1   1616 56.81                             149    0.05 7 79.8  42 
 PAM  SN ES   1   1617 13.60                             149   -0.12 7 79.8  42 
 PAM  SZ I        1617 15.24        11.0 0.38                          79.8  42 
 RUS  HZ EP   1   1616 58.27                             142   -0.01 7  102 174 
 RUS  HN ES   1   1617 16.87                             142    0.46 7  102 174 
 RUS  HZ I        1617 18.38         7.4 0.26                           102 174 
 PTB  HZ EP   1   1617  0.62                             131   -0.51 7  144 258 
 PTB  HN ES   1   1617 21.51                             131    0.01 7  144 258 
 PTB  HZ I        1617 24.85         9.5 0.08                           144 258 
 ZAR  HZ EP   1   1617  6.50                             122   -0.15 6  200 292 
 ZAR  HN ES   1   1617 32.02                             122    0.71 6  200 292 
 ZAR  HZ I        1617 37.43         9.7 0.40                           200 292 
 NOR  HZ EP   1   1617 10.32                             118    0.25 6  232 234 
 NOR  HN ES   1   1617 36.90                             118   -0.51 6  232 234 
 SML  HE ES   2   1617 38.51                             116   -0.67 4  241 336 
 CHI  HZ EP   1   1617 12.59                             116    0.24 6  248 194 
 CHI  HE ES   1   1617 41.20                             116   -0.26 6  248 194 
 CHI  HZ I        1617 44.93         1.9 0.30                           248 194 
                                                                                
