 2011 1018 1934 56.9 L   6.756 -73.077145.9  RSN  4 0.2 1.4LRSN                1
 GAP=148        0.56       6.0     5.6  7.6 -0.5644E+01 -0.1630E+01  0.2830E+01E
 Epicentro: LOS SANTOS - SANTANDER                                             3
 ACTION:UPD 12-07-13 16:04 OP:ep   STATUS:               ID:20111018193456 L   I
 2011-10-18-1933-17S.COL___168                                                 6
 STAT SP IPHASW D HRMM SECON CODA AMPLIT PERI AZIMU VELO AIN AR TRES W  DIS CAZ7
 BAR2 SZ EP   2   1935 16.19                             171   -0.27 5 21.6 213 
 BAR2 SZ I        1935 33.71        11.7 0.36                          21.6 213 
 PAM  SZ EP       1935 19.34                             151    0.2910 76.8  33 
 PAM  SN ES   1   1935 36.08                             151   -0.28 7 76.8  33 
 PAM  SZ I        1935 37.02         2.1 0.31                          76.8  33 
 BRR  HZ EP       1935 18.33                             150   -0.2110 80.2 299 
 BRR  HZ I        1935 18.69        10.8 0.12                          80.2 299 
 BRR  HN ES   1   1935 35.68                             150    0.22 7 80.2 299 
 RUS  HN ES   2   1935 38.60                             145    0.09 5 95.5 180 
 RUS  HZ I        1935 40.42         2.7 0.19                          95.5 180 
                                                                                
