 2012  618 1616 14.4 L   6.756 -73.160143.0  RSN  5 0.4 1.8LRSN                1
 GAP=137        0.80       6.3     5.5 10.8 -0.7105E+01  0.2752E+02 -0.2165E+02E
 Epicentro: LOS SANTOS - SANTANDER                                             3
 ACTION:UPD 12-08-06 17:50 OP:ep   STATUS:               ID:20120618161613 L   I
 2012-06-18-1610-00M.COL___199                                                 6
 STAT SP IPHASW D HRMM SECON CODA AMPLIT PERI AZIMU VELO AIN AR TRES W  DIS CAZ7
 BAR2 SZ ES   1   1616 48.62                             172    0.04 7 18.3 188 
 BAR2 SZ I        1616 49.91        21.6 0.31            172           18.3 188 
 PAM  SZ EP   1   1616 36.71                             149    0.09 7 82.1  38 
 PAM  SE ES   1   1616 53.67                             149   -0.27 7 82.1  38 
 RUS  HE ES   1   1616 55.97                             144    0.38 7 95.9 175 
 PTB  HZ EP   1   1616 40.61                             132   -0.31 7  145 261 
 PTB  HN ES   1   1617  0.99                             132   -0.62 7  145 261 
 PTB  HZ I        1617  3.47         4.9 0.16            133            145 261 
 ZAR  HE ES   1   1617 12.70                             122    0.79 6  204 294 
                                                                                
