 2017  818 1201 52.9 L   6.765 -73.097143.2  RSN  7 0.4 1.6LRSN                1
 GAP=145        0.89       4.3     5.2  6.4 -0.8843E+01  0.4662E+01  0.4033E+01E
 Epicentro: LOS SANTOS - SANTANDER                                             3
 ACTION:UPD 17-09-04 20:21 OP:rebc STATUS:               ID:20170818120152 L   I
 OLDACT:UP  17-08-18 21:32 OP:and  STATUS:               ID:20170818115743     3
 OLDACT:UP  17-08-18 21:32 OP:and  STATUS:               ID:20170818115743     3
 OLDACT:UP  17-08-18 21:30 OP:and  STATUS:               ID:20170818115743     3
 OLDACT:REG 17-08-18 20:19 OP:and  STATUS:               ID:20170818115743     3
 2017-08-18-1158-00M.COL___407                                                 6
 STAT SP IPHASW D HRMM SECON CODA AMPLIT PERI AZIMU VELO AIN AR TRES W  DIS CAZ7
 BAR2 EZ IP     C 12 2 11.97                             171   -0.1710 21.3 206 
 BAR2 EZ ES       12 2 26.60                             171   -0.5810 21.3 206 
 BAR2 EZ I        12 2 28.17        17.8 0.30            169           21.3 206 
 PAM  EZ IP     D 12 2 14.95                             151    0.1610 77.2  35 
 PAM  EN ES       12 2 32.04                             151    0.1410 77.2  35 
 PAM  EZ I        12 2 34.43         8.7 0.66            152           77.2  35 
 BRR  HZ IP     C 12 2 13.72                             150   -0.4010 77.8 299 
 BRR  HN ES       12 2 31.16                             150    0.4510 77.8 299 
 BRR  HZ I        12 2 35.31         7.0 0.12            146           77.8 299 
 RUS  HZ EP       12 2 16.09                             145    0.0310 96.4 179 
 RUS  HN ES       12 2 34.68                             145    0.5210 96.4 179 
 RUS  HZ I        12 2 35.67         5.4 0.18            148           96.4 179 
 SPBC HZ EP       12 2 20.92                             129   -0.28 9  164 221 
 SPBC HN ES       12 2 43.15                             129   -0.17 9  164 221 
 SPBC HZ I        12 2 44.16         5.3 0.22            129            164 221 
 ZAR  HZ EP   4   12 2 27.94                             121    2.13 0  211 293 
 ZAR  HN ES   4   12 2 49.46                             121   -2.05 0  211 293 
 ZAR  HZ I        12 2 56.55         4.8 0.31            120            211 293 
 NOR  HZ EP   3   12 2 30.26                             118    1.59 2  237 236 
 NOR  HN ES       12 2 56.83                             118    0.22 8  237 236 
 NOR  HZ I        12 3  2.27         1.8 0.20            118            237 236 
                                                                                
