 2015  518 1615 54.9 L   6.816 -73.125139.7  RSN  7 0.4 1.7LRSN                1
 GAP=155        1.03       5.2     5.3  7.2 -0.3698E+01  0.1547E+02 -0.3237E+01E
 Epicentro: LOS SANTOS - SANTANDER                                             3
 ACTION:UPD 15-09-10 22:05 OP:cam  STATUS:               ID:20150518161554 L   I
 OLDACT:DUP 15-05-19 00:14 OP:ak   STATUS:               ID:20150518160748d    3
 2015-05-18-1607-47M.COL___283                                                 6
 STAT SP IPHASW D HRMM SECON CODA AMPLIT PERI AZIMU VELO AIN AR TRES W  DIS CAZ7
 BAR2 EZ EP       1616 13.56                             169   -0.2710 25.5 194 
 BAR2 EZ ES       1616 27.86                             169   -0.7610 25.5 194 
 BAR2 EZ I        1616 29.64         8.2 0.16            169           25.5 194 
 BRR  HZ EP       1616 15.43                             151   -0.0210 72.4 296 
 BRR  HN ES       1616 31.81                             151    0.3110 72.4 296 
 BRR  HZ I        1616 37.04        10.2 0.14            148           72.4 296 
 PAM  SZ EP       1616 16.30                             151    0.0110 74.6  39 
 PAM  SE ES       1616 33.67                             151    0.6810 74.6  39 
 PAM  SZ I        1616 34.00         9.7 0.22            154           74.6  39 
 ZAR  HZ EP       1616 26.84                             121   -0.25 8  206 291 
 ZAR  HN ES       1616 52.29                             121    0.07 8  206 291 
 ZAR  HZ I        1617  0.30         8.2 0.52            122            206 291 
 SML  HZ EP   1   1616 30.64                             116   -0.47 6  243 335 
 SML  HE ES       1616 59.11                             116   -0.26 8  243 335 
 GUY2CHZ EP   1   1616 39.42                             111    0.88 5  304 235 
 GUY2CHN ES       1617 13.13                             111    0.53 7  304 235 
 GUY2CHZ I        1617 21.12         2.1 0.70                           304 235 
 SJC  HZ EP   4   1616 48.39                             105   -1.84 0  409 327 
 SJC  HN ES   4   1617 30.15                             105   -3.25 0  409 327 
 SJC  HZ I        1617 33.29         1.7 0.37            107            409 327 
                                                                                
