 2010  818 1352 19.0 L   6.792 -73.088143.5  RSN 11 0.4 2.6LRSN                1
 GAP=165        0.88       3.3     5.9  5.9 -0.5476E+01  0.1499E+01  0.3983E+01E
 Epicentro: LOS SANTOS - SANTANDER                                             3
 ACTION:UP  10-09-07 10:56 OP:vdl  STATUS:               ID:20100818135218 L   I
 2010-08-18-1349-37S.COL___116                                                 6
 STAT SP IPHASW D HRMM SECON CODA AMPLIT PERI AZIMU VELO SNR AR TRES W  DIS CAZ7
 BAR2 SZ IP       1352 38.26                             170    -0.110   25 205 
 BAR2 SZ ES   1   1352 53.51                             170     0.0 7   25 205 
 BAR2 SZ I        1352 55.02        55.3 0.30                            25 205 
 GIR2 SZ EP   1   1352 38.32                             166    -0.1 7   34 340 
 BRR  HZ EP       1352 40.13                             150    -0.110   77 297 
 BRR  HN ES       1352 57.04                             150     0.210   77 297 
 BRR  HZ I        1353  2.21        66.2 0.24                            77 297 
 RUS  HZ EP       1352 42.16                             144    -0.310  100 180 
 RUS  HE ES   1   1353  1.12                             144     0.4 7  100 180 
 RUS  HZ I        1353  2.70        38.5 0.39                           100 180 
 GUE  SZ EP       1352 44.17                             139     0.710  116   9 
 GRA  SZ IP       1352 43.94                             137     0.010  125  15 
 GRA  SZ ES   1   1353  2.87                             137    -0.5 7  125  15 
 GRA  SZ I        1353  4.66        85.6 0.39                           125  15 
 OCA  SZ ES   1   1353  8.82                             129    -0.5 7  162 351 
 OCA  SZ I        1353 13.20        45.5 0.25                           162 351 
 CHI  HZ EP   1   1352 56.41                             117    -0.2 6  250 197 
 CHI  HE ES   1   1353 25.60                             117    -0.4 6  250 197 
 CHI  HZ I        1353 31.84        17.0 0.52                           250 197 
 HEL  HZ EP   1   1352 59.99                             114     0.3 6  278 256 
 HEL  HE ES   2   1353 31.27                             114    -0.2 4  278 256 
 HEL  HZ I        1353 36.88        18.9 0.46                           278 256 
 GUY  SZ EP       1353  3.38                             112     0.4 7  306 236 
 GUY  SN ES   2   1353 36.67                             112    -0.7 4  306 236 
 GUY  SZ I        1353 43.66        62.0 0.40                           306 236 
 PRA  HZ EP       1353 12.29                             106    -0.4 6  394 210 
 PRA  HN ES   2   1353 54.97                             106     0.4 3  394 210 
 PRA  HZ I        1353 59.80        20.3 0.29                           394 210 
                                                                                
