 2017  718 1306 49.8 L   6.773 -73.147143.9  RSN  9 0.6 1.8LRSN                1
 GAP=113        1.41       5.6     5.2  8.6  0.6222E+01  0.3989E+01  0.5933E+01E
 Epicentro: LOS SANTOS - SANTANDER                                             3
 ACTION:UPD 17-08-30 15:34 OP:rebc STATUS:               ID:20170718130649 L   I
 OLDACT:REG 17-07-18 20:25 OP:lv   STATUS:               ID:20170718125742     3
 2017-07-18-1258-00M.COL___383                                                 6
 STAT SP IPHASW D HRMM SECON CODA AMPLIT PERI AZIMU VELO AIN AR TRES W  DIS CAZ7
 BAR2 EZ EP       13 7  8.06                             172   -1.1310 20.4 191 
 BAR2 EZ ES       13 7 24.64                             172    0.3610 20.4 191 
 BRR  HZ EP       13 7 11.15                             152    0.2810 72.6 301 
 BRR  HE ES       13 7 27.97                             152    0.7110 72.6 301 
 PAM  EZ EP       13 7 12.25                             150    0.2510 79.7  38 
 PAM  EN ES   2   13 7 29.15                             150   -0.13 5 79.7  38 
 RUS  HZ EP       13 7 13.11                             144   -0.0910 97.6 176 
 RUS  HN ES       13 7 30.36                             144   -1.0510 97.6 176 
 PTB  HZ EP       13 7 16.13                             132   -0.47 9  147 260 
 PTB  HN ES       13 7 37.04                             132   -0.43 9  147 260 
 SPBC HZ EP       13 7 18.47                             129    0.50 9  161 220 
 SPBC HN ES       13 7 40.67                             129    0.76 9  161 220 
 SPBC HZ I        13 7 44.07         9.3 0.08            127            161 220 
 YPLC HZ EP       13 7 19.66                             127    0.41 9  174 151 
 YPLC HN ES       13 7 42.54                             127    0.35 9  174 151 
 ZAR  HN ES       13 7 47.18                             122   -0.39 9  205 293 
 ZAR  HZ I        13 7 52.49         6.6 0.33            120            205 293 
 NOR  HZ EP       13 7 25.47                             118    0.20 8  233 235 
 NOR  HN ES       13 7 52.87                             118   -0.03 8  233 235 
 NOR  HZ I        13 7 58.83         2.8 0.14            117            233 235 
                                                                                
