 2017  218 1707 30.0 L   6.875 -73.168151.5  RSN 24 0.8 3.2LRSN                1
 GAP= 62        1.53       3.9     4.0  6.4  0.2612E+01  0.5938E+01  0.2818E+01E
 Epicentro: ZAPATOCA - SANTANDER                                               3
 ACTION:UPD 17-05-24 15:37 OP:jn   STATUS:               ID:20170218170730 L   I
 OLDACT:UP  17-02-19 00:37 OP:dani STATUS:               ID:20170218165745d    3
 OLDACT:UP  17-02-19 00:36 OP:dani STATUS:               ID:20170218165745d    3
 OLDACT:UP  17-02-19 00:32 OP:dani STATUS:               ID:20170218165745d    3
 OLDACT:DUP 17-02-19 00:28 OP:dani STATUS:               ID:20170218165745d    3
 OLDACT:UP  17-02-19 00:27 OP:dani STATUS:               ID:20170218165744     3
 OLDACT:UP  17-02-19 00:27 OP:dani STATUS:               ID:20170218165744     3
 OLDACT:UP  17-02-19 00:27 OP:dani STATUS:               ID:20170218165744     3
 OLDACT:REG 17-02-18 21:45 OP:dani STATUS:               ID:20170218165744     3
 2017-02-18-1658-00M.COL___355                                                 6
 STAT SP IPHASW D HRMM SECON CODA AMPLIT PERI AZIMU VELO AIN AR TRES W  DIS CAZ7
 BAR2 EZ EP     D 17 7 50.70                             168    0.2010 31.3 183 
 BAR2 EZ ES       17 8  5.78                             168   -0.7110 31.3 183 
 BAR2 EZ I        17 8  6.63       324.7 0.32            165           31.3 183 
 BRR  HZ EP     C 17 7 52.24                             155    0.7710 65.4 293 
 BRR  HE ES       17 8  9.05                             155    0.8410 65.4 293 
 BRR  HZ I        17 8 12.12       263.2 0.40            151           65.4 293 
 PAM  EZ EP     C 17 7 53.14                             153    0.5610 72.9  45 
 PAM  EE ES       17 8  9.90                             153   -0.2910 72.9  45 
 PAM  EZ I        17 8 12.19       652.6 0.44            158           72.9  45 
 RUS  HZ EP     D 17 7 54.86                             143   -0.0710  109 175 
 RUS  HE ES       17 8 13.68                             143   -0.6910  109 175 
 RUS  HZ I        17 8 15.70       163.4 0.24            141            109 175 
 PTB  HZ EP     C 17 7 57.36                             133   -0.03 9  147 255 
 PTB  HN ES       17 8 18.30                             133   -0.46 9  147 255 
 PTB  HZ I        17 8 22.96       119.7 0.32            130            147 255 
 TAM  HZ IP     D 17 7 59.23                             130    0.66 9  160 108 
 TAM  HN ES       17 8 20.82                             130   -0.03 9  160 108 
 ZAR  HZ EP       17 8  3.16                             124    0.87 9  199 290 
 ZAR  HE ES       17 8 28.29                             124    0.81 9  199 290 
 ZAR  HZ I        17 8 33.96       243.1 0.36            123            199 290 
 NOR  HZ EP       17 8  6.87                             119    0.49 8  238 232 
 NOR  HE ES       17 8 34.47                             119   -0.29 8  238 232 
 NOR  HZ I        17 8 38.15       119.5 0.24            118            238 232 
 CHI  HZ EP       17 8  9.41                             117    0.59 8  256 194 
 CHI  HN ES       17 8 38.58                             117   -0.52 8  256 194 
 CHI  HZ I        17 8 45.16        69.8 0.48            117            256 194 
 ROSC BZ EP   9 D 17 8 10.95                             117    1.87 0  259 210 
 ROSC BN ES       17 8 40.60                             117   -0.83 8  259 210 
 ROSC BZ I        17 8 50.52       100.6 0.35            116            259 210 
 URE  HZ EP       17 8 10.49                             115   -0.28 7  279 291 
 URE  HN ES       17 8 41.20                             115   -1.37 7  279 291 
 URE  HZ I        17 8 50.33       178.1 0.22            114            279 291 
 VIL  EZ EP       17 8 15.04                             112    0.50 7  311 191 
 VIL  EN ES       17 8 49.79                             112    0.50 7  311 191 
 VIL  EZ I        17 8 56.28        94.9 0.28            112            311 191 
 PTGC HZ EP       17 8 14.35                             112   -0.74 7  317 159 
 PTGC HN ES       17 8 48.23                             112   -2.03 7  317 159 
 PTGC HZ I        17 8 50.80        46.0 0.46            112            317 159 
 RECRCHZ EP   4   17 8 19.97                             112    3.72 0  321 229 
 RECRCHE ES   4   17 8 54.39                             112    2.06 0  321 229 
 ELA  HZ EP   4   17 8 19.98                             111    2.47 0  333 228 
 ELA  HE ES   4   17 8 56.78                             111    2.22 0  333 228 
 ELA  HZ I        17 9  4.44        33.4 0.52            110            333 228 
 CBOC HZ EP   4   17 8 19.93                             111    2.74 0  334 251 
 CBOC HE ES   4   17 8 55.88                             111    1.88 0  334 251 
 CBOC HZ I        17 9  7.40        21.7 0.35            110            334 251 
 DBB  HZ EP       17 8 18.27                             110    0.90 7  336 273 
 DBB  HN ES       17 8 53.93                             110   -0.40 7  336 273 
 DBB  HZ I        17 8 57.47        27.3 0.20            110            336 273 
 ARGC HZ EP   9   17 8 20.50                             109    1.61 0  351 340 
 ARGC HE ES       17 8 58.51                             110   -0.12 6  351 340 
 ARGC HZ I        17 9  1.15        22.8 0.16            110            351 340 
 ANIL HZ EP   3   17 8 22.22                             109    1.70 2  362 223 
 ANIL HN ES       17 9  0.01                             109    0.09 6  362 223 
 ANIL HZ I        17 9  8.14       129.0 0.31            108            362 223 
 APAC HZ EP       17 8 24.34                             107    0.52 6  393 287 
 APAC HN ES   3   17 9  7.22                             107    1.41 1  393 287 
 APAC HZ I        17 9 11.80        32.1 0.49            107            393 287 
 PRA  HZ EP       17 8 25.01                             107    0.59 6  398 209 
 PRA  HN ES       17 9  6.52                             107   -0.36 6  398 209 
 PRA  HZ I        17 9 12.64        91.9 0.30            107            398 209 
 ORTC HZ EP       17 8 25.63                             107    0.90 6  401 215 
 ORTC HN ES   4   17 9  9.31                             107    1.88 0  401 215 
 ORTC HZ I        17 9 15.00        54.3 0.40            106            401 215 
 SJC  HZ EP       17 8 24.11                             107   -0.68 6  401 327 
 SJC  HE ES       17 9  5.36                             107   -2.16 6  401 327 
 SJC  HZ I        17 9  9.62        71.4 0.47            107            401 327 
 CRJC HZ EP       17 8 30.41                             104   -1.30 5  460   4 
 CRJC HE ES   4   17 9 17.21                             104   -2.63 0  460   4 
 CRJC HZ I        17 9 24.00        26.6 0.20            105            460   4 
 SMAR HZ EP       17 8 34.77                             103   -0.23 4  488 346 
 SMAR HE ES   4   17 9 23.41                             103   -2.29 0  488 346 
                                                                                
