 2013  418 1404 27.0 L   6.812 -73.113151.3  RSN 13 0.5 2.7LRSN                1
 GAP=121        1.31       4.4     5.4  5.9 -0.1034E+02  0.3195E+01  0.1487E+01E
 Epicentro: LOS SANTOS - SANTANDER                                             3
 ACTION:UPD 13-05-22 14:39 OP:EP   STATUS:               ID:20130418140427 L   I
 2013-04-18-1358-35M.COL___220                                                 6
 STAT SP IPHASW D HRMM SECON CODA AMPLIT PERI AZIMU VELO AIN AR TRES W  DIS CAZ7
 BAR2 SZ IP     D 14 4 47.52                             170    0.1410 25.5 198 
 BAR2 SZ ES       14 5  2.66                             170   -0.5810 25.5 198 
 BAR2 SZ I        14 5  3.67       156.8 0.24            169           25.5 198 
 GIR2 SZ IP     C 14 4 47.76                             168    0.4010 30.9 343 
 GIR2 SZ ES       14 5  3.23                             168    0.0210 30.9 343 
 BRR  HZ IP     C 14 4 49.41                             153    0.4710 73.9 296 
 BRR  HZ I        14 4 49.71        80.6 0.16            151           73.9 296 
 BRR  HN ES       14 5  6.67                             153    0.6510 73.9 296 
 PAM  SZ IP     C 14 4 50.27                             153    0.6110 74.1  38 
 PAM  SE ES       14 5  7.64                             153    0.3310 74.1  38 
 PAM  SN I        14 5  8.55        80.2 0.52            155           74.1  38 
 RUS  HZ IP     D 14 4 51.44                             145    0.0210  102 178 
 RUS  HE ES       14 5 10.29                             145   -0.1410  102 178 
 RUS  HE I        14 5 11.22        69.4 0.48            145            102 178 
 CAPV BZ EP       14 4 53.62                             134   -0.99 9  146  37 
 PTB  HZ EP       14 4 54.26                             132   -0.55 9  152 259 
 PTB  HN ES       14 5 15.13                             132   -1.34 9  152 259 
 PTB  HE I        14 5 21.15       100.9 0.38            131            152 259 
 OCA  HZ EP       14 4 55.50                             131   -0.22 9  159 352 
 OCA  HE ES       14 5 18.36                             131    0.28 9  159 352 
 NOR  HZ EP       14 5  3.65                             119    0.15 8  238 235 
 NOR  HE ES       14 5 32.17                             119    0.24 8  238 235 
 NOR  HN I        14 5 33.46        73.2 0.14            119            238 235 
 SML  HZ EP       14 5  3.40                             119   -0.63 8  244 334 
 HEL  HZ EP   4   14 5  9.64                             116    1.67 0  276 256 
 SOCV BZ IP     D 14 5  9.78                             113   -0.15 7  298  57 
 GUY  HZ EP       14 5 12.38                             113    0.79 7  307 235 
 GUY  HN ES       14 5 47.01                             113    0.67 7  307 235 
 GUY  HZ I        14 5 52.82        14.0 0.36            113            307 235 
 PRA  HZ EP       14 5 21.10                             107    0.00 6  395 210 
 PRA  HE ES       14 6  3.31                             107    0.05 6  395 210 
 PRA  HZ I        14 6  6.80        10.8 0.68            107            395 210 
                                                                                
