 2016  718 1455 25.7 L   6.844 -73.063144.8  RSN  9 0.5 1.9LRSN                1
 GAP=249        1.09       5.3     6.5  7.0  0.1049E+02  0.1845E+02  0.8907E+01E
 Epicentro: LOS SANTOS - SANTANDER                                             3
 ACTION:UPD 17-03-29 16:52 OP:lp   STATUS:               ID:20160718145525 L   I
 OLDACT:REG 16-07-18 20:30 OP:lv   STATUS:               ID:20160718144759     3
 2016-07-18-1447-59S.COL___310                                                 6
 STAT SP IPHASW D HRMM SECON CODA AMPLIT PERI AZIMU VELO AIN AR TRES W  DIS CAZ7
 BAR2 EZ IP     C 1455 45.67                             168    0.2610 30.8 205 
 BAR2 EZ ES       1456  0.34                             168   -0.4310 30.8 205 
 BAR2 EZ I        1456  1.90        35.1 0.17            165           30.8 205 
 BRR  HZ EP       1455 47.48                             150    0.3610 77.3 292 
 BRR  HN ES       1456  4.27                             150    0.4510 77.3 292 
 BRR  HZ I        1456  7.64        13.1 0.26            148           77.3 292 
 RUS  HZ EP       1455 49.79                             142    0.0710  105 181 
 RUS  HE ES       1456  8.46                             142    0.0210  105 181 
 RUS  HZ I        1456  9.55         3.8 0.16            143            105 181 
 SPBC HZ EP   2   1455 54.88                             127   -0.18 4  173 220 
 SPBC HN ES   4   1456 15.16                             127   -2.79 0  173 220 
 ZAR  HZ EP       1455 57.84                             121   -0.96 8  211 290 
 ZAR  HN ES       1456 24.55                             121   -0.05 8  211 290 
 ZAR  HZ I        1456 30.37        10.1 0.25            121            211 290 
 NOR  HZ EP       1456  2.08                             117   -0.42 8  245 235 
 NOR  HN ES       1456 30.35                             117   -0.84 8  245 235 
 NOR  HZ I        1456 33.69         7.9 0.20            117            245 235 
 GUY2CHZ EP   4   1456 13.37                             111    2.93 0  311 235 
 GUY2CHN ES       1456 46.06                             111    0.73 7  311 235 
 GUY2CHZ I        1456 51.32         4.1 0.36                           311 235 
 CBOC HZ EP       1456 14.63                             109    0.87 7  344 252 
 CBOC HE ES   4   1456 52.81                             109    1.58 0  344 252 
 CBOC HZ I        1456 53.61         1.6 0.28            110            344 252 
 PRA  HZ EP       1456 20.24                             106    0.01 6  401 210 
 PRA  HE ES       1457  3.02                             106    0.27 6  401 210 
 PRA  HZ I        1457  8.99         3.8 0.31            107            401 210 
                                                                                
