 2015  218 1321 17.7 L   6.808 -73.185138.9  RSN 11 0.5 1.9LRSN                1
 GAP=131        1.16       3.3     4.6  7.7 -0.2561E+01  0.1256E+02  0.3103E+00E
 Epicentro: ZAPATOCA - SANTANDER                                               3
 ACTION:UPD 15-04-30 21:27 OP:nd   STATUS:               ID:20150218132117 L   I
 OLDACT:REG 15-02-18 20:34 OP:fm   STATUS:               ID:20150218131748     3
 2015-02-18-1317-48M.COL___293                                                 6
 STAT SP IPHASW D HRMM SECON CODA AMPLIT PERI AZIMU VELO AIN AR TRES W  DIS CAZ7
 PAM  SZ EP       1321 39.77                             149    0.4310 79.5  42 
 PAM  SN ES       1321 56.30                             149    0.1010 79.5  42 
 PAM  SZ I        1321 59.15        11.7 0.52            155           79.5  42 
 RUS  HZ EP       1321 41.31                             142    0.4210  102 174 
 RUS  HE ES       1321 58.21                             142   -0.7610  102 174 
 RUS  HZ I        1322  0.67         6.8 0.28            146            102 174 
 PTB  HZ EP       1321 44.13                             131    0.38 9  144 258 
 PTB  HN ES       1322  5.00                             131    0.94 9  144 258 
 PTB  HZ I        1322 11.02         6.8 0.32            132            144 258 
 SPBC HE ES       1322  6.65                             128   -0.53 9  161 218 
 SPBC HZ I        1322 12.30        15.3 0.46            130            161 218 
 ZAR  HZ EP       1321 48.98                             121   -0.28 9  200 292 
 ZAR  HE ES       1322 13.94                             121    0.07 9  200 292 
 ZAR  HZ I        1322 20.17        12.9 0.26            123            200 292 
 NOR  HZ EP       1321 52.78                             117    0.05 8  232 234 
 NOR  HN ES       1322 19.50                             117   -0.54 8  232 234 
 NOR  HZ I        1322 26.49         5.7 0.20            119            232 234 
 SML  HZ EP       1321 53.44                             116   -0.23 8  241 336 
 SML  HE ES       1322 21.04                             116   -0.68 8  241 336 
 SML  HZ I        1322 31.60         9.1 0.10            119            241 336 
 CHI  HZ EP       1321 55.65                             116    0.64 8  248 194 
 CHI  HN ES       1322 24.32                             116    0.21 8  248 194 
 CHI  HZ I        1322 27.96         6.4 0.60            119            248 194 
 GUY2CHZ EP       1321 59.70                             111   -0.97 7  298 234 
 GUY2CHE ES       1322 34.67                             111    0.50 7  298 234 
 GUY2CHZ I        1322 43.32         4.7 0.58                           298 234 
 RREF HZ EP       1322  3.05                             110   -0.21 7  319 229 
 RREF HE ES   4   1322 40.19                             110    1.41 0  319 229 
 RREF HZ I        1322 49.07         5.8 0.40            112            319 229 
 TOL  SZ EP       1322  5.44                             108    0.02 7  341 224 
 TOL  SE ES       1322 42.54                             108   -0.10 7  341 224 
 TOL  SZ I        1322 50.70         4.4 0.30            111            341 224 
                                                                                
