 2015 1118 1037 58.2 L   6.830 -73.128144.4  RSN  6 0.3 1.5LRSN                1
 GAP=137        0.56       4.1     4.5  7.0  0.5718E+01  0.8478E+01 -0.6814E+01E
 Epicentro: LOS SANTOS - SANTANDER                                             3
 ACTION:UPD 15-12-28 16:11 OP:cam  STATUS:               ID:20151118103758 L   I
 OLDACT:REG 15-11-18 23:02 OP:dnl  STATUS:               ID:20151118102750d    3
 2015-11-18-1027-49M.COL___307                                                 6
 STAT SP IPHASW D HRMM SECON CODA AMPLIT PERI AZIMU VELO AIN AR TRES W  DIS CAZ7
 BAR2 EZ EP       1038 17.82                             169    0.1210 26.9 193 
 BAR2 EZ ES       1038 32.85                             169   -0.0910 26.9 193 
 BAR2 EZ I        1038 34.26         2.1 0.15            172           26.9 193 
 PAM  EZ EP   2   1038 20.57                             152    0.57 5 73.6  40 
 PAM  EE ES   2   1038 37.07                             152    0.03 5 73.6  40 
 PAM  EZ I        1038 39.53        11.1 0.52            151           73.6  40 
 RUS  HZ EP   2   1038 21.15                             143   -0.85 5  104 177 
 RUS  HE ES   2   1038 40.79                             143    0.19 5  104 177 
 RUS  HN ES   2   1038 40.83                                            104 177 
 RUS  HZ I        1038 42.40         3.8 0.36            146            104 177 
 OCA  HZ EP   4   1038 23.21                             130   -2.87 0  157 352 
 OCA  HE ES   2   1038 47.64                             130   -0.21 5  157 352 
 OCA  HZ I        1038 51.33         9.0 0.14            130            157 352 
 ZAR  HE ES       1038 56.00                             122    0.13 9  205 291 
 ZAR  HZ I        1038 58.46         2.0 0.16            123            205 291 
 SML  HZ EP   4   1038 34.00                             117   -0.48 0  242 335 
 SML  HE ES   2   1039  2.36                             117   -0.44 4  242 335 
 SML  HZ I        1039  5.36         4.2 0.10            118            242 335 
                                                                                
