 2016  718 1247 53.8 L   6.795 -73.137145.1  RSN 11 0.4 2.1LRSN                1
 GAP=138        0.94       3.4     4.3  5.5 -0.1776E+01  0.6261E+01  0.5918E+01E
 Epicentro: LOS SANTOS - SANTANDER                                             3
 ACTION:UPD 17-03-29 16:52 OP:lp   STATUS:               ID:20160718124753 L   I
 OLDACT:UP  16-07-18 22:04 OP:lv   STATUS:               ID:20160718123759     3
 OLDACT:REG 16-07-18 20:03 OP:lv   STATUS:               ID:20160718123759     3
 2016-07-18-1237-59S.COL___321                                                 6
 STAT SP IPHASW D HRMM SECON CODA AMPLIT PERI AZIMU VELO AIN AR TRES W  DIS CAZ7
 BAR2 EZ EP       1248 13.10                             171   -0.2610 23.0 193 
 BAR2 EZ ES       1248 28.13                             171   -0.4710 23.0 193 
 BAR2 EZ I        1248 29.46        37.8 0.22            168           23.0 193 
 BRR  HZ EP       1248 14.77                             152   -0.1810 72.3 299 
 BRR  HN ES       1248 32.07                             152    0.6310 72.3 299 
 BRR  HZ I        1248 36.26        23.3 0.19            149           72.3 299 
 PAM  EZ EP       1248 16.06                             151    0.1110 77.2  39 
 PAM  EE ES       1248 33.30                             151    0.0910 77.2  39 
 PAM  EZ I        1248 35.29        32.9 0.52            155           77.2  39 
 RUS  HZ EP       1248 16.94                             144   -0.5210  100 177 
 RUS  HE ES       1248 36.37                             144    0.4710  100 177 
 RUS  HZ I        1248 37.02        12.1 0.29            146            100 177 
 SPBC HZ EP       1248 22.25                             129   -0.03 9  163 219 
 SPBC HN ES       1248 44.40                             129   -0.09 9  163 219 
 SPBC HZ I        1248 48.99        20.9 0.11            129            163 219 
 ZAR  HZ EP   4   1248 28.99                             122    2.66 0  205 292 
 ZAR  HN ES       1248 51.27                             122   -0.42 9  205 292 
 ZAR  HZ I        1248 58.16         9.9 0.13            122            205 292 
 NOR  HZ EP       1248 29.36                             118   -0.20 8  235 235 
 NOR  HE ES       1248 57.38                             118   -0.06 8  235 235 
 NOR  HZ I        1249  5.07         8.7 0.15            119            235 235 
 CHI  HZ EP       1248 31.72                             117    0.27 8  248 195 
 CHI  HN ES       1249  0.99                             117    0.18 8  248 195 
 CHI  HZ I        1249  4.09         5.5 0.16            118            248 195 
 GUY2CHZ EP       1248 38.49                             112    1.04 7  302 235 
 GUY2CHN ES   4   1249 15.92                             112    4.44 0  302 235 
 GUY2CHZ I        1249 19.40         6.5 0.34                           302 235 
 PRA  HZ EP       1248 47.50                             106    0.18 6  392 210 
 PRA  HN ES       1249 28.54                             106   -0.51 6  392 210 
 PRA  HZ I        1249 33.57         6.0 0.23            107            392 210 
 SJC  HZ EP   4   1248 47.30                             106   -2.17 0  410 327 
 SJC  HN ES   4   1249 28.84                             106   -4.03 0  410 327 
 SJC  HZ I        1249 36.44         2.1 0.12            106            410 327 
                                                                                
