 2013  518 1653 13.6 L   6.835 -73.152146.0  RSN 10 0.4 2.0LRSN                1
 GAP=134        0.84       3.0     3.9  5.9  0.4315E+00  0.6433E+01  0.3676E+01E
 Epicentro: LOS SANTOS - SANTANDER                                             3
 ACTION:UPD 13-06-20 09:51 OP:ep   STATUS:               ID:20130518165313 L   I
 2013-05-18-1650-00M.COL___256                                                 6
 STAT SP IPHASW D HRMM SECON CODA AMPLIT PERI AZIMU VELO AIN AR TRES W  DIS CAZ7
 BAR2 SZ EP   1   1653 33.36                             169    0.05 7 27.1 187 
 BAR2 SZ ES   1   1653 48.23                             169   -0.48 7 27.1 187 
 BAR2 SZ I        1653 49.75        11.9 0.20            166           27.1 187 
 BRR  HZ EP   1   1653 35.15                             153    0.54 7 68.8 296 
 BRR  HN ES   1   1653 52.11                             153    1.09 7 68.8 296 
 BRR  HZ I        1653 55.75        14.8 0.14            152           68.8 296 
 PAM  SZ EP       1653 35.73                             152    0.0710 74.8  42 
 PAM  SN ES   1   1653 52.89                             152   -0.00 7 74.8  42 
 PAM  SZ I        1653 53.65        14.2 0.20            158           74.8  42 
 RUS  HZ EP       1653 37.47                             143   -0.1610  105 176 
 RUS  HN ES   1   1653 56.23                             143   -0.17 7  105 176 
 RUS  HZ I        1653 59.07         4.1 0.26            144            105 176 
 PTB  HZ EP       1653 40.06                             132   -0.51 9  148 257 
 PTB  HN ES   1   1654  1.01                             132   -0.62 7  148 257 
 PTB  HZ I        1654  3.69        20.7 0.40            132            148 257 
 ZAR  HZ EP   1   1653 45.77                             123   -0.05 6  202 291 
 ZAR  HN ES       1654 10.95                             123   -0.02 9  202 291 
 ZAR  HZ I        1654 17.69        14.7 0.34            124            202 291 
 NOR  HZ EP       1653 49.65                             118    0.15 8  236 234 
 NOR  HN ES       1654 17.47                             118   -0.06 8  236 234 
 NOR  HZ I        1654 23.66        12.2 0.20            119            236 234 
 SML  HN ES       1654 17.85                             118   -0.20 8  240 335 
 CHI  HZ EP   1   1653 51.36                             117   -0.31 6  252 195 
 CHI  HN ES   1   1654 21.73                             117    0.34 6  252 195 
 CHI  HZ I        1654 27.17         6.4 0.34            118            252 195 
 PRA  HZ EP   1   1654  8.11                             106    0.65 4  395 209 
 PRA  HN ES       1654 50.16                             106    0.67 6  395 209 
 PRA  HZ I        1654 54.28         7.6 0.34            108            395 209 
                                                                                
