 2016  318 1232 53.9 L   6.825 -73.164146.2  RSN 13 0.3 2.5LRSN                1
 GAP=133        0.72       2.1     2.6  4.2 -0.4550E+00  0.4798E+01  0.6015E+00E
 Epicentro: LOS SANTOS - SANTANDER                                             3
 ACTION:UPD 16-05-13 21:25 OP:cam  STATUS:               ID:20160318123253 L   I
 OLDACT:REG 16-03-18 20:49 OP:cara STATUS:               ID:20160318122751     3
 2016-03-18-1227-51M.COL___321                                                 6
 STAT SP IPHASW D HRMM SECON CODA AMPLIT PERI AZIMU VELO AIN AR TRES W  DIS CAZ7
 BAR2 EZ IP     C 1233 13.48                             170   -0.1310 25.8 184 
 BAR2 EZ ES       1233 29.25                             170    0.2510 25.8 184 
 BAR2 EZ I        1233 31.36        69.9 0.26            169           25.8 184 
 PAM  EZ IP     C 1233 16.23                             151    0.1410 76.6  42 
 PAM  EZ I        1233 16.49       113.7 0.24            156           76.6  42 
 PAM  EN ES       1233 33.49                             151    0.0710 76.6  42 
 RUS  HZ EP       1233 17.84                             143   -0.0410  104 175 
 RUS  HE ES       1233 36.38                             143   -0.2310  104 175 
 RUS  HZ I        1233 38.87        40.2 0.40            148            104 175 
 PTB  HZ EP       1233 20.56                             132   -0.19 9  146 258 
 PTB  HN ES       1233 41.66                             132   -0.05 9  146 258 
 PTB  HZ I        1233 48.67        48.0 0.58            132            146 258 
 OCA  HZ EP   4   1233 20.84                             130   -1.10 0  157 354 
 OCA  HE ES       1233 43.91                             130    0.08 9  157 354 
 OCA  HZ I        1233 49.11        84.0 0.28            132            157 354 
 SPBC HZ EP       1233 22.35                             129   -0.14 9  164 218 
 SPBC HN ES       1233 44.71                             129   -0.11 9  164 218 
 SPBC HZ I        1233 50.30        62.1 0.34            131            164 218 
 ZAR  HZ EP       1233 26.39                             123    0.34 9  201 292 
 ZAR  HE ES       1233 50.85                             123   -0.29 9  201 292 
 ZAR  HZ I        1233 59.90        33.5 0.44            124            201 292 
 NOR  HZ EP       1233 29.53                             119   -0.10 8  235 234 
 NOR  HE ES       1233 58.09                             119    0.58 8  235 234 
 NOR  HZ I        1234  2.90        28.5 0.48            120            235 234 
 CHI  HZ EP       1233 31.63                             117   -0.20 8  251 195 
 CHI  HZ I        1233 33.62        11.3 0.16            120            251 195 
 CHI  HN ES       1234  1.15                             117   -0.29 8  251 195 
 HEL  HZ EP       1233 34.40                             115    0.43 8  271 255 
 HEL  HN ES       1234  5.85                             115    0.61 8  271 255 
 HEL  HZ I        1234 11.90        20.0 0.30            116            271 255 
 URE  HZ EP       1233 34.38                             114   -0.26 7  281 292 
 URE  HE ES       1234  5.65                             114   -0.79 7  281 292 
 URE  HZ I        1234 19.08        15.9 0.20            115            281 292 
 GUY2CHZ EP       1233 38.09                             112    0.59 7  301 234 
 GUY2CHN ES       1234 11.35                             112   -0.18 7  301 234 
 GUY2CHZ I        1234 21.80        17.2 0.54                           301 234 
 SJC  HZ EP   4   1233 47.87                             106   -1.18 0  406 327 
 SJC  HN ES   4   1234 29.30                             106   -2.78 0  406 327 
 SJC  HZ I        1234 32.42         4.7 0.28            108            406 327 
                                                                                
