 2017  318 1019  2.0 L   6.794 -73.151140.0  RSN 11 0.5 1.9LRSN                1
 GAP=136        1.10       3.9     4.3  7.5 -0.9169E+00  0.8938E+01  0.8371E+01E
 Epicentro: LOS SANTOS - SANTANDER                                             3
 ACTION:UPD 17-05-25 18:42 OP:jn   STATUS:               ID:20170318101902 L   I
 OLDACT:REG 17-03-18 20:44 OP:y    STATUS:               ID:20170318101744     3
 2017-03-18-1018-00M.COL___373                                                 6
 STAT SP IPHASW D HRMM SECON CODA AMPLIT PERI AZIMU VELO AIN AR TRES W  DIS CAZ7
 BAR2 EZ IP     C 1019 20.72                             170   -0.2110 22.5 189 
 BAR2 EZ I        1019 36.65        33.1 0.32            169           22.5 189 
 BRR  HZ IP     C 1019 22.50                             152   -0.0310 71.0 299 
 BRR  HN ES       1019 39.48                             152    0.9510 71.0 299 
 BRR  HZ I        1019 42.95        12.3 0.18            151           71.0 299 
 PAM  EZ EP       1019 23.61                             150   -0.0610 78.3  40 
 PAM  EN ES       1019 40.70                             150    0.1310 78.3  40 
 PAM  EZ I        1019 42.31        18.3 0.16            150           78.3  40 
 RUS  HZ EP       1019 24.81                             143   -0.3410 99.9 176 
 RUS  HN ES       1019 43.05                             143   -0.1510 99.9 176 
 RUS  HZ I        1019 44.79         7.5 0.26            142           99.9 176 
 PTB  HZ EP       1019 27.63                             131   -0.82 9  147 259 
 PTB  HN ES       1019 48.27                             131   -0.80 9  147 259 
 PTB  HZ I        1019 50.84        10.9 0.32            130            147 259 
 SPBC HZ EP       1019 29.73                             128   -0.26 9  162 219 
 SPBC HN ES       1019 52.09                             128    0.28 9  162 219 
 SPBC HZ I        1019 53.56        11.5 0.22            127            162 219 
 ZAR  HZ EP   2   1019 34.00                             121   -0.06 4  204 292 
 ZAR  HE ES       1019 59.17                             121    0.12 9  204 292 
 ZAR  HZ I        1020  4.52        17.9 0.42            121            204 292 
 CHI  HZ EP   2   1019 40.04                             116    0.73 4  248 195 
 CHI  HN ES       1020  8.88                             116    0.48 8  248 195 
 CHI  HZ I        1020 19.27         2.1 0.48            115            248 195 
 GUY2CHZ EP   2   1019 46.17                             112    0.91 4  300 235 
 GUY2CHN ES   2   1020 20.10                             112    1.11 4  300 235 
 GUY2CHZ  IAML    1020 29.33         3.8 0.70                           300 235 
 CBOC HZ EP       1019 49.38                             109    0.78 7  333 252 
 CBOC HN ES       1020 24.46                             109   -0.48 7  333 252 
 CBOC HZ I        1020 36.30         1.7 0.62            108            333 252 
 PRA  HZ EP   2   1019 55.69                             106    0.46 3  391 210 
 PRA  HN ES       1020 37.28                             106    0.53 6  391 210 
 PRA  HZ I        1020 42.02         2.9 0.32            105            391 210 
                                                                                
