 2017  718 1321 49.9 L   6.081 -73.560122.0  RSN  8 0.4 1.5LRSN                1
 GAP=110        0.97       3.7     3.3  6.7  0.2033E+00  0.2419E+01  0.3187E-01E
 Epicentro: GUEPSA - SANTANDER                                                 3
 ACTION:UPD 17-08-30 15:34 OP:rebc STATUS:               ID:20170718132149 L   I
 OLDACT:REG 17-07-18 20:27 OP:lv   STATUS:               ID:20170718131745     3
 2017-07-18-1318-00M.COL___383                                                 6
 STAT SP IPHASW D HRMM SECON CODA AMPLIT PERI AZIMU VELO AIN AR TRES W  DIS CAZ7
 RUS  HZ EP       1322  9.05                             154    0.6510 56.8 111 
 RUS  HN ES       1322 22.70                             154   -0.1210 56.8 111 
 RUS  HZ I        1322 23.68         3.9 0.07            155           56.8 111 
 BAR2 EZ EP       1322  8.79                             148   -0.0410 70.3  36 
 BAR2 EZ ES       1322 23.59                             148   -0.0010 70.3  36 
 BAR2 EZ I        1322 24.50        10.9 0.08            149           70.3  36 
 SPBC HN ES       1322 23.00                             147   -0.6310 73.9 230 
 PTB  HZ EP   3   1322 10.34                             134   -1.32 2  111 297 
 PTB  HN ES       1322 28.58                             134   -0.0410  111 297 
 PTB  HZ I        1322 29.76         3.4 0.16            134            111 297 
 BRR  HZ EP       1322 11.59                             133   -0.3410  115 352 
 BRR  HN ES       1322 29.46                             133    0.3510  115 352 
 YPLC HZ EP       1322 15.29                             125   -0.17 9  151 120 
 NOR  HZ EP       1322 15.89                             124   -0.02 9  156 249 
 NOR  HE ES       1322 36.88                             124    0.69 9  156 249 
 NOR  HZ I        1322 39.45         5.7 0.07            124            156 249 
 ZAR  HE ES       1322 46.43                             115   -0.24 8  212 317 
 ZAR  HZ I        1322 49.72         4.9 0.32            116            212 317 
                                                                                
