 2010  918 1140 47.9 L   6.790 -73.077141.5  RSN  7 0.3 1.7LRSN                1
 GAP=166        0.56       4.1     6.9  6.7 -0.6305E+01  0.3727E+01 -0.4148E+01E
 Epicentro: LOS SANTOS - SANTANDER                                             3
 ACTION:UP  11-02-18 11:03 OP:tino STATUS:               ID:20100918114047 L   I
 2010-09-18-1139-04S.COL___121                                                 6
 STAT SP IPHASW D HRMM SECON CODA AMPLIT PERI AZIMU VELO SNR AR TRES W  DIS CAZ7
 BAR2 SZ EP   1   1141  6.92                             170    -0.1 7   25 208 
 BTL  SZ EP   1   1141  7.52                             169     0.5 7   25 304 
 BAR2 SZ ES   2   1141 21.65                             170    -0.3 5   25 208 
 BAR2 SZ I        1141 24.87        16.7 0.59                            25 208 
 BRR  HZ EP   1   1141  8.96                             149    -0.1 7   78 297 
 BRR  HZ I        1141  9.31         9.9 0.10                            78 297 
 BRR  HE ES   2   1141 25.61                             149     0.1 5   78 297 
 RUS  HZ EP   1   1141 10.96                             143    -0.2 7   99 180 
 RUS  HN ES   2   1141 29.52                             143     0.3 5   99 180 
 RUS  HZ I        1141 31.53         5.3 0.44                            99 180 
 GUE  SZ EP   1   1141 11.84                             139    -0.3 7  116   8 
 GRA  SZ EP   1   1141 12.97                             136     0.3 7  125  14 
 GRA  SZ ES   2   1141 31.89                             136    -0.1 5  125  14 
 GRA  SZ I        1141 34.71         5.9 0.23                           125  14 
 HEL  HZ EP   1   1141 28.61                             113    -0.1 6  279 256 
                                                                                
