 2011 1018 1351 59.1 L   6.496 -73.657 96.3  RSN  4 0.4 1.5LRSN                1
 GAP=218        0.70       4.6     6.6 11.4 -0.3159E+00 -0.2038E+02  0.1245E+02E
 Epicentro: SANTA HELENA DEL OPON - SANTANDER                                  3
 ACTION:UPD 12-07-13 16:04 OP:ep   STATUS:               ID:20111018135159 L   I
 2011-10-18-1340-00M.COL___171                                                 6
 STAT SP IPHASW D HRMM SECON CODA AMPLIT PERI AZIMU VELO AIN AR TRES W  DIS CAZ7
 BAR2 SZ EP   1   1352 14.89                             149    0.58 8 53.6  78 
 BAR2 SZ I        1352 28.68        18.2 0.14                          53.6  78 
 BRR  HZ EP   1   1352 14.75                             142   -0.22 8 67.9 355 
 BRR  HZ I        1352 15.18        14.9 0.19                          67.9 355 
 BRR  HN ES   1   1352 27.33                             142    0.00 8 67.9 355 
 RUS  HZ EP   1   1352 17.92                             134    0.26 8 92.1 136 
 RUS  HN ES   2   1352 31.44                             134   -0.68 5 92.1 136 
 RUS  HZ I        1352 35.56         3.8 0.32                          92.1 136 
 PAM  SZ EP   1   1352 22.10                             121   -0.41 7  141  49 
 PAM  SN ES       1352 40.77                             121    0.0310  141  49 
                                                                                
