 2014  118 1655 54.8 L   6.781 -73.151150.3  RSN 11 0.5 2.1LRSN                1
 GAP=200        1.11       3.5     4.9  5.9  0.1845E+01  0.6392E+01  0.9673E-01E
 Epicentro: LOS SANTOS - SANTANDER                                             3
 ACTION:UPD 14-03-13 09:56 OP:ep   STATUS:               ID:20140118165554 L   I
 OLDACT:REG 14-01-18 15:40 OP:carl STATUS:               ID:20140118165000     3
 2014-01-18-1650-00M.COL___285                                                 6
 STAT SP IPHASW D HRMM SECON CODA AMPLIT PERI AZIMU VELO AIN AR TRES W  DIS CAZ7
 BAR2 SZ EP       1656 14.80                             172   -0.1010 21.1 189 
 BAR2 SZ ES       1656 30.67                             172    0.0710 21.1 189 
 BAR2 SZ I        1656 31.88        30.9 0.18            169           21.1 189 
 BRR  HZ EP       1656 16.65                             153    0.2210 71.7 300 
 BRR  HN ES       1656 34.28                             153    0.9510 71.7 300 
 BRR  HZ I        1656 43.56        25.1 0.36            151           71.7 300 
 RUS  HZ EP       1656 18.65                             145   -0.1610 98.5 176 
 RUS  HN ES       1656 37.52                             145   -0.0610 98.5 176 
 RUS  HZ I        1656 38.45        11.2 0.26            148           98.5 176 
 PTB  HZ EP       1656 21.45                             133   -0.56 9  147 260 
 PTB  HN ES       1656 42.91                             133   -0.36 9  147 260 
 PTB  HZ I        1656 44.93        20.5 0.16            133            147 260 
 SPBC HZ EP       1656 23.65                             130    0.23 9  161 219 
 SPBC HN ES       1656 44.63                             130   -1.15 9  161 219 
 SPBC HZ I        1656 51.63        13.3 0.12            131            161 219 
 ZAR  HZ EP       1656 27.48                             123   -0.05 9  204 293 
 ZAR  HN ES       1656 53.21                             123    0.12 9  204 293 
 ZAR  HZ I        1656 58.93        19.7 0.32            125            204 293 
 NOR  HZ EP       1656 30.79                             120    0.22 8  233 235 
 NOR  HE ES       1656 59.02                             120    0.51 8  233 235 
 NOR  HZ I        1657  6.82         8.0 0.34            121            233 235 
 SML  HZ EP       1656 31.78                             118   -0.05 8  245 336 
 SML  HE ES       1656 59.97                             118   -0.77 8  245 336 
 SML  HZ I        1657  2.84        21.1 0.24            121            245 336 
 CHI  HZ EP       1656 32.97                             118    0.49 8  246 195 
 CHI  HN ES       1657  1.81                             118   -0.08 8  246 195 
 CHI  HZ I        1657  9.98         5.9 0.52            121            246 195 
 HEL  HZ EP       1656 35.02                             116   -0.07 8  271 256 
 HEL  HN ES       1657  6.43                             116   -0.11 8  271 256 
 HEL  HZ I        1657 13.15         6.4 0.30            117            271 256 
 GUY2CHZ EP       1656 39.22                             113    0.83 7  299 235 
 GUY2CHN ES       1657 12.51                             113    0.09 7  299 235 
 GUY2CHZ I        1657 20.38         5.7 0.54                           299 235 
                                                                                
