 2013  918 1227 36.1 L   6.339 -73.607109.6  RSN  9 0.5 2.0LRSN                1
 GAP= 71        1.14       3.9     4.3  9.0  0.1650E+01  0.1418E+02  0.4482E+01E
 Epicentro: SANTA HELENA DEL OPON - SANTANDER                                  3
 ACTION:UPD 13-10-22 09:23 OP:ep   STATUS:               ID:20130918122736 L   I
 OLDACT:REG 13-09-18 15:20 OP:jn   STATUS:               ID:20130918121959     3
 2013-09-18-1219-59M.COL___269                                                 6
 STAT SP IPHASW D HRMM SECON CODA AMPLIT PERI AZIMU VELO AIN AR TRES W  DIS CAZ7
 BAR2 SZ IP     D 1227 53.14                             151    0.3710 54.7  59 
 BAR2 SZ ES       1228  5.80                             151    0.0310 54.7  59 
 BAR2 SZ I        1228  7.51        44.6 0.38            156           54.7  59 
 RUS  HZ EP       1227 54.37                             143   -0.1810 76.2 130 
 RUS  HE ES       1228  8.77                             143   -0.1710 76.2 130 
 RUS  HZ I        1228 10.30         9.5 0.16            145           76.2 130 
 BRR  HZ EP       1227 54.76                             139    0.1610 85.7 352 
 BRR  HN ES       1228  9.59                             139    0.5810 85.7 352 
 BRR  HZ I        1228 10.43        25.9 0.12            141           85.7 352 
 SPBC HE ES   1   1228 10.43                             137    0.31 7 91.8 214 
 SPBC HZ I        1228 12.02        22.1 0.12            136           91.8 214 
 PTB  HZ EP       1227 54.95                             135   -0.5710 96.5 283 
 PTB  HN ES       1228  9.85                             135   -0.8010 96.5 283 
 PTB  HZ I        1228 12.78        23.4 0.12            135           96.5 283 
 NOR  HZ EP       1228  2.64                             119    0.47 9  164 239 
 NOR  HN ES   1   1228 23.45                             119    0.97 7  164 239 
 NOR  HZ I        1228 27.93        18.1 0.14            119            164 239 
 ZAR  HE ES   1   1228 26.89                             115   -0.14 7  188 313 
 ZAR  HZ I        1228 31.73        22.9 0.26            116            188 313 
 CHI  HN ES   1   1228 27.68                             115   -0.57 7  190 184 
 CHI  HZ I        1228 32.96         6.3 0.20            116            190 184 
 SML  HE ES   2   1228 44.20                             106   -0.92 4  277 349 
                                                                                
