 2010  818 1323 46.2 L   6.779 -73.098141.9  RSN  7 0.4 2.1LRSN                1
 GAP=164        1.05       4.1    10.5  7.4 -0.4468E+01 -0.2105E+01 -0.4319E+01E
 Epicentro: LOS SANTOS - SANTANDER                                             3
 ACTION:UP  10-09-07 10:56 OP:vdl  STATUS:               ID:20100818132346 L   I
 2010-08-18-1321-34S.COL___117                                                 6
 STAT SP IPHASW D HRMM SECON CODA AMPLIT PERI AZIMU VELO SNR AR TRES W  DIS CAZ7
 BAR2 SZ EP       1324  5.16                             170    -0.210   23 205 
 BAR2 SZ ES       1324 19.87                             170    -0.410   23 205 
 BAR2 SZ I        1324 21.35        37.2 0.38                            23 205 
 BRR  HZ EP       1324  7.12                             150    -0.110   77 298 
 BRR  HN ES   1   1324 24.07                             150     0.4 7   77 298 
 BRR  HZ I        1324 28.23        26.9 0.18                            77 298 
 RUS  HZ EP       1324  9.19                             144    -0.210   98 179 
 RUS  HE ES       1324 27.73                             144     0.310   98 179 
 RUS  HZ I        1324 29.00        15.6 0.42                            98 179 
 GUE  SZ EP       1324 11.35                             138     0.710  118   9 
 GUE  SZ I        1324 33.64         5.6 0.14                           118   9 
 GRA  SZ EP   1   1324 10.65                             136    -0.5 7  126  15 
 GRA  SZ ES   1   1324 30.98                             136     0.4 7  126  15 
 GRA  SZ I        1324 31.66        16.1 0.31                           126  15 
 OCA  SZ EP   1   1324 14.00                             128    -0.5 7  163 351 
 OCA  SZ ES   1   1324 36.21                             128    -0.3 7  163 351 
 OCA  SZ I        1324 39.89        16.0 0.24                           163 351 
 PRA  HZ EP       1324 39.69                             106     0.1 6  393 210 
 PRA  HN ES   2   1325 22.03                             106     0.7 3  393 210 
 PRA  HZ I        1325 26.29         6.7 0.27                           393 210 
                                                                                
