 2011  418 1017 22.9 L   6.780 -73.079144.7  RSN  6 0.2 1.8LRSN                1
 GAP=175        0.54       5.4     5.7  4.9 -0.1579E+02  0.9801E+00  0.3742E+01E
 Epicentro: LOS SANTOS - SANTANDER                                             3
 ACTION:UP  11-06-22 15:31 OP:REBC STATUS:               ID:20110418101722 L   I
 2011-04-18-1014-09S.COL___138                                                 6
 STAT SP IPHASW D HRMM SECON CODA AMPLIT PERI AZIMU VELO SNR AR TRES W  DIS CAZ7
 BAR2 SZ EP   1   1017 42.35                             170    -0.1 7   24 209 
 BAR2 SZ ES   1   1017 57.45                             170    -0.2 7   24 209 
 BAR2 SZ I        1018  0.05         9.3 0.18                            24 209 
 GIR2 SZ EP   1   1017 42.58                             166     0.0 7   35 339 
 PAM  SZ EP   1   1017 45.12                             151     0.2 7   75  34 
 PAM  SN ES   2   1018  2.61                             151     0.6 5   75  34 
 BRR  HZ IP       1017 44.29                             150    -0.110   79 297 
 BRR  HZ I        1017 44.53        17.6 0.12                            79 297 
 BRR  HE ES   1   1018  1.26                             150     0.1 7   79 297 
 GRA  SZ EP   1   1017 47.75                             137    -0.3 7  126  14 
 GRA  SZ ES   2   1018  7.71                             137     0.0 5  126  14 
 NOR  SZ EP       1017 59.39                             118     0.3 8  240 236 
                                                                                
