 2010  718 1517 36.0 L   6.778 -73.029145.6  RSN  4 0.3 1.7LRSN                1
 GAP=212        0.83      11.1    19.0 10.6  0.1729E+03 -0.1182E+03 -0.5608E+02E
 Epicentro: CEPITA - SANTANDER                                                 3
 ACTION:UPD 10-12-01 15:18 OP:pat  STATUS:               ID:20100718151736 L   I
 2010-07-18-1515-43S.COL___119                                                 6
 STAT SP IPHASW D HRMM SECON CODA AMPLIT PERI AZIMU VELO AIN AR TRES W  DIS CAZ7
 BAR2 SZ EP       1517 55.86                             169     0.110   27 220 
 BAR2 SZ ES   1   1518 11.11                             169     0.0 7   27 220 
 BAR2 SZ I        1518 12.22        13.6 0.08                            27 220 
 GIR2 SZ EP   1   1517 55.69                             165    -0.2 7   38 331 
 BRR  HZ EP       1517 57.54                             148    -0.410   84 296 
 BRR  HZ I        1517 57.81        17.3 0.29                            84 296 
 BRR  HN ES       1518 15.20                             148     0.210   84 296 
 RUS  HZ EP       1517 59.94                             144     0.410   98 183 
 RUS  HN ES   1   1518 17.50                             144    -0.5 7   98 183 
 RUS  HZ I        1518 19.57         3.4 0.74                            98 183 
                                                                                
