 2014  118 1211 11.1 L   6.799 -73.121149.5  RSN 10 0.5 1.9LRSN                1
 GAP=185        1.25       3.4     5.7  6.8  0.2475E+00  0.7026E+01 -0.6746E-01E
 Epicentro: LOS SANTOS - SANTANDER                                             3
 ACTION:UPD 14-03-13 09:56 OP:ep   STATUS:               ID:20140118121111 L   I
 OLDACT:REG 14-01-18 15:34 OP:carl STATUS:               ID:20140118121000     3
 2014-01-18-1210-00M.COL___285                                                 6
 STAT SP IPHASW D HRMM SECON CODA AMPLIT PERI AZIMU VELO AIN AR TRES W  DIS CAZ7
 BAR2 SZ EP       1211 31.23                             171    0.0310 23.8 197 
 BAR2 SZ ES       1211 46.60                             171   -0.2710 23.8 197 
 BAR2 SZ I        1211 50.48        16.2 0.56            169           23.8 197 
 BRR  HZ EP       1211 33.21                             152    0.4010 73.7 298 
 BRR  HN ES       1211 50.63                             152    0.9110 73.7 298 
 RUS  HZ EP       1211 35.08                             145   -0.1310  100 178 
 RUS  HN ES       1211 53.35                             145   -0.6510  100 178 
 RUS  HZ I        1211 57.31         4.2 0.20            147            100 178 
 PTB  HZ EP       1211 38.03                             132   -0.60 9  150 259 
 PTB  HN ES       1211 59.46                             132   -0.63 9  150 259 
 PTB  HZ I        1212  6.86        12.1 0.34            133            150 259 
 OCA  HZ EP       1211 40.42                             130    0.66 9  161 352 
 OCA  HN ES       1212  2.20                             130    0.09 9  161 352 
 OCA  HZ I        1212  6.13        11.3 0.36            133            161 352 
 ZAR  HZ EP       1211 44.04                             123   -0.03 8  207 292 
 ZAR  HN ES       1212 10.08                             123    0.30 8  207 292 
 ZAR  HZ I        1212 15.68         8.9 0.44            124            207 292 
 NOR  HZ EP       1211 47.36                             119    0.07 8  237 235 
 NOR  HE ES       1212 15.45                             119   -0.06 8  237 235 
 NOR  HZ I        1212 19.38         7.2 0.20            121            237 235 
 SML  HZ EP       1211 47.86                             118   -0.23 8  245 335 
 SML  HN ES       1212 16.05                             118   -0.88 8  245 335 
 SML  HZ I        1212 20.97        15.2 0.10            120            245 335 
 CHI  HZ EP       1211 49.28                             118    0.19 8  249 196 
 CHI  HE ES       1212 19.82                             118    1.12 8  249 196 
 CHI  HZ I        1212 26.86         3.8 0.36            120            249 196 
 GUY2CHZ EP       1211 54.50                             113   -0.64 7  303 235 
 GUY2CHN ES       1212 29.78                             113    0.30 7  303 235 
 GUY2CHZ I        1212 36.16         4.9 0.30                           303 235 
                                                                                
