 2012 1118 1325 50.4 L   6.732 -73.218144.4  RSN  5 0.2 1.5LRSN                1
 GAP=161        0.59       4.1     4.1  5.9  0.6265E+01 -0.3660E+01 -0.2429E+01E
 Epicentro: VILLANUEVA - SANTANDER                                             3
 ACTION:UPD 12-12-05 15:34 OP:}ep  STATUS:               ID:20121118132550 L   I
 2012-11-18-1320-00M.COL___234                                                 6
 STAT SP IPHASW D HRMM SECON CODA AMPLIT PERI AZIMU VELO AIN AR TRES W  DIS CAZ7
 BAR2 SZ EP       1326  9.55                             173   -0.1610 15.9 166 
 BAR2 SZ I        1326 26.98         7.7 0.48                          15.9 166 
 GIR2 SZ EP       1326 10.13                             164    0.0310 38.5   4 
 BRR  HZ EP       1326 10.99                             153   -0.2410 68.6 307 
 BRR  HN ES       1326 27.67                             153    0.1810 68.6 307 
 BRR  HN I        1326 28.77         5.9 0.16                          68.6 307 
 RUS  HZ EP       1326 13.95                             145    0.4310 94.0 171 
 RUS  HN ES       1326 31.39                             145   -0.1910 94.0 171 
 PTB  HZ EP       1326 16.32                             134   -0.08 9  139 261 
 PTB  HE ES       1326 36.73                             134    0.03 9  139 261 
                                                                                
