 2017 1118 1819  3.3 L   6.808 -73.157133.1  RSN  4 0.1 1.6LRSN                1
 GAP=255        0.44       3.9     3.0  4.2  0.1930E+01  0.5675E+01  0.1828E+01E
 Epicentro: LOS SANTOS - SANTANDER                                             3
 ACTION:UPD 17-12-12 19:57 OP:rebc STATUS:               ID:20171118181903 L   I
 OLDACT:UP  17-11-18 23:23 OP:lv   STATUS:               ID:20171118181744     3
 OLDACT:REG 17-11-18 20:52 OP:lv   STATUS:               ID:20171118181744     3
 2017-11-18-1818-00M.COL___470                                                 6
 STAT SP IPHASW D HRMM SECON CODA AMPLIT PERI AZIMU VELO AIN AR TRES W  DIS CAZ7
 BAR2 HZ EP       1819 21.27                             169   -0.1910 24.0 187 
 BAR2 HZ ES       1819 35.74                             169    0.1510 24.0 187 
 BAR2 HZ I        1819 38.05        12.0 0.24            170           24.0 187 
 PTB  HZ EP       1819 29.29                             129    0.09 9  147 258 
 PTB  HN ES       1819 49.14                             129   -0.24 9  147 258 
 PTB  HZ I        1819 51.00         3.1 0.30            129            147 258 
 ZAR  HN ES       1819 59.51                             120    0.11 9  203 292 
 ZAR  HZ I        1820  6.66         4.8 0.30            120            203 292 
 NOR  HZ EP       1819 38.38                             116    0.07 8  234 234 
 NOR  HN ES       1820  5.68                             116    0.09 8  234 234 
 NOR  HZ I        1820 10.81         3.5 0.24            117            234 234 
                                                                                
