 2012  318 1308 30.3 L   6.719 -73.197154.3  RSN  5 0.5 1.5LRSN                1
 GAP=133        1.15      10.3     9.4 11.8  0.2159E+02 -0.9394E+01 -0.1990E+02E
 ACTION:UP  12-03-31 23:20 OP:EP   STATUS:               ID:20120318130830 L   I
 2012-03-18-1305-48M.COL___178                                                 6
 STAT SP IPHASW D HRMM SECON CODA AMPLIT PERI AZIMU VELO SNR AR TRES W  DIS CAZ7
 BAR2 SZ EP   1   13 8 50.88                             175     0.0 7   14 173 
 BAR2 SZ ES   1   13 9  6.44                             175    -0.4 7   14 173 
 BAR2 SZ I        13 9  7.08         7.8 0.40                            14 173 
 BRR  HZ EP   1   13 8 52.69                             154     0.3 7   71 307 
 BRR  HE ES   1   13 9 10.15                             154     0.5 7   71 307 
 BRR  HZ I        13 9 11.85         7.2 0.23                            71 307 
 PAM  SZ EP   1   13 8 53.64                             149    -0.4 7   88  39 
 RUS  HZ EP   1   13 8 55.26                             148     0.9 7   92 172 
 RUS  HN ES   1   13 9 12.92                             148    -0.2 7   92 172 
 RUS  HZ I        13 9 14.66         3.1 0.30                            92 172 
 PTB  HZ EP   1   13 8 56.62                             135    -0.8 7  141 262 
 PTB  HN ES   1   13 9 18.43                             135    -0.1 7  141 262 
 PTB  HZ I        13 9 26.12         3.3 0.41                           141 262 
                                                                                
