 2011  618 1847  7.8 L   6.756 -73.140145.4  RSN  4 0.1 1.5LRSN                1
 GAP=157        0.37       4.8     9.4  7.3  0.3567E+02 -0.5163E+02 -0.1984E+02E
 Epicentro: LOS SANTOS - SANTANDER                                             3
 ACTION:UP  11-07-14 19:06 OP:ep   STATUS:               ID:20110618184707 L   I
 2011-06-18-1843-38S.COL___140                                                 6
 STAT SP IPHASW D HRMM SECON CODA AMPLIT PERI AZIMU VELO SNR AR TRES W  DIS CAZ7
 BAR2 SZ EP   1   1847 27.25                             172     0.0 7   19 194 
 BAR2 SZ I        1847 45.13         6.9 0.12                            19 194 
 BRR  HZ EP   1   1847 29.23                             151     0.2 7   74 302 
 BRR  HZ I        1847 35.47         9.8 0.29                            74 302 
 BRR  HN ES       1847 45.62                             151     0.010   74 302 
 RUS  HZ EP   1   1847 31.02                             145    -0.1 7   96 176 
 RUS  HE ES   1   1847 49.47                             145     0.1 7   96 176 
 RUS  HZ I        1847 50.96         2.4 0.25                            96 176 
 BRI  SZ EP   2   1847 32.01                             140     0.0 5  113  20 
                                                                                
