 2016  318 1006 38.7 L   6.788 -73.172144.1  RSN  5 0.2 1.6LRSN                1
 GAP=242        0.52       3.4     3.1  4.1  0.4253E+01  0.2381E+01 -0.2922E+01E
 Epicentro: LOS SANTOS - SANTANDER                                             3
 ACTION:UPD 16-05-13 21:25 OP:cam  STATUS:               ID:20160318100638 L   I
 OLDACT:REG 16-03-18 20:05 OP:cara STATUS:               ID:20160318095747     3
 2016-03-18-0957-47M.COL___310                                                 6
 STAT SP IPHASW D HRMM SECON CODA AMPLIT PERI AZIMU VELO AIN AR TRES W  DIS CAZ7
 BAR2 EZ IP       10 6 58.30                             171    0.1710 21.7 183 
 BAR2 EZ ES       10 7 13.24                             171   -0.0310 21.7 183 
 BAR2 EZ I        10 7 15.49         8.7 0.22            174           21.7 183 
 RUS  HZ EP       10 7  2.11                             144   -0.1410 99.5 174 
 RUS  HN ES       10 7 20.57                             144   -0.0110 99.5 174 
 RUS  HZ I        10 7 21.88         4.7 0.24            148           99.5 174 
 PTB  HZ EP       10 7  4.97                             132   -0.32 9  145 259 
 PTB  HN ES       10 7 25.82                             132   -0.18 9  145 259 
 PTB  HZ I        10 7 27.43         3.6 0.14            134            145 259 
 SPBC HZ EP       10 7  7.15                             129    0.31 9  160 218 
 SPBC HZ I        10 7  7.52         5.1 0.20            132            160 218 
 SPBC HN ES       10 7 28.85                             129    0.09 9  160 218 
 ZAR  HZ EP       10 7 10.75                             122   -0.10 9  202 293 
 ZAR  HN ES       10 7 36.16                             122    0.26 9  202 293 
 ZAR  HZ I        10 7 41.57         5.1 0.48            123            202 293 
                                                                                
