 2017  818 1030 23.7 L   6.800 -73.113145.7  RSN 13 0.4 1.9LRSN                1
 GAP=115        0.65       2.7     3.1  4.1 -0.5437E+00  0.5144E+01  0.1147E+00E
 Epicentro: LOS SANTOS - SANTANDER                                             3
 ACTION:UPD 17-09-04 20:21 OP:rebc STATUS:               ID:20170818103023 L   I
 OLDACT:UP  17-08-18 21:09 OP:and  STATUS:               ID:20170818102739     3
 OLDACT:UP  17-08-18 21:07 OP:and  STATUS:               ID:20170818102739     3
 OLDACT:UP  17-08-18 21:07 OP:and  STATUS:               ID:20170818102739     3
 OLDACT:REG 17-08-18 20:11 OP:and  STATUS:               ID:20170818102739     3
 2017-08-18-1028-00M.COL___407                                                 6
 STAT SP IPHASW D HRMM SECON CODA AMPLIT PERI AZIMU VELO AIN AR TRES W  DIS CAZ7
 BAR2 EZ IP     C 1030 43.20                             170   -0.1310 24.2 198 
 BAR2 EZ ES       1030 58.30                             170   -0.3510 24.2 198 
 BAR2 EZ I        1031  0.99        22.8 0.36            167           24.2 198 
 BRR  HZ IP     C 1030 45.08                             151    0.0710 74.4 297 
 BRR  HN ES   2   1031  2.23                             151    0.58 5 74.4 297 
 BRR  HZ I        1031  9.30        10.6 0.16            149           74.4 297 
 PAM  EZ EP       1030 45.98                             152    0.2210 75.1  37 
 PAM  EN ES       1031  3.01                             152    0.0310 75.1  37 
 PAM  EZ I        1031  5.58         6.8 0.66            157           75.1  37 
 RUS  HZ IP   2 C 1030 47.09                             144   -0.32 5  100 178 
 RUS  HN ES       1031  6.08                             144    0.1510  100 178 
 RUS  HZ I        1031  7.42        12.4 0.44            146            100 178 
 YPLC HZ EP   2   1030 53.08                             127   -0.22 4  175 152 
 YPLC HE ES   3   1031 17.86                             127    1.45 2  175 152 
 YPLC HZ I        1031 21.02         9.2 0.32            131            175 152 
 ZAR  HZ EP   2   1030 56.73                             122    0.26 4  207 292 
 ZAR  HN ES       1031 22.24                             122    0.19 8  207 292 
 ZAR  HZ I        1031 28.39         8.2 0.30            123            207 292 
 TABC EZ IP   3 C 1031  0.90                             119    1.27 2  232 211 
 NOR  HZ EP       1030 59.58                             118   -0.15 8  238 235 
 NOR  HN ES       1031 27.85                             118    0.01 8  238 235 
 NOR  HZ I        1031 32.69         7.5 0.28            119            238 235 
 CHI  HZ EP       1031  1.54                             117    0.06 8  250 196 
 CHI  HN ES   2   1031 31.12                             117    0.15 4  250 196 
 CHI  HZ I        1031 36.23         2.7 0.20            119            250 196 
 HEL  HZ EP   2   1031  4.91                             114    0.63 4  276 256 
 HEL  HE ES   2   1031 36.54                             114    0.59 4  276 256 
 HEL  HZ I        1031 43.25         3.8 0.24            115            276 256 
 URE  HZ EP       1031  4.26                             113   -0.87 7  287 292 
 URE  HN ES   4   1031 35.13                             113   -2.32 0  287 292 
 URE  HZ I        1031 47.15         4.0 0.18            114            287 292 
 GUY2CHZ EP   9   1031  9.32                             112    1.70 0  304 235 
 GUY2CHE ES       1031 43.62                             112    0.03 7  304 235 
 GUY2CHZ I        1031 49.75         6.1 0.34                           304 235 
 PTGC HZ EP   9   1031  6.14                             112   -1.25 0  307 159 
 PTGC HN ES       1031 39.72                             112   -0.51 7  307 159 
                                                                                
