 2014  418 1235 34.3 L   6.809 -73.133142.9  RSN 17 0.5 2.2LRSN                1
 GAP=127        1.19       2.8     4.1  6.8 -0.3479E+01  0.6349E+01  0.1599E+01E
 Epicentro: LOS SANTOS - SANTANDER                                             3
 ACTION:UPD 14-05-13 23:09 OP:nd   STATUS:               ID:20140418123534 L   I
 OLDACT:DUP 14-04-18 23:56 OP:stll STATUS:               ID:20140418122810d    3
 2014-04-18-1228-09M.COL___230                                                 6
 STAT SP IPHASW D HRMM SECON CODA AMPLIT PERI AZIMU VELO AIN AR TRES W  DIS CAZ7
 PAM  SZ IP     D 1235 56.79                             151    0.6810 75.7  39 
 PAM  SE ES       1236 13.72                             151    0.6010 75.7  39 
 PAM  SZ I        1236 16.12        23.0 0.48            155           75.7  39 
 RUS  HZ EP       1235 57.78                             143   -0.0510  101 177 
 RUS  HN ES       1236 16.04                             143   -0.1510  101 177 
 PTB  HZ EP       1236  0.51                             131   -0.66 9  149 259 
 PTB  HN ES       1236 21.54                             131   -0.60 9  149 259 
 PTB  HZ I        1236 23.83        20.1 0.22            132            149 259 
 OCA  HZ EP       1236  2.44                             129    0.13 9  159 353 
 OCA  HN ES       1236 23.77                             129   -0.39 9  159 353 
 OCA  HZ I        1236 28.98        11.0 0.18            132            159 353 
 SPBC HZ EP       1236  2.81                             128    0.08 9  165 219 
 SPBC HZ I        1236  3.07        20.2 0.20            129            165 219 
 SPBC HE ES       1236 24.73                             128   -0.18 9  165 219 
 ZAR  HZ EP       1236  6.82                             122    0.17 9  205 292 
 ZAR  HN ES       1236 32.80                             122    0.91 9  205 292 
 ZAR  HZ I        1236 37.94        17.5 0.46            123            205 292 
 NOR  HZ IP     C 1236  9.81                             118   -0.23 8  236 234 
 NOR  HE ES       1236 37.92                             118   -0.00 8  236 234 
 NOR  HZ I        1236 41.67        10.7 0.44            119            236 234 
 SML  HZ EP       1236 10.10                             117   -0.63 8  243 335 
 SML  HN ES       1236 38.45                             117   -0.70 8  243 335 
 SML  HZ I        1236 43.48        15.1 0.10            119            243 335 
 CHI  HZ IP     C 1236 12.16                             116    0.18 8  250 195 
 CHI  HN ES       1236 40.42                             116   -0.95 8  250 195 
 CHI  HZ I        1236 49.19         7.3 0.36            118            250 195 
 ROSC BZ EP       1236 13.50                             116    1.07 8  254 211 
 ROSC BN ES       1236 42.25                             116    0.08 8  254 211 
 ROSC BZ I        1236 51.36        17.3 0.40            118            254 211 
 HEL  HZ EP       1236 14.47                             114   -0.07 8  274 256 
 HEL  HN ES       1236 46.03                             114    0.10 8  274 256 
 HEL  HZ I        1236 52.13         8.7 0.36            115            274 256 
 GUY2CHZ EP       1236 18.88                             112    0.92 7  303 235 
 GUY2CHE ES       1236 51.89                             112   -0.13 7  303 235 
 GUY2CHZ I        1236 59.67         6.0 0.54                           303 235 
 RREF HZ EP       1236 20.94                             110    0.43 7  323 229 
 RREF HN ES       1236 57.04                             110    0.49 7  323 229 
 RREF HZ I        1237  6.19         9.8 0.40            112            323 229 
 SDV  BZ IP     C 1236 23.12                             108   -0.91 6  359  50 
 ANIL HE ES       1237  3.58                             108    0.48 6  359 225 
 PRA  HZ EP       1236 28.23                             106    0.33 6  394 210 
 PRA  HN ES       1237  8.64                             106   -1.07 6  394 210 
 PRA  HZ I        1237 13.70         7.2 0.52            108            394 210 
 ORTC HN ES       1237  9.98                             106   -0.45 6  397 216 
 ORTC HZ I        1237 16.74         3.7 0.28            107            397 216 
                                                                                
