 2017  818 1758 54.4 L   6.781 -73.120143.1  RSN  7 0.4 1.4LRSN                1
 GAP=115        0.64       3.1     3.5  4.4 -0.1930E+01  0.5757E+00  0.3743E+01E
 Epicentro: LOS SANTOS - SANTANDER                                             3
 ACTION:UPD 17-09-04 20:21 OP:rebc STATUS:               ID:20170818175854 L   I
 OLDACT:UP  17-08-18 22:49 OP:and  STATUS:               ID:20170818175744     3
 OLDACT:UP  17-08-18 22:49 OP:and  STATUS:               ID:20170818175744     3
 OLDACT:REG 17-08-18 20:54 OP:and  STATUS:               ID:20170818175744     3
 2017-08-18-1758-00M.COL___411                                                 6
 STAT SP IPHASW D HRMM SECON CODA AMPLIT PERI AZIMU VELO AIN AR TRES W  DIS CAZ7
 BAR2 EZ EP       1759 13.59                             171   -0.1110 22.0 198 
 BAR2 EZ ES       1759 28.42                             171   -0.3210 22.0 198 
 BAR2 EZ I        1759 29.93         7.3 0.19            170           22.0 198 
 BRR  HZ EP       1759 15.26                             151   -0.2310 74.7 299 
 BRR  HN ES       1759 32.33                             151    0.4210 74.7 299 
 PAM  EZ IP     D 1759 16.48                             150    0.1410 77.2  37 
 PAM  EN ES       1759 33.34                             150   -0.1010 77.2  37 
 PAM  EZ I        1759 35.38         6.1 0.50            152           77.2  37 
 RUS  HZ EP       1759 17.66                             144   -0.0910 98.4 178 
 RUS  HN ES       1759 36.10                             144    0.1610 98.4 178 
 RUS  HZ I        1759 38.12         1.8 0.18            144           98.4 178 
 YPLC HZ EP       1759 24.04                             126    0.33 9  174 152 
 NOR  HZ EP   1   1759 29.99                             118   -0.13 6  236 235 
 NOR  HN ES       1759 57.80                             118   -0.17 8  236 235 
 NOR  HZ I        18 0  0.16         2.5 0.20            119            236 235 
 GUY2CHZ EP   3   1759 36.99                             112   -1.05 2  302 235 
 GUY2CHN ES   3   18 0 14.12                             112    2.06 2  302 235 
 GUY2CHZ I        18 0 22.81         1.4 0.40                           302 235 
                                                                                
