 2015 1218 1814 41.2 L   6.788 -73.146145.6  RSN  9 0.5 2.0LRSN                1
 GAP=183        1.05       4.6     5.9  7.0  0.2471E+00  0.3153E+01 -0.6136E+01E
 Epicentro: LOS SANTOS - SANTANDER                                             3
 ACTION:UPD 16-02-04 15:05 OP:cam  STATUS:               ID:20151218181441 L   I
 OLDACT:REG 15-12-18 20:54 OP:ar   STATUS:               ID:20151218180748     3
 2015-12-18-1807-48M.COL___337                                                 6
 STAT SP IPHASW D HRMM SECON CODA AMPLIT PERI AZIMU VELO AIN AR TRES W  DIS CAZ7
 BAR2 EZ EP       1815  0.85                             171    0.1110 22.0 191 
 BAR2 EZ ES       1815 15.49                             171   -0.5310 22.0 191 
 BAR2 EZ I        1815 18.69        20.8 0.28            173           22.0 191 
 BRR  HZ EP       1815  2.80                             152    0.4810 71.8 299 
 BRR  HN ES       1815 19.71                             152    0.8810 71.8 299 
 BRR  HZ I        1815 21.74        15.7 0.18            152           71.8 299 
 RUS  HZ EP   2   1815  4.68                             144   -0.11 5 99.2 176 
 RUS  HN ES   2   1815 23.09                             144   -0.14 5 99.2 176 
 RUS  HZ I        1815 24.99         8.4 0.26            148           99.2 176 
 PTB  HZ EP       1815  7.83                             132   -0.25 9  147 259 
 PTB  HN ES       1815 28.34                             132   -0.75 9  147 259 
 PTB  HZ I        1815 31.19         8.5 0.16            134            147 259 
 SPBC HZ EP       1815  9.97                             129    0.43 9  162 219 
 SPBC HN ES       1815 31.76                             129    0.08 9  162 219 
 SPBC HZ I        1815 33.74        13.1 0.22            132            162 219 
 OCA  HZ EP       1815  9.03                             129   -0.55 9  162 353 
 OCA  HN ES   2   1815 31.84                             129    0.09 5  162 353 
 OCA  HZ I        1815 34.92        20.2 0.16            131            162 353 
 ZAR  HZ EP       1815 13.85                             122    0.21 9  205 292 
 ZAR  HE ES       1815 38.88                             122   -0.10 9  205 292 
 ZAR  HZ I        1815 44.24        13.8 0.80            124            205 292 
 SML  HZ EP   2   1815 18.00                             117    0.10 4  245 335 
 SML  HE ES   2   1815 45.89                             117   -0.68 4  245 335 
 SML  HZ I        1815 50.08        13.5 0.10            119            245 335 
 GUY2CHZ EP   4   1815 26.41                             112    1.75 0  300 235 
 GUY2CHN ES   4   1816  1.49                             112    2.89 0  300 235 
 GUY2CHZ I        1816  7.28         4.7 0.64                           300 235 
                                                                                
