 2011 1118 1537 56.5 L   7.555 -73.166143.1  RSN  5 0.3 1.8LRSN                1
 GAP=127        0.47       3.9     3.8  5.6  0.3574E+00  0.5250E+00 -0.3425E+01E
 Epicentro: EL PLAYON - SANTANDER                                              3
 ACTION:UPD 12-07-13 16:11 OP:ep   STATUS:               ID:20111118153756 L   I
 2011-11-18-1535-26S.COL___179                                                 6
 STAT SP IPHASW D HRMM SECON CODA AMPLIT PERI AZIMU VELO AIN AR TRES W  DIS CAZ7
 PAM  SZ EP       1538 17.46                             158    0.1410 56.7 115 
 PAM  SZ I        1538 17.77         9.1 0.16                          56.7 115 
 PAM  SE ES   2   1538 33.81                             158    0.24 5 56.7 115 
 OCA  SZ EP   2   1538 18.26                             150    0.29 5 77.5 347 
 OCA  SZ I        1538 18.44        11.7 0.18                          77.5 347 
 OCA  SZ ES   2   1538 34.14                             150   -0.57 5 77.5 347 
 BRR  HZ EP       1538 17.82                             150    0.0510 78.0 231 
 BRR  HZ I        1538 18.01        32.5 0.12                          78.0 231 
 BRR  HE ES   1   1538 34.53                             150    0.17 7 78.0 231 
 BAR2 SZ EP   1   1538 19.73                             141   -0.34 7  106 181 
 BAR2 SZ ES   1   1538 38.30                             141   -0.16 7  106 181 
 ZAR  HZ EP   2   1538 26.84                             124   -0.18 4  187 268 
 ZAR  HN ES   2   1538 51.01                             124    0.19 4  187 268 
 ZAR  HZ I        1538 56.08         5.2 0.07                           187 268 
                                                                                
