 2014  318 1631 58.0 L   5.738 -74.056100.0  RSN  7 0.3 1.5LRSN                1
 GAP= 85        0.48       2.5     2.3  6.5 -0.1865E+01 -0.4588E+01  0.5424E+01E
 Epicentro: FLORIAN - SANTANDER                                                3
 OLDACT:REG 14-03-18 15:22 OP:fm   STATUS:               ID:20140318162805     3
 ACTION:UPD 14-04-09 23:18 OP:nd   STATUS:               ID:20140318163158 L   I
 OLDACT:UP  14-03-18 19:26 OP:fm   STATUS:               ID:20140318162805     3
 2014-03-18-1628-05M.COL___238                                                 6
 STAT SP IPHASW D HRMM SECON CODA AMPLIT PERI AZIMU VELO AIN AR TRES W  DIS CAZ7
 NOR  HZ EP       1632 16.04                             134   -0.2110 92.1 258 
 NOR  HN ES       1632 30.60                             134    0.1210 92.1 258 
 NOR  HZ I        1632 32.45        11.0 0.12            123           92.1 258 
 PTB  HZ EP       1632 16.62                             132   -0.2010 99.1 333 
 PTB  HN ES       1632 31.40                             132   -0.1010 99.1 333 
 PTB  HZ I        1632 31.56         5.9 0.22            126           99.1 333 
 RUS  HZ EP   2   1632 18.70                             129    0.30 5  109  81 
 RUS  HN ES   2   1632 34.36                             129    0.04 5  109  81 
 RUS  HZ I        1632 46.73         3.3 1.10            106            109  81 
 CHI  HZ EP   1   1632 20.02                             124   -0.11 7  128 164 
 CHI  HZ I        1632 49.11         6.1 3.34            103            128 164 
 BAR2 HZ I        1632 38.50         8.3 0.96            104            135  46 
 BAR2 SZ ES   1   1632 38.52                             122    0.17 7  135  46 
 GUY2CHZ EP   2   1632 23.46                             118    0.31 5  156 249 
 GUY2CHE ES   2   1632 43.20                             118    0.43 5  156 249 
 GUY2CHZ I        1632 48.65         4.4 1.76                           156 249 
 ZAR  HE ES   2   1632 53.87                             109    0.67 4  213 335 
                                                                                
