 2015  418 1601 32.1 L   6.765 -73.139149.6  RSN  6 0.4 1.6LRSN                1
 GAP=139        0.95       5.5     5.3  8.1  0.3989E+01  0.2681E+01 -0.3886E+01E
 Epicentro: LOS SANTOS - SANTANDER                                             3
 ACTION:UPD 15-06-03 16:55 OP:cam  STATUS:               ID:20150418160132 L   I
 OLDACT:REG 15-04-18 21:06 OP:spq  STATUS:               ID:20150418155750     3
 2015-04-18-1557-50M.COL___275                                                 6
 STAT SP IPHASW D HRMM SECON CODA AMPLIT PERI AZIMU VELO AIN AR TRES W  DIS CAZ7
 BAR2 EZ EP       16 1 52.03                             172   -0.0510 19.7 194 
 BAR2 EZ ES   1   16 2  7.14                             172   -0.55 7 19.7 194 
 BAR2 EZ I        16 2  8.19         8.5 0.24            169           19.7 194 
 BRR  HZ EP       16 1 53.82                             152    0.0610 73.8 301 
 BRR  HN ES       16 2 11.46                             152    0.7710 73.8 301 
 BRR  HZ I        16 2 12.13        11.1 0.30            149           73.8 301 
 PAM  SZ EP       16 1 54.82                             151   -0.0010 79.9  37 
 PAM  SE ES   1   16 2 12.13                             151   -0.46 7 79.9  37 
 PAM  SZ I        16 2 12.71         2.9 0.23            154           79.9  37 
 RUS  HZ EP   1   16 1 56.42                             146    0.51 7 96.7 176 
 RUS  HN ES       16 2 14.63                             146    0.1110 96.7 176 
 RUS  HZ I        16 2 15.53         4.0 0.22            146           96.7 176 
 PTB  HZ EP   1   16 1 58.86                             133   -0.48 7  148 260 
 PTB  HN ES   1   16 2 20.00                             133   -0.62 7  148 260 
 PTB  HZ I        16 2 25.73         4.2 0.12            131            148 260 
 ZAR  HN ES   1   16 2 30.45                             123   -0.20 6  206 293 
 ZAR  HZ I        16 2 36.14         5.8 0.54            122            206 293 
                                                                                
