 2011  518 1910 34.2 L   6.766 -73.114141.9  RSN 15 0.5 3.1LRSN                1
 GAP=142        1.14       4.6     6.4  6.9 -0.1446E+02  0.1506E+02  0.2526E+01E
 Epicentro: LOS SANTOS - SANTANDER                                             3
 ACTION:UP  11-06-29 08:54 OP:tino STATUS:               ID:20110518191034 L   I
 2011-05-18-1909-28S.COL___138                                                 6
 STAT SP IPHASW D HRMM SECON CODA AMPLIT PERI AZIMU VELO SNR AR TRES W  DIS CAZ7
 BAR2 SZ IP       1910 53.23                             171     0.010   21 201 
 BAR2 SZ ES   1   1911  7.96                             171    -0.2 7   21 201 
 BAR2 SZ I        1911 10.93       293.8 0.26                            21 201 
 BRR  HZ IP     C 1910 55.12                             150     0.010   76 300 
 BRR  HZ I        1910 55.40       325.4 0.15                            76 300 
 BRR  HN ES   1   1911 12.53                             150     1.0 7   76 300 
 PAM  SZ EP       1910 56.03                             150     0.010   78  36 
 PAM  SN ES   1   1911 12.85                             150    -0.2 7   78  36 
 RUS  HZ IP     D 1910 57.03                             144    -0.210   97 178 
 RUS  HN ES   1   1911 15.64                             144     0.4 7   97 178 
 RUS  HZ I        1911 17.50        74.8 0.31                            97 178 
 BRI  SZ IP       1910 57.75                             140    -0.110  111  18 
 BRI  SZ ES   1   1911 15.70                             140    -0.6 7  111  18 
 GRA  SZ IP       1910 59.03                             135    -0.210  128  15 
 GRA  SZ ES   1   1911 18.96                             135     0.1 7  128  15 
 GRA  SZ I        1911 20.31       226.5 0.36                           128  15 
 OCA  SZ EP       1911  3.15                             128     0.6 9  164 352 
 OCA  SZ I        1911 30.13       192.7 0.48                           164 352 
 NOR  SZ EP       1911  9.09                             117    -0.6 8  235 236 
 NOR  SN ES   1   1911 36.65                             117    -0.8 6  235 236 
 ROSC BZ EP       1911 12.73                             116     0.8 8  251 212 
 HEL  HZ EP   1   1911 14.60                             114     0.2 6  275 257 
 HEL  HN ES   1   1911 45.09                             114    -0.8 6  275 257 
 HEL  HZ I        1911 51.86        53.3 0.41                           275 257 
 GUY  SZ EP   3   1911 18.37                             111     0.4 2  304 236 
 GUY  SZ I        1912  0.62       122.4 0.42                           304 236 
 RREF HZ EP       1911 20.77                             110     0.6 7  322 230 
 RREF HZ I        1912  5.71       100.4 0.24                           322 230 
 TOL  SZ EP       1911 22.57                             109     0.3 7  343 225 
 DBB  SZ EP       1911 21.85                             108    -0.1 7  343 275 
 MON  HZ EP   4   1911 20.42                             108    -3.2 0  359 309 
 PRA  HZ EP       1911 26.89                             106    -0.5 6  390 210 
 SJC  HZ EP   4   1911 27.26                             105    -2.9 0  414 327 
                                                                                
