 2010 1018 1355 37.3 L   6.812 -73.066143.2  RSN  5 0.1 1.7LRSN                1
 GAP=246        0.34       5.0     7.1  4.3  0.2295E+02  0.1083E+02  0.7565E+01E
 Epicentro: LOS SANTOS - SANTANDER                                             3
 ACTION:UP  11-02-18 11:10 OP:tino STATUS:               ID:20101018135537 L   I
 2010-10-18-1353-50S.COL___123                                                 6
 STAT SP IPHASW D HRMM SECON CODA AMPLIT PERI AZIMU VELO SNR AR TRES W  DIS CAZ7
 BAR2 SZ EP   1   1355 56.84                             169     0.2 7   28 208 
 BAR2 SZ ES   2   1356 11.77                             169    -0.1 5   28 208 
 BAR2 SZ I        1356 13.05        11.6 0.27                            28 208 
 BRR  HZ EP   1   1355 58.40                             150    -0.2 7   79 295 
 BRR  HE ES   2   1356 15.27                             150     0.1 5   79 295 
 BRR  HZ I        1356 19.21        15.0 0.22                            79 295 
 RUS  HZ EP   1   1356  0.88                             143     0.0 7  102 181 
 RUS  HE ES   2   1356 19.18                             143    -0.1 5  102 181 
 RUS  HZ I        1356 21.46         4.6 0.34                           102 181 
 CHI  HZ EP   1   1356 15.13                             116    -0.1 6  252 197 
 HEL  HZ EP   1   1356 18.46                             113     0.1 6  281 256 
 HEL  HZ I        1356 55.80         3.1 0.44                           281 256 
                                                                                
