 2013  918 1616 13.1 L   6.800 -73.154143.2  RSN 13 0.5 2.6LRSN                1
 GAP= 71        0.99       3.1     3.1  5.2 -0.1157E+01  0.2750E+01  0.2032E+01E
 Epicentro: LOS SANTOS - SANTANDER                                             3
 ACTION:UPD 13-10-22 09:23 OP:ep   STATUS:               ID:20130918161613 L   I
 OLDACT:REG 13-09-18 15:37 OP:jn   STATUS:               ID:20130918160959     3
 2013-09-18-1609-59M.COL___269                                                 6
 STAT SP IPHASW D HRMM SECON CODA AMPLIT PERI AZIMU VELO AIN AR TRES W  DIS CAZ7
 BAR2 SZ EP       1616 32.50                             170    0.0910 23.2 188 
 BAR2 SZ ES       1616 47.39                             170   -0.0810 23.2 188 
 BAR2 SZ I        1616 48.93       134.9 0.18            169           23.2 188 
 BRR  HZ EP       1616 34.27                             152    0.3510 70.4 299 
 BRR  HN ES       1616 50.77                             152    0.6110 70.4 299 
 BRR  HZ I        1616 54.91        70.0 0.46            152           70.4 299 
 PAM  SZ EP       1616 35.38                             150    0.3110 77.9  40 
 PAM  SN ES       1616 52.01                             150   -0.2010 77.9  40 
 PAM  SZ I        1616 54.46        54.9 0.44            154           77.9  40 
 RUS  HZ EP       1616 36.48                             143   -0.1210  101 176 
 RUS  HN ES   1   1616 54.38                             143   -0.55 7  101 176 
 RUS  HZ I        1616 56.53        25.4 0.26            145            101 176 
 PTB  HZ EP       1616 38.96                             132   -0.81 9  147 259 
 PTB  HN ES       1617  0.19                             132   -0.39 9  147 259 
 PTB  HZ I        1617  7.49        50.8 0.42            132            147 259 
 TAM  HZ EP       1616 40.90                             130    0.25 9  156 105 
 TAM  HN ES   1   1617  2.39                             130    0.25 7  156 105 
 TAM  HZ I        1617  3.87        23.0 0.54            134            156 105 
 OCA  HN ES   1   1617  3.06                             129   -0.05 7  160 353 
 OCA  HZ I        1617  5.62        62.9 0.20            132            160 353 
 SPBC HZ EP       1616 41.48                             129    0.14 9  163 219 
 SPBC HE ES       1617  3.06                             129   -0.31 9  163 219 
 SPBC HZ I        1617  7.24        46.9 0.16            130            163 219 
 ZAR  HZ EP   1   1616 46.01                             122    0.73 6  203 292 
 ZAR  HN ES       1617 10.52                             122    0.13 9  203 292 
 ZAR  HZ I        1617 16.64        35.8 0.36            123            203 292 
 NOR  HZ EP       1616 48.87                             118    0.27 8  234 234 
 NOR  HN ES       1617 16.50                             118    0.21 8  234 234 
 NOR  HZ I        1617 22.51        27.3 0.28            119            234 234 
 SML  HZ EP       1616 48.55                             117   -0.98 8  243 335 
 SML  HN ES   1   1617 17.46                             117   -0.49 6  243 335 
 ROSC BZ EP   4   1616 52.24                             116    1.22 0  252 211 
 ROSC BN ES   4   1617 23.25                             116    2.64 0  252 211 
 GUY2CHZ EP   1   1616 57.53                             112    1.03 5  300 235 
 GUY2CHN ES   1   1617 31.02                             112    0.66 5  300 235 
 PRA  HZ EP       1617  6.05                             106   -0.43 6  392 209 
 PRA  HN ES   1   1617 47.95                             106   -0.16 4  392 209 
 PRA  HZ I        1617 55.54        24.8 0.54            108            392 209 
                                                                                
