 2016  118 1048 36.7 L   6.801 -73.177145.1  RSN  8 0.3 1.6LRSN                1
 GAP=133        0.68       2.1     3.0  4.4 -0.9951E+00  0.3016E+01  0.3140E+00E
 Epicentro: LOS SANTOS - SANTANDER                                             3
 ACTION:UPD 16-03-09 23:26 OP:cam  STATUS:               ID:20160118104836 L   I
 OLDACT:REG 16-01-18 20:43 OP:ar   STATUS:               ID:20160118103748     3
 2016-01-18-1037-48M.COL___322                                                 6
 STAT SP IPHASW D HRMM SECON CODA AMPLIT PERI AZIMU VELO AIN AR TRES W  DIS CAZ7
 BAR2 EZ EP       1048 56.39                             170    0.1110 23.1 181 
 BAR2 EZ ES       1049 11.10                             170   -0.4210 23.1 181 
 BAR2 EZ I        1049 14.13        10.2 0.30            170           23.1 181 
 PAM  EZ EP       1048 59.22                             150    0.2110 79.6  42 
 PAM  EN ES       1049 16.50                             150    0.1210 79.6  42 
 PAM  EZ I        1049 19.42         6.5 0.32            154           79.6  42 
 RUS  HZ EP       1049  0.41                             143   -0.0410  101 174 
 RUS  HN ES       1049 19.15                             143    0.2010  101 174 
 RUS  HZ I        1049 20.43         3.1 0.28            146            101 174 
 PTB  HZ EP       1049  3.34                             132    0.00 9  144 259 
 PTB  HE ES       1049 23.93                             132   -0.15 9  144 259 
 PTB  HZ I        1049 29.19         3.6 0.16            133            144 259 
 OCA  HZ EP       1049  4.56                             129   -0.38 9  160 354 
 OCA  HN ES       1049 27.04                             129    0.10 9  160 354 
 OCA  HZ I        1049 30.38         9.1 0.48            132            160 354 
 SPBC HZ EP       1049  4.46                             129   -0.52 9  161 218 
 SPBC HN ES       1049 27.04                             129    0.02 9  161 218 
 SPBC HZ I        1049 32.00         9.7 0.28            131            161 218 
 ZAR  HZ EP   4   1049 10.88                             123    2.08 0  201 292 
 ZAR  HE ES       1049 34.22                             123    0.42 9  201 292 
 ZAR  HZ I        1049 39.65         4.3 0.32            124            201 292 
 CHI  HZ EP       1049 14.45                             117    0.14 8  248 194 
 CHI  HN ES       1049 43.95                             117    0.33 8  248 194 
 CHI  HZ I        1049 49.16         2.4 0.32            119            248 194 
                                                                                
