 2011 1218 1241 36.7 L   6.764 -73.032144.9  RSN  7 0.5 2.0LRSN                1
 GAP=153        0.89       3.8     7.1  7.2 -0.7321E+01  0.1273E+02  0.3784E+01E
 Epicentro: CEPITA - SANTANDER                                                 3
 ACTION:UPD 12-07-13 16:17 OP:ep   STATUS:               ID:20111218124136 L   I
 2011-12-18-1240-00M.COL___185                                                 6
 STAT SP IPHASW D HRMM SECON CODA AMPLIT PERI AZIMU VELO AIN AR TRES W  DIS CAZ7
 BAR2 SZ EP   1   1241 56.00                             170   -0.23 7 25.3 221 
 BAR2 SZ ES   1   1242 11.30                             170   -0.19 7 25.3 221 
 BAR2 SZ I        1242 12.78        30.1 0.16                          25.3 221 
 PAM  SZ EP   1   1241 59.04                             152    0.49 7 73.4  30 
 PAM  SN ES   1   1242 16.03                             152    0.40 7 73.4  30 
 BRR  HZ EP       1241 58.12                             148   -0.3810 84.1 297 
 BRR  HE ES   1   1242 15.27                             148   -0.27 7 84.1 297 
 BRR  HZ I        1242 16.61        23.2 0.14                          84.1 297 
 RUS  HZ EP   1   1241 59.93                             145   -0.11 7 96.6 183 
 RUS  HN ES   1   1242 18.48                             145    0.20 7 96.6 183 
 RUS  HZ I        1242 19.94         9.2 0.31                          96.6 183 
 OCA  SZ EP   1   1242  4.64                             128   -0.82 7  166 349 
 OCA  SZ ES   1   1242 28.50                             128    0.58 7  166 349 
 OCA  SZ I        1242 30.11        12.2 0.26                           166 349 
 CHI  HZ EP   1   1242 14.34                             117    0.05 6  248 198 
 CHI  HN ES   1   1242 43.02                             117   -0.63 6  248 198 
 CHI  HZ I        1242 48.89         5.0 0.16                           248 198 
 RREF HZ EP   1   1242 24.35                             110    0.77 5  329 231 
 RREF HE ES       1243  0.93                             110    0.75 7  329 231 
 RREF HZ I        1243  7.65         4.9 0.59                           329 231 
                                                                                
