 2011  918 1220 17.8 L   6.775 -73.106144.1  RSN  8 0.3 1.8LRSN                1
 GAP=143        0.42       3.8     4.1  5.4  0.1055E+01 -0.7748E+00 -0.4782E+01E
 Epicentro: LOS SANTOS - SANTANDER                                             3
 ACTION:UPD 12-07-13 15:58 OP:ep   STATUS:               ID:20110918122017 L   I
 2011-09-18-1220-00M.COL___173                                                 6
 STAT SP IPHASW D HRMM SECON CODA AMPLIT PERI AZIMU VELO AIN AR TRES W  DIS CAZ7
 BAR2 SZ EP   1   1220 37.12                             171   -0.12 7 21.9 203 
 BAR2 SZ ES   2   1220 51.94                             171   -0.43 5 21.9 203 
 BAR2 SZ I        1220 53.23        12.9 0.27                          21.9 203 
 BTL  SZ EP   3   1220 37.44                             170    0.16 2 23.9 312 
 GIR2 SZ EP   2   1220 37.16                             166   -0.26 5 35.0 344 
 GIR2 SZ ES   3   1220 52.34                             166   -0.35 2 35.0 344 
 BRR  HZ EP   1   1220 38.98                             151   -0.13 7 76.4 299 
 BRR  HE ES   2   1220 56.20                             151    0.50 5 76.4 299 
 BRR  HZ I        1220 56.89        19.9 0.22                          76.4 299 
 PAM  SZ IP       1220 40.07                             151    0.2310 76.9  36 
 PAM  SE ES   2   1220 57.03                             151    0.02 5 76.9  36 
 RUS  HZ EP   2   1220 41.14                             144   -0.07 5 97.6 179 
 RUS  HE ES   2   1220 59.67                             144    0.23 5 97.6 179 
 RUS  HZ I        1221  1.40         4.6 0.40                          97.6 179 
 OCA  SZ EP   2   1220 45.99                             129   -0.34 5  164 352 
 OCA  SZ I        1221 52.23        16.2 1.08                           164 352 
 ZAR  HE ES   2   1221 16.31                             121   -0.03 4  209 292 
 ZAR  HZ I        1221 23.85         6.0 0.25                           209 292 
                                                                                
