 2011  418 1446  8.6 L   6.798 -73.176144.6  RSN 15 0.4 3.4LRSN                1
 GAP=111        0.84       3.1     4.9  5.6 -0.4568E+01  0.8926E+01  0.3810E+01E
 Epicentro: LOS SANTOS - SANTANDER                                             3
 ACTION:UP  11-06-22 15:31 OP:REBC STATUS:               ID:20110418144608 L   I
 2011-04-18-1444-34S.COL___138                                                 6
 STAT SP IPHASW D HRMM SECON CODA AMPLIT PERI AZIMU VELO SNR AR TRES W  DIS CAZ7
 BAR2 SZ IP       1446 28.18                             171     0.110   23 182 
 BAR2 SZ ES   1   1446 43.21                             171    -0.1 7   23 182 
 BAR2 SZ I        1446 45.00       969.0 0.31                            23 182 
 GIR2 SZ IP       1446 28.29                             167     0.210   31 356 
 GIR2 SZ ES   1   1446 43.08                             167    -0.3 7   31 356 
 BRR  HZ IP     D 1446 30.08                             153     0.610   68 300 
 BRR  HZ I        1446 49.86       796.2 0.15                            68 300 
 PAM  SZ IP       1446 30.99                             150     0.210   80  41 
 PAM  SN ES   1   1446 48.33                             150     0.2 7   80  41 
 PAM  SZ I        1446 50.35       267.2 0.44                            80  41 
 BRI  SZ IP       1446 32.73                             141     0.210  110  22 
 BRI  SZ ES   2   1446 50.54                             141    -0.6 5  110  22 
 BRI  SZ I        1446 54.40       286.5 0.17                           110  22 
 GRA  SZ IP       1446 33.99                             136     0.110  127  19 
 GRA  SZ ES   1   1446 53.15                             136    -0.4 7  127  19 
 GRA  SZ I        1446 55.65       471.6 0.30                           127  19 
 OCA  SZ EP   1   1446 35.83                             129    -1.0 7  160 354 
 YOP  SZ IP       1446 38.61                             126    -0.1 9  180 152 
 YOP  SN ES   1   1447  2.02                             126    -0.1 7  180 152 
 YOP  SZ I        1447  6.73       182.6 0.47                           180 152 
 NOR  SZ EP   1   1446 43.79                             118    -0.2 6  232 234 
 NOR  SN ES   1   1447 10.90                             118    -0.6 6  232 234 
 NOR  SZ I        1447 19.36        75.4 0.36                           232 234 
 CHI  HZ IP   1   1446 46.04                             117    -0.1 6  248 194 
 CHI  HN ES   1   1447 15.50                             117     0.1 6  248 194 
 CHI  HZ I        1447 21.53       268.0 0.33                           248 194 
 GUY  SZ EP   1   1446 52.23                             112     0.1 5  301 235 
 VIL  SZ EP   1   1446 51.20                             112    -0.7 5  302 191 
 DBB  SZ EP       1446 55.63                             109     0.0 7  336 274 
 TOL  SZ EP   1   1446 56.71                             109     0.2 5  341 224 
 PRA  HZ EP   1   1447  1.36                             106    -0.5 4  390 209 
 PRA  HN ES   1   1447 44.17                             106     0.8 4  390 209 
                                                                                
