 2011  918 1501 33.0 L   6.797 -72.991145.8  RSN  5 0.2 1.5LRSN                1
 GAP=221        0.37       7.3    13.5  7.4  0.7369E+02 -0.5064E+02 -0.2279E+02E
 Epicentro: CEPITA - SANTANDER                                                 3
 ACTION:UPD 12-07-13 15:58 OP:ep   STATUS:               ID:20110918150133 L   I
 2011-09-18-1458-49S.COL___171                                                 6
 STAT SP IPHASW D HRMM SECON CODA AMPLIT PERI AZIMU VELO AIN AR TRES W  DIS CAZ7
 BAR2 SZ EP   1   15 1 52.79                             167   -0.06 7 31.0 223 
 BAR2 SZ ES   2   15 2  8.29                             167   -0.02 5 31.0 223 
 BAR2 SZ I        15 2  9.90         8.0 0.47                          31.0 223 
 BTL  SZ EP   2   15 1 53.10                             167    0.18 5 33.4 294 
 GIR2 SZ EP   3   15 1 52.91                             165   -0.02 2 38.3 324 
 GIR2 SZ ES   3   15 2  8.38                             165   -0.05 2 38.3 324 
 BRR  HZ EP   2   15 1 54.73                             148   -0.41 5 86.7 293 
 BRR  HN ES   2   15 2 12.59                             148    0.22 5 86.7 293 
 BRR  HZ I        15 2 14.38        10.0 0.58                          86.7 293 
 RUS  HZ EP   2   15 1 57.17                             144    0.37 5  101 186 
 RUS  HN ES   2   15 2 15.14                             144   -0.18 5  101 186 
 RUS  HZ I        15 2 17.89         3.2 0.34                           101 186 
                                                                                
