 2012  518 1417 10.5 L   6.724 -73.202155.7  RSN  4 0.1 1.3LRSN                1
 GAP=224        0.33       3.8     3.7  4.8  0.5838E+01 -0.4662E+00 -0.3004E+01E
 Epicentro: VILLANUEVA - SANTANDER                                             3
 ACTION:UP  12-07-05 12:06 OP:pat  STATUS:               ID:20120518141710 L   I
 2012-05-18-1410-00M.COL___200                                                 6
 STAT SP IPHASW D HRMM SECON CODA AMPLIT PERI AZIMU VELO SNR AR TRES W  DIS CAZ7
 BAR2 SZ EP   1   1417 31.13                             174     0.0 7   15 171 
 BAR2 SZ I        1417 47.60         8.7 0.33                            15 171 
 BRR  HZ EP   1   1417 32.77                             154     0.1 7   70 307 
 BRR  HN ES   1   1417 49.90                             154    -0.1 7   70 307 
 RUS  HN ES   1   1417 53.59                             148     0.0 7   93 172 
 RUS  HZ I        1417 54.31         2.6 0.43                            93 172 
 PTB  HZ EP   1   1417 37.49                             136    -0.1 7  140 262 
 PTB  HN ES   1   1417 58.82                             136     0.1 7  140 262 
 PTB  HZ I        1418  2.17         1.8 0.16                           140 262 
                                                                                
