 2015  218 1021 28.9 L   6.792 -73.207140.5  RSN  7 0.4 1.4LRSN                1
 GAP=129        1.02       4.0     4.5  9.1 -0.2460E+01  0.1688E+02 -0.1082E+02E
 Epicentro: ZAPATOCA - SANTANDER                                               3
 ACTION:UPD 15-04-30 21:27 OP:nd   STATUS:               ID:20150218102128 L   I
 OLDACT:REG 15-02-18 20:57 OP:fm   STATUS:               ID:20150218101746     3
 2015-02-18-1017-46M.COL___293                                                 6
 STAT SP IPHASW D HRMM SECON CODA AMPLIT PERI AZIMU VELO AIN AR TRES W  DIS CAZ7
 BAR2 EZ EP       1021 48.51                             171    0.6310 22.2 173 
 BAR2 EZ ES   1   1022  2.92                             171    0.25 7 22.2 173 
 BAR2 EZ I        1022  5.15         4.3 0.18            172           22.2 173 
 PAM  SZ EP       1021 51.34                             148    0.4510 82.5  43 
 PAM  SE ES       1022  7.82                             148   -0.2110 82.5  43 
 PAM  SZ I        1022 10.71         2.9 0.54            153           82.5  43 
 RUS  HZ EP   1   1021 51.85                             143   -0.27 7  100 172 
 RUS  HE ES       1022  9.64                             143   -0.5910  100 172 
 RUS  HZ I        1022 12.33         3.8 0.28            149            100 172 
 PTB  HZ EP       1021 55.01                             132    0.18 9  141 259 
 PTB  HN ES       1022 14.89                             132   -0.15 9  141 259 
 PTB  HZ I        1022 21.72         1.8 0.42            134            141 259 
 SPBC HN ES       1022 18.28                             129    0.19 9  158 217 
 SPBC HZ I        1022 22.17         5.6 0.26            132            158 217 
 ZAR  HZ EP       1021 59.75                             122   -0.65 9  198 293 
 ZAR  HN ES       1022 25.37                             122    0.40 9  198 293 
 ZAR  HZ I        1022 32.98         1.9 0.32            124            198 293 
 SML  HE ES       1022 32.79                             116   -0.43 8  242 337 
 SML  HZ I        1022 38.28         3.5 0.28            119            242 337 
                                                                                
