 2016  418 1144  2.8 L   6.767 -73.153150.2  RSN  9 0.4 2.2LRSN                1
 GAP=137        1.09       4.4     4.6  7.7 -0.3319E+01  0.1415E+02 -0.6398E+01E
 Epicentro: LOS SANTOS - SANTANDER                                             3
 ACTION:UPD 16-05-05 14:22 OP:rebc STATUS:               ID:20160418114402 L   I
 OLDACT:UP  16-04-19 05:31 OP:mh   STATUS:               ID:20160418113750d    3
 OLDACT:UP  16-04-19 05:31 OP:mh   STATUS:               ID:20160418113750d    3
 OLDACT:DUP 16-04-19 04:54 OP:mh   STATUS:               ID:20160418113750d    3
 2016-04-18-1137-49M.COL___297                                                 6
 STAT SP IPHASW D HRMM SECON CODA AMPLIT PERI AZIMU VELO AIN AR TRES W  DIS CAZ7
 BAR2 EZ EP       1144 22.99                             172    0.0710 19.6 190 
 BAR2 EZ ES       1144 38.21                             172   -0.3810 19.6 190 
 BAR2 EZ I        1144 39.14        43.4 0.22            170           19.6 190 
 PAM  EZ EP       1144 25.88                             150    0.1710 80.7  38 
 PAM  EN ES       1144 43.10                             150   -0.4510 80.7  38 
 PAM  EZ I        1144 45.35        31.5 0.30            155           80.7  38 
 RUS  HZ EP       1144 26.86                             146    0.1010 97.0 175 
 RUS  HN ES       1144 46.09                             146    0.6610 97.0 175 
 RUS  HZ I        1144 47.15         8.1 0.06            149           97.0 175 
 PTB  HZ EP       1144 29.63                             133   -0.40 9  146 260 
 PTB  HN ES       1144 50.67                             133   -0.58 9  146 260 
 PTB  HZ I        1144 58.27        20.3 0.44            132            146 260 
 OCA  HZ EP       1144 31.22                             130   -0.59 9  164 354 
 OCA  HN ES       1144 55.25                             130    0.84 9  164 354 
 OCA  HZ I        1144 56.83        65.3 0.20            131            164 354 
 ZAR  HZ EP       1144 35.62                             123   -0.01 9  205 293 
 ZAR  HN ES       1145  1.59                             123    0.37 9  205 293 
 ZAR  HZ I        1145  8.27        15.8 0.48            123            205 293 
 HEL  HZ EP   1   1144 43.14                             116    0.05 6  270 257 
 HEL  HN ES       1145 14.82                             116    0.33 8  270 257 
 HEL  HZ I        1145 21.72         6.8 0.23            116            270 257 
 URE  HZ EP   4   1144 46.59                             114    2.41 0  284 293 
 URE  HN ES   4   1145 14.60                             114   -1.84 0  284 293 
 URE  HZ I        1145 24.72         9.3 0.50            115            284 293 
 GUY2CHZ EP   4   1144 48.62                             113    2.29 0  298 235 
 GUY2CHN ES   4   1145 23.48                             113    3.21 0  298 235 
 GUY2CHZ I        1145 25.94         2.6 0.15                           298 235 
                                                                                
