 2011  618 1350  5.0 L   6.772 -73.129147.3  RSN  4 0.2 1.9LRSN                1
 GAP=237        0.57       5.3     7.5  5.9  0.1670E+02  0.1262E+02  0.5031E+01E
 Epicentro: LOS SANTOS - SANTANDER                                             3
 ACTION:UP  11-07-14 19:06 OP:ep   STATUS:               ID:20110618135005 L   I
 2011-06-18-1346-32S.COL___139                                                 6
 STAT SP IPHASW D HRMM SECON CODA AMPLIT PERI AZIMU VELO SNR AR TRES W  DIS CAZ7
 BAR2 SZ EP   2   1350 24.60                             171    -0.2 5   21 197 
 BAR2 SZ ES   1   1350 39.81                             171    -0.4 7   21 197 
 BAR2 SZ I        1350 42.07        22.4 0.37                            21 197 
 BRR  HZ EP       1350 26.35                             152    -0.110   74 300 
 BRR  HN ES   1   1350 43.63                             152     0.4 7   74 300 
 BRR  HZ I        1350 45.06        18.9 0.19                            74 300 
 RUS  HZ EP   1   1350 28.86                             145     0.2 7   97 177 
 RUS  HN ES   1   1350 47.31                             145     0.2 7   97 177 
 RUS  HZ I        1350 48.01        11.0 0.38                            97 177 
 NOR  SZ EP   1   1350 40.82                             119     0.0 6  234 235 
 NOR  SN ES   2   1351  8.46                             119    -0.2 4  234 235 
                                                                                
