 2012  918 1325 28.1 L   6.727 -73.172153.5  RSN  7 0.2 2.0LRSN                1
 GAP=136        0.45       3.6     3.6  5.6  0.1301E+01 -0.4230E+01 -0.4014E+01E
 Epicentro: VILLANUEVA - SANTANDER                                             3
 ACTION:UPD 12-10-22 14:19 OP:ep   STATUS:               ID:20120918132528 L   I
 2012-09-18-1320-00M.COL___227                                                 6
 STAT SP IPHASW D HRMM SECON CODA AMPLIT PERI AZIMU VELO AIN AR TRES W  DIS CAZ7
 BAR2 SZ EP   2   1325 48.41                             174   -0.13 5 15.0 185 
 BAR2 SZ ES   2   1326  3.93                             174   -0.54 5 15.0 185 
 BAR2 SZ I        1326  5.66        20.2 0.53                          15.0 185 
 GIR2 SZ EP   2   1325 49.05                             165    0.13 5 38.9 356 
 BRR  HZ EP       1325 50.27                             153    0.0710 73.0 305 
 BRR  HZ I        1325 50.74        21.0 0.17                          73.0 305 
 BRR  HE ES   1   1326  7.72                             153    0.30 7 73.0 305 
 PAM  SZ EP   1   1325 51.39                             150   -0.24 7 85.5  38 
 PAM  SZ I        1325 51.69        10.8 0.21                          85.5  38 
 RUS  HZ EP   1   1325 52.26                             148    0.16 7 92.8 174 
 RUS  HN ES   1   1326 10.95                             148    0.13 7 92.8 174 
 PTB  HN ES   1   1326 16.39                             135   -0.21 7  144 262 
 NOR  SN ES   2   1326 31.04                             121   -0.18 4  228 236 
                                                                                
