 2010  818 1140 55.2 L   6.797 -73.087140.2  RSN 22 0.5 3.2LRSN                1
 GAP=130        1.03       3.5     6.1  5.1 -0.1155E+02  0.2300E+01  0.4489E+01E
 Epicentro: LOS SANTOS - SANTANDER                                             3
 ACTION:UP  10-09-07 10:56 OP:vdl  STATUS:               ID:20100818114055 L   I
 2010-08-18-1140-08S.COL___112                                                 6
 STAT SP IPHASW D HRMM SECON CODA AMPLIT PERI AZIMU VELO SNR AR TRES W  DIS CAZ7
 BTL  SZ EP       1141 14.35                             169     0.110   24 304 
 BTL  SZ ES   1   1141 29.31                             169     0.3 7   24 304 
 BAR2 SZ IP       1141 14.25                             170     0.010   25 205 
 BAR2 SZ ES   1   1141 28.95                             170    -0.1 7   25 205 
 BAR2 SZ I        1141 30.36       449.6 0.47                            25 205 
 GIR2 SZ EP       1141 14.23                             165    -0.110   33 339 
 GIR2 SZ ES   2   1141 28.55                             165    -0.6 5   33 339 
 URB  SZ EP   1   1141 15.83                             157     0.7 7   56 331 
 URB  SZ ES   2   1141 29.77                             157    -0.8 5   56 331 
 BRR  HZ IP     D 1141 16.04                             149    -0.110   77 296 
 BRR  HN ES   1   1141 32.97                             149     0.5 7   77 296 
 BRR  HZ I        1141 35.92       396.2 0.26                            77 296 
 BTN  SZ IP       1141 16.38                             148    -0.410   80 359 
 BTN  SZ ES   1   1141 33.31                             148    -0.3 7   80 359 
 RUS  HZ EP       1141 18.29                             143    -0.110  100 180 
 RUS  HN ES   1   1141 35.99                             143    -0.5 7  100 180 
 RUS  HZ I        1141 38.82       249.5 0.28                           100 180 
 BRI  SZ EP       1141 18.69                             140     0.210  107  17 
 BRI  SZ ES   2   1141 36.42                             140    -0.2 5  107  17 
 GUE  SZ EP       1141 20.06                             138     0.710  116   9 
 GRA  SZ IP       1141 20.00                             136     0.110  124  15 
 GRA  SZ ES   1   1141 39.27                             136     0.2 7  124  15 
 GRA  SZ I        1141 40.76       135.2 0.24                           124  15 
 OCA  SZ EP   1   1141 22.37                             128    -0.9 7  161 351 
 OCA  SZ ES   2   1141 44.89                             128    -0.2 5  161 351 
 OCA  SZ I        1141 48.23       157.7 0.06                           161 351 
 CHI  HZ EP       1141 32.70                             116    -0.1 8  250 197 
 CHI  HN ES   1   1142  2.71                             116     0.6 6  250 197 
 CHI  HZ I        1142  9.71        66.5 0.35                           250 197 
 ROSC BZ EP       1141 34.24                             115     0.8 8  256 212 
 ROSC BN ES   1   1142  2.61                             115    -0.6 6  256 212 
 ROSC BZ I        1142  9.28       133.7 0.45                           256 212 
 CVER SZ EP   1   1141 36.00                             113     0.4 6  274 204 
 HEL  HZ EP   1   1141 34.92                             113    -0.9 6  278 256 
 HEL  HZ I        1142 12.65        89.5 0.26                           278 256 
 GUY  SZ EP   1   1141 39.67                             111     0.5 5  306 236 
 GUY  SN ES   1   1142 14.17                             111     0.7 5  306 236 
 GUY  SZ I        1142 21.78       226.0 0.66                           306 236 
 RREF HZ EP   1   1141 41.29                             109    -0.4 5  326 230 
 RREF HN ES   2   1142 17.38                             109    -0.5 3  326 230 
 RREF HZ I        1142 26.40        87.8 0.32                           326 230 
 DBB  SZ EP   1   1141 42.70                             108    -0.5 5  346 274 
 DBB  SZ I        1142 22.63        22.5 0.45                           346 274 
 TOL  SZ EP   1   1141 43.61                             108    -0.2 5  348 225 
 TOL  SZ ES   2   1142 21.03                             108    -0.6 3  348 225 
 SDV  BZ EP   1   1141 44.12                             107    -0.4 5  356  49 
 SDV  BZ I        1142 26.17        45.3 0.41                           356  49 
 ANIL HZ EP   1   1141 45.57                             107     0.2 5  362 225 
 ANIL HN ES   1   1142 25.30                             107     0.9 5  362 225 
 PRA  HZ EP       1141 48.12                             105    -0.8 6  395 210 
 PRA  HN ES   1   1142 29.91                             105    -0.9 4  395 210 
 PRA  HZ I        1142 35.03        79.1 0.36                           395 210 
                                                                                
