 2015  818 1124 43.8 L   6.784 -73.116152.5  RSN  6 0.2 1.9LRSN                1
 GAP=203        0.46       3.7     6.8  3.9  0.2010E+02 -0.8716E+01 -0.7031E+01E
 Epicentro: LOS SANTOS - SANTANDER                                             3
 ACTION:UPD 15-09-15 23:03 OP:cam  STATUS:               ID:20150818112443 L   I
 OLDACT:REG 15-08-18 20:30 OP:ar   STATUS:               ID:20150818111750     3
 2015-08-18-1117-50M.COL___319                                                 6
 STAT SP IPHASW D HRMM SECON CODA AMPLIT PERI AZIMU VELO AIN AR TRES W  DIS CAZ7
 BAR2 EZ EP       1125  4.00                             171   -0.1810 22.4 199 
 BAR2 EZ ES       1125 19.96                             171   -0.1510 22.4 199 
 BAR2 EZ I        1125 22.32         9.1 0.26            172           22.4 199 
 BRR  HZ EP       1125  5.76                             152   -0.0810 74.9 299 
 BRR  HN ES       1125 23.29                             152    0.2210 74.9 299 
 BRR  HZ I        1125 26.99        10.7 0.18            151           74.9 299 
 RUS  HZ EP       1125  8.28                             145    0.2410 98.6 178 
 RUS  HN ES       1125 26.97                             145   -0.0110 98.6 178 
 RUS  HZ I        1125 27.46         6.7 0.26            149           98.6 178 
 ZAR  HZ EP   2   1125 17.35                             123    0.33 4  208 292 
 ZAR  HN ES   2   1125 42.48                             123   -0.50 4  208 292 
 ZAR  HZ I        1125 48.04        10.8 0.36            125            208 292 
 SML  HZ EP       1125 21.04                             118   -0.05 8  247 335 
 SML  HN ES       1125 50.22                             118    0.01 8  247 335 
 SML  HZ I        1125 53.56         6.1 0.24            120            247 335 
 URE  HN ES   4   1125 55.84                             114   -2.35 0  288 292 
 URE  HZ I        1125 57.07         4.7 0.12            116            288 292 
                                                                                
