 2017 1218 1937 30.9 L   6.842 -73.159142.4  RSN 10 0.6 2.3LRSN                1
 GAP=109        1.32       4.0     4.7  7.8  0.1336E+01  0.1174E+02  0.4487E+01E
 Epicentro: LOS SANTOS - SANTANDER                                             3
 ACTION:UPD 18-01-04 13:21 OP:rebc STATUS:               ID:20171218193730 L   I
 OLDACT:UP  17-12-19 00:29 OP:dani STATUS:               ID:20171218192739     3
 OLDACT:REG 17-12-18 21:11 OP:dani STATUS:               ID:20171218192739     3
 2017-12-18-1928-00M.COL___461                                                 6
 STAT SP IPHASW D HRMM SECON CODA AMPLIT PERI AZIMU VELO AIN AR TRES W  DIS CAZ7
 BAR2 EZ EP       1937 50.08                             168   -0.1210 27.7 185 
 BAR2 EZ ES       1938  4.67                             168   -0.6010 27.7 185 
 BAR2 EZ I        1938  7.34        27.8 0.26            168           27.7 185 
 PAM  EZ EP       1937 52.85                             151    0.2710 74.9  43 
 PAM  EN ES       1938  9.76                             151    0.2410 74.9  43 
 PAM  EZ I        1938 11.81        45.4 0.50            154           74.9  43 
 PTB  HZ EP       1937 57.51                             131   -0.01 9  147 257 
 PTB  HN ES       1938 19.14                             131    0.83 9  147 257 
 PTB  HZ I        1938 20.58        17.6 0.14            133            147 257 
 OCA  HZ EP       1937 58.20                             130   -0.27 9  156 353 
 OCA  HE ES       1938 19.93                             130   -0.07 9  156 353 
 OCA  HZ I        1938 22.37        54.6 0.36            132            156 353 
 SPBC HZ EP       1937 59.46                             128    0.09 9  166 218 
 SPBC HN ES       1938 21.38                             128   -0.23 9  166 218 
 SPBC HZ I        1938 25.79        25.3 0.13            129            166 218 
 YPLC HZ EP       1938  0.69                             125   -0.21 9  182 152 
 YPLC HN ES       1938 24.43                             125    0.11 9  182 152 
 YPLC HZ I        1938 26.99        15.3 0.38            127            182 152 
 ZAR  HZ EP       1938  3.24                             122    0.46 9  201 291 
 ZAR  HN ES       1938 28.56                             122    0.89 9  201 291 
 ZAR  HZ I        1938 33.68        28.7 0.32            124            201 291 
 URE  HZ EP       1938 11.27                             113   -0.16 7  281 291 
 URE  HN ES       1938 41.07                             113   -2.00 7  281 291 
 URE  HZ I        1938 42.65        14.1 0.16            115            281 291 
 GUY2CHZ EP       1938 15.08                             112    0.59 7  303 234 
 GUY2CHZ I        1938 57.70         5.2 0.54                           303 234 
 PRA  HZ EP       1938 24.68                             106    0.02 6  395 209 
 PRA  HN ES       1939  6.27                             106   -0.35 6  395 209 
 PRA  HZ I        1939 12.23         7.7 0.48            107            395 209 
                                                                                
