 2013  118 1232 14.0 L   6.803 -73.138145.8  RSN 15 0.4 3.7LRSN 3.7WRSN        1
 SPEC AVERAGE  MO 14.7 ST 37.9 OM  3.1 f0 3.55 R0.4513 AL 2.17 WI 33.6 MW  3.7 3
 SPEC SD       MO  0.1 ST 27.7 OM  0.2 f00.988 R0.1380 AL      WI      MW  0.1 3
 GAP= 71        0.91       2.9     3.1  5.2 -0.1159E+01  0.2298E+01  0.2467E+01E
 Epicentro: LOS SANTOS - SANTANDER                                             3
 SPEC VIL SH Z MO 14.7 ST 98.8 OM  2.8 f0 5.13 R0.2865 AL 3.87 WI 31.9 MW  3.8 3
 SPEC VIL SH Z T123326 K 0.000 GD  337 VS 4.20 DE 3.20 Q0300.0 QA 0.60 VS 4.20 3
 SPEC ZAR HH Z MO 14.8 ST 37.7 OM  3.0 f0 3.52 R0.4176 AL 1.53 WI 44.3 MW  3.8 3
 SPEC ZAR HH Z T1233 6 K 0.000 GD  251 VS 4.20 DE 3.20 Q0300.0 QA 0.60 VS 4.20 3
 SPEC RREFHH Z MO 14.8 ST 61.5 OM  2.9 f0 3.99 R0.3684 AL 3.15 WI 37.6 MW  3.8 3
 SPEC RREFHH Z T123332 K 0.000 GD  354 VS 4.20 DE 3.20 Q0300.0 QA 0.60 VS 4.20 3
 SPEC ROSCBH Z MO 14.8 ST 15.9 OM  2.9 f0 2.71 R0.5424 AL 3.21 WI 45.0 MW  3.8 3
 SPEC ROSCBH Z T123314 K 0.000 GD  292 VS 4.20 DE 3.20 Q0300.0 QA 0.60 VS 4.20 3
 SPEC TAM HH Z MO 14.7 ST  6.9 OM  3.0 f0 2.11 R0.6967 AL 1.65 WI 27.8 MW  3.8 3
 SPEC TAM HH Z T123257 K 0.000 GD  212 VS 4.20 DE 3.20 Q0300.0 QA 0.60 VS 4.20 3
 SPEC PTB HH Z MO 14.5 ST 23.1 OM  2.8 f0 3.71 R0.3962 AL 0.88 WI 38.2 MW  3.6 3
 SPEC PTB HH Z T123256 K 0.000 GD  208 VS 4.20 DE 3.20 Q0300.0 QA 0.60 VS 4.20 3
 SPEC RUS HH Z MO 14.5 ST  7.6 OM  2.9 f0 2.50 R0.5880 AL 2.32 WI 21.6 MW  3.6 3
 SPEC RUS HH Z T123252 K 0.000 GD  177 VS 4.20 DE 3.20 Q0300.0 QA 0.60 VS 4.20 3
 SPEC OCA HH Z MO 14.7 ST 45.5 OM  3.0 f0 3.94 R0.3731 AL 1.38 WI 31.6 MW  3.8 3
 SPEC OCA HH Z T1233 1 K 0.000 GD  216 VS 4.20 DE 3.20 Q0300.0 QA 0.60 VS 4.20 3
 SPEC PAM SH Z MO 14.4 ST  9.6 OM  2.8 f0 2.99 R0.4916 AL 1.38 WI 32.5 MW  3.6 3
 SPEC PAM SH Z T123250 K 0.000 GD  164 VS 4.20 DE 3.20 Q0300.0 QA 0.60 VS 4.20 3
 SPEC ANILHH Z MO 14.8 ST 52.5 OM  2.8 f0 3.97 R0.3703 AL 3.40 WI 49.6 MW  3.8 3
 SPEC ANILHH Z T123335 K 0.000 GD  386 VS 4.20 DE 3.20 Q0300.0 QA 0.60 VS 4.20 3
 SPEC HEL HH Z MO 14.8 ST 32.4 OM  2.9 f0 3.37 R0.4362 AL 2.00 WI 30.8 MW  3.8 3
 SPEC HEL HH Z T123324 K 0.000 GD  309 VS 4.20 DE 3.20 Q0300.0 QA 0.60 VS 4.20 3
 SPEC CHI HH Z MO 14.7 ST  4.9 OM  2.8 f0 1.99 R0.7387 AL 1.82 WI 33.3 MW  3.7 3
 SPEC CHI HH Z T123318 K 0.000 GD  288 VS 4.20 DE 3.20 Q0300.0 QA 0.60 VS 4.20 3
 SPEC BRR HH Z MO 14.5 ST 69.2 OM  2.9 f0 5.38 R0.2732 AL 1.40 WI 33.1 MW  3.6 3
 SPEC BRR HH Z T123248 K 0.000 GD  162 VS 4.20 DE 3.20 Q0300.0 QA 0.60 VS 4.20 3
 SPEC BAR2SH Z MO 14.8 ST 65.4 OM  3.2 f0 4.33 R0.3395 AL 2.43 WI 13.2 MW  3.8 3
 SPEC BAR2SH Z T123246 K 0.000 GD  147 VS 4.20 DE 3.20 Q0300.0 QA 0.60 VS 4.20 3
 ACTION:UPD 13-02-15 09:15 OP:ep   STATUS:               ID:20130118123214 L   I
 2013-01-18-1230-00M.COL___241                                                 6
 STAT SP IPHASW D HRMM SECON CODA AMPLIT PERI AZIMU VELO AIN AR TRES W  DIS CAZ7
 BAR2 SZ IP       1232 33.73                             170    0.1210 23.8 192 
 BAR2 SZ ES   1   1232 48.54                             170   -0.39 7 23.8 192 
 BAR2 SZ I        1232 50.08      1616.8 0.22            168           23.8 192 
 BRR  HZ IP     D 1232 35.65                             152    0.4910 71.9 298 
 BRR  HN ES   1   1232 52.66                             152    0.97 7 71.9 298 
 BRR  HZ I        1232 56.64       900.2 0.14            151           71.9 298 
 PAM  SZ IP       1232 36.56                             151    0.4210 76.6  39 
 PAM  SN ES   1   1232 53.47                             151    0.03 7 76.6  39 
 PAM  SZ I        1232 56.27       672.1 0.46            156           76.6  39 
 RUS  HZ IP     C 1232 37.56                             144   -0.1810  101 177 
 RUS  HN ES   1   1232 55.87                             144   -0.41 7  101 177 
 RUS  HZ I        1232 57.61       377.5 0.28            145            101 177 
 PTB  HZ IP     D 1232 40.34                             132   -0.68 9  149 259 
 PTB  HN ES   1   1233  1.42                             132   -0.70 7  149 259 
 TAM  HZ IP     C 1232 42.03                             131    0.46 9  154 105 
 TAM  HE ES   1   1233  3.24                             131    0.13 7  154 105 
 TAM  HZ I        1233  4.35       383.5 0.52            135            154 105 
 OCA  HZ EP     D 1232 41.93                             130   -0.33 9  160 353 
 OCA  HN ES   1   1233  3.64                             130   -0.70 7  160 353 
 OCA  HZ I        1233  9.21       658.5 0.30            132            160 353 
 ZAR  HZ EP       1232 46.38                             122   -0.11 9  205 292 
 ZAR  HN ES   1   1233 12.23                             122    0.37 6  205 292 
 ZAR  HZ I        1233 18.82       594.2 0.36            123            205 292 
 CTAB SZ EP   4   1232 52.22                             119    2.43 0  231 211 
 CTAB SZ ES   4   1233 22.24                             119    4.50 0  231 211 
 CHI  HZ EP     D 1232 51.93                             117    0.21 8  249 195 
 CHI  HN ES   1   1233 20.66                             117   -0.51 6  249 195 
 CHI  HZ I        1233 25.29       187.4 0.72            119            249 195 
 ROSC BZ EP   1   1232 52.91                             117    0.74 6  253 211 
 ROSC BN ES   1   1233 22.07                             117    0.11 6  253 211 
 ROSC BZ I        1233 31.45       335.2 0.45            118            253 211 
 HEL  HZ EP       1232 54.06                             115   -0.23 8  273 256 
 HEL  HN ES   1   1233 26.25                             115    0.52 6  273 256 
 HEL  HZ I        1233 33.02       348.7 0.46            116            273 256 
 HEL  HN I        1233 33.46       377.9 0.38                           273 256 
 URE  HZ EP   4   1232 54.11                             113   -1.01 0  285 292 
 URE  HN ES   4   1233 25.78                             113   -1.44 0  285 292 
 VIL  SZ EP   1   1232 57.25                             112   -0.19 5  304 192 
 VIL  SN ES   1   1233 31.07                             112   -0.27 5  304 192 
 VIL  SZ I        1233 35.62       226.0 0.30            114            304 192 
 RREF HZ EP     C 1233  0.55                             111    0.34 7  323 229 
 RREF HN ES   1   1233 36.17                             111   -0.11 5  323 229 
 RREF HZ I        1233 42.15       222.5 0.56            112            323 229 
 ANIL HZ EP   4 C 1233  5.25                             108    1.38 0  358 225 
 ANIL HE ES   1   1233 42.83                             108    0.04 5  358 225 
 ANIL HZ I        1233 50.98       140.5 0.34            110            358 225 
 SDV  BZ EP     D 1233  3.30                             108   -0.61 6  360  50 
 SDV  BN ES   4   1233 39.74                             108   -3.12 0  360  50 
 SJA  SZ EP   4   1233 10.12                             106    1.54 0  401 193 
 PAL  HZ EP   4   1233  9.73                             106    0.50 0  407 239 
 PAL  HN ES   4   1233 48.61                             106   -3.73 0  407 239 
 SJC  HN ES   4   1233 48.97                             106   -3.95 0  409 327 
 SMAR HZ EP   4   1233 18.85                             102   -0.98 0  497 346 
 SMAR HE ES   4   1234  6.86                             102   -4.35 0  497 346 
 PCON HZ EP   4   1233 35.09                              99    0.66 0  613 216 
 SOTA HZ EP   4   1233 38.75                              99    0.67 0  644 217 
 SOTA HN ES   4   1234 38.88                              99   -4.81 0  644 217 
                                                                                
