 2011 1118 1049 59.8 L   6.800 -73.103145.1  RSN  4 0.4 1.3LRSN                1
 GAP=142        0.61       6.4     9.6 11.4 -0.6157E+00 -0.8204E+01  0.2061E+02E
 Epicentro: LOS SANTOS - SANTANDER                                             3
 ACTION:UPD 12-07-13 16:11 OP:ep   STATUS:               ID:20111118104959 L   I
 2011-11-18-1048-51S.COL___177                                                 6
 STAT SP IPHASW D HRMM SECON CODA AMPLIT PERI AZIMU VELO AIN AR TRES W  DIS CAZ7
 BAR2 SZ EP   2   1050 18.59                             170   -0.76 5 24.6 201 
 BAR2 SZ I        1050 27.40         6.5 0.58                          24.6 201 
 PAM  SZ EP   2   1050 21.71                             152   -0.04 5 74.5  37 
 PAM  SN ES   2   1050 39.03                             152    0.14 5 74.5  37 
 BRR  HZ EP   2   1050 21.82                             151    0.72 5 75.4 297 
 BRR  HZ I        1050 22.21         7.3 0.14                          75.4 297 
 BRR  HN ES   2   1050 37.46                             151   -0.26 5 75.4 297 
 RUS  HZ EP   1   1050 23.41                             144   -0.04 7  100 179 
 RUS  HZ I        1050 23.65         1.5 0.29                           100 179 
 RUS  HE ES   2   1050 42.20                             144    0.29 5  100 179 
                                                                                
