 2013  318 1002 15.7 L   6.780 -73.177150.0  RSN  5 0.3 1.7LRSN                1
 GAP=232        0.83       6.7     6.5  6.5  0.2827E+02  0.5153E+01 -0.4178E+01E
 Epicentro: LOS SANTOS - SANTANDER                                             3
 ACTION:UPD 13-04-09 14:03 OP:ep   STATUS:               ID:20130318100215 L   I
 2013-03-18-1000-00M.COL___243                                                 6
 STAT SP IPHASW D HRMM SECON CODA AMPLIT PERI AZIMU VELO AIN AR TRES W  DIS CAZ7
 BAR2 SZ ES       10 2 50.90                             172   -0.5910 20.7 182 
 BRR  HZ EP       10 2 37.32                             154    0.0810 69.4 302 
 BRR  HN ES       10 2 54.39                             154    0.3710 69.4 302 
 BRR  HN I        10 2 54.62        10.8 0.30            151           69.4 302 
 RUS  HZ EP       10 2 39.92                             145    0.1610 98.6 174 
 RUS  HN ES       10 2 58.82                             145    0.3110 98.6 174 
 RUS  HN I        10 3  0.17         5.4 0.50            145           98.6 174 
 PTB  HZ EP   2   10 2 42.52                             134   -0.19 5  144 259 
 PTB  HN ES       10 3  3.52                             134   -0.24 9  144 259 
 PTB  HN I        10 3  4.52         5.6 0.30            132            144 259 
 ZAR  HZ EP       10 2 47.84                             124   -0.38 9  202 293 
 ZAR  HN ES       10 3 13.84                             124    0.27 9  202 293 
 ZAR  HN I        10 3 21.21         4.0 0.14            122            202 293 
                                                                                
