 2011  318 1535 15.6 L   6.891 -73.133149.4  RSN  7 0.4 1.7LRSN                1
 GAP=159        0.80       5.9    10.2  9.4 -0.2606E+02  0.2559E+02  0.3955E+01E
 Epicentro: LOS SANTOS - SANTANDER                                             3
 ACTION:UP  11-06-16 14:34 OP:jfem STATUS:               ID:20110318153515 L   I
 2011-03-18-1520-00M.COL___136                                                 6
 STAT SP IPHASW D HRMM SECON CODA AMPLIT PERI AZIMU VELO SNR AR TRES W  DIS CAZ7
 BTL  SZ EP   1   1535 36.09                             174     0.6 7   15 282 
 GIR2 SZ EP   2   1535 35.42                             171    -0.1 5   22 342 
 BAR2 SZ EP       1535 36.01                             167     0.110   34 190 
 BAR2 SZ ES   1   1535 52.14                             167     0.4 7   34 190 
 BAR2 SZ I        1535 54.61         9.8 0.27                            34 190 
 RUS  HZ EP   1   1535 40.22                             142    -0.2 7  110 177 
 RUS  HZ I        1535 41.49         5.0 0.11                           110 177 
 RUS  HN ES   1   1535 59.45                             142    -0.3 7  110 177 
 GRA  SZ ES   2   1535 58.77                             140    -0.9 5  116  18 
 GRA  SZ I        1536  2.68         8.9 0.65                           116  18 
 NOR  SN ES   1   1536 20.59                             118    -0.4 6  242 233 
 CHI  HZ EP   1   1535 54.65                             117     0.1 6  259 195 
 CHI  HE ES   1   1536 24.94                             117    -0.1 6  259 195 
 CHI  HZ I        1536 30.60         4.7 0.49                           259 195 
                                                                                
