 2017  218 1721 48.3 L   6.594 -73.433115.9  RSN  8 0.3 1.6LRSN                1
 GAP= 73        0.80       2.5     3.0  5.1  0.3427E+00  0.6056E+01  0.2803E+01E
 Epicentro: EL CARMEN - SANTANDER                                              3
 ACTION:UPD 17-05-24 15:37 OP:jn   STATUS:               ID:20170218172148 L   I
 OLDACT:UP  17-02-19 00:45 OP:dani STATUS:               ID:20170218171746     3
 OLDACT:UP  17-02-19 00:45 OP:dani STATUS:               ID:20170218171746     3
 OLDACT:REG 17-02-18 21:45 OP:dani STATUS:               ID:20170218171746     3
 2017-02-18-1718-00M.COL___355                                                 6
 STAT SP IPHASW D HRMM SECON CODA AMPLIT PERI AZIMU VELO AIN AR TRES W  DIS CAZ7
 BAR2 EZ EP       1722  4.38                             166   -0.1310 27.7  90 
 BAR2 EZ ES       1722 17.12                             166   -0.0110 27.7  90 
 BAR2 EZ I        1722 18.94        28.2 0.26            167           27.7  90 
 BRR  HZ EP       1722  5.74                             149   -0.1810 64.6 331 
 BRR  HN ES       1722 19.98                             149    0.3510 64.6 331 
 BRR  HZ I        1722 21.79        10.2 0.35            152           64.6 331 
 RUS  HZ EP       1722  8.02                             141   -0.1510 86.7 153 
 RUS  HE ES       1722 23.72                             141    0.0810 86.7 153 
 RUS  HZ I        1722 24.67         5.0 0.34            141           86.7 153 
 PTB  HZ EP       1722  9.61                             132   -0.1410  113 267 
 PTB  HN ES   2   1722 26.24                             132   -0.22 5  113 267 
 PTB  HZ I        1722 28.02        10.1 0.12            134            113 267 
 PAM  EZ EP       1722 10.43                             132   -0.1610  116  44 
 PAM  EE ES       1722 27.78                             132   -0.1710  116  44 
 PAM  EZ I        1722 29.96         3.7 0.17            135            116  44 
 ZAR  HZ EP       1722 17.36                             117    0.29 9  186 302 
 ZAR  HE ES       1722 39.86                             117    0.37 9  186 302 
 NOR  HZ EP       1722 18.13                             116   -0.03 9  196 234 
 NOR  HN ES       1722 40.60                             116   -0.82 9  196 234 
 NOR  HZ I        1722 43.26         4.7 0.17            117            196 234 
 CHI  HZ EP       1722 21.56                             113    0.27 8  220 189 
 CHI  HN ES       1722 47.71                             113    0.71 8  220 189 
 CHI  HZ I        1722 54.57         1.8 0.29            114            220 189 
                                                                                
