 2014  418 1354 25.5 L   6.811 -73.152137.7  RSN 13 0.5 2.0LRSN                1
 GAP= 70        1.28       3.2     3.6  7.1 -0.9962E+00  0.5568E+01  0.3849E+01E
 Epicentro: LOS SANTOS - SANTANDER                                             3
 ACTION:UPD 14-05-13 23:09 OP:nd   STATUS:               ID:20140418135425 L   I
 OLDACT:DUP 14-04-19 00:52 OP:stll STATUS:               ID:20140418134810d    3
 2014-04-18-1348-09M.COL___239                                                 6
 STAT SP IPHASW D HRMM SECON CODA AMPLIT PERI AZIMU VELO AIN AR TRES W  DIS CAZ7
 BRR  HZ IP     D 1354 46.03                             151    0.3410 70.0 298 
 BRR  HN ES       1355  2.48                             151    1.0210 70.0 298 
 BRR  HZ I        1355  6.46        15.9 0.12            151           70.0 298 
 PAM  SZ EP       1354 47.15                             149    0.3410 76.8  41 
 PAM  SZ I        1354 47.31        33.0 0.20            152           76.8  41 
 PAM  SN ES       1355  3.80                             149    0.3610 76.8  41 
 RUS  HZ EP       1354 48.65                             142    0.1110  102 176 
 RUS  HN ES       1355  6.53                             142   -0.0010  102 176 
 RUS  HZ I        1355  8.50        13.8 0.20            145            102 176 
 PTB  HZ EP       1354 51.20                             130   -0.56 9  147 258 
 PTB  HN ES       1355 11.26                             130   -1.01 9  147 258 
 PTB  HZ I        1355 13.89        12.3 0.32            131            147 258 
 TAM  HZ IP     C 1354 52.63                             128    0.01 9  156 105 
 TAM  HZ I        1354 52.86        26.1 0.38            132            156 105 
 TAM  HE ES       1355 13.39                             128   -0.40 9  156 105 
 OCA  HZ EP   2   1354 52.97                             128   -0.08 5  159 353 
 OCA  HN ES       1355 14.00                             128   -0.55 9  159 353 
 OCA  HZ I        1355 18.11         6.1 0.36            129            159 353 
 SPBC HZ EP       1354 53.26                             127   -0.17 9  164 219 
 SPBC HN ES       1355 15.07                             127   -0.16 9  164 219 
 SPBC HZ I        1355 17.42        10.8 0.24            129            164 219 
 ZAR  HZ EP       1354 58.19                             121    0.89 9  203 292 
 ZAR  HN ES       1355 22.00                             121   -0.12 9  203 292 
 ZAR  HZ I        1355 25.42         8.6 0.26            122            203 292 
 NOR  HZ EP       1355  0.64                             117   -0.14 8  235 234 
 NOR  HN ES       1355 28.24                             117   -0.07 8  235 234 
 NOR  HZ I        1355 29.93         8.7 0.18            118            235 234 
 SML  HZ EP       1355  0.78                             116   -0.73 8  242 335 
 SML  HN ES       1355 29.10                             116   -0.51 8  242 335 
 SML  HZ I        1355 35.06        10.3 0.10            117            242 335 
 CHI  HZ EP       1355  2.99                             115    0.13 8  250 195 
 CHI  HN ES       1355 31.18                             115   -0.83 8  250 195 
 GUY2CHZ EP       1355 10.05                             111    1.30 7  301 235 
 GUY2CHN ES       1355 42.58                             111    0.08 7  301 235 
 GUY2CHZ I        1355 49.29         4.2 0.32                           301 235 
 RREF HZ EP       1355 12.10                             109    0.78 7  322 229 
 RREF HE ES       1355 47.08                             109    0.00 7  322 229 
 RREF HZ I        1355 53.25         4.2 0.28            111            322 229 
                                                                                
