 2017 1218 1442 40.0 L   6.891 -73.134148.4  RSN 15 0.9 2.4LRSN                1
 GAP=102        2.00       4.7     6.2 10.1 -0.2302E+01  0.1672E+02 -0.1210E+01E
 Epicentro: PIEDECUESTA - SANTANDER                                            3
 ACTION:UPD 18-01-04 13:21 OP:rebc STATUS:               ID:20171218144240 L   I
 OLDACT:REG 17-12-18 20:35 OP:dani STATUS:               ID:20171218143538     3
 2017-12-18-1438-00M.COL___439                                                 6
 STAT SP IPHASW D HRMM SECON CODA AMPLIT PERI AZIMU VELO AIN AR TRES W  DIS CAZ7
 BAR2 EZ EP       1442 59.91                             167   -0.3210 33.5 189 
 BAR2 EZ ES       1443 15.03                             167   -0.9510 33.5 189 
 BAR2 EZ I        1443 16.52        37.8 0.24            167           33.5 189 
 PAM  EZ EP       1443  2.52                             154    0.4510 68.9  44 
 PAM  EE ES       1443 19.70                             154    0.4610 68.9  44 
 PAM  EZ I        1443 22.09        53.0 0.56            149           68.9  44 
 OCA  HZ EP       1443  8.16                             132    0.51 9  150 352 
 OCA  HN ES       1443 29.42                             132    0.23 9  150 352 
 OCA  HZ I        1443 34.21        66.8 0.20            129            150 352 
 PTB  HZ EP       1443  6.85                             132   -0.70 9  151 255 
 PTB  HE ES       1443 28.22                             132   -0.78 9  151 255 
 PTB  HZ I        1443 30.07        14.7 0.70            131            151 255 
 SPBC HZ EP       1443  9.09                             128   -0.49 9  172 217 
 SPBC HN ES       1443 33.33                             128    0.71 9  172 217 
 SPBC HZ I        1443 37.85        51.0 0.20            126            172 217 
 YPLC HZ EP       1443 10.19                             126   -0.66 9  185 153 
 YPLC HN ES       1443 34.17                             126   -0.70 9  185 153 
 YPLC HZ I        1443 38.15        19.0 0.36            123            185 153 
 ZAR  HZ EP       1443 12.83                             123    0.41 9  202 289 
 ZAR  HN ES       1443 38.48                             123    0.80 9  202 289 
 ZAR  HZ I        1443 43.88        44.7 0.44            121            202 289 
 ROSC BZ EP       1443 19.87                             116    0.54 8  262 210 
 ROSC BN ES       1443 52.08                             116    2.11 8  262 210 
 ROSC BZ I        1443 56.32        24.0 0.45            114            262 210 
 DRL03HZ EP       1443 21.37                             114    0.69 7  279 352 
 DRL03HE ES       1443 54.00                             114    1.62 7  279 352 
 URE  HZ EP       1443 20.14                             114   -0.84 7  281 290 
 URE  HN ES       1443 51.10                             114   -1.81 7  281 290 
 URE  HZ I        1443 53.27        32.9 0.14            112            281 290 
 GUY2CHZ EP       1443 25.24                             112    0.68 7  308 233 
 GUY2CHE ES       1444  0.84                             112    1.55 7  308 233 
 GUY2CHZ I        1444  4.83         9.7 0.28                           308 233 
 DBB  EZ EP       1443 28.56                             110    0.85 7  340 273 
 DBB  EN ES       1444  4.77                             110   -0.12 7  340 273 
 DBB  EZ I        1444  5.63         6.1 0.36            108            340 273 
 SDV  BZ EP       1443 28.95                             109   -0.38 6  353  51 
 SDV  BZ I        1444  1.72         4.1 0.20            106            353  51 
 PRA  HZ EP       1443 33.85                             106   -0.91 6  401 209 
 PRA  HE ES       1444 16.63                             106   -0.81 6  401 209 
 PRA  HZ I        1444 20.12         9.4 0.32            105            401 209 
 SJC  HZ EP       1443 33.56                             106   -1.23 6  402 326 
 SJC  HN ES       1444 15.33                             106   -2.16 6  402 326 
 SJC  HZ I        1444 25.86         4.3 0.31            104            402 326 
                                                                                
