 2015  318 1014 22.6 L   6.895 -73.267118.2  RSN  4 0.4 1.4LRSN                1
 GAP=234        1.00       8.9     6.8 10.6  0.3747E+02  0.7539E+01 -0.3215E+02E
 Epicentro: BETULIA - SANTANDER                                                3
 ACTION:UPD 15-04-30 16:26 OP:nd   STATUS:               ID:20150318101422 L   I
 OLDACT:REG 15-03-18 22:44 OP:cam  STATUS:               ID:20150318100747     3
 2015-03-18-1007-47M.COL___278                                                 6
 STAT SP IPHASW D HRMM SECON CODA AMPLIT PERI AZIMU VELO AIN AR TRES W  DIS CAZ7
 BAR2 EZ EP       1014 39.70                             163    0.4210 34.8 164 
 BAR2 EZ ES       1014 52.33                             163    0.0410 34.8 164 
 BAR2 EZ I        1014 54.01        12.6 0.28            166           34.8 164 
 RUS  HZ EP   1   1014 44.59                             134   -0.20 7  113 170 
 RUS  HN ES       1015  1.68                             134   -0.4210  113 170 
 RUS  HN I        1015  3.83         2.4 0.24            137            113 170 
 PTB  HN ES       1015  5.52                             127    0.50 9  137 253 
 PTB  HZ I        1015  7.14         2.5 0.58            128            137 253 
 ZAR  HZ EP       1014 51.83                             118    0.20 9  188 291 
 ZAR  HE ES       1015 13.57                             118   -0.71 9  188 291 
 ZAR  HE I        1015 20.44         5.6 0.14            119            188 291 
                                                                                
