 2012  818 1720 50.5 L   6.769 -73.138148.6  RSN  4 0.2 1.7LRSN                1
 GAP=139        0.55       4.0     4.0  6.9 -0.1485E+01 -0.4453E+00  0.1974E+01E
 Epicentro: LOS SANTOS - SANTANDER                                             3
 ACTION:UPD 12-09-10 11:57 OP:ep   STATUS:               ID:20120818172050 L   I
 2012-08-18-1720-00M.COL___217                                                 6
 STAT SP IPHASW D HRMM SECON CODA AMPLIT PERI AZIMU VELO AIN AR TRES W  DIS CAZ7
 BRR  HZ EP       1721 12.14                             152    0.0310 73.6 301 
 BRR  HZ I        1721 26.48        13.9 0.42                          73.6 301 
 BRR  HE ES   1   1721 29.28                             152    0.33 7 73.6 301 
 PAM  SZ EP   1   1721 13.42                             151    0.26 7 79.5  38 
 PAM  SE ES   1   1721 30.46                             151   -0.36 7 79.5  38 
 PAM  SZ I        1721 32.80         5.3 0.68                          79.5  38 
 RUS  HZ EP   1   1721 14.15                             145   -0.16 7 97.2 176 
 RUS  HE ES   1   1721 33.01                             145    0.15 7 97.2 176 
 PTB  HN ES   1   1721 38.67                             133   -0.30 7  148 260 
                                                                                
