 2010  618 1826 58.3 L   6.786 -73.118139.6  RSN  7 0.3 2.2LRSN                1
 GAP=159        0.56       3.1     6.9  6.2 -0.4670E+01 -0.3793E+01 -0.1935E+01E
 Epicentro: LOS SANTOS - SANTANDER                                             3
 ACTION:UP  10-08-24 10:11 OP:vdl  STATUS:               ID:20100618182658 L   I
 2010-06-18-1825-12S.COL___118                                                 6
 STAT SP IPHASW D HRMM SECON CODA AMPLIT PERI AZIMU VELO SNR AR TRES W  DIS CAZ7
 BAR2 SZ IP       1827 17.17                             170    -0.110   23 199 
 BAR2 SZ ES   2   1827 31.31                             170    -0.6 5   23 199 
 BRR  HZ IP     C 1827 19.05                             150     0.010   75 298 
 BRR  HZ I        1827 19.41        83.0 0.08                            75 298 
 BRR  HE ES   2   1827 35.80                             150     0.6 5   75 298 
 RUS  HZ EP   1   1827 21.57                             143     0.2 7   99 178 
 RUS  HE ES   2   1827 39.28                             143    -0.1 5   99 178 
 RUS  HZ I        1827 40.53        12.8 0.16                            99 178 
 BRI  SZ EP   1   1827 22.06                             140     0.4 7  109  19 
 BRI  SZ ES   2   1827 40.06                             140     0.2 5  109  19 
 GUE  SZ EP   1   1827 22.33                             138    -0.2 7  117  10 
 GUE  SZ ES   2   1827 41.59                             138     0.1 5  117  10 
 GRA  SZ EP   1   1827 23.20                             135     0.1 7  126  16 
 GRA  SZ ES   2   1827 42.51                             135     0.1 5  126  16 
 OCA  SZ EP   1   1827 25.95                             128    -0.4 7  162 352 
 OCA  SZ ES   2   1827 47.83                             128    -0.4 5  162 352 
                                                                                
