 2011  318 1424 42.8 L   6.772 -72.973140.3  RSN  4 0.4 1.5LRSN                1
 GAP=179        1.01       6.9    29.6 13.1 -0.9953E+02 -0.2274E+03  0.1769E+02E
 Epicentro: CEPITA - SANTANDER                                                 3
 ACTION:UP  11-06-16 14:34 OP:jfem STATUS:               ID:20110318142442 L   I
 2011-03-18-1422-35S.COL___135                                                 6
 STAT SP IPHASW D HRMM SECON CODA AMPLIT PERI AZIMU VELO SNR AR TRES W  DIS CAZ7
 BAR2 SZ EP   1   1425  1.88                             167    -0.1 7   31 229 
 BAR2 SZ ES   1   1425 16.03                             167    -0.8 7   31 229 
 BAR2 SZ I        1425 18.72         8.7 0.32                            31 229 
 BTL  SZ EP   1   1425  2.17                             165     0.1 7   36 296 
 BTL  SZ ES   1   1425 17.69                             165     0.5 7   36 296 
 RUS  HZ EP   1   1425  6.13                             143     0.3 7   98 187 
 RUS  HN ES   1   1425 23.99                             143     0.2 7   98 187 
 RUS  HZ I        1425 25.43         3.9 0.31                            98 187 
 GRA  SZ EP   1   1425  6.92                             136    -0.5 7  124   9 
 GRA  SZ ES   1   1425 27.01                             136     0.3 7  124   9 
 GRA  SZ I        1425 30.36         6.3 0.30                           124   9 
                                                                                
