 2017 1018 1011 35.2 L   6.852 -73.144152.8  RSN 19 0.5 2.3LRSN                1
 GAP=103        1.11       3.8     4.0  5.4  0.4049E+01  0.3669E+00  0.2701E+01E
 Epicentro: LOS SANTOS - SANTANDER                                             3
 ACTION:UPD 17-11-07 19:33 OP:rebc STATUS:               ID:20171018101135 L   I
 OLDACT:UP  17-10-18 21:50 OP:edw  STATUS:               ID:20171018100739     3
 OLDACT:UP  17-10-18 21:49 OP:edw  STATUS:               ID:20171018100739     3
 OLDACT:REG 17-10-18 20:17 OP:edw  STATUS:               ID:20171018100739     3
 2017-10-18-1008-00M.COL___419                                                 6
 STAT SP IPHASW D HRMM SECON CODA AMPLIT PERI AZIMU VELO AIN AR TRES W  DIS CAZ7
 BAR2 EZ EP       1011 55.74                             169   -0.0510 29.0 188 
 BAR2 EZ ES       1012 11.44                             169   -0.4110 29.0 188 
 BAR2 EZ I        1012 12.82        52.2 0.28            167           29.0 188 
 BRR  HZ IP     C 1011 57.49                             154    0.5110 68.8 294 
 BRR  HN ES       1012 14.69                             154    0.7210 68.8 294 
 BRR  HZ I        1012 17.10        30.8 0.36            153           68.8 294 
 RUS  HZ EP       1011 59.90                             144   -0.1410  106 176 
 RUS  HE ES       1012 18.85                             144   -0.5810  106 176 
 RUS  HZ I        1012 19.49        54.1 0.24            143            106 176 
 PTB  HZ EP       1012  2.21                             133   -0.65 9  149 257 
 PTB  HN ES       1012 23.66                             133   -0.79 9  149 257 
 PTB  HZ I        1012 25.41        20.4 0.40            132            149 257 
 TAM  HZ IP     D 1012  4.14                             131    0.58 9  156 107 
 YPLC HZ EP     C 1012  6.15                             127    0.17 9  182 152 
 YPLC HN ES       1012 30.24                             127    0.24 9  182 152 
 YPLC HZ I        1012 31.08        30.6 0.28            127            182 152 
 ZAR  HZ EP       1012  8.07                             124    0.16 9  202 291 
 ZAR  HN ES       1012 33.43                             124   -0.00 9  202 291 
 ZAR  HZ I        1012 35.49        14.0 0.12            123            202 291 
 NOR  HZ EP       1012 11.73                             119    0.02 8  238 233 
 NOR  HN ES       1012 40.10                             119   -0.09 8  238 233 
 NOR  HZ I        1012 44.40        17.4 0.26            119            238 233 
 CHI  HZ EP       1012 14.03                             118    0.14 8  254 195 
 CHI  HE ES       1012 43.82                             118   -0.25 8  254 195 
 CHI  HZ I        1012 45.41         9.5 0.30            117            254 195 
 ROSC BZ EP       1012 15.59                             117    1.35 8  258 210 
 ROSC BN ES       1012 44.77                             117    0.07 8  258 210 
 ROSC BZ I        1012 50.37        15.8 0.40            117            258 210 
 GUY2CHZ EP   4   1012 21.12                             113    1.60 0  305 234 
 GUY2CHE ES   4   1012 58.15                             113    4.05 0  305 234 
 GUY2CHZ I        1013  1.86         9.4 0.24                           305 234 
 VIL  EZ EP       1012 19.57                             113   -0.00 7  309 191 
 VIL  EE ES   4   1012 53.24                             113   -0.94 0  309 191 
 VIL  EZ I        1012 56.67        17.3 0.42            113            309 191 
 PTGC HZ EP       1012 18.95                             112   -1.01 7  314 159 
 PTGC HN ES   4   1012 52.58                             112   -2.30 0  314 159 
 PTGC HZ I        1012 57.15        15.3 0.30            112            314 159 
 DBB  EZ EP   4   1012 24.77                             110    1.83 0  339 273 
 DBB  EN ES   4   1012 58.05                             110   -2.13 0  339 273 
 DBB  EZ I        1013  1.36         7.0 0.60            110            339 273 
 PRA  HZ EP       1012 29.48                             107   -0.07 6  397 209 
 PRA  HN ES   4   1013 10.61                             107   -1.34 0  397 209 
 PRA  HZ I        1013 17.31         7.0 0.26            107            397 209 
 ORTC HZ EP       1012 30.25                             107    0.34 6  400 216 
 ORTC HN ES       1013 13.13                             107    0.54 6  400 216 
 ORTC HZ I        1013 15.99         5.1 0.20            107            400 216 
 SJC  HZ EP       1012 29.89                             107   -0.56 6  405 326 
 SJC  HN ES   4   1013 11.46                             107   -2.09 0  405 326 
 SJC  HZ I        1013 18.60         3.3 0.44            107            405 326 
 PAL  HZ EP   2   1012 31.28                             107    0.32 3  409 238 
 PAL  HE ES   4   1013 16.54                             107    2.09 0  409 238 
 PAL  HZ I        1013 17.29         4.3 0.22            106            409 238 
 CRJC HZ EP   2   1012 35.78                             104   -1.44 2  462   4 
 CRJC HN ES   2   1013 25.38                             104   -0.23 2  462   4 
                                                                                
