 2016 1218 1220 52.0 L   6.742 -73.196134.5  RSN  5 0.4 1.4LRSN                1
 GAP=227        1.08       9.8     7.3  8.1  0.4084E+02  0.1275E+02  0.9808E+01E
 Epicentro: VILLANUEVA - SANTANDER                                             3
 ACTION:UPD 17-01-11 20:16 OP:rebc STATUS:               ID:20161218122052 L   I
 OLDACT:DUP 16-12-18 23:05 OP:ar   STATUS:               ID:20161218121746d    3
 2016-12-18-1218-00M.COL___375                                                 6
 STAT SP IPHASW D HRMM SECON CODA AMPLIT PERI AZIMU VELO AIN AR TRES W  DIS CAZ7
 BAR2 EZ EP       1221  9.83                             173   -0.3110 16.7 175 
 BAR2 EZ ES       1221 24.59                             173    0.2910 16.7 175 
 BAR2 EZ I        1221 26.54         4.8 0.35            172           16.7 175 
 BRR  HZ EP       1221 11.42                             151   -0.4310 69.9 305 
 BRR  HN ES       1221 27.27                             151   -0.0710 69.9 305 
 RUS  HZ EP       1221 14.64                             143    0.4210 94.8 172 
 PTB  HZ EP       1221 16.76                             131   -0.69 9  141 261 
 PTB  HE ES       1221 37.26                             131   -0.05 9  141 261 
 PTB  HZ I        1221 39.74         3.2 0.14            131            141 261 
 ZAR  HZ EP       1221 24.24                             120    0.78 9  201 294 
 ZAR  HN ES       1221 48.25                             120    0.25 9  201 294 
 ZAR  HZ I        1221 52.50         3.0 0.26            121            201 294 
                                                                                
