 2011 1218 1651  1.9 L   6.799 -73.144144.0  RSN 22 0.4 3.6LRSN                1
 GAP=114        0.73       2.3     3.4  4.1 -0.1408E+01  0.4164E+01  0.3274E+01E
 Epicentro: LOS SANTOS - SANTANDER                                             3
 ACTION:UPD 12-07-13 16:17 OP:ep   STATUS:               ID:20111218165101 L   I
 2011-12-18-1650-00M.COL___188                                                 6
 STAT SP IPHASW D HRMM SECON CODA AMPLIT PERI AZIMU VELO AIN AR TRES W  DIS CAZ7
 BAR2 SZ IP       1651 21.33                             170   -0.0410 23.3 190 
 BAR2 SZ I        1651 21.91      1324.1 0.34                          23.3 190 
 BAR2 SZ ES   1   1651 36.07                             170   -0.44 7 23.3 190 
 GIR2 SZ IP       1651 21.43                             167    0.0210 31.4 350 
 GIR2 SZ ES   1   1651 36.68                             167    0.08 7 31.4 350 
 BRR  HZ IP     C 1651 23.24                             152    0.3210 71.4 299 
 BRR  HZ I        1651 23.63      1098.6 0.14                          71.4 299 
 BRR  HE ES   1   1651 39.84                             152    0.57 7 71.4 299 
 PAM  SZ IP       1651 24.12                             151    0.1510 77.3  39 
 PAM  SN ES   2   1651 41.09                             151   -0.06 5 77.3  39 
 RUS  HZ IP     C 1651 25.18                             143   -0.3410  101 176 
 RUS  HZ I        1651 26.41       295.0 0.16                           101 176 
 RUS  HE ES   2   1651 43.63                             143   -0.28 5  101 176 
 BRI  SZ EP   1   1651 25.82                             141    0.15 7  108  21 
 BRI  SZ ES   1   1651 44.20                             141    0.03 7  108  21 
 OCA  SZ EP       1651 29.87                             129   -0.26 9  160 353 
 OCA  SZ ES   2   1651 51.45                             129   -0.66 5  160 353 
 OCA  SZ I        1651 59.46       354.6 0.36                           160 353 
 YOP  SZ EP   1   1651 31.83                             126   -0.02 7  179 153 
 YOP  SN ES   1   1651 55.23                             126    0.06 7  179 153 
 YOP  SZ I        1651 58.07       191.9 0.45                           179 153 
 CTAU SZ EP       1651 35.13                             122    0.33 9  203 209 
 CTAU SZ I        1652  8.68       328.4 0.55                           203 209 
 CTAB SZ EP   1   1651 38.58                             119    0.98 6  230 211 
 CTAB SZ I        1652 13.27       649.4 0.87                           230 211 
 NOR  SZ EP       1651 37.24                             118   -0.35 8  235 234 
 NOR  SN ES   1   1652  5.24                             118   -0.14 6  235 234 
 CHI  HZ EP       1651 39.41                             117   -0.14 8  249 195 
 CHI  HE ES   1   1652  9.27                             117    0.40 6  249 195 
 CHI  HZ I        1652 17.14       148.5 0.40                           249 195 
 ROSC BZ EP   1   1651 40.76                             116    0.79 6  253 211 
 ROSC BN ES   1   1652 10.07                             116    0.44 6  253 211 
 ROSC BZ I        1652 19.11       455.6 0.45                           253 211 
 CVER SZ EP   1   1651 42.86                             114    0.64 6  272 202 
 HEL  HZ EP       1651 41.57                             114   -0.52 8  272 256 
 HEL  HN ES   1   1652 12.95                             114   -0.45 6  272 256 
 HEL  HZ I        1652 22.92       277.1 0.48                           272 256 
 CVER SZ I        1652 24.53       191.3 0.39                           272 202 
 VIL  SZ EP   1   1651 44.42                             112   -0.86 5  303 192 
 VIL  SN ES   1   1652 18.72                             112   -0.36 5  303 192 
 VIL  SZ I        1652 23.05        85.7 0.23                           303 192 
 GUY  SZ EP   1   1651 45.67                             112   -0.08 5  304 235 
 GUY  SZ I        1652 29.19       428.7 0.54                           304 235 
 RREF HZ EP       1651 47.86                             110   -0.16 7  322 229 
 RREF HN ES   2   1652 23.25                             110   -0.71 3  322 229 
 RREF HZ I        1652 32.54       256.3 0.45                           322 229 
 DBB  SZ EP   1   1651 49.69                             109    0.32 5  340 274 
 TOL  SZ EP   1   1651 50.49                             109    0.35 5  344 225 
 PRA  HZ EP   1   1651 54.64                             106   -0.77 4  392 210 
 PAL  HZ EP   1   1651 57.29                             106    0.23 4  406 239 
                                                                                
