 2011  618 1109 10.1 L   6.777 -73.121141.2  RSN 11 0.4 2.3LRSN                1
 GAP=159        0.93       3.9     7.0  6.7 -0.1212E+02  0.5974E+01  0.1122E+01E
 Epicentro: LOS SANTOS - SANTANDER                                             3
 ACTION:UP  11-07-14 19:06 OP:ep   STATUS:               ID:20110618110910 L   I
 2011-06-18-1105-35S.COL___139                                                 6
 STAT SP IPHASW D HRMM SECON CODA AMPLIT PERI AZIMU VELO SNR AR TRES W  DIS CAZ7
 BAR2 SZ IP       11 9 29.32                             171     0.210   22 198 
 BAR2 SZ ES   1   11 9 43.42                             171    -0.6 7   22 198 
 BAR2 SZ I        11 9 47.48        31.5 0.21                            22 198 
 GIR2 SZ IP       11 9 29.42                             166     0.110   34 346 
 BRR  HZ IP     C 11 9 31.26                             150     0.310   75 299 
 BRR  HE ES   1   11 9 47.89                             150     0.6 7   75 299 
 BRR  HZ I        11 9 53.40        62.6 0.19                            75 299 
 RUS  HZ EP   1   11 9 33.08                             144    -0.1 7   98 178 
 RUS  HN ES   1   11 9 51.32                             144     0.1 7   98 178 
 RUS  HZ I        11 9 52.59        17.3 0.32                            98 178 
 BRI  SZ EP       11 9 33.93                             140     0.210  110  19 
 BRI  SZ ES   1   11 9 52.58                             140     0.5 7  110  19 
 BRI  SZ I        11 9 54.71        27.1 0.38                           110  19 
 GRA  SZ IP       11 9 35.24                             135     0.110  127  16 
 GRA  SZ ES   1   11 9 53.97                             135    -0.6 7  127  16 
 GRA  SZ I        11 9 56.00        36.0 0.37                           127  16 
 OCA  SZ EP   1   11 9 37.91                             128    -0.4 7  163 352 
 OCA  SZ ES   1   11 9 59.61                             128    -0.8 7  163 352 
 OCA  SZ I        1110  4.98        22.1 0.24                           163 352 
 NOR  SZ EP   1   11 9 45.39                             117    -0.3 6  236 235 
 NOR  SN ES   1   1110 13.07                             117    -0.3 6  236 235 
 CHI  HZ EP   2   11 9 46.82                             116    -0.6 4  247 196 
 CHI  HZ I        1110 21.27         7.2 0.15                           247 196 
 RREF HZ EP   1   11 9 56.35                             110     0.2 5  322 230 
 RREF HZ I        1110 40.52        11.9 0.39                           322 230 
 PRA  HZ EP   1   1110  3.41                             106     0.0 4  391 210 
                                                                                
