 2010  818 1331 18.2 L   6.794 -73.048146.3  RSN  4 0.2 1.8LRSN                1
 GAP=209        0.51       7.1    12.9  5.7  0.7274E+02 -0.1639E+02 -0.7812E+01E
 Epicentro: LOS SANTOS - SANTANDER                                             3
 ACTION:UP  10-09-07 10:56 OP:vdl  STATUS:               ID:20100818133118 L   I
 2010-08-18-1327-34S.COL___117                                                 6
 STAT SP IPHASW D HRMM SECON CODA AMPLIT PERI AZIMU VELO SNR AR TRES W  DIS CAZ7
 BAR2 SZ EP   1   1331 38.03                             169     0.1 7   27 214 
 BAR2 SZ ES   1   1331 53.02                             169    -0.4 7   27 214 
 BAR2 SZ I        1331 54.04        16.2 0.26                            27 214 
 GIR2 SZ ES   2   1331 53.85                             166     0.3 5   35 333 
 BRR  HZ EP       1331 39.98                             149     0.010   81 295 
 BRR  HZ I        1331 40.51        17.5 0.15                            81 295 
 BRR  HE ES   1   1331 57.04                             149     0.0 7   81 295 
 RUS  HZ EP   1   1331 41.84                             144    -0.1 7  100 182 
 RUS  HN ES   1   1332  0.68                             144     0.2 7  100 182 
 RUS  HZ I        1332  2.26         5.3 0.43                           100 182 
                                                                                
