 2015  418 1012  9.5 L   6.808 -73.133151.6  RSN  8 0.4 1.7LRSN                1
 GAP=184        0.92       4.4     6.0  7.8 -0.3655E+00  0.5518E+01 -0.1166E+02E
 Epicentro: LOS SANTOS - SANTANDER                                             3
 ACTION:UPD 15-06-03 16:55 OP:cam  STATUS:               ID:20150418101209 L   I
 OLDACT:REG 15-04-18 20:45 OP:spq  STATUS:               ID:20150418100747     3
 2015-04-18-1007-47M.COL___266                                                 6
 STAT SP IPHASW D HRMM SECON CODA AMPLIT PERI AZIMU VELO AIN AR TRES W  DIS CAZ7
 BAR2 EZ EP       1012 29.99                             170    0.1510 24.5 193 
 BAR2 EZ ES   1   1012 45.77                             170    0.05 7 24.5 193 
 BAR2 EZ I        1012 46.55         9.2 0.22            172           24.5 193 
 BRR  HZ EP   1   1012 31.89                             153    0.57 7 72.0 297 
 BRR  HE ES   1   1012 49.29                             153    0.95 7 72.0 297 
 BRR  HZ I        1012 54.95        11.1 0.28            151           72.0 297 
 RUS  HN ES   1   1012 52.59                             145   -0.31 7  101 177 
 RUS  HZ I        1012 53.94         3.5 0.36            151            101 177 
 PTB  HZ EP       1012 36.70                             133   -0.38 9  149 259 
 PTB  HN ES       1012 58.17                             133   -0.43 9  149 259 
 PTB  HZ I        1012 59.92         4.5 0.36            135            149 259 
 OCA  HZ EP   1   1012 38.06                             131   -0.13 7  160 353 
 OCA  HE ES       1013  0.15                             131   -0.43 9  160 353 
 OCA  HZ I        1013  4.81        11.7 0.16            133            160 353 
 ZAR  HZ EP   1   1012 42.98                             124    0.56 6  205 292 
 ZAR  HN ES   1   1013  8.18                             124    0.07 6  205 292 
 ZAR  HZ I        1013 16.04         3.9 0.22            125            205 292 
 SML  HZ EP       1012 46.73                             119    0.31 8  243 335 
 SML  HN ES   1   1013 14.72                             119   -0.51 6  243 335 
 GUY2CHE ES   4   1013 32.89                             113    4.95 0  303 235 
 GUY2CHZ I        1013 37.80         1.7 0.32                           303 235 
                                                                                
