 2012  618 1505 45.7 L   6.791 -73.157144.5  RSN  5 0.4 1.6LRSN                1
 GAP=135        0.82       6.1     5.8  9.1  0.4909E+01  0.2478E+02 -0.1567E+01E
 Epicentro: LOS SANTOS - SANTANDER                                             3
 ACTION:UPD 12-08-06 17:50 OP:ep   STATUS:               ID:20120618150543 L   I
 2012-06-18-1500-00M.COL___199                                                 6
 STAT SP IPHASW D HRMM SECON CODA AMPLIT PERI AZIMU VELO AIN AR TRES W  DIS CAZ7
 BAR2 SZ EP   1   15 6  5.20                             171    0.06 7 22.2 187 
 BAR2 SZ ES   1   15 6 20.29                             171   -0.03 7 22.2 187 
 BAR2 SZ I        15 6 22.72         7.2 0.24            170           22.2 187 
 PAM  SN ES   1   15 6 25.01                             150   -0.15 7 79.0  40 
 RUS  HZ EP   1   15 6  9.16                             144   -0.09 7 99.7 175 
 RUS  HN ES   1   15 6 28.00                             144    0.37 7 99.7 175 
 RUS  HZ I        15 6 28.89         3.6 0.46            148           99.7 175 
 PTB  HZ EP   1   15 6 11.53                             132   -0.89 7  146 259 
 PTB  HE ES   1   15 6 33.14                             132   -0.13 7  146 259 
 PTB  HZ I        15 6 36.24         4.0 0.22            133            146 259 
 ZAR  HZ EP   1   15 6 18.85                             122    0.89 6  203 293 
 ZAR  HN ES   1   15 6 43.28                             122    0.14 6  203 293 
 ZAR  HZ I        15 6 48.95         7.0 0.40            123            203 293 
                                                                                
