 2010  118 1214 43.2 L   6.756 -72.820140.4  RSN  6 0.3 1.7LRSN                1
 GAP=202        0.63       4.4     7.6  5.6 -0.1548E+02  0.1079E+01  0.6428E+01E
 Epicentro: MOLAGAVITA - SANTANDER                                             3
 ACTION:UP  10-08-24 09:44 OP:vdl  STATUS:               ID:20100118121443 L   I
 2010-01-18-1159-50S.COL___087                                                 6
 STAT SP IPHASW D HRMM SECON CODA AMPLIT PERI AZIMU VELO SNR AR TRES W  DIS CAZ7
 BAR2 SZ IP       1215  2.68                             162    -0.110   44 246 
 BAR2 SZ ES   1   1215 18.02                             162     0.0 7   44 246 
 GIR2 SZ EP   1   1215  2.77                             158    -0.3 7   55 311 
 GIR2 SZ ES   2   1215 18.61                             158     0.0 5   55 311 
 RUS  HZ IP       1215  6.60                             143     0.310  100 197 
 RUS  HZ I        1215  7.76         2.4 0.25                           100 197 
 RUS  HN ES   2   1215 24.62                             143     0.2 5  100 197 
 GUE  SZ EP   1   1215  7.78                             137     0.2 7  119 354 
 CHI  HZ IP       1215 20.85                             115    -0.5 8  256 203 
 CHI  HE ES   1   1215 51.16                             115     0.0 6  256 203 
 CHI  HZ I        1215 53.54         3.3 0.50                           256 203 
 RREF HZ IP       1215 32.49                             108     0.5 6  347 234 
 RREF HZ I        1215 33.49         5.6 0.20                           347 234 
 RREF HN ES       1216  9.97                             108    -0.1 6  347 234 
                                                                                
