 2013  618 1634 13.8 L   6.804 -73.173151.4  RSN  5 0.4 2.0LRSN                1
 GAP=199        1.02       6.4     7.8  8.5  0.2313E+02 -0.2049E+01 -0.7982E+01E
 Epicentro: LOS SANTOS - SANTANDER                                             3
 ACTION:UPD 14-01-08 09:55 OP:ep   STATUS:               ID:20130618163413 L   I
 OLDACT:UP  13-06-18 18:10 OP:cam  STATUS:               ID:20130618162960d    3
 OLDACT:DUP 13-06-18 18:07 OP:cam  STATUS:               ID:20130618162960d    3
 2013-06-18-1629-59M.COL___261                                                 6
 STAT SP IPHASW D HRMM SECON CODA AMPLIT PERI AZIMU VELO AIN AR TRES W  DIS CAZ7
 BAR2 SZ EP       1634 34.14                             171   -0.0110 23.5 183 
 BAR2 SZ ES       1634 49.42                             171   -0.5710 23.5 183 
 BAR2 SZ I        1634 50.48        23.2 0.21            172           23.5 183 
 BRR  HZ EP       1634 35.75                             154    0.3010 68.4 299 
 BRR  HZ I        1634 42.19        15.4 0.52            152           68.4 299 
 BRR  HN ES       1634 53.05                             154    0.7510 68.4 299 
 RUS  HZ EP       1634 38.43                             145    0.2310  101 174 
 RUS  HN ES       1634 57.09                             145   -0.1110  101 174 
 RUS  HZ I        1634 57.91        10.3 0.24            144            101 174 
 PTB  HZ EP   1   1634 40.73                             134   -0.29 7  145 258 
 PTB  HN ES       1635  2.02                             134   -0.21 9  145 258 
 PTB  HZ I        1635  3.77        12.8 0.60            132            145 258 
 SML  HN ES   1   1635 18.56                             119   -0.73 6  242 336 
                                                                                
