 2010 1218 1534 45.7 L   6.787 -73.119148.2  RSN  6 0.3 1.8LRSN                1
 GAP=162        0.64       4.0     7.1  7.0 -0.1154E+02  0.1680E+01  0.2965E+01E
 Epicentro: LOS SANTOS - SANTANDER                                             3
 ACTION:UP  11-01-14 15:25 OP:pat  STATUS:               ID:20101218153445 L   I
 2010-12-18-1530-52S.COL___137                                                 6
 STAT SP IPHASW D HRMM SECON CODA AMPLIT PERI AZIMU VELO SNR AR TRES W  DIS CAZ7
 BAR2 SZ EP   1   1535  5.70                             171     0.0 8   23 198 
 BAR2 SZ ES   2   1535 20.74                             171    -0.4 5   23 198 
 BAR2 SZ I        1535 23.53        22.3 0.42                            23 198 
 BRR  HZ EP   1   1535  7.46                             152     0.1 8   75 298 
 BRR  HZ I        1535  7.83        17.1 0.35                            75 298 
 BRR  HN ES   2   1535 24.82                             152     0.6 5   75 298 
 RUS  HZ EP   1   1535  9.65                             145     0.0 8   99 178 
 RUS  HE ES   2   1535 28.16                             145    -0.1 5   99 178 
 RUS  HZ I        1535 29.57         6.7 0.31                            99 178 
 GRA  SZ IP       1535 11.37                             137     0.110  126  16 
 GRA  SZ I        1535 12.50        11.5 0.29                           126  16 
 GRA  SZ ES   2   1535 30.55                             137    -0.6 5  126  16 
 NOR  SZ EP   1   1535 21.18                             119    -0.6 6  236 235 
 NOR  SN ES   2   1535 49.73                             119    -0.2 4  236 235 
 CHI  HZ EP   1   1535 23.72                             118     0.2 6  248 196 
 CHI  HE ES   2   1535 53.36                             118     0.4 4  248 196 
 CHI  HZ I        1536  2.05         3.0 0.76                           248 196 
                                                                                
