 2013 1118 1345 29.9 L   6.814 -73.177146.9  RSN  4 0.3 1.3LRSN                1
 GAP=144        0.73       4.5     4.3  6.1 -0.6100E+01  0.7169E+01 -0.2583E+01E
 Epicentro: LOS SANTOS - SANTANDER                                             3
 ACTION:UPD 14-01-09 16:29 OP:ep   STATUS:               ID:20131118134529 L   I
 OLDACT:REG 13-11-18 14:34 OP:nd   STATUS:               ID:20131118134000     3
 2013-11-18-1340-00M.COL___279                                                 6
 STAT SP IPHASW D HRMM SECON CODA AMPLIT PERI AZIMU VELO AIN AR TRES W  DIS CAZ7
 BAR2 SZ EP       1345 49.99                             170    0.2610 24.5 181 
 BAR2 SZ ES       1346  5.56                             170    0.3910 24.5 181 
 BAR2 SZ I        1346  7.25         5.8 0.26            171           24.5 181 
 PAM  SZ EP       1345 52.33                             151   -0.0110 78.5  42 
 PAM  SN ES       1346  9.58                             151   -0.2410 78.5  42 
 PAM  SZ I        1346 12.03         3.1 0.50            153           78.5  42 
 RUS  HZ EP       1345 54.19                             144    0.2510  102 174 
 RUS  HN ES       1346 12.24                             144   -0.4210  102 174 
 RUS  HZ I        1346 14.31         2.0 0.32            146            102 174 
 PTB  HZ EP       1345 56.47                             133   -0.25 9  145 258 
 PTB  HN ES       1346 17.60                             133   -0.01 9  145 258 
 PTB  HZ I        1346 19.31         2.4 0.28            135            145 258 
                                                                                
