 2015 1218 1623 16.4 L   6.803 -73.124149.0  RSN 21 0.5 2.7LRSN                1
 GAP=102        1.14       2.5     3.6  5.7 -0.1256E+01  0.9888E+00  0.2616E+01E
 Epicentro: LOS SANTOS - SANTANDER                                             3
 ACTION:UPD 16-02-04 15:05 OP:cam  STATUS:               ID:20151218162316 L   I
 OLDACT:UP  15-12-18 23:06 OP:ar   STATUS:               ID:20151218161746     3
 OLDACT:REG 15-12-18 20:51 OP:ar   STATUS:               ID:20151218161746     3
 2015-12-18-1617-46M.COL___340                                                 6
 STAT SP IPHASW D HRMM SECON CODA AMPLIT PERI AZIMU VELO AIN AR TRES W  DIS CAZ7
 BAR2 EZ IP     D 1623 36.64                             170    0.1610 24.2 195 
 BAR2 EZ I        1623 52.78        78.9 0.30            169           24.2 195 
 BRR  HZ EP       1623 38.49                             153    0.4410 73.1 297 
 BRR  HN ES       1623 55.39                             153    0.4910 73.1 297 
 BRR  HZ I        1623 59.39        94.3 0.48            151           73.1 297 
 PAM  EZ EP       1623 39.58                             152    0.6810 75.6  38 
 PAM  EN ES       1623 56.68                             152    0.2610 75.6  38 
 PAM  EZ I        1623 58.81       133.9 0.48            155           75.6  38 
 RUS  HZ EP       1623 40.63                             144    0.1010  101 177 
 RUS  HN ES       1623 59.53                             144    0.2210  101 177 
 RUS  HZ I        1624  0.50        45.7 0.32            146            101 177 
 PTB  HZ EP       1623 43.32                             132   -0.57 9  150 259 
 PTB  HN ES       1624  4.54                             132   -0.75 9  150 259 
 PTB  HZ I        1624 11.57        28.6 0.12            132            150 259 
 OCA  HZ EP       1623 44.90                             130   -0.10 9  160 352 
 OCA  HE ES       1624  6.59                             130   -0.69 9  160 352 
 OCA  HZ I        1624 12.10        81.4 0.32            132            160 352 
 SPBC HZ EP       1623 45.64                             130    0.28 9  165 220 
 SPBC HE ES       1624  7.56                             130   -0.34 9  165 220 
 SPBC HZ I        1624 10.88        61.3 0.10            130            165 220 
 ZAR  HZ EP       1623 49.97                             123    0.66 8  206 292 
 ZAR  HN ES       1624 14.86                             123   -0.09 8  206 292 
 ZAR  HZ I        1624 20.67        51.7 0.28            123            206 292 
 NOR  HZ EP       1623 53.05                             119    0.46 8  237 235 
 NOR  HN ES       1624 20.30                             119   -0.48 8  237 235 
 NOR  HZ I        1624 24.88        17.0 0.28            120            237 235 
 SML  HZ EP       1623 53.81                             118    0.48 8  244 335 
 SML  HE ES       1624 21.46                             118   -0.63 8  244 335 
 SML  HZ I        1624 24.97        63.8 0.10            119            244 335 
 CHI  HZ EP       1623 54.98                             118    0.55 8  250 196 
 CHI  HE ES       1624 23.49                             118   -0.56 8  250 196 
 CHI  HZ I        1624 27.72        24.5 0.38            119            250 196 
 ROSC BZ EP   4   1623 57.22                             117    2.31 0  254 211 
 ROSC BN ES       1624 25.23                             117    0.33 8  254 211 
 ROSC BZ I        1624 30.32        48.3 0.30            118            254 211 
 HEL  HZ EP   4   1624  0.99                             115    3.91 0  274 256 
 HEL  HE ES   4   1624 26.76                             115   -2.02 0  274 256 
 HEL  HZ I        1624 37.01        10.2 0.26            116            274 256 
 URE  HZ EP       1623 57.17                             114   -0.73 7  286 292 
 URE  HN ES   4   1624 28.07                             114   -2.17 0  286 292 
 URE  HZ I        1624 39.69        31.0 0.18            115            286 292 
 SOCV BZ EP     D 1623 58.85                             113   -0.55 7  299  57 
 SOCV BN ES   4   1624 30.52                             113   -2.38 0  299  57 
 GUY2CHZ EP   4   1624  2.00                             113    1.56 0  303 235 
 GUY2CHN ES   2   1624 35.78                             113    1.02 4  303 235 
 GUY2CHZ I        1624 42.62        12.2 0.28                           303 235 
 PTGC HZ IPg      1623 59.92                             112   -0.47 7  308 159 
 PTGC HN ES       1624 33.70                             112   -0.96 7  308 159 
 PTGC HZ I        1624 38.06        49.1 0.32            114            308 159 
 ELA  HZ EP   4   1624  7.11                             111    3.45 0  331 230 
 ELA  HN ES       1624 40.55                             111    0.06 7  331 230 
 ELA  HZ I        1624 49.34        10.4 0.68            112            331 230 
 PRA  HZ EP       1624 10.47                             107    0.22 6  393 210 
 PRA  HN ES       1624 51.49                             107   -0.72 6  393 210 
 PRA  HZ I        1624 57.40        19.2 0.38            108            393 210 
 ORTC HZ EP       1624 11.01                             107    0.34 6  397 216 
 ORTC HN ES       1624 53.79                             107    0.83 6  397 216 
 ORTC HZ I        1624 56.11        32.5 0.92            108            397 216 
 CRJC HZ EP   4   1624 17.09                             104   -1.89 0  467   3 
 CRJC HN ES   4   1625  4.44                             104   -3.32 0  467   3 
 CRJC HZ I        1625 10.23         9.6 0.42            105            467   3 
                                                                                
