 2015 1118 1110 17.5 L   6.778 -73.161133.1  RSN  6 0.4 1.5LRSN                1
 GAP=136        0.75       3.4     4.3  7.3  0.2564E+01  0.1390E+02 -0.2503E+01E
 Epicentro: LOS SANTOS - SANTANDER                                             3
 ACTION:UPD 15-12-28 16:11 OP:cam  STATUS:               ID:20151118111017 L   I
 OLDACT:REG 15-11-18 20:47 OP:dnl  STATUS:               ID:20151118110749     3
 2015-11-18-1107-49M.COL___307                                                 6
 STAT SP IPHASW D HRMM SECON CODA AMPLIT PERI AZIMU VELO AIN AR TRES W  DIS CAZ7
 BAR2 EZ EP   2   1110 35.99                             171    0.47 5 20.6 187 
 BAR2 EZ ES   2   1110 48.97                             171   -0.62 5 20.6 187 
 BAR2 EZ I        1110 51.24         7.5 0.12            170           20.6 187 
 BRR  HZ EP       1110 37.10                             150   -0.1410 71.0 301 
 BRR  HN ES   2   1110 53.27                             150    0.60 5 71.0 301 
 PAM  EZ EP       1110 38.12                             147   -0.4210 80.4  39 
 PAM  EN ES       1110 55.31                             147    0.3310 80.4  39 
 PAM  EZ I        1110 56.95         4.3 0.62            152           80.4  39 
 RUS  HZ EP       1110 40.05                             142    0.2310 98.3 175 
 RUS  HN ES       1110 57.08                             142   -0.1710 98.3 175 
 RUS  HZ I        1110 59.87         3.3 0.36            146           98.3 175 
 ZAR  HZ EP       1110 49.45                             119    0.40 9  203 293 
 ZAR  HN ES       1111 13.56                             119   -0.13 9  203 293 
 ZAR  HZ I        1111 21.15         3.8 0.14            121            203 293 
 SML  HZ EP   4   1110 52.14                             114   -1.45 0  245 336 
 SML  HE ES   1   1111 21.37                             114   -0.39 6  245 336 
 SML  HZ I        1111 24.48         3.1 0.26            117            245 336 
                                                                                
