 2013  518 1440  6.8 L   6.795 -73.153140.8  RSN 11 0.4 2.1LRSN                1
 GAP=136        0.94       3.1     4.6  6.9 -0.7509E+00  0.1095E+02  0.6891E+00E
 Epicentro: LOS SANTOS - SANTANDER                                             3
 ACTION:UPD 13-06-20 09:51 OP:ep   STATUS:               ID:20130518144006 L   I
 2013-05-18-1440-00M.COL___256                                                 6
 STAT SP IPHASW D HRMM SECON CODA AMPLIT PERI AZIMU VELO AIN AR TRES W  DIS CAZ7
 BAR2 SZ EP       1440 25.85                             170    0.0510 22.6 188 
 BAR2 SZ ES   1   1440 40.69                             170    0.05 7 22.6 188 
 BAR2 SZ I        1440 41.58        29.5 0.36            169           22.6 188 
 GIR2 SZ EP   1   1440 26.04                             167    0.16 7 31.7 352 
 GIR2 SZ ES   1   1440 39.93                             167   -0.84 7 31.7 352 
 GIR2 SZ I        1440 42.14        23.1 0.46            166           31.7 352 
 BRR  HZ EP       1440 27.72                             152    0.3510 70.8 299 
 BRR  HN ES   1   1440 44.49                             152    1.06 7 70.8 299 
 BRR  HZ I        1440 48.96        25.9 0.12            150           70.8 299 
 PAM  SZ EP       1440 29.09                             149    0.5610 78.3  40 
 PAM  SN ES   1   1440 45.49                             149   -0.01 7 78.3  40 
 PAM  SZ I        1440 47.71        27.4 0.50            155           78.3  40 
 RUS  HN ES   1   1440 47.78                             143   -0.35 7  100 176 
 RUS  HZ I        1440 49.85        10.7 0.42            146            100 176 
 PTB  HZ EP   1   1440 33.06                             131   -0.21 7  147 259 
 PTB  HN ES   1   1440 53.52                             131   -0.41 7  147 259 
 PTB  HZ I        1440 56.58        11.3 0.28            131            147 259 
 OCA  HN ES       1440 56.18                             128   -0.40 9  161 353 
 ZAR  HZ EP   1   1440 38.40                             121   -0.46 6  204 292 
 ZAR  HN ES       1441  4.14                             121    0.27 9  204 292 
 ZAR  HZ I        1441 10.14        13.6 0.46            123            204 292 
 NOR  HZ EP   1   1440 41.79                             117   -0.33 6  234 234 
 NOR  HN ES   1   1441  9.97                             117    0.29 6  234 234 
 NOR  HZ I        1441 15.14         5.8 0.18            119            234 234 
 SML  HE ES       1441 11.16                             116   -0.37 8  244 336 
 SML  HZ I        1441 13.31        35.3 0.10            119            244 336 
 CHI  HN ES       1441 13.07                             116   -0.18 8  248 195 
                                                                                
