 2013  518 1108  0.8 L   6.574 -73.561110.7  RSN  6 0.4 1.6LRSN                1
 GAP=123        0.98       5.5     5.0 12.3 -0.4387E+01  0.1690E+02 -0.2000E+02E
 Epicentro: EL CARMEN DE CHUCURI - SANTANDER                                   3
 ACTION:UPD 13-06-20 09:51 OP:ep   STATUS:               ID:20130518110800 L   I
 2013-05-18-1100-00M.COL___256                                                 6
 STAT SP IPHASW D HRMM SECON CODA AMPLIT PERI AZIMU VELO AIN AR TRES W  DIS CAZ7
 BAR2 SZ EP   1   11 8 17.22                             158    0.35 7 42.0  87 
 BAR2 SZ ES   1   11 8 30.16                             158    0.72 7 42.0  87 
 BAR2 SZ I        11 8 31.04        61.3 0.42            154           42.0  87 
 BRR  HZ EP   1   11 8 18.19                             149    0.61 7 61.2 344 
 BRR  HZ I        11 8 42.63        10.8 0.36            132           61.2 344 
 GIR2 SZ EP       11 8 18.51                             146    0.2110 69.0  36 
 RUS  HZ EP   1   11 8 20.59                             137    0.05 7 92.1 145 
 RUS  HN ES       11 8 35.69                             137   -0.2810 92.1 145 
 RUS  HZ I        11 8 36.80         2.4 0.60            138           92.1 145 
 PTB  HZ EP   1   11 8 20.43                             135   -0.04 7 99.0 268 
 PTB  HN ES   1   11 8 35.33                             135   -0.52 7 99.0 268 
 PTB  HZ I        11 8 40.24         7.6 0.10            124           99.0 268 
 PAM  SN ES       11 8 41.00                             127   -0.6310  127  48 
                                                                                
