 2012  518 1253 10.5 L   6.793 -73.205148.1  RSN  7 0.4 1.7LRSN                1
 GAP=230        0.90       8.5     8.2  8.2  0.4368E+02  0.1704E+02  0.2041E+02E
 Epicentro: ZAPATOCA - SANTANDER                                               3
 ACTION:UP  12-07-05 12:06 OP:pat  STATUS:               ID:20120518125310 L   I
 2012-05-18-1250-00M.COL___200                                                 6
 STAT SP IPHASW D HRMM SECON CODA AMPLIT PERI AZIMU VELO SNR AR TRES W  DIS CAZ7
 BAR2 SZ EP   1   1253 30.21                             171    -0.2 7   22 174 
 BAR2 SZ ES   1   1253 45.54                             171    -0.4 7   22 174 
 BAR2 SZ I        1253 46.91        10.6 0.29                            22 174 
 BRR  HZ EP   1   1253 31.90                             155     0.3 7   66 302 
 BRR  HZ I        1253 33.45        16.0 0.13                            66 302 
 BRR  HN ES   1   1253 48.87                             155     0.8 7   66 302 
 RUS  HZ EP   1   1253 34.09                             144    -0.4 7  101 172 
 RUS  HE ES   1   1253 53.33                             144     0.1 7  101 172 
 RUS  HZ I        1253 55.06         8.1 0.40                           101 172 
 PTB  HZ EP   1   1253 37.04                             134    -0.1 7  141 259 
 PTB  HN ES   1   1253 57.68                             134    -0.1 7  141 259 
 PTB  HZ I        1254  0.36         5.6 0.13                           141 259 
 ZAR  HN ES   1   1254  6.96                             124    -0.5 6  198 293 
 CHI  HZ EP   1   1253 48.46                             118     0.4 6  246 194 
 CHI  HZ I        1253 51.17         2.7 0.19                           246 194 
 PRA  HZ EP   1   1254  4.30                             107     0.6 4  388 209 
                                                                                
