 2013  918 1411  6.3 L   6.820 -73.220158.2  RSN  4 0.4 1.2LRSN                1
 GAP=194        0.65       8.5     9.9  9.8 -0.2910E+02 -0.3243E+02  0.2316E+02E
 Epicentro: ZAPATOCA - SANTANDER                                               3
 ACTION:UPD 13-10-22 09:23 OP:ep   STATUS:               ID:20130918141106 L   I
 OLDACT:REG 13-09-18 15:29 OP:jn   STATUS:               ID:20130918140959     3
 2013-09-18-1409-59M.COL___269                                                 6
 STAT SP IPHASW D HRMM SECON CODA AMPLIT PERI AZIMU VELO AIN AR TRES W  DIS CAZ7
 BAR2 SZ EP   2   1411 26.74                             170   -0.77 5 25.5 171 
 BAR2 SZ I        1411 43.77         3.2 0.30            148           25.5 171 
 BRR  HZ EP       1411 28.74                             157    0.3010 63.0 300 
 BRR  HN ES   1   1411 45.77                             157    0.10 7 63.0 300 
 PTB  HZ EP       1411 33.74                             136    0.04 9  140 257 
 PTB  HN ES   1   1411 54.82                             136   -0.22 7  140 257 
 PTB  HZ I        1412  0.54         2.3 0.46            148            140 257 
 SML  HE ES   2   1412 11.27                             120   -0.56 4  238 337 
                                                                                
