 2017 1118 1317  5.0 L   6.739 -73.181140.0  RSN  5 0.4 1.6LRSN                1
 GAP=142        0.89       7.8     4.5  8.2 -0.1408E+02  0.1236E+02 -0.1401E+02E
 Epicentro: VILLANUEVA - SANTANDER                                             3
 ACTION:UPD 17-12-12 19:57 OP:rebc STATUS:               ID:20171118131705 L   I
 OLDACT:REG 17-11-18 20:20 OP:lv   STATUS:               ID:20171118130740     3
 2017-11-18-1308-00M.COL___464                                                 6
 STAT SP IPHASW D HRMM SECON CODA AMPLIT PERI AZIMU VELO AIN AR TRES W  DIS CAZ7
 BAR2 EZ EP       1317 24.12                             173    0.3410 16.2 180 
 BAR2 EZ ES       1317 38.66                             173    0.2110 16.2 180 
 BAR2 EZ I        1317 39.62        12.4 0.24            175           16.2 180 
 PAM  EZ EP       1317 27.16                             147    0.0910 85.1  39 
 PAM  EN ES       1317 44.02                             147   -0.2810 85.1  39 
 PAM  EZ I        1317 46.32         6.4 0.52            149           85.1  39 
 PTB  HZ EP       1317 30.70                             132   -0.31 9  143 261 
 PTB  HN ES       1317 50.79                             132   -0.53 9  143 261 
 PTB  HZ I        1317 53.81         3.5 0.42            133            143 261 
 ZAR  HN ES       1318  2.40                             121    0.52 9  203 294 
 GUY2CHZ EP   9   1317 49.62                             112    2.11 0  294 235 
 GUY2CHN ES       1318 23.27                                    0.47 7  294 235 
 GUY2CHZ I        1318 30.32         2.8 0.32                           294 235 
                                                                                
