 2015 1118 1336 49.7 L   6.794 -73.140144.0  RSN 11 0.5 1.9LRSN                1
 GAP=138        0.98       3.2     4.5  7.0 -0.3119E+00  0.1231E+02  0.2265E+01E
 Epicentro: LOS SANTOS - SANTANDER                                             3
 ACTION:UPD 15-12-28 16:11 OP:cam  STATUS:               ID:20151118133649 L   I
 OLDACT:UP  15-11-19 00:56 OP:dnl  STATUS:               ID:20151118132750     3
 OLDACT:REG 15-11-18 21:00 OP:dnl  STATUS:               ID:20151118132750     3
 2015-11-18-1327-50M.COL___313                                                 6
 STAT SP IPHASW D HRMM SECON CODA AMPLIT PERI AZIMU VELO AIN AR TRES W  DIS CAZ7
 BAR2 EZ EP       1337  8.96                             171   -0.2010 22.8 192 
 BAR2 EZ ES   2   1337 24.24                             171   -0.05 5 22.8 192 
 BAR2 EZ I        1337 24.93        21.3 0.22            168           22.8 192 
 BRR  HZ EP       1337 10.75                             152   -0.0110 72.1 299 
 BRR  HE ES       1337 27.84                             152    0.7010 72.1 299 
 BRR  HZ I        1337 31.00        23.8 0.28            150           72.1 299 
 PAM  EZ EP   1   1337 10.98                             151   -0.80 7 77.5  39 
 PAM  EN ES       1337 28.93                             151   -0.0410 77.5  39 
 PAM  EZ I        1337 31.00         9.8 0.40            155           77.5  39 
 RUS  HZ EP       1337 13.27                             144   -0.0110 99.9 176 
 RUS  HE ES       1337 31.60                             144   -0.0310 99.9 176 
 RUS  HZ I        1337 32.70         7.8 0.23            145           99.9 176 
 SPBC HZ EP   1   1337 19.33                             129    1.23 7  163 219 
 SPBC HE ES       1337 40.04                             129   -0.18 9  163 219 
 SPBC HZ I        1337 46.93        14.7 0.34            129            163 219 
 ZAR  HZ EP       1337 22.02                             122   -0.15 9  205 292 
 ZAR  HN ES       1337 46.60                             122   -0.85 9  205 292 
 ZAR  HZ I        1337 52.78         7.8 0.17            122            205 292 
 NOR  HZ EP   2   1337 25.36                             118   -0.03 4  235 235 
 NOR  HE ES       1337 53.08                             118   -0.11 8  235 235 
 NOR  HZ I        1337 59.20         6.3 0.14            119            235 235 
 SML  HZ EP   4   1337 24.99                             117   -1.38 0  245 335 
 SML  HE ES       1337 55.48                             117    0.55 8  245 335 
 SML  HZ I        1337 59.12         8.6 0.10            118            245 335 
 URE  HZ EP   4   1337 33.09                             113    2.26 0  285 292 
 URE  HE ES   2   1338  2.25                             113   -0.62 4  285 292 
 URE  HZ I        1338  4.77         5.7 0.36            114            285 292 
 GUY2CHZ EP   2   1337 34.20                             112    0.91 4  301 235 
 GUY2CHN ES   2   1338  7.48                             112    0.22 4  301 235 
 GUY2CHZ I        1338 17.55         2.9 0.36                           301 235 
 PRA  HZ EP   2   1337 43.64                             106    0.46 3  392 210 
 PRA  HN ES       1338 24.78                             106   -0.07 6  392 210 
 PRA  HZ I        1338 30.92         2.6 0.25            107            392 210 
                                                                                
