 2012 1218 1502  3.8 L   6.166 -73.674107.3  RSN  9 0.3 1.7LRSN                1
 GAP= 67        0.56       2.0     2.4  5.0  0.1599E+00  0.3786E+01  0.2495E+01E
 Epicentro: LA PAZ - SANTANDER                                                 3
 ACTION:UPD 13-01-04 14:28 OP:ep   STATUS:               ID:20121218150203 L   I
 2012-12-18-1500-00M.COL___242                                                 6
 STAT SP IPHASW D HRMM SECON CODA AMPLIT PERI AZIMU VELO AIN AR TRES W  DIS CAZ7
 BAR2 SZ EP   1   15 2 21.64                             144    0.25 7 71.9  49 
 BAR2 SZ ES   1   15 2 35.21                             144    0.13 7 71.9  49 
 RUS  HZ EP   1   15 2 21.82                             144    0.06 7 72.1 115 
 RUS  HN ES   1   15 2 35.45                             144   -0.28 7 72.1 115 
 RUS  HZ I        15 2 36.92         9.9 0.34                          72.1 115 
 PTB  HZ EP   1   15 2 22.35                             135   -0.64 7 95.9 296 
 PTB  HN ES   1   15 2 37.56                             135   -0.37 7 95.9 296 
 PTB  HZ I        15 2 40.72         9.4 0.16                          95.9 296 
 BRR  HZ EP   1   15 2 23.74                             132    0.04 7  104 358 
 BRR  HN ES   1   15 2 39.39                             132    0.21 7  104 358 
 BRR  HZ I        15 2 41.72         7.9 0.39                           104 358 
 NOR  HZ EP   1   15 2 28.07                             121   -0.02 7  148 243 
 NOR  HN ES   1   15 2 47.33                             121    0.33 7  148 243 
 NOR  HZ I        15 2 49.07         9.0 0.19                           148 243 
 PAM  SZ EP   1   15 2 30.61                             118   -0.21 7  169  40 
 PAM  SZ I        15 2 56.02         3.9 0.40                           169  40 
 CHI  HZ EP   1   15 2 30.72                             118   -0.16 7  170 182 
 CHI  HN ES   1   15 2 52.37                             118    0.41 7  170 182 
 CHI  HZ I        15 2 54.45         4.7 0.30                           170 182 
 ZAR  HZ EP   1   15 2 33.35                             113    0.08 6  197 318 
 ZAR  HN ES   1   15 2 56.61                             113    0.38 6  197 318 
 ZAR  HZ I        15 2 58.16        10.2 0.34                           197 318 
 PRA  HZ EP   1   15 2 45.76                             103    0.14 5  303 206 
 PRA  HN ES   1   15 3 17.97                             103   -0.24 5  303 206 
 PRA  HZ I        15 3 25.39         7.0 0.72                           303 206 
                                                                                
