 2014 1218 1409  2.0 L   6.813 -73.180140.3  RSN  4 0.2 1.1LRSN                1
 GAP=144        0.62       4.5     3.7  6.1 -0.4909E+01  0.4363E+01 -0.2019E+01E
 Epicentro: ZAPATOCA - SANTANDER                                               3
 ACTION:UPD 15-02-10 17:05 OP:nd   STATUS:               ID:20141218140902 L   I
 OLDACT:REG 14-12-18 20:23 OP:spq  STATUS:               ID:20141218135748     3
 2014-12-18-1357-48M.COL___295                                                 6
 STAT SP IPHASW D HRMM SECON CODA AMPLIT PERI AZIMU VELO AIN AR TRES W  DIS CAZ7
 BAR2 EZ EP       14 9 20.89                             170   -0.0610 24.4 181 
 BAR2 EZ ES   1   14 9 35.43                             170   -0.34 7 24.4 181 
 BAR2 EZ I        14 9 37.07         3.7 0.30            169           24.4 181 
 PAM  SZ EP       14 9 23.93                             149    0.2510 78.8  42 
 PAM  SN ES   1   14 9 40.60                             149   -0.02 7 78.8  42 
 PAM  SZ I        14 9 41.61         2.5 0.64            152           78.8  42 
 RUS  HZ EP       14 9 25.33                             142    0.0310  102 174 
 RUS  HE ES   1   14 9 43.69                             142    0.18 7  102 174 
 RUS  HZ I        14 9 45.37         1.9 0.66            144            102 174 
 PTB  HZ EP       14 9 27.74                             131   -0.43 9  144 258 
 PTB  HN ES       14 9 48.91                             131    0.30 9  144 258 
 PTB  HZ I        14 9 50.10         1.6 0.28            133            144 258 
                                                                                
