 2010  818 1818 13.9 L   6.813 -73.061140.1  RSN  6 0.2 1.8LRSN                1
 GAP=168        0.47       2.4     5.4  5.4 -0.8522E+00 -0.8418E+01 -0.8117E+00E
 Epicentro: LOS SANTOS - SANTANDER                                             3
 ACTION:UP  10-09-07 10:56 OP:vdl  STATUS:               ID:20100818181813 L   I
 2010-08-18-1815-03S.COL___117                                                 6
 STAT SP IPHASW D HRMM SECON CODA AMPLIT PERI AZIMU VELO SNR AR TRES W  DIS CAZ7
 BAR2 SZ EP       1818 32.87                             168    -0.110   28 209 
 BAR2 SZ ES   2   1818 47.68                             168    -0.2 5   28 209 
 BAR2 SZ I        1818 50.47        10.7 0.42                            28 209 
 BRR  HZ EP       1818 34.74                             149    -0.210   79 294 
 BRR  HE ES   1   1818 51.58                             149     0.3 7   79 294 
 BRR  HZ I        1818 55.43        23.8 0.09                            79 294 
 RUS  HZ EP       1818 37.39                             142     0.210  102 181 
 RUS  HN ES   1   1818 55.32                             142     0.0 7  102 181 
 RUS  HZ I        1818 56.97         8.3 0.25                           102 181 
 GUE  SZ EP       1818 37.87                             139     0.010  113   8 
 GRA  SZ EP   2   1818 38.63                             137     0.3 5  122  13 
 GRA  SZ ES   1   1818 57.24                             137    -0.1 7  122  13 
 GRA  SZ I        1818 59.22        12.2 0.44                           122  13 
 CHI  HE ES   3   1819 20.56                             115    -0.7 2  253 197 
                                                                                
