 2017  418 1729 28.6 L   6.818 -73.159145.4  RSN 13 0.5 2.3LRSN                1
 GAP=110        1.07       3.3     3.7  5.6  0.1262E+01  0.4442E+01  0.3737E+01E
 Epicentro: LOS SANTOS - SANTANDER                                             3
 ACTION:UPD 17-05-30 21:13 OP:jn   STATUS:               ID:20170418172928 L   I
 OLDACT:UP  17-04-19 01:24 OP:dani STATUS:               ID:20170418172150d    3
 OLDACT:DUP 17-04-19 01:19 OP:dani STATUS:               ID:20170418172150d    3
 OLDACT:UP  17-04-19 01:18 OP:dani STATUS:               ID:20170418172149     3
 OLDACT:REG 17-04-18 22:10 OP:dani STATUS:               ID:20170418172149     3
 2017-04-18-1728-00M.COL___371                                                 6
 STAT SP IPHASW D HRMM SECON CODA AMPLIT PERI AZIMU VELO AIN AR TRES W  DIS CAZ7
 BAR2 EZ EP     D 1729 48.17                             170   -0.0810 25.1 186 
 BAR2 EZ ES       1730  2.98                             170   -0.5710 25.1 186 
 BAR2 EZ I        1730  4.42        47.0 0.26            166           25.1 186 
 BRR  HZ EP       1729 50.06                             153    0.4610 68.9 298 
 BRR  HN ES       1730  7.00                             153    1.0310 68.9 298 
 BRR  HZ I        1730  7.75        31.8 0.12            146           68.9 298 
 PAM  EZ EP       1729 51.06                             151    0.2910 76.8  41 
 PAM  EN ES       1730  7.54                             151   -0.5010 76.8  41 
 RUS  HZ EP       1729 52.14                             143   -0.3510  103 175 
 RUS  HE ES       1730 11.21                             143    0.1010  103 175 
 RUS  HZ I        1730 11.94        22.8 0.24            138            103 175 
 PTB  HZ EP       1729 55.30                             132   -0.16 9  147 258 
 PTB  HN ES       1730 15.97                             132   -0.43 9  147 258 
 PTB  HZ I        1730 19.58        16.7 0.18            125            147 258 
 SPBC HZ EP       1729 57.45                             129    0.30 9  164 218 
 SPBC HN ES       1730 19.21                             129   -0.20 9  164 218 
 SPBC HZ I        1730 21.74        37.8 0.38            122            164 218 
 YPLC HZ EP       1729 58.61                             126   -0.03 9  179 151 
 YPLC HN ES       1730 22.63                             126    0.59 9  179 151 
 YPLC HZ I        1730 23.50        26.5 0.30            121            179 151 
 ZAR  HZ EP       1730  0.77                             123   -0.05 9  202 292 
 ZAR  HE ES       1730 25.97                             123    0.03 9  202 292 
 ZAR  HZ I        1730 32.96        15.1 0.32            116            202 292 
 TABC EZ EP   3   1730  5.83                             119    1.38 2  231 210 
 TABC EZ I        1730 37.52        15.1 0.46            113            231 210 
 NOR  HE ES       1730 32.52                             118    0.35 8  235 234 
 NOR  HZ I        1730 33.53        11.0 0.16            113            235 234 
 CHI  HZ EP       1730  6.46                             117   -0.01 8  250 195 
 CHI  HN ES       1730 35.29                             117   -0.70 8  250 195 
 CHI  HZ I        1730 39.17        13.9 0.50            112            250 195 
 ROSC BZ EP       1730  7.26                             116    0.43 8  254 210 
 ROSC BE ES       1730 36.63                             116    0.00 8  254 210 
 ROSC BZ I        1730 41.99        22.6 0.40            111            254 210 
 URE  HZ EP       1730  8.67                             114   -0.76 7  282 292 
 URE  HN ES   3   1730 39.23                             114   -2.04 2  282 292 
 URE  HZ I        1730 50.92        11.6 0.24            108            282 292 
                                                                                
