 2014  218 1504 24.3 L   6.815 -73.163144.0  RSN 10 0.3 2.4LRSN                1
 GAP=134        0.79       2.3     3.2  4.6 -0.7528E+00  0.5258E+01  0.5560E-01E
 Epicentro: LOS SANTOS - SANTANDER                                             3
 ACTION:UPD 14-03-10 08:11 OP:ep   STATUS:               ID:20140218150424 L   I
 OLDACT:DUP 14-02-18 17:11 OP:carl STATUS:               ID:20140218150001d    3
 2014-02-18-1500-00M.COL___212                                                 6
 STAT SP IPHASW D HRMM SECON CODA AMPLIT PERI AZIMU VELO AIN AR TRES W  DIS CAZ7
 BAR2 SZ EP       15 4 43.81                             170    0.1110 24.7 185 
 BAR2 SZ ES       15 4 58.41                             170   -0.4610 24.7 185 
 BAR2 SZ I        15 5  0.08       105.6 0.24            168           24.7 185 
 PAM  SZ IP     C 15 4 46.69                             150    0.4110 77.3  41 
 PAM  SN ES       15 5  3.68                             150    0.2210 77.3  41 
 PAM  SZ I        15 5  7.09        20.0 0.54            155           77.3  41 
 RUS  HZ EP       15 4 47.72                             143   -0.2410  102 175 
 RUS  HN ES       15 5  6.57                             143    0.1110  102 175 
 RUS  HZ I        15 5  8.08        20.9 0.30            145            102 175 
 PTB  HZ EP       15 4 50.38                             132   -0.56 9  146 258 
 PTB  HN ES       15 5 11.62                             132   -0.14 9  146 258 
 PTB  HZ I        15 5 13.89        25.9 0.22            131            146 258 
 SPBC HZ EP       15 4 52.83                             129    0.20 9  163 218 
 SPBC HN ES       15 5 14.94                             129    0.17 9  163 218 
 SPBC HZ I        15 5 22.71        32.3 0.20            129            163 218 
 ZAR  HZ EP       15 4 56.76                             122    0.42 9  202 292 
 ZAR  HN ES       15 5 21.59                             122    0.22 9  202 292 
 ZAR  HZ I        15 5 27.00        32.4 0.38            123            202 292 
 NOR  HZ EP       15 5  0.10                             118    0.28 8  234 234 
 NOR  HN ES       15 5 28.06                             118    0.49 8  234 234 
 NOR  HZ I        15 5 37.06        17.9 0.42            119            234 234 
 SML  HZ EP       15 5  0.06                             117   -0.47 8  241 336 
 SML  HE ES       15 5 28.48                             117   -0.35 8  241 336 
 SML  HZ I        15 5 34.38        25.1 0.42            119            241 336 
 CHI  HZ EP       15 5  1.91                             117   -0.07 8  250 195 
 CHI  HN ES       15 5 31.29                             117   -0.11 8  250 195 
 CHI  HZ I        15 5 36.35        13.5 0.46            118            250 195 
 PRA  HZ EP       15 5 17.91                             106    0.14 6  393 209 
 PRA  HN ES       15 5 58.82                             106   -0.70 6  393 209 
 PRA  HZ I        15 6  6.21        17.2 0.30            107            393 209 
                                                                                
