 2014  718 1531  2.1 L   6.848 -73.126141.7  RSN  8 0.4 2.0LRSN                1
 GAP=151        0.92       3.8     4.2  5.7 -0.3011E+01  0.7339E+01 -0.4211E+01E
 Epicentro: LOS SANTOS - SANTANDER                                             3
 ACTION:UPD 15-03-16 20:45 OP:nd   STATUS:               ID:20140718153102 L   I
 OLDACT:REG 14-07-18 21:18 OP:stll STATUS:               ID:20140718152820     3
 2014-07-18-1528-20M.COL___272                                                 6
 STAT SP IPHASW D HRMM SECON CODA AMPLIT PERI AZIMU VELO AIN AR TRES W  DIS CAZ7
 BAR2 SZ EP       1531 21.28                             168   -0.1310 28.9 192 
 BAR2 SZ ES       1531 36.35                             168   -0.1010 28.9 192 
 BAR2 SZ I        1531 37.83        35.1 0.18            168           28.9 192 
 BRR  HZ EP       1531 22.96                             152    0.1310 70.8 294 
 BRR  HE ES       1531 39.42                             152    0.4510 70.8 294 
 BRR  HZ I        1531 43.91        16.7 0.36            146           70.8 294 
 PAM  SZ EP       1531 23.83                             152    0.2310 72.0  41 
 PAM  SN ES       1531 40.25                             152   -0.1010 72.0  41 
 PAM  SZ I        1531 43.26        16.3 0.56            148           72.0  41 
 PTB  HZ EP   4   1531 27.99                             130   -1.09 0  151 257 
 PTB  HN ES       1531 49.61                             130   -0.48 9  151 257 
 PTB  HZ I        1531 52.48         8.8 0.16            125            151 257 
 SPBC HZ EP       1531 31.40                             127    0.54 9  169 218 
 SPBC HN ES       1531 52.99                             127   -0.27 9  169 218 
 ZAR  HZ EP       1531 34.05                             121   -0.28 9  204 291 
 ZAR  HN ES       1531 59.62                             121    0.18 9  204 291 
 ZAR  HZ I        1532  1.97         9.7 0.32            116            204 291 
 SML  HZ EP       1531 37.26                             117   -0.86 8  240 334 
 SML  HE ES       1532  6.17                             117   -0.01 8  240 334 
 SML  HZ I        1532  8.08        13.6 0.24            112            240 334 
 URE  HZ EP       1531 43.65                             113    0.63 7  284 291 
 URE  HZ I        1532 15.90         7.4 0.12            109            284 291 
                                                                                
