 2012  918 1053 40.6 L   6.686 -73.200144.0  RSN  6 0.3 1.8LRSN                1
 GAP=169        0.71       5.7     5.1  7.3  0.1186E+02 -0.4477E+01 -0.4296E+01E
 Epicentro: VILLANUEVA - SANTANDER                                             3
 ACTION:UPD 12-10-22 14:19 OP:ep   STATUS:               ID:20120918105340 L   I
 2012-09-18-1050-00M.COL___227                                                 6
 STAT SP IPHASW D HRMM SECON CODA AMPLIT PERI AZIMU VELO AIN AR TRES W  DIS CAZ7
 BAR2 SZ EP       1053 59.95                             176    0.0710 10.6 169 
 BAR2 SZ ES   1   1054 14.41                             176   -0.46 7 10.6 169 
 BAR2 SZ I        1054 15.95        14.5 0.27                          10.6 169 
 GIR2 SZ EP   1   1053 59.99                             162   -0.51 7 43.4   1 
 BRR  HZ EP       1054  1.69                             152   -0.0310 73.3 309 
 BRR  HZ I        1054  1.95        18.2 0.18                          73.3 309 
 BRR  HN ES       1054 18.61                             152    0.4510 73.3 309 
 RUS  HZ EP   1   1054  3.74                             147    0.34 7 88.7 172 
 RUS  HN ES   1   1054 21.27                             147    0.13 7 88.7 172 
 PTB  HN ES       1054 26.95                             133   -0.18 9  140 263 
 ZAR  HN ES   2   1054 37.92                             122   -0.21 4  204 296 
 ZAR  HZ I        1054 42.02         3.6 0.15                           204 296 
                                                                                
