 2012 1218 1356 33.7 L   6.822 -73.172128.9  RSN  5 0.4 1.2LRSN                1
 GAP=145        0.86       7.0     6.8 12.1 -0.2566E+02  0.3445E+02 -0.1578E+02E
 Epicentro: LOS SANTOS - SANTANDER                                             3
 ACTION:UPD 13-01-04 14:28 OP:ep   STATUS:               ID:20121218135633 L   I
 2012-12-18-1350-00M.COL___242                                                 6
 STAT SP IPHASW D HRMM SECON CODA AMPLIT PERI AZIMU VELO AIN AR TRES W  DIS CAZ7
 BAR2 SZ EP   1   1356 50.97                             168   -0.36 7 25.4 183 
 BAR2 SZ ES   1   1357  4.71                             168   -0.39 7 25.4 183 
 PAM  SZ EP   1   1356 53.78                             147   -0.35 7 77.5  42 
 PAM  SN ES   1   1357 10.77                             147    0.68 7 77.5  42 
 PAM  SZ I        1357 12.66         2.6 0.30                          77.5  42 
 RUS  HN ES   1   1357 13.59                             139    0.15 7  103 175 
 PTB  HN ES   1   1357 18.70                             128   -0.22 7  145 258 
 PTB  HZ I        1357 25.29         2.4 0.52                           145 258 
 NOR  HN ES   1   1357 36.17                             115    0.72 6  234 234 
 NOR  HZ I        1357 37.47         1.8 0.13                           234 234 
                                                                                
