 2016  618 1027 32.1 L   6.358 -73.659101.3  RSN  7 0.5 1.5LRSN                1
 GAP=110        1.13       4.9     4.0  9.7  0.2955E+01  0.1679E+02 -0.3886E+00E
 Epicentro: SANTA HELENA DEL OPON - SANTANDER                                  3
 ACTION:UPD 16-07-21 22:20 OP:rebc STATUS:               ID:20160618102732 L   I
 OLDACT:DUP 16-06-18 21:14 OP:dnl  STATUS:               ID:20160618101743d    3
 OLDACT:REG 16-06-18 20:29 OP:dnl  STATUS:               ID:20160618101742     3
 2016-06-18-1017-42M.COL___337                                                 6
 STAT SP IPHASW D HRMM SECON CODA AMPLIT PERI AZIMU VELO AIN AR TRES W  DIS CAZ7
 BAR2 EZ EP       1027 48.35                             147    0.2110 58.7  64 
 BAR2 EZ ES       1028  0.89                             147    0.2510 58.7  64 
 BAR2 EZ I        1028  2.23        30.1 0.24                          58.7  64 
 RUS  HZ EP       1027 50.38                             138    0.1710 82.0 129 
 RUS  HN ES       1028  4.12                             138   -0.2010 82.0 129 
 RUS  HZ I        1028  6.79         3.7 0.18                          82.0 129 
 PTB  HZ EP       1027 49.46                             135   -0.8010 90.4 283 
 PTB  HN ES       1028  3.88                             135   -0.5410 90.4 283 
 PTB  HZ I        1028  6.80         7.1 0.44                          90.4 283 
 SPBC HZ EP       1027 50.12                             135   -0.2510 90.5 210 
 SPBC HE ES   2   1028  5.30                             135    0.68 5 90.5 210 
 SPBC HZ I        1028  8.09         8.2 0.22                          90.5 210 
 NOR  HZ EP   2   1027 57.20                             117   -0.07 5  160 237 
 NOR  HE ES       1028 17.46                             117    0.56 9  160 237 
 NOR  HZ I        1028 20.28         5.3 0.16                           160 237 
 ZAR  HZ EP       1027 59.38                             113   -0.29 9  182 314 
 ZAR  HN ES       1028 22.00                             113    0.84 9  182 314 
 ZAR  HZ I        1028 25.77         4.4 0.14                           182 314 
 GUY2CHZ EP   2   1028  6.05                             108    0.74 4  227 237 
 GUY2CHN ES   4   1028 33.52                             108    2.31 0  227 237 
 GUY2CHZ I        1028 38.21         3.1 0.50                           227 237 
                                                                                
