 2015 1118 1736 29.8 L   6.813 -73.094152.4  RSN 19 0.6 2.4LRSN                1
 GAP=123        1.12       3.3     4.7  5.6 -0.3262E+01  0.5829E+01 -0.9219E+00E
 Epicentro: LOS SANTOS - SANTANDER                                             3
 ACTION:UPD 15-12-28 16:11 OP:cam  STATUS:               ID:20151118173629 L   I
 OLDACT:UP  15-11-18 22:49 OP:dnl  STATUS:               ID:20151118172750     3
 OLDACT:UP  15-11-18 22:40 OP:dnl  STATUS:               ID:20151118172750     3
 OLDACT:REG 15-11-18 21:12 OP:dnl  STATUS:               ID:20151118172750     3
 2015-11-18-1727-50M.COL___304                                                 6
 STAT SP IPHASW D HRMM SECON CODA AMPLIT PERI AZIMU VELO AIN AR TRES W  DIS CAZ7
 BAR2 EZ IP     D 1736 50.43                             170    0.0910 26.3 202 
 BAR2 EZ ES       1737  5.85                             170   -0.4710 26.3 202 
 BAR2 EZ I        1737  6.59        46.6 0.28            164           26.3 202 
 PAM  EZ IP     D 1736 53.22                             153    0.7110 72.7  37 
 PAM  EE ES       1737 10.84                             153    0.6510 72.7  37 
 PAM  EZ I        1737 11.78        14.7 0.14            157           72.7  37 
 BRR  HZ EP     D 1736 52.24                             152    0.2810 75.6 295 
 BRR  HE ES       1737  9.67                             152    0.4610 75.6 295 
 BRR  HZ I        1737 13.42        29.5 0.44            145           75.6 295 
 RUS  HZ EP       1736 54.38                             145    0.0310  102 179 
 RUS  HE ES       1737 12.66                             145   -0.7910  102 179 
 RUS  HZ I        1737 13.89        23.4 0.46            145            102 179 
 OCA  HZ EP       1736 58.74                             131    0.12 9  160 351 
 OCA  HE ES       1737 20.98                             131   -0.08 9  160 351 
 OCA  HZ I        1737 24.57        76.1 0.18            130            160 351 
 SPBC HZ EP       1736 59.53                             130    0.22 9  168 220 
 SPBC HE ES       1737 21.86                             130   -0.43 9  168 220 
 SPBC HZ I        1737 22.95        42.1 0.23            127            168 220 
 ZAR  HZ EP       1737  2.19                             123   -1.03 8  209 291 
 ZAR  HE ES       1737 28.88                             123   -0.36 8  209 291 
 ZAR  HZ I        1737 35.11        23.0 0.20            120            209 291 
 NOR  HZ EP       1737  7.13                             119    0.58 8  240 235 
 NOR  HE ES   2   1737 34.29                             119   -0.89 4  240 235 
 NOR  HZ I        1737 42.12        15.2 0.48            117            240 235 
 SML  HZ EP       1737  6.75                             119   -0.22 8  245 334 
 SML  HN ES   2   1737 35.56                             119   -0.37 4  245 334 
 SML  HZ I        1737 38.26        27.5 0.07            117            245 334 
 ROSC BZ EP   2   1737  9.97                             118    1.17 4  257 212 
 ROSC BN ES   2   1737 39.88                             118    0.71 4  257 212 
 ROSC BZ I        1737 46.30        19.0 0.40            116            257 212 
 HEL  HZ EP   2   1737 11.95                             115    0.90 4  278 256 
 HEL  HN ES   2   1737 43.01                             115   -0.18 4  278 256 
 HEL  HZ I        1737 51.16         6.5 0.26            114            278 256 
 URE  HZ EP   1   1737 11.03                             114   -0.74 5  289 291 
 URE  HN ES   4   1737 41.97                             114   -2.50 0  289 291 
 URE  HZ I        1737 53.81        14.9 0.20            113            289 291 
 SOCV BZ EP       1737 11.83                             114   -0.76 7  296  56 
 SOCV BN ES   4   1737 43.45                             114   -2.48 0  296  56 
 GUY2CHZ EP   2   1737 15.28                             113    0.89 4  307 235 
 GUY2CHE ES   2   1737 50.14                             113    1.01 4  307 235 
 GUY2CHZ I        1737 58.25         9.7 0.36                           307 235 
 ELA  HZ EP   4   1737 20.14                             111    2.55 0  334 230 
 ELA  HN ES   4   1737 52.60                             111   -2.22 0  334 230 
 ELA  HZ I        1738  3.91         9.1 0.56            110            334 230 
 MON  HZ EP   4   1737 24.80                             109    5.28 0  357 308 
 MON  HN ES   4   1737 56.62                             109   -1.65 0  357 308 
 MON  HZ I        1738 11.45         8.6 0.54            108            357 308 
 ANIL HZ EP   4   1737 22.00                             109    1.50 0  362 225 
 ANIL HE ES   4   1738  1.87                             109    1.87 0  362 225 
 ANIL HZ I        1738  4.69        18.7 0.37            108            362 225 
 PRA  HZ EP   2   1737 24.19                             107    0.11 3  396 210 
 PRA  HE ES       1738  7.03                             107    0.64 6  396 210 
 PRA  HZ I        1738 12.96         8.9 0.24            107            396 210 
 SJC  HZ EP   2   1737 24.75                             107   -1.11 3  411 326 
 SJC  HN ES   4   1738  6.12                             107   -3.42 0  411 326 
 SJC  HZ I        1738 10.09         4.7 0.61            106            411 326 
                                                                                
