 2010  318 1916 27.1 L   7.418 -73.133128.4  RSN  9 0.4 2.2LRSN                1
 GAP=119        0.79       4.3     6.3  6.8 -0.2298E+01 -0.8697E+01 -0.3556E+01E
 Epicentro: EL PLAYON - SANTANDER                                              3
 ACTION:UP  10-08-24 09:54 OP:vdl  STATUS:               ID:20100318191627 L   I
 2010-03-18-1912-09S.COL___098                                                 6
 STAT SP IPHASW D HRMM SECON CODA AMPLIT PERI AZIMU VELO SNR AR TRES W  DIS CAZ7
 BRR  HZ IP       1916 46.46                             150     0.010   73 242 
 BRR  HE ES   1   1917  1.67                             150     0.1 7   73 242 
 BRR  HZ I        1917  2.45        32.4 0.21                            73 242 
 BAR2 SZ IP       1916 48.18                             143     0.010   92 184 
 BAR2 SZ ES   1   1917  4.92                             143     0.4 7   92 184 
 OCA  SZ EP   1   1916 48.22                             142     0.1 7   93 347 
 OCA  SZ I        1916 48.72        59.7 0.22                            93 347 
 OCA  SZ ES   2   1917  4.80                             142     0.3 5   93 347 
 RUS  HZ EP   1   1916 54.80                             125    -0.6 7  169 178 
 RUS  HE ES   2   1917 17.02                             125    -0.5 5  169 178 
 RUS  HZ I        1917 20.81         5.6 0.47                           169 178 
 HEL  HZ EP   2   1917  9.98                             110     0.6 4  298 243 
 HEL  HZ I        1917 49.03         7.4 0.37                           298 243 
 CHI  HZ EP   2   1917 11.61                             108     0.1 3  315 192 
 CHI  HZ I        1917 13.90         4.1 0.36                           315 192 
 CHI  HE ES   2   1917 46.58                             108     0.4 3  315 192 
 SDV  BZ IP       1917 11.95                             108     0.2 7  320  59 
 SDV  BZ I        1917 13.20        14.2 0.07                           320  59 
 DBB  SZ IP       1917 13.60                             106    -0.7 7  343 263 
 TOL  SZ EP   2   1917 22.37                             104     1.5 3  396 218 
                                                                                
