 2017  818 1302  5.7 L   6.793 -73.585 18.7  RSN  8 0.4 1.5LRSN                1
 GAP= 80        0.90       2.3     2.9  4.8  0.3243E+01  0.1031E+02  0.5006E+01E
 Epicentro: EL CARMEN - SANTANDER                                              3
 ACTION:UPD 17-09-04 20:21 OP:rebc STATUS:               ID:20170818130205 L   I
 OLDACT:UP  17-08-18 21:43 OP:and  STATUS:               ID:20170818125738     3
 OLDACT:REG 17-08-18 20:23 OP:and  STATUS:               ID:20170818125738     3
 2017-08-18-1258-00M.COL___407                                                 6
 STAT SP IPHASW D HRMM SECON CODA AMPLIT PERI AZIMU VELO AIN AR TRES W  DIS CAZ7
 BRR  HZ EP       13 2 12.40                             113   -0.0810 37.4 338 
 BRR  HZ I        13 2 17.48        29.5 0.18            116           37.4 338 
 BRR  HN ES       13 2 17.68                             113   -0.0610 37.4 338 
 BAR2 EZ IP     D 13 2 14.73                             108    0.2410 49.7 117 
 BAR2 EZ ES       13 2 21.42                             108    0.1110 49.7 117 
 BAR2 EZ I        13 2 23.76        35.8 0.26            111           49.7 117 
 RUS  HZ EP       13 2 24.63                              98    0.3510  114 151 
 RUS  HN ES       13 2 37.89                              98   -0.8410  114 151 
 RUS  HZ I        13 2 39.70         7.0 0.16             99            114 151 
 PAM  EZ EP       13 2 24.62                              98    0.2010  115  58 
 PAM  EN ES       13 2 38.80                              98   -0.1810  115  58 
 PAM  EZ I        13 2 41.48        11.8 0.14             99            115  58 
 SPBC HZ EP       13 2 27.50                              56    0.50 9  137 203 
 ZAR  HZ EP       13 2 30.19                              56    0.38 9  160 299 
 ZAR  HN ES       13 2 48.04                              56   -0.54 9  160 299 
 ZAR  HZ I        13 2 49.76         7.9 0.13             56            160 299 
 NOR  HZ EP       13 2 34.33                              56   -0.06 9  197 226 
 NOR  HE ES   3   13 2 57.33                              56    0.59 2  197 226 
 NOR  HZ I        13 2 59.93         5.8 0.52             56            197 226 
 HEL  HZ EP   2   13 2 38.80                              56    0.48 4  225 253 
 HEL  HN ES       13 3  3.53                              56   -0.20 8  225 253 
                                                                                
