 2011  218 1244 13.3 L   6.823 -73.170147.9  RSN  9 0.2 2.1LRSN                1
 GAP=156        0.57       3.1     5.3  4.7 -0.8676E+01  0.3446E+01  0.4040E+01E
 Epicentro: LOS SANTOS - SANTANDER                                             3
 ACTION:UP  11-03-28 15:09 OP:jfem STATUS:               ID:20110218124413 L   I
 2011-02-18-1242-25S.COL___137                                                 6
 STAT SP IPHASW D HRMM SECON CODA AMPLIT PERI AZIMU VELO SNR AR TRES W  DIS CAZ7
 BTL  SZ IP       1244 33.36                             174     0.310   15 315 
 BAR2 SZ IP       1244 33.10                             170    -0.110   26 183 
 BAR2 SZ ES   1   1244 48.72                             170    -0.1 7   26 183 
 BAR2 SZ I        1244 50.69        26.0 0.34                            26 183 
 GIR2 SZ EP       1244 33.15                             169     0.010   28 355 
 GIR2 SZ ES   1   1244 48.79                             169     0.1 7   28 355 
 RUS  HZ EP       1244 37.41                             143    -0.110  103 175 
 RUS  HZ I        1244 58.47        11.0 0.56                           103 175 
 GRA  SZ IP       1244 38.91                             138     0.310  124  19 
 GRA  SZ ES   1   1244 58.44                             138     0.1 7  124  19 
 GRA  SZ I        1244 59.63        17.1 0.04                           124  19 
 OCA  SZ ES   1   1245  2.96                             131    -0.6 7  157 354 
 NOR  SZ EP       1244 48.98                             119    -0.1 8  234 234 
 NOR  SN ES   1   1245 17.04                             119     0.0 6  234 234 
 CHI  HZ EP       1244 51.10                             117    -0.2 8  250 194 
 RREF HZ EP   3   1244 59.46                             111     0.0 2  321 229 
 RREF HN ES   2   1245 35.98                             111     0.5 3  321 229 
 RREF HZ I        1245 44.72         8.0 0.41                           321 229 
                                                                                
