 2014  218 1525 11.1 L   6.816 -73.185144.8  RSN 10 0.4 2.4LRSN                1
 GAP=131        0.88       2.5     3.6  5.1 -0.9080E+00  0.6402E+01  0.5804E-01E
 Epicentro: ZAPATOCA - SANTANDER                                               3
 ACTION:UPD 14-03-10 08:11 OP:ep   STATUS:               ID:20140218152511 L   I
 OLDACT:REG 14-02-18 15:54 OP:carl STATUS:               ID:20140218152000     3
 2014-02-18-1520-00M.COL___212                                                 6
 STAT SP IPHASW D HRMM SECON CODA AMPLIT PERI AZIMU VELO AIN AR TRES W  DIS CAZ7
 BAR2 SZ EP       1525 30.59                             170   -0.0110 24.7 179 
 BAR2 SZ ES       1525 46.25                             170    0.4010 24.7 179 
 BAR2 SZ I        1525 47.10       105.7 0.32            169           24.7 179 
 PAM  SZ EP     D 1525 33.39                             150    0.1210 78.9  43 
 PAM  SE ES       1525 50.52                             150   -0.0710 78.9  43 
 PAM  SZ I        1525 52.69        14.0 0.56            155           78.9  43 
 RUS  HZ EP       1525 34.58                             143   -0.2910  103 174 
 RUS  HN ES       1525 53.31                             143   -0.1410  103 174 
 RUS  HZ I        1525 54.68        23.0 0.24            145            103 174 
 PTB  HZ EP       1525 37.32                             133   -0.27 9  144 258 
 PTB  HN ES       1525 58.06                             133   -0.23 9  144 258 
 PTB  HZ I        1526  3.97        19.0 0.54            131            144 258 
 SPBC HZ EP       1525 39.52                             129    0.16 9  162 217 
 SPBC HN ES       1526  1.42                             129   -0.01 9  162 217 
 SPBC HZ I        1526  4.41        22.6 0.26            129            162 217 
 ZAR  HZ EP       1525 43.42                             123    0.46 9  199 292 
 ZAR  HN ES       1526  8.38                             123    0.55 9  199 292 
 ZAR  HZ I        1526 15.26        20.2 0.30            123            199 292 
 NOR  HZ EP       1525 47.08                             119    0.62 8  232 233 
 NOR  HN ES       1526 13.13                             119   -0.95 8  232 233 
 NOR  HZ I        1526 22.54       174.9 1.12            119            232 233 
 SML  HZ EP       1525 47.03                             118   -0.23 8  240 336 
 SML  HN ES       1526 15.06                             118   -0.44 8  240 336 
 SML  HZ I        1526 21.91        29.3 0.10            119            240 336 
 CHI  HZ EP       1525 48.76                             117   -0.01 8  249 194 
 CHI  HN ES       1526 18.20                             117    0.02 8  249 194 
 CHI  HZ I        1526 23.48         9.8 0.30            118            249 194 
 PRA  HZ EP       1526  4.22                             106   -0.26 6  391 209 
 PRA  HE ES       1526 46.98                             106    0.84 6  391 209 
 PRA  HZ I        1526 52.97         9.8 0.34            107            391 209 
                                                                                
