 2013  918 1737 39.4 L   6.752 -73.162155.3  RSN  6 0.2 1.8LRSN                1
 GAP=199        0.51       2.9     3.5  4.3  0.2665E+01  0.1256E+01 -0.2357E+01E
 Epicentro: LOS SANTOS - SANTANDER                                             3
 ACTION:UPD 13-10-22 09:23 OP:ep   STATUS:               ID:20130918173739 L   I
 OLDACT:REG 13-09-18 15:42 OP:jn   STATUS:               ID:20130918172960d    3
 2013-09-18-1729-59M.COL___269                                                 6
 STAT SP IPHASW D HRMM SECON CODA AMPLIT PERI AZIMU VELO AIN AR TRES W  DIS CAZ7
 BAR2 SZ EP       1738  0.01                             173   -0.1310 17.8 187 
 BAR2 SZ ES       1738 16.04                             173   -0.2410 17.8 187 
 BAR2 SZ I        1738 16.57        10.7 0.56            168           17.8 187 
 BRR  HZ EP       1738  1.89                             154    0.1910 72.3 303 
 BRR  HN ES   1   1738 19.45                             154    0.39 7 72.3 303 
 RUS  HZ EP       1738  3.85                             147    0.0410 95.5 175 
 RUS  HN ES       1738 22.88                             147    0.0710 95.5 175 
 RUS  HZ I        1738 24.36         7.0 0.22            146           95.5 175 
 PTB  HZ EP       1738  6.87                             135   -0.10 9  145 261 
 PTB  HN ES       1738 28.21                             135   -0.23 9  145 261 
 PTB  HZ I        1738 33.83         7.3 0.34            132            145 261 
 SPBC HN ES   1   1738 30.94                             132    0.28 7  158 220 
 SPBC HZ I        1738 33.78        17.5 0.38            130            158 220 
 SML  HE ES   1   1738 46.39                             119   -0.01 6  248 336 
                                                                                
