 2014  318 1653 37.4 L   7.448 -73.216134.0  RSN 21 0.4 2.9LRSN                1
 GAP= 66        0.78       1.9     2.5  3.7 -0.2537E+00  0.2125E+01 -0.2677E+00E
 Epicentro: EL PLAYON - SANTANDER                                              3
 OLDACT:REG 14-03-18 15:23 OP:fm   STATUS:               ID:20140318164805     3
 ACTION:UPD 14-04-09 23:18 OP:nd   STATUS:               ID:20140318165337 L   I
 OLDACT:UP  14-03-18 17:36 OP:fm   STATUS:               ID:20140318164805     3
 2014-03-18-1648-05M.COL___238                                                 6
 STAT SP IPHASW D HRMM SECON CODA AMPLIT PERI AZIMU VELO AIN AR TRES W  DIS CAZ7
 PAM  SZ IP     D 1653 57.62                             155    0.3110 58.3 102 
 PAM  SN ES       1654 12.73                             155   -0.0910 58.3 102 
 PAM  SZ I        1654 14.67       324.8 0.94            158           58.3 102 
 BRR  HZ IP     C 1653 57.35                             152    0.3110 66.4 236 
 BRR  HN ES       1654 12.38                             152    0.0510 66.4 236 
 BRR  SZ I        1654 13.40       246.6 0.10            148           66.4 236 
 OCA  HZ EP       1653 58.80                             145    0.1410 88.2 353 
 OCA  HN ES       1654 15.50                             145    0.2810 88.2 353 
 OCA  SZ I        1654 17.46       210.2 0.16            145           88.2 353 
 BAR2 SZ EP     D 1653 59.33                             143    0.0910 94.7 178 
 BAR2 SZ ES   1   1654 15.61                             143   -0.65 7 94.7 178 
 PTB  HZ EP       1654  5.47                             125   -0.15 9  170 234 
 PTB  HN ES       1654 27.64                             125    0.03 9  170 234 
 PTB  SZ I        1654 29.77       153.7 0.26            123            170 234 
 RUS  HZ EP       1654  6.25                             125   -0.27 9  173 175 
 RUS  HN ES   1   1654 28.68                             125   -0.53 7  173 175 
 RUS  SZ I        1654 33.79        22.3 0.64            124            173 175 
 SML  HZ EP       1654  5.96                             124   -0.34 9  177 328 
 SML  HN ES   4   1654 27.68                             124   -1.13 0  177 328 
 SML  SZ I        1654 30.67       249.6 0.10            123            177 328 
 ZAR  HZ EP       1654  7.21                             123    0.45 9  181 272 
 ZAR  HE ES   4   1654 30.86                             123    1.22 0  181 272 
 ZAR  SZ I        1654 33.36       166.7 0.20            121            181 272 
 TAM  HZ EP     D 1654  8.22                             121    0.18 9  193 125 
 TAM  HN ES       1654 31.92                             121    0.00 9  193 125 
 TAM  SZ I        1654 32.88        58.4 0.26            121            193 125 
 SPBC HZ EP       1654 11.49                             118    0.54 8  220 206 
 SPBC HE ES   4   1654 38.36                             118    1.27 0  220 206 
 SPBC SZ I        1654 39.85        87.1 0.24            116            220 206 
 URE  HZ EP       1654 14.16                             113   -0.86 8  258 278 
 URE  HN ES   4   1654 42.74                             113   -1.59 0  258 278 
 URE  SZ I        1654 45.96        94.1 0.34            112            258 278 
 COD  HZ EP       1654 17.21                             112    0.14 7  276 355 
 COD  HN ES       1654 47.41                             112   -0.58 7  276 355 
 COD  SZ I        1654 56.58        17.3 0.48            112            276 355 
 NOR  HZ EP       1654 17.56                             112    0.31 7  277 221 
 NOR  HN ES   1   1654 49.02                             112    0.71 6  277 221 
 NOR  SZ I        1654 54.02        34.7 0.30            111            277 221 
 HEL  HZ EP   4   1654 21.01                             111    1.80 0  291 242 
 HEL  HN ES   4   1654 50.85                             111   -0.95 0  291 242 
 HEL  SZ I        1655  0.78        46.1 0.36            110            291 242 
 CHI  HZ EP   4   1654 24.12                             109    1.88 0  317 190 
 CHI  HN ES       1654 56.83                             109   -0.36 7  317 190 
 CHI  SZ I        1655 10.15        19.0 0.46            108            317 190 
 SDV  BZ EP       1654 23.00                             108   -0.05 7  326  61 
 SDV  BN ES   4   1654 56.81                             108   -1.82 0  326  61 
 DBB  SZ EP       1654 23.97                             108    0.15 7  334 262 
 DBB  SZ ES   4   1654 56.44                             108   -3.56 0  334 262 
 GUY2CHZ EP   4   1654 26.60                             107    1.36 0  342 224 
 GUY2CHN ES   1   1655  1.97                             107   -0.56 5  342 224 
 GUY2CSZ I        1655 12.40        32.0 0.34                           342 224 
 SJC  HZ EP       1654 24.91                             107   -0.33 6  346 322 
 SJC  HN ES   4   1655  0.68                             107   -1.86 0  346 322 
 SJC  SZ I        1655  3.84        24.0 0.38            106            346 322 
 RREF HZ EP   4   1654 30.89                             106    2.49 0  367 220 
 RREF HN ES   4   1655 11.56                             106    3.41 0  367 220 
 RREF SZ I        1655 20.00        37.6 0.34            105            367 220 
 ORTC HZ EP   1   1654 37.82                             102    0.22 4  451 210 
 ORTC HE ES   1   1655 24.40                             102   -0.13 4  451 210 
 ORTC SZ I        1655 33.36        17.6 0.40            101            451 210 
                                                                                
