 2010  218 1442 22.9 L   6.796 -73.049144.2  RSN  7 0.4 2.4LRSN                1
 GAP=133        0.80       4.0     6.2  5.8 -0.3885E+01  0.1408E+01 -0.3112E+01E
 Epicentro: LOS SANTOS - SANTANDER                                             3
 ACTION:UP  10-08-24 09:49 OP:vdl  STATUS:               ID:20100218144222 L   I
 2010-02-18-1440-00S.COL___098                                                 6
 STAT SP IPHASW D HRMM SECON CODA AMPLIT PERI AZIMU VELO SNR AR TRES W  DIS CAZ7
 BAR2 SZ IP       1442 42.49                             169     0.110   27 213 
 BAR2 SZ ES   1   1442 56.79                             169    -0.9 7   27 213 
 GIR2 SZ EP   1   1442 42.66                             166     0.2 7   35 333 
 GIR2 SZ ES   1   1442 58.13                             166     0.3 7   35 333 
 RUS  BZ EP       1442 46.61                             144     0.110  100 182 
 RUS  BE ES   1   1443  5.15                             144     0.3 7  100 182 
 RUS  BZ I        1443  6.88        19.1 0.32                           100 182 
 OCA  SZ EP       1442 50.99                             129    -0.3 9  162 349 
 OCA  SZ ES   1   1443 13.60                             129     0.2 7  162 349 
 OCA  SZ I        1443 16.46        66.5 0.25                           162 349 
 HEL  HZ EP   1   1443  4.24                             113     0.0 6  282 256 
 HEL  HN ES   1   1443 36.64                             113     0.3 6  282 256 
 SDV  BZ IP       1443 12.08                             108     0.1 6  353  49 
 PRA  HZ EP   1   1443 16.19                             106    -0.8 4  397 211 
 PRA  HZ I        1444  5.99         6.7 0.34                           397 211 
                                                                                
