 2017 1218 1503 22.8 L   6.820 -73.165144.7  RSN  5 0.4 1.7LRSN                1
 GAP=143        0.88       6.6     4.7  8.0 -0.2344E+01  0.7449E+01 -0.1752E+02E
 Epicentro: LOS SANTOS - SANTANDER                                             3
 ACTION:UPD 18-01-04 13:21 OP:rebc STATUS:               ID:20171218150322 L   I
 OLDACT:UP  17-12-18 22:36 OP:dani STATUS:               ID:20171218144957d    3
 OLDACT:UP  17-12-18 22:30 OP:dani STATUS:               ID:20171218144956     3
 OLDACT:REG 17-12-18 20:39 OP:dani STATUS:               ID:20171218144956     3
 2017-12-18-1458-00M.COL___448                                                 6
 STAT SP IPHASW D HRMM SECON CODA AMPLIT PERI AZIMU VELO AIN AR TRES W  DIS CAZ7
 BAR2 EZ EP       15 3 42.20                             170   -0.1310 25.3 184 
 BAR2 EZ ES       15 3 57.48                             170   -0.0910 25.3 184 
 BAR2 EZ I        15 4  0.04        14.1 0.30            167           25.3 184 
 PAM  EZ EP       15 3 45.22                             151    0.3510 77.0  42 
 PTB  HZ EP       15 3 48.91                             132   -0.61 9  146 258 
 PTB  HN ES       15 4 10.09                             132   -0.29 9  146 258 
 PTB  HZ I        15 4 16.94         5.2 0.56            131            146 258 
 SPBC HZ EP   1   15 3 51.64                             129    0.39 7  164 218 
 SPBC HN ES   1   15 4 14.02                             129    0.58 7  164 218 
 SPBC HZ I        15 4 20.28         9.1 0.23            130            164 218 
 ZAR  HZ EP       15 3 54.70                             122   -0.18 9  201 292 
 ZAR  HE ES       15 4 20.37                             122    0.46 9  201 292 
 ZAR  HZ I        15 4 31.58         4.0 0.07            123            201 292 
                                                                                
