 2011  718 1924 53.9 L   6.810 -73.155145.4  RSN  5 0.2 1.7LRSN                1
 GAP=135        0.51       3.4     5.3  5.1 -0.1414E+01 -0.3513E+01 -0.1556E+01E
 Epicentro: LOS SANTOS - SANTANDER                                             3
 ACTION:UPD 12-07-25 14:01 OP:epov STATUS:               ID:20110718192453 L   I
 2011-07-18-1921-37S.COL___142                                                 6
 STAT SP IPHASW D HRMM SECON CODA AMPLIT PERI AZIMU VELO AIN AR TRES W  DIS CAZ7
 BAR2 SZ EP   1   1925 13.14                             170   -0.35 7 24.3 187 
 BAR2 SZ ES   1   1925 29.20                             170    0.42 7 24.3 187 
 BAR2 SZ I        1925 30.94        13.1 0.45                          24.3 187 
 BRR  HZ EP   1   1925 15.02                             153    0.11 7 69.8 298 
 BRR  HE ES   1   1925 31.17                             153   -0.14 7 69.8 298 
 BRR  HZ I        1925 38.18        15.8 0.26                          69.8 298 
 PAM  SZ EP   1   1925 16.05                             151    0.00 7 77.2  41 
 PAM  SE ES   1   1925 33.24                             151   -0.10 7 77.2  41 
 RUS  HZ EP   1   1925 17.93                             143    0.25 7  102 176 
 RUS  HN ES   1   1925 35.99                             143   -0.26 7  102 176 
 RUS  HZ I        1925 36.89         4.9 0.28                           102 176 
 BRI  SZ EP   1   1925 17.75                             141    0.06 7  108  22 
                                                                                
