 2013  418 1658 38.4 L   6.795 -73.133141.5  RSN 15 0.5 2.9LRSN                1
 GAP= 66        1.17       3.0     3.2  5.5 -0.8757E+00  0.2767E+01  0.2172E+01E
 Epicentro: LOS SANTOS - SANTANDER                                             3
 ACTION:UPD 13-05-22 14:39 OP:EP   STATUS:               ID:20130418165838 L   I
 2013-04-18-1648-50M.COL___221                                                 6
 STAT SP IPHASW D HRMM SECON CODA AMPLIT PERI AZIMU VELO AIN AR TRES W  DIS CAZ7
 BAR2 SZ IP     D 1658 57.47                             170   -0.0810 23.0 194 
 BAR2 SZ ES       1659 12.41                             170   -0.0510 23.0 194 
 BAR2 SZ I        1659 13.83       167.8 0.38            166           23.0 194 
 BRR  HZ IP       1658 59.24                             151    0.0210 72.7 298 
 BRR  HN ES       1659 15.93                             151    0.5010 72.7 298 
 BRR  HN I        1659 16.81       371.6 0.22            145           72.7 298 
 PAM  SZ EP       1659  0.18                             150    0.0010 76.9  38 
 PAM  SN ES       1659 17.21                             150    0.0810 76.9  38 
 PAM  SN I        1659 19.27        69.5 0.62            151           76.9  38 
 RUS  HZ EP       1659  1.52                             143   -0.2010 99.9 177 
 RUS  HN ES       1659 19.99                             143    0.1110 99.9 177 
 RUS  HN I        1659 23.19        51.9 0.22            139           99.9 177 
 PTB  HZ EP       1659  4.28                             131   -0.90 9  149 259 
 CAPV BZ EP       1659  5.41                             131   -0.04 9  149  37 
 PTB  HN ES       1659 24.79                             131   -1.25 9  149 259 
 PTB  HN I        1659 30.46       139.0 0.38            125            149 259 
 TAM  HZ IP     C 1659  5.88                             130    0.24 9  154 105 
 TAM  HE ES       1659 27.09                             130    0.24 9  154 105 
 OCA  HZ EP       1659  6.29                             128   -0.21 9  161 353 
 OCA  HN ES       1659 28.57                             128    0.19 9  161 353 
 OCA  HN I        1659 30.10       295.7 0.22            125            161 353 
 YOP  SZ EP       1659  8.34                             125    0.28 9  178 154 
 YOP  SN ES       1659 30.65                             125   -0.52 9  178 154 
 NOR  HZ EP       1659 13.94                             117   -0.07 8  236 235 
 NOR  HN ES       1659 41.89                             117    0.13 8  236 235 
 NOR  HN I        1659 46.35        71.5 0.16            113            236 235 
 CHI  HZ EP       1659 15.60                             116   -0.28 8  248 196 
 CHI  HN ES       1659 45.51                             116    0.42 8  248 196 
 CHI  HN I        1659 47.94        67.1 0.32            113            248 196 
 HEL  HZ EP       1659 19.72                             114    1.14 8  273 256 
 HEL  HN ES       1659 51.10                             114    1.21 8  273 256 
 HEL  HN I        17 0  1.78        17.8 0.46            110            273 256 
 GUY  HZ EP       1659 22.67                             111    0.46 7  304 235 
 GUY  HN I        17 0  4.23        29.0 0.42            108            304 235 
 COD  HZ EP       1659 26.08                             108   -0.66 6  349 354 
 PRA  HZ EP       1659 31.91                             106    0.07 6  392 210 
 PRA  HN ES       17 0 13.14                             106   -0.35 6  392 210 
 PRA  HN I        17 0 18.17        23.2 0.48            103            392 210 
                                                                                
