 2016  118 1255  6.2 L   6.822 -73.160143.0  RSN 14 0.4 2.3LRSN                1
 GAP=134        1.02       2.4     4.0  5.5 -0.2053E+01  0.7775E+01  0.5336E+00E
 Epicentro: LOS SANTOS - SANTANDER                                             3
 ACTION:UPD 16-03-09 23:26 OP:cam  STATUS:               ID:20160118125506 L   I
 OLDACT:UP  16-01-18 22:57 OP:ar   STATUS:               ID:20160118124747     3
 OLDACT:UP  16-01-18 22:55 OP:ar   STATUS:               ID:20160118124747     3
 OLDACT:UP  16-01-18 22:54 OP:ar   STATUS:               ID:20160118124747     3
 OLDACT:REG 16-01-18 20:57 OP:ar   STATUS:               ID:20160118124747     3
 2016-01-18-1247-47M.COL___328                                                 6
 STAT SP IPHASW D HRMM SECON CODA AMPLIT PERI AZIMU VELO AIN AR TRES W  DIS CAZ7
 BAR2 EZ EP     C 1255 25.50                             169   -0.0110 25.5 185 
 BAR2 EZ ES       1255 40.87                             169    0.2710 25.5 185 
 BAR2 EZ I        1255 41.94        44.8 0.32            168           25.5 185 
 PAM  EZ EP     C 1255 28.27                             150    0.2310 76.6  42 
 PAM  EN ES       1255 45.45                             150    0.3510 76.6  42 
 PAM  EZ I        1255 47.54        19.6 0.60            155           76.6  42 
 RUS  HZ EP       1255 29.48                             142   -0.3510  103 175 
 RUS  HN ES       1255 48.39                             142    0.1010  103 175 
 RUS  HZ I        1255 49.40        15.5 0.26            145            103 175 
 PTB  HZ EP       1255 33.24                             132    0.43 9  147 258 
 PTB  HN ES       1255 53.03                             132   -0.56 9  147 258 
 PTB  HZ I        1255 58.82        14.6 0.38            131            147 258 
 OCA  HZ EP       1255 33.30                             129   -0.71 9  158 354 
 OCA  HN ES       1255 55.59                             129   -0.14 9  158 354 
 OCA  HZ I        1256  3.94        43.0 0.44            131            158 354 
 SPBC HZ EP       1255 34.41                             128   -0.13 9  164 218 
 SPBC HN ES       1255 56.18                             128   -0.49 9  164 218 
 SPBC HZ I        1256  2.18        19.0 0.42            129            164 218 
 ZAR  HZ EP       1255 38.68                             122    0.50 9  202 292 
 ZAR  HE ES       1256  3.18                             122    0.03 9  202 292 
 ZAR  HZ I        1256  8.60        16.7 0.28            122            202 292 
 NOR  HZ EP       1255 41.80                             118    0.05 8  235 234 
 NOR  HE ES       1256  9.21                             118   -0.29 8  235 234 
 NOR  HZ I        1256 17.84         6.9 0.18            119            235 234 
 SML  HZ EP       1255 41.61                             117   -0.71 8  241 335 
 SML  HN ES       1256 10.84                             117    0.32 8  241 335 
 SML  HZ I        1256 14.69        26.3 0.26            119            241 335 
 CHI  HZ EP       1255 43.69                             116   -0.23 8  251 195 
 CHI  HN ES       1256 12.67                             116   -0.71 8  251 195 
 CHI  HZ I        1256 16.37         8.6 0.60            118            251 195 
 ROSC BZ EP       1255 45.10                             116    0.83 8  254 210 
 ROSC BE ES       1256 14.57                             116    0.57 8  254 210 
 ROSC BZ I        1256 20.09        22.8 0.35            118            254 210 
 GUY2CHZ EP       1255 50.60                             112    0.94 7  301 234 
 GUY2CHE ES   4   1256 26.71                             112    3.13 0  301 234 
 GUY2CHZ I        1256 31.81         6.1 0.62                           301 234 
 ANIL HN ES       1256 35.04                             108    0.28 6  358 224 
 ANIL HZ I        1256 45.49        19.0 0.38            109            358 224 
 PRA  HZ EP       1255 59.41                             106   -0.34 6  393 209 
 PRA  HE ES       1256 41.60                             106    0.06 6  393 209 
 PRA  HZ I        1256 47.63         9.0 0.44            108            393 209 
                                                                                
