 2017 1018 1738 14.8 L   6.767 -73.154146.5  RSN  8 0.5 1.5LRSN                1
 GAP=112        1.23       5.3     4.9  7.7  0.8421E+01  0.6377E+01  0.8736E+01E
 Epicentro: LOS SANTOS - SANTANDER                                             3
 ACTION:UPD 17-11-07 19:33 OP:rebc STATUS:               ID:20171018173814 L   I
 OLDACT:REG 17-10-18 21:20 OP:edw  STATUS:               ID:20171018172950     3
 2017-10-18-1738-00M.COL___438                                                 6
 STAT SP IPHASW D HRMM SECON CODA AMPLIT PERI AZIMU VELO AIN AR TRES W  DIS CAZ7
 BAR2 EZ EP       1738 34.44                             172   -0.0210 19.6 189 
 BAR2 EZ ES       1738 49.17                             172   -0.6210 19.6 189 
 BAR2 EZ I        1738 50.61         8.8 0.10            171           19.6 189 
 BRR  HZ IP     C 1738 36.20                             152    0.1010 72.3 301 
 BRR  HN ES       1738 53.67                             152    0.9710 72.3 301 
 BRR  HZ I        1738 58.44         9.1 0.52            151           72.3 301 
 PAM  EZ EP       1738 37.42                             150    0.1110 80.8  38 
 PAM  EN ES       1738 54.62                             150   -0.2410 80.8  38 
 PAM  EZ I        1738 57.45         6.9 0.38            153           80.8  38 
 RUS  HZ EP       1738 38.34                             145   -0.0410 97.0 175 
 RUS  HN ES       1738 57.47                             145    0.7110 97.0 175 
 RUS  HZ I        1738 58.93         2.5 0.19            147           97.0 175 
 PTB  HZ EP       1738 41.29                             132   -0.41 9  146 260 
 PTB  HN ES       1739  2.22                             132   -0.45 9  146 260 
 PTB  HZ I        1739  4.77         2.3 0.16            133            146 260 
 YPLC HZ EP       1738 44.73                             127    0.34 9  174 150 
 YPLC HN ES       1739  6.85                             127   -0.61 9  174 150 
 YPLC HZ I        1739  9.79         3.3 0.26            130            174 150 
 ZAR  HN ES       1739 12.33                             122   -0.42 9  205 293 
 ZAR  HZ I        1739 19.18         4.3 0.25            123            205 293 
 NOR  HZ EP       1738 50.74                             119    0.46 8  232 235 
 NOR  HN ES   4   1739 14.64                             119   -3.30 0  232 235 
 NOR  HZ I        1739 23.26         2.7 0.27            120            232 235 
 SJC  HZ EP   4   1739  8.74                             106   -1.96 0  412 327 
 SJC  HN ES   4   1739 49.29                             106   -5.00 0  412 327 
                                                                                
