 2014  318 1548 55.7 L   6.775 -73.148145.9  RSN  4 0.3 1.5LRSN                1
 GAP=139        0.69       4.4     5.3  9.1 -0.1048E+02  0.1908E+02 -0.4672E+01E
 Epicentro: LOS SANTOS - SANTANDER                                             3
 OLDACT:REG 14-03-18 15:19 OP:fm   STATUS:               ID:20140318153805     3
 ACTION:UPD 14-04-09 23:18 OP:nd   STATUS:               ID:20140318154855 L   I
 OLDACT:UP  14-03-18 19:10 OP:fm   STATUS:               ID:20140318153805     3
 2014-03-18-1538-05M.COL___238                                                 6
 STAT SP IPHASW D HRMM SECON CODA AMPLIT PERI AZIMU VELO AIN AR TRES W  DIS CAZ7
 PAM  SZ EP   1   1549 18.20                             150    0.11 7 79.7  38 
 PAM  SE ES       1549 35.62                             150    0.0810 79.7  38 
 PAM  SZ I        1549 37.05         6.7 0.64            156           79.7  38 
 RUS  HZ EP   1   1549 18.90                             145   -0.39 7 97.8 176 
 RUS  HN ES       1549 37.56                             145   -0.1210 97.8 176 
 RUS  SZ I        1549 39.75         6.6 1.30            151           97.8 176 
 PTB  HZ EP   1   1549 22.79                             132    0.16 7  147 260 
 PTB  HN ES   1   1549 43.20                             132   -0.42 7  147 260 
 PTB  SZ I        1549 54.32         3.6 2.38            131            147 260 
 SPBC HN ES   1   1549 46.78                             129    0.70 7  161 220 
                                                                                
