 2017  318 1805 27.8 L   6.532 -73.587112.9  RSN  7 0.3 1.5LRSN                1
 GAP=137        0.79       3.1     3.1  6.7 -0.3322E+01  0.2528E+01 -0.1616E+01E
 Epicentro: EL CARMEN - SANTANDER                                              3
 ACTION:UPD 17-05-25 18:42 OP:jn   STATUS:               ID:20170318180527 L   I
 OLDACT:UP  17-03-19 01:22 OP:dnl  STATUS:               ID:20170318175742     3
 OLDACT:UP  17-03-19 01:22 OP:dnl  STATUS:               ID:20170318175742     3
 OLDACT:REG 17-03-18 23:07 OP:dnl  STATUS:               ID:20170318175742     3
 2017-03-18-1758-00M.COL___409                                                 6
 STAT SP IPHASW D HRMM SECON CODA AMPLIT PERI AZIMU VELO AIN AR TRES W  DIS CAZ7
 BAR2 EZ IP     D 18 5 44.63                             157    0.3210 45.2  81 
 BAR2 EZ ES       18 5 57.27                             157    0.0810 45.2  81 
 BAR2 EZ I        18 5 58.15        18.3 0.22            159           45.2  81 
 RUS  HZ EP   2   18 5 47.97                             139    0.36 5 90.0 142 
 RUS  HN ES       18 6  3.04                             139   -0.0210 90.0 142 
 RUS  HZ I        18 6  3.51         5.1 0.28            139           90.0 142 
 PTB  HZ IP     D 18 5 47.42                             137   -0.0310 96.2 271 
 PTB  HN ES       18 6  2.53                             137   -0.2610 96.2 271 
 PTB  HZ I        18 6  4.07         7.4 0.52            132           96.2 271 
 SPBC HZ EP   2   18 5 49.22                             132    0.36 5  111 209 
 SPBC HN ES       18 6  5.72                             132    0.4310  111 209 
 SPBC HZ I        18 6  7.74         8.9 0.10            129            111 209 
 PAM  EZ EP       18 5 51.59                             127    0.1710  133  48 
 PAM  EE ES       18 6  9.46                             127   -0.3910  133  48 
 PAM  EZ I        18 6 10.66         4.2 0.18            126            133  48 
 ZAR  HZ EP   4   18 5 57.40                             118    2.13 0  176 307 
 ZAR  HN ES   4   18 6 20.13                             118    3.42 0  176 307 
 ZAR  HZ I        18 6 24.22         5.0 0.28            115            176 307 
 CHI  HZ EP   4   18 6  1.65                             113    2.03 0  211 184 
 CHI  HE ES       18 6 23.78                             113   -0.67 8  211 184 
 CHI  HZ I        18 6 29.17         1.7 0.56            112            211 184 
                                                                                
