 2010 1018 1633  5.9 L   6.698 -73.206144.1  RSN  4 0.3 1.8LRSN                1
 GAP=219        0.57       8.3    10.4  7.9  0.5161E+02  0.3584E+02  0.1821E+02E
 Epicentro: VILLANUEVA - SANTANDER                                             3
 ACTION:UP  11-02-18 11:10 OP:tino STATUS:               ID:20101018163305 L   I
 2010-10-18-1630-56S.COL___123                                                 6
 STAT SP IPHASW D HRMM SECON CODA AMPLIT PERI AZIMU VELO SNR AR TRES W  DIS CAZ7
 BAR2 SZ IP     C 1633 25.16                             175     0.010   12 168 
 BAR2 SZ I        1633 25.52        14.4 0.31                            12 168 
 BAR2 SZ ES   2   1633 39.57                             175    -0.6 5   12 168 
 BRR  HZ EP   1   1633 27.11                             152     0.2 7   72 309 
 BRR  HZ I        1633 27.51        25.4 0.09                            72 309 
 BRR  HN ES   2   1633 43.51                             152     0.2 5   72 309 
 RUS  HZ EP   1   1633 28.72                             146    -0.1 7   90 171 
 RUS  HN ES   2   1633 47.03                             146     0.4 5   90 171 
 RUS  HZ I        1633 50.63         4.3 0.44                            90 171 
 HEL  HZ EP   1   1633 44.83                             115    -0.2 6  263 258 
                                                                                
