 2013  218 1433 56.1 L   6.801 -73.173151.9  RSN  4 0.2 1.4LRSN                1
 GAP=235        0.54       4.9     5.0  5.2  0.1513E+02  0.2266E+01  0.7191E+01E
 Epicentro: LOS SANTOS - SANTANDER                                             3
 ACTION:UPD 13-03-12 09:34 OP:ep   STATUS:               ID:20130218143356 L   I
 2013-02-18-1430-00M.COL___240                                                 6
 STAT SP IPHASW D HRMM SECON CODA AMPLIT PERI AZIMU VELO AIN AR TRES W  DIS CAZ7
 BRR  HE ES       1434 34.91                             154    0.2510 68.5 300 
 RUS  HZ EP       1434 20.45                             145   -0.0210  101 174 
 RUS  HN ES       1434 39.28                             145   -0.2110  101 174 
 RUS  HN I        1434 40.31         3.4 0.20            143            101 174 
 PTB  HZ EP       1434 23.18                             134   -0.12 9  145 259 
 PTB  HN ES       1434 44.39                             134   -0.13 9  145 259 
 PTB  HN I        1434 49.61         4.3 0.44            131            145 259 
 CHI  HZ EP   1   1434 34.33                             118    0.27 6  248 194 
 CHI  HN ES   2   1435  4.35                             118    0.68 4  248 194 
                                                                                
