 2013  518 1842  2.8 L   6.829 -73.148146.9  RSN 12 0.5 2.0LRSN                1
 GAP=135        1.05       3.3     4.5  6.5 -0.1268E+01  0.7614E+01  0.2982E+01E
 Epicentro: LOS SANTOS - SANTANDER                                             3
 ACTION:UPD 13-06-20 09:51 OP:ep   STATUS:               ID:20130518184202 L   I
 2013-05-18-1840-00M.COL___256                                                 6
 STAT SP IPHASW D HRMM SECON CODA AMPLIT PERI AZIMU VELO AIN AR TRES W  DIS CAZ7
 BAR2 SZ EP       1842 22.55                             169   -0.1010 26.5 188 
 BAR2 SZ ES   1   1842 37.41                             169   -0.71 7 26.5 188 
 BAR2 SZ I        1842 40.13        30.1 0.40            169           26.5 188 
 GIR2 SZ EP   1   1842 22.63                             169    0.09 7 28.0 350 
 GIR2 SZ ES   1   1842 38.33                             169    0.40 7 28.0 350 
 GIR2 SZ I        1842 39.54        16.0 0.14            168           28.0 350 
 BRR  HZ IP     D 1842 24.42                             153    0.4310 69.4 296 
 BRR  HN ES   1   1842 41.35                             153    0.85 7 69.4 296 
 BRR  HZ I        1842 41.97        18.6 0.12            152           69.4 296 
 PAM  SZ EP       1842 25.37                             152    0.3610 75.1  41 
 PAM  SN ES   1   1842 42.47                             152    0.13 7 75.1  41 
 PAM  SZ I        1842 43.17        11.8 0.18            154           75.1  41 
 RUS  HZ EP       1842 26.85                             143   -0.0610  104 176 
 RUS  HN ES   1   1842 45.44                             143   -0.27 7  104 176 
 RUS  HZ I        1842 46.64        21.7 0.26            145            104 176 
 PTB  HZ EP   1   1842 29.47                             132   -0.43 7  148 258 
 PTB  HN ES   1   1842 50.05                             132   -0.99 7  148 258 
 PTB  HZ I        1842 54.04        13.8 0.14            132            148 258 
 OCA  HN ES   1   1842 52.54                             130   -0.28 7  157 353 
 OCA  HZ I        1842 55.71        15.1 0.16            132            157 353 
 ZAR  HZ EP   1   1842 34.46                             123   -0.72 6  203 291 
 ZAR  HN ES       1843  0.66                             123    0.24 9  203 291 
 ZAR  HZ I        1843  6.56        15.0 0.60            123            203 291 
 NOR  HN ES       1843  6.42                             119   -0.42 8  236 234 
 SML  HZ EP       1842 38.87                             118   -0.30 8  241 335 
 SML  HN ES   1   1843  6.89                             118   -0.64 6  241 335 
 CHI  HZ EP       1842 40.91                             117    0.01 8  252 195 
 CHI  HE ES       1843 10.52                             117   -0.10 8  252 195 
 CHI  HZ I        1843 13.90         4.8 0.62            119            252 195 
 GUY2CHZ EP   1   1842 47.27                             112    0.61 5  303 234 
 GUY2CHN ES       1843 22.07                             112    1.21 7  303 234 
 GUY2CHZ I        1843 27.83         3.5 0.38                           303 234 
                                                                                
