 2012 1018 1451 56.4 L   7.372 -73.183131.7  RSN  6 0.3 1.5LRSN                1
 GAP=180        0.54       4.3     3.5  5.3  0.2913E+01  0.2931E+01  0.9439E+00E
 Epicentro: RIONEGRO - SANTANDER                                               3
 ACTION:UPD 12-11-22 17:04 OP:ep   STATUS:               ID:20121018145156 L   I
 2012-10-18-1450-00M.COL___227                                                 6
 STAT SP IPHASW D HRMM SECON CODA AMPLIT PERI AZIMU VELO AIN AR TRES W  DIS CAZ7
 GIR2 SZ EP   1   1452 14.51                             165    0.07 7 32.4 182 
 GIR2 SZ ES   1   1452 28.20                             165   -0.31 7 32.4 182 
 PAM  SZ EP   1   1452 16.02                             157    0.23 7 53.5  94 
 PAM  SZ I        1452 16.30         8.8 0.18                          53.5  94 
 PAM  SN ES   1   1452 30.71                             157   -0.21 7 53.5  94 
 BRR  HZ EP   1   1452 15.68                             152   -0.02 7 65.3 243 
 BRR  HZ I        1452 16.10         7.0 0.14                          65.3 243 
 BRR  HN ES   1   1452 31.08                             152    0.33 7 65.3 243 
 BAR2 SZ ES   1   1452 34.13                             145    0.38 7 86.2 180 
 RUS  HZ EP   1   1452 24.52                             126    0.04 7  164 176 
 RUS  HN ES   1   1452 46.00                             126   -0.37 7  164 176 
 RUS  HN I        1452 48.29         2.8 0.30                           164 176 
 ZAR  HN ES   1   1452 48.84                             122   -0.25 7  185 274 
                                                                                
