 2017  718 1252 29.9 L   6.799 -73.137147.9  RSN 12 0.5 2.3LRSN                1
 GAP=113        1.21       4.3     3.9  6.5  0.1334E+01  0.5886E+01  0.3461E+01E
 Epicentro: LOS SANTOS - SANTANDER                                             3
 ACTION:UPD 17-08-30 15:34 OP:rebc STATUS:               ID:20170718125229 L   I
 OLDACT:REG 17-07-18 20:25 OP:lv   STATUS:               ID:20170718124746     3
 2017-07-18-1248-00M.COL___383                                                 6
 STAT SP IPHASW D HRMM SECON CODA AMPLIT PERI AZIMU VELO AIN AR TRES W  DIS CAZ7
 BAR2 EZ IP     D 1252 49.76                             171   -0.0310 23.4 192 
 BAR2 EZ ES       1253  4.75                             171   -0.5610 23.4 192 
 BAR2 EZ I        1253  7.59        38.1 0.40            165           23.4 192 
 BRR  HZ EP       1252 51.54                             153    0.2110 72.1 298 
 BRR  HN ES       1253  8.90                             153    0.8510 72.1 298 
 BRR  HZ I        1253 12.25        17.0 0.21            149           72.1 298 
 PAM  EZ EP       1252 52.61                             151    0.3010 76.9  39 
 PAM  EN ES       1253  9.78                             151   -0.0210 76.9  39 
 PAM  EZ I        1253 11.80        17.6 0.07            150           76.9  39 
 RUS  HZ EP       1252 53.74                             144   -0.1110  100 177 
 RUS  HN ES       1253 12.83                             144    0.3010  100 177 
 PTB  HZ EP       1252 56.37                             132   -0.75 9  149 259 
 PTB  HN ES       1253 17.59                             132   -0.77 9  149 259 
 PTB  HZ I        1253 20.09        14.3 0.19            126            149 259 
 SPBC HZ EP       1252 58.71                             129    0.10 9  164 219 
 SPBC HN ES       1253 21.87                             129    0.86 9  164 219 
 SPBC HZ I        1253 26.79        29.7 0.18            123            164 219 
 YPLC HZ EP       1253  0.04                             127    0.24 9  176 152 
 YPLC HN ES       1253 22.54                             127   -0.58 9  176 152 
 YPLC HZ I        1253 27.78        15.3 0.07            121            176 152 
 ZAR  HZ EP       1253  2.52                             123   -0.06 9  205 292 
 ZAR  HN ES       1253 27.44                             123   -0.63 9  205 292 
 ZAR  HZ I        1253 34.25        23.1 0.29            118            205 292 
 NOR  HZ EP       1253  5.71                             119   -0.12 8  235 235 
 NOR  HN ES       1253 33.42                             119   -0.43 8  235 235 
 NOR  HZ I        1253 39.31        19.5 0.37            114            235 235 
 ROSC BZ EP   4   1253 10.06                             117    1.88 0  253 211 
 ROSC BZ I        1253 47.63        20.7 0.38            112            253 211 
 HEL  HZ EP       1253 10.81                             115    0.49 8  273 256 
 HEL  HN ES       1253 42.55                             115    0.71 8  273 256 
 HEL  HZ I        1253 49.15         6.8 0.44            110            273 256 
 GUY2CHZ EP   9   1253 16.40                             113    2.72 0  302 235 
 GUY2CHN ES       1253 50.27                                   -0.28 7  302 235 
 GUY2CHZ I        1253 56.44        14.5 0.34                           302 235 
 PTGC HZ EP   4   1253 12.69                             112   -1.11 0  308 159 
 PTGC HN ES   4   1253 44.73                             112   -3.31 0  308 159 
 SJC  HZ EP   4   1253 23.93                             106   -1.67 0  410 327 
 SJC  HN ES   4   1254  5.41                             106   -3.64 0  410 327 
                                                                                
