 2012 1118 1520 13.9 L   6.365 -73.680103.0  RSN 21 0.6 2.5LRSN 3.1WRSN        1
 SPEC AVERAGE  MO 13.7 ST  8.5 OM  2.3 f0 3.98 R0.4033 AL 2.41 WI 21.9 MW  3.1 3
 SPEC SD       MO  0.4 ST  8.5 OM  0.5 f0 1.14 R0.1196 AL      WI      MW  0.2 3
 GAP= 53        1.33       2.8     3.1  6.3 -0.1742E+01  0.5633E+01  0.2514E+01E
 Epicentro: SANTA HELENA DEL OPON - SANTANDER                                  3
 SPEC ZAR HH N MO 14.1 ST 23.2 OM  2.4 f0 5.17 R0.2843 AL 2.96 WI 18.4 MW  3.3 3
 SPEC ZAR HH N T1521 3 K 0.000 GD  207 VS 4.20 DE 3.00 Q0230.0 QA 0.60 VS 4.20 3
 SPEC RREFHH Z MO 13.4 ST  1.9 OM  1.6 f0 3.83 R0.3838 AL 2.71 WI 24.0 MW  2.9 3
 SPEC RREFHH Z T152117 K 0.000 GD  266 VS 4.20 DE 3.00 Q0230.0 QA 0.60 VS 4.20 3
 SPEC OCA HH N MO 14.2 ST 15.3 OM  2.5 f0 4.00 R0.3675 AL 2.20 WI 20.6 MW  3.4 3
 SPEC OCA HH N T152110 K 0.000 GD  234 VS 4.20 DE 3.00 Q0230.0 QA 0.60 VS 4.20 3
 SPEC HEL HH N MO 13.3 ST0.554 OM  1.6 f0 2.66 R0.5526 AL 1.57 WI 27.6 MW  2.8 3
 SPEC HEL HH N T1521 7 K 0.000 GD  229 VS 4.20 DE 3.00 Q0230.0 QA 0.60 VS 4.20 3
 SPEC CHI HH N MO 13.4 ST0.605 OM  1.7 f0 2.58 R0.5698 AL 1.97 WI  8.4 MW  2.9 3
 SPEC CHI HH N T1521 4 K 0.000 GD  217 VS 4.20 DE 3.00 Q0230.0 QA 0.60 VS 4.20 3
 SPEC BRR HH N MO 13.6 ST  9.4 OM  2.1 f0 5.61 R0.2620 AL 3.06 WI 32.7 MW  3.0 3
 SPEC BRR HH N T152045 K 0.000 GD  131 VS 4.20 DE 3.00 Q0230.0 QA 0.60 VS 4.20 3
 ACTION:UPD 12-12-05 15:34 OP:}ep  STATUS:               ID:20121118152013 L   I
 2012-11-18-1520-00M.COL___234                                                 6
 STAT SP IPHASW D HRMM SECON CODA AMPLIT PERI AZIMU VELO AIN AR TRES W  DIS CAZ7
 BAR2 SZ EP       1520 30.41                             147    0.2110 60.5  65 
 BAR2 SZ ES       1520 43.46                             147    0.5310 60.5  65 
 BAR2 SZ I        1520 44.70       452.7 0.30                          60.5  65 
 BRR  HZ IP     C 1520 31.43                             138   -0.0410 82.2 358 
 BRR  HN ES       1520 45.67                             138    0.4810 82.2 358 
 BRR  HN I        1520 54.62        63.0 0.14                          82.2 358 
 RUS  HZ IP     D 1520 31.87                             138   -0.4510 84.2 128 
 RUS  HZ I        1520 32.22        41.6 0.30                          84.2 128 
 RUS  HN ES       1520 46.93                             138    0.2310 84.2 128 
 PTB  HZ IP     C 1520 31.02                             136   -0.9610 88.0 283 
 PTB  HE ES       1520 45.07                             136   -1.0310 88.0 283 
 PTB  HN I        1520 47.05        86.3 0.10                          88.0 283 
 GIR2 SZ EP       1520 32.84                             133    0.0410 95.5  34 
 PAM  SZ EP       1520 39.05                             119    0.14 9  153  45 
 PAM  SN ES       1520 57.77                             119   -0.67 9  153  45 
 PAM  SN I        1520 59.13        17.7 0.14                           153  45 
 ZAR  HZ EP       1520 41.30                             114    0.02 9  180 314 
 ZAR  HN ES       1521  3.21                             114    0.56 9  180 314 
 ZAR  HN I        1521  6.53        82.8 0.28                           180 314 
 ROSC BZ EP       1520 43.11                             114    1.05 9  183 203 
 ROSC BN ES       1521  4.79                             114    0.75 9  183 203 
 CHI  HZ EP       1520 42.59                             113   -0.51 9  192 182 
 CHI  HN ES       1521  4.97                             113   -0.93 9  192 182 
 CHI  HN I        1521  8.03        26.9 0.26                           192 182 
 HEL  HZ EP       1520 44.40                             111   -0.17 8  205 265 
 HEL  HN ES       1521  8.62                             111    0.10 8  205 265 
 HEL  HN I        1521 11.44        22.1 0.40                           205 265 
 TAM  HZ EP       1520 44.46                             110   -0.11 8  209  88 
 TAM  HN I        1521  9.39        28.3 0.66                           209  88 
 OCA  HZ EP       1520 45.70                             110    0.76 8  211  11 
 OCA  HN I        1521 14.79       128.2 0.24                           211  11 
 GUY  SZ EP       1520 47.94                             109    0.70 8  228 236 
 GUY  SN ES       1521 13.18                             109   -0.09 8  228 236 
 GUY  SN I        1521 20.83        63.0 0.30                           228 236 
 RREF HZ EP       1520 50.16                             107    0.63 8  246 229 
 RREF HN ES       1521 17.56                             107    0.21 8  246 229 
 RREF HZ I        1521 21.48        10.8 0.28                           246 229 
 TOL  SZ EP       1520 51.85                             105    0.08 8  268 223 
 SML  HZ EP       1520 51.39                             104   -0.55 8  273 351 
 SML  HN I        1521 27.86        45.1 0.10                           273 351 
 ANIL HZ EP       1520 53.31                             104   -0.05 7  282 223 
 DBB  SZ EP       1520 54.40                             103    0.45 7  289 285 
 DBB  SZ I        1521 29.52        14.5 0.30                           289 285 
 PRA  HZ EP       1520 58.31                             101    0.44 7  322 205 
 PRA  HN ES       1521 31.28                             101   -0.91 7  322 205 
 PRA  HN I        1521 37.09         4.6 0.44                           322 205 
 COD  HZ EP       1521  6.24                              97   -0.43 6  396   4 
 SJC  HN EP       1521  9.31                              96   -0.88 5  424 337 
 SJC  HN I        1521 57.94         6.0 0.32                           424 337 
                                                                                
