 2012  618 1333 59.9 L   6.838 -73.173144.0  RSN  6 0.3 1.6LRSN                1
 GAP=131        0.54       3.3     4.0  5.1 -0.2270E+01  0.7266E+01  0.6273E+00E
 Epicentro: LOS SANTOS - SANTANDER                                             3
 ACTION:UPD 12-08-06 17:50 OP:ep   STATUS:               ID:20120618133408 L   I
 2012-06-18-1330-00M.COL___199                                                 6
 STAT SP IPHASW D HRMM SECON CODA AMPLIT PERI AZIMU VELO AIN AR TRES W  DIS CAZ7
 BAR2 SZ EP   1   1334 19.35                             169   -0.01 7 27.2 182 
 BAR2 SZ I        1334 19.90         9.0 0.32            163           27.2 182 
 BAR2 SZ ES   1   1334 34.89                             169    0.31 7 27.2 182 
 PAM  SZ EP   1   1334 22.12                             151    0.30 7 76.2  43 
 PAM  SN ES   1   1334 38.62                             151   -0.33 7 76.2  43 
 RUS  HZ EP   1   1334 23.48                             142   -0.29 7  105 175 
 RUS  HZ I        1334 24.49         3.5 0.20            130            105 175 
 RUS  HE ES   1   1334 42.50                             142    0.09 7  105 175 
 PTB  HZ EP   1   1334 26.16                             132   -0.33 7  146 257 
 PTB  HN ES   1   1334 47.31                             132    0.04 7  146 257 
 PTB  HZ I        1334 49.86         4.8 0.24            110            146 257 
 ZAR  HZ EP   1   1334 31.87                             123    0.13 6  200 291 
 ZAR  HZ I        1335  3.26         7.9 0.43            104            200 291 
 CHI  HZ EP   1   1334 38.27                             116    0.45 6  252 194 
 CHI  HN ES   1   1335  7.11                             116   -0.32 6  252 194 
 CHI  HZ I        1335 14.03         2.3 0.32            103            252 194 
                                                                                
