 2011 1118 1830 16.7 L   6.762 -73.108145.5  RSN  5 0.4 1.6LRSN                1
 GAP=143        0.74       5.4     6.5  8.4  0.3033E+01  0.3221E+01 -0.4348E+01E
 Epicentro: LOS SANTOS - SANTANDER                                             3
 ACTION:UPD 12-07-13 16:11 OP:ep   STATUS:               ID:20111118183016 L   I
 2011-11-18-1827-38S.COL___179                                                 6
 STAT SP IPHASW D HRMM SECON CODA AMPLIT PERI AZIMU VELO AIN AR TRES W  DIS CAZ7
 BAR2 SZ EP   1   1830 36.04                             172   -0.16 7 20.5 204 
 BAR2 SZ ES   1   1830 50.69                             172   -0.76 7 20.5 204 
 BAR2 SZ I        1830 52.90        14.2 0.29                          20.5 204 
 BRR  HZ EP   1   1830 38.04                             151   -0.07 7 76.9 300 
 BRR  HZ I        1830 38.25        14.6 0.19                          76.9 300 
 BRR  HE ES   1   1830 55.36                             151    0.52 7 76.9 300 
 PAM  SZ EP   1   1830 39.01                             150    0.12 7 78.2  35 
 PAM  SZ I        1830 39.12         5.2 0.20                          78.2  35 
 PAM  SE ES   1   1830 56.32                             150    0.08 7 78.2  35 
 RUS  HZ EP   2   1830 39.95                             145   -0.12 5 96.2 178 
 RUS  HZ I        1830 41.10         2.5 0.14                          96.2 178 
 RUS  HN ES   1   1830 58.79                             145    0.45 7 96.2 178 
 ZAR  HN ES   2   1831 14.95                             121   -0.43 4  209 293 
 ZAR  HZ I        1831 20.69         5.1 0.41                           209 293 
                                                                                
