 2017  118 1920 59.1 L   6.747 -73.186142.5  RSN 10 0.4 2.0LRSN                1
 GAP= 95        0.91       3.5     3.9  5.1 -0.2485E+01  0.3373E+01  0.2970E+01E
 Epicentro: VILLANUEVA - SANTANDER                                             3
 ACTION:UPD 17-05-22 16:01 OP:jn   STATUS:               ID:20170118192059 L   I
 OLDACT:REG 17-01-18 22:09 OP:cog  STATUS:               ID:20170118191746     3
 2017-01-18-1918-00M.COL___337                                                 6
 STAT SP IPHASW D HRMM SECON CODA AMPLIT PERI AZIMU VELO AIN AR TRES W  DIS CAZ7
 BAR2 HZ EP       1921 18.17                             173   -0.0910 17.1 179 
 BAR2 HN ES       1921 33.06                             173   -0.1110 17.1 179 
 BAR2 HZ I        1921 34.39        29.4 0.40            173           17.1 179 
 BRR  HZ EP       1921 20.04                             152    0.1610 70.4 304 
 BRR  HN ES       1921 36.22                             152    0.1510 70.4 304 
 BRR  HZ I        1921 45.17        15.8 0.12            150           70.4 304 
 PAM  EZ EP       1921 21.70                             148    0.2410 84.7  39 
 PAM  EN ES       1921 39.00                             148    0.1310 84.7  39 
 PAM  EZ I        1921 41.56        15.4 0.62            151           84.7  39 
 RUS  HZ EP       1921 21.95                             145   -0.2210 95.2 173 
 RUS  HN ES       1921 39.79                             145   -0.3510 95.2 173 
 RUS  HZ I        1921 41.72        21.3 0.40            149           95.2 173 
 PTB  HZ EP       1921 24.40                             132   -0.94 9  142 261 
 PTB  HE ES   4   1921 44.45                             132   -1.33 0  142 261 
 PTB  HZ I        1921 47.67        15.5 0.24            133            142 261 
 TAM  HZ EP       1921 27.13                             129    0.30 9  158 103 
 ZAR  HZ EP       1921 31.05                             122   -0.13 9  202 294 
 ZAR  HN ES   3   1921 55.28                             122   -0.89 2  202 294 
 ZAR  HZ I        1922  3.08        15.7 0.26            123            202 294 
 NOR  HZ EP       1921 33.83                             119   -0.09 8  228 235 
 NOR  HE ES       1922  1.99                             119    0.94 8  228 235 
 NOR  HZ I        1922  2.74         6.8 0.12            120            228 235 
 CHI  HZ EP       1921 36.15                             117    0.24 8  242 195 
 CHI  HN ES       1922  4.72                             117    0.12 8  242 195 
 CHI  HZ I        1922  9.90         4.0 0.49            120            242 195 
 GUY2CHZ EP   9   1921 43.31                             112    1.51 0  294 235 
 GUY2CHN ES       1922 16.76                                    0.17 7  294 235 
 GUY2CHZ  IAML    1922 25.42         3.2 0.36                           294 235 
                                                                                
