 2016  318 1931 57.9 L   7.531 -73.042155.7  RSN  6 0.3 1.9LRSN                1
 GAP=210        0.60       3.8     3.1  4.7  0.4012E+00  0.6323E+01 -0.5957E+00E
 Epicentro: EL PLAYON - SANTANDER                                              3
 ACTION:UPD 16-05-13 21:25 OP:cam  STATUS:               ID:20160318193157 L   I
 OLDACT:REG 16-03-18 21:27 OP:cara STATUS:               ID:20160318192743     3
 2016-03-18-1927-43M.COL___328                                                 6
 STAT SP IPHASW D HRMM SECON CODA AMPLIT PERI AZIMU VELO AIN AR TRES W  DIS CAZ7
 PAM  EZ EP       1932 19.82                             164    0.2310 43.3 119 
 PAM  EE ES       1932 36.49                             164   -0.0510 43.3 119 
 PAM  EZ I        1932 37.47        22.9 0.20            172           43.3 119 
 BAR2 EZ IP       1932 22.74                             144    0.2010  105 188 
 BAR2 EZ ES       1932 42.02                             144    0.2210  105 188 
 BAR2 EZ I        1932 46.17        18.2 0.24            147            105 188 
 RUS  HZ EP       1932 29.03                             128   -0.34 9  181 181 
 RUS  HE ES       1932 53.68                             128   -0.27 9  181 181 
 RUS  HZ I        1932 54.76         3.5 0.24            132            181 181 
 PTB  HZ EP       1932 29.46                             126   -0.21 9  191 235 
 PTB  HN ES       1932 54.26                             126   -0.22 9  191 235 
 PTB  HZ I        1932 59.68         7.1 0.30            128            191 235 
 ZAR  HZ EP       1932 30.47                             125   -0.13 9  200 269 
 ZAR  HN ES       1932 56.07                             125   -0.08 9  200 269 
 ZAR  HZ I        1933  5.87         6.1 0.26            126            200 269 
 GUY2CHZ EP       1932 49.14                             110    0.32 6  362 225 
 GUY2CHN ES       1933 29.16                             110    0.58 6  362 225 
 GUY2CHZ I        1933 42.85         4.5 0.54                           362 225 
                                                                                
