 2015  118 1634 26.3 L   6.777 -73.161138.8  RSN  8 0.4 1.9LRSN                1
 GAP=136        1.04       3.7     5.0  8.1 -0.4822E+01  0.2098E+01  0.1917E+01E
 Epicentro: LOS SANTOS - SANTANDER                                             3
 ACTION:UPD 15-03-02 15:40 OP:nd   STATUS:               ID:20150118163426 L   I
 OLDACT:UP  15-01-19 00:00 OP:mh   STATUS:               ID:20150118162749     3
 OLDACT:UP  15-01-19 00:00 OP:mh   STATUS:               ID:20150118162749     3
 OLDACT:REG 15-01-18 21:18 OP:mh   STATUS:               ID:20150118162749     3
 2015-01-18-1627-49M.COL___259                                                 6
 STAT SP IPHASW D HRMM SECON CODA AMPLIT PERI AZIMU VELO AIN AR TRES W  DIS CAZ7
 BRR  HZ EP       1634 46.98                             151    0.2910 71.0 301 
 BRR  HN ES       1635  3.33                             151    0.7410 71.0 301 
 BRR  HZ I        1635  7.87        10.6 0.30            151           71.0 301 
 PAM  SZ EP       1634 48.03                             149    0.0610 80.4  39 
 PAM  SN ES   1   1635  4.78                             149   -0.09 7 80.4  39 
 PAM  SZ I        1635  7.24        40.1 0.97            154           80.4  39 
 RUS  HZ EP       1634 49.15                             143   -0.0510 98.2 175 
 RUS  HN ES   1   1635  6.77                             143   -0.29 7 98.2 175 
 RUS  HZ I        1635  7.89         7.1 0.46            147           98.2 175 
 PTB  HZ EP       1634 52.65                             131    0.14 9  146 260 
 PTB  HN ES   1   1635 12.25                             131   -0.71 7  146 260 
 PTB  HZ I        1635 15.30         7.7 0.14            133            146 260 
 SPBC HZ EP       1634 54.10                             128    0.12 9  160 219 
 SPBC HN ES       1635 15.54                             128   -0.04 9  160 219 
 SPBC HZ I        1635 22.31         7.5 0.20            131            160 219 
 OCA  HZ EP       1634 54.80                             128    0.50 9  163 354 
 OCA  HN ES       1635 15.15                             128   -0.99 9  163 354 
 OCA  HZ I        1635 18.38        11.9 0.32            131            163 354 
 ZAR  HZ EP   1   1634 57.88                             121   -0.36 6  203 293 
 ZAR  HN ES   1   1635 23.41                             121    0.26 6  203 293 
 ZAR  HZ I        1635 29.72         9.5 0.36            123            203 293 
 NOR  HN ES   1   1635 28.08                             117   -0.57 6  232 235 
                                                                                
