 2017 1018 1334 36.8 L   6.772 -73.115142.0  RSN 19 0.5 2.4LRSN                1
 GAP= 97        1.07       3.3     2.9  5.0  0.8982E+00  0.3621E+01  0.5213E+01E
 Epicentro: LOS SANTOS - SANTANDER                                             3
 ACTION:UPD 17-11-07 19:33 OP:rebc STATUS:               ID:20171018133436 L   I
 OLDACT:UP  17-10-18 22:59 OP:edw  STATUS:               ID:20171018132739     3
 OLDACT:UP  17-10-18 22:57 OP:edw  STATUS:               ID:20171018132739     3
 OLDACT:REG 17-10-18 20:54 OP:edw  STATUS:               ID:20171018132739     3
 2017-10-18-1328-00M.COL___410                                                 6
 STAT SP IPHASW D HRMM SECON CODA AMPLIT PERI AZIMU VELO AIN AR TRES W  DIS CAZ7
 BAR2 EZ IP     C 1334 55.55                             171   -0.3510 21.2 201 
 BAR2 EZ ES       1335 11.22                             171    0.4010 21.2 201 
 BAR2 EZ I        1335 11.63        46.4 0.12            168           21.2 201 
 BRR  HZ IP     C 1334 57.59                             150   -0.1810 75.7 299 
 BRR  HE ES       1335 14.44                             150    0.2810 75.7 299 
 BRR  HZ I        1335 18.52        51.9 0.38            151           75.7 299 
 PAM  EZ EP     D 1334 58.53                             150   -0.0710 77.7  36 
 PAM  EN ES       1335 15.48                             150   -0.1510 77.7  36 
 PAM  EZ I        1335 17.68        68.7 0.62            155           77.7  36 
 RUS  HZ EP       1334 59.96                             144    0.0610 97.3 178 
 RUS  HN ES       1335 17.72                             144   -0.2410 97.3 178 
 RUS  HZ I        1335 18.58        26.9 0.46            143           97.3 178 
 TAM  HZ IP     C 1335  3.86                             130    0.10 9  151 104 
 TAM  HN ES       1335 25.31                             130    0.49 9  151 104 
 PTB  HZ EP       1335  2.77                             131   -0.91 9  151 260 
 PTB  HN ES       1335 24.34                             131   -0.34 9  151 260 
 PTB  HZ I        1335 25.61        27.4 0.12            131            151 260 
 YPLC HZ IP     D 1335  5.98                             126    0.13 9  172 152 
 YPLC HN ES       1335 28.41                             126   -0.13 9  172 152 
 YPLC HZ I        1335 33.23        21.1 0.32            128            172 152 
 ZAR  HZ EP       1335 10.24                             121    0.82 8  208 293 
 ZAR  HN ES       1335 34.33                             121   -0.56 8  208 293 
 ZAR  HZ I        1335 40.45        33.2 0.30            122            208 293 
 NOR  HZ EP       1335 12.27                             118   -0.12 8  236 236 
 NOR  HN ES       1335 40.84                             118    0.67 8  236 236 
 NOR  HZ I        1335 45.43        17.3 0.32            118            236 236 
 CHI  HZ EP       1335 13.94                             117   -0.09 8  247 196 
 CHI  HN ES       1335 42.86                             117   -0.23 8  247 196 
 CHI  HZ I        1335 46.18         5.8 0.40            117            247 196 
 ROSC BZ EP       1335 15.52                             116    0.94 8  252 212 
 ROSC BN ES       1335 44.17                             116    0.08 8  252 212 
 ROSC BZ I        1335 55.51        14.7 0.55            117            252 212 
 URE  HZ EP   4   1335 20.42                             112    2.28 0  288 292 
 URE  HN ES   4   1335 47.18                             112   -3.24 0  288 292 
 URE  HZ I        1335 49.46        37.4 0.38            114            288 292 
 GUY2CHZ EP   1   1335 21.47                             111    1.15 5  302 236 
 GUY2CHE ES   4   1335 57.16                             111    2.87 0  302 236 
 GUY2CHZ I        1336  3.28         9.6 0.54                           302 236 
 PTGC HZ EP     C 1335 18.83                             111   -1.15 7  305 159 
 PTGC HN ES   4   1335 51.34                             111   -2.35 0  305 159 
 DBB  EZ EP       1335 24.95                             109    0.44 7  343 275 
 DBB  EN ES   4   1336  0.03                             109   -1.73 0  343 275 
 DBB  EZ I        1336  3.20        11.4 0.20            110            343 275 
 PRA  HZ EP       1335 29.43                             106   -0.61 6  391 210 
 PRA  HN ES       1336 11.42                             106   -0.17 6  391 210 
 PRA  HZ I        1336 16.30        11.9 0.26            107            391 210 
 ORTC HZ EP       1335 30.86                             106    0.36 6  395 217 
 ORTC HN ES   4   1336 13.68                             106    1.26 0  395 217 
 ORTC HZ I        1336 20.41         6.1 0.50            107            395 217 
 PAL  HZ EP       1335 31.80                             105   -0.16 6  407 240 
 PAL  HE ES       1336 15.36                             105    0.35 6  407 240 
 PAL  HZ I        1336 19.08         4.9 0.50            106            407 240 
 SJC  HZ EP   4 C 1335 30.48                             105   -2.25 0  414 327 
 SJC  HN ES   4   1336 10.15                             105   -6.23 0  414 327 
 SJC  HZ I        1336 16.01         3.0 0.44            106            414 327 
                                                                                
