 2013 1218 1806 28.8 L   6.777 -72.999146.0  RSN 10 0.4 2.0LRSN                1
 GAP=251        0.89       4.6     6.0  5.8  0.1995E+01  0.1033E+02  0.8637E+01E
 Epicentro: CEPITA - SANTANDER                                                 3
 ACTION:UPD 14-01-13 10:19 OP:ep   STATUS:               ID:20131218180628 L   I
 OLDACT:REG 13-12-18 15:46 OP:nd   STATUS:               ID:20131218180000     3
 2013-12-18-1800-00M.COL___285                                                 6
 STAT SP IPHASW D HRMM SECON CODA AMPLIT PERI AZIMU VELO AIN AR TRES W  DIS CAZ7
 BAR2 SZ EP       18 6 48.96                             168    0.3810 28.8 225 
 BAR2 SZ ES       18 7  4.04                             168    0.0410 28.8 225 
 BAR2 SZ I        18 7  6.72        26.6 0.18            162           28.8 225 
 BRR  HZ EP       18 6 50.69                             147   -0.2310 86.9 295 
 BRR  HN ES       18 7  8.13                             147   -0.0610 86.9 295 
 BRR  HZ I        18 7  8.83        14.6 0.46            145           86.9 295 
 RUS  HZ EP       18 6 52.87                             144    0.4710 98.2 185 
 RUS  HN ES       18 7 10.45                             144   -0.3610 98.2 185 
 RUS  HZ I        18 7 13.11         7.1 0.34            143           98.2 185 
 SPBC HZ EP       18 6 57.90                             127   -0.26 9  172 224 
 SPBC HN ES   2   18 7 20.64                             127   -0.42 4  172 224 
 SPBC HZ I        18 7 27.63        14.2 0.38            126            172 224 
 NOR  HZ EP   2   18 7  5.38                             117   -0.45 4  247 237 
 NOR  HN ES   2   18 7 34.05                             117   -0.67 4  247 237 
 NOR  HZ I        18 7 39.46         7.1 0.16            117            247 237 
 CHI  HZ EP       18 7  6.98                             117    0.22 8  251 199 
 CHI  HN ES       18 7 36.24                             117   -0.13 8  251 199 
 CHI  HZ I        18 7 42.31         2.7 0.36            117            251 199 
 SML  HZ EP   4   18 7  4.06                             116   -2.40 0  253 332 
 SML  HN ES   4   18 7 33.48                             116   -2.36 0  253 332 
 SML  HZ I        18 7 37.50        12.3 0.10            118            253 332 
 GUY2CHZ EP       18 7 13.78                             111    0.00 7  313 237 
 GUY2CHN ES       18 7 49.88                             111    1.02 7  313 237 
 GUY2CHZ I        18 7 55.60         4.0 0.28                           313 237 
 RREF HZ EP       18 7 15.30                             110   -0.89 7  333 232 
 RREF HN ES       18 7 53.35                             110    0.18 7  333 232 
 RREF HZ I        18 7 59.79         5.1 0.30            110            333 232 
 SJC  HZ EP   4   18 7 23.03                             105   -2.65 0  420 325 
 SJC  HN ES   4   18 8  3.36                             105   -6.69 0  420 325 
 SJC  HZ I        18 8  8.87         2.2 0.42            106            420 325 
                                                                                
