 2014  518 1559 35.9 L   6.819 -73.148150.6  RSN 13 0.5 2.1LRSN                1
 GAP=135        1.04       2.8     4.5  5.9 -0.3621E+01  0.5274E+01  0.3903E+01E
 Epicentro: LOS SANTOS - SANTANDER                                             3
 ACTION:UPD 15-03-16 16:58 OP:nd   STATUS:               ID:20140518155935 L   I
 OLDACT:REG 14-05-18 22:53 OP:y    STATUS:               ID:20140518155819     3
 2014-05-18-1558-19M.COL___251                                                 6
 STAT SP IPHASW D HRMM SECON CODA AMPLIT PERI AZIMU VELO AIN AR TRES W  DIS CAZ7
 BRR  HZ EP       1559 58.03                             154    0.4710 70.0 297 
 BRR  HN ES       16 0 14.97                             154    0.5610 70.0 297 
 BRR  HZ I        16 0 17.58        12.3 0.16            153           70.0 297 
 PAM  SZ EP       1559 58.98                             152    0.3910 75.9  41 
 PAM  SN ES       16 0 16.27                             152    0.0110 75.9  41 
 PAM  SZ I        16 0 18.18        13.1 0.22            157           75.9  41 
 RUS  HZ EP       16 0  0.00                             144   -0.3310  103 176 
 RUS  HN ES       16 0 18.88                             144   -0.4710  103 176 
 RUS  HZ I        16 0 21.53        10.3 0.32            146            103 176 
 PTB  HZ EP       16 0  2.68                             133   -0.65 9  148 258 
 PTB  HN ES       16 0 23.73                             133   -0.96 9  148 258 
 PTB  HZ I        16 0 31.43        22.7 0.48            133            148 258 
 OCA  HN ES       16 0 26.77                             131    0.11 9  158 353 
 OCA  HZ I        16 0 31.71        12.9 0.46            134            158 353 
 SPBC HZ EP       16 0  5.06                             130    0.10 9  165 218 
 SPBC HN ES       16 0 27.90                             130    0.31 9  165 218 
 SPBC HZ I        16 0 32.84        21.9 0.14            131            165 218 
 NOR  HZ EP       16 0 12.04                             119   -0.03 8  236 234 
 NOR  HE ES       16 0 40.44                             119    0.19 8  236 234 
 NOR  HZ I        16 0 43.78        16.7 0.16            121            236 234 
 SML  HZ EP       16 0 12.91                             119    0.28 8  242 335 
 SML  HN ES       16 0 40.83                             119   -0.41 8  242 335 
 SML  HZ I        16 0 43.95        20.9 0.10            121            242 335 
 CHI  HZ EP       16 0 13.34                             118   -0.79 8  251 195 
 CHI  HN ES       16 0 44.35                             118    0.43 8  251 195 
 CHI  HZ I        16 0 50.42         6.6 0.22            120            251 195 
 GUY2CHZ EP   4   16 0 20.10                             113    0.20 0  302 234 
 GUY2CHN ES       16 0 54.17                             113   -0.01 7  302 234 
 GUY2CHZ I        16 1  5.54         7.1 0.70                           302 234 
 RREF HZ EP       16 0 22.71                             112    0.27 7  323 229 
 RREF HN ES       16 0 58.85                             112    0.14 7  323 229 
 RREF HZ I        16 1  8.42         6.9 0.48            113            323 229 
 PRA  HZ EP       16 0 30.21                             107    0.37 6  394 209 
 PRA  HN ES       16 1 12.06                             107    0.18 6  394 209 
 PRA  HZ I        16 1 16.50         4.4 0.32            109            394 209 
 ORTC HZ EP       16 0 29.79                             107   -0.43 6  397 216 
 ORTC HN ES       16 1 13.48                             107    0.93 6  397 216 
 ORTC HZ I        16 1 18.72         3.6 0.40            109            397 216 
                                                                                
