 2014  718 1922 22.3 L   6.824 -73.172141.6  RSN 21 0.5 2.6LRSN                1
 GAP= 69        1.06       2.5     2.6  4.5 -0.1072E+01  0.3025E+01  0.1769E+01E
 Epicentro: ZAPATOCA - SANTANDER                                               3
 ACTION:UPD 15-03-16 20:45 OP:nd   STATUS:               ID:20140718192222 L   I
 OLDACT:DUP 14-07-19 02:05 OP:stll STATUS:               ID:20140718191822d    3
 2014-07-18-1918-21M.COL___269                                                 6
 STAT SP IPHASW D HRMM SECON CODA AMPLIT PERI AZIMU VELO AIN AR TRES W  DIS CAZ7
 BAR2 SZ IP     C 1922 41.75                             169    0.2410 25.7 183 
 BAR2 SZ ES       1922 56.33                             169   -0.1510 25.7 183 
 BAR2 SZ I        1922 57.93       131.7 0.28            169           25.7 183 
 BRR  HZ IP     C 1922 43.54                             153    0.7310 67.4 298 
 BRR  HN ES       1922 59.28                             153    0.4910 67.4 298 
 BRR  HZ I        1923  3.71        50.3 0.32            149           67.4 298 
 PAM  SZ EP       1922 44.62                             150    0.5210 77.3  42 
 PAM  SZ I        1922 44.89       104.3 0.20            151           77.3  42 
 PAM  SN ES       1923  1.36                             150    0.2810 77.3  42 
 RUS  HZ EP       1922 45.86                             142   -0.0310  104 175 
 RUS  HN ES       1923  4.06                             142   -0.2110  104 175 
 RUS  HZ I        1923  5.43        28.9 0.26            143            104 175 
 PTB  HZ EP       1922 48.45                             132   -0.30 9  145 258 
 PTB  HN ES       1923  9.36                             132    0.00 9  145 258 
 PTB  HZ I        1923 11.52        34.7 0.14            129            145 258 
 OCA  HE ES       1923 11.31                             129   -0.34 9  157 354 
 OCA  HZ I        1923 17.11        26.9 0.16            127            157 354 
 TAM  HZ IP     D 1922 50.17                             129    0.16 9  159 106 
 TAM  HZ I        1922 50.42        44.1 0.36            130            159 106 
 TAM  HN ES       1923 11.28                             129   -0.33 9  159 106 
 SPBC HZ EP       1922 50.69                             128    0.15 9  163 218 
 SPBC HE ES       1923 12.54                             128   -0.01 9  163 218 
 SPBC HZ I        1923 17.26        40.2 0.12            127            163 218 
 ZAR  HZ EP       1922 54.29                             122    0.17 9  200 292 
 ZAR  HE ES       1923 18.84                             122   -0.08 9  200 292 
 ZAR  HZ I        1923 24.80        24.9 0.24            120            200 292 
 NOR  HZ EP       1922 57.90                             118    0.16 8  234 234 
 NOR  HN ES       1923 24.69                             118   -0.67 8  234 234 
 NOR  HZ I        1923 33.57        26.4 0.16            116            234 234 
 SML  HZ EP       1922 58.13                             117   -0.20 8  240 336 
 SML  HN ES       1923 25.20                             117   -1.20 8  240 336 
 SML  HZ I        1923 30.04        49.9 0.10            115            240 336 
 CHI  HZ EP       1922 59.38                             116   -0.62 8  251 194 
 CHI  HN ES       1923 28.84                             116   -0.55 8  251 194 
 CHI  HZ I        1923 32.67        24.1 0.64            115            251 194 
 HEL  HZ EP       1923  3.01                             114    0.92 8  270 255 
 HEL  HN ES       1923 33.13                             114    0.02 8  270 255 
 GUY2CHZ EP       1923  6.01                             112    0.35 7  300 234 
 GUY2CHN ES       1923 39.33                             112   -0.12 7  300 234 
 GUY2CHZ I        1923 45.84        14.3 0.32                           300 234 
 SOCV BZ EP       1923  4.61                             111   -0.69 7  302  58 
 SOCV BN ES   4   1923 35.00                             111   -3.82 0  302  58 
 RREF HZ EP       1923  8.91                             110    0.67 7  321 229 
 RREF HN ES       1923 44.50                             110    0.44 7  321 229 
 RREF HZ I        1923 53.60        16.7 0.38            109            321 229 
 CBOC HZ EP       1923  9.75                             109    0.90 7  332 251 
 CBOC HN ES       1923 44.66                             109   -0.48 7  332 251 
 DBB  SZ EP       1923  8.22                             109   -1.06 7  336 274 
 DBB  SZ I        1923 47.29        40.3 0.26            108            336 274 
 TOL  SZ EP       1923 10.93                             109    0.52 7  343 224 
 TOL  SE ES       1923 48.05                             109    0.14 7  343 224 
 PRA  HZ EP       1923 16.22                             106    0.40 6  393 209 
 PRA  HN ES       1923 56.82                             106   -0.72 6  393 209 
 ORTC HZ EP       1923 16.17                             106    0.00 6  396 216 
 ORTC HN ES       1923 57.77                             106   -0.39 6  396 216 
 ORTC HZ I        1924  3.06        10.6 0.30            105            396 216 
                                                                                
