 2012 1218 1205 30.3 L   6.796 -73.160148.3  RSN 16 0.5 2.6LRSN                1
 GAP= 70        0.89       3.0     3.7  5.1  0.5102E+00  0.4682E+01  0.2469E+01E
 Epicentro: LOS SANTOS - SANTANDER                                             3
 ACTION:UPD 13-01-04 14:28 OP:ep   STATUS:               ID:20121218120530 L   I
 2012-12-18-1200-00M.COL___242                                                 6
 STAT SP IPHASW D HRMM SECON CODA AMPLIT PERI AZIMU VELO AIN AR TRES W  DIS CAZ7
 BAR2 SZ EP     C 12 5 50.15                             171   -0.0210 22.7 186 
 BAR2 SZ ES   1   12 6  5.53                             171   -0.18 7 22.7 186 
 BAR2 SZ I        12 6  7.99       141.4 0.28                          22.7 186 
 GIR2 SZ EP   1   12 5 50.30                             167    0.07 7 31.5 353 
 GIR2 SZ ES   1   12 6  5.98                             167    0.17 7 31.5 353 
 GIR2 SZ I        12 6  8.86        28.3 0.42                          31.5 353 
 BRR  HZ EP     C 12 5 52.08                             153    0.4710 70.0 299 
 BRR  HE ES   1   12 6  9.22                             153    0.96 7 70.0 299 
 BRR  HZ I        12 6 11.78        37.6 0.22                          70.0 299 
 PAM  SZ EP       12 5 52.99                             151    0.1710 78.7  40 
 PAM  SN ES   1   12 6 10.34                             151   -0.08 7 78.7  40 
 PAM  SZ I        12 6 12.44        48.8 0.20                          78.7  40 
 RUS  HZ EP     D 12 5 54.06                             144   -0.1710  100 175 
 RUS  HN ES   1   12 6 12.32                             144   -0.61 7  100 175 
 RUS  HZ I        12 6 13.95        33.4 0.28                           100 175 
 PTB  HZ EP   1   12 5 56.85                             133   -0.43 7  146 259 
 PTB  HN ES   1   12 6 18.00                             133   -0.36 7  146 259 
 PTB  HZ I        12 6 24.13        68.9 0.46                           146 259 
 TAM  HZ EP   1   12 5 58.39                             131    0.12 7  157 105 
 TAM  HZ I        12 6 19.24        34.8 0.40                           157 105 
 OCA  HZ EP   1   12 5 58.23                             130   -0.55 7  161 354 
 OCA  HN ES   1   12 6 20.36                             130   -0.68 7  161 354 
 OCA  HZ I        12 6 26.83        49.5 0.32                           161 354 
 ZAR  HZ EP   1   12 6  2.28                             123   -0.45 6  203 292 
 ZAR  HE ES   1   12 6 28.57                             123    0.51 6  203 292 
 ZAR  HZ I        12 6 34.55        46.3 0.32                           203 292 
 SML  HZ EP   1   12 6  6.83                             118   -0.16 6  243 336 
 SML  HE ES   1   12 6 36.25                             118    0.60 6  243 336 
 CHI  HZ EP   1   12 6  8.20                             118    0.20 6  248 195 
 CHI  HN ES   1   12 6 37.28                             118   -0.17 6  248 195 
 CHI  HZ I        12 6 43.34        13.8 0.54                           248 195 
 ROSC BZ EP   1   12 6  9.03                             117    0.65 6  252 211 
 ROSC BZ I        12 6 48.03        56.3 0.45                           252 211 
 HEL  HZ EP   1   12 6 11.21                             115    0.80 6  270 256 
 HEL  HN ES   1   12 6 41.35                             115   -0.38 6  270 256 
 HEL  HZ I        12 6 49.48        16.4 0.32                           270 256 
 URE  HZ EP   1   12 6 10.70                             114   -0.60 6  282 292 
 URE  HN ES   1   12 6 42.23                             114   -1.08 6  282 292 
 RREF HZ EP   4   12 6 18.30                             111    1.96 0  320 229 
 RREF HN ES   4   12 6 54.31                             111    2.03 0  320 229 
 TOL  SZ EP   1   12 6 19.25                             110    0.80 5  342 224 
 MON  HN ES   4   12 6 56.44                             109   -1.00 0  353 309 
 SDV  BZ EP   4   12 6 19.29                             109   -1.28 0  362  50 
 PRA  HZ EP   1   12 6 23.53                             107   -0.20 4  391 209 
 PRA  HE ES   1   12 7  5.85                             107    0.42 4  391 209 
 PRA  HZ I        12 7 10.81        21.5 0.30                           391 209 
                                                                                
