 2014  218 1117 26.1 L   6.395 -73.665100.9  RSN 12 0.5 2.2LRSN                1
 GAP= 63        1.21       2.6     3.3  6.6 -0.1927E+01  0.4990E+01 -0.3615E+01E
 Epicentro: SANTA HELENA DEL OPON - SANTANDER                                  3
 ACTION:UPD 14-03-10 08:11 OP:ep   STATUS:               ID:20140218111726 L   I
 OLDACT:REG 14-02-18 15:48 OP:carl STATUS:               ID:20140218111000     3
 2014-02-18-1110-00M.COL___212                                                 6
 STAT SP IPHASW D HRMM SECON CODA AMPLIT PERI AZIMU VELO AIN AR TRES W  DIS CAZ7
 BAR2 SZ EP       1117 42.47                             148    0.4210 57.7  68 
 BAR2 SZ ES       1117 54.99                             148    0.5310 57.7  68 
 BAR2 SZ I        1117 56.39       247.4 0.14            149           57.7  68 
 RUS  HZ EP     D 1117 44.28                             137   -0.1710 85.1 131 
 RUS  HN ES       1117 58.27                             137   -0.4710 85.1 131 
 RUS  HZ I        1118  1.46         7.6 0.40            139           85.1 131 
 PTB  HZ EP       1117 43.37                             135   -0.7510 88.9 280 
 PTB  HN ES       1117 57.45                             135   -0.7010 88.9 280 
 PTB  HZ I        1118  0.25        37.7 0.26            136           88.9 280 
 SPBC HZ EP       1117 44.58                             133   -0.0610 93.7 209 
 SPBC HN ES       1117 59.60                             133    0.5310 93.7 209 
 SPBC HZ I        1118  1.68        37.9 0.26            135           93.7 209 
 PAM  SZ EP       1117 50.59                             119   -0.07 9  149  46 
 PAM  SN ES       1118  9.40                             119   -0.40 9  149  46 
 PAM  SZ I        1118 15.61         7.9 0.16            120            149  46 
 NOR  HZ EP       1117 52.05                             117    0.60 9  162 235 
 NOR  HE ES       1118 10.91                             117   -0.30 9  162 235 
 NOR  HZ I        1118 13.95        24.1 0.16            118            162 235 
 ZAR  HZ EP       1117 53.57                             114    0.27 9  179 313 
 ZAR  HN ES       1118 15.11                             114    0.62 9  179 313 
 ZAR  HZ I        1118 19.63        16.1 0.24            115            179 313 
 CHI  HZ EP       1117 55.34                             112   -0.30 9  195 182 
 CHI  HN ES       1118 18.77                             112    0.12 9  195 182 
 CHI  HZ I        1118 22.27         8.5 0.26            113            195 182 
 OCA  HZ EP       1117 56.07                             110   -0.62 8  207  11 
 OCA  HE ES       1118 21.54                             110    1.01 8  207  11 
 OCA  HZ I        1118 27.44        31.6 0.18            111            207  11 
 SML  HZ EP       1118  3.61                             104   -0.16 8  270 350 
 SML  HN ES       1118 32.58                             104   -0.55 8  270 350 
 SML  HZ I        1118 39.19        18.9 0.10            105            270 350 
 PRA  HZ EP       1118 10.45                             100   -0.07 7  326 205 
 PRA  HN ES       1118 45.88                             100    0.73 7  326 205 
 PRA  HZ I        1118 50.12         6.1 0.38            101            326 205 
 COD  HN ES       1118 59.53                              96    0.23 6  392   4 
                                                                                
