 2011  918 1944 31.9 L   6.789 -72.969150.6  RSN  5 0.3 1.5LRSN                1
 GAP=225        0.45       6.6     8.3  8.6  0.3296E+02  0.2191E+00  0.3612E+01E
 Epicentro: CEPITA - SANTANDER                                                 3
 ACTION:UPD 12-07-13 15:58 OP:ep   STATUS:               ID:20110918194431 L   I
 2011-09-18-1940-29S.COL___170                                                 6
 STAT SP IPHASW D HRMM SECON CODA AMPLIT PERI AZIMU VELO AIN AR TRES W  DIS CAZ7
 BTL  SZ EP   2   1944 52.73                             166    0.32 5 36.0 293 
 GIR2 SZ EP   2   1944 52.20                             164   -0.21 5 40.6 322 
 GIR2 SZ ES   2   1945  8.66                             164    0.24 5 40.6 322 
 BRR  HE ES   2   1945 11.93                             148   -0.48 5 89.4 293 
 RUS  HZ EP   2   1944 55.87                             145   -0.19 5 99.9 187 
 RUS  HN ES   2   1945 15.04                             145    0.12 5 99.9 187 
 RUS  HZ I        1945 16.20         3.1 0.29                          99.9 187 
 ZAR  HN ES   2   1945 33.93                             121    0.29 4  223 291 
 ZAR  HZ I        1945 37.00         4.4 0.43                           223 291 
                                                                                
