 2017 1118 1502 24.4 L   6.728 -73.132137.8  RSN  6 0.3 1.7LRSN                1
 GAP=161        0.66       3.2     3.5  7.4 -0.1880E+01  0.9245E+01  0.8377E+01E
 Epicentro: JORDAN - SANTANDER                                                 3
 ACTION:UPD 17-12-12 19:57 OP:rebc STATUS:               ID:20171118150224 L   I
 OLDACT:REG 17-11-18 20:25 OP:lv   STATUS:               ID:20171118145739     3
 2017-11-18-1458-00M.COL___464                                                 6
 STAT SP IPHASW D HRMM SECON CODA AMPLIT PERI AZIMU VELO AIN AR TRES W  DIS CAZ7
 BAR2 EZ IP     D 15 2 42.99                             173    0.0010 16.0 200 
 BAR2 EZ I        15 3  0.27        11.8 0.20            172           16.0 200 
 PAM  EZ EP       15 2 46.21                             148    0.0510 82.8  35 
 PAM  EN ES       15 3  3.09                             148   -0.0210 82.8  35 
 PAM  EZ I        15 3  6.32         5.1 0.44            152           82.8  35 
 ZAR  HZ EP       15 2 56.57                             120   -0.29 8  209 294 
 ZAR  HE ES       15 3 22.16                             120    0.02 8  209 294 
 ZAR  HZ I        15 3 27.74         8.2 0.38            124            209 294 
 NOR  HZ EP       15 2 59.21                             117   -0.16 8  231 236 
 NOR  HN ES       15 3 26.92                             117    0.31 8  231 236 
 NOR  HZ I        15 3 32.02         7.4 0.36            120            231 236 
 CHI  HZ EP       15 3  1.52                             116    0.61 8  241 196 
 CHI  HN ES       15 3 28.85                             116   -0.51 8  241 196 
 CHI  HZ I        15 3 34.15         2.3 0.62            119            241 196 
 GUY2CHZ EP   9   15 3  8.67                             111    1.35 0  298 236 
 GUY2CHN ES       15 3 42.30                                    0.18 7  298 236 
 GUY2CHZ I        15 3 49.43         3.9 0.40                           298 236 
                                                                                
