 2012 1118 1711 23.7 L   6.801 -73.147153.2  RSN  7 0.4 1.6LRSN                1
 GAP=136        1.05       4.6     5.4  7.5  0.4412E+00  0.5447E+01  0.2295E+01E
 Epicentro: LOS SANTOS - SANTANDER                                             3
 ACTION:UPD 12-12-05 15:34 OP:}ep  STATUS:               ID:20121118171123 L   I
 2012-11-18-1710-00M.COL___234                                                 6
 STAT SP IPHASW D HRMM SECON CODA AMPLIT PERI AZIMU VELO AIN AR TRES W  DIS CAZ7
 BAR2 SZ EP       1711 44.21                             171    0.0110 23.5 190 
 BAR2 SZ I        1712  1.39         8.3 0.38                          23.5 190 
 GIR2 SZ EP       1711 44.17                             168   -0.0610 31.1 350 
 GIR2 SZ ES       1712  0.20                             168   -0.0510 31.1 350 
 BRR  HZ EP       1711 46.11                             154    0.4910 71.0 298 
 BRR  HZ I        1711 46.26         7.4 0.24                          71.0 298 
 BRR  HN ES       1712  3.62                             154    0.8810 71.0 298 
 PAM  SZ EP       1711 46.95                             152    0.2710 77.3  40 
 PAM  SZ I        1711 47.20         4.0 0.42                          77.3  40 
 PAM  SN ES       1712  4.18                             152   -0.4410 77.3  40 
 RUS  HZ EP       1711 48.26                             145    0.0910  101 176 
 RUS  HN ES       1712  7.04                             145   -0.2410  101 176 
 RUS  HN I        1712  7.22         3.1 0.32                           101 176 
 PTB  HZ EP       1711 51.11                             134   -0.14 9  148 259 
 PTB  HN ES       1712 12.22                             134   -0.54 9  148 259 
 PTB  HN I        1712 17.78        10.2 0.36                           148 259 
 SML  HN ES       1712 29.03                             119   -0.56 8  244 335 
                                                                                
