 2017 1118 1706 42.8 L   7.381 -73.171130.5  RSN  8 0.2 2.1LRSN                1
 GAP=176        0.69       4.2     3.1  5.3 -0.2286E+01  0.8160E+01  0.3162E+00E
 Epicentro: EL PLAYON - SANTANDER                                              3
 ACTION:UPD 17-12-12 19:57 OP:rebc STATUS:               ID:20171118170642 L   I
 OLDACT:DUP 17-11-18 22:56 OP:lv   STATUS:               ID:20171118165739d    3
 2017-11-18-1658-00M.COL___467                                                 6
 STAT SP IPHASW D HRMM SECON CODA AMPLIT PERI AZIMU VELO AIN AR TRES W  DIS CAZ7
 PAM  EZ EP       17 7  2.20                             157    0.1610 52.3  95 
 PAM  EN ES       17 7 17.21                             157    0.2010 52.3  95 
 PAM  EZ I        17 7 18.27        26.8 0.18            161           52.3  95 
 BAR2 EZ EP       17 7  3.82                             144    0.0510 87.2 181 
 BAR2 EZ ES       17 7 19.74                             144   -0.3610 87.2 181 
 BAR2 EZ I        17 7 22.01        48.1 0.36            145           87.2 181 
 PTB  HZ EP       17 7 10.65                             124   -0.13 9  170 237 
 PTB  HN ES       17 7 32.51                             124   -0.06 9  170 237 
 PTB  HZ I        17 7 36.08         7.3 0.20            125            170 237 
 ZAR  HZ EP       17 7 12.22                             121   -0.28 9  187 274 
 ZAR  HE ES       17 7 35.82                             121    0.19 9  187 274 
 ZAR  HZ I        17 7 40.67        14.4 0.26            123            187 274 
 URE  HZ EP   9   17 7 18.56                             112   -2.38 0  264 279 
 URE  HN ES       17 7 47.57                                   -0.70 8  264 279 
 URE  HZ I        17 7 49.97        11.5 0.18            114            264 279 
 NOR  HZ EP       17 7 22.29                             111    0.03 8  275 223 
 NOR  HN ES       17 7 53.56                             111    0.55 8  275 223 
 NOR  HZ I        17 7 59.57         7.7 0.16            113            275 223 
 GUY2CHZ EP       17 7 30.04                             106   -0.28 7  340 226 
 GUY2CHN ES       17 8  7.30                             106   -0.06 7  340 226 
 GUY2CHZ I        17 8 18.51         5.2 0.44                           340 226 
 SJC  HZ EP   4   17 7 28.99                             105   -2.58 0  355 322 
 SJC  HN ES   4   17 8  5.16                             105   -4.42 0  355 322 
 SJC  HZ I        17 8  8.14         4.0 0.30            108            355 322 
                                                                                
