 2010 1018 1555 33.6 L   6.782 -73.091145.5  RSN 10 0.3 2.4LRSN                1
 GAP=165        0.55       2.9     5.3  5.3 -0.6708E+01  0.5002E+01  0.1571E+00E
 Epicentro: LOS SANTOS - SANTANDER                                             3
 ACTION:UP  11-02-18 11:10 OP:tino STATUS:               ID:20101018155533 L   I
 2010-10-18-1554-09S.COL___123                                                 6
 STAT SP IPHASW D HRMM SECON CODA AMPLIT PERI AZIMU VELO SNR AR TRES W  DIS CAZ7
 BAR2 SZ IP     C 1555 53.21                             170     0.010   23 206 
 BAR2 SZ I        1555 53.56        59.6 0.33                            23 206 
 BAR2 SZ ES   2   1556  8.24                             170    -0.2 5   23 206 
 BRR  HZ IP     D 1555 55.07                             150     0.010   77 298 
 BRR  HZ I        1555 55.46        62.3 0.11                            77 298 
 BRR  HE ES   2   1556 12.15                             150     0.3 5   77 298 
 RUS  HZ EP   1   1555 57.18                             144     0.0 7   98 179 
 RUS  HN ES   2   1556 15.48                             144    -0.1 5   98 179 
 RUS  HZ I        1556 16.85        23.3 0.24                            98 179 
 GUE  SZ EP   1   1555 57.99                             139    -0.4 7  117   9 
 GRA  SZ IP     D 1555 59.07                             137     0.210  126  15 
 GRA  SZ ES   2   1556 18.86                             137     0.3 5  126  15 
 GRA  SZ I        1556 19.55        21.8 0.49                           126  15 
 OCA  SZ EP   1   1556  1.73                             129    -0.4 7  163 351 
 NOR  SZ EP   1   1556  9.51                             118    -0.2 6  239 236 
 NOR  SN ES   2   1556 37.57                             118    -0.3 4  239 236 
 CHI  HZ EP   1   1556 11.41                             117     0.2 6  248 197 
 CHI  HE ES   2   1556 40.19                             117    -0.4 4  248 197 
 CHI  HZ I        1556 48.39         6.5 0.42                           248 197 
 HEL  HZ EP   1   1556 14.64                             114     0.3 6  277 257 
 HEL  HZ I        1556 52.51        11.7 0.40                           277 257 
 PRA  HZ EP   1   1556 27.28                             106     0.0 4  393 210 
 PRA  HE ES   2   1557 10.09                             106     1.0 3  393 210 
 PRA  HZ I        1557 15.23        21.4 0.31                           393 210 
                                                                                
