 2012  718 1531 33.9 L   6.768 -73.135149.1  RSN  7 0.3 2.3LRSN                1
 GAP=139        0.76       4.9     5.3  6.9  0.5908E+01  0.7033E+01 -0.3484E+01E
 Epicentro: LOS SANTOS - SANTANDER                                             3
 ACTION:UPD 12-08-14 11:45 OP:ep   STATUS:               ID:20120718153133 L   I
 2012-07-18-1530-00M.COL___197                                                 6
 STAT SP IPHASW D HRMM SECON CODA AMPLIT PERI AZIMU VELO AIN AR TRES W  DIS CAZ7
 BAR2 SZ EP   1   1531 53.72                             172    -0.1 7   20 195 
 BAR2 SZ ES   1   1532  9.31                             172    -0.1 7   20 195 
 BAR2 SZ I        1532 10.80        42.7 0.44            170             20 195 
 BRR  HZ IP     C 1531 55.59                             152     0.110   74 301 
 BRR  HZ I        1531 55.89        52.1 0.23            150             74 301 
 BRR  HN ES   1   1532 13.00                             152     0.6 7   74 301 
 PAM  SZ EP   1   1531 56.50                             151    -0.1 7   79  37 
 PAM  SN ES   2   1532 14.07                             151    -0.2 5   79  37 
 RUS  HZ EP   1   1531 57.85                             146     0.2 7   97 177 
 RUS  HN ES   1   1532 16.29                             146     0.0 7   97 177 
 RUS  HZ I        1532 17.99        19.0 0.41            147             97 177 
 PTB  HZ EP   1   1532  0.60                             133    -0.5 7  148 260 
 PTB  HN ES   2   1532 21.96                             133    -0.5 5  148 260 
 PTB  HZ I        1532 23.98        13.9 0.21            132            148 260 
 OCA  HN ES   2   1532 25.04                             130    -0.3 5  164 353 
 ZAR  HZ EP   1   1532  7.49                             123     0.7 6  206 293 
 ZAR  HN ES   1   1532 32.07                             123    -0.4 6  206 293 
 ZAR  HZ I        1532 37.86        23.4 0.25            123            206 293 
