 2017 1118 1836 16.4 L   6.825 -73.145144.9  RSN  5 0.3 1.6LRSN                1
 GAP=258        0.63       4.1     4.1  5.4  0.5510E+01  0.6387E+01  0.7114E+01E
 Epicentro: LOS SANTOS - SANTANDER                                             3
 ACTION:UPD 17-12-12 19:57 OP:rebc STATUS:               ID:20171118183616 L   I
 OLDACT:REG 17-11-18 20:52 OP:lv   STATUS:               ID:20171118182738     3
 2017-11-18-1828-00M.COL___465                                                 6
 STAT SP IPHASW D HRMM SECON CODA AMPLIT PERI AZIMU VELO AIN AR TRES W  DIS CAZ7
 BAR2 EZ EP       1836 36.06                             169    0.1010 26.1 189 
 BAR2 EZ ES       1836 51.31                             169    0.0810 26.1 189 
 BAR2 EZ I        1836 52.25         9.6 0.24            165           26.1 189 
 PTB  HZ EP       1836 43.01                             132   -0.32 9  148 258 
 PTB  HN ES       1837  3.94                             132   -0.41 9  148 258 
 PTB  HZ I        1837  5.46         3.0 0.34            131            148 258 
 ZAR  HE ES       1837 14.07                             122    0.22 9  203 291 
 NOR  HZ EP       1836 52.28                             118    0.05 8  236 234 
 NOR  HN ES       1837 20.67                             118    0.47 8  236 234 
 NOR  HZ I        1837 24.71         2.8 0.32            118            236 234 
 CHI  HZ EP       1836 54.41                             117    0.09 8  251 195 
 CHI  HN ES       1837 23.74                             117   -0.17 8  251 195 
 CHI  HZ I        1837 26.79         2.8 0.40            117            251 195 
                                                                                
