 2017  118 1007 27.2 L   6.794 -73.210140.0  RSN  4 0.4 1.0LRSN                1
 GAP=239        0.71       8.7     8.1  7.1  0.5551E+02  0.1790E+02  0.3712E+01E
 Epicentro: ZAPATOCA - SANTANDER                                               3
 ACTION:UPD 17-05-22 16:01 OP:jn   STATUS:               ID:20170118100727 L   I
 OLDACT:UP  17-01-18 22:17 OP:cog  STATUS:               ID:20170118095748     3
 OLDACT:REG 17-01-18 20:10 OP:cog  STATUS:               ID:20170118095748     3
 2017-01-18-0958-00M.COL___331                                                 6
 STAT SP IPHASW D HRMM SECON CODA AMPLIT PERI AZIMU VELO AIN AR TRES W  DIS CAZ7
 BAR2 EZ EP       10 7 46.07                             170   -0.0510 22.6 172 
 BAR2 EZ ES       10 8  0.69                             170   -0.1910 22.6 172 
 BAR2 EZ I        10 8  4.49         3.7 0.66            163           22.6 172 
 RUS  HZ EP       10 7 50.08                             143   -0.3210  101 172 
 RUS  HN ES       10 8  8.91                             143    0.4110  101 172 
 RUS  HZ I        10 8  9.99         1.0 0.30            142            101 172 
 PTB  HZ EP       10 7 53.08                             132    0.02 9  141 259 
 PTB  HN ES   3   10 8 11.92                             132   -1.30 2  141 259 
 PTB  HZ I        10 8 20.31         1.4 0.32            131            141 259 
 ZAR  HN ES       10 8 23.40                             122    0.28 9  198 293 
                                                                                
