 2016  218 1637 13.7 L   6.510 -73.714 92.0  RSN 16 0.5 1.9LRSN                1
 GAP= 53        1.21       2.6     2.9  6.8 -0.1748E+01  0.5679E+01  0.1853E+01E
 Epicentro: SANTA HELENA DEL OPON - SANTANDER                                  3
 ACTION:UPD 16-03-04 21:27 OP:rebc STATUS:               ID:20160218163713 L   I
 OLDACT:REG 16-02-18 21:09 OP:ak   STATUS:               ID:20160218162750     3
 2016-02-18-1627-50M.COL___331                                                 6
 STAT SP IPHASW D HRMM SECON CODA AMPLIT PERI AZIMU VELO AIN AR TRES W  DIS CAZ7
 BAR2 EZ EP       1637 29.13                             145    0.3410 59.5  81 
 BAR2 EZ ES       1637 40.48                             145   -0.1110 59.5  81 
 BRR  HZ EP       1637 29.13                             141    0.2010 66.0   0 
 BRR  HN ES       1637 41.62                             141    0.7710 66.0   0 
 BRR  HZ I        1637 42.87        11.8 0.06            143           66.0   0 
 PTB  HZ EP       1637 29.59                             135   -0.6910 82.1 272 
 PTB  HN ES       1637 42.52                             135   -0.7310 82.1 272 
 PTB  HZ I        1637 44.32        39.3 0.12            134           82.1 272 
 RUS  HZ EP       1637 32.09                             130   -0.2510 97.7 134 
 RUS  HN ES       1637 46.82                             130   -0.0910 97.7 134 
 RUS  HZ I        1637 48.43        13.5 0.24            132           97.7 134 
 SPBC HZ EP       1637 32.27                             128   -0.0310  103 203 
 SPBC HN ES       1637 47.56                             128    0.7210  103 203 
 SPBC HZ I        1637 51.50        25.5 0.17            128            103 203 
 PAM  EZ EP       1637 36.88                             118   -0.30 9  145  51 
 PAM  EN ES       1637 55.05                             118   -0.47 9  145  51 
 PAM  EZ I        1637 56.60        26.5 0.22            120            145  51 
 NOR  HZ EP       1637 37.92                             114   -0.95 9  165 231 
 NOR  HN ES       1637 58.25                             114   -0.29 9  165 231 
 NOR  HZ I        1638  2.69        11.3 0.12            115            165 231 
 ZAR  HZ EP       1637 39.41                             114    0.44 9  167 311 
 ZAR  HN ES   4   1638  0.21                             114    1.49 0  167 311 
 ZAR  HZ I        1638  3.73        19.6 0.21            115            167 311 
 OCA  HN ES       1638  5.35                             110    0.32 9  196  13 
 HEL  HZ EP       1637 44.51                             110    0.82 9  204 260 
 HEL  HE ES       1638  6.59                             110   -0.52 9  204 260 
 HEL  HZ I        1638 11.35         8.1 0.32            110            204 260 
 CHI  HZ EP       1637 44.17                             109   -0.05 8  208 181 
 CHI  HE ES       1638  7.87                             109   -0.18 8  208 181 
 CHI  HZ I        1638 13.83         3.2 0.38            110            208 181 
 GUY2CHZ EP   1   1637 47.83                             107    0.76 6  232 232 
 GUY2CHN ES       1638 13.57                             107    0.45 8  232 232 
 GUY2CHZ I        1638 18.94         6.0 0.32                           232 232 
 URE  HZ EP   9   1637 46.01                             106   -1.87 0  243 304 
 URE  HN ES       1638 12.27                                   -0.43 8  243 304 
 URE  HZ I        1638 21.35        10.0 0.24            107            243 304 
 ANIL HN ES       1638 25.65                             103    0.26 7  291 220 
 MON  HZ EP   4   1637 57.06                             101   -1.27 0  331 319 
 MON  HN ES       1638 33.08                             101   -0.09 7  331 319 
 MON  HZ I        1638 34.86         2.3 0.24            102            331 319 
 ORTC HZ EP   4   1638  0.11                             101    1.31 0  334 211 
 ORTC HN ES       1638 34.54                             101    0.54 7  334 211 
 ORTC HZ I        1638 39.63         3.0 0.34            102            334 211 
                                                                                
