 2017  818 1123 45.7 L   6.786 -73.092150.7  RSN  9 0.4 1.5LRSN                1
 GAP=124        0.77       3.8     4.0  5.3 -0.2977E+01  0.9470E+00  0.6645E+01E
 Epicentro: LOS SANTOS - SANTANDER                                             3
 ACTION:UPD 17-09-04 20:21 OP:rebc STATUS:               ID:20170818112345 L   I
 OLDACT:UP  17-08-18 21:18 OP:and  STATUS:               ID:20170818111736     3
 OLDACT:UP  17-08-18 21:17 OP:and  STATUS:               ID:20170818111736     3
 OLDACT:REG 17-08-18 20:16 OP:and  STATUS:               ID:20170818111736     3
 2017-08-18-1118-00M.COL___404                                                 6
 STAT SP IPHASW D HRMM SECON CODA AMPLIT PERI AZIMU VELO AIN AR TRES W  DIS CAZ7
 BAR2 EZ IP     D 1124  5.70                             171   -0.1910 23.6 205 
 BAR2 EZ ES   2   1124 20.51                             171   -1.16 5 23.6 205 
 BAR2 EZ I        1124 23.56         7.9 0.32            166           23.6 205 
 PAM  EZ IP     D 1124  8.60                             153    0.3310 75.0  35 
 PAM  EN ES       1124 25.84                             153   -0.0610 75.0  35 
 PAM  EZ I        1124 26.76         3.5 0.18            157           75.0  35 
 BRR  HZ EP       1124  7.57                             152   -0.1210 77.2 297 
 BRR  HN ES       1124 24.93                             152    0.0710 77.2 297 
 BRR  HZ I        1124 35.93         8.7 0.46            147           77.2 297 
 RUS  HZ EP     C 1124 10.08                             145    0.3010 98.8 179 
 RUS  HN ES       1124 28.88                             145    0.3010 98.8 179 
 RUS  HZ I        1124 29.34         1.6 0.28            149           98.8 179 
 SPBC HZ EP       1124 15.05                             130    0.26 9  166 221 
 SPBC HN ES   3   1124 37.11                             130   -0.40 2  166 221 
 SPBC HZ I        1124 41.16         7.0 0.10            130            166 221 
 ZAR  HN ES   2   1124 44.42                             123   -0.69 4  210 292 
 ZAR  HZ I        1124 50.08         2.7 0.34            122            210 292 
 NOR  HZ EP       1124 22.04                             119   -0.07 8  239 236 
 NOR  HN ES       1124 50.59                             119    0.06 8  239 236 
 NOR  HZ I        1124 58.45         2.4 0.18            120            239 236 
 PTGC HZ EP       1124 28.57                             113   -0.78 7  305 160 
 GUY2CHZ EP   9   1124 32.70                             113    2.74 0  305 236 
 GUY2CHN ES       1125  7.47                             113    0.23 7  305 236 
 GUY2CHZ I        1125 12.34         1.9 0.52                           305 236 
                                                                                
