 2015  718 1222 18.1 L   6.809 -73.137142.6  RSN  7 0.4 1.8LRSN                1
 GAP=137        0.70       3.0     4.5  6.0  0.1709E+01  0.9853E+01 -0.6673E+00E
 Epicentro: LOS SANTOS - SANTANDER                                             3
 ACTION:UPD 15-09-08 21:49 OP:cam  STATUS:               ID:20150718122218 L   I
 OLDACT:REG 15-07-18 20:28 OP:spq  STATUS:               ID:20150718121749     3
 2015-07-18-1217-49M.COL___337                                                 6
 STAT SP IPHASW D HRMM SECON CODA AMPLIT PERI AZIMU VELO AIN AR TRES W  DIS CAZ7
 BAR2 EZ EP       1222 37.09                             170   -0.2610 24.5 192 
 BAR2 EZ ES   1   1222 52.17                             170   -0.21 7 24.5 192 
 BAR2 EZ I        1222 53.59        10.4 0.31            168           24.5 192 
 PAM  EZ EP     D 1222 39.99                             151    0.1210 76.0  39 
 PAM  EN ES   1   1222 57.15                             151    0.28 7 76.0  39 
 PAM  EZ I        1222 59.14         9.4 0.46            155           76.0  39 
 RUS  HZ EP   1   1222 42.06                             143    0.48 7  102 177 
 RUS  HN ES   1   1222 59.88                             143   -0.04 7  102 177 
 RUS  HZ I        1223  1.16         9.7 0.26            144            102 177 
 ZAR  HE ES       1223 15.67                             122    0.11 9  205 292 
 ZAR  HZ I        1223 20.96         8.8 0.26            122            205 292 
 SML  HZ EP       1222 54.08                             117   -0.39 8  243 335 
 SML  HN ES   1   1223 22.83                             117   -0.03 6  243 335 
 SML  HZ I        1223 24.13         8.7 0.30            118            243 335 
 CHI  HZ EP   1   1222 55.09                             116   -0.64 6  250 195 
 CHI  HN ES   1   1223 25.08                             116   -0.02 6  250 195 
 CHI  HZ I        1223 30.86         3.8 0.28            117            250 195 
 GUY2CHZ EP   1   1223  2.60                             112    0.91 5  303 235 
 GUY2CHE ES   4   1223 39.30                             112    3.58 0  303 235 
 GUY2CHZ I        1223 47.71         2.2 0.40                           303 235 
                                                                                
