 2014  818 1119 53.9 L   6.803 -73.157148.2  RSN 10 0.5 2.1LRSN                1
 GAP=200        1.12       4.2     6.1  6.3  0.6711E+01  0.6074E+01 -0.4978E+01E
 Epicentro: LOS SANTOS - SANTANDER                                             3
 ACTION:UPD 14-09-15 21:51 OP:nd   STATUS:               ID:20140818111953 L   I
 OLDACT:UP  14-08-18 21:20 OP:cam  STATUS:               ID:20140818112000     3
 OLDACT:UP  14-08-18 21:20 OP:cam  STATUS:               ID:20140818112000     3
 OLDACT:REG 14-08-18 20:45 OP:cam  STATUS:               ID:20140818112000     3
 2014-08-18-1120-00M.COL___285                                                 6
 STAT SP IPHASW D HRMM SECON CODA AMPLIT PERI AZIMU VELO AIN AR TRES W  DIS CAZ7
 BAR2 SZ EP     C 1120 13.91                             171    0.0810 23.5 187 
 BAR2 SZ ES       1120 29.14                             171   -0.2310 23.5 187 
 BAR2 SZ I        1120 30.09        51.2 0.28            160           23.5 187 
 BRR  HZ EP     C 1120 15.68                             153    0.4310 70.0 299 
 BRR  HN ES       1120 32.51                             153    0.6210 70.0 299 
 BRR  HZ I        1120 35.80        22.0 0.32            143           70.0 299 
 RUS  HZ EP       1120 18.38                             144    0.4510  101 175 
 RUS  HN ES       1120 36.20                             144   -0.4610  101 175 
 RUS  HZ I        1120 37.65        12.1 0.26            136            101 175 
 PTB  HZ EP       1120 20.62                             133   -0.35 9  147 259 
 PTB  HN ES       1120 41.78                             133   -0.30 9  147 259 
 PTB  HZ I        1120 43.49        14.1 0.16            123            147 259 
 SPBC HZ IP     D 1120 23.06                             130    0.52 9  163 219 
 SPBC HN ES       1120 44.36                             130   -0.52 9  163 219 
 SPBC HZ I        1120 53.27        13.9 0.32            121            163 219 
 ZAR  HZ EP       1120 26.60                             123    0.22 9  203 292 
 ZAR  HN ES       1120 51.76                             123    0.05 9  203 292 
 ZAR  HZ I        1120 58.94         7.4 0.20            116            203 292 
 SML  HZ EP     C 1120 30.33                             118   -0.25 8  243 336 
 SML  HN ES       1120 58.86                             118   -0.33 8  243 336 
 SML  HZ I        1121  2.23        18.0 0.10            113            243 336 
 HEL  HZ EP       1120 34.97                             115    0.85 8  271 256 
 HEL  HZ I        1121 11.96         6.8 0.26            109            271 256 
 URE  HE ES   4   1121  4.45                             114   -2.52 0  283 292 
 GUY2CHZ EP       1120 37.08                             113   -0.46 7  300 235 
 GUY2CHZ I        1120 42.06         2.7 0.32                           300 235 
 PRA  HZ EP   4   1120 48.26                             107    0.79 0  392 209 
 SJC  HZ EP     C 1120 48.13                             106   -1.31 6  408 327 
 SJC  HN ES   4   1121 30.11                             106   -2.64 0  408 327 
 SJC  HZ I        1121 32.68         2.7 0.74            102            408 327 
                                                                                
