 2017  618 1144 22.9 L   6.797 -73.120149.1  RSN  5 0.3 1.7LRSN                1
 GAP=282        0.67       4.1     6.3  6.9 -0.3517E+01 -0.1208E+02  0.1039E+02E
 Epicentro: LOS SANTOS - SANTANDER                                             3
 ACTION:UPD 17-09-14 16:52 OP:jn   STATUS:               ID:20170618114422 L   I
 OLDACT:DUP 17-06-18 22:53 OP:osc  STATUS:               ID:20170618113748d    3
 OLDACT:UP  17-06-18 22:50 OP:osc  STATUS:               ID:20170618113747     3
 OLDACT:REG 17-06-18 20:28 OP:osc  STATUS:               ID:20170618113747     3
 2017-06-18-1138-00M.COL___343                                                 6
 STAT SP IPHASW D HRMM SECON CODA AMPLIT PERI AZIMU VELO AIN AR TRES W  DIS CAZ7
 BRR  HZ EP       1144 44.63                             152    0.0510 73.8 298 
 BRR  HN ES       1145  1.58                             152    0.1110 73.8 298 
 PTB  HZ EP       1144 49.80                             132   -0.60 9  150 259 
 PTB  HE ES       1145 11.83                             132   -0.01 9  150 259 
 PTB  HZ I        1145 18.31         4.0 0.18            129            150 259 
 SPBC HZ EP       1144 52.05                             129    0.23 9  165 220 
 SPBC HE ES       1145 14.13                             129   -0.23 9  165 220 
 SPBC HZ I        1145 20.64         7.3 0.15            128            165 220 
 ZAR  HZ EP   4   1144 58.63                             123    2.77 0  207 292 
 ZAR  HE ES       1145 21.60                             123    0.04 8  207 292 
 ZAR  HZ I        1145 26.71         5.8 0.30            122            207 292 
 NOR  HZ EP       1144 59.42                             119    0.35 8  237 235 
 NOR  HE ES       1145 27.45                             119    0.18 8  237 235 
 NOR  HZ I        1145 30.64         2.5 0.09            118            237 235 
                                                                                
