 2017  818 1929 47.4 L   6.760 -73.121142.0  RSN  9 0.4 1.8LRSN                1
 GAP=141        0.71       3.0     3.2  4.7 -0.1373E+01  0.5562E+01  0.2500E+01E
 Epicentro: LOS SANTOS - SANTANDER                                             3
 ACTION:UPD 17-09-04 20:21 OP:rebc STATUS:               ID:20170818192947 L   I
 OLDACT:UP  17-08-18 23:07 OP:and  STATUS:               ID:20170818192736     3
 OLDACT:UP  17-08-18 23:05 OP:and  STATUS:               ID:20170818192736     3
 OLDACT:REG 17-08-18 20:59 OP:and  STATUS:               ID:20170818192736     3
 2017-08-18-1928-00M.COL___408                                                 6
 STAT SP IPHASW D HRMM SECON CODA AMPLIT PERI AZIMU VELO AIN AR TRES W  DIS CAZ7
 BAR2 EZ IP     D 1930  6.35                             172   -0.2010 19.8 200 
 BAR2 EZ ES       1930 21.36                             172   -0.1010 19.8 200 
 BAR2 EZ I        1930 22.33        16.9 0.30            169           19.8 200 
 BRR  HZ EP       1930  8.21                             150   -0.2410 75.7 300 
 BRR  HN ES       1930 25.27                             150    0.4310 75.7 300 
 BRR  HZ I        1930 32.06        17.3 0.38            150           75.7 300 
 PAM  EZ IP     D 1930  9.18                             150   -0.1910 79.2  36 
 PAM  EN ES       1930 26.37                             150   -0.1010 79.2  36 
 PAM  EZ I        1930 28.61        11.9 0.62            155           79.2  36 
 RUS  HZ EP       1930 10.69                             144    0.2010 96.0 177 
 RUS  HN ES       1930 28.70                             144    0.2210 96.0 177 
 RUS  HZ I        1930 29.69         5.5 0.22            146           96.0 177 
 SPBC HN ES   2   1930 38.04                             129    0.67 5  162 221 
 SPBC HZ I        1930 43.23         6.8 0.15            130            162 221 
 ZAR  HZ EP   3   1930 21.52                             121    1.44 2  208 293 
 ZAR  HN ES       1930 45.48                             121   -0.05 8  208 293 
 ZAR  HZ I        1930 50.37         8.3 0.28            123            208 293 
 NOR  HZ EP       1930 23.00                             118    0.08 8  234 236 
 NOR  HN ES       1930 50.06                             118   -0.53 8  234 236 
 NOR  HZ I        1930 52.15         3.8 0.14            119            234 236 
 CHI  HN ES   3   1930 52.43                             117   -1.06 2  245 196 
 CHI  HZ I        1931  0.75         2.4 0.42            119            245 196 
 GUY2CHZ EP       1930 31.39                             112    0.55 7  301 236 
 GUY2CHN ES       1931  4.42                             112   -0.27 7  301 236 
 GUY2CHZ I        1931 10.85         2.4 0.32                           301 236 
                                                                                
