 2010  918 1845 31.7 L   6.802 -73.056140.8  RSN  6 0.2 2.0LRSN                1
 GAP=174        0.54       4.2    11.1  8.6  0.1808E+02 -0.4591E+02 -0.1627E+02E
 Epicentro: LOS SANTOS - SANTANDER                                             3
 ACTION:UP  11-02-18 11:03 OP:tino STATUS:               ID:20100918184531 L   I
 2010-09-18-1844-39S.COL___121                                                 6
 STAT SP IPHASW D HRMM SECON CODA AMPLIT PERI AZIMU VELO SNR AR TRES W  DIS CAZ7
 BTL  SZ EP   1   1845 51.27                             169     0.5 7   27 299 
 BAR2 SZ IP     C 1845 50.80                             169     0.010   27 211 
 BAR2 SZ ES   2   1846  5.55                             169    -0.2 5   27 211 
 BAR2 SZ I        1846  6.43        28.0 0.27                            27 211 
 BRR  HZ EP   1   1845 52.67                             149    -0.2 7   80 295 
 BRR  HE ES   2   1846  9.50                             149     0.2 5   80 295 
 BRR  HZ I        1846 14.04        29.4 0.11                            80 295 
 RUS  HZ EP   1   1845 54.80                             143    -0.1 7  101 182 
 RUS  HN ES   2   1846 12.94                             143    -0.2 5  101 182 
 RUS  HZ I        1846 14.77         7.1 0.30                           101 182 
 GUE  SZ EP   1   1845 55.97                             139     0.2 7  115   7 
 OCA  SZ EP   1   1845 59.49                             128    -0.2 7  162 350 
 OCA  SZ ES   2   1846 21.28                             128    -0.3 5  162 350 
 OCA  SZ I        1846 24.49        11.5 0.43                           162 350 
                                                                                
