 2012 1118 1005 40.8 L   6.814 -73.161138.2  RSN 20 0.6 2.4LRSN                1
 GAP= 70        1.39       3.4     4.0  5.6 -0.2309E+01  0.4879E+01  0.3761E+01E
 Epicentro: LOS SANTOS - SANTANDER                                             3
 ACTION:UPD 12-12-05 15:34 OP:}ep  STATUS:               ID:20121118100540 L   I
 2012-11-18-1000-00M.COL___234                                                 6
 STAT SP IPHASW D HRMM SECON CODA AMPLIT PERI AZIMU VELO AIN AR TRES W  DIS CAZ7
 BAR2 SZ IP       10 5 59.69                             169    0.1110 24.7 185 
 BAR2 SZ ES       10 6 13.77                             169   -0.4410 24.7 185 
 BAR2 SZ I        10 6 16.55        58.0 0.18                          24.7 185 
 GIR2 SZ EP       10 5 59.79                             167    0.2410 29.4 353 
 GIR2 SZ ES       10 6 14.16                             167    0.0010 29.4 353 
 BRR  HZ IP     C 10 6  1.54                             152    0.5010 68.9 298 
 BRR  HN ES       10 6 17.85                             152    1.0510 68.9 298 
 BRR  HN I        10 6 18.60        67.1 0.30                          68.9 298 
 PAM  SZ IP       10 6  2.64                             149    0.4010 77.3  41 
 PAM  SZ I        10 6  2.79        39.5 0.22                          77.3  41 
 PAM  SN ES       10 6 19.26                             149    0.3210 77.3  41 
 RUS  HZ IP     C 10 6  3.73                             142   -0.2410  102 175 
 RUS  HN ES       10 6 21.75                             142   -0.2810  102 175 
 RUS  HN I        10 6 23.66        32.8 0.24                           102 175 
 PTB  HZ EP       10 6  6.28                             130   -0.79 9  146 258 
 PTB  HN ES       10 6 26.31                             130   -1.22 9  146 258 
 PTB  HN I        10 6 29.76        54.3 0.54                           146 258 
 TAM  HZ IP     D 10 6  8.08                             128   -0.04 9  157 105 
 TAM  HZ I        10 6  8.19        25.0 0.18                           157 105 
 TAM  HN ES       10 6 29.43                             128    0.03 9  157 105 
 OCA  HZ EP       10 6  8.78                             128    0.39 9  158 354 
 OCA  HN ES       10 6 29.33                             128   -0.56 9  158 354 
 OCA  HN I        10 6 33.30        54.9 0.36                           158 354 
 ZAR  HZ EP       10 6 12.67                             121    0.11 9  202 292 
 ZAR  HN I        10 6 43.57        32.7 0.24                           202 292 
 SML  HZ EP       10 6 15.93                             116   -0.87 8  242 335 
 SML  HN I        10 6 52.43        27.5 0.28                           242 335 
 CHI  HZ EP       10 6 18.03                             115   -0.21 8  250 195 
 CHI  HZ I        10 6 20.31         4.8 0.56                           250 195 
 CHI  HN ES       10 6 47.35                             115   -0.07 8  250 195 
 ROSC BZ EP       10 6 19.57                             115    0.97 8  253 211 
 ROSC BZ I        10 6 21.62        10.9 0.60                           253 211 
 ROSC BE ES       10 6 47.80                             115   -0.27 8  253 211 
 HEL  HZ EP       10 6 21.32                             113    0.79 8  271 255 
 HEL  HE ES       10 6 51.33                             113   -0.16 8  271 255 
 HEL  HN I        10 6 59.15        10.4 0.38                           271 255 
 GUY  SZ EP       10 6 24.93                             111    0.62 7  303 235 
 GUY  SN ES       10 6 59.19                             111    0.96 7  303 235 
 GUY  SN I        10 7  5.90        37.7 0.24                           303 235 
 RREF HZ EP       10 6 26.97                             109    0.34 7  322 229 
 RREF HZ I        10 7  7.17         4.9 0.20                           322 229 
 TOL  SZ EP       10 6 29.86                             108    1.08 7  343 224 
 SDV  BZ EP       10 6 29.43                             107   -1.20 6  361  51 
 PRA  HZ EP       10 6 33.62                             105   -0.54 6  393 209 
 PRA  HN ES       10 7 14.75                             105   -1.01 6  393 209 
 PRA  HN I        10 7 21.18        33.1 1.00                           393 209 
 SJA  SZ EP       10 6 36.04                             105    0.76 6  401 193 
 SJA  SZ ES       10 7 17.16                             105   -0.59 6  401 193 
 SJC  HZ EP       10 6 34.72                             104   -1.16 6  407 327 
                                                                                
