 2015  118 1231 51.0 L   6.792 -73.152145.6  RSN 10 0.4 2.2LRSN                1
 GAP=149        1.01       3.4     4.6  6.4 -0.3370E+01  0.3310E+01  0.1479E+01E
 Epicentro: LOS SANTOS - SANTANDER                                             3
 ACTION:UPD 15-03-02 15:40 OP:nd   STATUS:               ID:20150118123151 L   I
 OLDACT:UP  15-01-18 23:32 OP:mh   STATUS:               ID:20150118122744     3
 OLDACT:REG 15-01-18 21:15 OP:mh   STATUS:               ID:20150118122744     3
 2015-01-18-1227-44M.COL___258                                                 6
 STAT SP IPHASW D HRMM SECON CODA AMPLIT PERI AZIMU VELO AIN AR TRES W  DIS CAZ7
 BAR2 EZ EP       1232 10.60                             171    0.0210 22.4 189 
 BAR2 EZ ES       1232 25.29                             171   -0.5710 22.4 189 
 BAR2 EZ I        1232 27.07        18.3 0.24            170           22.4 189 
 BRR  HZ EP   1   1232 12.75                             153    0.64 7 71.0 299 
 BRR  HN ES       1232 29.32                             153    0.7310 71.0 299 
 BRR  HZ I        1232 33.53        16.2 0.26            150           71.0 299 
 PAM  SZ EP   1   1232 13.64                             151    0.39 7 78.5  40 
 PAM  SN ES       1232 30.74                             151    0.1210 78.5  40 
 PAM  SZ I        1232 32.41        32.4 0.54            152           78.5  40 
 PTB  HZ EP   1   1232 17.46                             132   -0.40 7  147 259 
 PTB  HN ES       1232 38.61                             132   -0.22 9  147 259 
 PTB  HZ I        1232 40.79        13.1 0.38            131            147 259 
 OCA  HZ EP   1   1232 19.42                             130    0.07 7  161 353 
 OCA  HN ES       1232 41.33                             130   -0.16 9  161 353 
 OCA  HZ I        1232 46.08        15.5 0.18            130            161 353 
 SPBC HZ EP   1   1232 19.70                             129    0.33 7  162 219 
 SPBC HN ES       1232 41.20                             129   -0.31 9  162 219 
 SPBC HZ I        1232 43.31        22.6 0.42            129            162 219 
 ZAR  HZ EP   4   1232 25.49                             122    2.10 0  204 292 
 ZAR  HN ES       1232 48.84                             122    0.17 9  204 292 
 ZAR  HZ I        1232 55.32        10.7 0.28            122            204 292 
 SML  HZ EP   1   1232 27.06                             117   -0.59 6  244 336 
 SML  HN ES   1   1232 55.38                             117   -0.88 6  244 336 
 SML  HZ I        1232 58.26        29.7 0.10            118            244 336 
 CHI  HZ EP       1232 28.66                             117    0.10 8  248 195 
 CHI  HN ES   1   1232 57.99                             117    0.11 6  248 195 
 CHI  HZ I        1233  3.64         4.0 0.62            118            248 195 
 TOL  SZ EP   9   1232 40.71                             109    1.60 0  342 225 
 TOL  SN ES       1233 19.36                                    1.11 7  342 225 
 TOL  SZ I        1233 21.28        11.9 0.42            110            342 225 
                                                                                
