 2013  618 1024  1.8 L   6.801 -73.169148.5  RSN  8 0.4 2.0LRSN                1
 GAP=181        0.78       3.0     4.8  5.4  0.1746E+01  0.4935E+01 -0.3285E+00E
 Epicentro: LOS SANTOS - SANTANDER                                             3
 ACTION:UPD 14-01-08 09:55 OP:ep   STATUS:               ID:20130618102401 L   I
 OLDACT:UP  13-06-18 15:51 OP:cam  STATUS:               ID:20130618102000     3
 OLDACT:REG 13-06-18 14:34 OP:cam  STATUS:               ID:20130618102000     3
 2013-06-18-1020-00M.COL___260                                                 6
 STAT SP IPHASW D HRMM SECON CODA AMPLIT PERI AZIMU VELO AIN AR TRES W  DIS CAZ7
 BAR2 SZ EP       1024 21.49                             171   -0.2110 23.1 184 
 BAR2 SZ ES       1024 37.52                             171    0.2510 23.1 184 
 BAR2 SZ I        1024 38.03        15.7 0.23            169           23.1 184 
 BRR  HZ EP       1024 23.29                             154    0.2210 68.9 299 
 BRR  HE ES   1   1024 40.05                             154    0.35 7 68.9 299 
 BRR  HZ I        1024 40.80        20.0 0.32            153           68.9 299 
 RUS  HZ EP       1024 25.89                             144    0.1010  101 175 
 RUS  HN ES       1024 44.35                             144   -0.1910  101 175 
 RUS  HZ I        1024 45.63         9.3 0.26            143            101 175 
 PTB  HZ EP       1024 28.40                             133   -0.32 9  145 259 
 PTB  HN ES       1024 49.27                             133   -0.48 9  145 259 
 PTB  HZ I        1024 51.76        11.9 0.12            132            145 259 
 OCA  HE ES   1   1024 52.56                             130    0.10 7  160 354 
 OCA  HZ I        1024 54.39        12.8 0.18            130            160 354 
 NOR  HZ EP   1   1024 38.16                             119    0.74 6  233 234 
 NOR  HE ES   1   1025  5.83                             119    0.58 6  233 234 
 NOR  HZ I        1025  7.55         5.6 0.24            118            233 234 
 SML  HZ EP   1   1024 37.95                             118   -0.46 6  243 336 
 SML  HE ES   1   1025  6.90                             118   -0.10 6  243 336 
 SML  HZ I        1025  8.90        20.6 0.10            118            243 336 
 CHI  HZ EP   1   1024 40.10                             118    0.56 6  248 195 
 CHI  HN ES   1   1025  8.45                             118   -0.56 6  248 195 
 CHI  HZ E        1025  9.98                                            248 195 
 CHI  HZ I        1025 16.48         4.0 0.46            117            248 195 
                                                                                
