 2013  418 1907 56.5 L   6.731 -73.191141.3  RSN  7 0.4 2.4LRSN                1
 GAP=134        1.02       4.3     5.6  6.3  0.7741E+00  0.1712E+01  0.6943E+01E
 Epicentro: VILLANUEVA - SANTANDER                                             3
 ACTION:UPD 13-05-22 14:39 OP:EP   STATUS:               ID:20130418190756 L   I
 2013-04-18-1858-50M.COL___217                                                 6
 STAT SP IPHASW D HRMM SECON CODA AMPLIT PERI AZIMU VELO AIN AR TRES W  DIS CAZ7
 BAR2 SZ IP     C 19 8 15.53                             174    0.0310 15.4 176 
 BAR2 SZ ES       19 8 30.24                             174   -0.0410 15.4 176 
 BAR2 SZ I        19 8 32.77        53.2 0.20            171           15.4 176 
 GIR2 SZ EP       19 8 15.83                             164   -0.0710 38.4 360 
 GIR2 SZ ES       19 8 30.61                             164   -0.3910 38.4 360 
 BRR  HZ IP     D 19 8 17.61                             152    0.4210 71.0 306 
 BRR  HN ES       19 8 34.20                             152    0.9010 71.0 306 
 BRR  HN I        19 8 35.49        89.3 0.20            152           71.0 306 
 PAM  SZ EP       19 8 18.68                             147   -0.1810 86.5  39 
 RUS  HZ IP     D 19 8 19.28                             145   -0.0610 93.5 173 
 RUS  HN ES       19 8 37.00                             145   -0.1310 93.5 173 
 RUS  HN I        19 8 41.50        18.8 0.26            146           93.5 173 
 PTB  HZ EP       19 8 22.28                             132   -0.29 9  141 261 
 PTB  HN ES       19 8 42.19                             132   -0.69 9  141 261 
 PTB  HN I        19 8 48.70        47.0 0.62            133            141 261 
 CHI  HZ EP       19 8 33.23                             117    0.18 8  240 194 
 CHI  HN ES       19 9  1.98                             117    0.45 8  240 194 
                                                                                
