 2013 1018 1439 24.0 L   6.801 -73.140143.3  RSN 10 0.5 2.6LRSN                1
 GAP=137        1.18       4.5     5.3  7.2 -0.1115E+01  0.1279E+02  0.2497E+01E
 Epicentro: LOS SANTOS - SANTANDER                                             3
 ACTION:UPD 13-11-25 09:22 OP:ep   STATUS:               ID:20131018143924 L   I
 OLDACT:UP  13-10-18 16:45 OP:cam  STATUS:               ID:20131018142848     3
 OLDACT:REG 13-10-18 16:12 OP:cam  STATUS:               ID:20131018142848     3
 2013-10-18-1428-48M.COL___220                                                 6
 STAT SP IPHASW D HRMM SECON CODA AMPLIT PERI AZIMU VELO AIN AR TRES W  DIS CAZ7
 BAR2 SZ EP       1439 43.44                             170    0.0810 23.6 191 
 BAR2 SZ ES       1439 57.26                             170   -1.1910 23.6 191 
 BAR2 SZ I        1439 59.84       166.5 0.18            169           23.6 191 
 BRR  HZ IP       1439 45.24                             152    0.3110 71.7 298 
 BRR  HN ES       1440  2.00                             152    0.7610 71.7 298 
 BRR  HZ I        1440  5.72        54.9 0.44            149           71.7 298 
 PAM  SZ EP   1   1439 46.36                             150    0.41 7 76.9  39 
 PAM  SN ES       1440  3.40                             150    0.3510 76.9  39 
 PAM  SZ I        1440  5.28        68.6 0.46            156           76.9  39 
 RUS  HZ EP       1439 47.47                             143   -0.0710  101 176 
 RUS  HN ES   1   1440  6.09                             143    0.21 7  101 176 
 RUS  HZ I        1440  7.67        27.6 0.32            147            101 176 
 PTB  HZ EP       1439 50.02                             131   -0.83 9  148 259 
 PTB  HN ES   1   1440 11.36                             131   -0.41 7  148 259 
 PTB  HZ I        1440 18.38        47.0 0.44            131            148 259 
 SPBC HZ EP       1439 52.46                             128    0.08 9  164 219 
 SPBC HN ES       1440 14.89                             128    0.39 9  164 219 
 SPBC HZ I        1440 18.99        50.7 0.38            130            164 219 
 ZAR  HZ EP       1439 56.29                             122   -0.07 9  205 292 
 ZAR  HE ES       1440 21.68                             122    0.10 9  205 292 
 ZAR  HZ I        1440 27.42        45.8 0.36            123            205 292 
 NOR  HZ EP       1439 59.99                             118    0.32 8  235 235 
 NOR  HN ES   1   1440 27.79                             118    0.31 6  235 235 
 NOR  HZ I        1440 32.89        24.0 0.22            119            235 235 
 SML  HZ EP   2   1439 59.74                             117   -0.78 4  244 335 
 SML  HN ES   1   1440 28.21                             117   -0.79 6  244 335 
 SML  HZ I        1440 32.73        40.8 0.10            119            244 335 
 HEL  HZ EP   4   1440  5.70                             114    1.52 0  273 256 
 GUY2CHZ EP   4   1440  7.62                             112    0.04 0  302 235 
 PRA  HZ EP   2   1440 17.47                             106   -0.04 3  392 210 
                                                                                
