 2013  518 1044 41.6 L   6.755 -73.178149.2  RSN  5 0.5 1.2LRSN                1
 GAP=197        0.98       7.1     9.5 10.3  0.3005E+02  0.4207E+01 -0.1227E+02E
 Epicentro: VILLANUEVA - SANTANDER                                             3
 ACTION:UPD 13-06-20 09:51 OP:ep   STATUS:               ID:20130518104441 L   I
 2013-05-18-1040-00M.COL___256                                                 6
 STAT SP IPHASW D HRMM SECON CODA AMPLIT PERI AZIMU VELO AIN AR TRES W  DIS CAZ7
 BAR2 SZ EP   1   1045  1.52                             173   -0.03 7 18.0 181 
 BAR2 SZ ES   1   1045 17.23                             173    0.12 7 18.0 181 
 BAR2 SZ I        1045 19.25         3.3 0.36            165           18.0 181 
 BRR  HZ EP   1   1045  3.81                             153    0.72 7 70.7 303 
 BRR  HN ES   1   1045 20.37                             153    0.52 7 70.7 303 
 RUS  HZ EP   1   1045  5.41                             146    0.04 7 96.0 174 
 RUS  HN ES   1   1045 23.18                             146   -0.72 7 96.0 174 
 RUS  HZ I        1045 27.30         1.8 0.38            144           96.0 174 
 PTB  HZ EP   1   1045  8.72                             134    0.27 7  143 260 
 PTB  HN ES   1   1045 29.12                             134   -0.28 7  143 260 
 PTB  HZ I        1045 35.71         3.5 0.40            131            143 260 
 SML  HN ES   1   1045 46.69                             118   -1.03 6  247 337 
                                                                                
