 2014  818 1115 51.7 L   6.925 -73.224122.0  RSN  5 0.3 1.6LRSN                1
 GAP=197        0.88       4.9     5.3  6.7  0.3653E+01  0.5931E+01 -0.1379E+02E
 Epicentro: BETULIA - SANTANDER                                                3
 ACTION:UPD 14-09-15 21:51 OP:nd   STATUS:               ID:20140818111551 L   I
 OLDACT:UP  14-08-18 21:11 OP:cam  STATUS:               ID:20140818111000     3
 OLDACT:REG 14-08-18 20:45 OP:cam  STATUS:               ID:20140818111000     3
 2014-08-18-1110-00M.COL___285                                                 6
 STAT SP IPHASW D HRMM SECON CODA AMPLIT PERI AZIMU VELO AIN AR TRES W  DIS CAZ7
 BAR2 SZ EP     C 1116  9.40                             162    0.4910 37.1 173 
 BAR2 SZ ES       1116 21.87                             162   -0.4610 37.1 173 
 BRR  HZ EP       1116 10.01                             153    0.4910 57.6 291 
 BRR  HN ES       1116 23.57                             153    0.1610 57.6 291 
 BRR  HZ I        1116 26.08         8.7 0.16            150           57.6 291 
 PTB  HZ EP       1116 16.08                             127   -0.28 9  143 253 
 PTB  HN ES       1116 35.41                             127   -0.18 9  143 253 
 PTB  HZ I        1116 36.49         6.2 0.36            128            143 253 
 ZAR  HZ EP       1116 21.44                             118    0.12 9  191 289 
 ZAR  HE ES       1116 44.51                             118    0.09 9  191 289 
 ZAR  HZ I        1116 49.10         2.7 0.14            119            191 289 
 SML  HZ EP       1116 24.72                             114   -0.58 8  228 336 
 SML  HE ES       1116 51.44                             114   -0.07 8  228 336 
 SML  HZ I        1116 56.20         8.1 0.10            114            228 336 
                                                                                
