 2016  818 1518 28.4 L   6.800 -73.127143.5  RSN 22 0.8 2.9LRSN                1
 GAP=121        1.69       5.3     5.3  7.7 -0.6112E+01  0.9542E+01  0.7071E+01E
 Epicentro: LOS SANTOS - SANTANDER                                             3
 ACTION:UPD 16-10-29 15:36 OP:rebc STATUS:               ID:20160818151828 L   I
 OLDACT:REG 16-08-18 20:30 OP:dnl  STATUS:               ID:20160818151745     3
 2016-08-18-1518-00M.COL___365                                                 6
 STAT SP IPHASW D HRMM SECON CODA AMPLIT PERI AZIMU VELO AIN AR TRES W  DIS CAZ7
 BAR2 EZ IP     D 1518 47.76                             170   -0.0310 23.8 195 
 BAR2 EZ ES       1519  2.95                             170    0.0510 23.8 195 
 BAR2 EZ I        1519  4.43       200.1 0.16                          23.8 195 
 BRR  HZ EP       1518 49.60                             152    0.1610 73.1 298 
 BRR  HN ES       1519  6.56                             152    0.7310 73.1 298 
 BRR  HZ I        1519  9.81       131.0 0.42                          73.1 298 
 PAM  EZ EP       1518 50.71                             151    0.3810 76.1  38 
 PAM  EN ES       1519  7.51                             151    0.1110 76.1  38 
 PAM  EZ I        1519  9.95       263.7 0.50                          76.1  38 
 RUS  HZ EP       1518 51.70                             143   -0.2510  100 177 
 RUS  HN ES       1519 10.44                             143    0.1510  100 177 
 RUS  HZ I        1519 11.66        85.9 0.32                           100 177 
 PTB  HZ EP       1518 54.62                             131   -0.78 9  150 259 
 PTB  HN ES       1519 15.48                             131   -0.96 9  150 259 
 PTB  HZ I        1519 21.67        37.9 0.26                           150 259 
 SPBC HN ES       1519 18.49                             128   -0.58 9  164 220 
 SPBC HZ I        1519 23.45       116.8 0.32                           164 220 
 ZAR  HZ EP       1519  0.35                             122   -0.58 8  206 292 
 ZAR  HN ES       1519 25.68                             122   -0.60 8  206 292 
 ZAR  HZ I        1519 32.57        65.6 0.40                           206 292 
 NOR  HZ EP       1519  3.76                             118   -0.45 8  236 235 
 NOR  HE ES       1519 32.03                             118   -0.09 8  236 235 
 NOR  HZ I        1519 39.64        44.8 0.16                           236 235 
 CHI  HZ EP       1519  6.06                             117   -0.00 8  249 196 
 CHI  HN ES       1519 35.16                             117   -0.25 8  249 196 
 CHI  HZ I        1519 39.02        53.5 0.54                           249 196 
 ROSC BZ EP   4   1519  7.86                             116    1.32 0  254 211 
 ROSC BE ES       1519 36.24                             116   -0.03 8  254 211 
 ROSC BZ I        1519 41.59        89.7 0.45                           254 211 
 HEL  HZ EP       1519 11.24                             114    2.49 8  274 256 
 HEL  HN ES       1519 39.74                             114   -0.46 8  274 256 
 URE  HZ EP   4   1519  8.08                             113   -1.53 0  286 292 
 URE  HN ES   4   1519 39.06                             113   -2.67 0  286 292 
 URE  HZ I        1519 50.85        44.8 0.22                           286 292 
 SOCV BZ EP       1519 10.63                             112   -0.55 7  300  57 
 SOCV BN ES   4   1519 42.24                             112   -2.28 0  300  57 
 GUY2CHZ EP       1519 12.31                             112    0.18 7  303 235 
 GUY2CHN ES       1519 48.99                             112    2.78 7  303 235 
 GUY2CHZ I        1519 53.90        36.5 0.32                           303 235 
 CBOC HZ EP       1519 16.03                             109    0.55 7  336 252 
 CBOC HN ES       1519 51.42                             109   -0.76 7  336 252 
 CBOC HZ I        1519 55.94         9.9 0.16                           336 252 
 DBB  EZ EP   9   1519 13.16                             109   -2.89 0  342 274 
 DBB  EZ ES       1519 51.08                                    0.77 7  342 274 
 DBB  EZ I        1519 55.79        14.4 0.30                           342 274 
 ANIL HZ EP       1519 19.11                             108    0.79 6  359 225 
 ANIL HE ES   4   1519 58.94                             108    1.71 0  359 225 
 PRA  HZ EP       1519 21.48                             106   -0.51 6  393 210 
 PRA  HN ES       1520  3.23                             106   -0.54 6  393 210 
 PRA  HZ I        1520 12.31        31.3 0.34                           393 210 
 PAL  HZ EP       1519 23.32                             105   -0.40 6  407 239 
 PAL  HE ES       1520  6.63                             105   -0.22 6  407 239 
 PAL  HZ I        1520 10.19        10.7 0.22                           407 239 
 SJC  HZ EP   4   1519 21.86                             105   -2.19 0  410 327 
 SJC  HE ES   4   1520  2.99                             105   -4.45 0  410 327 
 SJC  HZ I        1520 10.16        13.5 0.48                           410 327 
 CRJC HZ EP   9   1519 28.06                             103   -2.79 0  468   3 
 CRJC HN ES       1520 15.81                                   -0.94 5  468   3 
 CRJC HZ I        1520 22.90        25.6 0.38                           468   3 
 MACC HZ EP   4   1519 33.10                             101   -4.02 0  521 189 
 MACC HE ES   4   1520 25.86                             101   -4.84 0  521 189 
 MACC HZ I        1520 42.81        30.5 0.30                           521 189 
                                                                                
