 2011  918 1253 45.6 L   6.825 -73.084157.3  RSN 16 0.3 3.2LRSN                1
 GAP=119        0.53       2.3     3.4  4.6 -0.1495E+01  0.3848E+01  0.1328E+01E
 Epicentro: LOS SANTOS - SANTANDER                                             3
 ACTION:UPD 12-07-13 15:58 OP:ep   STATUS:               ID:20110918125345 L   I
 2011-09-18-1252-03S.COL___170                                                 6
 STAT SP IPHASW D HRMM SECON CODA AMPLIT PERI AZIMU VELO AIN AR TRES W  DIS CAZ7
 GIR2 SZ IP       1254  6.74                             168    0.0710 30.5 337 
 GIR2 SZ ES   2   1254 23.04                             168   -0.04 5 30.5 337 
 PAM  SZ IP       1254  9.43                             155    0.6810 70.9  37 
 PAM  SN ES   2   1254 26.64                             155   -0.14 5 70.9  37 
 BRR  HZ I        1254  7.43        41.8 0.13                          76.1 294 
 BRR  HE ES   2   1254 26.08                             153    0.08 5 76.1 294 
 RUS  HZ IP     D 1254 10.49                             145   -0.2310  103 180 
 RUS  HN ES   2   1254 29.46                             145   -0.82 5  103 180 
 RUS  HZ I        1254 30.66       156.7 0.33                           103 180 
 YOP  SZ EP   2   1254 16.63                             129    0.13 4  178 156 
 YOP  SE ES   2   1254 40.47                             129   -0.10 4  178 156 
 ZAR  HZ EP   2   1254 19.39                             124   -0.01 4  209 291 
 ZAR  HE ES   2   1254 46.02                             124    0.28 4  209 291 
 ZAR  HZ I        1254 51.24       201.3 0.62                           209 291 
 NOR  SZ EP   2   1254 22.56                             120   -0.26 4  242 235 
 CHI  HZ EP   2   1254 24.27                             119   -0.22 4  253 197 
 CHI  HE ES   2   1254 54.87                             119    0.07 4  253 197 
 CHI  HZ I        1255  3.62        91.0 0.67                           253 197 
 ROSC BZ EP   2   1254 25.54                             118    0.48 4  259 212 
 ROSC BN ES   2   1254 55.71                             118   -0.09 4  259 212 
 ROSC BZ I        1255  2.73       250.8 0.45                           259 212 
 HEL  HZ EP   2   1254 27.42                             116    0.15 4  279 256 
 HEL  HN ES   2   1254 59.41                             116   -0.33 4  279 256 
 HEL  HZ I        1255  7.94        39.9 0.39                           279 256 
 VIL  SZ EP   2   1254 30.05                             114   -0.02 4  308 193 
 VIL  SN ES   2   1255  4.67                             114   -0.06 4  308 193 
 VIL  SZ I        1255 14.61        86.5 0.63                           308 193 
 GUY  SZ EP   2   1254 30.61                             114   -0.26 3  311 235 
 GUY  SE ES   2   1255  6.70                             114    0.55 3  311 235 
 GUY  SZ I        1255 14.08       164.5 0.36                           311 235 
 RREF HZ EP   2   1254 33.07                             112   -0.03 3  329 230 
 RREF HN ES   2   1255  9.99                             112   -0.13 3  329 230 
 RREF HZ I        1255 19.29       109.1 0.36                           329 230 
 COD  HZ EP       1254 33.63                             111   -0.63 6  346 353 
 COD  HN ES   2   1255 11.62                             111   -0.56 3  346 353 
 COD  HZ I        1255 23.76       125.7 0.76                           346 353 
 TOL  SZ EP   2   1254 35.15                             111   -0.01 3  350 225 
 TOL  SZ ES   2   1255 13.64                             111   -0.15 3  350 225 
 PRA  HZ EP   2   1254 40.26                             108    0.00 3  398 210 
 PRA  HE ES   2   1255 23.09                             108    0.23 3  398 210 
                                                                                
