 2010  618 1831 34.4 L   6.806 -73.070148.8  RSN  7 0.3 2.0LRSN                1
 GAP=164        0.61       3.8     9.7  7.8 -0.1156E+02 -0.2606E+02 -0.1088E+01E
 Epicentro: LOS SANTOS - SANTANDER                                             3
 ACTION:UP  10-08-24 10:11 OP:vdl  STATUS:               ID:20100618183134 L   I
 2010-06-18-1827-12S.COL___118                                                 6
 STAT SP IPHASW D HRMM SECON CODA AMPLIT PERI AZIMU VELO SNR AR TRES W  DIS CAZ7
 BAR2 SZ IP       1831 54.24                             169    -0.310   27 208 
 BAR2 SZ ES   2   1832 10.29                             169     0.1 5   27 208 
 BRR  HZ EP   1   1831 56.27                             150     0.0 7   78 295 
 BRR  HN ES   2   1832 13.46                             150     0.1 5   78 295 
 BRR  HZ I        1832 17.09        40.9 0.28                            78 295 
 RUS  HZ EP   1   1831 58.18                             144    -0.3 7  101 181 
 RUS  HN ES   2   1832 17.28                             144     0.0 5  101 181 
 RUS  HZ I        1832 19.81         7.7 0.39                           101 181 
 BRI  SZ EP   1   1831 58.78                             143     0.4 7  105  17 
 GUE  SZ EP   1   1831 59.51                             140     0.3 7  114   8 
 GRA  SZ EP       1831 59.57                             138    -0.110  123  14 
 CHI  HZ EP   1   1832 12.70                             117     0.1 6  252 197 
 CHI  HZ I        1832 14.16         6.8 0.77                           252 197 
 CHI  HE ES   2   1832 43.27                             117     0.9 4  252 197 
                                                                                
