 2017  418 1152 45.3 L   6.182 -73.663111.8  RSN 27 0.5 2.9LRSN                1
 GAP= 67        0.92       1.8     1.9  4.1 -0.3396E+00  0.2137E+01  0.1307E+01E
 Epicentro: LA PAZ - SANTANDER                                                 3
 ACTION:UPD 17-05-30 21:13 OP:jn   STATUS:               ID:20170418115245 L   I
 OLDACT:UP  17-04-19 00:06 OP:dani STATUS:               ID:20170418114209     3
 OLDACT:UP  17-04-19 00:04 OP:dani STATUS:               ID:20170418114209     3
 OLDACT:UP  17-04-19 00:03 OP:dani STATUS:               ID:20170418114209     3
 OLDACT:UP  17-04-19 00:03 OP:dani STATUS:               ID:20170418114209     3
 OLDACT:REG 17-04-18 21:38 OP:dani STATUS:               ID:20170418114209     3
 2017-04-18-1148-00M.COL___368                                                 6
 STAT SP IPHASW D HRMM SECON CODA AMPLIT PERI AZIMU VELO AIN AR TRES W  DIS CAZ7
 BAR2 EZ IP     D 1153  3.29                             145    0.1910 69.8  50 
 BAR2 EZ ES       1153 17.24                             145    0.2210 69.8  50 
 RUS  HZ IP     D 1153  3.34                             145   -0.2510 71.7 117 
 RUS  HE ES       1153 17.42                             145   -0.4710 71.7 117 
 SPBC HZ EP       1153  3.08                             144   -0.1110 74.1 218 
 SPBC HN ES       1153 17.29                             144    0.1110 74.1 218 
 SPBC HZ I        1153 19.77       289.6 0.18            143           74.1 218 
 PTB  HZ IP     C 1153  3.92                             136   -0.9110 96.3 294 
 PTB  HN ES       1153 19.69                             136   -0.4010 96.3 294 
 PTB  HZ I        1153 21.78       202.3 0.60            137           96.3 294 
 BRR  HZ EP     C 1153  5.41                             134    0.0810  102 357 
 BRR  HE ES       1153 21.48                             134    0.4910  102 357 
 BRR  HZ I        1153 25.63       106.9 0.24            136            102 357 
 NOR  HZ EP       1153  9.26                             122   -0.73 9  150 243 
 NOR  HN ES       1153 28.86                             122   -0.42 9  150 243 
 NOR  HZ I        1153 31.18       194.4 0.18            123            150 243 
 ROSC BZ EP   9   1153 13.76                             120    1.74 0  165 206 
 ROSC BN ES       1153 34.20                                   -0.44 9  165 206 
 ROSC BZ I        1153 36.89        54.8 0.35            120            165 206 
 PAM  EZ EP       1153 12.26                             119   -0.00 9  166  40 
 PAM  EE ES       1153 33.77                             119    0.45 9  166  40 
 PAM  EZ I        1153 38.09        50.6 0.38            122            166  40 
 YPLC HZ IP     D 1153 11.78                             119    0.05 9  167 121 
 YPLC HE ES       1153 32.77                             119    0.39 9  167 121 
 YPLC HZ I        1153 34.46       105.7 0.22            121            167 121 
 CHI  HZ EP       1153 12.32                             118   -0.42 9  172 183 
 CHI  HN ES       1153 34.36                             118    0.18 9  172 183 
 CHI  HZ I        1153 37.62        46.7 0.28            119            172 183 
 ZAR  HZ EP       1153 14.77                             114   -0.08 9  196 318 
 ZAR  HE ES       1153 38.41                             114    0.47 9  196 318 
 ZAR  HZ I        1153 39.88       262.6 0.26            116            196 318 
 HEL  HZ EP       1153 16.22                             113   -0.26 8  207 270 
 HEL  HN ES       1153 40.73                             113   -0.11 8  207 270 
 HEL  HZ I        1153 45.50        49.8 0.30            114            207 270 
 VIL  EZ EP       1153 18.78                             111    0.07 8  229 181 
 VIL  EE ES   1   1153 45.59                             111    0.78 6  229 181 
 VIL  EZ I        1153 48.15       104.9 0.36            112            229 181 
 RECRCHZ EP   3   1153 20.68                             111    1.22 2  231 234 
 RECRCHN ES       1153 46.54                             111    0.40 8  231 234 
 ELA  HZ EP       1153 20.67                             110   -0.00 8  242 233 
 ELA  HN ES       1153 48.60                             110    0.30 8  242 233 
 ELA  HZ I        1153 57.53        41.2 0.56            110            242 233 
 CBOC HZ EP       1153 22.89                             107    0.27 8  262 262 
 CBOC HN ES       1153 52.56                             107    0.79 8  262 262 
 CBOC HZ I        1153 55.10        33.5 0.52            108            262 262 
 ANIL HZ EP       1153 23.60                             107    0.11 8  269 226 
 ANIL HN ES       1153 53.37                             107    0.05 8  269 226 
 ANIL HZ I        1153 57.93       103.6 0.28            108            269 226 
 URE  HZ EP   9   1153 21.89                             107   -1.39 0  270 310 
 URE  HE ES       1153 50.73                             108   -0.82 8  270 310 
 URE  HZ I        1153 52.74       118.0 0.32            108            270 310 
 PTGC HZ EP   9   1153 22.82                             106   -1.30 0  277 142 
 PTGC HN ES       1153 52.47                             107   -0.67 7  277 142 
 PTGC HZ I        1153 56.92        39.2 0.21            107            277 142 
 DBB  EZ EP       1153 26.41                             105   -0.07 7  296 288 
 DBB  EE ES   3   1153 56.99                             105   -1.65 2  296 288 
 DBB  EZ I        1154  1.87        29.3 0.18            106            296 288 
 PRA  HZ EP       1153 26.71                             104   -0.71 7  305 206 
 PRA  HN ES       1154  0.47                             104    0.16 7  305 206 
 PRA  HZ I        1154  5.94        42.2 0.24            105            305 206 
 ORTC HZ EP   1   1153 27.66                             104    0.03 5  307 215 
 ORTC HE ES   3   1154  2.27                             104    1.59 2  307 215 
 ORTC HZ I        1154 10.11        40.8 0.86            105            307 215 
 PAL  HZ EP       1153 29.81                             103    0.22 7  323 244 
 PAL  HN ES       1154  4.51                             103    0.34 7  323 244 
 PAL  HZ I        1154  6.94        19.6 0.22            104            323 244 
 APAC HZ EP   1   1153 35.92                             100    0.31 5  374 301 
 APAC HN ES   3   1154 12.93                             100   -1.96 2  374 301 
 APAC HZ I        1154 18.26        24.1 0.59            101            374 301 
 LL6C HN EP   9   1153 20.59                              99   -17.6 0  395   6 
 LL6C HN ES       1154  2.00                                    0.14 6  395   6 
 SJC  HZ EP   3   1153 42.11                              98   -1.94 1  443 338 
 SJC  HE ES   4   1154 26.57                              98   -3.33 0  443 338 
 SJC  HZ I        1154 31.18        13.6 0.64             99            443 338 
 GARC HZ EP       1153 49.40                              96   -0.06 4  486 205 
 GARC HN ES   4   1154 36.88                              96   -2.67 0  486 205 
 GARC HZ I        1154 40.81        17.1 0.18             97            486 205 
                                                                                
