 2016  518 1950 10.6 L   6.759 -73.119145.2  RSN  7 0.3 2.1LRSN                1
 GAP=142        0.76       3.2     3.3  4.9 -0.4240E+00  0.4137E+01  0.7755E-01E
 Epicentro: LOS SANTOS - SANTANDER                                             3
 ACTION:UPD 16-08-18 17:47 OP:cam  STATUS:               ID:20160518195010 L   I
 OLDACT:REG 16-05-18 21:27 OP:drio STATUS:               ID:20160518194742     3
 2016-05-18-1947-42M.COL___303                                                 6
 STAT SP IPHASW D HRMM SECON CODA AMPLIT PERI AZIMU VELO AIN AR TRES W  DIS CAZ7
 BAR2 EZ IP     C 1950 29.95                             172   -0.1210 19.8 201 
 BAR2 EZ ES       1950 44.93                             172   -0.3510 19.8 201 
 BAR2 EZ I        1950 46.48        30.8 0.44            170           19.8 201 
 BRR  HZ EP       1950 31.88                             151   -0.0610 76.0 300 
 BRR  HN ES       1950 49.10                             151    0.4910 76.0 300 
 BRR  HZ I        1950 53.18        20.5 0.10            150           76.0 300 
 PAM  EZ IP       1950 32.94                             150    0.1110 79.1  36 
 PAM  EN ES       1950 49.98                             150   -0.2210 79.1  36 
 PAM  EZ I        1950 51.68        16.3 0.34            154           79.1  36 
 RUS  HZ EP       1950 34.20                             145    0.2610 95.9 178 
 RUS  HE ES       1950 52.46                             145    0.3010 95.9 178 
 RUS  HZ I        1950 53.37        13.3 0.22            147           95.9 178 
 PTB  HZ EP       1950 37.04                             131   -0.65 9  150 261 
 PTB  HN ES       1950 58.81                             131   -0.03 9  150 261 
 PTB  HZ I        1951  1.78        12.5 0.12            132            150 261 
 SPBC HZ EP       1950 38.93                             129    0.05 9  162 221 
 SPBC HN ES       1951  0.84                             129   -0.12 9  162 221 
 SPBC HZ I        1951  7.77        20.2 0.24            130            162 221 
 ZAR  HZ EP       1950 43.80                             122    0.36 8  209 293 
 ZAR  HE ES       1951  9.06                             122   -0.02 8  209 293 
 ZAR  HZ I        1951 14.47        20.7 0.22            123            209 293 
                                                                                
