 2017 1218 1554 57.5 L   6.695 -73.127147.2  RSN  4 0.3 1.4LRSN                1
 GAP=175        0.87       8.0     4.7  8.1 -0.1290E+02  0.1305E+02 -0.7199E+01E
 Epicentro: JORDAN - SANTANDER                                                 3
 ACTION:UPD 18-01-04 13:21 OP:rebc STATUS:               ID:20171218155457 L   I
 OLDACT:UP  17-12-18 22:51 OP:dani STATUS:               ID:20171218154510     3
 OLDACT:REG 17-12-18 20:46 OP:dani STATUS:               ID:20171218154510     3
 2017-12-18-1548-00M.COL___451                                                 6
 STAT SP IPHASW D HRMM SECON CODA AMPLIT PERI AZIMU VELO AIN AR TRES W  DIS CAZ7
 BAR2 EZ EP       1555 17.56                             175    0.3910 12.9 209 
 BAR2 EZ ES       1555 32.74                             175    0.2510 12.9 209 
 BAR2 EZ I        1555 34.13        10.0 0.16            172           12.9 209 
 PAM  EZ EP       1555 20.46                             148    0.0610 85.5  33 
 PAM  EN ES       1555 37.88                             148   -0.3610 85.5  33 
 PAM  EZ I        1555 39.66         3.9 0.56            153           85.5  33 
 PTB  HZ EP       1555 24.26                             132   -0.38 9  148 263 
 PTB  HN ES       1555 45.40                             132   -0.38 9  148 263 
 PTB  HZ I        1555 52.47         1.9 0.48            133            148 263 
 ZAR  HE ES       1555 57.10                             122    0.44 8  211 295 
                                                                                
