 2016  218 1843 53.6 L   6.814 -73.164141.6  RSN  8 0.3 1.6LRSN                1
 GAP=134        0.61       3.3     3.2  4.7 -0.5635E+01  0.5379E+01 -0.5341E+00E
 Epicentro: LOS SANTOS - SANTANDER                                             3
 ACTION:UPD 16-03-04 21:27 OP:rebc STATUS:               ID:20160218184353 L   I
 OLDACT:REG 16-02-18 21:15 OP:ak   STATUS:               ID:20160218183750     3
 2016-02-18-1837-50M.COL___313                                                 6
 STAT SP IPHASW D HRMM SECON CODA AMPLIT PERI AZIMU VELO AIN AR TRES W  DIS CAZ7
 BAR2 EZ EP       1844 12.62                             170   -0.1310 24.7 185 
 BAR2 EZ ES       1844 27.85                             170    0.1510 24.7 185 
 BAR2 EZ I        1844 30.37         7.7 0.14            171           24.7 185 
 PAM  EZ EP       1844 15.57                             150    0.1910 77.5  41 
 PAM  EN ES       1844 32.44                             150    0.0710 77.5  41 
 PAM  EZ I        1844 35.67         6.2 0.28            139           77.5  41 
 RUS  HZ EP       1844 16.94                             142   -0.1310  102 175 
 RUS  HN ES       1844 35.02                             142   -0.3610  102 175 
 RUS  HZ I        1844 37.32         3.6 0.30            141            102 175 
 PTB  HZ EP   2   1844 19.52                             131   -0.55 5  146 258 
 PTB  HN ES       1844 40.42                             131   -0.30 9  146 258 
 PTB  HZ I        1844 41.39         6.0 0.18            121            146 258 
 SPBC HZ EP       1844 21.91                             128    0.13 9  163 218 
 SPBC HE ES       1844 44.23                             128    0.47 9  163 218 
 SPBC HZ I        1844 49.79         8.3 0.24            121            163 218 
 ZAR  HZ EP   2   1844 25.35                             122   -0.16 4  202 292 
 ZAR  HZ I        1844 55.43         4.4 0.09            111            202 292 
 NOR  HZ EP   3   1844 28.74                             118   -0.27 2  234 234 
 NOR  HN ES       1844 56.55                             118   -0.08 8  234 234 
 NOR  HZ I        1845  4.43         4.5 0.18            110            234 234 
 GUY2CHN ES       1845 11.09                             111    0.36 7  300 234 
 GUY2CHZ I        1845 20.42         3.3 0.76                           300 234 
                                                                                
