 2016  818 1506  2.4 L   6.785 -73.130151.3  RSN  5 0.3 1.9LRSN                1
 GAP=256        0.87       6.4     6.1  6.7 -0.2690E+01 -0.2962E+01  0.1102E+02E
 Epicentro: LOS SANTOS - SANTANDER                                             3
 ACTION:UPD 16-10-29 15:36 OP:rebc STATUS:               ID:20160818150602 L   I
 OLDACT:REG 16-08-18 20:30 OP:dnl  STATUS:               ID:20160818145733     3
 2016-08-18-1458-00M.COL___371                                                 6
 STAT SP IPHASW D HRMM SECON CODA AMPLIT PERI AZIMU VELO AIN AR TRES W  DIS CAZ7
 BAR2 EZ EP       15 6 22.73                             171    0.0610 22.1 195 
 BAR2 EZ ES       15 6 38.14                             171   -0.3510 22.1 195 
 BAR2 EZ I        15 6 39.39        19.5 0.14                          22.1 195 
 BRR  HZ EP       15 6 24.61                             153    0.3310 73.5 299 
 BRR  HN ES       15 6 41.53                             153    0.1810 73.5 299 
 BRR  HZ I        15 6 42.06        18.2 0.50                          73.5 299 
 PTB  HZ EP       15 6 29.33                             133   -0.62 9  149 260 
 PTB  HE ES       15 6 51.30                             133   -0.13 9  149 260 
 PTB  HZ I        15 6 57.68         5.3 0.20                           149 260 
 SPBC HZ EP       15 6 31.50                             130    0.19 9  163 220 
 SPBC HN ES       15 6 54.19                             130    0.33 9  163 220 
 SPBC HZ I        15 7  1.55         8.3 0.24                           163 220 
 ZAR  HZ EP   9   15 6 37.96                             123    2.52 0  206 292 
 ZAR  HN ES       15 7  3.22                                   -0.51 8  206 292 
 ZAR  HZ I        15 7  6.79         6.2 0.42                           206 292 
                                                                                
