 2012 1118 1628 45.2 L   6.754 -73.185149.6  RSN  5 0.2 1.3LRSN                1
 GAP=134        0.55       3.6     3.5  5.5  0.2933E+01 -0.4757E+01 -0.3478E+01E
 Epicentro: VILLANUEVA - SANTANDER                                             3
 ACTION:UPD 12-12-05 15:34 OP:}ep  STATUS:               ID:20121118162845 L   I
 2012-11-18-1620-00M.COL___234                                                 6
 STAT SP IPHASW D HRMM SECON CODA AMPLIT PERI AZIMU VELO AIN AR TRES W  DIS CAZ7
 BAR2 SZ EP       1629  5.14                             173   -0.0410 17.9 179 
 BAR2 SZ I        1629  5.59         5.3 0.26                          17.9 179 
 BRR  HZ EP       1629  6.94                             154    0.2510 70.1 304 
 BRR  HN ES       1629 23.62                             154    0.1610 70.1 304 
 BRR  HN I        1629 28.28         9.3 0.22                          70.1 304 
 PAM  SZ EP       1629  7.91                             149   -0.3010 84.0  40 
 RUS  HZ EP       1629  9.20                             146    0.2110 96.0 173 
 RUS  HZ I        1629 10.30         1.0 0.14                          96.0 173 
 RUS  HN ES       1629 27.52                             146   -0.0510 96.0 173 
 PTB  HZ EP       1629 12.01                             134    0.00 9  143 260 
 PTB  HN ES       1629 32.67                             134   -0.26 9  143 260 
 PTB  HN I        1629 37.62         4.0 0.52                           143 260 
                                                                                
