 2016 1218 1933  8.5 L   6.792 -73.141146.0  RSN  7 0.4 1.6LRSN                1
 GAP=138        0.98       4.3     5.0  6.2 -0.2201E+01  0.5190E+01  0.7178E+01E
 Epicentro: LOS SANTOS - SANTANDER                                             3
 ACTION:UPD 17-01-11 20:16 OP:rebc STATUS:               ID:20161218193308 L   I
 OLDACT:UP  16-12-18 23:23 OP:and  STATUS:               ID:20161218192743     3
 OLDACT:REG 16-12-18 22:13 OP:ar   STATUS:               ID:20161218192743     3
 2016-12-18-1928-00M.COL___333                                                 6
 STAT SP IPHASW D HRMM SECON CODA AMPLIT PERI AZIMU VELO AIN AR TRES W  DIS CAZ7
 BAR2 EZ EP       1933 28.08                             171   -0.0710 22.5 192 
 BAR2 EZ ES       1933 43.55                             171    0.0810 22.5 192 
 BAR2 EZ I        1933 43.90        11.3 0.36            169           22.5 192 
 BRR  HZ EP       1933 29.87                             152    0.1310 72.1 299 
 BRR  HN ES       1933 46.72                             152    0.4210 72.1 299 
 BRR  HZ I        1933 50.95         8.9 0.22            150           72.1 299 
 PAM  EZ IP     D 1933 30.86                             151    0.0910 77.7  39 
 PAM  EN ES       1933 48.01                             151   -0.1310 77.7  39 
 PAM  EZ I        1933 48.70         5.0 0.14            155           77.7  39 
 RUS  HZ EP       1933 32.05                             144   -0.1710 99.6 176 
 RUS  HN ES       1933 50.70                             144   -0.0110 99.6 176 
 RUS  HZ I        1933 51.53         5.8 0.22            146           99.6 176 
 PTB  HZ EP       1933 34.62                             132   -0.91 9  148 259 
 PTB  HE ES       1933 56.35                             132   -0.26 9  148 259 
 PTB  HZ I        1934  2.44         4.5 0.21            131            148 259 
 CHI  HZ EP       1933 46.26                             117    0.12 8  248 195 
 CHI  HN ES       1934 15.54                             117    0.05 8  248 195 
 CHI  HZ I        1934 19.18         3.3 0.46            118            248 195 
 GUY2CHZ EP       1933 53.23                             112    1.11 7  301 235 
 GUY2CHE ES   4   1934 30.70                             112    4.56 0  301 235 
 GUY2CHZ I        1934 34.11         2.6 0.34                           301 235 
                                                                                
