 2015  518 1623  3.1 L   6.820 -73.139140.4  RSN 11 0.5 2.2LRSN                1
 GAP=136        1.16       3.6     4.9  6.7 -0.1660E+01  0.1284E+02 -0.3702E+01E
 Epicentro: LOS SANTOS - SANTANDER                                             3
 ACTION:UPD 15-09-10 22:05 OP:cam  STATUS:               ID:20150518162303 L   I
 OLDACT:DUP 15-05-19 00:27 OP:ak   STATUS:               ID:20150518161747d    3
 2015-05-18-1617-46M.COL___283                                                 6
 STAT SP IPHASW D HRMM SECON CODA AMPLIT PERI AZIMU VELO AIN AR TRES W  DIS CAZ7
 BAR2 EZ EP       1623 22.18                             169    0.0010 25.6 191 
 BAR2 EZ ES       1623 36.47                             169   -0.5510 25.6 191 
 BAR2 EZ I        1623 38.02        24.1 0.19            169           25.6 191 
 BRR  HZ IP     C 1623 24.13                             152    0.4310 70.9 297 
 BRR  HN ES       1623 40.10                             152    0.3810 70.9 297 
 BRR  HZ I        1623 45.29        26.6 0.10            150           70.9 297 
 PAM  SZ IP     D 1623 25.26                             150    0.6010 75.2  40 
 PAM  SN ES       1623 41.99                             150    0.5510 75.2  40 
 PAM  SZ I        1623 44.09        29.0 0.32            155           75.2  40 
 RUS  HZ EP       1623 26.79                             142    0.2610  103 177 
 RUS  HN ES       1623 44.11                             142   -0.6510  103 177 
 RUS  HZ I        1623 46.99        10.2 0.28            146            103 177 
 OCA  HZ EP       1623 30.64                             129   -0.21 9  158 353 
 OCA  HN ES       1623 51.93                             129   -0.52 9  158 353 
 OCA  HZ I        1623 56.37        58.6 0.16            131            158 353 
 ZAR  HZ EP       1623 35.20                             121   -0.04 9  204 291 
 ZAR  HN ES       1624  0.94                             121    0.67 9  204 291 
 ZAR  HZ I        1624  5.38        11.3 0.13            123            204 291 
 SML  HZ EP       1623 38.68                             116   -0.62 8  242 335 
 SML  HN ES       1624  7.13                             116   -0.36 8  242 335 
 SML  HZ I        1624 11.25        26.3 0.10            119            242 335 
 HEL  HZ EP   1   1623 43.42                             114    0.19 6  273 255 
 HEL  HE ES       1624 13.98                             114   -0.52 8  273 255 
 HEL  HZ I        1624 22.75         6.7 0.38            115            273 255 
 GUY2CHZ EP   1   1623 47.48                             111    0.76 5  303 235 
 GUY2CHN ES       1624 20.91                             111    0.20 7  303 235 
 GUY2CHZ I        1624 27.65         4.7 0.22                           303 235 
 MON  HZ EP   4   1623 50.16                             108   -1.70 0  353 308 
 MON  HN ES   4   1624 27.77                             108   -2.08 0  353 308 
 MON  HZ I        1624 29.30         3.7 0.24            110            353 308 
 SJC  HZ EP       1623 57.30                             105   -1.07 6  408 327 
 SJC  HE ES   4   1624 37.71                             105   -3.74 0  408 327 
 SJC  HZ I        1624 42.28         7.1 0.34            107            408 327 
                                                                                
