 2013 1118 1808 31.2 L   6.738 -73.102145.3  RSN  5 0.5 1.8LRSN                1
 GAP=175        1.05       9.9     5.9  7.9 -0.9662E+01  0.1618E+02 -0.2971E+01E
 Epicentro: JORDAN - SANTANDER                                                 3
 ACTION:UPD 14-01-09 16:29 OP:ep   STATUS:               ID:20131118180831 L   I
 OLDACT:REG 13-11-18 14:51 OP:nd   STATUS:               ID:20131118180000     3
 2013-11-18-1800-00M.COL___279                                                 6
 STAT SP IPHASW D HRMM SECON CODA AMPLIT PERI AZIMU VELO AIN AR TRES W  DIS CAZ7
 BAR2 SZ EP   2   18 8 51.19                             172    0.55 5 18.3 209 
 BAR2 SZ ES       18 9  6.20                             172    0.3710 18.3 209 
 BAR2 SZ I        18 9  7.41        12.3 0.64            171           18.3 209 
 BRR  HZ EP       18 8 52.62                             150   -0.0810 78.8 301 
 BRR  HN ES       18 9  9.69                             150    0.1910 78.8 301 
 BRR  HZ I        18 9 18.28         8.1 0.30            147           78.8 301 
 PAM  SZ IP     C 18 8 53.59                             150    0.1110 80.1  34 
 PAM  SN ES       18 9 10.43                             150   -0.4710 80.1  34 
 PAM  SZ I        18 9 12.55         7.0 0.42            150           80.1  34 
 PTB  HZ EP       18 8 57.65                             131   -0.76 9  151 262 
 PTB  HN ES   2   18 9 18.74                             131   -0.92 5  151 262 
 PTB  HZ I        18 9 21.11         9.6 0.42            133            151 262 
 ZAR  HZ EP       18 9  5.03                             121    0.73 8  211 293 
 ZAR  HN ES       18 9 30.27                             121    0.11 8  211 293 
 ZAR  HZ I        18 9 34.33         8.0 0.26            122            211 293 
                                                                                
