 2017  318 1947 22.9 L   6.836 -73.203150.0  RSN  4 0.1 1.4LRSN                1
 GAP=148        0.39       2.7     2.7  5.2 -0.2123E+01  0.5130E+01 -0.7460E+00E
 Epicentro: ZAPATOCA - SANTANDER                                               3
 ACTION:UPD 17-05-25 18:42 OP:jn   STATUS:               ID:20170318194722 L   I
 OLDACT:REG 17-03-18 23:10 OP:dnl  STATUS:               ID:20170318193746     3
 2017-03-18-1938-00M.COL___403                                                 6
 STAT SP IPHASW D HRMM SECON CODA AMPLIT PERI AZIMU VELO AIN AR TRES W  DIS CAZ7
 BAR2 EZ ES       1947 59.07                             169    0.1910 27.1 175 
 BAR2 EZ I        1947 59.53        11.6 0.18            172           27.1 175 
 PAM  EZ EP   2   1947 45.90                             151    0.27 5 78.7  45 
 PAM  EN ES       1948  3.26                             151   -0.1210 78.7  45 
 PAM  EZ I        1948  5.69         3.0 0.62            151           78.7  45 
 RUS  HZ EP   2   1947 47.26                             143   -0.13 5  105 173 
 RUS  HN ES       1948  6.42                             143   -0.0810  105 173 
 RUS  HZ I        1948  6.80         3.3 0.26            146            105 173 
 PTB  HZ EP   2   1947 49.81                             134    0.08 5  142 257 
 PTB  HN ES       1948 10.60                             134   -0.06 9  142 257 
 PTB  HZ I        1948 12.97         3.8 0.20            134            142 257 
                                                                                
