 2014  218 1619 45.4 L   6.755 -73.179141.3  RSN  8 0.3 2.0LRSN                1
 GAP=134        0.82       3.0     3.4  5.5 -0.1425E+01  0.6101E+01  0.6676E+00E
 Epicentro: VILLANUEVA - SANTANDER                                             3
 ACTION:UPD 14-03-10 08:11 OP:ep   STATUS:               ID:20140218161945 L   I
 OLDACT:DUP 14-02-18 18:16 OP:carl STATUS:               ID:20140218162001d    3
 OLDACT:REG 14-02-18 16:02 OP:carl STATUS:               ID:20140218162000     3
 2014-02-18-1620-00M.COL___212                                                 6
 STAT SP IPHASW D HRMM SECON CODA AMPLIT PERI AZIMU VELO AIN AR TRES W  DIS CAZ7
 BAR2 SZ EP       1620  4.38                             172    0.0210 18.0 181 
 BAR2 SZ ES       1620 19.12                             172   -0.0610 18.0 181 
 BAR2 SZ I        1620 21.34        30.3 0.22            170           18.0 181 
 PAM  SZ EP       1620  7.49                             148   -0.0010 83.5  39 
 PAM  SN ES       1620 24.83                             148    0.0810 83.5  39 
 PAM  SZ I        1620 26.70        34.6 0.88            154           83.5  39 
 RUS  HZ EP       1620  8.30                             144   -0.0510 96.0 174 
 RUS  HN ES       1620 26.42                             144    0.1410 96.0 174 
 RUS  HZ I        1620 28.31         8.8 0.20            145           96.0 174 
 PTB  HZ EP       1620 10.81                             132   -0.76 9  143 260 
 PTB  HN ES       1620 31.53                             132   -0.47 9  143 260 
 PTB  HZ I        1620 37.06        12.6 0.26            132            143 260 
 SPBC HZ EP   1   1620 13.28                             129    0.34 7  157 219 
 SPBC HN ES       1620 34.67                             129    0.22 9  157 219 
 SPBC HZ I        1620 42.01        10.6 0.22            130            157 219 
 ZAR  HZ EP       1620 17.52                             122    0.14 9  203 294 
 ZAR  HN ES       1620 42.71                             122    0.37 9  203 294 
 ZAR  HZ I        1620 48.50        12.9 0.54            123            203 294 
 NOR  HE ES       1620 47.96                             118    0.57 8  229 235 
 CHI  HZ EP       1620 22.46                             117    0.26 8  243 195 
 CHI  HE ES       1620 50.45                             117   -0.48 8  243 195 
 CHI  HZ I        1620 59.11         2.3 0.28            118            243 195 
                                                                                
