 2014  718 1642 51.7 L   6.853 -73.174141.2  RSN  9 0.5 2.1LRSN                1
 GAP= 69        1.26       4.9     4.6  7.3  0.2945E+00  0.3702E+01 -0.4604E+00E
 Epicentro: ZAPATOCA - SANTANDER                                               3
 ACTION:UPD 15-03-16 20:45 OP:nd   STATUS:               ID:20140718164251 L   I
 OLDACT:REG 14-07-18 22:00 OP:stll STATUS:               ID:20140718163818     3
 2014-07-18-1638-18M.COL___272                                                 6
 STAT SP IPHASW D HRMM SECON CODA AMPLIT PERI AZIMU VELO AIN AR TRES W  DIS CAZ7
 BAR2 SZ IP     D 1643 11.20                             169    0.3310 28.9 182 
 BAR2 SZ ES       1643 26.38                             169    0.5310 28.9 182 
 BAR2 SZ I        1643 27.86        40.5 0.76            167           28.9 182 
 BRR  HZ IP     C 1643 12.54                             153    0.5310 65.8 295 
 BRR  HN ES       1643 28.35                             153    0.4610 65.8 295 
 BRR  HZ I        1643 29.92        17.7 0.10            152           65.8 295 
 PAM  SZ EP       1643 13.07                             150   -0.1810 75.1  44 
 PAM  SN ES       1643 29.83                             150   -0.2610 75.1  44 
 PAM  SZ I        1643 31.55        19.9 0.26            154           75.1  44 
 RUS  HZ EP       1643 15.62                             142    0.2010  107 175 
 RUS  HE ES       1643 32.95                             142   -1.0110  107 175 
 RUS  HZ I        1643 35.89        10.1 0.28            142            107 175 
 PTB  HZ EP       1643 17.58                             131   -0.51 9  146 256 
 PTB  HE ES       1643 38.60                             131   -0.12 9  146 256 
 PTB  HZ I        1643 41.15        14.1 0.14            131            146 256 
 TAM  HZ EP       1643 19.61                             129    0.20 9  160 107 
 TAM  HZ I        1643 19.88        28.4 0.22            131            160 107 
 SPBC HZ EP       1643 20.62                             128    0.55 9  166 217 
 SPBC HE ES       1643 41.46                             128   -0.78 9  166 217 
 SPBC HZ I        1643 49.88        18.8 0.42            128            166 217 
 ZAR  HZ EP       1643 23.47                             122    0.19 9  199 291 
 ZAR  HE ES       1643 48.23                             122    0.27 9  199 291 
 ZAR  HZ I        1643 55.04        12.6 0.30            122            199 291 
 SML  HZ EP   2   1643 26.36                             117   -0.95 4  237 335 
 SML  HN ES   2   1643 53.58                             117   -1.54 4  237 335 
                                                                                
