 2013  918 1507 58.1 L   6.743 -73.168148.0  RSN  9 0.5 2.1LRSN                1
 GAP=198        1.19       5.5     6.9  8.2  0.9352E+01  0.6405E+01  0.1016E+01E
 Epicentro: VILLANUEVA - SANTANDER                                             3
 ACTION:UPD 13-10-22 09:23 OP:ep   STATUS:               ID:20130918150758 L   I
 OLDACT:REG 13-09-18 15:34 OP:jn   STATUS:               ID:20130918145960d    3
 2013-09-18-1459-59M.COL___269                                                 6
 STAT SP IPHASW D HRMM SECON CODA AMPLIT PERI AZIMU VELO AIN AR TRES W  DIS CAZ7
 BAR2 SZ EP       15 8 17.75                             173   -0.1510 16.7 185 
 BAR2 SZ ES       15 8 32.82                             173   -0.5110 16.7 185 
 BAR2 SZ I        15 8 34.51        29.7 0.14            169           16.7 185 
 BRR  HZ EP       15 8 19.59                             152    0.0210 72.3 304 
 BRR  HN ES       15 8 37.14                             152    0.8410 72.3 304 
 BRR  HZ I        15 8 40.90        16.5 0.34            149           72.3 304 
 RUS  HZ EP       15 8 21.82                             146    0.1610 94.5 174 
 RUS  HN ES   1   15 8 39.72                             146   -0.30 7 94.5 174 
 RUS  HZ I        15 8 41.58        13.3 0.36            148           94.5 174 
 PTB  HZ EP       15 8 24.44                             133   -0.50 9  144 261 
 PTB  HN ES       15 8 45.37                             133   -0.50 9  144 261 
 PTB  HZ I        15 8 53.11        13.5 0.56            132            144 261 
 SPBC HZ EP   1   15 8 26.52                             131    0.34 7  157 220 
 SPBC HN ES       15 8 48.90                             131    0.84 9  157 220 
 SPBC HZ I        15 8 51.33        22.8 0.28            131            157 220 
 ZAR  HZ EP   1   15 8 31.70                             123    0.98 6  204 294 
 ZAR  HN ES   1   15 8 55.64                             123   -0.52 6  204 294 
 ZAR  HZ I        15 9  2.74        13.3 0.32            123            204 294 
 NOR  HN ES   2   15 8 59.88                             120   -0.98 4  229 235 
 NOR  HZ I        15 9  4.08         5.6 0.16            120            229 235 
 CHI  HZ EP   1   15 8 35.02                             118   -0.18 6  242 195 
 SML  HN ES   1   15 9  4.00                             117   -0.45 6  248 336 
                                                                                
