 2012 1218 1005 38.7 L   6.812 -73.162144.8  RSN  4 0.3 1.1LRSN                1
 GAP=243        0.58       7.6     5.9  7.0  0.2895E+02  0.1357E+01 -0.1705E+02E
 Epicentro: LOS SANTOS - SANTANDER                                             3
 ACTION:UPD 13-01-04 14:28 OP:ep   STATUS:               ID:20121218100538 L   I
 2012-12-18-1000-00M.COL___242                                                 6
 STAT SP IPHASW D HRMM SECON CODA AMPLIT PERI AZIMU VELO AIN AR TRES W  DIS CAZ7
 BAR2 SZ EP   1   10 5 58.23                             170    0.05 7 24.4 185 
 BAR2 SZ ES   1   10 6 13.15                             170   -0.27 7 24.4 185 
 BAR2 SZ I        10 6 15.08         4.5 0.21                          24.4 185 
 RUS  HZ EP   1   10 6  2.25                             143   -0.16 7  102 175 
 RUS  HN ES   1 C 10 6 21.39                             143    0.45 7  102 175 
 PTB  HZ EP   1   10 6  5.17                             132   -0.23 7  146 258 
 PTB  HN ES   1   10 6 25.98                             132   -0.29 7  146 258 
 PTB  HZ I        10 6 27.95         1.3 0.14                           146 258 
 ZAR  HZ EP   1   10 6 10.88                             122    0.07 6  202 292 
 ZAR  HN ES   1   10 6 36.36                             122    0.46 6  202 292 
 ZAR  HZ I        10 6 41.99         1.0 0.31                           202 292 
                                                                                
