 2012  718 1431 45.0 L   6.784 -73.175138.8  RSN  6 0.2 1.7LRSN                1
 GAP=134        0.53       3.3     4.7  6.0 -0.3248E+01  0.1197E+02 -0.3456E+01E
 Epicentro: LOS SANTOS - SANTANDER                                             3
 ACTION:UPD 12-08-14 11:45 OP:ep   STATUS:               ID:20120718143145 L   I
 2012-07-18-1430-00M.COL___197                                                 6
 STAT SP IPHASW D HRMM SECON CODA AMPLIT PERI AZIMU VELO AIN AR TRES W  DIS CAZ7
 BAR2 SZ EP   1   1432  3.63                             171    -0.1 7   21 182 
 BAR2 SZ ES   1   1432 18.19                             171    -0.1 7   21 182 
 BAR2 SZ I        1432 19.93        16.1 0.19            169             21 182 
 BRR  HZ EP       1432  5.42                             152     0.210   69 301 
 BRR  HZ I        1432  5.89        17.1 0.14            148             69 301 
 PAM  SZ EP   1   1432  6.51                             148    -0.1 7   81  41 
 PAM  SN ES   1   1432 23.40                             148    -0.2 7   81  41 
 RUS  HZ EP   1   1432  8.07                             143     0.1 7   99 174 
 RUS  HN ES   1   1432 26.04                             143     0.2 7   99 174 
 PTB  HZ EP   1   1432 10.66                             131    -0.4 7  144 259 
 PTB  HN ES   2   1432 31.36                             131     0.0 5  144 259 
 PTB  HZ I        1432 36.36         3.6 0.17            130            144 259 
 OCA  HN ES   2   1432 35.22                             128     0.6 5  162 354 
