 2010  718 1040  8.8 L   6.769 -73.034140.7  RSN 11 0.6 2.3LRSN                1
 GAP=172        1.57       5.0     9.2  8.9 -0.1611E+02  0.1302E+02  0.2018E+01E
 Epicentro: CEPITA - SANTANDER                                                 3
 ACTION:UPD 10-12-01 15:18 OP:pat  STATUS:               ID:20100718104008 L   I
 2010-07-18-1038-06S.COL___120                                                 6
 STAT SP IPHASW D HRMM SECON CODA AMPLIT PERI AZIMU VELO AIN AR TRES W  DIS CAZ7
 BAR2 SZ EP       1040 27.96                             169     0.110   26 220 
 BAR2 SZ ES       1040 42.70                             169    -0.110   26 220 
 BAR2 SZ I        1040 44.02        79.5 0.10                            26 220 
 GIR2 SZ EP       1040 26.94                             164    -1.210   38 333 
 BRR  HZ EP       1040 29.71                             147    -0.510   84 297 
 BRR  HN ES       1040 47.06                             147     0.210   84 297 
 BRR  HZ I        1040 47.87        41.8 0.35                            84 297 
 RUS  HZ EP       1040 31.74                             144    -0.110   97 183 
 RUS  HN ES       1040 50.04                             144     0.310   97 183 
 RUS  HZ I        1040 51.69        26.7 0.88                            97 183 
 GUE  SZ EP       1040 33.35                             138     0.210  118   6 
 GUE  SZ I        1040 59.75         8.0 0.58                           118   6 
 GRA  SZ EP       1040 33.77                             136     0.210  126  12 
 GRA  SZ ES   1   1040 53.44                             136     0.5 7  126  12 
 GRA  SZ I        1040 54.39        22.0 0.47                           126  12 
 OCA  SZ EP       1040 36.60                             127    -0.6 9  166 349 
 OCA  SZ ES       1041  0.07                             127     0.7 9  166 349 
 OCA  SZ I        1041  2.65        27.4 0.33                           166 349 
 ROSC BZ EP       1040 47.92                             115     0.9 8  256 214 
 ROSC BN ES   2   1041 15.05                             115    -1.9 4  256 214 
 ROSC BZ I        1041 24.01         8.9 0.49                           256 214 
 HEL  HZ EP   1   1040 50.60                             113     0.6 6  283 257 
 HEL  HN ES   1   1041 21.14                             113    -1.0 6  283 257 
 HEL  HZ I        1041 25.98         7.9 0.76                           283 257 
 RREF HZ EP       1040 56.29                             109     0.7 7  329 231 
 RREF HN ES       1041 32.73                             109     0.7 7  329 231 
 RREF HZ I        1041 39.42        10.1 0.49                           329 231 
 PRA  HZ EP       1041  2.25                             105    -0.3 6  395 211 
 PRA  HN ES   1   1041 44.28                             105    -0.2 4  395 211 
 PRA  HZ I        1041 49.61        12.4 0.39                           395 211 
                                                                                
