 2010  518 1938 56.1 L   6.753 -73.002144.0  RSN  5 0.5 2.0LRSN                1
 GAP=218        0.87      15.6    15.6 12.9 -0.1445E+03 -0.3565E+02 -0.4377E+02E
 Epicentro: CEPITA - SANTANDER                                                 3
 ACTION:UP  10-08-24 10:05 OP:vdl  STATUS:               ID:20100518193856 L   I
 2010-05-18-1935-44S.COL___108                                                 6
 STAT SP IPHASW D HRMM SECON CODA AMPLIT PERI AZIMU VELO SNR AR TRES W  DIS CAZ7
 BAR2 SZ ES   2   1939 30.42                             169    -0.4 5   27 228 
 BRR  HZ EP       1939 18.31                             147     0.210   88 297 
 BRR  HZ I        1939 18.87        23.4 0.11                            88 297 
 BRR  HN ES   2   1939 35.27                             147     0.0 5   88 297 
 GUE  SZ EP       1939 20.76                             138    -0.110  119   4 
 GRA  SZ EP       1939 21.60                             136     0.310  127  10 
 GRA  SZ ES   2   1939 41.16                             136     0.2 5  127  10 
 OCA  SZ EP   2   1939 23.66                             128    -1.4 5  168 348 
 OCA  SZ I        1939 52.36        10.5 0.31                           168 348 
                                                                                
