 2011  518 1759 33.8 L   6.761 -73.077150.5  RSN  4 0.2 2.0LRSN                1
 GAP=147        0.59       4.0     5.9  6.9 -0.5073E+00 -0.2120E+01  0.3475E+01E
 Epicentro: LOS SANTOS - SANTANDER                                             3
 ACTION:UP  11-06-29 08:54 OP:tino STATUS:               ID:20110518175933 L   I
 2011-05-18-1757-00S.COL___135                                                 6
 STAT SP IPHASW D HRMM SECON CODA AMPLIT PERI AZIMU VELO SNR AR TRES W  DIS CAZ7
 BAR2 SZ IP       1759 53.83                             171    -0.110   22 212 
 BAR2 SZ I        18 0 10.09        24.7 0.31                            22 212 
 PAM  SZ EP       1759 56.73                             152     0.310   76  33 
 PAM  SN ES   1   18 0 13.91                             152    -0.2 7   76  33 
 BRR  HZ IP     C 1759 55.76                             150    -0.210   80 299 
 BRR  HN ES   1   18 0 13.50                             150     0.2 7   80 299 
 BRR  HZ I        18 0 17.35        22.8 0.10                            80 299 
 RUS  HZ EP       1759 57.79                             146     0.110   96 180 
 RUS  HN ES   1   18 0 16.37                             146     0.0 7   96 180 
 RUS  HZ I        18 0 18.19        11.7 0.24                            96 180 
                                                                                
