 2016  718 1553  2.9 L   6.817 -73.158144.3  RSN 20 0.5 2.7LRSN                1
 GAP=117        1.17       3.4     4.3  5.8  0.1129E+01  0.9750E+01  0.4599E+01E
 Epicentro: LOS SANTOS - SANTANDER                                             3
 ACTION:UPD 17-03-29 16:52 OP:lp   STATUS:               ID:20160718155302 L   I
 OLDACT:REG 16-07-18 20:38 OP:lv   STATUS:               ID:20160718154759     3
 2016-07-18-1547-59S.COL___310                                                 6
 STAT SP IPHASW D HRMM SECON CODA AMPLIT PERI AZIMU VELO AIN AR TRES W  DIS CAZ7
 BAR2 EZ EP       1553 22.16                             170   -0.2210 25.0 186 
 BAR2 EZ ES       1553 37.04                             170   -0.5410 25.0 186 
 BAR2 EZ I        1553 38.55       121.3 0.22            168           25.0 186 
 BRR  HZ EP       1553 23.96                             153    0.1910 69.1 298 
 BRR  HN ES       1553 40.58                             153    0.5310 69.1 298 
 BRR  HZ I        1553 45.27        72.9 0.13            149           69.1 298 
 PAM  EZ EP       1553 25.18                             151    0.2610 76.8  41 
 PAM  EN ES       1553 42.36                             151    0.2710 76.8  41 
 PAM  EZ I        1553 44.62       110.0 0.45            155           76.8  41 
 RUS  HZ EP       1553 26.21                             143   -0.4410  103 175 
 RUS  HN ES       1553 45.34                             143    0.1710  103 175 
 RUS  HZ I        1553 46.10        80.2 0.31            144            103 175 
 SPBC HZ EP       1553 31.10                             129   -0.24 9  164 218 
 SPBC HN ES       1553 53.47                             129   -0.06 9  164 218 
 SPBC HZ I        1553 54.95        90.2 0.19            128            164 218 
 ZAR  HZ EP       1553 34.68                             122   -0.36 9  202 292 
 ZAR  HN ES       1553 59.76                             122   -0.36 9  202 292 
 ZAR  HZ I        1554  9.16        41.0 0.23            122            202 292 
 NOR  HZ EP       1553 38.36                             118   -0.18 8  235 234 
 NOR  HE ES       1554  6.27                             118   -0.08 8  235 234 
 NOR  HZ I        1554 11.93        45.8 0.18            118            235 234 
 CHI  HZ EP       1553 40.48                             117   -0.20 8  250 195 
 CHI  HE ES       1554 10.32                             117    0.18 8  250 195 
 CHI  HZ I        1554 13.16        28.1 0.38            117            250 195 
 ROSC BZ EP       1553 42.06                             116    1.02 8  254 211 
 ROSC BN ES   4   1554 13.20                             116    2.41 0  254 211 
 ROSC BZ I        1554 20.54        37.6 0.31            117            254 211 
 HEL  HZ EP       1553 44.44                             114    1.50 8  271 255 
 HEL  HN ES       1554 14.71                             114    0.53 8  271 255 
 HEL  HZ I        1554 22.34        24.4 0.31            114            271 255 
 URE  HZ EP       1553 42.85                             113   -0.83 7  282 292 
 URE  HN ES       1554 14.56                             113   -0.92 7  282 292 
 URE  HZ I        1554 19.77        23.9 0.13            113            282 292 
 GUY2CHZ EP   4   1553 47.57                             112    1.13 0  301 234 
 GUY2CHE ES   4   1554 22.07                             112    1.67 0  301 234 
 GUY2CHZ I        1554 28.52        28.1 0.29                           301 234 
 VIL  EZ EP       1553 46.16                             112   -0.27 7  305 191 
 VIL  EE ES       1554 20.65                             112    0.27 7  305 191 
 VIL  EZ I        1554 23.11        32.2 0.46            112            305 191 
 PTGC HZ EP   9   1553 45.46                             111   -1.49 0  311 159 
 PTGC HN ES       1554 18.91                                   -0.91 7  311 159 
 PTGC HZ I        1554 23.68        32.1 0.26            113            311 159 
 ELA  HZ EP   4   1553 51.79                             110    2.08 0  329 229 
 ELA  HE ES   4   1554 25.43                             110   -0.80 0  329 229 
 ELA  HZ I        1554 34.03        17.9 0.22            110            329 229 
 ARGC HZ EP   2   1553 53.23                             108    0.99 3  357 340 
 ARGC HN ES   4   1554 32.12                             108    1.40 0  357 340 
 ARGC HZ I        1554 38.47         6.5 0.23            109            357 340 
 ANIL HZ EP   4   1553 53.87                             108    1.18 0  358 224 
 ANIL HN ES   4   1554 32.55                             108    1.01 0  358 224 
 ANIL HZ I        1554 39.27        56.9 0.33            108            358 224 
 PRA  HZ EP       1553 55.94                             106   -0.54 6  393 209 
 PRA  HN ES       1554 37.77                             106   -0.51 6  393 209 
 PRA  HZ I        1554 44.32        16.1 0.21            107            393 209 
 PAL  HZ EP       1553 57.84                             106   -0.15 6  406 239 
 PAL  HN ES       1554 41.70                             106    0.74 6  406 239 
 PAL  HZ I        1554 43.81        10.9 0.23            106            406 239 
 SJC  HZ EP   4   1553 56.19                             105   -1.95 0  407 327 
 SJC  HN ES   4   1554 37.61                             105   -3.61 0  407 327 
 SJC  HZ I        1554 43.99         5.9 0.30            106            407 327 
                                                                                
