 2010  918 1545 29.9 L   6.760 -73.104148.3  RSN  7 0.3 1.9LRSN                1
 GAP=164        0.63       4.6     6.7  7.0 -0.1277E+02  0.1124E+02 -0.3263E+01E
 Epicentro: LOS SANTOS - SANTANDER                                             3
 ACTION:UP  11-02-18 11:03 OP:tino STATUS:               ID:20100918154529 L   I
 2010-09-18-1543-28S.COL___121                                                 6
 STAT SP IPHASW D HRMM SECON CODA AMPLIT PERI AZIMU VELO SNR AR TRES W  DIS CAZ7
 BAR2 SZ EP   1   1545 49.56                             172    -0.2 7   21 205 
 BAR2 SZ ES   2   1546  4.70                             172    -0.6 5   21 205 
 BAR2 SZ I        1546  7.42        22.3 0.40                            21 205 
 BRR  HZ EP   1   1545 51.51                             151    -0.1 7   77 300 
 BRR  HZ I        1545 51.93        21.2 0.08                            77 300 
 BRR  HN ES   2   1546  9.02                             151     0.4 5   77 300 
 RUS  HZ EP   1   1545 53.44                             146    -0.1 7   96 179 
 RUS  HE ES   2   1546 12.73                             146     0.7 5   96 179 
 RUS  HZ I        1546 13.31         6.2 0.26                            96 179 
 GUE  SZ EP   1   1545 55.51                             139     0.4 7  120  10 
 GRA  SZ EP   1   1545 55.56                             137     0.0 7  129  15 
 GRA  SZ ES   2   1546 15.39                             137    -0.3 5  129  15 
 GRA  SZ I        1546 17.09        10.0 0.33                           129  15 
 NOR  HZ EP   1   1546  5.60                             119    -0.3 6  236 236 
 NOR  HN ES   2   1546 34.00                             119     0.0 4  236 236 
 HEL  HZ EP   1   1546 10.75                             115     0.2 6  275 257 
 HEL  HZ I        1546 47.88         6.1 0.23                           275 257 
                                                                                
