 2011 1118 1228 22.3 L   6.779 -73.126138.8  RSN 11 0.4 2.5LRSN                1
 GAP=140        0.76       3.4     4.3  5.4 -0.6628E+00  0.7442E+01  0.2642E+01E
 Epicentro: LOS SANTOS - SANTANDER                                             3
 ACTION:UPD 12-07-13 16:11 OP:ep   STATUS:               ID:20111118122822 L   I
 2011-11-18-1226-07S.COL___179                                                 6
 STAT SP IPHASW D HRMM SECON CODA AMPLIT PERI AZIMU VELO AIN AR TRES W  DIS CAZ7
 BAR2 SZ IP       1228 41.00                             171   -0.0410 21.6 197 
 BAR2 SZ ES   1   1228 55.32                             171   -0.35 7 21.6 197 
 BAR2 SZ I        1228 58.28        96.3 0.33                          21.6 197 
 BRR  HZ EP       1228 42.90                             150    0.0410 74.2 299 
 BRR  HZ I        1228 43.36        92.9 0.11                          74.2 299 
 BRR  HE ES   1   1228 59.49                             150    0.58 7 74.2 299 
 PAM  SZ EP       1228 43.99                             149    0.2010 77.8  37 
 PAM  SZ I        1228 44.20        57.0 0.14                          77.8  37 
 PAM  SN ES   1   1229  0.59                             149    0.02 7 77.8  37 
 RUS  HZ EP       1228 45.09                             143   -0.0910 98.2 177 
 RUS  HN ES   1   1229  3.15                             143    0.12 7 98.2 177 
 RUS  HZ I        1229  5.81        39.5 0.28                          98.2 177 
 OCA  SZ EP   1   1228 50.13                             127   -0.18 7  163 352 
 OCA  SZ ES   2   1229 11.55                             127   -0.62 5  163 352 
 OCA  SZ I        1229 16.00        26.9 0.28                           163 352 
 ZAR  HZ EP   1   1228 54.09                             120   -0.49 6  207 293 
 ZAR  HN ES   1   1229 19.65                             120   -0.13 6  207 293 
 ZAR  HZ I        1229 25.26        33.2 0.47                           207 293 
 NOR  SZ EP   1   1228 57.02                             117   -0.64 6  235 235 
 NOR  SN ES   1   1229 24.87                             117   -0.39 6  235 235 
 CHI  HZ EP   1   1228 59.42                             116    0.00 6  247 196 
 CHI  HZ I        1229 34.68        14.1 0.32                           247 196 
 HEL  HZ EP   1   1229  3.22                             113    0.90 6  274 256 
 HEL  HZ I        1229 40.18        18.5 0.50                           274 256 
 RREF HZ EP   1   1229  9.33                             109    1.18 5  322 230 
 PRA  HZ EP   1   1229 15.11                             105   -0.35 4  391 210 
                                                                                
