 2015 1018 1707 47.4 L   6.833 -73.144144.5  RSN  6 0.5 2.0LRSN                1
 GAP=135        1.29       4.8     9.3  8.6  0.1052E+02  0.5807E+01 -0.1071E+02E
 Epicentro: LOS SANTOS - SANTANDER                                             3
 ACTION:UPD 15-12-22 20:41 OP:cam  STATUS:               ID:20151018170747 L   I
 OLDACT:REG 15-10-18 21:10 OP:stll STATUS:               ID:20151018165750     3
 2015-10-18-1657-50M.COL___331                                                 6
 STAT SP IPHASW D HRMM SECON CODA AMPLIT PERI AZIMU VELO AIN AR TRES W  DIS CAZ7
 BAR2 EZ EP       17 8  7.22                             169    0.2110 27.0 189 
 BAR2 EZ ES       17 8 21.66                             169   -0.6010 27.0 189 
 BAR2 EZ I        17 8 23.28        31.1 0.20            169           27.0 189 
 BRR  HZ EP       17 8  8.95                             153    0.5710 69.7 296 
 BRR  HN ES       17 8 25.45                             153    0.7510 69.7 296 
 BRR  HZ I        17 8 30.45        19.9 0.68            149           69.7 296 
 PAM  EZ EP       17 8  9.84                             151    0.4810 74.5  41 
 PAM  EZ I        17 8 10.29        29.5 0.22            155           74.5  41 
 PAM  EN ES       17 8 26.55                             151    0.1010 74.5  41 
 RUS  HZ EP       17 8 11.25                             142   -0.0910  104 176 
 RUS  HN ES       17 8 29.41                             142   -0.5710  104 176 
 RUS  HZ I        17 8 31.45         5.6 0.44            145            104 176 
 OCA  HZ EP       17 8 15.44                             130    0.12 9  157 353 
 OCA  HE ES       17 8 36.99                             130   -0.08 9  157 353 
 OCA  HZ I        17 8 40.32        19.6 0.34            131            157 353 
 SML  HZ EP       17 8 23.43                             117   -0.23 8  240 335 
 SML  HN ES       17 8 50.73                             117   -1.17 8  240 335 
 SML  HZ I        17 8 56.57        10.5 0.10            118            240 335 
                                                                                
