 2010  818 1034 19.2 L   6.781 -73.044147.9  RSN 11 0.3 2.4LRSN                1
 GAP=170        0.63       2.3     4.7  4.0 -0.3217E+01 -0.6215E+00  0.1795E+01E
 Epicentro: LOS SANTOS - SANTANDER                                             3
 ACTION:UP  10-09-07 10:56 OP:vdl  STATUS:               ID:20100818103419 L   I
 2010-08-18-1032-06S.COL___117                                                 6
 STAT SP IPHASW D HRMM SECON CODA AMPLIT PERI AZIMU VELO SNR AR TRES W  DIS CAZ7
 BAR2 SZ EP       1034 38.99                             170    -0.210   26 216 
 BAR2 SZ ES   1   1034 54.16                             170    -0.5 7   26 216 
 BAR2 SZ I        1034 55.80        58.1 0.31                            26 216 
 GIR2 SZ EP   1   1034 39.18                             165    -0.1 7   37 333 
 GIR2 SZ ES   1   1034 55.24                             165     0.3 7   37 333 
 BRR  HZ IP     C 1034 40.92                             149    -0.310   82 296 
 BRR  HZ I        1034 41.22        77.4 0.17                            82 296 
 BRR  HE ES       1034 58.43                             149     0.010   82 296 
 RUS  HZ EP       1034 42.93                             145    -0.110   98 183 
 RUS  HN ES   1   1035  1.77                             145     0.2 7   98 183 
 RUS  HZ I        1035  3.43        27.5 0.48                            98 183 
 GUE  SZ EP   1   1034 44.07                             140    -0.1 7  117   6 
 GRA  SZ IP       1034 44.82                             138     0.310  125  12 
 GRA  SZ ES   1   1035  4.74                             138     0.4 7  125  12 
 GRA  SZ I        1035  5.79        23.8 0.43                           125  12 
 OCA  SZ EP   1   1034 48.17                             129     0.1 7  164 349 
 OCA  SZ ES   1   1035 10.34                             129    -0.2 7  164 349 
 CHI  HZ EP   1   1034 57.11                             117     0.0 6  250 198 
 CHI  HE ES   1   1035 27.14                             117     0.4 6  250 198 
 CHI  HZ I        1035 32.33         9.8 0.45                           250 198 
 HEL  HZ EP   1   1035  0.93                             114     0.3 6  283 257 
 HEL  HZ I        1035 38.12        13.2 0.58                           283 257 
 RREF HZ EP   2   1035  6.32                             111     0.1 3  329 231 
 RREF HN ES   1   1035 43.41                             111     0.4 5  329 231 
 RREF HZ I        1035 50.26        13.1 0.45                           329 231 
 PRA  HZ EP   1   1035 12.75                             107    -0.5 4  396 211 
 PRA  HN ES   2   1035 55.63                             107     0.2 3  396 211 
 PRA  HZ I        1035 58.81        10.6 0.39                           396 211 
                                                                                
