 2016  418 1646 35.6 L   6.878 -73.167146.0  RSN  5 0.3 1.6LRSN                1
 GAP=288        0.75       8.1     5.9  6.9 -0.2213E+02  0.1420E+02 -0.1697E+01E
 Epicentro: BETULIA - SANTANDER                                                3
 ACTION:UPD 16-05-05 14:22 OP:rebc STATUS:               ID:20160418164635 L   I
 OLDACT:ARG 16-04-18 20:49 OP:ar   STATUS:               ID:20160418163750     3
 2016-04-18-1637-50M.COL___292                                                 6
 STAT SP IPHASW D HRMM SECON CODA AMPLIT PERI AZIMU VELO AIN AR TRES W  DIS CAZ7
 BAR2 EZ EP       1646 55.63                             167    0.1910 31.6 183 
 BAR2 EZ ES       1647 11.05                             167    0.1210 31.6 183 
 BAR2 EZ I        1647 13.16         6.6 0.34            165           31.6 183 
 PTB  HZ EP       1647  2.09                             132   -0.45 9  147 255 
 PTB  HN ES       1647 23.68                             132    0.12 9  147 255 
 PTB  HZ I        1647 27.10         3.8 0.14            133            147 255 
 SPBC HZ EP       1647  4.53                             128   -0.08 9  168 217 
 SPBC HE ES       1647 26.93                             128   -0.32 9  168 217 
 SPBC HZ I        1647 31.60         8.5 0.10            129            168 217 
 NOR  HN ES       1647 39.62                             118   -0.20 8  238 232 
 NOR  HZ I        1647 43.52         3.2 0.24            120            238 232 
 GUY2CHZ EP   2   1647 19.93                             112    0.37 4  304 233 
 GUY2CHN ES       1647 54.63                             112    0.77 7  304 233 
                                                                                
