 2017  118 1619 36.1 L   6.823 -73.197145.8  RSN  4 0.3 1.4LRSN                1
 GAP=147        0.70       4.3     4.1  5.9 -0.5498E+01  0.6575E+01 -0.2444E+01E
 Epicentro: ZAPATOCA - SANTANDER                                               3
 ACTION:UPD 17-05-22 16:01 OP:jn   STATUS:               ID:20170118161936 L   I
 OLDACT:REG 17-01-18 21:37 OP:cog  STATUS:               ID:20170118161742     3
 2017-01-18-1618-00M.COL___337                                                 6
 STAT SP IPHASW D HRMM SECON CODA AMPLIT PERI AZIMU VELO AIN AR TRES W  DIS CAZ7
 BAR2 EZ EP       1619 55.64                             170   -0.1010 25.6 176 
 BAR2 EZ ES       1620 10.78                             170   -0.3110 25.6 176 
 BAR2 EZ I        1620 11.87         8.1 0.26            171           25.6 176 
 PAM  EZ EP       1619 58.62                             150    0.2410 79.2  44 
 PAM  EE ES       1620 15.83                             150    0.0310 79.2  44 
 PAM  EZ I        1620 17.83         8.9 0.54            153           79.2  44 
 RUS  HZ EP       1620  0.15                             143    0.1110  104 173 
 RUS  HN ES       1620 18.86                             143    0.1210  104 173 
 RUS  HZ I        1620 19.35         1.3 0.38            147            104 173 
 PTB  HZ EP       1620  2.09                             133   -0.48 9  143 257 
 PTB  HN ES       1620 23.62                             133    0.37 9  143 257 
 PTB  HZ I        1620 29.41         3.2 0.20            133            143 257 
                                                                                
