 2010  718 1918 45.8 L   6.760 -73.025141.5  RSN  4 0.1 1.7LRSN                1
 GAP=179        0.40       5.0     6.0  6.2  0.1302E+02 -0.2151E+02 -0.1965E+02E
 Epicentro: CEPITA - SANTANDER                                                 3
 ACTION:UP  10-12-01 15:18 OP:pat  STATUS:               ID:20100718191846dL   I
 2010-07-18-1915-55S.COL___120                                                 6
 STAT SP IPHASW D HRMM SECON CODA AMPLIT PERI AZIMU VELO AIN AR TRES W  DIS CAZ7
 BAR2 SZ ES   1   1919 19.80                             170    -0.1 7   26 223 
 BAR2 SZ I        1919 21.81        14.1 0.06                            26 223 
 BRR  HZ EP       1919  7.25                             147    -0.110   85 297 
 BRR  HN ES       1919 24.23                             147     0.110   85 297 
 BRR  HZ I        1919 24.97        13.6 0.03                            85 297 
 RUS  HZ I        1919 10.65         3.8 0.19                            96 184 
 RUS  HN ES   2   1919 26.93                             144     0.2 5   96 184 
 GUE  SZ EP       1919 10.38                             138     0.110  119   5 
                                                                                
