 2011 1218 1103 54.9 L   6.747 -73.052141.5  RSN  4 0.3 1.2LRSN                1
 GAP=151        0.67       4.7     7.0  9.0 -0.7815E+00 -0.2796E+01  0.5256E+01E
 Epicentro: LOS SANTOS - SANTANDER                                             3
 ACTION:UPD 12-07-13 16:17 OP:ep   STATUS:               ID:20111218110354 L   I
 2011-12-18-1100-00M.COL___185                                                 6
 STAT SP IPHASW D HRMM SECON CODA AMPLIT PERI AZIMU VELO AIN AR TRES W  DIS CAZ7
 BAR2 SZ EP   2   11 4 13.61                             171   -0.34 5 22.4 220 
 BAR2 SZ I        11 4 30.25         5.8 0.51                          22.4 220 
 PAM  SZ EP   1   11 4 16.51                             150   -0.03 7 76.2  31 
 PAM  SN ES   1   11 4 33.50                             150    0.04 7 76.2  31 
 BRR  HZ EP   1   11 4 15.86                             148   -0.42 7 83.1 299 
 BRR  HN ES   1   11 4 33.24                             148    0.26 7 83.1 299 
 BRR  HZ I        11 4 36.98         3.6 0.16                          83.1 299 
 RUS  HZ EP   1   11 4 18.34                             145    0.59 7 94.6 182 
 RUS  HN ES   1   11 4 35.33                             145   -0.28 7 94.6 182 
 RUS  HZ I        11 4 40.08         1.3 0.37                          94.6 182 
                                                                                
