 2012  418 1047 14.6 L   6.807 -73.136146.9  RSN  5 0.3 1.8LRSN                1
 GAP=137        0.83       5.7     5.9  9.9  0.5905E+01  0.3931E+01  0.2990E+01E
 Epicentro: LOS SANTOS - SANTANDER                                             3
 ACTION:UPD 12-07-05 11:54 OP:tino STATUS:               ID:20120418104714 L   I
 2012-04-18-1040-00M.COL___187                                                 6
 STAT SP IPHASW D HRMM SECON CODA AMPLIT PERI AZIMU VELO AIN AR TRES W  DIS CAZ7
 BAR2 SZ EP       1047 34.34                             170     0.010   24 192 
 BAR2 SZ I        1047 34.65         9.0 0.09                            24 192 
 BRR  HZ EP       1047 35.98                             152     0.110   72 298 
 BRR  HZ I        1047 36.46        15.4 0.12                            72 298 
 BRR  HE ES   1   1047 52.92                             152     0.4 7   72 298 
 PAM  SZ EP       1047 37.12                             151     0.310   76  39 
 PAM  SN ES   1   1047 53.67                             151    -0.5 7   76  39 
 RUS  HZ EP   1   1047 38.12                             144    -0.3 7  101 177 
 RUS  HN ES   1   1047 57.18                             144     0.1 7  101 177 
 ZAR  HN ES   1   1048 12.03                             122    -0.5 6  205 292 
 ZAR  HZ I        1048 19.10         5.4 0.44                           205 292 
                                                                                
