 2016 1218 1959 10.0 L   6.821 -73.139144.0  RSN  9 0.5 1.7LRSN                1
 GAP=136        1.12       4.4     4.9  6.4  0.2418E+01  0.9821E+01  0.6717E+01E
 Epicentro: LOS SANTOS - SANTANDER                                             3
 ACTION:UPD 17-01-11 20:16 OP:rebc STATUS:               ID:20161218195910 L   I
 OLDACT:UP  16-12-18 23:17 OP:and  STATUS:               ID:20161218194744d    3
 OLDACT:UP  16-12-18 23:15 OP:and  STATUS:               ID:20161218194744d    3
 OLDACT:DUP 16-12-18 23:13 OP:and  STATUS:               ID:20161218194744d    3
 2016-12-18-1948-00M.COL___333                                                 6
 STAT SP IPHASW D HRMM SECON CODA AMPLIT PERI AZIMU VELO AIN AR TRES W  DIS CAZ7
 BAR2 EZ EP       1959 29.26                             169   -0.2310 25.8 191 
 BAR2 EZ ES       1959 45.03                             169    0.3510 25.8 191 
 BAR2 EZ I        1959 46.20         6.7 0.23            168           25.8 191 
 BRR  HZ EP       1959 30.94                             152   -0.0210 70.8 297 
 BRR  HN ES       1959 47.97                             152    0.6810 70.8 297 
 PAM  EZ EP     C 1959 32.07                             151    0.1510 75.1  40 
 PAM  EN ES       1959 48.61                             151   -0.3810 75.1  40 
 PAM  EZ I        1959 51.01        17.0 0.56            155           75.1  40 
 RUS  HZ EP       1959 33.34                             143   -0.4310  103 177 
 RUS  HE ES       1959 52.39                             143    0.1010  103 177 
 RUS  HZ I        1959 53.88         8.6 0.30            144            103 177 
 PTB  HZ EP       1959 36.25                             131   -0.71 9  149 258 
 PTB  HN ES       1959 57.25                             131   -0.72 9  149 258 
 PTB  HZ I        20 0  2.04         5.1 0.12            131            149 258 
 ZAR  HZ EP       1959 43.08                             122    0.74 9  204 291 
 ZAR  HN ES       20 0  7.28                             122   -0.26 9  204 291 
 ZAR  HZ I        20 0 13.91         5.1 0.23            123            204 291 
 NOR  HZ EP       1959 45.98                             118    0.12 8  237 234 
 CHI  HZ EP       1959 48.01                             116    0.12 8  251 195 
 CHI  HN ES       20 0 17.58                             116    0.15 8  251 195 
 CHI  HZ I        20 0 22.35         2.6 0.32            118            251 195 
 GUY2CHZ EP       1959 54.57                             112    0.80 7  303 234 
 GUY2CHN ES   4   20 0 29.96                             112    2.06 0  303 234 
 GUY2CHZ I        20 0 37.19         3.0 0.32                           303 234 
                                                                                
