 2012  818 1152 36.9 L   6.506 -73.592102.0  RSN  4 0.1 2.0LRSN                1
 GAP=132        0.35       3.1     2.3  4.9  0.2760E+01  0.6466E+00 -0.2690E+01E
 Epicentro: SANTA HELENA DEL OPON - SANTANDER                                  3
 ACTION:UPD 12-09-10 11:57 OP:ep   STATUS:               ID:20120818115236 L   I
 2012-08-18-1150-00M.COL___217                                                 6
 STAT SP IPHASW D HRMM SECON CODA AMPLIT PERI AZIMU VELO AIN AR TRES W  DIS CAZ7
 BAR2 SZ EP       1152 52.43                             154    0.1410 46.2  78 
 BAR2 SZ I        1152 52.85        24.1 0.21                          46.2  78 
 BAR2 SZ ES   1   1153  4.19                             154   -0.08 7 46.2  78 
 BRR  HZ EP       1152 53.26                             144   -0.0510 67.8 349 
 RUS  HZ EP   1   1152 55.47                             136   -0.13 7 88.1 140 
 RUS  HN ES   1   1153 10.20                             136    0.03 7 88.1 140 
 PTB  HE ES   1   1153 10.20                             133    0.02 7 95.7 272 
 PTB  HZ I        1153 12.06        27.3 0.54                          95.7 272 
                                                                                
