 2017  318 1415 49.2 L   6.756 -73.148144.1  RSN  6 0.4 1.8LRSN                1
 GAP=138        0.93       4.6     4.1  6.8  0.1626E+01  0.5524E+01  0.2418E+00E
 Epicentro: LOS SANTOS - SANTANDER                                             3
 ACTION:UPD 17-05-25 18:42 OP:jn   STATUS:               ID:20170318141549 L   I
 OLDACT:UP  17-03-19 00:40 OP:dnl  STATUS:               ID:20170318140744     3
 OLDACT:REG 17-03-18 22:59 OP:dnl  STATUS:               ID:20170318140744     3
 2017-03-18-1408-00M.COL___409                                                 6
 STAT SP IPHASW D HRMM SECON CODA AMPLIT PERI AZIMU VELO AIN AR TRES W  DIS CAZ7
 BAR2 EZ EP       1416  8.56                             172    0.0410 18.5 192 
 BAR2 EZ ES       1416 23.51                             172   -0.1010 18.5 192 
 BAR2 EZ I        1416 24.58        15.4 0.46            172           18.5 192 
 BRR  HZ EP       1416 10.56                             151    0.2810 73.4 302 
 BRR  HE ES       1416 27.05                             151    0.3210 73.4 302 
 BRR  HZ I        1416 27.93        24.9 0.32            150           73.4 302 
 PAM  EZ EP       1416 11.53                             149    0.0710 81.3  38 
 PAM  EN ES       1416 28.43                             149   -0.4110 81.3  38 
 PAM  EZ I        1416 30.85         9.2 0.54            151           81.3  38 
 RUS  HZ EP       1416 12.67                             145    0.2410 95.8 176 
 RUS  HN ES       1416 30.81                             145    0.2510 95.8 176 
 RUS  HZ I        1416 31.93         5.1 0.24            147           95.8 176 
 PTB  HZ EP       1416 15.25                             132   -0.66 9  147 261 
 PTB  HN ES       1416 36.23                             132   -0.53 9  147 261 
 PTB  HZ I        1416 39.95         7.4 0.44            131            147 261 
 ZAR  HZ EP   4   1416 23.16                             122    1.47 0  206 293 
 ZAR  HE ES       1416 47.53                             122    0.49 8  206 293 
 ZAR  HZ I        1416 53.16         7.1 0.34            122            206 293 
                                                                                
