 2011  118 1300 12.0 L   6.756 -73.173142.9  RSN  5 0.3 1.7LRSN                1
 GAP=156        0.67       4.5    17.8  6.4 -0.3823E+02 -0.1357E+02  0.3134E+00E
 Epicentro: VILLANUEVA - SANTANDER                                             3
 ACTION:UP  11-02-08 08:41 OP:pat  STATUS:               ID:20110118130012 L   I
 2011-01-18-1255-33S.COL___137                                                 6
 STAT SP IPHASW D HRMM SECON CODA AMPLIT PERI AZIMU VELO SNR AR TRES W  DIS CAZ7
 BAR2 SZ EP   1   13 0 30.97                             172    -0.2 7   18 184 
 BAR2 SZ ES   1   13 0 45.69                             172    -0.5 7   18 184 
 BAR2 SZ I        13 0 47.74        13.8 0.27                            18 184 
 BTL  SZ EP       13 0 31.25                             171     0.010   21 330 
 BTL  SZ ES   1   13 0 46.57                             171     0.3 7   21 330 
 RUS  HZ EP   1   13 0 34.89                             144    -0.2 7   96 174 
 RUS  HN ES   1   13 0 53.57                             144     0.4 7   96 174 
 RUS  HZ I        13 0 54.38         6.0 0.56                            96 174 
 GRA  SZ EP   1   13 0 37.76                             135     0.3 7  131  18 
 GRA  SZ ES   1   13 0 57.17                             135    -0.1 7  131  18 
 GRA  SZ I        13 0 59.04         8.0 0.24                           131  18 
 CHI  HZ EP   2   13 0 48.95                             117     0.0 4  243 195 
                                                                                
