 2014 1218 1601  7.0 L   6.777 -73.226140.9  RSN  4 0.1 1.3LRSN                1
 GAP=144        0.39       2.8     2.7  3.9 -0.2292E+01  0.2703E+01 -0.1246E+01E
 Epicentro: ZAPATOCA - SANTANDER                                               3
 ACTION:UPD 15-02-10 17:05 OP:nd   STATUS:               ID:20141218160107 L   I
 OLDACT:DUP 14-12-18 23:15 OP:spq  STATUS:               ID:20141218155746d    3
 OLDACT:UP  14-12-18 23:14 OP:spq  STATUS:               ID:20141218155745     3
 OLDACT:REG 14-12-18 20:32 OP:spq  STATUS:               ID:20141218155745     3
 2014-12-18-1557-45M.COL___296                                                 6
 STAT SP IPHASW D HRMM SECON CODA AMPLIT PERI AZIMU VELO AIN AR TRES W  DIS CAZ7
 BAR2 EZ EP       16 1 25.96                             171   -0.0510 21.0 167 
 BAR2 EZ ES   1   16 1 41.11                             171    0.29 7 21.0 167 
 BAR2 EZ I        16 1 44.65         5.4 0.27            173           21.0 167 
 PAM  SZ EP       16 1 29.20                             147    0.0010 85.1  43 
 PAM  SN ES   1   16 1 46.38                             147   -0.13 7 85.1  43 
 PAM  SZ I        16 1 48.86         4.5 0.54            154           85.1  43 
 RUS  HZ EP       16 1 30.25                             143    0.0810 99.1 171 
 RUS  HN ES   1   16 1 48.03                             143   -0.21 7 99.1 171 
 RUS  HZ I        16 1 50.02         2.2 0.24            150           99.1 171 
 PTB  HZ EP       16 1 32.81                             133    0.06 9  139 259 
 PTB  HE ES   1   16 1 52.69                             133   -0.13 7  139 259 
 PTB  HZ I        16 1 59.41         4.7 0.42            135            139 259 
                                                                                
