 2013 1218 1109 54.1 L   6.749 -73.146148.6  RSN  5 0.5 1.5LRSN                1
 GAP=200        1.20       6.2     8.7  8.8  0.2236E+02 -0.2995E+01 -0.1801E+02E
 Epicentro: LOS SANTOS - SANTANDER                                             3
 ACTION:UPD 14-01-13 10:19 OP:ep   STATUS:               ID:20131218110954 L   I
 OLDACT:REG 13-12-18 15:34 OP:nd   STATUS:               ID:20131218111000     3
 2013-12-18-1110-00M.COL___285                                                 6
 STAT SP IPHASW D HRMM SECON CODA AMPLIT PERI AZIMU VELO AIN AR TRES W  DIS CAZ7
 BAR2 SZ EP       1110 14.16                             173    0.2410 17.8 193 
 BAR2 SZ ES       1110 28.87                             173   -0.5510 17.8 193 
 BAR2 SZ I        1110 30.37        11.0 0.20            169           17.8 193 
 BRR  HZ EP       1110 15.97                             152    0.3010 74.1 302 
 BRR  HN ES       1110 33.45                             152    0.9210 74.1 302 
 BRR  HZ I        1110 43.24         8.4 0.30            149           74.1 302 
 RUS  HZ EP       1110 18.06                             146    0.3710 94.9 176 
 RUS  HN IS       1110 35.77                             146   -0.3510 94.9 176 
 RUS  HZ I        1110 38.26         2.5 0.34            150           94.9 176 
 PTB  HZ EP       1110 21.04                             133   -0.12 9  147 261 
 PTB  HN ES       1110 42.01                             133   -0.30 9  147 261 
 PTB  HZ I        1110 49.21         2.2 0.42            132            147 261 
 SML  HZ EP       1110 31.20                             117   -0.19 8  249 336 
 SML  HN ES       1110 59.79                             117   -0.73 8  249 336 
 SML  HZ I        1111  2.93         3.8 0.10            120            249 336 
                                                                                
