 2017  218 1109 57.5 L   6.159 -73.680105.8  RSN  7 0.3 1.5LRSN                1
 GAP= 90        0.73       2.2     3.1  5.9  0.2230E+01  0.9332E+01  0.5390E+01E
 Epicentro: LA PAZ - SANTANDER                                                 3
 ACTION:UPD 17-05-24 15:37 OP:jn   STATUS:               ID:20170218110957 L   I
 OLDACT:REG 17-02-18 21:19 OP:dani STATUS:               ID:20170218110744     3
 2017-02-18-1108-00M.COL___349                                                 6
 STAT SP IPHASW D HRMM SECON CODA AMPLIT PERI AZIMU VELO AIN AR TRES W  DIS CAZ7
 RUS  HZ EP     C 1110 15.12                             143   -0.1310 72.3 114 
 RUS  HN ES       1110 28.98                             143   -0.1310 72.3 114 
 RUS  HZ I        1110 30.35         3.3 0.34            150           72.3 114 
 BAR2 EZ EP     C 1110 15.14                             143    0.2010 73.0  49 
 BAR2 EZ ES       1110 28.85                             143    0.2910 73.0  49 
 PTB  HZ EP       1110 16.03                             134   -0.4410 95.7 296 
 PTB  HE ES       1110 31.26                             134   -0.0310 95.7 296 
 PTB  HZ I        1110 35.23         6.2 0.10            136           95.7 296 
 BRR  HZ EP       1110 17.40                             131    0.1310  105 358 
 BRR  HN ES       1110 32.31                             131   -0.4110  105 358 
 BRR  HZ I        1110 35.14         7.2 0.18            138            105 358 
 CHI  HZ EP       1110 24.01                             117   -0.31 9  169 182 
 CHI  HN ES       1110 45.70                             117    0.44 9  169 182 
 CHI  HZ I        1110 50.38         3.2 0.30            120            169 182 
 ZAR  HZ EP       1110 27.15                             113    0.30 9  197 319 
 ZAR  HE ES       1110 50.15                             113    0.38 9  197 319 
 ZAR  HZ I        1110 52.24         4.9 0.10            117            197 319 
 PRA  HZ EP       1110 38.81                             103   -0.27 7  302 206 
 PRA  HN ES       1111 11.61                             103    0.07 7  302 206 
 PRA  HZ I        1111 19.31         2.6 0.30            106            302 206 
                                                                                
