 2014  418 1134 17.6 L   6.793 -73.135128.3  RSN  6 0.5 1.5LRSN                1
 GAP=184        1.19       4.1     7.5 12.8 -0.1309E+01  0.1910E+02 -0.2083E+02E
 Epicentro: LOS SANTOS - SANTANDER                                             3
 ACTION:UPD 14-05-13 23:09 OP:nd   STATUS:               ID:20140418113417 L   I
 OLDACT:REG 14-04-18 21:19 OP:stll STATUS:               ID:20140418112809     3
 2014-04-18-1128-09M.COL___233                                                 6
 STAT SP IPHASW D HRMM SECON CODA AMPLIT PERI AZIMU VELO AIN AR TRES W  DIS CAZ7
 RUS  HE ES       1134 57.09                             140    0.3010 99.7 177 
 RUS  HZ I        1134 59.40         3.7 0.22            147           99.7 177 
 PTB  HZ EP       1134 42.89                             127   -0.43 9  149 259 
 PTB  HN ES       1135  2.53                             127   -0.84 9  149 259 
 PTB  HZ I        1135  6.46         3.0 0.26            132            149 259 
 OCA  HN ES       1135  5.75                             125   -0.12 9  161 353 
 OCA  HZ I        1135 10.21         3.7 0.24            129            161 353 
 SPBC HZ EP       1134 44.89                             125    0.04 9  163 219 
 SPBC HN ES       1135  6.12                             125    0.02 9  163 219 
 SPBC HZ I        1135  8.07         4.2 0.32            130            163 219 
 ZAR  HZ EP       1134 49.76                             118    0.62 8  205 292 
 ZAR  HN ES       1135 14.74                             118    1.01 8  205 292 
 ZAR  HZ I        1135 20.16         3.3 0.56            122            205 292 
 SML  HZ EP       1134 53.13                             113   -0.33 8  245 335 
 SML  HN ES       1135 21.24                             113   -0.18 8  245 335 
 SML  HZ I        1135 25.15         3.9 0.10            118            245 335 
                                                                                
