 2010  818 1810 34.0 L   6.784 -73.083141.9  RSN 10 0.3 2.2LRSN                1
 GAP=166        0.56       2.7     5.8  4.4 -0.2715E+01 -0.6872E+01 -0.5000E+00E
 Epicentro: LOS SANTOS - SANTANDER                                             3
 ACTION:UP  10-09-07 10:56 OP:vdl  STATUS:               ID:20100818181033 L   I
 2010-08-18-1807-03S.COL___116                                                 6
 STAT SP IPHASW D HRMM SECON CODA AMPLIT PERI AZIMU VELO SNR AR TRES W  DIS CAZ7
 BAR2 SZ IP       1810 53.24                             170     0.110   24 208 
 BAR2 SZ ES   1   1811  7.65                             170    -0.4 7   24 208 
 BAR2 SZ I        1811  9.29        54.4 0.19                            24 208 
 BTL  SZ EP       1810 53.30                             169     0.110   25 306 
 BTL  SZ ES   1   1811  8.56                             169     0.4 7   25 306 
 GIR2 SZ EP   2   1810 53.17                             165    -0.1 5   35 339 
 BRR  HZ IP     D 1810 55.03                             149    -0.110   78 297 
 BRR  HN ES   1   1811 11.90                             149     0.3 7   78 297 
 BRR  HZ I        1811 12.68        63.6 0.12                            78 297 
 RUS  HZ EP       1810 57.31                             143     0.110   99 180 
 RUS  HN ES   2   1811 14.94                             143    -0.4 5   99 180 
 RUS  HZ I        1811 17.82        15.9 0.28                            99 180 
 GUE  SZ EP       1810 58.27                             138    -0.110  117   9 
 GUE  SZ ES   1   1811 17.14                             138    -0.2 7  117   9 
 GRA  SZ IP       1810 58.95                             136     0.110  126  14 
 GRA  SZ ES   2   1811 18.34                             136     0.1 5  126  14 
 GRA  SZ I        1811 19.71        24.0 0.39                           126  14 
 OCA  SZ EP   1   1811  1.86                             128    -0.4 7  163 351 
 OCA  SZ ES   2   1811 23.98                             128    -0.3 5  163 351 
 OCA  SZ I        1811 26.53        21.8 0.13                           163 351 
 CHI  HN ES   3   1811 40.70                             116     0.0 2  249 197 
 CHI  HZ I        1811 44.42         6.2 0.25                           249 197 
 HEL  HZ EP   3   1811 15.01                             113     0.3 2  278 257 
 HEL  HE ES   3   1811 45.63                             113    -0.8 2  278 257 
 HEL  HZ I        1811 51.64         9.6 0.58                           278 257 
                                                                                
