 2013  418 1518 58.8 L   6.821 -73.143150.0  RSN 28 0.6 3.8LRSN 3.9WRSN        1
 SPEC AVERAGE  MO 14.9 ST 52.5 OM  3.3 f0 3.09 R0.5210 AL 2.82 WI 27.8 MW  3.9 3
 SPEC SD       MO  0.2 ST 65.8 OM  0.3 f00.958 R0.1540 AL      WI      MW  0.1 3
 GAP= 48        1.30       2.5     2.9  4.6 -0.1069E+01  0.1818E+01  0.6289E+00E
 Epicentro: LOS SANTOS - SANTANDER                                             3
 SPEC YOP SH E MO 14.8 ST 22.3 OM  3.0 f0 3.02 R0.4868 AL 3.40 WI 28.1 MW  3.8 3
 SPEC YOP SH E T151953 K 0.000 GD  235 VS 4.20 DE 3.20 Q0300.0 QA 0.60 VS 4.20 3
 SPEC TAM HH N MO 14.8 ST  6.6 OM  3.1 f0 1.92 R0.7656 AL 2.04 WI 27.7 MW  3.8 3
 SPEC TAM HH N T151948 K 0.000 GD  215 VS 4.20 DE 3.20 Q0300.0 QA 0.60 VS 4.20 3
 SPEC PRA HH E MO 14.9 ST 38.1 OM  2.9 f0 3.21 R0.4579 AL 2.95 WI 37.1 MW  3.9 3
 SPEC PRA HH E T152034 K 0.000 GD  421 VS 4.20 DE 3.20 Q0300.0 QA 0.60 VS 4.20 3
 SPEC COD HH N MO 14.7 ST  6.6 OM  2.7 f0 2.17 R0.6774 AL 1.39 WI 23.2 MW  3.7 3
 SPEC COD HH N T152022 K 0.000 GD  377 VS 4.20 DE 3.20 Q0300.0 QA 0.60 VS 4.20 3
 SPEC GUY HH N MO 15.1 ST 26.9 OM  3.2 f0 2.44 R0.6025 AL 3.21 WI 26.9 MW  4.0 3
 SPEC GUY HH N T152017 K 0.000 GD  339 VS 4.20 DE 3.20 Q0300.0 QA 0.60 VS 4.20 3
 SPEC HEL HH E MO 14.8 ST 32.3 OM  2.9 f0 3.36 R0.4375 AL 2.64 WI 36.2 MW  3.8 3
 SPEC HEL HH E T152010 K 0.000 GD  311 VS 4.20 DE 3.20 Q0300.0 QA 0.60 VS 4.20 3
 SPEC ROSCBH Z MO 15.0 ST 16.8 OM  3.1 f0 2.36 R0.6229 AL 3.67 WI 34.9 MW  3.9 3
 SPEC ROSCBH Z T1520 8 K 0.000 GD  295 VS 4.20 DE 3.20 Q0300.0 QA 0.60 VS 4.20 3
 SPEC CHI HH E MO 14.7 ST 13.9 OM  2.8 f0 2.80 R0.5250 AL 2.62 WI 23.1 MW  3.7 3
 SPEC CHI HH E T1520 6 K 0.000 GD  292 VS 4.20 DE 3.20 Q0300.0 QA 0.60 VS 4.20 3
 SPEC NOR HH E MO 15.1 ST241.3 OM  3.3 f0 5.01 R0.2934 AL 3.79 WI 30.1 MW  4.0 3
 SPEC NOR HH E T1520 2 K 0.000 GD  279 VS 4.20 DE 3.20 Q0300.0 QA 0.60 VS 4.20 3
 SPEC OCA HH E MO 15.1 ST 96.1 OM  3.4 f0 3.71 R0.3962 AL 2.17 WI 25.8 MW  4.0 3
 SPEC OCA HH E T151949 K 0.000 GD  217 VS 4.20 DE 3.20 Q0300.0 QA 0.60 VS 4.20 3
 SPEC PTB HH E MO 14.9 ST 22.7 OM  3.2 f0 2.70 R0.5444 AL 2.02 WI 22.6 MW  3.9 3
 SPEC PTB HH E T151946 K 0.000 GD  211 VS 4.20 DE 3.20 Q0300.0 QA 0.60 VS 4.20 3
 SPEC PAM SH N MO 14.7 ST 45.5 OM  3.1 f0 3.97 R0.3703 AL 3.55 WI 21.4 MW  3.8 3
 SPEC PAM SH N T151938 K 0.000 GD  167 VS 4.20 DE 3.20 Q0300.0 QA 0.60 VS 4.20 3
 SPEC BRR HH N MO 15.0 ST157.3 OM  3.4 f0 4.79 R0.3069 AL 4.21 WI 31.8 MW  4.0 3
 SPEC BRR HH N T151938 K 0.000 GD  165 VS 4.20 DE 3.20 Q0300.0 QA 0.60 VS 4.20 3
 SPEC BAR2SH Z MO 15.0 ST  7.9 OM  3.4 f0 1.82 R0.8077 AL 1.81 WI 19.8 MW  3.9 3
 SPEC BAR2SH Z T151934 K 0.000 GD  152 VS 4.20 DE 3.20 Q0300.0 QA 0.60 VS 4.20 3
 ACTION:UPD 13-05-22 14:39 OP:EP   STATUS:               ID:20130418151858 L   I
 2013-04-18-1518-50M.COL___221                                                 6
 STAT SP IPHASW D HRMM SECON CODA AMPLIT PERI AZIMU VELO AIN AR TRES W  DIS CAZ7
 BAR2 SZ IP     C 1519 19.23                             170    0.2010 25.7 190 
 BAR2 SZ ES       1519 34.42                             170   -0.3610 25.7 190 
 BAR2 SZ I        1519 35.94      1562.2 0.40            167           25.7 190 
 GIR2 SZ IP       1519 19.31                             168    0.3510 29.0 349 
 GIR2 SZ ES       1519 34.39                             168   -0.2710 29.0 349 
 GIR2 SZ I        1519 36.39       739.9 0.60            166           29.0 349 
 BRR  HZ IP     C 1519 21.09                             153    0.6810 70.4 297 
 BRR  HE ES       1519 37.94                             153    0.7210 70.4 297 
 BRR  HN I        1519 38.95      2209.8 0.26            148           70.4 297 
 PAM  SZ IP     C 1519 22.03                             152    0.6310 75.4  41 
 PAM  SE ES       1519 39.30                             152    0.3110 75.4  41 
 PAM  SN I        1519 40.13       923.6 0.20            154           75.4  41 
 RUS  HZ IP     D 1519 23.02                             144   -0.1610  103 176 
 RUS  HN ES       1519 41.76                             144   -0.4010  103 176 
 RUS  HE I        1519 42.94       531.9 0.44            142            103 176 
 CAPV BZ IP     C 1519 27.07                             133    0.66 9  147  38 
 CAPV BZ ES       1519 47.35                             133   -0.55 9  147  38 
 PTB  HZ IP     D 1519 25.70                             133   -0.53 9  149 258 
 PTB  HN ES       1519 46.77                             133   -0.82 9  149 258 
 PTB  HE I        1519 53.08      1739.6 0.38            129            149 258 
 TAM  HZ IP     D 1519 27.40                             131    0.51 9  155 106 
 TAM  HZ I        1519 27.57       393.7 0.32            132            155 106 
 TAM  HN ES       1519 48.35                             131   -0.42 9  155 106 
 OCA  HZ EP       1519 27.26                             131   -0.01 9  158 353 
 OCA  HN ES       1519 49.32                             131   -0.13 9  158 353 
 OCA  HE I        1519 53.57      1759.9 0.20            129            158 353 
 YOP  SZ IP     D 1519 29.73                             127    0.34 9  181 154 
 YOP  SZ I        1519 30.58       358.2 0.76            126            181 154 
 YOP  SE ES       1519 53.64                             127    0.43 9  181 154 
 ZAR  HZ EP       1519 31.77                             123    0.26 9  203 291 
 ZAR  HN ES       1519 57.25                             123    0.27 9  203 291 
 ZAR  HN I        1520  3.12       936.4 0.36            120            203 291 
 CTAU SZ EP   9   1519 37.87                             123    5.55 0  205 209 
 CTAU SZ ES       1520  3.64                                   -0.34 9  205 209 
 CTAB SZ EP       1519 37.30                             120    2.22 8  232 210 
 CTAB SZ ES   4   1520  2.21                             120   -1.13 0  232 210 
 NOR  HZ EP       1519 34.87                             119   -0.12 8  236 234 
 NOR  HN ES       1520  2.93                             119   -0.26 8  236 234 
 NOR  HE I        1520  8.56       801.5 0.20            116            236 234 
 SML  HZ EP       1519 35.56                             118    0.07 8  242 335 
 SML  HN ES       1520  3.54                             118   -0.54 8  242 335 
 CHI  HZ EP       1519 36.79                             118   -0.24 8  251 195 
 CHI  HN ES       1520  6.05                             118   -0.77 8  251 195 
 CHI  HE I        1520 13.32       454.8 0.56            116            251 195 
 ROSC BZ IP   4 D 1519 38.79                             117    1.36 0  255 211 
 ROSC BE ES       1520  7.61                             117    0.08 8  255 211 
 ROSC BZ I        1520 16.76       491.7 0.40            115            255 211 
 HEL  HZ EP       1519 39.75                             115    0.38 8  273 255 
 HEL  HE ES       1520 10.93                             115   -0.05 8  273 255 
 HEL  HE I        1520 19.69       352.0 0.28            113            273 255 
 URE  HZ EP       1519 39.05                             114   -1.01 7  283 291 
 URE  HE ES   4   1520 10.81                             114   -1.39 0  283 291 
 SOCV BZ EP       1519 41.23                             113   -0.69 7  300  57 
 GUY  HZ EP       1519 43.25                             113    0.16 7  305 235 
 GUY  HN ES       1520 17.98                             113    0.38 7  305 235 
 GUY  HN I        1520 25.38       313.1 0.64            111            305 235 
 VIL  SZ IP     C 1519 42.24                             113   -0.48 7  306 192 
 VIL  SN ES       1520 16.07                             113   -0.88 7  306 192 
 VIL  SN I        1520 24.26       805.8 0.58            111            306 192 
 DBB  SZ IP     C 1519 46.70                             110    0.19 7  340 274 
 DBB  SZ I        1520 25.60       146.3 0.50            108            340 274 
 COD  HZ EP       1519 46.60                             110   -0.53 6  346 355 
 COD  HN ES       1520 24.36                             110   -0.42 6  346 355 
 COD  HN I        1520 30.39       166.1 0.40            109            346 355 
 SDV  BZ IP     C 1519 48.44                             109   -0.41 6  359  50 
 PRA  HZ EP       1519 52.24                             107   -0.53 6  394 209 
 PRA  HN ES       1520 35.41                             107    0.58 6  394 209 
 PRA  HE I        1520 40.20       232.3 0.34            106            394 209 
 ELOV BZ IP     C 1519 53.15                             106   -0.81 6  405  87 
 SJC  HZ EP   4   1519 52.89                             106   -1.45 0  407 327 
 SJC  HE ES   4   1520 34.59                             106   -3.03 0  407 327 
 SMAR HZ EP       1520  4.30                             103   -0.26 4  495 346 
 SMAR HN ES   4   1520 52.03                             103   -3.79 0  495 346 
                                                                                
