 2013  118 1502 43.3 L   6.798 -73.168140.8  RSN  6 0.4 1.6LRSN                1
 GAP=134        0.62       3.3     4.5  5.9 -0.1955E+00  0.4798E+01  0.3319E+01E
 Epicentro: LOS SANTOS - SANTANDER                                             3
 ACTION:UPD 13-02-15 09:15 OP:ep   STATUS:               ID:20130118150243 L   I
 2013-01-18-1500-00M.COL___241                                                 6
 STAT SP IPHASW D HRMM SECON CODA AMPLIT PERI AZIMU VELO AIN AR TRES W  DIS CAZ7
 BAR2 SZ EP   1   15 3  2.44                             170    0.12 7 22.8 184 
 BAR2 SZ ES   1   15 3 17.35                             170    0.19 7 22.8 184 
 BAR2 SZ I        15 3 18.80        20.7 0.20            168           22.8 184 
 BRR  HZ EP   2   15 3  2.68                             152   -1.12 5 69.1 300 
 BRR  HN ES   2   15 3 19.37                             152   -0.41 5 69.1 300 
 PAM  SZ EP       15 3  5.22                             149    0.1210 79.2  41 
 PAM  SN ES   1   15 3 22.00                             149   -0.11 7 79.2  41 
 PAM  SZ I        15 3 24.93         4.7 0.60            153           79.2  41 
 RUS  HZ EP   1   15 3  6.50                             143   -0.06 7  101 175 
 RUS  HN ES   1   15 3 24.82                             143    0.11 7  101 175 
 RUS  HZ I        15 3 25.95         5.6 0.24            143            101 175 
 ZAR  HN ES   1   15 3 40.46                             122    0.39 6  202 292 
 ZAR  HZ I        15 3 46.91         4.5 0.20            120            202 292 
 CHI  HZ EP   1   15 3 20.84                             116    0.21 6  248 195 
 CHI  HN ES   1   15 3 49.44                             116   -0.31 6  248 195 
 CHI  HZ I        15 3 57.04         2.2 0.44            116            248 195 
                                                                                
