 2011  218 1008 29.9 L   6.791 -73.296136.9  RSN  6 0.3 1.6LRSN                1
 GAP=192        0.70       3.1    14.3  5.8 -0.2807E+01  0.9157E+01 -0.4449E+01E
 Epicentro: ZAPATOCA - SANTANDER                                               3
 ACTION:UP  11-03-28 15:09 OP:jfem STATUS:               ID:20110218100829 L   I
 2011-02-18-1002-46S.COL___137                                                 6
 STAT SP IPHASW D HRMM SECON CODA AMPLIT PERI AZIMU VELO SNR AR TRES W  DIS CAZ7
 BTL  SZ IP       10 8 48.54                             174     0.310   14  13 
 BTL  SZ ES   1   10 9  2.56                             174    -0.1 7   14  13 
 BAR2 SZ IP       10 8 48.52                             169     0.010   25 151 
 BAR2 SZ I        10 8 48.95         8.9 0.14                            25 151 
 BAR2 SZ ES   1   10 9  2.95                             169     0.0 7   25 151 
 GIR2 SZ EP   3   10 8 48.58                             165     0.0 2   34  20 
 GIR2 SZ ES   3   10 9  4.01                             165     0.9 2   34  20 
 RUS  HZ EP       10 8 52.94                             141     0.110  102 167 
 RUS  HN ES   1   10 9 10.53                             141    -0.3 7  102 167 
 RUS  HZ I        10 9 12.59         6.1 0.34                           102 167 
 GRA  SZ IP       10 8 55.34                             133     0.410  133  24 
 GRA  SZ ES   1   10 9 14.15                             133    -0.3 7  133  24 
 GRA  SZ I        10 9 16.15         5.3 0.33                           133  24 
 OCA  SZ EP       10 8 57.02                             127    -0.5 9  160 359 
 OCA  SZ ES   1   10 9 19.08                             127     0.0 7  160 359 
 OCA  SZ I        10 9 24.61         5.8 0.35                           160 359 
                                                                                
