 2011 1118 1743 38.3 L   6.749 -73.121137.5  RSN  6 0.3 1.7LRSN                1
 GAP=142        0.61       3.8     4.5  5.9 -0.2571E-01  0.4186E+01  0.3464E+01E
 Epicentro: LOS SANTOS - SANTANDER                                             3
 ACTION:UPD 12-07-13 16:11 OP:ep   STATUS:               ID:20111118174338 L   I
 2011-11-18-1740-14S.COL___179                                                 6
 STAT SP IPHASW D HRMM SECON CODA AMPLIT PERI AZIMU VELO AIN AR TRES W  DIS CAZ7
 BAR2 SZ EP   1   1743 56.82                             172   -0.06 7 18.7 201 
 BAR2 SZ I        1743 57.16        17.6 0.11                          18.7 201 
 BAR2 SZ ES   1   1744 10.66                             172   -0.69 7 18.7 201 
 BRR  HZ EP   1   1743 58.91                             149    0.00 7 76.4 301 
 BRR  HZ I        1744  3.72        20.8 0.10                          76.4 301 
 BRR  HE ES   1   1744 15.40                             149    0.44 7 76.4 301 
 PAM  SZ EP   1   1743 59.89                             148    0.04 7 80.2  35 
 PAM  SE ES   1   1744 16.65                             148    0.02 7 80.2  35 
 PAM  SZ I        1744 17.26         3.7 0.41                          80.2  35 
 RUS  HZ EP       1744  0.81                             144   -0.0510 94.8 177 
 RUS  HZ I        1744  1.93         6.7 0.11                          94.8 177 
 RUS  HN ES   1   1744 18.89                             144    0.46 7 94.8 177 
 ZAR  HE ES   2   1744 35.74                             120   -0.29 4  209 293 
 NOR  SZ EP   2   1744 13.47                             117   -0.02 4  234 236 
 NOR  SN ES   2   1744 40.78                             117   -0.14 4  234 236 
                                                                                
