 2013  318 1004 12.6 L   6.780 -73.143153.9  RSN  4 0.2 1.5LRSN                1
 GAP=243        0.48       7.2     5.5  6.7  0.3265E+02 -0.1100E+02 -0.2348E+02E
 Epicentro: LOS SANTOS - SANTANDER                                             3
 ACTION:UPD 13-04-09 14:03 OP:ep   STATUS:               ID:20130318100412 L   I
 2013-03-18-1000-00M.COL___243                                                 6
 STAT SP IPHASW D HRMM SECON CODA AMPLIT PERI AZIMU VELO AIN AR TRES W  DIS CAZ7
 BAR2 SZ ES   2   10 4 49.11                             172   -0.15 5 21.2 192 
 RUS  HZ EP       10 4 37.12                             146    0.0710 98.3 176 
 RUS  HN ES       10 4 56.09                             146    0.0110 98.3 176 
 RUS  HN I        10 4 57.41         4.7 0.38            146           98.3 176 
 PTB  HZ EP   1   10 4 39.83                             134   -0.44 7  148 260 
 PTB  HN ES       10 5  1.90                             134    0.08 9  148 260 
 PTB  HN I        10 5  6.23         4.5 0.28            132            148 260 
 ZAR  HZ EP   2   10 4 46.33                             124    0.59 4  205 293 
 ZAR  HN ES       10 5 11.55                             124   -0.01 9  205 293 
 ZAR  HN I        10 5 15.52         2.5 0.22            124            205 293 
                                                                                
