 2015  918 1851 33.4 L   6.829 -73.432115.6  RSN 12 0.4 2.1LRSN                1
 GAP= 78        1.02       2.3     3.3  5.6 -0.9174E+00  0.6337E+01  0.3252E+00E
 Epicentro: SAN VICENTE DE CHUCURI - SANTANDER                                 3
 ACTION:UPD 15-10-28 16:27 OP:cam  STATUS:               ID:20150918185133 L   I
 OLDACT:REG 15-09-18 21:23 OP:drio STATUS:               ID:20150918184748     3
 2015-09-18-1847-48M.COL___343                                                 6
 STAT SP IPHASW D HRMM SECON CODA AMPLIT PERI AZIMU VELO AIN AR TRES W  DIS CAZ7
 BAR2 EZ EP       1851 50.17                             161    0.2910 38.0 134 
 BAR2 EZ ES       1852  2.62                             161   -0.1310 38.0 134 
 BAR2 EZ I        1852  4.35        90.8 0.34            162           38.0 134 
 BRR  HZ EP       1851 50.31                             158    0.5410 43.6 315 
 BRR  HN ES       1852  3.13                             158    0.5810 43.6 315 
 PAM  EZ EP       1851 54.19                             137    0.0610 98.6  55 
 PAM  EN ES       1852 10.32                             137    0.0010 98.6  55 
 PAM  EZ I        1852 11.95         9.1 0.16            140           98.6  55 
 RUS  HZ EP       1851 55.15                             133   -0.0110  111 160 
 RUS  HE ES       1852 11.49                             133   -0.6610  111 160 
 RUS  HZ I        1852 16.45        10.5 0.38            134            111 160 
 PTB  HZ IP     C 1851 54.67                             131   -0.4910  118 254 
 PTB  HN ES   4   1852 10.67                             131   -1.48 0  118 254 
 PTB  HZ I        1852 15.57        24.5 0.32            130            118 254 
 SPBC HZ EP       1851 58.12                             124   -0.09 9  148 209 
 SPBC HN ES       1852 17.90                             124    0.31 9  148 209 
 SPBC HZ I        1852 23.56        25.4 0.18            124            148 209 
 OCA  HZ EP       1851 58.91                             122   -0.22 9  156   5 
 OCA  HN ES       1852 18.69                             122   -0.53 9  156   5 
 OCA  HZ I        1852 19.44        48.6 0.16            124            156   5 
 ZAR  HZ EP   4   1852  2.11                             119    1.35 0  174 295 
 ZAR  HN ES       1852 22.41                             119    0.29 9  174 295 
 ZAR  HZ I        1852 25.12        21.0 0.40            120            174 295 
 NOR  HZ EP       1852  4.90                             114   -0.08 8  212 229 
 NOR  HE ES       1852 29.15                             114   -0.48 8  212 229 
 NOR  HZ I        1852 34.07        16.6 0.16            114            212 229 
 SML  HZ EP       1852  7.20                             112    0.35 8  229 342 
 SML  HE ES       1852 32.60                             112   -0.36 8  229 342 
 SML  HZ I        1852 40.93        26.2 0.10            113            229 342 
 HEL  HZ EP   4   1852  9.81                             111    0.98 0  242 253 
 HEL  HE ES       1852 36.08                             111   -0.41 8  242 253 
 HEL  HZ I        1852 41.30         6.8 0.28            111            242 253 
 CHI  HZ EP       1852 10.23                             110    0.99 8  246 188 
 CHI  HE ES       1852 37.26                             110    0.05 8  246 188 
 CHI  HZ I        1852 47.29         5.3 0.48            111            246 188 
                                                                                
