 2010  618 1903 13.2 L   6.760 -73.103139.3  RSN  5 0.3 1.6LRSN                1
 GAP=164        0.65       4.4    10.1  8.7 -0.7634E+01 -0.2139E+02 -0.3536E+01E
 Epicentro: LOS SANTOS - SANTANDER                                             3
 ACTION:UP  10-08-24 10:11 OP:vdl  STATUS:               ID:20100618190313 L   I
 2010-06-18-1859-15S.COL___118                                                 6
 STAT SP IPHASW D HRMM SECON CODA AMPLIT PERI AZIMU VELO SNR AR TRES W  DIS CAZ7
 BAR2 SZ EP   1   19 3 31.66                             171    -0.3 7   21 206 
 BAR2 SZ ES   2   19 3 46.68                             171     0.1 5   21 206 
 BRR  HZ EP   1   19 3 33.85                             149    -0.2 7   78 300 
 BRR  HZ I        19 3 35.61        12.1 0.48                            78 300 
 BRR  HE ES   2   19 3 50.56                             149     0.3 5   78 300 
 RUS  HZ EP   1   19 3 36.00                             144     0.0 7   96 179 
 RUS  HN ES   2   19 3 53.89                             144     0.2 5   96 179 
 RUS  HZ I        19 3 55.33         4.8 0.28                            96 179 
 GUE  SZ EP   1   19 3 37.30                             137    -0.3 7  120   9 
 GUE  SZ ES   2   19 3 56.03                             137    -0.6 5  120   9 
 GRA  SZ EP   1   19 3 38.76                             135     0.7 7  129  15 
 GRA  SZ ES   2   19 3 57.72                             135     0.2 5  129  15 
                                                                                
