 2013  118 1201 52.6 L   6.162 -73.761 97.7  RSN 13 0.4 2.2LRSN                1
 GAP= 67        0.95       2.7     2.6  7.3 -0.1077E+01  0.3784E+01  0.4421E+01E
 Epicentro: LANDAZURI - SANTANDER                                              3
 ACTION:UPD 13-02-15 09:15 OP:ep   STATUS:               ID:20130118120152 L   I
 2013-01-18-1200-00M.COL___241                                                 6
 STAT SP IPHASW D HRMM SECON CODA AMPLIT PERI AZIMU VELO AIN AR TRES W  DIS CAZ7
 BAR2 SZ EP       12 2 10.33                             138    0.5010 79.7  53 
 BAR2 SZ ES   1   12 2 23.82                             138    0.55 7 79.7  53 
 BAR2 SZ I        12 2 25.40       348.6 0.48            145           79.7  53 
 RUS  HZ EP     C 12 2 10.17                             138   -0.0910 80.7 112 
 RUS  HN ES   1   12 2 23.89                             138   -0.15 7 80.7 112 
 RUS  HZ I        12 2 25.23        23.5 0.14            144           80.7 112 
 PTB  HZ IP     D 12 2  9.27                             135   -0.9110 87.5 299 
 PTB  HN ES   1   12 2 22.90                             135   -1.00 7 87.5 299 
 BRR  HZ EP     D 12 2 11.80                             129    0.0810  105   3 
 BRR  HN ES   1   12 2 27.43                             129    0.78 7  105   3 
 BRR  HZ I        12 2 30.75        29.8 0.14            135            105   3 
 ROSC BZ EP   1   12 2 18.09                             118    0.26 7  159 203 
 ROSC BN ES   1   12 2 37.74                             118    0.23 7  159 203 
 ROSC BZ I        12 2 43.83        16.5 0.45            120            159 203 
 CHI  HZ EP     C 12 2 18.65                             116   -0.38 9  169 179 
 CHI  HN ES   1   12 2 39.37                             116   -0.29 7  169 179 
 CHI  HZ I        12 2 44.89         9.9 0.24            119            169 179 
 PAM  SZ EP   1   12 2 19.99                             115    0.21 7  175  42 
 PAM  SE ES   1   12 2 40.83                             115   -0.15 7  175  42 
 PAM  SZ I        12 2 48.06         9.0 0.44            119            175  42 
 ZAR  HZ EP     C 12 2 20.61                             113   -0.29 9  191 321 
 ZAR  HE ES   1   12 2 43.59                             113    0.61 7  191 321 
 ZAR  HZ I        12 2 45.68        47.5 0.34            115            191 321 
 HEL  HZ EP   1   12 2 22.03                             112    0.10 6  196 271 
 HEL  HN ES   1   12 2 44.74                             112   -0.08 6  196 271 
 HEL  HZ I        12 2 50.50        18.3 0.46            114            196 271 
 TAM  HZ EP     D 12 2 24.42                             109    0.09 8  220  82 
 TAM  HN ES   1   12 2 48.68                             109   -0.40 6  220  82 
 RREF HZ EP       12 2 25.64                             109    0.07 8  224 232 
 RREF HN ES   1   12 2 51.96                             109    0.66 6  224 232 
 RREF HZ I        12 2 56.51        26.4 0.62            111            224 232 
 TOL  SZ EP   1   12 2 27.72                             107    0.05 6  245 225 
 ANIL HZ EP   1   12 2 29.48                             106    0.22 6  259 225 
 ANIL HE ES   1   12 2 58.32                             106    0.47 6  259 225 
 ANIL HZ I        12 3  8.63        10.0 0.30            107            259 225 
 URE  HZ EP   4   12 2 27.52                             106   -1.84 0  263 312 
 URE  HN ES   4   12 2 55.79                             106   -2.25 0  263 312 
                                                                                
