 2014 1118 1622 21.9 L   6.661 -73.702102.2  RSN  5 0.4 1.4LRSN                1
 GAP=120        1.08       5.1     4.0  8.6 -0.1495E+01 -0.4214E+01  0.6613E+01E
 Epicentro: EL CARMEN - SANTANDER                                              3
 ACTION:UPD 14-12-19 15:44 OP:nd   STATUS:               ID:20141118162221 L   I
 OLDACT:ARG 14-11-18 23:39 OP:stll STATUS:               ID:20141118161744     3
 2014-11-18-1617-44M.COL___280                                                 6
 STAT SP IPHASW D HRMM SECON CODA AMPLIT PERI AZIMU VELO AIN AR TRES W  DIS CAZ7
 BRR  HN ES       1622 49.43                             152    0.5110 49.4 359 
 BAR2 SZ EP       1622 38.38                             148    0.4510 58.0  98 
 BAR2 SZ ES       1622 50.57                             148    0.1110 58.0  98 
 BAR2 SZ I        1622 51.84         8.9 0.32            152           58.0  98 
 PTB  HZ EP       1622 39.57                             137   -0.0210 84.5 261 
 PTB  HN ES       1622 52.95                             137   -0.4610 84.5 261 
 PTB  HZ I        1622 58.04         4.1 0.10            138           84.5 261 
 RUS  HZ EP       1622 42.55                             129    0.1210  109 141 
 RUS  HE ES       1622 58.31                             129   -0.1610  109 141 
 PAM  SZ EP       1622 45.12                             123    0.2710  134  56 
 PAM  SN ES       1623  1.91                             123   -0.8810  134  56 
 PAM  SZ I        1623  3.80         4.9 0.18            126            134  56 
                                                                                
