 2013  818 1029 10.5 L   6.825 -73.206143.1  RSN  7 0.4 1.6LRSN                1
 GAP=128        1.13       5.2     5.4  7.2 -0.6378E+01  0.3743E+01  0.7997E+01E
 Epicentro: ZAPATOCA - SANTANDER                                               3
 ACTION:UPD 14-01-14 09:04 OP:ep   STATUS:               ID:20130818102910 L   I
 OLDACT:REG 13-08-18 16:17 OP:jn   STATUS:               ID:20130818102740     3
 2013-08-18-1027-40M.COL___201                                                 6
 STAT SP IPHASW D HRMM SECON CODA AMPLIT PERI AZIMU VELO AIN AR TRES W  DIS CAZ7
 BAR2 SZ EP       1029 29.90                             169    0.0410 25.9 174 
 BAR2 SZ ES       1029 45.73                             169    0.7610 25.9 174 
 BAR2 SZ I        1029 46.27         7.2 0.18            162           25.9 174 
 BRR  HZ EP       1029 31.79                             155    0.8310 64.0 299 
 BRR  HN ES       1029 46.45                             155   -0.4810 64.0 299 
 BRR  HZ I        1029 52.60         7.7 0.22            150           64.0 299 
 PAM  SZ EP       1029 32.65                             150    0.0810 79.8  44 
 PAM  SN ES       1029 49.38                             150   -0.4210 79.8  44 
 PAM  SZ I        1029 51.98         7.2 0.62            145           79.8  44 
 RUS  HZ EP       1029 33.98                             142   -0.2610  104 173 
 RUS  HN ES       1029 52.48                             142   -0.2810  104 173 
 RUS  HZ I        1029 54.37         5.1 0.28            132            104 173 
 PTB  HZ EP       1029 36.55                             133   -0.16 9  142 257 
 PTB  HN ES       1029 56.83                             133   -0.33 9  142 257 
 PTB  HZ I        1030  0.26         6.7 0.32            124            142 257 
 SPBC HZ EP       1029 39.00                             129    0.39 9  161 217 
 SPBC HE ES       1030  0.74                             129    0.19 9  161 217 
 SPBC HZ I        1030  8.35         7.3 0.30            120            161 217 
 CHI  HZ EP       1029 47.64                             116   -0.52 8  250 194 
 CHI  HZ I        1030 23.80         2.2 0.10            109            250 194 
                                                                                
