 2016  118 1147 32.0 L   7.069 -73.453108.0  RSN  8 0.5 2.2LRSN                1
 GAP= 80        1.11       3.7     4.0  8.5 -0.1429E+01  0.1382E+02 -0.8083E+01E
 Epicentro: SAN VICENTE DE CHUCURI - SANTANDER                                 3
 ACTION:UPD 16-03-09 23:26 OP:cam  STATUS:               ID:20160118114731 L   I
 OLDACT:UP  16-02-23 20:53 OP:AR   STATUS:               ID:20160118114731 L   3
 OLDACT:UP  16-01-18 21:58 OP:ar   STATUS:               ID:20160118113748     3
 OLDACT:REG 16-01-18 20:53 OP:ar   STATUS:               ID:20160118113748     3
 2016-01-18-1137-48M.COL___325                                                 6
 STAT SP IPHASW D HRMM SECON CODA AMPLIT PERI AZIMU VELO AIN AR TRES W  DIS CAZ7
 BAR2 EZ EP       1147 48.84                             149   -0.0110 60.6 150 
 BAR2 EZ ES       1148  1.83                             149   -0.1610 60.6 150 
 BAR2 EZ I        1148  3.20        61.0 0.36            150           60.6 150 
 PAM  EZ EP       1147 51.40                             138    0.1710 88.4  70 
 PAM  EN ES       1148  6.56                             138    0.3310 88.4  70 
 PAM  EZ I        1148 10.52        27.4 0.26            138           88.4  70 
 PTB  HZ EP   4   1147 52.54                             127   -1.40 0  125 242 
 PTB  HE ES       1148 10.67                             127   -0.3810  125 242 
 PTB  HZ I        1148 11.78        15.0 0.22            128            125 242 
 OCA  HZ EP       1147 54.22                             126   -0.3810  130   6 
 OCA  HN ES       1148 12.05                             126   -0.1710  130   6 
 OCA  HZ I        1148 18.74        62.3 0.22            126            130   6 
 ZAR  HZ EP       1147 57.40                             119   -0.29 9  162 287 
 ZAR  HN ES       1148 18.27                             119    0.54 9  162 287 
 ZAR  HZ I        1148 20.06        34.7 0.36            119            162 287 
 SML  HZ EP       1148  1.16                             113   -1.05 9  203 340 
 SML  HN ES       1148 26.40                             113    0.63 9  203 340 
 SML  HZ I        1148 30.25        40.3 0.24            113            203 340 
 URE  HZ EP       1148  7.10                             109    0.48 8  242 288 
 URE  HN ES   4   1148 36.75                             109    3.13 0  242 288 
 URE  HZ I        1148 38.00        17.0 0.18            109            242 288 
 CHI  HZ EP       1148 11.16                             106    0.57 8  272 187 
 CHI  HE ES   4   1148 43.65                             106    2.96 0  272 187 
 CHI  HZ I        1148 48.05         3.8 0.44            107            272 187 
                                                                                
