 2015  318 1056 52.7 L   6.791 -73.129149.3  RSN 11 0.4 2.1LRSN                1
 GAP=139        1.07       3.5     4.3  5.9 -0.2494E+01  0.8062E+01 -0.6114E+00E
 Epicentro: LOS SANTOS - SANTANDER                                             3
 ACTION:UPD 15-04-30 16:27 OP:nd   STATUS:               ID:20150318105652 L   I
 OLDACT:UP  15-03-18 23:54 OP:cam  STATUS:               ID:20150318104748     3
 OLDACT:REG 15-03-18 22:48 OP:cam  STATUS:               ID:20150318104748     3
 2015-03-18-1047-48M.COL___278                                                 6
 STAT SP IPHASW D HRMM SECON CODA AMPLIT PERI AZIMU VELO AIN AR TRES W  DIS CAZ7
 BAR2 EZ EP       1057 12.91                             171    0.1210 22.7 195 
 BAR2 EZ ES       1057 28.21                             171   -0.2110 22.7 195 
 BAR2 EZ I        1057 30.60        24.3 0.34            169           22.7 195 
 BRR  HZ EP       1057 14.65                             152    0.2510 73.3 299 
 BRR  HE ES       1057 32.19                             152    0.9110 73.3 299 
 BRR  HZ I        1057 34.77        18.1 0.18            149           73.3 299 
 PAM  SZ IP     D 1057 15.67                             151    0.3510 77.0  38 
 PAM  SN ES       1057 32.97                             151    0.0510 77.0  38 
 PAM  SZ I        1057 35.10        15.5 0.22            156           77.0  38 
 RUS  HZ EP       1057 16.75                             145   -0.0110 99.4 177 
 RUS  HE ES       1057 35.10                             145   -0.4010 99.4 177 
 RUS  HZ I        1057 36.45         8.1 0.34            147           99.4 177 
 PTB  HZ EP       1057 19.73                             132   -0.42 9  149 259 
 PTB  HN ES       1057 40.92                             132   -0.60 9  149 259 
 PTB  HZ I        1057 46.64        18.9 0.42            132            149 259 
 SPBC HZ EP       1057 21.73                             130    0.18 9  164 220 
 SPBC HN ES       1057 43.90                             130   -0.12 9  164 220 
 SPBC HZ I        1057 51.11        18.6 0.30            130            164 220 
 ZAR  HZ EP   1   1057 25.28                             123   -0.36 6  206 292 
 ZAR  HN ES       1057 51.57                             123    0.27 8  206 292 
 ZAR  HZ I        1058  0.82        13.0 0.44            123            206 292 
 NOR  HZ EP       1057 28.71                             119   -0.07 8  236 235 
 NOR  HE ES       1057 56.54                             119   -0.35 8  236 235 
 NOR  HZ I        1058  0.57        10.3 0.18            120            236 235 
 SML  HZ EP       1057 29.23                             118   -0.53 8  245 335 
 SML  HN ES       1057 57.93                             118   -0.70 8  245 335 
 SML  HZ I        1058  4.56        18.8 0.10            119            245 335 
 URE  HZ EP   4   1057 36.03                             114    1.81 0  286 292 
 GUY2CHZ EP       1057 37.61                             113    0.99 7  302 235 
 GUY2CHN ES       1058 11.39                             113    0.54 7  302 235 
 GUY2CHZ I        1058 19.47         6.5 0.32                           302 235 
 TOL  SZ EP   4   1057 42.55                             110    1.34 0  344 225 
 TOL  SE ES   4   1058 17.65                             110   -1.36 0  344 225 
 TOL  SZ I        1058 28.32         4.2 0.52            111            344 225 
                                                                                
