 2010 1018 1613 12.2 L   6.790 -73.096140.1  RSN  4 0.2 1.6LRSN                1
 GAP=164        0.55       4.1     8.0  7.7  0.1142E+01 -0.1129E+02 -0.4831E+01E
 Epicentro: LOS SANTOS - SANTANDER                                             3
 ACTION:UP  11-02-18 11:10 OP:tino STATUS:               ID:20101018161312 L   I
 2010-10-18-1610-07S.COL___123                                                 6
 STAT SP IPHASW D HRMM SECON CODA AMPLIT PERI AZIMU VELO SNR AR TRES W  DIS CAZ7
 BAR2 SZ IP     D 1613 31.06                             170    -0.110   24 204 
 BAR2 SZ ES   2   1613 45.51                             170    -0.4 5   24 204 
 BAR2 SZ I        1613 47.21        10.7 0.58                            24 204 
 BRR  HZ IP     C 1613 32.89                             150    -0.210   77 297 
 BRR  HZ I        1613 33.25        13.3 0.11                            77 297 
 BRR  HE ES   2   1613 49.77                             150     0.4 5   77 297 
 RUS  HZ EP   1   1613 35.52                             143     0.2 7   99 179 
 RUS  HN ES   2   1613 53.52                             143     0.2 5   99 179 
 RUS  HZ I        1613 55.42         3.7 0.33                            99 179 
 GRA  SZ EP   1   1613 36.92                             136     0.0 7  125  15 
 GRA  SZ ES   2   1613 56.40                             136     0.2 5  125  15 
 GRA  SZ I        1613 57.42         5.1 0.29                           125  15 
                                                                                
