 2011  918 1928  7.6 L   6.794 -73.124148.5  RSN 12 0.3 2.3LRSN                1
 GAP=140        0.38       2.3     3.2  4.4 -0.1479E+01  0.3694E+01  0.1996E+01E
 Epicentro: LOS SANTOS - SANTANDER                                             3
 ACTION:UPD 12-07-13 15:58 OP:ep   STATUS:               ID:20110918192807 L   I
 2011-09-18-1926-09S.COL___170                                                 6
 STAT SP IPHASW D HRMM SECON CODA AMPLIT PERI AZIMU VELO AIN AR TRES W  DIS CAZ7
 GIR2 SZ EP   3   1928 27.62                             167   -0.01 2 32.4 346 
 GIR2 SZ ES   3   1928 42.81                             167   -0.44 2 32.4 346 
 BRR  HE ES   2   1928 46.62                             152    0.60 5 73.6 298 
 PAM  SZ EP   2   1928 30.32                             152    0.27 5 76.3  38 
 PAM  SN ES   2   1928 47.40                             152   -0.16 5 76.3  38 
 RUS  HZ EP   2   1928 31.49                             145   -0.08 5 99.8 177 
 RUS  HN ES   2   1928 50.01                             145   -0.26 5 99.8 177 
 RUS  HZ I        1928 51.69        14.8 0.36                          99.8 177 
 ZAR  HN ES   2   1929  5.84                             123   -0.29 4  207 292 
 ZAR  HZ I        1929 11.78        16.4 0.40                           207 292 
 NOR  SZ EP   2   1928 43.64                             119   -0.02 4  236 235 
 NOR  SN ES   2   1929 11.33                             119   -0.46 4  236 235 
 CHI  HZ EP   2   1928 45.44                             118   -0.02 4  249 196 
 CHI  HN ES   2   1929 15.17                             118    0.18 4  249 196 
 CHI  HZ I        1929 23.45         7.1 0.82                           249 196 
 ROSC BZ EP   2   1928 45.95                             117    0.00 4  253 212 
 ROSC BN ES   2   1929 15.96                             117    0.10 4  253 212 
 ROSC BZ I        1929 25.29        17.7 0.51                           253 212 
 HEL  HZ EP   2   1928 48.52                             115    0.32 4  274 256 
 HEL  HE ES   2   1929 19.33                             115   -0.53 4  274 256 
 HEL  HZ I        1929 26.62         5.6 0.44                           274 256 
 RREF HZ EP   2   1928 54.22                             111    0.19 3  323 230 
 RREF HE ES   2   1929 30.72                             111    0.48 3  323 230 
 RREF HZ I        1929 38.38         9.3 0.46                           323 230 
 COD  HZ EP   2   1928 55.51                             109   -0.67 3  349 354 
 COD  HN ES   2   1929 34.47                             109    0.39 3  349 354 
 COD  HZ I        1929 52.85        17.8 0.98                           349 354 
 PRA  HZ EP   2   1929  1.16                             107   -0.13 3  393 210 
 PRA  HE ES   2   1929 43.35                             107    0.18 3  393 210 
                                                                                
