 2010  218 1028  6.7 L   6.809 -72.967144.8  RSN  7 0.4 2.0LRSN                1
 GAP=201        0.83       3.7    10.8  7.5 -0.1415E+02  0.2305E+02  0.2563E+01E
 Epicentro: CEPITA - SANTANDER                                                 3
 ACTION:UP  10-08-24 09:49 OP:vdl  STATUS:               ID:20100218102806 L   I
 2010-02-18-1025-33S.COL___094                                                 6
 STAT SP IPHASW D HRMM SECON CODA AMPLIT PERI AZIMU VELO SNR AR TRES W  DIS CAZ7
 BAR2 SZ EP       1028 26.49                             166     0.010   34 225 
 BAR2 SZ ES   1   1028 41.35                             166    -0.6 7   34 225 
 GIR2 SZ EP       1028 26.52                             164     0.010   39 320 
 RUS  BZ EP       1028 30.69                             143     0.210  102 187 
 RUS  BN ES   1   1028 49.05                             143     0.0 7  102 187 
 RUS  BZ I        1028 50.02        14.0 0.18                           102 187 
 OCA  SZ EP   1   1028 35.04                             129    -0.2 7  163 346 
 OCA  SZ ES   1   1028 58.01                             129     0.6 7  163 346 
 CHI  HZ EP       1028 44.82                             116    -0.3 8  255 199 
 CHI  HN ES       1029 15.83                             116     0.8 8  255 199 
 CHI  HZ I        1029 17.28         4.8 0.49                           255 199 
 RREF BN ES   1   1029 31.94                             109    -0.1 5  338 231 
 RREF BZ I        1029 37.93         4.6 0.04                           338 231 
 PRA  HZ EP       1029  1.03                             106    -0.5 6  403 212 
 PRA  HN ES       1029 44.11                             106    -0.1 6  403 212 
                                                                                
