 2013  818 1123  3.0 L   6.763 -73.121151.6  RSN  8 0.4 2.1LRSN                1
 GAP=141        0.80       4.1     4.9  5.9 -0.2243E+01  0.3498E+01  0.3717E+01E
 Epicentro: LOS SANTOS - SANTANDER                                             3
 ACTION:UPD 14-01-14 09:04 OP:ep   STATUS:               ID:20130818112303 L   I
 OLDACT:DUP 13-08-18 19:00 OP:jn   STATUS:               ID:20130818111960d    3
 OLDACT:REG 13-08-18 14:41 OP:jn   STATUS:               ID:20130818111959     3
 2013-08-18-1119-59M.COL___269                                                 6
 STAT SP IPHASW D HRMM SECON CODA AMPLIT PERI AZIMU VELO AIN AR TRES W  DIS CAZ7
 BAR2 SZ EP       1123 23.24                             172   -0.0110 20.0 200 
 BAR2 SZ ES       1123 39.32                             172    0.2510 20.0 200 
 BAR2 SZ I        1123 40.20        16.2 0.26            170           20.0 200 
 BRR  HZ EP       1123 25.17                             152    0.1710 75.5 300 
 BRR  HE ES       1123 42.56                             152    0.3810 75.5 300 
 BRR  HZ I        1123 46.41        24.6 0.14            150           75.5 300 
 PAM  SZ EP   1   1123 26.00                             151    0.09 7 79.0  36 
 PAM  SN ES   1   1123 43.25                             151   -0.55 7 79.0  36 
 PAM  SZ I        1123 45.54        28.4 0.54            155           79.0  36 
 RUS  HZ EP       1123 27.07                             146    0.0610 96.3 177 
 RUS  HN ES       1123 45.50                             146   -0.2610 96.3 177 
 RUS  HZ I        1123 46.83         7.2 0.36            148           96.3 177 
 PTB  HZ EP   1   1123 30.12                             133   -0.47 7  150 261 
 PTB  HN ES   1   1123 51.18                             133   -0.96 7  150 261 
 PTB  HZ I        1123 57.16        24.5 0.30            132            150 261 
 SPBC HZ EP   1   1123 32.16                             131    0.37 7  162 221 
 SPBC HE ES   1   1123 54.66                             131    0.38 7  162 221 
 SPBC HZ I        1123 59.38        14.7 0.24            131            162 221 
 CHI  HZ EP   3   1123 41.27                             119    0.61 2  245 196 
 PRA  HN ES   1   1124 38.11                             108   -0.04 4  390 210 
                                                                                
