 2017  718 1610 15.0 L   6.752 -73.197142.7  RSN  4 0.2 1.4LRSN                1
 GAP=238        0.48       4.9     3.6  4.6  0.1149E+02  0.2426E+01 -0.2926E+01E
 Epicentro: VILLANUEVA - SANTANDER                                             3
 ACTION:UPD 17-08-30 15:34 OP:rebc STATUS:               ID:20170718161015 L   I
 OLDACT:REG 17-07-18 20:44 OP:lv   STATUS:               ID:20170718160741     3
 2017-07-18-1608-00M.COL___386                                                 6
 STAT SP IPHASW D HRMM SECON CODA AMPLIT PERI AZIMU VELO AIN AR TRES W  DIS CAZ7
 BAR2 EZ EP       1610 33.92                             173   -0.1910 17.7 175 
 BAR2 EZ ES       1610 49.25                             173    0.1910 17.7 175 
 BAR2 EZ I        1610 50.62        17.1 0.06            170           17.7 175 
 RUS  HZ EP       1610 38.20                             145    0.1410 95.8 172 
 RUS  HN ES       1610 55.90                             145   -0.1910 95.8 172 
 RUS  HZ I        1610 58.03         2.5 0.13            144           95.8 172 
 PTB  HZ EP       1610 41.25                             133    0.17 9  141 261 
 PTB  HN ES       1611  1.49                             133    0.03 9  141 261 
 PTB  HZ I        1611  3.77         1.7 0.14            133            141 261 
 ZAR  HN ES       1611 11.62                             122   -0.16 9  201 294 
                                                                                
