 2012  318 1250 32.5 L   6.780 -73.156147.6  RSN  7 0.4 1.9LRSN                1
 GAP=136        1.00       6.2     5.9  8.0  0.4437E+01  0.1274E+02  0.5692E+01E
 ACTION:UP  12-03-31 23:20 OP:EP   STATUS:               ID:20120318125032 L   I
 2012-03-18-1250-00M.COL___202                                                 6
 STAT SP IPHASW D HRMM SECON CODA AMPLIT PERI AZIMU VELO SNR AR TRES W  DIS CAZ7
 BAR2 SZ EP   1   1250 52.23                             172     0.0 7   21 188 
 BAR2 SZ ES   1   1251  7.42                             172    -0.3 7   21 188 
 BAR2 SZ I        1251  9.93        15.2 0.16                            21 188 
 BRR  HZ EP       1250 54.25                             153     0.410   71 301 
 BRR  HN ES   1   1251 11.30                             153     0.8 7   71 301 
 BRR  HZ I        1251 14.29        18.0 0.18                            71 301 
 PAM  SZ EP   1   1250 55.15                             150     0.1 7   80  39 
 PAM  SN ES   1   1251 12.13                             150    -0.5 7   80  39 
 RUS  HZ EP   1   1250 56.13                             145    -0.1 7   98 175 
 RUS  HN ES   1   1251 14.83                             145     0.0 7   98 175 
 RUS  HZ I        1251 15.90        10.5 0.16                            98 175 
 PTB  HZ EP   1   1250 59.06                             133    -0.4 7  146 260 
 PTB  HN ES   1   1251 19.98                             133    -0.5 7  146 260 
 PTB  HZ I        1251 22.23         9.7 0.12                           146 260 
 ZAR  HZ EP   1   1251  4.33                             123    -0.7 6  204 293 
 ZAR  HN ES   1   1251 30.33                             123    -0.1 6  204 293 
 ZAR  HZ I        1251 35.33         7.0 0.23                           204 293 
 PRA  HZ EP       1251 26.33                             107     0.6 6  390 210 
                                                                                
