 2010  518 1112 33.5 L   6.760 -73.053139.5  RSN  8 0.3 2.1LRSN                1
 GAP=196        0.71       4.4     6.2  5.3 -0.1701E+02 -0.3109E+00  0.3699E+01E
 Epicentro: LOS SANTOS - SANTANDER                                             3
 ACTION:UP  10-08-24 10:05 OP:vdl  STATUS:               ID:20100518111233 L   I
 2010-05-18-1111-04S.COL___108                                                 6
 STAT SP IPHASW D HRMM SECON CODA AMPLIT PERI AZIMU VELO SNR AR TRES W  DIS CAZ7
 BAR2 SZ EP       1112 52.36                             170     0.010   24 218 
 BAR2 SZ ES   1   1113  6.85                             170    -0.3 7   24 218 
 BRR  HZ EP       1112 54.93                             148     0.310   82 298 
 BRR  HN ES   1   1113 11.27                             148     0.1 7   82 298 
 BRR  HZ I        1113 15.99        19.4 0.15                            82 298 
 BRI  SZ EP       1112 56.79                             140    -0.110  109  15 
 GUE  SZ EP       1112 58.33                             137     0.510  119   7 
 GUE  SZ ES   1   1113 17.07                             137     0.2 7  119   7 
 GRA  SZ EP       1112 58.05                             135    -0.310  127  12 
 GRA  SZ ES   1   1113 17.61                             135    -0.1 7  127  12 
 OCA  SZ EP       1113  1.56                             127    -0.3 9  166 350 
 OCA  SZ I        1113 26.35        10.7 0.36                           166 350 
 HEL  HZ EP       1113 14.58                             113     0.2 7  281 257 
 HEL  HE ES   2   1113 45.30                             113    -1.0 4  281 257 
 HEL  HZ I        1113 51.46         6.2 0.43                           281 257 
 PRA  HZ EP       1113 26.90                             105    -0.1 6  393 211 
 PRA  HE ES   1   1114  8.95                             105     0.3 4  393 211 
 PRA  HZ I        1114 14.99         5.9 0.30                           393 211 
                                                                                
