 2010  318 1903  7.9 L   6.779 -73.042147.6  RSN  9 0.3 2.4LRSN                1
 GAP=193        0.50       2.5     5.7  4.0  0.3202E+01 -0.2782E+00  0.6049E+00E
 Epicentro: LOS SANTOS - SANTANDER                                             3
 ACTION:UP  10-08-24 09:54 OP:vdl  STATUS:               ID:20100318190307 L   I
 2010-03-18-1901-35S.COL___098                                                 6
 STAT SP IPHASW D HRMM SECON CODA AMPLIT PERI AZIMU VELO SNR AR TRES W  DIS CAZ7
 BAR2 SZ IP       19 3 27.80                             170     0.010   26 217 
 BAR2 SZ ES   1   19 3 43.09                             170    -0.2 7   26 217 
 BRR  HZ IP       19 3 29.71                             149    -0.210   82 296 
 BRR  HZ I        19 3 30.01       108.7 0.18                            82 296 
 BRR  HE ES       19 3 47.09                             149     0.010   82 296 
 RUS  HZ EP   1   19 3 31.72                             145     0.1 7   98 183 
 RUS  HN ES   1   19 3 50.11                             145     0.0 7   98 183 
 RUS  HZ I        19 3 51.64        19.9 0.23                            98 183 
 OCA  SZ EP   1   19 3 36.45                             129    -0.3 7  164 349 
 OCA  SZ ES   1   19 3 59.70                             129     0.5 7  164 349 
 OCA  SZ I        19 4  4.02        63.2 0.29                           164 349 
 CHI  HZ EP   2   19 3 45.92                             117     0.1 4  250 198 
 CHI  HZ I        19 3 48.45         8.5 0.33                           250 198 
 CHI  HE ES   2   19 4 15.82                             117     0.5 4  250 198 
 HEL  HZ EP   2   19 3 49.13                             114    -0.2 4  283 257 
 HEL  HZ I        19 4 26.44        14.5 0.38                           283 257 
 TOL  SZ EP   2   19 3 57.27                             109     0.3 3  350 226 
 DBB  SZ EP   2   19 3 56.21                             109    -0.5 3  351 275 
 PRA  HZ EP   2   19 4  1.72                             107    -0.2 3  396 211 
 PRA  HN ES   2   19 4 44.68                             107     0.7 3  396 211 
                                                                                
