 2010  718 1453 17.3 L   6.852 -73.284120.9  RSN  7 0.5 1.7LRSN                1
 GAP=134        1.34       7.3    14.8 16.2 -0.8525E+01 -0.1446E+03 -0.1160E+01E
 Epicentro: ZAPATOCA - SANTANDER                                               3
 ACTION:UPD 10-12-01 15:18 OP:pat  STATUS:               ID:20100718145317 L   I
 2010-07-18-1450-00S.COL___119                                                 6
 STAT SP IPHASW D HRMM SECON CODA AMPLIT PERI AZIMU VELO AIN AR TRES W  DIS CAZ7
 GIR2 SZ EP   2   1453 33.86                             167     0.0 5   27  22 
 BAR2 SZ EP       1453 34.14                             165     0.010   31 159 
 BAR2 SZ I        1453 48.58        27.5 0.44                            31 159 
 BRR  HZ EP       1453 34.70                             154    -0.110   55 301 
 BRR  HN ES       1453 48.70                             154     0.210   55 301 
 BRR  HZ I        1453 49.34        10.7 0.15                            55 301 
 RUS  HZ EP   1   1453 39.04                             136    -0.3 7  108 168 
 RUS  HN ES   2   1453 56.65                             136     0.1 5  108 168 
 GUE  SZ EP       1453 39.17                             133    -0.510  115  20 
 GUE  SZ ES   1   1453 56.65                             133    -0.5 7  115  20 
 GUE  SZ I        1453 57.12         4.1 0.02                           115  20 
 GRA  SZ EP       1453 41.54                             131     1.110  126  25 
 GRA  SZ I        1454  2.36         5.7 0.11                           126  25 
 OCA  SZ EP   1   1453 42.68                             125    -0.4 7  153 359 
 OCA  SZ I        1454  3.73         9.7 0.68                           153 359 
                                                                                
