 2010  418 1015 44.6 L   6.832 -72.983138.5  RSN  6 0.4 2.0LRSN                1
 GAP=225        0.67       4.6     8.7  6.1 -0.9976E+01 -0.1640E+01  0.5852E+00E
 Epicentro: CEPITA - SANTANDER                                                 3
 ACTION:UPD 10-08-24 09:59 OP:vdl  STATUS:               ID:20100418101555 L   I
 2010-04-18-1013-42S.COL___100                                                 6
 STAT SP IPHASW D HRMM SECON CODA AMPLIT PERI AZIMU VELO AIN AR TRES W  DIS CAZ7
 BAR2 SZ EP       1016  3.86                             165     0.210   35 220 
 BAR2 SZ ES   1   1016 18.14                             165    -0.4 7   35 220 
 BRR  HZ EP       1016  6.10                             146     0.210   86 291 
 BRR  HE ES   1   1016 22.70                             146     0.2 7   86 291 
 BRR  HZ I        1016 24.82        16.4 0.19                            86 291 
 OCA  SZ EP       1016 12.25                             128    -0.1 9  160 347 
 OCA  SZ ES   2   1016 33.25                             128    -0.7 5  160 347 
 OCA  SZ I        1016 37.74        17.6 0.42                           160 347 
 HEL  HZ EP   2   1016 26.14                             111    -0.4 4  290 256 
 HEL  HZ I        1017  1.84         2.5 0.40                           290 256 
 RREF BZ EP   2   1016 32.99                             108     0.7 3  338 231 
 RREF BN ES   2   1017  9.19                             108    -0.3 3  338 231 
 RREF BZ I        1017 15.62         4.5 0.28                           338 231 
 PRA  HZ EP   1   1016 38.73                             104    -0.6 4  404 212 
 PRA  HE ES   2   1017 21.54                             104    -0.4 3  404 212 
 PRA  HZ I        1017 24.17         3.9 0.26                           404 212 
                                                                                
