 2017  618 1218  5.4 L   6.792 -73.169153.4  RSN  5 0.3 1.8LRSN                1
 GAP=278        0.62       3.5     5.8  5.8 -0.2282E+01 -0.7674E+01  0.3389E+01E
 Epicentro: LOS SANTOS - SANTANDER                                             3
 ACTION:UPD 17-09-14 16:52 OP:jn   STATUS:               ID:20170618121805 L   I
 OLDACT:REG 17-06-18 20:31 OP:osc  STATUS:               ID:20170618121743     3
 2017-06-18-1218-00M.COL___343                                                 6
 STAT SP IPHASW D HRMM SECON CODA AMPLIT PERI AZIMU VELO AIN AR TRES W  DIS CAZ7
 BRR  HZ EP       1218 27.18                             154   -0.1310 69.4 300 
 BRR  HE ES       1218 44.54                             154    0.1610 69.4 300 
 PTB  HZ EP       1218 32.28                             134   -0.51 9  145 259 
 PTB  HE ES       1218 53.96                             134   -0.17 9  145 259 
 PTB  HZ I        1218 54.96         5.1 0.52            130            145 259 
 SPBC HZ EP       1218 34.42                             131    0.11 9  161 218 
 SPBC HN ES       1218 56.84                             131    0.00 9  161 218 
 SPBC HZ I        1219  3.32        10.8 0.20            128            161 218 
 ZAR  HZ EP       1218 38.55                             124    0.38 9  202 293 
 ZAR  HE ES       1219  3.69                             124   -0.03 9  202 293 
 ZAR  HZ I        1219 10.23         5.5 0.36            122            202 293 
 NOR  HZ EP   2   1218 41.87                             120    0.54 4  232 234 
 NOR  HN ES       1219  9.52                             120    0.18 8  232 234 
 NOR  HZ I        1219 14.85         3.6 0.14            118            232 234 
                                                                                
