 2017  818 1420 56.2 L   6.794 -73.109139.5  RSN  8 0.3 2.0LRSN                1
 GAP= 99        0.62       2.8     2.7  3.6  0.2663E+01  0.1045E+01  0.1125E+01E
 Epicentro: LOS SANTOS - SANTANDER                                             3
 ACTION:UPD 17-09-04 20:21 OP:rebc STATUS:               ID:20170818142056 L   I
 OLDACT:UP  17-08-18 22:01 OP:and  STATUS:               ID:20170818141738     3
 OLDACT:UP  17-08-18 22:00 OP:and  STATUS:               ID:20170818141738     3
 OLDACT:UP  17-08-18 22:00 OP:and  STATUS:               ID:20170818141738     3
 OLDACT:REG 17-08-18 20:36 OP:and  STATUS:               ID:20170818141738     3
 2017-08-18-1418-00M.COL___404                                                 6
 STAT SP IPHASW D HRMM SECON CODA AMPLIT PERI AZIMU VELO AIN AR TRES W  DIS CAZ7
 BAR2 EZ IP     C 1421 14.92                             170   -0.1610 23.7 200 
 BAR2 EZ ES       1421 29.52                             170   -0.2810 23.7 200 
 BAR2 EZ I        1421 30.70        22.2 0.14            167           23.7 200 
 BRR  HZ EP       1421 16.80                             150   -0.1010 75.1 298 
 BRR  HN ES       1421 33.51                             150    0.4610 75.1 298 
 BRR  HZ I        1421 35.31        21.7 0.16            148           75.1 298 
 PAM  EZ IP     C 1421 17.83                             150    0.2110 75.4  37 
 PAM  EN ES       1421 34.16                             150   -0.1710 75.4  37 
 PAM  EZ I        1421 37.07        16.3 0.62            153           75.4  37 
 RUS  HZ EP       1421 19.26                             143   -0.0110 99.7 178 
 RUS  HN ES       1421 37.16                             143   -0.1010 99.7 178 
 RUS  HZ I        1421 39.07        15.6 0.38            143           99.7 178 
 TAM  HZ EP       1421 23.02                             130    0.03 9  151 105 
 YPLC HZ EP       1421 25.48                             126    0.19 9  174 152 
 YPLC HN ES   1   1421 48.37                             126    0.39 7  174 152 
 YPLC HZ I        1421 51.58         9.6 0.32            127            174 152 
 ZAR  HZ EP       1421 28.20                             120   -0.46 8  208 292 
 ZAR  HN ES       1421 54.18                             120    0.20 8  208 292 
 ZAR  HZ I        1422  1.92         9.7 0.30            120            208 292 
 HEL  HZ EP       1421 36.55                             113    0.03 7  276 256 
 HEL  HN ES   3   1422  6.93                             113   -1.04 2  276 256 
 HEL  HZ I        1422 14.30         5.5 0.42            113            276 256 
                                                                                
