 2017  218 1157  7.3 L   6.780 -73.119139.4  RSN  4 0.1 1.0LRSN                1
 GAP=141        0.34       1.7     2.6  2.8 -0.8629E-01 -0.4826E+00  0.1878E+00E
 Epicentro: LOS SANTOS - SANTANDER                                             3
 ACTION:UPD 17-05-24 15:37 OP:jn   STATUS:               ID:20170218115707 L   I
 OLDACT:DUP 17-02-18 22:37 OP:dani STATUS:               ID:20170218114746d    3
 OLDACT:UP  17-02-18 22:37 OP:dani STATUS:               ID:20170218114745     3
 OLDACT:REG 17-02-18 21:21 OP:dani STATUS:               ID:20170218114745     3
 2017-02-18-1148-00M.COL___349                                                 6
 STAT SP IPHASW D HRMM SECON CODA AMPLIT PERI AZIMU VELO AIN AR TRES W  DIS CAZ7
 BAR2 EZ EP       1157 26.01                             171   -0.1710 21.9 199 
 BAR2 EZ ES       1157 40.82                             171   -0.0510 21.9 199 
 BAR2 EZ I        1157 43.14         3.9 0.20            172           21.9 199 
 BRR  HZ EP       1157 28.03                             150    0.0110 74.8 299 
 BRR  HE ES       1157 44.20                             150    0.0510 74.8 299 
 PAM  EZ EP       1157 29.00                             150    0.1210 77.3  37 
 PAM  EN ES       1157 45.65                             150   -0.0310 77.3  37 
 PAM  EZ I        1157 48.48         1.8 0.25            150           77.3  37 
 RUS  HZ EP       1157 30.28                             143   -0.0210 98.2 178 
 RUS  HN ES       1157 48.30                             143    0.1010 98.2 178 
 RUS  HZ I        1157 49.35         0.9 0.23            145           98.2 178 
                                                                                
