 2015  418 1817 34.1 L   6.387 -73.034  4.1  RSN 14 0.5 2.2LRSN                1
 GAP=166        1.06       2.3     4.5  7.4 -0.3575E+01  0.4740E+01  0.4129E+00E
 Epicentro: COROMORO - SANTANDER                                               3
 ACTION:UPD 15-06-03 16:55 OP:cam  STATUS:               ID:20150418181734 L   I
 OLDACT:DUP 15-04-19 01:21 OP:spq  STATUS:               ID:20150418180750d    3
 2015-04-18-1807-49M.COL___278                                                 6
 STAT SP IPHASW D HRMM SECON CODA AMPLIT PERI AZIMU VELO AIN AR TRES W  DIS CAZ7
 BAR2 EZ EP       1817 39.07                              47   -0.0910 28.0 324 
 BAR2 EZ ES   1   1817 42.43                              47   -0.69 7 28.0 324 
 BAR2 EZ I        1817 43.57       263.4 0.24             47           28.0 324 
 RUS  HZ IP     C 1817 43.52                              47    0.0110 55.0 186 
 RUS  HE ES       1817 50.31                              47   -0.5610 55.0 186 
 RUS  HZ I        1817 50.80        78.8 0.24             47           55.0 186 
 BRR  HZ EP   4   1817 53.14                              47    1.90 0  109 317 
 BRR  HN ES   4   1818  6.39                              47    1.77 0  109 317 
 BRR  HZ I        1818 15.94        22.2 0.48             47            109 317 
 PAM  SZ EP       1817 52.67                              47    0.5710  112  19 
 PAM  SN ES       1818  5.97                              47   -0.1810  112  19 
 PAM  SZ I        1818 10.50        24.0 0.16             47            112  19 
 SPBC HZ EP   1   1817 56.82                              47    0.72 7  141 235 
 SPBC HN ES       1818 13.59                              47    0.32 9  141 235 
 SPBC HZ I        1818 17.44        49.3 0.26             47            141 235 
 PTB  HZ EP   4   1818  0.42                              47    1.76 0  158 276 
 PTB  HN ES   4   1818 20.30                              47    2.46 0  158 276 
 PTB  HZ I        1818 22.15        98.6 0.36             47            158 276 
 OCA  HZ EP   4   1818  7.32                              37    1.90 0  207 351 
 OCA  HN ES   4   1818 32.08                              37    2.23 0  207 351 
 OCA  HZ I        1818 38.13        69.4 0.50             37            207 351 
 CHI  HZ EP   4   1818  9.60                              37    3.63 0  209 202 
 CHI  HN ES   4   1818 37.10                              37    6.25 0  209 202 
 CHI  HZ I        1818 40.11        10.3 0.36             37            209 202 
 NOR  HZ EP   4   1818 10.20                              37    2.97 0  223 246 
 NOR  HE ES   4   1818 36.02                              37    2.95 0  223 246 
 NOR  HZ I        1818 37.06        13.2 0.29             37            223 246 
 ZAR  HZ EP   4   1818 11.82                              37    3.02 0  236 301 
 ZAR  HN ES   4   1818 39.08                              37    3.20 0  236 301 
 ZAR  HZ I        1818 40.40        19.2 0.46             37            236 301 
 HEL  HZ EP   4   1818 16.80                              37    2.41 0  277 266 
 HEL  HN ES   4   1818 48.04                              37    2.22 0  277 266 
 HEL  HZ I        1818 50.15        11.7 0.28             37            277 266 
 GUY2CHZ EP   4   1818 20.03                              37    4.08 0  288 244 
 GUY2CHN ES   4   1818 52.71                              37    4.10 0  288 244 
 GUY2CHZ I        1818 55.85        17.4 0.24                           288 244 
 SML  HZ EP   4   1818 20.40                              37    4.77 0  290 337 
 SML  HE ES   4   1818 52.85                              37    4.81 0  290 337 
 SML  HZ I        1818 55.31        12.7 0.24             36            290 337 
 TOL  SZ EP   4   1818 25.96                              36    5.98 0  322 232 
 TOL  SE ES   4   1819  0.90                              36    5.13 0  322 232 
 TOL  SZ I        1819  7.63        10.0 0.38             36            322 232 
                                                                                
