 2016 1218 1515 23.9 L   6.791 -73.114141.8  RSN 10 0.4 2.0LRSN                1
 GAP=141        0.83       3.0     4.1  4.8  0.6073E+00  0.6935E+01  0.3263E+01E
 Epicentro: LOS SANTOS - SANTANDER                                             3
 ACTION:UPD 17-01-11 20:16 OP:rebc STATUS:               ID:20161218151524 L   I
 OLDACT:UP  16-12-19 00:24 OP:ar   STATUS:               ID:20161218150747     3
 OLDACT:REG 16-12-18 21:58 OP:ar   STATUS:               ID:20161218150747     3
 2016-12-18-1508-00M.COL___375                                                 6
 STAT SP IPHASW D HRMM SECON CODA AMPLIT PERI AZIMU VELO AIN AR TRES W  DIS CAZ7
 BAR2 EZ EP       1515 42.92                             170   -0.1710 23.3 199 
 BAR2 EZ ES       1515 58.11                             170    0.0810 23.3 199 
 BAR2 EZ I        1516  0.62        34.9 0.32            167           23.3 199 
 BRR  HZ EP       1515 44.93                             151    0.0710 74.7 298 
 BRR  HN ES       1516  1.61                             151    0.4210 74.7 298 
 BRR  HZ I        1516  2.84        24.6 0.34            151           74.7 298 
 PAM  EZ EP       1515 45.88                             151    0.2310 76.0  37 
 PAM  EN ES       1516  2.53                             151   -0.0510 76.0  37 
 PAM  EZ I        1516  6.07         9.1 0.52            155           76.0  37 
 RUS  HZ EP       1515 46.95                             143   -0.2610 99.4 178 
 RUS  HE ES       1516  5.27                             143   -0.1010 99.4 178 
 RUS  HZ I        1516  6.80        11.8 0.38            143           99.4 178 
 PTB  HZ EP       1515 50.43                             130   -0.45 9  151 259 
 PTB  HN ES   4   1516 10.34                             130   -1.56 0  151 259 
 PTB  HZ I        1516 13.25         8.9 0.12            130            151 259 
 ZAR  HZ EP       1515 56.68                             121    0.18 8  208 292 
 ZAR  HN ES       1516 21.23                             121   -0.67 8  208 292 
 ZAR  HZ I        1516 26.10         9.9 0.24            122            208 292 
 CHI  HZ EP       1516  1.22                             116   -0.20 8  249 196 
 CHI  HN ES       1516 30.46                             116   -0.19 8  249 196 
 CHI  HZ I        1516 35.76         5.0 0.28            117            249 196 
 ROSC BZ EP   9   1516  4.02                             116    2.07 0  254 212 
 ROSC BE ES       1516 33.75                             115    0.08 8  254 212 
 ROSC BZ I        1516 39.56        12.9 0.45            116            254 212 
 GUY2CHZ EP       1516  8.61                             111    0.98 7  303 235 
 GUY2CHN ES   4   1516 44.64                             111    2.94 0  303 235 
 GUY2CHZ I        1516 49.29         5.0 0.64                           303 235 
 ORTC HZ EP       1516 18.08                             106    0.21 6  397 217 
 ORTC HN ES       1517  0.54                             106    0.59 6  397 217 
 ORTC HZ I        1517  6.54         3.0 0.56            106            397 217 
                                                                                
