 2010 1218 1504 16.7 L   6.330 -73.543116.8  RSN  6 0.2 1.4LRSN                1
 GAP=107        0.43       3.1     3.9  6.4 -0.3376E+00  0.1131E+02  0.6358E+01E
 Epicentro: CONTRATACION - SANTANDER                                           3
 ACTION:UP  11-01-14 15:25 OP:pat  STATUS:               ID:20101218150416 L   I
 2010-12-18-1501-42S.COL___137                                                 6
 STAT SP IPHASW D HRMM SECON CODA AMPLIT PERI AZIMU VELO SNR AR TRES W  DIS CAZ7
 BAR2 SZ EP   1   15 4 34.03                             156     0.2 7   49  54 
 BAR2 SZ ES   2   15 4 46.76                             156    -0.5 5   49  54 
 BAR2 SZ I        15 4 48.45        14.0 0.33                            49  54 
 RUS  HZ EP   1   15 4 35.55                             147     0.1 7   70 134 
 RUS  HN ES   2   15 4 50.29                             147     0.2 5   70 134 
 RUS  HZ I        15 4 51.06         2.5 0.45                            70 134 
 BTL  SZ EP   1   15 4 35.41                             146     0.2 7   72  25 
 BRR  HZ EP   1   15 4 35.97                             140    -0.1 7   88 348 
 BRR  HE ES   2   15 4 51.09                             140     0.0 5   88 348 
 NOR  SZ EP   1   15 4 43.74                             120    -0.1 7  170 240 
 NOR  SN ES   2   15 5  5.13                             120     0.2 5  170 240 
 CHI  HZ EP   1   15 4 46.09                             117    -0.3 7  189 186 
                                                                                
