 2010 1118 1340 20.9 L   6.761 -73.062146.0  RSN  4 0.1 1.9LRSN                1
 GAP=169        0.50       6.2     8.2  7.0  0.2831E+02 -0.3418E+02 -0.2362E+02E
 Epicentro: LOS SANTOS - SANTANDER                                             3
 ACTION:UP  10-12-17 16:53 OP:REBC STATUS:               ID:20101118134020 L   I
 2010-11-18-1339-14S.COL___129                                                 6
 STAT SP IPHASW D HRMM SECON CODA AMPLIT PERI AZIMU VELO SNR AR TRES W  DIS CAZ7
 BAR2 SZ EP       1340 40.66                             171     0.110   23 216 
 BAR2 SZ ES   1   1340 55.72                             171    -0.2 7   23 216 
 BAR2 SZ I        1340 56.95        21.6 0.75                            23 216 
 BRR  HZ EP       1340 42.48                             149    -0.210   81 298 
 BRR  HZ I        1340 42.76        31.1 0.26                            81 298 
 BRR  HN ES       1340 59.81                             149     0.110   81 298 
 RUS  HN ES   2   1341  2.81                             145     0.2 5   96 181 
 RUS  HZ I        1341  4.54         9.1 0.88                            96 181 
 GRA  SZ EP   1   1340 46.38                             137     0.1 7  127  13 
 GRA  SZ I        1340 46.95         5.7 0.50                           127  13 
                                                                                
