 2017 1018 1311 12.8 L   6.813 -73.149144.3  RSN 11 0.4 1.8LRSN                1
 GAP=111        0.97       3.4     3.6  5.5  0.1762E+00  0.5843E+01  0.5582E+01E
 Epicentro: LOS SANTOS - SANTANDER                                             3
 ACTION:UPD 17-11-07 19:33 OP:rebc STATUS:               ID:20171018131112 L   I
 OLDACT:UP  17-10-18 22:45 OP:edw  STATUS:               ID:20171018130747     3
 OLDACT:UP  17-10-18 22:43 OP:edw  STATUS:               ID:20171018130747     3
 OLDACT:REG 17-10-18 20:48 OP:edw  STATUS:               ID:20171018130747     3
 2017-10-18-1308-00M.COL___410                                                 6
 STAT SP IPHASW D HRMM SECON CODA AMPLIT PERI AZIMU VELO AIN AR TRES W  DIS CAZ7
 BAR2 EZ EP       1311 32.14                             170   -0.1710 24.7 189 
 BAR2 EZ ES       1311 47.26                             170   -0.2410 24.7 189 
 BAR2 EZ I        1311 48.07        17.4 0.24            168           24.7 189 
 BRR  HZ EP       1311 33.83                             153    0.0710 70.2 298 
 BRR  HN ES       1311 50.87                             153    0.7910 70.2 298 
 BRR  HZ I        1311 51.31        13.9 0.12            152           70.2 298 
 PAM  EZ EP       1311 34.89                             151    0.0610 76.5  40 
 PAM  EN ES       1311 52.20                             151    0.2110 76.5  40 
 PAM  EZ I        1311 53.69        10.6 0.14            154           76.5  40 
 RUS  HZ EP       1311 36.42                             143   -0.1210  102 176 
 RUS  HN ES       1311 54.70                             143   -0.3310  102 176 
 RUS  HZ I        1311 55.92         9.0 0.18            143            102 176 
 PTB  HZ EP       1311 39.43                             132   -0.23 9  148 258 
 PTB  HN ES       1311 59.68                             132   -0.92 9  148 258 
 PTB  HZ I        1312  5.99         7.5 0.34            131            148 258 
 YPLC HZ EP   2   1311 41.77                             126   -0.89 4  178 151 
 YPLC HE ES   2   1312  6.24                             126    0.32 4  178 151 
 ZAR  HZ EP       1311 45.25                             122    0.17 9  203 292 
 ZAR  HN ES       1312  9.84                             122   -0.40 9  203 292 
 NOR  HZ EP       1311 48.45                             118   -0.08 8  235 234 
 NOR  HN ES       1312 16.94                             118    0.57 8  235 234 
 NOR  HZ I        1312 22.45         4.7 0.18            118            235 234 
 CHI  HZ EP       1311 50.73                             117    0.15 8  250 195 
 CHI  HN ES       1312 20.62                             117    0.59 8  250 195 
 CHI  HZ I        1312 22.85         3.2 0.32            117            250 195 
 GUY2CHZ EP   4   1311 57.74                             112    1.31 0  302 235 
 GUY2CHE ES       1312 30.85                             112    0.42 7  302 235 
 GUY2CHZ I        1312 39.44         2.3 0.30                           302 235 
 PRA  HZ EP       1312  6.87                             106    0.45 6  393 209 
 PRA  HN ES       1312 47.81                             106   -0.41 6  393 209 
 PRA  HZ I        1312 52.64         3.7 0.56            107            393 209 
                                                                                
