 2011  718 1651 24.5 L   6.782 -73.079143.3  RSN  7 0.2 1.8LRSN                1
 GAP=146        0.46       2.9     3.7  4.4 -0.3652E+01  0.9760E+00 -0.3509E+00E
 Epicentro: LOS SANTOS - SANTANDER                                             3
 ACTION:UPD 12-07-25 14:01 OP:epov STATUS:               ID:20110718165124 L   I
 2011-07-18-1649-46S.COL___143                                                 6
 STAT SP IPHASW D HRMM SECON CODA AMPLIT PERI AZIMU VELO AIN AR TRES W  DIS CAZ7
 BAR2 SZ EP   1   1651 43.73                             170   -0.15 7 23.9 209 
 BAR2 SZ I        1651 44.04        21.7 0.08                          23.9 209 
 BAR2 SZ ES   1   1651 58.78                             170   -0.19 7 23.9 209 
 BTL  SZ EP   1   1651 44.23                             169    0.30 7 25.7 306 
 PAM  SZ EP   1   1651 46.50                             151    0.17 7 74.6  34 
 PAM  SE ES   1   1652  3.10                             151   -0.22 7 74.6  34 
 BRR  HZ EP   1   1651 45.60                             150   -0.26 7 78.6 297 
 BRR  HZ I        1651 45.86        19.4 0.18                          78.6 297 
 BRR  HE ES   1   1652  2.72                             150    0.22 7 78.6 297 
 RUS  HZ EP   1   1651 47.74                             144   -0.15 7 98.3 180 
 RUS  HE ES   1   1652  6.35                             144    0.25 7 98.3 180 
 RUS  HZ I        1652  7.19         4.8 0.21                          98.3 180 
 BRI  SZ EP   1   1651 48.26                             141    0.10 7  108  17 
 NOR  SE ES   1   1652 28.71                             117   -0.11 6  240 236 
                                                                                
