 2014  318 1621  3.6 L   6.787 -73.127148.0  RSN  5 0.4 1.6LRSN                1
 GAP=140        0.91       6.7     5.6 11.3  0.8150E+01  0.2662E+02  0.6882E+01E
 Epicentro: LOS SANTOS - SANTANDER                                             3
 OLDACT:REG 14-03-18 15:22 OP:fm   STATUS:               ID:20140318161805     3
 ACTION:UPD 14-04-09 23:18 OP:nd   STATUS:               ID:20140318162103 L   I
 OLDACT:UP  14-03-18 19:20 OP:fm   STATUS:               ID:20140318161805     3
 2014-03-18-1618-05M.COL___238                                                 6
 STAT SP IPHASW D HRMM SECON CODA AMPLIT PERI AZIMU VELO AIN AR TRES W  DIS CAZ7
 BAR2 SZ EP   1   1621 23.74                             171    0.23 8 22.4 196 
 BAR2 SZ ES   2   1621 39.65                             171    0.63 5 22.4 196 
 BAR2 SZ I        1621 39.80        14.1 1.30            139           22.4 196 
 PAM  SN ES   1   1621 43.12                             151   -0.46 8 77.2  38 
 RUS  HZ EP   1   1621 27.89                             145    0.40 8 99.0 177 
 RUS  SZ I        1621 46.06         4.6 1.26            108           99.0 177 
 RUS  HN ES   1   1621 46.15                             145    0.05 8 99.0 177 
 PTB  HZ EP       1621 30.57                             132   -0.3710  150 260 
 PTB  SZ I        1621 51.10         5.2 0.98            105            150 260 
 PTB  HE ES       1621 51.77                             132   -0.4710  150 260 
 ZAR  HN ES       1622  2.72                             122    0.62 9  207 292 
                                                                                
