 2013  218 1816 58.6 L   6.781 -73.144146.4  RSN  6 0.4 2.0LRSN                1
 GAP=138        0.97       4.2     4.4  7.3  0.1969E+01  0.7021E+01  0.5193E+01E
 Epicentro: LOS SANTOS - SANTANDER                                             3
 ACTION:UPD 13-03-12 09:34 OP:ep   STATUS:               ID:20130218181658 L   I
 2013-02-18-1810-00M.COL___241                                                 6
 STAT SP IPHASW D HRMM SECON CODA AMPLIT PERI AZIMU VELO AIN AR TRES W  DIS CAZ7
 BRR  HZ EP       1817 20.04                             152    0.1410 72.4 300 
 BRR  HN ES       1817 37.21                             152    0.7110 72.4 300 
 BRR  HN I        1817 37.57        49.1 0.24            151           72.4 300 
 PAM  SZ EP       1817 21.00                             151    0.0210 78.8  38 
 PAM  SN ES       1817 37.86                             151   -0.5710 78.8  38 
 PAM  SZ I        1817 40.01        12.4 0.46            155           78.8  38 
 RUS  HZ EP       1817 22.35                             144    0.0710 98.5 176 
 RUS  HN ES       1817 40.97                             144    0.2310 98.5 176 
 RUS  HN I        1817 42.46        11.1 0.30            144           98.5 176 
 PTB  HZ EP       1817 25.27                             132   -0.34 9  148 260 
 PTB  HN ES       1817 46.13                             132   -0.55 9  148 260 
 PTB  HN I        1817 51.44        19.4 0.42            131            148 260 
 ZAR  HZ EP       1817 31.35                             122    0.15 9  205 293 
 ZAR  HN ES       1817 56.60                             122   -0.02 9  205 293 
 ZAR  HN I        1818  3.45        13.4 0.40            123            205 293 
 CHI  HZ EP   1   1817 36.81                             117    0.68 6  247 195 
 CHI  HE ES   1   1818  4.94                             117   -0.46 6  247 195 
 CHI  HE I        1818 11.60         3.5 0.28            118            247 195 
                                                                                
