 2014  718 1913 24.5 L   6.753 -73.146143.7  RSN  5 0.6 1.6LRSN                1
 GAP=234        1.45       8.6     9.2 11.7  0.1808E+02  0.1188E+02  0.1449E+01E
 Epicentro: LOS SANTOS - SANTANDER                                             3
 ACTION:UPD 15-03-16 20:45 OP:nd   STATUS:               ID:20140718191324 L   I
 OLDACT:DUP 14-07-19 02:01 OP:stll STATUS:               ID:20140718190817d    3
 2014-07-18-1908-16M.COL___269                                                 6
 STAT SP IPHASW D HRMM SECON CODA AMPLIT PERI AZIMU VELO AIN AR TRES W  DIS CAZ7
 BAR2 SZ EP       1913 43.83                             173   -0.0010 18.3 193 
 BAR2 SZ I        1913 43.91        12.8 0.22            166           18.3 193 
 BAR2 SZ ES       1913 58.29                             173   -0.5910 18.3 193 
 BRR  HZ EP       1913 45.86                             151    0.2410 73.8 302 
 BRR  HZ I        1913 46.17        13.3 0.44            149           73.8 302 
 BRR  HN ES       1914  2.76                             151    0.7010 73.8 302 
 RUS  HZ EP       1913 48.31                             145    0.5910 95.4 176 
 RUS  HE ES       1914  5.50                             145   -0.3010 95.4 176 
 RUS  HZ I        1914  7.02         4.0 0.50            141           95.4 176 
 PTB  HZ EP       1913 50.26                             132   -1.00 9  147 261 
 PTB  HN ES       1914 11.70                             132   -0.40 9  147 261 
 PTB  HZ I        1914 13.50         4.6 0.28            128            147 261 
 SPBC HN ES       1914 15.00                             129    0.68 9  159 220 
 SPBC HZ I        1914 21.63         4.8 0.24            126            159 220 
                                                                                
