 2015  318 1002 26.4 L   6.849 -73.133146.0  RSN  4 0.3 1.5LRSN                1
 GAP=280        0.75       8.8     5.1  9.3  0.1205E+02 -0.2149E+01 -0.4147E+02E
 Epicentro: LOS SANTOS - SANTANDER                                             3
 ACTION:UPD 15-04-30 16:26 OP:nd   STATUS:               ID:20150318100226 L   I
 OLDACT:DUP 15-03-18 23:40 OP:cam  STATUS:               ID:20150318095747d    3
 OLDACT:REG 15-03-18 22:43 OP:cam  STATUS:               ID:20150318095746     3
 2015-03-18-0957-46M.COL___278                                                 6
 STAT SP IPHASW D HRMM SECON CODA AMPLIT PERI AZIMU VELO AIN AR TRES W  DIS CAZ7
 RUS  HZ EP       10 2 50.60                             142    0.0910  106 177 
 RUS  HN ES       10 3  9.07                             142   -0.2910  106 177 
 RUS  HZ I        10 3 10.69         2.0 0.42            143            106 177 
 PTB  HZ EP       10 2 53.58                             131    0.01 9  150 257 
 PTB  HN ES       10 3 14.83                             131    0.03 9  150 257 
 PTB  HZ I        10 3 20.52         4.6 0.22            131            150 257 
 SPBC HZ EP       10 2 55.71                             128    0.35 9  168 218 
 SPBC HE ES       10 3 18.46                             128    0.48 9  168 218 
 SPBC HZ I        10 3 24.71         7.9 0.26            128            168 218 
 NOR  HZ EP       10 3  2.13                             118   -0.43 8  239 234 
 NOR  HN ES       10 3 30.42                             118   -0.38 8  239 234 
 NOR  HZ I        10 3 34.39         2.9 0.18            119            239 234 
                                                                                
