 2012  518 1556 43.6 L   6.749 -73.182150.4  RSN  5 0.4 1.4LRSN                1
 GAP=229        0.79       8.4     7.7  8.5  0.3616E+02  0.7393E+01  0.6530E+00E
 Epicentro: VILLANUEVA - SANTANDER                                             3
 ACTION:UP  12-07-05 12:06 OP:pat  STATUS:               ID:20120518155643 L   I
 2012-05-18-1550-00M.COL___200                                                 6
 STAT SP IPHASW D HRMM SECON CODA AMPLIT PERI AZIMU VELO SNR AR TRES W  DIS CAZ7
 BAR2 SZ EP   1   1557  3.66                             173    -0.1 7   17 180 
 BAR2 SZ I        1557  3.81         4.8 0.16                            17 180 
 BAR2 SZ ES   1   1557 19.39                             173     0.0 7   17 180 
 BRR  HZ EP   1   1557  5.65                             153     0.4 7   71 304 
 BRR  HZ I        1557  5.92         7.1 0.15                            71 304 
 BRR  HN ES   1   1557 21.79                             153    -0.3 7   71 304 
 RUS  HZ EP   1   1557  6.98                             146    -0.5 7   95 173 
 RUS  HN ES   1   1557 26.51                             146     0.4 7   95 173 
 RUS  HZ I        1557 28.57         2.5 0.24                            95 173 
 PTB  HZ EP   1   1557 10.60                             134     0.1 7  143 261 
 PTB  HN ES   1   1557 31.28                             134    -0.3 7  143 261 
 PTB  HZ I        1557 39.10         5.5 0.39                           143 261 
 ZAR  HN ES   2   1557 42.39                             124     0.7 4  203 294 
                                                                                
