 2010  818 1020 48.7 L   6.783 -73.037147.7  RSN  5 0.1 1.4LRSN                1
 GAP=171        0.39       3.1    13.6  5.4 -0.2726E+02  0.5354E+01 -0.4239E+01E
 Epicentro: CEPITA - SANTANDER                                                 3
 ACTION:UP  10-09-07 10:56 OP:vdl  STATUS:               ID:20100818102048 L   I
 2010-08-18-1018-40S.COL___117                                                 6
 STAT SP IPHASW D HRMM SECON CODA AMPLIT PERI AZIMU VELO SNR AR TRES W  DIS CAZ7
 BAR2 SZ EP       1021  8.48                             169    -0.110   27 218 
 BAR2 SZ I        1021  8.85         8.3 0.09                            27 218 
 BAR2 SZ ES   2   1021 24.02                             169    -0.1 5   27 218 
 BTL  SZ EP       1021  8.74                             168     0.110   30 300 
 RUS  HZ EP   1   1021 12.40                             145    -0.1 7   99 183 
 RUS  HE ES   1   1021 31.14                             145     0.1 7   99 183 
 RUS  HZ I        1021 32.29         2.1 0.15                            99 183 
 GUE  SZ EP   1   1021 13.78                             140     0.2 7  116   6 
 GRA  SZ EP   1   1021 13.81                             138    -0.2 7  124  12 
 GRA  SZ ES   1   1021 33.69                             138     0.0 7  124  12 
 GRA  SZ I        1021 35.14         4.9 0.46                           124  12 
                                                                                
