 2012  318 1343 45.6 L   6.799 -73.145146.4  RSN  4 0.5 1.3LRSN                1
 GAP=137        1.09       7.7     7.3 12.1 -0.9393E+01  0.4064E+01  0.5911E+01E
 ACTION:UP  12-03-31 23:20 OP:EP   STATUS:               ID:20120318134345 L   I
 2012-03-18-1340-00M.COL___202                                                 6
 STAT SP IPHASW D HRMM SECON CODA AMPLIT PERI AZIMU VELO SNR AR TRES W  DIS CAZ7
 BRR  HZ EP       1344  7.12                             152     0.310   71 299 
 BRR  HN ES   1   1344 24.04                             152     0.7 7   71 299 
 PAM  SZ EP       1344  7.94                             151     0.110   77  39 
 PAM  SN ES   1   1344 24.49                             151    -0.7 7   77  39 
 RUS  HZ EP   1   1344  9.56                             144     0.2 7  100 176 
 RUS  HN ES   1   1344 28.01                             144     0.1 7  100 176 
 RUS  HZ I        1344 29.56         3.3 0.32                           100 176 
 PTB  HZ EP   1   1344 12.05                             132    -0.5 7  148 259 
 PTB  HE ES   1   1344 32.99                             132    -0.7 7  148 259 
 PTB  HZ I        1344 35.48         2.2 0.14                           148 259 
                                                                                
