 2013  218 1447 48.9 L   6.800 -73.145144.3  RSN  9 0.5 2.6LRSN                1
 GAP=137        1.21       3.9     5.0  6.7  0.1768E+01  0.9970E+01  0.5694E+00E
 Epicentro: LOS SANTOS - SANTANDER                                             3
 ACTION:UPD 13-03-12 09:34 OP:ep   STATUS:               ID:20130218144748 L   I
 2013-02-18-1440-00M.COL___240                                                 6
 STAT SP IPHASW D HRMM SECON CODA AMPLIT PERI AZIMU VELO AIN AR TRES W  DIS CAZ7
 BAR2 SZ IP     D 1448  8.12                             170   -0.2010 23.4 190 
 BAR2 SZ ES       1448 22.85                             170   -0.6410 23.4 190 
 BAR2 SZ I        1448 24.36        44.0 0.22            169           23.4 190 
 BRR  HZ IP       1448  9.88                             152    0.0310 71.2 298 
 BRR  HN ES       1448 26.82                             152    0.5910 71.2 298 
 BRR  HN I        1448 29.94        67.4 0.18            150           71.2 298 
 PAM  SZ EP       1448 11.03                             151    0.1110 77.3  40 
 PAM  SN ES       1448 28.05                             151   -0.0710 77.3  40 
 PAM  SN I        1448 28.78        73.5 0.48            154           77.3  40 
 RUS  HZ EP       1448 12.13                             143   -0.3410  101 176 
 RUS  HN ES       1448 31.49                             143    0.6010  101 176 
 RUS  HN I        1448 31.66        27.1 0.18            145            101 176 
 PTB  HZ EP       1448 14.92                             132   -0.80 9  148 259 
 PTB  HN ES       1448 36.00                             132   -0.66 9  148 259 
 PTB  HN I        1448 41.10        60.9 0.16            131            148 259 
 ZAR  HZ EP       1448 20.90                             122   -0.31 9  204 292 
 ZAR  HE ES       1448 46.56                             122    0.11 9  204 292 
 ZAR  HE I        1448 52.13        94.3 0.20            122            204 292 
 SML  HZ EP       1448 25.09                             117   -0.31 8  244 335 
 SML  HE ES       1448 54.81                             117    0.90 8  244 335 
 SML  HE I        1448 55.85        49.9 0.10            118            244 335 
 CHI  HZ EP       1448 26.53                             117    0.05 8  249 195 
 CHI  HN ES       1448 56.65                             117    0.82 8  249 195 
 CHI  HN I        1448 58.44        21.5 0.30            118            249 195 
 HEL  HZ EP       1448 29.64                             114    0.63 8  272 256 
 HEL  HN ES   1   1449  0.50                             114    0.18 6  272 256 
                                                                                
