 2012  818 1825  6.5 L   6.757 -73.093146.6  RSN  4 0.2 1.5LRSN                1
 GAP=145        0.50       3.6     5.4  5.4 -0.3930E+00 -0.2035E+01  0.5498E+00E
 Epicentro: LOS SANTOS - SANTANDER                                             3
 ACTION:UPD 12-09-10 11:57 OP:ep   STATUS:               ID:20120818182506 L   I
 2012-08-18-1820-00M.COL___217                                                 6
 STAT SP IPHASW D HRMM SECON CODA AMPLIT PERI AZIMU VELO AIN AR TRES W  DIS CAZ7
 BAR2 SZ EP   1   1825 26.27                             172    0.11 7 20.7 208 
 BAR2 SZ ES   1   1825 41.76                             172    0.25 7 20.7 208 
 BAR2 SZ I        1825 42.92        13.1 0.10                          20.7 208 
 PAM  SZ EP   1   1825 29.07                             151    0.27 7 77.7  34 
 PAM  SN ES   1   1825 45.98                             151   -0.24 7 77.7  34 
 PAM  SZ I        1825 52.49         2.6 0.40                          77.7  34 
 BRR  HZ EP   1   1825 27.79                             150   -0.36 7 78.6 300 
 BRR  HZ I        1825 28.51        14.4 0.17                          78.6 300 
 BRR  HE ES   1   1825 45.14                             150    0.09 7 78.6 300 
 RUS  HZ EP   1   1825 30.05                             145    0.09 7 95.6 179 
 RUS  HN ES   1   1825 48.04                             145   -0.23 7 95.6 179 
 RUS  HZ I        1825 50.20         3.1 0.33                          95.6 179 
                                                                                
