 2015  918 1110 49.1 L   6.788 -73.145137.4  RSN  6 0.4 1.6LRSN                1
 GAP=201        0.91       4.5     5.5  6.3  0.1156E+02  0.8475E+00 -0.9344E+01E
 Epicentro: LOS SANTOS - SANTANDER                                             3
 ACTION:UPD 15-10-28 16:27 OP:cam  STATUS:               ID:20150918111049 L   I
 OLDACT:REG 15-09-18 20:37 OP:drio STATUS:               ID:20150918110747     3
 2015-09-18-1107-47M.COL___355                                                 6
 STAT SP IPHASW D HRMM SECON CODA AMPLIT PERI AZIMU VELO AIN AR TRES W  DIS CAZ7
 BAR2 EZ EP       1111  7.87                             170    0.2010 22.0 191 
 BAR2 EZ ES       1111 22.00                             170   -0.1810 22.0 191 
 BAR2 EZ I        1111 24.04        10.3 0.20            171           22.0 191 
 BRR  HZ EP       1111  9.68                             151    0.3110 71.9 299 
 BRR  HN ES       1111 25.38                             151    0.1810 71.9 299 
 RUS  HZ EP       1111 12.08                             142    0.1710 99.2 176 
 RUS  HN ES       1111 29.67                             142   -0.0610 99.2 176 
 PTB  HZ EP       1111 14.51                             130   -0.85 9  148 259 
 PTB  HN ES       1111 35.71                             130   -0.15 9  148 259 
 PTB  HZ I        1111 37.81         3.9 0.44            130            148 259 
 ZAR  HZ EP       1111 21.66                             120    0.61 9  205 292 
 ZAR  HN ES       1111 46.28                             120    0.29 9  205 292 
 ZAR  HZ I        1111 52.30         3.0 0.20            121            205 292 
 SML  HZ EP       1111 25.18                             115   -0.20 8  245 335 
 SML  HN ES       1111 53.29                             115   -0.41 8  245 335 
 SML  HZ I        1111 57.29         3.9 0.10            116            245 335 
                                                                                
