 2014  418 1828 59.9 L   6.812 -73.168147.3  RSN 11 0.3 2.0LRSN                1
 GAP=133        0.87       2.3     3.4  5.5 -0.1433E+01  0.3242E+01  0.3725E-01E
 Epicentro: LOS SANTOS - SANTANDER                                             3
 ACTION:UPD 14-05-13 23:09 OP:nd   STATUS:               ID:20140418182859 L   I
 OLDACT:REG 14-04-18 21:53 OP:stll STATUS:               ID:20140418182813     3
 2014-04-18-1828-13M.COL___242                                                 6
 STAT SP IPHASW D HRMM SECON CODA AMPLIT PERI AZIMU VELO AIN AR TRES W  DIS CAZ7
 BRR  HZ IP     C 1829 21.54                             154    0.5310 68.3 299 
 BRR  HN ES       1829 38.16                             154    0.6510 68.3 299 
 BRR  HZ I        1829 42.90        11.5 0.14            152           68.3 299 
 PAM  SZ EP       1829 22.55                             151    0.2810 78.0  42 
 PAM  SN ES       1829 39.73                             151   -0.0210 78.0  42 
 PAM  SZ I        1829 41.70        16.0 0.56            152           78.0  42 
 RUS  HZ EP       1829 24.00                             144    0.1410  102 175 
 RUS  HN ES       1829 42.42                             144   -0.1710  102 175 
 PTB  HZ EP       1829 26.52                             133   -0.23 9  146 258 
 PTB  HN ES       1829 47.44                             133   -0.28 9  146 258 
 OCA  HZ EP       1829 27.94                             130   -0.19 9  159 354 
 OCA  HE ES       1829 49.56                             130   -0.63 9  159 354 
 OCA  HZ I        1829 53.64        14.3 0.20            131            159 354 
 SPBC HN ES       1829 50.21                             129   -0.49 9  163 218 
 ZAR  HZ EP       1829 32.71                             123    0.60 9  201 292 
 ZAR  HN ES       1829 57.35                             123    0.09 9  201 292 
 ZAR  HZ I        1830  3.95         8.7 0.28            124            201 292 
 NOR  HE ES       1830  3.27                             119   -0.10 8  233 234 
 SML  HZ EP       1829 36.03                             118   -0.29 8  241 336 
 SML  HN ES       1830  4.48                             118   -0.28 8  241 336 
 SML  HZ I        1830  8.37        13.4 0.10            119            241 336 
 CHI  HZ EP       1829 37.69                             117   -0.02 8  249 195 
 CHI  HZ I        1829 40.21         3.2 0.48            120            249 195 
 CHI  HN ES       1830  7.18                             117   -0.05 8  249 195 
 GUY2CHN ES       1830 17.54                             113    0.19 7  300 234 
                                                                                
