 2014  118 1158  4.1 L   6.775 -73.173144.2  RSN  8 0.4 1.9LRSN                1
 GAP=134        0.90       3.0     3.8  6.3 -0.2014E+01  0.8993E+01 -0.5662E+01E
 Epicentro: LOS SANTOS - SANTANDER                                             3
 ACTION:UPD 14-03-13 09:56 OP:ep   STATUS:               ID:20140118115804 L   I
 OLDACT:REG 14-01-18 15:34 OP:carl STATUS:               ID:20140118115000     3
 2014-01-18-1150-00M.COL___285                                                 6
 STAT SP IPHASW D HRMM SECON CODA AMPLIT PERI AZIMU VELO AIN AR TRES W  DIS CAZ7
 BAR2 SZ EP       1158 23.50                             172    0.0210 20.2 183 
 BAR2 SZ ES       1158 38.90                             172    0.3010 20.2 183 
 BAR2 SZ I        1158 40.25        20.8 0.24            173           20.2 183 
 PAM  SZ EP       1158 26.66                             149    0.2710 81.5  40 
 PAM  SN ES       1158 44.10                             149    0.3110 81.5  40 
 PAM  SZ I        1158 46.38        10.3 0.60            152           81.5  40 
 RUS  HZ EP       1158 27.37                             144   -0.1410 98.1 174 
 RUS  HN ES       1158 45.43                             144   -0.3410 98.1 174 
 RUS  HZ I        1158 46.70         8.3 0.26            148           98.1 174 
 PTB  HZ EP       1158 30.46                             132   -0.16 9  144 260 
 PTB  HN ES       1158 50.63                             132   -0.68 9  144 260 
 PTB  HZ I        1158 55.31         6.8 0.12            133            144 260 
 OCA  HZ EP       1158 32.54                             129    0.03 9  163 354 
 OCA  HN ES       1158 54.01                             129   -0.67 9  163 354 
 OCA  HZ I        1158 57.73         8.1 0.46            130            163 354 
 ZAR  HZ EP       1158 36.51                             122    0.25 9  202 293 
 ZAR  HE ES       1159  1.81                             122    0.46 9  202 293 
 ZAR  HZ I        1159  4.39         7.9 0.18            123            202 293 
 NOR  HE ES       1159  7.30                             119    0.55 8  231 235 
 NOR  HZ I        1159 12.61         5.7 0.28            120            231 235 
 SML  HZ EP       1158 40.57                             117   -0.20 8  245 336 
 SML  HN ES       1159  9.51                             117    0.13 8  245 336 
 SML  HZ I        1159 18.44        10.0 0.24            118            245 336 
                                                                                
