 2012  218 1036 58.4 L   6.522 -73.614110.3  RSN  6 0.2 1.5LRSN                1
 GAP= 93        0.43       3.2     2.4  4.8  0.1749E+01  0.4403E+01 -0.1168E+01E
 ACTION:UP  12-03-07 16:31 OP:epov STATUS:               ID:20120218103658 L   I
 2012-02-18-1030-00M.COL___188                                                 6
 STAT SP IPHASW D HRMM SECON CODA AMPLIT PERI AZIMU VELO AIN AR TRES W  DIS CAZ7
 BAR2 SZ EP   1   1037 14.86                             155    0.05 7 48.3  81 
 BAR2 SZ ES   1   1037 27.52                             155   -0.07 7 48.3  81 
 BAR2 SZ I        1037 28.63        26.6 0.36                          48.3  81 
 BRR  HZ EP   1   1037 15.74                             147    0.25 7 65.6 350 
 BRR  HZ I        1037 23.22         7.6 0.12                          65.6 350 
 GIR2 SZ EP   1   1037 16.30                             142   -0.21 7 77.1  37 
 RUS  HZ EP   1   1037 17.80                             138   -0.28 7 91.0 140 
 RUS  HE ES       1037 33.54                             138    0.1210 91.0 140 
 RUS  HZ I        1037 34.85         2.3 0.22                          91.0 140 
 PTB  HZ EP       1037 17.76                             137    0.1510 93.2 271 
 PTB  HE ES   1   1037 32.39                             137   -0.18 7 93.2 271 
 NOR  SZ EP   1   1037 25.61                             118   -0.06 7  175 233 
                                                                                
