 2013  218 1948  8.4 L   6.756 -73.139132.0  RSN  6 0.4 2.1LRSN                1
 GAP=139        0.86       3.8     3.8  7.6  0.1074E+01  0.6659E+01  0.3406E+01E
 Epicentro: LOS SANTOS - SANTANDER                                             3
 ACTION:UPD 13-03-12 09:34 OP:ep   STATUS:               ID:20130218194808 L   I
 2013-02-18-1940-00M.COL___241                                                 6
 STAT SP IPHASW D HRMM SECON CODA AMPLIT PERI AZIMU VELO AIN AR TRES W  DIS CAZ7
 BRR  HZ EP       1948 28.38                             149    0.1110 74.2 302 
 BRR  HN ES   1   1948 42.87                             149   -0.89 7 74.2 302 
 BRR  HN I        1948 48.57        40.6 0.24            148           74.2 302 
 PAM  SZ IP     D 1948 29.21                             147   -0.1810 80.7  37 
 PAM  SN ES       1948 46.07                             147    0.3110 80.7  37 
 PAM  SN I        1948 47.20        27.8 0.46            151           80.7  37 
 RUS  HZ EP       1948 30.09                             142   -0.3710 95.7 176 
 RUS  HN ES       1948 47.97                             142    0.3110 95.7 176 
 RUS  HN I        1948 48.90        11.3 0.40            144           95.7 176 
 PTB  HZ EP   4   1948 33.00                             129   -1.27 0  148 261 
 PTB  HN ES       1948 54.51                             129    0.07 9  148 261 
 PTB  HN I        1948 56.40        21.7 0.22            129            148 261 
 ZAR  HZ EP   1   1948 40.69                             119    0.43 6  207 293 
 ZAR  HN ES       1949  5.35                             119    0.25 8  207 293 
 ZAR  HN I        1949 12.67        16.2 0.16            120            207 293 
 CHI  HZ EP   1   1948 44.39                             115   -0.49 6  244 196 
 CHI  HN ES   2   1949 13.92                             115    0.59 4  244 196 
 CHI  HN I        1949 19.48         5.3 0.24            116            244 196 
                                                                                
