 2017 1118 1010 58.0 L   6.791 -73.131147.7  RSN 12 0.4 2.0LRSN                1
 GAP=113        0.99       3.6     3.5  6.6 -0.1097E+01  0.4722E+01  0.7846E+01E
 Epicentro: LOS SANTOS - SANTANDER                                             3
 ACTION:UPD 17-12-12 19:56 OP:rebc STATUS:               ID:20171118101058 L   I
 OLDACT:REG 17-11-18 20:06 OP:lv   STATUS:               ID:20171118100737     3
 2017-11-18-1008-00M.COL___458                                                 6
 STAT SP IPHASW D HRMM SECON CODA AMPLIT PERI AZIMU VELO AIN AR TRES W  DIS CAZ7
 BAR2 EZ EP       1011 17.96                             171    0.0710 22.7 194 
 BAR2 EZ ES       1011 32.99                             171   -0.3910 22.7 194 
 BAR2 EZ I        1011 35.76        23.1 0.28            169           22.7 194 
 PAM  EZ EP       1011 20.76                             151    0.3110 77.2  38 
 PAM  EN ES       1011 38.17                             151    0.2410 77.2  38 
 PAM  EZ I        1011 40.14        17.4 0.48            156           77.2  38 
 PTB  HZ EP       1011 24.44                             132   -0.85 9  149 259 
 PTB  HN ES       1011 47.19                             132    0.64 9  149 259 
 PTB  HZ I        1011 51.34         4.6 0.14            133            149 259 
 SPBC HZ EP       1011 26.84                             129    0.13 9  163 220 
 SPBC HN ES       1011 48.94                             129   -0.13 9  163 220 
 SPBC HZ I        1011 51.52        14.7 0.30            130            163 220 
 YPLC HZ EP       1011 27.34                             127   -0.47 9  175 152 
 YPLC HN ES       1011 51.15                             127    0.11 9  175 152 
 YPLC HZ I        1011 55.13        13.5 0.30            129            175 152 
 ZAR  HZ EP   4   1011 29.20                             122   -1.60 0  206 292 
 ZAR  HE ES       1011 55.88                             122   -0.48 8  206 292 
 ZAR  HZ I        1012  1.66         6.7 0.30            124            206 292 
 NOR  HZ EP   4   1011 32.56                             119   -1.40 0  235 235 
 NOR  HN ES       1012  2.39                             119    0.42 8  235 235 
 NOR  HZ I        1012  7.57         6.6 0.20            120            235 235 
 CHI  HZ EP       1011 36.21                             117    0.42 8  248 196 
 CHI  HN ES       1012  5.02                             117   -0.21 8  248 196 
 CHI  HZ I        1012 11.33         4.1 0.66            119            248 196 
 ROSC BZ EP   4   1011 38.27                             117    2.01 0  253 211 
 ROSC BN ES       1012  6.51                             117    0.44 8  253 211 
 ROSC BZ I        1012 12.60        10.6 0.40            118            253 211 
 GUY2CHZ EP   4   1011 43.56                             113    1.74 0  302 235 
 GUY2CHN ES       1012 15.56                             113   -0.41 7  302 235 
 GUY2CHZ I        1012 23.17         3.9 0.28                           302 235 
 PTGC HZ EP   9   1011 41.24                             112   -0.57 0  307 159 
 PTGC HN ES       1012 14.59                                   -0.79 7  307 159 
 PRA  HZ EP       1011 51.91                             107    0.29 6  392 210 
 PRA  HN ES       1012 33.45                             107    0.05 6  392 210 
 PRA  HZ I        1012 38.15         3.0 0.32            108            392 210 
                                                                                
