 2010  318 1605 52.5 L   6.612 -73.739 76.5  RSN  3 0.1 1.2LRSN                1
 GAP=226        0.41       7.4     9.8 10.5  0.6542E+02  0.8131E+02  0.6496E+02E
 Epicentro: EL CARMEN DE CHUCURI - SANTANDER                                   3
 ACTION:UP  10-08-24 09:54 OP:vdl  STATUS:               ID:20100318160552 L   I
 2010-03-18-1603-52S.COL___098                                                 6
 STAT SP IPHASW D HRMM SECON CODA AMPLIT PERI AZIMU VELO SNR AR TRES W  DIS CAZ7
 BRR  HZ IP       16 6  5.26                             141    -0.110   55   3 
 BRR  HE ES   1   16 6 15.63                             141     0.1 7   55   3 
 BRR  HZ I        16 6 16.53        10.9 0.13                            55   3 
 BAR2 SZ IP       16 6  6.40                             138     0.110   61  92 
 BAR2 SZ ES   1   16 6 16.89                             138    -0.1 7   61  92 
 RUS  HZ EP   1   16 6 11.10                             121     0.0 7  108 138 
 RUS  HN ES   2   16 6 25.51                             121     0.0 5  108 138 
 RUS  HZ I        16 6 28.28         2.6 0.20                           108 138 
                                                                                
