 2013  118 1524 52.4 L   6.810 -73.167141.2  RSN  8 0.4 1.8LRSN                1
 GAP=133        0.82       4.1     4.5  5.9  0.2893E+01  0.7797E+01  0.4139E+01E
 Epicentro: LOS SANTOS - SANTANDER                                             3
 ACTION:UPD 13-02-15 09:15 OP:ep   STATUS:               ID:20130118152452 L   I
 2013-01-18-1520-00M.COL___241                                                 6
 STAT SP IPHASW D HRMM SECON CODA AMPLIT PERI AZIMU VELO AIN AR TRES W  DIS CAZ7
 BAR2 SZ EP       1525 11.44                             170   -0.0710 24.2 184 
 BAR2 SZ ES       1525 26.47                             170    0.0710 24.2 184 
 BAR2 SZ I        1525 27.87        21.1 0.14            161           24.2 184 
 BRR  HZ EP     C 1525 13.33                             153    0.4210 68.6 299 
 BRR  HN ES   1   1525 28.72                             153   -0.19 7 68.6 299 
 PAM  SZ EP   1   1525 14.29                             150    0.11 7 78.0  41 
 PAM  SN ES   1   1525 31.05                             150   -0.11 7 78.0  41 
 PAM  SZ I        1525 32.76         6.3 0.36            143           78.0  41 
 RUS  HZ EP       1525 15.52                             142   -0.2910  102 175 
 RUS  HE ES   1   1525 34.14                             142    0.07 7  102 175 
 RUS  HZ I        1525 35.57         6.2 0.24            129            102 175 
 PTB  HZ EP       1525 18.14                             131   -0.67 9  146 258 
 PTB  HN ES   1   1525 39.25                             131   -0.16 7  146 258 
 PTB  HZ I        1525 41.59        11.3 0.12            118            146 258 
 ZAR  HZ EP   1   1525 25.08                             122    0.80 6  201 292 
 ZAR  HN ES   1   1525 49.33                             122    0.18 6  201 292 
 ZAR  HZ I        1525 55.68        10.7 0.42            110            201 292 
 NOR  HZ EP   2   1525 27.12                             118   -0.62 4  233 234 
 NOR  HZ I        1526  1.83         6.3 0.16            106            233 234 
 CHI  HZ EP   1   1525 29.87                             116   -0.04 6  249 195 
 CHI  HN ES   1   1526  0.05                             116    0.89 6  249 195 
 CHI  HZ I        1526  7.21         3.7 0.44            105            249 195 
                                                                                
