 2016  718 1721 49.8 L   6.806 -73.144154.0  RSN  5 0.3 1.7LRSN                1
 GAP=136        0.73       3.8     4.0  6.7  0.1472E+01  0.4440E+01  0.6781E+01E
 Epicentro: LOS SANTOS - SANTANDER                                             3
 ACTION:UPD 17-03-29 16:52 OP:lp   STATUS:               ID:20160718172149 L   I
 OLDACT:REG 16-07-18 20:45 OP:lv   STATUS:               ID:20160718171759     3
 2016-07-18-1717-59S.COL___310                                                 6
 STAT SP IPHASW D HRMM SECON CODA AMPLIT PERI AZIMU VELO AIN AR TRES W  DIS CAZ7
 BRR  HE ES       1722 29.35                             154    0.2910 71.0 298 
 PAM  EZ EP       1722 13.27                             152    0.3710 76.7  40 
 PAM  EE ES       1722 30.52                             152   -0.3610 76.7  40 
 PAM  EZ I        1722 32.77        11.0 0.52            153           76.7  40 
 RUS  HZ EP       1722 14.62                             145    0.1610  101 176 
 RUS  HE ES       1722 33.62                             145   -0.0410  101 176 
 RUS  HZ I        1722 34.24         6.5 0.25            147            101 176 
 SPBC HZ EP       1722 18.62                             131   -0.43 9  164 219 
 SPBC HN ES   2   1722 42.04                             131    0.22 5  164 219 
 ZAR  HZ EP   4   1722 24.85                             124    2.02 0  204 292 
 ZAR  HN ES       1722 48.39                             124   -0.17 9  204 292 
 ZAR  HZ I        1722 56.41         4.0 0.11            123            204 292 
                                                                                
