 2013  618 1625 30.6 L   6.683 -73.239150.0  RSN  4 0.4 1.6LRSN                1
 GAP=196        0.86       7.3     8.3  8.2  0.3361E+02  0.7023E+01  0.3777E+00E
 Epicentro: BARICHARA - SANTANDER                                              3
 ACTION:UPD 14-01-08 09:55 OP:ep   STATUS:               ID:20130618162530 L   I
 OLDACT:UP  13-06-18 18:04 OP:cam  STATUS:               ID:20130618161959     3
 OLDACT:REG 13-06-18 15:23 OP:cam  STATUS:               ID:20130618161959     3
 2013-06-18-1619-59M.COL___261                                                 6
 STAT SP IPHASW D HRMM SECON CODA AMPLIT PERI AZIMU VELO AIN AR TRES W  DIS CAZ7
 BAR2 SZ EP   1   1625 50.14                             175   -0.40 7 11.8 148 
 BAR2 SZ ES   1   1626  5.50                             175   -0.62 7 11.8 148 
 BAR2 SZ I        1626  7.96        10.2 0.34            167           11.8 148 
 BRR  HZ EP       1625 51.94                             154   -0.1910 70.2 312 
 BRR  HN ES       1626  9.43                             154    0.4910 70.2 312 
 RUS  HZ EP   1   1625 54.42                             148    0.45 7 89.1 169 
 RUS  HN ES       1626 12.38                             148    0.1610 89.1 169 
 RUS  HZ I        1626 13.86         3.9 0.34            145           89.1 169 
 PTB  HZ EP   1   1625 56.95                             136    0.12 7  136 263 
 PTB  HN ES   1   1626 16.91                             136   -0.39 7  136 263 
 PTB  HZ I        1626 25.28         5.6 0.28            131            136 263 
                                                                                
