 2015  518 1122 38.9 L   6.795 -73.117143.0  RSN 10 0.5 1.9LRSN                1
 GAP=140        1.16       3.7     5.4  7.1 -0.1158E+01  0.1734E+02 -0.1619E+01E
 Epicentro: LOS SANTOS - SANTANDER                                             3
 ACTION:UPD 15-09-10 22:05 OP:cam  STATUS:               ID:20150518112238 L   I
 OLDACT:REG 15-05-18 20:48 OP:ak   STATUS:               ID:20150518111750     3
 2015-05-18-1117-50M.COL___288                                                 6
 STAT SP IPHASW D HRMM SECON CODA AMPLIT PERI AZIMU VELO AIN AR TRES W  DIS CAZ7
 BAR2 EZ IP     C 1122 58.46                             170    0.2610 23.6 198 
 BAR2 EZ ES       1123 12.50                             170   -0.7610 23.6 198 
 BAR2 EZ I        1123 14.44        13.3 0.12            168           23.6 198 
 BRR  HZ EP       1123  0.40                             151    0.4710 74.3 298 
 BRR  HE ES       1123 16.89                             151    0.5610 74.3 298 
 BRR  HZ I        1123 21.58        12.4 0.12            148           74.3 298 
 PAM  SN ES       1123 17.93                             151    0.1810 75.8  37 
 RUS  HZ EP       1123  2.49                             143    0.1710 99.8 178 
 RUS  HE ES       1123 20.70                             143    0.1010 99.8 178 
 RUS  HZ I        1123 22.57         7.8 0.28            147           99.8 178 
 OCA  HZ EP       1123  6.85                             129   -0.24 9  161 352 
 OCA  HN ES       1123 28.34                             129   -0.73 9  161 352 
 OCA  HZ I        1123 33.91        22.7 0.22            131            161 352 
 ZAR  HZ EP       1123 11.61                             121    0.12 8  207 292 
 ZAR  HN ES       1123 37.12                             121    0.20 8  207 292 
 ZAR  HZ I        1123 43.42         6.5 0.15            122            207 292 
 SML  HZ EP   1   1123 14.92                             117   -0.65 6  246 335 
 SML  HE ES       1123 44.64                             117    0.46 8  246 335 
 SML  HZ I        1123 46.39        16.1 0.10            118            246 335 
 HEL  HZ EP   1   1123 20.18                             114    0.88 6  275 256 
 HEL  HN ES       1123 49.89                             114   -0.93 8  275 256 
 HEL  HZ I        1123 59.95         2.3 0.34            115            275 256 
 GUY2CHZ EP       1123 21.95                             112   -0.69 7  303 235 
 GUY2CHN ES       1123 57.01                             112    0.25 7  303 235 
 GUY2CHZ I        1124  3.46         2.5 0.30                           303 235 
 MON  HZ EP   4   1123 25.92                             108   -2.20 0  357 308 
 MON  HN ES   4   1124  4.26                             108   -2.26 0  357 308 
 MON  HZ I        1124  5.78         2.0 0.28            109            357 308 
                                                                                
