 2010  518 1211 59.9 L   6.768 -72.994138.9  RSN  5 0.4 1.9LRSN                1
 GAP=215        0.90       8.0    11.2 10.7 -0.4869E+02 -0.5196E+02  0.1982E+02E
 Epicentro: CEPITA - SANTANDER                                                 3
 ACTION:UP  10-08-24 10:05 OP:vdl  STATUS:               ID:20100518121159 L   I
 2010-05-18-1210-02S.COL___108                                                 6
 STAT SP IPHASW D HRMM SECON CODA AMPLIT PERI AZIMU VELO SNR AR TRES W  DIS CAZ7
 BAR2 SZ EP       1212 18.71                             168    -0.210   29 227 
 BAR2 SZ ES   2   1212 33.72                             168     0.1 5   29 227 
 BRR  HZ EP       1212 21.39                             146     0.010   88 295 
 BRR  HE ES   1   1212 38.30                             146     0.1 7   88 295 
 BRR  HZ I        1212 41.68        14.1 0.30                            88 295 
 BRI  SZ EP       1212 23.12                             140     0.010  107  12 
 BRI  SZ ES   2   1212 41.58                             140     0.5 5  107  12 
 GUE  SZ EP       1212 23.55                             137    -0.610  118   4 
 GUE  SZ ES   1   1212 42.60                             137    -0.4 7  118   4 
 GRA  SZ EP       1212 25.27                             135     0.710  125  10 
 GRA  SZ ES   2   1212 43.50                             135    -0.2 5  125  10 
                                                                                
