 2014 1218 1554 38.0 L   6.791 -73.137147.8  RSN 15 0.4 2.1LRSN                1
 GAP= 72        1.00       3.2     3.3  5.8 -0.5100E+00  0.3051E+01  0.4448E+01E
 Epicentro: LOS SANTOS - SANTANDER                                             3
 ACTION:UPD 15-02-10 17:05 OP:nd   STATUS:               ID:20141218155438 L   I
 OLDACT:REG 14-12-18 20:31 OP:spq  STATUS:               ID:20141218154744     3
 2014-12-18-1547-44M.COL___296                                                 6
 STAT SP IPHASW D HRMM SECON CODA AMPLIT PERI AZIMU VELO AIN AR TRES W  DIS CAZ7
 BAR2 EZ EP       1554 57.74                             171   -0.1510 22.5 193 
 BAR2 EZ ES   1   1555 13.40                             171    0.01 7 22.5 193 
 BAR2 EZ I        1555 15.49        19.2 0.19            171           22.5 193 
 BRR  HZ EP       1554 59.88                             152    0.4010 72.5 299 
 BRR  HN ES       1555 16.99                             152    0.7810 72.5 299 
 BRR  HZ I        1555 21.36        20.8 0.34            151           72.5 299 
 PAM  SZ EP       1555  0.56                             151    0.0810 77.6  38 
 PAM  SE ES       1555 17.86                             151   -0.1210 77.6  38 
 PAM  SZ I        1555 19.99        19.1 0.20            149           77.6  38 
 RUS  HZ EP       1555  1.52                             145   -0.3910 99.5 177 
 RUS  HN ES   1   1555 19.98                             145   -0.55 7 99.5 177 
 RUS  HZ I        1555 21.58         6.2 0.44            143           99.5 177 
 PTB  HZ EP       1555  4.38                             132   -0.86 9  149 259 
 PTB  HE ES   1   1555 25.87                             132   -0.59 7  149 259 
 PTB  HZ I        1555 31.66        19.5 0.16            130            149 259 
 TAM  HZ EP       1555  5.94                             131    0.18 9  154 105 
 TAM  HZ I        1555 26.75        17.4 0.32            129            154 105 
 TAM  HN ES   1   1555 27.69                             131    0.30 7  154 105 
 OCA  HN ES   1   1555 28.10                             130   -0.80 7  161 353 
 OCA  HZ I        1555 32.34        15.2 0.32            128            161 353 
 SPBC HZ EP       1555  6.73                             130    0.06 9  163 219 
 SPBC HN ES       1555 29.25                             130    0.24 9  163 219 
 SPBC HZ I        1555 35.77        21.8 0.26            128            163 219 
 ZAR  HZ EP       1555 11.28                             123    0.54 8  205 292 
 ZAR  HE ES       1555 35.77                             123   -0.49 8  205 292 
 ZAR  HZ I        1555 43.12        13.6 0.38            121            205 292 
 NOR  HZ EP       1555 13.84                             119   -0.06 8  235 235 
 NOR  HN ES       1555 42.18                             119    0.30 8  235 235 
 NOR  HZ I        1555 45.60         9.2 0.22            117            235 235 
 SML  HN ES   1   1555 43.96                             118    0.27 6  245 335 
 SML  HZ I        1555 46.50        22.8 0.10            116            245 335 
 CHI  HZ EP       1555 15.79                             118    0.03 8  248 195 
 CHI  HE ES   1   1555 45.13                             118   -0.07 6  248 195 
 CHI  HZ I        1555 48.91         4.4 0.56            116            248 195 
 HEL  HZ EP   4   1555 19.71                             115    1.28 0  273 256 
 HEL  HE ES   4   1555 51.90                             115    1.97 0  273 256 
 HEL  HZ I        1555 56.46         6.6 0.38            113            273 256 
 TOL  SZ EP       1555 27.03                             110    0.67 7  343 225 
 TOL  SN ES   4   1556  6.40                             110    2.34 0  343 225 
 TOL  SZ I        1556  8.89        14.6 0.22            108            343 225 
 MON  HZ EP   4   1555 25.92                             109   -1.35 0  355 308 
 MON  HN ES   4   1556  4.03                             109   -1.65 0  355 308 
 MON  HZ I        1556 12.39         2.3 0.62            107            355 308 
 SJC  HZ EP   4   1555 31.99                             106   -1.83 0  411 327 
 SJC  HE ES   4   1556 14.66                             106   -2.68 0  411 327 
                                                                                
