 2010  518 1613 15.9 L   6.768 -73.000148.0  RSN  5 0.4 2.3LRSN                1
 GAP=224        0.73       5.4    11.6  8.0 -0.2752E+02  0.6227E+01  0.9910E+01E
 Epicentro: CEPITA - SANTANDER                                                 3
 ACTION:UP  10-08-24 10:05 OP:vdl  STATUS:               ID:20100518161315 L   I
 2010-05-18-1600-00S.COL___110                                                 6
 STAT SP IPHASW D HRMM SECON CODA AMPLIT PERI AZIMU VELO SNR AR TRES W  DIS CAZ7
 BAR2 SZ EP       1613 35.96                             169     0.010   28 226 
 BAR2 SZ ES   2   1613 51.16                             169    -0.4 5   28 226 
 BRR  HZ EP       1613 38.75                             148     0.510   87 296 
 BRR  HE ES   2   1613 55.70                             148     0.0 5   87 296 
 BRR  HZ I        1613 58.95        23.4 0.20                            87 296 
 OCA  SZ EP       1613 44.60                             129    -0.4 9  166 348 
 OCA  SZ ES   2   1614  7.45                             129    -0.2 5  166 348 
 OCA  SZ I        1614 11.90        20.6 0.61                           166 348 
 RREF BZ EP       1614  3.36                             111     0.0 7  332 232 
 RREF BN ES   2   1614 39.30                             111    -1.0 3  332 232 
 RREF BZ I        1614 44.41         9.0 0.35                           332 232 
 PRA  HZ EP       1614 10.14                             107     0.0 6  397 212 
 PRA  HE ES   2   1614 52.31                             107    -0.1 3  397 212 
 PRA  HZ I        1614 56.46         6.5 0.38                           397 212 
                                                                                
