 2016  618 1050  2.3 L   6.648 -72.979136.0  RSN  4 0.4 1.1LRSN                1
 GAP=166        0.57       7.8    12.6  8.3 -0.7956E+02  0.7703E+01 -0.7092E+01E
 Epicentro: ARATOCA - SANTANDER                                                3
 ACTION:UPD 16-07-21 22:20 OP:rebc STATUS:               ID:20160618105002 L   I
 OLDACT:DUP 16-06-18 21:30 OP:dnl  STATUS:               ID:20160618104745d    3
 OLDACT:REG 16-06-18 20:42 OP:dnl  STATUS:               ID:20160618104744     3
 2016-06-18-1047-44M.COL___337                                                 6
 STAT SP IPHASW D HRMM SECON CODA AMPLIT PERI AZIMU VELO AIN AR TRES W  DIS CAZ7
 BAR2 EZ EP   2   1050 21.60                             170    0.80 5 23.3 255 
 BAR2 EZ ES   2   1050 35.28                             170    0.09 5 23.3 255 
 BAR2 EZ I        1050 39.07         4.0 0.30                          23.3 255 
 PAM  EZ EP       1050 23.60                             147   -0.2510 82.4  22 
 PAM  EN ES   2   1050 40.89                             147    0.26 5 82.4  22 
 PAM  EZ I        1050 50.41         2.9 0.26                          82.4  22 
 RUS  HZ EP   2   1050 24.24                             147    0.26 5 84.4 188 
 RUS  HE ES   2   1050 40.64                             147   -0.22 5 84.4 188 
 RUS  HZ I        1050 45.19         1.4 0.38                          84.4 188 
 SPBC HZ EP   2   1050 30.30                             127    0.15 5  164 228 
 SPBC HN ES   2   1050 51.46                             127   -0.38 5  164 228 
 SPBC HZ I        1050 56.91         2.7 0.44                           164 228 
                                                                                
