 2013  218 1708 22.8 L   6.820 -73.168149.9  RSN  5 0.4 2.1LRSN                1
 GAP=133        0.91       5.8     5.2  9.2 -0.8427E+01 -0.1436E+01  0.2466E+02E
 Epicentro: LOS SANTOS - SANTANDER                                             3
 ACTION:UPD 13-03-12 09:34 OP:ep   STATUS:               ID:20130218170822 L   I
 2013-02-18-1700-00M.COL___241                                                 6
 STAT SP IPHASW D HRMM SECON CODA AMPLIT PERI AZIMU VELO AIN AR TRES W  DIS CAZ7
 BRR  HZ EP       17 8 44.74                             154    0.5310 68.0 298 
 BRR  HN ES   1   17 9  1.47                             154    0.55 7 68.0 298 
 BRR  HN I        17 9  2.35        30.2 0.28            152           68.0 298 
 PAM  SZ EP       17 8 45.59                             151    0.1510 77.3  42 
 PAM  SN ES       17 9  2.92                             151   -0.1910 77.3  42 
 PAM  SN I        17 9  3.22        10.6 0.40            155           77.3  42 
 RUS  HZ EP       17 8 46.63                             144   -0.4810  103 175 
 RUS  HE ES   2   17 9  6.11                             144    0.02 5  103 175 
 PTB  HZ EP       17 8 49.74                             133   -0.17 9  146 258 
 PTB  HN ES       17 9 10.61                             133   -0.47 9  146 258 
 PTB  HN I        17 9 16.26        19.5 0.28            133            146 258 
 CHI  HZ EP   1   17 9  0.84                             118   -0.03 6  250 194 
 CHI  HN ES   1   17 9 31.28                             118    0.70 6  250 194 
                                                                                
