 2011  518 1345 29.2 L   6.543 -73.522111.6  RSN 12 0.4 2.3LRSN                1
 GAP= 81        0.99       4.2     5.0  7.2 -0.1019E+02  0.1442E+02 -0.4430E+01E
 Epicentro: EL CARMEN DE CHUCURI - SANTANDER                                   3
 ACTION:UP  11-06-29 08:54 OP:tino STATUS:               ID:20110518134529 L   I
 2011-05-18-1343-58S.COL___138                                                 6
 STAT SP IPHASW D HRMM SECON CODA AMPLIT PERI AZIMU VELO SNR AR TRES W  DIS CAZ7
 BAR2 SZ IP       1345 45.32                             160     0.110   38  82 
 BAR2 SZ ES   1   1345 57.71                             160     0.0 7   38  82 
 BAR2 SZ I        1345 58.91       279.7 0.35                            38  82 
 BRR  HZ EP       1345 46.13                             147    -0.210   66 341 
 BRR  HN ES   1   1345 59.95                             147     0.2 7   66 341 
 BRR  HZ I        1346  5.93        57.6 0.12                            66 341 
 RUS  HZ EP       1345 48.40                             140    -0.210   87 146 
 RUS  HN ES   1   1346  4.11                             140     0.4 7   87 146 
 RUS  HZ I        1346  5.43        29.8 0.32                            87 146 
 PAM  SZ EP       1345 51.78                             128    -0.310  127  46 
 PAM  SN ES   1   1346  9.69                             128    -0.3 7  127  46 
 BRI  SZ EP       1345 54.30                             122     0.0 9  152  32 
 BRI  SZ ES   1   1346 14.40                             122     0.5 7  152  32 
 GRA  SZ EP       1345 56.19                             119     0.3 9  168  28 
 GRA  SZ I        1346 18.66        20.1 0.42                           168  28 
 NOR  SZ EP       1345 56.95                             116    -0.6 9  184 234 
 NOR  SN ES   1   1346 19.25                             116    -0.4 7  184 234 
 OCA  SZ EP   1   1345 57.84                             116    -0.3 7  189   7 
 OCA  SZ I        1346 25.38        24.5 0.19                           189   7 
 HEL  HZ EP       1346  2.96                             111     0.4 8  225 260 
 HEL  HZ I        1346 33.60        17.6 0.15                           225 260 
 RREF HZ EP   1   1346  9.18                             107     1.0 6  272 228 
 RREF HZ I        1346 42.78        11.2 0.23                           272 228 
 TOL  SZ EP   2   1346 11.38                             105     0.9 4  294 223 
 MON  HZ EP   4   1346 13.66                             102    -2.0 0  342 316 
 MON  HZ I        1346 52.26         6.9 0.24                           342 316 
                                                                                
