 2016  218 1304 13.3 L   6.868 -73.267123.7  RSN  7 0.3 1.7LRSN                1
 GAP=113        0.69       2.6     2.6  4.6  0.4346E-01  0.2992E+01  0.6437E+00E
 Epicentro: BETULIA - SANTANDER                                                3
 ACTION:UPD 16-03-04 21:27 OP:rebc STATUS:               ID:20160218130413 L   I
 OLDACT:REG 16-02-18 20:53 OP:ak   STATUS:               ID:20160218125750     3
 2016-02-18-1257-50M.COL___327                                                 6
 STAT SP IPHASW D HRMM SECON CODA AMPLIT PERI AZIMU VELO AIN AR TRES W  DIS CAZ7
 BAR2 EZ IP       13 4 30.66                             165    0.1710 31.9 163 
 BAR2 EZ ES       13 4 43.80                             165   -0.1210 31.9 163 
 BRR  HZ EP       13 4 31.41                             154    0.2410 55.8 298 
 BRR  HN ES       13 4 45.09                             154   -0.0410 55.8 298 
 PAM  EZ EP       13 4 33.63                             145    0.1610 81.5  50 
 PAM  EN ES       13 4 49.25                             145    0.0310 81.5  50 
 PAM  EZ I        13 4 52.52         8.0 0.34            148           81.5  50 
 RUS  HZ EP       13 4 35.63                             136   -0.0510  110 169 
 RUS  HE ES       13 4 52.78                             136   -0.3810  110 169 
 RUS  HZ I        13 4 56.56                             137            110 169 
 PTB  HZ EP   4   13 4 35.87                             129   -1.57 0  136 255 
 PTB  HE ES       13 4 56.55                             129    0.26 9  136 255 
 PTB  HZ I        13 4 57.65        10.0 0.12            130            136 255 
 SPBC HZ EP       13 4 40.27                             124    0.28 9  161 214 
 SPBC HE ES       13 5  0.96                             124    0.14 9  161 214 
 SPBC HZ I        13 5  6.45         6.6 0.23            125            161 214 
 ZAR  HZ EP       13 4 42.03                             119   -0.71 9  189 292 
 ZAR  HN ES       13 5  5.64                             119   -0.09 9  189 292 
 ZAR  HZ I        13 5  9.07         6.8 0.32            121            189 292 
 NOR  HE ES   4   13 5  9.80                             114   -3.76 0  229 231 
 GUY2CHN ES   4   13 5 25.56                             108   -2.40 0  295 232 
                                                                                
