 2016  918 1435 46.0 L   6.811 -73.123147.2  RSN 32 0.5 3.4LRSN                1
 GAP= 53        1.01       2.4     2.4  4.0 -0.1238E+01  0.1102E+01  0.8374E+00E
 Epicentro: LOS SANTOS - SANTANDER                                             3
 ACTION:UPD 17-08-17 21:13 OP:lp   STATUS:               ID:20160918143546 L   I
 OLDACT:UP  16-09-19 00:20 OP:ar   STATUS:               ID:20160918142743d    3
 OLDACT:DUP 16-09-19 00:06 OP:ar   STATUS:               ID:20160918142743d    3
 2016-09-18-1428-00M.COL___369                                                 6
 STAT SP IPHASW D HRMM SECON CODA AMPLIT PERI AZIMU VELO AIN AR TRES W  DIS CAZ7
 BAR2 EZ EP     C 1436  5.98                             170    0.1810 25.1 195 
 BAR2 EZ ES       1436 20.66                             170   -0.6210 25.1 195 
 BAR2 EZ I        1436 23.71       961.1 0.32            168           25.1 195 
 BRR  HZ IP     C 1436  7.79                             152    0.4310 72.9 297 
 BRR  HE ES       1436 24.63                             152    0.5810 72.9 297 
 BRR  HZ I        1436 28.80       424.3 0.22            150           72.9 297 
 PAM  EZ IP     C 1436  8.83                             152    0.6510 74.8  39 
 PAM  EE ES       1436 25.88                             152    0.3710 74.8  39 
 PAM  EZ I        1436 29.21       287.8 0.44            155           74.8  39 
 RUS  HZ IP     D 1436  9.91                             144   -0.0210  102 178 
 RUS  HN ES       1436 28.59                             144   -0.0410  102 178 
 PTB  HZ EP       1436 12.72                             132   -0.57 9  150 259 
 PTB  HE ES       1436 34.01                             132   -0.60 9  150 259 
 PTB  HZ I        1436 39.27       285.5 0.16            131            150 259 
 TAM  HZ EP       1436 14.41                             131    0.86 9  153 106 
 TAM  HE ES       1436 35.46                             131    0.38 9  153 106 
 TAM  HZ I        1436 37.60       160.5 0.48            135            153 106 
 OCA  HZ IP     C 1436 14.05                             130   -0.24 9  159 352 
 OCA  HN ES       1436 36.04                             130   -0.35 9  159 352 
 OCA  HZ I        1436 39.87       798.1 0.18            131            159 352 
 SPBC HZ EP       1436 15.01                             129    0.20 9  166 219 
 SPBC HN ES       1436 36.82                             129   -0.50 9  166 219 
 SPBC HZ I        1436 39.44       563.5 0.24            129            166 219 
 ZAR  HZ EP       1436 18.33                             122   -0.36 8  206 292 
 ZAR  HN ES       1436 44.32                             122    0.10 8  206 292 
 ZAR  HZ I        1436 52.93       281.2 0.22            122            206 292 
 NOR  HZ EP       1436 22.10                             118    0.03 8  237 235 
 NOR  HE ES       1436 50.14                             118   -0.10 8  237 235 
 NOR  HZ I        1436 55.52       184.0 0.20            118            237 235 
 CHI  HZ EP       1436 24.03                             117    0.09 8  251 196 
 CHI  HN ES       1436 53.39                             117   -0.18 8  251 196 
 CHI  HZ I        1436 58.84       154.7 0.30            118            251 196 
 ROSC BZ EP   4   1436 25.76                             117    1.34 0  255 211 
 ROSC BE ES   4   1436 56.20                             117    1.79 0  255 211 
 ROSC BZ I        1437  0.67       498.3 0.45            117            255 211 
 HEL  HZ EP       1436 27.49                             115    0.94 8  275 256 
 HEL  HN ES       1436 57.98                             115   -0.23 8  275 256 
 HEL  HZ I        1437  6.28       128.0 0.34            115            275 256 
 URE  HZ EP       1436 26.49                             114   -0.82 7  286 291 
 URE  HN ES   4   1436 57.26                             114   -2.30 0  286 291 
 URE  HZ I        1437  7.36       139.8 0.32            114            286 291 
 SOCV BZ EP       1436 28.82                             113    0.07 7  298  57 
 SOCV BN ES       1437  1.24                             113   -0.89 7  298  57 
 GUY2CHZ EP       1436 30.53                             112    0.58 7  304 235 
 GUY2CHN ES       1437  4.27                             112    0.01 7  304 235 
 GUY2CHZ I        1437 16.24       154.8 0.48                           304 235 
 VIL  EZ EP       1436 29.28                             112   -0.36 7  305 192 
 VIL  EN ES       1437  3.55                             112   -0.16 7  305 192 
 VIL  EZ I        1437  9.14       214.8 0.62            113            305 192 
 LL1C HZ EP   4   1436 31.23                             112    1.71 0  306 351 
 LL1C HN ES   4   1437  5.44                             112    1.95 0  306 351 
 PTGC HZ IP     D 1436 29.14                             112   -0.77 7  309 159 
 PTGC HN ES   4   1437  2.12                             112   -2.07 0  309 159 
 PTGC HZ I        1437  7.43       107.0 0.28            113            309 159 
 ELA  HZ EP   9   1436 35.11                             110    1.93 0  332 230 
 ELA  HN ES       1437 11.52                             111   -0.43 7  332 230 
 ELA  HZ I        1437 25.18       116.5 0.44            111            332 230 
 CBOC HZ EP       1436 33.45                             110    0.20 7  336 252 
 CBOC HN ES       1437 10.84                             110    0.70 7  336 252 
 CBOC HZ I        1437 20.96        41.0 0.50            110            336 252 
 ARGC HZ EP       1436 35.89                             108    0.26 6  359 340 
 ARGC HN ES   4   1437 15.28                             108    0.91 0  359 340 
 ARGC HZ I        1437 23.26        53.6 0.44            109            359 340 
 ANIL HZ EP   4   1436 37.12                             109    0.99 0  360 225 
 ANIL HN ES   4   1437 16.85                             109    1.59 0  360 225 
 PAL  HZ EP       1436 41.46                             106   -0.03 6  409 239 
 PAL  HN ES   4   1437 23.34                             106   -1.48 0  409 239 
 PAL  HZ I        1437 31.32        42.5 0.22            106            409 239 
 SJC  HZ EP   4   1436 39.90                             106   -1.70 0  410 327 
 SJC  HN ES   4   1437 20.99                             106   -4.02 0  410 327 
 SJC  HZ I        1437 35.80        46.4 0.28            106            410 327 
 CRJC HZ EP   4   1436 46.35                             104   -1.98 0  466   3 
 CRJC HN ES   4   1437 33.20                             104   -3.78 0  466   3 
 CRJC HZ I        1437 35.74        72.3 0.46            104            466   3 
 GUA  EZ EP       1436 48.63                             103   -0.63 5  475 173 
 GUA  EN ES   4   1437 37.50                             103   -1.14 0  475 173 
 GUA  EZ I        1437 43.70        74.0 0.24            104            475 173 
 YOT  HZ EP       1436 49.31                             103   -0.05 5  475 229 
 YOT  HN ES       1437 39.59                             103    0.77 5  475 229 
 SMAR HZ EP       1436 51.18                             103   -0.61 4  496 346 
 SMAR HN ES   4   1437 38.75                             103   -4.39 0  496 346 
 SMAR HZ I        1437 41.90        26.2 0.09            103            496 346 
 MACC HZ EP   4   1436 52.87                             102   -2.03 0  522 189 
 MACC HN ES   4   1437 44.90                             102   -3.77 0  522 189 
 MACC HZ I        1437 50.27        55.3 0.82            102            522 189 
 DABV BZ EP       1436 55.19                             101   -0.68 4  531  31 
 DABV BN ES   4   1437 47.21                             101   -3.19 0  531  31 
 MARO HZ EP       1436 57.11                             101   -0.20 4  540 216 
 MARO HN ES   4   1437 49.55                             101   -3.42 0  540 216 
 MARO HZ I        1437 57.50        17.0 0.52            102            540 216 
 CONO HZ EP       1437  7.05                              99    0.39 3  615 216 
 CONO HN ES   4   1438  3.97                              99   -5.64 0  615 216 
 FLO2 HZ EP       1437  8.51                              99   -0.86 2  643 206 
 FLO2 HN ES   4   1438 12.62                              99   -1.82 0  643 206 
 FLO2 HZ I        1438 19.73         5.7 0.56             99            643 206 
                                                                                
