 2017 1018 1049 13.1 L   6.799 -73.159147.6  RSN  8 0.4 1.5LRSN                1
 GAP=236        0.92       4.0     5.0  6.2  0.6746E+01  0.9261E+01  0.5093E+01E
 Epicentro: LOS SANTOS - SANTANDER                                             3
 ACTION:UPD 17-11-07 19:33 OP:rebc STATUS:               ID:20171018104913 L   I
 OLDACT:UP  17-10-18 22:17 OP:edw  STATUS:               ID:20171018104736d    3
 OLDACT:UP  17-10-18 22:16 OP:edw  STATUS:               ID:20171018104736d    3
 OLDACT:DUP 17-10-18 22:13 OP:edw  STATUS:               ID:20171018104736d    3
 OLDACT:UP  17-10-18 22:13 OP:edw  STATUS:               ID:20171018104735     3
 OLDACT:UP  17-10-18 22:10 OP:edw  STATUS:               ID:20171018104735     3
 OLDACT:REG 17-10-18 20:26 OP:edw  STATUS:               ID:20171018104735     3
 2017-10-18-1048-00M.COL___419                                                 6
 STAT SP IPHASW D HRMM SECON CODA AMPLIT PERI AZIMU VELO AIN AR TRES W  DIS CAZ7
 BAR2 EZ EP     D 1049 32.51                             171   -0.4310 23.0 186 
 BAR2 EZ ES       1049 48.30                             171   -0.1210 23.0 186 
 BAR2 EZ I        1049 48.92         7.4 0.26            167           23.0 186 
 BRR  HZ EP       1049 34.42                             153    0.0410 69.9 299 
 BRR  HN ES       1049 51.34                             153    0.3710 69.9 299 
 RUS  HZ EP       1049 36.71                             144   -0.3210  101 175 
 RUS  HN ES       1049 56.30                             144    0.6010  101 175 
 RUS  HZ I        1049 56.43         3.1 0.20            142            101 175 
 PTB  HZ EP       1049 40.32                             133    0.24 9  146 259 
 PTB  HN ES       1050  0.44                             133   -0.69 9  146 259 
 PTB  HZ I        1050  2.60         2.9 0.52            130            146 259 
 ZAR  HZ EP       1049 45.55                             123    0.03 9  203 292 
 ZAR  HN ES       1050 11.11                             123    0.29 9  203 292 
 ZAR  HZ I        1050 15.73         3.9 0.46            122            203 292 
 NOR  HE ES       1050 16.48                             119   -0.16 8  233 234 
 CHI  HZ EP   4   1049 49.32                             118   -1.52 0  248 195 
 CHI  HN ES       1050 20.01                             118   -0.28 8  248 195 
 CHI  HZ I        1050 25.54         2.0 0.50            116            248 195 
 PRA  HZ EP   1   1050  7.40                             107    0.82 4  391 209 
 PRA  HN ES       1050 48.71                             107    0.41 6  391 209 
 PRA  HZ I        1050 55.64         2.6 0.30            106            391 209 
                                                                                
