 2017  818 1636 54.0 L   6.799 -73.111138.9  RSN  4 0.2 1.2LRSN                1
 GAP=141        0.48       4.6     9.1  4.5 -0.2861E+02  0.2963E+01  0.1129E+01E
 Epicentro: LOS SANTOS - SANTANDER                                             3
 ACTION:UPD 17-09-04 20:21 OP:rebc STATUS:               ID:20170818163654 L   I
 OLDACT:REG 17-08-18 20:47 OP:and  STATUS:               ID:20170818162742     3
 2017-08-18-1628-00M.COL___413                                                 6
 STAT SP IPHASW D HRMM SECON CODA AMPLIT PERI AZIMU VELO AIN AR TRES W  DIS CAZ7
 BAR2 EZ IP     C 1637 12.58                             170   -0.2710 24.2 199 
 BAR2 EZ ES       1637 27.71                             170    0.1810 24.2 199 
 BAR2 EZ I        1637 30.50         4.0 0.48            169           24.2 199 
 BRR  HZ EP   2   1637 14.59                             150   -0.05 5 74.6 297 
 PAM  EZ IP     D 1637 15.59                             150    0.2210 75.1  37 
 PAM  EZ I        1637 30.68         3.1 0.48            138           75.1  37 
 PAM  EN ES       1637 31.89                             150   -0.1310 75.1  37 
 RUS  HZ EP       1637 17.12                             142    0.0410  100 178 
 RUS  HN ES   2   1637 34.96                             142   -0.11 5  100 178 
 RUS  HZ I        1637 37.37         2.1 0.34            138            100 178 
                                                                                
