 2014  118 1109 38.2 L   6.816 -73.138143.9  RSN  9 0.4 2.2LRSN                1
 GAP=137        1.07       2.9     4.6  6.6 -0.1223E+01  0.9254E+01 -0.2688E+01E
 Epicentro: LOS SANTOS - SANTANDER                                             3
 ACTION:UPD 14-03-13 09:56 OP:ep   STATUS:               ID:20140118110938 L   I
 OLDACT:REG 14-01-18 15:47 OP:carl STATUS:               ID:20140118110744     3
 2014-01-18-1107-44M.COL___229                                                 6
 STAT SP IPHASW D HRMM SECON CODA AMPLIT PERI AZIMU VELO AIN AR TRES W  DIS CAZ7
 BAR2 SZ EP       11 9 57.89                             170    0.2710 25.3 191 
 BAR2 SZ ES       1110 12.63                             170   -0.1510 25.3 191 
 BAR2 SZ I        1110 14.04        67.8 0.18            170           25.3 191 
 PAM  SZ EP       1110  0.67                             151    0.6010 75.4  40 
 PAM  SN ES       1110 17.36                             151    0.2110 75.4  40 
 PAM  SZ I        1110 19.60        26.1 0.44            153           75.4  40 
 RUS  HZ EP       1110  1.94                             143    0.0710  102 177 
 RUS  HN ES       1110 20.28                             143   -0.0710  102 177 
 RUS  HZ I        1110 22.61        11.2 0.34            145            102 177 
 PTB  HZ EP       1110  5.07                             131   -0.03 9  149 258 
 PTB  HN ES       1110 26.74                             131    0.64 9  149 258 
 PTB  HZ I        1110 28.44        23.3 0.38            132            149 258 
 OCA  HZ EP       1110  5.80                             129   -0.38 9  159 353 
 OCA  HN ES       1110 27.61                             129   -0.41 9  159 353 
 OCA  HZ I        1110 31.07        21.3 0.40            131            159 353 
 SPBC HE ES       1110 28.15                             128   -0.82 9  165 219 
 ZAR  HZ EP       1110 10.91                             122    0.40 9  204 292 
 ZAR  HN ES       1110 36.17                             122    0.44 9  204 292 
 ZAR  HZ I        1110 42.46        21.0 0.32            122            204 292 
 SML  HZ EP       1110 14.12                             117   -0.44 8  242 335 
 SML  HE ES       1110 42.33                             117   -0.60 8  242 335 
 SML  HZ I        1110 47.34        19.2 0.26            118            242 335 
 CHI  HZ EP       1110 16.44                             116    0.46 8  251 195 
 CHI  HN ES       1110 44.90                             116   -0.57 8  251 195 
 CHI  HZ I        1110 50.01         4.1 0.24            118            251 195 
                                                                                
