 2010 1218 1926 20.7 L   6.772 -73.103137.2  RSN 10 0.5 2.4LRSN                1
 GAP=164        0.94       4.6     9.0  8.2 -0.9947E+01  0.1393E+02  0.6259E+01E
 Epicentro: LOS SANTOS - SANTANDER                                             3
 ACTION:UP  11-01-14 15:25 OP:pat  STATUS:               ID:20101218192620 L   I
 2010-12-18-1925-03S.COL___136                                                 6
 STAT SP IPHASW D HRMM SECON CODA AMPLIT PERI AZIMU VELO SNR AR TRES W  DIS CAZ7
 BAR2 SZ IP     C 1926 39.53                             170     0.310   22 204 
 BAR2 SZ I        1926 39.90        81.5 0.35                            22 204 
 BAR2 SZ ES   2   1926 53.48                             170    -0.2 5   22 204 
 GIR2 SZ EP   1   1926 38.68                             165    -0.8 7   35 344 
 GIR2 SZ ES   2   1926 53.21                             165    -0.9 5   35 344 
 BRR  HZ IP     D 1926 41.48                             149     0.210   77 299 
 BRR  HZ I        1926 41.89       127.2 0.13                            77 299 
 BRR  HE ES   2   1926 58.17                             149     0.9 5   77 299 
 RUS  HZ EP   1   1926 43.48                             143     0.1 7   97 179 
 RUS  HN ES   2   1927  1.35                             143     0.3 5   97 179 
 RUS  HZ I        1927  2.75        42.8 0.25                            97 179 
 GRA  SZ EP   1   1926 45.66                             135     0.4 7  127  15 
 GRA  SZ ES   2   1927  4.78                             135     0.3 5  127  15 
 GRA  SZ I        1927  6.41        43.0 0.31                           127  15 
 OCA  SZ EP   1   1926 48.49                             127    -0.2 7  164 352 
 OCA  SZ ES   2   1927  9.96                             127    -0.6 5  164 352 
 OCA  SZ I        1927 14.31        43.8 0.59                           164 352 
 NOR  SZ EP   1   1926 55.46                             116    -0.7 6  237 236 
 NOR  SN ES   2   1927 23.36                             116    -0.5 4  237 236 
 CHI  HZ EP   1   1926 57.88                             115     0.1 6  247 196 
 CHI  HE ES   2   1927 26.58                             115    -0.1 4  247 196 
 CHI  HZ I        1927 36.62         7.2 0.42                           247 196 
 HEL  HZ EP   1   1927  1.55                             113     0.7 6  276 257 
 HEL  HZ I        1927 39.40        12.5 0.24                           276 257 
 SJA  SZ EP   1   1927 14.14                             105    -0.6 4  398 194 
                                                                                
