 2016  918 1130 54.1 L   6.781 -73.111147.4  RSN  4 0.3 1.7LRSN                1
 GAP=164        0.75       7.3     4.2  5.9  0.1682E+01  0.6998E+01 -0.4370E+01E
 Epicentro: LOS SANTOS - SANTANDER                                             3
 ACTION:UPD 17-08-17 21:13 OP:lp   STATUS:               ID:20160918113054 L   I
 OLDACT:UP  16-09-18 23:51 OP:ar   STATUS:               ID:20160918112732     3
 OLDACT:REG 16-09-18 22:31 OP:ar   STATUS:               ID:20160918112732     3
 2016-09-18-1128-00M.COL___363                                                 6
 STAT SP IPHASW D HRMM SECON CODA AMPLIT PERI AZIMU VELO AIN AR TRES W  DIS CAZ7
 BAR2 EZ EP       1131 13.60                             171   -0.3510 22.3 201 
 BAR2 EZ ES       1131 29.49                             171    0.0910 22.3 201 
 BAR2 EZ I        1131 29.97         7.6 0.24            172           22.3 201 
 BRR  HZ EP       1131 15.98                             151    0.2610 75.5 299 
 BRR  HE ES       1131 32.68                             151    0.1410 75.5 299 
 BRR  HZ I        1131 32.97         9.3 0.26            147           75.5 299 
 PAM  EZ EP       1131 16.94                             151    0.4510 76.7  36 
 PAM  EN ES       1131 33.59                             151   -0.3310 76.7  36 
 PAM  EZ I        1131 35.36         7.6 0.30            150           76.7  36 
 ZAR  HZ EP       1131 26.83                             122   -0.31 8  208 292 
 ZAR  HN ES       1131 52.81                             122   -0.06 8  208 292 
 ZAR  HZ I        1132  0.91         6.1 0.18            121            208 292 
                                                                                
