 2016  418 1307 21.5 L   6.864 -73.327123.1  RSN 15 0.5 2.7LRSN                1
 GAP= 99        1.06       2.8     3.4  6.0 -0.1911E+01  0.9135E+01  0.9633E+00E
 Epicentro: BETULIA - SANTANDER                                                3
 ACTION:UPD 16-05-05 14:22 OP:rebc STATUS:               ID:20160418130721 L   I
 OLDACT:UP  16-04-19 10:44 OP:mh   STATUS:               ID:20160418125750     3
 OLDACT:UP  16-04-19 10:42 OP:mh   STATUS:               ID:20160418125750     3
 OLDACT:UP  16-04-19 10:42 OP:mh   STATUS:               ID:20160418125750     3
 OLDACT:ARG 16-04-18 20:49 OP:ar   STATUS:               ID:20160418125750     3
 2016-04-18-1257-50M.COL___303                                                 6
 STAT SP IPHASW D HRMM SECON CODA AMPLIT PERI AZIMU VELO AIN AR TRES W  DIS CAZ7
 BAR2 EZ EP       13 7 38.89                             164    0.2110 34.0 152 
 BAR2 EZ ES       13 7 51.81                             164   -0.3110 34.0 152 
 BAR2 EZ I        13 7 52.97       689.0 0.26            164           34.0 152 
 PAM  EZ EP       13 7 42.22                             143    0.2210 87.0  53 
 PAM  EN ES       13 7 58.64                             143    0.6210 87.0  53 
 PAM  EZ I        13 8  2.00        66.0 0.42            149           87.0  53 
 RUS  HZ EP       13 7 43.71                             136   -0.1910  111 166 
 RUS  HN ES       13 8  1.35                             136   -0.0510  111 166 
 RUS  HZ I        13 8  2.58        33.6 0.30            137            111 166 
 PTB  HZ EP     C 13 7 44.16                             130   -0.8110  130 254 
 PTB  HN ES       13 8  3.65                             130    0.3410  130 254 
 PTB  HZ I        13 8  5.50       100.2 0.40            128            130 254 
 OCA  HZ EP       13 7 46.95                             125   -0.34 9  152   0 
 OCA  HN ES       13 8  6.77                             125   -0.67 9  152   0 
 OCA  HZ I        13 8 12.39       163.0 0.24            128            152   0 
 SPBC HZ EP       13 7 47.42                             124   -0.31 9  157 212 
 SPBC HN ES       13 8  8.01                             124   -0.22 9  157 212 
 SPBC HZ I        13 8 13.61        65.3 0.20            124            157 212 
 ZAR  HZ EP       13 7 50.63                             120    0.37 9  183 292 
 ZAR  HN ES       13 8 13.49                             120    0.76 9  183 292 
 ZAR  HZ I        13 8 15.34        69.9 0.16            119            183 292 
 NOR  HZ EP       13 7 54.32                             115   -0.38 8  223 230 
 NOR  HN ES       13 8 20.73                             115    0.11 8  223 230 
 NOR  HZ I        13 8 28.13        30.0 0.32            114            223 230 
 CHI  HZ EP       13 7 58.88                             112    0.59 8  251 190 
 CHI  HN ES       13 8 26.97                             112   -0.04 8  251 190 
 CHI  HZ I        13 8 36.75        10.7 0.48            112            251 190 
 HEL  HZ EP   1   13 7 57.92                             111   -0.72 6  255 253 
 HEL  HN ES       13 8 27.38                             111   -0.25 8  255 253 
 HEL  HZ I        13 8 33.68        26.6 0.24            111            255 253 
 URE  HZ EP   4   13 7 58.23                             110   -0.86 0  263 292 
 URE  HN ES   4   13 8 27.05                             110   -1.40 0  263 292 
 URE  HZ I        13 8 28.74        39.4 0.20            111            263 292 
 GUY2CHZ EP   1   13 8  3.25                             108    0.49 5  289 231 
 GUY2CHN ES   4   13 8 32.73                             108   -2.24 0  289 231 
 GUY2CHZ I        13 8 42.29        24.3 0.42                           289 231 
 CBOC HZ EP       13 8  6.23                             106    0.64 7  317 250 
 CBOC HN ES       13 8 39.50                             106   -0.50 7  317 250 
 CBOC HZ I        13 9 13.85        39.1 0.36            106            317 250 
 ORTC HZ EP       13 8 14.96                             102    0.93 6  390 213 
 ORTC HN ES       13 8 55.17                             102    0.13 6  390 213 
 ORTC HZ I        13 9  3.15         6.3 0.44            103            390 213 
 PAL  HZ EP       13 8 13.80                             102   -0.58 6  392 237 
 PAL  HN ES       13 8 56.35                             102    0.69 6  392 237 
 PAL  HZ I        13 9  0.28         9.8 0.34            103            392 237 
 CRJC HZ EP   4   13 8 22.28                             100   -0.49 0  462   6 
 CRJC HN ES   4   13 9  9.07                             100   -1.51 0  462   6 
                                                                                
