 2016  318 1208 25.6 L   6.800 -73.099134.5  RSN  6 0.2 1.7LRSN                1
 GAP=143        0.55       2.7     2.6  4.5 -0.9406E+00  0.5008E+01 -0.4935E+00E
 Epicentro: LOS SANTOS - SANTANDER                                             3
 ACTION:UPD 16-05-13 21:25 OP:cam  STATUS:               ID:20160318120825 L   I
 OLDACT:REG 16-03-18 20:46 OP:cara STATUS:               ID:20160318120752     3
 2016-03-18-1207-52M.COL___321                                                 6
 STAT SP IPHASW D HRMM SECON CODA AMPLIT PERI AZIMU VELO AIN AR TRES W  DIS CAZ7
 BAR2 EZ IP       12 8 43.79                             169   -0.0810 24.8 202 
 BAR2 EZ I        12 8 44.06        17.6 0.10            168           24.8 202 
 BAR2 EZ ES       12 8 58.40                             169    0.2510 24.8 202 
 PAM  EZ IP       12 8 46.72                             150    0.3310 74.2  36 
 PAM  EZ I        12 8 46.88        14.5 0.24            152           74.2  36 
 PAM  EN ES       12 9  2.27                             150   -0.3610 74.2  36 
 RUS  HZ EP       12 8 48.01                             141   -0.1910  100 179 
 RUS  HN ES       12 9  5.96                             141    0.0910  100 179 
 RUS  HZ I        12 9  7.24         4.6 0.22            143            100 179 
 PTB  HZ EP       12 8 52.19                             128    0.08 9  153 259 
 PTB  HE ES       12 9 12.71                             128   -0.11 9  153 259 
 PTB  HZ I        12 9 17.50         7.2 0.14            128            153 259 
 ZAR  HZ EP   2   12 8 58.06                             119    0.26 4  209 292 
 ZAR  HN ES       12 9 23.01                             119    0.06 8  209 292 
 ZAR  HZ I        12 9 27.71         8.0 0.28            119            209 292 
 GUY2CHE ES       12 9 42.96                             110   -0.20 7  305 235 
 GUY2CHZ I        12 9 50.34         2.3 0.40                           305 235 
                                                                                
