 2012  518 1637  7.2 L   6.759 -73.147148.7  RSN  7 0.4 1.8LRSN                1
 GAP=138        0.83       5.4     6.1  7.5  0.6770E+01  0.1176E+02  0.8405E+01E
 Epicentro: LOS SANTOS - SANTANDER                                             3
 ACTION:UP  12-07-05 12:06 OP:pat  STATUS:               ID:20120518163707 L   I
 2012-05-18-1630-00M.COL___200                                                 6
 STAT SP IPHASW D HRMM SECON CODA AMPLIT PERI AZIMU VELO SNR AR TRES W  DIS CAZ7
 BAR2 SZ EP   1   1637 27.17                             172     0.1 7   19 192 
 BAR2 SZ ES   1   1637 42.22                             172    -0.4 7   19 192 
 BAR2 SZ I        1637 43.93        21.0 0.25                            19 192 
 BRR  HZ EP   1   1637 29.06                             152     0.3 7   73 302 
 BRR  HN ES   1   1637 46.35                             152     0.7 7   73 302 
 PAM  SZ EP   1   1637 30.08                             150     0.1 7   81  38 
 PAM  SN ES   1   1637 47.43                             150    -0.3 7   81  38 
 RUS  HZ EP   1   1637 30.81                             146    -0.1 7   96 176 
 RUS  HN ES   1   1637 49.48                             146     0.1 7   96 176 
 RUS  HZ I        1637 51.10         4.5 0.23                            96 176 
 PTB  HZ EP   1   1637 33.81                             133    -0.5 7  147 261 
 PTB  HZ I        1638  1.06        11.0 0.41                           147 261 
 ZAR  HE ES   1   1638  5.16                             123    -0.4 6  206 293 
 CHI  HZ EP   1   1637 44.98                             118     0.4 6  244 195 
 CHI  HZ I        1637 45.17         3.3 0.43                           244 195 
                                                                                
