 2017  318 1950  6.2 L   6.732 -73.151134.0  RSN  4 0.3 1.2LRSN                1
 GAP=139        0.57       3.6     3.6  5.9 -0.5042E+01  0.5594E+01 -0.5178E+01E
 Epicentro: LOS SANTOS - SANTANDER                                             3
 ACTION:UPD 17-05-25 18:42 OP:jn   STATUS:               ID:20170318195006 L   I
 OLDACT:REG 17-03-18 23:12 OP:dnl  STATUS:               ID:20170318194747     3
 2017-03-18-1948-00M.COL___403                                                 6
 STAT SP IPHASW D HRMM SECON CODA AMPLIT PERI AZIMU VELO AIN AR TRES W  DIS CAZ7
 BAR2 EZ EP   2   1950 24.26                             173   -0.05 5 15.8 193 
 BAR2 EZ ES       1950 38.72                             173    0.3110 15.8 193 
 BAR2 EZ I        1950 40.46         6.5 0.26            172           15.8 193 
 PAM  EZ IP     C 1950 27.46                             147   -0.1610 83.7  37 
 PAM  EN ES       1950 44.29                             147   -0.0210 83.7  37 
 PAM  EZ I        1950 45.78         2.3 0.20            149           83.7  37 
 RUS  HZ EP   2   1950 28.97                             144    0.68 5 93.1 175 
 RUS  HN ES       1950 45.25                             144   -0.2410 93.1 175 
 RUS  HZ I        1950 48.04         2.2 0.54            145           93.1 175 
 PTB  HZ EP   2   1950 32.30                             130    0.21 5  146 262 
 PTB  HN ES       1950 52.16                             130   -0.10 9  146 262 
 PTB  HZ I        1950 54.38         2.8 0.14            131            146 262 
                                                                                
