 2010  218 1409 28.6 L   6.400 -73.360 21.2  RSN  4 0.3 1.8LRSN                1
 GAP=113        0.59       3.6    25.6 35.3  0.7432E+02  0.8970E+03  0.1043E+03E
 Epicentro: CHIMA - SANTANDER                                                  3
 ACTION:UP  10-08-24 09:49 OP:vdl  STATUS:               ID:20100218140929dL   I
 2010-02-18-1400-00S.COL___096                                                 6
 STAT SP IPHASW D HRMM SECON CODA AMPLIT PERI AZIMU VELO SNR AR TRES W  DIS CAZ7
 BAR2 SZ IP       14 9 34.91                             122     0.310   29  43 
 BAR2 SZ ES   1   14 9 39.02                             122    -0.3 7   29  43 
 RUS  BZ EP       14 9 39.96                             105     0.210   64 151 
 RUS  BE ES   2   14 9 47.98                             105    -0.5 5   64 151 
 RUS  BZ I        14 9 48.68        41.5 0.10                            64 151 
 GIR2 SZ EP       14 9 41.45                             102     0.110   77  14 
 GIR2 SZ ES   2   14 9 50.89                             102    -0.4 5   77  14 
 HEL  HZ EP       1410  2.83                              56    -0.1 8  241 265 
 HEL  HE ES   1   1410 29.66                              56    -0.1 6  241 265 
                                                                                
