 2010  318 1715 18.7 L   6.849 -72.985137.2  RSN  4 0.2 1.7LRSN                1
 GAP=199        0.42       4.0     9.9  7.0  0.1967E+02 -0.2321E+02 -0.1156E+02E
 Epicentro: CEPITA - SANTANDER                                                 3
 ACTION:UP  10-08-24 09:54 OP:vdl  STATUS:               ID:20100318171518 L   I
 2010-03-18-1712-55S.COL___098                                                 6
 STAT SP IPHASW D HRMM SECON CODA AMPLIT PERI AZIMU VELO SNR AR TRES W  DIS CAZ7
 BAR2 SZ EP   2   1715 37.23                             165    -0.4 5   36 218 
 BAR2 SZ ES   2   1715 52.59                             165     0.1 5   36 218 
 BRR  HZ IP       1715 39.83                             146     0.010   85 290 
 BRR  HZ I        1715 48.27        14.2 0.34                            85 290 
 BRR  HN ES   2   1715 56.42                             146     0.1 5   85 290 
 RUS  HZ EP   2   1715 42.34                             140     0.2 5  106 186 
 RUS  HE ES   2   1716  0.28                             140     0.0 5  106 186 
 RUS  HZ I        1716  1.82         2.6 0.40                           106 186 
 OCA  SZ EP   2   1715 46.48                             128     0.3 5  158 347 
 OCA  SZ ES   2   1716  7.48                             128    -0.1 5  158 347 
 OCA  SZ I        1716  9.48        14.5 0.04                           158 347 
                                                                                
