 2016 1118 1305 54.4 L   6.820 -73.129150.8  RSN 11 0.4 2.1LRSN                1
 GAP=154        0.84       3.2     3.9  4.6 -0.2459E+01  0.3067E+01  0.4822E+01E
 Epicentro: LOS SANTOS - SANTANDER                                             3
 ACTION:UPD 17-10-26 21:09 OP:lp   STATUS:               ID:20161118130554 L   I
 OLDACT:UP  16-11-18 22:59 OP:edw  STATUS:               ID:20161118125746d    3
 OLDACT:DUP 16-11-18 22:54 OP:edw  STATUS:               ID:20161118125746d    3
 OLDACT:UP  16-11-18 22:51 OP:edw  STATUS:               ID:20161118125745d    3
 OLDACT:UP  16-11-18 22:47 OP:edw  STATUS:               ID:20161118125745d    3
 OLDACT:DUP 16-11-18 22:41 OP:edw  STATUS:               ID:20161118125745d    3
 2016-11-18-1258-00M.COL___337                                                 6
 STAT SP IPHASW D HRMM SECON CODA AMPLIT PERI AZIMU VELO AIN AR TRES W  DIS CAZ7
 BAR2 EZ EP       13 6 14.47                             170   -0.1810 25.9 193 
 BAR2 EZ ES       13 6 30.16                             170   -0.3110 25.9 193 
 BAR2 EZ I        13 6 32.29        40.8 0.30            168           25.9 193 
 BRR  HZ IP     D 13 6 16.33                             153    0.2410 71.8 296 
 BRR  HN ES       13 6 33.30                             153    0.2610 71.8 296 
 BRR  HZ I        13 6 37.34        21.1 0.34            151           71.8 296 
 PAM  EZ EP       13 6 17.41                             152    0.4710 74.4  40 
 PAM  EN ES       13 6 34.35                             152   -0.2110 74.4  40 
 PAM  EZ I        13 6 36.63        14.6 0.54            156           74.4  40 
 PTB  HZ EP   9   13 6 21.34                             132   -0.61 0  150 258 
 PTB  HN ES       13 6 42.20                             134   -0.66 9  150 258 
 PTB  HZ I        13 6 44.93        10.6 0.15            131            150 258 
 ZAR  HZ EP       13 6 27.66                             123    0.43 9  205 291 
 ZAR  HN ES       13 6 52.70                             123   -0.17 9  205 291 
 ZAR  HZ I        13 6 57.69        11.9 0.30            123            205 291 
 NOR  HZ EP       13 6 30.70                             119    0.01 8  238 234 
 NOR  HN ES       13 6 59.15                             119    0.13 8  238 234 
 NOR  HZ I        13 7  7.84         9.1 0.46            119            238 234 
 CHI  HZ EP       13 6 32.88                             118    0.25 8  251 195 
 CHI  HN ES       13 7  2.16                             118   -0.32 8  251 195 
 CHI  HZ I        13 7  5.56         8.0 0.52            118            251 195 
 URE  HN ES   4   13 7  5.22                             114   -2.87 0  285 291 
 ELA  HN ES   4   13 7 20.05                             111    1.32 0  332 229 
 PRA  HZ EP       13 6 48.42                             107    0.03 6  395 210 
 PRA  HN ES       13 7 30.26                             107   -0.28 6  395 210 
 PRA  HZ I        13 7 36.57         7.5 0.68            108            395 210 
 ORTC HZ EP       13 6 48.82                             107    0.02 6  398 216 
 ORTC HN ES       13 7 31.19                             107   -0.07 6  398 216 
 ORTC HZ I        13 7 35.88         4.8 0.26            107            398 216 
 SJC  HZ EP       13 6 48.67                             106   -1.32 6  408 327 
 SJC  HN ES   4   13 7 30.03                             106   -3.36 0  408 327 
 SJC  HZ I        13 7 38.44         2.4 0.44            107            408 327 
 CRJC HZ EP   9   13 6 54.97                             104   -1.76 0  465   3 
 CRJC HN ES       13 7 43.21                                   -0.40 5  465   3 
                                                                                
