 2012 1218 1620 53.8 L   6.802 -73.177138.4  RSN  6 0.3 1.5LRSN                1
 GAP=133        0.64       4.1     3.7  6.5 -0.2305E+01  0.9746E+01  0.3183E+00E
 Epicentro: LOS SANTOS - SANTANDER                                             3
 ACTION:UPD 13-01-04 14:28 OP:ep   STATUS:               ID:20121218162053 L   I
 2012-12-18-1620-00M.COL___242                                                 6
 STAT SP IPHASW D HRMM SECON CODA AMPLIT PERI AZIMU VELO AIN AR TRES W  DIS CAZ7
 BAR2 SZ EP   1   1621 12.53                             170   -0.01 7 23.2 182 
 BAR2 SZ ES   1   1621 26.55                             170   -0.61 7 23.2 182 
 BAR2 SZ I        1621 29.59         9.5 0.16                          23.2 182 
 PAM  SZ EP   1   1621 15.39                             149    0.03 7 79.4  42 
 PAM  SN ES   1   1621 32.34                             149    0.16 7 79.4  42 
 PAM  SZ I        1621 36.81         2.9 0.18                          79.4  42 
 RUS  HZ EP   1   1621 16.88                             142    0.01 7  101 174 
 RUS  HE ES   1   1621 35.39                             142    0.53 7  101 174 
 RUS  HZ I        1621 38.62         3.2 0.38                           101 174 
 PTB  HZ EP   1   1621 19.40                             131   -0.47 7  144 258 
 PTB  HN ES   1   1621 40.23                             131    0.03 7  144 258 
 PTB  HZ I        1621 44.05         4.4 0.13                           144 258 
 ZAR  HN ES   1   1621 50.56                             121    0.45 6  201 292 
 ZAR  HZ I        1621 57.48         6.6 0.26                           201 292 
 NOR  HZ EP   1   1621 28.76                             117   -0.07 6  232 234 
 NOR  HN ES   1   1621 56.15                             117    0.01 6  232 234 
 NOR  HZ I        1622  4.44         2.9 0.32                           232 234 
                                                                                
