 2011 1118 1104 55.1 L   6.792 -73.101142.0  RSN  4 0.3 1.7LRSN                1
 GAP=143        0.51       4.7     6.1  6.9  0.2563E+01 -0.1021E+02  0.3086E+01E
 Epicentro: LOS SANTOS - SANTANDER                                             3
 ACTION:UPD 12-07-13 16:11 OP:ep   STATUS:               ID:20111118110455 L   I
 2011-11-18-1102-28S.COL___177                                                 6
 STAT SP IPHASW D HRMM SECON CODA AMPLIT PERI AZIMU VELO AIN AR TRES W  DIS CAZ7
 BAR2 SZ EP   2   11 5 14.28                             170   -0.05 5 23.8 202 
 BAR2 SZ ES   2   11 5 28.69                             170   -0.61 5 23.8 202 
 PAM  SZ EP   1   11 5 16.88                             151    0.06 7 75.0  36 
 PAM  SN ES   2   11 5 33.83                             151    0.10 5 75.0  36 
 BRR  HZ EP   1   11 5 15.82                             150   -0.35 7 76.0 297 
 BRR  HN ES   1   11 5 32.87                             150    0.30 7 76.0 297 
 BRR  HZ I        11 5 39.03        10.0 0.40                          76.0 297 
 RUS  HZ EP   1   11 5 18.62                             143    0.18 7 99.4 179 
 RUS  HN ES   2   11 5 36.77                             143    0.15 5 99.4 179 
                                                                                
