 2012  318 1049 51.6 L   6.758 -73.140144.0  RSN  9 0.4 2.2LRSN                1
 GAP=139        0.90       5.1     4.8  6.9  0.3513E+00  0.1035E+02  0.5256E+01E
 ACTION:UP  12-03-31 23:20 OP:EP   STATUS:               ID:20120318104951 L   I
 2012-03-18-1050-00M.COL___199                                                 6
 STAT SP IPHASW D HRMM SECON CODA AMPLIT PERI AZIMU VELO SNR AR TRES W  DIS CAZ7
 BAR2 SZ EP       1050 10.94                             172     0.010   19 194 
 BAR2 SZ ES   1   1050 26.15                             172     0.1 7   19 194 
 BAR2 SZ I        1050 27.24        33.2 0.18                            19 194 
 BRR  HZ EP       1050 12.78                             151     0.110   74 301 
 BRR  HN ES   1   1050 29.90                             151     0.7 7   74 301 
 BRR  HZ I        1050 32.14        36.3 0.11                            74 301 
 PAM  SZ EP   1   1050 13.72                             150    -0.1 7   81  37 
 PAM  SE ES   1   1050 30.76                             150    -0.4 7   81  37 
 RUS  HZ EP       1050 14.85                             145     0.010   96 176 
 RUS  HE ES   1   1050 33.12                             145     0.2 7   96 176 
 RUS  HZ I        1050 34.58        12.1 0.31                            96 176 
 PTB  HZ EP   1   1050 17.67                             132    -0.7 7  148 261 
 PTB  HN ES   1   1050 38.68                             132    -0.6 7  148 261 
 PTB  HZ I        1050 43.45        14.0 0.16                           148 261 
 ZAR  HZ EP   1   1050 23.72                             122    -0.4 6  206 293 
 ZAR  HE ES   1   1050 49.96                             122     0.4 6  206 293 
 ZAR  HZ I        1050 54.97        19.1 0.54                           206 293 
 NOR  SZ EP   1   1050 27.11                             118     0.1 6  233 235 
 NOR  SE ES   1   1050 54.23                             118    -0.4 6  233 235 
 HEL  HZ EP   1   1050 32.37                             115     0.7 6  272 257 
 HEL  HZ I        1051  9.88        13.2 0.27                           272 257 
 PRA  HZ EP   1   1050 45.14                             106     0.5 4  388 210 
                                                                                
