 2017 1118 1010 57.7 L   6.834 -73.145150.2  RSN  7 0.6 2.0LRSN                1
 GAP=147        1.15       6.9     6.9  9.0 -0.9110E+01  0.2340E+02 -0.3529E+02E
 Epicentro: LOS SANTOS - SANTANDER                                             3
 ACTION:UPD 17-12-12 19:56 OP:rebc STATUS:               ID:20171118101057 L   I
 OLDACT:UP  17-11-20 19:09 OP:nlst STATUS:               ID:20171118101057 L   3
 OLDACT:UP  17-11-18 21:18 OP:lv   STATUS:               ID:20171118100738d    3
 OLDACT:DUP 17-11-18 21:03 OP:lv   STATUS:               ID:20171118100738d    3
 2017-11-18-1008-00M.COL___458                                                 6
 STAT SP IPHASW D HRMM SECON CODA AMPLIT PERI AZIMU VELO AIN AR TRES W  DIS CAZ7
 BAR2 EZ EP       1011 17.95                             169   -0.0210 27.0 189 
 BAR2 EZ ES       1011 33.29                             169   -0.4710 27.0 189 
 BAR2 EZ I        1011 35.59        21.6 0.34            171           27.0 189 
 PAM  EZ EP       1011 20.77                             152    0.5210 74.5  41 
 PAM  EN ES       1011 37.74                             152   -0.0810 74.5  41 
 PAM  EZ I        1011 40.04        17.2 0.44            155           74.5  41 
 ZAR  HZ EP       1011 31.19                             123    0.86 9  203 291 
 ZAR  HN ES       1011 55.57                             123   -0.19 9  203 291 
 ZAR  HZ I        1012  1.59         7.2 0.18            124            203 291 
 DRL03HZ EP       1011 38.79                             114   -0.35 7  285 353 
 DRL03HN ES       1012 12.37                             114    0.93 7  285 353 
 DRL02HZ EP       1011 43.23                             111    0.04 7  321 358 
 DRL02HN ES       1012 18.00                             111   -0.66 7  321 358 
 SJC  HZ EP       1011 52.34                             106   -0.74 6  406 327 
 SJC  HN ES   4   1012 31.92                             106   -4.33 0  406 327 
 SJC  HZ I        1012 40.72         1.2 0.25            108            406 327 
 CRJC HZ EP       1011 58.94                             104   -0.97 5  464   4 
 CRJC HN ES   4   1012 44.51                             104   -3.90 0  464   4 
 CRJC HZ I        1012 50.39         5.9 0.50            106            464   4 
                                                                                
