 2010  918 1811 15.7 L   6.755 -73.130146.3  RSN  5 0.3 1.6LRSN                1
 GAP=161        0.65       4.9    10.7  9.1 -0.2515E+01 -0.2903E+02 -0.9978E+01E
 Epicentro: LOS SANTOS - SANTANDER                                             3
 ACTION:UP  11-02-18 11:03 OP:tino STATUS:               ID:20100918181115 L   I
 2010-09-18-1810-47S.COL___121                                                 6
 STAT SP IPHASW D HRMM SECON CODA AMPLIT PERI AZIMU VELO SNR AR TRES W  DIS CAZ7
 BAR2 SZ EP   1   1811 35.17                             172    -0.1 7   19 198 
 BAR2 SZ ES   2   1811 50.08                             172    -0.5 5   19 198 
 BAR2 SZ I        1811 51.85        11.4 0.18                            19 198 
 BRR  HZ EP   1   1811 37.09                             151     0.0 7   75 301 
 BRR  HE ES   2   1811 54.11                             151     0.3 5   75 301 
 BRR  HZ I        1811 56.28        10.6 0.63                            75 301 
 RUS  HZ EP   1   1811 39.23                             145     0.1 7   95 177 
 RUS  HE ES   2   1811 57.67                             145     0.3 5   95 177 
 RUS  HZ I        1811 59.05         3.8 0.33                            95 177 
 GUE  SZ EP   1   1811 40.31                             138    -0.5 7  121  11 
 GRA  SZ EP   1   1811 41.69                             136     0.4 7  130  16 
 GRA  SZ ES   2   1812  1.64                             136     0.3 5  130  16 
 GRA  SZ I        1812  3.05         6.4 0.20                           130  16 
                                                                                
