 2013  518 1220 21.8 L   6.824 -73.147149.6  RSN  8 0.5 1.8LRSN                1
 GAP=186        1.14       4.7     8.3  9.2  0.4759E+01  0.2019E+02  0.5141E+01E
 Epicentro: LOS SANTOS - SANTANDER                                             3
 ACTION:UPD 13-06-20 09:51 OP:ep   STATUS:               ID:20130518122021 L   I
 2013-05-18-1220-00M.COL___256                                                 6
 STAT SP IPHASW D HRMM SECON CODA AMPLIT PERI AZIMU VELO AIN AR TRES W  DIS CAZ7
 BAR2 SZ EP       1220 42.00                             170    0.0210 26.0 189 
 BAR2 SZ ES   1   1220 57.45                             170   -0.24 7 26.0 189 
 BAR2 SZ I        1220 59.62        12.5 0.28            167           26.0 189 
 GIR2 SZ EP   1   1220 42.56                             169    0.67 7 28.6 350 
 GIR2 SZ ES   1   1220 56.69                             169   -0.85 7 28.6 350 
 GIR2 SZ I        1220 58.99        11.0 0.42            168           28.6 350 
 BRR  HZ EP       1220 43.92                             154    0.6010 69.8 297 
 BRR  HN ES   1   1221  1.32                             154    1.24 7 69.8 297 
 BRR  HZ I        1221  6.25        12.7 0.18            151           69.8 297 
 RUS  HZ EP   1   1220 45.85                             144   -0.30 7  103 176 
 RUS  HE ES   1   1221  4.91                             144   -0.21 7  103 176 
 RUS  HZ I        1221  7.63         4.2 0.18            146            103 176 
 PTB  HZ EP   1   1220 48.90                             133   -0.25 7  148 258 
 PTB  HN ES   1   1221 10.26                             133   -0.19 7  148 258 
 PTB  HZ I        1221 15.88        14.7 0.22            133            148 258 
 NOR  HZ EP   1   1220 58.01                             119    0.07 6  236 234 
 NOR  HN ES   1   1221 25.72                             119   -0.38 6  236 234 
 NOR  HZ I        1221 29.74         7.0 0.22            121            236 234 
 SML  HE ES       1221 26.18                             118   -0.75 8  241 335 
 CHI  HN ES       1221 29.82                             118    0.01 8  251 195 
                                                                                
