 2013  318 1231 38.1 L   6.745 -73.164144.0  RSN  4 0.2 1.7LRSN                1
 GAP=231        0.62       5.4     5.7  5.1  0.1765E+02  0.4651E+01  0.3018E+01E
 Epicentro: VILLANUEVA - SANTANDER                                             3
 ACTION:UPD 13-04-09 14:03 OP:ep   STATUS:               ID:20130318123138 L   I
 2013-03-18-1230-00M.COL___243                                                 6
 STAT SP IPHASW D HRMM SECON CODA AMPLIT PERI AZIMU VELO AIN AR TRES W  DIS CAZ7
 BAR2 SZ EP       1231 57.03                             173   -0.3510 17.0 187 
 BAR2 SZ ES       1232 12.33                             173   -0.1110 17.0 187 
 BAR2 SZ I        1232 13.53        10.5 0.10            166           17.0 187 
 BRR  HZ EP   1   1231 58.92                             152   -0.19 7 72.6 304 
 BRR  HE ES       1232 15.81                             152    0.2910 72.6 304 
 BRR  HE I        1232 16.53        16.5 0.28            150           72.6 304 
 RUS  HZ EP       1232  1.51                             145    0.2810 94.7 175 
 RUS  HN ES       1232 19.33                             145    0.0410 94.7 175 
 RUS  HN I        1232 21.45         7.3 0.30            143           94.7 175 
 PTB  HZ EP       1232  4.75                             132    0.14 9  145 261 
 PTB  HN ES   1   1232 24.99                             132   -0.33 7  145 261 
 PTB  HN I        1232 29.86         4.9 0.62            130            145 261 
                                                                                
