 2015  218 1032 25.4 L   6.237 -73.569 32.0  RSN 13 0.5 1.8LRSN                1
 GAP= 78        1.18       2.1     2.9 14.7 -0.1830E+01  0.2554E+02 -0.2914E+01E
 Epicentro: LA PAZ - SANTANDER                                                 3
 ACTION:UPD 15-04-30 21:27 OP:nd   STATUS:               ID:20150218103225 L   I
 OLDACT:REG 15-02-18 20:57 OP:fm   STATUS:               ID:20150218102743     3
 2015-02-18-1027-43M.COL___290                                                 6
 STAT SP IPHASW D HRMM SECON CODA AMPLIT PERI AZIMU VELO AIN AR TRES W  DIS CAZ7
 BAR2 EZ IPg    D 1032 36.33                             103    0.3310 58.1  47 
 BAR2 EZ ESg      1032 44.37                             103    0.1410 58.1  47 
 BAR2 EZ I        1032 46.42       109.2 0.20            105           58.1  47 
 RUS  HZ EP       1032 36.98                              99   -0.2610 65.9 125 
 RUS  HE ES       1032 45.91                              99   -0.5310 65.9 125 
 RUS  HZ I        1032 47.39        21.6 0.30            104           65.9 125 
 SPBC HZ EP       1032 40.42                              95    1.2310 85.3 221 
 SPBC HE ES       1032 50.38                              95    0.4610 85.3 221 
 SPBC HZ I        1032 54.02        77.8 0.20            101           85.3 221 
 BRR  HZ EP       1032 40.82                              93    0.2110 97.6 351 
 BRR  HE ES       1032 52.07                              93   -0.3710 97.6 351 
 BRR  HZ I        1032 56.86        18.0 0.12             99           97.6 351 
 PTB  HZ EP       1032 41.16                              93   -0.2410  104 289 
 PTB  HN ES       1032 53.28                              93   -0.5710  104 289 
 PTB  HZ I        1032 53.75        36.3 0.14             99            104 289 
 PAM  SZ EP       1032 48.76                              92    0.35 9  155  38 
 PAM  SE ES       1033  6.75                              92    0.42 9  155  38 
 PAM  SZ I        1033  9.93         6.8 0.18             56            155  38 
 NOR  HN ES       1033  6.78                              92   -0.13 9  162 243 
 NOR  HZ I        1033 11.72        11.9 0.12             56            162 243 
 CHI  HZ EP       1032 50.84                              91   -0.40 9  179 186 
 CHI  HN ES       1033 10.61                              91   -0.75 9  179 186 
 CHI  HZ I        1033 20.27         2.8 0.62             56            179 186 
 OCA  HN ES       1033 20.08                              81   -0.63 8  223   7 
 OCA  HZ I        1033 32.57         7.6 0.34             56            223   7 
 GUY2CHZ EP       1032 57.86                              81    0.34 8  228 241 
 GUY2CHE ES       1033 22.38                              81   -0.17 8  228 241 
 GUY2CHZ I        1033 25.83         5.0 0.28                           228 241 
 RREF HZ EP       1033  0.54                              81    0.58 8  246 233 
 RREF HE ES       1033 27.10                              81    0.21 8  246 233 
 RREF HZ I        1033 29.51         5.7 0.20             56            246 233 
 TOL  SZ EP       1033  1.76                              81   -0.34 8  266 227 
 TOL  SN ES       1033 30.51                              81   -0.19 8  266 227 
 TOL  SZ I        1033 37.03         3.1 0.22             56            266 227 
 URE  HZ EP       1033  3.11                              81    0.45 8  274 308 
 URE  HN ES       1033 31.37                              81   -0.32 8  274 308 
 URE  HZ I        1033 35.16         4.7 0.26             55            274 308 
                                                                                
