 2011  518 1022 56.5 L   6.775 -73.069150.2  RSN  7 0.4 1.5LRSN                1
 GAP=148        0.85       5.1     9.9 11.4 -0.1870E+00 -0.2637E+02  0.7619E+01E
 Epicentro: LOS SANTOS - SANTANDER                                             3
 ACTION:UP  11-06-29 08:54 OP:tino STATUS:               ID:20110518102256 L   I
 2011-05-18-1021-01S.COL___141                                                 6
 STAT SP IPHASW D HRMM SECON CODA AMPLIT PERI AZIMU VELO SNR AR TRES W  DIS CAZ7
 BAR2 SZ EP       1023 16.49                             170    -0.210   24 212 
 BAR2 SZ I        1023 33.23         6.9 0.35                            24 212 
 BTL  SZ EP   2   1023 16.12                             169    -0.6 5   27 306 
 GIR2 SZ ES   3   1023 33.19                             166     0.5 2   36 338 
 PAM  SZ EP   1   1023 19.58                             152     0.6 7   75  33 
 BRR  HZ EP       1023 18.36                             150    -0.310   80 297 
 BRR  HZ I        1023 18.60         9.7 0.22                            80 297 
 BRR  HN ES   1   1023 36.22                             150     0.3 7   80 297 
 RUS  HZ EP       1023 20.81                             145     0.310   98 181 
 RUS  HN ES   1   1023 38.91                             145    -0.3 7   98 181 
 RUS  HZ I        1023 39.91         3.9 0.39                            98 181 
 GRA  SZ ES   1   1023 41.86                             138    -0.3 7  126  13 
                                                                                
