 2013  318 1152  8.5 L   6.750 -73.152145.9  RSN  7 0.4 2.1LRSN                1
 GAP=138        1.04       4.6     5.0  7.8 -0.4743E+00  0.1114E+02 -0.2506E+01E
 Epicentro: LOS SANTOS - SANTANDER                                             3
 ACTION:UPD 13-04-09 14:03 OP:ep   STATUS:               ID:20130318115208 L   I
 2013-03-18-1150-00M.COL___243                                                 6
 STAT SP IPHASW D HRMM SECON CODA AMPLIT PERI AZIMU VELO AIN AR TRES W  DIS CAZ7
 BAR2 SZ EP       1152 28.06                             173   -0.0110 17.7 191 
 BAR2 SZ ES   1   1152 43.07                             173   -0.25 7 17.7 191 
 BAR2 SZ I        1152 44.31        30.9 0.24            171           17.7 191 
 BRR  HZ EP       1152 29.86                             152    0.0410 73.5 303 
 BRR  HE ES   1   1152 47.47                             152    1.04 7 73.5 303 
 BRR  HE I        1152 50.51        32.4 0.18            149           73.5 303 
 PAM  SZ IP     C 1152 30.96                             149   -0.0910 82.2  37 
 PAM  SN ES       1152 48.37                             149   -0.2410 82.2  37 
 PAM  SN I        1152 49.04        14.8 0.44            154           82.2  37 
 RUS  HZ EP       1152 32.03                             145    0.1310 95.1 175 
 RUS  HN ES       1152 50.41                             145    0.2810 95.1 175 
 RUS  HN I        1152 52.30        14.2 0.38            148           95.1 175 
 PTB  HZ EP       1152 34.88                             132   -0.48 9  146 261 
 PTB  HN ES       1152 55.60                             132   -0.69 9  146 261 
 PTB  HN I        1153  1.06        21.5 0.24            132            146 261 
 OCA  HN ES   1   1152 59.55                             129   -0.31 7  166 354 
 ZAR  HZ EP       1152 41.92                             122    0.78 8  206 294 
 ZAR  HN ES   1   1153  6.71                             122    0.13 6  206 294 
 ZAR  HN I        1153 13.50        15.0 0.14            123            206 294 
                                                                                
