 2011  318 1756 37.5 L   6.806 -73.178136.0  RSN  8 0.3 2.1LRSN                1
 GAP=155        0.82       3.4     8.6  7.9 -0.1382E+02  0.1800E+02 -0.3886E+01E
 Epicentro: LOS SANTOS - SANTANDER                                             3
 ACTION:UP  11-06-16 14:34 OP:jfem STATUS:               ID:20110318175637 L   I
 2011-03-18-1752-52S.COL___135                                                 6
 STAT SP IPHASW D HRMM SECON CODA AMPLIT PERI AZIMU VELO SNR AR TRES W  DIS CAZ7
 BTL  SZ EP       1756 56.26                             173     0.410   16 321 
 BAR2 SZ EP       1756 56.14                             170     0.110   24 182 
 BAR2 SZ ES   1   1757 10.66                             170     0.2 7   24 182 
 BAR2 SZ I        1757 12.30        45.7 0.27                            24 182 
 GIR2 SZ EP       1756 56.24                             167     0.210   30 357 
 RUS  HZ EP   1   1757  0.37                             141    -0.1 7  102 174 
 RUS  HN ES   1   1757 17.69                             141    -0.6 7  102 174 
 RUS  HZ I        1757 20.02        19.1 0.40                           102 174 
 GRA  SZ EP       1757  2.17                             135     0.210  126  19 
 GRA  SZ ES   1   1757 20.85                             135    -0.2 7  126  19 
 GRA  SZ I        1757 23.80        24.5 0.43                           126  19 
 OCA  SZ EP   1   1757  4.82                             127    -0.2 7  159 354 
 OCA  SZ ES   1   1757 25.68                             127    -0.8 7  159 354 
 OCA  SZ I        1757 28.49        22.0 0.34                           159 354 
 NOR  SN ES   1   1757 39.78                             117     0.1 6  232 234 
 CHI  HZ EP   1   1757 14.35                             115    -0.3 6  248 194 
 CHI  HN ES   1   1757 43.52                             115    -0.2 6  248 194 
 CHI  HZ I        1757 51.19         4.0 0.53                           248 194 
                                                                                
