 2015  218 1623  9.0 L   6.793 -73.173142.7  RSN 22 0.5 2.7LRSN                1
 GAP= 70        1.11       2.6     2.8  4.7 -0.9570E+00  0.4146E+01  0.7631E+00E
 Epicentro: LOS SANTOS - SANTANDER                                             3
 ACTION:UPD 15-04-30 21:27 OP:nd   STATUS:               ID:20150218162309 L   I
 OLDACT:REG 15-02-18 20:47 OP:fm   STATUS:               ID:20150218161744     3
 2015-02-18-1617-44M.COL___299                                                 6
 STAT SP IPHASW D HRMM SECON CODA AMPLIT PERI AZIMU VELO AIN AR TRES W  DIS CAZ7
 BAR2 EZ IP     C 1623 28.50                             171    0.3110 22.2 183 
 BAR2 EZ ES       1623 43.08                             171   -0.1210 22.2 183 
 BAR2 EZ I        1623 44.64        97.2 0.18            170           22.2 183 
 BRR  HZ IP     C 1623 30.53                             153    0.8810 69.0 300 
 BRR  HE ES       1623 46.77                             153    0.9810 69.0 300 
 BRR  HZ I        1623 51.53       117.4 0.14            152           69.0 300 
 PAM  SZ IP     D 1623 31.49                             149    0.4910 79.9  41 
 PAM  SE ES       1623 48.32                             149    0.1310 79.9  41 
 PAM  SZ I        1623 52.87        48.8 0.24            144           79.9  41 
 RUS  HZ IP     C 1623 32.19                             143   -0.1810  100 174 
 RUS  HE ES       1623 50.11                             143   -0.5210  100 174 
 RUS  HZ I        1623 51.98        33.3 0.34            140            100 174 
 PTB  HZ EP       1623 35.14                             132   -0.25 9  145 259 
 PTB  HN ES       1623 55.43                             132   -0.58 9  145 259 
 PTB  HZ I        1624  2.20        86.9 0.12            130            145 259 
 TAM  HZ IP     C 1623 36.73                             129    0.09 9  158 104 
 TAM  HZ I        1623 57.48        45.4 0.26            124            158 104 
 TAM  HE ES       1623 57.71                             129   -0.53 9  158 104 
 SPBC HZ EP       1623 37.26                             129    0.28 9  161 218 
 SPBC HE ES       1623 58.62                             129   -0.23 9  161 218 
 SPBC HZ I        1624  6.19       129.2 0.36            126            161 218 
 NOR  HZ EP       1623 44.53                             118    0.33 8  232 234 
 NOR  HE ES       1624 12.01                             118    0.32 8  232 234 
 NOR  HZ I        1624 19.05        67.1 0.20            116            232 234 
 SML  HZ EP       1623 45.75                             117    0.40 8  243 336 
 SML  HE ES       1624 12.97                             117   -0.77 8  243 336 
 SML  HZ I        1624 16.96        81.0 0.28            114            243 336 
 CHI  HZ EP       1623 46.32                             117    0.00 8  247 195 
 CHI  HN ES       1624 15.05                             117   -0.41 8  247 195 
 CHI  HZ I        1624 22.45        20.1 0.26            114            247 195 
 ROSC BZ EP       1623 46.80                             116    0.13 8  251 211 
 ROSC BE ES       1624 15.49                             116   -0.59 8  251 211 
 ROSC BZ I        1624 25.63        55.5 0.40            114            251 211 
 URE  HZ EP       1623 48.73                             113   -0.87 7  281 292 
 URE  HE ES       1624 20.67                             113   -0.63 7  281 292 
 URE  HZ I        1624 32.95        45.7 0.20            111            281 292 
 GUY2CHZ EP       1623 52.48                             112    0.39 7  298 235 
 GUY2CHN ES       1624 25.93                             112    0.19 7  298 235 
 GUY2CHZ I        1624 34.58        45.1 0.28                           298 235 
 RREF HZ EP       1623 55.44                             110    0.79 7  319 229 
 RREF HE ES       1624 29.75                             110   -0.54 7  319 229 
 RREF HZ I        1624 37.87        42.9 0.22            108            319 229 
 DBB  SZ EP       1623 56.11                             109    0.14 7  337 274 
 DBB  SZ ES       1624 32.74                             109    0.10 7  337 274 
 DBB  SZ I        1624 34.65        62.6 0.34            107            337 274 
 TOL  SZ EP       1623 57.63                             109    0.85 7  341 224 
 TOL  SE ES       1624 34.12                             109    0.03 7  341 224 
 TOL  SZ I        1624 39.12        19.3 0.24            107            341 224 
 MON  HZ EP       1623 57.25                             108   -0.37 6  352 309 
 MON  HN ES       1624 34.95                             108   -0.63 6  352 309 
 MON  HZ I        1624 40.82         9.3 0.44            106            352 309 
 ANIL HZ EP       1623 58.36                             108    0.03 6  355 224 
 ANIL HE ES       1624 37.49                             108    0.64 6  355 224 
 ANIL HZ I        1624 44.82         8.1 0.38            106            355 224 
 SDV  BZ EP       1623 58.18                             108   -1.02 6  363  50 
 SDV  BZ I        1624 37.81         5.6 0.50            105            363  50 
 PRA  HZ EP       1624  1.77                             106   -0.35 6  390 209 
 PRA  HN ES       1624 43.91                             106    0.33 6  390 209 
 PRA  HZ I        1624 52.35        26.0 0.36            104            390 209 
 PAL  HZ EP       1624  4.05                             105    0.39 6  403 239 
 PAL  HE ES       1624 45.65                             105   -0.69 6  403 239 
 PAL  HZ I        1624 51.60        12.0 0.22            103            403 239 
 GARC HZ EP   4   1624 20.30                             100   -3.59 0  571 207 
 GARC HE ES   4   1625 18.68                             100   -3.67 0  571 207 
 GARC HZ I        1625 24.05        10.1 0.28             98            571 207 
                                                                                
