 2013  118 1745 45.9 L   6.658 -73.658104.8  RSN  4 0.2 1.5LRSN                1
 GAP=119        0.56       4.3     3.4  6.3  0.6241E+01  0.6017E+01  0.1004E+02E
 Epicentro: EL CARMEN DE CHUCURI - SANTANDER                                   3
 ACTION:UPD 13-02-15 09:15 OP:ep   STATUS:               ID:20130118174545 L   I
 2013-01-18-1740-00M.COL___240                                                 6
 STAT SP IPHASW D HRMM SECON CODA AMPLIT PERI AZIMU VELO AIN AR TRES W  DIS CAZ7
 BRR  HZ EP       1746  1.36                             152   -0.1010 50.0 353 
 BRR  HN ES   1   1746 13.95                             152    0.38 7 50.0 353 
 BRR  HZ I        1746 14.58        10.7 0.14            159           50.0 353 
 BAR2 SZ ES   1   1746 14.08                             151   -0.42 7 53.1  98 
 PTB  HZ IP     C 1746  4.33                             136    0.0310 89.2 262 
 PTB  HN ES   1   1746 18.47                             136   -0.15 7 89.2 262 
 PTB  HZ I        1746 22.79         7.9 0.14            137           89.2 262 
 RUS  HZ EP       1746  6.41                             131    0.0010  106 143 
 RUS  HN ES   1   1746 22.69                             131    0.31 7  106 143 
 RUS  HZ I        1746 24.27         4.5 0.24            135            106 143 
                                                                                
