 2011  518 1435 20.3 L   6.130 -73.709112.0  RSN  4 0.3 1.6LRSN                1
 GAP=133        0.90       8.5    14.0 17.7  0.3107E+02  0.1726E+03  0.7593E+00E
 Epicentro: BOLIVAR - SANTANDER                                                3
 ACTION:UP  11-06-29 08:54 OP:tino STATUS:               ID:20110518143520 L   I
 2011-05-18-1433-54S.COL___138                                                 6
 STAT SP IPHASW D HRMM SECON CODA AMPLIT PERI AZIMU VELO SNR AR TRES W  DIS CAZ7
 RUS  HZ EP       1435 38.65                             143    -0.210   74 111 
 RUS  HZ I        1435 38.81         4.7 0.29                            74 111 
 RUS  HN ES   1   1435 53.20                             143    -0.1 7   74 111 
 BAR2 SZ EP       1435 39.30                             141     0.610   78  49 
 BAR2 SZ ES   1   1435 52.86                             141    -0.2 7   78  49 
 BAR2 SZ I        1435 54.22        15.4 0.16                            78  49 
 BRR  HZ EP       1435 40.65                             131    -0.310  108 360 
 BRR  HZ I        1435 43.47        12.6 0.40                           108 360 
 NOR  SN ES   3   1436  3.38                             123     0.3 2  143 244 
                                                                                
