 2013  618 1137 19.2 L   6.806 -73.149151.1  RSN 11 0.4 2.7LRSN                1
 GAP=112        0.92       2.9     3.4  5.0  0.9409E+00  0.8549E+00  0.2539E+00E
 Epicentro: LOS SANTOS - SANTANDER                                             3
 ACTION:UPD 14-01-08 09:55 OP:ep   STATUS:               ID:20130618113719 L   I
 OLDACT:UP  13-06-18 16:21 OP:cam  STATUS:               ID:20130618112959     3
 OLDACT:REG 13-06-18 14:40 OP:cam  STATUS:               ID:20130618112959     3
 2013-06-18-1129-59M.COL___261                                                 6
 STAT SP IPHASW D HRMM SECON CODA AMPLIT PERI AZIMU VELO AIN AR TRES W  DIS CAZ7
 BAR2 SZ IP       1137 39.46                             171   -0.0110 23.9 189 
 BAR2 SZ ES       1137 55.19                             171   -0.1010 23.9 189 
 BAR2 SZ I        1137 56.25       105.1 0.28            168           23.9 189 
 GIR2 SZ EP       1137 39.37                             168   -0.1110 30.6 351 
 GIR2 SZ ES   1   1137 55.29                             168   -0.01 7 30.6 351 
 GIR2 SZ I        1137 57.49        38.3 0.20            167           30.6 351 
 BRR  HZ IP     C 1137 41.30                             154    0.4210 70.6 298 
 BRR  HN ES       1137 58.76                             154    0.9610 70.6 298 
 BRR  HZ I        1138  1.21        83.4 0.16            150           70.6 298 
 RUS  HZ EP       1137 43.33                             145   -0.1810  101 176 
 RUS  HN ES       1138  1.93                             145   -0.5610  101 176 
 RUS  HZ I        1138  3.22        54.3 0.32            144            101 176 
 PTB  HZ EP       1137 46.00                             133   -0.58 9  148 259 
 PTB  HN ES       1138  7.71                             133   -0.23 9  148 259 
 PTB  HZ I        1138 13.35        67.4 0.58            131            148 259 
 TAM  HZ EP       1137 47.60                             132    0.26 9  156 105 
 TAM  HZ I        1137 47.72        42.4 0.34            134            156 105 
 TAM  HN ES       1138  9.35                             132    0.06 9  156 105 
 OCA  HZ EP       1137 48.11                             131    0.26 9  160 353 
 OCA  HN ES   1   1138  9.75                             131   -0.46 7  160 353 
 OCA  HZ I        1138 14.31        91.9 0.32            131            160 353 
 NOR  HZ EP       1137 55.37                             120    0.13 8  235 234 
 NOR  HN ES   1   1138 23.39                             120    0.03 6  235 234 
 NOR  HZ I        1138 28.61        52.2 0.20            118            235 234 
 SML  HZ EP   1   1137 55.91                             119   -0.13 6  243 335 
 SML  HE ES       1138 24.30                             119   -0.48 8  243 335 
 SML  HZ I        1138 27.94       129.4 0.10            118            243 335 
 CHI  HZ EP       1137 57.45                             118    0.21 8  249 195 
 CHI  HN ES       1138 27.17                             118    0.24 8  249 195 
 CHI  HZ I        1138 36.60        18.5 0.34            118            249 195 
 ROSC BZ EP   4   1137 59.49                             118    1.85 0  253 211 
 ROSC BN ES   4   1138 28.50                             118    0.86 0  253 211 
 HEL  HZ EP   4   1138  1.24                             116    1.58 0  272 256 
 HEL  HN ES   4   1138 34.03                             116    2.80 0  272 256 
 HEL  HZ I        1138 40.00        30.8 0.34            115            272 256 
                                                                                
