 2012 1218 1337 35.8 L   6.296 -73.696108.2  RSN  4 0.2 0.9LRSN                1
 GAP=165        0.50       5.3     3.1  6.5  0.5277E+01  0.1801E+01 -0.3240E+01E
 Epicentro: SANTA HELENA DEL OPON - SANTANDER                                  3
 ACTION:UPD 13-01-04 14:28 OP:ep   STATUS:               ID:20121218133735 L   I
 2012-12-18-1330-00M.COL___242                                                 6
 STAT SP IPHASW D HRMM SECON CODA AMPLIT PERI AZIMU VELO AIN AR TRES W  DIS CAZ7
 BAR2 SZ EP   1   1337 53.30                             147    0.30 7 65.6  60 
 BAR2 SZ ES   1   1338  6.15                             147   -0.26 7 65.6  60 
 RUS  HZ EP   1   1337 54.17                             141   -0.32 7 81.2 123 
 RUS  HE ES   1   1338  9.28                             141    0.22 7 81.2 123 
 RUS  HZ I        1338 10.38         1.8 0.32                          81.2 123 
 PTB  HZ EP   1   1337 54.27                             138   -0.12 7 88.3 288 
 PTB  HN ES   1   1338  8.96                             138    0.07 7 88.3 288 
 PTB  HZ I        1338 11.44         2.1 0.14                          88.3 288 
 GIR2 SZ EP   1   1337 55.93                             133    0.11 7  103  33 
                                                                                
