 2013 1218 1053 25.3 L   6.786 -73.169146.8  RSN  4 0.2 1.3LRSN                1
 GAP=198        0.62       3.5     4.5  5.6  0.4836E+01  0.1979E+01 -0.8786E+01E
 Epicentro: LOS SANTOS - SANTANDER                                             3
 ACTION:UPD 14-01-13 10:19 OP:ep   STATUS:               ID:20131218105325 L   I
 OLDACT:REG 13-12-18 15:33 OP:nd   STATUS:               ID:20131218105000     3
 2013-12-18-1050-00M.COL___285                                                 6
 STAT SP IPHASW D HRMM SECON CODA AMPLIT PERI AZIMU VELO AIN AR TRES W  DIS CAZ7
 BAR2 SZ EP       1053 45.11                             171    0.0710 21.5 184 
 BAR2 SZ ES       1054  0.42                             171    0.0010 21.5 184 
 BAR2 SZ I        1054  1.85         7.7 0.20            171           21.5 184 
 RUS  HZ EP       1053 49.31                             144    0.2310 99.3 174 
 RUS  HN ES       1054  7.44                             144   -0.1710 99.3 174 
 RUS  HZ I        1054  9.05         1.5 0.36            147           99.3 174 
 PTB  HZ EP       1053 51.65                             133   -0.47 9  145 259 
 PTB  HN ES       1054 13.28                             133    0.27 9  145 259 
 PTB  HZ I        1054 17.53         1.8 0.14            133            145 259 
 SML  HZ EP       1054  2.28                             118    0.24 8  244 336 
 SML  HN ES       1054 30.52                             118   -0.16 8  244 336 
 SML  HZ I        1054 34.06         2.3 0.10            119            244 336 
                                                                                
