 2017  318 1714 48.9 L   6.557 -73.585108.7  RSN  9 0.3 2.0LRSN                1
 GAP= 78        0.70       2.6     2.3  4.6 -0.1708E+01  0.1522E+01  0.2985E+01E
 Epicentro: EL CARMEN - SANTANDER                                              3
 ACTION:UPD 17-05-25 18:42 OP:jn   STATUS:               ID:20170318171448 L   I
 OLDACT:UP  17-03-19 01:03 OP:dnl  STATUS:               ID:20170318170747     3
 OLDACT:UP  17-03-19 01:03 OP:dnl  STATUS:               ID:20170318170747     3
 OLDACT:UP  17-03-19 01:02 OP:dnl  STATUS:               ID:20170318170747     3
 OLDACT:REG 17-03-18 23:03 OP:dnl  STATUS:               ID:20170318170747     3
 2017-03-18-1708-00M.COL___412                                                 6
 STAT SP IPHASW D HRMM SECON CODA AMPLIT PERI AZIMU VELO AIN AR TRES W  DIS CAZ7
 BAR2 EZ IP     D 1715  5.15                             156    0.2210 44.7  85 
 BAR2 EZ ES       1715 17.65                             156    0.2310 44.7  85 
 BRR  HZ IP     C 1715  6.03                             148    0.4310 62.4 347 
 BRR  HN ES       1715 18.86                             148    0.2510 62.4 347 
 BRR  HZ I        1715 24.14        12.6 0.14            146           62.4 347 
 RUS  HZ EP       1715  8.15                             137   -0.3610 92.1 143 
 RUS  HN ES       1715 23.64                             137   -0.1610 92.1 143 
 RUS  HZ I        1715 24.76        19.0 0.58            140           92.1 143 
 PTB  HZ IP     D 1715  7.96                             135   -0.2610 96.4 269 
 PTB  HN ES       1715 22.93                             135   -0.3510 96.4 269 
 PTB  HZ I        1715 24.33        29.5 0.26            133           96.4 269 
 PAM  EZ EP       1715 11.83                             126   -0.2010  131  48 
 PAM  EE ES       1715 29.93                             126   -0.1310  131  48 
 PAM  EZ I        1715 31.19        19.9 0.20            127            131  48 
 ZAR  HZ EP   4   1715 17.49                             117    1.51 0  175 306 
 ZAR  HN ES   4   1715 40.31                             117    3.21 0  175 306 
 ZAR  HZ I        1715 43.58        18.3 0.22            116            175 306 
 NOR  HZ EP       1715 16.69                             116    0.09 9  180 232 
 NOR  HE ES       1715 38.16                             116   -0.04 9  180 232 
 NOR  HZ I        1715 41.72        12.8 0.52            116            180 232 
 GUY2CHZ EP   9   1715 26.51                             108    1.87 0  246 233 
 GUY2CHN ES       1715 54.09                             108   -0.29 8  246 233 
 GUY2CHZ  IAML    1715 58.61        10.0 0.70                           246 233 
 PRA  HZ EP   2   1715 36.17                             101    0.29 3  346 205 
 PRA  HE ES       1716 13.04                             101    0.53 6  346 205 
 PRA  HZ I        1716 17.90         4.9 0.28            102            346 205 
                                                                                
