 2013  618 1905 35.3 L   6.718 -73.226158.7  RSN  3 0.0 1.4LRSN                1
 GAP=221        0.32       6.6     4.1  7.1  0.1597E+02 -0.6654E+01 -0.3464E+02E
 Epicentro: VILLANUEVA - SANTANDER                                             3
 ACTION:UPD 14-01-08 09:55 OP:ep   STATUS:               ID:20130618190535 L   I
 OLDACT:UP  13-06-18 18:43 OP:cam  STATUS:               ID:20130618185959     3
 OLDACT:REG 13-06-18 15:37 OP:cam  STATUS:               ID:20130618185959     3
 2013-06-18-1859-59M.COL___261                                                 6
 STAT SP IPHASW D HRMM SECON CODA AMPLIT PERI AZIMU VELO AIN AR TRES W  DIS CAZ7
 BRR  HZ EP   1   19 5 57.77                             155   -0.01 7 68.9 309 
 RUS  HZ EP   2   19 5 59.75                             148   -0.11 5 92.6 170 
 RUS  HN ES       19 6 18.99                             148    0.0110 92.6 170 
 RUS  HZ I        19 6 20.68         2.5 0.52            152           92.6 170 
 PTB  HZ EP       19 6  2.56                             137    0.04 9  138 262 
 PTB  HN ES   1   19 6 23.68                             137   -0.04 7  138 262 
 PTB  HZ I        19 6 30.94         4.7 0.42            136            138 262 
                                                                                
