 2017 1218 1706 27.7 L   6.756 -73.168145.8  RSN  4 0.2 1.6LRSN                1
 GAP=146        0.57       5.0     2.9  4.9 -0.4812E+01  0.6264E+01 -0.5549E+01E
 Epicentro: LOS SANTOS - SANTANDER                                             3
 ACTION:UPD 18-01-04 13:21 OP:rebc STATUS:               ID:20171218170627 L   I
 OLDACT:UP  17-12-18 23:21 OP:dani STATUS:               ID:20171218165702     3
 OLDACT:UP  17-12-18 23:21 OP:dani STATUS:               ID:20171218165702     3
 OLDACT:REG 17-12-18 20:58 OP:dani STATUS:               ID:20171218165702     3
 2017-12-18-1658-00M.COL___457                                                 6
 STAT SP IPHASW D HRMM SECON CODA AMPLIT PERI AZIMU VELO AIN AR TRES W  DIS CAZ7
 BAR2 EZ EP       17 6 47.17                             173   -0.1110 18.1 185 
 BAR2 EZ ES       17 7  2.64                             173    0.1210 18.1 185 
 BAR2 EZ I        17 7  3.52        13.1 0.34            171           18.1 185 
 PAM  EZ EP       17 6 50.65                             149    0.3610 82.7  39 
 PAM  EN ES       17 7  7.62                             149   -0.2510 82.7  39 
 PAM  EZ I        17 7  9.42         9.6 0.58            149           82.7  39 
 PTB  HZ EP       17 6 54.12                             133   -0.30 9  144 261 
 PTB  HE ES       17 7 15.31                             133    0.09 9  144 261 
 PTB  HZ I        17 7 20.97         3.0 0.17            131            144 261 
 ZAR  HZ EP       17 7  0.20                             122    0.04 9  204 294 
 ZAR  HN ES       17 7 25.47                             122    0.03 9  204 294 
 ZAR  HZ I        17 7 35.88         4.7 0.36            121            204 294 
                                                                                
