 2015  718 1846 30.0 L   6.106 -73.681120.9  RSN  5 0.4 1.6LRSN                1
 GAP=133        0.99       5.2     4.5 12.3 -0.8046E+01  0.1832E+02 -0.2840E+01E
 Epicentro: CHIPATA - SANTANDER                                                3
 ACTION:UPD 15-09-08 21:49 OP:cam  STATUS:               ID:20150718184630 L   I
 OLDACT:REG 15-07-18 20:49 OP:spq  STATUS:               ID:20150718183749     3
 2015-07-18-1837-49M.COL___340                                                 6
 STAT SP IPHASW D HRMM SECON CODA AMPLIT PERI AZIMU VELO AIN AR TRES W  DIS CAZ7
 RUS  HZ EP       1846 48.95                             148   -0.1610 70.2 110 
 BAR2 EZ EP       1846 49.74                             145    0.5310 77.0  46 
 BAR2 EZ ES   1   1847  4.06                             145   -0.16 7 77.0  46 
 BAR2 EZ I        1847  5.72        12.4 0.48            147           77.0  46 
 NOR  HZ EP       1846 54.75                             126   -0.01 9  145 246 
 NOR  HE ES       1847 13.57                             126   -0.53 9  145 246 
 NOR  HZ I        1847 15.97         5.2 0.34            129            145 246 
 ZAR  HZ EP       1847  0.09                             117   -0.50 9  201 320 
 ZAR  HE ES       1847 24.66                             117    0.18 9  201 320 
 ZAR  HZ I        1847 29.45         5.7 0.74            118            201 320 
 GUY2CHZ EP   1   1847  1.94                             116   -0.28 6  210 242 
 GUY2CHE ES       1847 28.14                             116    0.76 8  210 242 
 GUY2CHZ I        1847 32.44         2.6 0.60                           210 242 
                                                                                
