 2017  818 1224 27.4 L   6.771 -73.084148.1  RSN  4 0.3 1.6LRSN                1
 GAP=242        0.68       6.0     9.4  6.6  0.3215E+02 -0.9371E+01  0.1827E+01E
 Epicentro: LOS SANTOS - SANTANDER                                             3
 ACTION:UPD 17-09-04 20:21 OP:rebc STATUS:               ID:20170818122427 L   I
 OLDACT:UP  17-08-18 21:39 OP:and  STATUS:               ID:20170818121530     3
 OLDACT:REG 17-08-18 20:20 OP:and  STATUS:               ID:20170818121530     3
 2017-08-18-1218-00M.COL___407                                                 6
 STAT SP IPHASW D HRMM SECON CODA AMPLIT PERI AZIMU VELO AIN AR TRES W  DIS CAZ7
 BAR2 EZ EP     C 1224 47.08                             170   -0.2010 22.5 209 
 BAR2 EZ ES       1225  2.36                             170   -0.4310 22.5 209 
 BAR2 EZ I        1225  3.31         6.6 0.38            156           22.5 209 
 BRR  HZ EP   2   1224 48.93                             150   -0.29 5 78.7 298 
 BRR  HN ES       1225  6.52                             150    0.2710 78.7 298 
 BRR  HZ I        1225 27.52        20.2 0.44            136           78.7 298 
 RUS  HZ EP       1224 51.28                             145    0.1610 97.1 180 
 RUS  HN ES       1225  9.97                             145    0.3410 97.1 180 
 RUS  HZ I        1225 11.48         3.4 0.38            150           97.1 180 
 SPBC HZ EP   2   1224 56.18                             129   -0.06 5  165 222 
 SPBC HN ES   2   1225 18.44                             129   -0.31 5  165 222 
 SPBC HZ I        1225 20.73         3.9 0.09            127            165 222 
                                                                                
