 2015  218 1233 51.4 L   6.752 -73.157138.9  RSN 12 0.4 2.0LRSN                1
 GAP=137        0.89       2.5     3.3  5.0 -0.1150E+01  0.7933E+01  0.1192E+00E
 Epicentro: LOS SANTOS - SANTANDER                                             3
 ACTION:UPD 15-04-30 21:27 OP:nd   STATUS:               ID:20150218123351 L   I
 OLDACT:REG 15-02-18 20:31 OP:fm   STATUS:               ID:20150218122744     3
 2015-02-18-1227-44M.COL___293                                                 6
 STAT SP IPHASW D HRMM SECON CODA AMPLIT PERI AZIMU VELO AIN AR TRES W  DIS CAZ7
 BAR2 EZ EP     D 1234 10.42                             172    0.3610 17.9 189 
 BAR2 EZ ES       1234 24.07                             172   -0.5710 17.9 189 
 BAR2 EZ I        1234 26.32        19.3 0.26            170           17.9 189 
 PAM  SZ EP     D 1234 13.34                             148    0.1810 82.3  38 
 PAM  SE ES       1234 30.22                             148    0.0510 82.3  38 
 PAM  SZ I        1234 31.07        14.4 0.20            152           82.3  38 
 RUS  HZ EP       1234 14.28                             144    0.2210 95.4 175 
 RUS  HE ES       1234 31.84                             144    0.0810 95.4 175 
 RUS  HZ I        1234 33.61        13.2 0.22            145           95.4 175 
 PTB  HZ EP       1234 17.52                             131   -0.05 9  146 261 
 PTB  HE ES       1234 38.74                             131    0.72 9  146 261 
 PTB  HZ I        1234 41.01        21.7 0.16            130            146 261 
 ZAR  HZ EP       1234 23.67                             121    0.21 9  205 294 
 ZAR  HN ES       1234 48.95                             121    0.45 9  205 294 
 ZAR  HZ I        1234 55.27        18.3 0.34            121            205 294 
 NOR  HZ EP       1234 26.52                             117    0.27 8  231 235 
 NOR  HE ES       1234 52.67                             117   -0.80 8  231 235 
 NOR  HZ I        1235  0.29         7.5 0.20            118            231 235 
 CHI  HZ EP       1234 28.03                             116   -0.06 8  243 195 
 CHI  HE ES       1234 56.35                             116   -0.38 8  243 195 
 CHI  HZ I        1235  4.77         2.6 0.26            117            243 195 
 SML  HZ EP       1234 27.45                             115   -0.64 8  248 336 
 SML  HE ES       1234 56.23                             115   -0.50 8  248 336 
 SML  HZ I        1235  3.38        16.2 0.22            117            248 336 
 GUY2CHZ EP       1234 34.05                             111   -0.14 7  297 235 
 GUY2CHE ES       1235  7.80                             111    0.20 7  297 235 
 GUY2CHZ I        1235 17.72         6.7 0.66                           297 235 
 RREF HZ EP   1   1234 36.55                             110   -0.16 5  317 230 
 RREF HN ES       1235 11.73                             110   -0.34 7  317 230 
 RREF HZ I        1235 21.56         3.6 0.32            110            317 230 
 TOL  SZ EP       1234 38.98                             108    0.17 7  339 225 
 TOL  SN ES       1235 16.17                             108    0.36 7  339 225 
 TOL  SZ I        1235 25.91         3.7 0.22            109            339 225 
 DBB  SZ EP       1234 38.77                             108    0.30 7  339 275 
 DBB  SZ ES       1235 14.70                             108   -0.51 7  339 275 
                                                                                
