 2011 1118 1925 22.1 L   6.756 -73.129147.2  RSN 10 0.4 2.4LRSN                1
 GAP=141        0.74       4.1     5.4  5.6 -0.6312E+01  0.7768E+01 -0.9063E+00E
 Epicentro: LOS SANTOS - SANTANDER                                             3
 ACTION:UPD 12-07-13 16:11 OP:ep   STATUS:               ID:20111118192522 L   I
 2011-11-18-1922-19S.COL___179                                                 6
 STAT SP IPHASW D HRMM SECON CODA AMPLIT PERI AZIMU VELO AIN AR TRES W  DIS CAZ7
 BAR2 SZ IP       1925 41.80                             172   -0.0410 19.0 198 
 BAR2 SZ ES   1   1925 56.81                             172   -0.42 7 19.0 198 
 BAR2 SZ I        1925 58.02        56.2 0.24                          19.0 198 
 BRR  HZ IP     D 1925 43.84                             151    0.1910 75.2 301 
 BRR  HZ I        1925 44.22        60.8 0.09                          75.2 301 
 BRR  HE ES   1   1926  1.14                             151    0.69 7 75.2 301 
 PAM  SZ EP       1925 44.83                             150    0.1810 80.1  36 
 PAM  SZ I        1925 45.18        52.5 0.19                          80.1  36 
 PAM  SN ES   1   1926  1.97                             150   -0.25 7 80.1  36 
 RUS  HZ EP   1   1925 45.65                             146   -0.01 7 95.6 177 
 RUS  HE ES   1   1926  4.12                             146    0.10 7 95.6 177 
 RUS  HZ I        1926  5.30        29.9 0.26                          95.6 177 
 OCA  SZ EP   1   1925 50.88                             129   -0.14 7  165 353 
 OCA  SZ I        1926 19.28        30.5 0.48                           165 353 
 ZAR  HZ EP   2   1925 54.26                             122   -0.77 4  208 293 
 ZAR  HZ I        1926 25.89        30.5 0.44                           208 293 
 NOR  SZ EP   1   1925 58.04                             119    0.24 6  233 236 
 NOR  SN ES   1   1926 24.78                             119   -0.84 6  233 236 
 CHI  HZ EP   1   1925 59.56                             118    0.12 6  244 196 
 CHI  HZ I        1926 38.84         7.6 0.37                           244 196 
 HEL  HZ EP   2   1926  3.24                             115    0.76 4  273 257 
 HEL  HZ I        1926 41.78         8.1 0.38                           273 257 
 COD  HZ EP   2   1926 10.10                             109   -1.04 3  353 354 
 COD  HZ I        1926 22.89        12.7 0.57                           353 354 
                                                                                
