 2013  718 1842 17.5 L   6.786 -73.127144.0  RSN 16 0.5 2.6LRSN                1
 GAP=185        1.18       3.1     5.2  5.4 -0.1800E+01  0.7822E+01  0.1522E+01E
 Epicentro: LOS SANTOS - SANTANDER                                             3
 ACTION:UPD 13-08-12 10:38 OP:ep   STATUS:               ID:20130718184217 L   I
 OLDACT:REG 13-07-18 15:37 OP:nd   STATUS:               ID:20130718183959     3
 2013-07-18-1839-59M.COL___267                                                 6
 STAT SP IPHASW D HRMM SECON CODA AMPLIT PERI AZIMU VELO AIN AR TRES W  DIS CAZ7
 BAR2 SZ EP       1842 36.89                             171   -0.0110 22.2 196 
 BAR2 SZ ES       1842 51.67                             171   -0.3610 22.2 196 
 BAR2 SZ I        1842 53.62        56.3 0.38            167           22.2 196 
 GIR2 SZ EP       1842 36.94                             166   -0.0810 33.2 347 
 GIR2 SZ ES       1842 52.56                             166    0.3210 33.2 347 
 GIR2 SZ I        1842 54.16        55.1 0.10            165           33.2 347 
 BRR  HZ IP     C 1842 38.66                             151    0.0510 73.8 299 
 BRR  HN ES       1842 55.98                             151    0.9110 73.8 299 
 BRR  HZ I        1842 59.00        89.2 0.28            148           73.8 299 
 RUS  HZ EP       1842 40.87                             144   -0.0910 98.9 177 
 RUS  HN ES       1842 59.45                             144    0.2010 98.9 177 
 RUS  HZ I        1843  0.70        39.1 0.42            144           98.9 177 
 PTB  HZ EP   2   1842 43.74                             131   -0.74 5  149 260 
 PTB  HN ES       1843  4.88                             131   -0.65 9  149 260 
 PTB  HZ I        1843  7.93        58.7 0.58            129            149 260 
 OCA  HZ EP       1842 45.94                             129    0.09 9  162 352 
 OCA  HN ES       1843  7.75                             129   -0.21 9  162 352 
 OCA  HZ I        1843 10.81        50.0 0.56            130            162 352 
 SPBC HZ EP       1842 44.67                             129   -1.20 9  163 220 
 SPBC HN ES       1843  7.96                             129   -0.04 9  163 220 
 ZAR  HZ EP       1842 50.82                             122    0.73 8  207 292 
 ZAR  HE ES       1843 14.89                             122   -0.62 8  207 292 
 ZAR  HZ I        1843 20.64        86.3 0.32            121            207 292 
 NOR  HZ EP       1842 52.77                             118   -0.44 8  235 235 
 NOR  HN ES       1843 21.01                             118   -0.05 8  235 235 
 NOR  HZ I        1843 27.16        39.5 0.16            118            235 235 
 SML  HZ EP       1842 53.72                             117   -0.56 8  246 335 
 SML  HN ES       1843 23.07                             117    0.11 8  246 335 
 SML  HZ I        1843 25.27        62.6 0.20            118            246 335 
 HEL  HZ EP       1842 58.69                             114    0.89 8  274 256 
 HEL  HN ES   2   1843 29.20                             114   -0.04 4  274 256 
 HEL  HZ I        1843 36.24        24.3 0.28            114            274 256 
 GUY2CHZ EP       1843  1.88                             112    0.76 7  302 235 
 GUY2CHN ES   4   1843 37.72                             112    2.59 0  302 235 
 GUY2CHZ I        1843 45.42        18.3 0.60                           302 235 
 RREF HZ EP       1843  4.25                             110    0.62 7  322 230 
 RREF HN ES   4   1843 40.90                             110    1.29 0  322 230 
 RREF HZ I        1843 44.57        19.1 0.24            111            322 230 
 PRA  HZ EP       1843 10.54                             106   -0.38 6  392 210 
 PRA  HN ES       1843 52.99                             106    0.41 6  392 210 
 PRA  HZ I        1843 58.52        22.0 0.24            107            392 210 
 ORTC HZ EP       1843 11.17                             106   -0.18 6  395 217 
 ORTC HN ES       1843 54.26                             106    0.90 6  395 217 
 ORTC HZ I        1844  9.80        10.6 0.50            106            395 217 
 SJC  HZ EP   4   1843 10.47                             105   -2.82 0  412 327 
 SJC  HN ES   4   1843 51.93                             105   -4.88 0  412 327 
 SJC  HZ I        1843 56.31         8.8 0.46            106            412 327 
                                                                                
