 2011  118 1330 21.8 L   6.797 -73.131138.8  RSN 10 0.3 2.3LRSN                1
 GAP=137        0.76       3.1     5.8  6.3 -0.5279E+01  0.1467E+02 -0.1520E+01E
 Epicentro: LOS SANTOS - SANTANDER                                             3
 ACTION:DUP 11-02-08 08:41 OP:pat  STATUS:               ID:20110118133021 L   I
 2011-01-18-1328-39S.COL___137                                                 6
 STAT SP IPHASW D HRMM SECON CODA AMPLIT PERI AZIMU VELO SNR AR TRES W  DIS CAZ7
 BAR2 SZ IP       1330 40.80                             170     0.210   23 194 
 BAR2 SZ ES   1   1330 55.69                             170     0.4 7   23 194 
 BAR2 SZ I        1330 57.25        40.0 0.18                            23 194 
 GIR2 SZ EP       1330 40.96                             166     0.310   32 348 
 RUS  HZ EP   1   1330 44.65                             142    -0.2 7  100 177 
 RUS  HN ES   1   1331  2.52                             142    -0.3 7  100 177 
 RUS  HZ I        1331  6.15        16.4 0.38                           100 177 
 GRA  SZ EP       1330 46.86                             135     0.410  126  17 
 GRA  SZ ES   1   1331  5.07                             135    -0.6 7  126  17 
 GRA  SZ I        1331  7.52        40.8 0.42                           126  17 
 OCA  SZ EP   1   1330 49.41                             128    -0.3 7  161 353 
 OCA  SZ ES   1   1331 11.03                             128    -0.3 7  161 353 
 OCA  SZ I        1331 17.54        26.8 0.35                           161 353 
 YOP  SZ EP   1   1330 51.05                             125    -0.2 7  178 154 
 YOP  SZ I        1330 52.00        16.0 0.13                           178 154 
 NOR  SZ EP   1   1330 57.26                             117     0.0 6  236 235 
 NOR  SN ES   1   1331 24.68                             117    -0.3 6  236 235 
 CHI  HZ EP   1   1330 59.07                             116    -0.1 6  249 196 
 CHI  HZ I        1331  1.58         8.1 0.41                           249 196 
 HEL  HZ EP   1   1331  1.97                             113     0.1 6  274 256 
 HEL  HZ I        1331 39.86        22.1 0.37                           274 256 
 DBB  SZ EP       1331  9.32                             108     0.1 7  341 274 
                                                                                
