 2014  918 1625 54.7 L   6.793 -73.117139.6  RSN  7 0.3 1.5LRSN                1
 GAP=140        0.70       3.0     3.6  5.1 -0.1900E+00  0.2140E+01 -0.1116E+01E
 Epicentro: LOS SANTOS - SANTANDER                                             3
 ACTION:UPD 14-10-03 23:06 OP:nd   STATUS:               ID:20140918162554 L   I
 OLDACT:REG 14-09-18 22:15 OP:spq  STATUS:               ID:20140918161818     3
 2014-09-18-1618-18M.COL___287                                                 6
 STAT SP IPHASW D HRMM SECON CODA AMPLIT PERI AZIMU VELO AIN AR TRES W  DIS CAZ7
 BAR2 SZ EP       1626 13.34                             170   -0.2310 23.3 198 
 BAR2 SZ ES   1   1626 28.40                             170    0.10 7 23.3 198 
 BAR2 SZ I        1626 30.56         9.4 0.18            171           23.3 198 
 BRR  HZ EP       1626 15.16                             150   -0.1910 74.3 298 
 BRR  HN ES       1626 31.91                             150    0.4310 74.3 298 
 BRR  HZ I        1626 39.47         8.7 0.40            150           74.3 298 
 PAM  SZ EP       1626 16.38                             150    0.2110 76.1  37 
 PAM  SN ES       1626 33.00                             150    0.0810 76.1  37 
 PAM  SZ I        1626 35.49         5.6 0.48            154           76.1  37 
 RUS  HZ EP       1626 17.64                             143   -0.1210 99.6 178 
 RUS  HE ES       1626 35.64                             143   -0.1210 99.6 178 
 RUS  HZ I        1626 37.23         2.6 0.32            149           99.6 178 
 PTB  HN ES       1626 42.07                             130   -0.21 9  151 259 
 PTB  HZ I        1626 45.32         3.4 0.22            133            151 259 
 SML  HZ EP   1   1626 31.28                             116    0.09 6  246 335 
 SML  HE ES   1   1626 59.07                             116   -0.60 6  246 335 
 SML  HZ I        1627  2.48         4.0 0.10            119            246 335 
 GUY2CHZ EP   1   1626 39.13                             111    0.88 5  303 235 
 GUY2CHN ES   4   1627 14.78                             111    2.55 0  303 235 
 GUY2CHZ I        1627 19.75         1.6 0.40                           303 235 
                                                                                
