 2011  318 1411 42.6 L   6.815 -73.150137.3  RSN  7 0.4 2.1LRSN                1
 GAP=158        0.84       4.3     8.1  6.8 -0.1722E+02  0.1298E+02 -0.1081E+01E
 Epicentro: LOS SANTOS - SANTANDER                                             3
 ACTION:UP  11-06-16 14:34 OP:jfem STATUS:               ID:20110318141142 L   I
 2011-03-18-1407-00S.COL___135                                                 6
 STAT SP IPHASW D HRMM SECON CODA AMPLIT PERI AZIMU VELO SNR AR TRES W  DIS CAZ7
 BTL  SZ EP       1412  1.27                             173     0.210   17 311 
 BTL  SZ ES   1   1412 15.09                             173    -0.4 7   17 311 
 BAR2 SZ IP       1412  1.28                             169     0.010   25 188 
 BAR2 SZ ES   1   1412 15.68                             169    -0.1 7   25 188 
 BAR2 SZ I        1412 17.43        12.9 0.22                            25 188 
 RUS  HZ EP       1412  5.40                             141    -0.210  102 176 
 RUS  HN ES   1   1412 24.43                             141     0.8 7  102 176 
 RUS  HZ I        1412 26.05        12.3 0.30                           102 176 
 GRA  SZ EP       1412  6.91                             135     0.010  124  18 
 GRA  SZ ES   1   1412 25.98                             135     0.0 7  124  18 
 GRA  SZ I        1412 27.20        31.2 0.26                           124  18 
 NOR  SN ES   1   1412 45.49                             117     0.0 6  235 234 
 CHI  HZ EP   2   1412 19.84                             115    -0.1 4  250 195 
 CHI  HN ES   1   1412 48.47                             115    -0.7 6  250 195 
 CHI  HZ I        1412 53.20         7.6 0.15                           250 195 
 HEL  HZ EP   1   1412 22.81                             113     0.4 6  272 255 
 HEL  HZ I        1413  0.96        14.5 0.49                           272 255 
                                                                                
