 2012  818 1517 44.7 L   6.497 -73.599107.4  RSN  6 0.4 1.9LRSN                1
 GAP= 94        0.81       5.2     4.6  8.1  0.1062E+02  0.1735E+02  0.1041E+02E
 Epicentro: SANTA HELENA DEL OPON - SANTANDER                                  3
 ACTION:UPD 12-09-10 11:57 OP:ep   STATUS:               ID:20120818151744 L   I
 2012-08-18-1510-00M.COL___217                                                 6
 STAT SP IPHASW D HRMM SECON CODA AMPLIT PERI AZIMU VELO AIN AR TRES W  DIS CAZ7
 BAR2 SZ EP       1518  0.58                             155   -0.1210 47.3  77 
 BAR2 SZ ES   1   1518 13.03                             155   -0.15 7 47.3  77 
 BAR2 SZ I        1518 14.88        43.0 0.22                          47.3  77 
 BRR  HZ EP       1518  1.14                             145   -0.5310 68.6 350 
 BRR  HE ES   1   1518 15.28                             145    0.37 7 68.6 350 
 BRR  HZ I        1518 16.64        14.6 0.21                          68.6 350 
 RUS  HZ EP   1   1518  4.30                             138    0.47 7 87.9 139 
 RUS  HE ES   1   1518 19.01                             138    0.26 7 87.9 139 
 PTB  HZ EP       1518  3.47                             135   -0.2910 94.9 273 
 PTB  HN ES   1   1518 18.55                             135   -0.09 7 94.9 273 
 NOR  SZ EP   1   1518 11.60                             117   -0.14 7  174 234 
 NOR  SZ I        1518 37.77         7.0 0.10                           174 234 
 ZAR  HZ EP   1   1518 12.76                             116    0.75 7  177 308 
 ZAR  HN ES   1   1518 33.72                             116    0.41 7  177 308 
 ZAR  HZ I        1518 37.31        14.7 0.40                           177 308 
                                                                                
