 2011  418 1338 35.0 L   6.803 -73.142147.3  RSN 12 0.4 2.9LRSN                1
 GAP=114        0.74       3.3     5.2  5.6 -0.2210E+01  0.3125E+01  0.3431E+01E
 Epicentro: LOS SANTOS - SANTANDER                                             3
 ACTION:UP  11-06-22 15:31 OP:REBC STATUS:               ID:20110418133835 L   I
 2011-04-18-1334-11S.COL___137                                                 6
 STAT SP IPHASW D HRMM SECON CODA AMPLIT PERI AZIMU VELO SNR AR TRES W  DIS CAZ7
 BAR2 SZ IP       1338 54.65                             170    -0.110   24 191 
 BAR2 SZ ES   1   1339  9.89                             170    -0.4 7   24 191 
 BAR2 SZ I        1339 10.74       262.4 0.27                            24 191 
 BRR  HZ IP       1338 56.43                             152     0.110   71 298 
 BRR  HZ I        1338 56.69       488.0 0.13                            71 298 
 BRR  HN ES   1   1339 13.38                             152     0.5 7   71 298 
 PAM  SZ EP   1   1338 57.59                             151     0.3 7   77  39 
 PAM  SN ES   2   1339 14.46                             151    -0.3 5   77  39 
 PAM  SZ I        1339 16.65        32.2 0.51                            77  39 
 BRI  SZ EP   1   1338 58.90                             142    -0.1 7  108  21 
 GRA  SZ IP       1339  0.42                             137     0.110  125  17 
 GRA  SZ I        1339 24.35        56.9 0.26                           125  17 
 OCA  SZ EP   1   1339  2.64                             130    -0.7 7  160 353 
 YOP  SZ EP   1   1339  5.44                             127     0.3 7  179 153 
 YOP  SZ I        1339  6.09        37.7 0.20                           179 153 
 YOP  SN ES   1   1339 28.80                             127     0.2 7  179 153 
 NOR  SZ EP   1   1339 10.68                             119    -0.2 6  235 234 
 CHI  HZ EP   1   1339 12.65                             117    -0.1 6  249 195 
 CHI  HN ES   2   1339 42.38                             117     0.1 4  249 195 
 CHI  HZ I        1339 46.58        35.1 0.50                           249 195 
 GUY  SZ EP   1   1339 19.50                             112     0.5 5  304 235 
 TOL  SZ EP   1   1339 23.74                             109     0.4 5  344 225 
 PRA  HZ EP   2   1339 28.16                             107    -0.4 3  392 210 
 PRA  HN ES   1   1340  9.49                             107    -0.9 4  392 210 
 PRA  HZ I        1340 16.01        69.1 0.24                           392 210 
                                                                                
