 2016  318 1327 28.1 L   6.342 -73.722106.0  RSN  6 0.2 1.5LRSN                1
 GAP= 90        0.60       2.9     2.1  5.0 -0.9286E+00  0.9213E+00 -0.6309E+01E
 Epicentro: SANTA HELENA DEL OPON - SANTANDER                                  3
 ACTION:UPD 16-05-13 21:25 OP:cam  STATUS:               ID:20160318132728 L   I
 OLDACT:REG 16-03-18 20:52 OP:cara STATUS:               ID:20160318131750     3
 2016-03-18-1317-50M.COL___321                                                 6
 STAT SP IPHASW D HRMM SECON CODA AMPLIT PERI AZIMU VELO AIN AR TRES W  DIS CAZ7
 BAR2 EZ EP       1327 45.35                             146    0.3110 65.8  65 
 BAR2 EZ ES       1327 58.53                             146    0.2510 65.8  65 
 BAR2 EZ I        1327 59.75        25.5 0.20            137           65.8  65 
 PTB  HZ EP       1327 46.01                             138   -0.0810 84.1 285 
 PTB  HN ES       1327 59.91                             138   -0.2510 84.1 285 
 PTB  HZ I        1328  0.50         5.8 0.14            136           84.1 285 
 SPBC HZ I        1327 46.82         8.2 0.10            147           85.6 207 
 SPBC HN ES       1328  0.71                             138    0.1510 85.6 207 
 RUS  HZ EP       1327 46.69                             138   -0.2610 86.5 125 
 RUS  HN ES       1328  1.58                             138   -0.1010 86.5 125 
 RUS  HZ I        1328  1.96         3.4 0.22            139           86.5 125 
 PAM  EZ EP       1327 53.76                             119   -0.05 9  158  46 
 PAM  EZ I        1327 56.13         3.4 0.20            114            158  46 
 PAM  EE ES       1328 13.66                             119   -0.23 9  158  46 
 ZAR  HZ EP       1327 55.72                             116    0.28 9  179 315 
 ZAR  HE ES   4   1328 19.02                             116    2.23 0  179 315 
 ZAR  HZ I        1328 21.11         4.7 0.54            112            179 315 
                                                                                
