 2016  918 1626  4.8 L   6.241 -73.929 92.8  RSN 12 0.4 1.5LRSN                1
 GAP= 61        1.09       2.6     2.7  6.8  0.2073E+00  0.5394E+01 -0.1140E+01E
 Epicentro: CIMITARRA - SANTANDER                                              3
 ACTION:UPD 17-08-17 21:13 OP:lp   STATUS:               ID:20160918162604 L   I
 OLDACT:REG 16-09-18 23:13 OP:ar   STATUS:               ID:20160918161729     3
 2016-09-18-1618-00M.COL___360                                                 6
 STAT SP IPHASW D HRMM SECON CODA AMPLIT PERI AZIMU VELO AIN AR TRES W  DIS CAZ7
 PTB  HZ EP       1626 19.68                             141   -0.6010 67.0 300 
 PTB  HN ES       1626 31.83                             141   -0.5010 67.0 300 
 PTB  HZ I        1626 34.63        13.5 0.14            142           67.0 300 
 SPBC HZ EP       1626 20.19                             141   -0.2010 67.0 194 
 SPBC HN ES       1626 32.43                             141   -0.0910 67.0 194 
 BAR2 EZ EP       1626 22.73                             132    0.0810 91.3  65 
 BAR2 EZ ES       1626 36.70                             132    0.1610 91.3  65 
 BAR2 EZ I        1626 37.54        23.8 0.24            135           91.3  65 
 BRR  HZ IP     D 1626 23.00                             129   -0.0210 98.7  14 
 BRR  HN ES       1626 37.79                             129    0.5910 98.7  14 
 BRR  HZ I        1626 38.84        11.9 0.14            132           98.7  14 
 RUS  HZ EP       1626 23.63                             129   -0.2910  101 112 
 RUS  HN ES       1626 38.48                             129   -0.3310  101 112 
 RUS  HZ I        1626 39.19         2.3 0.26            132            101 112 
 NOR  HZ EP       1626 25.70                             122   -0.3610  128 234 
 NOR  HN ES       1626 42.87                             122    0.2610  128 234 
 NOR  HZ I        1626 46.00         6.2 0.16            123            128 234 
 ZAR  HZ EP       1626 31.01                             114    0.19 9  172 323 
 ZAR  HN ES       1626 51.80                             114    0.72 9  172 323 
 ZAR  HZ I        1626 53.73        14.4 0.28            115            172 323 
 HEL  HZ EP       1626 32.32                             113    0.50 9  177 268 
 HEL  HE ES       1626 53.34                             113    0.47 9  177 268 
 HEL  HZ I        1626 57.91         3.8 0.26            114            177 268 
 CHI  HZ EP   4   1626 29.25                             113   -2.91 0  180 173 
 CHI  HN ES       1626 54.26                             113    0.79 9  180 173 
 CHI  HZ I        1626 58.86         1.4 0.12            114            180 173 
 PAM  EZ EP   4   1626 34.48                             113    1.92 0  182  48 
 PAM  EN ES   4   1626 53.83                             113   -0.37 0  182  48 
 PAM  EZ I        1626 55.70         2.9 0.16            115            182  48 
 GUY2CHZ EP       1626 33.86                             111   -0.12 9  195 235 
 GUY2CHN ES   4   1626 57.36                             111    0.65 0  195 235 
 GUY2CHZ I        1627  1.17         3.6 0.34                           195 235 
 URE  HZ EP       1626 38.62                             106   -0.48 8  243 313 
 URE  HN ES       1627  5.13                             106   -0.70 8  243 313 
                                                                                
