 2014  918 1315 21.5 L   6.798 -73.101152.0  RSN 11 0.4 1.9LRSN                1
 GAP=142        0.88       3.2     4.8  5.2 -0.8405E+00  0.4060E+01  0.1845E+01E
 Epicentro: LOS SANTOS - SANTANDER                                             3
 ACTION:UPD 14-10-03 23:06 OP:nd   STATUS:               ID:20140918131521 L   I
 OLDACT:REG 14-09-18 21:49 OP:spq  STATUS:               ID:20140918130818     3
 2014-09-18-1308-18M.COL___284                                                 6
 STAT SP IPHASW D HRMM SECON CODA AMPLIT PERI AZIMU VELO AIN AR TRES W  DIS CAZ7
 BAR2 SZ EP       1315 41.78                             170   -0.1710 24.5 201 
 BAR2 SZ ES   1   1315 57.52                             170   -0.34 7 24.5 201 
 BAR2 SZ I        1315 58.61        19.2 0.44            168           24.5 201 
 PAM  SZ EP   1   1315 44.82                             153    0.55 7 74.5  37 
 PAM  SN ES   1   1316  2.24                             153    0.25 7 74.5  37 
 PAM  SZ I        1316  4.03         6.8 0.44            156           74.5  37 
 BRR  HZ EP       1315 43.76                             152    0.1410 75.6 297 
 BRR  HE ES       1316  1.47                             152    0.6310 75.6 297 
 BRR  HZ I        1316  7.13        11.3 0.32            149           75.6 297 
 RUS  HZ EP       1315 45.92                             145    0.0310  100 179 
 RUS  HN ES       1316  4.52                             145   -0.3510  100 179 
 RUS  HZ I        1316  5.40         7.3 0.26            147            100 179 
 PTB  HZ EP       1315 48.68                             133   -0.78 9  153 259 
 PTB  HE ES       1316 11.04                             133   -0.19 9  153 259 
 PTB  HZ I        1316 14.38        10.1 0.28            131            153 259 
 SPBC HZ EP       1315 50.70                             130   -0.11 9  166 220 
 SPBC HN ES   1   1316 14.14                             130    0.50 7  166 220 
 SPBC HZ I        1316 17.77         9.8 0.21            130            166 220 
 SML  HZ EP       1315 58.36                             119   -0.41 8  246 334 
 SML  HE ES   1   1316 27.56                             119   -0.25 6  246 334 
 SML  HZ I        1316 34.59         8.7 0.10            119            246 334 
 CHI  HZ EP   1   1315 59.70                             118   -0.02 6  250 196 
 CHI  HN ES   1   1316 29.50                             118    0.00 6  250 196 
 CHI  HZ I        1316 35.07         3.3 0.24            119            250 196 
 GUY2CHZ EP   1   1316  6.24                             113    0.35 5  305 235 
 GUY2CHE ES   4   1316 42.56                             113    2.08 0  305 235 
 GUY2CHZ I        1316 47.30         3.0 0.60                           305 235 
 TOL  SE ES   4   1316 51.34                             110    2.76 0  347 225 
 TOL  SZ I        1316 54.89         4.5 0.36            111            347 225 
 PRA  HZ EP       1316 16.16                             107    0.60 6  394 210 
 PRA  HN ES       1316 58.28                             107    0.60 6  394 210 
 PRA  HZ I        1317  1.03         3.2 0.28            108            394 210 
                                                                                
