 2013  818 1908 12.7 L   6.782 -73.172149.7  RSN  6 0.4 1.2LRSN                1
 GAP=134        0.93       5.5     5.5  7.7  0.5565E+01  0.7047E+01 -0.2085E+01E
 Epicentro: LOS SANTOS - SANTANDER                                             3
 ACTION:UPD 14-01-14 09:04 OP:ep   STATUS:               ID:20130818190812 L   I
 OLDACT:DUP 13-08-18 20:28 OP:jn   STATUS:               ID:20130818185901d    3
 OLDACT:DUP 13-08-18 20:18 OP:jn   STATUS:               ID:20130818185960d    3
 OLDACT:REG 13-08-18 15:06 OP:jn   STATUS:               ID:20130818185959     3
 2013-08-18-1859-59M.COL___269                                                 6
 STAT SP IPHASW D HRMM SECON CODA AMPLIT PERI AZIMU VELO AIN AR TRES W  DIS CAZ7
 BAR2 SZ EP       19 8 32.62                             172   -0.1110 21.0 183 
 BAR2 SZ ES       19 8 48.89                             172    0.5210 21.0 183 
 BAR2 SZ I        19 8 49.14         5.1 0.24            172           21.0 183 
 BRR  HZ EP       19 8 34.52                             154    0.3710 69.6 301 
 BRR  HN ES   1   19 8 51.02                             154    0.11 7 69.6 301 
 PAM  SZ EP   1   19 8 35.57                             150    0.07 7 80.8  40 
 PAM  SN ES   1   19 8 52.54                             150   -0.77 7 80.8  40 
 PAM  SZ I        19 8 57.13         2.3 0.36            153           80.8  40 
 RUS  HZ EP       19 8 36.73                             145    0.0510 98.9 174 
 RUS  HN ES       19 8 55.32                             145   -0.1010 98.9 174 
 RUS  HZ I        19 8 56.41         1.5 0.18            149           98.9 174 
 PTB  HZ EP   1   19 8 39.50                             134   -0.17 7  145 259 
 PTB  HN ES   1   19 8 59.77                             134   -0.96 7  145 259 
 PTB  HZ I        19 9  7.90         3.3 0.34            133            145 259 
 ZAR  HN ES   1   19 9 10.92                             123    0.40 6  202 293 
 ZAR  HZ I        19 9 16.44         1.9 0.10            123            202 293 
                                                                                
