 2016  318 1729 46.3 L   6.764 -73.131141.9  RSN  8 0.3 2.1LRSN                1
 GAP=140        0.72       2.7     3.1  4.5 -0.1053E+01  0.5189E+01  0.1012E+01E
 Epicentro: LOS SANTOS - SANTANDER                                             3
 ACTION:UPD 16-05-13 21:25 OP:cam  STATUS:               ID:20160318172946 L   I
 OLDACT:REG 16-03-18 21:21 OP:cara STATUS:               ID:20160318172747     3
 2016-03-18-1727-47M.COL___331                                                 6
 STAT SP IPHASW D HRMM SECON CODA AMPLIT PERI AZIMU VELO AIN AR TRES W  DIS CAZ7
 BAR2 EZ IP     C 1730  5.44                             172    0.0310 19.8 197 
 BAR2 EZ I        1730  5.48        30.9 0.40            170           19.8 197 
 BAR2 EZ ES       1730 20.50                             172    0.1910 19.8 197 
 PAM  EZ EP       1730  8.19                             149   -0.0610 79.5  37 
 PAM  EZ I        1730  8.46        57.3 0.22            152           79.5  37 
 PAM  EN ES       1730 25.04                             149   -0.3210 79.5  37 
 RUS  HZ EP       1730  9.49                             144    0.1010 96.5 177 
 RUS  HN ES       1730 27.71                             144    0.3210 96.5 177 
 RUS  HZ I        1730 29.69        19.4 0.34            145           96.5 177 
 PTB  HZ IP       1730 12.73                             131   -0.32 9  149 260 
 PTB  HE ES       1730 33.66                             131   -0.24 9  149 260 
 PTB  HZ I        1730 35.24        10.6 0.20            131            149 260 
 SPBC HZ EP       1730 14.81                             128    0.49 9  161 220 
 SPBC HN ES       1730 36.03                             128   -0.14 9  161 220 
 SPBC HZ I        1730 38.97        32.7 0.22            129            161 220 
 ZAR  HZ EP       1730 18.90                             121    0.08 8  207 293 
 ZAR  HN ES       1730 44.53                             121    0.35 8  207 293 
 ZAR  HZ I        1730 49.26        21.6 0.44            122            207 293 
 CHI  HZ EP       1730 23.11                             117   -0.32 8  245 196 
 CHI  HN ES       1730 52.03                             117   -0.35 8  245 196 
 CHI  HZ I        1730 56.41         3.5 0.64            117            245 196 
 GUY2CHZ EP       1730 30.19                             112    0.55 7  300 236 
 GUY2CHN ES       1731  3.02                             112   -0.41 7  300 236 
 GUY2CHZ I        1731 12.29         5.2 0.44                           300 236 
                                                                                
