 2016 1118 1309 14.8 L   6.780 -73.163146.7  RSN  8 0.3 1.7LRSN                1
 GAP=146        0.83       3.8     3.6  5.7 -0.2398E+01  0.3164E+01  0.8978E+01E
 Epicentro: LOS SANTOS - SANTANDER                                             3
 ACTION:UPD 17-10-26 21:09 OP:lp   STATUS:               ID:20161118130914 L   I
 OLDACT:UP  16-11-18 23:06 OP:edw  STATUS:               ID:20161118130749     3
 OLDACT:UP  16-11-18 23:05 OP:edw  STATUS:               ID:20161118130749     3
 OLDACT:REG 16-11-18 20:32 OP:edw  STATUS:               ID:20161118130749     3
 2016-11-18-1308-00M.COL___337                                                 6
 STAT SP IPHASW D HRMM SECON CODA AMPLIT PERI AZIMU VELO AIN AR TRES W  DIS CAZ7
 BAR2 EZ EP       13 9 34.23                             172   -0.2410 20.9 186 
 BAR2 EZ ES       13 9 49.41                             172   -0.4210 20.9 186 
 BAR2 EZ I        13 9 50.77        25.2 0.18            170           20.9 186 
 BRR  HZ EP       13 9 36.23                             153    0.2410 70.6 301 
 BRR  HN ES       13 9 53.08                             153    0.5410 70.6 301 
 PAM  EZ EP       13 9 37.02                             150   -0.2510 80.3  40 
 PAM  EN ES       13 9 55.05                             150    0.2410 80.3  40 
 PAM  EZ I        13 9 56.50         5.2 0.38            152           80.3  40 
 PTB  HZ EP       13 9 41.95                             133    0.34 9  145 260 
 PTB  HN ES       1310  2.23                             133   -0.31 9  145 260 
 PTB  HZ I        1310  3.97         5.3 0.42            132            145 260 
 ZAR  HZ EP   4   13 9 48.59                             123    1.40 0  203 293 
 ZAR  HN ES       1310 11.88                             123   -0.59 9  203 293 
 ZAR  HZ I        1310 18.51         6.5 0.34            122            203 293 
 NOR  HZ EP       13 9 50.13                             119   -0.12 8  232 235 
 NOR  HN ES       1310 18.38                             119    0.45 8  232 235 
 NOR  HZ I        1310 23.78         3.3 0.20            119            232 235 
 CHI  HZ EP       13 9 52.47                             118    0.23 8  246 195 
 CHI  HE ES       1310 21.47                             118    0.01 8  246 195 
 CHI  HZ I        1310 25.48         1.2 0.13            118            246 195 
 PRA  HZ EP   2   1310  7.47                             107   -0.52 3  389 209 
 PRA  HN ES   2   1310 49.16                             107   -0.34 3  389 209 
 PRA  HZ I        1310 51.69         2.2 0.26            107            389 209 
 SJC  HZ EP   4   1310  8.46                             106   -2.00 0  410 327 
 SJC  HN ES   4   1310 51.52                             106   -2.38 0  410 327 
                                                                                
