 2016  518 1118 43.1 L   6.837 -73.131149.3  RSN  6 0.4 1.5LRSN                1
 GAP=242        1.07       6.3     6.1  7.2  0.1466E+02  0.1078E+02  0.1513E+01E
 Epicentro: LOS SANTOS - SANTANDER                                             3
 ACTION:UPD 16-08-18 17:47 OP:cam  STATUS:               ID:20160518111843 L   I
 OLDACT:REG 16-05-18 21:01 OP:drio STATUS:               ID:20160518110746     3
 2016-05-18-1107-46M.COL___294                                                 6
 STAT SP IPHASW D HRMM SECON CODA AMPLIT PERI AZIMU VELO AIN AR TRES W  DIS CAZ7
 BAR2 EZ EP       1119  3.40                             169    0.1210 27.7 192 
 BAR2 EZ ES       1119 18.29                             169   -0.7110 27.7 192 
 BAR2 EZ I        1119 27.58         5.0 0.16            165           27.7 192 
 BRR  HZ EP       1119  4.79                             153    0.1410 70.8 295 
 BRR  HN ES       1119 21.64                             153    0.2210 70.8 295 
 BRR  HZ I        1119 24.01        10.1 0.14            155           70.8 295 
 RUS  HZ EP       1119  7.48                             143   -0.0410  105 177 
 RUS  HN ES       1119 27.24                             143    0.7010  105 177 
 RUS  HZ I        1119 30.23         1.9 0.38            144            105 177 
 PTB  HZ EP       1119 10.18                             132   -0.43 9  150 257 
 PTB  HN ES       1119 31.58                             132   -0.46 9  150 257 
 PTB  HZ I        1119 38.05         5.5 0.44            135            150 257 
 ZAR  HZ EP       1119 16.10                             123    0.29 9  204 291 
 ZAR  HN ES       1119 41.70                             123    0.40 9  204 291 
 NOR  HZ EP       1119 18.89                             119   -0.58 8  238 234 
 NOR  HN ES       1119 48.17                             119    0.36 8  238 234 
 NOR  HZ I        1119 54.13         3.5 0.18            122            238 234 
                                                                                
