 2010  718 1451 31.7 L   7.462 -73.249134.1  RSN  6 0.4 1.8LRSN                1
 GAP=125        1.28       9.2    13.9 13.0 -0.6564E+02 -0.4372E+02  0.2902E+00E
 Epicentro: EL PLAYON - SANTANDER                                              3
 ACTION:UPD 10-12-01 15:18 OP:pat  STATUS:               ID:20100718145131 L   I
 2010-07-18-1450-00S.COL___119                                                 6
 STAT SP IPHASW D HRMM SECON CODA AMPLIT PERI AZIMU VELO AIN AR TRES W  DIS CAZ7
 GIR2 SZ EP   1   1451 49.71                             161    -0.6 7   43 172 
 GUE  SZ EP       1451 50.82                             157    -0.310   54  41 
 GUE  SZ I        1451 51.47         8.8 0.13                            54  41 
 GUE  SZ ES   1   1452  6.25                             157     0.0 7   54  41 
 BRR  HZ EP       1451 51.02                             153    -0.110   64 233 
 BRR  HN ES       1452  6.77                             153     0.410   64 233 
 BRR  HZ I        1452  7.59        36.9 0.08                            64 233 
 GRA  SZ EP       1451 52.42                             152     0.810   68  46 
 GRA  SZ I        1452 12.32        17.0 0.42                            68  46 
 OCA  SZ EP       1451 52.75                             145     0.010   86 355 
 OCA  SZ ES   1   1452  8.74                             145    -0.5 7   86 355 
 OCA  SZ I        1452 12.48        12.4 0.82                            86 355 
 BAR2 SZ ES   2   1452 10.23                             142    -0.5 5   96 176 
 BAR2 SZ I        1452 12.43         7.3 0.44                            96 176 
                                                                                
