 2013  418 1002 33.8 L   6.800 -73.153150.6  RSN  9 0.5 2.0LRSN                1
 GAP=136        1.28       5.1     5.2  7.3 -0.1083E+01  0.5115E+01 -0.2144E+01E
 Epicentro: LOS SANTOS - SANTANDER                                             3
 ACTION:UPD 13-05-22 14:39 OP:EP   STATUS:               ID:20130418100233 L   I
 2013-04-18-0958-50M.COL___215                                                 6
 STAT SP IPHASW D HRMM SECON CODA AMPLIT PERI AZIMU VELO AIN AR TRES W  DIS CAZ7
 BAR2 SZ EP       10 2 53.93                             171   -0.1110 23.2 188 
 BAR2 SZ ES       10 3  9.81                             171    0.0110 23.2 188 
 BAR2 SZ I        10 3 10.69        12.2 0.20            171           23.2 188 
 GIR2 SZ EP       10 2 54.13                             168    0.0510 31.2 352 
 GIR2 SZ ES       10 3 10.17                             168    0.3010 31.2 352 
 BRR  HZ IP       10 2 55.89                             154    0.4210 70.5 299 
 BRR  HN ES       10 3 13.23                             154    0.8910 70.5 299 
 BRR  HN I        10 3 13.88        34.4 0.22            154           70.5 299 
 PAM  SZ EP       10 2 56.98                             151    0.3810 77.9  40 
 PAM  SN ES       10 3 14.12                             151   -0.2310 77.9  40 
 PAM  SN I        10 3 15.34        20.1 0.44            152           77.9  40 
 RUS  HZ EP       10 2 57.75                             145   -0.3210  101 176 
 RUS  HN ES       10 3 16.85                             145   -0.1110  101 176 
 PTB  HZ EP       10 3  0.78                             133   -0.35 9  147 259 
 PTB  HN ES       10 3 21.65                             133   -0.77 9  147 259 
 CAPV BZ EP       10 3  1.78                             133    0.11 9  150  38 
 OCA  HN ES       10 3 23.75                             131   -1.14 9  160 353 
 ZAR  HZ EP       10 3  7.34                             124    0.81 9  203 292 
 ZAR  HN ES       10 3 31.98                             124   -0.04 9  203 292 
                                                                                
