 2013  818 1932 20.9 L   6.818 -73.172144.3  RSN  9 0.5 1.9LRSN                1
 GAP=132        1.10       4.7     4.9  8.0 -0.3651E+01  0.9854E+01  0.7132E+00E
 Epicentro: LOS SANTOS - SANTANDER                                             3
 ACTION:UPD 14-01-14 09:04 OP:ep   STATUS:               ID:20130818193220 L   I
 OLDACT:REG 13-08-18 17:42 OP:jn   STATUS:               ID:20130818192959     3
 2013-08-18-1929-59M.COL___269                                                 6
 STAT SP IPHASW D HRMM SECON CODA AMPLIT PERI AZIMU VELO AIN AR TRES W  DIS CAZ7
 BAR2 SZ EP       1932 40.60                             170    0.1710 25.0 183 
 BAR2 SZ ES       1932 55.46                             170   -0.1610 25.0 183 
 BAR2 SZ I        1932 56.55        19.7 0.22            168           25.0 183 
 BRR  HZ EP       1932 42.36                             154    0.6310 67.7 298 
 BRR  HE ES   1   1932 59.09                             154    1.14 7 67.7 298 
 BRR  HZ I        1933  2.30        23.0 0.34            153           67.7 298 
 PAM  SZ EP       1932 43.31                             150    0.2910 77.8  42 
 PAM  SN ES       1933  0.13                             150   -0.1110 77.8  42 
 PAM  SZ I        1933  2.45        20.7 0.52            155           77.8  42 
 RUS  HZ EP       1932 44.44                             143   -0.2710  103 174 
 RUS  HN ES   1   1933  2.91                             143   -0.34 7  103 174 
 RUS  HZ I        1933  4.17         9.7 0.22            144            103 174 
 PTB  HZ EP       1932 46.98                             132   -0.58 9  145 258 
 PTB  HN ES       1933  7.62                             132   -0.71 9  145 258 
 PTB  HZ I        1933  9.89         7.1 0.32            133            145 258 
 SPBC HZ EP   1   1932 49.64                             129    0.34 7  163 218 
 SPBC HN ES   1   1933 11.61                             129    0.19 7  163 218 
 SPBC HZ I        1933 18.46        11.2 0.42            130            163 218 
 ZAR  HN ES   1   1933 17.86                             123   -0.02 6  201 292 
 NOR  HE ES   1   1933 24.52                             118    0.37 6  233 234 
 NOR  HZ I        1933 29.30         6.7 0.38            120            233 234 
 SML  HN ES   1   1933 24.71                             117   -0.69 6  241 336 
                                                                                
