 2012  818 1854  1.0 L   6.732 -73.162138.3  RSN  7 0.4 1.9LRSN                1
 GAP=137        0.99       5.5     4.9  7.4 -0.1191E+01  0.7892E+01 -0.1561E+01E
 Epicentro: VILLANUEVA - SANTANDER                                             3
 ACTION:UPD 12-09-10 11:57 OP:ep   STATUS:               ID:20120818185401 L   I
 2012-08-18-1850-00M.COL___217                                                 6
 STAT SP IPHASW D HRMM SECON CODA AMPLIT PERI AZIMU VELO AIN AR TRES W  DIS CAZ7
 BAR2 SZ EP       1854 19.79                             173    0.2110 15.6 188 
 BAR2 SZ ES       1854 33.71                             173   -0.3710 15.6 188 
 BAR2 SZ I        1854 35.69        33.7 0.29                          15.6 188 
 BRR  HZ EP       1854 21.47                             150    0.0010 73.5 304 
 BRR  HZ I        1854 21.74        30.2 0.14                          73.5 304 
 BRR  HE ES       1854 38.33                             150    0.8910 73.5 304 
 PAM  SZ EP       1854 22.59                             147   -0.2710 84.4  37 
 PAM  SZ I        1854 22.92        18.9 0.15                          84.4  37 
 PAM  SN ES   1   1854 39.39                             147   -0.53 7 84.4  37 
 RUS  HZ EP   1   1854 23.86                             145    0.39 7 93.3 175 
 RUS  HE ES   1   1854 41.23                             145    0.22 7 93.3 175 
 RUS  HZ I        1854 44.02         5.4 0.33                          93.3 175 
 PTB  HZ EP   1   1854 26.62                             131   -0.44 7  145 262 
 PTB  HE ES   1   1854 46.90                             131   -0.51 7  145 262 
 PTB  HZ I        1854 54.54         7.5 0.49                           145 262 
 ZAR  HZ EP   1   1854 33.60                             121    0.52 6  205 294 
 ZAR  HN ES   1   1854 57.70                             121   -0.42 6  205 294 
 ZAR  HZ I        1855  6.70         6.6 0.25                           205 294 
 NOR  SN ES   1   1855  2.49                             118   -0.22 6  229 236 
 NOR  SZ I        1855  9.66         3.6 0.23                           229 236 
                                                                                
