 2017  318 1131  7.6 L   6.845 -73.126149.1  RSN  8 0.4 1.8LRSN                1
 GAP=137        0.95       4.1     4.0  6.6 -0.2012E+01  0.6672E+01  0.2560E+01E
 Epicentro: LOS SANTOS - SANTANDER                                             3
 ACTION:UPD 17-05-25 18:42 OP:jn   STATUS:               ID:20170318113107 L   I
 OLDACT:REG 17-03-18 20:47 OP:dnl  STATUS:               ID:20170318112747     3
 2017-03-18-1128-00M.COL___379                                                 6
 STAT SP IPHASW D HRMM SECON CODA AMPLIT PERI AZIMU VELO AIN AR TRES W  DIS CAZ7
 BAR2 EZ EP       1131 27.55                             169   -0.1410 28.6 193 
 BAR2 EZ ES       1131 43.44                             169    0.0410 28.6 193 
 BAR2 EZ I        1131 48.11         8.0 0.24            168           28.6 193 
 BRR  HZ IP     D 1131 29.13                             153    0.0810 71.0 294 
 BRR  HN ES       1131 46.23                             153    0.4210 71.0 294 
 BRR  HZ I        1131 48.95        16.8 0.28            153           71.0 294 
 PAM  EZ EP       1131 30.14                             153    0.3210 72.2  41 
 PAM  EE ES       1131 47.04                             153   -0.1510 72.2  41 
 PAM  EZ I        1131 47.70         5.3 0.24            157           72.2  41 
 RUS  HZ EP       1131 32.13                             143    0.1610  105 177 
 RUS  HE ES       1131 51.08                             143    0.0610  105 177 
 PTB  HZ EP       1131 34.26                             132   -0.82 9  151 257 
 PTB  HE ES       1131 56.24                             132   -0.31 9  151 257 
 PTB  HZ I        1131 57.83         6.5 0.22            133            151 257 
 SPBC HZ EP   2   1131 37.02                             129    0.22 5  168 219 
 SPBC HN ES       1131 59.22                             129   -0.39 9  168 219 
 SPBC HZ I        1132  5.17         6.3 0.10            131            168 219 
 ZAR  HZ EP   4   1131 41.62                             123    1.38 0  204 291 
 ZAR  HN ES       1132  5.69                             123   -0.05 9  204 291 
 ZAR  HZ I        1132 11.76        10.1 0.54            125            204 291 
 GUY2CHZ EP   4   1131 53.54                             113    1.70 0  306 234 
 GUY2CHN ES       1132 27.42                             113    1.04 7  306 234 
 GUY2CHZ  IAML    1132 35.96         2.8 0.46                           306 234 
                                                                                
