 2011  218 1502  9.5 L   6.766 -73.176144.5  RSN  4 0.2 1.5LRSN                1
 GAP=177        0.50      22.4   128.4 21.6  0.2808E+04 -0.2687E+04 -0.4558E+03E
 Epicentro: LOS SANTOS - SANTANDER                                             3
 ACTION:UP  11-03-28 15:09 OP:jfem STATUS:               ID:20110218150209 L   I
 2011-02-18-1459-40S.COL___137                                                 6
 STAT SP IPHASW D HRMM SECON CODA AMPLIT PERI AZIMU VELO SNR AR TRES W  DIS CAZ7
 BAR2 SZ EP       15 2 28.65                             154    -0.310   19 183 
 BAR2 SZ I        15 2 29.20         7.1 0.06                            19 183 
 BAR2 SZ ES   1   15 2 43.99                             154    -0.1 7   19 183 
 BTL  SZ EP       15 2 28.92                             153     0.010   20 329 
 BTL  SZ ES   1   15 2 44.23                             153     0.2 7   20 329 
 GIR2 SZ EP   3   15 2 29.56                                     0.4 2   35 357 
 RUS  HZ EP       15 2 33.11                             137     0.210   97 174 
 RUS  HN ES   1   15 2 51.04                             137    -0.1 7   97 174 
 RUS  HZ I        15 2 53.71         4.7 0.22                            97 174 
                                                                                
