 2017 1218 1155  3.6 L   6.635 -73.155158.0  RSN  4 0.1 1.7LRSN                1
 GAP=219        0.33       3.9     2.2  3.1  0.7912E+00  0.6255E+00 -0.6727E+01E
 Epicentro: VILLANUEVA - SANTANDER                                             3
 ACTION:UPD 18-01-04 13:21 OP:rebc STATUS:               ID:20171218115503 L   I
 OLDACT:REG 17-12-18 20:20 OP:dani STATUS:               ID:20171218114710     3
 2017-12-18-1148-00M.COL___448                                                 6
 STAT SP IPHASW D HRMM SECON CODA AMPLIT PERI AZIMU VELO AIN AR TRES W  DIS CAZ7
 BAR2 EZ EP       1155 24.57                             178    0.0410 5.59 213 
 BAR2 EZ ES       1155 40.79                             178   -0.0310 5.59 213 
 BAR2 EZ I        1155 42.51         6.9 0.10            172           5.59 213 
 PTB  HZ EP       1155 31.40                             135    0.08 9  144 266 
 PTB  HN ES       1155 52.90                             135   -0.02 9  144 266 
 PTB  HZ I        1156  0.03         5.0 0.46            134            144 266 
 ZAR  HZ EP       1155 37.39                             124   -0.18 8  211 297 
 ZAR  HE ES       1156  4.11                             124    0.07 8  211 297 
 ZAR  HZ I        1156  9.70         8.6 0.32            124            211 297 
 DRL03HZ EP       1155 47.88                             114    0.03 7  307 353 
                                                                                
