 2010  718 1611  5.6 L   6.790 -73.070146.0  RSN  6 0.4 1.7LRSN                1
 GAP=167        1.20       7.1    15.1 15.3  0.3938E+02 -0.1311E+03 -0.4466E+02E
 Epicentro: LOS SANTOS - SANTANDER                                             3
 ACTION:UPD 10-12-01 15:18 OP:pat  STATUS:               ID:20100718161105 L   I
 2010-07-18-1608-39S.COL___119                                                 6
 STAT SP IPHASW D HRMM SECON CODA AMPLIT PERI AZIMU VELO AIN AR TRES W  DIS CAZ7
 BAR2 SZ EP   1   1611 24.86                             171    -0.4 7   25 210 
 BAR2 SZ I        1611 42.83        11.9 0.42                            25 210 
 BRR  HZ EP       1611 26.80                             151    -0.410   79 296 
 BRR  HN ES       1611 44.40                             151     0.310   79 296 
 RUS  HZ EP       1611 29.28                             145     0.010   99 181 
 RUS  HN ES       1611 47.86                             145     0.110   99 181 
 RUS  HZ I        1611 48.93         6.8 0.58                            99 181 
 GUE  SZ EP       1611 30.01                             140    -0.310  116   8 
 GUE  SZ I        1611 53.62         2.6 0.15                           116   8 
 GRA  SZ EP   1   1611 31.76                             138     1.0 7  125  14 
 GRA  SZ I        1611 53.89         7.5 0.53                           125  14 
 PRA  HN ES   2   1612 42.19                             107     0.6 3  395 211 
 PRA  HZ I        1612 46.68         3.4 0.25                           395 211 
                                                                                
