 2011  618 1126 44.8 L   7.147 -73.073111.9  RSN  4 0.3 1.7LRSN                1
 GAP=165        0.61      12.1    12.4 14.9 -0.1261E+03 -0.1016E+03  0.1126E+03E
 Epicentro: BUCARAMANGA - SANTANDER                                            3
 ACTION:UP  11-07-14 19:06 OP:ep   STATUS:               ID:20110618112644 L   I
 2011-06-18-1123-39S.COL___139                                                 6
 STAT SP IPHASW D HRMM SECON CODA AMPLIT PERI AZIMU VELO SNR AR TRES W  DIS CAZ7
 BAR2 SZ EP   2   1127  2.13                             149    -0.1 5   63 191 
 BRI  SZ EP   2   1127  2.89                             145     0.3 5   70  26 
 BRI  SZ I        1127 20.20         5.2 0.35                            70  26 
 BRR  HZ EP   1   1127  2.07                             145    -0.3 7   71 266 
 BRR  HZ I        1127  2.33        23.1 0.20                            71 266 
 BRR  HN ES   2   1127 16.51                             145     0.4 5   71 266 
 GRA  SZ EP   1   1127  4.09                             139     0.3 7   87  20 
 GRA  SZ ES   1   1127 18.44                             139    -0.2 7   87  20 
 GRA  SZ I        1127 19.78        17.0 0.33                            87  20 
                                                                                
