 2011  618 1337 48.3 L   6.747 -73.104138.0  RSN  7 0.3 1.9LRSN                1
 GAP=161        0.73       3.8     5.7  5.9 -0.8996E+01  0.1841E+01 -0.1522E+01E
 Epicentro: LOS SANTOS - SANTANDER                                             3
 ACTION:UP  11-07-14 19:06 OP:ep   STATUS:               ID:20110618133748 L   I
 2011-06-18-1334-45S.COL___139                                                 6
 STAT SP IPHASW D HRMM SECON CODA AMPLIT PERI AZIMU VELO SNR AR TRES W  DIS CAZ7
 BAR2 SZ IP       1338  7.12                             172     0.210   19 207 
 BAR2 SZ ES   1   1338 21.36                             172     0.0 7   19 207 
 BAR2 SZ I        1338 23.39        15.2 0.25                            19 207 
 BRR  HZ EP       1338  8.97                             149     0.010   78 301 
 BRR  HZ I        1338  9.24        25.3 0.15                            78 301 
 BRR  HN ES   1   1338 25.61                             149     0.4 7   78 301 
 RUS  HZ EP   1   1338 11.14                             144     0.3 7   95 179 
 RUS  HZ I        1338 12.28         8.8 0.14                            95 179 
 RUS  HN ES   1   1338 28.11                             144    -0.3 7   95 179 
 BRI  SZ EP       1338 11.73                             139     0.010  112  18 
 BRI  SZ ES   2   1338 30.34                             139     0.3 5  112  18 
 BRI  SZ I        1338 34.85        10.3 0.48                           112  18 
 GRA  SZ EP       1338 12.91                             134    -0.310  130  15 
 GRA  SZ ES   2   1338 32.10                             134    -0.5 5  130  15 
 GRA  SZ I        1338 35.31        11.2 0.21                           130  15 
 NOR  SZ EP   1   1338 23.57                             117     0.0 6  235 236 
 NOR  SN ES   1   1338 50.53                             117    -0.6 6  235 236 
 PRA  HZ EP   1   1338 41.75                             105     0.6 4  389 211 
                                                                                
