 2013  418 1916 28.3 L   6.797 -73.147140.0  RSN  7 0.4 2.2LRSN                1
 GAP=136        1.04       4.4     4.8  6.6 -0.3365E+01  0.6818E+01  0.8459E+01E
 Epicentro: LOS SANTOS - SANTANDER                                             3
 ACTION:UPD 13-05-22 14:39 OP:EP   STATUS:               ID:20130418191628 L   I
 2013-04-18-1908-43M.COL___217                                                 6
 STAT SP IPHASW D HRMM SECON CODA AMPLIT PERI AZIMU VELO AIN AR TRES W  DIS CAZ7
 BAR2 SZ EP       1916 47.12                             170   -0.0810 22.9 190 
 BAR2 SZ I        1916 47.49        31.7 0.34            168           22.9 190 
 BAR2 SZ ES       1917  2.02                             170    0.0610 22.9 190 
 BRR  HZ EP       1916 48.95                             151    0.1510 71.2 299 
 BRR  HN ES       1917  5.34                             151    0.5310 71.2 299 
 BRR  HN I        1917  8.27        31.8 0.16            149           71.2 299 
 PAM  SZ EP       1916 50.01                             150    0.1110 77.8  39 
 PAM  SN ES       1917  6.79                             150    0.0210 77.8  39 
 RUS  HZ EP       1916 51.19                             143   -0.2410  100 176 
 RUS  HN ES       1917  9.24                             143   -0.2610  100 176 
 PTB  HZ EP       1916 53.87                             131   -0.88 9  148 259 
 PTB  HN ES       1917 14.81                             131   -0.59 9  148 259 
 CHI  HZ EP       1917  5.55                             116   -0.06 8  248 195 
 CHI  HN ES       1917 35.29                             116    0.56 8  248 195 
 CHI  HN I        1917 37.54        14.2 0.32            116            248 195 
 GUY  HZ EP       1917 12.58                             111    0.74 7  303 235 
 GUY  HN ES       1917 46.39                             111    0.56 7  303 235 
 GUY  HN I        1917 54.72         8.5 0.76            111            303 235 
                                                                                
