 2012  618 1816 34.2 L   6.810 -73.134149.5  RSN  7 0.4 1.8LRSN                1
 GAP=138        0.75       4.3     4.4  7.1 -0.5924E+00  0.1382E+02 -0.3391E+00E
 Epicentro: LOS SANTOS - SANTANDER                                             3
 ACTION:UPD 12-08-06 17:50 OP:ep   STATUS:               ID:20120618181633 L   I
 2012-06-18-1810-00M.COL___199                                                 6
 STAT SP IPHASW D HRMM SECON CODA AMPLIT PERI AZIMU VELO AIN AR TRES W  DIS CAZ7
 BAR2 SZ EP   1   1816 54.47                             170    0.12 7 24.7 193 
 BAR2 SZ ES   1   1817 10.60                             170    0.56 7 24.7 193 
 BAR2 SZ I        1817 12.38        10.6 0.37            163           24.7 193 
 PAM  SZ EP   1   1816 56.39                             152   -0.37 7 75.7  39 
 PAM  SE ES   1   1817 14.25                             152   -0.07 7 75.7  39 
 RUS  HZ EP   1   1816 58.27                             144   -0.17 7  102 177 
 RUS  HN ES   1   1817 17.25                             144   -0.06 7  102 177 
 RUS  HZ I        1817 18.06         6.1 0.32            142            102 177 
 PTB  HZ EP   1   1817  1.19                             133   -0.46 7  149 259 
 PTB  HN ES   1   1817 22.63                             133   -0.40 7  149 259 
 PTB  HZ I        1817 29.73         8.7 0.44            130            149 259 
 ZAR  HZ EP   1   1817  7.87                             123    0.85 6  205 292 
 ZAR  HE ES   1   1817 32.25                             123   -0.33 6  205 292 
 ZAR  HZ I        1817 38.39         9.9 0.45            123            205 292 
 CHI  HE ES   1   1817 41.88                             118   -0.12 6  250 195 
 CHI  HZ I        1817 51.59         3.4 0.46            117            250 195 
 HEL  HZ EP   1   1817 15.45                             115    0.63 6  274 256 
 HEL  HN ES   1   1817 46.61                             115    0.14 6  274 256 
 HEL  HZ I        1817 53.63         3.5 0.33            115            274 256 
                                                                                
