 2010  118 1532 51.7 L   6.783 -72.990146.9  RSN  6 0.4 1.9LRSN                1
 GAP=176        0.67       4.8     9.3  6.4 -0.1669E+02  0.1275E+02  0.3314E+01E
 Epicentro: CEPITA - SANTANDER                                                 3
 ACTION:UP  10-08-24 09:44 OP:vdl  STATUS:               ID:20100118153251 L   I
 2010-01-18-1519-51S.COL___082                                                 6
 STAT SP IPHASW D HRMM SECON CODA AMPLIT PERI AZIMU VELO SNR AR TRES W  DIS CAZ7
 BAR2 SZ IP       1533 11.48                             168    -0.210   30 225 
 BAR2 SZ ES   1   1533 26.71                             168    -0.5 7   30 225 
 RUS  HZ IP       1533 15.53                             144     0.010   99 186 
 RUS  HN ES   1   1533 34.36                             144     0.3 7   99 186 
 RUS  HZ I        1533 35.28         4.2 0.37                            99 186 
 GRA  SZ EP   2   1533 16.95                             138     0.0 5  124  10 
 GRA  SZ ES   2   1533 37.03                             138     0.5 5  124  10 
 CHI  HZ EP   1   1533 29.93                             117     0.1 6  252 199 
 CHI  HN ES   2   1534  0.36                             117     0.8 4  252 199 
 CHI  HZ I        1534  3.45         5.7 0.47                           252 199 
 HEL  HE ES   2   1534  7.15                             113     0.5 4  288 257 
 HEL  HZ I        1534  9.92         6.1 0.26                           288 257 
 PRA  HZ IP       1533 45.85                             106    -0.3 6  399 212 
 PRA  HE ES   2   1534 28.18                             106    -0.4 3  399 212 
 PRA  HZ I        1534 34.23         5.0 0.21                           399 212 
                                                                                
