 2016  518 1415 26.6 L   6.780 -73.138149.3  RSN  6 0.3 2.1LRSN                1
 GAP=237        0.86       4.7     5.1  5.8  0.9857E+01  0.4559E+01 -0.1153E+01E
 Epicentro: LOS SANTOS - SANTANDER                                             3
 ACTION:UPD 16-08-18 17:47 OP:cam  STATUS:               ID:20160518141526 L   I
 OLDACT:REG 16-05-18 21:09 OP:drio STATUS:               ID:20160518140744     3
 2016-05-18-1407-44M.COL___298                                                 6
 STAT SP IPHASW D HRMM SECON CODA AMPLIT PERI AZIMU VELO AIN AR TRES W  DIS CAZ7
 BAR2 EZ EP       1415 46.59                             172    0.0010 21.3 193 
 BAR2 EZ ES       1416  1.58                             172   -0.6210 21.3 193 
 BAR2 EZ I        1416  2.72        30.3 0.24            169           21.3 193 
 BRR  HZ EP       1415 48.43                             152    0.2310 73.0 300 
 BRR  HN ES       1416  5.69                             152    0.6110 73.0 300 
 BRR  HZ I        1416  6.85        21.3 0.32            150           73.0 300 
 RUS  HZ EP       1415 50.35                             145   -0.1610 98.3 176 
 RUS  HE ES       1416  9.43                             145    0.2410 98.3 176 
 RUS  HZ I        1416 10.10        11.2 0.22            146           98.3 176 
 PTB  HZ EP       1415 53.71                             133   -0.16 9  148 260 
 PTB  HE ES       1416 15.16                             133    0.00 9  148 260 
 PTB  HZ I        1416 20.27        10.5 0.14            131            148 260 
 SPBC HZ EP       1415 55.63                             130    0.40 9  162 220 
 SPBC HN ES       1416 17.48                             130   -0.11 9  162 220 
 SPBC HZ I        1416 18.72        18.1 0.26            130            162 220 
 ZAR  HZ EP       1415 59.20                             123   -0.21 8  206 293 
 ZAR  HE ES       1416 24.70                             123   -0.33 8  206 293 
 ZAR  HZ I        1416 30.65        15.6 0.56            122            206 293 
                                                                                
