 2017  318 1544 17.9 L   6.802 -73.207144.9  RSN  6 0.2 1.7LRSN                1
 GAP=129        0.38       2.5     2.3  3.7 -0.2022E+01  0.2675E+01 -0.2576E+01E
 Epicentro: ZAPATOCA - SANTANDER                                               3
 ACTION:UPD 17-05-25 18:42 OP:jn   STATUS:               ID:20170318154417 L   I
 OLDACT:UP  17-03-19 00:57 OP:dnl  STATUS:               ID:20170318153745     3
 OLDACT:REG 17-03-18 23:02 OP:dnl  STATUS:               ID:20170318153745     3
 2017-03-18-1538-00M.COL___409                                                 6
 STAT SP IPHASW D HRMM SECON CODA AMPLIT PERI AZIMU VELO AIN AR TRES W  DIS CAZ7
 BAR2 EZ EP       1544 37.32                             170   -0.1110 23.3 173 
 BAR2 EZ ES       1544 52.82                             170    0.1610 23.3 173 
 BAR2 EZ I        1544 54.60        11.0 0.24            172           23.3 173 
 BRR  HZ EP   2   1544 39.09                             154    0.46 5 65.2 301 
 BRR  HE ES   4   1544 56.51                             154    1.71 0 65.2 301 
 PAM  EZ EP       1544 40.38                             149    0.0910 81.7  43 
 PAM  EN ES       1544 57.62                             149   -0.1310 81.7  43 
 PAM  EZ I        1544 59.18         8.2 0.84            152           81.7  43 
 RUS  HZ EP   2   1544 41.79                             143    0.16 5  101 172 
 RUS  HE ES       1545  0.08                             143   -0.0610  101 172 
 RUS  HZ I        1545  0.80         4.7 0.24            149            101 172 
 PTB  HZ EP   2   1544 44.04                             133   -0.17 5  141 258 
 PTB  HE ES       1545  4.67                             133   -0.05 9  141 258 
 PTB  HZ I        1545  8.61         6.8 0.16            132            141 258 
 ZAR  HZ EP   2   1544 49.57                             123   -0.07 4  198 293 
 ZAR  HE ES   4   1545 12.19                             123   -2.20 0  198 293 
 ZAR  HZ I        1545 22.34         7.9 0.40            122            198 293 
                                                                                
