 2011 1018 1020  1.0 L   6.780 -73.139141.4  RSN  4 0.2 1.4LRSN                1
 GAP=138        0.53       3.2     3.7  5.8  0.3414E+01  0.2206E+01 -0.2707E+00E
 Epicentro: LOS SANTOS - SANTANDER                                             3
 ACTION:UPD 12-07-13 16:04 OP:ep   STATUS:               ID:20111018102001 L   I
 2011-10-18-1016-00S.COL___168                                                 6
 STAT SP IPHASW D HRMM SECON CODA AMPLIT PERI AZIMU VELO AIN AR TRES W  DIS CAZ7
 BRR  HZ EP   1   1020 21.81                             151    0.00 7 73.0 300 
 BRR  HZ I        1020 27.24         8.8 0.30                          73.0 300 
 BRR  HN ES       1020 38.29                             151    0.2710 73.0 300 
 PAM  SZ EP   1   1020 22.89                             150    0.04 7 78.6  38 
 PAM  SN ES   1   1020 39.69                             150   -0.19 7 78.6  38 
 RUS  HZ EP   1   1020 24.41                             144    0.23 7 98.3 176 
 RUS  HN ES       1020 42.10                             144   -0.1510 98.3 176 
 RUS  HZ I        1020 45.50         2.1 0.33                          98.3 176 
 ZAR  HZ EP   2   1020 33.55                             121    0.20 4  206 293 
 ZAR  HN ES   1   1020 58.06                             121   -0.51 6  206 293 
 ZAR  HZ I        1021  3.96         2.4 0.33                           206 293 
                                                                                
