 2014  318 1414 58.4 L   6.784 -73.136146.0  RSN 10 0.5 1.9LRSN                1
 GAP=139        1.05       5.0     5.1  7.4 -0.3360E+01  0.1017E+02  0.7805E+01E
 Epicentro: LOS SANTOS - SANTANDER                                             3
 OLDACT:REG 14-03-18 15:12 OP:fm   STATUS:               ID:20140318140805     3
 ACTION:UPD 14-04-09 23:18 OP:nd   STATUS:               ID:20140318141458 L   I
 OLDACT:UP  14-03-18 19:00 OP:fm   STATUS:               ID:20140318140805     3
 2014-03-18-1408-05M.COL___238                                                 6
 STAT SP IPHASW D HRMM SECON CODA AMPLIT PERI AZIMU VELO AIN AR TRES W  DIS CAZ7
 BAR2 SZ EP       1415 17.73                             171   -0.3310 21.8 194 
 BAR2 SZ ES       1415 32.95                             171   -0.4210 21.8 194 
 BAR2 SZ I        1415 34.49        20.5 0.46            171           21.8 194 
 BRR  HZ EP       1415 19.95                             152    0.2410 73.0 299 
 BRR  HN ES       1415 37.14                             152    0.8410 73.0 299 
 BRR  SZ I        1415 39.98        10.9 0.32            153           73.0 299 
 PAM  SZ EP   1   1415 20.53                             151   -0.18 7 78.1  38 
 PAM  SN ES       1415 37.93                             151   -0.1610 78.1  38 
 PAM  SZ I        1415 39.75        15.6 0.50            154           78.1  38 
 RUS  HZ EP       1415 21.96                             145   -0.1110 98.7 177 
 RUS  HN ES   1   1415 41.50                             145    0.99 7 98.7 177 
 RUS  SZ I        1415 42.45        10.3 0.66            146           98.7 177 
 PTB  HN ES   1   1415 45.88                             132   -0.70 7  148 260 
 SPBC HN ES   2   1415 48.98                             129   -0.09 5  162 220 
 ZAR  HN ES   1   1415 56.13                             122   -0.39 6  206 292 
 NOR  HZ EP       1415 34.02                             119   -0.14 8  235 235 
 NOR  HN ES       1416  1.77                             119   -0.25 8  235 235 
 NOR  SZ I        1416  5.85         6.1 0.22            120            235 235 
 SML  HN ES   2   1416  4.18                             117    0.13 4  246 335 
 GUY2CHZ EP   1   1415 42.91                             113    0.88 5  301 235 
 GUY2CHE ES   4   1416 18.39                             113    2.35 0  301 235 
 GUY2CSZ I        1416 28.87         3.7 0.88                           301 235 
                                                                                
