 2013  918 1255 39.9 L   6.757 -73.193144.0  RSN  4 0.2 1.3LRSN                1
 GAP=229        0.53       5.8     4.9  5.3  0.1158E+02  0.4452E+01 -0.2159E+01E
 Epicentro: VILLANUEVA - SANTANDER                                             3
 ACTION:UPD 13-10-22 09:23 OP:ep   STATUS:               ID:20130918125539 L   I
 OLDACT:REG 13-09-18 15:21 OP:jn   STATUS:               ID:20130918124959     3
 2013-09-18-1249-59M.COL___269                                                 6
 STAT SP IPHASW D HRMM SECON CODA AMPLIT PERI AZIMU VELO AIN AR TRES W  DIS CAZ7
 BAR2 SZ EP       1255 59.21                             172   -0.0610 18.3 176 
 BAR2 SZ ES       1256 14.12                             172   -0.2210 18.3 176 
 BAR2 SZ I        1256 15.41         4.9 0.20            167           18.3 176 
 BRR  HZ EP   1   1256  0.92                             153    0.13 7 69.2 304 
 BRR  HE ES   2   1256 17.57                             153    0.52 5 69.2 304 
 RUS  HZ EP   1   1256  3.55                             144    0.33 7 96.4 173 
 RUS  HN ES   1   1256 21.46                             144    0.08 7 96.4 173 
 RUS  HZ I        1256 23.08         3.3 0.30            143           96.4 173 
 PTB  HZ EP   1   1256  5.87                             133   -0.36 7  142 260 
 PTB  HN ES   1   1256 26.77                             133    0.04 7  142 260 
 PTB  HZ I        1256 31.15         1.9 0.38            130            142 260 
                                                                                
