 2014 1118 1743 16.8 L   6.783 -73.153141.6  RSN 21 0.7 2.8LRSN                1
 GAP= 65        1.76       4.5     4.4  7.8 -0.2400E+01  0.6602E+01  0.1081E+02E
 Epicentro: LOS SANTOS - SANTANDER                                             3
 ACTION:UPD 14-12-19 15:44 OP:nd   STATUS:               ID:20141118174316 L   I
 OLDACT:ARG 14-11-18 23:39 OP:stll STATUS:               ID:20141118173745     3
 2014-11-18-1737-45M.COL___277                                                 6
 STAT SP IPHASW D HRMM SECON CODA AMPLIT PERI AZIMU VELO AIN AR TRES W  DIS CAZ7
 BAR2 SZ EP       1743 36.24                             171    0.3310 21.3 189 
 BAR2 SZ ES       1743 50.95                             171    0.1510 21.3 189 
 BAR2 SZ I        1743 52.44       136.0 0.26            170           21.3 189 
 BRR  HZ IP     C 1743 38.10                             152    0.5710 71.5 300 
 BRR  HN ES       1743 54.66                             152    0.9710 71.5 300 
 BRR  HZ I        1743 59.32        92.1 0.16            144           71.5 300 
 PAM  SZ IP     C 1743 39.08                             149    0.3710 79.4  39 
 PAM  SZ I        1743 39.38       233.3 0.20            147           79.4  39 
 PAM  SN ES       1743 55.81                             149    0.0210 79.4  39 
 RUS  HZ IP     D 1743 40.27                             143    0.2410 98.7 176 
 RUS  HN ES       1743 58.37                             143    0.2410 98.7 176 
 RUS  HZ I        1744  0.45        53.8 0.44            144           98.7 176 
 PTB  HZ EP       1743 42.93                             131   -0.41 9  147 260 
 PTB  HN ES       1744  3.14                             131   -0.89 9  147 260 
 PTB  HZ I        1744  6.04        69.6 0.14            126            147 260 
 TAM  HZ IP     D 1743 44.72                             129    0.53 9  155 104 
 TAM  HZ I        1743 44.93        62.5 0.38            130            155 104 
 TAM  HE ES       1744  4.66                             129   -0.89 9  155 104 
 SPBC HZ EP       1743 45.22                             128    0.41 9  161 219 
 SPBC HN ES       1744  6.59                             128   -0.05 9  161 219 
 SPBC HZ I        1744 11.72       112.8 0.20            125            161 219 
 OCA  HZ EP       1743 44.17                             128   -0.81 9  162 353 
 OCA  HN ES       1744  6.05                             128   -0.90 9  162 353 
 OCA  HZ I        1744 14.62        69.6 0.20            124            162 353 
 NOR  HZ EP       1743 52.34                             118    0.22 8  233 235 
 NOR  HN ES       1744 19.45                             118   -0.20 8  233 235 
 NOR  HZ I        1744 28.26        44.2 0.14            114            233 235 
 CHI  HZ EP       1743 54.31                             116    0.25 8  247 195 
 CHI  HN ES       1744 23.15                             116    0.04 8  247 195 
 CHI  HZ I        1744 27.27        48.4 0.60            114            247 195 
 HEL  HZ EP       1743 57.48                             114    0.80 8  271 256 
 HEL  HN ES       1744 27.68                             114   -0.10 8  271 256 
 HEL  HZ I        1744 34.11        35.2 0.28            111            271 256 
 URE  HZ EP   9   1743 56.15                             113   -1.54 0  284 292 
 URE  HN ES       1744 25.18                                   -2.85 7  284 292 
 PTGC HZ EP       1743 59.36                             111   -0.96 7  307 158 
 PTGC HN ES       1744 32.11                             111   -2.14 7  307 158 
 CBOC HZ EP       1744  4.24                             109    0.83 7  332 252 
 CBOC HZ I        1744  7.24        11.1 0.18            106            332 252 
 CBOC HE ES       1744 38.44                             109   -1.31 7  332 252 
 DBB  SZ EP       1744  4.18                             109    0.13 7  339 275 
 DBB  SZ I        1744 42.54        73.8 0.56            106            339 275 
 TOL  SZ EP       1744  5.31                             108    0.62 7  342 225 
 TOL  SE ES       1744 41.94                             108   -0.08 7  342 225 
 MON  HZ EP   9   1744  3.00                             108   -2.73 0  354 309 
 MON  HE ES       1744 40.32                                   -0.83 6  354 309 
 MON  HZ I        1744 57.02        16.2 0.54            105            354 309 
 ANIL HZ EP       1744  7.08                             108    0.84 6  355 225 
 ANIL HN ES       1744 45.06                             108    0.27 6  355 225 
 ANIL HZ I        1744 56.31        10.4 0.32            105            355 225 
 PRA  HZ EP       1744 10.38                             106    0.42 6  390 210 
 PRA  HN ES       1744 51.25                             106   -0.15 6  390 210 
 PRA  HZ I        1744 56.42        35.1 0.50            104            390 210 
 ORTC HZ EP       1744  9.98                             106   -0.38 6  393 216 
 ORTC HN ES       1744 52.55                             106    0.43 6  393 216 
 ORTC HZ I        1744 57.68        21.9 0.30            104            393 216 
 SJC  HZ EP   9   1744  9.72                             105   -2.67 0  410 327 
 SJC  HN ES       1744 51.13                                   -1.93 6  410 327 
 SJC  HZ I        1745  6.23         9.6 0.56            102            410 327 
                                                                                
