 2010  918 1335 22.0 L   6.818 -73.114141.1  RSN 13 0.4 2.8LRSN                1
 GAP=162        0.79       3.8     6.1  6.5 -0.9845E+01  0.1055E+02  0.3475E+01E
 Epicentro: LOS SANTOS - SANTANDER                                             3
 ACTION:UP  11-02-18 11:03 OP:tino STATUS:               ID:20100918133522 L   I
 2010-09-18-1330-52S.COL___121                                                 6
 STAT SP IPHASW D HRMM SECON CODA AMPLIT PERI AZIMU VELO SNR AR TRES W  DIS CAZ7
 BAR2 SZ IP     D 1335 41.03                             169    -0.110   26 197 
 BAR2 SZ ES   2   1335 55.84                             169    -0.2 5   26 197 
 BAR2 SZ I        1335 59.73        96.4 1.03                            26 197 
 GIR2 SZ EP   1   1335 41.02                             167    -0.1 7   30 343 
 GIR2 SZ ES   2   1335 55.88                             167    -0.1 5   30 343 
 BRR  HZ IP     C 1335 42.82                             151     0.010   73 296 
 BRR  HE ES   2   1335 59.87                             151     0.9 5   73 296 
 BRR  HZ I        1336  3.06       141.4 0.43                            73 296 
 RUS  HZ EP   1   1335 45.11                             142    -0.3 7  102 178 
 RUS  HN ES   2   1336  3.89                             142     0.2 5  102 178 
 RUS  HZ I        1336  5.64        82.7 0.36                           102 178 
 GUE  SZ EP   1   1335 45.95                             139    -0.1 7  114  11 
 GRA  SZ EP   1   1335 46.73                             137     0.1 7  123  16 
 GRA  SZ ES   2   1336  6.29                             137     0.5 5  123  16 
 GRA  SZ I        1336  7.46       126.5 0.21                           123  16 
 OCA  SZ EP   1   1335 49.48                             129    -0.3 7  159 352 
 OCA  SZ ES   2   1336 10.87                             129    -0.6 5  159 352 
 OCA  SZ I        1336 14.64        63.2 0.26                           159 352 
 NOR  HZ IP     D 1335 57.51                             117    -0.4 8  239 235 
 NOR  HN ES   2   1336 25.05                             117    -0.9 4  239 235 
 CHI  HZ EP   1   1335 59.55                             116    -0.2 6  252 196 
 CHI  HE ES   2   1336 29.12                             116    -0.1 4  252 196 
 CHI  HZ I        1336 32.11        23.4 0.54                           252 196 
 ROSC BZ EP   1   1336  1.17                             115     0.9 6  256 211 
 ROSC BN ES   2   1336 30.42                             115     0.3 4  256 211 
 ROSC BZ I        1336 35.14        42.8 0.36                           256 211 
 HEL  HZ EP   1   1336  3.22                             113     0.8 6  276 256 
 HEL  HE ES   2   1336 33.33                             113    -0.6 4  276 256 
 HEL  HZ I        1336 40.18        26.8 0.25                           276 256 
 GUY  SZ EP   1   1336  6.49                             111     0.6 5  305 235 
 GUY  SE ES   2   1336 39.74                             111    -0.3 4  305 235 
 GUY  SZ I        1336 49.78        73.0 0.50                           305 235 
 RREF HZ EP   1   1336  8.63                             110     0.2 5  326 230 
 RREF HE ES   2   1336 44.81                             110     0.2 3  326 230 
 RREF HZ I        1336 49.58        25.7 0.20                           326 230 
                                                                                
