 2012  218 1955 42.7 L   6.797 -73.182138.0  RSN  8 0.4 1.8LRSN                1
 GAP=132        0.67       4.1     4.0  7.6  0.7690E+00  0.9639E+01  0.5935E+01E
 ACTION:UP  12-03-07 16:31 OP:epov STATUS:               ID:20120218195542 L   I
 2012-02-18-1950-00M.COL___188                                                 6
 STAT SP IPHASW D HRMM SECON CODA AMPLIT PERI AZIMU VELO AIN AR TRES W  DIS CAZ7
 GIR2 SZ EP   1   1956  1.25                             167   -0.16 7 31.2 358 
 BRR  HZ EP   1   1956  3.08                             152    0.29 7 67.9 300 
 BRR  HZ I        1956  3.43        24.7 0.14                          67.9 300 
 PAM  SZ EP   1   1956  3.95                             148   -0.29 7 80.2  42 
 PAM  SE ES   1   1956 21.15                             148    0.08 7 80.2  42 
 RUS  HZ EP   1   1956  5.62                             142   -0.04 7  101 174 
 RUS  HN ES   1   1956 23.84                             142    0.24 7  101 174 
 RUS  HZ I        1956 24.97         5.3 0.18                           101 174 
 PTB  HZ EP   1   1956  7.96                             131   -0.68 7  144 259 
 PTB  HE ES   1   1956 28.60                             131   -0.31 7  144 259 
 ZAR  HZ EP   2   1956 15.28                             121    1.04 4  200 293 
 ZAR  HN ES   1   1956 39.20                             121    0.33 6  200 293 
 ZAR  HZ I        1956 44.85        11.5 0.41                           200 293 
 CHI  HZ EP   1   1956 19.98                             116    0.18 6  247 194 
 CHI  HZ I        1956 20.71         1.9 0.43                           247 194 
 PRA  HZ EP   1   1956 35.87                             105    0.20 4  390 209 
                                                                                
