 2017  218 1700 12.3 L   6.803 -73.186138.8  RSN  5 0.3 1.3LRSN                1
 GAP=131        0.74       4.5     4.2  5.7  0.3590E+01 -0.1072E+01 -0.3065E+01E
 Epicentro: ZAPATOCA - SANTANDER                                               3
 ACTION:UPD 17-05-24 15:37 OP:jn   STATUS:               ID:20170218170012 L   I
 OLDACT:UP  17-02-19 00:27 OP:dani STATUS:               ID:20170218165744     3
 OLDACT:UP  17-02-19 00:27 OP:dani STATUS:               ID:20170218165744     3
 OLDACT:UP  17-02-19 00:27 OP:dani STATUS:               ID:20170218165744     3
 OLDACT:REG 17-02-18 21:45 OP:dani STATUS:               ID:20170218165744     3
 2017-02-18-1658-00M.COL___355                                                 6
 STAT SP IPHASW D HRMM SECON CODA AMPLIT PERI AZIMU VELO AIN AR TRES W  DIS CAZ7
 BAR2 EZ EP       17 0 31.00                             170   -0.0510 23.3 179 
 BAR2 EZ ES       17 0 45.55                             170   -0.1610 23.3 179 
 BAR2 EZ I        17 0 46.76         6.3 0.22            173           23.3 179 
 BRR  HZ EP       17 0 32.97                             153    0.5410 67.2 300 
 BRR  HN ES       17 0 48.31                             153    0.1510 67.2 300 
 BRR  HZ I        17 0 54.76         6.7 0.39            151           67.2 300 
 PAM  EZ EP       17 0 33.95                             148    0.0410 80.1  42 
 PAM  EN ES   3   17 0 49.59                             148   -1.20 2 80.1  42 
 PAM  EZ I        17 0 53.22         3.6 0.24            151           80.1  42 
 RUS  HZ EP       17 0 35.44                             142    0.0610  101 174 
 RUS  HE ES       17 0 53.54                             142    0.1210  101 174 
 RUS  HZ I        17 0 54.29         2.8 0.24            148            101 174 
 PTB  HZ EP       17 0 37.74                             132   -0.53 9  143 258 
 PTB  HN ES       17 0 58.38                             132   -0.18 9  143 258 
 PTB  HZ I        17 1  3.52         2.5 0.44            133            143 258 
                                                                                
