 2017 1218 1406 53.1 L   6.854 -73.178146.0  RSN  5 0.5 1.9LRSN                1
 GAP=137        0.90       8.3     6.5  8.4 -0.2823E+02  0.1171E+02 -0.1658E+02E
 Epicentro: ZAPATOCA - SANTANDER                                               3
 ACTION:UPD 18-01-04 13:21 OP:rebc STATUS:               ID:20171218140653 L   I
 OLDACT:UP  17-12-18 22:05 OP:dani STATUS:               ID:20171218135260d    3
 OLDACT:UP  17-12-18 22:04 OP:dani STATUS:               ID:20171218135260d    3
 OLDACT:DUP 17-12-18 22:00 OP:dani STATUS:               ID:20171218135260d    3
 2017-12-18-1358-00M.COL___448                                                 6
 STAT SP IPHASW D HRMM SECON CODA AMPLIT PERI AZIMU VELO AIN AR TRES W  DIS CAZ7
 BAR2 HZ EP       14 7 12.81                             168   -0.0910 28.9 181 
 BAR2 HZ ES       14 7 27.88                             168   -0.4510 28.9 181 
 BAR2 HZ I        14 7 29.23        32.6 0.18            170           28.9 181 
 PAM  EZ EP       14 7 15.72                             151    0.4910 75.3  44 
 PTB  HZ EP       14 7 19.62                             132   -0.28 9  146 256 
 PTB  HN ES       14 7 40.87                             132    0.07 9  146 256 
 PTB  HZ I        14 7 42.31         5.0 0.20            130            146 256 
 SPBC HZ EP       14 7 21.73                             129   -0.14 9  166 217 
 SPBC HE ES       14 7 44.77                             129    0.48 9  166 217 
 SPBC HZ I        14 7 48.26        11.0 0.12            129            166 217 
 ZAR  HZ EP   3   14 7 22.79                             123   -2.22 2  199 291 
 ZAR  HN ES   3   14 7 50.99                             123    1.10 2  199 291 
 ZAR  HZ I        14 7 59.81         4.9 0.17            120            199 291 
                                                                                
