 2013 1218 1841 13.8 L   6.769 -73.092139.6  RSN  4 0.2 1.7LRSN                1
 GAP=145        0.65       3.3     5.0  5.3 -0.3950E+00 -0.1842E+01  0.6139E+00E
 Epicentro: LOS SANTOS - SANTANDER                                             3
 ACTION:UPD 14-01-13 10:19 OP:ep   STATUS:               ID:20131218184113 L   I
 OLDACT:REG 13-12-18 15:49 OP:nd   STATUS:               ID:20131218184000     3
 2013-12-18-1840-00M.COL___285                                                 6
 STAT SP IPHASW D HRMM SECON CODA AMPLIT PERI AZIMU VELO AIN AR TRES W  DIS CAZ7
 BAR2 SZ EP       1841 32.19                             171   -0.4210 21.9 207 
 BAR2 SZ ES       1841 47.13                             171   -0.1910 21.9 207 
 BAR2 SZ I        1841 50.50        16.6 0.26            171           21.9 207 
 PAM  SZ EP       1841 35.57                             150    0.3010 76.6  34 
 PAM  SN ES       1841 52.00                             150   -0.0510 76.6  34 
 PAM  SZ I        1841 54.89         7.6 0.50            153           76.6  34 
 BRR  HZ EP       1841 34.52                             149   -0.1410 78.0 299 
 BRR  HN ES       1841 51.18                             149    0.2210 78.0 299 
 BRR  HZ I        1841 55.51        11.2 0.30            150           78.0 299 
 RUS  HZ EP       1841 36.71                             144    0.0810 96.9 179 
 RUS  HN ES       1841 54.68                             144    0.2010 96.9 179 
 RUS  HZ I        1841 56.59         5.1 0.28            148           96.9 179 
                                                                                
