 2017  418 1143 34.3 L   6.805 -73.179144.5  RSN 10 0.4 1.9LRSN                1
 GAP=109        0.89       2.9     3.0  4.9  0.1054E+01  0.2912E+01  0.3294E+01E
 Epicentro: ZAPATOCA - SANTANDER                                               3
 ACTION:UPD 17-05-30 21:13 OP:jn   STATUS:               ID:20170418114334 L   I
 OLDACT:UP  17-04-18 23:49 OP:dani STATUS:               ID:20170418113405d    3
 OLDACT:DUP 17-04-18 23:43 OP:dani STATUS:               ID:20170418113405d    3
 OLDACT:UP  17-04-18 23:36 OP:dani STATUS:               ID:20170418113404     3
 OLDACT:REG 17-04-18 21:38 OP:dani STATUS:               ID:20170418113404     3
 2017-04-18-1138-00M.COL___368                                                 6
 STAT SP IPHASW D HRMM SECON CODA AMPLIT PERI AZIMU VELO AIN AR TRES W  DIS CAZ7
 BAR2 EZ EP       1143 53.71                             170   -0.0710 23.5 181 
 BAR2 EZ ES       1144  8.87                             170   -0.1010 23.5 181 
 BAR2 EZ I        1144 11.46        27.3 0.42            168           23.5 181 
 BRR  HZ EP       1143 55.71                             153    0.6010 67.7 300 
 BRR  HE ES       1144 11.38                             153    0.0310 67.7 300 
 BRR  HZ I        1144 16.50        17.9 0.22            153           67.7 300 
 PAM  EZ EP       1143 56.52                             150    0.0210 79.4  42 
 PAM  EN ES       1144 13.93                             150    0.1210 79.4  42 
 PAM  EZ I        1144 16.08         9.5 0.60            156           79.4  42 
 RUS  HZ EP       1143 57.66                             143   -0.3210  101 174 
 RUS  HN ES       1144 16.35                             143   -0.1110  101 174 
 RUS  HZ I        1144 17.53        10.3 0.28            144            101 174 
 PTB  HZ EP       1144  0.05                             132   -0.79 9  144 258 
 PTB  HN ES       1144 21.03                             132   -0.51 9  144 258 
 PTB  HZ I        1144 24.56         7.1 0.30            133            144 258 
 SPBC HZ EP       1144  2.58                             129    0.06 9  161 218 
 SPBC HN ES       1144 24.41                             129   -0.12 9  161 218 
 SPBC HZ I        1144 30.27        13.0 0.20            130            161 218 
 YPLC HZ EP       1144  4.03                             126   -0.19 9  179 150 
 YPLC HN ES       1144 27.95                             126    0.39 9  179 150 
 YPLC HZ I        1144 29.10        10.7 0.22            129            179 150 
 ZAR  HZ EP       1144  6.45                             123    0.17 9  200 292 
 ZAR  HN ES       1144 31.29                             123    0.06 9  200 292 
 ZAR  HZ I        1144 37.21         9.5 0.54            124            200 292 
 NOR  HZ EP       1144  9.86                             118    0.20 8  232 234 
 NOR  HN ES       1144 38.19                             118    0.95 8  232 234 
 NOR  HZ I        1144 43.18         5.9 0.20            120            232 234 
 CHI  HZ EP       1144 11.77                             117   -0.11 8  248 194 
 CHI  HN ES       1144 41.18                             117   -0.01 8  248 194 
 CHI  HZ I        1144 51.27         4.2 0.34            119            248 194 
                                                                                
