 2014  718 1704 19.4 L   6.746 -73.138140.6  RSN  7 0.4 1.9LRSN                1
 GAP=140        1.09       5.1     5.2  7.3  0.4972E+01  0.3666E+01 -0.4948E+01E
 Epicentro: LOS SANTOS - SANTANDER                                             3
 ACTION:UPD 15-03-16 20:45 OP:nd   STATUS:               ID:20140718170419 L   I
 OLDACT:REG 14-07-18 22:01 OP:stll STATUS:               ID:20140718165819     3
 2014-07-18-1658-19M.COL___272                                                 6
 STAT SP IPHASW D HRMM SECON CODA AMPLIT PERI AZIMU VELO AIN AR TRES W  DIS CAZ7
 BAR2 SZ IP     D 17 4 38.65                             173    0.3410 17.7 196 
 BAR2 SZ ES       17 4 53.07                             173    0.0110 17.7 196 
 BAR2 SZ I        17 4 54.88        25.9 0.24            170           17.7 196 
 BRR  HZ IP     C 17 4 40.41                             150    0.1910 75.0 302 
 BRR  HZ I        17 4 40.59        13.5 0.18            150           75.0 302 
 BRR  HN ES       17 4 56.76                             150    0.3010 75.0 302 
 PAM  SZ EP       17 4 41.21                             148   -0.1310 81.6  36 
 RUS  HZ EP       17 4 42.69                             144    0.4710 94.6 176 
 RUS  HE ES       17 4 59.23                             144   -0.7810 94.6 176 
 RUS  HZ I        17 5  3.50         9.1 0.22            145           94.6 176 
 PTB  HZ EP       17 4 45.15                             131   -0.79 9  148 261 
 PTB  HN ES       17 5  6.33                             131   -0.31 9  148 261 
 PTB  HZ I        17 5 11.13         9.1 0.14            131            148 261 
 SPBC HZ EP       17 4 47.25                             129    0.13 9  159 221 
 SPBC HZ I        17 4 48.13        11.6 0.14            129            159 221 
 SPBC HE ES       17 5  9.42                             129    0.67 9  159 221 
 ZAR  HZ EP       17 4 51.73                             121   -0.11 8  207 294 
 ZAR  HE ES       17 5 17.10                             121   -0.05 8  207 294 
 ZAR  HZ I        17 5 22.37         6.4 0.42            122            207 294 
                                                                                
