 2015  318 1553  5.6 L   7.477 -73.219131.4  RSN  4 0.5 1.6LRSN                1
 GAP=137        1.10       6.2     5.7 13.1  0.2132E+01  0.4174E+02  0.4718E+01E
 Epicentro: EL PLAYON - SANTANDER                                              3
 ACTION:UPD 15-04-30 16:27 OP:nd   STATUS:               ID:20150318155305 L   I
 OLDACT:REG 15-03-18 23:27 OP:cam  STATUS:               ID:20150318154749     3
 2015-03-18-1547-49M.COL___281                                                 6
 STAT SP IPHASW D HRMM SECON CODA AMPLIT PERI AZIMU VELO AIN AR TRES W  DIS CAZ7
 PAM  SZ EP     D 1553 25.28                             154    0.0510 59.4 105 
 PAM  SN ES       1553 40.70                             154    0.1410 59.4 105 
 PTB  HZ EP       1553 33.19                             124   -0.57 9  172 233 
 PTB  HN ES       1553 55.35                             124   -0.39 9  172 233 
 PTB  HZ I        1553 58.97         3.3 0.18            126            172 233 
 SML  HN ES       1553 55.64                             124   -0.49 9  174 327 
 ZAR  HZ EP       1553 35.45                             122    0.74 9  181 271 
 ZAR  HN ES       1553 57.92                             122    0.50 9  181 271 
 ZAR  HN I        1554  3.96         5.6 0.14            124            181 271 
                                                                                
