 2016 1118 1406 55.8 L   6.854 -73.114151.3  RSN 19 0.5 2.8LRSN                1
 GAP=154        1.12       5.0     4.7  5.5 -0.5309E+01  0.5295E+01  0.5741E+01E
 Epicentro: LOS SANTOS - SANTANDER                                             3
 ACTION:UPD 17-10-26 21:09 OP:lp   STATUS:               ID:20161118140655 L   I
 OLDACT:UP  16-11-18 23:39 OP:edw  STATUS:               ID:20161118135752     3
 OLDACT:REG 16-11-18 20:37 OP:edw  STATUS:               ID:20161118135752     3
 2016-11-18-1358-00M.COL___340                                                 6
 STAT SP IPHASW D HRMM SECON CODA AMPLIT PERI AZIMU VELO AIN AR TRES W  DIS CAZ7
 BAR2 HZ IP     D 14 7 16.25                             168    0.0110 29.9 195 
 BAR2 HZ ES       14 7 31.38                             168   -0.8110 29.9 195 
 BAR2 HZ I        14 7 32.52       179.1 0.24            167           29.9 195 
 PAM  HZ EP       14 7 19.06                             153    0.8310 70.6  40 
 PAM  HN ES       14 7 35.98                             153    0.2510 70.6  40 
 PAM  HZ I        14 7 38.44       199.6 0.52            155           70.6  40 
 BRR  HZ EP       14 7 17.65                             154    0.0710 71.7 293 
 BRR  HN ES       14 7 34.89                             154    0.3210 71.7 293 
 BRR  HZ I        14 7 35.70        93.5 0.30            150           71.7 293 
 PTB  HZ EP   9   14 7 22.75                             132   -0.89 0  152 257 
 PTB  HN ES       14 7 44.06                             133   -0.41 9  152 257 
 PTB  HZ I        14 7 47.00        56.0 0.10            130            152 257 
 ZAR  HZ EP       14 7 28.76                             123    0.04 9  205 290 
 ZAR  HE ES       14 7 54.46                             123    0.06 9  205 290 
 ZAR  HZ I        14 8  1.26        53.2 0.34            121            205 290 
 NOR  HZ EP   9   14 7 32.30                             119   -0.23 0  241 234 
 NOR  HN ES       14 8  0.09                             119   -0.86 8  241 234 
 NOR  HZ I        14 8  2.82        45.8 0.16            117            241 234 
 CHI  HZ EP       14 7 34.44                             117   -0.09 8  255 196 
 CHI  HN ES   4   14 8  3.73                             117   -1.01 0  255 196 
 CHI  HZ I        14 8  7.50        35.4 0.56            116            255 196 
 URE  HZ EP       14 7 36.12                             114   -1.15 7  285 291 
 URE  HN ES   4   14 8  7.69                             114   -1.92 0  285 291 
 URE  HZ I        14 8 16.74        31.4 0.20            113            285 291 
 PTGC HZ EP   4   14 7 39.51                             112   -0.89 0  313 160 
 PTGC HN ES   4   14 8 12.76                             112   -2.42 0  313 160 
 PTGC HZ I        14 8 17.62        51.1 0.34            112            313 160 
 LL6C HZ EP   9   14 7 21.15                             112   -19.9 0  319 357 
 LL6C HN ES       14 7 55.80                             112   -0.67 7  319 357 
 ELA  HZ EP   4   14 7 44.88                             111    1.25 0  336 229 
 ELA  HE ES   4   14 8 22.81                             111    1.87 0  336 229 
 ELA  HZ I        14 8 29.34        21.2 0.32            110            336 229 
 CBOC HZ EP   4   14 7 44.86                             110    1.32 0  339 251 
 CBOC HN ES       14 8 20.99                             110    0.22 7  339 251 
 CBOC HZ I        14 8 24.26        12.3 0.48            109            339 251 
 DBB  HZ EP   4   14 7 44.53                             110    0.67 0  343 273 
 DBB  HN ES   4   14 8 18.51                             110   -2.83 0  343 273 
 ANIL HZ EP       14 7 47.08                             109    0.49 6  364 224 
 ANIL HE ES   4   14 8 27.46                             109    1.25 0  364 224 
 PRA  HZ EP   4   14 7 49.88                             107   -0.44 0  399 210 
 PRA  HN ES   4   14 8 31.48                             107   -1.36 0  399 210 
 PRA  HZ I        14 8 38.33        23.9 0.26            106            399 210 
 ORTC HZ EP       14 7 50.53                             107   -0.18 6  402 216 
 ORTC HN ES       14 8 33.97                             107    0.43 6  402 216 
 ORTC HZ I        14 8 40.10        21.2 0.48            106            402 216 
 SJC  HZ EP       14 7 50.44                             107   -0.76 6  406 326 
 SJC  HN ES   4   14 8 31.56                             107   -2.84 0  406 326 
 SJC  HZ I        14 8 39.39        11.2 0.46            106            406 326 
 PAL  HZ EP       14 7 51.86                             106    0.00 6  412 239 
 PAL  HN ES       14 8 35.56                             106   -0.02 6  412 239 
 PAL  HZ I        14 8 37.86        13.2 0.24            105            412 239 
 CRJC HZ EP   9   14 7 56.50                             104   -1.24 0  461   3 
 CRJC HN ES       14 8 44.70                             104   -0.11 5  461   3 
 CRJC HZ I        14 8 51.58        16.5 0.18            104            461   3 
 YOT  HZ EP   4   14 7 59.84                             104    0.06 0  478 229 
 YOT  HE ES   4   14 8 53.06                             104    3.39 0  478 229 
 URI  HZ EP       14 8  6.79                             101   -1.36 4  550  13 
 URI  HN ES   4   14 9  1.80                             101   -2.78 0  550  13 
                                                                                
