 2012  218 1133 58.4 L   6.755 -73.179139.3  RSN  5 0.1 1.3LRSN                1
 GAP=139        0.38       4.9     6.0  9.2 -0.7373E+01  0.2465E+02  0.2338E+02E
 ACTION:UP  12-03-07 16:31 OP:epov STATUS:               ID:20120218113358 L   I
 2012-02-18-1130-00M.COL___188                                                 6
 STAT SP IPHASW D HRMM SECON CODA AMPLIT PERI AZIMU VELO AIN AR TRES W  DIS CAZ7
 BAR2 SZ EP   1   1134 17.33                             172    0.13 7 18.0 181 
 BAR2 SZ I        1134 34.17         9.0 0.35                          18.0 181 
 PAM  SZ EP       1134 20.35                             148   -0.0110 83.5  39 
 PAM  SN ES   1   1134 37.50                             148    0.04 7 83.5  39 
 RUS  HZ EP   1   1134 21.00                             144   -0.23 7 96.0 174 
 RUS  HZ I        1134 41.38         2.1 0.49                          96.0 174 
 PTB  HZ EP   1   1134 24.41                             131   -0.07 7  143 260 
 CHI  HZ EP   1   1134 35.39                             116    0.22 6  243 195 
                                                                                
