 2017  218 1831 56.2 L   6.368 -73.587118.2  RSN 22 0.5 2.7LRSN                1
 GAP= 49        1.02       2.3     2.5  4.8 -0.9185E+00  0.2855E+01  0.2437E+01E
 Epicentro: SANTA HELENA DEL OPON - SANTANDER                                  3
 ACTION:UPD 17-05-24 15:37 OP:jn   STATUS:               ID:20170218183156 L   I
 OLDACT:UP  17-02-19 01:10 OP:dani STATUS:               ID:20170218182748     3
 OLDACT:UP  17-02-19 01:08 OP:dani STATUS:               ID:20170218182748     3
 OLDACT:UP  17-02-19 01:08 OP:dani STATUS:               ID:20170218182748     3
 OLDACT:UP  17-02-19 01:08 OP:dani STATUS:               ID:20170218182748     3
 OLDACT:UP  17-02-19 01:05 OP:dani STATUS:               ID:20170218182748     3
 OLDACT:REG 17-02-18 21:50 OP:dani STATUS:               ID:20170218182748     3
 2017-02-18-1828-00M.COL___355                                                 6
 STAT SP IPHASW D HRMM SECON CODA AMPLIT PERI AZIMU VELO AIN AR TRES W  DIS CAZ7
 BAR2 EZ EP     C 1832 13.96                             155    0.3510 51.2  61 
 BAR2 EZ ES       1832 27.35                             155    0.1710 51.2  61 
 BAR2 EZ I        1832 28.69       337.1 0.40            157           51.2  61 
 RUS  HZ IP     D 1832 15.22                             145   -0.3010 76.6 133 
 RUS  HE ES   1   1832 29.90                             145   -0.68 7 76.6 133 
 RUS  HZ I        1832 32.42        59.1 0.54            147           76.6 133 
 BRR  HZ EP       1832 15.57                             142    0.2910 82.9 350 
 BRR  HE ES       1832 30.62                             142    0.4610 82.9 350 
 BRR  HZ I        1832 38.29        83.1 0.12            142           82.9 350 
 PTB  HZ EP       1832 15.90                             137   -0.5910 98.0 281 
 PTB  HN ES       1832 32.13                             137   -0.1810 98.0 281 
 PTB  HZ I        1832 33.05       215.0 0.38            136           98.0 281 
 PAM  EZ EP     C 1832 21.93                             125    0.45 9  146  42 
 PAM  EE ES       1832 41.04                             125   -0.16 9  146  42 
 PAM  EZ I        1832 43.20        44.3 0.44            126            146  42 
 NOR  HZ EP       1832 22.56                             121   -0.59 9  167 238 
 NOR  HE ES       1832 43.74                             121   -0.42 9  167 238 
 NOR  HZ I        1832 45.70       113.7 0.16            121            167 238 
 ROSC BZ EP   9   1832 27.47                             118    1.77 0  187 206 
 ROSC BN ES       1832 50.62                             118    0.14 9  187 206 
 ROSC BZ I        1832 52.62        60.1 0.35            118            187 206 
 ZAR  HZ EP     D 1832 25.48                             118    0.26 9  188 312 
 ZAR  HE ES       1832 48.48                             118    0.62 9  188 312 
 ZAR  HZ I        1832 52.53        92.5 0.42            117            188 312 
 CHI  HZ EP       1832 25.85                             117   -0.46 9  193 185 
 CHI  HN ES   1   1832 49.00                             117   -0.80 7  193 185 
 CHI  HZ I        1832 53.27        28.5 0.58            118            193 185 
 TAM  HZ EP     C 1832 26.74                             116    0.25 9  199  88 
 TAM  HN ES   3   1832 48.50                             116   -1.61 2  199  88 
 TAM  HZ I        1832 55.29        67.7 0.36            117            199  88 
 RECRCHZ EP   3   1832 34.39                             111    1.54 2  250 232 
 RECRCHN ES   4   1833  3.74                             111    2.30 0  250 232 
 VIL  EZ EP       1832 32.05                             110   -0.25 8  250 183 
 VIL  EE ES       1833  1.09                             110    0.64 8  250 183 
 VIL  EZ I        1833  3.60        36.5 0.32            111            250 183 
 ELA  HZ EP       1832 35.12                             110    1.03 8  261 230 
 ELA  HN ES       1833  3.70                             110    0.05 8  261 230 
 ELA  HZ I        1833 15.31        21.9 0.24            110            261 230 
 URE  HZ EP       1832 32.96                             109   -0.82 8  264 306 
 URE  HN ES   4   1833  0.84                             109   -2.25 0  264 306 
 URE  HZ I        1833 12.46        33.8 0.16            109            264 306 
 CBOC HZ EP       1832 35.71                             108    0.55 8  274 258 
 CBOC HN ES       1833  4.81                             108   -0.74 8  274 258 
 CBOC HZ I        1833 13.00        18.8 0.44            108            274 258 
 ANIL HZ EP   3   1832 38.17                             107    1.13 2  289 224 
 ANIL HN ES       1833  9.16                             107    0.26 7  289 224 
 DBB  EZ EP       1832 38.13                             106    0.22 7  299 284 
 DBB  EN ES       1833 10.02                             106   -0.43 7  299 284 
 DBB  EZ I        1833 12.80        22.0 0.16            106            299 284 
 PRA  HZ EP       1832 41.17                             105    0.00 7  327 206 
 PRA  HN ES       1833 16.74                             105    0.50 7  327 206 
 PRA  HZ I        1833 21.90        40.3 0.20            105            327 206 
 ORTC HZ EP       1832 41.33                             104    0.01 7  328 214 
 ORTC HE ES       1833 17.15                             104    0.63 7  328 214 
 ORTC HZ I        1833 24.23        26.5 0.42            105            328 214 
 SJC  HZ EP       1832 52.68                             100   -0.56 5  428 336 
 SJC  HN ES   4   1833 35.04                             100   -2.69 0  428 336 
 SJC  HZ I        1833 52.79         8.1 0.24            100            428 336 
 CRJC HZ EP       1833  4.40                              97   -0.03 4  520   9 
 CRJC HN ES       1833 57.03                              97   -0.62 4  520   9 
 CRJC HZ I        1834  6.12        19.9 0.21             97            520   9 
 FLO2 HZ EP       1833 10.95                              96   -0.22 3  577 204 
                                                                                
