 2016  818 1201 37.9 L   6.587 -73.151147.9  RSN  5 0.4 1.4LRSN                1
 GAP=222        0.97       7.9     7.6  9.2  0.3248E+02  0.2632E+02  0.1371E+01E
 Epicentro: SAN GIL - SANTANDER                                                3
 ACTION:UPD 16-10-29 15:36 OP:rebc STATUS:               ID:20160818120137 L   I
 OLDACT:REG 16-08-18 20:24 OP:dnl  STATUS:               ID:20160818115740     3
 2016-08-18-1158-00M.COL___371                                                 6
 STAT SP IPHASW D HRMM SECON CODA AMPLIT PERI AZIMU VELO AIN AR TRES W  DIS CAZ7
 BAR2 EZ EP       12 1 57.51                             179   -0.0710 3.47 279 
 BAR2 EZ ES       12 2 13.43                             179    0.5210 3.47 279 
 BAR2 EZ I        12 2 15.22         7.0 0.30                          3.47 279 
 RUS  HN ES       12 2 17.35                             151   -0.5110 77.2 174 
 RUS  HZ I        12 2 21.61         3.8 0.42                          77.2 174 
 BRR  HZ EP   2   12 2  0.37                             149    0.28 5 84.5 313 
 BRR  HE ES       12 2 17.16                             149   -0.2310 84.5 313 
 PTB  HZ EP       12 2  5.11                             133    0.35 9  144 268 
 PTB  HE ES       12 2 26.06                             133    0.36 9  144 268 
 PTB  HZ I        12 2 30.18         3.0 0.24                           144 268 
 ZAR  HN ES       12 2 37.08                             121   -0.57 8  213 298 
 ZAR  HZ I        12 2 40.28         2.9 0.12                           213 298 
                                                                                
