 2017 1218 1839 33.8 L   6.769 -73.182141.2  RSN  4 0.2 1.5LRSN                1
 GAP=140        0.53       4.6     2.7  4.6 -0.4117E+01  0.5620E+01 -0.5244E+01E
 Epicentro: LOS SANTOS - SANTANDER                                             3
 ACTION:UPD 18-01-04 13:21 OP:rebc STATUS:               ID:20171218183933 L   I
 OLDACT:REG 17-12-18 21:05 OP:dani STATUS:               ID:20171218182931     3
 2017-12-18-1838-00M.COL___461                                                 6
 STAT SP IPHASW D HRMM SECON CODA AMPLIT PERI AZIMU VELO AIN AR TRES W  DIS CAZ7
 BAR2 EZ EP       1839 52.80                             172    0.0210 19.5 180 
 BAR2 EZ ES       1840  7.81                             172    0.2110 19.5 180 
 BAR2 EZ I        1840  8.85         9.1 0.44            174           19.5 180 
 PAM  EZ EP       1839 55.72                             148   -0.1110 82.6  40 
 PAM  EE ES       1840 12.94                             148   -0.0910 82.6  40 
 PAM  EZ I        1840 14.66         6.1 0.54            149           82.6  40 
 PTB  HZ EP       1839 59.77                             132   -0.18 9  143 260 
 PTB  HN ES       1840 20.18                             132   -0.19 9  143 260 
 PTB  HZ I        1840 23.94         2.5 0.16            132            143 260 
 ZAR  HZ EP       1840  6.10                             122    0.42 9  202 293 
 ZAR  HE ES       1840 30.54                             122   -0.02 9  202 293 
 ZAR  HZ I        1840 37.45         5.3 0.49            122            202 293 
                                                                                
