 2012  218 1844 50.2 L   5.984 -73.646119.6  RSN  8 0.4 1.6LRSN                1
 GAP= 84        0.73       3.9     3.6  6.9 -0.3344E+01  0.2569E+01  0.3123E+01E
 ACTION:UP  12-03-07 16:31 OP:epov STATUS:               ID:20120218184450 L   I
 2012-02-18-1840-00M.COL___188                                                 6
 STAT SP IPHASW D HRMM SECON CODA AMPLIT PERI AZIMU VELO AIN AR TRES W  DIS CAZ7
 RUS  HZ EP   1   1845  8.90                             151    0.10 8 63.1  99 
 RUS  HN ES   1   1845 22.78                             151   -0.51 8 63.1  99 
 RUS  HZ I        1845 24.37         3.7 0.29                          63.1  99 
 BAR2 SZ EP   1   1845 10.31                             142    0.43 8 84.6  37 
 BAR2 SZ ES   1   1845 25.62                             142    0.39 8 84.6  37 
 BAR2 SZ I        1845 26.94        16.4 0.15                          84.6  37 
 PTB  HZ EP   1   1845 10.72                             135   -0.81 8  109 304 
 PTB  HN ES   1   1845 28.14                             135   -0.02 8  109 304 
 BRR  HZ EP       1845 13.10                             130    0.1810  124 357 
 BRR  HN ES   1   1845 30.49                             130   -0.14 7  124 357 
 BRR  HZ I        1845 32.71        13.7 0.45                           124 357 
 NOR  SN ES   1   1845 34.34                             126    0.38 7  143 251 
 CHI  HZ EP   2   1845 16.43                             125    0.49 5  150 184 
 CHI  HZ I        1845 17.17         4.2 0.15                           150 184 
 PAM  SZ EP   1   1845 19.27                             119   -0.15 7  183  35 
 PAM  SN ES   1   1845 42.16                             119   -0.05 7  183  35 
 PRA  HZ EP   1   1845 30.21                             108   -0.26 6  286 209 
                                                                                
