 2016  218 1125  3.0 L   6.751 -73.132134.6  RSN  7 0.3 1.6LRSN                1
 GAP=141        0.75       3.3     3.3  6.0 -0.1363E+01  0.5738E+01 -0.1102E+01E
 Epicentro: LOS SANTOS - SANTANDER                                             3
 ACTION:UPD 16-03-04 21:27 OP:rebc STATUS:               ID:20160218112503 L   I
 OLDACT:UP  16-02-18 22:51 OP:ak   STATUS:               ID:20160218111749     3
 OLDACT:REG 16-02-18 20:42 OP:ak   STATUS:               ID:20160218111749     3
 2016-02-18-1117-49M.COL___321                                                 6
 STAT SP IPHASW D HRMM SECON CODA AMPLIT PERI AZIMU VELO AIN AR TRES W  DIS CAZ7
 BAR2 EZ EP       1125 21.12                             172   -0.0510 18.4 198 
 BAR2 EZ ES       1125 35.31                             172   -0.0610 18.4 198 
 BRR  HZ EP   2   1125 23.16                             149   -0.02 5 75.3 302 
 BRR  HN ES       1125 38.95                             149    0.0110 75.3 302 
 PAM  EZ EP       1125 24.07                             148   -0.1710 80.7  36 
 PAM  EE ES       1125 40.71                             148   -0.1110 80.7  36 
 PAM  EZ I        1125 43.10         8.2 0.51            149           80.7  36 
 RUS  HZ EP   2   1125 25.57                             143    0.33 5 95.1 177 
 RUS  HN ES       1125 43.11                             143    0.5110 95.1 177 
 RUS  HZ I        1125 44.90         4.8 0.28            142           95.1 177 
 PTB  HZ EP       1125 29.10                             129   -0.01 9  148 261 
 PTB  HE ES       1125 49.18                             129   -0.32 9  148 261 
 SPBC HZ EP   4   1125 27.12                             127   -3.21 0  160 221 
 SPBC HN ES       1125 51.22                             127   -0.45 9  160 221 
 SPBC HZ I        1125 55.55         6.0 0.18            127            160 221 
 ZAR  HZ EP   4   1125 26.00                             119   -9.10 0  208 293 
 ZAR  HN ES       1126  0.79                             119    0.64 8  208 293 
                                                                                
