 2015  718 1606 57.6 L   6.826 -73.159144.0  RSN 20 0.4 2.9LRSN 3.6WRSN        1
 SPEC AVERAGE  MO 14.4 ST0.170 OM  2.6 f00.942 R2.0796 AL 0.00 WI 30.0 MW  3.6 3
 SPEC SD       MO  0.2 ST0.165 OM  0.4 f00.135 R0.2669 AL      WI      MW  0.1 3
 GAP=134        0.88       2.3     3.4  5.0 -0.7561E+00  0.8221E+01  0.1912E+01E
 Epicentro: LOS SANTOS - SANTANDER                                             3
 SPEC RUS HH Z MO 14.3 ST0.154 OM  2.3 f0 1.11 R1.7333 AL-0.00 WI 30.0 MW  3.5 3
 SPEC RUS HH Z T16 738 K 0.000 GD  177 VS 5.20 DE 3.50 Q0750.0 QA 1.50 Q1 0.00 3
 SPEC OCA HH Z MO 14.7 ST0.602 OM  2.7 f0 1.21 R1.5901 AL-0.00 WI 30.0 MW  3.8 3
 SPEC OCA HH Z T16 745 K 0.000 GD  213 VS 5.20 DE 3.50 Q0750.0 QA 1.50 Q1 0.00 3
 SPEC CHI HH Z MO 14.3 ST0.095 OM  2.1 f00.935 R2.0578 AL-0.00 WI 30.0 MW  3.5 3
 SPEC CHI HH Z T16 8 3 K 0.000 GD  289 VS 5.20 DE 3.50 Q0750.0 QA 1.50 Q1 0.00 3
 SPEC ROSCBH Z MO 14.5 ST0.108 OM  2.3 f00.835 R2.3042 AL-0.00 WI 30.0 MW  3.6 3
 SPEC ROSCBH Z T16 8 6 K 0.000 GD  291 VS 5.20 DE 3.50 Q0750.0 QA 1.50 Q1 0.00 3
 SPEC HEL HH Z MO 14.4 ST0.103 OM  2.2 f00.874 R2.2014 AL-0.00 WI 30.0 MW  3.5 3
 SPEC HEL HH Z T16 8 7 K 0.000 GD  306 VS 5.20 DE 3.50 Q0750.0 QA 1.50 Q1 0.00 3
 SPECGUY2CHH Z MO 14.5 ST0.108 OM  2.3 f00.797 R2.4141 AL-0.00 WI 30.0 MW  3.6 3
 SPECGUY2CHH Z T16 813 K 0.000 GD  334 VS 5.20 DE 3.50 Q0750.0 QA 1.50 Q1 0.00 3
 SPEC CBOCHH Z MO 14.3 ST0.071 OM  2.0 f00.851 R2.2609 AL-0.00 WI 30.0 MW  3.5 3
 SPEC CBOCHH Z T16 819 K 0.000 GD  362 VS 5.20 DE 3.50 Q0750.0 QA 1.50 Q1 0.00 3
 SPEC TOL SH Z MO 14.4 ST0.119 OM  2.1 f00.927 R2.0755 AL-0.00 WI 30.0 MW  3.5 3
 SPEC TOL SH Z T16 823 K 0.000 GD  372 VS 5.20 DE 3.50 Q0750.0 QA 1.50 Q1 0.00 3
 OLDACT:DUP 15-07-19 00:38 OP:spq  STATUS:               ID:20150718155750d    3
 ACTION:UPD 15-09-08 21:49 OP:cam  STATUS:               ID:20150718160657 L   I
 OLDACT:UP  15-07-19 01:15 OP:spq  STATUS:               ID:20150718155750d    3
 2015-07-18-1557-49M.COL___343                                                 6
 STAT SP IPHASW D HRMM SECON CODA AMPLIT PERI AZIMU VELO AIN AR TRES W  DIS CAZ7
 BAR2 EZ IP     C 16 7 16.96                             169   -0.1410 26.0 186 
 BAR2 EZ ES   1   16 7 32.33                             169    0.04 7 26.0 186 
 BAR2 EZ I        16 7 33.55       161.5 0.18            166           26.0 186 
 PAM  EZ EP     D 16 7 19.76                             151    0.1810 76.2  42 
 PAM  EN ES       16 7 37.16                             151    0.4610 76.2  42 
 PAM  EZ I        16 7 39.18       154.8 0.48            159           76.2  42 
 RUS  HZ EP       16 7 20.95                             143   -0.4710  104 175 
 RUS  HN ES       16 7 40.06                             143    0.0810  104 175 
 RUS  HZ I        16 7 40.85       110.8 0.34            145            104 175 
 OCA  HZ EP       16 7 25.45                             130   -0.06 9  157 354 
 OCA  HN ES       16 7 46.95                             130   -0.31 9  157 354 
 OCA  HZ I        16 7 52.37       136.4 0.36            134            157 354 
 ZAR  HZ EP       16 7 29.19                             122   -0.51 9  202 292 
 ZAR  HE ES       16 7 54.72                             122    0.00 9  202 292 
 ZAR  HZ I        16 8  5.23        69.3 0.50            124            202 292 
 NOR  HZ EP       16 7 32.81                             118   -0.49 8  235 234 
 NOR  HE ES       16 8  0.91                             118   -0.22 8  235 234 
 NOR  HZ I        16 8  8.82        78.1 0.18            120            235 234 
 SML  HZ EP   1   16 7 33.80                             117    0.00 6  240 335 
 SML  HE ES   1   16 8  1.91                             117   -0.11 6  240 335 
 SML  HZ I        16 8  5.36       102.1 0.24            120            240 335 
 CHI  HZ EP     C 16 7 35.23                             116   -0.25 8  251 195 
 CHI  HE ES       16 8  4.79                             116   -0.22 8  251 195 
 CHI  HZ I        16 8  7.79        35.4 0.41            119            251 195 
 ROSC BZ EP       16 7 36.73                             116    0.90 8  254 210 
 ROSC BN ES   4   16 8  8.02                             116    2.39 0  254 210 
 ROSC BZ I        16 8 15.10        72.4 0.35            118            254 210 
 HEL  HZ EP       16 7 37.59                             114   -0.07 8  271 255 
 HEL  HN ES       16 8  9.48                             114    0.59 8  271 255 
 HEL  HZ I        16 8 16.59        44.3 0.44            116            271 255 
 GUY2CHZ EP       16 7 41.61                             112    0.41 7  302 234 
 GUY2CHE ES       16 8 15.38                             112    0.19 7  302 234 
 GUY2CHZ I        16 8 27.24        46.8 0.48                           302 234 
 VIL  SZ EP     C 16 7 40.71                             111   -0.53 7  306 191 
 VIL  SN ES   1   16 8 14.83                             111   -0.44 5  306 191 
 VIL  SZ I        16 8 24.02        51.2 0.46            114            306 191 
 PTGC HZ EP   4   16 7 40.26                             111   -1.51 0  312 159 
 PTGC HE ES   4   16 8 13.23                             111   -2.97 0  312 159 
 PTGC HZ I        16 8 16.05        56.7 0.40            115            312 159 
 CBOC HZ EP       16 7 45.26                             110    0.86 7  333 252 
 CBOC HE ES       16 8 20.56                             110   -0.33 7  333 252 
 CBOC HZ I        16 8 32.11        11.2 0.32            111            333 252 
 DBB  SZ EP       16 7 44.53                             109   -0.30 7  338 274 
 DBB  SZ ES   4   16 8 20.44                             109   -1.21 0  338 274 
 DBB  SZ I        16 8 24.60       102.6 0.70            111            338 274 
 TOL  SZ EP       16 7 46.91                             109    0.99 7  344 224 
 TOL  SE ES   4   16 8 25.41                             109    1.82 0  344 224 
 TOL  SZ I        16 8 30.56        29.9 0.50            111            344 224 
 MON  HZ EP   4   16 7 44.09                             108   -2.12 0  351 308 
 MON  HE ES   4   16 8 22.75                             108   -1.36 0  351 308 
 MON  HZ I        16 8 24.40        16.8 0.24            111            351 308 
 ANIL HZ EP       16 7 48.09                             108    0.62 6  358 224 
 ANIL HE ES   4   16 8 28.36                             108    2.00 0  358 224 
 ORTC HZ EP       16 7 51.29                             106   -0.36 6  397 216 
 ORTC HN ES   4   16 8 34.97                             106    1.18 0  397 216 
 ORTC HZ I        16 8 40.95        21.2 0.24            108            397 216 
 PAL  HZ EP       16 7 52.81                             106    0.06 6  406 239 
 PAL  HN ES   1   16 8 35.19                             106   -0.55 4  406 239 
 PAL  HZ I        16 8 40.84        15.0 0.34            108            406 239 
                                                                                
