 2017 1218 1217  4.8 L   6.811 -73.172141.0  RSN  7 0.3 2.1LRSN                1
 GAP=219        0.47       3.4     2.8  4.4  0.4996E+01  0.2795E+01  0.1647E+01E
 Epicentro: LOS SANTOS - SANTANDER                                             3
 ACTION:UPD 18-01-04 13:21 OP:rebc STATUS:               ID:20171218121704 L   I
 OLDACT:UP  17-12-18 21:43 OP:dani STATUS:               ID:20171218120229     3
 OLDACT:REG 17-12-18 20:22 OP:dani STATUS:               ID:20171218120229     3
 2017-12-18-1208-00M.COL___454                                                 6
 STAT SP IPHASW D HRMM SECON CODA AMPLIT PERI AZIMU VELO AIN AR TRES W  DIS CAZ7
 BAR2 EZ EP       1217 23.73                             170   -0.1410 24.2 183 
 BAR2 EZ ES       1217 38.92                             170    0.1710 24.2 183 
 BAR2 EZ I        1217 40.21        30.9 0.20            141           24.2 183 
 PTB  HZ EP       1217 31.19                             131    0.05 9  145 258 
 PTB  HN ES       1217 51.49                             131   -0.20 9  145 258 
 PTB  HZ I        1217 55.94         6.2 0.54            105            145 258 
 SPBC HZ EP       1217 32.73                             128   -0.12 9  162 218 
 SPBC HE ES       1217 54.75                             128    0.01 9  162 218 
 SPBC HZ I        1217 57.39        16.8 0.14            101            162 218 
 YPLC HE ES       1217 57.67                             125    0.02 9  179 151 
 ZAR  HN ES       1218  1.57                             122    0.15 9  201 292 
 ROSC BZ EP   3   1217 44.42                             116    1.81 2  252 210 
 ROSC BZ I        1218 19.00         9.8 0.47             96            252 210 
 PRA  HZ EP   3   1217 57.60                             106   -0.51 1  392 209 
 PRA  HZ I        1218 45.91         5.9 0.40             93            392 209 
                                                                                
