 2014  618 1240 22.5 L   6.821 -73.129147.5  RSN 13 0.4 2.4LRSN                1
 GAP=138        0.99       3.0     3.9  5.5 -0.5659E+00  0.1010E+02  0.1561E+01E
 Epicentro: LOS SANTOS - SANTANDER                                             3
 ACTION:UPD 14-07-01 22:54 OP:nd   STATUS:               ID:20140618124022 L   I
 OLDACT:REG 14-06-18 21:37 OP:y    STATUS:               ID:20140618123820     3
 2014-06-18-1238-20M.COL___262                                                 6
 STAT SP IPHASW D HRMM SECON CODA AMPLIT PERI AZIMU VELO AIN AR TRES W  DIS CAZ7
 BAR2 SZ EP       1240 42.51                             170    0.0810 26.0 193 
 BAR2 SZ ES       1240 58.41                             170    0.4610 26.0 193 
 BAR2 SZ I        1240 59.52        32.6 0.24            168           26.0 193 
 PAM  SN ES       1241  2.41                             152    0.3210 74.3  40 
 RUS  HZ EP       1240 46.41                             144   -0.2110  103 177 
 RUS  HN ES       1241  5.21                             144   -0.2010  103 177 
 RUS  HZ I        1241  6.12        20.2 0.28            145            103 177 
 PTB  HZ EP       1240 49.02                             132   -0.83 9  150 258 
 PTB  HN ES       1241 10.52                             132   -0.64 9  150 258 
 PTB  HZ I        1241 12.59        32.3 0.16            131            150 258 
 ZAR  HZ EP       1240 55.24                             123    0.06 9  205 291 
 ZAR  HN ES       1241 20.51                             123   -0.14 9  205 291 
 ZAR  HZ I        1241 26.58        35.0 0.32            122            205 291 
 NOR  HZ EP       1240 58.26                             118   -0.42 8  238 234 
 NOR  HE ES       1241 27.25                             118    0.38 8  238 234 
 NOR  HZ I        1241 34.39        16.2 0.28            119            238 234 
 SML  HZ EP       1240 58.95                             118   -0.16 8  242 335 
 SML  HN ES       1241 27.37                             118   -0.27 8  242 335 
 SML  HZ I        1241 32.84        26.7 0.10            119            242 335 
 CHI  HZ EP       1241  0.49                             117   -0.14 8  251 195 
 CHI  HE ES       1241 29.79                             117   -0.56 8  251 195 
 HEL  HZ EP       1241  3.88                             115    0.78 8  274 255 
 HEL  HN ES       1241 35.08                             115    0.33 8  274 255 
 HEL  HZ I        1241 41.75        15.4 0.28            115            274 255 
 GUY2CHZ EP       1241  7.51                             112    0.96 7  304 235 
 GUY2CHN ES       1241 41.24                             112    0.35 7  304 235 
 GUY2CHZ I        1241 48.06        10.9 0.54                           304 235 
 RREF HZ EP       1241  9.19                             111    0.10 7  325 229 
 RREF HE ES       1241 45.93                             111    0.52 7  325 229 
 RREF HZ I        1241 53.92        14.2 0.28            112            325 229 
 CBOC HZ EP       1241 10.48                             110    0.67 7  336 252 
 CBOC HE ES       1241 46.33                             110   -0.36 7  336 252 
 CBOC HZ I        1241 51.93         3.5 0.30            110            336 252 
 PRA  HZ EP       1241 16.62                             107    0.15 6  395 210 
 PRA  HN ES       1241 58.07                             107   -0.46 6  395 210 
 PRA  HZ I        1242  1.88        11.6 0.54            108            395 210 
                                                                                
