 2017  318 1051 35.9 L   7.096 -73.389114.8  RSN  6 0.2 1.3LRSN                1
 GAP=145        0.46       2.4     2.0  4.0  0.1133E+01  0.6985E+00 -0.8487E-01E
 Epicentro: LEBRIJA - SANTANDER                                                3
 ACTION:UPD 17-05-25 18:42 OP:jn   STATUS:               ID:20170318105135 L   I
 OLDACT:REG 17-03-18 20:45 OP:dnl  STATUS:               ID:20170318104740     3
 2017-03-18-1048-00M.COL___376                                                 6
 STAT SP IPHASW D HRMM SECON CODA AMPLIT PERI AZIMU VELO AIN AR TRES W  DIS CAZ7
 BRR  HZ EP       1051 51.70                             161   -0.1810 35.7 272 
 BRR  HN ES       1052  4.11                             161   -0.2210 35.7 272 
 BRR  HZ I        1052  5.10         8.4 0.36            159           35.7 272 
 BAR2 EZ EP       1051 53.54                             150    0.0910 60.2 158 
 BAR2 EZ ES       1052  7.33                             150    0.2010 60.2 158 
 BAR2 EZ I        1052  8.50        10.6 0.20            147           60.2 158 
 PAM  EZ EP       1051 55.15                             143   -0.0410 80.8  70 
 PAM  EN ES       1052 10.30                             143    0.0710 80.8  70 
 PAM  EZ I        1052 13.94         2.0 0.52            143           80.8  70 
 RUS  HZ EP   2   1051 59.92                             126   -0.22 5  137 166 
 RUS  HN ES       1052 18.98                             126   -0.06 9  137 166 
 RUS  HZ I        1052 21.58         1.1 0.44            124            137 166 
 ZAR  HN ES       1052 23.73                             120    0.23 9  168 285 
 ZAR  HZ I        1052 27.21         3.5 0.26            118            168 285 
 SPBC HZ EP   4   1052  5.64                             119    1.97 0  177 205 
 SPBC HE ES   4   1052 28.16                             119    2.85 0  177 205 
 SPBC HZ I        1052 32.53         3.9 0.26            116            177 205 
                                                                                
