 2014 1018 1612 54.0 L   6.801 -73.188146.1  RSN  4 0.2 1.2LRSN                1
 GAP=131        0.49       3.0     3.4  7.7  0.3191E+01 -0.3596E+01 -0.1238E+02E
 Epicentro: ZAPATOCA - SANTANDER                                               3
 ACTION:UPD 14-11-29 23:50 OP:nd   STATUS:               ID:20141018161254 L   I
 OLDACT:UP  14-10-19 00:38 OP:cam  STATUS:               ID:20141018160817     3
 OLDACT:REG 14-10-18 21:05 OP:cam\ STATUS:               ID:20141018160817     3
 2014-10-18-1608-17M.COL___273                                                 6
 STAT SP IPHASW D HRMM SECON CODA AMPLIT PERI AZIMU VELO AIN AR TRES W  DIS CAZ7
 PAM  SZ EP   1   1613 16.78                             150    0.37 8 80.3  42 
 RUS  HZ EP       1613 17.63                             144   -0.1810  101 173 
 RUS  HN ES       1613 36.35                             144   -0.0410  101 173 
 RUS  HZ I        1613 38.32         2.6 0.34            146            101 173 
 PTB  HZ EP       1613 20.66                             133    0.09 9  143 258 
 PTB  HN ES       1613 41.38                             133    0.08 9  143 258 
 PTB  HZ I        1613 46.57         1.7 0.10            134            143 258 
 SML  HN ES       1613 58.60                             118   -0.21 8  242 336 
                                                                                
