 2010  918 1013 42.5 L   6.799 -73.159146.5  RSN  6 0.2 1.5LRSN                1
 GAP=162        0.52       5.4    11.3  8.7  0.2571E+02 -0.4448E+02 -0.1964E+02E
 Epicentro: LOS SANTOS - SANTANDER                                             3
 ACTION:UP  11-02-18 11:03 OP:tino STATUS:               ID:20100918101342 L   I
 2010-09-18-1012-27S.COL___121                                                 6
 STAT SP IPHASW D HRMM SECON CODA AMPLIT PERI AZIMU VELO SNR AR TRES W  DIS CAZ7
 BTL  SZ EP   1   1014  2.47                             173     0.4 7   18 318 
 BAR2 SZ EP   1   1014  2.00                             171    -0.2 7   23 187 
 BAR2 SZ ES   2   1014 17.39                             171    -0.2 5   23 187 
 GIR2 SZ EP   1   1014  1.88                             167    -0.3 7   31 353 
 BRR  HZ EP   1   1014  3.67                             153     0.0 7   70 299 
 BRR  HN ES   2   1014 20.11                             153     0.0 5   70 299 
 BRR  HZ I        1014 21.62        10.4 0.39                            70 299 
 RUS  HZ EP   1   1014  6.17                             144    -0.1 7  101 175 
 RUS  HN ES   2   1014 25.24                             144     0.4 5  101 175 
 RUS  HZ I        1014 26.59         2.5 0.35                           101 175 
 GUE  SZ EP   1   1014  7.46                             139     0.2 7  117  13 
                                                                                
