 2016  518 1128 15.3 L   6.807 -73.193138.6  RSN  5 0.4 1.7LRSN                1
 GAP=237        0.86       6.9     5.5  8.5 -0.2863E+01  0.1923E+02 -0.1736E+02E
 Epicentro: ZAPATOCA - SANTANDER                                               3
 ACTION:UPD 16-08-18 17:47 OP:cam  STATUS:               ID:20160518112815 L   I
 OLDACT:DUP 16-05-18 21:45 OP:drio STATUS:               ID:20160518111745d    3
 2016-05-18-1117-43M.COL___300                                                 6
 STAT SP IPHASW D HRMM SECON CODA AMPLIT PERI AZIMU VELO AIN AR TRES W  DIS CAZ7
 BAR2 EZ EP       1128 34.05                             170   -0.0710 23.8 177 
 BAR2 EZ ES       1128 48.77                             170   -0.0010 23.8 177 
 BAR2 EZ I        1128 50.15        17.2 0.34            167           23.8 177 
 BRR  HZ EP       1128 35.73                             153    0.2910 66.2 300 
 BRR  HN ES   4   1128 52.72                             153    1.61 0 66.2 300 
 PTB  HZ EP       1128 41.54                             131    0.27 9  143 258 
 PTB  HN ES       1129  1.02                             131   -0.48 9  143 258 
 PTB  HZ I        1129  7.29         5.0 0.16            130            143 258 
 ZAR  HZ EP       1128 46.14                             121   -0.65 9  199 292 
 ZAR  HN ES       1129 11.71                             121    0.39 9  199 292 
 ZAR  HZ I        1129 18.69         7.9 0.38            122            199 292 
 NOR  HE ES       1129 17.72                             117    0.24 8  231 234 
 NOR  HZ I        1129 23.83         2.9 0.24            118            231 234 
                                                                                
