 2017  718 1203 19.5 L   7.371 -73.197124.4  RSN  5 0.3 1.8LRSN                1
 GAP=261        0.78       6.7     5.5  6.7  0.2486E+02 -0.7383E+01 -0.1498E+02E
 Epicentro: EL PLAYON - SANTANDER                                              3
 ACTION:UPD 17-08-30 15:34 OP:rebc STATUS:               ID:20170718120319 L   I
 OLDACT:REG 17-07-18 20:20 OP:lv   STATUS:               ID:20170718115746     3
 2017-07-18-1158-00M.COL___371                                                 6
 STAT SP IPHASW D HRMM SECON CODA AMPLIT PERI AZIMU VELO AIN AR TRES W  DIS CAZ7
 BRR  HZ EP       12 3 37.86                             151   -0.0310 64.0 243 
 BRR  HN ES       12 3 52.35                             151    0.0810 64.0 243 
 BRR  HZ I        12 3 52.88        13.4 0.06            148           64.0 243 
 BAR2 EZ EP       12 3 39.93                             143    0.2210 86.1 179 
 BAR2 EZ ES       12 3 55.21                             143   -0.2910 86.1 179 
 RUS  HZ EP       12 3 47.56                             124    0.54 9  164 176 
 RUS  HN ES       12 4  8.42                             124   -0.09 9  164 176 
 PTB  HZ EP       12 3 46.29                             123   -0.40 9  167 237 
 PTB  HN ES       12 4  7.98                             123    0.06 9  167 237 
 PTB  HZ I        12 4  9.74         5.2 0.41            122            167 237 
 ZAR  HZ EP       12 3 47.97                             120   -0.48 9  184 274 
 ZAR  HE ES       12 4 11.44                             120    0.38 9  184 274 
 ZAR  HZ I        12 4 13.62        11.4 0.35            119            184 274 
                                                                                
