 2012  718 1629 58.7 L   6.766 -73.140148.0  RSN  5 0.3 1.8LRSN                1
 GAP=235        0.74       8.2     6.9  8.9  0.3799E+02  0.3250E+01 -0.1289E+02E
 Epicentro: LOS SANTOS - SANTANDER                                             3
 ACTION:UPD 12-08-14 11:45 OP:ep   STATUS:               ID:20120718162958 L   I
 2012-07-18-1628-50M.COL___205                                                 6
 STAT SP IPHASW D HRMM SECON CODA AMPLIT PERI AZIMU VELO AIN AR TRES W  DIS CAZ7
 BAR2 SZ EP   1   1630 18.57                             172     0.0 9   20 194 
 BAR2 SZ ES   1   1630 33.55                             172    -0.5 9   20 194 
 BAR2 SZ I        1630 36.46        18.1 0.28            172             20 194 
 BRR  HZ EP   1   1630 20.30                             152     0.0 9   74 301 
 BRR  HZ I        1630 26.32        20.9 0.12            150             74 301 
 BRR  HN ES   2   1630 37.43                             152     0.4 6   74 301 
 RUS  HZ EP   1   1630 22.44                             145     0.0 9   97 176 
 RUS  HN ES   1   1630 41.40                             145     0.5 9   97 176 
 RUS  HZ I        1630 42.18         5.6 0.32            146             97 176 
 PTB  HZ EP   2   1630 25.39                             132    -0.5 5  148 260 
 PTB  HN ES   1   1630 46.72                             132    -0.3 8  148 260 
 PTB  HZ I        1630 52.32         6.9 0.14            131            148 260 
 ZAR  HN ES       1630 57.37                             122     0.210  206 293 
