 2015  318 1036 34.7 L   6.508 -73.521 14.4  RSN  7 0.4 1.4LRSN                1
 GAP= 69        0.93       2.1     2.0  5.6  0.1837E+00  0.5345E+01 -0.1190E+01E
 Epicentro: EL CARMEN - SANTANDER                                              3
 ACTION:UPD 15-04-30 16:26 OP:nd   STATUS:               ID:20150318103634 L   I
 OLDACT:REG 15-03-18 22:47 OP:cam  STATUS:               ID:20150318102747     3
 2015-03-18-1027-47M.COL___278                                                 6
 STAT SP IPHASW D HRMM SECON CODA AMPLIT PERI AZIMU VELO AIN AR TRES W  DIS CAZ7
 BAR2 EZ EP     D 1036 41.89                             108    0.2410 38.6  76 
 BAR2 EZ ES       1036 47.10                             108    0.0410 38.6  76 
 BAR2 EZ I        1036 47.91        20.5 0.24            106           38.6  76 
 BRR  HZ EP       1036 45.93                              99   -0.0410 69.5 342 
 BRR  HN ES       1036 55.03                              99    0.2810 69.5 342 
 BRR  HZ I        1036 56.09        23.6 0.14             98           69.5 342 
 RUS  HZ EP       1036 48.79                              98    0.2110 83.5 145 
 RUS  HE ES       1036 59.02                              98   -0.3810 83.5 145 
 RUS  HZ I        1037  0.13        11.8 0.20             96           83.5 145 
 PTB  HZ IP     D 1036 51.09                              96   -0.0010  103 272 
 PTB  HN ES       1037  3.40                              96   -0.4610  103 272 
 PTB  HZ I        1037  5.45        14.4 0.14             95            103 272 
 SPBC HZ EP       1036 52.83                              96    0.2910  113 213 
 SPBC HZ I        1037 11.24         6.1 0.16             94            113 213 
 PAM  SZ EP       1036 55.90                              95    0.4310  129  45 
 PAM  SE ES       1037 10.90                              95   -0.7510  129  45 
 PAM  SZ I        1037 15.77         5.6 0.12             94            129  45 
 ZAR  HZ EP       1037  2.47                              56    0.44 9  184 306 
 ZAR  HE ES       1037 23.05                              56   -0.28 9  184 306 
 ZAR  HZ I        1037 26.96         3.2 0.28             56            184 306 
                                                                                
