 2012  518 1540 14.4 L   6.737 -73.148142.0  RSN  6 0.4 1.7LRSN                1
 GAP=139        0.93       6.1     5.5  9.0  0.2736E+01  0.1002E+02  0.6401E-01E
 Epicentro: JORDAN - SANTANDER                                                 3
 ACTION:UP  12-07-05 12:06 OP:pat  STATUS:               ID:20120518154014 L   I
 2012-05-18-1540-00M.COL___200                                                 6
 STAT SP IPHASW D HRMM SECON CODA AMPLIT PERI AZIMU VELO SNR AR TRES W  DIS CAZ7
 BAR2 SZ EP   1   1540 33.53                             173     0.1 7   16 194 
 BAR2 SZ ES   1   1540 47.98                             173    -0.3 7   16 194 
 BAR2 SZ I        1540 49.29        19.1 0.26                            16 194 
 BRR  HZ EP   1   1540 35.56                             151     0.3 7   75 303 
 BRR  HZ I        1540 35.97        14.7 0.12                            75 303 
 BRR  HN ES   1   1540 52.18                             151     0.5 7   75 303 
 PAM  SZ EP   1   1540 36.57                             148     0.0 7   83  37 
 PAM  SN ES   1   1540 53.39                             148    -0.4 7   83  37 
 RUS  HZ EP   1   1540 37.45                             145     0.2 7   94 176 
 RUS  HN ES   1   1540 55.45                             145     0.4 7   94 176 
 RUS  HZ I        1540 57.65         4.8 0.45                            94 176 
 PTB  HZ EP   1   1540 40.25                             131    -0.6 7  146 262 
 PTB  HE ES   1   1541  0.97                             131    -0.6 7  146 262 
 PTB  HZ I        1541  3.14         3.8 0.19                           146 262 
 ZAR  HN ES   1   1541 12.62                             121     0.5 6  207 294 
                                                                                
