 2016  418 1107 58.8 L   6.790 -73.181145.3  RSN  5 0.3 1.6LRSN                1
 GAP=241        0.81       5.3     4.8  6.5  0.1041E+02  0.5622E+01 -0.7156E+01E
 Epicentro: LOS SANTOS - SANTANDER                                             3
 ACTION:UPD 16-05-05 14:22 OP:rebc STATUS:               ID:20160418110758 L   I
 OLDACT:ARG 16-04-18 20:48 OP:ar   STATUS:               ID:20160418105749     3
 2016-04-18-1057-49M.COL___285                                                 6
 STAT SP IPHASW D HRMM SECON CODA AMPLIT PERI AZIMU VELO AIN AR TRES W  DIS CAZ7
 BAR2 EZ EP       11 8 18.08                             171   -0.2710 21.9 180 
 BAR2 EZ ES       11 8 33.80                             171    0.2110 21.9 180 
 BAR2 EZ I        11 8 34.69        13.4 0.28            171           21.9 180 
 RUS  HZ EP       11 8 22.34                             144   -0.1110 99.9 174 
 RUS  HN ES       11 8 40.90                             144   -0.0110 99.9 174 
 RUS  HZ I        11 8 42.51         3.0 0.20            147           99.9 174 
 PTB  HZ EP       11 8 24.82                             133   -0.54 9  144 259 
 PTB  HN ES       11 8 45.75                             133   -0.33 9  144 259 
 PTB  HZ I        11 8 51.35         5.7 0.40            133            144 259 
 SPBC HZ EP       11 8 27.26                             130    0.31 9  160 218 
 SPBC HN ES       11 8 49.15                             130    0.24 9  160 218 
 SPBC HZ I        11 8 50.47         5.3 0.10            131            160 218 
 ZAR  HZ EP       11 8 31.47                             123    0.59 9  201 293 
 ZAR  HE ES       11 8 55.99                             123    0.08 9  201 293 
 ZAR  HZ I        11 9  2.45         5.5 0.52            123            201 293 
                                                                                
