 2012 1118 1002 42.4 L   6.781 -73.103145.3  RSN 15 0.5 2.1LRSN 2.9WRSN        1
 SPEC AVERAGE  MO 13.5 ST  6.6 OM  2.5 f0 5.49 R0.2995 AL 2.62 WI 25.4 MW  2.9 3
 SPEC SD       MO  0.2 ST  3.8 OM  0.8 f0 1.98 R0.0883 AL      WI      MW  0.1 3
 GAP= 74        1.27       3.3     3.6  5.8 -0.2218E+00  0.5277E+01  0.2278E+01E
 Epicentro: LOS SANTOS - SANTANDER                                             3
 SPEC ZAR HH N MO 13.2 ST 11.7 OM  1.4 f0 8.28 R0.1775 AL 2.93 WI 21.0 MW  2.7 3
 SPEC ZAR HH N T10 340 K 0.000 GD  254 VS 4.20 DE 3.00 Q0230.0 QA 0.60 VS 4.20 3
 SPEC GUY SH N MO 13.7 ST  5.7 OM  1.8 f0 4.36 R0.3372 AL 2.98 WI 32.9 MW  3.1 3
 SPEC GUY SH N T10 4 0 K 0.000 GD  338 VS 4.20 DE 3.00 Q0230.0 QA 0.60 VS 4.20 3
 SPEC OCA HH N MO 13.5 ST  2.5 OM  1.8 f0 3.83 R0.3838 AL 1.96 WI 22.2 MW  2.9 3
 SPEC OCA HH N T10 332 K 0.000 GD  218 VS 4.20 DE 3.00 Q0230.0 QA 0.60 VS 4.20 3
 ACTION:UPD 12-12-05 15:34 OP:}ep  STATUS:               ID:20121118100242 L   I
 2012-11-18-1000-00M.COL___234                                                 6
 STAT SP IPHASW D HRMM SECON CODA AMPLIT PERI AZIMU VELO AIN AR TRES W  DIS CAZ7
 BAR2 SZ EP       10 3  2.06                             171    0.1110 22.6 203 
 BAR2 SZ ES       10 3 17.06                             171   -0.1510 22.6 203 
 BAR2 SZ I        10 3 18.43        29.5 0.42                          22.6 203 
 GIR2 SZ EP       10 3  2.14                             166    0.0410 34.4 343 
 GIR2 SZ ES       10 3 17.89                             166    0.4210 34.4 343 
 PAM  SZ EP       10 3  4.76                             151    0.2810 76.2  36 
 PAM  SN ES       10 3 21.83                             151    0.1110 76.2  36 
 PAM  SN I        10 3 23.31        12.6 0.70                          76.2  36 
 BRR  HZ EP       10 3  3.88                             151    0.0910 76.4 298 
 BRR  HN ES       10 3 21.07                             151    0.5910 76.4 298 
 BRR  HN I        10 3 21.72        25.2 0.30                          76.4 298 
 RUS  HZ EP       10 3  6.01                             144    0.0810 98.3 179 
 RUS  HN ES       10 3 24.41                             144    0.1210 98.3 179 
 RUS  HN I        10 3 25.88        16.0 0.20                          98.3 179 
 TAM  HZ EP       10 3 10.29                             131    0.73 9  150 105 
 TAM  HZ I        10 3 10.44        10.9 0.22                           150 105 
 TAM  HN ES       10 3 29.84                             131   -0.91 9  150 105 
 PTB  HZ EP       10 3  9.09                             131   -0.62 9  152 260 
 PTB  HN ES       10 3 29.84                             131   -1.18 9  152 260 
 PTB  HN I        10 3 35.57         7.6 0.50                           152 260 
 OCA  HZ EP       10 3 10.89                             129   -0.03 9  163 352 
 OCA  HN ES       10 3 32.90                             129   -0.27 9  163 352 
 OCA  HE I        10 3 35.09        24.4 0.22                           163 352 
 ZAR  HZ EP       10 3 15.43                             122    0.09 8  209 292 
 ZAR  HN ES       10 3 40.39                             122   -0.65 8  209 292 
 ZAR  HN I        10 3 47.77        10.1 0.22                           209 292 
 SML  HZ EP       10 3 18.65                             117   -0.76 8  248 335 
 CHI  HZ EP       10 3 20.26                             117    0.28 8  248 196 
 CHI  HZ I        10 3 21.21         3.0 0.12                           248 196 
 CHI  HN ES       10 3 48.98                             117   -0.32 8  248 196 
 SML  HE ES       10 3 48.55                             117    0.26 8  248 335 
 SML  HN I        10 3 51.02        14.3 0.10                           248 335 
 HEL  HZ EP       10 3 23.24                             114    0.21 7  276 256 
 HEL  HN ES       10 3 56.34                             114    1.61 7  276 256 
 GUY  SN ES       10 4  1.10                             112    0.11 7  306 236 
 GUY  SN I        10 4  6.74        11.1 0.26                           306 236 
 RREF HN ES       10 4  4.74                             111   -0.20 7  324 230 
 PRA  HZ EP       10 3 36.00                             106    0.04 6  393 210 
                                                                                
