 2011 1018 1610 49.3 L   6.719 -73.103146.6  RSN  4 0.3 1.5LRSN                1
 GAP=146        0.61       4.4     6.0  8.1 -0.4083E+01  0.4344E+01  0.3569E+01E
 Epicentro: JORDAN - SANTANDER                                                 3
 ACTION:UPD 12-07-13 16:04 OP:ep   STATUS:               ID:20111018161049 L   I
 2011-10-18-1608-43S.COL___167                                                 6
 STAT SP IPHASW D HRMM SECON CODA AMPLIT PERI AZIMU VELO AIN AR TRES W  DIS CAZ7
 BAR2 SZ EP   2   1611  8.85                             173   -0.10 5 16.5 212 
 BAR2 SZ I        1611 11.74        14.3 0.56                          16.5 212 
 BRR  HZ EP   1   1611 11.13                             150    0.04 7 79.9 303 
 BRR  HN ES   1   1611 28.04                             150   -0.01 7 79.9 303 
 PAM  SZ EP   1   1611 12.35                             150    0.44 7 81.9  33 
 PAM  SN ES       1611 29.29                             150   -0.2310 81.9  33 
 RUS  HZ EP   2   1611 11.85                             146   -0.68 5 91.4 179 
 RUS  HN ES   1   1611 30.89                             146    0.27 7 91.4 179 
 RUS  HZ I        1611 33.42         2.8 0.50                          91.4 179 
                                                                                
