 2015  218 1242  1.2 L   5.945 -73.647114.8  RSN  5 0.3 1.2LRSN                1
 GAP=149        0.69       3.7     3.1  7.9  0.2333E+01  0.6489E+01  0.9089E+01E
 Epicentro: BARBOSA - SANTANDER                                                3
 ACTION:UPD 15-04-30 21:27 OP:nd   STATUS:               ID:20150218124201 L   I
 OLDACT:REG 15-02-18 20:31 OP:fm   STATUS:               ID:20150218123747     3
 2015-02-18-1237-47M.COL___290                                                 6
 STAT SP IPHASW D HRMM SECON CODA AMPLIT PERI AZIMU VELO AIN AR TRES W  DIS CAZ7
 RUS  HZ EP   1   1242 19.26                             150    0.05 8 62.7  95 
 RUS  HN ES   1   1242 33.37                             150    0.09 8 62.7  95 
 RUS  HZ I        1242 34.61         2.0 0.42            156           62.7  95 
 PTB  HZ EP       1242 22.14                             133   -0.1410  111 306 
 PTB  HN ES       1242 38.51                             133   -0.2410  111 306 
 PTB  HZ I        1242 43.63         2.3 0.28            136            111 306 
 NOR  HZ EP       1242 25.52                             125    0.2710  142 253 
 NOR  HN ES       1242 44.60                             125    0.5610  142 253 
 NOR  HZ I        1242 47.91         5.1 0.18            129            142 253 
 CHI  HZ EP       1242 26.09                             125   -0.03 9  146 184 
 CHI  HN ES   1   1242 45.25                             125   -0.34 7  146 184 
 GUY2CHE ES       1242 56.87                             115   -0.34 9  206 247 
                                                                                
