 2011  718 1241 58.9 L   6.791 -72.992141.2  RSN  6 0.2 1.9LRSN                1
 GAP=158        0.46       3.7     6.3  5.0  0.6884E+01 -0.3257E+01  0.5087E-01E
 Epicentro: CEPITA - SANTANDER                                                 3
 ACTION:UPD 12-07-25 14:01 OP:epov STATUS:               ID:20110718124158 L   I
 2011-07-18-1238-22S.COL___142                                                 6
 STAT SP IPHASW D HRMM SECON CODA AMPLIT PERI AZIMU VELO AIN AR TRES W  DIS CAZ7
 BAR2 SZ EP   1   1242 18.02                             167   -0.15 7 30.4 224 
 BAR2 SZ ES   1   1242 32.94                             167   -0.25 7 30.4 224 
 BAR2 SZ I        1242 34.03        17.7 0.30                          30.4 224 
 BTL  SZ EP   1   1242 18.47                             166    0.21 7 33.6 295 
 GIR2 SZ EP   1   1242 18.53                             164    0.24 7 38.8 325 
 GIR2 SZ ES   2   1242 33.91                             164    0.52 5 38.8 325 
 PAM  SE ES   2   1242 36.44                             153   -0.27 5 68.7  28 
 BRR  HZ EP   1   1242 20.30                             147   -0.26 7 86.9 294 
 BRR  HZ I        1242 20.42        21.8 0.10                          86.9 294 
 BRR  HE ES   1   1242 37.44                             147    0.00 7 86.9 294 
 RUS  HZ EP   1   1242 22.19                             143    0.02 7 99.9 186 
 RUS  HN ES   1   1242 40.41                             143    0.10 7 99.9 186 
 RUS  HZ I        1242 41.42         8.6 0.24                          99.9 186 
                                                                                
