 2010 1218 1512 36.0 L   6.781 -73.093150.5  RSN 12 0.4 2.6LRSN                1
 GAP=188        0.65       3.5     6.1  5.8 -0.3958E+01  0.8408E+01  0.5300E+01E
 Epicentro: LOS SANTOS - SANTANDER                                             3
 ACTION:UP  11-01-14 15:25 OP:pat  STATUS:               ID:20101218151236 L   I
 2010-12-18-1510-32S.COL___137                                                 6
 STAT SP IPHASW D HRMM SECON CODA AMPLIT PERI AZIMU VELO SNR AR TRES W  DIS CAZ7
 BAR2 SZ EP   1   1512 56.19                             171     0.0 7   23 206 
 BAR2 SZ ES   2   1513 11.37                             171    -0.6 5   23 206 
 BAR2 SZ I        1513 14.02        58.1 0.32                            23 206 
 BTL  SZ EP   1   1512 56.16                             170     0.0 7   25 308 
 GIR2 SZ EP   1   1512 56.25                             166    -0.1 7   35 341 
 GIR2 SZ ES   2   1513 12.88                             166     0.7 5   35 341 
 BRR  HZ EP   1   1512 58.05                             151     0.1 7   77 298 
 BRR  HE ES   2   1513 15.53                             151     0.4 5   77 298 
 BRR  HZ I        1513 17.50        79.4 0.15                            77 298 
 RUS  HZ EP   1   1512 59.96                             145    -0.1 7   98 179 
 RUS  HN ES   2   1513 18.66                             145    -0.1 5   98 179 
 RUS  HZ I        1513 20.18        43.5 0.40                            98 179 
 OCA  SZ EP   1   1513  4.56                             130    -0.4 7  163 351 
 OCA  SZ ES   2   1513 27.47                             130     0.0 5  163 351 
 OCA  SZ I        1513 31.39        56.1 0.59                           163 351 
 NOR  SZ EP   1   1513 11.94                             119    -0.4 6  238 236 
 NOR  SE ES   2   1513 40.43                             119    -0.3 4  238 236 
 CHI  HZ EP   1   1513 14.17                             118     0.3 6  248 197 
 CHI  HE ES   2   1513 43.37                             118    -0.1 4  248 197 
 CHI  HZ I        1513 49.21        21.2 0.44                           248 197 
 ROSC BZ EP   1   1513 14.80                             117     0.3 6  254 212 
 ROSC BN ES   2   1513 45.05                             117     0.5 4  254 212 
 ROSC BZ I        1513 49.64        38.1 0.59                           254 212 
 HEL  HZ EP   1   1513 17.94                             115     0.9 6  277 257 
 HEL  HN ES   2   1513 47.97                             115    -1.0 4  277 257 
 HEL  HZ I        1513 54.40        29.0 0.31                           277 257 
 PRA  HZ EP   1   1513 29.67                             107    -0.1 4  393 210 
 PRA  HE ES   2   1514 11.67                             107    -0.1 3  393 210 
 SJA  SZ EP   2   1513 30.32                             107    -0.3 3  399 194 
 SJA  SZ ES   3   1514 13.62                             107     0.4 1  399 194 
                                                                                
