 2015 1018 1227 34.0 L   6.795 -73.120150.6  RSN  8 0.4 1.9LRSN                1
 GAP= 73        1.14       4.2     5.3  7.1  0.3280E+01  0.2940E+01 -0.2078E+01E
 Epicentro: LOS SANTOS - SANTANDER                                             3
 ACTION:UPD 15-12-22 20:41 OP:cam  STATUS:               ID:20151018122734 L   I
 OLDACT:DUP 15-10-18 23:09 OP:stll STATUS:               ID:20151018121749d    3
 2015-10-18-1217-48M.COL___331                                                 6
 STAT SP IPHASW D HRMM SECON CODA AMPLIT PERI AZIMU VELO AIN AR TRES W  DIS CAZ7
 BAR2 EZ EP     D 1227 54.48                             171    0.2610 23.4 197 
 BAR2 EZ ES       1228  9.30                             171   -0.6910 23.4 197 
 BAR2 EZ I        1228 12.10        10.5 0.26            169           23.4 197 
 BRR  HZ EP       1227 56.59                             152    0.7510 73.9 298 
 BRR  HN ES       1228 13.50                             152    0.6410 73.9 298 
 BRR  HZ I        1228 18.21        18.9 0.44            150           73.9 298 
 PAM  EN ES       1228 14.28                             152   -0.0610 76.1  38 
 PAM  EZ I        1228 16.65        10.9 0.44            155           76.1  38 
 RUS  HZ EP       1227 58.37                             145    0.1810 99.9 178 
 RUS  HZ I        1227 59.25         4.2 0.42            147           99.9 178 
 RUS  HN ES       1228 17.03                             145   -0.0210 99.9 178 
 TAM  HZ EP       1228  1.74                             132   -0.07 9  152 105 
 SPBC HZ EP       1228  2.31                             130   -0.70 9  165 220 
 SPBC HN ES       1228 25.86                             130    0.23 9  165 220 
 SPBC HZ I        1228 32.55        12.5 0.38            130            165 220 
 ZAR  HN ES       1228 32.32                             123   -0.52 8  207 292 
 ZAR  HZ I        1228 38.87         8.5 0.14            123            207 292 
 SML  HZ EP       1228 11.15                             118    0.06 8  245 335 
 SML  HE ES       1228 39.59                             118   -0.43 8  245 335 
 SML  HZ I        1228 45.35         9.1 0.10            119            245 335 
                                                                                
