 2017  618 1355  5.0 L   6.783 -73.211156.0  RSN  5 0.4 1.9LRSN                1
 GAP=274        0.68       4.4     6.8  6.7  0.8672E+00 -0.1106E+02  0.8560E+01E
 Epicentro: ZAPATOCA - SANTANDER                                               3
 ACTION:UPD 17-09-14 16:53 OP:jn   STATUS:               ID:20170618135505 L   I
 OLDACT:REG 17-06-18 20:38 OP:osc  STATUS:               ID:20170618134740     3
 2017-06-18-1348-00M.COL___340                                                 6
 STAT SP IPHASW D HRMM SECON CODA AMPLIT PERI AZIMU VELO AIN AR TRES W  DIS CAZ7
 BRR  HZ EP       1355 26.84                             156   -0.1410 66.0 303 
 BRR  HN ES       1355 44.36                             156    0.2210 66.0 303 
 BRR  HZ I        1355 44.95        10.8 0.10            150           66.0 303 
 PTB  HZ EP       1355 31.71                             136   -0.46 9  140 259 
 PTB  HN ES       1355 53.01                             136   -0.36 9  140 259 
 PTB  HZ I        1355 54.71         7.1 0.16            131            140 259 
 SPBC HZ EP       1355 33.82                             132    0.07 9  157 217 
 SPBC HN ES       1355 56.30                             132    0.11 9  157 217 
 SPBC HZ I        1355 58.76        22.6 0.15            129            157 217 
 ZAR  HZ EP   3   1355 38.38                             126    0.85 2  198 293 
 ZAR  HE ES       1356  3.15                             126    0.23 9  198 293 
 ZAR  HZ I        1356  8.47         4.3 0.09            122            198 293 
 NOR  HZ EP       1355 40.96                             122    0.35 8  228 234 
 NOR  HE ES   3   1356  9.52                             122    1.13 2  228 234 
 NOR  HZ I        1356 12.40         5.2 0.20            119            228 234 
                                                                                
