 2010  918 1855 32.4 L   6.773 -73.092145.9  RSN  4 0.4 1.7LRSN                1
 GAP=241        0.63       7.2     8.6  8.5  0.1322E+02  0.1833E+02  0.1119E+02E
 Epicentro: LOS SANTOS - SANTANDER                                             3
 ACTION:UP  11-02-18 11:03 OP:tino STATUS:               ID:20100918185532 L   I
 2010-09-18-1854-00S.COL___115                                                 6
 STAT SP IPHASW D HRMM SECON CODA AMPLIT PERI AZIMU VELO SNR AR TRES W  DIS CAZ7
 BAR2 SZ EP   1   1855 51.99                             171     0.0 7   22 207 
 BAR2 SZ ES   2   1856  6.56                             171    -0.7 5   22 207 
 BAR2 SZ I        1856  8.74        20.1 0.27                            22 207 
 BRR  HZ EP   1   1855 53.87                             150     0.0 7   78 298 
 BRR  HE ES   2   1856 11.21                             150     0.5 5   78 298 
 BRR  HZ I        1856 12.60        13.4 0.13                            78 298 
 RUS  HZ EP   1   1855 55.85                             145     0.0 7   97 179 
 RUS  HZ I        1855 56.68         3.0 0.20                            97 179 
 RUS  HN ES   2   1856 14.81                             145     0.6 5   97 179 
 NOR  HZ EP   1   1856  8.51                             118     0.1 6  238 236 
 NOR  HN ES   2   1856 36.28                             118    -0.3 4  238 236 
                                                                                
