 2011 1118 1116 32.5 L   6.777 -73.140148.8  RSN  5 0.2 1.6LRSN                1
 GAP=138        0.53       4.4     3.8  5.7  0.6256E+01  0.5518E+01  0.3607E+01E
 Epicentro: LOS SANTOS - SANTANDER                                             3
 ACTION:UPD 12-07-13 16:11 OP:ep   STATUS:               ID:20111118111632 L   I
 2011-11-18-1113-33S.COL___179                                                 6
 STAT SP IPHASW D HRMM SECON CODA AMPLIT PERI AZIMU VELO AIN AR TRES W  DIS CAZ7
 BAR2 SZ EP       1116 52.44                             171   -0.0410 20.9 193 
 BAR2 SZ ES   1   1117  8.01                             171   -0.04 7 20.9 193 
 BAR2 SZ I        1117  9.47        12.4 0.40                          20.9 193 
 BRR  HZ EP       1116 54.24                             153    0.1310 73.0 300 
 BRR  HZ I        1116 54.49        19.8 0.14                          73.0 300 
 BRR  HN ES   1   1117 11.40                             153    0.46 7 73.0 300 
 PAM  SZ EP   2   1116 55.17                             151    0.00 5 79.0  38 
 PAM  SZ I        1116 56.40         2.5 0.54                          79.0  38 
 PAM  SN ES   1   1117 12.61                             151   -0.22 7 79.0  38 
 RUS  HZ EP   1   1116 56.60                             145    0.20 7 98.0 176 
 RUS  HN ES   2   1117 14.68                             145   -0.33 5 98.0 176 
 RUS  HZ I        1117 16.22         4.0 0.38                          98.0 176 
 ZAR  HN ES       1117 30.59                             123   -0.33 8  206 293 
 ZAR  HZ I        1117 36.42         4.5 0.36                           206 293 
                                                                                
