 2015  818 1113 54.9 L   6.759 -73.134155.6  RSN  8 0.3 1.8LRSN                1
 GAP=201        0.75       3.7     5.8  7.8  0.1034E+02 -0.1178E+02 -0.1294E+02E
 Epicentro: LOS SANTOS - SANTANDER                                             3
 ACTION:UPD 15-09-15 23:03 OP:cam  STATUS:               ID:20150818111354 L   I
 OLDACT:REG 15-08-18 20:29 OP:ar   STATUS:               ID:20150818110746     3
 2015-08-18-1107-46M.COL___319                                                 6
 STAT SP IPHASW D HRMM SECON CODA AMPLIT PERI AZIMU VELO AIN AR TRES W  DIS CAZ7
 BAR2 EZ EP       1114 15.36                             173   -0.2610 19.2 196 
 BAR2 EZ I        1114 32.17         9.7 0.24            167           19.2 196 
 BRR  HZ EP       1114 17.29                             153    0.0110 74.6 301 
 BRR  HN ES       1114 34.92                             153    0.1710 74.6 301 
 BRR  HZ I        1114 37.15         6.6 0.16            147           74.6 301 
 RUS  HZ EP       1114 19.34                             147    0.0510 96.0 177 
 RUS  HN ES       1114 38.15                             147   -0.1910 96.0 177 
 RUS  HZ I        1114 38.75         5.9 0.28            139           96.0 177 
 SPBC HN ES       1114 46.99                             132    0.45 9  161 220 
 SPBC HZ I        1114 51.14         9.8 0.20            123            161 220 
 ZAR  HE ES       1114 53.70                             124   -0.63 8  207 293 
 ZAR  HZ I        1114 55.29         4.9 0.14            117            207 293 
 SML  HZ EP       1114 32.69                             119    0.12 8  248 335 
 SML  HN ES       1115  2.33                             119    0.36 8  248 335 
 SML  HZ I        1115  5.37         6.7 0.24            113            248 335 
 URE  HN ES   4   1115  3.24                             115   -6.20 0  287 293 
 URE  HZ I        1115 20.03         3.8 0.26            109            287 293 
 TOL  SN ES   4   1115 22.78                             111    1.74 0  341 225 
 TOL  SZ I        1115 33.02         2.2 0.72            105            341 225 
                                                                                
