 2012 1218 1912 21.6 L   6.769 -73.149146.3  RSN  6 0.4 1.6LRSN                1
 GAP=138        0.72       5.0     4.3  8.6  0.1723E+01  0.5336E+01  0.6259E+01E
 Epicentro: LOS SANTOS - SANTANDER                                             3
 ACTION:UPD 13-01-04 14:28 OP:ep   STATUS:               ID:20121218191221 L   I
 2012-12-18-1910-00M.COL___242                                                 6
 STAT SP IPHASW D HRMM SECON CODA AMPLIT PERI AZIMU VELO AIN AR TRES W  DIS CAZ7
 BAR2 SZ EP   1   1912 41.24                             172    0.00 7 19.9 191 
 BAR2 SZ I        1912 57.32        16.8 0.24                          19.9 191 
 BRR  HE ES   1   1912 59.99                             152    0.49 7 72.6 301 
 PAM  SZ EP   1   1912 44.18                             150    0.13 7 80.2  38 
 PAM  SN ES   1   1913  1.11                             150   -0.45 7 80.2  38 
 PAM  SZ I        1913  3.20         6.2 0.46                          80.2  38 
 RUS  HZ EP   1   1912 45.41                             145    0.24 7 97.2 176 
 RUS  HN ES   1   1913  3.69                             145    0.14 7 97.2 176 
 RUS  HZ I        1913  4.78         5.2 0.26                          97.2 176 
 PTB  HZ EP   1   1912 48.24                             132   -0.29 7  147 260 
 PTB  HN ES   1   1913  8.88                             132   -0.65 7  147 260 
 PTB  HZ I        1913  9.75         3.0 0.10                           147 260 
 ZAR  HE ES   1   1913 19.97                             122    0.37 6  205 293 
                                                                                
