 2012 1118 1747  3.7 L   6.524 -73.544104.2  RSN 16 0.6 2.5LRSN                1
 GAP= 51        1.55       3.7     3.8  7.7 -0.2303E+01  0.7494E+01  0.5640E+01E
 Epicentro: EL CARMEN DE CHUCURI - SANTANDER                                   3
 ACTION:UP  12-12-05 15:34 OP:}ep  STATUS:               ID:20121118174703 L   I
 2012-11-18-1740-00M.COL___234                                                 6
 STAT SP IPHASW D HRMM SECON CODA AMPLIT PERI AZIMU VELO AIN AR TRES W  DIS CAZ7
 BAR2 SZ IP       1747 19.27                             157    0.2210 40.7  79 
 BAR2 SZ ES       1747 31.22                             157    0.2210 40.7  79 
 BRR  HZ EP       1747 19.97                             144   -0.3110 67.1 344 
 BRR  HN ES       1747 34.14                             144    0.9410 67.1 344 
 BRR  HN I        1747 39.38       171.2 0.18                          67.1 344 
 GIR2 SZ EP       1747 20.68                             142   -0.2010 72.6  32 
 RUS  HZ EP       1747 22.31                             137   -0.1510 86.4 144 
 RUS  HN ES       1747 37.51                             137    0.4410 86.4 144 
 RUS  HN I        1747 39.28        35.7 0.22                          86.4 144 
 PTB  HZ IP       1747 22.08                             132   -0.9810  101 271 
 PTB  HZ I        1747 22.35        52.2 0.26                           101 271 
 PTB  HN ES       1747 36.99                             132   -1.1510  101 271 
 PAM  SZ EP       1747 25.75                             125   -0.7010  130  46 
 PAM  SN ES       1747 43.52                             125   -0.6610  130  46 
 PAM  SN I        1747 45.49        20.4 0.36                           130  46 
 ZAR  HZ EP       1747 31.06                             115   -0.15 9  180 306 
 ZAR  HN ES       1747 53.03                             115    0.39 9  180 306 
 ZAR  HN I        1747 56.53        94.4 0.30                           180 306 
 NOR  HZ EP       1747 30.88                             115   -0.46 9  181 234 
 NOR  HN ES       1747 52.30                             115   -0.58 9  181 234 
 NOR  HN I        1747 55.73       102.3 0.16                           181 234 
 OCA  HZ EP       1747 32.93                             113    0.33 9  191   7 
 OCA  HE ES       1747 56.29                             113    1.17 9  191   7 
 OCA  HN I        1748  0.70       192.6 0.26                           191   7 
 TAM  HZ EP       1747 31.95                             113   -0.83 9  194  93 
 ROSC BZ EP       1747 35.61                             112    1.15 9  205 205 
 ROSC BN ES   4   1748  0.31                             112    1.88 0  205 205 
 ROSC BZ I        1748  6.20        14.8 0.35                           205 205 
 CHI  HZ EP       1747 35.27                             111    0.17 8  211 186 
 CHI  HZ I        1747 36.98         8.2 0.34                           211 186 
 CHI  HN ES       1747 59.94                             111    0.36 8  211 186 
 HEL  HZ EP       1747 36.78                             109    0.34 8  223 261 
 HEL  HN ES       1748  1.98                             109    0.02 8  223 261 
 HEL  HN I        1748  5.54        14.9 0.30                           223 261 
 GUY  SZ EP       1747 40.47                             107    0.73 8  250 235 
 GUY  SN ES       1748  7.92                             107    0.09 8  250 235 
 GUY  SN I        1748 15.83        73.4 0.26                           250 235 
 RREF HZ EP       1747 42.99                             105    0.88 8  269 228 
 RREF HZ I        1748 19.37        10.6 0.32                           269 228 
 PRA  HZ EP       1747 50.04                             100   -0.38 7  345 206 
 PRA  HN I        1748 33.84         6.7 0.30                           345 206 
                                                                                
