 2013  618 1219 53.3 L   6.778 -73.170155.4  RSN  5 0.4 1.5LRSN                1
 GAP=198        0.85       6.2     6.9  8.4  0.1043E+02  0.1286E+02 -0.1093E+02E
 Epicentro: LOS SANTOS - SANTANDER                                             3
 ACTION:UPD 14-01-08 09:55 OP:ep   STATUS:               ID:20130618121953 L   I
 OLDACT:REG 13-06-18 18:56 OP:cam  STATUS:               ID:20130618121851     3
 2013-06-18-1218-51M.COL___223                                                 6
 STAT SP IPHASW D HRMM SECON CODA AMPLIT PERI AZIMU VELO AIN AR TRES W  DIS CAZ7
 BAR2 SZ EP       1220 14.01                             172   -0.0310 20.6 184 
 BAR2 SZ I        1220 14.22         6.5 0.17            168           20.6 184 
 BAR2 SZ ES       1220 30.01                             172   -0.2010 20.6 184 
 BRR  HZ EP   2   1220 15.98                             154    0.54 5 70.1 301 
 BRR  HE ES   1   1220 33.50                             154    0.80 7 70.1 301 
 RUS  HN ES   1   1220 36.88                             146   -0.13 7 98.4 174 
 PTB  HZ EP       1220 21.07                             135    0.27 9  145 260 
 PTB  HN ES       1220 41.92                             135   -0.33 9  145 260 
 PTB  HZ I        1220 47.80         3.9 0.30            131            145 260 
 SML  HN ES   1   1220 59.05                             119   -0.64 6  245 336 
                                                                                
