 2013  118 1857  0.8 L   7.215 -73.355127.7  RSN  5 0.2 1.5LRSN                1
 GAP=159        0.38       4.4     2.8  5.4  0.2303E+01  0.4998E+01  0.7482E+00E
 Epicentro: LEBRIJA - SANTANDER                                                3
 ACTION:UPD 13-02-15 09:15 OP:ep   STATUS:               ID:20130118185700 L   I
 2013-01-18-1850-00M.COL___241                                                 6
 STAT SP IPHASW D HRMM SECON CODA AMPLIT PERI AZIMU VELO AIN AR TRES W  DIS CAZ7
 BAR2 SZ EP   2   1857 20.55                             149    0.19 5 71.5 164 
 BAR2 SZ ES   1   1857 35.74                             149    0.10 7 71.5 164 
 BAR2 SZ I        1857 36.97        29.9 0.20            149           71.5 164 
 PAM  SN ES   2   1857 36.32                             148   -0.21 5 73.7  79 
 PTB  HZ EP   1   1857 25.64                             129   -0.21 7  143 239 
 PTB  HN ES   1   1857 45.24                             129   -0.17 7  143 239 
 PTB  HZ I        1857 48.88         3.4 0.16            128            143 239 
 RUS  HZ EP   1   1857 27.26                             127    0.15 7  149 168 
 RUS  HN ES   2   1857 47.62                             127   -0.04 5  149 168 
 RUS  HZ I        1857 50.30         1.9 0.40            129            149 168 
 ZAR  HN ES   2   1857 50.30                             123    0.35 5  169 281 
 ZAR  HZ I        1857 53.24         2.8 0.26            124            169 281 
                                                                                
