 2012  518 1224 56.3 L   6.789 -73.154135.5  RSN  7 0.4 1.7LRSN                1
 GAP=182        0.89       5.1     6.6  8.9  0.1041E+02  0.1542E+02 -0.2130E+01E
 Epicentro: LOS SANTOS - SANTANDER                                             3
 ACTION:UP  12-07-05 12:06 OP:pat  STATUS:               ID:20120518122456 L   I
 2012-05-18-1220-00M.COL___200                                                 6
 STAT SP IPHASW D HRMM SECON CODA AMPLIT PERI AZIMU VELO SNR AR TRES W  DIS CAZ7
 BAR2 SZ EP       1225 14.80                             170     0.110   22 188 
 BAR2 SZ ES   1   1225 28.87                             170    -0.1 7   22 188 
 BAR2 SZ I        1225 30.89        17.5 0.33                            22 188 
 BRR  HZ EP   1   1225 16.73                             151     0.4 7   71 300 
 BRR  HZ I        1225 38.07        17.2 0.11                            71 300 
 RUS  HZ EP   1   1225 18.64                             142    -0.3 7   99 175 
 RUS  HN ES   1   1225 37.04                             142     0.4 7   99 175 
 RUS  HZ I        1225 38.97         7.4 0.43                            99 175 
 PTB  HZ EP   1   1225 21.80                             130    -0.5 7  147 259 
 PTB  HN ES   1   1225 42.47                             130    -0.2 7  147 259 
 PTB  HZ I        1225 45.45         6.5 0.17                           147 259 
 OCA  HN ES   1   1225 45.15                             127    -0.3 7  161 354 
 ZAR  HZ EP   1   1225 28.92                             120     0.9 6  204 293 
 ZAR  HN ES   1   1225 52.81                             120     0.0 6  204 293 
 CHI  HZ EP   1   1225 32.98                             115    -0.3 6  247 195 
 CHI  HZ I        1226  5.37         2.8 0.33                           247 195 
                                                                                
