 2010  518 1916 27.4 L   6.765 -73.070148.1  RSN 12 0.5 3.1LRSN                1
 GAP=148        1.24       6.2     9.4  8.2 -0.2842E+02 -0.1615E+01  0.1541E+02E
 Epicentro: LOS SANTOS - SANTANDER                                             3
 ACTION:UP  10-08-24 10:05 OP:vdl  STATUS:               ID:20100518191627 L   I
 2010-05-18-1914-49S.COL___108                                                 6
 STAT SP IPHASW D HRMM SECON CODA AMPLIT PERI AZIMU VELO SNR AR TRES W  DIS CAZ7
 BAR2 SZ IP       1916 47.08                             171    -0.210   23 213 
 BAR2 SZ ES   1   1917  2.00                             171    -0.8 7   23 213 
 BRR  HZ IP     D 1916 49.77                             150     0.510   80 298 
 BRR  HN ES   1   1917  6.59                             150     0.2 7   80 298 
 BRR  HZ I        1917 10.85       269.6 0.07                            80 298 
 BRI  SZ EP   2   1916 52.62                             142     1.1 5  109  16 
 BRI  SZ ES   1   1917 11.35                             142     1.0 7  109  16 
 GUE  SZ EP   2   1916 51.90                             140    -0.6 5  119   8 
 GRA  SZ IP       1916 53.01                             137     0.110  127  13 
 GRA  SZ ES   1   1917 12.37                             137    -0.5 7  127  13 
 OCA  SZ EP       1916 55.63                             130    -0.7 9  165 350 
 OCA  SZ I        1917 22.18       187.8 0.33                           165 350 
 CHI  HZ EP       1917  5.15                             118     0.1 8  247 197 
 CHI  HE ES   2   1917 34.13                             118    -0.3 4  247 197 
 CHI  HZ I        1917 41.14        43.9 0.40                           247 197 
 CVER SZ EP       1917  8.63                             115     0.8 8  272 204 
 HEL  HZ EP       1917  8.61                             115     0.1 7  279 257 
 HEL  HZ I        1917 45.46        51.6 0.40                           279 257 
 DBB  SZ EP       1917 15.42                             109    -0.5 6  348 275 
 SDV  BZ IP       1917 16.74                             109    -0.3 6  356  49 
 SDV  BZ I        1917 17.54        29.6 0.29                           356  49 
 PRA  HZ EP       1917 20.67                             107    -0.4 6  393 211 
 PRA  HZ I        1918  8.90        70.6 0.22                           393 211 
                                                                                
