 2016  718 1421 42.5 L   6.796 -73.135141.3  RSN  4 0.2 1.5LRSN                1
 GAP=245        0.52       3.6     3.9  4.6  0.5122E+01  0.4949E+01 -0.1191E+01E
 Epicentro: LOS SANTOS - SANTANDER                                             3
 ACTION:UPD 17-03-29 16:52 OP:lp   STATUS:               ID:20160718142142 L   I
 OLDACT:REG 16-07-18 20:15 OP:lv   STATUS:               ID:20160718141759     3
 2016-07-18-1417-59S.COL___320                                                 6
 STAT SP IPHASW D HRMM SECON CODA AMPLIT PERI AZIMU VELO AIN AR TRES W  DIS CAZ7
 BAR2 EZ EP       1422  1.40                             170   -0.2310 23.1 193 
 BAR2 EZ ES       1422 16.60                             170    0.0810 23.1 193 
 BAR2 EZ I        1422 17.69         5.1 0.15            168           23.1 193 
 RUS  HZ EP       1422  5.80                             143   -0.0110  100 177 
 RUS  HN ES   2   1422 24.22                             143    0.25 5  100 177 
 RUS  HZ I        1422 25.01         3.3 0.30            144            100 177 
 SPBC HZ EP       1422 10.64                             128   -0.09 9  164 219 
 SPBC HN ES       1422 32.74                             128    0.01 9  164 219 
 SPBC HZ I        1422 35.35         5.3 0.09            128            164 219 
 ZAR  HZ EP       1422 15.25                             121    0.42 8  205 292 
 ZAR  HN ES       1422 39.81                             121   -0.20 8  205 292 
 ZAR  HZ I        1422 43.34         4.7 0.12            122            205 292 
                                                                                
