 2017 1118 1014 36.8 L   6.393 -73.636110.0  RSN  5 0.1 1.4LRSN                1
 GAP=170        0.79       4.2     3.1  6.2 -0.5356E+01  0.5163E+01 -0.8584E+00E
 Epicentro: SANTA HELENA DEL OPON - SANTANDER                                  3
 ACTION:UPD 17-12-12 19:56 OP:rebc STATUS:               ID:20171118101436 L   I
 OLDACT:DUP 17-11-18 21:12 OP:lv   STATUS:               ID:20171118100740d    3
 OLDACT:REG 17-11-18 20:06 OP:lv   STATUS:               ID:20171118100737     3
 2017-11-18-1008-00M.COL___458                                                 6
 STAT SP IPHASW D HRMM SECON CODA AMPLIT PERI AZIMU VELO AIN AR TRES W  DIS CAZ7
 BAR2 EZ EP       1014 53.39                             150   -0.0810 54.8  66 
 BAR2 EZ ES       1015  6.33                             150   -0.1710 54.8  66 
 BAR2 EZ I        1015  7.77        17.6 0.24            152           54.8  66 
 PTB  HZ EP   9   1014 54.89                             136   -0.94 0 92.2 280 
 PTB  HN ES       1015  8.97                             132   -0.7910 92.2 280 
 PTB  HZ I        1015 11.51         3.9 0.52            137           92.2 280 
 PAM  EZ EP       1015  1.54                             121   -0.11 9  147  45 
 PAM  HN ES       1015 21.16                             121    0.10 9  147  45 
 PAM  EZ I        1015 21.86         1.9 0.16            123            147  45 
 NOR  HZ EP       1015  3.02                             118    0.14 9  164 236 
 NOR  HN ES       1015 23.27                             118    0.01 9  164 236 
 NOR  HZ I        1015 24.38         2.6 0.26            120            164 236 
 ZAR  HZ EP       1015  4.61                             115   -0.08 9  182 312 
 ZAR  HE ES       1015 26.72                             115    0.25 9  182 312 
 ZAR  HZ I        1015 28.08         4.0 0.28            117            182 312 
                                                                                
