 2014 1118 1320 23.0 L   6.772 -73.144145.2  RSN  6 0.3 1.7LRSN                1
 GAP=138        0.75       3.5     3.7  5.1 -0.3287E+01  0.2609E+01  0.1889E+01E
 Epicentro: LOS SANTOS - SANTANDER                                             3
 ACTION:UPD 14-12-19 15:44 OP:nd   STATUS:               ID:20141118132023 L   I
 OLDACT:ARG 14-11-18 23:39 OP:stll STATUS:               ID:20141118131745     3
 2014-11-18-1317-45M.COL___277                                                 6
 STAT SP IPHASW D HRMM SECON CODA AMPLIT PERI AZIMU VELO AIN AR TRES W  DIS CAZ7
 BAR2 SZ EP       1320 42.80                             172    0.2610 20.3 192 
 BAR2 SZ ES       1320 57.74                             172   -0.0110 20.3 192 
 BAR2 SZ I        1320 58.77         7.5 0.36            169           20.3 192 
 BRR  HZ EP       1320 44.69                             152    0.4710 72.9 301 
 BRR  HN ES       1321  0.94                             152    0.2010 72.9 301 
 PAM  SZ EP       1320 45.23                             150   -0.1010 79.7  38 
 PAM  SZ I        1320 45.77        15.4 0.22            154           79.7  38 
 PAM  SN ES       1321  2.54                             150   -0.1810 79.7  38 
 RUS  HZ EP       1320 46.55                             145    0.0410 97.4 176 
 RUS  HN ES       1321  4.58                             145   -0.2310 97.4 176 
 RUS  HZ I        1321  6.71         3.5 0.20            145           97.4 176 
 PTB  HZ EP       1320 49.43                             132   -0.49 9  147 260 
 PTB  HN ES       1321 10.51                             132   -0.37 9  147 260 
 PTB  HZ I        1321 16.26         9.6 0.36            131            147 260 
 SPBC HZ EP       1320 51.24                             129   -0.03 9  161 220 
 SPBC HN ES       1321 13.68                             129    0.39 9  161 220 
 SPBC HZ I        1321 17.04        10.8 0.10            129            161 220 
                                                                                
