 2014 1118 1007 37.1 L   6.851 -73.409107.9  RSN 19 0.7 2.3LRSN                1
 GAP= 52        1.71       4.3     3.9  7.7 -0.3383E+01  0.8576E+01  0.5645E+01E
 Epicentro: SAN VICENTE DE CHUCURI - SANTANDER                                 3
 ACTION:UPD 14-12-19 15:44 OP:nd   STATUS:               ID:20141118100737 L   I
 OLDACT:DUP 14-11-18 23:48 OP:stll STATUS:               ID:20141118095748d    3
 2014-11-18-0957-47M.COL___277                                                 6
 STAT SP IPHASW D HRMM SECON CODA AMPLIT PERI AZIMU VELO AIN AR TRES W  DIS CAZ7
 BAR2 SZ EP       10 7 53.07                             159    0.3410 38.0 139 
 BAR2 SZ I        10 7 53.19       165.6 0.12            161           38.0 139 
 BAR2 SZ ES       10 8  5.58                             159    0.6610 38.0 139 
 BRR  HZ IP     C 10 7 53.06                             156    0.4110 43.9 310 
 BRR  HN ES       10 8  5.93                             156    1.1510 43.9 310 
 BRR  HZ I        10 8  7.01        56.9 0.12            154           43.9 310 
 PAM  SZ EP       10 7 56.63                             136   -0.2610 95.1  55 
 PAM  SN ES       10 8 12.41                             136    0.0810 95.1  55 
 PAM  SZ I        10 8 14.36        27.1 0.30            137           95.1  55 
 RUS  HZ EP       10 7 58.11                             131   -0.2810  112 161 
 RUS  HZ I        10 7 58.83        19.0 0.38            131            112 161 
 RUS  HE ES       10 8 15.14                             131    0.1510  112 161 
 PTB  HZ IP     C 10 7 57.68                             128   -0.9210  121 253 
 PTB  HZ I        10 7 59.91        57.6 0.22            126            121 253 
 PTB  HN ES       10 8 14.12                             128   -1.2410  121 253 
 SPBC HZ EP       10 8  1.70                             121   -0.09 9  152 209 
 SPBC HN ES       10 8 20.56                             121   -0.48 9  152 209 
 SPBC HZ I        10 8 28.52        34.8 0.20            120            152 209 
 OCA  HZ EP       10 8  1.55                             121   -0.56 9  154   4 
 OCA  HN ES       10 8 21.23                             121   -0.37 9  154   4 
 OCA  HZ I        10 8 28.58        33.7 0.14            121            154   4 
 TAM  HZ IP     D 10 8  4.86                             115   -0.43 9  185 104 
 TAM  HZ I        10 8  4.99        27.3 0.22            116            185 104 
 TAM  HN ES       10 8 26.53                             115   -0.74 9  185 104 
 NOR  HZ EP       10 8  8.92                             111    0.17 8  215 229 
 NOR  HN ES       10 8 33.00                             111   -0.43 8  215 229 
 NOR  HZ I        10 8 37.92        32.9 0.16            111            215 229 
 HEL  HZ EP       10 8 13.30                             108    0.68 8  246 253 
 HEL  HN ES       10 8 40.68                             108    0.37 8  246 253 
 HEL  HZ I        10 8 47.84        21.3 0.32            108            246 253 
 CHI  HZ EP   9   10 8 13.35                             108    0.37 0  248 188 
 CHI  HN ES       10 8 39.31                                   -2.02 8  248 188 
 CHI  HZ I        10 8 46.16        10.0 0.84            108            248 188 
 URE  HZ EP   9   10 8 12.05                             107   -1.19 0  255 293 
 URE  HE ES       10 8 40.30                                    0.07 8  255 293 
 URE  HZ I        10 8 41.38        28.1 0.14            107            255 293 
 CBOC HZ EP       10 8 19.75                             103    0.05 7  308 249 
 CBOC HZ I        10 8 25.02         5.9 0.16            103            308 249 
 CBOC HN ES       10 8 52.64                             103   -0.29 7  308 249 
 DBB  SZ EP       10 8 20.82                             103    0.98 7  310 274 
 DBB  SZ ES       10 8 52.10                             103   -1.07 7  310 274 
 DBB  SZ I        10 8 56.65        45.9 0.24            103            310 274 
 MON  HZ EP   9   10 8 19.59                             102   -2.23 0  328 311 
 MON  HN ES       10 8 53.78                                   -0.68 7  328 311 
 MON  HZ I        10 8 56.50         5.7 0.36            102            328 311 
 TOL  SZ EP       10 8 23.78                             102    1.50 7  328 220 
 TOL  SN ES       10 8 57.17                             102   -0.35 7  328 220 
 ANIL HZ EP       10 8 25.02                             101    1.13 7  342 220 
 ANIL HE ES       10 9  2.04                             101    1.66 7  342 220 
 ANIL HZ I        10 9 11.34         1.7 0.18            101            342 220 
 PRA  HZ EP       10 8 28.89                              99    0.31 6  384 205 
 PRA  HN ES       10 9  8.23                              99   -0.51 6  384 205 
 PRA  HZ I        10 9 18.24         5.5 0.26             99            384 205 
 SJC  HZ EP   9   10 8 27.20                              99   -2.08 0  389 330 
 SJC  HN ES       10 9  7.03                                   -0.87 6  389 330 
 SJC  HZ I        10 9 19.03         4.4 0.56             99            389 330 
                                                                                
