 2014 1218 1355 53.7 L   6.849 -73.194143.6  RSN  5 0.3 1.3LRSN                1
 GAP=149        0.65       4.0     3.8  5.7 -0.4965E+01  0.5520E+01 -0.2257E+01E
 Epicentro: ZAPATOCA - SANTANDER                                               3
 ACTION:UPD 15-02-10 17:05 OP:nd   STATUS:               ID:20141218135553 L   I
 OLDACT:DUP 14-12-18 22:30 OP:spq  STATUS:               ID:20141218134751d    3
 OLDACT:REG 14-12-18 20:22 OP:spq  STATUS:               ID:20141218134750     3
 2014-12-18-1347-50M.COL___292                                                 6
 STAT SP IPHASW D HRMM SECON CODA AMPLIT PERI AZIMU VELO AIN AR TRES W  DIS CAZ7
 BAR2 EZ EP   1   1356 13.27                             168    0.06 7 28.4 177 
 BAR2 EZ ES   1   1356 28.60                             168    0.20 7 28.4 177 
 BAR2 EZ I        1356 29.58         7.1 0.48            168           28.4 177 
 PAM  SZ EP       1356 16.14                             150    0.4510 77.0  45 
 PAM  SE ES   1   1356 32.32                             150   -0.50 7 77.0  45 
 PAM  SZ I        1356 33.85         3.6 0.46            157           77.0  45 
 RUS  HZ EP       1356 17.35                             142   -0.3510  106 173 
 RUS  HN ES       1356 36.47                             142    0.0810  106 173 
 RUS  HZ I        1356 37.68         1.6 0.42            145            106 173 
 PTB  HZ EP       1356 19.98                             132   -0.16 9  144 256 
 PTB  HN ES       1356 40.77                             132    0.02 9  144 256 
 PTB  HZ I        1356 48.17         2.7 0.46            132            144 256 
 SPBC HZ EP       1356 22.28                             128    0.13 9  164 216 
 SPBC HN ES   1   1356 44.24                             128   -0.08 7  164 216 
 SPBC HZ I        1356 50.43         3.6 0.29            130            164 216 
                                                                                
