 2010  818 1051 27.0 L   6.785 -73.083136.5  RSN  5 0.3 1.6LRSN                1
 GAP=166        0.92       6.0    14.7  9.9  0.1291E+02 -0.6293E+02 -0.2857E+02E
 Epicentro: LOS SANTOS - SANTANDER                                             3
 ACTION:UP  10-09-07 10:56 OP:vdl  STATUS:               ID:20100818105127 L   I
 2010-08-18-1048-10S.COL___117                                                 6
 STAT SP IPHASW D HRMM SECON CODA AMPLIT PERI AZIMU VELO SNR AR TRES W  DIS CAZ7
 BAR2 SZ EP       1051 45.18                             170    -0.410   24 208 
 BAR2 SZ ES       1051 59.85                             170    -0.110   24 208 
 BAR2 SZ I        1052  5.71        10.4 0.83                            24 208 
 BRR  HZ EP   1   1051 47.20                             149    -0.4 7   78 297 
 BRR  HN ES   2   1052  4.29                             149     0.6 5   78 297 
 BRR  HZ I        1052  8.17        11.6 0.12                            78 297 
 RUS  HZ EP       1051 49.90                             142     0.210   99 180 
 RUS  HN ES   1   1052  7.64                             142     0.2 7   99 180 
 RUS  HZ I        1052 10.10         4.5 0.23                            99 180 
 GUE  SZ EP       1051 51.36                             137     0.510  117   9 
 GRA  SZ EP       1051 51.23                             135    -0.210  125  14 
 GRA  SZ I        1051 52.52         5.7 0.36                           125  14 
                                                                                
