 2015 1018 1115 16.7 L   6.797 -73.130137.3  RSN  9 0.5 2.1LRSN                1
 GAP=185        1.22       3.2     6.5  6.9  0.1655E+01  0.9435E+01 -0.6849E+00E
 Epicentro: LOS SANTOS - SANTANDER                                             3
 ACTION:UPD 15-12-22 20:41 OP:cam  STATUS:               ID:20151018111516 L   I
 OLDACT:REG 15-10-18 20:45 OP:stll STATUS:               ID:20151018110748     3
 2015-10-18-1107-48M.COL___334                                                 6
 STAT SP IPHASW D HRMM SECON CODA AMPLIT PERI AZIMU VELO AIN AR TRES W  DIS CAZ7
 BAR2 EZ EP     C 1115 35.72                             170    0.3710 23.4 194 
 BAR2 EZ ES       1115 49.12                             170   -0.7410 23.4 194 
 BAR2 EZ I        1115 51.94        47.7 0.22            171           23.4 194 
 BRR  HZ EP     C 1115 37.56                             150    0.4810 72.9 298 
 BRR  HZ I        1115 37.74        33.1 0.30            149           72.9 298 
 BRR  HN ES       1115 53.31                             150    0.3710 72.9 298 
 RUS  HZ EP       1115 39.78                             142    0.1510  100 177 
 RUS  HN ES       1115 57.99                             142    0.5010  100 177 
 RUS  HZ I        1115 59.47        13.9 0.24            146            100 177 
 OCA  HZ EP       1115 43.88                             127   -0.57 9  161 353 
 OCA  HN ES       1116  6.25                             127    0.18 9  161 353 
 OCA  HZ I        1116 11.97        19.6 0.34            128            161 353 
 SPBC HZ EP       1115 44.62                             127   -0.06 9  164 220 
 SPBC HN ES       1116  5.62                             127   -0.86 9  164 220 
 SPBC HZ I        1116  9.16        23.2 0.38            129            164 220 
 ZAR  HZ EP       1115 48.95                             120    0.12 8  206 292 
 ZAR  HE ES       1116 13.44                             120   -0.42 8  206 292 
 ZAR  HZ I        1116 20.46        10.8 0.32            121            206 292 
 SML  HZ EP       1115 52.03                             115   -0.99 8  245 335 
 SML  HN ES       1116 21.97                             115    0.66 8  245 335 
 SML  HZ I        1116 27.73        13.3 0.10            116            245 335 
 CHI  HZ EP       1115 53.61                             115   -0.39 8  249 196 
 CHI  HZ I        1115 54.14         5.9 0.12            118            249 196 
 CHI  HN ES       1116 23.28                             115    0.22 8  249 196 
 GUY2CHZ EP       1116  0.63                             111    0.52 7  302 235 
 GUY2CHN ES       1116 34.35                             111    0.41 7  302 235 
 GUY2CHZ I        1116 39.75         3.7 0.32                           302 235 
                                                                                
