 2017  118 1553 35.2 L   6.910 -73.376119.5  RSN  4 0.3 1.2LRSN                1
 GAP=166        0.78       4.8     4.0  7.7 -0.3277E+01  0.1152E+02  0.2300E+01E
 Epicentro: SAN VICENTE DE CHUCURI - SANTANDER                                 3
 ACTION:UPD 17-05-22 16:01 OP:jn   STATUS:               ID:20170118155335 L   I
 OLDACT:REG 17-01-18 21:35 OP:cog  STATUS:               ID:20170118154744     3
 2017-01-18-1548-00M.COL___337                                                 6
 STAT SP IPHASW D HRMM SECON CODA AMPLIT PERI AZIMU VELO AIN AR TRES W  DIS CAZ7
 BAR2 EZ EP       1553 52.89                             160    0.5810 41.1 149 
 BAR2 EZ ES       1554  5.85                             160    0.2310 41.1 149 
 PAM  EZ EP   4   1553 53.05                             141   -2.49 0 88.5  58 
 PAM  EE ES       1554 11.10                             141   -0.2710 88.5  58 
 PAM  EZ I        1554 14.54         4.6 0.28            144           88.5  58 
 RUS  HZ EP       1553 57.71                             133   -0.2110  117 164 
 RUS  HN ES       1554 15.41                             133   -0.2110  117 164 
 RUS  HZ I        1554 16.70         1.4 0.16            137            117 164 
 PTB  HZ EP       1553 58.15                             130    0.0310  126 251 
 PTB  HN ES       1554 15.80                             130   -0.1710  126 251 
 PTB  HZ I        1554 20.00         4.6 0.18            132            126 251 
                                                                                
