 2014 1218 1717 21.9 L   6.586 -73.626113.0  RSN  4 0.3 1.2LRSN                1
 GAP=182        0.70       5.0     3.4  8.5  0.7038E+00  0.1168E+01 -0.5451E+01E
 Epicentro: EL CARMEN - SANTANDER                                              3
 ACTION:UPD 15-02-10 17:05 OP:nd   STATUS:               ID:20141218171721 L   I
 OLDACT:DUP 14-12-18 23:34 OP:spq  STATUS:               ID:20141218170746d    3
 2014-12-18-1707-45M.COL___296                                                 6
 STAT SP IPHASW D HRMM SECON CODA AMPLIT PERI AZIMU VELO AIN AR TRES W  DIS CAZ7
 BAR2 EZ EP       1717 38.63                             155   -0.0110 49.0  89 
 BAR2 EZ ES   1   1717 51.43                             155   -0.24 7 49.0  89 
 BAR2 EZ I        1717 52.44         8.9 0.36            164           49.0  89 
 PTB  HZ EP       1717 41.49                             138    0.2510 92.0 267 
 PTB  HN ES       1717 56.30                             138   -0.0110 92.0 267 
 PTB  HZ I        1718  3.57         2.6 0.52            139           92.0 267 
 RUS  HZ EP   1   1717 41.94                             137   -0.40 7 97.4 142 
 RUS  HN ES   1   1717 58.89                             137    0.62 7 97.4 142 
 RUS  HZ I        1717 59.81         1.2 0.66            143           97.4 142 
 SPBC HE ES       1717 59.74                             131   -0.2310  114 206 
 SPBC HZ I        1718  4.59         9.5 0.08            134            114 206 
                                                                                
