 2014 1218 1053 42.9 L   6.799 -73.231137.2  RSN  6 0.3 1.4LRSN                1
 GAP=122        0.67       3.5     3.8  6.8 -0.1520E+01  0.6443E+01 -0.9334E+01E
 Epicentro: ZAPATOCA - SANTANDER                                               3
 ACTION:UPD 15-02-10 17:04 OP:nd   STATUS:               ID:20141218105342 L   I
 OLDACT:REG 14-12-18 20:10 OP:spq  STATUS:               ID:20141218104748     3
 2014-12-18-1047-48M.COL___293                                                 6
 STAT SP IPHASW D HRMM SECON CODA AMPLIT PERI AZIMU VELO AIN AR TRES W  DIS CAZ7
 BAR2 EZ ES   1   1054 16.36                             170    0.37 7 23.5 167 
 BAR2 EZ I        1054 17.85         8.1 0.18            171           23.5 167 
 PAM  SZ EP       1054  4.51                             147   -0.0810 83.8  44 
 PAM  SE ES   1   1054 21.41                             147   -0.13 7 83.8  44 
 PAM  SZ I        1054 23.41         5.0 0.40            153           83.8  44 
 RUS  HZ EP   1   1054  6.24                             142    0.37 7  102 171 
 RUS  HE ES   1   1054 23.44                             142   -0.37 7  102 171 
 RUS  HZ I        1054 26.06         1.2 0.07            147            102 171 
 PTB  HZ EP   1   1054  8.69                             132    0.39 7  138 258 
 PTB  HE ES       1054 27.89                             132   -0.24 9  138 258 
 PTB  HZ I        1054 34.59         2.2 0.22            132            138 258 
 ZAR  HN ES   4   1054 40.83                             122    2.79 0  195 293 
 ZAR  HZ I        1054 45.80         2.6 0.24            122            195 293 
 SML  HZ EP   1   1054 18.08                             116   -0.54 6  240 337 
 SML  HE ES       1054 46.76                             116    0.26 8  240 337 
 SML  HZ I        1054 50.43         3.7 0.26            118            240 337 
                                                                                
