 2014  318 1759 58.4 L   6.802 -73.142147.9  RSN 15 0.4 2.4LRSN                1
 GAP=137        0.98       2.5     3.7  5.3 -0.1209E+01  0.4831E+01  0.4328E+00E
 Epicentro: LOS SANTOS - SANTANDER                                             3
 OLDACT:REG 14-03-18 15:29 OP:fm   STATUS:               ID:20140318175819     3
 ACTION:UPD 14-04-09 23:18 OP:nd   STATUS:               ID:20140318175958 L   I
 OLDACT:UP  14-03-18 18:00 OP:fm   STATUS:               ID:20140318175819     3
 2014-03-18-1758-19M.COL___241                                                 6
 STAT SP IPHASW D HRMM SECON CODA AMPLIT PERI AZIMU VELO AIN AR TRES W  DIS CAZ7
 BAR2 SZ IP     D 18 0 18.41                             171    0.1110 23.6 191 
 BAR2 SZ ES   2   18 0 33.21                             171   -0.60 5 23.6 191 
 BAR2 SZ I        18 0 34.23        89.8 0.26            168           23.6 191 
 BRR  HZ EP       18 0 20.19                             153    0.3910 71.5 298 
 BRR  HE ES       18 0 37.00                             153    0.5110 71.5 298 
 BRR  SZ I        18 0 40.74        33.9 0.16            149           71.5 298 
 PAM  SZ EP       18 0 21.19                             151    0.3610 76.9  39 
 PAM  SN ES       18 0 38.31                             151    0.0010 76.9  39 
 PAM  SZ I        18 0 40.53        41.4 0.48            156           76.9  39 
 RUS  HZ EP       18 0 22.38                             144   -0.0010  101 176 
 RUS  HN ES       18 0 40.60                             144   -0.4810  101 176 
 RUS  SZ I        18 0 41.79        23.2 0.54            146            101 176 
 PTB  HZ EP       18 0 25.00                             132   -0.59 9  148 259 
 PTB  HN ES       18 0 45.97                             132   -0.82 9  148 259 
 PTB  SZ I        18 0 48.40        38.8 0.16            131            148 259 
 OCA  HZ EP       18 0 26.68                             130   -0.19 9  160 353 
 OCA  HN ES       18 0 49.17                             130    0.10 9  160 353 
 OCA  SZ I        18 0 52.47        26.2 0.16            131            160 353 
 SPBC HZ EP       18 0 27.38                             129    0.27 9  164 219 
 SPBC HN ES       18 0 49.27                             129   -0.23 9  164 219 
 SPBC SZ I        18 0 56.36        30.5 0.40            129            164 219 
 ZAR  HZ EP       18 0 31.14                             123    0.11 9  204 292 
 ZAR  HN ES       18 0 56.73                             123    0.26 9  204 292 
 ZAR  SZ I        18 1  2.63        36.6 0.24            122            204 292 
 NOR  HZ EP       18 0 34.82                             119    0.50 8  235 234 
 NOR  HN ES       18 1  2.82                             119    0.50 8  235 234 
 NOR  SZ I        18 1  7.70        17.9 0.56            119            235 234 
 SML  HZ EP       18 0 34.57                             118   -0.59 8  244 335 
 SML  HE ES       18 1  3.90                             118    0.08 8  244 335 
 SML  SZ I        18 1 10.31        41.8 0.10            118            244 335 
 CHI  HZ EP       18 0 35.79                             117   -0.47 8  249 195 
 CHI  HN ES       18 1  6.32                             117    0.54 8  249 195 
 CHI  SZ I        18 1 12.62        10.0 1.86            119            249 195 
 HEL  HZ EP   4   18 0 40.41                             115    1.62 0  273 256 
 HEL  HN ES   4   18 1 12.38                             115    2.10 0  273 256 
 HEL  SZ I        18 1 16.49        14.7 0.40            115            273 256 
 URE  HZ EP       18 0 38.92                             114   -0.70 7  284 292 
 URE  HN ES   2   18 1 11.29                             114   -0.47 4  284 292 
 URE  SZ I        18 1 23.02        15.4 0.16            114            284 292 
 GUY2CHZ EP       18 0 42.57                             113    0.40 7  302 235 
 GUY2CHN ES   1   18 1 16.78                             113    0.48 5  302 235 
 GUY2CSZ I        18 1 24.80        12.1 0.48                           302 235 
 RREF HZ EP   4   18 0 47.18                             111    2.48 0  322 229 
 RREF HN ES   4   18 1 23.25                             111    2.45 0  322 229 
 RREF SZ I        18 1 29.53        10.4 0.50            112            322 229 
                                                                                
