 2016  518 1744 46.8 L   6.777 -73.150143.1  RSN  6 0.4 1.7LRSN                1
 GAP=137        1.12       5.5     4.9  7.6  0.2791E+01  0.9663E+01 -0.1870E+01E
 Epicentro: LOS SANTOS - SANTANDER                                             3
 *SOL                                                                          3
 ACTION:UPD 16-08-18 17:47 OP:cam  STATUS:               ID:20160518174446 L   I
 OLDACT:UP  16-05-19 03:12 OP:dani STATUS:               ID:20160518173751d    3
 OLDACT:DUP 16-05-19 03:04 OP:dani STATUS:               ID:20160518173751d    3
 2016-05-18-1737-50M.COL___303                                                 6
 STAT SP IPHASW D HRMM SECON CODA AMPLIT PERI AZIMU VELO AIN AR TRES W  DIS CAZ7
 BAR2 EZ EP       1745  5.77                             171   -0.3410 20.7 190 
 BAR2 EZ ES       1745 20.96                             171   -0.1710 20.7 190 
 BAR2 EZ I        1745 22.47        14.4 0.16            173           20.7 190 
 BRR  HZ EP       1745  7.82                             152    0.0710 72.0 301 
 BRR  HN ES       1745 24.73                             152    0.6710 72.0 301 
 PAM  EZ EP       1745  8.71                             150   -0.2110 79.7  39 
 PAM  EN ES       1745 25.92                             150   -0.2210 79.7  39 
 PAM  EZ I        1745 28.18         8.9 0.28            150           79.7  39 
 RUS  HZ EP       1745 10.21                             144    0.0510 98.1 176 
 RUS  HN ES       1745 28.79                             144    0.4510 98.1 176 
 RUS  HZ I        1745 29.41         3.7 0.20            146           98.1 176 
 PTB  HZ EP       1745 13.21                             132   -0.30 9  147 260 
 PTB  HN ES       1745 33.63                             132   -0.67 9  147 260 
 ZAR  HZ EP       1745 20.14                             122    0.97 9  205 293 
 ZAR  HE ES       1745 44.17                             122   -0.21 9  205 293 
 ZAR  HZ I        1745 48.97         6.6 0.24            122            205 293 
                                                                                
