 2016  518 1118 44.6 L   6.645 -73.107133.7  RSN  5 0.4 1.5LRSN                1
 GAP=288        1.09      11.0     8.7  8.2  0.1039E+02  0.2161E+02  0.1972E+02E
 Epicentro: CURITI - SANTANDER                                                 3
 ACTION:UPD 16-08-18 17:47 OP:cam  STATUS:               ID:20160518111844 L   I
 OLDACT:DUP 16-05-18 21:37 OP:drio STATUS:               ID:20160518111744d    3
 2016-05-18-1117-43M.COL___300                                                 6
 STAT SP IPHASW D HRMM SECON CODA AMPLIT PERI AZIMU VELO AIN AR TRES W  DIS CAZ7
 BAR2 EZ EP       1119  3.40                             175    0.8610 10.2 235 
 BAR2 EZ ES       1119 16.05                             175   -0.5110 10.2 235 
 BAR2 EZ I        1119 27.56         5.0 0.16            160           10.2 235 
 BRR  HZ EP       1119  4.90                             146   -0.3610 84.2 307 
 BRR  HN ES       1119 21.60                             146    0.1910 84.2 307 
 PTB  HZ EP       1119 10.42                             129   -0.34 9  150 266 
 PTB  HN ES       1119 31.50                             129    0.30 9  150 266 
 PTB  HZ I        1119 38.02         5.5 0.44            131            150 266 
 ZAR  HZ EP       1119 17.33                             118   -0.09 8  215 296 
 ZAR  HN ES   4   1119 41.68                             118   -1.37 0  215 296 
 NOR  HZ EP       1119 18.86                             116   -0.12 8  229 239 
 NOR  HE ES   4   1119 47.90                             116    2.07 0  229 239 
 NOR  HZ I        1119 54.13         3.5 0.18            118            229 239 
                                                                                
