 2010  518 1456 12.3 L   6.780 -73.024144.8  RSN  7 0.3 2.1LRSN                1
 GAP=187        0.47       3.8     6.5  6.1 -0.1429E+02 -0.5889E+01  0.1756E+00E
 Epicentro: CEPITA - SANTANDER                                                 3
 ACTION:UP  10-08-24 10:05 OP:vdl  STATUS:               ID:20100518145612 L   I
 2010-05-18-1455-19S.COL___108                                                 6
 STAT SP IPHASW D HRMM SECON CODA AMPLIT PERI AZIMU VELO SNR AR TRES W  DIS CAZ7
 BAR2 SZ EP       1456 31.72                             169    -0.210   27 220 
 BAR2 SZ ES   2   1456 47.08                             169    -0.1 5   27 220 
 BRR  HZ EP       1456 34.21                             148     0.110   84 295 
 BRR  HZ I        1456 34.51        27.1 0.12                            84 295 
 BRR  HN ES   2   1456 51.10                             148    -0.1 5   84 295 
 GUE  SZ EP       1456 36.83                             139    -0.110  117   5 
 GRA  SZ EP       1456 37.51                             137     0.210  125  11 
 GRA  SZ ES   2   1456 57.32                             137     0.4 5  125  11 
 OCA  SZ EP   2   1456 40.30                             129    -0.6 5  165 349 
 CHI  HZ EP   3   1456 50.08                             117    -0.1 2  250 198 
 CHI  HN ES   2   1457 20.02                             117     0.4 4  250 198 
 CHI  HZ I        1457 22.69         5.7 0.24                           250 198 
 RREF BZ EP   3   1457  0.17                             110     0.8 2  331 231 
 RREF BN ES   2   1457 36.29                             110     0.1 3  331 231 
 RREF BZ I        1457 41.82         4.4 0.34                           331 231 
                                                                                
