 2015  118 1017 42.7 L   6.816 -73.185143.8  RSN 15 0.4 2.3LRSN                1
 GAP=131        0.88       2.4     3.6  5.1 -0.1756E+01  0.1576E+01  0.1945E+01E
 Epicentro: ZAPATOCA - SANTANDER                                               3
 ACTION:UPD 15-03-02 15:40 OP:nd   STATUS:               ID:20150118101742 L   I
 OLDACT:UP  15-01-18 22:12 OP:mh   STATUS:               ID:20150118100741     3
 OLDACT:UP  15-01-18 22:11 OP:mh   STATUS:               ID:20150118100741     3
 OLDACT:UP  15-01-18 22:11 OP:mh   STATUS:               ID:20150118100741     3
 OLDACT:REG 15-01-18 21:10 OP:mh   STATUS:               ID:20150118100741     3
 2015-01-18-1007-41M.COL___261                                                 6
 STAT SP IPHASW D HRMM SECON CODA AMPLIT PERI AZIMU VELO AIN AR TRES W  DIS CAZ7
 BAR2 EZ EP       1018  2.19                             170    0.0310 24.8 179 
 BAR2 EZ I        1018 18.46        29.7 0.46            169           24.8 179 
 BRR  HZ EP       1018  4.05                             154    0.6410 66.5 299 
 BRR  HN ES       1018 19.99                             154    0.4510 66.5 299 
 BRR  HZ I        1018 23.67        21.4 0.14            154           66.5 299 
 PAM  SZ EP       1018  4.75                             150   -0.0910 78.9  43 
 PAM  SN ES   1   1018 21.96                             150   -0.11 7 78.9  43 
 PAM  SZ I        1018 24.05        28.2 0.56            153           78.9  43 
 RUS  HZ EP   1   1018  6.08                             143   -0.38 7  103 174 
 RUS  HN ES   1   1018 24.97                             143    0.01 7  103 174 
 RUS  HZ I        1018 25.57        17.2 0.30            144            103 174 
 PTB  HZ EP       1018  8.94                             132   -0.25 9  144 258 
 PTB  HN ES       1018 29.19                             132   -0.64 9  144 258 
 PTB  HZ I        1018 31.93        28.3 0.10            133            144 258 
 OCA  HZ EP       1018 10.35                             130   -0.33 9  158 355 
 OCA  HN ES   1   1018 32.42                             130   -0.06 7  158 355 
 OCA  HZ I        1018 35.94        20.2 0.18            132            158 355 
 SPBC HZ EP       1018 10.95                             129   -0.01 9  162 217 
 SPBC HN ES       1018 32.90                             129   -0.08 9  162 217 
 SPBC HZ I        1018 35.43        39.3 0.44            130            162 217 
 ZAR  HZ EP   1   1018 14.54                             123   -0.03 6  199 292 
 ZAR  HN ES   1   1018 39.84                             123    0.44 6  199 292 
 ZAR  HZ I        1018 45.48        28.1 0.36            124            199 292 
 NOR  HZ EP       1018 18.09                             118    0.00 8  232 233 
 NOR  HN ES       1018 45.42                             118   -0.24 8  232 233 
 NOR  HZ I        1018 49.45        18.5 0.14            119            232 233 
 SML  HZ EP       1018 18.53                             117   -0.35 8  240 336 
 SML  HN ES       1018 47.23                             117    0.16 8  240 336 
 SML  HZ I        1018 53.30        19.2 0.26            119            240 336 
 CHI  HZ EP       1018 20.31                             117   -0.09 8  249 194 
 CHI  HN ES       1018 49.63                             117   -0.14 8  249 194 
 CHI  HZ I        1018 58.93         5.7 0.34            118            249 194 
 ROSC BZ EP       1018 21.03                             116    0.35 8  252 210 
 ROSC BN ES   4   1018 50.92                             116    0.65 0  252 210 
 ROSC BZ I        1019  0.25        16.3 0.50            118            252 210 
 HEL  HZ EP       1018 22.84                             115    0.41 8  268 255 
 HEL  HN ES   1   1018 52.62                             115   -0.77 6  268 255 
 HEL  HZ I        1019  1.47        11.9 0.58            116            268 255 
 URE  HZ EP   4   1018 22.31                             114   -0.87 0  279 292 
 URE  HN ES   4   1018 53.09                             114   -1.64 0  279 292 
 PTGC HZ EP   4   1018 25.04                             111   -1.84 0  312 158 
 PTGC HN ES   4   1018 57.32                             111   -3.99 0  312 158 
 TOL  SZ EP   1   1018 31.70                             109    0.99 5  342 224 
 TOL  SN ES   4   1019  6.80                             109   -1.33 0  342 224 
 ORTC HZ EP       1018 36.07                             106   -0.39 6  394 216 
 ORTC HN ES   1   1019 20.21                             106    1.84 4  394 216 
 SJC  HZ EP   4   1018 36.04                             106   -1.74 0  405 327 
 SJC  HN ES   4   1019 17.28                             106   -3.43 0  405 327 
                                                                                
