 2011  818 1118 33.8 L   6.711 -73.188146.9  RSN  6 0.3 1.7LRSN                1
 GAP=178        0.65       4.0     6.0  7.3 -0.1380E+01  0.1728E+02  0.3710E+01E
 Epicentro: VILLANUEVA - SANTANDER                                             3
 ACTION:UPD 12-07-13 15:52 OP:ep   STATUS:               ID:20110818111833 L   I
 2011-08-18-1118-36S.COL___149                                                 6
 STAT SP IPHASW D HRMM SECON CODA AMPLIT PERI AZIMU VELO AIN AR TRES W  DIS CAZ7
 BAR2 SZ EP   2   1118 53.29                             175   -0.08 5 13.1 177 
 BAR2 SZ ES   1   1119  8.10                             175   -0.56 7 13.1 177 
 BAR2 SZ I        1119  9.91        10.5 0.19                          13.1 177 
 BRR  HZ EP       1118 55.16                             152    0.0410 72.7 307 
 BRR  HZ I        1118 56.60        12.0 0.38                          72.7 307 
 BRR  HE ES   1   1119 11.86                             152    0.08 7 72.7 307 
 RUS  HZ EP   1   1118 56.70                             147   -0.28 7 91.2 173 
 RUS  HN ES   1   1119 15.69                             147    0.61 7 91.2 173 
 RUS  HZ I        1119 17.16         3.9 0.37                          91.2 173 
 OCA  SZ ES   2   1119 26.34                             128    0.44 5  170 355 
 OCA  SZ I        1119 27.92         9.0 0.31                           170 355 
 NOR  SN ES   2   1119 35.77                             120    0.08 4  225 236 
 RREF HN ES       1119 53.92                             112   -0.06 7  312 230 
 RREF HZ I        1120  4.94         2.4 0.20                           312 230 
                                                                                
