 2016  818 1139 48.2 L   6.882 -73.273118.4  RSN  6 0.3 2.2LRSN                1
 GAP=164        0.76       3.3     3.8  8.5  0.8865E+00  0.6092E+01 -0.1386E+02E
 Epicentro: BETULIA - SANTANDER                                                3
 ACTION:UPD 16-10-29 15:36 OP:rebc STATUS:               ID:20160818113948 L   I
 OLDACT:REG 16-08-18 20:20 OP:dnl  STATUS:               ID:20160818113745     3
 2016-08-18-1138-00M.COL___368                                                 6
 STAT SP IPHASW D HRMM SECON CODA AMPLIT PERI AZIMU VELO AIN AR TRES W  DIS CAZ7
 BAR2 EZ EP       1140  5.08                             163    0.2610 33.5 163 
 BAR2 EZ ES       1140 17.89                             163    0.0810 33.5 163 
 BAR2 EZ I        1140 19.39        87.0 0.18                          33.5 163 
 BRR  HZ EP       1140  5.57                             154    0.1510 54.5 297 
 RUS  HZ EP   2   1140 10.13                             134   -0.13 5  111 169 
 RUS  HN ES       1140 27.49                             134    0.0010  111 169 
 PTB  HZ EP   4   1140 10.42                             127   -1.49 0  136 254 
 PTB  HE ES       1140 29.86                             127   -0.57 9  136 254 
 PTB  HZ I        1140 32.28        14.4 0.46                           136 254 
 OCA  HZ EP       1140 13.27                             124   -0.21 9  150 358 
 OCA  HN ES       1140 33.02                             124   -0.20 9  150 358 
 OCA  HZ I        1140 34.19        28.1 0.18                           150 358 
 ZAR  HE ES       1140 40.38                             118    0.54 9  188 291 
 ZAR  HZ I        1140 43.47        10.8 0.28                           188 291 
                                                                                
