 2017 1218 1818 25.9 L   6.815 -73.198145.1  RSN  8 0.4 2.4LRSN                1
 GAP=132        1.00       3.6     4.3  6.5 -0.3545E+01  0.1031E+02 -0.4581E+00E
 Epicentro: ZAPATOCA - SANTANDER                                               3
 ACTION:UPD 18-01-04 13:21 OP:rebc STATUS:               ID:20171218181825 L   I
 OLDACT:REG 17-12-18 21:02 OP:dani STATUS:               ID:20171218181406     3
 2017-12-18-1818-00M.COL___461                                                 6
 STAT SP IPHASW D HRMM SECON CODA AMPLIT PERI AZIMU VELO AIN AR TRES W  DIS CAZ7
 BAR2 EZ EP       1818 45.46                             170   -0.0310 24.7 176 
 BAR2 EZ ES       1819  0.61                             170   -0.1510 24.7 176 
 BAR2 EZ I        1819  1.42        56.8 0.26            170           24.7 176 
 PAM  EZ EP       1818 48.27                             150    0.0610 80.0  44 
 PAM  EN ES       1819  5.39                             150   -0.2110 80.0  44 
 PAM  EZ I        1819  7.79        33.2 0.60            154           80.0  44 
 PTB  HZ EP       1818 51.87                             133   -0.47 9  142 258 
 PTB  HN ES       1819 12.92                             133   -0.04 9  142 258 
 PTB  HZ I        1819 20.14        19.2 0.68            132            142 258 
 OCA  HZ EP       1818 53.40                             130   -0.55 9  158 355 
 OCA  HE ES       1819 16.56                             130    0.73 9  158 355 
 OCA  HZ I        1819 19.66        36.0 0.14            131            158 355 
 SPBC HZ EP       1818 53.96                             129   -0.19 9  161 217 
 SPBC HE ES       1819 16.41                             129    0.24 9  161 217 
 SPBC HZ I        1819 18.81        27.9 0.26            131            161 217 
 ZAR  HZ EP       1818 58.40                             123    0.71 9  198 292 
 ZAR  HN ES       1819 22.97                             123    0.49 9  198 292 
 ZAR  HZ I        1819 29.74        26.1 0.26            123            198 292 
 URE  HZ EP       1819  6.01                             114   -0.26 7  278 292 
 URE  HN ES       1819 36.94                             114   -0.82 7  278 292 
 URE  HZ I        1819 47.19        12.0 0.26            115            278 292 
 PRA  HZ EP       1819 19.67                             106    0.42 6  391 209 
 PRA  HN ES       1820  1.34                             106    0.48 6  391 209 
 PRA  HZ I        1820  6.18         9.7 0.34            108            391 209 
                                                                                
