 2011 1218 1846 30.7 L   6.801 -73.110145.6  RSN  6 0.2 1.8LRSN                1
 GAP=141        0.43       2.8     3.8  3.9  0.9123E+00 -0.1356E+01  0.1229E+01E
 Epicentro: LOS SANTOS - SANTANDER                                             3
 ACTION:UPD 12-07-13 16:17 OP:ep   STATUS:               ID:20111218184630 L   I
 2011-12-18-1840-00M.COL___188                                                 6
 STAT SP IPHASW D HRMM SECON CODA AMPLIT PERI AZIMU VELO AIN AR TRES W  DIS CAZ7
 BAR2 SZ EP   1   1846 50.16                             170   -0.15 7 24.4 199 
 BAR2 SZ ES   1   1847  5.74                             170    0.12 7 24.4 199 
 BAR2 SZ I        1847  6.16        20.7 0.18                          24.4 199 
 GIR2 SZ EP   1   1846 50.11                             167   -0.24 7 32.1 343 
 BRR  HZ IP     C 1846 51.89                             151   -0.1210 74.6 297 
 BRR  HZ I        1846 52.16        45.6 0.19                          74.6 297 
 BRR  HN ES       1847  8.73                             151    0.0910 74.6 297 
 PAM  SZ EP   1   1846 53.04                             152    0.31 7 74.9  37 
 PAM  SN ES   1   1847  9.87                             152   -0.06 7 74.9  37 
 RUS  HZ EP   1   1846 54.44                             144    0.04 7  100 178 
 RUS  HE ES   1   1847 12.80                             144   -0.11 7  100 178 
 RUS  HZ I        1847 14.55         4.8 0.30                           100 178 
 CHI  HZ EP   2   1847  9.03                             117    0.54 4  250 196 
 CHI  HZ I        1847 42.66         2.2 0.26                           250 196 
                                                                                
