 2010  818 1351 22.9 L   6.774 -73.115148.4  RSN  5 0.0 1.6LRSN                1
 GAP=162        0.28       2.5     4.8  5.2  0.6261E+01 -0.1647E+02 -0.7383E+01E
 Epicentro: LOS SANTOS - SANTANDER                                             3
 ACTION:UP  10-09-07 10:56 OP:vdl  STATUS:               ID:20100818135122 L   I
 2010-08-18-1349-37S.COL___116                                                 6
 STAT SP IPHASW D HRMM SECON CODA AMPLIT PERI AZIMU VELO SNR AR TRES W  DIS CAZ7
 BAR2 SZ EP       1351 42.83                             171     0.010   22 201 
 BAR2 SZ I        1351 43.13        10.8 0.08                            22 201 
 BTL  SZ EP       1351 42.89                             171     0.010   23 313 
 BRR  HZ EP       1351 44.63                             152     0.010   76 299 
 BRR  HZ I        1351 44.88        15.7 0.25                            76 299 
 BRR  HE ES   1   1352  1.57                             152     0.0 7   76 299 
 RUS  HZ EP   1   1351 46.78                             145     0.0 7   98 178 
 RUS  HN ES   1   1352  5.31                             145     0.0 7   98 178 
 RUS  HZ I        1352  7.00         3.6 0.26                            98 178 
 GRA  SZ EP       1351 48.59                             137     0.010  128  16 
 GRA  SZ I        1352 12.41         5.2 0.36                           128  16 
                                                                                
