 2014  918 1609 16.5 L   5.830 -73.909105.7  RSN  5 0.4 1.1LRSN                1
 GAP=137        0.83       4.7     3.4  6.5 -0.3301E+01  0.1789E+01 -0.5623E+00E
 Epicentro: LA BELLEZA - SANTANDER                                             3
 ACTION:UPD 14-10-03 23:06 OP:nd   STATUS:               ID:20140918160916 L   I
 OLDACT:REG 14-09-18 22:14 OP:spq  STATUS:               ID:20140918160818     3
 2014-09-18-1608-18M.COL___287                                                 6
 STAT SP IPHASW D HRMM SECON CODA AMPLIT PERI AZIMU VELO AIN AR TRES W  DIS CAZ7
 SPBC HZ EP       16 9 30.92                             165   -0.2710 26.8 223 
 SPBC HE ES       16 9 42.79                             165    0.1210 26.8 223 
 SPBC HZ I        16 9 43.61        13.6 0.28            170           26.8 223 
 RUS  HZ EP       16 9 35.50                             136   -0.2710 91.7  86 
 RUS  HE ES   1   16 9 50.67                             136   -0.15 7 91.7  86 
 RUS  HZ I        16 9 53.56         1.0 0.42            138           91.7  86 
 PTB  HZ EP       16 9 35.32                             133   -0.4410 99.1 322 
 PTB  HN ES       16 9 50.76                             133   -0.0510 99.1 322 
 PTB  HZ I        16 9 54.78         1.6 0.12            134           99.1 322 
 BAR2 SZ EP   1   16 9 38.37                             129    0.71 7  116  44 
 BAR2 SZ ES   1   16 9 54.71                             129    0.52 7  116  44 
 BAR2 SZ I        16 9 57.04         5.2 0.36            129            116  44 
 GUY2CHZ EP       16 9 44.11                             117    0.11 9  175 248 
 GUY2CHN ES   1   1610  6.04                             117    0.57 7  175 248 
 GUY2CHZ I        1610 10.03         1.0 0.32                           175 248 
                                                                                
