 2012  818 1428 17.5 L   6.830 -73.207138.4  RSN  5 0.3 1.7LRSN                1
 GAP=128        0.66       4.6     4.6  7.5 -0.4275E+01 -0.5480E+01  0.1953E+01E
 Epicentro: ZAPATOCA - SANTANDER                                               3
 ACTION:UPD 12-09-10 11:57 OP:ep   STATUS:               ID:20120818142817 L   I
 2012-08-18-1420-00M.COL___217                                                 6
 STAT SP IPHASW D HRMM SECON CODA AMPLIT PERI AZIMU VELO AIN AR TRES W  DIS CAZ7
 BAR2 SZ ES   1   1428 51.39                             169    0.40 7 26.4 174 
 BAR2 SZ I        1428 53.07        16.4 0.18                          26.4 174 
 BRR  HZ I        1428 44.97        15.3 0.38                          63.7 299 
 BRR  HN ES   1   1428 52.47                             154   -0.51 7 63.7 299 
 PAM  SZ EP       1428 39.26                             149    0.1910 79.5  45 
 PAM  SZ I        1428 39.65         8.1 0.21                          79.5  45 
 PAM  SN ES   1   1428 55.85                             149   -0.05 7 79.5  45 
 RUS  HZ EP   1   1428 40.49                             141   -0.34 7  105 172 
 RUS  HN ES   1   1428 58.92                             141   -0.11 7  105 172 
 RUS  HZ I        1429  0.13         3.8 0.22                           105 172 
 PTB  HN ES   1   1429  3.79                             132    0.31 7  142 257 
                                                                                
