 2016 1118 1259 34.7 L   6.834 -73.140153.2  RSN 15 0.6 2.3LRSN                1
 GAP=149        1.18       4.2     4.8  6.2 -0.2787E+01  0.5745E+01  0.4511E+01E
 Epicentro: LOS SANTOS - SANTANDER                                             3
 ACTION:UPD 17-10-26 21:09 OP:lp   STATUS:               ID:20161118125934 L   I
 OLDACT:UP  16-11-18 22:51 OP:edw  STATUS:               ID:20161118125745d    3
 OLDACT:UP  16-11-18 22:47 OP:edw  STATUS:               ID:20161118125745d    3
 OLDACT:DUP 16-11-18 22:41 OP:edw  STATUS:               ID:20161118125745d    3
 2016-11-18-1258-00M.COL___337                                                 6
 STAT SP IPHASW D HRMM SECON CODA AMPLIT PERI AZIMU VELO AIN AR TRES W  DIS CAZ7
 BAR2 HZ EP       1259 55.31                             170   -0.0310 27.1 190 
 BAR2 HZ ES       13 0 10.87                             170   -0.5510 27.1 190 
 BAR2 HZ I        13 0 12.40        52.5 0.30            165           27.1 190 
 BRR  HZ EP       1259 57.14                             154    0.5110 70.0 296 
 BRR  HE ES       13 0 13.80                             154    0.0910 70.0 296 
 BRR  HZ I        13 0 18.29        28.3 0.14            150           70.0 296 
 PAM  HZ EP       1259 58.07                             152    0.5010 74.1  41 
 PAM  EN ES       13 0 15.24                             152   -0.1410 74.1  41 
 PAM  HZ I        13 0 17.48        51.3 0.48            158           74.1  41 
 PTB  HZ EP   9   13 0  2.12                             133   -0.32 0  149 257 
 PTB  HN ES       13 0 23.02                             134   -0.71 9  149 257 
 PTB  HZ I        13 0 26.17        14.8 0.38            130            149 257 
 ZAR  HZ EP       13 0  8.01                             123    0.42 9  203 291 
 ZAR  HN ES       13 0 33.09                             123   -0.13 9  203 291 
 ZAR  HZ I        13 0 39.15        13.9 0.26            122            203 291 
 NOR  HZ EP       13 0 11.83                             119    0.64 8  237 234 
 NOR  HN ES       13 0 38.86                             119   -0.77 8  237 234 
 NOR  HZ I        13 0 44.93        15.9 0.20            118            237 234 
 CHI  HZ EP       13 0 13.58                             118    0.31 8  252 195 
 CHI  HN ES       13 0 42.21                             118   -1.11 8  252 195 
 CHI  HZ I        13 0 52.72        10.9 0.42            117            252 195 
 URE  HZ EP   4   13 0 11.38                             114   -4.70 0  283 291 
 URE  HN ES       13 0 47.93                             114   -0.41 7  283 291 
 URE  HZ I        13 0 58.38         9.9 0.20            114            283 291 
 ELA  HZ EP   2   13 0 22.46                             111    0.22 3  332 229 
 ELA  HN ES   4   13 1  1.47                             111    2.18 0  332 229 
 ELA  HZ I        13 1 14.76         8.0 0.48            110            332 229 
 CBOC HZ EP   4   13 0 23.84                             110    1.67 0  335 252 
 CBOC HN ES   2   13 0 59.39                             110    0.23 3  335 252 
 ANIL HZ EP   4   13 0 26.38                             109    1.19 0  360 224 
 ANIL HN ES   4   13 1  6.44                             109    1.89 0  360 224 
 PRA  HZ EP       13 0 29.31                             107    0.37 6  396 209 
 PRA  HN ES   4   13 1 10.44                             107   -0.77 0  396 209 
 PRA  HZ I        13 1 17.51        10.3 0.52            107            396 209 
 ORTC HZ EP   4   13 0 30.45                             107    1.14 0  399 216 
 ORTC HN ES       13 1 13.21                             107    1.33 6  399 216 
 ORTC HZ I        13 1 19.14         7.1 0.40            107            399 216 
 SJC  HZ EP       13 0 29.93                             106   -0.29 6  406 327 
 SJC  HN ES   4   13 1 10.29                             106   -3.21 0  406 327 
 SJC  HZ I        13 1 16.94         2.8 0.28            107            406 327 
 CRJC HZ EP   9   13 0 36.00                             104   -1.00 0  464   4 
 CRJC HN ES       13 1 25.14                                    0.57 5  464   4 
 URI  HZ EP       13 0 46.09                             101   -1.37 4  553  13 
 URI  HN ES       13 1 42.99                             101   -1.19 4  553  13 
                                                                                
