 2011  418 1335 47.9 L   6.727 -73.081150.0  RSN  6 0.3 2.2LRSN                1
 GAP=185        0.70       9.1     9.3  7.2 -0.6011E+02  0.1016E+02 -0.9623E+01E
 Epicentro: JORDAN - SANTANDER                                                 3
 ACTION:UP  11-06-22 15:31 OP:REBC STATUS:               ID:20110418133547 L   I
 2011-04-18-1334-11S.COL___137                                                 6
 STAT SP IPHASW D HRMM SECON CODA AMPLIT PERI AZIMU VELO SNR AR TRES W  DIS CAZ7
 BAR2 SZ EP   1   1336  8.33                             173     0.4 7   19 217 
 BAR2 SZ ES   1   1336 23.19                             173    -0.4 7   19 217 
 BAR2 SZ I        1336 26.09        28.5 0.22                            19 217 
 PAM  SZ EP   1   1336 11.07                             151     0.3 7   80  32 
 PAM  SZ I        1336 11.43        18.1 0.19                            80  32 
 PAM  SN ES   2   1336 28.77                             151     0.3 5   80  32 
 BRR  HZ EP   1   1336 10.22                             150     0.1 7   81 301 
 BRR  HZ I        1336 10.54        59.6 0.17                            81 301 
 BRR  HN ES   2   1336 27.73                             150     0.3 5   81 301 
 BRI  SZ EP   1   1336 12.57                             141    -0.1 7  114  16 
 GRA  SZ EP   1   1336 13.43                             136    -0.6 7  132  13 
 NOR  SZ EP   1   1336 24.15                             119     0.1 6  236 237 
 NOR  SN ES   2   1336 51.90                             119    -0.3 4  236 237 
                                                                                
