 2013  418 1755 54.1 L   6.798 -73.153143.5  RSN  8 0.5 2.7LRSN                1
 GAP=136        1.21       4.2     6.1  7.0 -0.4257E+01  0.5885E+01  0.4583E+01E
 Epicentro: LOS SANTOS - SANTANDER                                             3
 ACTION:UPD 13-05-22 14:39 OP:EP   STATUS:               ID:20130418175554 L   I
 2013-04-18-1748-45M.COL___209                                                 6
 STAT SP IPHASW D HRMM SECON CODA AMPLIT PERI AZIMU VELO AIN AR TRES W  DIS CAZ7
 BAR2 SZ EP       1756 13.46                             170    0.0610 23.0 188 
 BAR2 SZ ES       1756 28.36                             170   -0.1310 23.0 188 
 BAR2 SZ I        1756 29.73        96.9 0.18            163           23.0 188 
 BRR  HZ EP       1756 15.34                             152    0.4210 70.6 299 
 BRR  HN ES       1756 32.33                             152    1.1310 70.6 299 
 BRR  HN I        1756 36.78       157.6 0.16            146           70.6 299 
 PAM  SZ IP     D 1756 16.33                             150    0.2610 78.1  40 
 PAM  SZ I        1756 16.65        96.0 0.22            149           78.1  40 
 PAM  SN ES       1756 33.29                             150    0.0510 78.1  40 
 RUS  HZ EP       1756 17.74                             143    0.1710  100 176 
 RUS  HN ES       1756 35.34                             143   -0.5710  100 176 
 RUS  HN I        1756 37.80        42.9 0.32            134            100 176 
 PTB  HZ EP       1756 20.50                             132   -0.26 9  147 259 
 PTB  HN ES       1756 40.87                             132   -0.72 9  147 259 
 PTB  HN I        1756 46.68        57.1 0.24            123            147 259 
 OCA  HZ EP       1756 21.79                             129   -0.41 9  160 353 
 OCA  HN ES       1756 43.50                             129   -0.65 9  160 353 
 OCA  HN I        1756 47.19       132.7 0.16            124            160 353 
 CHI  HZ EP       1756 31.74                             117    0.16 8  248 195 
 CHI  HN I        1757  7.04        18.6 0.42            110            248 195 
 PRA  HZ EP       1756 47.75                             106    0.32 6  391 209 
 PRA  HN ES       1757 29.46                             106    0.40 6  391 209 
 PRA  HN I        1757 35.34        12.4 0.34            101            391 209 
                                                                                
