 2015  318 1605  8.6 L   6.896 -73.197  7.8  RSN  5 0.1 1.8LRSN                1
 GAP=240        0.30       1.8     2.7  2.4  0.5378E+00 -0.2369E+01 -0.1371E+01E
 Epicentro: BETULIA - SANTANDER                                                3
 ACTION:UPD 15-04-30 16:27 OP:nd   STATUS:               ID:20150318160508 L   I
 OLDACT:REG 15-03-18 23:27 OP:cam  STATUS:               ID:20150318155749     3
 2015-03-18-1557-49M.COL___281                                                 6
 STAT SP IPHASW D HRMM SECON CODA AMPLIT PERI AZIMU VELO AIN AR TRES W  DIS CAZ7
 PTB  HZ EP       16 5 31.11                              92   -0.0110  145 254 
 PTB  HN ES       16 5 48.75                              92    0.0410  145 254 
 PTB  HZ I        16 5 52.74         9.4 0.46            149            145 254 
 SPBC HE ES   1   16 5 55.04                              56    0.06 7  168 215 
 SPBC HE I        16 6  4.33         7.7 0.24            137            168 215 
 ZAR  HZ EP   1   16 5 37.85                              56   -0.04 7  195 290 
 ZAR  HN ES       16 6  0.69                              56   -0.06 9  195 290 
 ZAR  HN I        16 6  3.88         6.9 0.18            134            195 290 
 SML  HN ES   2   16 6  9.15                              56    0.26 4  232 335 
 SML  HN I        16 6 16.72        14.0 0.10            121            232 335 
 GUY2CHZ EP       16 5 51.86                              55   -0.06 8  303 233 
                                                                                
