 2016 1118 1944 33.7 L   6.751 -73.369128.2  RSN  5 0.3 1.4LRSN                1
 GAP=129        0.76       6.4     3.6  6.1 -0.8867E+01  0.2852E+01  0.7480E-01E
 Epicentro: ZAPATOCA - SANTANDER                                               3
 ACTION:UPD 17-10-26 21:09 OP:lp   STATUS:               ID:20161118194433 L   I
 OLDACT:REG 16-11-18 21:07 OP:edw  STATUS:               ID:20161118193744     3
 2016-11-18-1938-00M.COL___346                                                 6
 STAT SP IPHASW D HRMM SECON CODA AMPLIT PERI AZIMU VELO AIN AR TRES W  DIS CAZ7
 BAR2 EZ EP       1944 51.82                             167    0.4610 27.1 130 
 BAR2 EZ ES       1945  4.78                             167   -0.3310 27.1 130 
 BRR  HZ EP       1944 52.28                             155    0.1910 54.7 316 
 BRR  HE ES       1945  6.33                             155   -0.0610 54.7 316 
 PAM  EZ EP       1944 55.26                             140   -0.3910 98.5  49 
 PAM  EN ES       1945 12.97                             140    0.2410 98.5  49 
 PAM  EZ I        1945 14.75         2.0 0.54            140           98.5  49 
 PTB  HZ EP       1944 56.74                             133   -0.2610  123 259 
 PTB  HN ES       1945 15.35                             133    0.2110  123 259 
 PTB  HZ I        1945 19.22         5.5 0.32            132            123 259 
 ZAR  HN ES   2   1945 25.41                             121   -0.34 4  184 297 
 ZAR  HZ I        1945 30.89         3.8 0.24            119            184 297 
                                                                                
