 2017  118 1917  8.7 L   6.716 -73.118145.5  RSN  7 0.4 1.8LRSN                1
 GAP=174        0.89       5.3     4.2  6.0 -0.9281E+01  0.6751E+01  0.5187E+01E
 Epicentro: JORDAN - SANTANDER                                                 3
 ACTION:UPD 17-05-22 16:01 OP:jn   STATUS:               ID:20170118191708 L   I
 OLDACT:UP  17-01-19 01:10 OP:cog  STATUS:               ID:20170118190745     3
 OLDACT:REG 17-01-18 22:09 OP:cog  STATUS:               ID:20170118190745     3
 2017-01-18-1908-00M.COL___337                                                 6
 STAT SP IPHASW D HRMM SECON CODA AMPLIT PERI AZIMU VELO AIN AR TRES W  DIS CAZ7
 BAR2 HZ EP       1917 28.49                             174    0.3510 15.4 207 
 BAR2 HZ ES       1917 43.35                             174    0.0210 15.4 207 
 BRR  HZ EP       1917 30.35                             150    0.1210 78.6 303 
 BRR  HN ES       1917 47.35                             150    0.3010 78.6 303 
 BRR  HZ I        1917 51.37        15.1 0.32            149           78.6 303 
 PAM  EZ EP       1917 31.48                             149    0.2710 83.0  34 
 PAM  EE ES       1917 48.21                             149   -0.5710 83.0  34 
 PAM  EZ I        1917 50.64         8.9 0.64            150           83.0  34 
 PTB  HZ EP       1917 35.23                             132   -0.53 9  149 263 
 PTB  HE ES       1917 56.85                             132   -0.04 9  149 263 
 PTB  HZ I        1917 58.84         8.8 0.16            133            149 263 
 ZAR  HZ EP       1917 41.81                             121    0.03 8  211 294 
 ZAR  HN ES       1918  7.62                             121    0.03 8  211 294 
 NOR  HN ES       1918 12.15                             119    0.42 8  232 237 
 GUY2CHZ EP       1917 52.19                             112    0.22 7  298 237 
 GUY2CHN ES       1918 24.91                             112   -0.83 7  298 237 
                                                                                
