 2016  418 1009 16.1 L   6.999 -73.044140.1  RSN  4 0.5 1.4LRSN                1
 GAP=211        1.07       5.9     7.5 10.6 -0.4637E+01  0.2960E+02 -0.1271E+02E
 Epicentro: PIEDECUESTA - SANTANDER                                            3
 ACTION:UPD 16-05-05 14:22 OP:rebc STATUS:               ID:20160418100916 L   I
 OLDACT:ARG 16-04-18 20:48 OP:ar   STATUS:               ID:20160418095751     3
 2016-04-18-0957-51M.COL___286                                                 6
 STAT SP IPHASW D HRMM SECON CODA AMPLIT PERI AZIMU VELO AIN AR TRES W  DIS CAZ7
 BAR2 EZ EP       10 9 35.80                             160   -0.0410 47.5 199 
 BAR2 EZ ES       10 9 51.57                             160    0.3610 47.5 199 
 BAR2 EZ I        10 9 52.36         4.1 0.14            160           47.5 199 
 OCA  HZ EP   2   10 9 41.72                             132   -0.45 5  140 348 
 OCA  HE ES       1010  2.19                             132   -0.28 9  140 348 
 PTB  HZ EP       10 9 44.33                             127    0.13 9  164 252 
 PTB  HE ES       1010  5.20                             127   -0.89 9  164 252 
 ZAR  HZ EP       10 9 48.79                             121    0.20 8  208 285 
 ZAR  HE ES       1010 14.62                             121    0.72 8  208 285 
 ZAR  HZ I        1010 22.38         3.4 0.10            120            208 285 
                                                                                
