 2010  818 1853 11.4 L   6.828 -73.046138.0  RSN  9 0.4 2.0LRSN                1
 GAP=169        0.59       3.9     7.1  6.7 -0.8583E+00  0.4004E+01 -0.1043E+01E
 Epicentro: LOS SANTOS - SANTANDER                                             3
 ACTION:UP  10-09-07 10:56 OP:vdl  STATUS:               ID:20100818185311 L   I
 2010-08-18-1849-31S.COL___117                                                 6
 STAT SP IPHASW D HRMM SECON CODA AMPLIT PERI AZIMU VELO SNR AR TRES W  DIS CAZ7
 BAR2 SZ EP       1853 30.33                             167     0.010   30 210 
 BAR2 SZ I        1853 30.81        15.6 0.18                            30 210 
 BAR2 SZ ES   2   1853 45.65                             167     0.6 5   30 210 
 GIR2 SZ EP   3   1853 29.44                             166    -0.8 2   32 330 
 BRR  HZ EP       1853 32.05                             148    -0.210   80 293 
 BRR  HN ES   2   1853 48.34                             148    -0.2 5   80 293 
 BRR  HZ I        1853 51.87        27.4 0.31                            80 293 
 RUS  HZ EP       1853 34.45                             141    -0.210  104 182 
 RUS  HE ES   2   1853 52.80                             141     0.0 5  104 182 
 RUS  HZ I        1853 55.43         9.4 0.29                           104 182 
 GUE  SZ EP   2   1853 35.41                             139     0.4 5  112   7 
 GRA  SZ EP   3   1853 36.34                             137     0.8 2  120  13 
 GRA  SZ ES   3   1853 53.86                             137    -0.4 2  120  13 
 OCA  SZ EP   1   1853 39.29                             128     0.3 7  159 349 
 OCA  SZ I        1854  5.19        11.6 0.13                           159 349 
 RREF HZ EP   1   1853 58.87                             109     0.4 5  332 230 
 RREF HE ES   2   1854 35.51                             109     0.4 3  332 230 
 RREF HZ I        1854 40.59         6.0 0.35                           332 230 
 PRA  HZ EP   2   1854  5.47                             105    -0.2 3  400 211 
 PRA  HZ I        1854 53.19         4.4 0.53                           400 211 
                                                                                
