 2011  618 1317 53.5 L   6.773 -73.092142.0  RSN 19 0.4 3.6LRSN                1
 GAP=130        0.92       3.3     6.3  5.0 -0.1040E+02  0.1094E+01  0.4332E+01E
 Epicentro: LOS SANTOS - SANTANDER                                             3
 ACTION:UP  11-07-14 19:06 OP:ep   STATUS:               ID:20110618131753 L   I
 2011-06-18-1316-39S.COL___116                                                 6
 STAT SP IPHASW D HRMM SECON CODA AMPLIT PERI AZIMU VELO SNR AR TRES W  DIS CAZ7
 BAR2 SZ IP       1318 12.80                             171     0.110   22 206 
 BAR2 SZ ES   1   1318 26.84                             171    -0.8 7   22 206 
 BAR2 SZ I        1318 29.07      1088.0 0.24                            22 206 
 BTL  SZ IP       1318 12.95                             169     0.210   25 310 
 BTL  SZ ES   2   1318 27.77                             169     0.1 5   25 310 
 GIR2 SZ IP       1318 12.91                             165     0.110   36 342 
 GIR2 SZ ES   1   1318 27.57                             165    -0.4 7   36 342 
 PAM  SZ EP       1318 15.70                             150     0.510   76  35 
 PAM  SN ES   1   1318 31.75                             150    -0.4 7   76  35 
 BRR  HZ IP     D 1318 14.72                             149     0.110   78 298 
 BRR  HE ES   1   1318 31.71                             149     0.6 7   78 298 
 BRR  HZ I        1318 34.18      1318.9 0.23                            78 298 
 RUS  HZ EP   1   1318 16.66                             144     0.0 7   97 179 
 RUS  HN ES   2   1318 34.62                             144    -0.1 5   97 179 
 RUS  HZ I        1318 36.64       654.3 0.42                            97 179 
 BRI  SZ IP       1318 17.45                             140     0.410  109  17 
 BRI  SZ ES   1   1318 35.03                             140    -0.5 7  109  17 
 BRI  SZ I        1318 41.47       635.8 0.84                           109  17 
 GUE  SZ EP   1   1318 18.22                             138     0.2 7  118   9 
 GRA  SZ IP       1318 18.73                             136     0.210  127  15 
 GRA  SZ ES   1   1318 38.39                             136     0.4 7  127  15 
 GRA  SZ I        1318 39.74       754.2 0.37                           127  15 
 OCA  SZ EP       1318 21.54                             128    -0.3 9  164 351 
 OCA  SZ ES   1   1318 43.36                             128    -0.6 7  164 351 
 OCA  SZ I        1318 47.77       512.7 0.21                           164 351 
 NOR  SZ EP   1   1318 28.82                             117    -0.5 6  238 236 
 CHI  HZ EP   1   1318 30.93                             116     0.1 6  247 197 
 CHI  HE ES   1   1318 59.91                             116    -0.1 6  247 197 
 CHI  HZ I        1319  4.52       139.8 0.31                           247 197 
 ROSC BZ EP   1   1318 32.42                             116     0.9 6  253 213 
 ROSC BN ES   2   1319  0.91                             116    -0.2 4  253 213 
 ROSC BZ I        1319  9.02       314.2 0.41                           253 213 
 VIL  SZ EP   1   1318 36.25                             111    -0.3 5  302 193 
 VIL  SE ES   2   1319 11.11                             111     1.0 4  302 193 
 VIL  SZ I        1319 15.44       126.0 0.25                           302 193 
 TOL  SZ EP   1   1318 41.67                             108    -0.2 5  346 226 
 DBB  SZ EP   1   1318 41.16                             108    -0.4 5  346 275 
 SDV  BZ EP   1   1318 42.34                             107    -0.8 5  358  49 
 SDV  BZ I        1319 21.67        78.8 0.34                           358  49 
 PRA  HZ EP   1   1318 46.30                             106    -0.6 4  392 211 
 PRA  HN ES   1   1319 28.60                             106     0.0 4  392 211 
 SJA  SZ EP   1   1318 46.64                             105    -1.1 4  399 194 
                                                                                
