 2012  118 1437 54.9 L   6.810 -73.199149.0  RSN  4 0.3 1.4LRSN                1
 GAP=145        0.48       5.7     5.5  7.5 -0.7538E+01  0.7370E+01  0.1581E+01E
 Epicentro: ZAPATOCA - SANTANDER                                               3
 ACTION:UP  12-02-03 08:18 OP:REBC STATUS:               ID:20120118143754 L   I
 2012-01-18-1430-00M.COL___187                                                 6
 STAT SP IPHASW D HRMM SECON CODA AMPLIT PERI AZIMU VELO SNR AR TRES W  DIS CAZ7
 BAR2 SZ EP   2   1438 14.88                             170    -0.1 5   24 176 
 BAR2 SZ ES   2   1438 31.11                             170     0.5 5   24 176 
 BAR2 SZ I        1438 31.86         6.9 0.43                            24 176 
 PAM  SZ EP   2   1438 17.64                             150     0.0 5   80  43 
 PAM  SN ES   2   1438 35.16                             150    -0.2 5   80  43 
 RUS  HZ EP   1   1438 19.13                             144     0.0 7  102 173 
 RUS  HE ES   2   1438 37.67                             144    -0.3 5  102 173 
 RUS  HZ I        1438 39.91         3.8 0.47                           102 173 
 PTB  HZ EP   2   1438 21.92                             134     0.3 5  142 258 
 PTB  HN ES   2   1438 42.20                             134    -0.3 5  142 258 
 PTB  HZ I        1438 44.61         0.0 0.46                           142 258 
                                                                                
