 2016  718 1607  5.4 L   6.824 -73.186141.0  RSN  6 0.4 1.9LRSN                1
 GAP=130        1.06       4.2     4.8  7.9 -0.1939E+01  0.1175E+02  0.4978E+01E
 Epicentro: ZAPATOCA - SANTANDER                                               3
 ACTION:UPD 17-03-29 16:52 OP:lp   STATUS:               ID:20160718160705 L   I
 OLDACT:REG 16-07-18 20:39 OP:lv   STATUS:               ID:20160718155759     3
 2016-07-18-1557-59S.COL___310                                                 6
 STAT SP IPHASW D HRMM SECON CODA AMPLIT PERI AZIMU VELO AIN AR TRES W  DIS CAZ7
 BRR  HZ EP       16 7 25.76                             153   -0.0110 66.0 298 
 BRR  HZ ES       16 7 41.35                             153   -0.2810 66.0 298 
 BRR  HZ I        16 7 46.17        20.4 0.28            152           66.0 298 
 PAM  EZ EP       16 7 27.49                             150    0.2910 78.3  43 
 PAM  EN ES       16 7 44.21                             150    0.0410 78.3  43 
 PAM  EZ I        16 7 46.30         8.0 0.24            157           78.3  43 
 RUS  HZ EP       16 7 28.33                             142   -0.6110  104 174 
 RUS  HN ES       16 7 47.38                             142    0.1010  104 174 
 RUS  HZ I        16 7 49.25         7.1 0.19            145            104 174 
 SPBC HZ EP       16 7 33.50                             128   -0.00 9  163 217 
 SPBC HN ES       16 7 56.01                             128    0.61 9  163 217 
 SPBC HZ I        16 8  2.42        16.2 0.14            130            163 217 
 ZAR  HZ EP       16 7 37.91                             122    0.87 9  199 292 
 ZAR  HN ES       16 8  1.35                             122   -0.33 9  199 292 
 ZAR  HZ I        16 8  8.57         9.6 0.30            124            199 292 
 NOR  HZ EP       16 7 39.96                             118   -0.71 8  233 233 
 NOR  HE ES       16 8  8.19                             118    0.04 8  233 233 
 NOR  HZ I        16 8 14.08         8.7 0.18            120            233 233 
                                                                                
