 2013 1218 1246 14.2 L   6.342 -73.605109.2  RSN 13 0.4 2.1LRSN                1
 GAP= 71        1.01       2.4     2.7  5.7 -0.1181E+01  0.5659E+01  0.1072E+01E
 Epicentro: SANTA HELENA DEL OPON - SANTANDER                                  3
 ACTION:UPD 14-01-13 10:19 OP:ep   STATUS:               ID:20131218124614 L   I
 OLDACT:REG 13-12-18 15:36 OP:nd   STATUS:               ID:20131218124000     3
 2013-12-18-1240-00M.COL___285                                                 6
 STAT SP IPHASW D HRMM SECON CODA AMPLIT PERI AZIMU VELO AIN AR TRES W  DIS CAZ7
 BAR2 SZ EP       1246 31.15                             152    0.3410 54.3  59 
 BAR2 SZ ES       1246 44.08                             152    0.3310 54.3  59 
 BAR2 SZ I        1246 45.63       157.8 0.38            155           54.3  59 
 RUS  HZ IP     D 1246 32.52                             143   -0.1110 76.2 131 
 RUS  HN ES       1246 46.80                             143   -0.1810 76.2 131 
 RUS  HZ I        1246 49.81        14.1 0.36            147           76.2 131 
 BRR  HZ EP       1246 32.75                             139    0.1110 85.4 352 
 BRR  HN ES       1246 47.37                             139    0.3610 85.4 352 
 BRR  HZ I        1246 54.72        18.2 0.24            140           85.4 352 
 PTB  HZ IP     C 1246 32.98                             135   -0.6310 96.7 283 
 PTB  HN ES       1246 48.33                             135   -0.3910 96.7 283 
 PTB  HZ I        1246 51.04        34.1 0.18            136           96.7 283 
 PAM  SZ EP       1246 39.36                             122    0.13 9  149  42 
 PAM  SE ES       1246 58.54                             122   -0.19 9  149  42 
 PAM  SZ I        1247  0.74         7.9 0.32            125            149  42 
 NOR  HZ EP       1246 39.66                             119   -0.63 9  164 238 
 NOR  HN ES       1247  0.52                             119   -0.11 9  164 238 
 NOR  HZ I        1247  2.93        25.3 0.14            121            164 238 
 ZAR  HZ EP       1246 42.90                             115    0.09 9  188 313 
 ZAR  HN ES       1247  4.64                             115   -0.46 9  188 313 
 ZAR  HZ I        1247 10.86        24.6 0.28            117            188 313 
 CHI  HZ EP       1246 43.41                             115   -0.12 9  190 184 
 CHI  HN ES       1247  6.24                             115   -0.15 9  190 184 
 CHI  HZ I        1247 11.71         3.9 0.56            118            190 184 
 HEL  HZ EP       1246 46.91                             112    0.79 8  214 266 
 HEL  HN ES       1247 11.10                             112    0.10 8  214 266 
 HEL  HZ I        1247 13.86         7.2 0.32            114            214 266 
 GUY2CHZ EP       1246 48.45                             110    0.23 8  231 238 
 GUY2CHN ES       1247 15.04                             110    0.30 8  231 238 
 GUY2CHZ I        1247 21.01         7.8 0.24                           231 238 
 RREF HZ EP       1246 51.22                             108    0.55 8  250 231 
 RREF HN ES       1247 19.48                             108    0.39 8  250 231 
 RREF HZ I        1247 29.20         7.2 0.22            110            250 231 
 URE  HZ EP   4   1246 50.82                             107   -0.65 0  264 306 
 URE  HN ES   4   1247 18.43                             107   -2.09 0  264 306 
 URE  HZ I        1247 20.68         9.5 0.30            109            264 306 
 SML  HZ EP       1246 51.86                             106   -1.08 7  277 349 
 SML  HN ES       1247 23.81                             106    0.67 7  277 349 
 SML  HZ I        1247 35.35        14.3 0.10            108            277 349 
                                                                                
