 2017 1018 1441 12.5 L   6.812 -73.125149.0  RSN  7 0.3 1.6LRSN                1
 GAP=241        0.87       4.5     5.8  6.5  0.1098E+02  0.1414E+02  0.7822E+01E
 Epicentro: LOS SANTOS - SANTANDER                                             3
 ACTION:UPD 17-11-07 19:33 OP:rebc STATUS:               ID:20171018144112 L   I
 OLDACT:UP  17-10-18 23:15 OP:edw  STATUS:               ID:20171018143444     3
 OLDACT:REG 17-10-18 21:00 OP:edw  STATUS:               ID:20171018143444     3
 2017-10-18-1438-00M.COL___420                                                 6
 STAT SP IPHASW D HRMM SECON CODA AMPLIT PERI AZIMU VELO AIN AR TRES W  DIS CAZ7
 BAR2 EZ EP       1441 32.50                             170   -0.0610 25.1 195 
 BAR2 EZ ES       1441 48.05                             170   -0.1510 25.1 195 
 BAR2 EZ I        1441 49.09        10.5 0.20            166           25.1 195 
 BRR  HZ EP       1441 34.30                             153    0.2110 72.7 297 
 BRR  HN ES       1441 51.39                             153    0.4710 72.7 297 
 RUS  HZ EP       1441 37.03                             144    0.3710  102 177 
 RUS  HN ES       1441 55.16                             144   -0.3410  102 177 
 RUS  HZ I        1441 56.75         5.7 0.24            143            102 177 
 PTB  HZ EP       1441 39.33                             132   -0.64 9  150 259 
 ZAR  HN ES       1442 10.52                             123   -0.42 8  206 292 
 NOR  HZ EP       1441 48.93                             119    0.22 8  237 235 
 NOR  HN ES       1442 17.27                             119    0.33 8  237 235 
 NOR  HZ I        1442 21.81         2.7 0.28            119            237 235 
 CHI  HE ES       1442 20.31                             118    0.02 8  250 196 
                                                                                
