 2013 1018 1704  3.4 L   6.768 -73.127144.7  RSN  6 0.4 1.9LRSN                1
 GAP=140        0.84       4.5     4.8  6.5  0.4626E+01  0.1066E+02  0.2947E+01E
 Epicentro: LOS SANTOS - SANTANDER                                             3
 ACTION:UPD 13-11-25 09:22 OP:ep   STATUS:               ID:20131018170403 L   I
 OLDACT:UP  13-10-18 16:59 OP:cam  STATUS:               ID:20131018165848     3
 OLDACT:REG 13-10-18 16:16 OP:cam  STATUS:               ID:20131018165848     3
 2013-10-18-1658-48M.COL___226                                                 6
 STAT SP IPHASW D HRMM SECON CODA AMPLIT PERI AZIMU VELO AIN AR TRES W  DIS CAZ7
 BAR2 SZ EP       17 4 22.83                             171    0.0310 20.4 197 
 BAR2 SZ ES       17 4 37.50                             171   -0.4710 20.4 197 
 BAR2 SZ I        17 4 38.53        27.0 0.20            170           20.4 197 
 BRR  HZ EP       17 4 24.75                             151    0.1510 74.7 300 
 BRR  HN ES       17 4 41.58                             151    0.4210 74.7 300 
 BRR  HZ I        17 4 45.42        18.7 0.48            147           74.7 300 
 PAM  SN ES       17 4 42.71                             150   -0.1610 78.9  37 
 RUS  HZ EP       17 4 26.81                             145    0.0710 96.9 177 
 RUS  HE ES       17 4 45.32                             145    0.3310 96.9 177 
 RUS  HZ I        17 4 45.84         6.3 0.24            147           96.9 177 
 PTB  HZ EP   1   17 4 29.45                             131   -0.91 7  149 260 
 PTB  HN ES   1   17 4 51.28                             131   -0.15 7  149 260 
 PTB  HZ I        17 4 52.45        13.3 0.16            130            149 260 
 ZAR  HZ EP   1   17 4 36.48                             122    0.41 6  207 293 
 ZAR  HN ES   1   17 5  1.54                             122   -0.04 6  207 293 
 ZAR  HZ I        17 5 10.34         6.9 0.26            121            207 293 
                                                                                
