 2013  718 1238 30.0 L   7.489 -73.117132.9  RSN  7 0.4 1.7LRSN                1
 GAP=215        1.00       4.2     5.6  6.8  0.1043E+02 -0.6221E+00 -0.7799E+01E
 Epicentro: EL PLAYON - SANTANDER                                              3
 ACTION:UPD 13-08-12 10:38 OP:ep   STATUS:               ID:20130718123830 L   I
 OLDACT:REG 13-07-18 15:05 OP:nd   STATUS:               ID:20130718122959     3
 2013-07-18-1229-59M.COL___267                                                 6
 STAT SP IPHASW D HRMM SECON CODA AMPLIT PERI AZIMU VELO AIN AR TRES W  DIS CAZ7
 GIR2 SZ EP       1238 48.74                             160    0.0710 46.1 190 
 GIR2 SZ ES       1239  3.19                             160   -0.0510 46.1 190 
 GIR2 SZ I        1239  3.82        11.5 0.26            156           46.1 190 
 BRR  HZ EP     C 1238 50.33                             148    0.1410 78.1 237 
 BRR  HN ES       1239  6.22                             148    0.2710 78.1 237 
 BRR  HZ I        1239  7.30        18.3 0.44            144           78.1 237 
 BAR2 SZ EP       1238 52.00                             141   -0.0610 99.4 184 
 BAR2 SZ ES       1239  9.37                             141    0.1110 99.4 184 
 BAR2 SZ I        1239 10.01         9.6 0.36            138           99.4 184 
 RUS  HZ EP     D 1238 59.24                             124   -0.17 9  177 179 
 RUS  HN ES       1239 22.38                             124    0.03 9  177 179 
 RUS  HZ I        1239 27.97         1.5 0.34            122            177 179 
 SML  HZ EP       1238 59.26                             123    0.24 9  179 324 
 SML  HN ES       1239 20.95                             123   -0.70 9  179 324 
 PTB  HZ EP       1238 58.83                             123   -0.44 9  181 235 
 PTB  HN ES       1239 21.30                             123   -0.81 9  181 235 
 PTB  HZ I        1239 24.06         6.1 0.18            121            181 235 
 ZAR  HZ EP       1239  1.10                             121    0.73 9  192 270 
 ZAR  HE ES       1239 24.63                             121    0.56 9  192 270 
 ZAR  HZ I        1239 27.01         7.0 0.36            120            192 270 
                                                                                
