 2010  818 1246 25.3 L   6.570 -73.496 32.0  RSN  4 0.2 1.0LRSN                1
 GAP=189        0.57       4.9    10.5 18.9  0.4654E+02  0.1839E+03  0.7894E+02E
 Epicentro: EL CARMEN DE CHUCURI - SANTANDER                                   3
 ACTION:UP  10-09-07 10:56 OP:vdl  STATUS:               ID:20100818124625 L   I
 2010-08-18-1243-18S.COL___117                                                 6
 STAT SP IPHASW D HRMM SECON CODA AMPLIT PERI AZIMU VELO SNR AR TRES W  DIS CAZ7
 BAR2 SZ EP       1246 33.20                             130     0.210   35  86 
 BAR2 SZ ES   1   1246 38.75                             130    -0.2 7   35  86 
 BAR2 SZ I        1246 39.77        13.2 0.16                            35  86 
 BTL  SZ EP       1246 34.44                             120     0.110   46  33 
 BRR  HZ EP   1   1246 35.99                              61    -0.3 7   64 338 
 BRR  HZ I        1246 41.88         8.5 0.50                            64 338 
 BRR  HN ES   1   1246 44.94                              61     0.1 7   64 338 
 RUS  HZ EP       1246 40.04                              61     0.210   88 149 
 RUS  HN ES   1   1246 51.00                              61    -0.2 7   88 149 
 RUS  HZ I        1246 52.34         3.2 0.20                            88 149 
                                                                                
