 2014  818 1108  9.4 L   6.793 -73.122139.4  RSN  8 0.5 1.9LRSN                1
 GAP=222        1.31       5.6     8.3  8.4  0.1469E+01  0.1126E+02 -0.7657E+01E
 Epicentro: LOS SANTOS - SANTANDER                                             3
 ACTION:UPD 14-09-15 21:51 OP:nd   STATUS:               ID:20140818110809 L   I
 OLDACT:UP  14-08-18 21:07 OP:cam  STATUS:               ID:20140818110000     3
 OLDACT:REG 14-08-18 20:45 OP:cam  STATUS:               ID:20140818110000     3
 2014-08-18-1100-00M.COL___285                                                 6
 STAT SP IPHASW D HRMM SECON CODA AMPLIT PERI AZIMU VELO AIN AR TRES W  DIS CAZ7
 BAR2 SZ IP     D 11 8 28.81                             170    0.5710 23.2 197 
 BAR2 SZ ES       11 8 42.31                             170   -0.6410 23.2 197 
 BAR2 SZ I        11 8 45.07        20.4 0.24            169           23.2 197 
 BRR  HZ IP     C 11 8 30.58                             150    0.5810 73.9 298 
 BRR  HN ES       11 8 46.79                             150    0.7010 73.9 298 
 BRR  HZ I        11 8 52.17        15.8 0.12            149           73.9 298 
 PTB  HZ EP       11 8 35.69                             130   -0.37 9  150 259 
 PTB  HN ES       11 8 56.51                             130   -0.37 9  150 259 
 PTB  HZ I        11 8 59.69         6.2 0.18            131            150 259 
 SPBC HZ EP     C 11 8 37.87                             127    0.37 9  164 220 
 SPBC HN ES       11 8 58.86                             127   -0.58 9  164 220 
 SPBC HZ I        11 9  2.39        10.0 0.20            130            164 220 
 ZAR  HZ EP     C 11 8 41.59                             120   -0.12 8  207 292 
 ZAR  HN ES       11 9  7.36                             120    0.44 8  207 292 
 ZAR  HZ I        11 9 12.45         9.5 0.32            122            207 292 
 SML  HZ EP     D 11 8 45.19                             116   -0.66 8  246 335 
 SML  HN ES       11 9 13.55                             116   -0.76 8  246 335 
 SML  HZ I        11 9 16.21         8.0 0.24            118            246 335 
 HEL  HZ EP       11 8 50.01                             113    0.47 8  274 256 
 HEL  HN ES   4   11 9 22.55                             113    1.68 0  274 256 
 GUY2CHZ EP   4   11 8 55.66                             111    2.76 0  303 235 
 SJC  HZ EP   4   11 9  2.67                             104   -2.32 0  411 327 
 SJC  HN ES   4   11 9 44.70                             104   -3.66 0  411 327 
 SJC  HN I        11 9 47.78         2.0 0.46            107            411 327 
                                                                                
