 2010 1218 1803 51.4 L   6.774 -73.124138.3  RSN 12 0.4 2.6LRSN                1
 GAP=161        0.91       4.3     7.1  8.2 -0.1126E+02  0.1269E+02  0.5780E+01E
 Epicentro: LOS SANTOS - SANTANDER                                             3
 ACTION:UP  11-01-14 15:25 OP:pat  STATUS:               ID:20101218180351 L   I
 2010-12-18-1801-33S.COL___137                                                 6
 STAT SP IPHASW D HRMM SECON CODA AMPLIT PERI AZIMU VELO SNR AR TRES W  DIS CAZ7
 BAR2 SZ IP     C 18 4 10.23                             171     0.210   21 198 
 BAR2 SZ ES   2   18 4 24.50                             171    -0.2 5   21 198 
 BAR2 SZ I        18 4 26.23       132.8 0.33                            21 198 
 GIR2 SZ IP     C 18 4  9.34                             165    -0.910   35 347 
 BRR  HZ IP     D 18 4 12.16                             150     0.210   75 300 
 BRR  HZ I        18 4 12.56       149.8 0.10                            75 300 
 BRR  HE ES   2   18 4 28.91                             150     0.9 5   75 300 
 RUS  HZ EP   1   18 4 14.29                             143     0.1 7   98 177 
 RUS  HN ES   2   18 4 32.20                             143     0.2 5   98 177 
 RUS  HZ I        18 4 33.44        64.9 0.23                            98 177 
 GRA  SZ IP     D 18 4 16.28                             135     0.110  128  16 
 GRA  SZ ES   2   18 4 35.89                             135     0.4 5  128  16 
 GRA  SZ I        18 4 40.29        48.8 0.37                           128  16 
 OCA  SZ EP   1   18 4 19.65                             127     0.2 7  163 352 
 OCA  SZ ES   2   18 4 40.84                             127    -0.5 5  163 352 
 OCA  SZ I        18 4 44.75        67.9 0.22                           163 352 
 NOR  SZ EP   1   18 4 26.22                             117    -0.5 6  235 235 
 NOR  SN ES   2   18 4 54.09                             117    -0.2 4  235 235 
 CHI  HZ EP   1   18 4 28.46                             116     0.0 6  247 196 
 CHI  HE ES   2   18 4 57.56                             116     0.2 4  247 196 
 CHI  HZ I        18 5  7.32         9.1 0.37                           247 196 
 HEL  HZ EP   1   18 4 31.78                             113     0.4 6  274 257 
 HEL  HE ES   2   18 5  1.95                             113    -0.7 4  274 257 
 HEL  HZ I        18 5  9.12        14.0 0.71                           274 257 
 RREF HZ EP   1   18 4 38.03                             109     0.8 5  322 230 
 RREF HN ES   2   18 5 12.79                             109    -0.2 3  322 230 
 RREF HZ I        18 5 22.94        14.2 0.31                           322 230 
 PRA  HZ EP   1   18 4 44.57                             105     0.1 4  391 210 
 PRA  HE ES   2   18 5 26.23                             105     0.3 3  391 210 
 PRA  HZ I        18 5 33.03        36.6 0.19                           391 210 
 SJA  SZ EP   1   18 4 45.39                             105    -0.1 4  398 193 
                                                                                
