 2015  418 1443 35.9 L   6.777 -73.151146.6  RSN  6 0.4 1.4LRSN                1
 GAP=137        0.90       6.2     5.0  7.4  0.2654E+00  0.7356E+01 -0.4281E+01E
 Epicentro: LOS SANTOS - SANTANDER                                             3
 ACTION:UPD 15-06-03 16:55 OP:cam  STATUS:               ID:20150418144335 L   I
 OLDACT:REG 15-04-18 21:03 OP:spq  STATUS:               ID:20150418143750     3
 2015-04-18-1437-50M.COL___275                                                 6
 STAT SP IPHASW D HRMM SECON CODA AMPLIT PERI AZIMU VELO AIN AR TRES W  DIS CAZ7
 BAR2 EZ EP       1443 55.59                             172    0.0510 20.7 190 
 BAR2 EZ ES   1   1444 10.19                             172   -0.69 7 20.7 190 
 BAR2 EZ I        1444 12.30         5.3 0.34            172           20.7 190 
 BRR  HZ EP   1   1443 57.53                             152    0.39 7 71.9 301 
 BRR  HN ES       1444 14.30                             152    0.5710 71.9 301 
 BRR  HZ I        1444 20.08         6.7 0.32            151           71.9 301 
 PAM  SZ EP       1443 58.40                             150    0.1010 79.8  39 
 PAM  SN ES   1   1444 15.38                             150   -0.43 7 79.8  39 
 PAM  SZ I        1444 17.39         2.8 0.48            154           79.8  39 
 RUS  HN ES   1   1444 18.46                             145    0.50 7 98.0 176 
 RUS  HZ I        1444 19.98         2.7 0.28            150           98.0 176 
 PTB  HZ EP       1444  2.47                             133   -0.32 9  147 260 
 PTB  HN ES   1   1444 23.28                             133   -0.52 7  147 260 
 PTB  HZ I        1444 25.88         2.9 0.42            134            147 260 
 ZAR  HZ EP   1   1444  8.11                             123   -0.29 6  204 293 
 ZAR  HE ES   1   1444 33.93                             123    0.15 6  204 293 
 ZAR  HZ I        1444 39.44         4.5 0.46            124            204 293 
                                                                                
