 2013  818 1122 23.7 L   6.787 -73.127143.2  RSN  6 0.2 1.7LRSN                1
 GAP=139        0.51       3.6     6.2  4.6 -0.9268E+01  0.1055E+02 -0.3623E+00E
 Epicentro: LOS SANTOS - SANTANDER                                             3
 ACTION:UPD 14-01-14 09:04 OP:ep   STATUS:               ID:20130818112223 L   I
 OLDACT:REG 13-08-18 14:41 OP:jn   STATUS:               ID:20130818111959     3
 2013-08-18-1119-59M.COL___269                                                 6
 STAT SP IPHASW D HRMM SECON CODA AMPLIT PERI AZIMU VELO AIN AR TRES W  DIS CAZ7
 BAR2 SZ EP       1122 42.89                             171   -0.1510 22.4 196 
 BAR2 SZ ES       1122 57.98                             171   -0.1110 22.4 196 
 BAR2 SZ I        1122 59.52         8.8 0.54            159           22.4 196 
 BRR  HZ EP   1   1122 45.09                             151    0.34 7 73.7 299 
 BRR  HZ I        1123  5.39         8.8 0.16            132           73.7 299 
 PAM  SN ES   1   1123  2.82                             150    0.05 7 77.2  38 
 PAM  SZ I        1123 26.35        15.9 0.24            133           77.2  38 
 RUS  HZ EP       1122 46.92                             144   -0.2010 99.1 177 
 RUS  HN ES       1123  5.62                             144    0.2610 99.1 177 
 RUS  HZ I        1123  7.30         5.7 0.22            161           99.1 177 
 SPBC HN ES   1   1123 13.97                             128   -0.18 7  163 220 
 SPBC HZ I        1123 18.97        10.8 0.24            129            163 220 
 PRA  HZ EP       1123 17.35                             106    0.20 6  392 210 
                                                                                
