 2013  118 1504 41.4 L   6.851 -73.325  9.5  RSN  6 0.2 1.2LRSN                1
 GAP=108        0.54       1.5     1.5  4.5  0.4369E+00  0.2158E+01 -0.1525E+01E
 Epicentro: ZAPATOCA - SANTANDER                                               3
 ACTION:UPD 13-02-15 09:15 OP:ep   STATUS:               ID:20130118150441 L   I
 2013-01-18-1500-00M.COL___241                                                 6
 STAT SP IPHASW D HRMM SECON CODA AMPLIT PERI AZIMU VELO AIN AR TRES W  DIS CAZ7
 BAR2 SZ EP       15 4 47.29                             102    0.0110 32.7 151 
 BAR2 SZ ES   1   15 4 51.73                             102   -0.14 7 32.7 151 
 BAR2 SZ I        15 4 52.64        47.8 0.26            107           32.7 151 
 BRR  HZ EP     C 15 4 49.85                              97    0.0310 51.3 304 
 BRR  HN ES   1   15 4 56.44                              97    0.06 7 51.3 304 
 PAM  SZ EP   1   15 4 56.09                              94    0.27 7 87.7  52 
 PAM  SE ES   1   15 5  6.69                              94   -0.38 7 87.7  52 
 PAM  SZ I        15 5  8.53         3.9 0.18             96           87.7  52 
 RUS  HZ EP   1   15 4 59.46                              93    0.36 7  109 166 
 RUS  HN ES   1   15 5 12.73                              93   -0.16 7  109 166 
 RUS  HZ I        15 5 13.64         3.8 0.32             95            109 166 
 PTB  HZ IP     C 15 5  1.92                              93    0.2310  130 255 
 PTB  HN ES   1   15 5 17.03                              93   -0.48 7  130 255 
 PTB  HZ I        15 5 19.66         4.5 0.20             94            130 255 
 ZAR  HZ EP   1   15 5  9.30                              56    0.15 7  184 293 
 ZAR  HN ES   1   15 5 30.62                              56   -0.17 7  184 293 
                                                                                
