 2011  718 1014 58.7 L   6.773 -73.107144.6  RSN 11 0.3 2.0LRSN                1
 GAP=160        0.56       2.2     4.2  3.7 -0.3744E+01  0.2623E+01  0.1219E+01E
 Epicentro: LOS SANTOS - SANTANDER                                             3
 ACTION:UPD 12-07-25 14:01 OP:epov STATUS:               ID:20110718101458 L   I
 2011-07-18-1000-00M.COL___133                                                 6
 STAT SP IPHASW D HRMM SECON CODA AMPLIT PERI AZIMU VELO AIN AR TRES W  DIS CAZ7
 BAR2 SZ IP       1015 18.04                             171   -0.0810 21.7 203 
 BAR2 SZ I        1015 18.21        30.7 0.21                          21.7 203 
 BAR2 SZ ES   1   1015 33.06                             171   -0.23 7 21.7 203 
 GIR2 SZ EP   1   1015 18.58                             166    0.28 7 35.1 344 
 GIR2 SZ ES   1   1015 34.08                             166    0.46 7 35.1 344 
 BRR  HZ EP   1   1015 19.67                             151   -0.31 7 76.3 299 
 BRR  HZ I        1015 20.30        27.5 0.10                          76.3 299 
 BRR  HE ES   1   1015 36.92                             151    0.31 7 76.3 299 
 RUS  HZ EP   1   1015 21.93                             144   -0.14 7 97.4 178 
 RUS  HE ES   1   1015 40.56                             144    0.23 7 97.4 178 
 RUS  HZ I        1015 42.05        15.4 0.33                          97.4 178 
 BRI  SZ EP   1   1015 22.65                             141    0.11 7  110  18 
 BRI  SZ ES   1   1015 40.74                             141   -0.43 7  110  18 
 BRI  SZ I        1015 43.43        14.3 0.53                           110  18 
 GRA  SZ EP   1   1015 23.91                             136   -0.03 7  127  15 
 GRA  SZ ES   1   1015 43.41                             136   -0.24 7  127  15 
 GRA  SZ I        1015 44.40        17.6 0.28                           127  15 
 OCA  SZ EP   1   1015 27.39                             129    0.18 7  164 352 
 OCA  SZ ES   1   1015 49.50                             129    0.02 7  164 352 
 OCA  SZ I        1015 54.21         8.8 0.36                           164 352 
 NOR  SZ EP   1   1015 34.37                             118   -0.15 6  236 236 
 NOR  SN ES   1   1016  1.79                             118   -0.69 6  236 236 
 CHI  HZ EP   1   1015 36.35                             117    0.24 6  247 196 
 CHI  HE ES   1   1016  5.36                             117    0.04 6  247 196 
 CHI  HZ I        1016 13.79         5.6 0.64                           247 196 
 HEL  HZ EP   1   1015 39.78                             114    0.58 6  275 257 
 PRA  HZ EP   1   1015 52.01                             106   -0.08 4  392 210 
 PRA  HN ES   2   1016 33.82                             106    0.05 3  392 210 
                                                                                
