 2013  618 1413  8.9 L   6.709 -73.165154.8  RSN  4 0.3 1.5LRSN                1
 GAP=228        0.73       6.4     5.7  6.4  0.1505E+02  0.4700E+01 -0.5499E+01E
 Epicentro: VILLANUEVA - SANTANDER                                             3
 ACTION:UPD 14-01-08 09:55 OP:ep   STATUS:               ID:20130618141308 L   I
 OLDACT:REG 13-06-18 15:08 OP:cam  STATUS:               ID:20130618140959     3
 2013-06-18-1409-59M.COL___261                                                 6
 STAT SP IPHASW D HRMM SECON CODA AMPLIT PERI AZIMU VELO AIN AR TRES W  DIS CAZ7
 BAR2 SZ EP       1413 29.31                             175   -0.2010 13.1 188 
 BAR2 SZ ES       1413 45.24                             175   -0.3110 13.1 188 
 BAR2 SZ I        1413 46.39         7.0 0.47            172           13.1 188 
 BRR  HZ EP       1413 31.27                             153   -0.0010 74.7 306 
 BRR  HE ES   1   1413 49.28                             153    0.59 7 74.7 306 
 RUS  HZ EP   1   1413 33.51                             148    0.57 7 90.8 174 
 RUS  HN ES       1413 51.75                             148    0.0910 90.8 174 
 RUS  HZ I        1413 53.74         3.5 0.64            147           90.8 174 
 PTB  HZ EP       1413 36.13                             135   -0.21 9  144 263 
 PTB  HN ES       1413 57.66                             135   -0.04 9  144 263 
 PTB  HZ I        1413 59.38         5.3 0.12            135            144 263 
                                                                                
