 2016  918 2123 11.7 L   6.788 -73.137141.8  RSN  6 0.2 1.4LRSN                1
 GAP=138        0.51       2.5     2.2  3.5  0.5662E+00  0.2032E+01 -0.1401E+00E
 Epicentro: LOS SANTOS - SANTANDER                                             3
 ACTION:UPD 17-08-17 21:13 OP:lp   STATUS:               ID:20160918212311 L   I
 OLDACT:REG 16-09-19 03:12 OP:cara STATUS:               ID:20160918211730     3
 2016-09-18-2118-00M.COL___360                                                 6
 STAT SP IPHASW D HRMM SECON CODA AMPLIT PERI AZIMU VELO AIN AR TRES W  DIS CAZ7
 BAR2 EZ EP       2123 30.66                             171   -0.1910 22.2 193 
 BAR2 EZ ES       2123 45.72                             171   -0.0510 22.2 193 
 BAR2 EZ I        2123 48.41         8.4 0.32            170           22.2 193 
 BRR  HE ES       2123 48.66                             151   -0.0910 72.7 299 
 BRR  HZ I        2123 49.91         5.7 0.28            149           72.7 299 
 PAM  EZ EP       2123 33.54                             150   -0.0010 77.8  38 
 PAM  EE ES       2123 50.63                             150    0.0710 77.8  38 
 PAM  EZ I        2123 53.02         5.7 0.26            153           77.8  38 
 RUS  HZ EP       2123 34.81                             143   -0.1710 99.2 177 
 RUS  HE ES       2123 53.42                             143    0.3010 99.2 177 
 RUS  HZ I        2123 54.25         1.6 0.20            146           99.2 177 
 PTB  HZ EP       2123 38.23                             131   -0.20 9  148 259 
 PTB  HE ES       2123 59.23                             131   -0.03 9  148 259 
 PTB  HZ I        2124  5.55         2.8 0.14            131            148 259 
 ZAR  HZ EP       2123 44.46                             121    0.40 8  205 292 
 ZAR  HN ES       2124  9.34                             121    0.07 8  205 292 
 ZAR  HZ I        2124 17.64         3.4 0.12            122            205 292 
                                                                                
