 2016  118 2310  7.8 L   6.768 -73.180142.0  RSN  7 0.3 1.8LRSN                1
 GAP=134        0.74       3.8     3.9  5.7 -0.5630E+01  0.9604E+01 -0.7734E+01E
 Epicentro: LOS SANTOS - SANTANDER                                             3
 ACTION:UPD 16-03-09 23:26 OP:cam  STATUS:               ID:20160118231007 L   I
 OLDACT:UP  16-01-19 03:16 OP:drio STATUS:               ID:20160118230748     3
 OLDACT:REG 16-01-19 02:32 OP:drio STATUS:               ID:20160118230748     3
 2016-01-18-2307-48M.COL___328                                                 6
 STAT SP IPHASW D HRMM SECON CODA AMPLIT PERI AZIMU VELO AIN AR TRES W  DIS CAZ7
 BAR2 EZ EP       2310 26.82                             172   -0.1010 19.5 181 
 BAR2 EZ ES       2310 41.80                             172   -0.0210 19.5 181 
 BAR2 EZ I        2310 43.02        10.2 0.16            174           19.5 181 
 PAM  EZ EP       2310 30.16                             148    0.2110 82.5  40 
 PAM  EN ES       2310 47.03                             148   -0.1810 82.5  40 
 PAM  EZ I        2310 49.37        13.4 0.60            150           82.5  40 
 RUS  HZ EP       2310 31.02                             144    0.0510 97.4 174 
 RUS  HN ES       2310 49.13                             144    0.1010 97.4 174 
 RUS  HZ I        2310 50.70         4.7 0.32            150           97.4 174 
 PTB  HN ES       2310 54.82                             132    0.25 9  143 260 
 ZAR  HZ EP       2310 40.33                             122    0.53 9  202 293 
 ZAR  HN ES   4   2311  6.13                             122    1.38 0  202 293 
 ZAR  HZ I        2311 12.10         8.0 0.32            122            202 293 
 NOR  HN ES       2311  9.50                             118   -0.55 8  230 235 
 SML  HZ EP       2310 43.93                             116   -0.48 8  245 336 
 SML  HE ES   4   2311 11.02                             116   -1.94 0  245 336 
 SML  HZ I        2311 17.61         8.3 0.10            117            245 336 
                                                                                
