 2017  918 2110 10.5 L   6.563 -73.411121.2  RSN 12 0.3 1.9LRSN                1
 GAP= 71        0.76       2.8     2.9  5.3  0.9456E+00  0.5753E+01  0.3377E+01E
 Epicentro: HATO - SANTANDER                                                   3
 ACTION:UPD 17-10-05 19:13 OP:rebc STATUS:               ID:20170918211010 L   I
 OLDACT:UP  17-09-19 05:30 OP:mg   STATUS:               ID:20170918210746     3
 OLDACT:REG 17-09-19 03:20 OP:mg   STATUS:               ID:20170918210746     3
 2017-09-18-2108-00M.COL___457                                                 6
 STAT SP IPHASW D HRMM SECON CODA AMPLIT PERI AZIMU VELO AIN AR TRES W  DIS CAZ7
 BAR2 EZ EP     C 2110 27.17                             168   -0.1110 25.4  83 
 BAR2 EZ ES       2110 40.24                             168   -0.0910 25.4  83 
 BAR2 EZ I        2110 41.73        42.4 0.40            172           25.4  83 
 BRR  HZ IP     D 2110 28.62                             149   -0.3210 68.8 331 
 BRR  HN ES       2110 43.19                             149   -0.1010 68.8 331 
 BRR  HZ I        2110 44.78        23.6 0.16            149           68.8 331 
 RUS  HZ EP       2110 30.56                             144   -0.0110 82.5 154 
 RUS  HN ES       2110 46.65                             144    0.4510 82.5 154 
 RUS  HZ I        2110 47.35        25.3 0.22            143           82.5 154 
 PAM  EZ EP       2110 33.12                             134   -0.1910  116  42 
 PAM  EN ES       2110 51.08                             134    0.0110  116  42 
 PAM  EZ I        2110 54.34         9.3 0.32            136            116  42 
 SPBC HZ EP       2110 33.12                             131   -0.3910  125 216 
 SPBC HN ES   2   2110 50.87                             131   -0.54 5  125 216 
 SPBC HZ I        2110 55.99        19.6 0.12            128            125 216 
 YPLC HZ EP   4   2110 39.86                             121    1.66 0  172 138 
 YPLC HE ES   1   2111  0.07                             121    0.31 7  172 138 
 YPLC HZ I        2111  2.69        20.7 0.36            121            172 138 
 ZAR  HZ EP   4   2110 40.56                             118    0.55 0  190 303 
 ZAR  HN ES       2111  3.78                             118    0.80 9  190 303 
 ZAR  HZ I        2111  9.11         8.1 0.20            118            190 303 
 NOR  HZ EP       2110 40.76                             118    0.10 9  196 236 
 NOR  HN ES   2   2111  3.96                             118   -0.20 4  196 236 
 NOR  HZ I        2111  8.24         6.7 0.18            116            196 236 
 CHI  HZ EP   4   2110 44.23                             115    0.80 0  217 189 
 CHI  HN ES   4   2111 11.85                             115    2.77 0  217 189 
 CHI  HZ I        2111 16.54         3.3 0.21            114            217 189 
 HEL  HZ EP   4   2110 47.78                             113    2.04 0  238 260 
 HEL  HE ES   1   2111 12.97                             113   -0.22 6  238 260 
 HEL  HZ I        2111 19.69         3.2 0.25            111            238 260 
 GUY2CHZ EP   4   2110 49.86                             110    1.23 0  262 236 
 GUY2CHN ES   4   2111 20.87                             110    2.53 0  262 236 
 GUY2CHZ I        2111 26.34         4.5 0.46                           262 236 
 PRA  HZ EP   1   2110 59.54                             104    0.62 5  355 208 
 PRA  HN ES   4   2111 39.70                             104    3.04 0  355 208 
 PRA  HZ I        2111 45.22         2.5 0.33            103            355 208 
                                                                                
