 2011  418 2217  6.3 L   6.735 -73.065145.7  RSN  9 0.3 2.1LRSN                1
 GAP=167        0.54       4.4     5.3  4.9 -0.1363E+02 -0.3683E+00  0.5889E+01E
 Epicentro: JORDAN - SANTANDER                                                 3
 ACTION:UP  11-06-22 15:31 OP:REBC STATUS:               ID:20110418221706 L   I
 2011-04-18-2200-00M.COL___139                                                 6
 STAT SP IPHASW D HRMM SECON CODA AMPLIT PERI AZIMU VELO SNR AR TRES W  DIS CAZ7
 BAR2 SZ EP   1   2217 25.94                             172     0.1 7   20 219 
 BAR2 SZ ES   1   2217 40.89                             172    -0.2 7   20 219 
 BAR2 SZ I        2217 44.62        32.3 0.45                            20 219 
 GIR2 SZ EP   1   2217 26.24                             163     0.0 7   41 339 
 PAM  SZ EP   1   2217 28.58                             150     0.1 7   78  31 
 PAM  SN ES   2   2217 45.94                             150     0.1 5   78  31 
 BRR  HZ EP   1   2217 27.86                             149    -0.2 7   83 300 
 BRR  HZ I        2217 28.30        28.1 0.08                            83 300 
 BRR  HE ES   1   2217 45.43                             149     0.3 7   83 300 
 GRA  SZ EP   1   2217 31.85                             136    -0.1 7  130  13 
 GRA  SZ ES   1   2217 51.86                             136     0.0 7  130  13 
 GRA  SZ I        2217 52.41         8.0 0.33                           130  13 
 NOR  SZ EP   2   2217 41.42                             118    -0.9 4  238 237 
 NOR  SN ES   2   2218 10.15                             118    -0.4 4  238 237 
 CHI  HZ EP   2   2217 43.92                             117     0.4 4  244 198 
 CHI  HZ I        2218 18.75         7.8 0.17                           244 198 
 HEL  HZ EP   1   2217 47.50                             114     0.2 6  279 258 
 HEL  HZ I        2218 24.22         6.6 0.27                           279 258 
 PRA  HZ EP   2   2218  0.46                             106     0.9 3  390 211 
 PRA  HN ES   2   2218 41.42                             106     0.2 3  390 211 
                                                                                
