 2016  618 2020 12.7 L   6.817 -73.108136.1  RSN  6 0.3 1.3LRSN                1
 GAP=247        0.81       5.4     5.0  6.3  0.1099E+02  0.1055E+02  0.1133E+01E
 Epicentro: LOS SANTOS - SANTANDER                                             3
 ACTION:UPD 16-07-21 22:20 OP:rebc STATUS:               ID:20160618202012 L   I
 OLDACT:DUP 16-06-19 03:34 OP:edw  STATUS:               ID:20160618200746d    3
 2016-06-18-2007-45M.COL___352                                                 6
 STAT SP IPHASW D HRMM SECON CODA AMPLIT PERI AZIMU VELO AIN AR TRES W  DIS CAZ7
 BAR2 EZ ES       2020 45.68                             169   -0.0610 26.2 198 
 RUS  HZ EP       2020 36.14                             141    0.4510  102 178 
 RUS  HN ES       2020 53.53                             141   -0.0510  102 178 
 RUS  HZ I        2020 55.54         2.2 0.32                           102 178 
 PTB  HZ EP       2020 39.09                             129   -0.28 9  152 258 
 PTB  HN ES       2020 59.65                             129   -0.48 9  152 258 
 PTB  HZ I        2021  2.37         3.1 0.14                           152 258 
 SPBC HZ EP       2020 40.63                             126   -0.30 9  167 220 
 SPBC HE ES       2021  3.10                             126    0.19 9  167 220 
 ZAR  HN ES       2021 10.46                             120    0.45 8  207 291 
 NOR  HZ EP       2020 48.14                             116   -0.29 8  239 235 
 NOR  HE ES       2021 16.65                             116    0.39 8  239 235 
 NOR  HZ I        2021 23.26         2.0 0.18                           239 235 
                                                                                
