 2010  918 2016  0.0 L   6.788 -73.043145.3  RSN 11 0.5 2.3LRSN                1
 GAP=170        1.14       4.9     8.5  8.5 -0.1712E+02  0.1024E+02 -0.1533E+01E
 Epicentro: LOS SANTOS - SANTANDER                                             3
 ACTION:UP  11-02-18 11:03 OP:tino STATUS:               ID:20100918201600 L   I
 2010-09-18-2014-48S.COL___121                                                 6
 STAT SP IPHASW D HRMM SECON CODA AMPLIT PERI AZIMU VELO SNR AR TRES W  DIS CAZ7
 BAR2 SZ EP       2016 19.74                             169     0.010   27 216 
 BAR2 SZ ES   1   2016 34.79                             169    -0.2 7   27 216 
 BAR2 SZ I        2016 35.97        56.8 0.38                            27 216 
 BTL  SZ EP       2016 20.23                             168     0.510   29 300 
 BRR  HZ IP     C 2016 21.63                             149    -0.210   82 296 
 BRR  HZ I        2016 21.91        93.4 0.23                            82 296 
 BRR  HE ES   1   2016 38.81                             149     0.1 7   82 296 
 RUS  HZ EP   1   2016 23.46                             144    -0.2 7   99 183 
 RUS  HN ES   1   2016 42.02                             144     0.0 7   99 183 
 RUS  HZ I        2016 43.59        14.5 0.25                            99 183 
 GUE  SZ EP       2016 23.78                             139    -0.910  116   6 
 GUE  SZ I        2016 25.16         9.5 0.07                           116   6 
 GRA  SZ IP       2016 25.53                             137     0.410  124  12 
 GRA  SZ ES   1   2016 45.08                             137     0.4 7  124  12 
 GRA  SZ I        2016 47.48        28.7 0.45                           124  12 
 OCA  SZ EP   1   2016 28.55                             129    -0.1 7  163 349 
 OCA  SZ I        2016 53.55        25.5 0.20                           163 349 
 NOR  HZ EP   1   2016 35.96                             117    -0.7 6  243 236 
 NOR  HN ES   2   2017  4.42                             117    -0.9 4  243 236 
 CHI  HZ EP   1   2016 37.65                             117    -0.3 6  251 198 
 CHI  HN ES   1   2017  7.95                             117     0.5 6  251 198 
 CHI  HZ I        2017 14.93         8.8 0.32                           251 198 
 HEL  HZ EP   1   2016 42.45                             114     1.0 6  283 257 
 HEL  HN ES   2   2017 13.27                             114    -0.4 4  283 257 
 HEL  HZ I        2017 18.39        13.0 0.31                           283 257 
 RREF HZ EP   2   2016 47.82                             110     0.7 3  330 231 
 RREF HN ES   2   2017 24.55                             110     0.8 3  330 231 
 RREF HZ I        2017 32.16        12.6 0.04                           330 231 
                                                                                
