 2014  518 2016 18.1 L   6.798 -73.167140.1  RSN 15 0.4 2.0LRSN                1
 GAP=134        0.88       3.0     3.6  5.6 -0.2503E+01  0.6676E+01  0.4130E+01E
 Epicentro: LOS SANTOS - SANTANDER                                             3
 ACTION:UPD 15-03-16 16:58 OP:nd   STATUS:               ID:20140518201618 L   I
 OLDACT:UP  14-05-19 06:14 OP:mh   STATUS:               ID:20140518200809     3
 OLDACT:REG 14-05-19 04:38 OP:mh   STATUS:               ID:20140518200809     3
 2014-05-18-2008-09M.COL___257                                                 6
 STAT SP IPHASW D HRMM SECON CODA AMPLIT PERI AZIMU VELO AIN AR TRES W  DIS CAZ7
 BRR  HZ EP       2016 38.81                             152    0.2710 69.2 300 
 BRR  HN ES       2016 55.08                             152    0.6110 69.2 300 
 BRR  HZ I        2017  0.14        20.6 0.24            151           69.2 300 
 PAM  SZ EP       2016 39.88                             149    0.0410 79.1  41 
 PAM  SN ES       2016 56.80                             149    0.0210 79.1  41 
 PAM  SZ I        2016 59.27         9.8 0.40            154           79.1  41 
 RUS  HZ EP   1 C 2016 40.94                             143   -0.38 7  101 175 
 RUS  HE ES       2016 59.19                             143   -0.2210  101 175 
 RUS  HZ I        2017  1.10         9.8 0.20            146            101 175 
 PTB  HZ EP       2016 43.64                             131   -0.77 9  145 259 
 PTB  HN ES       2017  4.25                             131   -0.67 9  145 259 
 PTB  HZ I        2017  7.88        15.3 0.15            132            145 259 
 OCA  HN ES   1   2017  7.84                             128    0.11 7  160 354 
 SPBC HZ EP   1   2016 45.75                             128   -0.28 7  162 218 
 SPBC HN ES   1   2017  7.92                             128    0.12 7  162 218 
 ZAR  HZ EP   4   2016 51.27                             121    1.29 0  202 292 
 ZAR  HN ES   4   2017 15.67                             121    0.84 0  202 292 
 NOR  HZ EP       2016 52.96                             117   -0.34 8  233 234 
 NOR  HE ES       2017 20.86                             117    0.12 8  233 234 
 NOR  HZ I        2017 27.43        13.1 0.11            120            233 234 
 SML  HZ EP   4   2016 52.67                             116   -1.68 0  243 336 
 SML  HN ES   4   2017 24.78                             116    2.18 0  243 336 
 CHI  HN ES   1   2017 24.77                             116    0.26 6  248 195 
 ROSC BE ES   1   2017 25.12                             116   -0.04 6  251 211 
 HEL  HZ EP   1   2016 57.67                             114   -0.12 6  270 256 
 HEL  HN ES   1   2017 28.63                             114   -0.09 6  270 256 
 URE  HZ EP   4   2016 58.57                             113   -0.11 0  282 292 
 URE  HN ES   1   2017 29.73                             113   -0.59 6  282 292 
 GUY2CHZ EP   1   2017  2.17                             111    0.93 5  299 235 
 GUY2CHN ES       2017 35.31                             111    0.44 7  299 235 
 GUY2CHZ I        2017 43.90         8.1 0.06                           299 235 
 RREF HZ EP       2017  4.66                             110    0.86 7  320 229 
 CBOC HZ EP       2017  4.84                             109    0.30 7  331 252 
 CBOC HN ES   1   2017 40.86                             109    0.12 5  331 252 
 CBOC HZ I        2017 52.92         2.3 0.19            111            331 252 
 SDV  BZ EP   4   2017  4.31                             107   -3.87 0  362  50 
 SDV  BE ES   4   2017 44.19                             107   -3.04 0  362  50 
 PRA  HZ EP   1   2017 11.11                             106   -0.18 4  391 209 
 PRA  HN ES   1   2017 53.13                             106    0.37 4  391 209 
 SJC  HN ES   4   2017 52.88                             105   -3.58 0  408 327 
                                                                                
