 2016  818 2348 19.4 L   6.771 -73.140147.5  RSN  6 0.2 2.1LRSN                1
 GAP=236        0.46       2.5     2.7  3.1  0.2752E+01  0.1364E+01 -0.2877E+00E
 Epicentro: LOS SANTOS - SANTANDER                                             3
 ACTION:UPD 16-10-29 15:36 OP:rebc STATUS:               ID:20160818234819 L   I
 OLDACT:REG 16-08-19 03:59 OP:cara STATUS:               ID:20160818234759     3
 2016-08-18-2347-59S.COL___343                                                 6
 STAT SP IPHASW D HRMM SECON CODA AMPLIT PERI AZIMU VELO AIN AR TRES W  DIS CAZ7
 BAR2 EZ IP       2348 39.03                             172   -0.1410 20.3 193 
 BAR2 HN ES       2348 54.34                             172   -0.2710 20.3 193 
 BAR2 EZ I        2348 54.99        42.8 0.34                          20.3 193 
 BRR  HZ IP       2348 40.89                             152    0.0410 73.4 300 
 BRR  HN ES       2348 57.86                             152    0.2710 73.4 300 
 BRR  HZ I        2348 58.61        27.0 0.14                          73.4 300 
 RUS  HZ EP       2348 43.10                             145    0.0210 97.3 176 
 RUS  HN ES       2349  1.76                             145    0.2010 97.3 176 
 RUS  HZ I        2349  5.63         6.5 0.24                          97.3 176 
 PTB  HZ EP       2348 46.34                             132   -0.16 9  148 260 
 PTB  HE ES       2349  7.49                             132   -0.16 9  148 260 
 PTB  HZ I        2349 13.93        21.9 0.44                           148 260 
 SPBC HZ EP       2348 47.99                             130    0.16 9  161 220 
 SPBC HE ES       2349 10.00                             130   -0.01 9  161 220 
 SPBC HZ I        2349 17.90        13.8 0.18                           161 220 
 ZAR  HZ EP       2348 52.14                             122    0.00 8  206 293 
 ZAR  HN ES       2349 17.73                             122    0.05 8  206 293 
 ZAR  HZ I        2349 23.00        18.9 0.32                           206 293 
                                                                                
