 2011 1218 2215  2.7 L   6.787 -73.123148.3  RSN  5 0.1 1.7LRSN                1
 GAP=140        0.35       3.3     5.0  5.9 -0.2460E+00 -0.1593E+01  0.2294E+01E
 Epicentro: LOS SANTOS - SANTANDER                                             3
 ACTION:UPD 12-07-13 16:17 OP:ep   STATUS:               ID:20111218221502 L   I
 2011-12-18-2210-00M.COL___186                                                 6
 STAT SP IPHASW D HRMM SECON CODA AMPLIT PERI AZIMU VELO AIN AR TRES W  DIS CAZ7
 BAR2 SZ EP   1   2215 22.44                             171   -0.17 7 22.5 197 
 BAR2 SZ I        2215 23.02        14.0 0.13                          22.5 197 
 GIR2 SZ EP   1   2215 22.66                             167   -0.06 7 33.2 346 
 BRR  HZ EP   1   2215 24.31                             152    0.03 7 74.1 299 
 BRR  HE ES   2   2215 41.18                             152    0.07 5 74.1 299 
 BRR  HZ I        2215 44.26        11.9 0.12                          74.1 299 
 PAM  SZ EP   1   2215 25.37                             151    0.22 7 76.9  37 
 PAM  SN ES   2   2215 42.48                             151   -0.19 5 76.9  37 
 PAM  SZ I        2215 44.85         6.2 0.19                          76.9  37 
 RUS  HZ EP   1   2215 26.51                             145   -0.07 7 99.0 177 
 RUS  HN ES   2   2215 45.42                             145    0.21 5 99.0 177 
 RUS  HZ I        2215 46.50         4.5 0.26                          99.0 177 
                                                                                
