 2012  518 2125 19.5 L   6.837 -73.312130.0  RSN  6 0.3 1.6LRSN                1
 GAP=106        0.65       4.2     3.6  6.4  0.2165E+00  0.3384E+01  0.1433E+01E
 Epicentro: ZAPATOCA - SANTANDER                                               3
 ACTION:UP  12-07-05 12:06 OP:pat  STATUS:               ID:20120518212519 L   I
 2012-05-18-2120-00M.COL___200                                                 6
 STAT SP IPHASW D HRMM SECON CODA AMPLIT PERI AZIMU VELO SNR AR TRES W  DIS CAZ7
 BAR2 SZ EP   1   2125 37.65                             166     0.2 7   31 152 
 BAR2 SZ ES   1   2125 51.10                             166    -0.3 7   31 152 
 BRR  HZ EP   1   2125 38.01                             156     0.0 7   53 304 
 BRR  HZ I        2125 39.81        19.3 0.29                            53 304 
 BRR  HN ES   1   2125 52.26                             156    -0.1 7   53 304 
 PAM  SZ EP   1   2125 40.71                             144    -0.1 7   88  51 
 PAM  SN ES   1   2125 57.46                             144     0.1 7   88  51 
 RUS  HZ EP   1   2125 42.43                             138     0.1 7  107 166 
 RUS  HZ I        2125 43.48         3.4 0.15                           107 166 
 RUS  HE ES   1   2126  0.20                             138     0.1 7  107 166 
 PTB  HZ EP   1   2125 42.94                             132    -0.7 7  131 255 
 PTB  HN ES   1   2126  2.80                             132     0.3 7  131 255 
 PTB  HZ I        2126  4.67         4.9 0.18                           131 255 
 ZAR  HE ES   2   2126 12.42                             121     0.4 4  185 293 
                                                                                
