 2011  118 2058 10.0 L   6.778 -73.091150.1  RSN  4 0.2 1.9LRSN                1
 GAP=168        0.43       5.4    21.7  5.7 -0.1008E+03  0.2493E+02 -0.5428E+01E
 Epicentro: LOS SANTOS - SANTANDER                                             3
 ACTION:UP  11-02-08 08:41 OP:pat  STATUS:               ID:20110118205810 L   I
 2011-01-18-2053-15S.COL___136                                                 6
 STAT SP IPHASW D HRMM SECON CODA AMPLIT PERI AZIMU VELO SNR AR TRES W  DIS CAZ7
 BAR2 SZ EP   1   2058 29.83                             171    -0.3 8   23 207 
 BAR2 SZ ES   2   2058 45.84                             171     0.0 5   23 207 
 BAR2 SZ I        2058 46.06        24.5 0.39                            23 207 
 RUS  HZ EP   1   2058 33.98                             145     0.0 8   98 180 
 RUS  HZ I        2058 35.29         5.5 0.50                            98 180 
 RUS  HE ES   2   2058 52.65                             145     0.0 5   98 180 
 GRA  SZ IP       2058 35.59                             138    -0.110  126  15 
 GRA  SZ I        2058 36.72        14.4 0.34                           126  15 
 GRA  SZ ES   2   2058 56.04                             138     0.4 5  126  15 
 CHI  HZ EP   1   2058 48.07                             118     0.2 6  248 197 
 CHI  HE ES   2   2059 17.40                             118     0.0 4  248 197 
 CHI  HZ I        2059 26.58         4.0 0.72                           248 197 
                                                                                
