 2014  218 2225  8.8 L   6.799 -73.165144.8  RSN  5 0.2 1.5LRSN                1
 GAP=134        0.62       4.2     3.0  6.0 -0.1873E+01  0.4743E+01  0.2049E+01E
 Epicentro: LOS SANTOS - SANTANDER                                             3
 ACTION:UPD 14-03-10 08:11 OP:ep   STATUS:               ID:20140218222509dL   I
 OLDACT:REG 14-02-18 21:49 OP:mh   STATUS:               ID:20140218222000     3
 2014-02-18-2220-00M.COL___212                                                 6
 STAT SP IPHASW D HRMM SECON CODA AMPLIT PERI AZIMU VELO AIN AR TRES W  DIS CAZ7
 PAM  SZ EP       2225 31.10                             150    0.1310 78.9  41 
 PAM  SN ES       2225 48.17                             150   -0.1210 78.9  41 
 PAM  SZ I        2225 50.81         4.2 0.16             92           78.9  41 
 RUS  HZ EP       2225 32.44                             144    0.0210  101 175 
 RUS  HZ I        2225 52.36         2.6 0.21                           101 175 
 PTB  HZ EP       2225 35.04                             132   -0.42 9  146 259 
 PTB  HN ES       2225 56.64                             132    0.36 9  146 259 
 PTB  HZ I        2226  1.80         4.2 0.10             92            146 259 
 ZAR  HZ EP       2225 40.89                             122   -0.05 9  202 292 
 ZAR  HN ES       2226  5.86                             122   -0.18 9  202 292 
 ZAR  HZ I        2226  9.47         4.2 0.15             56            202 292 
 SML  HZ EP       2225 45.55                             117    0.30 8  243 336 
 SML  HZ I        2226 20.72         5.0 0.14             56            243 336 
                                                                                
