 2012  418 2217 56.7 L   6.762 -73.130145.4  RSN  6 0.3 2.0LRSN                1
 GAP=140        0.75       4.7     5.1  6.5  0.4494E+01  0.6314E+01  0.7619E+00E
 Epicentro: LOS SANTOS - SANTANDER                                             3
 ACTION:UPD 12-07-05 11:54 OP:tino STATUS:               ID:20120418221756 L   I
 2012-04-18-2210-00M.COL___187                                                 6
 STAT SP IPHASW D HRMM SECON CODA AMPLIT PERI AZIMU VELO AIN AR TRES W  DIS CAZ7
 BAR2 SZ EP       2218 16.22                             172     0.010   20 197 
 BAR2 SZ ES   1   2218 30.81                             172    -0.6 7   20 197 
 BAR2 SZ I        2218 32.46        24.0 0.30                            20 197 
 BRR  HZ EP   1   2218 18.13                             151     0.1 7   75 301 
 BRR  HZ I        2218 20.17        21.6 0.12                            75 301 
 BRR  HN ES   1   2218 35.06                             151     0.4 7   75 301 
 PAM  SZ EP       2218 19.23                             150     0.210   80  37 
 PAM  SN ES   1   2218 36.22                             150    -0.2 7   80  37 
 RUS  HZ EP       2218 20.19                             145     0.110   96 177 
 RUS  HZ I        2218 21.07         6.8 0.11                            96 177 
 RUS  HN ES   1   2218 38.65                             145     0.3 7   96 177 
 ZAR  HZ EP   1   2218 29.02                             122    -0.4 6  207 293 
 ZAR  HN ES   1   2218 55.02                             122     0.0 6  207 293 
 ZAR  HZ I        2219  1.36         8.3 0.31                           207 293 
 RREF HZ EP   2   2218 42.12                             111    -0.6 3  320 230 
 RREF HZ I        2219 30.20         5.7 0.35                           320 230 
                                                                                
