 2015  118 2032 56.4 L   6.934 -73.156146.7  RSN  6 0.4 1.5LRSN                1
 GAP=128        1.15       4.8     5.1  8.3  0.2374E+01  0.8890E+01 -0.4809E+01E
 Epicentro: PIEDECUESTA - SANTANDER                                            3
 ACTION:UPD 15-03-02 15:40 OP:nd   STATUS:               ID:20150118203256 L   I
 OLDACT:REG 15-01-19 02:52 OP:fm   STATUS:               ID:20150118202745     3
 2015-01-18-2027-45M.COL___262                                                 6
 STAT SP IPHASW D HRMM SECON CODA AMPLIT PERI AZIMU VELO AIN AR TRES W  DIS CAZ7
 BRR  HZ EP       2033 17.59                             155    0.3510 64.3 287 
 BRR  HN ES       2033 34.40                             155    0.8810 64.3 287 
 BRR  HZ I        2033 35.84         5.5 0.12            151           64.3 287 
 PAM  SZ EP       2033 18.63                             154    0.5110 67.5  48 
 PAM  SN ES       2033 34.41                             154   -0.6810 67.5  48 
 PAM  SZ I        2033 36.42         3.0 0.42            156           67.5  48 
 RUS  HZ EP       2033 21.38                             140    0.0610  115 176 
 RUS  HN ES       2033 40.53                             140   -0.2510  115 176 
 RUS  HZ I        2033 41.66         1.8 0.24            144            115 176 
 PTB  HZ EP       2033 23.10                             132   -0.52 9  150 253 
 PTB  HE ES       2033 44.77                             132   -0.12 9  150 253 
 PTB  HZ I        2033 50.25         4.9 0.20            132            150 253 
 ZAR  HZ EP       2033 28.47                             123    0.24 9  198 288 
 ZAR  HN ES       2033 52.64                             123   -0.44 9  198 288 
 ZAR  HZ I        2033 59.93         7.6 0.74            123            198 288 
 SML  HZ EP       2033 31.58                             119    0.03 8  230 334 
 SML  HE ES       2033 58.68                             119   -0.31 8  230 334 
 SML  HZ I        2034 10.60         5.3 0.24            119            230 334 
                                                                                
