 2015 1018 2116 14.6 L   6.799 -73.123152.9  RSN 17 0.4 2.1LRSN                1
 GAP= 72        0.93       2.5     3.2  5.0 -0.9527E+00  0.3606E+01 -0.2163E+00E
 Epicentro: LOS SANTOS - SANTANDER                                             3
 ACTION:UPD 15-12-22 20:41 OP:cam  STATUS:               ID:20151018211614 L   I
 OLDACT:REG 15-10-19 02:53 OP:spq  STATUS:               ID:20151018210747     3
 2015-10-18-2107-47M.COL___331                                                 6
 STAT SP IPHASW D HRMM SECON CODA AMPLIT PERI AZIMU VELO AIN AR TRES W  DIS CAZ7
 BAR2 EZ EP       2116 35.15                             171    0.1010 23.8 196 
 BAR2 EZ ES   1   2116 50.43                             171   -0.61 7 23.8 196 
 BAR2 EZ I        2116 52.61        23.1 0.28            169           23.8 196 
 BRR  HZ EP     D 2116 36.81                             153    0.2010 73.5 298 
 BRR  HE ES       2116 54.28                             153    0.4710 73.5 298 
 BRR  HZ I        2116 58.35        17.1 0.11            149           73.5 298 
 PAM  EZ EP     D 2116 37.71                             152    0.2610 75.9  38 
 PAM  EN ES       2116 55.09                             152   -0.2210 75.9  38 
 PAM  EZ I        2116 57.11        14.9 0.52            155           75.9  38 
 RUS  HZ EP       2116 38.81                             145   -0.1910  100 177 
 RUS  HN ES       2116 57.54                             145   -0.5210  100 177 
 RUS  HZ I        2116 58.70        10.7 0.38            147            100 177 
 TAM  HN ES   1   2117  5.00                             133    0.55 7  153 105 
 TAM  HZ I        2117  5.11         8.2 0.28            137            153 105 
 OCA  HZ EP       2116 43.07                             131   -0.40 9  161 352 
 OCA  HE ES       2117  6.46                             131    0.43 9  161 352 
 OCA  HZ I        2117 10.14        34.4 0.32            131            161 352 
 SPBC HZ EP       2116 43.90                             130    0.15 9  165 220 
 SPBC HE ES       2117  6.85                             130    0.33 9  165 220 
 SPBC HZ I        2117 11.06        21.4 0.22            129            165 220 
 ZAR  HZ EP   1   2116 47.64                             124   -0.08 6  206 292 
 ZAR  HE ES       2117 13.35                             124   -0.23 8  206 292 
 ZAR  HZ I        2117 19.99        15.4 0.26            122            206 292 
 SML  HZ EP       2116 51.89                             119    0.17 8  245 335 
 SML  HN ES   1   2117 20.30                             119   -0.41 6  245 335 
 SML  HZ I        2117 22.92        17.3 0.24            118            245 335 
 CHI  HZ EP       2116 53.00                             118    0.28 8  249 196 
 CHI  HE ES       2117 22.59                             118    0.11 8  249 196 
 CHI  HZ I        2117 28.39         4.2 0.50            119            249 196 
 HEL  HZ EP   4   2116 57.63                             116    2.23 0  274 256 
 HEL  HN ES       2117 27.64                             116    0.37 8  274 256 
 HEL  HZ I        2117 34.28         5.1 0.56            115            274 256 
 URE  HZ EP       2116 55.40                             115   -0.85 7  286 292 
 URE  HN ES   4   2117 26.44                             115   -2.32 0  286 292 
 URE  HZ I        2117 39.22         8.3 0.18            114            286 292 
 GUY2CHZ EP   1   2116 59.77                             113    1.05 5  303 235 
 GUY2CHE ES       2117 32.44                             113   -0.73 7  303 235 
 GUY2CHZ I        2117 41.42         5.4 0.28                           303 235 
 MON  HZ EP   4   2117  2.11                             110   -1.97 0  356 308 
 MON  HN ES   4   2117 41.19                             110   -1.52 0  356 308 
 MON  HZ I        2117 57.56         3.8 0.30            109            356 308 
 SDV  BZ EP       2117  4.31                             110   -0.36 6  359  50 
 SDV  BN ES   4   2117 42.18                             110   -1.57 0  359  50 
 SDV  BZ I        2117 43.47         2.1 0.40            111            359  50 
 ORTC HN ES   4   2117 53.28                             107    2.01 0  397 216 
 ORTC HZ I        2117 59.58         3.3 0.28            108            397 216 
 SJC  HZ EP   4   2117  9.18                             107   -1.35 0  411 327 
 SJC  HN ES   4   2117 51.88                             107   -2.32 0  411 327 
 SJC  HZ I        2117 57.30         2.5 0.28            107            411 327 
                                                                                
