 2010  718 2355  8.8 L   6.833 -72.960151.0  RSN  8 0.3 2.5LRSN                1
 GAP=202        0.56       3.2     6.4  4.6  0.1261E+01  0.6564E+01  0.2752E+01E
 Epicentro: CEPITA - SANTANDER                                                 3
 ACTION:UPD 10-12-01 15:18 OP:pat  STATUS:               ID:20100718235508 L   I
 2010-07-18-2353-21S.COL___120                                                 6
 STAT SP IPHASW D HRMM SECON CODA AMPLIT PERI AZIMU VELO AIN AR TRES W  DIS CAZ7
 BAR2 SZ EP       2355 29.48                             166     0.110   36 223 
 BAR2 SZ ES   1   2355 45.70                             166     0.2 7   36 223 
 BAR2 SZ I        2355 47.37        41.1 0.38                            36 223 
 BRR  HZ EP       2355 31.42                             148    -0.210   88 290 
 BRR  HZ I        2355 31.81        47.7 0.14                            88 290 
 BRR  HE ES   1   2355 49.00                             148    -0.3 7   88 290 
 RUS  HZ EP   1   2355 33.37                             144     0.0 7  105 187 
 RUS  HN ES   1   2355 52.45                             144    -0.1 7  105 187 
 RUS  HZ I        2355 53.31        29.6 0.28                           105 187 
 OCA  SZ EP   2   2355 38.07                             131     0.5 5  160 346 
 OCA  SZ ES   2   2356  0.40                             131     0.4 5  160 346 
 OCA  SZ I        2356  4.69        51.7 0.41                           160 346 
 ROSC BZ EP   1   2355 48.93                             116     0.2 6  267 214 
 ROSC BE ES   2   2356 20.41                             116     0.5 4  267 214 
 ROSC BZ I        2356 27.15        19.3 0.34                           267 214 
 HEL  HZ EP   2   2355 51.57                             114     0.0 4  293 256 
 RREF HZ EP       2355 57.11                             111    -0.2 7  340 231 
 RREF HN ES   2   2356 35.14                             111     0.1 3  340 231 
 RREF HZ I        2356 41.65        19.1 0.24                           340 231 
 PRA  HZ EP   1   2356  3.61                             107    -0.5 4  406 212 
 PRA  HE ES   2   2356 48.20                             107     1.0 3  406 212 
 PRA  HZ I        2356 49.30        13.7 0.41                           406 212 
                                                                                
