 2012  118 2308 46.6 L   5.867 -73.946112.1  RSN  5 0.4 1.5LRSN                1
 GAP=153        0.82       4.3     5.0 11.6  0.3430E+01 -0.6894E+01  0.1561E+02E
 Epicentro: LA BELLEZA - SANTANDER                                             3
 ACTION:UP  12-02-03 08:18 OP:REBC STATUS:               ID:20120118230846 L   I
 2012-01-18-2300-00M.COL___187                                                 6
 STAT SP IPHASW D HRMM SECON CODA AMPLIT PERI AZIMU VELO SNR AR TRES W  DIS CAZ7
 PTB  HN ES       23 9 21.05                             137     0.010   93 323 
 RUS  HZ EP   1   23 9  6.66                             137    -0.1 7   96  88 
 RUS  HN ES   1   23 9 22.11                             137    -0.4 7   96  88 
 RUS  HZ I        23 9 24.98         1.8 0.41                            96  88 
 BAR2 SZ EP   1   23 9  8.87                             130     0.6 7  116  46 
 BAR2 SZ ES   1   23 9 25.52                             130     0.3 7  116  46 
 BAR2 SZ I        23 9 27.66        25.3 0.33                           116  46 
 CHI  HZ EP   1   23 9 10.54                             125    -0.2 7  139 170 
 CHI  HN ES   1   23 9 29.73                             125     0.2 7  139 170 
 CHI  HZ I        23 9 33.06         2.7 0.25                           139 170 
 BRR  HZ EP   2   23 9  9.52                             124    -0.7 5  140  11 
 BRR  HZ I        23 9 23.94        10.1 0.20                           140  11 
                                                                                
