 2017 1218 2250 49.7 L   6.792 -73.189141.3  RSN  7 0.3 1.6LRSN                1
 GAP=136        0.93       5.7     4.5  8.0 -0.1035E+02  0.1554E+02 -0.1989E+02E
 Epicentro: ZAPATOCA - SANTANDER                                               3
 ACTION:UPD 18-01-04 13:21 OP:rebc STATUS:               ID:20171218225049 L   I
 OLDACT:REG 17-12-19 03:00 OP:lv   STATUS:               ID:20171218224744     3
 2017-12-18-2248-00M.COL___464                                                 6
 STAT SP IPHASW D HRMM SECON CODA AMPLIT PERI AZIMU VELO AIN AR TRES W  DIS CAZ7
 BAR2 EZ EP       2251  8.59                             171   -0.1910 22.1 178 
 BAR2 EZ ES       2251 24.05                             171    0.4010 22.1 178 
 PAM  EZ EP       2251 11.45                             149   -0.2310 81.1  42 
 PAM  EN ES       2251 28.58                             149   -0.2410 81.1  42 
 PAM  EZ I        2251 29.24         5.3 0.28            150           81.1  42 
 PTB  HZ EP       2251 15.75                             132   -0.12 9  143 259 
 PTB  HE ES       2251 36.27                             132   -0.01 9  143 259 
 PTB  HZ I        2251 38.86         3.4 0.14            130            143 259 
 ZAR  HZ EP       2251 22.08                             122    0.64 9  200 293 
 ZAR  HE ES       2251 45.91                             122   -0.28 9  200 293 
 ZAR  HZ I        2251 51.41         4.4 0.48            120            200 293 
 DRL03HN ES       2252  3.65                             112    0.19 7  289 354 
 GUY2CHZ EP   9   2251 36.26                             112    3.65 0  297 234 
 GUY2CHN ES       2252  8.66                                   -1.07 7  297 234 
 GUY2CHZ I        2252 15.24         2.4 0.22                           297 234 
 PRA  HZ EP   9   2251 42.65                             106   -0.06 0  389 209 
 PRA  HN ES       2252 24.14                                    0.15 6  389 209 
 PRA  HZ I        2252 30.75         2.5 0.62            105            389 209 
                                                                                
