 2017  218 2221 51.8 L   7.114 -73.343121.9  RSN  4 0.2 1.1LRSN                1
 GAP=162        0.56       3.5     2.6  5.2 -0.2351E+01  0.9357E+00  0.3845E+01E
 Epicentro: LEBRIJA - SANTANDER                                                3
 ACTION:UPD 17-05-24 15:37 OP:jn   STATUS:               ID:20170218222151 L   I
 OLDACT:UP  17-02-19 03:35 OP:and  STATUS:               ID:20170218221745d    3
 OLDACT:DUP 17-02-19 03:33 OP:and  STATUS:               ID:20170218221745d    3
 OLDACT:UP  17-02-19 03:32 OP:and  STATUS:               ID:20170218221744     3
 OLDACT:UP  17-02-19 03:31 OP:and  STATUS:               ID:20170218221744     3
 OLDACT:UP  17-02-19 03:30 OP:and  STATUS:               ID:20170218221744     3
 OLDACT:UP  17-02-19 03:29 OP:and  STATUS:               ID:20170218221744     3
 OLDACT:UP  17-02-19 03:28 OP:and  STATUS:               ID:20170218221744     3
 OLDACT:REG 17-02-19 02:32 OP:and  STATUS:               ID:20170218221744     3
 2017-02-18-2218-00M.COL___358                                                 6
 STAT SP IPHASW D HRMM SECON CODA AMPLIT PERI AZIMU VELO AIN AR TRES W  DIS CAZ7
 BRR  HZ IP     C 2222  8.74                             160    0.0010 40.8 269 
 BRR  HN ES       2222 22.29                             160    0.3010 40.8 269 
 PAM  EZ EP       2222 11.51                             147    0.1610 75.3  71 
 PAM  EN ES       2222 26.34                             147   -0.2910 75.3  71 
 PAM  EZ I        2222 29.78         2.6 0.24            150           75.3  71 
 RUS  HZ EP   2   2222 16.60                             128    0.03 5  138 168 
 RUS  HN ES       2222 36.01                             128    0.07 9  138 168 
 PTB  HZ EP       2222 16.02                             128    0.04 9  139 243 
 PTB  HN ES       2222 34.57                             128   -0.32 9  139 243 
 PTB  HZ I        2222 39.50         2.7 0.19            130            139 243 
                                                                                
