 2017 1218 2226 16.8 L   6.762 -73.167141.7  RSN  7 0.4 2.0LRSN                1
 GAP=146        0.82       3.4     3.9  5.3 -0.5151E+01  0.7589E+01 -0.1135E+01E
 Epicentro: LOS SANTOS - SANTANDER                                             3
 ACTION:UPD 18-01-04 13:21 OP:rebc STATUS:               ID:20171218222616 L   I
 OLDACT:REG 17-12-19 02:59 OP:lv   STATUS:               ID:20171218221741     3
 2017-12-18-2218-00M.COL___458                                                 6
 STAT SP IPHASW D HRMM SECON CODA AMPLIT PERI AZIMU VELO AIN AR TRES W  DIS CAZ7
 BAR2 EZ EP       2226 35.79                             172   -0.1010 18.9 185 
 BAR2 EZ ES       2226 51.04                             172    0.2910 18.9 185 
 BAR2 EZ I        2226 53.61        20.1 0.26            171           18.9 185 
 PAM  EZ EP       2226 38.81                             148   -0.1010 82.1  39 
 PAM  EN ES       2226 56.07                             148   -0.0610 82.1  39 
 PAM  EZ I        2226 58.46        10.6 0.48            151           82.1  39 
 PTB  HZ EP       2226 42.88                             132   -0.32 9  145 260 
 PTB  HN ES       2227  3.24                             132   -0.51 9  145 260 
 PTB  HZ I        2227  4.62         8.4 0.16            133            145 260 
 ZAR  HZ EP       2226 48.82                             121   -0.15 9  204 293 
 ZAR  HN ES       2227 14.52                             121    0.50 9  204 293 
 ZAR  HZ I        2227 18.56         8.4 0.26            123            204 293 
 ROSC BZ EP   4   2226 56.57                             116    2.36 0  248 211 
 DRL03HZ EP       2226 58.11                             112   -0.59 7  293 353 
 DRL03HN ES       2227 31.88                             112    0.54 7  293 353 
 GUY2CHZ EP       2227  0.37                             112    0.60 7  297 235 
 GUY2CHN ES       2227 33.12                             112   -0.14 7  297 235 
 GUY2CHZ I        2227 42.15         7.0 0.82                           297 235 
 PTGC HZ EP   4   2226 59.08                             111   -1.09 0  306 158 
 PTGC HN ES   4   2227 31.00                             111   -2.96 0  306 158 
 PRA  HZ EP       2227 10.03                             106    0.37 6  387 210 
 PRA  HE ES       2227 51.17                             106    0.32 6  387 210 
 PRA  HZ I        2227 58.12         3.9 0.44            107            387 210 
                                                                                
