 2016  318 2319  4.1 L   6.797 -73.175149.5  RSN  4 0.2 1.7LRSN                1
 GAP=142        0.52       3.0     3.1  5.0 -0.3990E+01  0.4029E+01 -0.5163E+00E
 Epicentro: LOS SANTOS - SANTANDER                                             3
 ACTION:UPD 16-05-13 21:25 OP:cam  STATUS:               ID:20160318231904 L   I
 OLDACT:REG 16-03-19 02:26 OP:drio STATUS:               ID:20160318230746     3
 2016-03-18-2307-46M.COL___331                                                 6
 STAT SP IPHASW D HRMM SECON CODA AMPLIT PERI AZIMU VELO AIN AR TRES W  DIS CAZ7
 PAM  EZ EP       2319 27.13                             151    0.2610 79.7  41 
 PAM  EN ES       2319 44.52                             151   -0.0910 79.7  41 
 PAM  EZ I        2319 46.62         7.0 0.60            155           79.7  41 
 RUS  HZ EP       2319 28.17                             145   -0.0610  101 174 
 RUS  HE ES       2319 46.97                             145   -0.0810  101 174 
 RUS  HZ I        2319 48.46         6.3 0.38            147            101 174 
 PTB  HZ EP       2319 30.73                             133   -0.38 9  145 259 
 PTB  HN ES       2319 52.27                             133    0.11 9  145 259 
 PTB  HZ I        2319 54.46         6.7 0.14            135            145 259 
 SPBC HZ EP       2319 32.83                             130    0.14 9  161 218 
 SPBC HN ES       2319 55.10                             130    0.11 9  161 218 
 SPBC HZ I        2320  0.17        13.3 0.24            132            161 218 
                                                                                
