 2015  218 2107  1.4 L   6.784 -73.152140.4  RSN 23 0.6 2.6LRSN                1
 GAP= 54        1.79       3.9     4.7  7.6 -0.3195E+01  0.1095E+02  0.4735E+01E
 Epicentro: LOS SANTOS - SANTANDER                                             3
 ACTION:UPD 15-04-30 21:27 OP:nd   STATUS:               ID:20150218210701 L   I
 OLDACT:REG 15-02-19 03:21 OP:stll STATUS:               ID:20150218205746     3
 2015-02-18-2057-46M.COL___293                                                 6
 STAT SP IPHASW D HRMM SECON CODA AMPLIT PERI AZIMU VELO AIN AR TRES W  DIS CAZ7
 BAR2 EZ EP       21 7 20.31                             171    0.0110 21.5 189 
 BAR2 EZ I        21 7 20.93        69.9 0.18            168           21.5 189 
 BAR2 EZ ES       21 7 35.25                             171    0.1810 21.5 189 
 BRR  HZ IP     C 21 7 22.31                             151    0.3810 71.5 300 
 BRR  HZ I        21 7 22.54        54.6 0.26            148           71.5 300 
 BRR  HE ES       21 7 38.38                             151    0.3910 71.5 300 
 PAM  SZ IP     C 21 7 23.24                             149    0.1310 79.2  39 
 PAM  SN ES       21 7 40.26                             149    0.1810 79.2  39 
 PAM  SZ I        21 7 42.26        38.1 0.46            152           79.2  39 
 RUS  HZ EP       21 7 24.31                             143   -0.1410 98.9 176 
 RUS  HN ES       21 7 42.48                             143    0.0110 98.9 176 
 RUS  HZ I        21 7 46.58        26.5 0.28            142           98.9 176 
 PTB  HZ EP       21 7 27.01                             131   -0.78 9  147 259 
 PTB  HN ES       21 7 48.26                             131   -0.15 9  147 259 
 PTB  HZ I        21 7 50.82        66.4 0.16            128            147 259 
 TAM  HZ EP       21 7 28.60                             129   -0.03 9  155 104 
 TAM  HN ES       21 7 49.73                             129   -0.17 9  155 104 
 SPBC HZ EP       21 7 29.41                             128    0.14 9  161 219 
 SPBC HE ES       21 7 51.17                             128    0.13 9  161 219 
 SPBC HZ I        21 7 58.91        84.1 0.16            126            161 219 
 OCA  HZ EP       21 7 29.01                             128   -0.40 9  162 353 
 OCA  HE ES       21 7 51.49                             128    0.20 9  162 353 
 OCA  HZ I        21 7 55.44        38.7 0.50            128            162 353 
 ZAR  HZ EP       21 7 33.08                             121   -0.37 9  204 293 
 ZAR  HE ES       21 7 58.28                             121   -0.21 9  204 293 
 ZAR  HZ I        21 8  4.95        53.1 0.40            119            204 293 
 NOR  HZ EP       21 7 36.26                             117   -0.34 8  233 235 
 NOR  HE ES       21 8  3.28                             117   -0.81 8  233 235 
 NOR  HZ I        21 8 10.07        42.8 0.28            116            233 235 
 SML  HZ EP       21 7 37.39                             116   -0.43 8  245 336 
 SML  HN ES       21 8  6.32                             116    0.05 8  245 336 
 SML  HZ I        21 8  7.76        29.7 0.12            115            245 336 
 CHI  HZ EP       21 7 38.58                             116    0.03 8  247 195 
 CHI  HE ES       21 8  7.09                             116   -0.47 8  247 195 
 CHI  HZ I        21 8 17.58        15.3 0.28            115            247 195 
 ROSC BZ EP       21 7 39.88                             116    0.91 8  251 211 
 ROSC BN ES       21 8 10.22                             116    1.90 8  251 211 
 ROSC BZ I        21 8 18.10        55.1 0.40            114            251 211 
 GUY2CHZ EP       21 7 45.35                             111    0.82 7  300 235 
 GUY2CHN ES       21 8 17.51                             111   -0.71 7  300 235 
 GUY2CHZ I        21 8 26.91        30.1 0.60                           300 235 
 SOCV BZ EP   9   21 7 42.96                             111   -1.37 0  303  57 
 SOCV BN ES       21 8 13.84                                   -2.65 7  303  57 
 PTGC HZ EP   9   21 7 43.51                             111   -1.30 0  307 158 
 PTGC HE ES       21 8 13.67                                   -3.74 7  307 158 
 RREF HZ EP       21 7 47.51                             110    0.44 7  320 230 
 RREF HN ES       21 8 22.76                             110    0.03 7  320 230 
 RREF HZ I        21 8 33.34        22.7 0.52            109            320 230 
 CBOC HZ EP       21 7 48.49                             109    0.58 7  332 252 
 CBOC HN ES       21 8 23.25                             109   -0.97 7  332 252 
 CBOC HZ I        21 8 30.68        11.6 0.66            108            332 252 
 DBB  SZ EP       21 7 47.76                             108   -0.79 7  339 275 
 DBB  SZ I        21 8 28.49        52.5 0.70            107            339 275 
 TOL  SZ EP       21 7 50.05                             108    0.86 7  342 225 
 TOL  SN ES       21 8 26.99                             108    0.48 7  342 225 
 ANIL HZ EP       21 7 51.05                             107    0.30 6  356 225 
 ANIL HE ES       21 8 28.89                             107   -0.39 6  356 225 
 ANIL HZ I        21 8 36.59         6.0 0.32            107            356 225 
 PRA  HZ EP       21 7 53.88                             106   -0.59 6  390 210 
 PRA  HN ES       21 8 35.65                             106   -0.25 6  390 210 
 PRA  HZ I        21 8 40.92        16.1 0.70            105            390 210 
 ORTC HZ EP       21 7 53.65                             105   -1.22 6  394 216 
 ORTC HE ES       21 8 37.05                             105    0.43 6  394 216 
 ORTC HZ I        21 8 44.00        13.6 0.72            105            394 216 
                                                                                
