 2016  618 2136 53.5 L   6.464 -73.717 92.4  RSN  8 0.4 1.8LRSN                1
 GAP=100        0.91       2.7     2.4  6.3 -0.1784E+01  0.4715E+01 -0.3019E+01E
 Epicentro: SANTA HELENA DEL OPON - SANTANDER                                  3
 ACTION:UPD 16-07-21 22:20 OP:rebc STATUS:               ID:20160618213653 L   I
 OLDACT:REG 16-06-19 03:04 OP:edw  STATUS:               ID:20160618212742     3
 2016-06-18-2127-42M.COL___352                                                 6
 STAT SP IPHASW D HRMM SECON CODA AMPLIT PERI AZIMU VELO AIN AR TRES W  DIS CAZ7
 BAR2 EZ EP       2137  8.87                             144    0.1510 60.8  76 
 BAR2 EZ ES       2137 21.13                             144    0.5110 60.8  76 
 BAR2 EZ I        2137 23.13        45.1 0.16                          60.8  76 
 PTB  HZ EP       2137  9.21                             135   -0.9110 82.2 276 
 PTB  HN ES       2137 23.11                             135   -0.0210 82.2 276 
 PTB  HZ I        2137 25.06        12.4 0.18                          82.2 276 
 RUS  HZ EP       2137 12.02                             131    0.1610 94.4 132 
 RUS  HE ES       2137 25.93                             131   -0.2910 94.4 132 
 RUS  HZ I        2137 27.94         6.8 0.18                          94.4 132 
 SPBC HZ EP   4   2136 44.48                             130   -27.2 0 98.0 204 
 SPBC HN ES   4   2137 24.88                             130   -0.99 0 98.0 204 
 PAM  EZ EP       2137 17.55                             118    0.17 9  148  49 
 PAM  EE ES       2137 35.63                             118   -0.40 9  148  49 
 NOR  HZ EP       2137 18.25                             115   -0.06 9  162 232 
 NOR  HN ES       2137 37.54                             115   -0.15 9  162 232 
 NOR  HZ I        2137 39.56        13.6 0.26                           162 232 
 ZAR  HZ EP       2137 19.26                             114    0.11 9  170 312 
 ZAR  HN ES       2137 39.44                             114    0.25 9  170 312 
 ZAR  HZ I        2137 43.31        11.8 0.20                           170 312 
 OCA  HZ EP       2137 22.77                             110   -0.15 9  201  13 
 OCA  HN ES       2137 45.96                             110    0.07 9  201  13 
 GUY2CHZ EP       2137 27.02                             108    0.53 8  228 233 
 GUY2CHE ES       2137 52.54                             108    0.29 8  228 233 
 GUY2CHZ I        2137 59.26         5.0 0.44                           228 233 
                                                                                
