 2012  218 2237  3.8 L   6.775 -73.130148.0  RSN  8 0.4 1.8LRSN                1
 GAP=140        0.87       4.1     5.0  7.1 -0.6496E+00  0.5551E+01  0.5984E+01E
 ACTION:UP  12-03-07 16:31 OP:epov STATUS:               ID:20120218223703 L   I
 2012-02-18-2230-00M.COL___188                                                 6
 STAT SP IPHASW D HRMM SECON CODA AMPLIT PERI AZIMU VELO AIN AR TRES W  DIS CAZ7
 BRR  HZ EP   1   2237 25.51                             152    0.17 7 74.0 300 
 BRR  HZ I    1   2237 42.61        13.1 0.15                          74.0 300 
 BRR  HN ES       2237 42.86                             152    0.7110 74.0 300 
 PAM  SZ EP   1   2237 26.46                             151    0.15 7 78.5  37 
 PAM  SZ I        2237 26.73        14.3 0.17                          78.5  37 
 PAM  SN ES   1   2237 43.55                             151   -0.32 7 78.5  37 
 RUS  HZ EP   1   2237 27.54                             145   -0.03 7 97.8 177 
 RUS  HN ES   1   2237 45.63                             145   -0.48 7 97.8 177 
 RUS  HZ I        2237 47.16         7.3 0.39                          97.8 177 
 PTB  HZ EP   1   2237 30.33                             132   -0.72 7  149 260 
 PTB  HN ES   2   2237 51.55                             132   -0.76 5  149 260 
 OCA  SZ EP   1   2237 32.39                             130   -0.16 7  163 353 
 ZAR  HZ EP   1   2237 36.91                             123    0.26 6  207 293 
 ZAR  HN ES   1   2238  1.55                             123   -0.73 6  207 293 
 ZAR  HZ I        2238  7.83         7.9 0.25                           207 293 
 NOR  SZ EP   1   2237 39.89                             119    0.26 6  235 235 
 NOR  SN ES   1   2238  7.58                             119   -0.01 6  235 235 
 CHI  HZ EP   1   2237 41.58                             118    0.20 6  246 196 
 CHI  HZ I        2237 44.38         3.8 0.44                           246 196 
 CHI  HN ES   1   2238 11.25                             118    0.55 6  246 196 
                                                                                
