 2011  118 2200 23.0 L   6.814 -73.208140.1  RSN  5 0.2 2.0LRSN                1
 GAP=162        0.40       2.4     7.8  5.0  0.5800E+01  0.3781E+01  0.5325E+00E
 Epicentro: ZAPATOCA - SANTANDER                                               3
 ACTION:UP  11-02-08 08:41 OP:pat  STATUS:               ID:20110118220023 L   I
 2011-01-18-2156-09S.COL___136                                                 6
 STAT SP IPHASW D HRMM SECON CODA AMPLIT PERI AZIMU VELO SNR AR TRES W  DIS CAZ7
 BAR2 SZ EP   1   22 0 42.01                             169     0.0 7   25 174 
 BAR2 SZ ES   2   22 0 56.98                             169     0.2 5   25 174 
 BAR2 SZ I        22 0 58.33        28.6 0.14                            25 174 
 RUS  HZ EP   1   22 0 46.63                             142     0.2 7  103 172 
 RUS  HN ES   2   22 1  4.21                             142    -0.4 5  103 172 
 RUS  HZ I        22 1  5.62        17.7 0.33                           103 172 
 OCA  SZ EP   1   22 0 50.68                             129     0.0 7  158 356 
 OCA  SZ ES   2   22 1 12.18                             129    -0.1 5  158 356 
 OCA  SZ I        22 1 17.13        18.5 0.40                           158 356 
 YOP  SZ EP   1   22 0 52.96                             124    -0.2 7  184 152 
 YOP  SE ES   2   22 1 16.79                             124     0.2 4  184 152 
 YOP  SZ I        22 1 20.69        10.4 0.62                           184 152 
 CHI  HZ EP   1   22 1  0.35                             116     0.0 6  248 194 
 CHI  HE ES   2   22 1 29.58                             116     0.0 4  248 194 
 CHI  HZ I        22 1 36.29         5.8 0.57                           248 194 
                                                                                
