 2011  618 2008 48.4 L   6.761 -73.117147.7  RSN  4 0.2 1.7LRSN                1
 GAP=237        0.56       6.3     7.8  6.9  0.1929E+02  0.5900E+00  0.6781E+01E
 Epicentro: LOS SANTOS - SANTANDER                                             3
 ACTION:UP  11-07-14 19:06 OP:ep   STATUS:               ID:20110618200848 L   I
 2011-06-18-2003-54S.COL___140                                                 6
 STAT SP IPHASW D HRMM SECON CODA AMPLIT PERI AZIMU VELO SNR AR TRES W  DIS CAZ7
 BAR2 SZ EP   1   20 9  7.96                             172    -0.2 7   20 201 
 BAR2 SZ I        20 9  8.28        10.7 0.09                            20 201 
 BAR2 SZ ES   1   20 9 23.44                             172    -0.2 7   20 201 
 BRR  HZ EP   1   20 9  9.84                             151    -0.2 7   76 300 
 BRR  HZ I        20 9 10.08        17.5 0.15                            76 300 
 BRR  HN ES   1   20 9 27.18                             151     0.3 7   76 300 
 RUS  HZ EP   1   20 9 12.33                             145     0.3 7   96 178 
 RUS  HN ES   2   20 9 30.60                             145     0.2 5   96 178 
 RUS  HZ I        20 9 31.41         4.2 0.44                            96 178 
 NOR  SN ES   2   20 9 52.02                             119    -0.2 4  235 236 
                                                                                
