 2010  318 2305 48.8 L   7.467 -73.113123.9  RSN  6 0.7 2.2LRSN                1
 GAP=125        1.48       8.4     9.9 13.5 -0.3884E+02 -0.4173E+02 -0.7241E+01E
 Epicentro: EL PLAYON - SANTANDER                                              3
 ACTION:UP  10-08-24 09:54 OP:vdl  STATUS:               ID:20100318230548 L   I
 2010-03-18-2305-43S.COL___098                                                 6
 STAT SP IPHASW D HRMM SECON CODA AMPLIT PERI AZIMU VELO SNR AR TRES W  DIS CAZ7
 BRR  HZ EP       23 6  7.62                             146    -0.410   77 239 
 BRR  HN ES       23 6 23.05                             146     0.010   77 239 
 BRR  HZ I        23 6 23.84        31.8 0.14                            77 239 
 OCA  SZ EP       23 6  9.35                             142     0.310   88 345 
 OCA  SZ I        23 6  9.77        46.5 0.14                            88 345 
 OCA  SZ ES   2   23 6 25.32                             142     0.5 5   88 345 
 BAR2 SZ EP       23 6  9.63                             139    -0.210   97 185 
 BAR2 SZ ES   1   23 6 25.92                             139    -0.3 7   97 185 
 SDV  BZ EP       23 6 33.39                             106     0.6 7  315  60 
 SDV  BZ I        23 6 35.09         5.8 0.08                           315  60 
 SDV  B2 ES   1   23 7  6.82                             106    -0.2 5  315  60 
 DBB  SZ EP   1   23 6 34.34                             105    -1.9 5  346 262 
 RREF BN ES       23 7 22.32                             103     1.4 6  376 221 
 RREF BZ I        23 7 27.35         3.5 0.15                           376 221 
                                                                                
