 2010  918 2147 45.0 L   6.799 -73.083144.3  RSN 21 0.5 3.7LRSN                1
 GAP=124        1.10       3.6     5.6  6.2 -0.8695E+01  0.5466E+01  0.3803E+01E
 Epicentro: LOS SANTOS - SANTANDER                                             3
 ACTION:UP  11-02-18 11:03 OP:tino STATUS:               ID:20100918214745 L   I
 2010-09-18-2144-46S.COL___121                                                 6
 STAT SP IPHASW D HRMM SECON CODA AMPLIT PERI AZIMU VELO SNR AR TRES W  DIS CAZ7
 BTL  SZ EP   1   2148  4.82                             170     0.3 7   24 303 
 BAR2 SZ IP       2148  4.65                             169     0.110   25 206 
 BAR2 SZ ES   1   2148 19.45                             169    -0.3 7   25 206 
 BAR2 SZ I        2148 21.08      1502.1 0.13                            25 206 
 GIR2 SZ EP       2148  4.76                             166     0.210   33 339 
 URB  SZ EP   1   2148  6.28                             158     0.9 7   56 330 
 BRR  HZ IP     C 2148  6.51                             150     0.110   77 296 
 BRR  HN ES   1   2148 23.18                             150     0.1 7   77 296 
 BRR  HZ I        2148 26.02       826.8 0.25                            77 296 
 RUS  HZ IP     C 2148  8.60                             143     0.010  100 180 
 RUS  HN ES   1   2148 26.80                             143    -0.2 7  100 180 
 RUS  HZ I        2148 28.74       412.7 0.17                           100 180 
 GUE  SZ EP   1   2148  8.62                             139    -0.9 7  115   9 
 GRA  SZ IP       2148 10.44                             137     0.410  124  14 
 GRA  SZ ES   1   2148 29.14                             137    -0.3 7  124  14 
 GRA  SZ I        2148 31.20       376.8 0.57                           124  14 
 OCA  SZ EP       2148 13.24                             129    -0.1 9  161 351 
 OCA  SZ ES   1   2148 35.25                             129    -0.2 7  161 351 
 OCA  SZ I        2148 38.20       616.7 0.28                           161 351 
 NOR  HZ EP       2148 20.54                             117    -0.8 8  240 236 
 NOR  HN ES   1   2148 48.81                             117    -0.8 6  240 236 
 CHI  HZ EP       2148 22.90                             116     0.0 8  250 197 
 CHI  HN ES   1   2148 51.97                             116    -0.4 6  250 197 
 CHI  HZ I        2148 59.39       300.5 0.54                           250 197 
 ROSC BZ IP     C 2148 24.38                             116     0.9 8  256 212 
 ROSC BE ES   1   2148 53.09                             116    -0.3 6  256 212 
 ROSC BZ I        2149  3.13       281.0 0.21                           256 212 
 CVER SZ EP       2148 26.23                             114     0.6 8  275 204 
 CVER SZ I        2148 27.82       492.8 0.48                           275 204 
 HEL  HZ EP       2148 25.37                             114    -0.6 7  279 256 
 HEL  HN ES   1   2148 58.42                             114     0.6 6  279 256 
 HEL  HZ I        2149  4.46       230.1 0.54                           279 256 
 GUY  SZ EP   1   2148 29.20                             111     0.0 5  307 236 
 GUY  SZ I        2149 13.49       749.5 0.26                           307 236 
 RREF HZ EP       2148 32.01                             110     0.3 7  327 230 
 RREF HN ES   1   2149  7.78                             110    -0.3 5  327 230 
 RREF HZ I        2149 17.10       269.5 0.36                           327 230 
 DBB  SZ EP       2148 32.54                             109    -0.7 6  346 274 
 TOL  SZ EP   1   2148 34.27                             109     0.5 5  348 225 
 SDV  BZ EP       2148 34.20                             108    -0.2 6  355  49 
 SDV  BZ I        2148 34.99       104.4 0.18                           355  49 
 ANIL HZ EP       2148 35.47                             108     0.1 6  362 225 
 ANIL HZ ES   1   2149 15.29                             108     0.7 5  362 225 
 ANIL HZ I        2149 21.06       454.5 0.33                           362 225 
 GUA  SZ EP   1   2148 47.04                             103    -1.0 4  473 174 
                                                                                
