 2011 1018 2357 53.9 L   6.786 -73.183138.2  RSN  4 0.3 1.2LRSN                1
 GAP=133        0.49       4.7     4.5  8.0  0.8582E+01  0.9752E+01  0.6155E+01E
 Epicentro: LOS SANTOS - SANTANDER                                             3
 ACTION:UPD 12-07-13 16:04 OP:ep   STATUS:               ID:20111018235753 L   I
 2011-10-18-2354-17S.COL___153                                                 6
 STAT SP IPHASW D HRMM SECON CODA AMPLIT PERI AZIMU VELO AIN AR TRES W  DIS CAZ7
 BRR  HZ EP   1   2358 14.16                             152    0.12 7 68.4 301 
 BRR  HN ES   2   2358 30.29                             152    0.51 5 68.4 301 
 PAM  SZ EP   2   2358 15.34                             148   -0.19 5 81.3  41 
 PAM  SN ES   2   2358 32.26                             148   -0.17 5 81.3  41 
 PAM  SZ I        2358 34.16         2.0 0.37                          81.3  41 
 RUS  HZ EP   1   2358 16.97                             142    0.18 7 99.4 174 
 RUS  HN ES   2   2358 34.38                             142   -0.29 5 99.4 174 
 RUS  HZ I        2358 36.01         2.8 0.28                          99.4 174 
 ZAR  HZ EP   2   2358 25.71                             121    0.22 4  201 293 
 ZAR  HN ES   1   2358 49.75                             121   -0.41 6  201 293 
 ZAR  HZ I        2358 54.27         3.1 0.24                           201 293 
                                                                                
