 2012  918 2351 24.8 L   6.731 -73.137144.0  RSN  5 0.4 1.3LRSN                1
 GAP=233        0.74       9.0     9.8  9.2  0.6560E+02  0.1363E+02  0.1295E+01E
 Epicentro: JORDAN - SANTANDER                                                 3
 ACTION:UPD 12-10-22 14:19 OP:ep   STATUS:               ID:20120918235124 L   I
 2012-09-18-2350-00M.COL___227                                                 6
 STAT SP IPHASW D HRMM SECON CODA AMPLIT PERI AZIMU VELO AIN AR TRES W  DIS CAZ7
 BAR2 SZ ES   1   2351 58.72                             173   -0.43 7 16.1 198 
 BRR  HZ EP   1   2351 45.57                             150   -0.47 7 76.0 303 
 BRR  HZ I        2351 48.47         6.0 0.42                          76.0 303 
 BRR  HN ES   1   2352  2.98                             150    0.37 7 76.0 303 
 RUS  HZ EP   1   2351 48.08                             145    0.24 7 92.9 176 
 RUS  HZ I        2351 48.99         1.5 0.10                          92.9 176 
 RUS  HN ES   1   2352  6.06                             145    0.26 7 92.9 176 
 PTB  HN ES   2   2352 11.89                             131   -0.61 5  147 262 
 PTB  HN I        2352 12.12         2.4 0.36                           147 262 
 ZAR  HN ES   1   2352 23.44                             121    0.37 6  208 294 
 ZAR  HZ I        2352 28.72         3.6 0.34                           208 294 
                                                                                
