 2015  318 2318 35.4 L   6.792 -73.114144.1  RSN  7 0.4 1.6LRSN                1
 GAP=141        0.81       4.0     3.9  5.9  0.2331E+01  0.4479E+01 -0.2254E+01E
 Epicentro: LOS SANTOS - SANTANDER                                             3
 ACTION:UPD 15-04-30 16:27 OP:nd   STATUS:               ID:20150318231835 L   I
 OLDACT:DUP 15-03-19 06:20 OP:spq  STATUS:               ID:20150318230753d    3
 2015-03-18-2307-48M.COL___281                                                 6
 STAT SP IPHASW D HRMM SECON CODA AMPLIT PERI AZIMU VELO AIN AR TRES W  DIS CAZ7
 BAR2 EZ EP       2318 54.68                             170   -0.1410 23.3 199 
 BAR2 EZ ES   1   2319  9.36                             170   -0.61 7 23.3 199 
 BAR2 EZ I        2319 10.86         5.4 0.20            172           23.3 199 
 BRR  HZ EP   1   2318 56.84                             151    0.28 7 74.7 298 
 BRR  HN ES       2319 13.38                             151    0.3010 74.7 298 
 BRR  HZ I        2319 17.13         7.7 0.30            150           74.7 298 
 PAM  SZ EP       2318 57.68                             151    0.3410 75.9  37 
 PAM  SN ES       2319 14.47                             151    0.0110 75.9  37 
 PAM  SZ I        2319 16.53        11.3 0.52            152           75.9  37 
 RUS  HZ EP       2318 59.10                             144    0.2010 99.5 178 
 RUS  HE ES   1   2319 17.15                             144   -0.08 7 99.5 178 
 RUS  HZ I        2319 18.82         3.9 0.40            147           99.5 178 
 PTB  HE ES   1   2319 23.26                             131   -0.43 7  151 259 
 PTB  HZ I        2319 25.59         5.7 0.42            132            151 259 
 ZAR  HZ EP       2319  7.99                             121   -0.11 8  208 292 
 ZAR  HE ES       2319 34.06                             121    0.44 8  208 292 
 ZAR  HZ I        2319 36.46         3.8 0.34            123            208 292 
 SML  HZ EP   1   2319 11.32                             117   -0.85 6  246 335 
 SML  HE ES   1   2319 40.28                             117   -0.59 6  246 335 
 SML  HZ I        2319 45.65         6.0 0.10            118            246 335 
                                                                                
