 2015  118 2330 30.8 L   6.566 -73.590115.4  RSN  7 0.5 1.6LRSN                1
 GAP= 99        1.22       5.5     4.9 10.4  0.3393E+01  0.1677E+02  0.2676E+02E
 Epicentro: EL CARMEN - SANTANDER                                              3
 ACTION:UPD 15-03-02 15:40 OP:nd   STATUS:               ID:20150118233030 L   I
 OLDACT:REG 15-01-19 02:59 OP:fm   STATUS:               ID:20150118232750     3
 2015-01-18-2327-50M.COL___256                                                 6
 STAT SP IPHASW D HRMM SECON CODA AMPLIT PERI AZIMU VELO AIN AR TRES W  DIS CAZ7
 BAR2 EZ EP       2330 47.85                             157    0.2910 45.1  86 
 BAR2 EZ ES       2331  0.28                             157   -0.3710 45.1  86 
 BAR2 EZ I        2331  1.75        19.3 0.42            162           45.1  86 
 BRR  HE ES       2331  2.36                             150    0.7610 61.3 347 
 BRR  HZ I        2331  9.06         4.8 0.36            151           61.3 347 
 RUS  HZ EP       2330 50.90                             139   -0.1610 93.2 143 
 RUS  HN ES       2331  6.57                             139   -0.3210 93.2 143 
 PTB  HZ EP       2330 50.76                             137    0.1410 95.9 268 
 PTB  HE ES       2331  5.51                             137   -0.6010 95.9 268 
 PTB  HZ I        2331  7.00        12.6 0.18            139           95.9 268 
 SPBC HN ES   1   2331  9.30                             132    0.16 7  114 208 
 SPBC HZ I        2331 12.05         8.3 0.24            136            114 208 
 NOR  HZ EP       2330 58.08                             118   -0.77 9  180 232 
 NOR  HN ES       2331 21.07                             118    0.31 9  180 232 
 NOR  HZ I        2331 24.46         5.7 0.16            121            180 232 
 CHI  HE ES       2331 29.17                             114    0.79 8  215 184 
                                                                                
