 2017  118 2007 18.9 L   5.980 -73.774110.4  RSN  6 0.2 1.5LRSN                1
 GAP=152        0.52       2.5     2.1  4.8 -0.2553E+01  0.3415E+01 -0.2630E+01E
 Epicentro: BOLIVAR - SANTANDER                                                3
 ACTION:UPD 17-05-22 16:01 OP:jn   STATUS:               ID:20170118200718 L   I
 OLDACT:UP  17-01-19 03:11 OP:and  STATUS:               ID:20170118195746     3
 OLDACT:UP  17-01-19 03:10 OP:and  STATUS:               ID:20170118195746     3
 OLDACT:REG 17-01-19 02:41 OP:and  STATUS:               ID:20170118195746     3
 2017-01-18-1958-00M.COL___337                                                 6
 STAT SP IPHASW D HRMM SECON CODA AMPLIT PERI AZIMU VELO AIN AR TRES W  DIS CAZ7
 RUS  HZ EP       20 7 37.21                             143   -0.3110 77.1  97 
 RUS  HE ES       20 7 52.17                             143    0.1610 77.1  97 
 RUS  HZ I        20 7 55.67         2.8 0.32            147           77.1  97 
 BAR2 EZ EP       20 7 38.29                             137   -0.2210 94.2  44 
 BAR2 EZ ES       20 7 53.81                             137    0.0310 94.2  44 
 BAR2 EZ I        20 7 55.29        15.4 0.15            142           94.2  44 
 PTB  HZ EP       20 7 38.38                             135   -0.1210 97.6 309 
 PTB  HN ES   4   20 7 52.62                             135   -1.14 0 97.6 309 
 PTB  HZ I        20 7 56.25         4.5 0.18            140           97.6 309 
 BRR  HZ EP       20 7 40.89                             128   -0.0810  125   3 
 BRR  HN ES       20 7 58.17                             128    0.0110  125   3 
 NOR  HZ EP       20 7 41.77                             126    0.2510  130 249 
 NOR  HN ES       20 7 59.12                             126   -0.0110  130 249 
 NOR  HZ I        20 8  0.47        14.0 0.22            131            130 249 
 PAM  EZ EP       20 7 48.94                             115    0.35 9  192  38 
 PAM  EN ES       20 8 11.77                             115    0.05 9  192  38 
                                                                                
