 2010  518 2214 15.1 L   6.771 -73.075144.7  RSN  9 0.5 2.6LRSN                1
 GAP=181        0.93       5.9    11.5  9.6 -0.3727E+02  0.1901E+01  0.1660E+02E
 Epicentro: LOS SANTOS - SANTANDER                                             3
 ACTION:UP  10-08-24 10:05 OP:vdl  STATUS:               ID:20100518221415 L   I
 2010-05-18-2214-22S.COL___108                                                 6
 STAT SP IPHASW D HRMM SECON CODA AMPLIT PERI AZIMU VELO SNR AR TRES W  DIS CAZ7
 BAR2 SZ EP   1   2214 34.43                             170    -0.2 7   23 211 
 BAR2 SZ ES   2   2214 48.94                             170    -0.9 5   23 211 
 BRR  HZ EP   1   2214 36.90                             150     0.3 7   80 298 
 BRR  HE ES   2   2214 54.08                             150     0.6 5   80 298 
 BRR  HZ I        2214 57.61        68.2 0.14                            80 298 
 BRI  SZ EP   1   2214 39.76                             141     0.8 7  109  16 
 BRI  SZ ES   2   2214 57.70                             141     0.2 5  109  16 
 GUE  SZ EP   1   2214 40.23                             139     0.4 7  118   8 
 GUE  SZ ES   2   2214 59.90                             139     0.7 5  118   8 
 GRA  SZ EP   1   2214 40.07                             137    -0.3 7  127  14 
 GRA  SZ ES   2   2214 59.26                             137    -0.8 5  127  14 
 OCA  SZ EP   1   2214 42.77                             129    -1.0 7  165 351 
 OCA  SZ ES   2   2215  5.69                             129    -0.4 5  165 351 
 OCA  SZ I        2215  8.39        43.0 0.17                           165 351 
 CHI  HZ EP   1   2214 52.71                             117     0.1 6  248 197 
 CHI  HE ES   2   2215 22.20                             117     0.3 4  248 197 
 CHI  HZ I        2215 25.84        15.6 0.68                           248 197 
 HEL  HZ EP   1   2214 55.93                             114    -0.1 6  279 257 
 PRA  HZ EP   1   2215  8.45                             106    -0.3 4  393 211 
 PRA  HE ES   2   2215 50.69                             106     0.2 3  393 211 
 PRA  HZ I        2215 57.33        15.5 0.36                           393 211 
                                                                                
