 2012  718 2218 46.3 L   6.764 -73.158144.2  RSN  5 0.3 1.4LRSN                1
 GAP=137        0.80       5.2     5.1  7.0  0.1015E+01  0.6031E+00  0.5736E+01E
 Epicentro: LOS SANTOS - SANTANDER                                             3
 ACTION:UPD 12-08-14 11:45 OP:ep   STATUS:               ID:20120718221846 L   I
 2012-07-18-2210-00M.COL___196                                                 6
 STAT SP IPHASW D HRMM SECON CODA AMPLIT PERI AZIMU VELO AIN AR TRES W  DIS CAZ7
 BAR2 SZ EP       2219  5.81                             172     0.110   19 188 
 BAR2 SZ ES   1   2219 20.93                             172     0.1 7   19 188 
 BAR2 SZ I        2219 23.65         4.5 0.16            170             19 188 
 BRR  HZ EP       2219  7.55                             152     0.210   72 302 
 BRR  HZ I        2219  9.07         9.8 0.10            154             72 302 
 BRR  HE ES       2219 24.09                             152     0.310   72 302 
 PAM  SZ EP   1   2219  8.56                             149    -0.1 7   81  39 
 PAM  SE ES   1   2219 25.51                             149    -0.5 7   81  39 
 RUS  HZ EP       2219  9.91                             145     0.210   97 175 
 RUS  HN ES   1   2219 27.65                             145    -0.2 7   97 175 
 RUS  HZ I        2219 30.67         3.5 0.39            144             97 175 
 PTB  HZ EP   1   2219 12.53                             132    -0.5 7  146 260 
 PTB  HE ES   1   2219 33.30                             132    -0.5 7  146 260 
 PTB  HZ I        2219 35.72         3.0 0.09            133            146 260 
