 2012  118 2300 47.7 L   6.847 -73.283123.5  RSN 11 0.4 2.2LRSN                1
 GAP=109        0.85       3.1     4.3  6.0 -0.3363E+01  0.7769E+01  0.8821E+00E
 Epicentro: ZAPATOCA - SANTANDER                                               3
 ACTION:UP  12-02-03 08:18 OP:REBC STATUS:               ID:20120118230047 L   I
 2012-01-18-2300-00M.COL___187                                                 6
 STAT SP IPHASW D HRMM SECON CODA AMPLIT PERI AZIMU VELO SNR AR TRES W  DIS CAZ7
 BAR2 SZ EP   1   23 1  4.99                             166     0.1 7   30 158 
 BAR2 SZ ES   1   23 1 18.25                             166     0.0 7   30 158 
 BAR2 SZ I        23 1 19.47       134.4 0.37                            30 158 
 BRR  HZ EP       23 1  5.54                             154     0.010   55 301 
 BRR  HE ES   1   23 1 19.64                             154     0.1 7   55 301 
 BRR  HZ I        23 1 23.78        44.0 0.15                            55 301 
 PAM  SZ EP   1   23 1  8.13                             144     0.0 7   84  50 
 PAM  SN ES   1   23 1 24.45                             144     0.4 7   84  50 
 RUS  HZ EP   1   23 1  9.66                             137    -0.3 7  108 168 
 RUS  HN ES   1   23 1 26.95                             137    -0.3 7  108 168 
 RUS  HZ I        23 1 29.34        12.5 0.37                           108 168 
 PTB  HE ES   1   23 1 30.64                             129     0.3 7  134 255 
 OCA  SZ EP       23 1 13.79                             125     0.0 9  154 359 
 OCA  SZ ES   1   23 1 33.35                             125    -0.7 7  154 359 
 OCA  SZ I        23 1 34.92        50.4 0.25                           154 359 
 ZAR  HZ EP   1   23 1 17.07                             119     0.0 7  188 292 
 NOR  SZ EP   1   23 1 20.83                             114    -0.4 6  226 231 
 NOR  SN ES   1   23 1 46.59                             114    -0.8 6  226 231 
 CHI  HZ EP   1   23 1 24.69                             112     0.2 6  250 191 
 CHI  HN ES   1   23 1 53.20                             112     0.1 6  250 191 
 CHI  HZ I        23 2  0.76         3.6 0.68                           250 191 
 HEL  HZ EP   1   23 1 26.32                             111     1.0 6  259 254 
 HEL  HZ I        23 2  0.38        10.4 0.20                           259 254 
 RREF HN ES   1   23 2  6.94                             107     0.3 5  314 227 
 RREF HZ I        23 2 15.37         5.6 0.35                           314 227 
                                                                                
