 2010 1018 2114 45.6 L   6.848 -72.997141.7  RSN  7 0.2 2.0LRSN                1
 GAP=198        0.44       2.1     5.6  4.0  0.2458E+01 -0.2150E+01  0.1075E-01E
 Epicentro: CEPITA - SANTANDER                                                 3
 ACTION:UP  11-02-18 11:10 OP:tino STATUS:               ID:20101018211445 L   I
 2010-10-18-2112-13S.COL___123                                                 6
 STAT SP IPHASW D HRMM SECON CODA AMPLIT PERI AZIMU VELO SNR AR TRES W  DIS CAZ7
 BAR2 SZ EP   1   2115  4.94                             165    -0.1 7   35 216 
 BAR2 SZ ES   1   2115 20.22                             165     0.0 7   35 216 
 BAR2 SZ I        2115 21.97        24.1 0.51                            35 216 
 BRR  HZ IP     C 2115  7.19                             147     0.110   84 290 
 BRR  HZ I        2115  7.54        37.0 0.15                            84 290 
 BRR  HN ES   1   2115 24.11                             147     0.2 7   84 290 
 RUS  HZ EP       2115  9.56                             141     0.210  106 185 
 RUS  HE ES   1   2115 27.73                             141    -0.2 7  106 185 
 RUS  HZ I        2115 29.49         7.5 0.44                           106 185 
 OCA  SZ EP   1   2115 13.56                             129     0.2 7  158 347 
 OCA  SZ ES   1   2115 34.74                             129    -0.3 7  158 347 
 OCA  SZ I        2115 39.81        18.5 0.16                           158 347 
 CHI  HZ EP   2   2115 24.02                             115    -0.2 4  258 198 
 CHI  HE ES   2   2115 54.26                             115     0.0 4  258 198 
 CHI  HZ I        2115 58.56         3.6 0.24                           258 198 
 ROSC BZ EP   2   2115 25.12                             114     0.1 4  266 213 
 ROSC BE ES   2   2115 55.34                             114    -0.3 4  266 213 
 ROSC BZ I        2116  2.79         4.6 0.65                           266 213 
 HEL  HZ EP   2   2115 27.25                             112    -0.3 4  289 256 
 HEL  HZ I        2116  4.72         4.9 0.24                           289 256 
                                                                                
