 2010  718 2219 43.9 L   6.574 -73.387114.6  RSN  8 0.3 1.9LRSN                1
 GAP=104        0.80       4.3     6.5  7.2 -0.1470E+01  0.1105E+02 -0.5261E+01E
 Epicentro: HATO - SANTANDER                                                   3
 ACTION:UPD 10-12-01 15:18 OP:pat  STATUS:               ID:20100718221943 L   I
 2010-07-18-2218-06S.COL___120                                                 6
 STAT SP IPHASW D HRMM SECON CODA AMPLIT PERI AZIMU VELO AIN AR TRES W  DIS CAZ7
 BAR2 SZ EP       2220  0.21                             168     0.410   23  85 
 BAR2 SZ ES   1   2220 11.64                             168    -0.5 7   23  85 
 BAR2 SZ I        2220 13.90        35.1 0.15                            23  85 
 GIR2 SZ EP       2220  1.60                             151     0.310   60  21 
 GIR2 SZ ES   2   2220 15.53                             151     0.7 5   60  21 
 BRR  HZ EP       2220  1.54                             147    -0.110   69 329 
 BRR  HE ES   2   2220 15.39                             147    -0.1 5   69 329 
 BRR  HZ I        2220 17.61        38.3 0.18                            69 329 
 RUS  HZ EP       2220  3.44                             142     0.110   83 156 
 RUS  HZ I        2220  4.04        11.0 0.10                            83 156 
 RUS  HN ES   2   2220 18.05                             142    -0.4 5   83 156 
 GUE  SZ EP       2220  8.52                             124    -0.4 9  148  20 
 GUE  SZ I        2220 29.24         7.4 0.13                           148  20 
 GRA  SZ EP   2   2220  9.39                             122    -0.4 5  159  24 
 GRA  SZ ES   2   2220 30.04                             122     0.0 5  159  24 
 GRA  SZ I        2220 33.34         7.1 0.22                           159  24 
 OCA  SZ EP   2   2220 12.52                             117     0.0 4  184   2 
 OCA  SZ ES   2   2220 34.77                             117    -0.1 4  184   2 
 OCA  SZ I        2220 40.20        11.9 0.12                           184   2 
 HEL  HZ EP   2   2220 18.99                             111    -0.1 4  241 260 
 HEL  HN ES   2   2220 46.53                             111    -0.1 4  241 260 
 HEL  HZ I        2220 49.47         6.0 0.57                           241 260 
                                                                                
