 2013 1118 2249 20.9 L   6.798 -73.152143.6  RSN 14 0.6 2.3LRSN 2.9WRSN        1
 SPEC AVERAGE  MO 13.5 ST224.4 OM  1.5 f0 17.0 R1.4379 AL 0.00 WI 20.0 MW  2.9 3
 SPEC SD       MO  0.4 ST335.3 OM  0.5 f0 14.2 R4.0001 AL      WI      MW  0.3 3
 GAP=119        1.34       3.6     4.1  6.3 -0.5635E+01  0.5749E+01 -0.1667E+01E
 Epicentro: LOS SANTOS - SANTANDER                                             3
 SPEC BAR2SH Z MO 13.3 ST 91.8 OM  1.5 f0 19.0 R0.1013 AL-0.00 WI 20.0 MW  2.8 3
 SPEC BAR2SH Z T224953 K 0.050 GD  145 VS 5.20 DE 3.20 Q0750.0 QA 1.50 VS 5.20 3
 SPEC BRR HH Z MO 13.4 ST 22.4 OM  1.5 f0 11.5 R0.1673 AL-0.00 WI 20.0 MW  2.9 3
 SPEC BRR HH Z T224957 K 0.050 GD  160 VS 5.20 DE 3.20 Q0750.0 QA 1.50 VS 5.20 3
 SPEC PAM SH Z MO 13.2 ST  2.9 OM  1.3 f0 6.73 R0.2859 AL-0.00 WI 20.0 MW  2.7 3
 SPEC PAM SH Z T224958 K 0.050 GD  163 VS 5.20 DE 3.20 Q0750.0 QA 1.50 VS 5.20 3
 SPEC RUS HH Z MO 13.4 ST0.836 OM  1.5 f0 3.73 R0.5158 AL-0.00 WI 20.0 MW  2.9 3
 SPEC RUS HH Z T2250 1 K 0.050 GD  174 VS 5.20 DE 3.20 Q0750.0 QA 1.50 VS 5.20 3
 SPEC PTB HH Z MO 13.3 ST763.9 OM  1.3 f0 40.0 R0.0481 AL-0.00 WI 20.0 MW  2.8 3
 SPEC PTB HH Z T2250 6 K 0.050 GD  205 VS 5.20 DE 3.20 Q0750.0 QA 1.50 VS 5.20 3
 SPEC OCA HH Z MO 14.9 ST0.001 OM  2.9 f00.131 R 14.69 AL-0.00 WI 20.0 MW  3.9 3
 SPEC OCA HH Z T2250 9 K 0.050 GD  214 VS 5.20 DE 3.20 Q0750.0 QA 1.50 VS 5.20 3
 SPEC SPBCHH Z MO 13.3 ST559.7 OM  1.3 f0 35.4 R0.0544 AL-0.00 WI 20.0 MW  2.8 3
 SPEC SPBCHH Z T2250 9 K 0.050 GD  217 VS 5.20 DE 3.20 Q0750.0 QA 1.50 VS 5.20 3
 SPEC ZAR HH Z MO 13.4 ST215.7 OM  1.3 f0 24.6 R0.0782 AL-0.00 WI 20.0 MW  2.9 3
 SPEC ZAR HH Z T225017 K 0.050 GD  249 VS 5.20 DE 3.20 Q0750.0 QA 1.50 VS 5.20 3
 SPEC NOR HH Z MO 13.1 ST 34.6 OM  1.0 f0 16.3 R0.1180 AL-0.00 WI 20.0 MW  2.7 3
 SPEC NOR HH Z T225022 K 0.050 GD  274 VS 5.20 DE 3.20 Q0750.0 QA 1.50 VS 5.20 3
 SPEC SML HH Z MO 13.5 ST999.9 OM  1.4 f0 40.0 R0.0481 AL-0.00 WI 20.0 MW  3.0 3
 SPEC SML HH Z T225023 K 0.050 GD  283 VS 5.20 DE 3.20 Q0750.0 QA 1.50 VS 5.20 3
 SPEC HEL HH Z MO 13.3 ST0.932 OM  1.1 f0 4.36 R0.4413 AL-0.00 WI 20.0 MW  2.8 3
 SPEC HEL HH Z T225030 K 0.050 GD  306 VS 5.20 DE 3.20 Q0750.0 QA 1.50 VS 5.20 3
 SPEC RREFHH Z MO 13.4 ST0.323 OM  1.2 f0 2.71 R0.7100 AL-0.00 WI 20.0 MW  2.9 3
 SPEC RREFHH Z T225040 K 0.050 GD  351 VS 5.20 DE 3.20 Q0750.0 QA 1.50 VS 5.20 3
 2013-11-18-2248-17M.COL___219                                                 6
 OLDACT:REG 13-11-19 00:28 OP:stll STATUS:               ID:20131118224817     3
 ACTION:UPD 14-01-09 16:29 OP:ep   STATUS:               ID:20131118224920 L   I
 OLDACT:UP  13-11-19 02:12 OP:stll STATUS:               ID:20131118224817     3
 STAT SP IPHASW D HRMM SECON CODA AMPLIT PERI AZIMU VELO AIN AR TRES W  DIS CAZ7
 BAR2 SZ IP     D 2249 40.35                             170    0.0610 23.0 188 
 BAR2 SZ ES       2249 55.11                             170   -0.2810 23.0 188 
 BAR2 SZ I        2249 57.59        67.1 0.20            169           23.0 188 
 BRR  HZ IP     C 2249 42.27                             152    0.4610 70.7 299 
 BRR  HN ES       2249 58.83                             152    0.7310 70.7 299 
 BRR  SZ I        2250  0.50        30.0 0.18            150           70.7 299 
 PAM  SZ EP       2249 43.10                             150    0.1510 78.0  40 
 PAM  SN ES       2250  0.25                             150    0.1310 78.0  40 
 PAM  SZ I        2250  2.72        19.0 0.46            154           78.0  40 
 RUS  HZ EP       2249 44.24                             143   -0.2110  100 176 
 RUS  HN ES       2250  2.67                             143   -0.1310  100 176 
 RUS  SZ I        2250  3.68        12.4 0.20            146            100 176 
 PTB  HZ EP       2249 47.52                             132   -0.14 9  147 259 
 PTB  HE ES       2250  7.73                             132   -0.77 9  147 259 
 PTB  SZ I        2250 13.72        29.3 0.56            131            147 259 
 CAPV BZ IP     D 2249 49.74                             131    1.54 9  150  38 
 CAPV BZ ES       2250  9.39                             131   -0.08 9  150  38 
 OCA  HZ EP       2249 48.81                             129   -0.27 9  160 353 
 OCA  HE ES       2250 10.53                             129   -0.51 9  160 353 
 OCA  SZ I        2250 13.92        12.5 0.16            131            160 353 
 SPBC HZ EP       2249 49.48                             129    0.28 9  163 219 
 SPBC HN ES       2250 11.09                             129   -0.17 9  163 219 
 SPBC SZ I        2250 18.11        28.6 0.48            129            163 219 
 ZAR  HZ EP       2249 53.18                             122    0.00 9  204 292 
 ZAR  HN ES       2250 18.68                             122    0.35 9  204 292 
 ZAR  SZ I        2250 25.13        28.7 0.34            122            204 292 
 NOR  HZ EP       2249 56.54                             118    0.08 8  234 234 
 NOR  HE ES       2250 24.27                             118    0.10 8  234 234 
 NOR  SZ I        2250 30.25        15.2 0.18            119            234 234 
 SML  HZ EP       2249 56.65                             117   -0.78 8  244 335 
 SML  HE ES       2250 25.49                             117   -0.40 8  244 335 
 SML  SZ I        2250 30.70        26.2 0.08            118            244 335 
 HEL  HZ EP       2250  1.80                             114    0.85 8  271 256 
 HEL  HN ES       2250 32.15                             114   -0.02 8  271 256 
 HEL  SZ I        2250 38.81        12.8 0.42            115            271 256 
 SOCV BZ EP       2250  2.44                             112   -1.52 7  302  57 
 RREF HZ EP       2250  7.38                             110    0.48 7  321 229 
 RREF HN ES       2250 42.00                             110   -0.76 7  321 229 
 RREF SZ I        2250 51.25         9.7 0.28            111            321 229 
                                                                                
