 2011 1018 2014 42.0 L   6.799 -73.126150.0  RSN  4 0.1 1.6LRSN                1
 GAP=139        0.34       2.2     3.6  4.2  0.2066E+00 -0.4874E+00 -0.3263E-01E
 Epicentro: LOS SANTOS - SANTANDER                                             3
 ACTION:UPD 12-07-13 16:04 OP:ep   STATUS:               ID:20111018201442 L   I
 2011-10-18-2012-37S.COL___153                                                 6
 STAT SP IPHASW D HRMM SECON CODA AMPLIT PERI AZIMU VELO AIN AR TRES W  DIS CAZ7
 BAR2 SZ EP   1   2015  2.06                             171   -0.04 8 23.7 195 
 BAR2 SZ I        2015 18.10        15.5 0.22                          23.7 195 
 BRR  HZ EP   1   2015  3.58                             153   -0.08 8 73.1 298 
 BRR  HZ I        2015  3.75        16.3 0.12                          73.1 298 
 BRR  HE ES   1   2015 20.65                             153    0.05 8 73.1 298 
 PAM  SZ EP   1   2015  4.75                             152    0.21 8 76.1  38 
 PAM  SN ES   1   2015 22.05                             152   -0.11 8 76.1  38 
 PAM  SZ I        2015 24.10         2.5 0.46                          76.1  38 
 RUS  HZ EP   1   2015  6.01                             145   -0.10 7  100 177 
 RUS  HN ES       2015 24.98                             145    0.0410  100 177 
 RUS  HZ I        2015 25.43         3.3 0.29                           100 177 
                                                                                
