 2013  618 2055  1.9 L   6.874 -73.317122.7  RSN  9 0.4 2.6LRSN                1
 GAP= 75        0.94       3.2     3.9  6.1  0.1773E+01  0.1145E+01 -0.8955E+00E
 Epicentro: BETULIA - SANTANDER                                                3
 ACTION:UPD 14-01-08 09:55 OP:ep   STATUS:               ID:20130618205501 L   I
 OLDACT:UP  13-06-19 02:10 OP:mh   STATUS:               ID:20130618204959     3
 OLDACT:UP  13-06-19 02:08 OP:mh   STATUS:               ID:20130618204959     3
 OLDACT:REG 13-06-19 00:21 OP:mh   STATUS:               ID:20130618204959     3
 2013-06-18-2049-59M.COL___261                                                 6
 STAT SP IPHASW D HRMM SECON CODA AMPLIT PERI AZIMU VELO AIN AR TRES W  DIS CAZ7
 GIR2 SZ EP       2055 18.92                             167    0.2010 26.4  31 
 BAR2 SZ IP     D 2055 19.54                             163    0.4210 34.6 154 
 BAR2 SZ ES       2055 32.38                             163   -0.1510 34.6 154 
 BAR2 SZ I        2055 33.77       145.6 0.30            165           34.6 154 
 BRR  HZ EP       2055 19.88                             156    0.4310 50.6 301 
 BRR  HN ES       2055 33.52                             156    0.4110 50.6 301 
 RUS  HZ EP       2055 24.51                             135    0.1110  112 167 
 RUS  HN ES   1   2055 41.60                             135   -0.34 7  112 167 
 RUS  HN I        2055 42.95        28.6 0.28            135            112 167 
 PTB  HZ IP     D 2055 24.86                             130   -0.6710  131 254 
 PTB  HN ES   1   2055 43.77                             130   -0.17 7  131 254 
 PTB  HN I        2055 46.78        61.0 0.28            126            131 254 
 OCA  HN ES       2055 47.45                             126   -0.20 9  151 360 
 OCA  HN I        2055 51.39       123.9 0.20            123            151 360 
 TAM  HZ EP   1   2055 30.31                             121    0.33 7  176 106 
 TAM  HN ES   1   2055 51.22                             121   -0.65 7  176 106 
 TAM  HN I        2055 53.00        49.2 0.40            121            176 106 
 NOR  HZ EP   1   2055 35.82                             114    0.51 6  225 230 
 NOR  HN ES   1   2056  1.00                             114   -0.35 6  225 230 
 NOR  HN I        2056 10.22        21.1 0.16            112            225 230 
 SML  HZ EP   1   2055 36.17                             114    0.49 6  229 339 
 SML  HN ES       2056  1.33                             114   -0.69 8  229 339 
 SML  HN I        2056 11.36        70.4 0.10            112            229 339 
 GUY2CHZ EP   4   2055 45.91                             108    2.52 0  291 231 
 GUY2CHN ES   4   2056 14.01                             108   -1.71 0  291 231 
                                                                                
