 2012 1018 2228 36.5 L   6.789 -73.126143.4  RSN  5 0.2 2.5LRSN                1
 GAP=140        0.41       2.6     4.0  4.0 -0.1468E+00 -0.1055E+01  0.1189E+01E
 Epicentro: LOS SANTOS - SANTANDER                                             3
 ACTION:UPD 12-11-22 17:04 OP:ep   STATUS:               ID:20121018222836 L   I
 2012-10-18-2220-00M.COL___230                                                 6
 STAT SP IPHASW D HRMM SECON CODA AMPLIT PERI AZIMU VELO AIN AR TRES W  DIS CAZ7
 BAR2 SZ IP     C 2228 55.77                             171   -0.0410 22.6 196 
 BAR2 SZ ES   2   2229 10.97                             171    0.08 5 22.6 196 
 BAR2 SZ I        2229 14.08       116.4 0.90                          22.6 196 
 GIR2 SZ EP       2228 55.76                             166   -0.1610 32.9 347 
 GIR2 SZ ES   2   2229 10.50                             166   -0.58 5 32.9 347 
 BRR  HZ EP       2228 57.52                             151    0.0010 73.7 299 
 BRR  HN ES   1   2229 14.13                             151    0.20 7 73.7 299 
 BRR  HN I        2229 14.75       152.5 0.22                          73.7 299 
 PAM  SZ EP       2228 58.58                             151    0.1610 77.0  38 
 PAM  SZ I        2228 58.83        34.6 0.16                          77.0  38 
 PAM  SN ES   1   2229 15.58                             151    0.05 7 77.0  38 
 RUS  HZ EP       2228 59.85                             144   -0.0510 99.2 177 
 RUS  HN ES   1   2229 18.27                             144    0.11 7 99.2 177 
 RUS  HN I        2229 20.13        25.4 0.34                          99.2 177 
                                                                                
