 2017 1218 2100 28.8 L   6.795 -73.220140.0  RSN  5 0.3 1.5LRSN                1
 GAP=126        0.87       5.0     4.2  7.4 -0.7469E+01  0.9810E+01  0.4011E-01E
 Epicentro: ZAPATOCA - SANTANDER                                               3
 ACTION:UPD 18-01-04 13:21 OP:rebc STATUS:               ID:20171218210028 L   I
 OLDACT:REG 17-12-19 02:50 OP:lv   STATUS:               ID:20171218205745     3
 2017-12-18-2058-00M.COL___461                                                 6
 STAT SP IPHASW D HRMM SECON CODA AMPLIT PERI AZIMU VELO AIN AR TRES W  DIS CAZ7
 BAR2 EZ EP       21 0 47.58                             170   -0.1110 22.8 170 
 BAR2 EZ ES       21 1  2.86                             170    0.4110 22.8 170 
 BAR2 EZ I        21 1  4.19         8.0 0.26            166           22.8 170 
 PAM  EZ EP       21 0 50.62                             148   -0.1110 83.2  44 
 PAM  EE ES       21 1  7.69                             148   -0.1810 83.2  44 
 PAM  EN ES       21 1  7.77                             148           83.2  44 
 PAM  EZ I        21 1  9.15         3.5 0.20            152           83.2  44 
 PTB  HZ EP       21 0 54.54                             132    0.02 9  140 258 
 PTB  HN ES       21 1 14.79                             132    0.18 9  140 258 
 PTB  HZ I        21 1 16.44         2.3 0.14            134            140 258 
 SPBC HZ EP       21 0 56.85                             129    0.55 9  158 217 
 SPBC HN ES       21 1 17.08                             129   -0.70 9  158 217 
 SPBC HZ I        21 1 25.18        10.6 0.20            129            158 217 
 ZAR  HN ES       21 1 24.40                             122   -0.09 9  197 293 
                                                                                
