 2010 1018 2220 44.7 L   6.711 -73.156147.1  RSN  6 0.4 1.8LRSN                1
 GAP=181        0.86       6.6    10.4  8.8  0.2421E+02  0.8156E+01  0.3908E+01E
 Epicentro: VILLANUEVA - SANTANDER                                             3
 ACTION:UP  11-02-18 11:10 OP:tino STATUS:               ID:20101018222044 L   I
 2010-10-18-2217-09S.COL___123                                                 6
 STAT SP IPHASW D HRMM SECON CODA AMPLIT PERI AZIMU VELO SNR AR TRES W  DIS CAZ7
 BAR2 SZ EP   1   2221  4.19                             174    -0.2 7   14 193 
 BAR2 SZ ES   1   2221 19.18                             174    -0.5 7   14 193 
 BAR2 SZ I        2221 21.10        18.6 0.32                            14 193 
 BRR  HZ EP   1   2221  6.20                             151    -0.1 7   75 306 
 BRR  HN ES   1   2221 23.57                             151     0.5 7   75 306 
 BRR  HZ I        2221 24.65        20.2 0.12                            75 306 
 RUS  HZ EP   1   2221  7.81                             147    -0.1 7   91 175 
 RUS  HN ES   1   2221 26.48                             147     0.4 7   91 175 
 RUS  HZ I        2221 28.22         8.7 0.41                            91 175 
 OCA  SZ EP   2   2221 13.83                             128    -0.2 5  170 354 
 OCA  SZ I        2221 44.07         8.8 0.27                           170 354 
 CHI  HZ EP   2   2221 22.38                             118     0.9 4  239 196 
 CHI  HE ES   2   2221 49.68                             118    -0.4 4  239 196 
 CHI  HZ I        2221 55.25         2.8 0.36                           239 196 
 HEL  HE ES   2   2221 55.26                             115    -0.5 4  269 258 
 HEL  HZ I        2222  3.54         4.3 0.23                           269 258 
                                                                                
