 2014 1118 2216 48.0 L   6.781 -73.101144.5  RSN  4 0.4 1.3LRSN                1
 GAP=241        0.91       6.0     6.2  9.2  0.1077E+02  0.4592E+01  0.4747E+01E
 Epicentro: LOS SANTOS - SANTANDER                                             3
 ACTION:UPD 14-12-19 15:44 OP:nd   STATUS:               ID:20141118221648 L   I
 OLDACT:UP  14-11-19 03:47 OP:cam  STATUS:               ID:20141118220814     3
 OLDACT:REG 14-11-19 02:14 OP:cam  STATUS:               ID:20141118220814     3
 2014-11-18-2208-14M.COL___283                                                 6
 STAT SP IPHASW D HRMM SECON CODA AMPLIT PERI AZIMU VELO AIN AR TRES W  DIS CAZ7
 BRR  HZ EP       2217  9.21                             151   -0.1410 76.5 298 
 BRR  HE ES       2217 26.38                             151    0.3910 76.5 298 
 BRR  HZ I        2217 28.74         7.8 0.40            152           76.5 298 
 RUS  HZ EP       2217 11.77                             144    0.2810 98.3 179 
 RUS  HN ES       2217 29.54                             144   -0.2510 98.3 179 
 RUS  HZ I        2217 31.61         1.9 0.24            147           98.3 179 
 PTB  HZ EP       2217 15.10                             131   -0.20 9  152 260 
 PTB  HN ES       2217 36.03                             131   -0.55 9  152 260 
 PTB  HZ I        2217 37.90         2.6 0.18            134            152 260 
 NOR  HN ES       2217 52.61                             118    0.57 8  238 236 
                                                                                
