 2016  818 2008 53.3 L   6.742 -73.212143.7  RSN  5 0.2 1.7LRSN                1
 GAP=234        0.50       3.7     3.4  4.4  0.6450E+01  0.4328E+01  0.4968E+00E
 Epicentro: VILLANUEVA - SANTANDER                                             3
 ACTION:UPD 16-10-29 15:36 OP:rebc STATUS:               ID:20160818200853 L   I
 OLDACT:REG 16-08-19 02:53 OP:cara STATUS:               ID:20160818200759     3
 2016-08-18-2007-59S.COL___340                                                 6
 STAT SP IPHASW D HRMM SECON CODA AMPLIT PERI AZIMU VELO AIN AR TRES W  DIS CAZ7
 BAR2 HE ES       20 9 27.47                             173   -0.1310 16.9 169 
 BAR2 EZ I        20 9 29.63        14.9 0.36                          16.9 169 
 RUS  HZ EP       20 9 16.49                             145    0.0410 95.0 171 
 RUS  HN ES       20 9 34.67                             145    0.1610 95.0 171 
 RUS  HZ I        20 9 35.49         5.8 0.26                          95.0 171 
 PTB  HZ EP       20 9 19.12                             133   -0.22 9  139 261 
 PTB  HE ES       20 9 39.91                             133    0.25 9  139 261 
 PTB  HZ I        20 9 42.80         6.0 0.16                           139 261 
 SPBC HZ EP       20 9 20.88                             130    0.15 9  154 218 
 SPBC HE ES       20 9 41.86                             130   -0.27 9  154 218 
 SPBC HZ I        20 9 49.95         9.6 0.18                           154 218 
 ZAR  HE ES       20 9 50.06                             122    0.02 9  200 295 
 ZAR  HZ I        20 9 58.32         4.8 0.44                           200 295 
                                                                                
