 2013 1018 2041  3.1 L   6.711 -73.546114.3  RSN  4 0.3 1.4LRSN                1
 GAP=173        0.66       4.1     4.0  5.7  0.8986E+01  0.2908E+01  0.2498E+01E
 Epicentro: EL CARMEN DE CHUCURI - SANTANDER                                   3
 ACTION:UPD 13-11-25 09:22 OP:ep   STATUS:               ID:20131018204103 L   I
 OLDACT:REG 13-10-19 00:54 OP:nd   STATUS:               ID:20131018203848     3
 2013-10-18-2038-48M.COL___220                                                 6
 STAT SP IPHASW D HRMM SECON CODA AMPLIT PERI AZIMU VELO AIN AR TRES W  DIS CAZ7
 BRR  HZ IP     C 2041 19.35                             156   -0.2310 47.5 337 
 BRR  HZ I        2041 32.38        11.5 0.20            150           47.5 337 
 BRR  HN ES       2041 32.49                             156    0.0910 47.5 337 
 PTB  HZ EP       2041 23.71                             135    0.2510  102 259 
 PTB  HN ES       2041 39.08                             135   -0.2210  102 259 
 PTB  HZ I        2041 44.31         4.8 0.12            136            102 259 
 RUS  HZ EP       2041 24.39                             135    0.1510  104 150 
 RUS  HN ES       2041 40.66                             135   -0.0410  104 150 
 RUS  HZ I        2041 42.13         1.4 0.22            138            104 150 
 ZAR  HZ EP       2041 29.66                             120   -0.26 9  169 301 
 ZAR  HN ES   2   2041 51.79                             120    0.98 5  169 301 
 ZAR  HZ I        2041 55.24         5.7 0.30            118            169 301 
                                                                                
