 2014  618 2000 10.5 L   6.756 -73.117150.0  RSN 11 0.4 2.0LRSN                1
 GAP=142        0.91       3.2     4.4  6.2 -0.8113E+00  0.1029E+02 -0.4501E+00E
 Epicentro: LOS SANTOS - SANTANDER                                             3
 ACTION:UPD 14-07-01 22:55 OP:nd   STATUS:               ID:20140618200010 L   I
 OLDACT:REG 14-06-19 03:20 OP:fm   STATUS:               ID:20140618195813     3
 2014-06-18-1958-13M.COL___265                                                 6
 STAT SP IPHASW D HRMM SECON CODA AMPLIT PERI AZIMU VELO AIN AR TRES W  DIS CAZ7
 BAR2 SZ EP       20 0 30.79                             172    0.2110 19.5 202 
 BAR2 SZ ES   1   20 0 45.73                             172   -0.50 7 19.5 202 
 BAR2 SZ I        20 0 46.72        14.2 0.20            168           19.5 202 
 BRR  HZ EP       20 0 32.85                             151    0.4410 76.3 301 
 BRR  HN ES       20 0 49.85                             151    0.3610 76.3 301 
 BRR  HZ I        20 0 50.63        19.6 0.32            148           76.3 301 
 PAM  SZ EP     D 20 0 33.85                             151    0.5610 79.3  36 
 PAM  SN ES       20 0 50.70                             151   -0.3610 79.3  36 
 PAM  SZ I        20 0 53.34        13.3 0.46            152           79.3  36 
 RUS  HZ EP   1   20 0 33.98                             146   -0.35 7 95.6 178 
 RUS  HN ES       20 0 52.84                             146   -0.0710 95.6 178 
 RUS  HZ I        20 0 54.05        13.5 0.32            144           95.6 178 
 ZAR  HZ EP       20 0 44.09                             122    0.37 8  209 293 
 ZAR  HN ES       20 1  9.60                             122   -0.02 8  209 293 
 ZAR  HZ I        20 1 11.48         9.5 0.22            120            209 293 
 NOR  HN ES       20 1 14.36                             119   -0.15 8  234 236 
 NOR  HZ I        20 1 21.59         5.0 0.16            117            234 236 
 SML  HZ EP   1   20 0 47.21                             117   -0.78 6  249 335 
 SML  HE ES       20 1 16.62                             117   -0.61 8  249 335 
 SML  HZ I        20 1 25.61        11.2 0.24            116            249 335 
 GUY2CHE ES   4   20 1 26.44                             113   -2.01 0  301 236 
 GUY2CHZ I        20 1 39.37         2.5 0.44                           301 236 
 RREF HN ES   4   20 1 34.46                             111    1.63 0  321 230 
 RREF HZ I        20 1 44.17         3.0 0.34            109            321 230 
 TOL  SE ES   1   20 1 35.79                             110   -0.68 5  342 226 
 TOL  SZ I        20 1 42.98         6.7 0.30            108            342 226 
 PRA  HZ EP   1   20 1  3.50                             107   -0.37 4  389 210 
 PRA  HN ES   1   20 1 45.88                             107    0.39 4  389 210 
 PRA  HZ I        20 1 51.25         2.5 0.28            106            389 210 
                                                                                
