 2010  618 2131 45.2 L   6.782 -73.065141.4  RSN 11 0.4 2.4LRSN                1
 GAP=165        0.86       3.5     6.7  6.4 -0.8017E+01  0.2486E+01 -0.6420E+00E
 Epicentro: LOS SANTOS - SANTANDER                                             3
 ACTION:UP  10-08-24 10:11 OP:vdl  STATUS:               ID:20100618213145 L   I
 2010-06-18-2128-22S.COL___118                                                 6
 STAT SP IPHASW D HRMM SECON CODA AMPLIT PERI AZIMU VELO SNR AR TRES W  DIS CAZ7
 BAR2 SZ IP       2132  4.43                             170     0.110   25 212 
 BAR2 SZ ES   1   2132 18.97                             170    -0.3 7   25 212 
 BRR  HZ IP     D 2132  6.23                             149    -0.110   80 297 
 BRR  HN ES   1   2132 23.24                             149     0.3 7   80 297 
 BRR  HZ I        2132 27.34        57.5 0.13                            80 297 
 RUS  HZ EP   1   2132  8.35                             144     0.0 7   98 181 
 RUS  HN ES   1   2132 26.32                             144    -0.1 7   98 181 
 RUS  HZ I        2132 28.78        41.1 0.25                            98 181 
 BRI  SZ EP   1   2132  8.95                             141     0.4 7  108  16 
 BRI  SZ ES   1   2132 27.75                             141     0.9 7  108  16 
 GUE  SZ IP       2132  8.99                             138    -0.510  117   8 
 GRA  SZ IP       2132 10.22                             136     0.210  125  13 
 GRA  SZ ES   1   2132 28.54                             136    -0.8 7  125  13 
 OCA  SZ EP   1   2132 13.27                             128    -0.2 7  164 350 
 OCA  SZ ES   1   2132 35.45                             128    -0.1 7  164 350 
 OCA  SZ I        2132 39.15        38.7 0.41                           164 350 
 CHI  HZ EP   2   2132 22.88                             116     0.2 4  249 197 
 CHI  HE ES   2   2132 51.62                             116    -0.3 4  249 197 
 CHI  HZ I        2132 55.35        13.2 0.43                           249 197 
 HEL  HZ EP   2   2132 26.01                             113    -0.1 4  280 257 
 HEL  HN ES   2   2132 57.80                             113    -0.2 4  280 257 
 HEL  HZ I        2133  3.07        15.6 0.42                           280 257 
 GUY  HZ EP   2   2132 29.43                             111     0.1 4  308 236 
 TOL  SZ EP   2   2132 34.62                             108     0.8 3  348 226 
                                                                                
