 2011  818 2132 12.0 L   6.717 -73.173147.9  RSN  5 0.2 1.5LRSN                1
 GAP=228        0.48       4.4     6.4  6.2  0.1161E+02  0.9583E+01  0.1108E+02E
 Epicentro: VILLANUEVA - SANTANDER                                             3
 ACTION:UPD 12-07-13 15:52 OP:ep   STATUS:               ID:20110818213212 L   I
 2011-08-18-2129-27S.COL___149                                                 6
 STAT SP IPHASW D HRMM SECON CODA AMPLIT PERI AZIMU VELO AIN AR TRES W  DIS CAZ7
 BAR2 SZ EP       2132 31.44                             174   -0.2610 13.8 184 
 BAR2 SZ I        2132 31.46         7.3 0.38                          13.8 184 
 BAR2 SZ ES   3   2132 46.50                             174   -0.59 2 13.8 184 
 BRR  HZ EP       2132 33.48                             152    0.0110 73.5 306 
 BRR  HE ES   1   2132 50.36                             152    0.11 7 73.5 306 
 BRR  HZ I        2132 54.31        12.1 0.46                          73.5 306 
 RUS  HZ EP       2132 35.55                             147    0.2410 91.7 174 
 RUS  HN ES   2   2132 53.71                             147    0.19 5 91.7 174 
 RUS  HZ I        2132 54.99         3.2 0.54                          91.7 174 
 NOR  SZ EP       2132 46.99                             120    0.00 8  227 236 
 CHI  HE ES   2   2133 16.97                             119   -0.46 4  239 195 
                                                                                
