 2014  718 2048 12.5 L   6.789 -73.162146.4  RSN  6 0.3 1.7LRSN                1
 GAP=135        0.79       4.0     3.6  5.4  0.1282E+01  0.5270E+01 -0.1218E+01E
 Epicentro: LOS SANTOS - SANTANDER                                             3
 ACTION:UPD 15-03-16 20:45 OP:nd   STATUS:               ID:20140718204812 L   I
 OLDACT:UP  14-07-19 03:46 OP:cam  STATUS:               ID:20140718204001d    3
 OLDACT:DUP 14-07-19 03:41 OP:cam  STATUS:               ID:20140718204001d    3
 2014-07-18-2040-00M.COL___282                                                 6
 STAT SP IPHASW D HRMM SECON CODA AMPLIT PERI AZIMU VELO AIN AR TRES W  DIS CAZ7
 BAR2 SZ ES       2048 47.50                             171   -0.0010 21.9 186 
 BAR2 SZ I        2048 48.06        17.6 0.32            173           21.9 186 
 BRR  HZ EP       2048 33.92                             153    0.2810 70.2 300 
 BRR  HN ES       2048 50.40                             153    0.2610 70.2 300 
 BRR  HZ I        2048 59.68        13.6 0.42            152           70.2 300 
 PAM  SZ EP     D 2048 35.06                             150    0.1710 79.5  40 
 PAM  SE ES       2048 52.02                             150   -0.3510 79.5  40 
 PAM  SZ I        2048 54.44         7.3 0.34            153           79.5  40 
 RUS  HZ EP       2048 36.01                             144   -0.2110 99.5 175 
 RUS  HN ES       2048 54.94                             144    0.2110 99.5 175 
 RUS  HZ I        2048 56.32         5.0 0.44            150           99.5 175 
 PTB  HZ EP       2048 38.77                             133   -0.54 9  146 259 
 PTB  HN ES       2049  0.15                             133   -0.09 9  146 259 
 PTB  HZ I        2049  2.44         5.1 0.12            135            146 259 
 ZAR  HZ EP       2048 45.38                             123    0.54 9  203 293 
 ZAR  HN ES       2049  9.80                             123   -0.28 9  203 293 
 ZAR  HZ I        2049 15.28         5.5 0.52            125            203 293 
                                                                                
