 2016  318 2309  8.3 L   6.789 -73.148139.4  RSN  7 0.3 1.8LRSN                1
 GAP=137        0.73       3.1     3.2  5.0 -0.2117E+01  0.6680E+01 -0.1130E+01E
 Epicentro: LOS SANTOS - SANTANDER                                             3
 ACTION:UPD 16-05-13 21:25 OP:cam  STATUS:               ID:20160318230908 L   I
 OLDACT:UP  16-03-19 03:11 OP:drio STATUS:               ID:20160318225743     3
 OLDACT:REG 16-03-19 02:25 OP:drio STATUS:               ID:20160318225743     3
 2016-03-18-2257-43M.COL___331                                                 6
 STAT SP IPHASW D HRMM SECON CODA AMPLIT PERI AZIMU VELO AIN AR TRES W  DIS CAZ7
 BAR2 EZ EP       23 9 26.81                             171   -0.2810 22.1 190 
 BAR2 EZ ES       23 9 41.82                             171    0.0410 22.1 190 
 BAR2 EZ I        23 9 43.20        22.5 0.14            170           22.1 190 
 PAM  EZ EP       23 9 29.97                             149    0.1110 78.5  39 
 PAM  EN ES       23 9 46.84                             149    0.1210 78.5  39 
 PAM  EZ I        23 9 49.31         7.6 0.50            153           78.5  39 
 RUS  HZ EP       23 9 31.13                             143   -0.1610 99.4 176 
 RUS  HE ES       23 9 49.31                             143    0.0510 99.4 176 
 RUS  HZ I        23 9 50.43         6.5 0.52            146           99.4 176 
 PTB  HZ EP       23 9 34.03                             131   -0.63 9  147 259 
 PTB  HN ES       23 9 54.80                             131   -0.46 9  147 259 
 PTB  HZ I        23 9 57.19         8.0 0.44            131            147 259 
 SPBC HZ EP       23 9 36.28                             128    0.12 9  162 219 
 SPBC HN ES       23 9 58.22                             128    0.29 9  162 219 
 SPBC HZ I        2310  2.88         8.5 0.68            129            162 219 
 ZAR  HZ EP       23 9 40.70                             121    0.38 9  204 292 
 ZAR  HN ES       2310  5.54                             121    0.22 9  204 292 
 ZAR  HZ I        2310 12.01         9.2 0.38            122            204 292 
 NOR  HZ EP       23 9 43.67                             117    0.15 8  234 235 
 NOR  HN ES       2310 11.36                             117    0.33 8  234 235 
 NOR  HZ I        2310 17.66         5.9 0.22            119            234 235 
                                                                                
