 2016 1018 2054 40.9 L   6.584 -73.576106.5  RSN  4 0.3 1.3LRSN                1
 GAP=142        0.84       4.6     3.3  7.6 -0.2495E+01  0.3283E+01 -0.7006E+01E
 Epicentro: EL CARMEN - SANTANDER                                              3
 ACTION:UPD 16-11-09 19:20 OP:rebc STATUS:               ID:20161018205440 L   I
 OLDACT:REG 16-10-19 03:13 OP:lv   STATUS:               ID:20161018204727     3
 2016-10-18-2048-00M.COL___334                                                 6
 STAT SP IPHASW D HRMM SECON CODA AMPLIT PERI AZIMU VELO AIN AR TRES W  DIS CAZ7
 BAR2 EZ EP       2054 57.17                             156    0.5010 43.5  89 
 BAR2 EZ ES       2055  8.60                             156   -0.3210 43.5  89 
 BAR2 EZ I        2055 10.79        12.3 0.21            159           43.5  89 
 RUS  HZ EP       2055  0.63                             136    0.1210 93.9 144 
 RUS  HE ES       2055 15.71                             136   -0.0510 93.9 144 
 RUS  HZ I        2055 16.17         2.7 0.21            140           93.9 144 
 PTB  HZ EP       2055  0.00                             134   -0.1610 97.5 267 
 PTB  HN ES       2055 15.25                             134    0.1010 97.5 267 
 PTB  HZ I        2055 16.97         5.0 0.10            137           97.5 267 
 PAM  EZ EP       2055  3.12                             126   -0.5310  128  49 
 PAM  EN ES       2055 21.68                             126    0.3210  128  49 
 PAM  EZ I        2055 22.99         2.6 0.39            129            128  49 
                                                                                
