 2012  318 2310 15.4 L   6.598 -73.109163.3  RSN  9 0.3 2.1LRSN                1
 GAP=149        0.82       4.9     4.6  7.0 -0.7673E+01  0.9058E+01 -0.8876E+01E
 ACTION:UP  12-03-31 23:20 OP:EP   STATUS:               ID:20120318231015 L   I
 2012-03-18-2310-00M.COL___202                                                 6
 STAT SP IPHASW D HRMM SECON CODA AMPLIT PERI AZIMU VELO SNR AR TRES W  DIS CAZ7
 BAR2 SZ EP   1   2310 36.71                             177    -0.3 7    8 266 
 BAR2 SZ ES   1   2310 53.98                             177     0.2 7    8 266 
 BAR2 SZ I        2310 55.41        34.8 0.35                             8 266 
 RUS  HZ EP       2310 39.68                             153     0.110   78 178 
 RUS  HE ES   1   2310 58.48                             153     0.1 7   78 178 
 RUS  HZ I        2311  0.23        19.9 0.25                            78 178 
 BRR  HZ EP       2310 39.86                             150     0.510   87 310 
 BRR  HZ I        2310 40.75        33.7 0.10                            87 310 
 PAM  SZ EP       2310 40.45                             149     0.010   94  29 
 PAM  SN ES   1   2310 59.70                             149    -0.3 7   94  29 
 PTB  HZ EP       2310 43.42                             135    -0.6 9  149 268 
 PTB  HE ES   1   2311  6.23                             135     0.0 7  149 268 
 PTB  HZ I        2311  7.81         6.0 0.16                           149 268 
 OCA  SZ EP       2310 47.23                             129     0.0 9  183 353 
 ZAR  HE ES   1   2311 17.74                             124     0.1 6  217 297 
 ZAR  HZ I        2311 20.47         9.2 0.19                           217 297 
 NOR  SN ES       2311 19.10                             123    -0.2 8  226 240 
 HEL  HZ EP   1   2310 57.07                             118     0.6 6  271 261 
 HEL  HZ I        2311 32.24         3.8 0.21                           271 261 
                                                                                
