 2016  718 2138 20.5 L   6.775 -73.137144.8  RSN  6 0.1 2.3LRSN                1
 GAP=139        0.38       1.6     1.9  2.6 -0.2682E-03  0.1339E+01  0.6806E-01E
 Epicentro: LOS SANTOS - SANTANDER                                             3
 ACTION:UPD 17-03-29 16:52 OP:lp   STATUS:               ID:20160718213820 L   I
 OLDACT:REG 16-07-19 04:33 OP:cara STATUS:               ID:20160718213759     3
 2016-07-18-2137-59S.COL___340                                                 6
 STAT SP IPHASW D HRMM SECON CODA AMPLIT PERI AZIMU VELO AIN AR TRES W  DIS CAZ7
 BAR2 EZ EP       2138 40.05                             171    0.0610 20.8 194 
 BAR2 EZ ES       2138 55.07                             171   -0.1010 20.8 194 
 BRR  HZ IP       2138 41.60                             152   -0.0910 73.4 300 
 BRR  HN ES       2138 58.28                             152    0.0810 73.4 300 
 BRR  HZ I        2139  1.79        31.5 0.28            149           73.4 300 
 PAM  EZ EP       2138 42.77                             150    0.0410 78.9  38 
 PAM  EE ES       2139  0.11                             150    0.0610 78.9  38 
 PAM  EZ I        2139  2.15        37.3 0.70            151           78.9  38 
 RUS  HZ EP       2138 43.82                             144   -0.1610 97.8 177 
 RUS  HE ES       2139  2.26                             144   -0.0110 97.8 177 
 SPBC HZ EP       2138 48.73                             129   -0.07 9  162 220 
 SPBC HN ES       2139 11.06                             129    0.20 9  162 220 
 SPBC HZ I        2139 11.20        19.2 0.16            131            162 220 
 ZAR  HZ EP       2138 53.34                             122    0.23 8  206 293 
 ZAR  HN ES       2139 18.30                             122   -0.22 8  206 293 
 ZAR  HZ I        2139 24.23        17.7 0.32            122            206 293 
                                                                                
