 2012 1118 2208 36.3 L   6.769 -73.173144.0  RSN  7 0.3 1.6LRSN                1
 GAP=135        0.67       4.2     3.7  5.6  0.5126E+00  0.3214E+01  0.1172E+01E
 Epicentro: LOS SANTOS - SANTANDER                                             3
 ACTION:UPD 12-12-05 15:34 OP:}ep  STATUS:               ID:20121118220836 L   I
 2012-11-18-2200-00M.COL___234                                                 6
 STAT SP IPHASW D HRMM SECON CODA AMPLIT PERI AZIMU VELO AIN AR TRES W  DIS CAZ7
 BAR2 SZ EP       22 8 55.69                             172    0.0810 19.5 183 
 BAR2 SZ ES   1   22 9 10.48                             172   -0.22 7 19.5 183 
 BAR2 SZ I        22 9 12.85        13.8 0.22                          19.5 183 
 GIR2 SZ ES   1   22 9 11.08                             166    0.02 7 34.4 356 
 BRR  HZ EP       22 8 57.46                             152    0.2810 70.4 302 
 BRR  HN ES   1   22 9 14.11                             152    0.62 7 70.4 302 
 BRR  HZ I        22 9 18.97         7.5 0.54                          70.4 302 
 PAM  SZ EP       22 8 58.68                             149    0.1110 82.0  40 
 PAM  SN ES   1   22 9 15.45                             149   -0.52 7 82.0  40 
 PAM  SZ I        22 9 17.95         6.1 0.50                          82.0  40 
 RUS  HZ EP   1   22 8 59.71                             144    0.10 7 97.4 174 
 RUS  HN ES   1   22 9 17.82                             144    0.00 7 97.4 174 
 RUS  HZ I        22 9 19.92         3.5 0.54                          97.4 174 
 PTB  HZ EP   1   22 9  2.27                             132   -0.49 7  144 260 
 PTB  HN ES   1   22 9 23.30                             132   -0.13 7  144 260 
 PTB  HZ I        22 9 26.21         6.1 0.12                           144 260 
 ZAR  HN ES   1   22 9 33.16                             122   -0.39 6  203 293 
 ZAR  HZ I        22 9 39.44         4.0 0.64                           203 293 
                                                                                
