 2015  318 2236 32.4 L   6.796 -73.143148.0  RSN  9 0.4 1.8LRSN                1
 GAP=137        0.93       4.0     4.5  6.7  0.2323E+00  0.7227E+01 -0.3572E+01E
 Epicentro: LOS SANTOS - SANTANDER                                             3
 ACTION:UPD 15-04-30 16:27 OP:nd   STATUS:               ID:20150318223632 L   I
 OLDACT:REG 15-03-19 03:15 OP:spq  STATUS:               ID:20150318222748     3
 2015-03-18-2227-48M.COL___284                                                 6
 STAT SP IPHASW D HRMM SECON CODA AMPLIT PERI AZIMU VELO AIN AR TRES W  DIS CAZ7
 BAR2 EZ EP   1   2236 52.26                             171   -0.02 7 22.9 191 
 BAR2 EZ ES   1   2237  7.54                             171   -0.25 7 22.9 191 
 BAR2 EZ I        2237  8.88        15.5 0.20            169           22.9 191 
 BRR  HZ EP   1   2236 54.08                             153    0.27 7 71.7 299 
 BRR  HN ES       2237 11.06                             153    0.5510 71.7 299 
 BRR  HZ I        2237 11.72        14.2 0.12            149           71.7 299 
 PAM  SZ EP       2236 55.11                             151    0.2610 77.6  39 
 PAM  SN ES       2237 12.05                             151   -0.3210 77.6  39 
 PAM  SZ I        2237 14.33        19.6 0.52            154           77.6  39 
 RUS  HZ EP       2236 56.18                             144   -0.1510  100 176 
 RUS  HN ES       2237 15.07                             144    0.0710  100 176 
 RUS  HZ I        2237 15.95         5.6 0.26            146            100 176 
 PTB  HN ES   1   2237 20.29                             132   -0.46 7  148 259 
 PTB  HZ I        2237 27.18         7.4 0.22            131            148 259 
 ZAR  HZ EP       2237  5.83                             123    0.80 9  204 292 
 ZAR  HE ES   1   2237 30.33                             123   -0.15 6  204 292 
 ZAR  HZ I        2237 36.38         6.1 0.24            122            204 292 
 NOR  HN ES   1   2237 35.62                             119   -0.59 6  235 235 
 NOR  HZ I        2237 40.89         4.2 0.16            119            235 235 
 SML  HZ EP   1   2237  8.48                             118   -0.72 6  244 335 
 SML  HE ES   1   2237 37.26                             118   -0.65 6  244 335 
 SML  HZ I        2237 41.38        10.7 0.24            118            244 335 
 GUY2CHZ EP   4   2237 17.81                             113    1.71 0  301 235 
 GUY2CHE ES   4   2237 54.15                             113    3.96 0  301 235 
 GUY2CHZ I        2237 59.61         2.5 0.36                           301 235 
                                                                                
