 2016  818 2050 31.0 L   6.781 -73.143149.5  RSN  6 0.3 2.1LRSN                1
 GAP=236        0.68       3.9     4.1  5.0  0.6412E+01  0.3099E+01  0.1109E+01E
 Epicentro: LOS SANTOS - SANTANDER                                             3
 ACTION:UPD 16-10-29 15:36 OP:rebc STATUS:               ID:20160818205031 L   I
 OLDACT:REG 16-08-19 02:57 OP:cara STATUS:               ID:20160818204759     3
 2016-08-18-2047-59S.COL___340                                                 6
 STAT SP IPHASW D HRMM SECON CODA AMPLIT PERI AZIMU VELO AIN AR TRES W  DIS CAZ7
 BAR2 EZ IP       2050 51.06                             172    0.0510 21.3 192 
 BAR2 HN ES       2051  6.44                             172   -0.2010 21.3 192 
 BAR2 EZ I        2051  7.20        27.6 0.28                          21.3 192 
 BRR  HZ EP       2050 52.90                             153    0.3110 72.5 300 
 BRR  HN ES       2051  9.68                             153    0.2210 72.5 300 
 BRR  HZ I        2051 14.40        33.1 0.42                          72.5 300 
 RUS  HZ EP       2050 54.49                             145   -0.4510 98.4 176 
 RUS  HE ES       2051 13.75                             145    0.1210 98.4 176 
 RUS  HZ I        2051 14.80         9.2 0.34                          98.4 176 
 PTB  HZ EP       2050 58.14                             133   -0.10 9  148 260 
 PTB  HE ES       2051 19.12                             133   -0.39 9  148 260 
 PTB  HZ I        2051 20.64        14.4 0.36                           148 260 
 SPBC HZ EP       2050 59.85                             130    0.23 9  162 220 
 SPBC HN ES       2051 22.28                             130    0.31 9  162 220 
 SPBC HZ I        2051 27.77        13.7 0.10                           162 220 
 ZAR  HZ EP   4   2051  5.19                             123    1.42 0  205 293 
 ZAR  HN ES       2051 29.26                             123   -0.10 9  205 293 
 ZAR  HZ I        2051 35.05        13.7 0.32                           205 293 
                                                                                
