 2016  818 2043 34.9 L   6.786 -73.260129.6  RSN  4 0.1 1.8LRSN                1
 GAP=224        0.42       2.6     3.4  4.3  0.3103E+01  0.7653E+01 -0.9194E+00E
 Epicentro: ZAPATOCA - SANTANDER                                               3
 ACTION:UPD 16-10-29 15:36 OP:rebc STATUS:               ID:20160818204334 L   I
 OLDACT:UP  16-08-19 04:15 OP:cara STATUS:               ID:20160818203759     3
 OLDACT:REG 16-08-19 02:55 OP:cara STATUS:               ID:20160818203759     3
 2016-08-18-2037-59S.COL___340                                                 6
 STAT SP IPHASW D HRMM SECON CODA AMPLIT PERI AZIMU VELO AIN AR TRES W  DIS CAZ7
 BAR2 EZ EP       2043 52.68                             169    0.0610 23.1 158 
 BAR2 HE ES       2044  6.51                             169    0.1010 23.1 158 
 BAR2 EZ I        2044  8.95        22.8 0.28                          23.1 158 
 RUS  HZ EP   4   2043 58.81                             140    1.67 0  101 169 
 RUS  HN ES       2044 14.26                             140   -0.2110  101 169 
 RUS  HZ I        2044 15.01        11.3 0.32                           101 169 
 SPBC HZ EP       2044  1.31                             127   -0.06 9  154 216 
 SPBC HN ES       2044 22.15                             127    0.16 9  154 216 
 SPBC HZ I        2044 29.94        10.8 0.28                           154 216 
 ZAR  HZ EP       2044  5.33                             120    0.12 9  193 294 
 ZAR  HN ES       2044 28.65                             120   -0.18 9  193 294 
 ZAR  HZ I        2044 34.93         5.0 0.34                           193 294 
                                                                                
