 2011 1118 2036  3.5 L   6.758 -73.089147.0  RSN 10 0.4 2.4LRSN                1
 GAP=146        0.69       2.6     4.3  4.9 -0.2080E+01  0.6076E+01  0.1270E+01E
 Epicentro: LOS SANTOS - SANTANDER                                             3
 ACTION:UPD 12-07-13 16:11 OP:ep   STATUS:               ID:20111118203603 L   I
 2011-11-18-2034-23S.COL___179                                                 6
 STAT SP IPHASW D HRMM SECON CODA AMPLIT PERI AZIMU VELO AIN AR TRES W  DIS CAZ7
 BAR2 SZ EP       2036 23.33                             171    0.0910 21.1 209 
 BAR2 SZ ES   1   2036 38.67                             171    0.03 7 21.1 209 
 BAR2 SZ I        2036 40.09        70.9 0.30                          21.1 209 
 PAM  SZ IP     C 2036 26.22                             151    0.3710 77.3  34 
 PAM  SN ES   1   2036 42.80                             151   -0.48 7 77.3  34 
 BRR  HZ IP     D 2036 25.34                             150    0.1010 79.0 299 
 BRR  HN ES   1   2036 42.71                             150    0.51 7 79.0 299 
 RUS  HZ EP       2036 27.27                             145    0.2310 95.7 180 
 RUS  HN ES   1   2036 44.97                             145   -0.42 7 95.7 180 
 RUS  HZ I        2036 47.20        28.9 0.30                          95.7 180 
 OCA  SZ EP       2036 31.97                             129   -0.46 9  166 351 
 OCA  SZ ES   1   2036 54.91                             129   -0.08 7  166 351 
 OCA  SZ I        2037  0.30        50.8 0.30                           166 351 
 ZAR  HZ EP   1   2036 36.70                             122   -0.12 6  212 293 
 ZAR  HN ES   2   2037  2.41                             122   -0.39 4  212 293 
 ZAR  HZ I        2037  8.47        36.0 0.23                           212 293 
 NOR  SZ EP   1   2036 39.30                             118   -0.28 6  237 236 
 NOR  SE ES   1   2037  7.45                             118   -0.27 6  237 236 
 CHI  HZ EP   1   2036 40.78                             118   -0.20 6  246 197 
 CHI  HN ES   1   2037 10.66                             118    0.45 6  246 197 
 CHI  HZ I        2037 16.60        10.3 0.33                           246 197 
 HEL  HZ EP   1   2036 44.97                             115    0.63 6  277 257 
 HEL  HZ I        2037 21.96        12.7 0.29                           277 257 
 PRA  HZ EP   1   2036 56.91                             107   -0.06 4  391 211 
 PRA  HE ES   1   2037 37.96                             107   -0.71 4  391 211 
                                                                                
