 2010  118 2241 58.0 L   6.765 -73.056137.0  RSN  7 0.4 1.8LRSN                1
 GAP=205        0.64       6.5     7.8  8.2  0.3933E+01  0.2812E+02  0.2888E+02E
 Epicentro: LOS SANTOS - SANTANDER                                             3
 ACTION:UP  10-08-24 09:44 OP:vdl  STATUS:               ID:20100118224158 L   I
 2010-01-18-2239-50S.COL___093                                                 6
 STAT SP IPHASW D HRMM SECON CODA AMPLIT PERI AZIMU VELO SNR AR TRES W  DIS CAZ7
 BAR2 SZ EP   1   2242 16.39                             169    -0.2 7   24 216 
 BAR2 SZ ES   2   2242 31.13                             169     0.1 5   24 216 
 GIR2 SZ EP   1   2242 16.49                             164    -0.3 7   38 336 
 GIR2 SZ ES   2   2242 31.97                             164     0.5 5   38 336 
 RUS  HZ EP       2242 20.52                             143    -0.110   97 182 
 CHI  HZ EP   1   2242 35.24                             115     0.1 6  248 198 
 CHI  HN ES   2   2243  3.95                             115    -0.1 4  248 198 
 CHI  HZ I        2243  8.34         3.2 0.61                           248 198 
 HEL  HZ EP   1   2242 38.84                             112     0.1 6  281 257 
 HEL  HN ES   2   2243  9.68                             112    -0.9 4  281 257 
 HEL  HZ I        2243 13.52         5.7 0.48                           281 257 
 RREF HZ EP       2242 45.10                             109     0.7 7  327 231 
 PRA  HZ EP   1   2242 51.09                             105    -0.3 4  394 211 
 PRA  HE ES   2   2243 32.83                             105    -0.2 3  394 211 
                                                                                
