 2015  218 2153  3.9 L   6.752 -73.162136.1  RSN  7 0.4 1.8LRSN                1
 GAP= 95        0.96       4.7     4.0  6.0  0.1393E+00  0.1275E+01 -0.2096E+00E
 Epicentro: LOS SANTOS - SANTANDER                                             3
 ACTION:UPD 15-04-30 21:27 OP:nd   STATUS:               ID:20150218215303 L   I
 OLDACT:REG 15-02-19 03:23 OP:stll STATUS:               ID:20150218214750     3
 2015-02-18-2147-50M.COL___299                                                 6
 STAT SP IPHASW D HRMM SECON CODA AMPLIT PERI AZIMU VELO AIN AR TRES W  DIS CAZ7
 BAR2 EZ EP       2153 22.30                             172    0.0810 17.8 187 
 BAR2 EZ ES       2153 35.91                             172   -0.6310 17.8 187 
 BAR2 EZ I        2153 38.35        27.4 0.14            172           17.8 187 
 BRR  HZ EP       2153 24.30                             150    0.2610 72.4 303 
 BRR  HN ES       2153 40.51                             150    0.7310 72.4 303 
 PAM  SZ EP       2153 25.33                             147   -0.0610 82.7  38 
 PAM  SN ES       2153 42.00                             147   -0.1910 82.7  38 
 PAM  SZ I        2153 44.47        10.4 0.66            149           82.7  38 
 RUS  HZ EP       2153 26.55                             143    0.2710 95.4 175 
 RUS  HN ES       2153 44.10                             143    0.3310 95.4 175 
 RUS  HZ I        2153 45.80         8.5 0.20            145           95.4 175 
 PTB  HZ EP       2153 29.39                             130   -0.40 9  145 261 
 PTB  HN ES       2153 49.63                             130   -0.40 9  145 261 
 PTB  HZ I        2153 53.19         7.4 0.26            132            145 261 
 TAM  HZ EP       2153 30.76                             128   -0.07 9  156 103 
 ZAR  HZ EP       2153 35.68                             120   -0.05 9  204 294 
                                                                                
