 2016  518 2321 31.3 L   6.620 -73.511 98.0  RSN  9 0.5 1.5LRSN                1
 GAP= 71        1.11       3.5     3.7  7.7 -0.3698E+01  0.2708E+01  0.6469E+01E
 Epicentro: EL CARMEN - SANTANDER                                              3
 ACTION:UPD 16-08-18 17:47 OP:cam  STATUS:               ID:20160518232131 L   I
 OLDACT:UP  16-05-19 08:02 OP:dani STATUS:               ID:20160518231746     3
 OLDACT:REG 16-05-19 05:52 OP:dani STATUS:               ID:20160518231746     3
 2016-05-18-2317-46M.COL___302                                                 6
 STAT SP IPHASW D HRMM SECON CODA AMPLIT PERI AZIMU VELO AIN AR TRES W  DIS CAZ7
 BAR2 EZ EP       2321 45.81                             158    0.0910 36.5  95 
 BRR  HZ EP       2321 46.68                             147    0.0610 58.2 338 
 BRR  HE ES       2321 58.45                             147   -0.1110 58.2 338 
 BRR  HZ I        2322  3.39        10.7 0.38            144           58.2 338 
 RUS  HZ EP       2321 49.18                             134   -0.9010 93.4 149 
 RUS  HE ES       2322  5.08                             134    0.3510 93.4 149 
 PTB  HZ EP   4   2321 49.11                             130   -1.40 0  105 265 
 PTB  HN ES       2322  5.19                             130   -0.3010  105 265 
 PTB  HZ I        2322  9.30         8.3 0.16            129            105 265 
 PAM  EZ EP       2321 51.86                             126   -0.7410  120  48 
 PAM  EE ES       2322  9.87                             126    0.6610  120  48 
 PAM  EZ I        2322 11.07         4.2 0.16            128            120  48 
 SPBC HZ EP       2321 52.69                             125    0.2310  124 210 
 SPBC HE ES       2322  8.93                             125   -0.0410  124 210 
 ZAR  HZ EP       2321 58.49                             115    0.37 9  177 303 
 ZAR  HE ES   4   2322 20.87                             115    1.83 0  177 303 
 ZAR  HZ I        2322 25.62         6.6 0.28            114            177 303 
 NOR  HZ EP       2321 59.42                             113   -0.23 9  190 232 
 NOR  HN ES       2322 22.11                             113    0.34 9  190 232 
 NOR  HZ I        2322 23.47         4.0 0.11            114            190 232 
 PRA  HZ EP       2322 20.14                             102    0.93 6  356 205 
 PRA  HZ ES   2   2322 55.76                             102   -0.82 3  356 205 
 PRA  HN ES       2322 56.64                             102    0.06 6  356 205 
                                                                                
