 2016  618 2247 15.9 L   6.748 -73.170151.4  RSN  5 0.2 1.4LRSN                1
 GAP=136        0.53       2.6     2.7  4.6 -0.1885E+01  0.6584E+00  0.8626E+00E
 Epicentro: LOS SANTOS - SANTANDER                                             3
 ACTION:UPD 16-07-21 22:20 OP:rebc STATUS:               ID:20160618224715 L   I
 OLDACT:UP  16-06-19 04:45 OP:edw  STATUS:               ID:20160618223741     3
 OLDACT:REG 16-06-19 03:18 OP:edw  STATUS:               ID:20160618223741     3
 2016-06-18-2237-41M.COL___352                                                 6
 STAT SP IPHASW D HRMM SECON CODA AMPLIT PERI AZIMU VELO AIN AR TRES W  DIS CAZ7
 BRR  HZ EP       2247 37.71                             153    0.0210 71.9 304 
 BRR  HN ES       2247 54.62                             153   -0.0710 71.9 304 
 BRR  HZ I        2247 55.82         7.1 0.31                          71.9 304 
 PAM  EZ EP       2247 38.96                             150   -0.1110 83.5  38 
 PAM  EE ES       2247 57.38                             150    0.2310 83.5  38 
 PAM  EZ I        2247 58.92         4.4 0.28                          83.5  38 
 RUS  HZ EP       2247 39.79                             146   -0.0310 95.1 174 
 RUS  HN ES       2247 58.26                             146   -0.2310 95.1 174 
 RUS  HZ I        2247 59.81         2.7 0.28                          95.1 174 
 PTB  HZ EP       2247 43.02                             134    0.02 9  144 261 
 PTB  HE ES       2248  3.96                             134   -0.19 9  144 261 
 SPBC HE ES       2248  6.80                             131    0.41 9  157 220 
                                                                                
