 2015  718 2031 50.1 L   6.811 -73.120139.7  RSN 14 0.5 2.3LRSN                1
 GAP=139        1.04       2.8     4.4  6.2 -0.2690E+01  0.1474E+02 -0.3541E+00E
 Epicentro: LOS SANTOS - SANTANDER                                             3
 ACTION:UPD 15-09-08 21:49 OP:cam  STATUS:               ID:20150718203150 L   I
 OLDACT:UP  15-07-19 03:42 OP:ar   STATUS:               ID:20150718202748     3
 OLDACT:REG 15-07-19 02:45 OP:ar   STATUS:               ID:20150718202748     3
 2015-07-18-2027-48M.COL___343                                                 6
 STAT SP IPHASW D HRMM SECON CODA AMPLIT PERI AZIMU VELO AIN AR TRES W  DIS CAZ7
 BAR2 EZ EP       2032  8.80                             169   -0.2510 25.1 196 
 BAR2 EZ ES       2032 23.21                             169   -0.6110 25.1 196 
 BAR2 EZ I        2032 25.18        82.4 0.64            167           25.1 196 
 PAM  EZ EP       2032 12.12                             151    0.6010 74.7  38 
 PAM  EN ES       2032 28.94                             151    0.7210 74.7  38 
 PAM  EZ I        2032 31.52        16.0 0.52            155           74.7  38 
 RUS  HZ EP       2032 12.98                             142   -0.3710  102 178 
 RUS  HN ES       2032 31.43                             142   -0.0410  102 178 
 RUS  HZ I        2032 32.02        30.2 0.40            144            102 178 
 OCA  HZ EP       2032 17.67                             128   -0.21 9  159 352 
 OCA  HN ES       2032 39.29                             128   -0.24 9  159 352 
 OCA  HZ I        2032 44.57        64.9 0.30            130            159 352 
 ZAR  HZ EP       2032 22.14                             121   -0.26 8  206 292 
 ZAR  HE ES       2032 48.09                             121    0.52 8  206 292 
 ZAR  HZ I        2032 54.18        37.5 0.26            121            206 292 
 NOR  HZ EP       2032 25.35                             117   -0.47 8  238 235 
 NOR  HN ES       2032 54.05                             117    0.38 8  238 235 
 NOR  HZ I        2032 56.99        22.9 0.18            117            238 235 
 SML  HZ EP       2032 25.67                             116   -0.75 8  244 335 
 SML  HN ES       2032 54.54                             116   -0.19 8  244 335 
 SML  HZ I        2033  1.12        38.0 0.10            117            244 335 
 CHI  HZ EP   2   2032 27.22                             116   -0.48 4  251 196 
 CHI  HN ES   2   2032 57.70                             116    0.70 4  251 196 
 CHI  HZ I        2033  2.32         4.2 0.30            117            251 196 
 ROSC BZ EP   2   2032 29.06                             115    0.87 4  255 211 
 ROSC BN ES   2   2032 59.29                             115    1.41 4  255 211 
 ROSC BZ I        2033  6.61        12.0 0.35            116            255 211 
 HEL  HZ EP       2032 31.06                             113    0.70 8  275 256 
 HEL  HN ES       2033  1.74                             113   -0.01 8  275 256 
 HEL  HZ I        2033  9.18        13.2 0.46            114            275 256 
 GUY2CHZ EP   2   2032 34.42                             111    0.63 4  304 235 
 GUY2CHN ES   4   2033  9.02                             111    1.17 0  304 235 
 GUY2CHZ I        2033 14.14        15.2 0.30                           304 235 
 PTGC HZ EP   4   2032 32.11                             110   -1.61 0  309 159 
 PTGC HN ES   4   2033  4.77                             110   -2.96 0  309 159 
 CBOC HZ EP       2032 37.91                             109    0.77 7  337 252 
 CBOC HN ES       2033 13.49                             109   -0.32 7  337 252 
 CBOC HZ I        2033 19.02         3.9 0.42            109            337 252 
 TOL  SZ EP       2032 38.95                             108    0.49 6  346 225 
 TOL  SE ES       2033 15.85                             108   -0.32 6  346 225 
 TOL  SZ I        2033 26.42         7.0 0.40            109            346 225 
 ORTC HZ EP       2032 43.64                             105   -0.50 6  398 216 
 ORTC HE ES       2033 25.88                             105   -0.40 6  398 216 
 ORTC HZ I        2033 35.05         4.3 0.52            106            398 216 
                                                                                
