 2017  918 2016 22.6 L   6.759 -73.111146.0  RSN  5 0.2 1.8LRSN                1
 GAP=116        0.46       2.4     3.4  3.7  0.1526E+01 -0.1394E+01  0.1363E+01E
 Epicentro: LOS SANTOS - SANTANDER                                             3
 ACTION:UPD 17-10-05 19:13 OP:rebc STATUS:               ID:20170918201622 L   I
 OLDACT:UP  17-09-19 04:40 OP:mg   STATUS:               ID:20170918200746d    3
 OLDACT:UP  17-09-19 04:40 OP:mg   STATUS:               ID:20170918200746d    3
 OLDACT:DUP 17-09-19 04:32 OP:mg   STATUS:               ID:20170918200746d    3
 OLDACT:UP  17-09-19 04:31 OP:mg   STATUS:               ID:20170918200745d    3
 OLDACT:DUP 17-09-19 04:19 OP:mg   STATUS:               ID:20170918200745d    3
 2017-09-18-2008-00M.COL___457                                                 6
 STAT SP IPHASW D HRMM SECON CODA AMPLIT PERI AZIMU VELO AIN AR TRES W  DIS CAZ7
 BAR2 EZ EP       2016 41.81                             172   -0.3510 20.1 203 
 BAR2 EZ ES       2016 57.46                             172    0.0110 20.1 203 
 BAR2 EZ I        2016 58.65        14.7 0.18            172           20.1 203 
 BRR  HZ EP       2016 44.14                             151    0.0810 76.8 300 
 BRR  HN ES       2017  0.87                             151    0.0410 76.8 300 
 BRR  HZ I        2017  2.25        19.0 0.24            155           76.8 300 
 PAM  EZ EP     C 2016 44.99                             150    0.1110 78.6  35 
 PAM  EN ES       2017  2.27                             150   -0.0110 78.6  35 
 PAM  EZ I        2017  5.14         4.3 0.34            151           78.6  35 
 RUS  HZ EP       2016 45.94                             145   -0.0710 95.9 178 
 RUS  HN ES   1   2017  4.52                             145    0.23 7 95.9 178 
 RUS  HZ I        2017  6.10        10.8 0.28            146           95.9 178 
 YPLC HZ EP   2   2016 52.32                             128    0.51 4  171 152 
 YPLC HE ES   1   2017 14.54                             128   -0.08 7  171 152 
 YPLC HZ I        2017 19.22         6.2 0.24            128            171 152 
                                                                                
