 2014 1018 2233  2.3 L   6.804 -73.145144.6  RSN 19 0.5 2.7LRSN                1
 GAP= 65        1.64       3.9     4.8  7.3 -0.2929E+01  0.8882E+01  0.3749E+01E
 Epicentro: LOS SANTOS - SANTANDER                                             3
     100.0      12.0    -130.0 10.0  3.0 10.0  0.0  0.1           RSN FPFIT    F
 ACTION:UPD 14-11-29 23:51 OP:nd   STATUS:               ID:20141018223302 L   I
 OLDACT:REG 14-10-19 05:42 OP:stll STATUS:               ID:20141018222743     3
 2014-10-18-2227-43M.COL___272                                                 6
 STAT SP IPHASW D HRMM SECON CODA AMPLIT PERI AZIMU VELO AIN AR TRES W  DIS CAZ7
 BAR2 SZ IP     D 2233 21.98                             170    0.2310 23.7 190 
 BAR2 SZ ES       2233 36.88                             170   -0.0810 23.7 190 
 BAR2 SZ I        2233 38.31       116.4 0.12            170           23.7 190 
 BRR  HZ IP     C 2233 23.87                             152    0.6010 71.0 298 
 BRR  HN ES       2233 40.28                             152    0.6210 71.0 298 
 BRR  HZ I        2233 45.15        88.5 0.14            147           71.0 298 
 PAM  SZ IP     D 2233 24.75                             150    0.4210 77.0  40 
 PAM  SZ I        2233 25.06        57.9 0.24            146           77.0  40 
 PAM  SN ES       2233 41.70                             150    0.1610 77.0  40 
 RUS  HZ IP     C 2233 25.75                             143   -0.1710  101 176 
 RUS  HZ I        2233 26.68        37.7 0.46            140            101 176 
 RUS  HN ES       2233 43.81                             143   -0.5710  101 176 
 PTB  HZ EP       2233 28.44                             131   -0.70 9  148 259 
 PTB  HN ES       2233 49.55                             131   -0.56 9  148 259 
 PTB  HZ I        2233 54.42        83.6 0.16            126            148 259 
 TAM  HZ EP       2233 30.16                             130    0.31 9  155 105 
 TAM  HZ I        2233 50.83        35.2 0.40            126            155 105 
 TAM  HE ES       2233 50.86                             130   -0.51 9  155 105 
 OCA  HZ EP       2233 30.03                             129   -0.41 9  160 353 
 OCA  HN ES       2233 52.35                             129   -0.07 9  160 353 
 OCA  HZ I        2233 55.39        53.5 0.44            123            160 353 
 SPBC HZ IP     C 2233 30.89                             128    0.19 9  164 219 
 SPBC HZ I        2233 31.05        98.1 0.56            124            164 219 
 SPBC HN ES       2233 53.00                             128    0.12 9  164 219 
 SML  HZ EP       2233 38.47                             117   -0.31 8  243 335 
 SML  HE ES       2234  7.10                             117   -0.16 8  243 335 
 SML  HZ I        2234 15.39        50.0 0.20            112            243 335 
 CHI  HZ EP       2233 39.73                             116   -0.20 8  249 195 
 CHI  HZ I        2233 40.81        19.1 0.24            113            249 195 
 CHI  HN ES       2234  9.53                             116    0.21 8  249 195 
 HEL  HZ EP       2233 41.87                             114   -0.55 8  272 256 
 HEL  HN ES       2234 13.09                             114   -0.67 8  272 256 
 HEL  HZ I        2234 20.52        33.6 0.34            110            272 256 
 PTGC HZ EP   9 C 2233 44.75                             111   -1.35 0  309 159 
 PTGC HZ I        2233 45.39        73.1 0.14            108            309 159 
 PTGC HN ES       2234 16.59                                   -2.36 7  309 159 
 RREF HZ EP   9   2233 45.05                             110   -3.33 0  322 229 
 RREF HN ES       2234 19.52                                   -1.51 7  322 229 
 RREF HZ I        2234 28.80        21.6 0.24            107            322 229 
 DBB  SZ EP       2233 49.66                             109   -0.03 7  339 274 
 DBB  SZ I        2234 28.54        59.2 0.56            105            339 274 
 TOL  SZ EP       2233 51.45                             109    0.95 7  344 225 
 TOL  SN ES       2234 28.48                             109    0.35 7  344 225 
 TOL  SZ I        2234 33.91        55.3 0.34            105            344 225 
 ANIL HZ EP       2233 52.99                             108    0.94 6  358 224 
 ANIL HN ES       2234 32.07                             108    1.18 6  358 224 
 ANIL HZ I        2234 39.85         5.9 0.30            104            358 224 
 PRA  HZ EP       2233 55.49                             106   -0.29 6  392 210 
 PRA  HN ES       2234 37.00                             106   -0.53 6  392 210 
 PRA  HZ I        2234 44.32        28.8 0.26            103            392 210 
 ORTC HZ EP       2233 56.48                             106    0.30 6  396 216 
 ORTC HN ES       2234 38.17                             106   -0.07 6  396 216 
 ORTC HZ I        2234 45.78        20.6 0.50            103            396 216 
 SJC  HZ EP   9   2233 56.24                             105   -1.50 0  409 327 
 SJC  HN ES       2234 36.10                                   -3.42 6  409 327 
 SJC  HZ I        2234 40.69         5.6 0.44            102            409 327 
                                                                                
