 2011  918 2254 28.5 L   6.727 -73.113143.7  RSN  5 0.1 1.7LRSN                1
 GAP=191        0.33       6.2     8.6  5.2  0.4044E+02 -0.2365E+02 -0.1824E+02E
 Epicentro: JORDAN - SANTANDER                                                 3
 ACTION:UPD 12-07-13 15:58 OP:ep   STATUS:               ID:20110918225428 L   I
 2011-09-18-2251-38S.COL___171                                                 6
 STAT SP IPHASW D HRMM SECON CODA AMPLIT PERI AZIMU VELO AIN AR TRES W  DIS CAZ7
 BAR2 SZ EP   1   2254 47.80                             173    0.02 7 16.8 207 
 BAR2 SZ ES   1   2255  2.82                             173    0.02 7 16.8 207 
 BAR2 SZ I        2255  3.61         8.6 0.16                          16.8 207 
 BTL  SZ EP   1   2254 48.16                             169    0.18 7 27.1 321 
 GIR2 SZ EP   1   2254 48.04                             164   -0.16 7 39.8 347 
 BRR  HZ EP   1   2254 49.84                             150   -0.02 7 78.3 302 
 BRR  HN ES   1   2255  6.50                             150   -0.01 7 78.3 302 
 BRR  HZ I        2255 11.54        15.5 0.13                          78.3 302 
 RUS  HN ES   2   2255  9.32                             146   -0.07 5 92.4 178 
                                                                                
