 2017  318 2315 30.5 L   6.903 -73.307122.0  RSN 16 0.5 2.3LRSN                1
 GAP=104        1.04       3.3     4.3  5.1  0.2248E+01  0.8314E+01  0.1996E+01E
 Epicentro: BETULIA - SANTANDER                                                3
 ACTION:UPD 17-05-25 18:42 OP:jn   STATUS:               ID:20170318231530 L   I
 OLDACT:UP  17-03-19 08:25 OP:ar   STATUS:               ID:20170318230749d    3
 OLDACT:DUP 17-03-19 07:28 OP:ar   STATUS:               ID:20170318230749d    3
 2017-03-18-2308-00M.COL___397                                                 6
 STAT SP IPHASW D HRMM SECON CODA AMPLIT PERI AZIMU VELO AIN AR TRES W  DIS CAZ7
 BAR2 EZ IP     D 2315 47.90                             162    0.1710 37.0 158 
 BAR2 HN ES       2316  1.22                             162    0.0810 37.0 158 
 BAR2 EZ I        2316  1.55       138.1 0.38            158           37.0 158 
 BRR  HZ EP       2315 47.88                             156   -0.0610 50.1 297 
 BRR  HN ES       2316  1.49                             156   -0.0410 50.1 297 
 BRR  HZ I        2316  2.21        47.8 0.12            158           50.1 297 
 PAM  EZ EP   9   2315 52.31                             144    1.67 0 82.7  54 
 PAM  EN ES       2316  8.14                             142    0.1410 82.7  54 
 PAM  EZ I        2316  9.20        29.4 0.28            147           82.7  54 
 RUS  HZ EP       2315 52.90                             134   -0.2910  114 167 
 RUS  HN ES       2316 10.98                             134    0.1110  114 167 
 PTB  HZ EP   4   2315 52.52                             129   -1.74 0  133 253 
 PTB  HN ES   2   2316 13.05                             129    0.28 5  133 253 
 PTB  HZ I        2316 14.94        40.6 0.18            129            133 253 
 SPBC HZ EP       2315 56.33                             123   -0.88 9  162 212 
 SPBC HE ES   2   2316 17.81                             123   -0.21 5  162 212 
 SPBC HZ I        2316 22.61        29.0 0.10            122            162 212 
 ZAR  HZ EP       2315 59.80                             120    0.50 9  183 291 
 ZAR  HN ES       2316 21.80                             120    0.05 9  183 291 
 ZAR  HZ I        2316 22.46        36.7 0.14            121            183 291 
 NOR  HZ EP       2316  3.77                             114   -0.43 8  228 229 
 NOR  HN ES       2316 29.94                             114   -0.53 8  228 229 
 NOR  HZ I        2316 32.21        34.9 0.28            113            228 229 
 ROSC BZ EP   4   2316  9.18                             111    1.56 0  254 206 
 ROSC BE ES   4   2316 40.21                             111    3.65 0  254 206 
 ROSC BZ I        2316 47.44        10.7 0.35            111            254 206 
 CHI  HZ EP       2316  7.91                             111    0.08 8  256 191 
 CHI  HE ES       2316 37.41                             111    0.48 8  256 191 
 CHI  HZ I        2316 45.16         6.6 0.62            110            256 191 
 URE  HZ EP       2316  7.00                             110   -1.16 8  263 291 
 URE  HN ES   4   2316 35.17                             110   -2.34 0  263 291 
 URE  HZ I        2316 36.26        27.5 0.14            111            263 291 
 GUY2CHZ EP       2316 11.98                             108   -0.31 7  294 231 
 GUY2CHN ES   4   2316 46.16                             108    1.29 0  294 231 
 GUY2CHZ  IAML    2316 51.58        12.6 0.62                           294 231 
 CBOC HZ EP       2316 15.07                             106    0.04 7  321 249 
 CBOC HN ES       2316 50.38                             106    0.64 7  321 249 
 CBOC HZ I        2316 50.76         4.0 0.46            106            321 249 
 ELA  HZ EP       2316 16.81                             106    0.98 7  324 226 
 ELA  HN ES       2316 52.02                             106    0.85 7  324 226 
 ELA  HZ I        2316 58.44         9.4 0.36            106            324 226 
 PRA  HZ EP   2   2316 23.95                             102    0.43 3  394 206 
 PRA  HN ES   4   2317  7.27                             102    2.41 0  394 206 
 PRA  HZ I        2317 10.86         6.9 0.34            102            394 206 
 CRJC HZ EP       2316 31.20                             100   -0.06 5  458   6 
 CRJC HE ES       2317 19.71                             100    1.07 5  458   6 
                                                                                
