 2013  818 2123 22.7 L   6.727 -73.283141.1  RSN  4 0.5 1.4LRSN                1
 GAP=192        1.24      12.7    12.4 12.3  0.1092E+03  0.6849E+02  0.6894E+02E
 Epicentro: GALAN - SANTANDER                                                  3
 ACTION:UPD 14-01-14 09:04 OP:ep   STATUS:               ID:20130818212322 L   I
 OLDACT:REG 13-08-19 04:11 OP:carl STATUS:               ID:20130818212000     3
 2013-08-18-2120-00M.COL___268                                                 6
 STAT SP IPHASW D HRMM SECON CODA AMPLIT PERI AZIMU VELO AIN AR TRES W  DIS CAZ7
 BAR2 SZ ES       2123 55.66                             172   -0.7910 18.6 143 
 BAR2 SZ I        2123 57.18         5.8 0.20            175           18.6 143 
 BRR  HN ES       2123 59.22                             154    0.5710 63.4 312 
 BRR  HN I        2124  5.05        12.3 0.20            153           63.4 312 
 RUS  HZ EP       2123 45.43                             144   -0.1210 94.9 167 
 RUS  HE ES       2124  3.97                             144    0.5710 94.9 167 
 RUS  HZ I        2124  5.29         2.1 0.30            149           94.9 167 
 PTB  HZ EP       2123 47.77                             134   -0.0210  131 261 
 PTB  HN ES   1   2124  6.96                             134   -0.43 7  131 261 
 PTB  HZ I        2124 11.12         2.4 0.10            135            131 261 
                                                                                
