 2012  818 2354 22.8 L   7.346 -73.121 10.2  RSN  6 0.4 1.5LRSN                1
 GAP=176        0.75       3.7     2.0  4.3 -0.1162E+01  0.2147E+01  0.2515E+01E
 Epicentro: RIONEGRO - SANTANDER                                               3
 ACTION:UPD 12-09-10 11:57 OP:ep   STATUS:               ID:20120818235422 L   I
 2012-08-18-2350-00M.COL___217                                                 6
 STAT SP IPHASW D HRMM SECON CODA AMPLIT PERI AZIMU VELO AIN AR TRES W  DIS CAZ7
 PAM  SZ IP     C 2354 30.97                              99   -0.0510 46.6  91 
 PAM  SZ I        2354 31.20        33.2 0.09                          46.6  91 
 PAM  SE ES   1   2354 37.23                              99   -0.21 7 46.6  91 
 BRR  HZ EP       2354 34.33                              95    0.2410 70.4 248 
 BRR  HE ES       2354 42.59                              95   -0.3110 70.4 248 
 BRR  HZ I        2354 44.59        12.3 0.15                          70.4 248 
 BAR2 SZ ES   1   2354 47.08                              95    0.16 7 83.7 185 
 BAR2 SZ I        2354 47.82        17.3 0.13                          83.7 185 
 RUS  HZ EP   1   2354 49.07                              56    0.87 7  161 178 
 RUS  HE ES   1   2355  7.51                              56   -0.52 7  161 178 
 RUS  HZ I        2355 11.98         5.4 0.20                           161 178 
 PTB  HE ES   1   2355  9.53                              56   -0.05 7  172 239 
 ZAR  HE ES   1   2355 14.02                              56    0.01 7  192 275 
 ZAR  HZ I        2355 15.92         5.1 0.35                           192 275 
                                                                                
