 2010  218 2154 20.8 L   6.817 -73.081146.4  RSN  9 0.4 2.9LRSN                1
 GAP=130        0.76       3.4     8.6  6.0 -0.7450E+01  0.1821E+02 -0.9552E+00E
 Epicentro: LOS SANTOS - SANTANDER                                             3
 ACTION:UP  10-08-24 09:49 OP:vdl  STATUS:               ID:20100218215420 L   I
 2010-02-18-2151-23S.COL___094                                                 6
 STAT SP IPHASW D HRMM SECON CODA AMPLIT PERI AZIMU VELO SNR AR TRES W  DIS CAZ7
 BAR2 SZ IP       2154 40.81                             169     0.210   27 205 
 BAR2 SZ ES   1   2154 55.58                             169    -0.5 7   27 205 
 RUS  BZ IP       2154 44.71                             143    -0.110  102 180 
 RUS  BE ES   1   2155  3.68                             143     0.2 7  102 180 
 RUS  BZ I        2155  4.77        54.1 0.45                           102 180 
 OCA  SZ EP       2154 49.36                             130     0.3 9  159 351 
 OCA  SZ ES   1   2155 11.08                             130    -0.1 7  159 351 
 CHI  HZ EP       2154 58.88                             117    -0.1 8  252 197 
 CHI  HN ES   2   2155 29.65                             117     0.9 4  252 197 
 CHI  HZ I        2155 31.76        23.9 0.56                           252 197 
 HEL  HZ EP   1   2155  1.64                             114    -0.3 6  279 256 
 RREF BZ EP   1   2155  7.88                             110     0.1 5  328 230 
 RREF BZ I        2155 52.29        32.2 0.41                           328 230 
 SDV  BZ EP   1   2155  9.87                             109    -0.2 5  354  50 
 ANIL BZ EP       2155 11.80                             108     0.4 6  364 225 
 ANIL BZ I        2155 57.37        63.9 0.33                           364 225 
 PRA  HZ EP       2155 14.06                             106    -0.9 6  397 210 
 PRA  HN ES   2   2155 57.11                             106    -0.1 3  397 210 
 PRA  HZ I        2156  2.56        36.7 0.44                           397 210 
                                                                                
