 2011  218 2202  9.7 L   6.772 -73.166144.7  RSN  6 0.4 1.7LRSN                1
 GAP=157        0.83       7.0    11.9  7.9 -0.1505E+02  0.1846E+02  0.1523E+01E
 Epicentro: LOS SANTOS - SANTANDER                                             3
 ACTION:UP  11-03-28 15:09 OP:jfem STATUS:               ID:20110218220209 L   I
 2011-02-18-2158-46S.COL___137                                                 6
 STAT SP IPHASW D HRMM SECON CODA AMPLIT PERI AZIMU VELO SNR AR TRES W  DIS CAZ7
 BTL  SZ EP       22 2 29.65                             171     0.510   20 325 
 BTL  SZ ES   1   22 2 44.01                             171    -0.3 7   20 325 
 BAR2 SZ EP   1   22 2 29.20                             172     0.0 7   20 185 
 BAR2 SZ ES   1   22 2 44.64                             172     0.3 7   20 185 
 BAR2 SZ I        22 2 45.62        24.6 0.30                            20 185 
 RUS  HZ EP   1   22 2 33.26                             145     0.1 7   98 175 
 RUS  HN ES   1   22 2 50.96                             145    -0.5 7   98 175 
 RUS  HZ I        22 2 52.89         8.1 0.24                            98 175 
 GRA  SZ EP   2   22 2 34.35                             136    -0.9 5  129  18 
 GRA  SZ I        22 2 54.51         3.7 0.28                           129  18 
 NOR  SZ EP   2   22 2 44.65                             118    -0.4 4  231 235 
 NOR  SN ES   2   22 3 12.52                             118     0.0 4  231 235 
 CHI  HZ EP   2   22 2 47.15                             117     0.2 4  245 195 
 CHI  HZ I        22 3 24.13         3.3 0.46                           245 195 
                                                                                
