 2014  718 2059 52.6 L   6.781 -73.167146.7  RSN  6 0.3 1.8LRSN                1
 GAP=135        0.92       4.6     4.6  6.5 -0.5790E+01  0.2892E+01  0.4983E+01E
 Epicentro: LOS SANTOS - SANTANDER                                             3
 ACTION:UPD 15-03-16 20:45 OP:nd   STATUS:               ID:20140718205952 L   I
 OLDACT:UP  14-07-19 04:42 OP:cam  STATUS:               ID:20140718205847     3
 OLDACT:REG 14-07-19 04:38 OP:cam  STATUS:               ID:20140718205847     3
 2014-07-18-2058-47M.COL___272                                                 6
 STAT SP IPHASW D HRMM SECON CODA AMPLIT PERI AZIMU VELO AIN AR TRES W  DIS CAZ7
 BAR2 SZ EP       21 0 12.26                             171   -0.0410 21.0 185 
 BAR2 SZ ES       21 0 27.42                             171   -0.2410 21.0 185 
 BAR2 SZ I        21 0 28.76        23.5 0.28            170           21.0 185 
 BRR  HN ES       21 0 31.09                             153    0.7710 70.2 301 
 BRR  HZ I        21 0 31.87        13.4 0.28            153           70.2 301 
 PAM  SZ EP     C 21 0 15.26                             150    0.1610 80.5  40 
 PAM  SN ES       21 0 32.29                             150   -0.3610 80.5  40 
 PAM  SZ I        21 0 34.40         9.3 0.40            153           80.5  40 
 RUS  HZ EP       21 0 16.36                             144    0.0510 98.7 175 
 RUS  HN ES       21 0 34.91                             144    0.1110 98.7 175 
 RUS  HZ I        21 0 36.04         7.8 0.36            145           98.7 175 
 PTB  HZ EP       21 0 19.06                             133   -0.34 9  145 259 
 PTB  HN ES       21 0 39.77                             133   -0.53 9  145 259 
 PTB  HZ I        21 0 42.61         5.9 0.10            133            145 259 
 SPBC HZ EP       21 0 21.22                             130    0.34 9  160 219 
 SPBC HN ES       21 0 42.99                             130    0.05 9  160 219 
 SPBC HZ I        21 0 49.39        11.8 0.26            130            160 219 
                                                                                
