 2016  418 2351 12.7 L   6.758 -73.151140.0  RSN  5 0.3 1.6LRSN                1
 GAP=138        0.78       4.0     3.6  6.1 -0.3101E+00  0.8450E+01 -0.4100E+01E
 Epicentro: LOS SANTOS - SANTANDER                                             3
 ACTION:UPD 16-05-05 14:22 OP:rebc STATUS:               ID:20160418235112 L   I
 OLDACT:ARG 16-04-19 13:26 OP:cara STATUS:               ID:20160418234746     3
 2016-04-18-2347-46M.COL___305                                                 6
 STAT SP IPHASW D HRMM SECON CODA AMPLIT PERI AZIMU VELO AIN AR TRES W  DIS CAZ7
 BAR2 EZ EP       2351 31.37                             172   -0.1410 18.6 191 
 BAR2 EZ ES       2351 46.15                             172   -0.0610 18.6 191 
 PAM  EZ EP       2351 34.50                             148   -0.0110 81.4  38 
 PAM  EN ES       2351 51.51                             148   -0.0510 81.4  38 
 PAM  EZ I        2351 53.52         9.9 0.58            151           81.4  38 
 RUS  HZ EP       2351 35.37                             144   -0.1410 96.0 176 
 RUS  HN ES       2351 53.75                             144    0.4210 96.0 176 
 RUS  HZ I        2351 55.10         3.7 0.26            147           96.0 176 
 PTB  HZ EP       2351 38.53                             131   -0.50 9  146 261 
 PTB  HN ES       2351 59.35                             131   -0.25 9  146 261 
 PTB  HZ I        2352  2.94         4.3 0.20            132            146 261 
 ZAR  HZ EP       2351 45.48                             121    0.61 8  205 293 
 ZAR  HE ES       2352 10.25                             121    0.26 8  205 293 
 ZAR  HZ I        2352 15.81         7.8 0.80            122            205 293 
                                                                                
