 2013  218 2107 14.5 L   6.763 -73.136140.8  RSN  7 0.4 2.3LRSN                1
 GAP=139        0.74       4.7     5.4  6.6  0.1177E+01  0.1253E+02  0.1760E+01E
 Epicentro: LOS SANTOS - SANTANDER                                             3
 ACTION:UPD 13-03-12 09:34 OP:ep   STATUS:               ID:20130218210715dL   I
 2013-02-18-2100-00M.COL___240                                                 6
 STAT SP IPHASW D HRMM SECON CODA AMPLIT PERI AZIMU VELO AIN AR TRES W  DIS CAZ7
 BAR2 SZ EP   1   21 7 33.28                             172   -0.19 7 19.6 195 
 BAR2 SZ ES   1   21 7 48.04                             172   -0.22 7 19.6 195 
 BAR2 SZ I        21 7 50.46        24.7 0.16            169           19.6 195 
 BRR  HZ EP   1   21 7 35.24                             151   -0.06 7 74.1 301 
 BRR  HN ES   2   21 7 52.15                             151    0.64 5 74.1 301 
 BRR  HN I        21 7 52.86        62.4 0.16            147           74.1 301 
 PAM  SZ EP   1   21 7 36.38                             149    0.02 7 79.9  37 
 PAM  SN ES   1   21 7 53.36                             149   -0.03 7 79.9  37 
 PAM  SN I        21 7 54.54        34.0 0.42            153           79.9  37 
 RUS  HZ EP   1   21 7 37.48                             144    0.01 7 96.4 177 
 RUS  HN ES   1   21 7 55.66                             144    0.28 7 96.4 177 
 RUS  HN I        21 7 56.80        15.5 0.22            147           96.4 177 
 PTB  HZ EP   1   21 7 40.28                             131   -0.83 7  148 260 
 PTB  HN ES   2   21 8  1.21                             131   -0.64 5  148 260 
 PTB  HN I        21 8  6.34        36.2 0.24            130            148 260 
 ZAR  HZ EP   1   21 7 47.20                             121    0.30 6  207 293 
 ZAR  HN ES   2   21 8 13.17                             121    1.00 4  207 293 
 ZAR  HN I        21 8 20.20        20.9 0.60            121            207 293 
 CHI  HZ EP   1   21 7 52.08                             116    0.54 6  245 196 
                                                                                
