 2013  518 2021  3.8 L   6.789 -73.155150.4  RSN  6 0.4 2.0LRSN                1
 GAP=136        0.83       4.0     4.8  6.6 -0.2117E+01  0.3205E+01  0.7268E+01E
 Epicentro: LOS SANTOS - SANTANDER                                             3
 ACTION:UPD 13-06-20 09:51 OP:ep   STATUS:               ID:20130518202103 L   I
 2013-05-18-2020-00M.COL___256                                                 6
 STAT SP IPHASW D HRMM SECON CODA AMPLIT PERI AZIMU VELO AIN AR TRES W  DIS CAZ7
 GIR2 SZ EP   1   2021 23.87                             167   -0.14 7 32.3 352 
 GIR2 SZ ES   2   2021 39.57                             167   -0.24 5 32.3 352 
 BRR  HZ IP     C 2021 25.71                             153    0.3110 70.9 300 
 BRR  HN ES       2021 42.83                             153    0.5610 70.9 300 
 BRR  HZ I        2021 45.82        17.5 0.32            153           70.9 300 
 PAM  SZ EP       2021 26.75                             151    0.1910 78.9  40 
 PAM  SZ I        2021 27.02        31.2 0.22            155           78.9  40 
 PAM  SN ES       2021 44.06                             151   -0.2810 78.9  40 
 RUS  HZ EP       2021 27.76                             145   -0.1310 99.5 175 
 RUS  HN ES       2021 46.58                             145   -0.1410 99.5 175 
 RUS  HZ I        2021 47.77        12.0 0.28            145           99.5 175 
 PTB  HZ EP       2021 30.61                             133   -0.40 9  147 259 
 PTB  HN ES   1   2021 51.59                             133   -0.67 7  147 259 
 PTB  HZ I        2021 53.49        14.8 0.12            133            147 259 
 CHI  HZ EP   1   2021 41.85                             118    0.28 6  247 195 
 CHI  HN ES   1   2022 11.65                             118    0.59 6  247 195 
 CHI  HZ I        2022 16.96         6.0 0.44            119            247 195 
                                                                                
