 2012  218 2133 57.6 L   6.768 -73.157148.9  RSN  8 0.4 1.8LRSN                1
 GAP=137        0.80       4.2     4.4  7.8 -0.1093E+01  0.5491E+01  0.1028E+02E
 ACTION:UP  12-03-07 16:31 OP:epov STATUS:               ID:20120218213357 L   I
 2012-02-18-2130-00M.COL___188                                                 6
 STAT SP IPHASW D HRMM SECON CODA AMPLIT PERI AZIMU VELO AIN AR TRES W  DIS CAZ7
 GIR2 SZ EP   1   2134 17.61                             166   -0.11 7 34.6 353 
 BRR  HZ EP   1   2134 19.63                             153    0.52 7 71.9 301 
 BRR  HE ES   1   2134 36.48                             153    0.58 7 71.9 301 
 BRR  HZ I        2134 39.86        15.2 0.19                          71.9 301 
 PAM  SZ EP   1   2134 20.34                             150    0.00 7 80.8  39 
 PAM  SN ES   1   2134 37.57                             150   -0.52 7 80.8  39 
 PAM  SZ I        2134 40.33         7.4 0.37                          80.8  39 
 RUS  HZ EP   1   2134 21.37                             145   -0.03 7 97.2 175 
 RUS  HN ES   1   2134 40.30                             145    0.31 7 97.2 175 
 RUS  HZ I        2134 42.00         9.0 0.42                          97.2 175 
 PTB  HZ EP   1   2134 24.06                             133   -0.58 7  146 260 
 PTB  HN ES   1   2134 45.28                             133   -0.48 7  146 260 
 ZAR  HN ES   1   2134 55.68                             123   -0.06 6  204 293 
 ZAR  HZ I        2135  0.88         6.3 0.14                           204 293 
 NOR  SZ EP   1   2134 33.36                             119    0.19 6  232 235 
 NOR  SN ES   1   2135  1.08                             119    0.14 6  232 235 
 CHI  HZ EP   1   2134 35.73                             118    0.67 6  245 195 
 CHI  HN ES   1   2135  3.63                             118   -0.66 6  245 195 
 CHI  HZ I        2135 13.09         4.7 0.52                           245 195 
                                                                                
