 2017  618 2328 46.6 L   6.808 -73.168156.7  RSN  5 0.2 1.7LRSN                1
 GAP=295        0.51       4.4     5.0  5.6 -0.7387E+01 -0.6617E+01  0.1160E+02E
 Epicentro: LOS SANTOS - SANTANDER                                             3
 ACTION:UPD 17-09-14 16:53 OP:jn   STATUS:               ID:20170618232846 L   I
 OLDACT:UP  17-06-19 08:11 OP:edw  STATUS:               ID:20170618232739     3
 OLDACT:UP  17-06-19 08:10 OP:edw  STATUS:               ID:20170618232739     3
 OLDACT:REG 17-06-19 06:30 OP:edw  STATUS:               ID:20170618232739     3
 2017-06-18-2328-00M.COL___335                                                 6
 STAT SP IPHASW D HRMM SECON CODA AMPLIT PERI AZIMU VELO AIN AR TRES W  DIS CAZ7
 BRR  HZ EP       2329  9.14                             155    0.3110 68.7 299 
 BRR  HN ES       2329 25.98                             155   -0.1710 68.7 299 
 BRR  HZ I        2329 30.42        11.1 0.12            151           68.7 299 
 PTB  HZ EP       2329 14.40                             135    0.09 9  146 258 
 PTB  HN ES       2329 35.80                             135   -0.11 9  146 258 
 PTB  HZ I        2329 38.05         3.9 0.12            134            146 258 
 SPBC HN ES   4   2329 36.70                             131   -2.05 0  162 218 
 ZAR  HZ EP   2   2329 19.27                             125   -0.28 4  201 292 
 ZAR  HN ES       2329 45.23                             125    0.01 9  201 292 
 ZAR  HZ I        2329 51.55         6.8 0.54            124            201 292 
 NOR  HZ EP       2329 22.51                             121   -0.35 8  233 234 
 NOR  HN ES       2329 51.29                             121    0.17 8  233 234 
 NOR  HZ I        2329 55.14         1.9 0.14            122            233 234 
 HEL  HN ES   2   2329 59.07                             117    0.25 4  270 255 
 SJC  HN ES   4   2330 23.69                             107   -2.08 0  407 327 
                                                                                
