 2016  918 2130 16.1 L   6.788 -73.116139.0  RSN 12 0.4 2.1LRSN                1
 GAP=141        0.84       2.4     3.0  4.3 -0.1358E+01  0.4024E+01  0.1107E+01E
 Epicentro: LOS SANTOS - SANTANDER                                             3
 ACTION:UPD 17-08-17 21:13 OP:lp   STATUS:               ID:20160918213016 L   I
 OLDACT:REG 16-09-19 04:23 OP:cara STATUS:               ID:20160918212745     3
 2016-09-18-2128-00M.COL___360                                                 6
 STAT SP IPHASW D HRMM SECON CODA AMPLIT PERI AZIMU VELO AIN AR TRES W  DIS CAZ7
 BAR2 EZ EP       2130 34.82                             170   -0.0910 22.9 199 
 BAR2 EZ ES       2130 49.57                             170   -0.0010 22.9 199 
 BAR2 EZ I        2130 51.02        39.5 0.18            169           22.9 199 
 BRR  HZ EP       2130 36.89                             150    0.1610 74.7 298 
 BRR  HN ES       2130 53.21                             150    0.3910 74.7 298 
 BRR  HZ I        2130 55.97        15.4 0.28            149           74.7 298 
 PAM  EZ EP       2130 37.88                             150    0.3510 76.3  37 
 PAM  EZ ES       2130 54.61                             150    0.3610 76.3  37 
 PAM  EZ I        2130 57.14        13.5 0.54            153           76.3  37 
 RUS  HZ EP       2130 38.81                             143   -0.2710 99.1 178 
 RUS  HN ES       2130 56.80                             143   -0.2110 99.1 178 
 RUS  HZ I        2130 58.52        10.1 0.32            145           99.1 178 
 PTB  HZ EP       2130 42.55                             130   -0.25 9  151 260 
 PTB  HE ES       2131  3.13                             130   -0.50 9  151 260 
 PTB  HZ I        2131  5.93        16.9 0.20            130            151 260 
 OCA  HZ EP       2130 44.14                             128    0.08 9  162 352 
 OCA  HE ES       2131  5.44                             128   -0.42 9  162 352 
 OCA  HZ I        2131  9.42        30.2 0.28            130            162 352 
 SPBC HZ EP       2130 43.85                             127   -0.35 9  164 220 
 SPBC HN ES       2131  5.73                             127   -0.38 9  164 220 
 SPBC HZ I        2131 10.40        25.5 0.16            128            164 220 
 ZAR  HZ EP       2130 48.15                             120   -0.34 8  208 292 
 ZAR  HN ES       2131 13.48                             120   -0.26 8  208 292 
 ZAR  HZ I        2131 19.14        14.7 0.26            121            208 292 
 NOR  HZ EP       2130 52.13                             117    0.47 8  237 235 
 NOR  HE ES       2131 19.38                             117   -0.01 8  237 235 
 NOR  HZ I        2131 25.50        12.8 0.18            118            237 235 
 CHI  HZ EP       2130 53.08                             116   -0.31 8  248 196 
 CHI  HN ES       2131 22.87                             116    0.39 8  248 196 
 CHI  HZ I        2131 27.96         4.9 0.26            117            248 196 
 HEL  HZ EP       2130 56.24                             113   -0.06 8  275 256 
 HEL  HN ES       2131 28.19                             113    0.53 8  275 256 
 HEL  HZ I        2131 33.87         5.6 0.24            114            275 256 
 GUY2CHZ EP       2131  0.23                             111    0.60 7  303 235 
 GUY2CHE ES       2131 34.29                             111    0.71 7  303 235 
 GUY2CHZ I        2131 41.47         7.0 0.38                           303 235 
                                                                                
