 2011  818 2346 56.1 L   6.802 -73.103146.5  RSN 12 0.4 2.8LRSN                1
 GAP=187        0.70       2.9     5.3  4.7 -0.1353E+01  0.8228E+01  0.2046E+01E
 Epicentro: LOS SANTOS - SANTANDER                                             3
 ACTION:UPD 12-07-13 15:52 OP:ep   STATUS:               ID:20110818234656 L   I
 2011-08-18-2345-38S.COL___150                                                 6
 STAT SP IPHASW D HRMM SECON CODA AMPLIT PERI AZIMU VELO AIN AR TRES W  DIS CAZ7
 BAR2 SZ EP       2347 16.04                             170    0.1510 24.8 201 
 BAR2 SZ ES   1   2347 30.95                             170   -0.34 7 24.8 201 
 BAR2 SZ I        2347 32.72       127.4 0.32                          24.8 201 
 BRR  HZ IP     C 2347 17.95                             151    0.3510 75.2 297 
 BRR  HN ES   1   2347 34.97                             151    0.63 7 75.2 297 
 BRR  HZ I        2347 37.81       106.4 0.16                          75.2 297 
 RUS  HZ EP       2347 19.91                             144   -0.0510  101 179 
 RUS  HN ES   1   2347 38.45                             144   -0.09 7  101 179 
 OCA  SZ EP       2347 24.24                             130   -0.30 9  161 351 
 OCA  SZ ES   2   2347 46.39                             130   -0.31 5  161 351 
 OCA  SZ I        2347 53.58        62.8 0.30                           161 351 
 NOR  SZ EP       2347 32.04                             118   -0.29 8  239 235 
 NOR  SN ES   1   2347 59.40                             118   -1.16 6  239 235 
 CHI  HZ EP       2347 34.03                             117   -0.01 8  250 196 
 CHI  HN ES   1   2348  3.80                             117    0.20 6  250 196 
 VIL  SN ES   2   2348 13.63                             112   -0.09 4  305 192 
 VIL  SZ I        2348 24.17        21.0 0.64                           305 192 
 RREF HZ EP   1   2347 43.29                             111    0.56 5  325 230 
 RREF HE ES   2   2348 19.57                             111    0.49 3  325 230 
 RREF HZ I        2348 28.42        23.4 0.24                           325 230 
 DBB  SZ EP       2347 44.00                             109   -0.18 7  344 274 
 TOL  SZ EP       2347 45.25                             109    0.43 6  347 225 
 ANIL HZ EP       2347 46.39                             108    0.02 6  361 225 
 ANIL HE ES   2   2348 25.84                             108    0.29 3  361 225 
 ANIL HZ I        2348 29.73        61.0 0.34                           361 225 
 PRA  HZ EP       2347 49.86                             107   -0.12 6  395 210 
 PRA  HN ES   2   2348 31.99                             107    0.02 3  395 210 
                                                                                
