 2013  718 2057 53.4 L   6.759 -73.129137.3  RSN  7 0.4 1.7LRSN                1
 GAP=161        1.14       5.6     6.4  8.8 -0.2474E+01 -0.2270E+01 -0.8284E+01E
 Epicentro: LOS SANTOS - SANTANDER                                             3
 ACTION:UPD 13-08-12 10:38 OP:ep   STATUS:               ID:20130718205753 L   I
 OLDACT:REG 13-07-18 22:18 OP:stll STATUS:               ID:20130718204850     3
 2013-07-18-2048-50M.COL___225                                                 6
 STAT SP IPHASW D HRMM SECON CODA AMPLIT PERI AZIMU VELO AIN AR TRES W  DIS CAZ7
 BAR2 SZ ES       2058 25.90                             172   -0.5010 19.4 198 
 BAR2 SZ I        2058 28.22         8.8 0.18            173           19.4 198 
 GIR2 SZ EP       2058 12.06                             164   -0.1610 36.1 349 
 BRR  HN ES       2058 30.65                             150    0.8010 75.1 301 
 BRR  HN I        2058 34.97        16.3 0.22            151           75.1 301 
 RUS  HZ EP       2058 16.20                             143    0.2010 96.0 177 
 RUS  HN ES       2058 33.87                             143    0.2610 96.0 177 
 RUS  HN I        2058 36.36         5.5 0.32            147           96.0 177 
 GRA  SZ EP       2058 17.93                             134   -0.3110  130  16 
 PTB  HZ EP       2058 20.19                             130    0.39 9  149 261 
 PTB  HN ES       2058 39.68                             130   -0.70 9  149 261 
 PTB  HN I        2058 42.42        12.3 0.36            133            149 261 
 SPBC HN ES       2058 42.56                             127   -0.05 9  161 221 
                                                                                
