 2011 1218 2114 10.1 L   6.758 -73.092149.5  RSN  4 0.2 0.9LRSN                1
 GAP=145        0.41       3.9     5.5  6.8  0.8145E+00  0.1282E+01  0.1523E+01E
 Epicentro: LOS SANTOS - SANTANDER                                             3
 ACTION:UPD 12-07-13 16:17 OP:ep   STATUS:               ID:20111218211410 L   I
 2011-12-18-2110-00M.COL___188                                                 6
 STAT SP IPHASW D HRMM SECON CODA AMPLIT PERI AZIMU VELO AIN AR TRES W  DIS CAZ7
 GIR2 SZ EP   1   2114 30.32                             165   -0.09 7 37.2 343 
 PAM  SZ EP   1   2114 33.02                             151    0.27 7 77.6  34 
 PAM  SZ I        2114 33.32         2.3 0.17                          77.6  34 
 PAM  SE ES   2   2114 50.12                             151   -0.28 5 77.6  34 
 BRR  HZ EP       2114 32.12                             151    0.0210 78.6 299 
 BRR  HN ES   2   2114 49.27                             151    0.02 5 78.6 299 
 RUS  HZ EP   1   2114 33.70                             146   -0.21 7 95.7 179 
 RUS  HN ES   2   2114 52.72                             146    0.26 5 95.7 179 
 RUS  HZ I        2114 53.86         1.0 0.17                          95.7 179 
                                                                                
