 2012 1018 2135 30.6 L   6.768 -73.103145.9  RSN  5 0.1 2.3LRSN                1
 GAP=144        0.34       2.2     3.4  2.9 -0.8606E-01 -0.8038E+00  0.6156E+00E
 Epicentro: LOS SANTOS - SANTANDER                                             3
 ACTION:UPD 12-11-22 17:04 OP:ep   STATUS:               ID:20121018213530 L   I
 2012-10-18-2130-00M.COL___230                                                 6
 STAT SP IPHASW D HRMM SECON CODA AMPLIT PERI AZIMU VELO AIN AR TRES W  DIS CAZ7
 BAR2 SZ EP       2135 50.20                             171   -0.0110 21.3 204 
 BAR2 SZ ES   1   2136  5.43                             171   -0.07 7 21.3 204 
 BAR2 SZ I        2136  6.77        56.6 0.16                          21.3 204 
 GIR2 SZ EP       2135 50.22                             166   -0.2010 35.8 344 
 GIR2 SZ ES   1   2136  5.91                             166    0.03 7 35.8 344 
 BRR  HZ EP       2135 52.04                             151   -0.0710 77.1 299 
 BRR  HZ I        2135 52.24        32.5 0.54                          77.1 299 
 BRR  HN ES   1   2136  9.03                             151    0.15 7 77.1 299 
 PAM  SZ EP       2135 52.99                             151    0.1610 77.3  35 
 PAM  SZ I        2135 53.33        22.7 0.46                          77.3  35 
 PAM  SN ES   1   2136 10.13                             151   -0.04 7 77.3  35 
 RUS  HZ EP       2135 54.16                             145    0.0610 96.8 179 
 RUS  HN ES   1   2136 12.45                             145    0.03 7 96.8 179 
 RUS  HN I        2136 14.09        30.7 0.18                          96.8 179 
                                                                                
