 2015  118 2227 37.8 L   6.788 -73.173144.8  RSN 11 0.4 2.0LRSN                1
 GAP=134        0.93       2.7     3.7  5.1 -0.6361E+00  0.4283E+01  0.8832E+00E
 Epicentro: LOS SANTOS - SANTANDER                                             3
 ACTION:UPD 15-03-02 15:40 OP:nd   STATUS:               ID:20150118222737 L   I
 OLDACT:REG 15-01-19 02:56 OP:fm   STATUS:               ID:20150118221745     3
 2015-01-18-2217-45M.COL___259                                                 6
 STAT SP IPHASW D HRMM SECON CODA AMPLIT PERI AZIMU VELO AIN AR TRES W  DIS CAZ7
 BAR2 EZ EP       2227 57.51                             171    0.2210 21.7 183 
 BAR2 EZ ES       2228 12.25                             171   -0.2410 21.7 183 
 BAR2 EZ I        2228 14.09        38.4 0.20            170           21.7 183 
 BRR  HZ EP       2227 59.25                             153    0.5010 69.3 301 
 BRR  HE ES       2228 15.74                             153    0.6610 69.3 301 
 BRR  HZ I        2228 20.60        17.4 0.18            150           69.3 301 
 PAM  SZ EP     C 2228  0.29                             150    0.1910 80.3  41 
 PAM  SE ES       2228 17.25                             150   -0.2410 80.3  41 
 PAM  SZ I        2228 19.73        14.1 0.50            153           80.3  41 
 RUS  HZ EP       2228  1.25                             144   -0.1410 99.5 174 
 RUS  HN ES       2228 19.50                             144   -0.2810 99.5 174 
 RUS  HZ I        2228 21.14         7.2 0.22            146           99.5 174 
 PTB  HZ EP       2228  4.53                             132    0.12 9  145 259 
 PTB  HE ES       2228 25.31                             132    0.15 9  145 259 
 PTB  HZ I        2228 28.03         7.9 0.16            131            145 259 
 SPBC HZ EP       2228  6.33                             129    0.37 9  160 218 
 SPBC HE ES       2228 28.16                             129    0.24 9  160 218 
 SPBC HZ I        2228 31.25        15.4 0.10            129            160 218 
 ZAR  HE ES       2228 34.55                             122   -0.49 9  202 293 
 ZAR  HZ I        2228 42.11         6.8 0.46            122            202 293 
 NOR  HZ EP       2228 13.23                             119    0.09 8  231 234 
 NOR  HE ES       2228 40.20                             119   -0.50 8  231 234 
 NOR  HZ I        2228 45.52         7.9 0.18            119            231 234 
 SML  HZ EP       2228 14.18                             117   -0.20 8  244 336 
 SML  HE ES       2228 42.18                             117   -0.72 8  244 336 
 SML  HZ I        2228 49.87        15.1 0.26            118            244 336 
 CHI  HZ EP       2228 15.48                             117    0.25 8  247 195 
 CHI  HN ES       2228 43.80                             117   -0.62 8  247 195 
 CHI  HZ I        2228 48.44         4.1 0.58            118            247 195 
 RREF HZ EP   4   2228 26.96                             111    3.41 0  319 229 
 RREF HE ES   4   2229  2.59                             111    3.36 0  319 229 
 RREF HZ I        2229  9.90         7.9 0.36            111            319 229 
                                                                                
