 2017  218 2336 36.0 L   6.807 -73.143148.3  RSN  8 0.4 1.4LRSN                1
 GAP=136        0.56       3.5     4.4  5.4  0.4626E+01 -0.1063E+02 -0.4195E+01E
 Epicentro: LOS SANTOS - SANTANDER                                             3
 ACTION:UPD 17-05-24 15:37 OP:jn   STATUS:               ID:20170218233636 L   I
 OLDACT:UP  17-02-19 04:13 OP:and  STATUS:               ID:20170218232748d    3
 OLDACT:UP  17-02-19 04:13 OP:and  STATUS:               ID:20170218232748d    3
 OLDACT:UP  17-02-19 04:12 OP:and  STATUS:               ID:20170218232748d    3
 OLDACT:UP  17-02-19 04:12 OP:and  STATUS:               ID:20170218232748d    3
 OLDACT:UP  17-02-19 04:11 OP:and  STATUS:               ID:20170218232748d    3
 OLDACT:UP  17-02-19 04:10 OP:and  STATUS:               ID:20170218232748d    3
 OLDACT:UP  17-02-19 04:10 OP:and  STATUS:               ID:20170218232748d    3
 OLDACT:DUP 17-02-19 04:05 OP:and  STATUS:               ID:20170218232748d    3
 2017-02-18-2328-00M.COL___358                                                 6
 STAT SP IPHASW D HRMM SECON CODA AMPLIT PERI AZIMU VELO AIN AR TRES W  DIS CAZ7
 BAR2 EZ ES   2   2337 11.12                             170   -0.37 5 24.1 190 
 BAR2 EZ I        2337 12.96         5.1 0.12            166           24.1 190 
 BRR  HZ EP       2336 57.19                             153   -0.2010 71.1 298 
 BRR  HN ES       2337 14.28                             153    0.1810 71.1 298 
 BRR  HZ I        2337 14.71         9.8 0.42            149           71.1 298 
 PAM  EZ IP       2336 58.35                             151   -0.0710 76.6  40 
 RUS  HZ EP       2337  0.37                             144    0.3410  101 176 
 RUS  HE ES       2337 18.69                             144   -0.1110  101 176 
 RUS  HZ I        2337 20.18         4.7 0.26            142            101 176 
 PTB  HZ EP   9   2337  2.14                             132   -1.05 0  148 259 
 PTB  HN ES       2337 23.39                             134    0.02 9  148 259 
 PTB  HZ I        2337 26.84         2.6 0.17            129            148 259 
 ZAR  HN ES   2   2337 34.20                             123    0.19 4  204 292 
 ZAR  HZ I        2337 39.46         3.0 0.10            120            204 292 
 NOR  HN ES   2   2337 39.37                             119   -0.59 4  235 234 
 NOR  HZ I        2337 43.03         1.9 0.24            116            235 234 
 CHI  HZ EP   3   2337 12.90                             117   -1.00 2  249 195 
 CHI  HN ES   3   2337 44.86                             117    1.38 2  249 195 
 CHI  HZ I        2337 46.15         1.1 0.34            116            249 195 
                                                                                
