 2015 1218 2150 37.2 L   6.871 -73.291124.2  RSN 21 0.5 2.6LRSN                1
 GAP= 53        1.03       2.4     2.5  4.6 -0.1097E+01  0.2156E+01  0.1434E+01E
 Epicentro: BETULIA - SANTANDER                                                3
 ACTION:UPD 16-02-04 15:05 OP:cam  STATUS:               ID:20151218215037 L   I
 OLDACT:UP  15-12-19 03:47 OP:mh   STATUS:               ID:20151218214745     3
 OLDACT:REG 15-12-19 02:54 OP:mh   STATUS:               ID:20151218214745     3
 2015-12-18-2147-45M.COL___328                                                 6
 STAT SP IPHASW D HRMM SECON CODA AMPLIT PERI AZIMU VELO AIN AR TRES W  DIS CAZ7
 BAR2 EZ IP     D 2150 54.69                             164    0.1310 33.1 159 
 BAR2 EZ ES       2151  7.56                             164   -0.5110 33.1 159 
 BAR2 EZ I        2151  8.90       189.7 0.24            168           33.1 159 
 BRR  HZ EP       2150 55.12                             155    0.0510 53.3 299 
 BRR  HN ES       2151  9.17                             155    0.2010 53.3 299 
 BRR  HZ I        2151 14.86        55.9 0.16            150           53.3 299 
 PAM  EZ EP   1   2150 57.50                             144   -0.13 7 83.4  52 
 PAM  EN ES       2151 14.26                             144    0.7210 83.4  52 
 PAM  EZ I        2151 15.98        85.5 0.28            144           83.4  52 
 RUS  HZ EP       2150 59.40                             136   -0.3710  111 168 
 RUS  HN ES       2151 17.08                             136   -0.2610  111 168 
 PTB  HZ EP       2151  0.25                             130   -0.9610  134 254 
 PTB  HE ES       2151 20.38                             130    0.4710  134 254 
 PTB  HZ I        2151 21.53        80.5 0.42            128            134 254 
 OCA  HZ EP   1   2151  2.39                             126   -0.69 7  151 359 
 OCA  HN ES       2151 22.79                             126   -0.44 9  151 359 
 OCA  HZ I        2151 30.11       146.6 0.24            124            151 359 
 SPBC HZ EP   1   2151  4.08                             124    0.21 7  160 213 
 SPBC HN ES       2151 24.13                             124   -0.51 9  160 213 
 SPBC HZ I        2151 25.39        70.9 0.12            124            160 213 
 TAM  HZ EP       2151  5.81                             122    0.71 9  173 106 
 TAM  HN ES       2151 27.23                             122    0.40 9  173 106 
 ZAR  HZ EP   1   2151  6.35                             120   -0.12 7  186 292 
 ZAR  HN ES       2151 29.80                             120    0.54 9  186 292 
 ZAR  HZ I        2151 34.14        58.0 0.56            118            186 292 
 NOR  HZ EP   1   2151 10.70                             114   -0.23 6  227 230 
 NOR  HN ES       2151 36.58                             114   -0.62 8  227 230 
 NOR  HZ I        2151 41.16        25.8 0.24            114            227 230 
 SML  HZ EP   2   2151 11.03                             114   -0.21 4  230 338 
 SML  HN ES   4   2151 36.52                             114   -1.23 0  230 338 
 SML  HZ I        2151 42.00       101.6 0.10            113            230 338 
 ROSC BN ES   4   2151 45.96                             112    2.98 0  252 207 
 CHI  HZ EP       2151 14.38                             112    0.09 8  253 191 
 CHI  HN ES       2151 43.30                             112    0.12 8  253 191 
 CHI  HZ I        2151 47.37        11.6 0.38            112            253 191 
 HEL  HZ EP   1   2151 15.76                             111    0.84 6  259 253 
 HEL  HN ES       2151 44.74                             111    0.44 8  259 253 
 HEL  HZ I        2151 48.34        29.7 0.50            110            259 253 
 URE  HZ EP   4   2151 14.09                             110   -1.22 0  266 292 
 URE  HN ES   4   2151 43.10                             110   -1.90 0  266 292 
 URE  HZ I        2151 44.45        57.3 0.38            109            266 292 
 GUY2CHZ EP       2151 19.06                             108    0.06 7  293 232 
 GUY2CHN ES   1   2151 51.72                             108    0.16 5  293 232 
 GUY2CHZ I        2151 58.22        20.7 0.34                           293 232 
 SOCV BZ EP       2151 19.58                             107   -0.93 7  311  60 
 SOCV BN ES   4   2151 51.28                             107   -2.98 0  311  60 
 LL6C HZ EP   1   2151 21.48                             107    0.31 5  317   0 
 LL6C HE ES   1   2151 55.46                             107    0.02 5  317   0 
 LL6C HZ I        2152  0.98         8.8 0.32            106            317   0 
 CBOC HZ EP       2151 22.06                             106    0.19 7  321 250 
 CBOC HE ES       2151 56.41                             106   -0.27 7  321 250 
 CBOC HZ I        2152 10.76         6.7 0.38            106            321 250 
 PRA  HZ EP       2151 30.04                             103    0.02 6  391 207 
 PRA  HN ES       2152 11.54                             103    0.36 6  391 207 
 PRA  HZ I        2152 17.42        13.5 0.40            102            391 207 
 ORTC HZ EP   1   2151 30.65                             103    0.47 4  393 214 
 ORTC HN ES       2152 12.32                             103    0.86 6  393 214 
 ORTC HZ I        2152 18.63         8.8 0.46            102            393 214 
 SJC  HZ EP   4   2151 28.81                             102   -1.55 0  394 328 
 SJC  HN ES   4   2152  7.10                             102   -4.69 0  394 328 
 SJC  HZ I        2152 27.14         6.9 0.36            102            394 328 
 CRJC HZ EP   4   2151 38.49                             100    0.06 0  461   6 
 CRJC HN ES   4   2152 24.89                             100   -1.27 0  461   6 
                                                                                
