 2010  718 2238 27.8 L   6.782 -73.122148.2  RSN  4 0.2 1.6LRSN                1
 GAP=167        0.43       3.6     8.0  6.6  0.1223E+02 -0.3376E+02 -0.8479E+01E
 Epicentro: LOS SANTOS - SANTANDER                                             3
 ACTION:UPD 10-12-01 15:18 OP:pat  STATUS:               ID:20100718223827 L   I
 2010-07-18-2234-21S.COL___120                                                 6
 STAT SP IPHASW D HRMM SECON CODA AMPLIT PERI AZIMU VELO AIN AR TRES W  DIS CAZ7
 BAR2 SZ EP   1   2238 47.51                             171    -0.2 7   22 198 
 BAR2 SZ I        2238 47.92         9.7 0.36                            22 198 
 BAR2 SZ ES   2   2239  2.96                             171    -0.3 5   22 198 
 BRR  HZ EP   1   2238 49.32                             152    -0.1 7   74 299 
 BRR  HZ I        2238 50.77        10.5 0.17                            74 299 
 BRR  HN ES   1   2239  6.32                             152     0.1 7   74 299 
 RUS  HZ EP       2238 51.65                             145     0.010   98 177 
 RUS  HZ I        2238 52.87         3.6 0.11                            98 177 
 RUS  HE ES   2   2239 10.57                             145     0.3 5   98 177 
 GUE  SZ EP       2238 52.95                             140     0.110  118  11 
                                                                                
