 2014  918 2326 10.7 L   6.812 -73.148149.2  RSN  8 0.4 1.8LRSN                1
 GAP=136        0.99       3.6     4.4  6.8 -0.1130E+01  0.8935E+01  0.1125E+01E
 Epicentro: LOS SANTOS - SANTANDER                                             3
 ACTION:UPD 14-10-03 23:06 OP:nd   STATUS:               ID:20140918232610 L   I
 OLDACT:UP  14-09-19 08:55 OP:mh   STATUS:               ID:20140918231818     3
 OLDACT:REG 14-09-19 08:26 OP:mh   STATUS:               ID:20140918231818     3
 2014-09-18-2318-18M.COL___281                                                 6
 STAT SP IPHASW D HRMM SECON CODA AMPLIT PERI AZIMU VELO AIN AR TRES W  DIS CAZ7
 BAR2 SZ EP   1   2326 30.53                             170   -0.21 7 24.6 189 
 BAR2 SZ ES       2326 46.41                             170    0.0210 24.6 189 
 BAR2 SZ I        2326 48.90        11.0 0.13            169           24.6 189 
 PAM  SZ EP       2326 33.51                             152    0.3110 76.5  40 
 PAM  SN ES       2326 51.16                             152    0.3810 76.5  40 
 RUS  HZ EP       2326 34.49                             144   -0.3710  102 176 
 RUS  HN ES   1   2326 53.15                             144   -0.56 7  102 176 
 PTB  HZ EP   1   2326 37.96                             133    0.03 7  148 258 
 PTB  HN ES       2326 58.65                             133   -0.53 9  148 258 
 PTB  HZ I        2327  6.49         5.4 0.36            133            148 258 
 ZAR  HN ES       2327  8.74                             123    0.04 9  203 292 
 SML  HZ EP       2326 47.42                             118    0.06 8  242 335 
 SML  HN ES   1   2327 15.69                             118   -0.28 6  242 335 
 CHI  HZ EP       2326 48.10                             118   -0.59 8  250 195 
 CHI  HN ES       2327 19.08                             118    0.74 8  250 195 
 GUY2CHZ EP   4   2326 56.29                             113    1.78 0  302 235 
 GUY2CHN ES       2327 29.62                             113    0.93 7  302 235 
 GUY2CHZ I        2327 37.76         3.9 0.74                           302 235 
                                                                                
