 2016  718 2344 42.9 L   6.595 -74.112 32.0  RSN  5 0.1 1.3LRSN                1
 GAP=196        0.39       1.7     1.5  5.5  0.1392E+01 -0.3260E+01 -0.3314E+01E
 Epicentro: PUERTO PARRA - SANTANDER                                           3
 ACTION:UPD 17-03-29 16:52 OP:lp   STATUS:               ID:20160718234442 L   I
 OLDACT:UP  16-07-19 05:41 OP:cara STATUS:               ID:20160718233759     3
 OLDACT:REG 16-07-19 04:38 OP:cara STATUS:               ID:20160718233759     3
 2016-07-18-2337-59S.COL___334                                                 6
 STAT SP IPHASW D HRMM SECON CODA AMPLIT PERI AZIMU VELO AIN AR TRES W  DIS CAZ7
 BRR  HZ EP       2344 54.76                              61   -0.0410 71.9  38 
 BRR  HE ES       2345  3.93                              61   -0.1410 71.9  38 
 BRR  HZ I        2345  7.34         7.6 0.10            102           71.9  38 
 BAR2 EZ EP       2344 59.02                              61    0.0610  103  90 
 BAR2 EZ ES       2345 11.72                              61    0.2510  103  90 
 ZAR  HZ EP       2345  1.91                              61   -0.0410  129 320 
 ZAR  HE ES       2345 16.88                              61    0.0810  129 320 
 ZAR  HZ I        2345 19.08         3.9 0.14             56            129 320 
 RUS  HZ EP       2345  3.63                              61   -0.01 9  138 124 
 RUS  HN ES       2345 19.63                              61   -0.17 9  138 124 
 RUS  HZ I        2345 21.38         5.5 0.54             56            138 124 
 PAM  EZ EP   4   2345 10.48                              61    2.01 0  177  62 
 PAM  EE ES       2345 28.38                              61   -0.02 9  177  62 
 PAM  EZ I        2345 32.52         6.1 0.16             56            177  62 
                                                                                
