 2012  418 2128  4.8 L   6.751 -73.137142.9  RSN 14 0.4 2.4LRSN                1
 GAP=140        0.84       3.5     4.9  5.8 -0.1053E+00  0.1114E+02  0.4544E+01E
 Epicentro: LOS SANTOS - SANTANDER                                             3
 ACTION:UPD 12-07-05 11:54 OP:tino STATUS:               ID:20120418212804 L   I
 2012-04-18-2126-59S.COL___195                                                 6
 STAT SP IPHASW D HRMM SECON CODA AMPLIT PERI AZIMU VELO AIN AR TRES W  DIS CAZ7
 BAR2 SZ IP       2128 23.97                             172     0.010   18 196 
 BAR2 SZ I        2128 24.26        59.4 0.19                            18 196 
 BAR2 SZ ES   1   2128 38.41                             172    -0.6 7   18 196 
 BRR  HZ EP   1   2128 26.06                             151     0.2 7   75 302 
 BRR  HE ES   1   2128 43.00                             151     0.7 7   75 302 
 BRR  HZ I        2128 44.13        59.3 0.20                            75 302 
 PAM  SZ EP   1   2128 27.12                             149     0.2 7   81  37 
 PAM  SZ I        2128 27.46        19.9 0.17                            81  37 
 PAM  SN ES   1   2128 44.23                             149     0.0 7   81  37 
 RUS  HZ EP       2128 27.70                             145    -0.210   95 176 
 RUS  HZ I        2128 28.92        37.3 0.19                            95 176 
 RUS  HE ES   1   2128 45.90                             145     0.0 7   95 176 
 OCA  SZ EP   1   2128 33.61                             128     0.2 7  166 353 
 OCA  SZ ES   1   2128 55.61                             128    -0.1 7  166 353 
 ZAR  HZ EP   1   2128 36.99                             121    -0.4 6  207 293 
 ZAR  HN ES   1   2129  2.25                             121    -0.5 6  207 293 
 NOR  SZ EP   1   2128 39.72                             118    -0.4 6  232 236 
 NOR  SN ES   1   2129  7.93                             118     0.3 6  232 236 
 CHI  HZ EP   1   2128 41.66                             117    -0.1 6  244 196 
 CHI  HZ I        2128 42.40         9.7 0.40                           244 196 
 ROSC BZ EP   1   2128 43.01                             116     0.7 6  249 212 
 ROSC BZ I        2129 21.25        28.5 0.32                           249 212 
 HEL  HZ EP   1   2128 44.34                             114    -0.5 6  272 257 
 HEL  HZ I        2129 22.59        22.6 0.41                           272 257 
 RREF HZ EP   1   2128 51.07                             110     0.6 5  319 230 
 RREF HZ I        2129 32.97        19.1 0.60                           319 230 
 TOL  SZ EP   1   2128 53.39                             109     0.8 5  340 225 
 DBB  SZ EP   1   2128 52.06                             109    -0.3 5  341 275 
 PRA  HZ EP   1   2128 57.16                             106    -0.6 4  388 210 
                                                                                
