 2013  318 2004 21.7 L   6.693 -73.133142.9  RSN  7 0.5 1.8LRSN                1
 GAP=143        1.23       7.5     7.8  9.4  0.6878E+01  0.1516E+02  0.3917E+01E
 Epicentro: JORDAN - SANTANDER                                                 3
 ACTION:UPD 13-04-09 14:03 OP:ep   STATUS:               ID:20130318200328 L   I
 2013-03-18-2000-00M.COL___244                                                 6
 STAT SP IPHASW D HRMM SECON CODA AMPLIT PERI AZIMU VELO AIN AR TRES W  DIS CAZ7
 BAR2 SZ EP   1   20 4 41.05        13.3 0.18            175    0.23 7 12.4 206 
 BAR2 SZ ES       20 4 54.88                             175   -0.8510 12.4 206 
 BAR2 SZ I        20 4 57.12        13.3 0.18            167           12.4 206 
 BRR  HZ IP     D 20 4 43.11                             149    0.1210 78.6 306 
 BRR  HN ES       20 5  0.49                             149    0.9010 78.6 306 
 BRR  HZ I        20 5  1.11        15.3 0.24            142           78.6 306 
 PAM  SZ EP       20 4 44.15                             147   -0.0110 86.0  34 
 PAM  SN ES   1   20 5  1.36                             147   -0.32 7 86.0  34 
 PAM  SZ I        20 5  3.71         8.3 0.44            148           86.0  34 
 RUS  HZ EP   1   20 4 45.02                             147    0.67 7 88.7 176 
 RUS  HN ES   1   20 5  2.34                             147    0.34 7 88.7 176 
 RUS  HZ I        20 5  4.41         8.2 0.30            140           88.7 176 
 PTB  HZ EP   1   20 4 47.80                             131   -0.60 7  147 263 
 PTB  HZ I        20 5  3.19        19.3 0.14            123            147 263 
 ZAR  HE ES   1   20 5 19.56                             121   -0.68 6  210 295 
 ZAR  HZ I        20 5 26.28         5.3 0.24            115            210 295 
 NOR  HZ EP   1   20 4 56.39                             118   -0.29 6  229 237 
 NOR  HN ES   4   20 5 21.60                             118   -2.36 0  229 237 
 NOR  HZ I        20 5 31.94         4.8 0.16            112            229 237 
                                                                                
