 2016 1118 2121 20.6 L   6.764 -73.149147.5  RSN  5 0.4 1.8LRSN                1
 GAP=153        0.88       6.0     4.5  6.8 -0.1097E+02  0.1241E+02 -0.1170E+01E
 Epicentro: LOS SANTOS - SANTANDER                                             3
 ACTION:UPD 17-10-26 21:09 OP:lp   STATUS:               ID:20161118212120 L   I
 OLDACT:REG 16-11-19 04:24 OP:lv   STATUS:               ID:20161118211745     3
 2016-11-18-2118-00M.COL___349                                                 6
 STAT SP IPHASW D HRMM SECON CODA AMPLIT PERI AZIMU VELO AIN AR TRES W  DIS CAZ7
 BAR2 EZ EP       2121 40.52                             172    0.1210 19.4 191 
 BAR2 EZ ES       2121 55.83                             172    0.0110 19.4 191 
 BAR2 EZ I        2121 57.30        18.6 0.21            172           19.4 191 
 PAM  EZ EP       2121 43.45                             150    0.2210 80.7  38 
 PAM  EN ES       2122  0.79                             150   -0.0710 80.7  38 
 PAM  EZ I        2122  3.72         5.6 0.40            153           80.7  38 
 PTB  HZ EP       2121 47.14                             133   -0.51 9  147 260 
 PTB  HN ES       2122  8.20                             133   -0.52 9  147 260 
 PTB  HZ I        2122 10.59         5.8 0.16            133            147 260 
 ZAR  HZ EP       2121 53.36                             123    0.04 8  205 293 
 ZAR  HE ES       2122 19.19                             123    0.38 8  205 293 
 ZAR  HZ I        2122 24.53         6.8 0.33            123            205 293 
 NOR  HZ EP       2121 55.94                             119   -0.25 8  232 235 
 NOR  HN ES       2122 24.67                             119    0.74 8  232 235 
 NOR  HZ I        2122 31.24         4.8 0.30            120            232 235 
                                                                                
