 2011  518 2053 50.8 L   6.789 -73.158145.8  RSN  9 0.2 2.1LRSN                1
 GAP=135        0.45       2.7     4.5  4.9 -0.4184E+01  0.2424E+01 -0.1073E+01E
 Epicentro: LOS SANTOS - SANTANDER                                             3
 ACTION:UP  11-06-29 08:54 OP:tino STATUS:               ID:20110518205350 L   I
 2011-05-18-2052-17S.COL___141                                                 6
 STAT SP IPHASW D HRMM SECON CODA AMPLIT PERI AZIMU VELO SNR AR TRES W  DIS CAZ7
 BTL  SZ EP   1   2054 10.48                             172     0.1 7   19 320 
 BAR2 SZ IP       2054 10.35                             171    -0.110   22 187 
 BAR2 SZ I        2054 10.91        38.1 0.37                            22 187 
 BAR2 SZ ES   2   2054 25.64                             171    -0.1 5   22 187 
 BRR  HZ EP   1   2054 12.14                             153     0.2 7   71 300 
 BRR  HN ES   2   2054 28.90                             153     0.5 5   71 300 
 BRR  HZ I        2054 30.93        43.5 0.13                            71 300 
 PAM  SZ EP   1   2054 13.37                             150     0.2 7   79  40 
 PAM  SE ES   2   2054 30.28                             150    -0.3 5   79  40 
 RUS  HZ EP   1   2054 14.47                             144     0.0 7  100 175 
 RUS  HN ES   2   2054 32.89                             144    -0.1 5  100 175 
 RUS  HZ I        2054 35.44        13.5 0.37                           100 175 
 BRI  SZ EP   1   2054 14.85                             141     0.0 7  110  21 
 BRI  SZ I        2054 42.04         9.2 0.45                           110  21 
 GRA  SZ EP   2   2054 16.17                             137     0.0 5  127  18 
 GRA  SZ ES   2   2054 35.89                             137    -0.1 5  127  18 
 GRA  SZ I        2054 40.22        11.0 0.24                           127  18 
 OCA  SZ EP   1   2054 19.09                             129    -0.1 7  161 354 
 OCA  SZ ES   2   2054 40.83                             129    -0.5 5  161 354 
 OCA  SZ I        2054 45.33        23.4 0.25                           161 354 
 NOR  SZ EP   2   2054 26.23                             119    -0.1 4  233 234 
 NOR  SN ES   2   2054 53.56                             119    -0.5 4  233 234 
                                                                                
