 2012  518 2307 28.7 L   6.741 -73.215152.1  RSN  4 0.2 1.5LRSN                1
 GAP=225        0.43       4.8     4.8  5.7  0.1406E+02 -0.9884E+00 -0.1232E+01E
 Epicentro: VILLANUEVA - SANTANDER                                             3
 ACTION:UP  12-07-05 12:06 OP:pat  STATUS:               ID:20120518230728 L   I
 2012-05-18-2300-00M.COL___200                                                 6
 STAT SP IPHASW D HRMM SECON CODA AMPLIT PERI AZIMU VELO SNR AR TRES W  DIS CAZ7
 BRR  HZ EP   1   23 7 50.34                             155     0.0 7   68 306 
 BRR  HZ I        23 7 50.82        10.4 0.13                            68 306 
 BRR  HE ES   1   23 8  7.23                             155    -0.1 7   68 306 
 RUS  HZ EP   1   23 7 52.88                             147     0.2 7   95 171 
 RUS  HE ES   1   23 8 11.38                             147     0.0 7   95 171 
 RUS  HZ I        23 8 12.32         3.5 0.40                            95 171 
 PTB  HZ EP   1   23 7 55.20                             135    -0.2 7  139 261 
 PTB  HN ES   1   23 8 16.27                             135     0.0 7  139 261 
 PTB  HZ I        23 8 18.43         2.7 0.22                           139 261 
 ZAR  HN ES   2   23 8 26.82                             124     0.4 4  200 295 
                                                                                
