 2016  218 2336  2.1 L   5.981 -73.763112.0  RSN  9 0.4 1.6LRSN                1
 GAP= 81        0.59       2.4     2.2  5.8  0.3872E-01  0.3555E+01  0.1512E+01E
 Epicentro: BOLIVAR - SANTANDER                                                3
 ACTION:UPD 16-03-04 21:27 OP:rebc STATUS:               ID:20160218233602 L   I
 OLDACT:REG 16-02-19 04:51 OP:dnl  STATUS:               ID:20160218232750     3
 2016-02-18-2327-50M.COL___316                                                 6
 STAT SP IPHASW D HRMM SECON CODA AMPLIT PERI AZIMU VELO AIN AR TRES W  DIS CAZ7
 RUS  HZ EP       2336 20.73                             144   -0.0510 75.9  97 
 RUS  HN ES       2336 35.38                             144    0.0610 75.9  97 
 RUS  HZ I        2336 36.34         5.0 0.22            147           75.9  97 
 BAR2 EZ EP   2   2336 21.36                             138   -0.41 5 93.2  44 
 BAR2 EZ ES   2   2336 37.01                             138   -0.08 5 93.2  44 
 BAR2 EZ I        2336 38.70        14.7 0.22            140           93.2  44 
 PTB  HZ EP       2336 21.52                             136   -0.3910 98.5 309 
 PTB  HN ES       2336 37.22                             136   -0.1110 98.5 309 
 PTB  HZ I        2336 40.12         4.5 0.08            136           98.5 309 
 BRR  HZ EP   2   2336 24.39                             128    0.12 5  125   3 
 BRR  HN ES       2336 41.93                             128    0.4010  125   3 
 BRR  HZ I        2336 47.06         6.4 0.24            130            125   3 
 NOR  HZ EP   3   2336 25.50                             127    0.55 2  131 249 
 NOR  HN ES       2336 42.84                             127    0.0910  131 249 
 NOR  HZ I        2336 45.31        12.1 0.32            128            131 249 
 CHI  HZ EP   2   2336 27.48                             123    0.20 5  149 179 
 CHI  HE ES   2   2336 46.47                             123   -0.43 5  149 179 
 CHI  HZ I        2336 51.30         1.7 0.23            125            149 179 
 GUY2CHZ EP   2   2336 33.08                             115    0.72 4  196 245 
 GUY2CHN ES   2   2336 56.27                             115    0.34 4  196 245 
 GUY2CHZ I        2337  1.22         5.2 0.50                           196 245 
 HEL  HZ EP   2   2336 33.09                             115    0.80 4  197 277 
 HEL  HN ES   2   2336 55.68                             115   -0.13 4  197 277 
 HEL  HZ I        2337  0.27         4.8 0.22            116            197 277 
 ZAR  HZ EP   2   2336 32.33                             114   -0.56 4  206 324 
 ZAR  HN ES   2   2336 56.43                             114   -0.45 4  206 324 
 ZAR  HZ I        2337  0.74         6.5 0.10            115            206 324 
                                                                                
