 2015  918 2337 19.3 L   6.784 -73.168136.0  RSN  9 0.6 1.8LRSN                1
 GAP=134        1.31       4.6     5.3  7.5  0.7897E+00  0.1295E+02  0.1029E+02E
 Epicentro: LOS SANTOS - SANTANDER                                             3
 ACTION:UPD 15-10-28 16:27 OP:cam  STATUS:               ID:20150918233719 L   I
 OLDACT:DUP 15-09-19 09:19 OP:stll STATUS:               ID:20150918232749d    3
 2015-09-18-2327-48M.COL___358                                                 6
 STAT SP IPHASW D HRMM SECON CODA AMPLIT PERI AZIMU VELO AIN AR TRES W  DIS CAZ7
 BAR2 EZ EP       2337 37.73                             171    0.0110 21.2 184 
 BAR2 EZ ES       2337 52.20                             171    0.1210 21.2 184 
 BAR2 EZ I        2337 53.70        20.2 0.46            169           21.2 184 
 BRR  HZ EP       2337 39.49                             151    0.1610 70.0 301 
 BRR  HN ES       2337 56.00                             151    1.0510 70.0 301 
 BRR  HZ I        2337 59.02        14.4 0.48            150           70.0 301 
 PAM  EZ EP     D 2337 40.65                             148   -0.0310 80.3  40 
 PAM  EN ES       2337 57.11                             148   -0.2410 80.3  40 
 PAM  EZ I        2337 59.55        15.2 0.46            152           80.3  40 
 RUS  HZ EP       2337 41.91                             142   -0.0810 99.0 175 
 RUS  HZ I        2337 42.87         8.4 0.12            144           99.0 175 
 RUS  HN ES       2337 59.69                             142    0.0110 99.0 175 
 PTB  HZ EP       2337 44.38                             130   -0.85 9  145 259 
 PTB  HN ES       2338  4.39                             130   -1.07 9  145 259 
 PTB  HZ I        2338 10.90         7.4 0.24            130            145 259 
 ZAR  HZ EP       2337 50.71                             120   -0.25 9  202 293 
 ZAR  HN ES       2338 15.53                             120   -0.13 9  202 293 
 ZAR  HZ I        2338 22.05         7.9 0.44            121            202 293 
 CHI  HZ EP       2337 56.09                             115   -0.13 8  246 195 
 CHI  HN ES       2338 24.76                             115   -0.25 8  246 195 
 CHI  HZ I        2338 29.26         2.8 0.50            117            246 195 
 GUY2CHZ EP       2338  3.28                             111    1.15 7  298 235 
 GUY2CHN ES       2338 36.53                             111    1.00 7  298 235 
 GUY2CHZ I        2338 44.37         3.2 0.36                           298 235 
 PRA  HZ EP       2338 12.52                             105    0.35 6  389 209 
 PRA  HN ES       2338 53.28                             105   -0.13 6  389 209 
 PRA  HZ I        2339  1.09         3.0 0.52            106            389 209 
                                                                                
