 2017  118 2119 29.8 L   6.767 -73.117144.0  RSN  8 0.5 1.9LRSN                1
 GAP=142        1.16       5.1     4.8  7.7 -0.3183E+01  0.1180E+02  0.6074E+01E
 Epicentro: LOS SANTOS - SANTANDER                                             3
 ACTION:UPD 17-05-22 16:01 OP:jn   STATUS:               ID:20170118211930dL   I
 OLDACT:UP  17-01-19 04:10 OP:ar   STATUS:               ID:20170118211744     3
 OLDACT:REG 17-01-19 02:48 OP:and  STATUS:               ID:20170118211744     3
 2017-01-18-2118-00M.COL___337                                                 6
 STAT SP IPHASW D HRMM SECON CODA AMPLIT PERI AZIMU VELO AIN AR TRES W  DIS CAZ7
 BAR2 EZ EP       2119 49.03                             171   -0.0910 20.7 201 
 BAR2 EZ ES       2120  4.03                             171   -0.2010 20.7 201 
 BAR2 EZ I        2120  4.97        17.4 0.10            171           20.7 201 
 BRR  HZ EP       2119 50.93                             151   -0.0510 75.8 300 
 BRR  HN ES       2120  7.79                             151    0.2610 75.8 300 
 BRR  HZ I        2120  9.57        13.4 0.64            150           75.8 300 
 PAM  EZ EP       2119 51.91                             150    0.0710 78.3  36 
 PAM  EN ES       2120  9.01                             150   -0.0510 78.3  36 
 PAM  EZ I        2120  9.58         9.1 0.20            152           78.3  36 
 RUS  HZ EP       2119 53.07                             145    0.0110 96.8 178 
 RUS  HN ES       2120 11.69                             145    0.4510 96.8 178 
 RUS  HZ I        2120 12.51         8.5 0.30            146           96.8 178 
 PTB  HZ EP       2119 56.08                             131   -0.73 9  150 260 
 PTB  HN ES       2120 16.92                             131   -0.99 9  150 260 
 ZAR  HN ES       2120 29.05                             121    0.94 8  208 293 
 ZAR  HZ I        2120 32.95        12.9 0.28            122            208 293 
 NOR  HZ EP       2120  5.59                             118    0.15 8  235 236 
 NOR  HN ES       2120 33.20                             118   -0.08 8  235 236 
 NOR  HZ I        2120 34.80         5.1 0.20            119            235 236 
 GUY2CHZ EP   4   2120 16.69                             112    3.34 0  302 236 
 GUY2CHN ES       2120 48.10                             112    0.75 7  302 236 
 GUY2CHZ  IAML    2120 55.70         3.5 0.26                           302 236 
                                                                                
