 2013  918 2358 25.5 L   6.801 -73.125150.0  RSN  9 0.4 2.2LRSN                1
 GAP=203        0.95       3.6     5.0  5.8  0.3166E+01  0.5205E+01 -0.1434E+01E
 Epicentro: LOS SANTOS - SANTANDER                                             3
 ACTION:UPD 13-10-22 09:23 OP:ep   STATUS:               ID:20130918235825 L   I
 OLDACT:UP  13-09-18 22:46 OP:cam  STATUS:               ID:20130918234959     3
 OLDACT:REG 13-09-18 22:11 OP:cam  STATUS:               ID:20130918234959     3
 2013-09-18-2349-59M.COL___269                                                 6
 STAT SP IPHASW D HRMM SECON CODA AMPLIT PERI AZIMU VELO AIN AR TRES W  DIS CAZ7
 BAR2 SZ EP       2358 45.62                             171   -0.0810 23.9 195 
 BAR2 SZ ES       2359  1.19                             171   -0.2210 23.9 195 
 BAR2 SZ I        2359  3.38        20.5 0.28            167           23.9 195 
 BRR  HZ EP       2358 47.54                             153    0.2810 73.2 298 
 BRR  HN ES       2359  5.17                             153    0.9710 73.2 298 
 BRR  HZ I        2359  7.22        19.1 0.18            149           73.2 298 
 RUS  HZ EP       2358 49.54                             145   -0.1710  101 177 
 RUS  HN ES       2359  8.58                             145    0.0110  101 177 
 RUS  HZ I        2359  9.47         9.1 0.38            147            101 177 
 PTB  HZ EP       2358 52.55                             133   -0.52 9  150 259 
 PTB  HN ES       2359 14.12                             133   -0.41 9  150 259 
 PTB  HZ I        2359 21.10        21.5 0.42            131            150 259 
 SPBC HZ EP       2358 54.65                             130    0.13 9  165 220 
 SPBC HE ES       2359 16.97                             130   -0.14 9  165 220 
 SPBC HZ I        2359 23.69        34.6 0.30            130            165 220 
 ZAR  HZ EP   1   2358 58.39                             123   -0.09 6  206 292 
 ZAR  HE ES       2359 24.09                             123   -0.08 8  206 292 
 ZAR  HZ I        2359 30.20        21.7 0.54            123            206 292 
 NOR  HZ EP       2359  1.87                             119    0.14 8  237 235 
 NOR  HE ES       2359 30.19                             119    0.24 8  237 235 
 NOR  HZ I        2359 33.36        16.0 0.18            120            237 235 
 SML  HZ EP   1   2359  2.98                             118    0.48 6  245 335 
 SML  HE ES       2359 30.63                             118   -0.70 8  245 335 
 SML  HZ I        2359 35.43        22.1 0.10            120            245 335 
 GUY2CHZ EP   1   2359 10.10                             113    0.53 5  303 235 
                                                                                
