 2017  218 2200 17.9 L   6.772 -73.139148.1  RSN  5 0.2 1.2LRSN                1
 GAP=139        0.60       3.3     3.1  5.2 -0.1356E+01  0.1058E+01  0.1878E+01E
 Epicentro: LOS SANTOS - SANTANDER                                             3
 ACTION:UPD 17-05-24 15:37 OP:jn   STATUS:               ID:20170218220017 L   I
 OLDACT:UP  17-02-19 03:07 OP:and  STATUS:               ID:20170218215744     3
 OLDACT:UP  17-02-19 03:07 OP:and  STATUS:               ID:20170218215744     3
 OLDACT:REG 17-02-19 02:29 OP:and  STATUS:               ID:20170218215744     3
 2017-02-18-2158-00M.COL___358                                                 6
 STAT SP IPHASW D HRMM SECON CODA AMPLIT PERI AZIMU VELO AIN AR TRES W  DIS CAZ7
 BRR  HZ EP       22 0 39.48                             152    0.0710 73.4 300 
 BRR  HN ES       22 0 56.57                             152    0.3810 73.4 300 
 PAM  EZ IP     C 22 0 40.49                             151    0.0310 79.3  38 
 PAM  EN ES       22 0 57.80                             151   -0.2710 79.3  38 
 PAM  EZ I        22 1  0.58         2.6 0.34            153           79.3  38 
 RUS  HZ EP       22 0 41.92                             145    0.2810 97.4 176 
 RUS  HN ES       22 1  0.10                             145   -0.0710 97.4 176 
 RUS  HZ I        22 1  1.53         3.1 0.26            147           97.4 176 
 PTB  HZ EP       22 0 44.82                             132   -0.24 9  148 260 
 PTB  HN ES       22 1  6.02                             132   -0.23 9  148 260 
 PTB  HZ I        22 1  9.91         1.9 0.11            134            148 260 
 NOR  HZ EP   9   22 0 55.65                             119    2.03 0  234 235 
 NOR  HN ES   2   22 1 23.46                             118   -0.07 4  234 235 
                                                                                
