 2013 1118 2233 49.5 L   6.766 -73.134141.5  RSN  9 0.5 1.8LRSN 2.4WRSN        1
 SPEC AVERAGE  MO 12.7 ST160.4 OM  1.0 f0 22.3 R0.1411 AL 0.00 WI 20.0 MW  2.4 3
 SPEC SD       MO  0.2 ST197.3 OM  0.3 f0 14.7 R0.0902 AL      WI      MW  0.2 3
 GAP=140        1.25       5.5     5.5  7.1 -0.1439E+02  0.6880E+01  0.2508E+01E
 Epicentro: LOS SANTOS - SANTANDER                                             3
 SPEC BRR HH Z MO 13.1 ST471.8 OM  1.2 f0 40.0 R0.0481 AL-0.00 WI 20.0 MW  2.7 3
 SPEC BRR HH Z T223425 K 0.050 GD  159 VS 5.20 DE 3.20 Q0750.0 QA 1.50 VS 5.20 3
 SPEC PAM SH Z MO 12.6 ST0.751 OM  0.7 f0 6.82 R0.2821 AL-0.00 WI 20.0 MW  2.3 3
 SPEC PAM SH Z T223426 K 0.050 GD  162 VS 5.20 DE 3.20 Q0750.0 QA 1.50 VS 5.20 3
 SPEC RUS HH Z MO 12.4 ST  1.4 OM  0.5 f0 9.67 R0.1990 AL-0.00 WI 20.0 MW  2.2 3
 SPEC RUS HH Z T223429 K 0.050 GD  171 VS 5.20 DE 3.20 Q0750.0 QA 1.50 VS 5.20 3
 SPEC SPBCHH Z MO 12.9 ST317.2 OM  0.9 f0 40.0 R0.0481 AL-0.00 WI 20.0 MW  2.5 3
 SPEC SPBCHH Z T223438 K 0.050 GD  214 VS 5.20 DE 3.20 Q0750.0 QA 1.50 VS 5.20 3
 SPEC NOR HH Z MO 12.7 ST 10.7 OM  0.6 f0 15.0 R0.1283 AL-0.00 WI 20.0 MW  2.4 3
 SPEC NOR HH Z T223450 K 0.050 GD  273 VS 5.20 DE 3.20 Q0750.0 QA 1.50 VS 5.20 3
 SPECGUY2CHH Z MO 13.0 ST  0.1 OM  0.8 f0 2.80 R 0.688 AL-0.00 WI 20.0 MW  2.6 3
 SPECGUY2CHH Z T2235 5 K 0.050 GD331.7 VS 5.20 DE 3.20 Q0750.0 QA 1.50 VS 5.20 3
 OLDACT:REG 13-11-19 00:27 OP:stll STATUS:               ID:20131118222813     3
 ACTION:UPD 14-01-09 16:29 OP:ep   STATUS:               ID:20131118223349 L   I
 OLDACT:UP  13-11-19 01:55 OP:stll STATUS:               ID:20131118222813     3
 2013-11-18-2228-13M.COL___216                                                 6
 STAT SP IPHASW D HRMM SECON CODA AMPLIT PERI AZIMU VELO AIN AR TRES W  DIS CAZ7
 BAR2 SZ ES       2234 23.45                             172    0.0710 19.9 196 
 BAR2 SZ I        2234 26.52        22.9 0.22            171           19.9 196 
 BRR  HZ EP       2234 10.43                             151    0.0910 74.2 301 
 BRR  HN ES       2234 27.41                             151    0.7910 74.2 301 
 BRR  SZ I        2234 37.92         7.0 0.34            149           74.2 301 
 PAM  SZ EP       2234 11.30                             149   -0.0710 79.5  37 
 PAM  SN ES       2234 28.20                             149   -0.2510 79.5  37 
 PAM  SZ I        2234 30.53         6.6 0.46            154           79.5  37 
 RUS  HZ EP       2234 12.33                             144   -0.2010 96.7 177 
 RUS  HN ES       2234 30.61                             144    0.1010 96.7 177 
 RUS  SZ I        2234 33.19         6.8 0.62            150           96.7 177 
 PTB  HZ EP       2234 15.22                             131   -0.94 9  148 260 
 PTB  HN ES       2234 36.30                             131   -0.66 9  148 260 
 PTB  SZ I        2234 42.11         9.3 0.26            133            148 260 
 CAPV BZ EP       2234 17.02                             130    0.28 9  152  37 
 SPBC HZ EP       2234 17.25                             129   -0.20 9  161 220 
 SPBC HN ES       2234 39.50                             129    0.23 9  161 220 
 SPBC SZ I        2234 44.85         9.3 0.30            132            161 220 
 NOR  HZ EP       2234 24.66                             118   -0.19 8  234 235 
 NOR  HN ES       2234 51.98                             118   -0.45 8  234 235 
 NOR  SZ I        2234 56.53         6.9 0.24            121            234 235 
 GUY2CHZ EP       2234 34.21                             112    1.44 7  300 236 
 GUY2CHN ES       2235  7.08                             112    0.54 7  300 236 
 GUY2CSZ I        2235 15.11         3.0 0.24                           300 236 
                                                                                
