 2016  218 2148 57.8 L   6.779 -73.147140.7  RSN  5 0.3 1.6LRSN                1
 GAP=137        0.49       4.1     3.8  7.1 -0.5912E+01  0.1211E+02  0.1748E+01E
 Epicentro: LOS SANTOS - SANTANDER                                             3
 ACTION:UPD 16-03-04 21:27 OP:rebc STATUS:               ID:20160218214857 L   I
 OLDACT:DUP 16-02-19 05:28 OP:dnl  STATUS:               ID:20160218213749d    3
 2016-02-18-2137-47M.COL___319                                                 6
 STAT SP IPHASW D HRMM SECON CODA AMPLIT PERI AZIMU VELO AIN AR TRES W  DIS CAZ7
 PAM  EZ EP       2149 19.76                             149    0.2010 79.3  39 
 PAM  EN ES       2149 36.34                             149   -0.2110 79.3  39 
 PAM  EZ I        2149 39.34         5.5 0.38            153           79.3  39 
 RUS  HZ EP   2   2149 21.25                             143    0.40 5 98.3 176 
 RUS  HN ES   2   2149 38.94                             143    0.08 5 98.3 176 
 RUS  HZ I        2149 41.58         3.6 0.28            146           98.3 176 
 PTB  HZ EP   2   2149 23.81                             130   -0.45 5  147 260 
 PTB  HE ES   2   2149 44.81                             130   -0.13 5  147 260 
 PTB  HZ I        2149 45.67         6.0 0.16            132            147 260 
 ZAR  HZ EP   2   2149 29.75                             121   -0.20 4  205 293 
 ZAR  HN ES   2   2149 55.57                             121    0.51 4  205 293 
 ZAR  HZ I        2149 59.75         4.1 0.22            123            205 293 
 NOR  HZ EP   3   2149 32.14                             117   -0.90 2  233 235 
 NOR  HN ES   2   2150  0.56                             117   -0.00 4  233 235 
 NOR  HZ I        2150  3.95         4.1 0.18            120            233 235 
                                                                                
