 2012 1118 2042  0.7 L   6.786 -73.159147.0  RSN  9 0.5 1.7LRSN                1
 GAP=135        0.95       5.1     4.9  7.4 -0.2076E+01  0.8554E+01  0.3531E+00E
 Epicentro: LOS SANTOS - SANTANDER                                             3
 ACTION:UPD 12-12-05 15:34 OP:}ep  STATUS:               ID:20121118204200 L   I
 2012-11-18-2040-00M.COL___234                                                 6
 STAT SP IPHASW D HRMM SECON CODA AMPLIT PERI AZIMU VELO AIN AR TRES W  DIS CAZ7
 BAR2 SZ EP       2042 20.47                             171    0.0410 21.6 187 
 BAR2 SZ ES   1   2042 35.41                             171   -0.43 7 21.6 187 
 BAR2 SZ I        2042 36.88        15.4 0.44                          21.6 187 
 GIR2 SZ EP   1   2042 20.54                             167    0.00 7 32.5 353 
 GIR2 SZ ES   1   2042 35.72                             167   -0.31 7 32.5 353 
 BRR  HZ EP       2042 22.37                             153    0.4310 70.6 300 
 BRR  HN ES   1   2042 39.35                             153    0.83 7 70.6 300 
 BRR  HN I        2042 43.39        17.0 0.32                          70.6 300 
 PAM  SZ EP       2042 23.43                             150    0.2710 79.5  40 
 PAM  SN ES   1   2042 40.41                             150   -0.28 7 79.5  40 
 PAM  SZ I        2042 42.76         8.6 0.58                          79.5  40 
 RUS  HZ EP   1   2042 24.67                             144    0.21 7 99.2 175 
 RUS  HE ES   2   2042 43.12                             144    0.11 5 99.2 175 
 RUS  HZ I        2042 43.84         2.5 0.22                          99.2 175 
 PTB  HZ EP   1   2042 27.16                             133   -0.44 7  146 259 
 PTB  HN ES   1   2042 48.05                             133   -0.54 7  146 259 
 PTB  HZ I        2042 50.11         4.0 0.22                           146 259 
 ZAR  HZ EP   1   2042 32.62                             123   -0.51 6  203 293 
 ZAR  HN ES   1   2042 59.34                             123    0.90 6  203 293 
 ZAR  HZ I        2043  5.28         6.0 0.50                           203 293 
 NOR  HE ES   1   2043  3.74                             119   -0.28 6  233 235 
 SML  HN ES   1   2043  5.16                             118   -0.99 6  244 336 
                                                                                
