 2011 1218 2209  0.4 L   6.792 -73.123146.0  RSN 14 0.4 2.6LRSN                1
 GAP=140        0.74       3.7     5.4  7.6 -0.5650E+01  0.1234E+02  0.9328E+01E
 Epicentro: LOS SANTOS - SANTANDER                                             3
 ACTION:UP  12-07-13 16:17 OP:ep   STATUS:               ID:20111218220900 L   I
 OLDACT:UP  12-07-13 15:01 OP:ep   STATUS:               ID:20111218220900 L   3
 OLDACT:UPD 12-07-12 22:35 OP:ep   STATUS:               ID:20111218220900 L   3
 2011-12-18-2206-42S.COL___138                                                 6
 STAT SP IPHASW D HRMM SECON CODA AMPLIT PERI AZIMU VELO AIN AR TRES W  DIS CAZ7
 BAR2 SZ EP       22 9 20.14                             171    0.0510 23.1 197 
 BAR2 SZ I        22 9 36.44        71.3 0.35                          23.1 197 
 GIR2 SZ EP   1   22 9 20.25                             167    0.08 7 32.6 346 
 BRR  HZ EP       22 9 21.96                             152    0.2010 73.8 298 
 BRR  HN ES   2   22 9 39.15                             152    0.76 5 73.8 298 
 BRR  HZ I        22 9 41.78        72.2 0.14                          73.8 298 
 PAM  SZ EP   1   22 9 22.97                             151    0.35 7 76.5  38 
 PAM  SN ES   2   22 9 39.80                             151   -0.13 5 76.5  38 
 PAM  SZ I        22 9 42.36        54.6 0.56                          76.5  38 
 RUS  HZ EP   1   22 9 23.90                             144   -0.24 7 99.6 177 
 RUS  HN ES   2   22 9 42.55                             144   -0.07 5 99.6 177 
 RUS  HZ I        22 9 45.66        38.0 0.32                          99.6 177 
 OCA  SZ EP   1   22 9 28.49                             129   -0.38 7  161 352 
 OCA  SZ ES   1   22 9 50.55                             129   -0.51 7  161 352 
 OCA  SZ I        22 9 55.60        86.5 0.32                           161 352 
 NOR  SZ EP       22 9 35.52                             118   -0.83 8  236 235 
 NOR  SN ES   1   2210  3.81                             118   -0.55 6  236 235 
 CHI  HZ EP   1   22 9 38.18                             117    0.05 6  248 196 
 CHI  HZ I        22 9 40.14        14.2 0.12                           248 196 
 CHI  HN ES   2   2210  7.30                             117   -0.23 4  248 196 
 ROSC BZ EP   1   22 9 39.24                             117    0.61 6  253 212 
 HEL  HZ EP   1   22 9 41.27                             115    0.36 6  274 256 
 HEL  HN ES   2   2210 12.38                             115   -0.10 4  274 256 
 HEL  HZ I        2210 18.22        22.1 0.30                           274 256 
 GUY  SN ES   2   2210 19.35                             112    0.49 4  305 235 
 RREF HZ EP   1   22 9 47.44                             111    0.70 5  323 230 
 RREF HZ I        2210 29.73        33.0 0.32                           323 230 
 TOL  SZ EP   1   22 9 49.68                             109    0.84 5  345 225 
 PRA  HZ EP   1   22 9 53.84                             106   -0.18 4  393 210 
 PRA  HN ES   2   2210 35.29                             106   -0.53 3  393 210 
                                                                                
