 2016  218 2017 33.6 L   6.794 -73.205136.6  RSN 11 0.4 2.0LRSN                1
 GAP=130        0.53       2.3     2.7  4.7 -0.5309E+00  0.6375E+01  0.4585E+00E
 Epicentro: ZAPATOCA - SANTANDER                                               3
 ACTION:UPD 16-03-04 21:27 OP:rebc STATUS:               ID:20160218201733 L   I
 OLDACT:DUP 16-02-19 05:06 OP:dnl  STATUS:               ID:20160218200751d    3
 OLDACT:REG 16-02-19 03:47 OP:dnl  STATUS:               ID:20160218200750     3
 2016-02-18-2007-50M.COL___316                                                 6
 STAT SP IPHASW D HRMM SECON CODA AMPLIT PERI AZIMU VELO AIN AR TRES W  DIS CAZ7
 BAR2 EZ EP   2   2017 52.37                             170    0.23 5 22.4 174 
 BAR2 EZ ES   2   2018  6.78                             170    0.20 5 22.4 174 
 BAR2 EZ I        2018  8.56        33.4 0.18            170           22.4 174 
 BRR  HZ EP   3   2017 54.49                             153    1.00 2 65.9 302 
 BRR  HN ES   2   2018  9.63                             153    0.65 5 65.9 302 
 BRR  HZ I        2018 20.75        20.6 0.16            150           65.9 302 
 PAM  EZ EP       2017 55.23                             147    0.0410 82.2  43 
 PAM  EN ES       2018 11.84                             147   -0.1610 82.2  43 
 PAM  EZ I        2018 13.64        14.3 0.20            155           82.2  43 
 RUS  HZ EP       2017 56.44                             142   -0.0510  101 172 
 RUS  HN ES       2018 14.20                             142   -0.1210  101 172 
 PTB  HZ EP       2017 59.29                             131    0.03 9  141 259 
 PTB  HN ES   2   2018 19.51                             131    0.26 5  141 259 
 PTB  HZ I        2018 22.79        16.3 0.16            132            141 259 
 SPBC HZ EP   2   2018  1.38                             128    0.39 5  159 217 
 SPBC HN ES   2   2018 21.71                             128   -0.63 5  159 217 
 SPBC HZ I        2018 22.93        25.1 0.10            131            159 217 
 ZAR  HZ EP   4   2018  7.40                             121    2.51 0  198 293 
 ZAR  HN ES   4   2018 27.89                             121   -1.38 0  198 293 
 ZAR  HZ I        2018 37.00        10.5 0.30            123            198 293 
 NOR  HZ EP   2   2018  8.76                             117    0.54 4  229 234 
 NOR  HN ES   2   2018 35.33                             117    0.13 4  229 234 
 NOR  HZ I        2018 40.44        10.1 0.20            120            229 234 
 CHI  HZ EP   2   2018 10.39                             115   -0.19 4  246 194 
 CHI  HE ES   2   2018 39.63                             115    0.23 4  246 194 
 CHI  HZ I        2018 47.70         3.6 0.28            120            246 194 
 URE  HZ EP   2   2018 13.15                             112   -0.46 4  278 293 
 URE  HE ES       2018 44.50                             112   -0.30 7  278 293 
 GUY2CHZ EP   2   2018 17.08                             111    0.91 4  295 234 
 GUY2CHN ES   2   2018 48.66                             111   -0.70 4  295 234 
 GUY2CHZ I        2018 59.89         4.9 0.44                           295 234 
                                                                                
