 2012  718 2230 13.5 L   7.381 -73.290119.1  RSN  8 0.3 2.5LRSN                1
 GAP= 96        0.85       3.8     3.5  5.8 -0.8149E+00  0.3363E+01 -0.6359E+00E
 Epicentro: EL PLAYON - SANTANDER                                              3
 ACTION:UPD 12-08-14 11:45 OP:ep   STATUS:               ID:20120718223013 L   I
 2012-07-18-2230-00M.COL___196                                                 6
 STAT SP IPHASW D HRMM SECON CODA AMPLIT PERI AZIMU VELO AIN AR TRES W  DIS CAZ7
 BRR  HZ EP       2230 31.14                             153     0.210   56 237 
 BRR  HE ES       2230 44.73                             153     0.310   56 237 
 BRR  HZ I        2230 45.85       188.7 0.17            151             56 237 
 PAM  SZ EP       2230 32.62                             150     0.410   65  94 
 PAM  SE ES       2230 46.67                             150    -0.110   65  94 
 BAR2 SZ EP       2230 33.61                             141     0.210   88 172 
 BAR2 SZ ES       2230 48.64                             141    -0.310   88 172 
 BAR2 SZ I        2230 50.36       127.0 0.22            144             88 172 
 OCA  HZ EP       2230 33.59                             139    -0.210   95 358 
 OCA  HN ES   1   2230 49.30                             139    -0.4 7   95 358 
 OCA  HZ I        2230 52.52        58.6 0.18            139             95 358 
 PTB  HZ EP       2230 39.25                             123    -0.3 9  159 234 
 PTB  HE ES   1   2230 59.80                             123    -0.1 7  159 234 
 PTB  HZ I        2231  5.20        17.9 0.28            123            159 234 
 RUS  HZ EP   1   2230 40.26                             122    -0.7 7  166 172 
 ZAR  HZ EP   1   2230 41.40                             120     0.3 7  174 274 
 ZAR  HN ES   1   2231  2.72                             120     0.1 7  174 274 
 ZAR  HZ I        2231  7.99        44.0 0.17            120            174 274 
 TAM  HZ EP   1   2230 43.86                             117     0.3 6  196 122 
