 2013 1118 2103 34.0 L   6.793 -73.150141.6  RSN 10 0.5 2.0LRSN 2.5WRSN        1
 SPEC AVERAGE  MO 12.8 ST 91.4 OM  1.4 f0 20.3 R0.1450 AL 0.00 WI 20.0 MW  2.5 3
 SPEC SD       MO  0.1 ST111.1 OM  0.5 f0 12.3 R0.0909 AL      WI      MW  0.1 3
 GAP=136        1.24       4.0     5.3  7.0 -0.4066E+01  0.1047E+02  0.4762E+01E
 Epicentro: LOS SANTOS - SANTANDER                                             3
 SPEC BAR2SH Z MO 13.0 ST168.1 OM  1.2 f0 29.4 R0.0654 AL-0.00 WI 20.0 MW  2.6 3
 SPEC BAR2SH Z T21 4 5 K 0.050 GD  143 VS 5.20 DE 3.20 Q0750.0 QA 1.50 VS 5.20 3
 SPEC BRR HH Z MO 13.0 ST  6.5 OM  1.1 f0 10.4 R0.1850 AL-0.00 WI 20.0 MW  2.6 3
 SPEC BRR HH Z T21 4 9 K 0.050 GD  158 VS 5.20 DE 3.20 Q0750.0 QA 1.50 VS 5.20 3
 SPEC PAM SH Z MO 12.8 ST0.962 OM  0.9 f0 6.36 R0.3025 AL-0.00 WI 20.0 MW  2.5 3
 SPEC PAM SH Z T21 411 K 0.050 GD  161 VS 5.20 DE 3.20 Q0750.0 QA 1.50 VS 5.20 3
 SPEC RUS HH Z MO 12.6 ST  2.4 OM  0.7 f0 9.89 R0.1945 AL-0.00 WI 20.0 MW  2.4 3
 SPEC RUS HH Z T21 414 K 0.050 GD  173 VS 5.20 DE 3.20 Q0750.0 QA 1.50 VS 5.20 3
 SPEC PTB HH Z MO 12.9 ST302.0 OM  0.9 f0 40.0 R0.0481 AL-0.00 WI 20.0 MW  2.5 3
 SPEC PTB HH Z T21 419 K 0.050 GD  204 VS 5.20 DE 3.20 Q0750.0 QA 1.50 VS 5.20 3
 SPEC NOR HH Z MO 12.8 ST 68.5 OM  0.7 f0 25.8 R0.0746 AL-0.00 WI 20.0 MW  2.5 3
 SPEC NOR HH Z T21 435 K 0.050 GD  273 VS 5.20 DE 3.20 Q0750.0 QA 1.50 VS 5.20 3
 SPECGUY2CHH Z MO 12.9 ST  0.2 OM  0.7 f0 3.49 R 0.551 AL-0.00 WI 20.0 MW  2.6 3
 SPECGUY2CHH Z T21 450 K 0.050 GD331.7 VS 5.20 DE 3.20 Q0750.0 QA 1.50 VS 5.20 3
 OLDACT:REG 13-11-19 00:25 OP:stll STATUS:               ID:20131118205815     3
 ACTION:UPD 14-01-09 16:29 OP:ep   STATUS:               ID:20131118210334 L   I
 OLDACT:UP  13-11-19 01:33 OP:stll STATUS:               ID:20131118205815     3
 2013-11-18-2058-15M.COL___225                                                 6
 STAT SP IPHASW D HRMM SECON CODA AMPLIT PERI AZIMU VELO AIN AR TRES W  DIS CAZ7
 BAR2 SZ ES       21 4  7.34                             171   -0.6610 22.5 189 
 BAR2 SZ I        21 4  9.94        33.8 0.20            171           22.5 189 
 BRR  HZ IP       21 3 55.17                             152    0.5010 71.1 299 
 BRR  HN ES       21 4 11.45                             152    0.6310 71.1 299 
 BRR  SZ I        21 4 16.44        21.8 0.32            152           71.1 299 
 PAM  SZ EP       21 3 56.15                             150    0.3510 78.3  39 
 PAM  SN ES       21 4 12.81                             150   -0.0210 78.3  39 
 PAM  SZ I        21 4 14.98        16.5 0.50            153           78.3  39 
 RUS  HZ EP       21 3 57.15                             143   -0.1210 99.9 176 
 RUS  HN ES       21 4 15.88                             143    0.4410 99.9 176 
 RUS  SZ I        21 4 16.97        12.0 0.26            146           99.9 176 
 PTB  HZ EP       21 3 59.54                             131   -1.01 9  147 259 
 PTB  HE ES       21 4 21.06                             131   -0.22 9  147 259 
 PTB  SZ I        21 4 22.51        11.2 0.52            133            147 259 
 SPBC HZ EP       21 4  2.24                             128    0.17 9  162 219 
 SPBC HN ES       21 4 23.78                             128   -0.21 9  162 219 
 SPBC SZ I        21 4 26.66        15.3 0.30            130            162 219 
 NOR  HZ EP       21 4  9.48                             118    0.11 8  234 235 
 NOR  HN ES       21 4 36.53                             118   -0.46 8  234 235 
 NOR  SZ I        21 4 42.27         6.4 0.22            120            234 235 
 SML  HN ES       21 4 38.39                             116   -0.46 8  244 335 
 CHI  HZ EP       21 4 11.39                             116    0.04 8  248 195 
 CHI  HZ I        21 4 12.03         3.7 0.20            119            248 195 
 CHI  HN ES       21 4 40.10                             116   -0.40 8  248 195 
 GUY2CHZ EP       21 4 17.35                             112    0.05 7  300 235 
 GUY2CHN ES       21 4 52.46                             112    1.37 7  300 235 
 GUY2CSZ I        21 4 59.06         4.3 0.40                           300 235 
                                                                                
