 2011  618 2347  0.4 L   6.811 -73.135140.1  RSN 16 0.3 2.5LRSN                1
 GAP=137        0.57       2.7     4.2  4.2 -0.5536E+01  0.4745E+01  0.2046E+01E
 Epicentro: LOS SANTOS - SANTANDER                                             3
 ACTION:UP  11-07-14 19:06 OP:ep   STATUS:               ID:20110618234700 L   I
 2011-06-18-2344-29S.COL___140                                                 6
 STAT SP IPHASW D HRMM SECON CODA AMPLIT PERI AZIMU VELO SNR AR TRES W  DIS CAZ7
 BTL  SZ EP   1   2347 19.59                             172     0.3 7   19 309 
 BTL  SZ ES   2   2347 33.98                             172     0.0 5   19 309 
 BAR2 SZ IP       2347 19.22                             169    -0.210   25 192 
 BAR2 SZ ES   2   2347 34.27                             169     0.1 5   25 192 
 BAR2 SZ I        2347 35.01        65.4 0.24                            25 192 
 GIR2 SZ EP   1   2347 19.24                             167    -0.1 7   30 348 
 GIR2 SZ ES   2   2347 33.91                             167    -0.3 5   30 348 
 BRR  HZ EP   1   2347 21.03                             151     0.1 7   72 297 
 BRR  HZ I        2347 21.38       124.0 0.11                            72 297 
 BRR  HE ES   2   2347 37.29                             151     0.3 5   72 297 
 PAM  SZ EP   1   2347 22.12                             150     0.2 7   76  39 
 PAM  SN ES   1   2347 38.97                             150     0.3 7   76  39 
 RUS  HZ EP   1   2347 23.28                             142    -0.4 7  102 177 
 RUS  HE ES   2   2347 41.48                             142    -0.4 5  102 177 
 RUS  HZ I        2347 43.34        26.8 0.31                           102 177 
 BRI  SZ EP   1   2347 23.71                             141     0.1 7  107  20 
 BRI  SZ ES   2   2347 42.35                             141     0.6 5  107  20 
 BRI  SZ I        2347 43.90        58.7 0.31                           107  20 
 GRA  SZ EP   1   2347 25.02                             136     0.0 7  124  17 
 GRA  SZ ES   1   2347 43.95                             136    -0.3 7  124  17 
 GRA  SZ I        2347 45.53        54.0 0.38                           124  17 
 OCA  SZ EP   1   2347 27.92                             128    -0.2 7  159 353 
 OCA  SZ ES   2   2347 48.92                             128    -0.9 5  159 353 
 OCA  SZ I        2347 52.70        50.4 0.38                           159 353 
 NOR  SZ EP   2   2347 35.81                             117    -0.2 4  236 234 
 NOR  SE ES   2   2348  3.38                             117    -0.4 4  236 234 
 CHI  HZ EP   2   2347 38.03                             116     0.1 4  250 195 
 CHI  HN ES   2   2348  7.71                             116     0.5 4  250 195 
 CHI  HZ I        2348 12.26         8.1 0.42                           250 195 
 HEL  HZ EP   1   2347 40.71                             113     0.2 6  273 256 
 HEL  HE ES   2   2348 11.98                             113     0.2 4  273 256 
 HEL  HZ I        2348 17.64        18.0 0.29                           273 256 
 RREF HZ EP   2   2347 46.37                             110    -0.1 3  323 229 
 RREF HN ES   2   2348 22.32                             110    -0.1 3  323 229 
 TOL  SZ EP   1   2347 49.47                             108     0.8 5  345 225 
 PRA  HZ EP   1   2347 53.89                             105     0.0 4  394 210 
 PRA  HN ES   2   2348 35.25                             105    -0.4 3  394 210 
 SJA  SZ EP   2   2347 54.61                             105    -0.3 3  402 193 
 SJA  SZ I        2348 46.35        17.9 0.41                           402 193 
                                                                                
