 2011  718 2238 10.1 L   6.780 -73.100140.2  RSN  6 0.4 1.9LRSN                1
 GAP=161        0.82       4.9     9.2  7.5 -0.4446E+01 -0.1031E+02 -0.1636E+01E
 Epicentro: LOS SANTOS - SANTANDER                                             3
 ACTION:UPD 12-07-25 14:01 OP:epov STATUS:               ID:20110718223810 L   I
 2011-07-18-2235-11S.COL___143                                                 6
 STAT SP IPHASW D HRMM SECON CODA AMPLIT PERI AZIMU VELO AIN AR TRES W  DIS CAZ7
 BAR2 SZ EP       2238 28.74                             170   -0.2610 22.7 204 
 BAR2 SZ ES   1   2238 43.42                             170   -0.36 7 22.7 204 
 BAR2 SZ I        2238 45.11        19.6 0.21                          22.7 204 
 BRR  HZ EP   1   2238 30.63                             150   -0.30 7 76.7 298 
 BRR  HZ I        2238 30.93         9.5 0.18                          76.7 298 
 BRR  HN ES   1   2238 47.44                             150    0.22 7 76.7 298 
 RUS  HZ EP   1   2238 32.68                             143   -0.40 7 98.2 179 
 RUS  HZ I        2238 34.03         5.6 0.19                          98.2 179 
 RUS  HN ES   1   2238 51.66                             143    0.61 7 98.2 179 
 BRI  SZ EP   1   2238 33.34                             140   -0.11 7  109  18 
 GRA  SZ EP   1   2238 35.63                             136    0.77 7  126  15 
 PRA  HZ EP   1   2239  3.19                             106   -0.27 4  393 210 
 PRA  HN ES   1   2239 45.66                             106    0.54 4  393 210 
 PRA  HZ I        2239 52.95        11.4 0.21                           393 210 
                                                                                
