 2012  318 2336 41.3 L   6.784 -73.126139.2  RSN  5 0.1 1.5LRSN                1
 GAP=140        0.30       2.0     1.8  3.8  0.2668E+00  0.8873E+00  0.3072E+00E
 ACTION:UP  12-03-31 23:20 OP:EP   STATUS:               ID:20120318233641 L   I
 2012-03-18-2330-00M.COL___202                                                 6
 STAT SP IPHASW D HRMM SECON CODA AMPLIT PERI AZIMU VELO SNR AR TRES W  DIS CAZ7
 BRR  HZ EP       2337  1.87                             150     0.010   74 299 
 BRR  HE ES   1   2337 18.07                             150     0.1 7   74 299 
 BRR  HZ I        2337 22.69         9.2 0.13                            74 299 
 PAM  SZ EP   1   2337  2.85                             150     0.1 7   77  37 
 PAM  SN ES   1   2337 19.48                             150    -0.1 7   77  37 
 RUS  HZ EP   1   2337  4.27                             143     0.0 7   99 177 
 RUS  HN ES   1   2337 22.12                             143     0.0 7   99 177 
 RUS  HZ I        2337 24.20         3.5 0.26                            99 177 
 PTB  HE ES   1   2337 28.62                             130     0.0 7  150 260 
 ZAR  HN ES   1   2337 38.68                             120    -0.1 6  207 292 
 ZAR  HZ I        2337 43.84         3.4 0.28                           207 292 
                                                                                
