 2017  818 2238 20.5 L   6.782 -73.108143.8  RSN  4 0.2 1.6LRSN                1
 GAP=142        0.48       2.6     2.7  4.8  0.1416E+01  0.1999E+01  0.1048E+01E
 Epicentro: LOS SANTOS - SANTANDER                                             3
 ACTION:UPD 17-09-04 20:21 OP:rebc STATUS:               ID:20170818223820 L   I
 OLDACT:DUP 17-08-19 05:11 OP:dani STATUS:               ID:20170818222742d    3
 OLDACT:UP  17-08-19 05:11 OP:dani STATUS:               ID:20170818222741d    3
 OLDACT:UP  17-08-19 05:09 OP:dani STATUS:               ID:20170818222741d    3
 OLDACT:DUP 17-08-19 05:07 OP:dani STATUS:               ID:20170818222741d    3
 2017-08-18-2228-00M.COL___414                                                 6
 STAT SP IPHASW D HRMM SECON CODA AMPLIT PERI AZIMU VELO AIN AR TRES W  DIS CAZ7
 BRR  HZ EP       2238 41.90                             151    0.1610 75.8 298 
 BRR  HN ES       2238 58.47                             151    0.1910 75.8 298 
 BRR  HZ I        2239  4.43        16.1 0.35            152           75.8 298 
 PAM  EZ EP       2238 42.35                             151   -0.1310 76.4  36 
 PAM  EE ES       2238 59.56                             151   -0.0510 76.4  36 
 PAM  EZ I        2239  1.80         8.1 0.48            154           76.4  36 
 RUS  HZ EP       2238 44.10                             144    0.1710 98.4 178 
 RUS  HN ES       2239  2.02                             144   -0.1710 98.4 178 
 RUS  HZ I        2239  3.11         2.7 0.35            149           98.4 178 
 ZAR  HN ES       2239 18.68                             121   -0.23 8  209 292 
                                                                                
