 2012 1218 2238 24.6 L   6.328 -73.718103.3  RSN  5 0.5 1.5LRSN                1
 GAP=173        1.22       6.5     5.1 11.3 -0.8028E+01  0.1790E+02 -0.5598E+00E
 Epicentro: SANTA HELENA DEL OPON - SANTANDER                                  3
 ACTION:UPD 13-01-04 14:28 OP:ep   STATUS:               ID:20121218223824 L   I
 2012-12-18-2230-00M.COL___243                                                 6
 STAT SP IPHASW D HRMM SECON CODA AMPLIT PERI AZIMU VELO AIN AR TRES W  DIS CAZ7
 BAR2 SZ EP       2238 41.45                             145    0.1310 66.1  64 
 BAR2 SZ ES       2238 54.53                             145    0.1610 66.1  64 
 PTB  HZ EP     C 2238 41.94                             137   -0.5210 84.9 286 
 PTB  HZ I        2238 43.02         2.9 0.18                          84.9 286 
 PTB  HN ES       2238 55.74                             137   -0.6510 84.9 286 
 BRR  HZ EP       2238 42.59                             137    0.0510 86.2   0 
 NOR  HZ EP       2238 48.68                             119   -0.40 9  153 237 
 NOR  HE ES     D 2239  9.01                             119    0.82 9  153 237 
 NOR  HN I        2239 12.39         9.7 0.14                           153 237 
 ZAR  HZ EP       2238 51.83                             114   -0.16 9  180 316 
 ZAR  HE ES       2239 14.12                             114    0.76 9  180 316 
 ZAR  HN I        2239 19.04         7.3 0.14                           180 316 
                                                                                
