 2017 1018 2143 21.6 L   6.729 -73.105142.0  RSN  5 0.3 1.5LRSN                1
 GAP=172        0.80       3.8     5.8  6.6 -0.7656E+01 -0.7358E+01  0.6139E+01E
 Epicentro: JORDAN - SANTANDER                                                 3
 ACTION:UPD 17-11-07 19:33 OP:rebc STATUS:               ID:20171018214321 L   I
 OLDACT:UP  17-10-19 09:17 OP:dnl  STATUS:               ID:20171018213402     3
 OLDACT:REG 17-10-19 09:04 OP:dnl  STATUS:               ID:20171018213402     3
 2017-10-18-2138-00M.COL___450                                                 6
 STAT SP IPHASW D HRMM SECON CODA AMPLIT PERI AZIMU VELO AIN AR TRES W  DIS CAZ7
 BAR2 EZ EP   2   2143 40.51                             173   -0.13 5 17.4 209 
 BAR2 EZ ES       2143 55.61                             173    0.1010 17.4 209 
 BAR2 EZ I        2143 58.29        10.7 0.24            172           17.4 209 
 PAM  EZ EP       2143 43.43                             149   -0.1810 81.0  34 
 PAM  EE ES       2144  0.74                             149   -0.0610 81.0  34 
 PAM  EZ I        2144  4.98         2.6 0.24            151           81.0  34 
 RUS  HZ EP       2143 44.55                             145    0.1810 92.5 178 
 RUS  HE ES       2144  2.56                             145    0.4010 92.5 178 
 RUS  HZ I        2144  4.51         3.9 0.26            146           92.5 178 
 SPBC HZ EP   4   2143 48.51                             129   -0.98 0  160 222 
 SPBC HN ES       2144 10.92                             129   -0.34 9  160 222 
 SPBC HZ I        2144 14.03         6.8 0.34            132            160 222 
 YPLC HZ EP       2143 50.65                             127    0.45 9  168 151 
 YPLC HE ES       2144 11.95                             127   -0.59 9  168 151 
 YPLC HZ I        2144 18.21         4.7 0.34            129            168 151 
                                                                                
