 2016  718 2000 24.5 L   6.764 -73.093150.0  RSN  6 0.2 1.7LRSN                1
 GAP=145        0.59       2.8     3.0  4.2  0.2529E+00  0.4150E+01  0.2014E+00E
 Epicentro: LOS SANTOS - SANTANDER                                             3
 ACTION:UPD 17-03-29 16:52 OP:lp   STATUS:               ID:20160718200024 L   I
 OLDACT:DUP 16-07-19 04:44 OP:cara STATUS:               ID:20160718195760d    3
 OLDACT:REG 16-07-19 04:25 OP:cara STATUS:               ID:20160718195759     3
 2016-07-18-1957-59S.COL___340                                                 6
 STAT SP IPHASW D HRMM SECON CODA AMPLIT PERI AZIMU VELO AIN AR TRES W  DIS CAZ7
 BAR2 EZ EP       20 0 44.35                             172   -0.2010 21.4 207 
 BAR2 HE ES       20 1  0.16                             172   -0.0710 21.4 207 
 BAR2 EZ I        20 1  1.01         6.8 0.10            172           21.4 207 
 PAM  EZ EP       20 0 47.46                             152    0.3610 77.1  34 
 PAM  EE ES       20 1  4.75                             152   -0.0210 77.1  34 
 PAM  EZ I        20 1  6.90         4.9 0.66            152           77.1  34 
 BRR  HZ EP       20 0 46.43                             151   -0.0310 78.2 299 
 BRR  HN ES       20 1  3.87                             151    0.2510 78.2 299 
 BRR  HZ I        20 1  4.77        10.0 0.14            150           78.2 299 
 RUS  HZ EP       20 0 48.22                             146   -0.1110 96.4 179 
 RUS  HN ES       20 1  6.87                             146   -0.0810 96.4 179 
 RUS  HZ I        20 1  8.41         2.6 0.46            148           96.4 179 
 ZAR  HZ EP       20 0 57.80                             122   -0.08 8  211 293 
 ZAR  HE ES       20 1 23.58                             122   -0.38 8  211 293 
 ZAR  HZ I        20 1 29.47         9.9 0.26            123            211 293 
 GUY2CHZ EP   4   20 1 10.71                             113    2.17 0  304 236 
 GUY2CHE ES       20 1 43.40                             113    0.47 7  304 236 
 GUY2CHZ I        20 2  6.71         7.5 0.10                           304 236 
                                                                                
