 2013 1118 2237  6.5 L   6.768 -73.152143.1  RSN  5 0.4 1.7LRSN 2.3WRSN        1
 SPEC AVERAGE  MO 12.6 ST 38.5 OM  0.9 f0 15.4 R0.2305 AL 0.00 WI 20.0 MW  2.3 3
 SPEC SD       MO  0.2 ST 65.3 OM  0.3 f0 14.3 R0.1236 AL      WI      MW  0.2 3
 GAP=137        0.98       4.9     4.4  7.8  0.1755E+01  0.8191E+01  0.1042E+01E
 Epicentro: LOS SANTOS - SANTANDER                                             3
 SPEC PAM SH Z MO 12.7 ST0.470 OM  0.8 f0 5.38 R0.3576 AL-0.00 WI 20.0 MW  2.4 3
 SPEC PAM SH Z T223743 K 0.050 GD  164 VS 5.20 DE 3.20 Q0750.0 QA 1.50 VS 5.20 3
 SPEC RUS HH Z MO 12.2 ST  1.1 OM  0.3 f0 10.3 R0.1868 AL-0.00 WI 20.0 MW  2.1 3
 SPEC RUS HH Z T223746 K 0.050 GD  172 VS 5.20 DE 3.20 Q0750.0 QA 1.50 VS 5.20 3
 SPEC PTB HH Z MO 12.6 ST151.6 OM  0.6 f0 40.0 R0.0481 AL-0.00 WI 20.0 MW  2.3 3
 SPEC PTB HH Z T223751 K 0.050 GD  204 VS 5.20 DE 3.20 Q0750.0 QA 1.50 VS 5.20 3
 SPEC ZAR HH Z MO 12.9 ST0.915 OM  0.8 f0 5.84 R0.3295 AL-0.00 WI 20.0 MW  2.5 3
 SPEC ZAR HH Z T2238 1 K 0.050 GD  250 VS 5.20 DE 3.20 Q0750.0 QA 1.50 VS 5.20 3
 2013-11-18-2228-13M.COL___216                                                 6
 OLDACT:DUP 13-11-19 01:51 OP:stll STATUS:               ID:20131118222814d    3
 ACTION:UPD 14-01-09 16:29 OP:ep   STATUS:               ID:20131118223706 L   I
 OLDACT:UP  13-11-19 01:59 OP:stll STATUS:               ID:20131118222814d    3
 STAT SP IPHASW D HRMM SECON CODA AMPLIT PERI AZIMU VELO AIN AR TRES W  DIS CAZ7
 BRR  HZ EP       2237 27.60                             152    0.1910 72.3 301 
 BRR  HE ES       2237 44.45                             152    0.7210 72.3 301 
 PAM  SZ EP       2237 28.55                             149   -0.0610 80.6  38 
 PAM  SN ES       2237 45.47                             149   -0.4010 80.6  38 
 PAM  SZ I        2237 47.69        11.9 0.64            153           80.6  38 
 RUS  HZ EP       2237 29.69                             144   -0.0310 97.1 175 
 RUS  HN ES       2237 47.87                             144    0.0210 97.1 175 
 RUS  HZ I        2237 49.27         4.2 0.32            147           97.1 175 
 RUS  SZ I        2237 56.91         3.0 0.90                          97.1 175 
 PTB  HZ EP       2237 33.02                             132   -0.09 9  146 260 
 PTB  HN ES       2237 53.48                             132   -0.40 9  146 260 
 PTB  SZ I        2237 59.16         5.2 1.64            132            146 260 
 ZAR  HZ EP       2237 39.38                             122    0.55 9  205 293 
 ZAR  HN ES       2238  3.48                             122   -0.58 9  205 293 
 ZAR  SZ I        2238 10.10        11.0 0.46            123            205 293 
 ZAR  HZ I        2238 10.34         9.8 0.22                           205 293 
                                                                                
