 2014  118 2158 54.5 L   6.743 -73.191145.9  RSN  6 0.2 1.6LRSN                1
 GAP=238        0.45       3.3     2.5  4.2  0.2230E+00  0.3417E+01 -0.1490E+01E
 Epicentro: VILLANUEVA - SANTANDER                                             3
 ACTION:UPD 14-03-13 09:56 OP:ep   STATUS:               ID:20140118215854 L   I
 OLDACT:REG 14-01-18 21:10 OP:jn   STATUS:               ID:20140118215740     3
 2014-01-18-2157-40M.COL___244                                                 6
 STAT SP IPHASW D HRMM SECON CODA AMPLIT PERI AZIMU VELO AIN AR TRES W  DIS CAZ7
 BAR2 SZ EP       2159 13.90                             173   -0.0810 16.7 177 
 BAR2 SZ ES       2159 29.17                             173   -0.0510 16.7 177 
 BAR2 SZ I        2159 30.74        11.9 0.20            169           16.7 177 
 RUS  HZ EP       2159 17.90                             145    0.1010 94.8 173 
 RUS  HN ES       2159 35.99                             145   -0.0310 94.8 173 
 RUS  HZ I        2159 37.99         4.6 0.30            145           94.8 173 
 PTB  HZ EP       2159 20.92                             133    0.03 9  142 261 
 PTB  HN ES       2159 41.32                             133   -0.19 9  142 261 
 PTB  HZ I        2159 45.57         5.2 0.16            132            142 261 
 SPBC HN ES       2159 44.17                             130    0.32 9  155 219 
 ZAR  HE ES   2   2159 52.25                             123    0.41 4  202 294 
 NOR  HN ES       2159 56.40                             119   -0.20 8  227 235 
 NOR  HZ I        22 0  3.69         2.9 0.34            119            227 235 
                                                                                
