 2017  618 2321 45.5 L   6.692 -73.250151.0  RSN  6 0.3 1.7LRSN                1
 GAP=241        0.81       3.6     7.2  7.7  0.3654E+01 -0.1083E+02  0.3140E+01E
 Epicentro: BARICHARA - SANTANDER                                              3
 ACTION:UPD 17-09-14 16:53 OP:jn   STATUS:               ID:20170618232145 L   I
 OLDACT:UP  17-06-19 08:01 OP:edw  STATUS:               ID:20170618231738     3
 OLDACT:UP  17-06-19 08:00 OP:edw  STATUS:               ID:20170618231738     3
 OLDACT:REG 17-06-19 06:29 OP:edw  STATUS:               ID:20170618231738     3
 2017-06-18-2318-00M.COL___335                                                 6
 STAT SP IPHASW D HRMM SECON CODA AMPLIT PERI AZIMU VELO AIN AR TRES W  DIS CAZ7
 BRR  HZ EP     C 2322  6.65                             154   -0.4210 68.7 312 
 BRR  HE ES       2322 24.07                             154    0.1710 68.7 312 
 BRR  HZ I        2322 26.90        11.4 0.38            157           68.7 312 
 PTB  HZ EP       2322 11.53                             136   -0.2010  134 263 
 PTB  HE ES       2322 32.27                             136    0.0710  134 263 
 PTB  HZ I        2322 32.99         6.2 0.14            138            134 263 
 SPBC HZ EP       2322 13.37                             133    0.48 9  147 218 
 SPBC HN ES       2322 34.48                             133    0.22 9  147 218 
 SPBC HZ I        2322 37.58         5.6 0.38            134            147 218 
 ZAR  HZ EP       2322 18.21                             124    0.50 9  198 297 
 ZAR  HN ES       2322 42.52                             124   -0.33 9  198 297 
 ZAR  HZ I        2322 47.81         4.4 0.24            127            198 297 
 NOR  HN ES   1   2322 46.38                             122   -0.21 6  218 235 
 CHI  HN ES       2322 49.96                             120   -0.42 8  234 193 
 CHI  HZ I        2322 59.44         2.0 0.30            121            234 193 
                                                                                
