 2017  218 2220  0.8 L   6.948 -73.208141.9  RSN  6 0.3 1.3LRSN                1
 GAP=124        0.53       3.0     3.0  4.8 -0.3193E-01  0.1322E+01  0.3541E+01E
 Epicentro: BETULIA - SANTANDER                                                3
 ACTION:UPD 17-05-24 15:37 OP:jn   STATUS:               ID:20170218222000 L   I
 OLDACT:UP  17-02-19 03:32 OP:and  STATUS:               ID:20170218221744     3
 OLDACT:UP  17-02-19 03:31 OP:and  STATUS:               ID:20170218221744     3
 OLDACT:UP  17-02-19 03:30 OP:and  STATUS:               ID:20170218221744     3
 OLDACT:UP  17-02-19 03:29 OP:and  STATUS:               ID:20170218221744     3
 OLDACT:UP  17-02-19 03:28 OP:and  STATUS:               ID:20170218221744     3
 OLDACT:REG 17-02-19 02:32 OP:and  STATUS:               ID:20170218221744     3
 2017-02-18-2218-00M.COL___358                                                 6
 STAT SP IPHASW D HRMM SECON CODA AMPLIT PERI AZIMU VELO AIN AR TRES W  DIS CAZ7
 BRR  HZ EP       2220 20.91                             156    0.0610 58.4 288 
 BRR  HN ES       2220 36.61                             156    0.1210 58.4 288 
 PAM  EZ EP       2220 22.25                             152    0.0210 70.9  52 
 PAM  EN ES       2220 38.75                             152   -0.1910 70.9  52 
 PAM  EZ I        2220 40.63         3.5 0.36            155           70.9  52 
 RUS  HZ EP       2220 25.77                             138    0.2810  118 173 
 RUS  HN ES       2220 44.69                             138   -0.0510  118 173 
 RUS  HZ I        2220 46.25         1.6 0.32            140            118 173 
 PTB  HZ EP   2   2220 26.77                             131   -0.45 5  145 252 
 PTB  HN ES   2   2220 47.17                             131   -0.66 5  145 252 
 PTB  HZ I        2220 51.10         3.2 0.26            131            145 252 
 ZAR  HZ EP   4   2220 35.12                             123    3.37 0  192 288 
 ZAR  HN ES   2   2220 56.29                             123    0.40 4  192 288 
 ZAR  HZ I        2221  0.84         3.6 0.07            123            192 288 
 NOR  HZ EP   2   2220 36.43                             117   -0.37 4  239 230 
 NOR  HN ES   4   2221  7.66                             117    2.78 0  239 230 
                                                                                
