 2012  218 2348 32.5 L   6.795 -73.122150.8  RSN  9 0.5 1.8LRSN                1
 GAP=140        0.92       5.4     5.3  8.3 -0.4389E+01  0.3965E+01  0.1800E+02E
 ACTION:UP  12-03-07 16:31 OP:epov STATUS:               ID:20120218234832 L   I
 2012-02-18-2346-45S.COL___170                                                 6
 STAT SP IPHASW D HRMM SECON CODA AMPLIT PERI AZIMU VELO AIN AR TRES W  DIS CAZ7
 GIR2 SZ EP   1   2348 52.67                             167   -0.12 7 32.3 346 
 BRR  HZ EP   1   2348 54.32                             152    0.00 7 73.7 298 
 BRR  HE ES       2349 12.11                             152    0.7610 73.7 298 
 BRR  HZ I        2349 16.05        21.0 0.15                          73.7 298 
 PAM  SZ EP   1   2348 55.28                             152    0.11 7 76.2  38 
 PAM  SN ES   1   2349 12.19                             152   -0.68 7 76.2  38 
 PAM  SZ I        2349 12.94         6.8 0.30                          76.2  38 
 RUS  HZ EP   1   2348 56.65                             145   -0.04 7 99.9 178 
 RUS  HZ I        2348 57.71         5.3 0.08                          99.9 178 
 RUS  HN ES   1   2349 15.58                             145    0.01 7 99.9 178 
 PTB  HZ EP   1   2348 59.54                             133   -0.55 7  150 259 
 PTB  HN ES   1   2349 21.07                             133   -0.54 7  150 259 
 ZAR  HN ES   2   2349 30.81                             123   -0.49 4  207 292 
 NOR  SZ EP       2349  9.24                             119    0.53 8  236 235 
 NOR  EN ES   1   2349 36.34                             119   -0.61 6  236 235 
 CHI  HZ EP   1   2349 11.09                             118    0.60 6  249 196 
 CHI  HN ES   2   2349 39.46                             118   -0.67 4  249 196 
 CHI  HZ I        2349 50.85         2.9 0.39                           249 196 
 RREF HN ES   2   2349 55.63                             112    0.29 3  323 230 
 RREF HZ I        2350  7.14         3.9 0.53                           323 230 
                                                                                
