 2015  818 2032  8.7 L   6.821 -73.157143.9  RSN 10 0.3 2.0LRSN                1
 GAP=134        0.79       2.4     3.5  4.5 -0.1031E+01  0.6044E+01 -0.1586E+00E
 Epicentro: LOS SANTOS - SANTANDER                                             3
 ACTION:UPD 15-09-15 23:03 OP:cam  STATUS:               ID:20150818203208 L   I
 OLDACT:UP  15-08-19 03:52 OP:mh   STATUS:               ID:20150818202748     3
 OLDACT:REG 15-08-19 03:15 OP:mh   STATUS:               ID:20150818202748     3
 2015-08-18-2027-48M.COL___346                                                 6
 STAT SP IPHASW D HRMM SECON CODA AMPLIT PERI AZIMU VELO AIN AR TRES W  DIS CAZ7
 BAR2 EZ EP       2032 28.09                             170   -0.0710 25.4 186 
 BAR2 EZ ES       2032 43.33                             170    0.0110 25.4 186 
 BAR2 EZ I        2032 44.37        33.0 0.18            168           25.4 186 
 BRR  HZ EP       2032 29.88                             153    0.3510 69.0 297 
 BRR  HN ES       2032 45.88                             153    0.1110 69.0 297 
 BRR  HZ I        2032 47.37        38.2 0.36            151           69.0 297 
 PAM  EZ EP       2032 30.91                             151    0.2410 76.4  41 
 PAM  EN ES       2032 48.01                             151    0.2210 76.4  41 
 PAM  EZ I        2032 48.44         7.5 0.20            154           76.4  41 
 RUS  HZ EP       2032 32.16                             143   -0.2910  103 175 
 RUS  HN ES       2032 50.73                             143   -0.2310  103 175 
 RUS  HZ I        2032 51.73        10.2 0.26            143            103 175 
 SPBC HZ EP       2032 37.09                             128   -0.07 9  164 218 
 SPBC HN ES       2032 59.38                             128    0.03 9  164 218 
 SPBC HZ I        2033  3.82        14.1 0.24            128            164 218 
 ZAR  HZ EP       2032 41.05                             122    0.22 9  202 292 
 ZAR  HN ES       2033  6.20                             122    0.32 9  202 292 
 NOR  HZ EP       2032 44.44                             118    0.07 8  235 234 
 NOR  HN ES       2033 11.50                             118   -0.68 8  235 234 
 NOR  HZ I        2033 17.13         8.5 0.20            118            235 234 
 SML  HZ EP       2032 44.66                             117   -0.29 8  241 335 
 SML  HN ES       2033 12.42                             117   -0.80 8  241 335 
 SML  HZ I        2033 15.25        13.3 0.10            118            241 335 
 GUY2CHZ EP   4   2032 53.31                             112    1.04 0  302 234 
 GUY2CHN ES   4   2033 28.04                             112    1.79 0  302 234 
 GUY2CHZ I        2033 34.40         4.5 0.44                           302 234 
 TOL  SZ EP       2032 57.56                             109    0.58 7  344 224 
 TOL  SN ES       2033 35.01                             109    0.38 7  344 224 
 TOL  SZ I        2033 42.28         4.6 0.48            109            344 224 
                                                                                
