 2016 1018 2006 33.1 L   7.382 -73.117152.5  RSN  5 0.3 1.7LRSN                1
 GAP=211        0.86       6.0     5.0  6.7 -0.5061E+01  0.6472E+01  0.6527E+00E
 Epicentro: MATANZA - SANTANDER                                                3
 ACTION:UPD 16-11-09 19:20 OP:rebc STATUS:               ID:20161018200633 L   I
 OLDACT:REG 16-10-19 03:07 OP:lv   STATUS:               ID:20161018195726     3
 2016-10-18-1958-00M.COL___334                                                 6
 STAT SP IPHASW D HRMM SECON CODA AMPLIT PERI AZIMU VELO AIN AR TRES W  DIS CAZ7
 PAM  EZ EP       20 6 54.69                             162    0.1610 46.3  96 
 PAM  EE ES       20 7 10.97                             162   -0.3010 46.3  96 
 PAM  EZ I        20 7 12.20         7.6 0.27            168           46.3  96 
 BRR  HZ EP       20 6 55.10                             153    0.0910 72.4 245 
 BRR  HE ES       20 7 12.48                             153    0.3510 72.4 245 
 BRR  HZ I        20 7 15.27        13.2 0.28            151           72.4 245 
 BAR2 EZ ES       20 7 14.28                             149   -0.0710 87.7 185 
 BAR2 EZ I        20 7 16.05         7.7 0.14            150           87.7 185 
 RUS  HZ EP       20 7  3.33                             130    0.55 9  165 179 
 RUS  HE ES       20 7 25.79                             130   -0.16 9  165 179 
 PTB  HZ EP       20 7  2.40                             128   -0.69 9  175 238 
 PTB  HN ES       20 7 26.51                             128   -0.00 9  175 238 
 PTB  HZ I        20 7 32.04         4.2 0.20            129            175 238 
                                                                                
