 2016  618 2119 59.5 L   6.784 -73.154142.0  RSN 10 0.3 1.9LRSN                1
 GAP=136        0.77       2.5     3.0  4.5 -0.1520E+01  0.4555E+01  0.1083E+01E
 Epicentro: LOS SANTOS - SANTANDER                                             3
 ACTION:UPD 16-07-21 22:20 OP:rebc STATUS:               ID:20160618211959 L   I
 OLDACT:REG 16-06-19 03:01 OP:edw  STATUS:               ID:20160618211745     3
 2016-06-18-2117-45M.COL___352                                                 6
 STAT SP IPHASW D HRMM SECON CODA AMPLIT PERI AZIMU VELO AIN AR TRES W  DIS CAZ7
 BAR2 EZ EP       2120 18.51                             171   -0.1310 21.4 188 
 BAR2 EZ ES       2120 33.74                             171    0.1710 21.4 188 
 BAR2 EZ I        2120 34.96        15.6 0.16                          21.4 188 
 BRR  HZ EP       2120 20.35                             152    0.1110 71.2 300 
 BRR  HN ES       2120 36.67                             152    0.2510 71.2 300 
 PAM  EZ EP       2120 21.32                             150   -0.1210 79.4  39 
 PAM  EE ES       2120 38.83                             150    0.2810 79.4  39 
 PAM  EZ I        2120 41.07        10.0 0.28                          79.4  39 
 RUS  HZ EP       2120 22.56                             144   -0.2010 98.9 175 
 RUS  HN ES       2120 40.48                             144   -0.4210 98.9 175 
 RUS  HZ I        2120 42.32         8.9 0.22                          98.9 175 
 PTB  HZ EP       2120 25.68                             131   -0.37 9  146 259 
 PTB  HN ES       2120 46.76                             131    0.01 9  146 259 
 PTB  HZ I        2120 48.01        10.0 0.38                           146 259 
 SPBC HZ EP       2120 27.79                             129    0.27 9  161 219 
 SPBC HN ES       2120 49.74                             129    0.36 9  161 219 
 SPBC HZ I        2120 56.74        18.7 0.10                           161 219 
 OCA  HE ES       2120 49.55                             129   -0.10 9  162 354 
 ZAR  HZ EP       2120 31.50                             122   -0.18 9  204 293 
 ZAR  HN ES       2120 56.46                             122   -0.32 9  204 293 
 ZAR  HZ I        2121  3.76        10.3 0.34                           204 293 
 NOR  HZ EP       2120 34.77                             118   -0.05 8  233 235 
 NOR  HN ES       2121  1.89                             118   -0.48 8  233 235 
 NOR  HZ I        2121  7.99         8.6 0.48                           233 235 
 GUY2CHZ EP       2120 43.68                             112    0.95 7  299 235 
 GUY2CHE ES       2121 16.74                             112    0.29 7  299 235 
 GUY2CHZ I        2121 25.16         5.3 0.64                           299 235 
 SJC  HN ES   4   2121 34.61                             105   -3.77 0  410 327 
                                                                                
