 2015  418 2112 38.6 L   6.706 -73.239132.0  RSN 14 0.5 2.2LRSN                1
 GAP=129        1.10       2.8     4.0  6.2 -0.2307E+01  0.6850E+01  0.2876E+00E
 Epicentro: BARICHARA - SANTANDER                                              3
 ACTION:UPD 15-06-03 16:55 OP:cam  STATUS:               ID:20150418211238 L   I
 OLDACT:UP  15-04-19 05:25 OP:mh   STATUS:               ID:20150418210750     3
 OLDACT:UP  15-04-19 05:21 OP:mh   STATUS:               ID:20150418210750     3
 OLDACT:REG 15-04-19 03:38 OP:mh   STATUS:               ID:20150418210750     3
 2015-04-18-2107-50M.COL___278                                                 6
 STAT SP IPHASW D HRMM SECON CODA AMPLIT PERI AZIMU VELO AIN AR TRES W  DIS CAZ7
 BRR  HZ EP       2112 58.38                             151    0.2710 68.6 310 
 BRR  HN ES       2113 13.87                             151    0.5310 68.6 310 
 BRR  HZ I        2113 15.27        25.5 0.26            145           68.6 310 
 RUS  HZ EP   1   2113  0.16                             143   -0.18 7 91.6 169 
 RUS  HN ES       2113 17.35                             143    0.0410 91.6 169 
 RUS  HZ I        2113 18.42        22.2 0.32            138           91.6 169 
 PAM  SZ EP   1   2113  0.96                             143    0.59 7 92.0  40 
 PAM  SN ES       2113 17.73                             143    0.3810 92.0  40 
 PAM  SZ I        2113 18.92        33.6 0.40            140           92.0  40 
 PTB  HZ EP       2113  2.38                             131   -0.98 9  136 262 
 PTB  HN ES       2113 22.47                             131   -0.21 9  136 262 
 PTB  HZ I        2113 23.79        28.5 0.19            124            136 262 
 SPBC HZ EP       2113  4.50                             129   -0.15 9  149 218 
 SPBC HN ES       2113 24.68                             129   -0.30 9  149 218 
 SPBC HZ I        2113 30.88        30.3 0.48            122            149 218 
 OCA  HZ EP       2113  6.57                             125   -0.24 9  170 357 
 OCA  HN ES   1   2113 27.92                             125   -0.91 7  170 357 
 ZAR  HZ EP       2113  9.71                             120    0.08 9  199 296 
 ZAR  HN ES       2113 33.61                             120   -0.23 9  199 296 
 ZAR  HZ I        2113 38.73        21.3 0.20            114            199 296 
 NOR  HZ EP   1   2113 12.03                             117    0.05 6  220 235 
 NOR  HN ES       2113 37.42                             117   -0.61 8  220 235 
 NOR  HZ I        2113 41.45        16.1 0.28            111            220 235 
 CHI  HZ EP   1   2113 14.38                             115    0.21 6  236 193 
 CHI  HN ES       2113 41.35                             115   -0.56 8  236 193 
 SML  HZ EP       2113 14.78                             114   -0.32 8  249 338 
 SML  HE ES       2113 43.38                             114   -0.20 8  249 338 
 SML  HZ I        2113 46.96        15.9 0.10            109            249 338 
 HEL  HZ EP       2113 17.59                             113    0.85 8  260 257 
 HEL  HN ES       2113 47.12                             113    0.63 8  260 257 
 HEL  HZ I        2113 51.21        12.0 0.28            108            260 257 
 GUY2CHZ EP   4   2113 20.85                             111    0.90 0  287 235 
 GUY2CHN ES   4   2113 53.76                             111    1.55 0  287 235 
 GUY2CHZ I        2114  0.81        13.9 0.46                           287 235 
 CBOC HZ EP       2113 24.27                             108    0.80 7  321 253 
 CBOC HZ I        2114  8.03         4.5 0.13            103            321 253 
 TOL  SZ EP       2113 25.23                             108    0.61 7  329 225 
 TOL  SN ES       2114  1.02                             108    0.49 7  329 225 
 TOL  SZ I        2114  8.29         8.1 0.62            103            329 225 
 MON  HZ EP   4   2113 24.76                             106   -2.18 0  352 311 
 MON  HN ES   4   2114  2.55                             106   -2.10 0  352 311 
                                                                                
