 2014 1118 2029  7.3 L   6.818 -73.165140.4  RSN 20 0.4 2.7LRSN                1
 GAP= 69        0.93       2.4     2.7  4.2 -0.1078E+01  0.2306E+01  0.1155E+01E
 Epicentro: LOS SANTOS - SANTANDER                                             3
 ACTION:UPD 14-12-19 15:44 OP:nd   STATUS:               ID:20141118202908dL   I
 OLDACT:DUP 14-11-19 02:43 OP:cam  STATUS:               ID:20141118202817d    3
 OLDACT:UP  14-11-19 02:41 OP:cam  STATUS:               ID:20141118202816     3
 OLDACT:UP  14-11-19 02:40 OP:cam  STATUS:               ID:20141118202816     3
 OLDACT:REG 14-11-19 02:06 OP:cam  STATUS:               ID:20141118202816     3
 2014-11-18-2028-16M.COL___283                                                 6
 STAT SP IPHASW D HRMM SECON CODA AMPLIT PERI AZIMU VELO AIN AR TRES W  DIS CAZ7
 BAR2 SZ EP     D 2029 26.51                             170    0.1510 25.0 184 
 BAR2 SZ ES       2029 40.77                             170   -0.4310 25.0 184 
 BAR2 SZ I        2029 42.14       104.6 0.22            167           25.0 184 
 BRR  HZ EP       2029 28.42                             152    0.6710 68.4 298 
 BRR  HN ES       2029 44.24                             152    0.5710 68.4 298 
 BRR  HZ I        2029 49.91        89.9 0.10            151           68.4 298 
 PAM  SZ IP     D 2029 29.35                             150    0.3710 77.2  42 
 PAM  SN ES       2029 46.14                             150    0.2910 77.2  42 
 PAM  SZ I        2029 48.36        87.8 0.56            155           77.2  42 
 RUS  HZ EP     C 2029 30.46                             142   -0.2610  103 175 
 RUS  HN ES       2029 48.94                             142   -0.0310  103 175 
 RUS  HZ I        2029 49.79        42.6 0.36            143            103 175 
 PTB  HZ EP       2029 33.30                             131   -0.42 9  146 258 
 PTB  HN ES       2029 54.07                             131   -0.23 9  146 258 
 PTB  HZ I        2029 57.51        71.2 0.22            131            146 258 
 TAM  HZ EP     C 2029 34.79                             129   -0.05 9  158 105 
 TAM  HN ES       2029 56.06                             129   -0.23 9  158 105 
 TAM  HZ I        2029 56.68        29.2 0.36            132            158 105 
 OCA  HZ EP       2029 34.99                             129   -0.03 9  158 354 
 OCA  HN ES       2029 56.70                             129    0.08 9  158 354 
 OCA  HZ I        2029 57.69        68.2 0.30            131            158 354 
 SPBC HZ EP       2029 35.51                             128    0.06 9  163 218 
 SPBC HN ES       2029 56.89                             128   -0.49 9  163 218 
 SPBC HZ I        2030  1.94        67.1 0.42            128            163 218 
 NOR  HZ EP       2029 43.11                             117    0.41 8  234 234 
 NOR  HE ES       2030  9.82                             117   -0.46 8  234 234 
 NOR  HZ I        2030 15.53        40.6 0.20            118            234 234 
 CHI  HZ EP       2029 44.85                             116   -0.04 8  250 195 
 CHI  HN ES       2030 14.00                             116   -0.19 8  250 195 
 CHI  HZ I        2030 17.07        19.9 0.58            117            250 195 
 HEL  HZ EP   4   2029 48.73                             114    1.62 0  271 255 
 HEL  HN ES   4   2030 17.05                             114   -1.08 0  271 255 
 HEL  HZ I        2030 25.49        22.1 0.46            114            271 255 
 URE  HZ EP       2029 46.99                             113   -0.86 7  281 292 
 URE  HN ES   4   2030 18.23                             113   -1.22 0  281 292 
 URE  HZ I        2030 20.04        52.0 0.34            114            281 292 
 PTGC HZ EP   4   2029 49.67                             110   -1.59 0  311 158 
 PTGC HN ES   4   2030 22.84                             110   -2.67 0  311 158 
 PTGC HZ I        2030 25.75        25.2 0.36            112            311 158 
 DBB  SZ EP       2029 54.57                             109    0.23 7  337 274 
 TOL  SZ EP       2029 56.08                             108    0.71 7  343 224 
 TOL  SE ES   4   2030 30.51                             108   -2.33 0  343 224 
 TOL  SZ I        2030 41.10        40.1 0.28            109            343 224 
 MON  HZ EP   4 D 2029 54.41                             108   -1.39 0  351 308 
 MON  HN ES       2030 33.21                             108   -0.39 6  351 308 
 MON  HZ I        2030 33.77        15.1 0.16            109            351 308 
 ANIL HZ EP   4   2029 58.41                             107    1.48 0  357 224 
 ANIL HE ES   4   2030 37.81                             107    2.19 0  357 224 
 ANIL HZ I        2030 45.70         4.2 0.42            108            357 224 
 SDV  BZ EP       2029 56.30                             107   -0.92 6  361  51 
 PRA  HZ EP       2030  1.21                             106    0.45 6  393 209 
 PRA  HN ES       2030 42.61                             106    0.18 6  393 209 
 PRA  HZ I        2030 47.69        18.0 0.24            106            393 209 
 ORTC HZ EP       2030  1.42                             105    0.30 6  396 216 
 ORTC HN ES       2030 43.75                             105    0.68 6  396 216 
 ORTC HZ I        2030 49.39        13.9 0.44            106            396 216 
 SJC  HZ EP   4   2030  1.38                             105   -1.01 0  406 327 
                                                                                
