 2016 1118 2129 55.3 L   7.150 -73.836 75.3  RSN  4 0.5 1.3LRSN                1
 GAP=180        1.21       7.4     5.5 11.0  0.1582E+02  0.2906E+02  0.8307E+01E
 Epicentro: BARRANCABERMEJA - SANTANDER                                        3
 ACTION:UPD 17-10-26 21:09 OP:lp   STATUS:               ID:20161118212955 L   I
 OLDACT:REG 16-11-19 04:25 OP:lv   STATUS:               ID:20161118212749     3
 2016-11-18-2128-00M.COL___349                                                 6
 STAT SP IPHASW D HRMM SECON CODA AMPLIT PERI AZIMU VELO AIN AR TRES W  DIS CAZ7
 BRR  HZ EP       2130  5.22                             168   -0.7210 14.5 109 
 BRR  HN ES       2130 14.25                             168    0.0510 14.5 109 
 BAR2 EZ ES       2130 25.83                             124    0.4910 95.0 130 
 BAR2 EZ I        2130 27.05         9.5 0.25            125           95.0 130 
 PTB  HZ EP       2130 11.39                             123   -0.6410 96.2 225 
 PTB  HN ES       2130 25.19                             123    0.1610 96.2 225 
 PTB  HZ I        2130 26.22         3.5 0.18            123           96.2 225 
 ZAR  HZ EP       2130 15.03                             117    0.5710  119 289 
 ZAR  HN ES       2130 29.50                             117    0.1310  119 289 
 ZAR  HZ I        2130 34.08         4.8 0.18            116            119 289 
                                                                                
