 2016 1218 2145 26.6 L   6.778 -73.137148.9  RSN  6 0.3 1.6LRSN                1
 GAP=139        0.76       4.1     4.0  5.7 -0.1484E+01  0.3447E+01  0.5800E+00E
 Epicentro: LOS SANTOS - SANTANDER                                             3
 ACTION:UPD 17-01-11 20:16 OP:rebc STATUS:               ID:20161218214526 L   I
 OLDACT:REG 16-12-19 02:54 OP:dnl  STATUS:               ID:20161218213745     3
 2016-12-18-2138-00M.COL___336                                                 6
 STAT SP IPHASW D HRMM SECON CODA AMPLIT PERI AZIMU VELO AIN AR TRES W  DIS CAZ7
 BAR2 EZ ES       2146  1.73                             172   -0.4310 21.1 194 
 BAR2 EZ I        2146  4.33         9.9 0.54            169           21.1 194 
 BRR  HZ EP       2145 48.40                             152    0.1710 73.3 300 
 BRR  HE ES       2146  5.63                             152    0.5510 73.3 300 
 BRR  HZ I        2146  7.84         6.5 0.44            149           73.3 300 
 PAM  EZ EP       2145 49.32                             151    0.0710 78.7  38 
 PAM  EN ES       2146  6.67                             151   -0.2310 78.7  38 
 PAM  EZ I        2146  8.94         7.2 0.60            155           78.7  38 
 RUS  HZ EP       2145 50.60                             145    0.0910 98.0 177 
 RUS  HE ES       2146  9.39                             145    0.2510 98.0 177 
 RUS  HZ I        2146 11.93         4.4 0.32            147           98.0 177 
 PTB  HZ EP       2145 53.58                             133   -0.32 9  148 260 
 PTB  HE ES       2146 14.96                             133   -0.21 9  148 260 
 PTB  HZ I        2146 21.88         6.4 0.48            131            148 260 
 ZAR  HE ES   3   2146 24.93                             123   -0.16 2  206 293 
 ZAR  HZ I        2146 33.10         5.0 0.30            122            206 293 
                                                                                
