 2017 1018 2256 15.9 L   6.782 -73.161142.7  RSN 11 0.4 2.2LRSN                1
 GAP=111        0.96       3.2     3.4  5.6  0.1687E+01  0.4859E+01  0.4902E+01E
 Epicentro: LOS SANTOS - SANTANDER                                             3
 ACTION:UPD 17-11-07 19:33 OP:rebc STATUS:               ID:20171018225615 L   I
 OLDACT:REG 17-10-19 09:06 OP:dnl  STATUS:               ID:20171018224432     3
 2017-10-18-2248-00M.COL___450                                                 6
 STAT SP IPHASW D HRMM SECON CODA AMPLIT PERI AZIMU VELO AIN AR TRES W  DIS CAZ7
 BAR2 EZ EP       2256 34.93                             171   -0.1610 21.2 186 
 BAR2 EZ ES       2256 49.63                             171   -0.4510 21.2 186 
 BAR2 EZ I        2256 50.97        70.5 0.22            170           21.2 186 
 BRR  HZ EP       2256 36.76                             152    0.1010 70.7 301 
 BRR  HN ES       2256 53.64                             152    0.7710 70.7 301 
 BRR  HZ I        2256 56.97        44.1 0.32            152           70.7 301 
 PAM  EZ EP       2256 37.82                             149   -0.1010 80.0  40 
 PAM  EE ES       2256 55.01                             149   -0.1110 80.0  40 
 PAM  EZ I        2256 56.87        44.3 0.56            153           80.0  40 
 RUS  HZ EP       2256 38.88                             144   -0.3110 98.8 175 
 RUS  HE ES       2256 57.71                             144    0.3310 98.8 175 
 RUS  HZ I        2256 58.51        19.6 0.22            144           98.8 175 
 PTB  HZ EP       2256 41.71                             132   -0.69 9  146 259 
 PTB  HN ES       2257  2.33                             132   -0.77 9  146 259 
 PTB  HZ I        2257  5.01        20.6 0.44            132            146 259 
 YPLC HZ EP       2256 45.30                             126   -0.06 9  176 151 
 YPLC HE ES       2257  8.81                             126    0.45 9  176 151 
 YPLC HZ I        2257 12.80        12.4 0.32            127            176 151 
 ZAR  HZ EP       2256 48.61                             122    0.58 9  203 293 
 ZAR  HN ES       2257 13.38                             122    0.26 9  203 293 
 ZAR  HZ I        2257 19.56        24.5 0.28            122            203 293 
 NOR  HZ EP       2256 51.19                             118    0.04 8  232 235 
 NOR  HE ES       2257 18.79                             118    0.12 8  232 235 
 NOR  HZ I        2257 24.08        10.5 0.42            118            232 235 
 CHI  HZ EP   2   2256 52.82                             117   -0.33 4  246 195 
 CHI  HE ES       2257 22.27                             117    0.05 8  246 195 
 CHI  HZ I        2257 25.69         4.7 0.28            117            246 195 
 GUY2CHZ EP   4   2257  1.26                             112    2.21 0  299 235 
 GUY2CHN ES   2   2257 33.42                             112    0.68 4  299 235 
 GUY2CHZ I        2257 39.94         4.9 0.52                           299 235 
 PRA  HZ EP   2   2257  9.42                             106    0.43 3  389 209 
 PRA  HN ES       2257 50.63                             106    0.21 6  389 209 
 PRA  HZ I        2257 56.91         4.5 0.28            107            389 209 
                                                                                
