 2015 1018 2308 45.2 L   6.795 -73.122152.9  RSN  4 0.3 1.3LRSN                1
 GAP=140        0.75       4.1     5.8  6.6  0.3941E+01  0.2996E+01  0.2286E+00E
 Epicentro: LOS SANTOS - SANTANDER                                             3
 ACTION:UPD 15-12-22 20:41 OP:cam  STATUS:               ID:20151018230845 L   I
 OLDACT:REG 15-10-19 03:04 OP:spq  STATUS:               ID:20151018230748     3
 2015-10-18-2307-48M.COL___331                                                 6
 STAT SP IPHASW D HRMM SECON CODA AMPLIT PERI AZIMU VELO AIN AR TRES W  DIS CAZ7
 BRR  HZ EP       23 9  7.41                             153    0.1410 73.8 298 
 BRR  HE ES       23 9 24.74                             153    0.2610 73.8 298 
 BRR  HZ I        23 9 29.33         4.2 0.28            153           73.8 298 
 PAM  EZ EP       23 9  8.21                             152    0.1010 76.1  38 
 PAM  EN ES       23 9 25.98                             152    0.0010 76.1  38 
 PAM  EZ I        23 9 27.44         3.5 0.56            156           76.1  38 
 RUS  HZ EP       23 9  9.77                             145    0.1510 99.9 178 
 RUS  HN ES   1   23 9 28.04                             145   -0.62 7 99.9 178 
 RUS  HZ I        23 9 28.95         1.5 0.26            148           99.9 178 
 SML  HZ EP   1   23 9 22.40                             119   -0.01 6  245 335 
 SML  HE ES   1   23 9 50.57                             119   -0.86 6  245 335 
 SML  HZ I        23 9 51.46         2.4 0.08            121            245 335 
                                                                                
