 2015  318 2052 43.3 L   7.170 -73.225135.5  RSN  5 0.2 1.4LRSN                1
 GAP=151        0.53       5.7     3.5  6.6 -0.8502E+01  0.1496E+02 -0.1543E+02E
 Epicentro: LEBRIJA - SANTANDER                                                3
 ACTION:UPD 15-04-30 16:27 OP:nd   STATUS:               ID:20150318205243 L   I
 OLDACT:REG 15-03-19 03:02 OP:spq  STATUS:               ID:20150318204747     3
 2015-03-18-2047-47M.COL___284                                                 6
 STAT SP IPHASW D HRMM SECON CODA AMPLIT PERI AZIMU VELO AIN AR TRES W  DIS CAZ7
 BRR  HZ EP   1   2053  2.50                             157    0.10 7 54.2 263 
 PAM  SZ EP       2053  3.76                             154    0.3110 61.0  72 
 PAM  SN ES       2053 18.96                             154   -0.2310 61.0  72 
 PAM  SZ I        2053 20.04         3.7 0.42            160           61.0  72 
 BAR2 EZ ES   1   2053 18.91                             153    0.07 7 64.1 176 
 BAR2 EZ I        2053 19.48         8.3 0.35            162           64.1 176 
 PTB  HZ EP   1   2053  9.75                             128   -0.15 7  153 243 
 PTB  HE ES   1   2053 30.62                             128   -0.06 7  153 243 
 PTB  HZ I        2053 32.52         2.6 0.20            131            153 243 
 ZAR  HZ EP       2053 12.70                             123   -0.25 9  184 281 
 ZAR  HN ES   1   2053 36.40                             123    0.29 7  184 281 
 ZAR  HZ I        2053 43.07         4.2 0.40            124            184 281 
                                                                                
