 2014  818 2107 19.0 L   6.775 -73.128147.3  RSN  8 0.3 1.4LRSN                1
 GAP=140        0.79       3.3     3.8  5.6 -0.2342E+01  0.4141E+01 -0.4276E+00E
 Epicentro: LOS SANTOS - SANTANDER                                             3
 ACTION:UPD 14-09-15 21:51 OP:nd   STATUS:               ID:20140818210719 L   I
 OLDACT:REG 14-08-19 04:44 OP:spq  STATUS:               ID:20140818205820     3
 2014-08-18-2058-20M.COL___265                                                 6
 STAT SP IPHASW D HRMM SECON CODA AMPLIT PERI AZIMU VELO AIN AR TRES W  DIS CAZ7
 BAR2 SZ ES   1   21 7 53.75                             172   -0.43 7 21.1 196 
 BAR2 SZ I        21 7 54.83         9.0 0.18            171           21.1 196 
 BRR  HZ EP       21 7 40.65                             152    0.1810 74.2 300 
 BRR  HN ES       21 7 57.67                             152    0.4410 74.2 300 
 BRR  HZ I        21 7 59.49         5.1 0.35            149           74.2 300 
 PAM  SZ EP       21 7 41.66                             151    0.2410 78.4  37 
 PAM  SE ES       21 7 58.89                             151   -0.0310 78.4  37 
 PAM  SZ I        21 7 59.89         2.3 0.20            153           78.4  37 
 RUS  HZ EP   1   21 7 42.69                             145    0.01 7 97.7 177 
 RUS  HE ES   1   21 8  0.81                             145   -0.36 7 97.7 177 
 RUS  HZ I        21 8  1.81         1.3 0.32            147           97.7 177 
 PTB  HZ EP       21 7 45.72                             132   -0.48 9  149 260 
 PTB  HE ES       21 8  6.94                             132   -0.49 9  149 260 
 PTB  HZ I        21 8 11.26         2.2 0.11            131            149 260 
 SPBC HZ EP       21 7 47.69                             130    0.18 9  162 220 
 SPBC HN ES       21 8 10.22                             130    0.45 9  162 220 
 SPBC HZ I        21 8 13.01         3.4 0.22            130            162 220 
 ZAR  HN ES   1   21 8 17.71                             122    0.28 6  207 293 
 ZAR  HZ I        21 8 21.50         2.6 0.30            122            207 293 
 SML  HZ EP   1   21 7 55.94                             117   -0.11 6  247 335 
 SML  HE ES   1   21 8 24.54                             117   -0.43 6  247 335 
 SML  HZ I        21 8 28.56         2.8 0.05            118            247 335 
                                                                                
