 2010  618 2027  5.6 L   6.797 -73.086145.5  RSN  4 0.1 2.0LRSN                1
 GAP=171        0.30       3.7     6.7  4.6  0.1842E+02 -0.1728E+02 -0.8933E+01E
 Epicentro: LOS SANTOS - SANTANDER                                             3
 ACTION:UP  10-08-24 10:11 OP:vdl  STATUS:               ID:20100618202705 L   I
 2010-06-18-2022-33S.COL___118                                                 6
 STAT SP IPHASW D HRMM SECON CODA AMPLIT PERI AZIMU VELO SNR AR TRES W  DIS CAZ7
 BAR2 SZ EP   1   2027 25.28                             170     0.0 7   25 205 
 BAR2 SZ ES   2   2027 40.41                             170    -0.2 5   25 205 
 BRR  HZ IP     C 2027 27.07                             150     0.010   77 296 
 BRR  HZ I        2027 29.25        18.2 0.33                            77 296 
 BRR  HN ES   1   2027 43.88                             150     0.0 7   77 296 
 RUS  HZ EP   1   2027 29.26                             144     0.0 7  100 180 
 RUS  HN ES   1   2027 47.84                             144     0.1 7  100 180 
 GUE  SZ EP   2   2027 30.32                             140     0.1 5  116   9 
                                                                                
