 2013  718 2136 53.9 L   6.737 -73.189137.4  RSN  7 0.4 1.7LRSN                1
 GAP=174        1.11       5.4     5.7  8.0  0.8847E+01  0.7496E+01  0.1216E+01E
 Epicentro: VILLANUEVA - SANTANDER                                             3
 ACTION:UPD 13-08-12 10:38 OP:ep   STATUS:               ID:20130718213653 L   I
 OLDACT:REG 13-07-18 22:19 OP:stll STATUS:               ID:20130718212848     3
 2013-07-18-2128-48M.COL___225                                                 6
 STAT SP IPHASW D HRMM SECON CODA AMPLIT PERI AZIMU VELO AIN AR TRES W  DIS CAZ7
 BAR2 SZ EP       2137 12.44                             173    0.0910 16.0 177 
 BAR2 SZ ES       2137 26.21                             173   -0.5710 16.0 177 
 BAR2 SZ I        2137 28.19         7.1 0.26            173           16.0 177 
 GIR2 SZ EP       2137 12.51                             164   -0.2410 37.8 359 
 BRR  HZ EP       2137 14.23                             151    0.1410 70.8 305 
 BRR  HN ES       2137 30.63                             151    0.7610 70.8 305 
 BRR  HN I        2137 31.64        24.7 0.22            153           70.8 305 
 RUS  HZ EP       2137 16.60                             144    0.2810 94.1 173 
 RUS  HN ES       2137 33.82                             144   -0.0210 94.1 173 
 RUS  HN I        2137 35.53         7.9 0.26            145           94.1 173 
 PTB  HZ EP       2137 18.90                             131   -0.71 9  142 261 
 PTB  HN ES       2137 39.13                             131   -0.56 9  142 261 
 SPBC HZ EP       2137 21.18                             129    0.27 9  155 219 
 SPBC HN ES       2137 42.46                             129    0.44 9  155 219 
 ZAR  HE ES       2137 50.47                             121    0.11 9  202 294 
                                                                                
