 2012  218 2130 51.9 L   6.772 -73.653 95.3  RSN  4 0.5 1.4LRSN                1
 GAP=154        0.89       6.1     5.6 13.3  0.1500E+02  0.1212E+02  0.3004E+02E
 ACTION:UP  12-03-07 16:31 OP:epov STATUS:               ID:20120218213051 L   I
 2012-02-18-2130-00M.COL___188                                                 6
 STAT SP IPHASW D HRMM SECON CODA AMPLIT PERI AZIMU VELO AIN AR TRES W  DIS CAZ7
 BRR  HZ EP   1   2131  5.64                             157   -0.05 7 37.6 350 
 BRR  HZ I        2131  6.39        17.3 0.11                          37.6 350 
 BRR  HN ES   1   2131 16.89                             157    0.42 7 37.6 350 
 RUS  HZ EP   1   2131 13.34                             126    0.75 7  116 147 
 RUS  HN ES   1   2131 28.16                             126   -0.58 7  116 147 
 RUS  HZ I        2131 31.65         3.2 0.28                           116 147 
 PAM  SN ES   1   2131 29.69                             124   -0.24 7  123  59 
 ZAR  HE ES   1   2131 34.59                             117   -0.37 7  155 301 
 ZAR  HZ I        2131 37.27         2.8 0.12                           155 301 
                                                                                
