 2015  518 2347 40.9 L   6.805 -73.185140.7  RSN 15 0.4 2.6LRSN                1
 GAP=131        1.01       2.4     3.6  5.0 -0.1931E+01  0.7313E+01  0.6622E+00E
 Epicentro: ZAPATOCA - SANTANDER                                               3
 ACTION:UPD 15-09-10 22:05 OP:cam  STATUS:               ID:20150518234740 L   I
 OLDACT:UP  15-05-19 06:25 OP:drio STATUS:               ID:20150518233750     3
 OLDACT:REG 15-05-19 04:39 OP:drio STATUS:               ID:20150518233750     3
 2015-05-18-2337-50M.COL___283                                                 6
 STAT SP IPHASW D HRMM SECON CODA AMPLIT PERI AZIMU VELO AIN AR TRES W  DIS CAZ7
 BAR2 EZ EP       2347 59.93                             170    0.0510 23.6 179 
 BAR2 EZ ES       2348 13.98                             170   -0.7410 23.6 179 
 BAR2 EZ I        2348 17.61        59.9 0.16            169           23.6 179 
 BRR  HZ EP       2348  1.81                             153    0.5910 67.1 300 
 BRR  HZ I        2348  1.93        37.4 0.18            151           67.1 300 
 BRR  HN ES       2348 17.39                             153    0.2810 67.1 300 
 PAM  SZ EP       2348  2.74                             149    0.0610 79.8  42 
 PAM  SN ES       2348 20.15                             149    0.4410 79.8  42 
 PAM  SZ I        2348 22.03        52.3 0.54            154           79.8  42 
 RUS  HZ EP       2348  3.89                             142   -0.2910  102 174 
 RUS  HZ I        2348  4.76        23.2 0.18            145            102 174 
 RUS  HN ES       2348 22.92                             142    0.5410  102 174 
 OCA  HZ EP       2348  8.42                             129   -0.25 9  159 355 
 OCA  HE ES       2348 30.52                             129    0.15 9  159 355 
 OCA  HZ I        2348 35.63        94.4 0.20            131            159 355 
 SPBC HZ EP       2348  8.81                             128    0.06 9  161 218 
 SPBC HN ES       2348 29.95                             128   -0.56 9  161 218 
 SPBC HZ I        2348 36.24        64.9 0.76            129            161 218 
 ZAR  HZ EP       2348 12.06                             122   -0.47 9  200 292 
 ZAR  HN ES       2348 37.36                             122    0.13 9  200 292 
 ZAR  HZ I        2348 43.94        65.4 0.28            122            200 292 
 NOR  HZ EP       2348 15.82                             118   -0.12 8  231 234 
 NOR  HE ES       2348 43.07                             118   -0.25 8  231 234 
 NOR  HZ I        2348 47.80        37.8 0.22            119            231 234 
 SML  HZ EP       2348 16.12                             117   -0.82 8  241 336 
 SML  HN ES       2348 44.56                             117   -0.53 8  241 336 
 SML  HZ I        2348 52.00        43.3 0.28            118            241 336 
 CHI  HZ EP       2348 17.90                             116   -0.32 8  248 194 
 CHI  HN ES       2348 46.99                             116   -0.37 8  248 194 
 CHI  HZ I        2348 56.91        13.4 0.34            118            248 194 
 HEL  HZ EP       2348 20.72                             114    0.37 8  268 255 
 HEL  HN ES       2348 51.20                             114    0.04 8  268 255 
 HEL  HZ I        2348 58.78        33.4 0.36            115            268 255 
 GUY2CHZ EP   4   2348 25.03                             112    1.17 0  298 234 
 GUY2CHN ES       2348 57.81                             112    0.40 7  298 234 
 GUY2CHZ I        2349  5.17        21.6 0.24                           298 234 
 PTGC HZ EP   4   2348 22.96                             110   -1.77 0  311 158 
 PTGC HN ES   4   2348 56.40                             110   -2.56 0  311 158 
 RREF HZ EP       2348 27.20                             110    0.76 7  319 229 
 RREF HN ES       2349  1.55                             110   -0.45 7  319 229 
 RREF HZ I        2349 11.77         8.5 0.22            111            319 229 
 CBOC HZ EP       2348 27.89                             109    0.79 7  330 252 
 CBOC HN ES       2349  3.50                             109    0.33 7  330 252 
 CBOC HZ I        2349  8.38         6.7 0.20            110            330 252 
 ANIL HZ EP       2348 30.72                             108    0.56 6  355 224 
 ANIL HE ES       2349  8.68                             108    0.06 6  355 224 
 ANIL HZ I        2349 19.60        37.5 0.32            109            355 224 
                                                                                
