 2012  118 2015 59.7 L   6.526 -73.616109.3  RSN  4 0.1 1.7LRSN                1
 GAP=137        0.37       3.7     2.0  4.4  0.1244E+01  0.7626E+00 -0.4046E+01E
 Epicentro: EL CARMEN DE CHUCURI - SANTANDER                                   3
 ACTION:UP  12-02-03 08:18 OP:REBC STATUS:               ID:20120118201559 L   I
 2012-01-18-2010-00M.COL___187                                                 6
 STAT SP IPHASW D HRMM SECON CODA AMPLIT PERI AZIMU VELO SNR AR TRES W  DIS CAZ7
 BAR2 SZ EP       2016 16.10                             154     0.110   48  81 
 BAR2 SZ ES   1   2016 28.73                             154     0.1 7   48  81 
 BAR2 SZ I        2016 30.08        41.6 0.34                            48  81 
 RUS  HZ EP   1   2016 19.30                             137     0.0 7   92 140 
 RUS  HE ES   1   2016 34.52                             137    -0.1 7   92 140 
 RUS  HZ I        2016 36.30         4.4 0.24                            92 140 
 PTB  HZ EP       2016 18.86                             136     0.110   93 271 
 PTB  HE ES   1   2016 33.53                             136    -0.1 7   93 271 
 PAM  SZ EP   1   2016 23.16                             125    -0.2 7  135  48 
                                                                                
