 2014 1118 2231  2.8 L   6.749 -73.156141.9  RSN  4 0.5 1.2LRSN                1
 GAP=137        1.22       6.7     6.7 13.9 -0.7393E+01 -0.1425E+02  0.2069E+02E
 Epicentro: LOS SANTOS - SANTANDER                                             3
 ACTION:UPD 14-12-19 15:44 OP:nd   STATUS:               ID:20141118223102 L   I
 OLDACT:UP  14-11-19 03:50 OP:cam  STATUS:               ID:20141118222818     3
 OLDACT:REG 14-11-19 02:17 OP:cam  STATUS:               ID:20141118222818     3
 2014-11-18-2228-18M.COL___283                                                 6
 STAT SP IPHASW D HRMM SECON CODA AMPLIT PERI AZIMU VELO AIN AR TRES W  DIS CAZ7
 BRR  HN ES       2231 40.68                             151    0.7710 73.0 303 
 PAM  SZ EP       2231 25.01                             148    0.0710 82.5  38 
 PAM  SN ES       2231 41.70                             148   -0.5010 82.5  38 
 PAM  SZ I        2231 44.26         5.0 0.50            149           82.5  38 
 RUS  HZ EP       2231 26.07                             145    0.2810 95.1 175 
 RUS  HN ES       2231 43.70                             145   -0.0110 95.1 175 
 RUS  HZ I        2231 45.10         1.9 0.42            146           95.1 175 
 PTB  HN ES       2231 49.21                             132   -0.70 9  146 261 
                                                                                
