 2010  618 2342 47.6 L   6.791 -73.050149.2  RSN  7 0.4 1.9LRSN                1
 GAP=167        0.71       4.8     6.6  6.8 -0.5554E+01 -0.2090E+01 -0.7276E+01E
 Epicentro: LOS SANTOS - SANTANDER                                             3
 ACTION:UP  10-08-24 10:11 OP:vdl  STATUS:               ID:20100618234247 L   I
 2010-06-18-2338-43S.COL___118                                                 6
 STAT SP IPHASW D HRMM SECON CODA AMPLIT PERI AZIMU VELO SNR AR TRES W  DIS CAZ7
 BAR2 SZ IP       2343  7.36                             170    -0.310   27 214 
 BAR2 SZ ES   1   2343 23.34                             170     0.0 7   27 214 
 BRR  HZ IP     C 2343  9.32                             150    -0.310   81 296 
 BRR  HZ I        2343 10.84        20.2 0.13                            81 296 
 BRR  HE ES   1   2343 26.93                             150     0.0 7   81 296 
 RUS  HZ EP   2   2343 11.13                             145    -0.4 5   99 182 
 RUS  HN ES   2   2343 31.06                             145     0.8 5   99 182 
 BRI  SZ IP       2343 11.99                             143     0.410  106  15 
 BRI  SZ ES   2   2343 30.01                             143    -0.3 5  106  15 
 GUE  SZ EP   2   2343 12.55                             140     0.0 5  116   7 
 OCA  SZ EP   1   2343 16.41                             130     0.0 7  163 349 
 OCA  SZ ES   2   2343 39.48                             130     0.6 5  163 349 
 OCA  SZ I        2343 43.65         9.0 0.31                           163 349 
 HEL  HZ EP   2   2343 29.45                             115     0.4 4  282 257 
 HEL  HE ES   2   2344  1.49                             115     0.1 4  282 257 
 HEL  HZ I        2344  7.04         3.7 0.29                           282 257 
                                                                                
