 2017  818 2245  1.6 L   6.810 -73.143145.5  RSN 15 0.4 2.1LRSN                1
 GAP=112        0.78       2.4     3.0  3.9 -0.6932E+00  0.2967E+01  0.1465E+01E
 Epicentro: LOS SANTOS - SANTANDER                                             3
 ACTION:UPD 17-09-04 20:21 OP:rebc STATUS:               ID:20170818224501 L   I
 OLDACT:UP  17-08-19 05:22 OP:dani STATUS:               ID:20170818223740     3
 OLDACT:UP  17-08-19 05:20 OP:dani STATUS:               ID:20170818223740     3
 OLDACT:UP  17-08-19 05:20 OP:dani STATUS:               ID:20170818223740     3
 OLDACT:UP  17-08-19 05:19 OP:dani STATUS:               ID:20170818223740     3
 OLDACT:REG 17-08-19 03:03 OP:dani STATUS:               ID:20170818223740     3
 2017-08-18-2238-00M.COL___414                                                 6
 STAT SP IPHASW D HRMM SECON CODA AMPLIT PERI AZIMU VELO AIN AR TRES W  DIS CAZ7
 BAR2 EZ EP       2245 21.10                             170   -0.0810 24.5 190 
 BAR2 EZ ES       2245 36.36                             170   -0.1210 24.5 190 
 BAR2 EZ I        2245 38.86        38.0 0.30            168           24.5 190 
 BRR  HZ EP     C 2245 22.85                             152    0.1910 70.9 298 
 BRR  HN ES       2245 39.59                             152    0.4710 70.9 298 
 BRR  HZ I        2245 40.44        22.4 0.12            151           70.9 298 
 PAM  EZ EP     D 2245 23.82                             151    0.1410 76.3  40 
 PAM  EN ES       2245 40.84                             151   -0.0910 76.3  40 
 PAM  EZ I        2245 43.57        11.7 0.30            154           76.3  40 
 RUS  HZ EP     C 2245 25.07                             144   -0.2910  102 176 
 RUS  HN ES       2245 44.03                             144    0.1010  102 176 
 RUS  HZ I        2245 45.15         6.9 0.30            144            102 176 
 SPBC HZ EP       2245 30.05                             129   -0.09 9  164 219 
 SPBC HN ES       2245 52.53                             129    0.10 9  164 219 
 SPBC HZ I        2245 58.43        21.8 0.24            128            164 219 
 YPLC HZ EP       2245 31.48                             127    0.07 9  178 152 
 YPLC HN ES   3   2245 55.79                             127    1.09 2  178 152 
 YPLC HZ I        2245 56.63        11.6 0.25            128            178 152 
 ZAR  HZ EP       2245 34.49                             122    0.52 9  204 292 
 ZAR  HN ES       2245 59.46                             122    0.21 9  204 292 
 ZAR  HZ I        2246  5.27         9.5 0.32            122            204 292 
 TABC EZ EP   3   2245 38.65                             119    1.24 2  231 211 
 NOR  HZ EP       2245 37.64                             118    0.27 8  236 234 
 NOR  HN ES       2246  4.58                             118   -0.73 8  236 234 
 NOR  HZ I        2246 13.08         6.8 0.21            118            236 234 
 CHI  HZ EP       2245 39.45                             117    0.08 8  250 195 
 CHI  HE ES       2246  8.64                             117   -0.22 8  250 195 
 CHI  HZ I        2246 12.16         6.2 0.54            117            250 195 
 ROSC BZ EP   9   2245 41.09                             117    1.30 0  254 211 
 ROSC BN ES       2246 10.71                                   -0.20 8  254 211 
 ROSC BZ I        2246 15.79        11.6 0.60            117            254 211 
 GUY2CHZ EP       2245 45.50                             112    0.24 7  302 235 
 GUY2CHN ES       2246 18.57                             112   -0.77 7  302 235 
 GUY2CHZ I        2246 27.80         6.7 0.78                           302 235 
 PTGC HZ EP   9 D 2245 44.35                             111   -1.16 0  310 159 
 PTGC HN ES       2246 18.05                             112   -0.58 7  310 159 
 PTGC HZ I        2246 22.68        13.3 0.33            112            310 159 
 PRA  HZ EP       2245 55.15                             106   -0.05 6  393 210 
 PRA  HN ES       2246 37.16                             106    0.11 6  393 210 
 PRA  HZ I        2246 41.26         5.2 0.26            107            393 210 
 SJC  HZ EP       2245 55.93                             106   -1.08 6  408 327 
 SJC  HN ES   3   2246 38.57                             106   -1.70 1  408 327 
 SJC  HZ I        2246 48.51         2.3 0.20            106            408 327 
                                                                                
