 2011  518 2052  5.0 L   6.023 -74.060  0.8  RSN  8 0.5 1.8LRSN                1
 GAP=143        0.88       5.5     3.8  8.7 -0.1314E+02  0.1486E+02 -0.2508E+02E
 Epicentro: LA BELLEZA - SANTANDER                                             3
 ACTION:UP  11-06-29 08:54 OP:tino STATUS:               ID:20110518205205 L   I
 2011-05-18-2048-42S.COL___141                                                 6
 STAT SP IPHASW D HRMM SECON CODA AMPLIT PERI AZIMU VELO SNR AR TRES W  DIS CAZ7
 NOR  SZ EP   2   2052 22.43                              47     0.7 5  103 240 
 NOR  SN ES   2   2052 35.09                              47     0.3 5  103 240 
 RUS  HZ EP   1   2052 22.30                              47    -0.8 7  109  98 
 RUS  HZ I        2052 22.53        14.5 0.07                           109  98 
 BAR2 SZ EP   2   2052 24.43                              47     0.6 5  116  57 
 BAR2 SZ I        2052 38.09        11.6 0.53                           116  57 
 BRR  HZ EP   1   2052 25.07                              47    -0.1 7  126  18 
 BRR  HZ I        2052 36.63        15.7 0.59                           126  18 
 BRR  HN ES   1   2052 40.66                              47    -0.2 7  126  18 
 HEL  HZ EP   2   2052 31.47                              47     0.2 5  164 277 
 HEL  HE ES   1   2052 51.19                              47    -0.5 7  164 277 
 HEL  HZ I        2052 53.75        10.1 0.30                           164 277 
 PAM  SZ EP   1   2052 38.14                              37     0.6 6  209  46 
 PAM  SN ES   2   2053  2.99                              37     0.0 4  209  46 
 BRI  SZ EP   2   2052 40.15                              37    -0.1 4  234  37 
 BRI  SZ ES   2   2053  7.77                              37     0.1 4  234  37 
 GRA  SZ ES   2   2053 11.70                              37     0.8 4  248  34 
 GRA  SZ I        2053 14.81        27.4 0.41                           248  34 
                                                                                
