 2017 1218 2207 31.4 L   6.816 -73.170136.0  RSN 10 0.4 2.0LRSN                1
 GAP=141        0.92       3.7     4.1  6.0 -0.4329E+01  0.8096E+01  0.5043E+01E
 Epicentro: LOS SANTOS - SANTANDER                                             3
 ACTION:UPD 18-01-04 13:21 OP:rebc STATUS:               ID:20171218220731 L   I
 OLDACT:REG 17-12-19 02:55 OP:lv   STATUS:               ID:20171218215746     3
 2017-12-18-2158-00M.COL___452                                                 6
 STAT SP IPHASW D HRMM SECON CODA AMPLIT PERI AZIMU VELO AIN AR TRES W  DIS CAZ7
 BAR2 EZ EP       22 7 49.58                             169   -0.2810 24.8 183 
 BAR2 EZ ES       22 8  4.25                             169   -0.0310 24.8 183 
 BAR2 EZ I        22 8  5.90        29.5 0.26            168           24.8 183 
 PAM  EZ IP     C 22 7 52.50                             149   -0.0810 77.8  42 
 PAM  EN ES       22 8  9.56                             149    0.4410 77.8  42 
 PAM  EZ I        22 8 10.15        10.4 0.20            155           77.8  42 
 PTB  HZ EP       22 7 56.70                             130   -0.64 9  145 258 
 PTB  HN ES       22 8 17.40                             130   -0.20 9  145 258 
 PTB  HZ I        22 8 24.63         8.6 0.52            130            145 258 
 OCA  HN ES   3   22 8 18.43                             128   -1.65 2  158 354 
 SPBC HZ EP       22 7 58.69                             127   -0.41 9  163 218 
 SPBC HN ES       22 8 20.70                             127   -0.04 9  163 218 
 SPBC HZ I        22 8 25.60        14.7 0.18            128            163 218 
 ZAR  HZ EP       22 8  3.68                             121    0.83 9  201 292 
 ZAR  HN ES       22 8 27.36                             121   -0.06 9  201 292 
 ZAR  HZ I        22 8 33.78        11.3 0.38            122            201 292 
 ROSC BZ EP       22 8  8.90                             115   -0.08 8  253 210 
 ROSC BN ES       22 8 38.63                             115    0.30 8  253 210 
 ROSC BZ I        22 8 41.96         9.1 0.45            116            253 210 
 GUY2CHZ EP       22 8 15.08                             110    0.68 7  300 234 
 GUY2CHN ES       22 8 48.33                             110    0.36 7  300 234 
 GUY2CHZ I        22 8 56.18         5.4 0.56                           300 234 
 DRL02HN ES   4   22 8 49.61                             109   -2.00 0  323 358 
 PRA  HZ EP       22 8 24.18                             105   -0.41 6  392 209 
 PRA  HN ES       22 9  6.25                             105    0.14 6  392 209 
 PRA  HZ I        22 9 12.56         5.8 0.58            107            392 209 
 SJC  HZ EP   9   22 8 24.00                             104   -2.26 0  406 327 
 SJC  HE ES       22 9  6.13                                   -0.69 6  406 327 
                                                                                
