 2017 1018 2243 46.8 L   6.848 -73.203132.4  RSN  6 0.4 1.5LRSN                1
 GAP=127        0.89       4.3     4.0  7.5 -0.3523E+01  0.1352E+02 -0.1583E+01E
 Epicentro: ZAPATOCA - SANTANDER                                               3
 ACTION:UPD 17-11-07 19:33 OP:rebc STATUS:               ID:20171018224346 L   I
 OLDACT:UP  17-10-19 09:23 OP:dnl  STATUS:               ID:20171018223641     3
 OLDACT:REG 17-10-19 09:05 OP:dnl  STATUS:               ID:20171018223641     3
 2017-10-18-2238-00M.COL___450                                                 6
 STAT SP IPHASW D HRMM SECON CODA AMPLIT PERI AZIMU VELO AIN AR TRES W  DIS CAZ7
 BAR2 EZ EP       2244  4.32                             167   -0.6310 28.4 175 
 BAR2 EZ ES       2244 18.83                             167   -0.2810 28.4 175 
 BAR2 EZ I        2244 20.97        10.9 0.20            169           28.4 175 
 PAM  EZ EP       2244  7.79                             148    0.1610 77.8  46 
 PAM  EN ES       2244 24.29                             148    0.4010 77.8  46 
 PAM  EZ I        2244 26.65         6.1 0.48            152           77.8  46 
 RUS  HZ EP   2   2244  9.54                             139   -0.18 5  107 173 
 RUS  HE ES       2244 27.79                             139    0.1810  107 173 
 RUS  HZ I        2244 29.27         5.7 0.30            142            107 173 
 PTB  HZ EP   2   2244 12.05                             130   -0.18 5  143 256 
 PTB  HN ES       2244 31.81                             130   -0.26 9  143 256 
 PTB  HZ I        2244 35.57         3.5 0.14            130            143 256 
 ZAR  HZ EP   4   2244 19.09                             120    1.52 0  196 291 
 ZAR  HE ES       2244 41.61                             120    0.03 9  196 291 
 ZAR  HZ I        2244 48.41         5.4 0.42            121            196 291 
 NOR  HZ EP       2244 21.48                             116   -0.09 8  233 232 
 NOR  HE ES       2244 49.48                             116    0.78 8  233 232 
 NOR  HZ I        2244 56.39         2.3 0.12            117            233 232 
                                                                                
