 2013  818 2051 31.0 L   6.785 -73.135145.6  RSN 10 0.5 2.1LRSN                1
 GAP=139        1.01       3.3     4.6  6.8  0.2062E+00  0.7096E+01  0.2014E+01E
 Epicentro: LOS SANTOS - SANTANDER                                             3
 ACTION:UPD 14-01-14 09:04 OP:ep   STATUS:               ID:20130818205131 L   I
 OLDACT:REG 13-08-19 04:10 OP:carl STATUS:               ID:20130818205000     3
 2013-08-18-2050-00M.COL___268                                                 6
 STAT SP IPHASW D HRMM SECON CODA AMPLIT PERI AZIMU VELO AIN AR TRES W  DIS CAZ7
 BAR2 SZ EP       2051 50.47                             171   -0.1310 22.0 194 
 BAR2 SZ ES   1   2052  6.23                             171    0.35 7 22.0 194 
 BAR2 SZ I        2052  6.71        37.6 0.14            168           22.0 194 
 BRR  HZ EP       2051 52.42                             152    0.1710 73.0 299 
 BRR  HN ES   1   2052  9.35                             152    0.54 7 73.0 299 
 BRR  HN I        2052  9.85        85.5 0.26            150           73.0 299 
 PAM  SZ EP       2051 53.34                             151    0.1010 77.9  38 
 PAM  SN ES   1   2052 10.11                             151   -0.48 7 77.9  38 
 PAM  SZ I        2052 12.81        14.3 0.72            155           77.9  38 
 RUS  HZ EP       2051 54.49                             144   -0.1410 98.9 177 
 RUS  HN ES   1   2052 13.09                             144    0.04 7 98.9 177 
 RUS  HZ I        2052 14.13        14.4 0.30            145           98.9 177 
 PTB  HZ EP       2051 57.13                             132   -0.91 9  149 260 
 PTB  HN ES   1   2052 17.97                             132   -1.16 7  149 260 
 PTB  HZ I        2052 21.10        14.1 0.16            131            149 260 
 SPBC HZ EP   1   2051 59.32                             129   -0.13 7  163 220 
 SPBC HN ES       2052 21.71                             129    0.08 9  163 220 
 SPBC HZ I        2052 26.50        14.6 0.14            129            163 220 
 ZAR  HZ EP       2052  4.27                             122    0.65 8  206 292 
 ZAR  HN ES       2052 29.10                             122    0.04 8  206 292 
 ZAR  HZ I        2052 37.36         7.9 0.58            122            206 292 
 NOR  HZ EP       2052  7.23                             118    0.50 8  235 235 
 NOR  HE ES   1   2052 34.81                             118    0.21 6  235 235 
 NOR  HZ I        2052 39.95         8.9 0.26            119            235 235 
 SML  HN ES       2052 36.71                             117    0.14 8  246 335 
 CHI  HZ EP       2052  8.19                             117   -0.37 8  247 196 
 CHI  HN ES       2052 38.40                             117    0.54 8  247 196 
 CHI  HZ I        2052 43.65         5.1 0.18            118            247 196 
                                                                                
