 2014 1018 2316 37.0 L   6.767 -73.135149.7  RSN  4 0.5 1.0LRSN                1
 GAP=139        1.27       7.1     6.8 11.2 -0.5452E+01  0.6678E+01  0.9634E+01E
 Epicentro: LOS SANTOS - SANTANDER                                             3
 ACTION:UPD 14-11-29 23:51 OP:nd   STATUS:               ID:20141018231637 L   I
 OLDACT:REG 14-10-19 05:45 OP:stll STATUS:               ID:20141018230745     3
 2014-10-18-2307-45M.COL___268                                                 6
 STAT SP IPHASW D HRMM SECON CODA AMPLIT PERI AZIMU VELO AIN AR TRES W  DIS CAZ7
 BRR  HZ EP       2316 59.15                             152    0.3910 74.0 301 
 BRR  HE ES       2317 16.18                             152    0.4710 74.0 301 
 PAM  SZ EP       2317  0.00                             151    0.2110 79.6  37 
 PAM  SN ES       2317 17.03                             151   -0.5210 79.6  37 
 PAM  SZ I        2317 19.34         3.3 0.60            153           79.6  37 
 RUS  HZ EP       2317  0.31                             146   -0.6010 96.8 177 
 RUS  HN ES       2317 19.99                             146    0.4610 96.8 177 
 RUS  HZ I        2317 20.95         0.9 0.28            147           96.8 177 
 PTB  HZ EP       2317  4.67                             133    0.31 9  148 260 
 PTB  HN ES       2317 24.89                             133   -0.79 9  148 260 
 PTB  HZ I        2317 29.49         1.4 0.42            134            148 260 
                                                                                
