 2013  718 2254 44.3 L   6.811 -73.139143.3  RSN 12 0.5 2.4LRSN                1
 GAP=139        1.14       3.1     4.1  6.2 -0.3643E+01  0.4636E+01 -0.3833E+00E
 Epicentro: LOS SANTOS - SANTANDER                                             3
 ACTION:UPD 13-08-12 10:38 OP:ep   STATUS:               ID:20130718225444 L   I
 OLDACT:DUP 13-07-19 01:12 OP:stll STATUS:               ID:20130718224849d    3
 2013-07-18-2248-48M.COL___222                                                 6
 STAT SP IPHASW D HRMM SECON CODA AMPLIT PERI AZIMU VELO AIN AR TRES W  DIS CAZ7
 BAR2 SZ EP       2255  3.90                             170    0.2110 24.6 191 
 BAR2 SZ ES       2255 18.73                             170   -0.0610 24.6 191 
 BAR2 SZ I        2255 19.88        17.6 0.18            169           24.6 191 
 GIR2 SZ EP       2255  3.98                             167    0.3010 30.3 348 
 BRR  HZ EP       2255  5.69                             152    0.4810 71.3 297 
 BRR  HN ES       2255 22.43                             152    0.9210 71.3 297 
 BRR  HN I        2255 27.33        67.8 0.16            150           71.3 297 
 RUS  HZ EP       2255  7.71                             143   -0.2110  102 177 
 RUS  HE ES       2255 26.09                             143   -0.2310  102 177 
 RUS  HE I        2255 27.26        15.9 0.48            146            102 177 
 GRA  SZ EP       2255  9.51                             137    0.2710  124  17 
 GRA  SZ ES       2255 28.30                             137   -0.3710  124  17 
 CAPV BZ IP     D 2255 11.87                             132    0.48 9  148  38 
 CAPV BZ ES       2255 32.35                             132   -0.15 9  148  38 
 PTB  HZ EP       2255 10.68                             131   -0.50 9  149 258 
 PTB  HE ES       2255 31.46                             131   -0.67 9  149 258 
 PTB  HE I        2255 36.85        24.3 0.26            131            149 258 
 OCA  HN ES       2255 33.30                             129   -0.90 9  159 353 
 OCA  HN I        2255 38.02        74.4 0.26            131            159 353 
 ZAR  HZ EP       2255 17.14                             122    0.50 9  204 292 
 ZAR  HE ES       2255 42.33                             122    0.49 9  204 292 
 ZAR  HE I        2255 47.80        54.3 0.36            122            204 292 
 NOR  HZ IP     D 2255 20.48                             118    0.43 8  236 234 
 NOR  HN ES       2255 47.73                             118   -0.19 8  236 234 
 NOR  HN I        2255 49.23        30.1 0.42            119            236 234 
 SML  HZ EP       2255 20.55                             117   -0.18 8  243 335 
 SML  HE ES       2255 48.59                             117   -0.54 8  243 335 
 SML  HE I        2255 51.29        33.2 0.28            118            243 335 
 PRA  HZ EP       2255 37.54                             106   -0.38 6  393 210 
 PRA  HE ES       2256 19.28                             106   -0.45 6  393 210 
 PRA  HE I        2256 25.21         6.5 0.34            107            393 210 
                                                                                
