 2015  218 2124  2.0 L   6.684 -73.564101.9  RSN  6 0.5 1.8LRSN                1
 GAP=112        1.43       5.8     4.5  9.9  0.5022E+01  0.8804E+01 -0.1582E+01E
 Epicentro: EL CARMEN - SANTANDER                                              3
 ACTION:UPD 15-04-30 21:27 OP:nd   STATUS:               ID:20150218212402 L   I
 OLDACT:REG 15-02-19 03:22 OP:stll STATUS:               ID:20150218211749     3
 2015-02-18-2117-49M.COL___299                                                 6
 STAT SP IPHASW D HRMM SECON CODA AMPLIT PERI AZIMU VELO AIN AR TRES W  DIS CAZ7
 BAR2 EZ EP       2124 17.56                             155    0.4010 43.4 103 
 BAR2 EZ I        2124 17.66        23.4 0.32            156           43.4 103 
 BAR2 EZ ES       2124 29.58                             155    0.5710 43.4 103 
 BRR  HZ EP       2124 17.30                             152    0.1610 49.6 341 
 BRR  HZ I        2124 17.60        21.9 0.58            149           49.6 341 
 BRR  HE ES       2124 29.12                             152    0.1310 49.6 341 
 PTB  HZ EP       2124 20.62                             132   -0.4010100.0 261 
 PTB  HN ES       2124 34.82                             132   -1.0610100.0 261 
 PTB  HZ I        2124 36.34        17.0 0.16            132          100.0 261 
 RUS  HZ EP       2124 22.12                             131    0.2410  102 149 
 RUS  HZ I        2124 22.79        12.9 0.12            133            102 149 
 RUS  HN ES       2124 37.52                             131    0.1010  102 149 
 PAM  SZ EP       2124 22.86                             126   -0.6810  120  53 
 PAM  SN ES       2124 39.75                             126   -0.6210  120  53 
 PAM  SZ I        2124 43.71         7.3 0.50            126            120  53 
 ZAR  HZ EP       2124 28.67                             116    0.65 9  169 302 
 ZAR  HE ES       2124 49.02                             116    0.68 9  169 302 
 ZAR  HZ I        2124 52.88         9.8 0.32            116            169 302 
                                                                                
