 2015  418 2248 33.8 L   6.813 -73.125150.0  RSN 19 0.4 3.0LRSN                1
 GAP=139        0.92       2.3     3.3  4.5 -0.8714E+00  0.3633E+01  0.1594E+01E
 Epicentro: LOS SANTOS - SANTANDER                                             3
 ACTION:UPD 15-06-03 16:55 OP:cam  STATUS:               ID:20150418224833 L   I
 OLDACT:UP  15-04-19 07:23 OP:mh   STATUS:               ID:20150418224746     3
 OLDACT:UP  15-04-19 07:23 OP:mh   STATUS:               ID:20150418224746     3
 OLDACT:UP  15-04-19 07:22 OP:mh   STATUS:               ID:20150418224746     3
 OLDACT:UP  15-04-19 06:52 OP:mh   STATUS:               ID:20150418224746     3
 OLDACT:UP  15-04-19 06:40 OP:mh   STATUS:               ID:20150418224746     3
 OLDACT:REG 15-04-19 03:39 OP:mh   STATUS:               ID:20150418224746     3
 2015-04-18-2247-46M.COL___277                                                 6
 STAT SP IPHASW D HRMM SECON CODA AMPLIT PERI AZIMU VELO AIN AR TRES W  DIS CAZ7
 BAR2 EZ EP       2248 54.17                             170    0.1610 25.2 195 
 BAR2 EZ ES       2249  9.35                             170   -0.3910 25.2 195 
 BAR2 EZ I        2249 11.95                             168           25.2 195 
 BRR  HZ EP       2248 55.64                             153    0.1310 72.6 297 
 BRR  HN ES       2249 13.10                             153    0.6710 72.6 297 
 BRR  HZ I        2249 18.02        98.4 0.20            151           72.6 297 
 PAM  SZ EP     C 2248 56.94                             152    0.5910 74.9  39 
 PAM  SN ES       2249 14.12                             152    0.2010 74.9  39 
 PAM  SZ I        2249 16.23       164.4 0.20            157           74.9  39 
 RUS  HZ EP       2248 58.01                             144   -0.0810  102 177 
 RUS  HN ES   1   2249 16.40                             144   -0.61 7  102 177 
 RUS  HZ I        2249 17.89        77.3 0.42            147            102 177 
 PTB  HZ EP       2249  0.74                             133   -0.63 9  150 258 
 PTB  HE ES       2249 23.24                             133    0.39 9  150 258 
 PTB  HZ I        2249 29.25       166.0 0.44            132            150 258 
 OCA  HZ EP       2249  2.18                             131   -0.19 9  159 352 
 OCA  HN ES       2249 24.32                             131   -0.31 9  159 352 
 OCA  HZ I        2249 32.44       213.6 0.26            133            159 352 
 SPBC HZ EP       2249  3.10                             130    0.21 9  166 219 
 SPBC HN ES       2249 25.87                             130    0.31 9  166 219 
 SPBC HZ I        2249 32.10       239.8 0.38            131            166 219 
 ZAR  HZ EP       2249  6.41                             123   -0.31 8  206 292 
 ZAR  HN ES       2249 32.28                             123   -0.09 8  206 292 
 ZAR  HZ I        2249 38.32       127.8 0.26            124            206 292 
 NOR  HZ EP       2249 10.00                             119   -0.09 8  237 235 
 NOR  HN ES       2249 38.16                             119   -0.22 8  237 235 
 NOR  HZ I        2249 41.60       102.6 0.32            120            237 235 
 SML  HZ EP   1   2249 10.26                             118   -0.40 6  243 335 
 SML  HN ES       2249 38.88                             118   -0.52 8  243 335 
 SML  HZ I        2249 41.04        88.2 0.42            120            243 335 
 CHI  HZ EP       2249 12.09                             118    0.11 8  251 196 
 CHI  HN ES       2249 41.16                             118   -0.57 8  251 196 
 CHI  HZ I        2249 49.88        42.3 0.62            120            251 196 
 ROSC BZ EP   4   2249 13.43                             117    0.99 0  255 211 
 ROSC BN ES   4   2249 45.01                             117    2.45 0  255 211 
 ROSC BZ I        2249 51.55       141.0 0.45            119            255 211 
 HEL  HZ EP   1   2249 15.66                             115    1.12 6  275 256 
 HEL  HN ES       2249 46.32                             115    0.02 8  275 256 
 HEL  HZ I        2249 52.73        63.0 0.36            117            275 256 
 URE  HZ EP   4   2249 14.00                             114   -1.29 0  285 291 
 URE  HN ES   4   2249 45.15                             114   -2.47 0  285 291 
 GUY2CHZ EP   1   2249 18.88                             113    0.94 5  304 235 
 GUY2CHN ES   4   2249 55.60                             113    3.26 0  304 235 
 GUY2CHZ I        2250  0.85       113.4 0.76                           304 235 
 VIL  SZ EP       2249 17.38                             113   -0.27 7  305 192 
 VIL  SN ES       2249 52.00                             113    0.17 7  305 192 
 PTGC HZ EP   4   2249 16.79                             112   -1.14 0  309 159 
 PTGC HN ES   4   2249 50.30                             112   -2.03 0  309 159 
 CBOC HZ EP       2249 21.50                             111    0.28 7  336 252 
 CBOC HE ES       2249 57.82                             111   -0.36 7  336 252 
 CBOC HZ I        2250  7.17        21.0 0.38            112            336 252 
 DBB  SZ EP   1   2249 21.54                             110   -0.19 5  342 274 
 DBB  SZ ES   4   2249 58.57                             110   -0.52 0  342 274 
 MON  HZ EP   4   2249 20.57                             109   -2.54 0  355 308 
 MON  HN ES   4   2249 59.65                             109   -1.89 0  355 308 
 MON  HZ I        2250  2.16        22.2 0.52            111            355 308 
 ANIL HZ EP   4   2249 25.20                             109    1.10 0  360 225 
 ANIL HN ES   4   2250  5.25                             109    1.94 0  360 225 
 SJC  HZ EP   4   2249 26.70                             106   -2.84 0  409 327 
 SJC  HN ES   4   2250  9.15                             106   -3.85 0  409 327 
 SJC  HZ I        2250 21.77        14.6 0.30            108            409 327 
                                                                                
