 2017  818 2127 27.7 L   6.623 -73.224133.4  RSN  9 0.5 1.7LRSN                1
 GAP= 91        1.07       4.5     5.9  7.1 -0.1366E+02  0.3823E+01  0.3500E+01E
 Epicentro: BARICHARA - SANTANDER                                              3
 ACTION:UPD 17-09-04 20:21 OP:rebc STATUS:               ID:20170818212727 L   I
 OLDACT:UP  17-08-19 04:52 OP:dani STATUS:               ID:20170818211739d    3
 OLDACT:UP  17-08-19 04:50 OP:dani STATUS:               ID:20170818211739d    3
 OLDACT:UP  17-08-19 04:50 OP:dani STATUS:               ID:20170818211739d    3
 OLDACT:DUP 17-08-19 04:47 OP:dani STATUS:               ID:20170818211739d    3
 2017-08-18-2118-00M.COL___408                                                 6
 STAT SP IPHASW D HRMM SECON CODA AMPLIT PERI AZIMU VELO AIN AR TRES W  DIS CAZ7
 BAR2 EZ EP       2127 45.00                             177   -0.6010 5.77 127 
 BAR2 EZ ES       2127 59.36                             177   -0.2010 5.77 127 
 BAR2 EZ I        2128  1.24        11.9 0.34            176           5.77 127 
 BRR  HZ EP     D 2127 47.70                             148   -0.1210 75.9 315 
 BRR  HN ES   3   2128  4.58                             148    1.06 2 75.9 315 
 BRR  HZ I        2128  6.07        14.2 0.36            145           75.9 315 
 RUS  HZ EP       2127 48.39                             146   -0.5510 82.3 169 
 RUS  HE ES       2128  5.46                             146   -0.0510 82.3 169 
 RUS  HZ I        2128  6.82         6.7 0.31            148           82.3 169 
 PAM  EZ EP       2127 50.33                             141    0.2710 98.1  36 
 PAM  EE ES       2128  8.13                             141    0.6210 98.1  36 
 PAM  EZ I        2128  9.48         6.6 0.24            143           98.1  36 
 SPBC HE ES       2128 12.93                             130   -0.35 9  143 221 
 ZAR  HZ EP   9   2127 58.59                             119   -0.82 0  204 298 
 ZAR  HE ES       2128 23.43                             118    0.10 9  204 298 
 ZAR  HZ I        2128 31.47         3.8 0.28            118            204 298 
 NOR  HZ EP   9   2127 59.65                             118   -1.11 0  217 237 
 NOR  HN ES       2128 24.99                             118   -0.45 8  217 237 
 NOR  HZ I        2128 30.15         4.8 0.34            117            217 237 
 CHI  HZ EP       2128  2.55                             116    0.13 8  228 194 
 CHI  HE ES       2128 30.47                             116    0.97 8  228 194 
 CHI  HZ I        2128 37.00         1.9 0.62            116            228 194 
 GUY2CHZ EP   4   2128 13.06                             111    4.37 0  283 237 
 GUY2CHN ES       2128 40.90                             111    0.24 7  283 237 
 GUY2CHZ I        2128 48.80         4.5 0.57                           283 237 
                                                                                
