 2010  718 2341 48.6 L   6.799 -73.080144.7  RSN 10 0.3 2.4LRSN                1
 GAP=166        0.86       3.8     6.5  6.9 -0.4817E+01 -0.6663E+01 -0.4568E+00E
 Epicentro: LOS SANTOS - SANTANDER                                             3
 ACTION:UPD 10-12-01 15:18 OP:pat  STATUS:               ID:20100718234148 L   I
 2010-07-18-2339-33S.COL___120                                                 6
 STAT SP IPHASW D HRMM SECON CODA AMPLIT PERI AZIMU VELO AIN AR TRES W  DIS CAZ7
 BAR2 SZ IP       2342  7.99                             170    -0.210   26 206 
 BAR2 SZ ES   2   2342 23.21                             170    -0.2 5   26 206 
 BAR2 SZ I        2342 24.33        58.9 0.17                            26 206 
 GIR2 SZ EP       2342  9.00                             166     0.810   33 338 
 BRR  HZ EP       2342  9.77                             150    -0.310   78 296 
 BRR  HN ES       2342 26.73                             150     0.010   78 296 
 BRR  HZ I        2342 27.53        96.5 0.08                            78 296 
 RUS  HZ EP       2342 12.01                             144    -0.210  100 180 
 RUS  HE ES   1   2342 30.82                             144     0.2 7  100 180 
 RUS  HZ I        2342 31.74        31.8 0.22                           100 180 
 GUE  SZ EP       2342 12.90                             140    -0.210  115   9 
 GUE  SZ I        2342 33.06        13.7 0.09                           115   9 
 GRA  SZ IP       2342 13.74                             137     0.110  124  14 
 GRA  SZ ES   1   2342 33.26                             137     0.2 7  124  14 
 GRA  SZ I        2342 34.65        34.5 0.25                           124  14 
 OCA  SZ EP       2342 16.88                             129    -0.1 9  161 351 
 OCA  SZ ES   2   2342 38.26                             129    -0.8 5  161 351 
 OCA  SZ I        2342 43.35        30.6 0.18                           161 351 
 HEL  HZ EP   2   2342 29.73                             114     0.2 4  279 256 
 HEL  HN ES   2   2343  1.84                             114     0.4 4  279 256 
 HEL  HZ I        2343  6.15        16.6 0.50                           279 256 
 RREF HZ EP   2   2342 35.81                             110     0.5 3  327 230 
 RREF HZ I        2343 18.41         9.0 0.36                           327 230 
 PRA  HZ EP   2   2342 42.42                             106    -0.1 3  396 210 
 PRA  HE ES   2   2343 24.01                             106    -0.5 3  396 210 
 PRA  HZ I        2343 27.36         9.5 0.35                           396 210 
                                                                                
