 2011  818 2311 11.6 L   6.771 -73.139138.9  RSN  4 0.3 1.5LRSN                1
 GAP=183        0.64       6.6    15.0  9.7  0.6622E+02 -0.7049E+02 -0.3568E+02E
 Epicentro: LOS SANTOS - SANTANDER                                             3
 ACTION:UPD 12-07-13 15:52 OP:ep   STATUS:               ID:20110818231111 L   I
 2011-08-18-2307-30S.COL___150                                                 6
 STAT SP IPHASW D HRMM SECON CODA AMPLIT PERI AZIMU VELO AIN AR TRES W  DIS CAZ7
 BAR2 SZ EP       2311 30.14                             172   -0.2410 20.4 193 
 BAR2 SZ I        2311 30.15         7.3 0.38                          20.4 193 
 BAR2 SZ ES   2   2311 44.65                             172   -0.35 5 20.4 193 
 BRR  HZ EP       2311 31.88                             151   -0.2910 73.4 300 
 BRR  HZ I        2311 32.13        10.8 0.36                          73.4 300 
 BRR  HE ES   2   2311 48.67                             151    0.48 5 73.4 300 
 RUS  HZ EP       2311 34.61                             143    0.1410 97.4 176 
 RUS  HE ES   2   2311 52.67                             143    0.37 5 97.4 176 
 RUS  HZ I        2311 53.49         3.0 0.30                          97.4 176 
 OCA  SZ EP       2311 40.04                             127    0.32 9  163 353 
                                                                                
