 2017  818 2155 23.1 L   6.746 -73.160149.0  RSN  5 0.2 1.3LRSN                1
 GAP=137        0.64       3.3     3.6  5.6  0.2202E+01  0.4390E+01  0.4794E+01E
 Epicentro: LOS SANTOS - SANTANDER                                             3
 ACTION:UPD 17-09-04 20:21 OP:rebc STATUS:               ID:20170818215523 L   I
 OLDACT:UP  17-08-19 05:00 OP:dani STATUS:               ID:20170818214745     3
 OLDACT:UP  17-08-19 05:00 OP:dani STATUS:               ID:20170818214745     3
 OLDACT:UP  17-08-19 04:59 OP:dani STATUS:               ID:20170818214745     3
 OLDACT:UP  17-08-19 04:59 OP:dani STATUS:               ID:20170818214745     3
 OLDACT:UP  17-08-19 04:59 OP:dani STATUS:               ID:20170818214745     3
 OLDACT:REG 17-08-19 02:59 OP:dani STATUS:               ID:20170818214745     3
 2017-08-18-2148-00M.COL___408                                                 6
 STAT SP IPHASW D HRMM SECON CODA AMPLIT PERI AZIMU VELO AIN AR TRES W  DIS CAZ7
 BRR  HZ EP       2155 45.10                             152    0.4010 72.8 303 
 BRR  HE ES       2156  1.80                             152    0.2510 72.8 303 
 BRR  HZ I        2156  6.76         9.0 0.32            153           72.8 303 
 PAM  EZ EP       2155 46.00                             150   -0.0110 83.0  38 
 PAM  EE ES       2156  3.64                             150   -0.2310 83.0  38 
 PAM  EZ I        2156  6.05         3.1 0.15            152           83.0  38 
 RUS  HZ EP       2155 46.82                             146    0.0410 94.8 175 
 RUS  HE ES       2156  5.17                             146   -0.0710 94.8 175 
 RUS  HZ I        2156  6.22         1.4 0.56            150           94.8 175 
 ZAR  HN ES       2156 20.98                             123   -0.41 9  205 294 
 ROSC BZ EP       2156  0.63                             118   -0.14 8  247 211 
 ROSC BN ES   4   2156 26.27                             118   -3.87 0  247 211 
                                                                                
