 2016 1218 2339 43.0 L   7.255 -73.816 88.8  RSN  4 0.2 1.2LRSN                1
 GAP=222        0.49       4.0     2.6  4.2  0.2984E+01  0.1572E+01  0.4416E+01E
 Epicentro: PUERTO WILCHES - SANTANDER                                         3
 ACTION:UPD 17-01-11 20:16 OP:rebc STATUS:               ID:20161218233943 L   I
 OLDACT:REG 16-12-19 03:02 OP:dnl  STATUS:               ID:20161218233742     3
 2016-12-18-2338-00M.COL___330                                                 6
 STAT SP IPHASW D HRMM SECON CODA AMPLIT PERI AZIMU VELO AIN AR TRES W  DIS CAZ7
 BRR  HZ EP       2339 55.19                             166   -0.1810 20.0 145 
 BRR  HE ES       2340  5.07                             166    0.0510 20.0 145 
 BRR  HZ I        2340  5.60         8.6 0.66            162           20.0 145 
 PTB  HZ EP       2340  1.41                             126   -0.2310  106 222 
 PTB  HN ES       2340 16.20                             126    0.0210  106 222 
 PTB  HZ I        2340 17.27         4.3 0.18            122            106 222 
 ZAR  HN ES       2340 18.43                             123    0.1210  118 283 
 ZAR  HZ I        2340 21.78         5.0 0.46            120            118 283 
 RUS  HZ EP       2340  9.53                             113    0.26 9  171 152 
 RUS  HN ES   4   2340 31.61                             113    1.85 0  171 152 
 RUS  HZ I        2340 36.19         1.2 0.68            110            171 152 
                                                                                
