 2013  718 2352  1.5 L   6.801 -73.173136.1  RSN  7 0.5 1.7LRSN                1
 GAP=178        1.14       6.6     6.6 15.6  0.1093E+02  0.6434E+01 -0.3265E+02E
 Epicentro: LOS SANTOS - SANTANDER                                             3
 ACTION:UPD 13-08-12 10:38 OP:ep   STATUS:               ID:20130718235200 L   I
 OLDACT:UP  13-07-25 11:37 OP:ep   STATUS:               ID:20130718235200 L   3
 OLDACT:REG 13-07-18 22:23 OP:stll STATUS:               ID:20130718234848     3
 2013-07-18-2348-48M.COL___223                                                 6
 STAT SP IPHASW D HRMM SECON CODA AMPLIT PERI AZIMU VELO AIN AR TRES W  DIS CAZ7
 BAR2 SZ EP       2352 19.54                             170   -0.4310 23.1 182 
 BAR2 SZ I        2352 39.38         7.1 0.16            174           23.1 182 
 GIR2 SZ EP       2352 20.49                             167    0.4810 30.8 356 
 BRR  HZ EP   1   2352 22.36                             152    0.91 7 68.4 300 
 BRR  HN ES   4   2352 39.55                             152    2.54 0 68.4 300 
 BRR  HN I        2352 40.19        22.9 0.22            154           68.4 300 
 RUS  HZ EP       2352 24.05                             141   -0.3010  101 174 
 RUS  HN ES       2352 41.91                             141   -0.2510  101 174 
 RUS  HN I        2352 44.18         4.4 0.36            148            101 174 
 PTB  HZ EP   1   2352 26.99                             130   -0.43 7  145 259 
 PTB  HN ES   1   2352 47.14                             130   -0.49 7  145 259 
 PTB  HN I        2352 53.59         7.4 0.34            137            145 259 
 SPBC HZ EP       2352 29.15                             127    0.05 9  161 218 
 SPBC HN ES       2352 51.40                             127    0.77 9  161 218 
 ZAR  HE ES       2352 57.29                             120   -0.33 9  201 292 
                                                                                
