 2016  518 2340 51.0 L   6.811 -73.165144.0  RSN  9 0.5 1.6LRSN                1
 GAP=134        1.27       5.2     5.1  8.4 -0.3241E+01  0.1248E+02 -0.6778E+00E
 Epicentro: LOS SANTOS - SANTANDER                                             3
 ACTION:UPD 16-08-18 17:47 OP:cam  STATUS:               ID:20160518234050 L   I
 OLDACT:UP  16-05-22 09:55 OP:dani STATUS:               ID:20160518234050 L   3
 OLDACT:UP  16-05-22 08:23 OP:dani STATUS:               ID:20160518234050 L   3
 OLDACT:UP  16-05-19 08:22 OP:dani STATUS:               ID:20160518233744     3
 OLDACT:REG 16-05-19 05:51 OP:dani STATUS:               ID:20160518233744     3
 2016-05-18-2337-44M.COL___299                                                 6
 STAT SP IPHASW D HRMM SECON CODA AMPLIT PERI AZIMU VELO AIN AR TRES W  DIS CAZ7
 BAR2 EZ EP       2341 10.85                             170    0.3810 24.3 185 
 BAR2 EZ ES       2341 25.66                             170    0.0410 24.3 185 
 BAR2 EZ I        2341 26.96         7.1 0.26            167           24.3 185 
 BRR  HZ EP       2341 11.82                             153   -0.0310 68.8 298 
 BRR  HE ES       2341 28.84                             153    0.7510 68.8 298 
 BRR  HZ I        2341 31.94         7.1 0.14            151           68.8 298 
 PAM  EZ EP       2341 12.99                             150   -0.0910 77.8  41 
 PAM  EN ES       2341 29.49                             150   -0.7910 77.8  41 
 PAM  EZ I        2341 31.80         8.5 0.52            156           77.8  41 
 RUS  HZ EP       2341 14.62                             143   -0.0910  102 175 
 RUS  HN ES       2341 33.57                             143    0.4010  102 175 
 RUS  HZ I        2341 34.29         2.0 0.30            143            102 175 
 PTB  HZ EP       2341 17.13                             132   -0.56 9  146 258 
 PTB  HT ES       2341 37.79                             132   -0.69 9  146 258 
 PTB  HN ES       2341 38.17                             132            146 258 
 PTB  HZ I        2341 43.32         4.7 0.32            131            146 258 
 SPBC HE ES       2341 41.70                             129    0.25 9  163 218 
 SPBC HZ I        2341 49.49         4.9 0.10            128            163 218 
 ZAR  HZ EP       2341 24.01                             122    0.90 9  202 292 
 ZAR  HN ES       2341 48.32                             122    0.19 9  202 292 
 ZAR  HT ES       2341 48.35                             122            202 292 
 ZAR  HZ I        2341 53.65         3.9 0.22            122            202 292 
 NOR  HZ EP   4   2341 25.44                             118   -1.11 0  234 234 
 NOR  HN ES       2341 53.46                             118   -0.79 8  234 234 
 NOR  HT ES       2341 53.96                             118            234 234 
 NOR  HZ I        2341 58.53         3.1 0.28            118            234 234 
 PRA  HZ EP   2   2341 44.95                             106    0.46 3  392 209 
 PRA  HE ES   4   2342 29.33                             106    3.14 0  392 209 
 PRA  HZ I        2342 34.20         1.6 0.32            107            392 209 
                                                                                
