 2017  918 2037 34.9 L   6.777 -73.112148.0  RSN 11 0.4 1.9LRSN                1
 GAP=142        0.64       2.7     3.5  4.2 -0.2318E+01  0.3032E+01  0.3102E+01E
 Epicentro: LOS SANTOS - SANTANDER                                             3
 ACTION:UPD 17-10-05 19:13 OP:rebc STATUS:               ID:20170918203735dL   I
 OLDACT:UP  17-09-19 05:11 OP:mg   STATUS:               ID:20170918202743d    3
 OLDACT:DUP 17-09-19 05:02 OP:mg   STATUS:               ID:20170918202743d    3
 2017-09-18-2028-00M.COL___454                                                 6
 STAT SP IPHASW D HRMM SECON CODA AMPLIT PERI AZIMU VELO AIN AR TRES W  DIS CAZ7
 BAR2 EZ EP   1   2037 54.53                             171   -0.28 7 21.9 201 
 BAR2 EZ ES   2   2038  9.53                             171   -0.78 5 21.9 201 
 BAR2 EZ I        2038 10.96        26.2 0.19            167           21.9 201 
 BRR  HZ EP       2037 56.56                             152   -0.0210 75.7 299 
 BRR  HE ES       2038 13.99                             152    0.5210 75.7 299 
 BRR  HZ I        2038 14.88        18.6 0.28            151           75.7 299 
 PAM  EZ EP       2037 57.27                             152   -0.1010 77.0  36 
 PAM  EN ES       2038 14.87                             152    0.0010 77.0  36 
 PAM  EZ I        2038 16.82        12.0 0.50            156           77.0  36 
 RUS  HZ EP       2037 58.72                             145    0.0010 97.9 178 
 RUS  HN ES       2038 17.58                             145    0.3210 97.9 178 
 RUS  HZ I        2038 18.34        11.2 0.22            143           97.9 178 
 SPBC HZ EP       2038  3.55                             130   -0.10 9  164 221 
 SPBC HN ES       2038 25.61                             130   -0.44 9  164 221 
 SPBC HZ I        2038 28.28        20.2 0.19            128            164 221 
 ZAR  HZ EP   2   2038  7.33                             122   -0.65 4  208 292 
 ZAR  HN ES   2   2038 33.29                             122   -0.47 4  208 292 
 ZAR  HZ I        2038 35.23         7.2 0.18            123            208 292 
 NOR  HZ EP       2038 11.04                             119    0.07 8  236 235 
 NOR  HN ES   1   2038 39.17                             119    0.09 6  236 235 
 NOR  HZ I        2038 44.16         5.7 0.32            118            236 235 
 CHI  HZ EP       2038 12.52                             118   -0.09 8  247 196 
 CHI  HE ES   1   2038 42.20                             118    0.21 6  247 196 
 CHI  HZ I        2038 47.10         3.7 0.44            118            247 196 
 ROSC BZ EP   4   2038 15.29                             117    2.13 0  253 212 
 ROSC BN ES   4   2038 50.51                             117    7.54 0  253 212 
 ROSC BZ I        2038 53.66         4.5 0.21            117            253 212 
 GUY2CHZ EP   1   2038 19.05                             113    0.22 5  303 236 
 GUY2CHN ES   4   2038 55.70                             113    2.62 0  303 236 
 GUY2CHZ I        2039  1.59         3.2 0.28                           303 236 
 PRA  HZ EP   1   2038 28.90                             107    0.40 4  392 210 
 PRA  HN ES   3   2039 11.90                             107    1.62 1  392 210 
 PRA  HZ I        2039 16.38         3.7 0.48            107            392 210 
                                                                                
