 2016  618 2038 25.6 L   6.695 -73.178142.0  RSN 10 0.3 1.7LRSN                1
 GAP=225        0.81       3.2     3.7  4.9  0.3620E+01  0.6080E+01  0.3972E+01E
 Epicentro: VILLANUEVA - SANTANDER                                             3
 ACTION:UPD 16-07-21 22:20 OP:rebc STATUS:               ID:20160618203825 L   I
 OLDACT:UP  16-06-19 03:48 OP:edw  STATUS:               ID:20160618203743     3
 OLDACT:REG 16-06-19 02:54 OP:edw  STATUS:               ID:20160618203743     3
 2016-06-18-2037-43M.COL___352                                                 6
 STAT SP IPHASW D HRMM SECON CODA AMPLIT PERI AZIMU VELO AIN AR TRES W  DIS CAZ7
 BAR2 EZ EP       2038 44.31                             175   -0.2610 11.4 182 
 BAR2 EZ ES       2038 59.70                             175    0.3110 11.4 182 
 BAR2 EZ I        2039  0.37        10.6 0.28                          11.4 182 
 BRR  HZ EP       2038 46.14                             151   -0.3810 74.5 308 
 BRR  HN ES       2039  2.92                             151    0.0710 74.5 308 
 RUS  HZ EP       2038 48.38                             146    0.2110 89.3 173 
 RUS  HN ES       2039  5.75                             146   -0.0410 89.3 173 
 RUS  HZ I        2039 11.10         3.8 0.34                          89.3 173 
 PTB  HZ EP       2038 51.11                             132   -0.64 9  142 263 
 PTB  HN ES       2039 12.09                             132   -0.07 9  142 263 
 PTB  HZ I        2039 14.11         6.9 0.16                           142 263 
 SPBC HZ EP       2038 53.35                             130    0.62 9  152 221 
 SPBC HN ES       2039 13.98                             130    0.07 9  152 221 
 SPBC HZ I        2039 21.46         9.0 0.38                           152 221 
 ZAR  HN ES       2039 23.26                             121    0.10 8  205 296 
 NOR  HZ EP       2039  0.13                             119    0.07 8  225 236 
 NOR  HN ES       2039 26.67                             119   -0.29 8  225 236 
 NOR  HZ I        2039 35.12         4.2 0.18                           225 236 
 CHI  HZ EP       2039  1.69                             118   -0.06 8  236 195 
 CHI  HN ES       2039 29.50                             118   -0.46 8  236 195 
 URE  HZ EP   4   2039 13.37                             113    6.76 0  285 294 
 URE  HN ES       2039 38.79                             113    0.18 7  285 294 
 GUY2CHZ EP       2039  8.61                             112    0.67 7  292 236 
 GUY2CHN ES       2039 41.14                             112    0.17 7  292 236 
 GUY2CHZ I        2039 49.55         2.6 0.26                           292 236 
                                                                                
