 2012  718 2223  4.2 L   6.759 -73.123143.8  RSN 10 0.4 2.5LRSN                1
 GAP=141        0.95       3.8     4.5  5.8 -0.1146E+01  0.7031E+01  0.1756E+01E
 Epicentro: LOS SANTOS - SANTANDER                                             3
 ACTION:UPD 12-08-14 11:45 OP:ep   STATUS:               ID:20120718222304 L   I
 2012-07-18-2219-46M.COL___194                                                 6
 STAT SP IPHASW D HRMM SECON CODA AMPLIT PERI AZIMU VELO AIN AR TRES W  DIS CAZ7
 BAR2 SZ EP       2223 23.68                             172     0.210   20 200 
 BAR2 SZ ES       2223 38.65                             172     0.010   20 200 
 BAR2 SZ I        2223 42.96        47.4 0.15            172             20 200 
 BRR  HZ EP       2223 25.67                             151     0.310   76 301 
 BRR  HN ES       2223 42.50                             151     0.610   76 301 
 BRR  HZ I        2223 45.44        69.0 0.09            133             76 301 
 PAM  SZ EP       2223 26.60                             150     0.310   79  36 
 PAM  SN ES       2223 43.12                             150    -0.510   79  36 
 RUS  HZ EP       2223 27.56                             145     0.110   96 177 
 RUS  HE ES       2223 45.39                             145    -0.210   96 177 
 PTB  HZ EP   1   2223 30.37                             131    -0.8 7  149 261 
 PTB  HN ES   1   2223 51.55                             131    -0.6 7  149 261 
 PTB  HZ I        2223 57.87        35.2 0.33            117            149 261 
 OCA  HZ EP   1   2223 32.34                             128    -0.5 7  165 352 
 OCA  HZ I        2224  0.38        79.1 0.42            113            165 352 
 ZAR  HZ EP   1   2223 37.06                             121     0.1 6  208 293 
 ZAR  HN ES   1   2224  2.18                             121    -0.3 6  208 293 
 ZAR  HZ I        2224  7.71        38.1 0.39            109            208 293 
 NOR  SZ EP   1   2223 39.88                             118     0.1 6  234 236 
 NOR  SN ES   1   2224  7.48                             118     0.0 6  234 236 
 CHI  HZ EP   1   2223 41.31                             117    -0.1 6  245 196 
 CHI  HN ES   1   2224 10.38                             117     0.0 6  245 196 
 CHI  HZ I        2224 15.36        18.1 0.51            108            245 196 
 HEL  HZ EP   1   2223 45.08                             114     0.6 6  273 257 
 HEL  HZ I        2224 24.54        20.4 0.34            105            273 257 
