 2013  618 2122 46.1 L   6.753 -73.198137.8  RSN  4 0.4 1.6LRSN                1
 GAP=171        0.73       9.7     6.6 16.0  0.1714E+02 -0.7297E+01 -0.8321E+02E
 Epicentro: VILLANUEVA - SANTANDER                                             3
 ACTION:UPD 14-01-08 09:55 OP:ep   STATUS:               ID:20130618212246 L   I
 OLDACT:REG 13-06-19 01:47 OP:mh   STATUS:               ID:20130618212050     3
 2013-06-18-2120-50M.COL___226                                                 6
 STAT SP IPHASW D HRMM SECON CODA AMPLIT PERI AZIMU VELO AIN AR TRES W  DIS CAZ7
 BAR2 SZ EP   1   2123  5.27                             172    0.65 7 17.9 174 
 BAR2 SZ I        2123 20.43         8.3 0.18            161           17.9 174 
 GIR2 SZ EP   1   2123  4.53                             165   -0.39 7 36.0   1 
 RUS  HZ EP   1   2123  8.82                             143    0.13 7 96.0 172 
 RUS  HN ES   1   2123 26.10                             143   -0.25 7 96.0 172 
 RUS  HN I        2123 27.63         3.8 0.20            160           96.0 172 
 PTB  HZ EP   1   2123 11.45                             131   -0.31 7  141 260 
 PTB  HN ES   1   2123 31.98                             131    0.16 7  141 260 
 PTB  HN I        2123 34.12         9.6 0.20            142            141 260 
                                                                                
