 2016  518 2344 18.1 L   6.808 -73.147148.8  RSN 11 0.4 1.8LRSN                1
 GAP=119        1.02       4.0     3.9  5.6 -0.6883E+00  0.4063E+01  0.4466E+01E
 Epicentro: LOS SANTOS - SANTANDER                                             3
 ACTION:UPD 16-08-18 17:47 OP:cam  STATUS:               ID:20160518234418 L   I
 OLDACT:UP  16-05-23 06:22 OP:edw  STATUS:               ID:20160518234418 L   3
 OLDACT:UP  16-05-22 10:01 OP:dani STATUS:               ID:20160518234418 L   3
 OLDACT:UP  16-05-22 08:23 OP:dani STATUS:               ID:20160518234418 L   3
 OLDACT:UP  16-05-19 08:37 OP:dani STATUS:               ID:20160518233745d    3
 OLDACT:UP  16-05-19 08:35 OP:dani STATUS:               ID:20160518233745d    3
 OLDACT:UP  16-05-19 08:32 OP:dani STATUS:               ID:20160518233745d    3
 OLDACT:DUP 16-05-19 08:22 OP:dani STATUS:               ID:20160518233745d    3
 OLDACT:UP  16-05-19 08:22 OP:dani STATUS:               ID:20160518233744     3
 OLDACT:REG 16-05-19 05:51 OP:dani STATUS:               ID:20160518233744     3
 2016-05-18-2337-44M.COL___299                                                 6
 STAT SP IPHASW D HRMM SECON CODA AMPLIT PERI AZIMU VELO AIN AR TRES W  DIS CAZ7
 BAR2 EZ EP       2344 38.00                             170   -0.1510 24.2 189 
 BAR2 EZ ES       2344 53.42                             170   -0.3410 24.2 189 
 BAR2 EZ I        2344 53.94        17.2 0.28            167           24.2 189 
 BRR  HZ EP       2344 39.78                             153    0.1910 70.7 298 
 BRR  HE ES       2344 56.93                             153    0.6110 70.7 298 
 BRR  HZ I        2344 59.96        18.0 0.36            153           70.7 298 
 PAM  EZ EP       2344 40.96                             151    0.3110 76.8  40 
 PAM  EN ES       2344 57.95                             151   -0.2510 76.8  40 
 PAM  EZ I        2344 59.97        11.3 0.46            156           76.8  40 
 RUS  HZ EP       2344 42.05                             144   -0.2110  101 176 
 RUS  HE ES       2345  1.51                             144    0.4510  101 176 
 RUS  HZ I        2345  5.43         3.2 0.28            144            101 176 
 PTB  HZ EP       2344 44.87                             133   -0.49 9  148 258 
 PTB  HN ES       2345  5.79                             133   -0.80 9  148 258 
 PTB  HZ I        2345 11.34         7.7 0.18            132            148 258 
 OCA  HZ EP   4   2344 50.52                             130    3.91 0  159 353 
 SPBC HZ EP       2344 47.23                             130    0.30 9  164 219 
 SPBC HE ES       2345  9.57                             130    0.18 9  164 219 
 SPBC HZ I        2345 13.53         7.4 0.09            129            164 219 
 ZAR  HZ EP       2344 50.97                             123    0.23 9  204 292 
 ZAR  HN ES       2345 15.95                             123   -0.22 9  204 292 
 ZAR  HZ I        2345 24.62         7.0 0.28            124            204 292 
 NOR  HZ EP       2344 54.72                             119    0.63 8  235 234 
 NOR  HE ES       2345 22.10                             119   -0.03 8  235 234 
 NOR  HZ I        2345 25.39         4.4 0.32            119            235 234 
 CHI  HE ES   4   2345 27.46                             118    1.76 0  249 195 
 ROSC BZ EP       2344 56.68                             117    0.17 8  253 211 
 ROSC BN ES   4   2345 30.45                             117    4.03 0  253 211 
 PTGC HZ EP       2345  1.43                             112   -0.81 7  310 159 
 PTGC HN ES   4   2345 35.24                             112   -1.38 0  310 159 
 PTGC HZ I        2345 44.49         7.6 0.31            113            310 159 
 PRA  HZ EP   4   2345 14.11                             107    2.26 0  393 209 
 PRA  HE ES   4   2345 57.30                             107    3.56 0  393 209 
 PRA  HZ I        2346  1.45         2.2 0.40            107            393 209 
                                                                                
