 2010  418 2000 42.0 L   7.310 -73.354100.8  RSN  6 0.3 1.9LRSN                1
 GAP=165        0.45       2.9     5.1  5.3 -0.4712E+01  0.3513E+01  0.3398E+01E
 Epicentro: SABANA DE TORRES - SANTANDER                                       3
 ACTION:UPD 10-08-24 09:59 OP:vdl  STATUS:               ID:20100418200043 L   I
 2010-04-18-2000-31S.COL___100                                                 6
 STAT SP IPHASW D HRMM SECON CODA AMPLIT PERI AZIMU VELO AIN AR TRES W  DIS CAZ7
 BRR  HZ EP       20 0 56.70                             154    -0.110   45 241 
 BRR  HZ I        20 0 57.16        13.1 0.23                            45 241 
 BRR  HN ES   2   20 1  8.66                             154     0.3 5   45 241 
 BAR2 SZ EP       20 0 59.62                             138     0.010   82 167 
 OCA  SZ EP       20 1  1.31                             131    -0.110  103   2 
 OCA  SZ ES   2   20 1 16.92                             131     0.4 5  103   2 
 OCA  SZ I        20 1 19.18        45.1 0.10                           103   2 
 HEL  HZ EP       20 1 20.24                             104     0.1 8  270 243 
 HEL  HE ES   3   20 1 48.91                             104    -1.0 2  270 243 
 HEL  HZ I        20 1 53.61         3.5 0.68                           270 243 
 RREF BN ES   3   20 2  6.51                              99    -0.1 2  346 220 
 PRA  HZ EP       20 1 39.59                              95     0.3 5  432 203 
 PRA  HE ES   3   20 2 24.66                              95     0.7 1  432 203 
 PRA  HZ I        20 2 30.41         3.6 1.26                           432 203 
                                                                                
