 2013  618 2250 30.0 L   6.790 -73.162149.3  RSN  5 0.4 1.9LRSN                1
 GAP=199        0.77       4.9     7.7  9.5  0.1735E+02 -0.1644E+02 -0.1889E+02E
 Epicentro: LOS SANTOS - SANTANDER                                             3
 ACTION:UPD 14-01-08 09:55 OP:ep   STATUS:               ID:20130618225030 L   I
 OLDACT:REG 13-06-19 01:28 OP:mh   STATUS:               ID:20130618224959     3
 2013-06-18-2249-59M.COL___261                                                 6
 STAT SP IPHASW D HRMM SECON CODA AMPLIT PERI AZIMU VELO AIN AR TRES W  DIS CAZ7
 BRR  HZ EP   1   2250 51.73                             154    0.28 9 70.1 300 
 BRR  HN ES   1   2251  8.58                             154    0.38 9 70.1 300 
 BRR  HN I        2251 10.03        14.3 0.30            147           70.1 300 
 RUS  HZ EP   1   2250 54.24                             145    0.24 9 99.6 175 
 RUS  HN ES   1   2251 12.48                             145   -0.27 9 99.6 175 
 RUS  HN I        2251 14.58         3.9 0.22            144           99.6 175 
 PTB  HZ EP   1   2250 57.23                             133    0.18 9  146 259 
 PTB  HN ES   1   2251 17.46                             133   -0.71 9  146 259 
 PTB  HN I        2251 23.58        15.6 0.50            129            146 259 
 ZAR  HN ES   2   2251 28.88                             123    0.97 5  203 293 
 ZAR  HN I        2251 35.38         8.3 0.14            121            203 293 
 SML  HZ EP   1   2251  6.60                             118   -0.23 7  244 336 
 SML  HN ES       2251 35.26                             118   -0.3110  244 336 
 SML  HN I        2251 39.42         8.8 0.10            117            244 336 
                                                                                
