 2012 1118 2350  5.5 L   6.936 -73.454108.0  RSN  7 0.4 2.0LRSN                1
 GAP=117        0.92       8.0     4.1  8.5 -0.3940E+01  0.6511E+01  0.1663E+02E
 Epicentro: SAN VICENTE DE CHUCURI - SANTANDER                                 3
 ACTION:UPD 12-12-05 15:34 OP:}ep  STATUS:               ID:20121118235005 L   I
 2012-11-18-2347-39M.COL___207                                                 6
 STAT SP IPHASW D HRMM SECON CODA AMPLIT PERI AZIMU VELO AIN AR TRES W  DIS CAZ7
 GIR2 SZ EP       2350 20.67                             162   -0.1510 32.9  61 
 GIR2 SZ ES   1   2350 32.69                             162   -0.04 7 32.9  61 
 BRR  HZ EP       2350 20.59                             161   -0.0710 34.2 304 
 BRR  HN ES   1   2350 33.08                             161    0.63 7 34.2 304 
 BRR  HZ I        2350 33.91        26.3 0.34                          34.2 304 
 BAR2 SZ EP       2350 21.81                             154    0.1410 48.4 142 
 BAR2 SZ I        2350 36.81        43.2 0.56                          48.4 142 
 PAM  SZ EP   1   2350 26.25                             136    0.97 7 94.6  62 
 PAM  SE ES   1   2350 39.81                             136   -0.87 7 94.6  62 
 PAM  SZ I        2350 43.47        13.7 0.56                          94.6  62 
 PTB  HZ EP   1   2350 26.46                             128   -0.41 7  119 248 
 PTB  HN ES   1   2350 43.23                             128   -0.27 7  119 248 
 PTB  HZ I        2350 45.05        31.6 0.12                           119 248 
 RUS  HZ EP   2   2350 28.12                             128    0.30 5  122 160 
 ZAR  HZ EP   1   2350 31.59                             118   -0.15 7  167 292 
 ZAR  HE ES   1   2350 52.26                             118    0.09 7  167 292 
 ZAR  HZ I        2350 55.20        21.4 0.26                           167 292 
                                                                                
