 2010 1018 2050 35.0 L   6.768 -73.063150.6  RSN  4 0.1 1.9LRSN                1
 GAP=244        0.33       5.2     9.0  3.7  0.4061E+02 -0.1190E+02 -0.5142E+01E
 Epicentro: LOS SANTOS - SANTANDER                                             3
 ACTION:UP  11-02-18 11:10 OP:tino STATUS:               ID:20101018205035 L   I
 2010-10-18-2047-51S.COL___123                                                 6
 STAT SP IPHASW D HRMM SECON CODA AMPLIT PERI AZIMU VELO SNR AR TRES W  DIS CAZ7
 BAR2 SZ EP   1   2050 55.21                             170     0.0 7   24 214 
 BAR2 SZ ES   1   2051 10.80                             170    -0.1 7   24 214 
 BAR2 SZ I        2051 12.02        17.4 0.26                            24 214 
 BRR  HZ IP     C 2050 57.15                             150     0.010   81 298 
 BRR  HZ I        2050 57.38        18.9 0.13                            81 298 
 BRR  HN ES       2051 14.60                             150     0.110   81 298 
 RUS  HZ EP   1   2050 59.02                             146     0.1 7   97 181 
 RUS  HN ES   1   2051 17.67                             146     0.1 7   97 181 
 CHI  HZ EP   2   2051 12.68                             118    -0.2 4  248 197 
 CHI  HZ I        2051 52.14         3.3 0.37                           248 197 
                                                                                
