 2015  118 2024  5.6 L   6.976 -73.140152.3  RSN  6 0.5 1.5LRSN                1
 GAP=127        1.26       5.8     6.0 10.4 -0.6746E+00  0.1517E+02 -0.1487E+02E
 Epicentro: PIEDECUESTA - SANTANDER                                            3
 ACTION:UPD 15-03-02 15:40 OP:nd   STATUS:               ID:20150118202405 L   I
 OLDACT:REG 15-01-19 02:52 OP:fm   STATUS:               ID:20150118201747     3
 2015-01-18-2017-47M.COL___262                                                 6
 STAT SP IPHASW D HRMM SECON CODA AMPLIT PERI AZIMU VELO AIN AR TRES W  DIS CAZ7
 PAM  SZ EP       2024 27.98                             157    0.2010 63.1  50 
 PAM  SE ES       2024 44.81                             157   -0.2610 63.1  50 
 PAM  SZ I        2024 46.07         4.5 0.30            159           63.1  50 
 BRR  HZ EP       2024 27.61                             156    0.4610 64.8 283 
 BRR  HE ES       2024 44.77                             156    0.8310 64.8 283 
 BRR  HZ I        2024 46.56         8.3 0.36            153           64.8 283 
 RUS  HN ES       2024 50.97                             140   -0.6510  120 177 
 PTB  HZ EP       2024 34.02                             132    0.40 9  153 252 
 PTB  HE ES       2024 55.47                             132    0.00 9  153 252 
 PTB  HZ I        2024 57.37         2.3 0.12            132            153 252 
 ZAR  HN ES       2025  2.19                             125   -0.89 9  198 287 
 ZAR  HZ I        2025 11.93         3.9 0.34            125            198 287 
 SML  HZ EP       2024 40.72                             121   -0.07 8  226 333 
 SML  HE ES       2025  7.84                             121   -0.39 8  226 333 
 SML  HZ I        2025 10.23         4.3 0.22            121            226 333 
                                                                                
