 2011  918 2143 47.1 L   6.761 -73.127136.5  RSN  6 0.2 1.7LRSN                1
 GAP=141        0.36       4.2     4.5  4.3 -0.5959E+01  0.1330E+01  0.8996E+00E
 Epicentro: LOS SANTOS - SANTANDER                                             3
 ACTION:UPD 12-07-13 15:58 OP:ep   STATUS:               ID:20110918214347 L   I
 2011-09-18-2140-00M.COL___173                                                 6
 STAT SP IPHASW D HRMM SECON CODA AMPLIT PERI AZIMU VELO AIN AR TRES W  DIS CAZ7
 BAR2 SZ EP   1   2144  5.59                             171    0.03 7 19.7 198 
 BAR2 SZ ES   1   2144 19.79                             171   -0.16 7 19.7 198 
 BAR2 SZ I        2144 21.56        10.1 0.27                          19.7 198 
 BTL  SZ EP   1   2144  5.78                             170    0.15 7 23.3 318 
 GIR2 SZ EP   2   2144  5.62                             164   -0.21 5 35.9 348 
 BRR  HZ EP   1   2144  7.32                             149   -0.19 7 75.1 301 
 BRR  HZ I        2144  8.70        12.6 0.13                          75.1 301 
 BRR  HN ES   2   2144 23.71                             149    0.29 5 75.1 301 
 PAM  SZ EP   1   2144  8.46                             148   -0.02 7 79.5  36 
 PAM  SN ES   1   2144 25.20                             148    0.04 7 79.5  36 
 RUS  HZ EP   2   2144  9.88                             143    0.24 5 96.2 177 
                                                                                
