 2017 1118 2231  5.9 L   6.952 -73.045161.6  RSN 12 0.5 2.1LRSN                1
 GAP= 89        1.12       3.7     3.8  7.3 -0.3704E+01  0.7001E+01 -0.4494E+01E
 Epicentro: PIEDECUESTA - SANTANDER                                            3
 ACTION:UPD 17-12-12 19:57 OP:rebc STATUS:               ID:20171118223105 L   I
 OLDACT:UP  17-11-19 05:47 OP:dnl  STATUS:               ID:20171118222740     3
 OLDACT:REG 17-11-19 05:18 OP:dnl  STATUS:               ID:20171118222740     3
 2017-11-18-2228-00M.COL___474                                                 6
 STAT SP IPHASW D HRMM SECON CODA AMPLIT PERI AZIMU VELO AIN AR TRES W  DIS CAZ7
 BAR2 EZ EP       2231 28.02                             165    0.1210 42.6 201 
 BAR2 EZ ES       2231 45.41                             165    0.3310 42.6 201 
 BAR2 EZ I        2231 46.55        22.2 0.60            165           42.6 201 
 PAM  EZ IP     D 2231 29.34                             160    0.5210 57.4  42 
 PAM  EE ES       2231 46.95                             160    0.2210 57.4  42 
 PAM  EZ I        2231 48.97        56.8 0.28            161           57.4  42 
 TAM  HZ IP     D 2231 35.05                             135    0.65 9  150 112 
 TAM  HE ES       2231 55.55                             135   -1.10 9  150 112 
 TAM  HZ I        2231 59.32         9.0 0.34            137            150 112 
 PTB  HZ EP       2231 35.31                             132   -0.16 9  163 254 
 PTB  HE ES       2231 58.51                             132   -0.05 9  163 254 
 PTB  HZ I        2232  0.41         8.6 0.30            133            163 254 
 SPBC HZ EP   2   2231 37.57                             129    0.08 4  183 218 
 SPBC HE ES       2232  1.79                             129   -0.36 9  183 218 
 SPBC HZ I        2232  5.02         9.7 0.14            130            183 218 
 ZAR  HZ EP   4   2231 42.23                             125    2.35 0  209 287 
 ZAR  HN ES       2232  6.20                             125   -0.21 8  209 287 
 ZAR  HZ I        2232 14.53        15.7 0.34            125            209 287 
 NOR  HZ EP   4   2231 46.19                             119    1.63 0  254 233 
 NOR  HE ES       2232 14.54                             119   -0.19 8  254 233 
 NOR  HZ I        2232 20.13         4.2 0.48            120            254 233 
 DRL03HZ EP   2   2231 46.97                             117    0.32 4  274 350 
 DRL03HE ES       2232 18.59                             117    0.13 8  274 350 
 URE  HZ EP   2   2231 47.26                             116   -1.01 4  289 288 
 URE  HN ES   4   2232 18.49                             116   -2.85 0  289 288 
 URE  HZ I        2232 21.13        12.4 0.14            117            289 288 
 LL6C HZ EP       2231 51.04                             114    0.55 7  309 355 
 LL6C HN ES       2232 24.18                             114   -1.11 7  309 355 
 LL6C HZ I        2232 28.93         4.5 0.80            115            309 355 
 GUY2CHZ EP   4   2231 49.40                             114   -2.95 0  320 233 
 GUY2CHN ES       2232 29.37                             114    0.76 7  320 233 
 GUY2CHZ I        2232 35.54         3.1 0.30                           320 233 
 PRA  HZ EP   2   2232  2.78                             108    0.47 3  412 210 
 PRA  HN ES       2232 45.72                             108   -0.61 6  412 210 
 PRA  HZ I        2232 48.66         3.4 0.18            109            412 210 
                                                                                
