 2012  518 2345 58.5 L   5.740 -73.925107.5  RSN  4 0.2 1.2LRSN                1
 GAP=247        0.40       6.9     3.9  7.8  0.2048E+02  0.1293E+02  0.1910E+02E
 Epicentro: ALBANIA - SANTANDER                                                3
 ACTION:UP  12-07-05 12:06 OP:pat  STATUS:               ID:20120518234558 L   I
 2012-05-18-2340-00M.COL___200                                                 6
 STAT SP IPHASW D HRMM SECON CODA AMPLIT PERI AZIMU VELO SNR AR TRES W  DIS CAZ7
 RUS  HZ EP   1   2346 18.09                             136    -0.2 7   95  80 
 RUS  HN ES   1   2346 33.72                             136     0.1 7   95  80 
 RUS  HZ I        2346 33.85         4.0 0.42                            95  80 
 PTB  HZ EP   1   2346 18.61                             132     0.0 7  106 326 
 PTB  HN ES   1   2346 34.28                             132     0.0 7  106 326 
 PTB  HZ I        2346 37.52         2.9 0.17                           106 326 
 BAR2 SZ EP   2   2346 21.11                             127     0.4 5  125  41 
 BAR2 SZ ES   2   2346 37.74                             127    -0.2 5  125  41 
 ZAR  HN ES   2   2346 55.57                             111     0.0 4  220 332 
                                                                                
