 2015 1118 2144 12.7 L   6.808 -73.167144.5  RSN  9 0.3 1.8LRSN                1
 GAP=133        0.89       3.3     3.9  5.5 -0.2782E+01  0.8141E+01 -0.1688E+01E
 Epicentro: LOS SANTOS - SANTANDER                                             3
 ACTION:UPD 15-12-28 16:11 OP:cam  STATUS:               ID:20151118214412 L   I
 OLDACT:UP  15-11-19 05:08 OP:cara STATUS:               ID:20151118213750     3
 OLDACT:REG 15-11-19 04:22 OP:cara STATUS:               ID:20151118213750     3
 2015-11-18-2137-50M.COL___307                                                 6
 STAT SP IPHASW D HRMM SECON CODA AMPLIT PERI AZIMU VELO AIN AR TRES W  DIS CAZ7
 BAR2 EZ IP       2144 32.26                             170    0.0610 23.9 184 
 BAR2 EZ ES       2144 46.79                             170   -0.6210 23.9 184 
 BAR2 EZ I        2144 48.60         8.4 0.22            171           23.9 184 
 BRR  HZ IP       2144 34.13                             153    0.5410 68.7 299 
 BRR  HN ES       2144 50.38                             153    0.5110 68.7 299 
 BRR  HZ I        2144 54.98        15.4 0.50            149           68.7 299 
 PAM  EZ IP       2144 35.18                             150    0.3410 78.2  41 
 PAM  EN ES       2144 52.11                             150    0.0010 78.2  41 
 PAM  EZ I        2144 52.66        10.8 0.18            153           78.2  41 
 RUS  HZ EP       2144 36.27                             143   -0.1510  102 175 
 RUS  HN ES       2144 55.00                             143    0.0910  102 175 
 RUS  HZ I        2144 56.28         9.2 0.30            148            102 175 
 SPBC HN ES       2145  2.86                             129   -0.28 9  162 218 
 ZAR  HZ EP       2144 44.33                             122   -0.48 9  202 292 
 ZAR  HE ES       2145  9.59                             122   -0.26 9  202 292 
 ZAR  HZ I        2145 17.10        10.1 0.44            122            202 292 
 NOR  HZ EP       2144 48.32                             118    0.10 8  233 234 
 NOR  HN ES       2145 16.00                             118    0.08 8  233 234 
 NOR  HZ I        2145 22.48         4.5 0.20            119            233 234 
 SML  HZ EP       2144 48.62                             117   -0.45 8  242 336 
 SML  HN ES   4   2145 16.35                             117   -1.08 0  242 336 
 SML  HZ I        2145 24.78         8.0 0.10            118            242 336 
 GUY2CHZ EP   4   2144 57.91                             112    1.81 0  300 234 
 GUY2CHE ES       2145 30.29                             112    0.34 7  300 234 
 GUY2CHZ I        2145 36.84         2.3 0.20                           300 234 
                                                                                
