 2017 1018 2227 44.1 L   6.753 -73.194157.6  RSN  4 0.4 1.3LRSN                1
 GAP=228        0.60       6.5     5.6  7.4  0.7229E+01 -0.4326E+01  0.4197E+01E
 Epicentro: VILLANUEVA - SANTANDER                                             3
 ACTION:UPD 17-11-07 19:33 OP:rebc STATUS:               ID:20171018222744 L   I
 OLDACT:REG 17-10-19 09:05 OP:dnl  STATUS:               ID:20171018221739     3
 2017-10-18-2218-00M.COL___450                                                 6
 STAT SP IPHASW D HRMM SECON CODA AMPLIT PERI AZIMU VELO AIN AR TRES W  DIS CAZ7
 BAR2 EZ EP   2   2228  4.18                             173   -0.87 5 17.9 176 
 BAR2 EZ ES   2   2228 21.98                             173    0.58 5 17.9 176 
 BAR2 EZ I        2228 25.88         5.3 0.26            169           17.9 176 
 BRR  HZ EP       2228  6.57                             155    0.1410 69.3 304 
 BRR  HN ES       2228 23.74                             155   -0.1110 69.3 304 
 BRR  HZ I        2228 26.98         6.6 0.40            156           69.3 304 
 RUS  HZ EP   2   2228  8.95                             147    0.24 5 96.0 173 
 RUS  HN ES   2   2228 27.69                             147   -0.22 5 96.0 173 
 RUS  HZ I        2228 30.19         1.3 0.36            148           96.0 173 
 PTB  HZ EP   2   2228 11.78                             136    0.27 5  142 260 
 PTB  HE ES       2228 32.86                             136   -0.03 9  142 260 
 PTB  HZ I        2228 39.88         2.8 0.36            137            142 260 
                                                                                
