 2010 1218 2309 51.7 L   6.746 -73.109153.0  RSN  6 0.4 1.6LRSN                1
 GAP=186        0.77       4.3     9.6  7.5  0.7971E+01 -0.3952E+01 -0.4603E+01E
 Epicentro: JORDAN - SANTANDER                                                 3
 ACTION:UP  11-01-14 15:25 OP:pat  STATUS:               ID:20101218230951 L   I
 2010-12-18-2305-19S.COL___137                                                 6
 STAT SP IPHASW D HRMM SECON CODA AMPLIT PERI AZIMU VELO SNR AR TRES W  DIS CAZ7
 BAR2 SZ EP   1   2310 11.94                             173    -0.2 7   19 206 
 BAR2 SZ ES   1   2310 27.74                             173    -0.3 7   19 206 
 BAR2 SZ I        2310 28.33         8.4 0.30                            19 206 
 BRR  HZ IP     C 2310 13.96                             152     0.010   78 301 
 BRR  HZ I        2310 14.20        19.4 0.27                            78 301 
 BRR  HN ES   1   2310 31.46                             152     0.1 7   78 301 
 RUS  HZ EP   1   2310 15.78                             147     0.1 7   94 178 
 RUS  HE ES   1   2310 34.66                             147     0.2 7   94 178 
 RUS  HZ I        2310 35.88         3.5 0.38                            94 178 
 OCA  SZ EP   1   2310 20.57                             130    -0.6 7  167 352 
 OCA  SZ ES   1   2310 44.68                             130     0.5 7  167 352 
 OCA  SZ I        2310 48.98         4.9 0.53                           167 352 
 NOR  SN ES   2   2310 55.72                             120    -0.3 4  235 236 
 CHI  HZ EP   2   2310 30.19                             119     0.9 4  244 196 
 CHI  HZ I        2310 30.64         1.5 0.54                           244 196 
                                                                                
