 2013  318 2119 39.8 L   6.794 -73.167146.3  RSN  9 0.4 2.0LRSN                1
 GAP=134        0.79       2.9     4.0  6.0 -0.2886E+00  0.5043E+01  0.2279E+01E
 Epicentro: LOS SANTOS - SANTANDER                                             3
 ACTION:UPD 13-04-09 14:03 OP:ep   STATUS:               ID:20130318211939 L   I
 2013-03-18-2117-51M.COL___205                                                 6
 STAT SP IPHASW D HRMM SECON CODA AMPLIT PERI AZIMU VELO AIN AR TRES W  DIS CAZ7
 BRR  HZ IP     C 2120  1.31                             153    0.3610 69.4 300 
 BRR  HN ES   1   2120 18.03                             153    0.61 7 69.4 300 
 BRR  HZ I        2120 26.17        17.7 0.32            152           69.4 300 
 PAM  SZ IP     C 2120  2.20                             150   -0.0410 79.4  41 
 PAM  SN ES   1   2120 19.50                             150   -0.20 7 79.4  41 
 PAM  SZ I        2120 21.65        17.8 0.56            158           79.4  41 
 RUS  HZ EP       2120  3.30                             144   -0.3210  100 175 
 RUS  HE ES   1   2120 22.11                             144   -0.05 7  100 175 
 RUS  HZ I        2120 23.09         9.5 0.38            149            100 175 
 PTB  HZ IP       2120  6.21                             133   -0.42 9  145 259 
 PTB  HZ EP       2120  6.21                             133            145 259 
 PTB  HN ES   1   2120 27.30                             133   -0.23 7  145 259 
 PTB  HZ I        2120 33.17        15.7 0.38            134            145 259 
 OCA  HN ES   1   2120 30.28                             130   -0.09 7  161 354 
 ZAR  HZ EP       2120 12.34                             123    0.22 9  202 293 
 ZAR  HN ES   1   2120 36.45                             123   -0.85 6  202 293 
 ZAR  HZ I        2120 44.56        15.9 0.28            126            202 293 
 NOR  HZ EP       2120 15.82                             119    0.46 8  232 234 
 NOR  HN ES   1   2120 43.08                             119    0.02 6  232 234 
 NOR  HZ I        2120 46.63         6.8 0.18            122            232 234 
 SML  HZ EP       2120 16.09                             118   -0.36 8  243 336 
 SML  HE ES   1   2120 45.58                             118    0.57 6  243 336 
 CHI  HZ EP       2120 17.78                             117    0.34 8  247 195 
 CHI  HN ES   2   2120 46.82                             117    0.05 4  247 195 
 CHI  HZ I        2120 50.72         4.1 0.40            122            247 195 
                                                                                
