 2016  118 2106  7.0 L   6.790 -73.186141.8  RSN  9 0.3 1.9LRSN                1
 GAP=132        0.80       3.0     3.2  5.1 -0.9588E+00  0.6433E+01  0.2743E+01E
 Epicentro: ZAPATOCA - SANTANDER                                               3
 ACTION:UPD 16-03-09 23:26 OP:cam  STATUS:               ID:20160118210607 L   I
 OLDACT:REG 16-01-19 02:26 OP:drio STATUS:               ID:20160118205750     3
 2016-01-18-2057-50M.COL___328                                                 6
 STAT SP IPHASW D HRMM SECON CODA AMPLIT PERI AZIMU VELO AIN AR TRES W  DIS CAZ7
 BAR2 EZ EP       21 6 25.96                             171   -0.1110 21.9 179 
 BAR2 EZ ES       21 6 40.68                             171   -0.3110 21.9 179 
 BAR2 EZ I        21 6 42.00        20.0 0.28            169           21.9 179 
 PAM  EZ EP       21 6 28.80                             149   -0.1710 81.1  41 
 PAM  EE ES       21 6 46.45                             149    0.3010 81.1  41 
 PAM  EZ I        21 6 48.76         7.1 0.38            152           81.1  41 
 RUS  HZ EP       21 6 30.27                             143    0.0110 99.9 173 
 RUS  HN ES       21 6 48.83                             143    0.3810 99.9 173 
 RUS  HZ I        21 6 50.43         8.6 0.56            143           99.9 173 
 PTB  HZ EP       21 6 32.49                             132   -0.69 9  143 259 
 PTB  HN ES       21 6 53.71                             132    0.07 9  143 259 
 PTB  HZ I        21 6 55.59         8.4 0.40            132            143 259 
 ZAR  HZ EP       21 6 39.22                             122    0.46 9  200 293 
 ZAR  HE ES       21 7  3.61                             122    0.04 9  200 293 
 ZAR  HZ I        21 7  6.25        11.3 0.28            123            200 293 
 NOR  HZ EP       21 6 42.02                             118    0.02 8  230 234 
 NOR  HE ES       21 7  8.96                             118   -0.37 8  230 234 
 NOR  HZ I        21 7 17.19         5.5 0.18            119            230 234 
 CHI  HZ EP       21 6 44.00                             116   -0.20 8  246 194 
 CHI  HN ES       21 7 13.05                             116   -0.20 8  246 194 
 CHI  HZ I        21 7 15.87         5.9 0.36            117            246 194 
 GUY2CHZ EP   4   21 6 51.31                             112    1.41 0  297 234 
 GUY2CHE ES       21 7 24.13                             112    0.73 7  297 234 
 GUY2CHZ I        21 7 33.78         3.1 0.24                           297 234 
 PRA  HZ EP       21 7  0.30                             106    0.33 6  389 209 
 PRA  HN ES       21 7 41.55                             106    0.22 6  389 209 
 PRA  HZ I        21 7 49.93         2.6 0.36            107            389 209 
                                                                                
