 2012  418 2033 49.3 L   6.784 -73.142143.9  RSN 13 0.4 2.5LRSN                1
 GAP=138        0.85       3.4     4.4  6.0 -0.6194E+00  0.9376E+01  0.2516E+01E
 Epicentro: LOS SANTOS - SANTANDER                                             3
 ACTION:UPD 12-07-05 11:54 OP:tino STATUS:               ID:20120418203349 L   I
 2012-04-18-2030-00M.COL___187                                                 6
 STAT SP IPHASW D HRMM SECON CODA AMPLIT PERI AZIMU VELO AIN AR TRES W  DIS CAZ7
 BAR2 SZ EP       2034  8.64                             171     0.010   22 192 
 BAR2 SZ ES   1   2034 23.40                             171    -0.3 7   22 192 
 BAR2 SZ I        2034 24.71       147.2 0.27                            22 192 
 BRR  HZ EP       2034 10.49                             152     0.210   72 300 
 BRR  HE ES   1   2034 27.52                             152     0.8 7   72 300 
 BRR  HZ I        2034 29.86        90.8 0.27                            72 300 
 PAM  SZ EP       2034 11.43                             150     0.110   78  38 
 PAM  SZ I        2034 11.73        45.9 0.18                            78  38 
 PAM  SN ES   1   2034 28.42                             150    -0.2 7   78  38 
 RUS  HZ EP       2034 12.61                             144    -0.110   99 176 
 RUS  HN ES   1   2034 31.09                             144     0.1 7   99 176 
 RUS  HZ I        2034 32.15        35.4 0.23                            99 176 
 OCA  SZ EP   1   2034 17.41                             129    -0.2 7  162 353 
 OCA  SZ ES   1   2034 39.31                             129    -0.4 7  162 353 
 ZAR  HZ EP   1   2034 21.58                             122    -0.1 6  205 293 
 ZAR  HN ES   1   2034 46.77                             122    -0.2 6  205 293 
 ZAR  HZ I        2034 53.36        51.5 0.29                           205 293 
 NOR  SN ES   1   2034 51.94                             118    -0.6 6  234 235 
 CHI  HZ EP   1   2034 26.54                             117    -0.1 6  247 195 
 CHI  HZ I        2034 59.46        11.6 0.42                           247 195 
 ROSC BN ES   2   2034 56.02                             116    -0.7 4  251 211 
 ROSC BZ I        2035  4.55        28.5 0.43                           251 211 
 HEL  HZ EP   1   2034 30.38                             114     1.0 6  272 256 
 HEL  HZ I        2035  7.13        15.5 0.52                           272 256 
 RREF HZ EP   2   2034 35.39                             111     0.2 3  321 230 
 RREF HZ I        2035 17.79         9.6 0.24                           321 230 
 DBB  SZ EP   1   2034 36.24                             109    -0.5 5  340 275 
 DBB  SZ ES   1   2035 13.38                             109    -0.4 5  340 275 
 PRA  HZ EP   1   2034 43.17                             106     0.6 4  391 210 
 PRA  HN ES   2   2035 24.69                             106     0.6 3  391 210 
                                                                                
