 2015  818 2204 32.8 L   6.808 -73.126146.0  RSN 10 0.5 2.2LRSN                1
 GAP=139        1.04       3.5     4.8  6.8 -0.1044E+01  0.1080E+02  0.1671E+01E
 Epicentro: LOS SANTOS - SANTANDER                                             3
 ACTION:UPD 15-09-15 23:03 OP:cam  STATUS:               ID:20150818220432 L   I
 OLDACT:UP  15-08-19 04:26 OP:mh   STATUS:               ID:20150818215750     3
 OLDACT:UP  15-08-19 04:25 OP:mh   STATUS:               ID:20150818215750     3
 OLDACT:REG 15-08-19 03:17 OP:mh   STATUS:               ID:20150818215750     3
 2015-08-18-2157-50M.COL___343                                                 6
 STAT SP IPHASW D HRMM SECON CODA AMPLIT PERI AZIMU VELO AIN AR TRES W  DIS CAZ7
 BAR2 EZ EP       22 4 52.35                             170   -0.1510 24.7 195 
 BRR  HZ EP       22 4 54.31                             152    0.2410 72.7 297 
 BRR  HN ES       22 5 10.69                             152    0.0310 72.7 297 
 BRR  HZ I        22 5 12.36        22.8 0.30            150           72.7 297 
 PAM  EZ EP       22 4 55.30                             152    0.3710 75.3  39 
 PAM  EN ES       22 5 12.08                             152   -0.1010 75.3  39 
 PAM  EZ I        22 5 14.19        32.7 0.52            156           75.3  39 
 RUS  HZ EP       22 4 56.37                             144   -0.2710  101 177 
 RUS  HN ES       22 5 15.56                             144    0.3310  101 177 
 SPBC HZ EP       22 5  0.85                             129   -0.68 9  165 219 
 SPBC HN ES       22 5 23.80                             129   -0.12 9  165 219 
 SPBC HZ I        22 5 29.26        24.1 0.24            129            165 219 
 ZAR  HZ EP       22 5  6.32                             122    0.87 8  206 292 
 ZAR  HN ES       22 5 31.12                             122    0.22 8  206 292 
 ZAR  HZ I        22 5 37.01        10.3 0.34            123            206 292 
 NOR  HZ EP       22 5  8.04                             118   -0.76 8  237 235 
 NOR  HN ES       22 5 36.77                             118   -0.10 8  237 235 
 NOR  HZ I        22 5 43.22         7.4 0.32            119            237 235 
 SML  HZ EP   1   22 5  9.16                             117   -0.30 6  244 335 
 SML  HN ES       22 5 37.39                             117   -0.66 8  244 335 
 SML  HZ I        22 5 40.73        23.2 0.26            119            244 335 
 GUY2CHZ EP   1   22 5 17.24                             112    0.55 5  303 235 
 GUY2CHN ES   4   22 5 56.02                             112    5.10 0  303 235 
 GUY2CHZ I        22 5 59.03         7.2 0.72                           303 235 
 TOL  SZ EP       22 5 22.19                             109    0.86 6  346 225 
 TOL  SN ES   4   22 6  1.37                             109    2.20 0  346 225 
 TOL  SZ I        22 6  3.44         5.2 0.46            110            346 225 
                                                                                
