 2012  718 2056 52.5 L   6.793 -73.140141.6  RSN  8 0.3 2.3LRSN                1
 GAP=138        0.88       4.4     4.2  6.2 -0.2418E+01  0.5776E+01  0.1798E+01E
 Epicentro: LOS SANTOS - SANTANDER                                             3
 ACTION:UPD 12-08-14 11:45 OP:ep   STATUS:               ID:20120718205652 L   I
 2012-07-18-2050-00M.COL___196                                                 6
 STAT SP IPHASW D HRMM SECON CODA AMPLIT PERI AZIMU VELO AIN AR TRES W  DIS CAZ7
 BAR2 SZ EP   1   2057 11.66                             170     0.1 7   23 192 
 BAR2 SZ ES   1   2057 25.78                             170    -0.7 7   23 192 
 BAR2 SZ I        2057 27.48        41.9 0.36            169             23 192 
 BRR  HZ EP       2057 13.55                             151     0.310   72 299 
 BRR  HN ES       2057 29.94                             151     0.510   72 299 
 BRR  HZ I        2057 34.24        72.6 0.09            149             72 299 
 PAM  SZ EP       2057 14.55                             150     0.310   78  39 
 PAM  SN ES       2057 31.04                             150    -0.210   78  39 
 RUS  HZ EP       2057 16.03                             143     0.310  100 176 
 RUS  HE ES   1   2057 33.92                             143     0.0 7  100 176 
 RUS  HZ I        2057 36.07        16.8 0.32            146            100 176 
 PTB  HZ EP   1   2057 18.71                             131    -0.5 7  148 259 
 PTB  HE ES   1   2057 39.95                             131     0.0 7  148 259 
 PTB  HZ I        2057 44.48        18.3 0.12            131            148 259 
 OCA  HZ EP   1   2057 20.08                             128    -0.5 7  161 353 
 ZAR  HZ EP   1   2057 24.51                             121    -0.2 6  205 292 
 ZAR  HN ES   1   2057 49.61                             121    -0.3 6  205 292 
 ZAR  HZ I        2057 55.59        31.1 0.31            122            205 292 
 NOR  SZ EP   1   2057 27.75                             118    -0.2 6  235 235 
 NOR  SE ES   1   2057 55.75                             118     0.1 6  235 235 
