 2016  118 2028 44.7 L   6.774 -73.164139.1  RSN  8 0.5 2.0LRSN                1
 GAP=135        1.16       3.9     4.9  7.9 -0.5808E+01  0.1565E+02 -0.6372E+01E
 Epicentro: LOS SANTOS - SANTANDER                                             3
 ACTION:UPD 16-03-09 23:26 OP:cam  STATUS:               ID:20160118202844 L   I
 OLDACT:REG 16-01-19 02:24 OP:drio STATUS:               ID:20160118202749     3
 2016-01-18-2027-49M.COL___328                                                 6
 STAT SP IPHASW D HRMM SECON CODA AMPLIT PERI AZIMU VELO AIN AR TRES W  DIS CAZ7
 BAR2 EZ EP       2029  3.70                             171    0.2610 20.2 186 
 BAR2 EZ ES       2029 18.63                             171    0.5410 20.2 186 
 BAR2 EZ I        2029 19.91        21.3 0.18            170           20.2 186 
 PAM  EZ EP       2029  6.54                             148    0.1310 80.9  39 
 PAM  EN ES       2029 23.74                             148    0.3810 80.9  39 
 PAM  EZ I        2029 26.05        15.1 0.62            153           80.9  39 
 RUS  HZ EP       2029  7.69                             143    0.1110 97.9 175 
 RUS  HN ES       2029 24.90                             143   -0.5410 97.9 175 
 RUS  HZ I        2029 27.31         8.1 0.34            147           97.9 175 
 PTB  HZ EP       2029 10.54                             131   -0.33 9  145 260 
 PTB  HE ES       2029 31.14                             131   -0.16 9  145 260 
 PTB  HZ I        2029 36.70        12.5 0.30            131            145 260 
 SPBC HZ EP   4   2029 10.94                             128   -1.39 0  160 219 
 SPBC HN ES       2029 33.43                             128   -0.47 9  160 219 
 SPBC HZ I        2029 37.40        40.0 0.20            130            160 219 
 OCA  HZ EP       2029 12.15                             128   -0.58 9  163 354 
 OCA  HN ES       2029 33.78                             128   -0.84 9  163 354 
 ZAR  HZ EP       2029 17.24                             121    0.63 9  203 293 
 ZAR  HE ES       2029 42.01                             121    0.49 9  203 293 
 ZAR  HZ I        2029 48.69        16.7 0.46            122            203 293 
 NOR  HZ EP       2029 20.32                             117    0.66 8  231 235 
 NOR  HE ES       2029 46.77                             117   -0.18 8  231 235 
 NOR  HZ I        2029 54.49         8.2 0.18            119            231 235 
                                                                                
