 2010  118 2051  5.8 L   6.730 -73.000150.3  RSN 11 0.4 3.4LRSN                1
 GAP=198        0.70       4.0     8.3  6.8 -0.1168E+02  0.2394E+02  0.3210E+01E
 Epicentro: ARATOCA - SANTANDER                                                3
 ACTION:UP  10-08-24 09:44 OP:vdl  STATUS:               ID:20100118205105 L   I
 2010-01-18-2039-50S.COL___093                                                 6
 STAT SP IPHASW D HRMM SECON CODA AMPLIT PERI AZIMU VELO SNR AR TRES W  DIS CAZ7
 BAR2 SZ IP       2051 25.69                             170    -0.310   25 233 
 BAR2 SZ ES   2   2051 41.08                             170    -0.7 5   25 233 
 GIR2 SZ EP   1   2051 26.79                             163     0.4 7   44 331 
 GIR2 SZ ES   2   2051 43.00                             163     0.5 5   44 331 
 RUS  HZ IP       2051 29.51                             147     0.010   93 186 
 RUS  HE ES   2   2051 47.93                             147     0.0 5   93 186 
 OCA  SZ EP   1   2051 35.10                             129    -0.3 7  170 348 
 OCA  SZ ES   2   2051 59.12                             129     0.6 4  170 348 
 CHI  HZ EP   1   2051 43.68                             118     0.2 6  246 199 
 CHI  HN ES   2   2052 13.31                             118     0.5 4  246 199 
 CHI  HZ I        2052 19.03        78.5 0.23                           246 199 
 ROSC BZ EP   1   2051 45.08                             117     0.7 6  255 215 
 ROSC BE ES   2   2052 14.30                             117    -0.2 4  255 215 
 ROSC BZ I        2052 20.30       128.4 0.51                           255 215 
 HEL  HZ EP   1   2051 47.40                             114    -0.4 6  286 258 
 HEL  HZ I        2052 24.62        60.0 0.32                           286 258 
 RREF HZ EP   1   2051 53.05                             111     0.0 5  329 232 
 RREF HN ES   2   2052 29.22                             111    -0.6 3  329 232 
 RREF HZ I        2052 37.31       125.2 0.21                           329 232 
 TOL  SZ EP   1   2051 54.36                             110    -0.6 5  350 227 
 TOL  SZ ES   2   2052 33.62                             110     0.3 3  350 227 
 ANIL HZ EP   1   2051 56.97                             109     0.5 5  364 227 
 ANIL HN ES   2   2052 36.67                             109     0.6 3  364 227 
 ANIL HZ I        2052 42.37       212.9 0.19                           364 227 
 PRA  HZ EP   1   2051 59.17                             107    -0.5 4  394 212 
 PRA  HN ES   2   2052 41.84                             107     0.2 3  394 212 
 PRA  HZ I        2052 46.96       114.6 0.74                           394 212 
                                                                                
