 2010 1118 2300 59.9 L   6.782 -73.104146.0  RSN 14 0.4 2.9LRSN                1
 GAP=187        0.77       3.3     5.6  5.4 -0.3830E+01  0.3124E+01  0.6005E+01E
 Epicentro: LOS SANTOS - SANTANDER                                             3
 ACTION:UP  10-12-17 16:53 OP:REBC STATUS:               ID:20101118230059 L   I
 2010-11-18-2258-18S.COL___129                                                 6
 STAT SP IPHASW D HRMM SECON CODA AMPLIT PERI AZIMU VELO SNR AR TRES W  DIS CAZ7
 BAR2 SZ IP       23 1 19.62                             171     0.110   23 203 
 BTL  SZ EP       23 1 18.83                             170    -0.710   23 310 
 BAR2 SZ ES   2   23 1 34.35                             171    -0.5 5   23 203 
 BAR2 SZ I        23 1 35.58       190.2 0.13                            23 203 
 GIR2 SZ EP       23 1 19.73                             166     0.110   34 343 
 GIR2 SZ ES   1   23 1 35.35                             166     0.3 7   34 343 
 BRR  HZ IP     C 23 1 21.53                             151     0.210   76 298 
 BRR  HN ES       23 1 38.43                             151     0.410   76 298 
 BRR  HZ I        23 1 40.97       294.9 0.13                            76 298 
 RUS  HZ EP       23 1 23.60                             145     0.110   98 179 
 RUS  HE ES   2   23 1 41.69                             145    -0.2 5   98 179 
 RUS  HZ I        23 1 43.69        65.4 0.52                            98 179 
 OCA  SZ EP       23 1 28.34                             129    -0.1 9  163 352 
 OCA  SZ ES   1   23 1 50.69                             129     0.0 7  163 352 
 OCA  SZ I        23 1 53.40        99.7 0.21                           163 352 
 NOR  SZ EP       23 1 35.60                             118    -0.3 8  237 236 
 NOR  SE ES   2   23 2  3.43                             118    -0.6 4  237 236 
 CHI  HZ EP   2   23 1 37.75                             117     0.2 4  248 196 
 CHI  HN ES   2   23 2  7.86                             117     1.0 4  248 196 
 CHI  HZ I        23 2 11.33        21.0 0.25                           248 196 
 ROSC BZ EP   2   23 1 38.60                             117     0.5 4  253 212 
 ROSC BN ES   2   23 2  7.59                             117    -0.3 4  253 212 
 ROSC BZ I        23 2 15.34        42.2 0.55                           253 212 
 HEL  HZ EP   2   23 1 40.85                             115     0.3 4  276 256 
 HEL  HE ES   2   23 2 11.41                             115    -0.8 4  276 256 
 HEL  HZ I        23 2 18.86        45.7 0.34                           276 256 
 RREF HZ EP   2   23 1 45.55                             111    -0.7 3  324 230 
 RREF HE ES   2   23 2 22.08                             111    -0.4 3  324 230 
 RREF HZ I        23 2 28.61        38.1 0.39                           324 230 
 DBB  SZ EP   2   23 1 48.48                             109     0.6 3  344 275 
 TOL  SZ EP   2   23 1 48.84                             109     0.5 3  345 225 
 PRA  HZ EP   1   23 1 53.82                             107     0.4 4  393 210 
 PRA  HE ES   1   23 2 35.60                             107     0.3 4  393 210 
                                                                                
