 2017  918 2023 28.9 L   6.779 -73.128138.0  RSN 23 0.4 2.7LRSN                1
 GAP= 98        0.67       2.3     1.9  3.7 -0.3608E+00  0.1800E+01  0.2351E+01E
 Epicentro: LOS SANTOS - SANTANDER                                             3
 ACTION:UPD 17-10-05 19:13 OP:rebc STATUS:               ID:20170918202328 L   I
 OLDACT:UP  17-09-19 04:56 OP:mg   STATUS:               ID:20170918201743     3
 OLDACT:UP  17-09-19 04:55 OP:mg   STATUS:               ID:20170918201743     3
 OLDACT:REG 17-09-19 03:11 OP:mg   STATUS:               ID:20170918201743     3
 2017-09-18-2018-00M.COL___457                                                 6
 STAT SP IPHASW D HRMM SECON CODA AMPLIT PERI AZIMU VELO AIN AR TRES W  DIS CAZ7
 BAR2 EZ EP     D 2023 47.52                             171   -0.0610 21.5 196 
 BAR2 EZ ES   1   2024  1.79                             171   -0.34 7 21.5 196 
 BAR2 EZ I        2024  3.05       141.3 0.30            168           21.5 196 
 BRR  HZ EP       2023 49.42                             150    0.0210 74.0 299 
 BRR  HN ES       2024  6.08                             150    0.7010 74.0 299 
 BRR  HZ I        2024 10.15        85.1 0.14            150           74.0 299 
 PAM  EZ IP     C 2023 50.27                             149   -0.0810 78.0  37 
 PAM  EN ES       2024  6.80                             149   -0.2610 78.0  37 
 PAM  EZ I        2024  9.22       157.4 0.46            152           78.0  37 
 RUS  HZ EP       2023 51.37                             143   -0.3710 98.2 177 
 RUS  HN ES       2024  9.64                             143    0.1110 98.2 177 
 RUS  HZ I        2024 11.48        83.8 0.34            142           98.2 177 
 TAM  HZ IP     D 2023 55.74                             129   -0.02 9  153 104 
 TAM  HN ES       2024 16.99                             129    0.30 9  153 104 
 TAM  HZ I        2024 18.33        38.5 0.34            130            153 104 
 SPBC HZ EP       2023 56.52                             127   -0.26 9  163 220 
 SPBC HN ES       2024 18.32                             127   -0.20 9  163 220 
 SPBC HZ I        2024 20.72        56.1 0.18            127            163 220 
 YPLC HZ IP     D 2023 57.99                             125    0.12 9  174 152 
 YPLC HN ES   3   2024 21.60                             125    1.16 2  174 152 
 YPLC HZ I        2024 24.46        91.9 0.28            125            174 152 
 ZAR  HZ EP       2024  1.06                             120   -0.09 8  207 293 
 ZAR  HN ES       2024 26.17                             120   -0.13 8  207 293 
 ZAR  HZ I        2024 33.63        55.6 0.29            120            207 293 
 TABC EZ EP   4   2024  5.45                             118    1.33 0  229 211 
 TABC EZ ES   4   2024 34.99                             118    3.42 0  229 211 
 TABC EZ I        2024 36.83        60.3 0.44            117            229 211 
 NOR  HZ EP       2024  4.09                             117   -0.15 8  235 235 
 NOR  HN ES       2024 31.32                             117   -0.47 8  235 235 
 NOR  HZ I        2024 33.54        30.5 0.22            116            235 235 
 CHI  HZ EP   3   2024  7.40                             116    1.39 2  247 196 
 CHI  HN ES   1   2024 34.73                             116   -0.21 6  247 196 
 CHI  HZ I        2024 38.51        26.8 0.38            115            247 196 
 ROSC BZ EP   4   2024  7.60                             115    1.08 0  252 212 
 ROSC BN ES   4   2024 38.06                             115    2.21 0  252 212 
 ROSC BZ I        2024 47.01        41.3 0.40            115            252 212 
 GUY2CHZ EP   1   2024 12.78                             111    0.57 5  301 235 
 GUY2CHN ES   1   2024 46.73                             111    0.75 5  301 235 
 GUY2CHZ I        2024 53.07        17.2 0.28                           301 235 
 PTGC HZ EP   9   2024 10.86                             110   -1.25 0  306 159 
 PTGC HN ES   4   2024 43.91                             110   -0.64 0  306 159 
 PTGC HZ I        2024 50.74        39.3 0.32            110            306 159 
 LL6C HZ EP   4   2024  9.20                             109   -5.38 0  327 357 
 LL6C HN ES   4   2024 47.09                             109   -3.10 0  327 357 
 LL6C HZ I        2024 55.15        15.8 0.40            110            327 357 
 ELA  HZ EP   4   2024 17.68                             109    2.23 0  329 230 
 ELA  HN ES   1   2024 51.47                             109   -0.28 5  329 230 
 ELA  HZ I        2024 59.01        21.8 0.60            109            329 230 
 CBOC HZ EP   1   2024 15.82                             108    0.16 5  335 253 
 CBOC HN ES   1   2024 52.11                             108   -0.01 5  335 253 
 CBOC HZ I        2024 54.10        11.6 0.32            108            335 253 
 SDV  BZ EP   4 D 2024 17.32                             107   -1.35 0  360  50 
 SDV  B1 ES   4   2024 54.43                             107   -3.05 0  360  50 
 SDV  BZ I        2024 59.56        15.1 0.50            108            360  50 
 PRA  HZ EP   1   2024 22.40                             105    0.34 4  391 210 
 PRA  HN ES       2025  3.80                             105    0.29 6  391 210 
 PRA  HZ I        2025  8.33        25.0 0.46            105            391 210 
 ORTC HZ EP   1   2024 22.93                             105    0.43 4  395 217 
 ORTC HE ES   1   2025  4.96                             105    0.66 4  395 217 
 ORTC HZ I        2025 12.28        19.0 0.52            105            395 217 
 PAL  HZ EP   1   2024 23.81                             105   -0.08 4  406 239 
 PAL  HE ES   4   2025  4.14                             105   -2.63 0  406 239 
 PAL  HZ I        2025 11.11        12.0 0.26            105            406 239 
 SJC  HZ EP   4   2024 22.39                             104   -2.20 0  412 327 
 SJC  HN ES   4   2025  3.38                             104   -4.63 0  412 327 
 SJC  HZ I        2025  7.21        28.7 0.52            105            412 327 
 SMAR HZ EP   4   2024 33.07                             101   -1.85 0  500 346 
 SMAR HN ES   4   2025 20.57                             101   -5.83 0  500 346 
 SMAR HZ I        2025 22.12        10.5 0.16            102            500 346 
                                                                                
