 2016  918 2317  6.6 L   6.761 -73.118141.7  RSN  7 0.2 1.5LRSN                1
 GAP=142        0.52       2.1     2.2  3.3 -0.1891E+00  0.1938E+01  0.5199E-01E
 Epicentro: LOS SANTOS - SANTANDER                                             3
 ACTION:UPD 17-08-17 21:13 OP:lp   STATUS:               ID:20160918231706 L   I
 OLDACT:REG 16-09-19 03:29 OP:cara STATUS:               ID:20160918230736     3
 2016-09-18-2308-00M.COL___354                                                 6
 STAT SP IPHASW D HRMM SECON CODA AMPLIT PERI AZIMU VELO AIN AR TRES W  DIS CAZ7
 BAR2 EZ EP       2317 25.59                             172   -0.0410 20.0 201 
 BAR2 EZ ES       2317 40.54                             172    0.0310 20.0 201 
 BAR2 EZ I        2317 42.47         6.6 0.42            169           20.0 201 
 BRR  HZ EP       2317 27.62                             150    0.0810 76.0 300 
 BRR  HN ES       2317 44.22                             150    0.3010 76.0 300 
 BRR  HZ I        2317 47.21         5.9 0.46            149           76.0 300 
 PAM  EZ EP       2317 28.50                             150    0.0710 78.9  36 
 PAM  EE ES       2317 45.32                             150   -0.1710 78.9  36 
 PAM  EZ I        2317 47.58         3.7 0.50            154           78.9  36 
 RUS  HZ EP       2317 29.58                             144    0.0010 96.1 178 
 RUS  HN ES       2317 47.43                             144   -0.1110 96.1 178 
 RUS  HZ I        2317 49.39         2.6 0.26            146           96.1 178 
 PTB  HZ EP       2317 33.05                             131   -0.35 9  150 261 
 PTB  HE ES       2317 54.10                             131   -0.24 9  150 261 
 PTB  HZ I        2317 58.78         3.4 0.20            131            150 261 
 SPBC HZ EP       2317 34.71                             128    0.10 9  162 221 
 SPBC HN ES       2317 56.72                             128    0.22 9  162 221 
 SPBC HZ I        2318  3.52         7.2 0.28            129            162 221 
 ZAR  HZ EP       2317 39.51                             121    0.31 8  209 293 
 ZAR  HN ES       2318  4.47                             121   -0.20 8  209 293 
 ZAR  HZ I        2318 10.74         6.3 0.30            122            209 293 
                                                                                
