 2012  318 2007  3.0 L   6.752 -73.097143.7  RSN  5 0.2 1.5LRSN                1
 GAP=145        0.57       3.7     3.7  5.6 -0.1709E+01 -0.6350E+00  0.5441E+01E
 ACTION:UP  12-03-31 23:20 OP:EP   STATUS:               ID:20120318200703 L   I
 2012-03-18-2000-00M.COL___202                                                 6
 STAT SP IPHASW D HRMM SECON CODA AMPLIT PERI AZIMU VELO SNR AR TRES W  DIS CAZ7
 PAM  SZ EP       20 7 25.17                             150     0.110   78  34 
 PAM  SN ES   1   20 7 41.92                             150    -0.3 7   78  34 
 BRR  HZ EP       20 7 24.31                             150     0.010   78 300 
 BRR  HZ I        20 7 24.59         7.5 0.17                            78 300 
 BRR  HN ES       20 7 41.23                             150     0.210   78 300 
 RUS  HZ EP   1   20 7 26.01                             145    -0.1 7   95 179 
 RUS  HN ES   1   20 7 44.19                             145     0.0 7   95 179 
 PTB  HZ EP   1   20 7 29.84                             131    -0.3 7  152 261 
 PTB  HE ES   1   20 7 51.11                             131    -0.3 7  152 261 
 PTB  HZ I        20 7 57.73         3.6 0.31                           152 261 
 CTAU SZ EP   1   20 7 35.99                             123     0.4 6  201 212 
                                                                                
