 2013  518 2036  5.1 L   6.763 -73.144149.5  RSN  5 0.4 1.7LRSN                1
 GAP=138        0.82       5.6     4.8  7.4 -0.3437E+01 -0.1403E+01  0.2570E+01E
 Epicentro: LOS SANTOS - SANTANDER                                             3
 ACTION:UPD 13-06-20 09:51 OP:ep   STATUS:               ID:20130518203605 L   I
 2013-05-18-2030-00M.COL___256                                                 6
 STAT SP IPHASW D HRMM SECON CODA AMPLIT PERI AZIMU VELO AIN AR TRES W  DIS CAZ7
 BAR2 SZ EP   1   2036 24.96                             172   -0.14 7 19.4 192 
 BAR2 SZ ES   1   2036 40.38                             172   -0.33 7 19.4 192 
 BAR2 SZ I        2036 42.84        13.4 0.28            170           19.4 192 
 BRR  HZ EP   1   2036 26.89                             152    0.13 7 73.3 301 
 BRR  HN ES       2036 44.30                             152    0.6310 73.3 301 
 PAM  SZ EP     C 2036 27.76                             151   -0.1310 80.5  38 
 PAM  SN ES   1   2036 45.32                             151   -0.35 7 80.5  38 
 RUS  HZ EP   1   2036 29.32                             146    0.39 7 96.5 176 
 RUS  HN ES   1   2036 47.73                             146    0.21 7 96.5 176 
 RUS  HZ I        2036 48.67         5.6 0.28            146           96.5 176 
 PTB  HZ EP   1   2036 32.32                             133    0.01 7  147 260 
 PTB  HN ES       2036 53.02                             133   -0.53 9  147 260 
 PTB  HZ I        2036 58.79         9.6 0.38            132            147 260 
                                                                                
