 2017  618 2242 41.2 L   6.747 -73.153144.7  RSN 10 0.4 2.2LRSN                1
 GAP=207        0.97       4.5     5.1  8.0  0.4703E+01 -0.1093E+02  0.1093E+02E
 Epicentro: LOS SANTOS - SANTANDER                                             3
 ACTION:UPD 17-09-14 16:53 OP:jn   STATUS:               ID:20170618224241 L   I
 OLDACT:UP  17-06-19 07:56 OP:edw  STATUS:               ID:20170618223735     3
 OLDACT:UP  17-06-19 07:56 OP:edw  STATUS:               ID:20170618223735     3
 OLDACT:REG 17-06-19 06:22 OP:edw  STATUS:               ID:20170618223735     3
 2017-06-18-2238-00M.COL___338                                                 6
 STAT SP IPHASW D HRMM SECON CODA AMPLIT PERI AZIMU VELO AIN AR TRES W  DIS CAZ7
 BRR  HZ EP       2243  2.22                             152   -0.1210 73.5 303 
 BRR  HN ES       2243 19.18                             152    0.3310 73.5 303 
 BRR  HZ I        2243 23.23        30.8 0.10            153           73.5 303 
 PTB  HZ EP       2243  7.27                             132   -0.62 9  146 261 
 PTB  HE ES       2243 28.69                             132   -0.04 9  146 261 
 PTB  HZ I        2243 31.23        19.4 0.40            134            146 261 
 SPBC HZ EP       2243  9.40                             130    0.28 9  158 220 
 SPBC HN ES   1   2243 30.14                             130   -0.78 7  158 220 
 SPBC HZ I        2243 35.12        30.5 0.20            131            158 220 
 YPLC HZ EP       2243 10.25                             127   -0.18 9  172 150 
 YPLC HE ES   4   2243 34.86                             127    1.61 0  172 150 
 YPLC HZ I        2243 37.20        35.8 0.26            131            172 150 
 ZAR  HZ EP       2243 13.27                             122   -0.44 8  206 294 
 ZAR  HN ES       2243 39.38                             122    0.29 8  206 294 
 ZAR  HZ I        2243 48.78        16.5 0.30            126            206 294 
 NOR  HZ EP     D 2243 16.90                             119    0.49 8  231 236 
 NOR  HN ES       2243 44.01                             119    0.11 8  231 236 
 NOR  HZ I        2243 51.52        10.4 0.16            121            231 236 
 CHI  HZ EP       2243 18.62                             118    0.44 8  243 195 
 CHI  HN ES       2243 47.13                             118    0.08 8  243 195 
 CHI  HZ I        2243 51.04         5.1 0.28            120            243 195 
 ROSC BZ EP       2243 19.51                             117    0.86 8  247 212 
 ROSC BN ES   4   2243 50.86                             117    2.98 0  247 212 
 ROSC BZ I        2243 59.66         7.7 0.30            119            247 212 
 HEL  HZ EP       2243 21.12                             115    0.03 8  270 257 
 HEL  HN ES       2243 51.69                             115   -0.54 8  270 257 
 HEL  HZ I        2243 57.40         8.3 0.30            117            270 257 
 URE  HZ EP   4   2243 26.29                             113    3.93 0  285 293 
 PTGC HZ EP   1   2243 23.59                             112   -0.81 5  304 158 
 PTGC HN ES   4   2243 56.98                             112   -1.14 0  304 158 
 PTGC HZ I        2243 59.15        12.6 0.30            115            304 158 
                                                                                
