 2011  318 2301 11.0 L   6.802 -73.120147.3  RSN  5 0.4 1.6LRSN                1
 GAP=161        0.98       5.8    11.1 10.2 -0.3811E+02  0.3802E+02 -0.1099E+02E
 Epicentro: LOS SANTOS - SANTANDER                                             3
 ACTION:UP  11-06-16 14:34 OP:jfem STATUS:               ID:20110318230111 L   I
 2011-03-18-2258-13S.COL___135                                                 6
 STAT SP IPHASW D HRMM SECON CODA AMPLIT PERI AZIMU VELO SNR AR TRES W  DIS CAZ7
 BAR2 SZ EP   2   23 1 30.35                             170    -0.5 5   24 197 
 BAR2 SZ I        23 1 31.30        14.9 0.20                            24 197 
 BAR2 SZ ES   1   23 1 46.13                             170    -0.2 8   24 197 
 RUS  HZ EP       23 1 34.90                             144     0.010  101 178 
 RUS  HZ I        23 1 35.54         5.4 0.16                           101 178 
 RUS  HN ES   1   23 1 53.71                             144     0.2 7  101 178 
 GRA  SZ EP       23 1 36.76                             137     0.510  125  16 
 GRA  SZ ES   1   23 1 55.76                             137    -0.3 7  125  16 
 GRA  SZ I        23 1 58.74        10.2 0.30                           125  16 
 NOR  SZ EP   1   23 1 46.15                             118    -0.9 6  237 235 
 NOR  SN ES   1   23 2 15.82                             118     0.6 6  237 235 
 NOR  SZ I        23 2 19.28         1.2 0.16                           237 235 
 CHI  HN ES   1   23 2 18.47                             117     0.0 6  250 196 
 CHI  HZ I        23 2 26.24         2.8 0.25                           250 196 
                                                                                
