 2012 1118 2102 40.4 L   6.784 -73.114143.3  RSN  6 0.4 1.5LRSN                1
 GAP=141        0.84       5.7     6.2  8.1  0.7808E+01  0.9724E+01  0.1075E+01E
 Epicentro: LOS SANTOS - SANTANDER                                             3
 ACTION:UPD 12-12-05 15:34 OP:}ep  STATUS:               ID:20121118210240 L   I
 2012-11-18-2100-00M.COL___234                                                 6
 STAT SP IPHASW D HRMM SECON CODA AMPLIT PERI AZIMU VELO AIN AR TRES W  DIS CAZ7
 BAR2 SZ EP   1   21 2 59.12                             171   -0.61 7 22.5 199 
 BAR2 SZ ES   1   21 3 14.22                             171   -0.57 7 22.5 199 
 BAR2 SZ I        21 3 16.87         6.3 0.18                          22.5 199 
 GIR2 SZ ES   2   21 3 14.81                             166   -0.22 5 33.7 345 
 BRR  HZ EP   1   21 3  1.49                             151   -0.03 7 75.1 298 
 BRR  HE ES   1   21 3 18.71                             151    0.73 7 75.1 298 
 BRR  HZ I        21 3 23.07         5.6 0.34                          75.1 298 
 PAM  SZ EP   1   21 3  2.55                             151    0.23 7 76.6  37 
 PAM  SE ES   1   21 3 19.45                             151    0.05 7 76.6  37 
 PAM  SZ I        21 3 21.39        10.8 0.54                          76.6  37 
 RUS  HZ EP   1   21 3  3.72                             144   -0.06 7 98.7 178 
 RUS  HN ES   1   21 3 22.54                             144    0.53 7 98.7 178 
 RUS  HZ I        21 3 24.08         2.3 0.32                          98.7 178 
 ZAR  HZ EP   2   21 3 13.66                             121    0.57 4  208 292 
 ZAR  HN ES   1   21 3 38.09                             121   -0.50 6  208 292 
 ZAR  HZ I        21 3 44.52         3.8 0.54                           208 292 
                                                                                
