 2017 1118 2127  4.8 L   6.882 -73.088162.7  RSN 17 0.4 2.4LRSN                1
 GAP= 69        0.80       2.6     2.5  4.5 -0.8843E-01  0.3861E+01 -0.9144E+00E
 Epicentro: PIEDECUESTA - SANTANDER                                            3
 ACTION:UPD 17-12-12 19:57 OP:rebc STATUS:               ID:20171118212704 L   I
 OLDACT:UP  17-11-19 05:41 OP:dnl  STATUS:               ID:20171118211740d    3
 OLDACT:UP  17-11-19 05:40 OP:dnl  STATUS:               ID:20171118211740d    3
 OLDACT:UP  17-11-19 05:39 OP:dnl  STATUS:               ID:20171118211740d    3
 OLDACT:DUP 17-11-19 05:32 OP:dnl  STATUS:               ID:20171118211740d    3
 OLDACT:UP  17-11-19 05:31 OP:dnl  STATUS:               ID:20171118211739     3
 OLDACT:UP  17-11-19 05:30 OP:dnl  STATUS:               ID:20171118211739     3
 OLDACT:REG 17-11-19 05:17 OP:dnl  STATUS:               ID:20171118211739     3
 2017-11-18-2118-00M.COL___474                                                 6
 STAT SP IPHASW D HRMM SECON CODA AMPLIT PERI AZIMU VELO AIN AR TRES W  DIS CAZ7
 BAR2 EZ EP       2127 26.68                             168    0.0210 33.6 198 
 BAR2 EZ ES       2127 43.45                             168   -0.2910 33.6 198 
 BAR2 EZ I        2127 46.53        56.4 0.42            156           33.6 198 
 PAM  EZ IP     D 2127 28.73                             157    0.4810 66.4  40 
 PAM  EE ES       2127 46.54                             157   -0.0210 66.4  40 
 PAM  EZ I        2127 48.43        48.9 0.28            144           66.4  40 
 TAM  HZ IP     D 2127 34.02                             135    0.49 9  152 109 
 TAM  HE ES       2127 55.69                             135   -0.28 9  152 109 
 TAM  HZ I        2127 58.86         9.2 0.38            116            152 109 
 PTB  HZ EP       2127 33.62                             134   -0.25 9  156 256 
 PTB  HE ES       2127 56.71                             134    0.13 9  156 256 
 PTB  HZ I        2127 57.63        31.2 0.18            119            156 256 
 YPLC HZ EP   2   2127 36.51                             129    0.19 4  182 154 
 YPLC HE ES       2128  1.00                             129    0.06 9  182 154 
 YPLC HZ I        2128  6.66        15.8 0.32            111            182 154 
 ZAR  HZ EP       2127 38.76                             125    0.11 8  207 289 
 ZAR  HE ES       2128  5.40                             125    0.33 8  207 289 
 ZAR  HZ I        2128 11.91        57.5 0.28            111            207 289 
 NOR  HZ EP       2127 42.73                             121    0.11 8  245 234 
 NOR  HE ES   4   2128 10.48                             121   -1.67 0  245 234 
 NOR  HZ I        2128 17.34        20.9 0.24            106            245 234 
 ROSC BN ES   4   2128 18.34                             119    1.90 0  264 211 
 ROSC BZ I        2128 25.37        12.6 0.50            104            264 211 
 DRL03HZ EP   2   2127 47.32                             117    0.96 4  281 351 
 DRL03HE ES   4   2128 20.22                             117    1.42 0  281 351 
 URE  HZ EP       2127 46.11                             116   -0.90 7  287 290 
 URE  HN ES   4   2128 18.10                             116   -1.87 0  287 290 
 URE  HZ I        2128 19.88        26.8 0.78            103            287 290 
 GUY2CHZ EP   4   2127 51.86                             115    1.50 0  312 234 
 GUY2CHE ES       2128 26.33                             115    0.40 7  312 234 
 GUY2CHZ I        2128 35.69        10.6 0.48                           312 234 
 LL6C HZ EP       2127 49.97                             114   -0.30 7  316 356 
 LL6C HE ES       2128 25.41                             114   -0.35 7  316 356 
 APAC HZ EP       2128  0.16                             109    0.19 6  402 287 
 APAC HE ES       2128 43.30                             109    0.27 6  402 287 
 APAC HZ I        2128 47.28        12.5 0.44             96            402 287 
 PRA  HZ EP       2128  0.63                             109    0.44 6  403 210 
 PRA  HN ES       2128 42.70                             109   -0.72 6  403 210 
 PRA  HZ I        2128 47.76         9.2 0.26             95            403 210 
 SJC  HZ EP   4   2127 59.67                             108   -0.81 0  405 326 
 SJC  HN ES   4   2128 40.70                             108   -3.23 0  405 326 
 SJC  HZ I        2128 46.27         4.0 0.52             96            405 326 
 ORTC HZ EP   4   2128  1.68                             108    1.09 0  406 216 
 ORTC HE ES       2128 43.56                             108   -0.57 6  406 216 
 ORTC HZ I        2128 54.89         3.1 0.38             95            406 216 
 CRJC HZ EP       2128  6.02                             106   -0.67 5  458   3 
 CRJC HZ I        2129  1.08         7.6 0.68                           458   3 
                                                                                
