 2015  618 2224  2.4 L   6.818 -73.083144.0  RSN  8 0.4 1.8LRSN                1
 GAP=144        0.94       3.2     4.8  5.7  0.1026E+01  0.1083E+02  0.1198E+01E
 Epicentro: LOS SANTOS - SANTANDER                                             3
 ACTION:UPD 15-09-10 22:13 OP:cam  STATUS:               ID:20150618222402 L   I
 OLDACT:REG 15-06-19 03:46 OP:ak   STATUS:               ID:20150618221748     3
 2015-06-18-2217-48M.COL___307                                                 6
 STAT SP IPHASW D HRMM SECON CODA AMPLIT PERI AZIMU VELO AIN AR TRES W  DIS CAZ7
 BAR2 EZ EP       2224 22.17                             169    0.3010 27.3 204 
 BAR2 EZ ES       2224 37.16                             169    0.0710 27.3 204 
 BAR2 EZ I        2224 38.87         7.9 0.15            169           27.3 204 
 PAM  SZ EP   1   2224 24.77                             152    0.71 7 71.5  36 
 PAM  SN ES       2224 40.67                             152   -0.3010 71.5  36 
 PAM  SZ I        2224 44.40        12.9 0.34            153           71.5  36 
 BRR  HZ EP       2224 23.91                             150    0.2710 76.5 295 
 BRR  HN ES       2224 40.27                             150    0.0410 76.5 295 
 BRR  HZ I        2224 42.51        10.7 0.06            149           76.5 295 
 RUS  HZ EP       2224 26.29                             143    0.2110  102 180 
 RUS  HN ES       2224 44.12                             143   -0.4410  102 180 
 RUS  HZ I        2224 45.82        10.0 0.32            145            102 180 
 ZAR  HZ EP   1   2224 35.75                             121    0.45 6  210 291 
 ZAR  HN ES       2225  1.53                             121    0.55 8  210 291 
 ZAR  HZ I        2225  6.29         4.9 0.15            121            210 291 
 SML  HZ EP       2224 38.64                             117   -0.39 8  245 334 
 SML  HN ES       2225  6.80                             117   -0.82 8  245 334 
 SML  HZ I        2225 12.86                             117            245 334 
 GUY2CHZ EP   1   2224 46.84                             111    0.17 5  308 235 
 GUY2CHN ES       2225 20.65                             111   -0.57 7  308 235 
 GUY2CHZ I        2225 29.25         2.3 0.56                           308 235 
 PRA  HZ EP       2224 55.88                             106   -0.56 6  397 210 
 PRA  HN ES       2225 38.75                             106    0.14 6  397 210 
 PRA  HZ I        2225 44.34         2.5 0.44            107            397 210 
                                                                                
