 2015  118 2240 22.5 L   6.818 -73.151138.5  RSN  7 0.4 1.6LRSN                1
 GAP=135        0.92       2.8     4.1  7.3 -0.5366E+00  0.8072E+01 -0.3490E+00E
 Epicentro: LOS SANTOS - SANTANDER                                             3
 ACTION:UPD 15-03-02 15:40 OP:nd   STATUS:               ID:20150118224022 L   I
 OLDACT:DUP 15-01-19 03:35 OP:fm   STATUS:               ID:20150118223747d    3
 2015-01-18-2237-46M.COL___253                                                 6
 STAT SP IPHASW D HRMM SECON CODA AMPLIT PERI AZIMU VELO AIN AR TRES W  DIS CAZ7
 PAM  SZ EP       2240 44.37                             150    0.5110 76.2  41 
 PAM  SE ES       2241  0.38                             150   -0.1610 76.2  41 
 PAM  SZ I        2241  3.50         4.4 0.44            152           76.2  41 
 RUS  HZ EP       2240 46.02                             142    0.3410  103 176 
 RUS  HN ES       2241  3.43                             142   -0.3410  103 176 
 RUS  HZ I        2241  5.39         3.6 0.42            144            103 176 
 PTB  HZ EP       2240 48.68                             130   -0.18 9  148 258 
 PTB  HE ES       2241  9.32                             130   -0.10 9  148 258 
 PTB  HZ I        2241 11.70         4.9 0.32            131            148 258 
 SPBC HZ EP       2240 50.98                             127    0.43 9  164 218 
 SPBC HE ES       2241 12.96                             127    0.52 9  164 218 
 SPBC HZ I        2241 14.11         9.7 0.10            129            164 218 
 ZAR  HE ES       2241 19.25                             121    0.07 9  203 292 
 ZAR  HZ I        2241 25.77         7.2 0.32            122            203 292 
 SML  HZ EP       2240 58.54                             116    0.05 8  242 335 
 SML  HE ES       2241 26.15                             116   -0.43 8  242 335 
 SML  HZ I        2241 31.08         4.1 0.10            117            242 335 
 CHI  HZ EP       2240 59.21                             115   -0.77 8  250 195 
 CHI  HN ES       2241 28.88                             115   -0.35 8  250 195 
 CHI  HZ I        2241 35.22         1.2 0.28            117            250 195 
                                                                                
