 2011  718 2001 57.6 L   7.339 -73.348123.8  RSN 20 0.4 4.1LRSN                1
 GAP= 61        0.86       2.9     3.8  4.6 -0.4415E+01  0.6239E+01  0.4434E+00E
 Epicentro: SABANA DE TORRES - SANTANDER                                       3
 Evento Sentido                                                                2
 Reportado como sentido en:                                                    3
 BUCARAMANGA, PIEDECUESTA, FLORIDABLANCA (SANTANDER)                           3
 ACTION:UPD 12-07-25 14:01 OP:epov STATUS:               ID:20110718200157 L   I
 2011-07-18-2000-16S.COL___143                                                 6
 STAT SP IPHASW D HRMM SECON CODA AMPLIT PERI AZIMU VELO AIN AR TRES W  DIS CAZ7
 GIR2 SZ EP   1   20 2 14.68                             164   -0.07 7 33.5 149 
 GIR2 SZ ES   1   20 2 27.31                             164   -0.80 7 33.5 149 
 BTL  SZ EP       20 2 16.14                             158    0.6910 47.3 169 
 BRR  HZ IP       20 2 15.12                             158    0.0110 47.6 237 
 BRR  HN ES   1   20 2 28.86                             158    0.10 7 47.6 237 
 BRR  HZ I        20 2 30.12      2920.9 0.08                          47.6 237 
 PAM  SZ EP       20 2 17.09                             148   -0.0610 71.6  90 
 PAM  SN ES   1   20 2 32.22                             148   -0.18 7 71.6  90 
 GUE  SZ EP       20 2 16.79                             148   -0.1210 71.7  41 
 BRI  SZ EP       20 2 17.01                             147    0.1610 73.8  56 
 BRI  SZ ES   1   20 2 32.77                             147    0.91 7 73.8  56 
 BRI  SZ I        20 2 36.81      2186.0 0.54                          73.8  56 
 BAR2 SZ EP       20 2 17.82                             143    0.1410 84.6 167 
 BAR2 SZ ES   1   20 2 33.57                             143    0.23 7 84.6 167 
 BAR2 SZ I        20 2 34.77      6984.5 0.37                          84.6 167 
 GRA  SZ EP       20 2 17.76                             143    0.1510 85.2  45 
 GRA  SZ ES   1   20 2 33.31                             143    0.10 7 85.2  45 
 GRA  SZ I        20 2 36.05      4145.9 0.34                          85.2  45 
 OCA  SZ EP       20 2 18.65                             139   -0.0710 99.6   2 
 OCA  SZ ES   1   20 2 34.64                             139   -0.54 7 99.6   2 
 OCA  SZ I        20 2 39.23      2593.1 0.15                          99.6   2 
 RUS  HZ EP       20 2 24.56                             124   -0.43 9  163 170 
 RUS  HN ES   1   20 2 45.56                             124   -0.78 7  163 170 
 RUS  HZ I        20 2 48.38       601.6 0.37                           163 170 
 NOR  SZ EP   1   20 2 34.51                             111   -0.35 6  259 221 
 NOR  SN ES   1   20 3  3.53                             111   -0.38 6  259 221 
 HEL  HZ EP   1   20 2 37.07                             110    0.23 6  272 242 
 HEL  HN ES   1   20 3  7.24                             110   -0.20 6  272 242 
 CHI  HZ EP   1   20 2 40.60                             108    0.22 5  303 188 
 CHI  HZ I        20 3 22.02       506.9 0.47                           303 188 
 DBB  SZ EP       20 2 42.08                             106    0.31 7  318 264 
 GUY  SN ES   1   20 3 19.42                             106    0.84 5  325 224 
 GUY  SZ I        20 3 30.90      1610.0 0.45                           325 224 
 SDV  BZ EP       20 2 44.63                             105   -0.41 7  345  60 
 SDV  BZ I        20 3 23.99       302.4 0.38                           345  60 
 SJC  HZ EP   1   20 2 44.24                             105   -0.94 5  347 325 
 SJC  HZ I        20 3 21.16       262.2 0.40                           347 325 
 VIL  SZ EP   1   20 2 47.53                             104    0.90 5  359 186 
 VIL  SZ I        20 3 42.82       445.5 0.48                           359 186 
 PRA  HZ EP       20 2 55.56                             101   -0.10 5  436 203 
 PRA  HZ I        20 3 51.61      1337.5 0.35                           436 203 
 SJA  SZ EP   1   20 2 57.96                             100   -0.06 4  455 188 
                                                                                
