 2016 1118 2218 34.6 L   6.773 -73.093146.0  RSN  6 0.4 1.6LRSN                1
 GAP=171        1.05       6.8     5.1  6.8 -0.1013E+02  0.6520E+01  0.5721E+01E
 Epicentro: LOS SANTOS - SANTANDER                                             3
 ACTION:UPD 17-10-26 21:09 OP:lp   STATUS:               ID:20161118221834 L   I
 OLDACT:REG 16-11-19 04:27 OP:lv   STATUS:               ID:20161118221745     3
 2016-11-18-2218-00M.COL___349                                                 6
 STAT SP IPHASW D HRMM SECON CODA AMPLIT PERI AZIMU VELO AIN AR TRES W  DIS CAZ7
 BAR2 EZ EP       2218 53.95                             171   -0.2510 22.3 206 
 BAR2 EZ ES       2219  9.28                             171   -0.2310 22.3 206 
 BAR2 EZ I        2219 11.84        12.0 0.33            171           22.3 206 
 PAM  EZ EP       2218 56.66                             151   -0.0810 76.3  35 
 PAM  EN ES       2219 14.09                             151    0.0610 76.3  35 
 PAM  EZ I        2219 16.62         4.9 0.55            152           76.3  35 
 BRR  HZ EP       2218 55.94                             150   -0.1810 77.7 298 
 BRR  HN ES       2219 13.48                             150    0.5510 77.7 298 
 PTB  HZ EP   9   2219  0.63                             131   -1.39 0  153 260 
 PTB  HN ES       2219 21.56                                   -0.48 9  153 260 
 PTB  HZ I        2219 24.17         5.2 0.10            131            153 260 
 ZAR  HZ EP       2219  8.51                             121    0.81 8  211 292 
 ZAR  HE ES       2219 32.73                             121   -0.81 8  211 292 
 ZAR  HZ I        2219 39.14         4.3 0.17            122            211 292 
 NOR  HZ EP       2219 10.50                             118   -0.13 8  238 236 
 NOR  HN ES       2219 39.09                             118    0.33 8  238 236 
 NOR  HZ I        2219 41.78         3.0 0.15            119            238 236 
                                                                                
