 2012  219 0417 50.6 L   6.706 -73.127153.5  RSN  5 0.3 1.4LRSN                1
 GAP=187        0.52       6.1     6.1  5.6  0.8037E+01  0.5830E+01 -0.2910E-01E
 ACTION:UP  12-03-07 16:31 OP:epov STATUS:               ID:20120219041750 L   I
 2012-02-19-0410-00M.COL___188                                                 6
 STAT SP IPHASW D HRMM SECON CODA AMPLIT PERI AZIMU VELO AIN AR TRES W  DIS CAZ7
 BAR2 SZ EP   1    418 11.27                             174    0.25 7 13.9 206 
 BAR2 SZ ES   1    418 26.90                             174   -0.04 7 13.9 206 
 BAR2 SZ I         418 27.51         5.1 0.18                          13.9 206 
 GIR2 SZ EP   1    418 11.13                             164   -0.38 7 41.9 350 
 GIR2 SZ ES   2    418 27.43                             164   -0.39 5 41.9 350 
 BRR  HZ EP   1    418 13.12                             151    0.12 7 78.4 305 
 BRR  HZ I         418 14.69         9.2 0.14                          78.4 305 
 BRR  HN ES   1    418 30.83                             151    0.36 7 78.4 305 
 RUS  HN ES   2    418 33.09                             148    0.10 5 90.0 177 
 RUS  HZ I         418 35.60         2.1 0.58                          90.0 177 
 PTB  HZ EP   1    418 18.22                             134   -0.03 7  148 263 
 PTB  HN ES   2    418 39.42                             134   -0.39 5  148 263 
                                                                                
