 2011 1219 0337 54.2 L   6.799 -73.089140.8  RSN 14 0.3 3.2LRSN                1
 GAP=119        0.61       2.5     3.2  3.5 -0.1630E+01  0.2225E+01  0.3285E+01E
 Epicentro: LOS SANTOS - SANTANDER                                             3
 ACTION:UPD 12-07-13 16:17 OP:ep   STATUS:               ID:20111219033754 L   I
 2011-12-19-0330-00M.COL___188                                                 6
 STAT SP IPHASW D HRMM SECON CODA AMPLIT PERI AZIMU VELO AIN AR TRES W  DIS CAZ7
 BAR2 SZ IP        338 13.35                             169    0.0810 25.0 204 
 BAR2 SZ ES   1    338 27.99                             169   -0.16 7 25.0 204 
 BAR2 SZ I         338 29.38       384.8 0.58                          25.0 204 
 GIR2 SZ EP        338 13.28                             166   -0.0610 33.1 340 
 GIR2 SZ ES   1    338 27.87                             166   -0.39 7 33.1 340 
 PAM  SZ EP        338 16.11                             151    0.4410 73.7  36 
 PAM  SE ES        338 32.37                             151   -0.0410 73.7  36 
 BRR  HZ IP     C  338 15.08                             150   -0.0710 76.8 296 
 BRR  HE ES        338 31.57                             150    0.0810 76.8 296 
 BRR  HZ I         338 34.09       487.4 0.21                          76.8 296 
 RUS  HZ EP        338 17.43                             143   -0.0110  100 180 
 RUS  HN ES   1    338 35.79                             143    0.23 7  100 180 
 OCA  SZ EP        338 21.79                             128   -0.44 9  161 351 
 OCA  SZ I         338 48.19       239.5 0.38                           161 351 
 YOP  SZ EP   1    338 23.98                             125    0.37 7  176 155 
 YOP  SZ I         338 49.88        72.9 0.41                           176 155 
 CTAU SZ EP        338 27.46                             121    0.30 8  206 211 
 NOR  SZ EP   1    338 30.09                             117   -0.11 6  240 235 
 CHI  HZ EP        338 31.69                             116   -0.11 8  250 197 
 CHI  HN ES   1    339  0.61                             116   -0.52 6  250 197 
 CHI  HZ I         339  7.47        48.7 0.44                           250 197 
 HEL  HZ EP   1    338 34.70                             113   -0.14 6  278 256 
 HEL  HE ES   1    339  6.91                             113    0.37 6  278 256 
 HEL  HZ I         339 11.59       103.8 0.24                           278 256 
 GUY  SZ EP   1    338 39.00                             111    0.57 5  309 236 
 GUY  SN ES   1    339 13.32                             111    0.40 5  309 236 
 GUY  SZ I         339 21.29        95.1 0.53                           309 236 
 RREF HZ EP   1    338 40.45                             109   -0.22 5  326 230 
 RREF HZ I         339 30.23        59.3 0.34                           326 230 
 PRA  HZ EP   1    338 47.17                             105   -0.74 4  395 210 
 PRA  HN ES   1    339 29.24                             105   -0.56 4  395 210 
                                                                                
