 2015  319 0609  2.9 L   6.816 -73.159142.3  RSN 27 0.6 2.6LRSN                1
 GAP= 55        1.79       3.8     4.5  7.5 -0.2449E+01  0.1008E+02  0.5665E+01E
 Epicentro: LOS SANTOS - SANTANDER                                             3
 ACTION:UPD 15-04-30 16:27 OP:nd   STATUS:               ID:20150319060902 L   I
 OLDACT:REG 15-03-19 12:55 OP:stll STATUS:               ID:20150319060746     3
 2015-03-19-0607-46M.COL___275                                                 6
 STAT SP IPHASW D HRMM SECON CODA AMPLIT PERI AZIMU VELO AIN AR TRES W  DIS CAZ7
 BAR2 EZ EP     D  6 9 22.38                             169    0.2710 24.9 186 
 BAR2 EZ ES        6 9 36.85                             169   -0.2710 24.9 186 
 BAR2 EZ I         6 9 39.06        77.4 0.20            168           24.9 186 
 BRR  HZ IP     C  6 9 24.21                             152    0.6910 69.1 298 
 BRR  HE ES        6 9 40.87                             152    1.2410 69.1 298 
 BRR  HZ I         6 9 45.37        70.9 0.16            148           69.1 298 
 PAM  SZ IP     C  6 9 25.15                             150    0.4710 77.0  41 
 PAM  SZ I         6 9 25.48       131.2 0.20            153           77.0  41 
 PAM  SN ES        6 9 41.89                             150    0.1910 77.0  41 
 RUS  HZ IP     D  6 9 26.30                             142   -0.1110  102 175 
 RUS  HN ES        6 9 45.02                             142    0.2410  102 175 
 RUS  HZ I         6 9 46.08        33.9 0.26            143            102 175 
 PTB  HZ EP        6 9 28.85                             131   -0.60 9  147 258 
 PTB  HN ES        6 9 49.38                             131   -0.81 9  147 258 
 PTB  HZ I         6 9 57.40        35.6 0.38            129            147 258 
 TAM  HZ IP     D  6 9 30.82                             129    0.38 9  157 105 
 TAM  HZ I         6 9 31.00        53.4 0.38            132            157 105 
 TAM  HN ES        6 9 51.55                             129   -0.41 9  157 105 
 OCA  HZ EP        6 9 30.35                             129   -0.37 9  158 354 
 OCA  HE ES        6 9 51.33                             129   -1.12 9  158 354 
 OCA  HZ I         6 9 57.81        66.9 0.14            129            158 354 
 SPBC HZ EP        6 9 31.21                             128    0.07 9  164 218 
 SPBC HN ES        6 9 53.29                             128    0.09 9  164 218 
 SPBC HZ I         610  1.88        67.4 0.38            127            164 218 
 ZAR  HZ EP        6 9 34.94                             122    0.07 9  202 292 
 ZAR  HE ES        610  0.39                             122    0.55 9  202 292 
 ZAR  HZ I         610  7.03        37.0 0.36            120            202 292 
 NOR  HZ EP        6 9 38.53                             117    0.15 8  235 234 
 NOR  HN ES        610  5.60                             117   -0.48 8  235 234 
 NOR  HZ I         610 11.87        25.1 0.46            117            235 234 
 SML  HZ EP        6 9 38.69                             117   -0.36 8  241 335 
 SML  HN ES        610  7.08                             117   -0.20 8  241 335 
 SML  HZ I         610  9.34        52.1 0.24            116            241 335 
 ROSC BZ EP        6 9 41.22                             116    0.34 8  254 211 
 ROSC BN ES        610  9.35                             116   -1.19 8  254 211 
 ROSC BZ I         610 16.72        51.4 0.45            115            254 211 
 HEL  HZ EP        6 9 43.91                             114    1.12 8  271 255 
 HEL  HN ES        610 13.79                             114   -0.15 8  271 255 
 HEL  HZ I         610 20.45        19.8 0.28            113            271 255 
 GUY2CHZ EP        6 9 46.51                             111    0.22 7  301 234 
 GUY2CHE ES        610 20.40                             111    0.23 7  301 234 
 GUY2CHZ I         610 28.55        17.9 0.34                           301 234 
 VIL  SZ EP        6 9 46.05                             111   -0.24 7  305 191 
 VIL  SN ES        610 19.22                             111   -0.94 7  305 191 
 VIL  SZ I         610 25.85        42.8 0.40            111            305 191 
 PTGC HZ EP   9    6 9 45.60                             110   -1.21 0  311 159 
 PTGC HZ I         6 9 46.07        58.5 0.24            111            311 159 
 PTGC HN ES        610 18.25                                   -1.63 7  311 159 
 RREF HZ EP        6 9 48.81                             110   -0.05 7  322 229 
 RREF HE ES        610 24.16                             110   -0.58 7  322 229 
 CBOC HZ EP        6 9 50.12                             109    0.58 7  333 252 
 CBOC HZ I         6 9 53.13         5.5 0.12            108            333 252 
 CBOC HN ES        610 24.94                             109   -1.01 7  333 252 
 DBB  SZ EP        6 9 49.50                             109   -0.52 7  338 274 
 DBB  SZ I         610 30.21        43.3 0.30            108            338 274 
 TOL  SZ EP        6 9 51.20                             108    0.19 7  344 224 
 TOL  SE ES        610 29.89                             108    1.33 7  344 224 
 TOL  SZ I         610 35.92        19.4 0.28            108            344 224 
 ARGC HZ EP   9    6 9 52.38                             108    0.25 0  357 340 
 ARGC HZ I         6 9 55.72         6.5 0.18            107            357 340 
 ARGC HE ES        610 29.80                                   -1.01 6  357 340 
 ANIL HZ EP        6 9 53.56                             108    1.00 6  358 224 
 ANIL HE ES        610 32.11                             108    0.78 6  358 224 
 ANIL HZ I         610 36.84         6.3 0.38            107            358 224 
 SDV  BZ EP   9    6 9 51.89                             107   -0.88 0  360  51 
 SDV  BN ES        610 27.84                                   -2.98 6  360  51 
 PRA  HZ EP        6 9 55.93                             106   -0.43 6  393 209 
 PRA  HN ES        610 37.85                             106   -0.24 6  393 209 
 PRA  HZ I         610 44.21        19.7 0.32            106            393 209 
 ORTC HZ EP        6 9 56.67                             105   -0.06 6  396 216 
 ORTC HN ES        610 37.90                             105   -0.85 6  396 216 
 ORTC HZ I         610 43.68        15.9 0.30            105            396 216 
 SJC  HZ EP   9    6 9 56.04                             105   -2.00 0  407 327 
 SJC  HN ES        610 36.14                                   -2.94 6  407 327 
 SJC  HZ I         610 44.36         7.6 0.54            105            407 327 
 CRJC HZ EP   9    610  2.64                             103   -2.42 0  466   4 
 CRJC HN ES        610 48.09                                   -3.07 5  466   4 
                                                                                
