 2010 1019 0117 55.3 L   6.792 -73.069149.9  RSN 13 0.4 2.6LRSN                1
 GAP=132        0.79       3.3     5.5  5.4 -0.3467E+01  0.4406E+01  0.1167E+01E
 Epicentro: LOS SANTOS - SANTANDER                                             3
 ACTION:UP  11-02-18 11:10 OP:tino STATUS:               ID:20101019011755 L   I
 2010-10-19-0116-00S.COL___120                                                 6
 STAT SP IPHASW D HRMM SECON CODA AMPLIT PERI AZIMU VELO SNR AR TRES W  DIS CAZ7
 BAR2 SZ IP        118 15.46                             170     0.010   26 210 
 BAR2 SZ ES   1    118 31.11                             170    -0.1 7   26 210 
 BAR2 SZ I         118 33.52        49.2 0.23                            26 210 
 BRR  HZ IP     C  118 17.42                             151     0.110   79 296 
 BRR  HZ I         118 17.67       103.5 0.17                            79 296 
 BRR  HN ES   1    118 34.87                             151     0.3 7   79 296 
 RUS  HZ EP        118 19.27                             145    -0.110   99 181 
 RUS  HN ES   1    118 38.07                             145    -0.1 7   99 181 
 RUS  HZ I         118 42.00        16.4 0.10                            99 181 
 OCA  SZ EP        118 24.28                             130     0.2 9  162 350 
 OCA  SZ ES   1    118 46.59                             130     0.0 7  162 350 
 OCA  SZ I         118 50.84        65.6 0.28                           162 350 
 NOR  SZ EP   1    118 31.17                             119    -0.8 6  241 236 
 NOR  SE ES   1    118 59.68                             119    -0.9 6  241 236 
 CHI  HZ EP   2    118 33.38                             118     0.0 4  250 197 
 CHI  HZ I         118 36.18        14.4 0.41                           250 197 
 CHI  HN ES   2    119  2.83                             118    -0.2 4  250 197 
 ROSC BZ EP   1    118 34.78                             117     0.8 6  256 213 
 ROSC BZ I         119 13.25        23.3 0.38                           256 213 
 HEL  HZ EP   1    118 36.75                             115     0.2 6  280 256 
 HEL  HN ES   2    119  8.97                             115     0.2 4  280 256 
 HEL  HZ I         119 15.13        20.6 0.29                           280 256 
 DBB  SZ EP   1    118 43.32                             110    -0.6 5  348 274 
 TOL  SZ EP   1    118 44.83                             110     0.5 5  349 226 
 SDV  BZ EP   1    118 44.36                             109    -0.4 5  355  49 
 SDV  BZ I         119 24.43         5.9 0.09                           355  49 
 ANIL HZ EP   2    118 46.71                             109     0.9 3  363 226 
 ANIL HZ I         119 31.70        34.2 0.56                           363 226 
 PRA  HZ EP   1    118 48.90                             107    -0.4 4  395 211 
 PRA  HZ I         118 51.11        41.2 0.26                           395 211 
 PRA  HN ES   1    119 32.07                             107     0.6 4  395 211 
                                                                                
