 2016 1119 0503  7.1 L   6.639 -73.144149.3  RSN  5 0.2 1.4LRSN                1
 GAP=187        0.61       5.2     3.0  4.4 -0.3342E+01  0.3193E+01  0.2669E+00E
 Epicentro: VILLANUEVA - SANTANDER                                             3
 ACTION:UPD 17-10-26 21:09 OP:lp   STATUS:               ID:20161119050307 L   I
 OLDACT:REG 16-11-19 12:53 OP:and  STATUS:               ID:20161119045649     3
 2016-11-19-0457-00M.COL___340                                                 6
 STAT SP IPHASW D HRMM SECON CODA AMPLIT PERI AZIMU VELO AIN AR TRES W  DIS CAZ7
 BAR2 EZ EP        5 3 26.94                             177    0.0410 6.66 219 
 BAR2 EZ ES        5 3 42.49                             177    0.1110 6.66 219 
 BAR2 EZ I         5 3 43.69         5.3 0.16            175           6.66 219 
 BRR  HZ EP        5 3 29.42                             150    0.2410 81.3 310 
 BRR  HN ES        5 3 46.75                             150    0.3110 81.3 310 
 BRR  HZ I         5 3 49.03         3.6 0.17            147           81.3 310 
 PAM  EZ EP        5 3 30.69                             147    0.1410 91.7  32 
 PAM  EE ES        5 3 48.46                             147   -0.4110 91.7  32 
 PAM  EZ I         5 3 50.75         3.0 0.32            146           91.7  32 
 PTB  HZ EP        5 3 33.99                             133   -0.13 9  145 266 
 PTB  HN ES        5 3 54.91                             133   -0.31 9  145 266 
 PTB  HZ I         5 3 56.04         3.8 0.26            133            145 266 
 ZAR  HZ EP        5 3 40.46                             122   -0.05 8  212 297 
 ZAR  HE ES        5 4  6.59                             122   -0.00 8  212 297 
 ZAR  HZ I         5 4 11.90         2.1 0.11            122            212 297 
                                                                                
