 2017  419 0958 58.6 L   6.807 -73.120141.3  RSN 12 0.4 2.0LRSN                1
 GAP=114        0.92       3.2     3.3  5.2  0.2227E+01  0.4665E+01  0.3806E+01E
 Epicentro: LOS SANTOS - SANTANDER                                             3
 ACTION:UPD 17-05-30 21:14 OP:jn   STATUS:               ID:20170419095858 L   I
 OLDACT:UP  17-04-19 16:46 OP:dnl  STATUS:               ID:20170419094740d    3
 OLDACT:UP  17-04-19 16:46 OP:dnl  STATUS:               ID:20170419094740d    3
 OLDACT:UP  17-04-19 16:45 OP:dnl  STATUS:               ID:20170419094740d    3
 OLDACT:DUP 17-04-19 16:40 OP:dnl  STATUS:               ID:20170419094740d    3
 2017-04-19-0948-00M.COL___364                                                 6
 STAT SP IPHASW D HRMM SECON CODA AMPLIT PERI AZIMU VELO AIN AR TRES W  DIS CAZ7
 BAR2 EZ IP     D  959 17.51                             170   -0.1910 24.7 196 
 BAR2 EZ ES        959 32.03                             170   -0.5810 24.7 196 
 BAR2 EZ I         959 33.68        20.2 0.20            166           24.7 196 
 BRR  HZ IP     C  959 19.33                             151   -0.0410 73.4 297 
 BRR  HN ES        959 36.04                             151    0.4510 73.4 297 
 BRR  HZ I         959 40.42        28.2 0.12            151           73.4 297 
 PAM  EZ EP        959 20.40                             151    0.2310 75.0  38 
 PAM  EN ES        959 37.30                             151    0.2810 75.0  38 
 PAM  EZ I         959 39.50        28.8 0.48            155           75.0  38 
 RUS  HZ EP        959 21.68                             143   -0.2510  101 178 
 RUS  HE ES        959 40.12                             143   -0.0310  101 178 
 RUS  HZ I         959 41.37         5.8 0.30            141            101 178 
 PTB  HZ EP        959 24.56                             130   -0.90 9  151 259 
 PTB  HE ES        959 46.47                             130    0.05 9  151 259 
 PTB  HZ I         959 47.99        21.3 0.12            130            151 259 
 YPLC HZ EP        959 28.14                             126    0.16 9  176 152 
 YPLC HN ES        959 51.10                             126    0.19 9  176 152 
 YPLC HZ I         959 59.49         7.4 0.28            126            176 152 
 ZAR  HZ EP        959 30.74                             121   -0.24 8  206 292 
 ZAR  HE ES        959 56.25                             121   -0.01 8  206 292 
 ZAR  HZ I        10 0  1.10        18.3 0.34            122            206 292 
 NOR  HZ EP        959 34.13                             117   -0.22 8  237 235 
 NOR  HE ES       10 0  2.85                             117    0.60 8  237 235 
 NOR  HZ I        10 0  4.51         8.5 0.18            117            237 235 
 CHI  HZ EP   2    959 36.43                             116    0.24 4  250 196 
 CHI  HE ES       10 0  5.73                             116    0.20 8  250 196 
 CHI  HZ I        10 0 14.87         3.9 0.28            116            250 196 
 URE  HZ EP   4    959 41.70                             112    2.00 0  286 292 
 URE  HE ES   4   10 0  9.43                             112   -2.35 0  286 292 
 URE  HZ I        10 0 12.58        11.5 0.14            113            286 292 
 CBOC HZ EP        959 46.42                             109    0.77 7  337 252 
 CBOC HE ES   4   10 0 24.04                             109    1.68 0  337 252 
 CBOC HZ I        10 0 34.98         2.1 0.46            109            337 252 
 SJC  HZ EP   4    959 52.15                             105   -1.96 0  410 327 
 SJC  HN ES   4   10 0 32.65                             105   -4.77 0  410 327 
 SJC  HZ I        10 0 36.59         2.6 0.46            106            410 327 
                                                                                
