 2017 1119 0606 15.7 L   6.895 -73.121152.2  RSN  4 0.3 1.5LRSN                1
 GAP=174        0.65       4.5     3.6  7.4 -0.5904E+01  0.5319E+01  0.8923E+01E
 Epicentro: PIEDECUESTA - SANTANDER                                            3
 ACTION:UPD 17-12-12 19:57 OP:rebc STATUS:               ID:20171119060615 L   I
 OLDACT:REG 17-11-19 14:05 OP:leo  STATUS:               ID:20171119055746     3
 2017-11-19-0558-00M.COL___471                                                 6
 STAT SP IPHASW D HRMM SECON CODA AMPLIT PERI AZIMU VELO AIN AR TRES W  DIS CAZ7
 PAM  EZ EP        6 6 38.44                             155    0.3310 67.7  43 
 PAM  EN ES        6 6 55.38                             155   -0.1810 67.7  43 
 PAM  EZ I         6 6 55.99         5.8 0.22            156           67.7  43 
 PTB  HZ EP        6 6 43.39                             132   -0.29 9  153 255 
 PTB  HE ES        6 7  5.29                             132   -0.19 9  153 255 
 PTB  HZ I         6 7  6.33         3.6 0.16            133            153 255 
 SPBC HZ EP        6 6 45.49                             129   -0.18 9  173 217 
 SPBC HE ES        6 7  9.33                             129    0.31 9  173 217 
 ZAR  HN ES        6 7 14.25                             124    0.22 9  203 289 
                                                                                
