 2016  219 0548  9.9 L   6.774 -73.180157.6  RSN  4 0.3 1.3LRSN                1
 GAP=232        0.84       5.4     6.4  7.5  0.9942E+01 -0.3845E+01  0.6072E+00E
 Epicentro: LOS SANTOS - SANTANDER                                             3
 ACTION:UPD 16-03-04 21:27 OP:rebc STATUS:               ID:20160219054809 L   I
 OLDACT:REG 16-02-19 12:26 OP:drio STATUS:               ID:20160219054741     3
 2016-02-19-0547-41M.COL___312                                                 6
 STAT SP IPHASW D HRMM SECON CODA AMPLIT PERI AZIMU VELO AIN AR TRES W  DIS CAZ7
 BRR  HZ EP        548 32.33                             155    0.0810 69.4 302 
 BRR  HN ES        548 49.96                             155    0.2810 69.4 302 
 BRR  HZ I         548 54.07         3.5 0.30            153           69.4 302 
 RUS  HZ EP        548 34.72                             147    0.0510 98.0 174 
 RUS  HE ES        548 53.63                             147   -0.3510 98.0 174 
 RUS  HZ I         548 54.98         0.9 0.28            150           98.0 174 
 PTB  HZ EP        548 37.06                             135   -0.43 9  143 260 
 PTB  HN ES        548 58.61                             135   -0.39 9  143 260 
 PTB  HZ I         549  5.46         3.7 0.44            135            143 260 
 SPBC HZ EP        548 39.24                             132    0.32 9  158 219 
 SPBC HN ES        549  1.99                             132    0.45 9  158 219 
 SPBC HZ I         549  4.70         3.5 0.10            134            158 219 
                                                                                
