 2011  319 0741 40.2 L   7.410 -73.160129.7  RSN 12 0.3 3.2LRSN                1
 GAP=101        0.68       2.6     4.5  4.7  0.1083E+00 -0.2429E+01  0.2043E+01E
 Epicentro: EL PLAYON - SANTANDER                                              3
 ACTION:UP  11-06-16 14:34 OP:jfem STATUS:               ID:20110319074140 L   I
 2011-03-19-0740-00S.COL___128                                                 6
 STAT SP IPHASW D HRMM SECON CODA AMPLIT PERI AZIMU VELO SNR AR TRES W  DIS CAZ7
 BRR  HZ IP     D  741 59.61                             150     0.110   70 241 
 BRR  HN ES   1    742 14.68                             150     0.1 7   70 241 
 BRR  HZ I         742 15.93       358.0 0.09                            70 241 
 BAR2 SZ EP        742  1.48                             143     0.210   91 182 
 BAR2 SZ ES   1    742 17.76                             143     0.0 7   91 182 
 BAR2 SZ I         742 19.16       359.3 0.14                            91 182 
 OCA  SZ EP        742  1.16                             142    -0.210   93 349 
 OCA  SZ ES   1    742 18.20                             142     0.3 7   93 349 
 OCA  SZ I         742 25.01       107.4 0.52                            93 349 
 RUS  HZ EP   1    742  7.93                             124    -0.6 7  168 177 
 RUS  HN ES   1    742 30.19                             124    -0.5 7  168 177 
 RUS  HZ I         742 32.65        59.9 0.30                           168 177 
 YOP  SZ EP   1    742 15.93                             114     0.0 6  242 160 
 YOP  SN ES   1    742 44.00                             114     0.2 6  242 160 
 YOP  SZ I         742 45.91       177.6 0.52                           242 160 
 NOR  SZ IP        742 20.09                             111     0.1 7  278 223 
 CHI  HZ EP   1    742 24.81                             108     0.3 5  314 192 
 CHI  HZ I         743  6.23        31.8 0.36                           314 192 
 SDV  BZ EP        742 25.26                             107     0.0 7  323  60 
 SDV  BZ I         743  3.72        60.0 0.29                           323  60 
 DBB  SZ EP        742 26.63                             106    -0.5 7  340 263 
 VIL  SZ EP   1    742 31.45                             105     0.8 5  369 189 
 VIL  SE ES   1    743 10.06                             105     0.0 5  369 189 
 VIL  SZ I         743 18.89        57.7 0.34                           369 189 
 ANIL HZ EP   2    742 35.87                             103     0.5 3  407 218 
 ANIL HZ I         743 26.87        93.4 0.31                           407 218 
 PRA  HZ EP   1    742 40.67                             101     0.4 4  451 205 
 PRA  HN ES   1    743 27.01                             101    -0.1 4  451 205 
 PRA  HZ I         743 37.86        86.3 0.23                           451 205 
                                                                                
