 2015  419 0346 34.2 L   6.745 -73.171150.8  RSN  5 0.2 1.0LRSN                1
 GAP=230        0.49       4.7     4.5  5.6  0.1106E+02  0.6417E+00 -0.7552E+00E
 Epicentro: LOS SANTOS - SANTANDER                                             3
 ACTION:UPD 15-06-03 16:55 OP:cam  STATUS:               ID:20150419034634 L   I
 OLDACT:DUP 15-04-19 14:24 OP:spq  STATUS:               ID:20150419033749d    3
 2015-04-19-0337-48M.COL___277                                                 6
 STAT SP IPHASW D HRMM SECON CODA AMPLIT PERI AZIMU VELO AIN AR TRES W  DIS CAZ7
 BAR2 EZ EP        346 54.15                             173   -0.1910 16.9 184 
 BRR  HZ EP        346 55.92                             153   -0.0310 72.0 304 
 BRR  HN ES        347 12.91                             153    0.0110 72.0 304 
 BRR  HZ I         347 16.24         2.7 0.36            152           72.0 304 
 RUS  HN ES   1    347 16.88                             146    0.23 7 94.7 174 
 RUS  HZ I         347 18.19         0.9 0.16            150           94.7 174 
 PTB  HZ EP        347  1.41                             134    0.15 9  144 261 
 PTB  HN ES   1    347 21.99                             134   -0.36 7  144 261 
 PTB  HZ I         347 23.52         1.2 0.38            135            144 261 
 ZAR  HN ES   1    347 32.82                             123    0.29 6  204 294 
 ZAR  HZ I         347 37.73         1.7 0.42            125            204 294 
                                                                                
