 2016  719 0150 50.1 L   6.755 -73.140156.0  RSN  4 0.3 1.8LRSN                1
 GAP=253        0.64       4.7     5.3  6.9  0.3070E+01  0.1039E+02 -0.5504E+01E
 Epicentro: LOS SANTOS - SANTANDER                                             3
 *ZAR                                                                          3
 ACTION:UPD 17-03-29 16:52 OP:lp   STATUS:               ID:20160719015050 L   I
 OLDACT:DUP 16-07-19 14:33 OP:ar   STATUS:               ID:20160719014760d    3
 2016-07-19-0147-59S.COL___334                                                 6
 STAT SP IPHASW D HRMM SECON CODA AMPLIT PERI AZIMU VELO AIN AR TRES W  DIS CAZ7
 BAR2 EZ EP        151 10.82                             173   -0.0510 18.6 195 
 BAR2 EZ ES        151 26.87                             173   -0.2110 18.6 195 
 BRR  HZ EP        151 12.61                             153    0.0910 74.3 302 
 BRR  HN ES   2    151 30.99                             153    0.98 5 74.3 302 
 BRR  HZ I         151 37.68         6.4 0.40            150           74.3 302 
 SPBC HZ EP   2    151 19.66                             132    0.58 5  160 220 
 SPBC HN ES        151 41.69                             132   -0.00 9  160 220 
 SPBC HZ I         151 46.74         5.9 0.24            135            160 220 
 ZAR  HZ EP   2    151 23.24                             124   -0.24 4  207 293 
 ZAR  HN ES        151 49.30                             124   -0.22 8  207 293 
 ZAR  HZ I         151 54.77         9.2 0.32            126            207 293 
                                                                                
