 2010  819 0957 26.6 L   6.768 -73.085138.4  RSN 13 0.5 2.3LRSN                1
 GAP=131        1.18       5.2     7.2  7.9 -0.1675E+02  0.3254E+01  0.8720E+00E
 Epicentro: LOS SANTOS - SANTANDER                                             3
 ACTION:UP  10-09-07 10:56 OP:vdl  STATUS:               ID:20100819095726 L   I
 2010-08-19-0955-24S.COL___117                                                 6
 STAT SP IPHASW D HRMM SECON CODA AMPLIT PERI AZIMU VELO SNR AR TRES W  DIS CAZ7
 BAR2 SZ IP        957 45.41                             170     0.010   22 209 
 BAR2 SZ ES   1    957 59.19                             170    -0.8 7   22 209 
 BAR2 SZ I         958  1.93        35.1 0.38                            22 209 
 BTL  SZ IP        957 45.52                             169     0.110   26 309 
 GIR2 SZ EP        957 45.47                             164    -0.110   36 341 
 BRR  HZ IP     D  957 47.28                             148    -0.210   79 298 
 BRR  HE ES   1    958  3.38                             148    -0.3 7   79 298 
 BRR  HZ I         958  5.70        44.7 0.15                            79 298 
 RUS  HZ EP   1    957 49.47                             143     0.1 7   97 180 
 RUS  HN ES   1    958  7.44                             143     0.3 7   97 180 
 RUS  HZ I         958  9.56        36.7 0.55                            97 180 
 GUE  SZ EP   1    957 50.39                             137    -0.5 7  119   9 
 GRA  SZ EP        957 52.25                             135     0.910  127  14 
 GRA  SZ ES   1    958 11.54                             135     0.9 7  127  14 
 GRA  SZ I         958 13.07        33.1 0.34                           127  14 
 OCA  SZ EP   1    957 54.21                             127    -0.6 7  165 351 
 OCA  SZ I         958 17.11        19.6 0.10                           165 351 
 CHI  HZ EP   1    958  4.03                             116     0.3 6  247 197 
 CHI  HZ I         958 36.60         8.8 0.39                           247 197 
 HEL  HZ EP   1    958  6.74                             113    -0.4 6  278 257 
 HEL  HN ES   1    958 39.50                             113     0.8 6  278 257 
 HEL  HZ I         958 42.95        13.4 0.44                           278 257 
 RREF HZ EP   1    958 12.71                             109    -0.1 5  325 231 
 RREF HN ES   1    958 48.75                             109    -0.1 5  325 231 
 RREF HZ I         958 53.55        13.4 0.31                           325 231 
 SDV  BZ IP        958 15.24                             107    -0.8 6  358  49 
 SDV  BZ I         958 15.82         5.5 0.31                           358  49 
 PRA  HZ EP   1    958 20.24                             105     0.3 4  392 211 
 PRA  HN ES   1    959  1.47                             105    -0.1 4  392 211 
 PRA  HZ I         959  4.57         7.4 0.16                           392 211 
                                                                                
