 2017  919 0132 20.3 L   6.556 -73.492111.5  RSN 11 0.4 1.6LRSN                1
 GAP= 67        0.80       2.6     2.1  4.5 -0.4676E+00  0.1083E+01  0.1715E+01E
 Epicentro: EL CARMEN - SANTANDER                                              3
 ACTION:UPD 17-10-05 19:14 OP:rebc STATUS:               ID:20170919013220 L   I
 OLDACT:UP  17-09-19 14:21 OP:and  STATUS:               ID:20170919012736     3
 OLDACT:UP  17-09-19 14:21 OP:and  STATUS:               ID:20170919012736     3
 OLDACT:UP  17-09-19 14:18 OP:and  STATUS:               ID:20170919012736     3
 OLDACT:UP  17-09-19 14:18 OP:and  STATUS:               ID:20170919012736     3
 OLDACT:UP  17-09-19 14:16 OP:and  STATUS:               ID:20170919012736     3
 OLDACT:REG 17-09-19 12:39 OP:and  STATUS:               ID:20170919012736     3
 2017-09-19-0128-00M.COL___447                                                 6
 STAT SP IPHASW D HRMM SECON CODA AMPLIT PERI AZIMU VELO AIN AR TRES W  DIS CAZ7
 BAR2 EZ IP     C  132 36.32                             162    0.1510 34.5  83 
 BAR2 EZ ES        132 48.44                             162   -0.1210 34.5  83 
 BRR  HZ EP        132 37.06                             147   -0.4110 65.6 338 
 BRR  HN ES        132 50.85                             147   -0.0310 65.6 338 
 BRR  HZ I         132 58.09        11.5 0.32            150           65.6 338 
 RUS  HZ EP        132 39.96                             140    0.3010 86.2 148 
 RUS  HN ES        132 55.11                             140    0.3410 86.2 148 
 RUS  HZ I         132 56.49         5.1 0.37            145           86.2 148 
 SPBC HZ EP   2    132 41.36                             129   -0.58 5  119 213 
 SPBC HN ES        132 58.32                             129   -0.5110  119 213 
 SPBC HZ I         133  3.69         8.6 0.24            133            119 213 
 PAM  EZ EP        132 42.91                             129    0.0110  123  45 
 PAM  EN ES        133  0.37                             129   -0.1710  123  45 
 PAM  EZ I         133  1.79         2.7 0.16            134            123  45 
 YPLC HZ IP     D  132 48.33                             117    0.39 9  178 136 
 YPLC HE ES   3    133 11.10                             117    1.58 2  178 136 
 YPLC HZ I         133 11.56        13.0 0.32            122            178 136 
 ZAR  HZ EP   3    132 50.27                             117    1.84 2  183 305 
 ZAR  HN ES        133 10.74                             117    0.35 9  183 305 
 ZAR  HZ I         133 12.86         5.9 0.11            120            183 305 
 NOR  HZ EP        132 48.59                             116   -0.42 9  188 234 
 NOR  HN ES        133 11.70                             116    0.28 9  188 234 
 NOR  HZ I         133 13.28         4.9 0.14            119            188 234 
 TAM  HZ EP        132 49.16                             116    0.07 9  189  94 
 TAM  HN ES        133 11.47                             116   -0.09 9  189  94 
 HEL  HZ EP        132 53.82                             111   -0.19 8  229 260 
 HEL  HN ES   2    133 21.21                             111    0.89 4  229 260 
 HEL  HZ I         133 24.92         2.6 0.50            114            229 260 
 PTGC HZ EP   2    133  0.95                             105   -0.98 4  301 150 
                                                                                
