 2015  219 0449 25.3 L   6.791 -73.177138.0  RSN  7 0.3 1.6LRSN                1
 GAP=133        0.66       2.6     3.5  4.9 -0.3591E+01  0.7798E+01 -0.3290E+01E
 Epicentro: LOS SANTOS - SANTANDER                                             3
 ACTION:UPD 15-04-30 21:27 OP:nd   STATUS:               ID:20150219044925 L   I
 OLDACT:REG 15-02-19 12:29 OP:mh   STATUS:               ID:20150219044749     3
 2015-02-19-0447-49M.COL___299                                                 6
 STAT SP IPHASW D HRMM SECON CODA AMPLIT PERI AZIMU VELO AIN AR TRES W  DIS CAZ7
 BAR2 EZ EP        449 43.72                             170   -0.2510 22.0 181 
 BAR2 EZ ES        449 58.26                             170   -0.2710 22.0 181 
 PAM  SZ EP        449 47.08                             148    0.1910 80.4  41 
 PAM  SN ES        450  3.84                             148    0.1110 80.4  41 
 PAM  SZ I         450  6.09         3.9 0.64            152           80.4  41 
 RUS  HZ EP        449 48.04                             142   -0.2010 99.9 174 
 RUS  HN ES   1    450  6.45                             142    0.31 7 99.9 174 
 RUS  HZ I         450  7.91         4.3 0.24            146           99.9 174 
 PTB  HZ EP        449 50.85                             131   -0.46 9  144 259 
 PTB  HN ES   1    450 11.64                             131    0.04 7  144 259 
 PTB  HZ I         450 14.51         5.2 0.38            132            144 259 
 SPBC HZ EP        449 53.35                             128    0.42 9  160 218 
 SPBC HN ES        450 14.70                             128    0.22 9  160 218 
 SPBC HZ I         450 19.62         5.9 0.18            130            160 218 
 NOR  HE ES        450 27.46                             117    0.01 8  231 234 
 SML  HZ EP        450  1.31                             116   -0.13 8  243 336 
 SML  HN ES        450 29.90                             116    0.26 8  243 336 
 SML  HZ I         450 32.90         4.7 0.10            118            243 336 
                                                                                
