 2017  719 0449  9.4 L   6.811 -73.178136.0  RSN 14 0.5 2.3LRSN                1
 GAP=132        1.01       4.7     4.6  6.2 -0.7637E+01  0.1460E+02 -0.2749E+01E
 Epicentro: ZAPATOCA - SANTANDER                                               3
 ACTION:UPD 17-08-30 15:34 OP:rebc STATUS:               ID:20170719044909 L   I
 OLDACT:UP  17-07-19 15:58 OP:dnl  STATUS:               ID:20170719044740     3
 OLDACT:REG 17-07-19 13:06 OP:dnl  STATUS:               ID:20170719044740     3
 2017-07-19-0448-00M.COL___380                                                 6
 STAT SP IPHASW D HRMM SECON CODA AMPLIT PERI AZIMU VELO AIN AR TRES W  DIS CAZ7
 BAR2 EZ IP     C  449 27.75                             169   -0.1410 24.2 181 
 BAR2 EZ ES        449 42.52                             169    0.2210 24.2 181 
 BAR2 EZ I         449 43.53        93.8 0.18            168           24.2 181 
 PAM  EZ EP     D  449 30.68                             148   -0.0110 78.8  42 
 PAM  EN ES        449 47.53                             148    0.2510 78.8  42 
 PAM  EZ I         449 49.96        41.7 0.62            155           78.8  42 
 RUS  HZ EP        449 31.73                             141   -0.6010  102 174 
 RUS  HN ES        449 50.36                             141    0.1610  102 174 
 RUS  HZ I         449 51.82        36.6 0.38            143            102 174 
 PTB  HZ EP        449 34.24                             130   -1.05 9  144 258 
 PTB  HN ES        449 55.16                             130   -0.32 9  144 258 
 PTB  HZ I         449 58.38        26.5 0.48            130            144 258 
 SPBC HZ EP        449 36.65                             127   -0.40 9  162 218 
 SPBC HN ES        449 58.70                             127    0.09 9  162 218 
 SPBC HZ I         450  4.42        30.7 0.12            128            162 218 
 ZAR  HZ EP        449 41.25                             121    0.41 9  200 292 
 ZAR  HN ES   4    450  6.61                             121    1.25 0  200 292 
 ZAR  HZ I         450 11.57        25.9 0.40            122            200 292 
 ROSC BZ EP        449 47.72                             115    0.79 8  252 210 
 ROSC BN ES   4    450 14.41                             115   -1.78 0  252 210 
 ROSC BZ I         450 24.88        15.5 0.35            116            252 210 
 HEL  HZ EP   4    449 49.89                             113    1.10 0  269 255 
 HEL  HN ES        450 19.79                             113    0.29 8  269 255 
 HEL  HZ I         450 26.74        12.7 0.30            114            269 255 
 URE  HZ EP   3    449 49.48                             112   -0.12 2  280 292 
 URE  HN ES   4    450 19.49                             112   -1.45 0  280 292 
 URE  HZ I         450 21.32        14.0 0.40            113            280 292 
 GUY2CHZ EP        449 52.82                             111    0.49 7  299 234 
 GUY2CHN ES   2    450 26.65                             111    0.85 4  299 234 
 GUY2CHZ I         450 32.95        10.1 0.28                           299 234 
 PTGC HZ EP   4    449 51.05                             109   -2.08 0  311 158 
 PTGC HN ES   4    450 23.97                             109   -3.25 0  311 158 
 PTGC HZ I         450 26.56         9.7 0.24            112            311 158 
 CBOC HZ EP        449 56.28                             108    0.70 7  331 252 
 CBOC HN ES   4    450 32.72                             108    1.12 0  331 252 
 CBOC HZ I         450 35.78         4.8 0.50            110            331 252 
 DBB  EZ EP   2    449 56.04                             108   -0.04 3  336 274 
 DBB  EN ES   4    450 30.67                             108   -1.81 0  336 274 
 DBB  EZ I         450 36.63         7.9 0.18            109            336 274 
 PAL  HZ EP        450  3.88                             104   -0.09 6  403 239 
 PAL  HN ES        450 46.46                             104   -0.07 6  403 239 
 PAL  HZ I         450 52.56         5.1 0.32            106            403 239 
                                                                                
