 2014  219 0816 13.0 L   6.098 -73.509125.1  RSN  7 0.5 1.5LRSN                1
 GAP= 82        1.10       5.8     5.1  9.9 -0.3154E+01  0.2463E+02 -0.2610E+01E
 Epicentro: SAN BENITO - SANTANDER                                             3
 ACTION:UPD 14-03-10 08:11 OP:ep   STATUS:               ID:20140219081613 L   I
 OLDACT:REG 14-02-19 09:19 OP:fm   STATUS:               ID:20140219081000     3
 2014-02-19-0810-00M.COL___212                                                 6
 STAT SP IPHASW D HRMM SECON CODA AMPLIT PERI AZIMU VELO AIN AR TRES W  DIS CAZ7
 RUS  HZ EP        816 31.67                             156    0.0710 52.4 116 
 RUS  HN ES        816 46.36                             156    0.2510 52.4 116 
 RUS  HZ I         816 49.23         2.9 0.39            159           52.4 116 
 BAR2 SZ EP   1    816 32.57                             151    0.62 7 65.5  33 
 BAR2 SZ ES        816 46.38                             151   -0.3510 65.5  33 
 BAR2 SZ I         816 48.97        18.4 0.31            155           65.5  33 
 SPBC HN ES   1    816 47.28                             145   -0.68 7 79.5 232 
 PTB  HZ EP        816 34.52                             134   -0.8710  116 295 
 PTB  HN ES   1    816 53.64                             134    0.80 7  116 295 
 PTB  HZ I         816 54.09         3.9 0.14            137            116 295 
 NOR  HZ EP        816 39.93                             124    0.11 9  162 249 
 NOR  HN ES        817  0.90                             124    0.17 9  162 249 
 NOR  HZ I         817  4.22         6.2 0.19            127            162 249 
 CHI  HN ES   2    817  2.38                             124    0.36 5  164 189 
 ZAR  HN ES   1    817 10.92                             116    0.38 6  214 316 
 SML  HN ES   4    817 30.23                             108    1.38 0  305 348 
                                                                                
