 2012  319 0331  5.5 L   6.781 -73.126152.8  RSN  6 0.3 1.7LRSN                1
 GAP=140        0.72       5.6     5.6  6.7  0.6923E+01  0.5669E+01 -0.4082E+01E
 ACTION:UP  12-03-31 23:20 OP:EP   STATUS:               ID:20120319033105 L   I
 2012-03-19-0330-00M.COL___202                                                 6
 STAT SP IPHASW D HRMM SECON CODA AMPLIT PERI AZIMU VELO SNR AR TRES W  DIS CAZ7
 BAR2 SZ EP        331 25.88                             172    -0.110   22 197 
 BAR2 SZ I         331 26.22         9.0 0.26                            22 197 
 BAR2 SZ ES   1    331 41.65                             172    -0.2 7   22 197 
 BRR  HZ EP   1    331 27.82                             153     0.2 7   74 299 
 BRR  HZ I         331 28.01        12.4 0.16                            74 299 
 BRR  HN ES   1    331 45.36                             153     0.6 7   74 299 
 PAM  SZ EP   1    331 28.83                             152     0.3 7   78  37 
 PAM  SN ES   2    331 45.71                             152    -0.7 5   78  37 
 RUS  HZ EP   1    331 29.67                             146    -0.1 7   98 177 
 RUS  HE ES   1    331 48.95                             146     0.2 7   98 177 
 RUS  HZ I         331 51.47         2.8 0.20                            98 177 
 PTB  HZ EP   1    331 32.95                             133    -0.3 7  149 260 
 PTB  HN ES   2    331 54.30                             133    -0.5 5  149 260 
 PTB  HZ I         331 59.80         5.3 0.48                           149 260 
 ZAR  HZ EP   1    331 38.54                             124    -0.2 6  207 292 
 ZAR  HE ES   2    332  4.50                             124    -0.1 4  207 292 
 ZAR  HZ I         332 10.41         9.3 0.33                           207 292 
                                                                                
