 2013  819 0951 43.7 L   6.670 -73.413127.8  RSN  5 0.4 1.7LRSN                1
 GAP=106        1.01       5.6     5.6  7.3  0.9419E+01  0.1694E+01 -0.6029E+01E
 Epicentro: EL CARMEN DE CHUCURI - SANTANDER                                   3
 ACTION:UPD 14-01-14 09:04 OP:ep   STATUS:               ID:20130819095143 L   I
 OLDACT:UP  13-08-19 10:58 OP:cam  STATUS:               ID:20130819094959     3
 OLDACT:REG 13-08-19 08:03 OP:cam  STATUS:               ID:20130819094959     3
 2013-08-19-0949-59M.COL___269                                                 6
 STAT SP IPHASW D HRMM SECON CODA AMPLIT PERI AZIMU VELO AIN AR TRES W  DIS CAZ7
 BAR2 SZ EP        952  1.21                             167   -0.0510 27.0 109 
 BAR2 SZ ES        952 14.76                             167   -0.2010 27.0 109 
 BAR2 SZ I         952 15.52        29.8 0.19            169           27.0 109 
 BRR  HZ EP        952  2.38                             154    0.1910 58.5 326 
 BRR  HN ES        952 17.12                             154    0.5110 58.5 326 
 BRR  HZ I         952 17.46        11.4 0.14            155           58.5 326 
 RUS  HZ EP        952  5.42                             142    0.2410 93.4 157 
 RUS  HN ES        952 21.83                             142   -0.1010 93.4 157 
 RUS  HZ I         952 24.33         5.8 0.32            142           93.4 157 
 PTB  HZ EP        952  6.86                             135    0.4910  116 263 
 PTB  HN ES        952 23.45                             135   -0.6010  116 263 
 PTB  HZ I         952 26.60         6.2 0.10            135            116 263 
 OCA  HZ EP        952 11.43                             123   -0.61 9  174   3 
 OCA  HN ES   4    952 32.16                             123   -1.99 0  174   3 
 OCA  HZ I         952 33.73         9.0 0.32            125            174   3 
 ZAR  HZ EP   4    952 14.14                             121    1.26 0  184 300 
                                                                                
