 2017  419 0404  6.6 L   6.794 -73.107151.1  RSN  4 0.3 1.3LRSN                1
 GAP=241        0.69       5.8     5.7  6.0  0.1449E+02  0.3966E+01 -0.3181E+01E
 Epicentro: LOS SANTOS - SANTANDER                                             3
 ACTION:UPD 17-05-30 21:14 OP:jn   STATUS:               ID:20170419040406 L   I
 OLDACT:DUP 17-04-19 14:46 OP:dnl  STATUS:               ID:20170419035742d    3
 2017-04-19-0358-00M.COL___368                                                 6
 STAT SP IPHASW D HRMM SECON CODA AMPLIT PERI AZIMU VELO AIN AR TRES W  DIS CAZ7
 BAR2 EZ EP        4 4 26.99                             171    0.0910 23.9 201 
 BAR2 EZ ES        4 4 42.26                             171   -0.4610 23.9 201 
 BAR2 EZ I         4 4 43.05         7.4 0.42            172           23.9 201 
 BRR  HZ EP        4 4 28.69                             152    0.1210 75.3 297 
 BRR  HE ES        4 4 45.96                             152    0.2610 75.3 297 
 BRR  HZ I         4 4 50.41         6.1 0.56            152           75.3 297 
 RUS  HZ EP   2    4 4 31.05                             145    0.21 5 99.8 179 
 RUS  HE ES        4 4 49.97                             145    0.2410 99.8 179 
 RUS  HZ I         4 4 51.71         1.2 0.42            148           99.8 179 
 PTB  HZ EP        4 4 34.00                             132   -0.39 9  152 259 
 PTB  HN ES        4 4 56.11                             132    0.05 9  152 259 
 PTB  HZ I         4 4 57.35         2.2 0.14            134            152 259 
                                                                                
