 2016  819 0435 51.6 L   6.830 -73.149150.6  RSN 22 0.6 2.4LRSN                1
 GAP=117        1.28       3.3     4.0  5.6 -0.1564E+01  0.5298E+01  0.1501E+01E
 Epicentro: LOS SANTOS - SANTANDER                                             3
 ACTION:UPD 16-10-29 15:36 OP:rebc STATUS:               ID:20160819043551 L   I
 OLDACT:REG 16-08-19 12:49 OP:ak   STATUS:               ID:20160819042759     3
 2016-08-19-0427-59S.COL___343                                                 6
 STAT SP IPHASW D HRMM SECON CODA AMPLIT PERI AZIMU VELO AIN AR TRES W  DIS CAZ7
 BAR2 EZ IP     C  436 12.14                             170    0.2310 26.5 188 
 BAR2 EZ ES        436 27.34                             170   -0.3810 26.5 188 
 BAR2 EZ I         436 28.64        77.1 0.28                          26.5 188 
 BRR  HZ IP     C  436 13.86                             154    0.6610 69.4 296 
 BRR  HN ES        436 30.75                             154    0.7210 69.4 296 
 BRR  HZ I         436 34.95        34.7 0.28                          69.4 296 
 PAM  EZ EP        436 15.04                             152    0.8110 75.1  41 
 PAM  EN ES        436 32.20                             152    0.3410 75.1  41 
 PAM  EZ I         436 39.66        16.1 0.40                          75.1  41 
 RUS  HZ EP        436 15.96                             144   -0.1310  104 176 
 RUS  HN ES        436 34.60                             144   -0.5710  104 176 
 RUS  HZ I         436 36.14        24.0 0.26                           104 176 
 PTB  HZ EP        436 18.87                             133   -0.15 9  148 258 
 PTB  HN ES        436 39.71                             133   -0.68 9  148 258 
 PTB  HZ I         436 46.55        14.4 0.12                           148 258 
 SPBC HZ EP        436 20.98                             130    0.26 9  166 218 
 SPBC HN ES        436 42.81                             130   -0.60 9  166 218 
 SPBC HZ I         436 47.93        35.8 0.20                           166 218 
 ZAR  HZ EP        436 24.91                             124    0.68 9  203 291 
 ZAR  HN ES        436 49.90                             124    0.23 9  203 291 
 ZAR  HZ I         436 55.46        26.4 0.42                           203 291 
 NOR  HZ EP        436 28.32                             119    0.51 8  236 234 
 NOR  HN ES        436 55.15                             119   -0.89 8  236 234 
 NOR  HZ I         437  3.88        14.2 0.14                           236 234 
 CHI  HZ EP        436 30.44                             118    0.51 8  252 195 
 CHI  HN ES        436 59.50                             118   -0.30 8  252 195 
 CHI  HZ I         437  3.38        11.6 0.46                           252 195 
 ROSC BZ EP   9    436 32.11                             117    1.81 0  255 211 
 ROSC BN ES        437  2.77                                    0.49 8  255 211 
 ROSC BZ I         437  6.73        31.9 0.40                           255 211 
 HEL  HZ EP   2    436 32.78                             116    0.64 4  273 255 
 HEL  HN ES        437  4.02                             116    0.28 8  273 255 
 HEL  HZ I         437 11.28         5.2 0.22                           273 255 
 URE  HZ EP        436 32.13                             115   -0.63 7  282 291 
 URE  HN ES        437  4.68                             115   -0.17 7  282 291 
 URE  HZ I         437 13.49        13.0 0.24                           282 291 
 GUY2CHZ EP        436 36.40                             113    0.76 7  303 234 
 GUY2CHE ES        437 10.55                             113    0.58 7  303 234 
 GUY2CHZ I         437 18.31        10.3 0.34                           303 234 
 VIL  EZ EP        436 35.61                             113   -0.01 7  307 191 
 VIL  EZ I         437 14.72        15.7 0.24                           307 191 
 PTGC HZ EP   1    436 35.20                             112   -0.86 5  312 159 
 PTGC HE ES   4    437  8.65                             112   -2.07 0  312 159 
 LL6C HZ EP        436 36.59                             111   -0.57 7  322 358 
 LL6C HE ES        437 10.52                             111   -2.16 7  322 358 
 LL6C HZ I         437 18.14        18.2 0.92                           322 358 
 CBOC HZ EP        436 39.29                             111    0.47 7  334 252 
 CBOC HE ES        437 15.19                             111   -0.44 7  334 252 
 ANIL HZ EP   2    436 42.15                             109    0.29 3  359 224 
 ANIL HN ES   4    437 22.91                             109    1.87 0  359 224 
 PRA  HZ EP        436 45.25                             107   -0.38 6  395 209 
 PRA  HN ES        437 27.67                             107   -0.08 6  395 209 
 PRA  HZ I         437 34.35        12.1 0.34                           395 209 
 SJC  HZ EP   9    436 45.89                             107   -1.11 0  406 327 
 SJC  HN ES        437 28.77                                   -0.32 6  406 327 
 PAL  HZ EP   2    436 47.17                             106    0.06 3  407 239 
 PAL  HE ES        437 30.13                             106   -0.26 6  407 239 
 PAL  HZ I         437 36.88         2.5 0.20                           407 239 
 CRJC HZ EP   9    436 51.68                             104   -2.20 0  464   4 
 CRJC HE ES        437 39.84                                   -0.40 5  464   4 
 CRJC HZ I         437 47.57         7.4 0.31                           464   4 
                                                                                
