 2014 1119 0741 54.4 L   6.514 -73.650110.3  RSN  5 0.4 1.9LRSN                1
 GAP=174        0.96       8.0     4.3  8.1 -0.1886E+02  0.1020E+02  0.1712E+02E
 Epicentro: SANTA HELENA DEL OPON - SANTANDER                                  3
 ACTION:UPD 14-12-19 15:44 OP:nd   STATUS:               ID:20141119074154 L   I
 OLDACT:REG 14-11-19 14:11 OP:fm   STATUS:               ID:20141119073747     3
 2014-11-19-0737-47M.COL___286                                                 6
 STAT SP IPHASW D HRMM SECON CODA AMPLIT PERI AZIMU VELO AIN AR TRES W  DIS CAZ7
 BAR2 SZ EP        742 11.32                             153    0.2810 52.4  80 
 BAR2 SZ ES        742 23.87                             153   -0.1210 52.4  80 
 BRR  HZ EP        742 11.47                             147   -0.0610 66.0 354 
 BRR  HN ES        742 24.77                             147   -0.0910 66.0 354 
 BRR  HZ I         742 30.32        19.3 0.44            144           66.0 354 
 PAM  SZ EP        742 18.62                             125    0.09 9  139  49 
 PAM  SN ES        742 37.18                             125   -0.14 9  139  49 
 PAM  SZ I         742 38.66        14.8 0.28            128            139  49 
 HEL  HZ EP        742 26.73                             113    0.65 8  211 260 
 HEL  HN ES        742 51.33                             113    0.56 8  211 260 
 HEL  HZ I         742 54.55        13.4 0.34            114            211 260 
 CBOC HZ EP        742 31.90                             107   -0.86 8  271 255 
 CBOC HN ES        743  2.04                             107   -0.61 8  271 255 
 CBOC HZ I         743 10.77         2.7 0.40            108            271 255 
                                                                                
