 2010  119 0135 27.4 L   6.780 -72.942146.0  RSN  7 0.5 2.1LRSN                1
 GAP=204        1.05       4.2    13.2  7.5 -0.1366E+02  0.2819E+02  0.1023E+01E
 Epicentro: CEPITA - SANTANDER                                                 3
 ACTION:UP  10-08-24 09:44 OP:vdl  STATUS:               ID:20100119013527 L   I
 2010-01-19-0134-58S.COL___096                                                 6
 STAT SP IPHASW D HRMM SECON CODA AMPLIT PERI AZIMU VELO SNR AR TRES W  DIS CAZ7
 BAR2 SZ EP        135 47.31                             166     0.010   34 232 
 BAR2 SZ ES   1    136  2.57                             166    -0.2 7   34 232 
 GIR2 SZ EP        135 47.46                             163     0.010   43 320 
 GIR2 SZ ES   1    136  3.45                             163     0.4 7   43 320 
 RUS  BZ EP        135 51.19                             144     0.110   99 189 
 RUS  BN ES        136  9.88                             144     0.410   99 189 
 RUS  BZ I         136 11.17        15.7 0.20                            99 189 
 OCA  SZ EP        135 55.87                             129    -0.4 9  167 346 
 OCA  SZ ES   1    136 18.67                             129    -0.2 7  167 346 
 CHI  HZ EP        136  5.30                             117    -0.3 8  253 200 
 CHI  HE ES        136 34.51                             117    -0.9 8  253 200 
 CHI  HZ I         136 38.25         9.3 0.54                           253 200 
 RREF BZ EP        136 16.53                             110     1.2 7  338 232 
 RREF BE ES   1    136 52.55                             110    -0.2 5  338 232 
 RREF BZ I         136 59.19         6.0 0.41                           338 232 
 TOL  SZ EP   1    136 17.53                             109     0.2 5  358 227 
                                                                                
