 2010  119 0816 20.5 L   5.886 -73.636125.9  RSN  8 0.3 1.8LRSN                1
 GAP=127        0.63       2.8     4.8  6.5 -0.8967E+01  0.1717E+02 -0.4529E+01E
 Epicentro: PUENTE NACIONAL - SANTANDER                                        3
 ACTION:UP  10-08-24 09:44 OP:vdl  STATUS:               ID:20100119081620 L   I
 2010-01-19-0811-36S.COL___096                                                 6
 STAT SP IPHASW D HRMM SECON CODA AMPLIT PERI AZIMU VELO SNR AR TRES W  DIS CAZ7
 RUS  BZ EP        816 39.72                             153     0.110   61  89 
 RUS  BN ES   1    816 54.61                             153     0.0 7   61  89 
 RUS  BZ I         816 55.66        12.0 0.93                            61  89 
 BAR2 SZ EP        816 41.51                             141     0.110   93  33 
 BAR2 SZ ES   1    816 57.60                             141    -0.1 7   93  33 
 CHI  HZ EP        816 45.55                             129    -0.1 9  139 184 
 CHI  HN ES   1    817  5.39                             129     0.1 7  139 184 
 CHI  HZ I         817  9.55         6.0 0.57                           139 184 
 GIR2 SZ EP        816 45.54                             129     0.1 9  141  20 
 GIR2 SZ ES   1    817  4.43                             129    -0.4 7  141  20 
 RREF BN ES   1    817 21.14                             116     0.8 6  219 240 
 RREF BZ I         817 24.39         8.6 0.38                           219 240 
 TOL  SZ EP   1    816 55.30                             114    -0.3 6  236 232 
 TOL  SZ ES   1    817 22.30                             114    -0.7 6  236 232 
 OCA  SZ EP   1    816 58.59                             111     0.2 6  263   8 
 OCA  SZ ES   1    817 28.09                             111     0.1 6  263   8 
 PRA  HZ EP        816 59.82                             110    -0.1 7  277 210 
 PRA  HN ES   1    817 30.91                             110     0.2 6  277 210 
                                                                                
