 2010  519 0415 45.5 L   6.800 -73.144139.1  RSN 15 0.5 3.7LRSN                1
 GAP=170        1.10       4.8     8.0  8.6 -0.2191E+02  0.2319E+02  0.4344E+01E
 Epicentro: LOS SANTOS - SANTANDER                                             3
 ACTION:UP  10-08-24 10:05 OP:vdl  STATUS:               ID:20100519041545 L   I
 2010-05-19-0414-04S.COL___108                                                 6
 STAT SP IPHASW D HRMM SECON CODA AMPLIT PERI AZIMU VELO SNR AR TRES W  DIS CAZ7
 BAR2 SZ IP        416  4.10                             170    -0.210   23 191 
 BAR2 SZ ES   1    416 18.75                             170    -0.2 7   23 191 
 BRR  HZ IP        416  6.81                             152     0.910   71 298 
 BRI  SZ IP        416  8.76                             140     0.010  108  21 
 BRI  SZ ES   2    416 26.36                             140    -0.5 5  108  21 
 GUE  SZ EP        416  9.06                             138    -0.510  116  12 
 GUE  SZ ES   2    416 28.26                             138    -0.1 5  116  12 
 GRA  SZ IP        416 11.09                             136     1.010  126  17 
 GRA  SZ ES   1    416 29.07                             136    -0.3 7  126  17 
 OCA  SZ IP        416 12.74                             128    -0.5 9  160 353 
 OCA  SZ ES   2    416 34.74                             128    -0.2 5  160 353 
 OCA  SZ I         416 37.89       750.9 0.35                           160 353 
 CHI  HZ EP        416 22.36                             116    -0.4 8  249 195 
 CHI  HN ES   2    416 51.79                             116    -0.1 4  249 195 
 CHI  HZ I         416 54.82       173.0 0.31                           249 195 
 ROSC BZ EP        416 23.99                             115     0.8 8  253 211 
 ROSC BE ES   2    416 52.31                             115    -0.4 4  253 211 
 ROSC BZ I         417  0.49       240.9 0.45                           253 211 
 CVER SZ EP   1    416 25.69                             114     0.2 6  272 202 
 HEL  HZ EP   2    416 25.20                             114    -0.2 4  272 256 
 HEL  HE ES   1    416 56.28                             114    -0.2 6  272 256 
 HEL  HZ I         417  3.13       190.9 0.51                           272 256 
 RREF BZ EP   2    416 30.56                             110    -0.8 3  322 229 
 RREF BE ES   2    417  8.10                             110     1.0 3  322 229 
 RREF BZ I         417 14.58       225.4 0.42                           322 229 
 DBB  SZ EP        416 32.40                             108    -0.3 7  340 274 
 ANIL BZ EP   1    416 35.03                             107     0.0 5  357 225 
 ANIL BE ES   1    417 13.66                             107     0.0 5  357 225 
 ANIL BZ I         417 21.34       368.1 0.43                           357 225 
 PRA  HZ EP   1    416 38.00                             105    -0.8 4  392 210 
 PRA  HE ES   2    417 19.92                             105    -0.4 3  392 210 
 PRA  HZ I         417 26.02       203.9 0.36                           392 210 
 SOL  SZ EP        416 48.18                             102    -0.5 5  476 263 
                                                                                
