 2017  919 0301 47.3 L   6.782 -73.057142.0  RSN  5 0.4 1.1LRSN                1
 GAP=149        0.67       3.8     5.4  7.4 -0.2608E+01 -0.5478E+01  0.2017E+01E
 Epicentro: LOS SANTOS - SANTANDER                                             3
 ACTION:UPD 17-10-05 19:14 OP:rebc STATUS:               ID:20170919030147 L   I
 OLDACT:UP  17-09-19 15:14 OP:and  STATUS:               ID:20170919025736     3
 OLDACT:UP  17-09-19 15:13 OP:and  STATUS:               ID:20170919025736     3
 OLDACT:REG 17-09-19 12:45 OP:and  STATUS:               ID:20170919025736     3
 2017-09-19-0258-00M.COL___444                                                 6
 STAT SP IPHASW D HRMM SECON CODA AMPLIT PERI AZIMU VELO AIN AR TRES W  DIS CAZ7
 BAR2 EZ EP        3 2  6.55                             169   -0.0110 25.2 213 
 BAR2 EZ ES   2    3 2 22.07                             169    0.52 5 25.2 213 
 BAR2 EZ I         3 2 24.15         4.1 0.34            169           25.2 213 
 PAM  EZ IP     C  3 2  9.30                             151    0.3910 73.2  33 
 PAM  EN ES        3 2 25.36                             151   -0.3710 73.2  33 
 BRR  HZ EP   2    3 2  8.35                             148   -0.32 5 80.8 296 
 BRR  HN ES        3 2 25.34                             148    0.0410 80.8 296 
 RUS  HZ EP   2    3 2 10.85                             143    0.29 5 98.4 182 
 RUS  HN ES        3 2 28.56                             143   -0.1210 98.4 182 
 RUS  HZ I         3 2 30.39         1.4 0.28            144           98.4 182 
 NOR  HE ES   3    3 2 50.29                             116   -1.61 2  242 236 
                                                                                
