 2011  719 0313  7.1 L   6.774 -73.136148.3  RSN  4 0.1 1.7LRSN                1
 GAP=184        0.38       5.3     9.8  4.8  0.4234E+02 -0.2177E+02 -0.1258E+02E
 Epicentro: LOS SANTOS - SANTANDER                                             3
 ACTION:UPD 12-07-25 14:01 OP:epov STATUS:               ID:20110719031307 L   I
 2011-07-19-0307-31S.COL___143                                                 6
 STAT SP IPHASW D HRMM SECON CODA AMPLIT PERI AZIMU VELO AIN AR TRES W  DIS CAZ7
 BAR2 SZ EP   1    313 26.90                             171   -0.07 7 20.8 194 
 BAR2 SZ ES   1    313 42.38                             171   -0.10 7 20.8 194 
 BAR2 SZ I         313 43.34        12.7 0.19                          20.8 194 
 BRR  HZ EP        313 28.72                             152    0.0810 73.5 300 
 BRR  HE ES   1    313 45.39                             152   -0.06 7 73.5 300 
 RUS  HZ EP   1    313 30.68                             145   -0.20 7 97.7 177 
 RUS  HN ES   1    313 49.66                             145    0.22 7 97.7 177 
 RUS  HZ I         313 50.79         5.6 0.34                          97.7 177 
 OCA  SZ EP   2    313 36.03                             130    0.16 5  163 353 
 OCA  SZ I         314  4.09         6.6 0.28                           163 353 
                                                                                
