 2013  719 0432 29.2 L   7.460 -73.148134.8  RSN  8 0.4 2.1LRSN                1
 GAP=195        0.87       3.3     5.2  6.7 -0.6258E+00  0.4453E+01 -0.6063E+00E
 Epicentro: EL PLAYON - SANTANDER                                              3
 ACTION:UPD 13-08-12 10:38 OP:ep   STATUS:               ID:20130719042959 L   I
 OLDACT:UP  13-07-19 11:06 OP:mh   STATUS:               ID:20130719042959 L   3
 OLDACT:UPD 13-07-19 09:03 OP:stll STATUS:               ID:20130719042959 L   3
 2013-07-19-0429-59M.COL___267                                                 6
 STAT SP IPHASW D HRMM SECON CODA AMPLIT PERI AZIMU VELO AIN AR TRES W  DIS CAZ7
 GIR2 SZ EP   1    432 48.22                             162    0.25 7 42.5 187 
 GIR2 SZ ES   1    433  2.53                             162   -0.07 7 42.5 187 
 GIR2 SZ I         433  5.55         9.9 0.10            162           42.5 187 
 BRR  HZ EP        432 49.57                             150    0.2310 73.5 238 
 BRR  HN ES        433  5.12                             150    0.0910 73.5 238 
 BRR  HN I         433  6.75        32.9 0.18            147           73.5 238 
 OCA  HZ EP   1    432 50.91                             145    0.38 7 88.2 348 
 OCA  HN ES   1    433  7.46                             145    0.32 7 88.2 348 
 OCA  HN I         433 10.60        29.9 0.26            144           88.2 348 
 BAR2 SZ EP   1    432 51.42                             143    0.20 7 96.1 182 
 BAR2 SZ ES   1    433  7.70                             143   -0.67 7 96.1 182 
 BAR2 SZ I         433  9.04        10.2 0.22            144           96.1 182 
 PTB  HZ EP   1    432 57.75                             124   -0.42 7  177 235 
 PTB  HN ES        433 20.27                             124   -0.48 9  177 235 
 PTB  HN I         433 25.06        11.0 0.20            124            177 235 
 SML  HZ EP   1    432 57.88                             123   -0.57 7  180 326 
 SML  HN ES   1    433 20.46                             123   -0.78 7  180 326 
 SML  HN I         433 27.56        24.5 0.28            123            180 326 
 ZAR  HE ES        433 23.47                             122    0.56 9  189 271 
 ZAR  HE I         433 28.62        22.4 0.28            121            189 271 
 SPBC HZ EP   1    433  3.20                             117   -0.09 6  225 207 
 SPBC HN ES        433 30.16                             117    0.31 8  225 207 
 SPBC HN I         433 38.10        12.5 0.14            118            225 207 
                                                                                
