 2014  219 0024 31.4 L   6.825 -73.151147.6  RSN 18 0.4 2.5LRSN                1
 GAP=135        0.73       2.4     3.2  4.8 -0.1820E+01  0.5059E+01 -0.7233E+00E
 Epicentro: LOS SANTOS - SANTANDER                                             3
 ACTION:UPD 14-03-10 08:11 OP:ep   STATUS:               ID:20140219002431 L   I
 OLDACT:UP  14-02-20 05:58 OP:Migu STATUS:               ID:20140219002431 L   3
 OLDACT:REG 14-02-19 07:31 OP:fm   STATUS:               ID:20140219002000     3
 2014-02-19-0020-00M.COL___212                                                 6
 STAT SP IPHASW D HRMM SECON CODA AMPLIT PERI AZIMU VELO AIN AR TRES W  DIS CAZ7
 BAR2 SZ EP        024 51.34                             170    0.0810 26.0 188 
 BAR2 SZ ES   1    025  7.06                             170    0.27 7 26.0 188 
 BAR2 SZ I         025  7.44        97.2 0.46            168           26.0 188 
 PAM  SZ EP        024 54.16        31.6 0.21            151    0.5010 75.6  41 
 PAM  SN ES        025 11.08                             151    0.0210 75.6  41 
 PAM  SZ I         025 11.96        31.6 0.21            154           75.6  41 
 RUS  HZ EP        024 55.25                             143   -0.2410  103 176 
 RUS  HN ES        025 14.30                             143   -0.0110  103 176 
 RUS  HZ I         025 15.11        28.0 0.24            144            103 176 
 PTB  HZ EP   1    024 57.97                             132   -0.51 7  148 258 
 PTB  HN ES        025 19.16                             132   -0.47 9  148 258 
 PTB  HZ I         025 20.91        35.9 0.06            131            148 258 
 OCA  HZ EP   1    024 59.50                             130   -0.05 7  157 353 
 OCA  HN ES   1    025 21.18                             130   -0.35 7  157 353 
 OCA  HZ I         025 29.66        33.5 0.19            131            157 353 
 SPBC HZ EP        025  0.35                             129    0.18 9  165 218 
 SPBC HN ES        025 22.52                             129   -0.12 9  165 218 
 SPBC HZ I         025 26.83        34.4 0.21            128            165 218 
 ZAR  HZ EP   1    025  4.28                             123    0.52 6  203 291 
 ZAR  HN ES   1    025 29.09                             123    0.05 6  203 291 
 ZAR  HZ I         025 30.99        21.8 0.15            122            203 291 
 NOR  HZ EP   1    025  7.37                             119    0.05 6  236 234 
 NOR  HN ES   1    025 35.81                             119    0.44 6  236 234 
 NOR  HZ I         025 40.89        16.1 0.18            118            236 234 
 SML  HZ EP   1    025  8.12                             118    0.33 6  241 335 
 SML  HN ES   4    025 36.21                             118    0.01 0  241 335 
 CHI  HZ EP        025  9.45                             117    0.02 8  251 195 
 CHI  HN ES        025 38.74                             117   -0.39 8  251 195 
 CHI  HZ I         025 43.11        18.5 0.59            117            251 195 
 ROSC BZ EP   4    025 11.48                             117    1.67 0  255 211 
 ROSC BN ES   4    025 42.50                             117    2.71 0  255 211 
 ROSC BZ I         025 46.07        41.8 0.44            117            255 211 
 HEL  HZ EP   4    025 13.46                             115    1.78 0  272 255 
 HEL  HN ES   4    025 43.82                             115    0.69 0  272 255 
 HEL  HZ I         025 49.44        13.8 0.46            115            272 255 
 URE  HZ EP   2    025 12.33                             114   -0.01 4  282 291 
 URE  HN ES   4    025 41.85                             114   -2.46 0  282 291 
 GUY2CHZ EP   4    025 15.55                             112    0.37 0  302 234 
 GUY2CHN ES   4    025 54.76                             112    5.40 0  302 234 
 GUY2CHZ I         025 57.66        14.5 0.34                           302 234 
 PTGC HZ EP   4    025 14.49                             112   -1.12 0  311 159 
 PTGC HN ES   4    025 48.36                             112   -1.77 0  311 159 
 CBOC HZ EP   4    025 17.55                             110   -0.84 0  334 252 
 CBOC HN ES   1    025 55.90                             110    0.83 5  334 252 
 CBOC HZ I         025 58.66         5.3 0.08            110            334 252 
 COD  HZ EP   4    025 20.54                             109    1.06 0  345 355 
 COD  HN ES   4    025 58.62                             109    1.60 0  345 355 
 PRA  HZ EP   4    025 25.37                             107    0.18 0  394 209 
 PRA  HN ES   4    026  9.15                             107    1.97 0  394 209 
 PRA  HZ I         026 11.53        14.1 0.45            107            394 209 
 ORTC HZ EP   4    025 25.67                             106    0.11 0  397 216 
 ORTC HN ES   4    026  9.03                             106    1.19 0  397 216 
 ORTC HZ I         026 12.79         8.4 0.19            107            397 216 
 SJC  HZ EP   1    025 25.43                             106   -1.24 4  407 327 
 SJC  HN ES   4    026  8.58                             106   -1.24 0  407 327 
                                                                                
