 2016 1019 0412 29.8 L   6.803 -73.124142.0  RSN 17 0.5 2.1LRSN                1
 GAP= 67        1.03       2.9     3.0  4.9 -0.2155E+01  0.3180E+01  0.2505E+01E
 Epicentro: LOS SANTOS - SANTANDER                                             3
 ACTION:UPD 16-11-09 19:20 OP:rebc STATUS:               ID:20161019041229 L   I
 OLDACT:UP  16-10-19 16:24 OP:and  STATUS:               ID:20161019040735d    3
 OLDACT:UP  16-10-19 16:23 OP:and  STATUS:               ID:20161019040735d    3
 OLDACT:DUP 16-10-19 16:15 OP:and  STATUS:               ID:20161019040735d    3
 OLDACT:UP  16-10-19 16:12 OP:and  STATUS:               ID:20161019040734     3
 OLDACT:UP  16-10-19 16:08 OP:and  STATUS:               ID:20161019040734     3
 OLDACT:UP  16-10-19 16:06 OP:and  STATUS:               ID:20161019040734     3
 OLDACT:REG 16-10-19 12:43 OP:y    STATUS:               ID:20161019040734     3
 2016-10-19-0408-00M.COL___329                                                 6
 STAT SP IPHASW D HRMM SECON CODA AMPLIT PERI AZIMU VELO AIN AR TRES W  DIS CAZ7
 BAR2 EZ EP        412 48.88                             170   -0.1510 24.2 196 
 BAR2 EZ ES        413  3.70                             170   -0.3010 24.2 196 
 BAR2 EZ I         413  5.18        46.7 0.21            168           24.2 196 
 BRR  HZ EP        412 50.81                             151    0.1210 73.2 297 
 BRR  HN ES        413  7.72                             151    0.7610 73.2 297 
 BRR  HZ I         413  8.23        19.0 0.12            150           73.2 297 
 PAM  EZ IP     D  412 51.76                             151    0.2210 75.6  38 
 PAM  EN ES        413  8.77                             151    0.3010 75.6  38 
 PAM  EZ I         413 10.33         6.9 0.27            154           75.6  38 
 RUS  HZ EP        412 52.80                             143   -0.4310  101 177 
 RUS  HN ES        413 11.36                             143   -0.1210  101 177 
 RUS  HZ I         413 12.61        13.7 0.30            143            101 177 
 PTB  HZ EP   9    412 55.57                             131   -1.15 0  150 259 
 PTB  HN ES        413 16.26                             131   -0.28 9  150 259 
 PTB  HZ I         413 24.00        14.5 0.22            130            150 259 
 TAM  HZ IP     D  412 57.20                             130    0.20 9  153 105 
 TAM  HN ES        413 18.70                             130    0.50 9  153 105 
 OCA  HZ EP        412 57.15                             129   -0.69 9  160 352 
 OCA  HN ES        413 19.08                             129   -0.62 9  160 352 
 OCA  HZ I         413 23.81        36.2 0.28            130            160 352 
 SPBC HZ EP        412 57.73                             128   -0.49 9  165 220 
 SPBC HN ES        413 19.81                             128   -0.55 9  165 220 
 SPBC HZ I         413 25.19        23.9 0.10            128            165 220 
 NOR  HZ EP        413  5.58                             117   -0.00 8  237 235 
 NOR  HN ES        413 32.66                             117   -0.81 8  237 235 
 NOR  HZ I         413 34.84        12.1 0.18            118            237 235 
 CHI  HZ EP        413  7.41                             116   -0.02 8  250 196 
 CHI  HN ES        413 37.05                             116    0.29 8  250 196 
 CHI  HZ I         413 42.88         5.7 0.24            117            250 196 
 ROSC BZ EP   4    413  9.32                             116    1.40 0  254 211 
 ROSC BN ES   4    413 41.12                             116    3.49 0  254 211 
 ROSC BZ I         413 44.76        10.8 0.30            116            254 211 
 HEL  HZ EP   2    413 10.91                             114    0.78 4  275 256 
 HEL  HN ES        413 42.21                             114    0.65 8  275 256 
 HEL  HZ I         413 45.86         4.4 0.20            114            275 256 
 GUY2CHZ EP        413 13.46                             111   -0.06 7  303 235 
 GUY2CHN ES        413 47.96                             111    0.37 7  303 235 
 GUY2CHZ I         413 55.50         7.1 0.42                           303 235 
 PTGC HZ EP   9    413 11.93                             111   -1.53 0  308 159 
 PTGC HN ES        413 45.46                             111   -0.50 7  308 159 
 CBOC HZ EP        413 17.40                             109    0.53 7  336 252 
 CBOC HN ES        413 54.20                             109    0.64 7  336 252 
 CBOC HZ I         413 56.10         2.3 0.18            110            336 252 
 PRA  HZ EP        413 23.37                             106   -0.03 6  394 210 
 PRA  HN ES        414  5.66                             106    0.47 6  394 210 
 PRA  HZ I         414 10.62         7.8 0.28            106            394 210 
 SJC  HZ EP   4    413 23.12                             105   -2.27 0  410 327 
 SJC  HN ES   4    414  5.24                             105   -3.49 0  410 327 
 SJC  HZ I         414  9.02         4.0 0.46            106            410 327 
                                                                                
