 2013  119 0755 40.5 L   6.808 -73.163146.7  RSN  6 0.4 1.4LRSN                1
 GAP=144        0.82       5.5     5.0  8.0 -0.1582E+01  0.5819E+01  0.1526E+02E
 Epicentro: LOS SANTOS - SANTANDER                                             3
 ACTION:UPD 13-02-15 09:15 OP:ep   STATUS:               ID:20130119075540 L   I
 2013-01-19-0750-00M.COL___241                                                 6
 STAT SP IPHASW D HRMM SECON CODA AMPLIT PERI AZIMU VELO AIN AR TRES W  DIS CAZ7
 BAR2 SZ EP   1    756  0.22                             170   -0.08 7 24.0 185 
 BAR2 SZ ES   1    756 15.52                             170   -0.19 7 24.0 185 
 BRR  HZ EP   1    756  1.98                             153    0.31 7 69.1 299 
 BRR  HN ES   1    756 18.99                             153    0.83 7 69.1 299 
 BRR  HZ I         756 23.14         5.1 0.16            156           69.1 299 
 PAM  SZ EP   1    756  3.18                             151    0.29 7 77.9  41 
 PAM  SN ES   1    756 19.84                             151   -0.48 7 77.9  41 
 PAM  SZ I         756 21.72         3.9 0.14            156           77.9  41 
 PTB  HZ EP   1    756  6.98                             133   -0.45 7  146 258 
 PTB  HN ES   1    756 27.83                             133   -0.58 7  146 258 
 PTB  HZ I         756 29.96         4.0 0.12            135            146 258 
 ZAR  HN ES   1    756 37.96                             123   -0.05 6  202 292 
 CHI  HZ EP   1    756 18.29                             117   -0.04 6  249 195 
 CHI  HN ES   1    756 48.26                             117    0.45 6  249 195 
 CHI  HZ I         756 51.22         2.2 0.62            120            249 195 
                                                                                
