 2011 1019 0748 25.4 L   6.765 -73.097149.7  RSN  9 0.3 1.6LRSN                1
 GAP=144        0.40       2.7     3.2  4.9 -0.1024E+01  0.6508E+01  0.2648E+01E
 Epicentro: LOS SANTOS - SANTANDER                                             3
 ACTION:UPD 12-07-13 16:04 OP:ep   STATUS:               ID:20111019074825 L   I
 2011-10-19-0747-18S.COL___153                                                 6
 STAT SP IPHASW D HRMM SECON CODA AMPLIT PERI AZIMU VELO AIN AR TRES W  DIS CAZ7
 BAR2 SZ EP   1    748 45.34                             172   -0.10 7 21.3 206 
 BAR2 SZ ES   2    749  0.65                             172   -0.44 5 21.3 206 
 PAM  SZ EP   2    748 48.09                             152    0.09 5 77.2  35 
 PAM  SE ES   1    749  5.74                             152    0.10 7 77.2  35 
 BRR  HZ EP   1    748 47.22                             151   -0.11 7 77.8 299 
 BRR  HE ES   2    749  4.50                             151    0.06 5 77.8 299 
 BRR  HZ I         749  6.26         7.2 0.20                          77.8 299 
 RUS  HZ EP   1    748 49.17                             146   -0.06 7 96.5 179 
 RUS  HE ES   2    749  8.09                             146    0.26 5 96.5 179 
 RUS  HZ I         749  9.50         5.7 0.30                          96.5 179 
 OCA  SZ ES   2    749 17.55                             130    0.48 5  165 351 
 OCA  SZ I         749 20.62         4.4 0.71                           165 351 
 ZAR  HZ EP   2    748 58.20                             122   -0.54 4  211 293 
 ZAR  HN ES   2    749 24.48                             122   -0.29 4  211 293 
 ZAR  HZ I         749 29.55         3.4 0.37                           211 293 
 NOR  SN ES   2    749 29.86                             119    0.05 4  237 236 
 HEL  HE ES   2    749 38.60                             115    0.44 4  276 257 
 HEL  HZ I         749 44.80         2.1 0.20                           276 257 
 RREF HZ EP   2    749 12.20                             111    0.32 3  323 231 
 RREF HN ES   2    749 48.53                             111    0.38 3  323 231 
 RREF HZ I         749 56.12         2.8 0.35                           323 231 
                                                                                
