 2013 1119 0848  8.7 L   6.801 -73.157139.2  RSN 13 0.5 2.2LRSN                1
 GAP=135        1.00       2.6     3.8  5.7 -0.1228E+01  0.7697E+01 -0.4023E-01E
 Epicentro: LOS SANTOS - SANTANDER                                             3
 ACTION:UPD 14-01-09 16:29 OP:ep   STATUS:               ID:20131119084808 L   I
 OLDACT:REG 13-11-19 12:20 OP:mh   STATUS:               ID:20131119084735     3
 2013-11-19-0847-35M.COL___227                                                 6
 STAT SP IPHASW D HRMM SECON CODA AMPLIT PERI AZIMU VELO AIN AR TRES W  DIS CAZ7
 BAR2 SZ EP   1    848 27.72                             170    0.17 7 23.2 187 
 BAR2 SZ ES        848 42.18                             170   -0.0610 23.2 187 
 BAR2 SZ I         848 45.10        55.2 0.23            169           23.2 187 
 BRR  HZ EP   1    848 29.55                             152    0.46 7 70.1 299 
 BRR  HN ES   1    848 45.29                             152    0.31 7 70.1 299 
 BRR  HZ I         848 47.11        19.0 0.12            150           70.1 299 
 PAM  SZ EP   1    848 30.68                             149    0.40 7 78.1  40 
 PAM  SN ES        848 47.48                             149    0.3810 78.1  40 
 PAM  SZ I         848 49.77        33.9 0.48            154           78.1  40 
 RUS  HZ EP        848 31.81                             142   -0.0310  101 175 
 RUS  HN ES        848 50.05                             142    0.1810  101 175 
 RUS  HZ I         848 51.77        24.8 0.35            145            101 175 
 PTB  HZ EP   1    848 34.48                             131   -0.56 7  147 259 
 PTB  HN ES        848 55.27                             131   -0.31 9  147 259 
 PTB  HZ I         849  1.15         9.9 0.12            131            147 259 
 OCA  HZ EP   1    848 36.73                             128    0.23 7  160 354 
 OCA  HN ES        848 57.65                             128   -0.52 9  160 354 
 OCA  HZ I         849  0.89        13.5 0.20            130            160 354 
 SPBC HZ EP   1    848 36.53                             128   -0.12 7  162 219 
 SPBC HN ES        848 57.86                             128   -0.58 9  162 219 
 SPBC HZ I         849  1.35        28.1 0.27            129            162 219 
 ZAR  HZ EP        848 41.37                             121    0.75 9  203 292 
 ZAR  HN ES        849  5.58                             121    0.08 9  203 292 
 ZAR  HZ I         849 12.02        20.3 0.31            122            203 292 
 NOR  HZ EP   1    848 43.71                             117   -0.26 6  234 234 
 NOR  HN ES        849 11.58                             117    0.12 8  234 234 
 NOR  HZ I         849 16.89        16.1 0.19            118            234 234 
 SML  HZ EP   1    848 44.05                             116   -0.86 6  243 336 
 SML  HN ES        849 12.39                             116   -0.76 8  243 336 
 SML  HZ I         849 17.49        21.5 0.08            118            243 336 
 CHI  HZ EP   1    848 45.89                             116   -0.14 6  248 195 
 CHI  HN ES        849 14.47                             116   -0.67 8  248 195 
 CHI  HZ I         849 18.84         8.5 0.43            118            248 195 
 ROSC BZ EP   1    848 46.81                             115    0.39 6  252 211 
 ROSC BN ES   4    849 17.20                             115    1.37 0  252 211 
 HEL  HZ EP   1    848 48.89                             114    0.42 6  271 256 
 HEL  HN ES        849 20.49                             114    1.01 8  271 256 
 HEL  HZ I         849 26.88         8.0 0.44            115            271 256 
 GUY2CHZ EP   4    848 53.93                             111    2.01 0  300 235 
 GUY2CHN ES   4    849 28.99                             111    3.37 0  300 235 
                                                                                
