 2016  119 0325  8.5 L   5.924 -74.045 92.3  RSN  7 0.5 1.6LRSN                1
 GAP=220        1.22       4.4     6.4  7.7  0.2935E+01  0.1147E+02  0.1042E+02E
 Epicentro: LA BELLEZA - SANTANDER                                             3
 ACTION:UPD 16-03-09 23:26 OP:cam  STATUS:               ID:20160119032508 L   I
 OLDACT:REG 16-01-19 12:52 OP:ar   STATUS:               ID:20160119031748     3
 2016-01-19-0317-48M.COL___325                                                 6
 STAT SP IPHASW D HRMM SECON CODA AMPLIT PERI AZIMU VELO AIN AR TRES W  DIS CAZ7
 SPBC HZ EP        325 22.18                             161    0.3510 30.3 186 
 SPBC HN ES        325 32.54                             161    0.3510 30.3 186 
 SPBC HZ I         325 34.08        13.9 0.26            161           30.3 186 
 PTB  HZ EP        325 24.90                             135   -0.2710 81.8 326 
 PTB  HN ES        325 38.05                             135   -0.0910 81.8 326 
 PTB  HZ I         325 40.92         9.5 0.80            136           81.8 326 
 NOR  HZ EP        325 26.33                             129   -0.5310 99.6 246 
 NOR  HN ES        325 40.24                             129   -0.9010 99.6 246 
 NOR  HZ I         325 41.09        19.8 0.18            130           99.6 246 
 GUY2CHZ EP        325 34.27                             115   -0.07 9  165 242 
 GUY2CHN ES        325 54.27                             115   -0.19 9  165 242 
 GUY2CHZ I         326  2.11         2.9 0.34                           165 242 
 HEL  HZ EP        325 34.81                             115    0.45 9  167 280 
 HEL  HN ES        325 55.44                             115    0.94 9  167 280 
 HEL  HZ I         325 57.08         6.0 0.32            115            167 280 
 ORTC HZ EP        325 44.13                             105   -0.62 8  260 211 
 ORTC HN ES        326 13.61                             105    0.62 8  260 211 
 ORTC HZ I         326 18.17         4.7 0.44            106            260 211 
 PRA  HZ EP        325 45.02                             105    0.03 8  262 201 
 PRA  HN ES        326 13.66                             105    0.24 8  262 201 
 PRA  HZ I         326 14.90         3.0 0.26            106            262 201 
                                                                                
