 2011 1219 0222 33.8 L   6.765 -73.079148.4  RSN  4 0.1 1.5LRSN                1
 GAP=147        0.31       2.5     3.9  3.2  0.3292E+01 -0.1055E+01 -0.4835E-01E
 Epicentro: LOS SANTOS - SANTANDER                                             3
 ACTION:UPD 12-07-13 16:17 OP:ep   STATUS:               ID:20111219022233 L   I
 2011-12-19-0220-00M.COL___188                                                 6
 STAT SP IPHASW D HRMM SECON CODA AMPLIT PERI AZIMU VELO AIN AR TRES W  DIS CAZ7
 BAR2 SZ EP   1    222 53.64                             171   -0.04 7 22.2 211 
 BAR2 SZ ES   1    223  9.31                             171    0.08 7 22.2 211 
 BAR2 SZ I         223 10.85         8.0 0.43                          22.2 211 
 PAM  SZ EP   2    222 56.31                             152    0.13 5 76.1  33 
 PAM  SN ES   2    223 13.58                             152   -0.09 5 76.1  33 
 BRR  HZ EP        222 55.59                             150   -0.0910 79.6 298 
 BRR  HN ES   1    223 12.84                             150    0.07 7 79.6 298 
 BRR  HZ I         223 14.28         5.8 0.17                          79.6 298 
 RUS  HZ EP        222 57.56                             146    0.0810 96.4 180 
 RUS  HZ I         222 58.65         3.4 0.15                          96.4 180 
 RUS  HE ES   1    223 15.87                             146   -0.11 7 96.4 180 
                                                                                
