 2013  419 0406 46.4 L   6.770 -73.157149.3  RSN  6 0.4 2.0LRSN                1
 GAP=137        0.96       5.4     6.1  8.7 -0.1299E+01  0.6710E+01 -0.6433E+01E
 Epicentro: LOS SANTOS - SANTANDER                                             3
 ACTION:UPD 13-05-22 14:39 OP:EP   STATUS:               ID:20130419040646 L   I
 2013-04-19-0400-00M.COL___250                                                 6
 STAT SP IPHASW D HRMM SECON CODA AMPLIT PERI AZIMU VELO AIN AR TRES W  DIS CAZ7
 BRR  HZ IP     C  4 7  8.13                             153    0.1510 71.8 301 
 BRR  HN ES   1    4 7 25.32                             153    0.52 7 71.8 301 
 BRR  HZ I         4 7 28.97        11.6 0.16            144           71.8 301 
 PAM  SZ IP     D  4 7  9.36                             150    0.1510 80.7  39 
 PAM  SN ES   1    4 7 26.22                             150   -0.76 7 80.7  39 
 PAM  SZ I         4 7 29.08        11.1 0.46            134           80.7  39 
 RUS  HZ EP        4 7 10.78                             145    0.4910 97.3 175 
 RUS  HZ I         4 7 28.61        21.1 0.58            130           97.3 175 
 RUS  HN ES   1    4 7 28.92                             145    0.01 7 97.3 175 
 PTB  HZ EP        4 7 12.89                             133   -0.62 9  146 260 
 PTB  HN ES   1    4 7 34.34                             133   -0.31 7  146 260 
 PTB  HZ I         4 7 35.19        11.3 0.67            121            146 260 
 ZAR  HZ EP   4    4 7  0.37                             123   -18.7 0  204 293 
 ZAR  HN ES   4    4 7 44.71                             123    0.10 0  204 293 
 ZAR  HZ I         4 7 45.90         7.6 0.28            112            204 293 
 SML  HZ EP        4 7 23.37                             118   -0.14 8  246 336 
 SML  HZ I         4 7 50.37        12.1 0.60            107            246 336 
 SML  HN ES   2    4 7 53.22                             118    0.77 4  246 336 
                                                                                
