 2017  819 0404 46.8 L   6.766 -73.102137.8  RSN  5 0.3 1.5LRSN                1
 GAP=144        0.55       2.7     3.8  5.0 -0.3673E+01 -0.2033E+01  0.2550E+01E
 Epicentro: LOS SANTOS - SANTANDER                                             3
 ACTION:UPD 17-09-04 20:21 OP:rebc STATUS:               ID:20170819040446 L   I
 OLDACT:UP  17-08-19 14:16 OP:and  STATUS:               ID:20170819035313     3
 OLDACT:UP  17-08-19 14:16 OP:and  STATUS:               ID:20170819035313     3
 OLDACT:REG 17-08-19 12:31 OP:and  STATUS:               ID:20170819035313     3
 2017-08-19-0358-00M.COL___411                                                 6
 STAT SP IPHASW D HRMM SECON CODA AMPLIT PERI AZIMU VELO AIN AR TRES W  DIS CAZ7
 BAR2 EZ EP   2    4 5  6.28                             171    0.89 5 21.2 205 
 BAR2 EZ ES        4 5 19.73                             171   -0.1810 21.2 205 
 BAR2 EZ I         4 5 20.81         7.7 0.34            166           21.2 205 
 BRR  HZ IP   2 C  4 5  6.95                             149   -0.47 5 77.2 299 
 BRR  HN ES        4 5 23.67                             149    0.1410 77.2 299 
 BRR  HN I         4 5 28.10        21.1 0.14            143           77.2 299 
 BRR  HZ I         4 5 28.36         4.4 0.12                          77.2 299 
 PAM  EZ IP     D  4 5  8.06                             149   -0.0810 77.5  35 
 PAM  EN ES        4 5 24.81                             149    0.0010 77.5  35 
 PAM  EZ I         4 5 26.88         6.2 0.68            152           77.5  35 
 RUS  HZ EP        4 5  9.43                             143   -0.0110 96.6 179 
 RUS  HN ES        4 5 27.23                             143    0.1010 96.6 179 
 RUS  HZ I         4 5 28.32         3.6 0.22            143           96.6 179 
 SPBC HN ES        4 5 36.36                             127   -0.09 9  163 221 
 SPBC HZ I         4 5 45.73         3.4 0.05            125            163 221 
                                                                                
