 2010  819 0303 35.8 L   6.789 -73.090140.4  RSN  5 0.2 1.6LRSN                1
 GAP=165        0.47       2.8     5.3  4.3  0.3283E+01 -0.1000E+02 -0.2144E+01E
 Epicentro: LOS SANTOS - SANTANDER                                             3
 ACTION:UP  10-09-07 10:56 OP:vdl  STATUS:               ID:20100819030335 L   I
 2010-08-19-0258-45S.COL___117                                                 6
 STAT SP IPHASW D HRMM SECON CODA AMPLIT PERI AZIMU VELO SNR AR TRES W  DIS CAZ7
 BAR2 SZ EP   1    3 3 54.63                             170    -0.1 7   24 205 
 BTL  SZ EP        3 3 54.86                             169     0.110   24 306 
 BTL  SZ ES   1    3 4  9.49                             169    -0.1 7   24 306 
 BAR2 SZ ES   1    3 4  9.37                             170    -0.2 7   24 205 
 BAR2 SZ I         3 4 12.38        12.5 0.04                            24 205 
 BRR  HZ EP        3 3 56.59                             149    -0.110   77 297 
 BRR  HN ES        3 4 13.21                             149     0.210   77 297 
 BRR  HZ I         3 4 16.08         9.4 0.43                            77 297 
 RUS  HZ EP        3 3 59.07                             143     0.210   99 180 
 RUS  HN ES   1    3 4 16.93                             143     0.0 7   99 180 
 RUS  HZ I         3 4 18.72         5.8 0.34                            99 180 
 GRA  SZ EP        3 4  0.37                             136    -0.110  125  15 
 GRA  SZ ES   2    3 4 20.15                             136     0.4 5  125  15 
 GRA  SZ I         3 4 20.97         4.5 0.34                           125  15 
                                                                                
