 2015  319 0739 38.6 L   6.750 -73.176151.8  RSN  5 0.3 0.9LRSN                1
 GAP=135        0.86       4.6     5.2  7.7 -0.8088E-01 -0.7132E+01 -0.2037E+01E
 Epicentro: LOS SANTOS - SANTANDER                                             3
 ACTION:UPD 15-04-30 16:27 OP:nd   STATUS:               ID:20150319073938 L   I
 OLDACT:REG 15-03-19 12:58 OP:stll STATUS:               ID:20150319073750     3
 2015-03-19-0737-50M.COL___275                                                 6
 STAT SP IPHASW D HRMM SECON CODA AMPLIT PERI AZIMU VELO AIN AR TRES W  DIS CAZ7
 BRR  HZ EP        740  0.83                             153    0.4110 71.2 304 
 BRR  HN ES        740 17.44                             153    0.0110 71.2 304 
 PAM  SZ EP        740  1.95                             150    0.0910 83.7  39 
 PAM  SZ I         740  5.61         0.9 0.42            149           83.7  39 
 RUS  HZ EP        740  2.15                             146   -0.4610 95.4 174 
 RUS  HN ES        740 21.25                             146   -0.0710 95.4 174 
 RUS  HZ I         740 21.81         1.3 0.32            149           95.4 174 
 PTB  HZ EP        740  5.29                             134   -0.42 9  144 261 
 PTB  HN ES        740 26.51                             134   -0.33 9  144 261 
 PTB  HZ I         740 31.70         1.9 0.40            134            144 261 
 SPBC HZ EP        740  7.38                             132    0.38 9  157 219 
 SPBC HE ES        740 29.56                             132    0.42 9  157 219 
                                                                                
