 2013  519 0656 36.6 L   7.268 -73.092157.0  RSN  6 0.4 1.3LRSN                1
 GAP=212        0.81       5.5     8.3  7.7  0.1356E+02  0.1134E+02 -0.5321E+01E
 Epicentro: RIONEGRO - SANTANDER                                               3
 ACTION:UPD 13-06-20 09:51 OP:ep   STATUS:               ID:20130519065636 L   I
 2013-05-19-0650-00M.COL___256                                                 6
 STAT SP IPHASW D HRMM SECON CODA AMPLIT PERI AZIMU VELO AIN AR TRES W  DIS CAZ7
 GIR2 SZ EP   1    656 57.65                             171    0.20 7 23.7 208 
 GIR2 SZ ES        657 13.51                             171   -0.2010 23.7 208 
 GIR2 SZ I         657 14.68         4.8 0.34            169           23.7 208 
 BRR  HZ EP        656 59.39                             154    0.4410 70.8 255 
 BRR  HN ES        657 16.84                             154    0.4510 70.8 255 
 BAR2 SZ ES   1    657 17.03                             153   -0.42 7 75.4 188 
 BAR2 SZ I         657 19.09         4.1 0.42            152           75.4 188 
 RUS  HE ES   1    657 28.03                             134   -0.07 7  152 180 
 RUS  HZ I         657 29.58         1.2 0.40            133            152 180 
 PTB  HZ EP   1    657  6.22                             130   -0.38 7  171 242 
 PTB  HN ES   1    657 29.72                             130   -0.29 7  171 242 
 PTB  HZ I         657 31.44         2.3 0.23            130            171 242 
 SML  HE ES   1    657 34.57                             125   -0.56 6  201 328 
                                                                                
