 2014  219 0115 34.5 L   6.796 -73.152143.8  RSN  6 0.4 1.1LRSN                1
 GAP=136        0.83       6.1     5.7 14.0  0.1553E+02 -0.1857E+02 -0.5843E+02E
 Epicentro: LOS SANTOS - SANTANDER                                             3
 ACTION:UPD 14-03-10 08:11 OP:ep   STATUS:               ID:20140219011534 L   I
 OLDACT:DUP 14-02-19 12:00 OP:cam  STATUS:               ID:20140219011001d    3
 OLDACT:REG 14-02-19 08:07 OP:fm   STATUS:               ID:20140219011000     3
 2014-02-19-0110-00M.COL___212                                                 6
 STAT SP IPHASW D HRMM SECON CODA AMPLIT PERI AZIMU VELO AIN AR TRES W  DIS CAZ7
 PAM  SZ EP   2    115 56.68                             150    0.15 5 78.2  40 
 RUS  HZ EP   1    115 58.25                             143    0.25 7  100 176 
 RUS  HN ES        116 16.38                             143    0.0310  100 176 
 RUS  HZ I         116 17.16         1.6 0.48            147            100 176 
 PTB  HZ EP   1    116  1.19                             132   -0.01 7  147 259 
 PTB  HN ES        116 21.53                             132   -0.52 9  147 259 
 PTB  HZ I         116 24.74         1.7 0.38            133            147 259 
 SPBC HN ES   2    116 24.78                             129   -0.01 5  162 219 
 ZAR  HZ EP   2    116  7.52                             122    0.79 4  204 292 
 ZAR  HN ES        116 32.51                             122    0.61 9  204 292 
 ZAR  HZ I         116 36.52         1.9 0.24            123            204 292 
 SML  HZ EP   1    116 10.12                             117   -0.88 6  244 335 
 SML  HE ES   1    116 39.44                             117   -0.05 6  244 335 
                                                                                
