 2011  919 0437 47.8 L   6.796 -73.092144.0  RSN  7 0.3 1.8LRSN                1
 GAP=144        0.59       3.4     5.7  4.8  0.2537E+00 -0.1207E+01 -0.2430E+01E
 Epicentro: LOS SANTOS - SANTANDER                                             3
 ACTION:UPD 12-07-13 15:58 OP:ep   STATUS:               ID:20110919043747 L   I
 2011-09-19-0420-00M.COL___173                                                 6
 STAT SP IPHASW D HRMM SECON CODA AMPLIT PERI AZIMU VELO AIN AR TRES W  DIS CAZ7
 BTL  SZ EP        438  7.40                             170    0.1810 23.7 305 
 BAR2 SZ EP        438  7.15                             170   -0.0810 24.6 204 
 BAR2 SZ I         438  7.31        15.1 0.40                          24.6 204 
 BAR2 SZ ES   1    438 22.54                             170    0.14 7 24.6 204 
 GIR2 SZ EP        438  7.22                             166   -0.0910 33.3 340 
 GIR2 SZ ES   2    438 21.65                             166   -0.88 5 33.3 340 
 PAM  SZ EP        438 10.02                             151    0.4010 74.1  36 
 PAM  SN ES   1    438 26.61                             151   -0.04 7 74.1  36 
 BRR  HZ EP        438  8.99                             150   -0.0810 76.7 297 
 BRR  HN ES   1    438 25.96                             150    0.29 7 76.7 297 
 BRR  HZ I         438 27.15        16.2 0.14                          76.7 297 
 RUS  HZ EP        438 11.16                             144   -0.1510 99.9 179 
 RUS  HE ES   1    438 29.59                             144   -0.07 7 99.9 179 
 RUS  HZ I         438 31.46         7.0 0.40                          99.9 179 
 OCA  SZ EP        438 15.91                             129   -0.17 9  162 351 
 OCA  SZ I         438 42.89         5.8 0.20                           162 351 
                                                                                
