 2016  519 0924 34.4 L   6.801 -73.142146.6  RSN  7 0.4 1.7LRSN                1
 GAP=238        1.13       5.5     5.9  7.2  0.8673E+01  0.1020E+02  0.1605E+01E
 Epicentro: LOS SANTOS - SANTANDER                                             3
 ACTION:UPD 16-08-18 17:47 OP:cam  STATUS:               ID:20160519092434 L   I
 OLDACT:UP  16-05-19 19:00 OP:mh   STATUS:               ID:20160519091742     3
 OLDACT:REG 16-05-19 18:21 OP:mh   STATUS:               ID:20160519091742     3
 2016-05-19-0917-42M.COL___293                                                 6
 STAT SP IPHASW D HRMM SECON CODA AMPLIT PERI AZIMU VELO AIN AR TRES W  DIS CAZ7
 BAR2 EZ EP        924 54.47                             171    0.3410 23.5 191 
 BAR2 EZ ES        925  9.05                             171   -0.4710 23.5 191 
 BAR2 EZ I         925 10.40        13.0 0.26            168           23.5 191 
 BRR  HZ EP        924 55.77                             153    0.1110 71.5 298 
 BRR  HN ES        925 13.20                             153    0.9710 71.5 298 
 BRR  HZ I         925 16.30        11.1 0.24            150           71.5 298 
 RUS  HZ EP        924 58.28                             144    0.0410  101 176 
 RUS  HN ES        925 16.42                             144   -0.4110  101 176 
 RUS  HZ I         925 19.52         3.2 0.16            146            101 176 
 PTB  HZ EP        925  0.98                             132   -0.49 9  148 259 
 PTB  HN ES        925 22.23                             132   -0.36 9  148 259 
 PTB  HZ I         925 26.90         6.8 0.30            132            148 259 
 SPBC HZ EP        925  3.33                             129    0.33 9  164 219 
 SPBC HN ES        925 25.49                             129    0.19 9  164 219 
 SPBC HZ I         925 27.05         7.7 0.28            130            164 219 
 ZAR  HZ EP        925  6.45                             122   -0.48 9  204 292 
 ZAR  HN ES        925 31.80                             122   -0.51 9  204 292 
 ZAR  HZ I         925 38.38         5.9 0.32            123            204 292 
 NOR  HZ EP        925 10.61                             119    0.39 8  235 234 
 NOR  HN ES        925 38.47                             119    0.31 8  235 234 
 NOR  HZ I         925 43.80         6.5 0.81            119            235 234 
                                                                                
