 2015  819 0729 20.2 L   6.835 -72.981146.9  RSN  6 0.4 1.6LRSN                1
 GAP=200        0.85       4.4     8.3  7.8  0.1623E+02 -0.1682E+02 -0.1379E+02E
 Epicentro: CEPITA - SANTANDER                                                 3
 ACTION:UPD 15-09-15 23:03 OP:cam  STATUS:               ID:20150819072920 L   I
 OLDACT:REG 15-08-19 13:17 OP:spq  STATUS:               ID:20150819072741     3
 2015-08-19-0727-41M.COL___334                                                 6
 STAT SP IPHASW D HRMM SECON CODA AMPLIT PERI AZIMU VELO AIN AR TRES W  DIS CAZ7
 BAR2 EZ EP        729 40.32                             166    0.0910 34.9 220 
 BAR2 EZ ES   1    729 55.90                             166    0.03 7 34.9 220 
 BAR2 EZ I         729 56.75         3.6 0.26            167           34.9 220 
 BRR  HZ EP     D  729 42.15                             148   -0.2110 86.2 290 
 BRR  HN ES        729 59.33                             148   -0.3210 86.2 290 
 BRR  HZ I         730  2.40         5.2 0.36            147           86.2 290 
 RUS  HZ EP   1    729 44.70                             143    0.35 7  105 186 
 RUS  HN ES   1    730  2.99                             143   -0.21 7  105 186 
 RUS  HZ I         730  4.38         3.6 0.22            147            105 186 
 OCA  HZ EP   1    729 48.96                             130    0.44 7  160 346 
 OCA  HN ES        730 11.07                             130    0.44 9  160 346 
 OCA  HZ I         730 15.25         7.5 0.36            130            160 346 
 ZAR  HN ES   1    730 21.76                             121    0.80 6  220 289 
 ZAR  HZ I         730 24.15         5.8 0.30            121            220 289 
 SML  HZ EP        729 56.75                             117   -0.63 8  248 331 
 SML  HE ES   1    730 25.97                             117   -0.43 6  248 331 
 SML  HZ I         730 31.84         3.5 0.20            118            248 331 
                                                                                
