 2012  619 0856 43.3 L   6.830 -73.194136.6  RSN  5 0.2 1.7LRSN                1
 GAP=129        0.32       5.9     6.2  7.8 -0.1185E+02 -0.1811E+01 -0.2538E+02E
 Epicentro: ZAPATOCA - SANTANDER                                               3
 ACTION:UPD 12-08-06 17:50 OP:ep   STATUS:               ID:20120619085643 L   I
 2012-06-19-0850-00M.COL___199                                                 6
 STAT SP IPHASW D HRMM SECON CODA AMPLIT PERI AZIMU VELO AIN AR TRES W  DIS CAZ7
 BAR2 SZ EP   2    857  1.89                             169   -0.01 5 26.3 177 
 BAR2 SZ ES   2    857 16.31                             169   -0.10 5 26.3 177 
 BAR2 SZ I         857 17.95        10.9 0.22                          26.3 177 
 PAM  SZ EP        857  4.65                             149    0.0310 78.5  44 
 RUS  HN ES   3    857 24.59                             141    0.08 2  104 173 
 PTB  HZ EP   3    857  8.52                             131   -0.59 2  143 257 
 PTB  HN ES   3    857 29.67                             131    0.43 2  143 257 
 OCA  HN ES   3    857 31.70                             128   -0.09 2  156 355 
                                                                                
