 2015  219 0323 57.8 L   6.811 -73.202138.8  RSN  8 0.4 1.7LRSN                1
 GAP=129        1.06       4.0     4.8  6.4 -0.6114E+01  0.7455E+01  0.1457E+01E
 Epicentro: ZAPATOCA - SANTANDER                                               3
 ACTION:UPD 15-04-30 21:27 OP:nd   STATUS:               ID:20150219032357 L   I
 OLDACT:UP  15-02-19 17:29 OP:mh   STATUS:               ID:20150219031738     3
 OLDACT:UP  15-02-19 17:28 OP:mh   STATUS:               ID:20150219031738     3
 OLDACT:UP  15-02-19 17:28 OP:mh   STATUS:               ID:20150219031738     3
 OLDACT:REG 15-02-19 12:26 OP:mh   STATUS:               ID:20150219031738     3
 2015-02-19-0317-38M.COL___299                                                 6
 STAT SP IPHASW D HRMM SECON CODA AMPLIT PERI AZIMU VELO AIN AR TRES W  DIS CAZ7
 BAR2 EZ EP        324 16.34                             170   -0.3210 24.3 175 
 BAR2 EZ ES        324 31.24                             170   -0.0910 24.3 175 
 BAR2 EZ I         324 32.33        16.4 0.20            171           24.3 175 
 BRR  HZ EP        324 18.37                             153    0.4710 65.2 300 
 BRR  HN ES        324 34.27                             153    0.7210 65.2 300 
 BRR  HZ I         324 39.78        10.3 0.12            152           65.2 300 
 PAM  SZ EP        324 19.71                             148    0.1910 80.6  43 
 PAM  SN ES        324 36.43                             148   -0.0010 80.6  43 
 PAM  SZ I         324 38.75        15.2 0.58            153           80.6  43 
 RUS  HZ EP        324 21.33                             142    0.2810  102 173 
 RUS  HN ES        324 39.18                             142    0.0310  102 173 
 RUS  HZ I         324 39.76         2.9 0.30            146            102 173 
 PTB  HZ EP        324 23.15                             132   -0.57 9  142 258 
 PTB  HN ES        324 43.62                             132   -0.28 9  142 258 
 PTB  HZ I         324 47.00        10.7 0.16            132            142 258 
 OCA  HZ EP   1    324 25.42                             128   -0.03 7  158 355 
 OCA  HN ES   1    324 46.42                             128   -0.56 7  158 355 
 OCA  HZ I         324 50.50         9.2 0.40            131            158 355 
 SPBC HZ EP        324 25.29                             128   -0.25 9  160 217 
 SPBC HN ES        324 46.37                             128   -0.77 9  160 217 
 SPBC HZ I         324 56.46         4.3 0.20            130            160 217 
 GUY2CHZ EP        324 41.00                             111    0.35 7  297 234 
 GUY2CHN ES        325 14.86                             111    0.83 7  297 234 
 MON  HZ EP   4    324 44.57                             108   -1.36 0  348 309 
 MON  HN ES   4    325 22.60                             108   -0.84 0  348 309 
                                                                                
