 2017 1219 0328 53.0 L   6.851 -73.146142.5  RSN  8 0.5 1.7LRSN 3.5CRSN        1
 GAP=146        1.14       4.6     5.6  7.6 -0.4996E+01  0.1787E+02 -0.1781E+01E
 Epicentro: LOS SANTOS - SANTANDER                                             3
 ACTION:UPD 18-01-04 13:21 OP:rebc STATUS:               ID:20171219032853 L   I
 OLDACT:REG 17-12-19 12:48 OP:dhb  STATUS:               ID:20171219032739     3
 2017-12-19-0328-00M.COL___461                                                 6
 STAT SP IPHASW D HRMM SECON CODA AMPLIT PERI AZIMU VELO AIN AR TRES W  DIS CAZ7
 BAR2 EZ EP        329 12.55                             168    0.1610 28.9 188 
 BAR2 EZ ES        329 27.17                             168   -0.3210 28.9 188 
 BAR2 EZ I         329 28.83         9.0 0.54            169           28.9 188 
 PAM  EZ EP        329 15.10                             152    0.4710 73.1  42 
 PAM  EN ES        329 31.12                             152   -0.3810 73.1  42 
 PAM  EZ I         329 34.15         5.8 0.56            153           73.1  42 
 PTB  HZ EP        329 19.30                             131   -0.53 9  149 257 
 PTB  HN ES        329 41.17                             131    0.43 9  149 257 
 PTB  HZ I         329 42.02         3.3 0.58            130            149 257 
 OCA  HZ EP   1    329 21.09   22                        130    0.54 7  155 353 
 OCA  HE ES        329 42.43                             130    0.41 9  155 353 
 OCA  HZ I         329 45.78         9.4 0.34            130            155 353 
 ZAR  HZ EP        329 24.06                             122   -0.97 9  202 291 
 ZAR  HE ES        329 50.59                             122    0.58 9  202 291 
 ZAR  HZ I         329 59.43         3.9 0.24            121            202 291 
 GUY2CHZ EP   2    329 38.13                             111    1.28 4  304 234 
 GUY2CHN ES   4    330 16.60                             111    5.56 0  304 234 
 GUY2CHZ I         330 18.60         2.4 0.48                           304 234 
 PRA  HZ EP        329 47.01                             106    0.01 6  397 209 
 PRA  HN ES        330 29.24                             106    0.13 6  397 209 
 PRA  HZ I         330 35.19         2.5 0.42            107            397 209 
 SJC  HZ EP        329 47.75                             105   -0.16 6  404 327 
 SJC  HN ES        330 29.75                             105   -0.98 6  404 327 
 SJC  HZ I         330 37.63         1.4 0.62            106            404 327 
                                                                                
