 2017  119 0635 15.6 L   6.794 -73.119146.3  RSN  4 0.0 1.0LRSN                1
 GAP=140        0.28       1.8     1.8  2.9  0.7434E+00 -0.1200E+01 -0.8949E+00E
 Epicentro: LOS SANTOS - SANTANDER                                             3
 ACTION:UPD 17-05-22 16:01 OP:jn   STATUS:               ID:20170119063515 L   I
 OLDACT:UP  17-01-19 18:22 OP:dani STATUS:               ID:20170119062748     3
 OLDACT:UP  17-01-19 18:22 OP:dani STATUS:               ID:20170119062748     3
 OLDACT:REG 17-01-19 14:34 OP:dani STATUS:               ID:20170119062748     3
 2017-01-19-0628-00M.COL___328                                                 6
 STAT SP IPHASW D HRMM SECON CODA AMPLIT PERI AZIMU VELO AIN AR TRES W  DIS CAZ7
 BRR  HZ EP        635 36.98                             152   -0.0210 74.0 298 
 BRR  HN ES        635 53.65                             152   -0.0310 74.0 298 
 BRR  HZ I         635 58.41         1.6 0.12            154           74.0 298 
 PAM  EZ EP        635 37.87                             151    0.0410 76.1  38 
 RUS  HZ EP        635 39.38                             144   -0.0010 99.8 178 
 RUS  HN ES        635 57.90                             144   -0.0110 99.8 178 
 RUS  HZ I         635 59.11         1.6 0.32            150           99.8 178 
 PTB  HZ EP        635 42.86                             132   -0.03 9  150 259 
 PTB  HN ES        636  4.21                             132    0.05 9  150 259 
                                                                                
