 2017  619 0833 35.7 L   6.815 -73.141147.4  RSN  6 0.3 1.5LRSN                1
 GAP=258        0.80       3.7     6.7  7.1  0.3568E+01 -0.1487E+02  0.5774E+01E
 Epicentro: LOS SANTOS - SANTANDER                                             3
 ACTION:UPD 17-09-14 16:53 OP:jn   STATUS:               ID:20170619083335 L   I
 OLDACT:REG 17-06-19 13:19 OP:lv   STATUS:               ID:20170619082729     3
 2017-06-19-0828-00M.COL___337                                                 6
 STAT SP IPHASW D HRMM SECON CODA AMPLIT PERI AZIMU VELO AIN AR TRES W  DIS CAZ7
 BRR  HZ EP        833 57.16                             153    0.1210 70.9 297 
 BRR  HE ES        834 13.80                             153    0.1410 70.9 297 
 BRR  HZ I         834 18.67         6.6 0.14            150           70.9 297 
 PTB  HZ EP        834  2.23                             132   -0.67 9  149 258 
 PTB  HZ I         834 22.98         1.3 0.18            130            149 258 
 PTB  HN ES        834 23.66                             132   -0.45 9  149 258 
 SPBC HZ EP        834  4.69                             129    0.19 9  165 219 
 SPBC HE ES        834 27.11                             129    0.16 9  165 219 
 SPBC HZ I         834 32.42         5.7 0.34            128            165 219 
 ZAR  HZ EP        834  8.61                             123    0.34 9  204 292 
 ZAR  HE ES        834 33.57                             123   -0.08 9  204 292 
 ZAR  HZ I         834 39.50         4.5 0.46            120            204 292 
 NOR  HZ EP        834 11.81                             119    0.11 8  236 234 
 NOR  HN ES        834 40.34                             119    0.58 8  236 234 
 NOR  HZ I         834 41.19         3.5 0.18            117            236 234 
 CHI  HZ EP        834 13.65                             117   -0.05 8  250 195 
 CHI  HN ES        834 43.01                             117   -0.31 8  250 195 
 CHI  HZ I         834 45.33         0.9 0.32            116            250 195 
                                                                                
