 2014  219 0146 45.4 L   6.789 -73.164146.1  RSN 13 0.3 2.1LRSN                1
 GAP=135        0.69       2.5     3.7  5.6 -0.1744E+01  0.8534E+01  0.1585E+01E
 Epicentro: LOS SANTOS - SANTANDER                                             3
 ACTION:UPD 14-03-10 08:11 OP:ep   STATUS:               ID:20140219014645 L   I
 OLDACT:REG 14-02-19 08:10 OP:fm   STATUS:               ID:20140219014000     3
 2014-02-19-0140-00M.COL___212                                                 6
 STAT SP IPHASW D HRMM SECON CODA AMPLIT PERI AZIMU VELO AIN AR TRES W  DIS CAZ7
 BAR2 SZ EP        147  4.99                             171   -0.0910 21.8 185 
 BAR2 SZ I         147 22.79        45.8 0.25            170           21.8 185 
 PAM  SZ EP        147  7.86                             150    0.0410 79.6  40 
 PAM  SN ES        147 25.14                             150   -0.1410 79.6  40 
 PAM  SZ I         147 27.34        13.6 0.20            154           79.6  40 
 RUS  HZ EP        147  8.84                             144   -0.3010 99.5 175 
 RUS  HN ES        147 27.63                             144   -0.0010 99.5 175 
 RUS  HZ I         147 28.97         7.5 0.21            146           99.5 175 
 PTB  HZ EP        147 11.91                             133   -0.32 9  146 259 
 PTB  HN ES   2    147 32.22                             133   -0.91 5  146 259 
 PTB  HZ I         147 36.00        14.5 0.17            132            146 259 
 OCA  HN ES   1    147 36.79                             130    0.75 7  161 354 
 OCA  HZ I         147 40.05        10.3 0.46            131            161 354 
 SPBC HZ EP        147 13.92                             130    0.17 9  161 219 
 SPBC HN ES        147 36.32                             130    0.48 9  161 219 
 SPBC HZ I         147 43.00        23.0 0.07            130            161 219 
 ZAR  HZ EP   1    147 17.38                             123   -0.38 6  203 293 
 ZAR  HN ES   1    147 43.06                             123    0.09 6  203 293 
 ZAR  HZ I         147 49.98        11.1 0.36            123            203 293 
 NOR  HZ EP        147 20.97                             119    0.03 8  232 234 
 NOR  HN ES   2    147 48.97                             119    0.35 4  232 234 
 NOR  HZ I         147 53.13        12.5 0.16            120            232 234 
 SML  HZ EP   4    147 21.51                             118   -0.60 0  244 336 
 SML  HN ES   4    147 49.10                             118   -1.62 0  244 336 
 SML  HZ I         147 52.56        12.4 0.13            119            244 336 
 CHI  HZ EP        147 22.98                             117    0.01 8  247 195 
 CHI  HN ES        147 52.23                             117   -0.01 8  247 195 
 CHI  HZ I         147 56.12         3.9 0.43            119            247 195 
 HEL  HZ EP   4    147 26.51                             115    1.09 0  270 256 
 HEL  HN ES   4    148  2.10                             115    5.50 0  270 256 
 HEL  HZ I         148  3.47         4.9 0.24            116            270 256 
 GUY2CHZ EP   4    147 30.16                             113    1.36 0  299 235 
 GUY2CHN ES   4    148  7.81                             113    5.19 0  299 235 
 GUY2CHZ I         148 11.51         5.7 0.44                           299 235 
 CBOC HZ EP   4    147 31.83                             110   -0.28 0  331 252 
 CBOC HN ES   4    148  9.70                             110    1.20 0  331 252 
 PRA  HZ EP   1    147 39.31                             107    0.58 4  390 209 
 PRA  HN ES   4    148 22.33                             107    2.03 0  390 209 
 PRA  HZ I         148 26.79         7.2 0.30            108            390 209 
                                                                                
