 2016 1019 0946  5.3 L   5.935 -73.571124.9  RSN 12 0.5 1.8LRSN                1
 GAP= 63        1.14       3.4     3.4  6.3 -0.3727E+01  0.6013E+01 -0.1344E+01E
 Epicentro: BARBOSA - SANTANDER                                                3
 ACTION:UPD 16-11-09 19:20 OP:rebc STATUS:               ID:20161019094605 L   I
 OLDACT:UP  16-10-19 19:20 OP:and  STATUS:               ID:20161019093733     3
 OLDACT:UP  16-10-19 19:15 OP:and  STATUS:               ID:20161019093733     3
 OLDACT:REG 16-10-19 19:06 OP:y    STATUS:               ID:20161019093733     3
 2016-10-19-0938-00M.COL___326                                                 6
 STAT SP IPHASW D HRMM SECON CODA AMPLIT PERI AZIMU VELO AIN AR TRES W  DIS CAZ7
 RUS  HZ EP        946 23.72                             155   -0.2910 54.2  95 
 RUS  HE ES        946 38.57                             155   -0.0110 54.2  95 
 RUS  HZ I         946 40.19        16.4 0.19            160           54.2  95 
 SPBC HZ EP        946 23.60                             151   -0.3510 63.7 241 
 SPBC HN ES        946 38.61                             151    0.1410 63.7 241 
 SPBC HZ I         946 42.21        19.0 0.12            152           63.7 241 
 BAR2 EZ IP     D  946 25.42                             144   -0.1010 84.4  31 
 BAR2 EZ ES        946 41.36                             144    0.1010 84.4  31 
 BAR2 EZ I         946 42.77        21.4 0.25            148           84.4  31 
 PTB  HZ EP        946 26.74                             133   -1.2310  119 304 
 PTB  HN ES        946 44.94                             133   -0.6810  119 304 
 PTB  HZ I         946 50.71        12.0 0.16            136            119 304 
 BRR  HZ EP        946 28.97                             130   -0.0610  131 353 
 BRR  HN ES        946 47.82                             130    0.3110  131 353 
 CHI  HZ IP     D  946 30.75                             127   -0.25 9  145 187 
 CHI  HN ES        946 51.12                             127    0.10 9  145 187 
 CHI  HZ I         946 57.28         5.8 0.44            130            145 187 
 ROSC BZ EP   4    946 31.89                             127    0.79 0  147 214 
 NOR  HZ EP        946 31.04                             126    0.12 9  150 254 
 NOR  HE ES        946 51.57                             126    0.70 9  150 254 
 NOR  HZ I         946 54.36        16.5 0.15            129            150 254 
 PAM  EZ EP        946 35.34                             121    0.47 9  183  32 
 PAM  EE ES        946 58.55                             121    0.65 9  183  32 
 PAM  EZ I         947  0.16         3.3 0.22            125            183  32 
 GUY2CHZ EP        946 38.46                             116    0.29 8  214 249 
 GUY2CHE ES        947  4.30                             116    0.52 8  214 249 
 GUY2CHZ I         947 13.48         5.1 0.34                           214 249 
 HEL  HZ EP        946 38.38                             116   -0.18 8  219 278 
 HEL  HN ES        947  4.19                             116   -0.29 8  219 278 
 HEL  HZ I         947  9.55         6.4 0.36            118            219 278 
 PTGC HZ EP   9    946 40.20                             112   -1.35 0  250 140 
 PTGC HN ES        947  7.90                             112   -0.54 8  250 140 
 CBOC HZ EP        946 44.55                             110    0.41 8  270 268 
 CBOC HN ES   2    947 15.47                             110    1.06 4  270 268 
 CBOC HZ I         947 17.31         2.3 0.41            113            270 268 
                                                                                
