 2017 1219 0434 40.0 L   6.857 -73.151138.9  RSN  6 0.4 1.6LRSN                1
 GAP=144        1.05       4.4     5.1  7.8 -0.8241E+01  0.1523E+02 -0.5297E+01E
 Epicentro: LOS SANTOS - SANTANDER                                             3
 ACTION:UPD 18-01-04 13:21 OP:rebc STATUS:               ID:20171219043440 L   I
 OLDACT:REG 17-12-19 12:57 OP:dhb  STATUS:               ID:20171219042739     3
 2017-12-19-0428-00M.COL___455                                                 6
 STAT SP IPHASW D HRMM SECON CODA AMPLIT PERI AZIMU VELO AIN AR TRES W  DIS CAZ7
 BAR2 EZ EP        434 58.83                             167   -0.1610 29.5 187 
 BAR2 EZ ES        435 13.64                             167   -0.1410 29.5 187 
 BAR2 EZ I         435 14.81         9.4 0.28            170           29.5 187 
 PAM  EZ EP        435  1.88                             151    0.6210 73.0  43 
 PAM  EN ES        435 17.58                             151   -0.2410 73.0  43 
 PAM  EZ I         435 20.83         7.2 0.46            154           73.0  43 
 PTB  HZ EP        435  5.71                             130   -0.81 9  149 256 
 PTB  HE ES        435 27.53                             130    0.35 9  149 256 
 PTB  HZ I         435 32.12         3.2 0.18            131            149 256 
 OCA  HZ EP        435  7.57                             129    0.35 9  154 353 
 OCA  HE ES        435 28.33                             129   -0.09 9  154 353 
 OCA  HZ I         435 38.22        13.1 0.36            131            154 353 
 SPBC HZ EP        435  7.97                             127   -0.49 9  168 217 
 SPBC HE ES        435 31.22                             127    0.58 9  168 217 
 SPBC HZ I         435 37.19         3.6 0.42            130            168 217 
 ZAR  HZ EP        435 11.96                             121    0.22 9  201 291 
 ZAR  HN ES        435 36.30                             121   -0.17 9  201 291 
 ZAR  HZ I         435 42.12         3.9 0.12            122            201 291 
                                                                                
