 2010 1019 0215 15.1 L   6.789 -73.140134.5  RSN  4 0.2 1.2LRSN                1
 GAP=159        0.41       5.9     9.8 10.8  0.3795E+02 -0.6042E+02 -0.3561E+02E
 Epicentro: LOS SANTOS - SANTANDER                                             3
 ACTION:UP  11-02-18 11:10 OP:tino STATUS:               ID:20101019021515 L   I
 2010-10-19-0211-52S.COL___123                                                 6
 STAT SP IPHASW D HRMM SECON CODA AMPLIT PERI AZIMU VELO SNR AR TRES W  DIS CAZ7
 BAR2 SZ IP        215 33.37                             170     0.010   22 192 
 BAR2 SZ I         215 34.15         5.7 0.53                            22 192 
 BRR  HZ EP        215 35.26                             150     0.110   72 299 
 BRR  HE ES   2    215 50.56                             150    -0.2 5   72 299 
 BRR  HZ I         215 56.55         5.6 0.15                            72 299 
 RUS  HZ EP   2    215 37.43                             141    -0.3 5   99 176 
 RUS  HN ES   2    215 55.50                             141     0.2 5   99 176 
 RUS  HZ I         215 56.94         1.8 0.43                            99 176 
 GRA  SZ EP   2    215 39.52                             134     0.0 5  127  17 
 GRA  SZ I         215 59.98         2.1 0.37                           127  17 
                                                                                
