 2012  419 0555  3.1 L   6.800 -73.114155.1  RSN  5 0.3 1.8LRSN                1
 GAP=141        0.77       5.7     5.9  8.7  0.8621E+01  0.1219E+02  0.3218E+01E
 Epicentro: LOS SANTOS - SANTANDER                                             3
 ACTION:UPD 12-07-05 11:54 OP:tino STATUS:               ID:20120419055503 L   I
 2012-04-19-0550-00M.COL___187                                                 6
 STAT SP IPHASW D HRMM SECON CODA AMPLIT PERI AZIMU VELO AIN AR TRES W  DIS CAZ7
 BAR2 SZ EP   1    555 23.66                             171    -0.2 7   24 198 
 BAR2 SZ I         555 45.25         7.7 0.43                            24 198 
 BRR  HZ EP   1    555 25.63                             153     0.2 7   74 297 
 BRR  HZ I         555 27.21        12.7 0.13                            74 297 
 BRR  HN ES   1    555 43.30                             153     0.5 7   74 297 
 PAM  SZ EP   1    555 26.67                             153     0.5 7   75  37 
 PAM  SN ES   1    555 43.70                             153    -0.5 7   75  37 
 RUS  HZ EP   1    555 27.56                             146    -0.2 7  100 178 
 RUS  HN ES   1    555 46.95                             146     0.0 7  100 178 
 ZAR  HZ EP   1    555 36.33                             124    -0.1 6  207 292 
 ZAR  HE ES   1    556  2.11                             124    -0.4 6  207 292 
 ZAR  HZ I         556  8.72         7.1 0.38                           207 292 
                                                                                
