 2010  319 0522 47.3 L   6.817 -73.118149.2  RSN  8 0.4 2.0LRSN                1
 GAP=128        0.84       4.7     8.1  8.5 -0.2122E+01 -0.1289E+02  0.6685E+01E
 Epicentro: LOS SANTOS - SANTANDER                                             3
 ACTION:UP  10-08-24 09:54 OP:vdl  STATUS:               ID:20100319052247 L   I
 2010-03-19-0521-06S.COL___098                                                 6
 STAT SP IPHASW D HRMM SECON CODA AMPLIT PERI AZIMU VELO SNR AR TRES W  DIS CAZ7
 BAR2 SZ EP   1    523  7.38                             169     0.0 7   26 196 
 BAR2 SZ ES   2    523 22.21                             169    -0.8 5   26 196 
 BRR  HZ EP        523  9.25                             152     0.310   73 296 
 BRR  HE ES   1    523 26.47                             152     0.7 7   73 296 
 BRR  HZ I         523 30.38        18.6 0.15                            73 296 
 RUS  HZ EP   1    523 11.47                             144     0.0 7  102 178 
 RUS  HE ES   2    523 30.06                             144    -0.3 5  102 178 
 RUS  HZ I         523 31.69        12.5 0.39                           102 178 
 OCA  SZ EP   1    523 15.36                             131    -0.4 7  159 352 
 OCA  SZ ES   1    523 37.50                             131    -0.4 7  159 352 
 OCA  SZ I         523 42.29        24.8 0.56                           159 352 
 CHI  HZ EP   1    523 25.53                             117     0.1 6  251 196 
 CHI  HZ I         523 58.29         4.4 0.42                           251 196 
 HEL  HE ES   2    523 59.50                             115    -0.4 4  276 256 
 HEL  HZ I         524  6.45         3.4 0.31                           276 256 
 SDV  B1 ES   2    524 15.84                             109     0.0 3  357  50 
 PRA  HZ EP   1    523 41.17                             107    -0.1 4  395 210 
 PRA  HZ I         524 28.01         3.6 0.32                           395 210 
                                                                                
