 2012  119 0529 56.9 L   6.745 -73.524109.2  RSN  6 0.4 1.2LRSN                1
 GAP=105        0.91       5.7     4.9  7.5  0.1064E+02  0.1247E+02  0.1181E+02E
 Epicentro: EL CARMEN DE CHUCURI - SANTANDER                                   3
 ACTION:UP  12-02-03 08:18 OP:REBC STATUS:               ID:20120119052957 L   I
 2012-01-19-0524-37S.COL___158                                                 6
 STAT SP IPHASW D HRMM SECON CODA AMPLIT PERI AZIMU VELO SNR AR TRES W  DIS CAZ7
 BAR2 SZ EP        530 12.99                             158     0.210   41 114 
 BAR2 SZ ES        530 25.14                             158    -0.110   41 114 
 BAR2 SZ I         530 26.18         8.3 0.18                            41 114 
 BRR  HZ EP        530 12.93                             156     0.310   45 333 
 BRR  HE ES        530 25.13                             156     0.210   45 333 
 BRR  HZ I         530 26.44        11.1 0.15                            45 333 
 PTB  HE ES   1    530 32.33                             132    -0.5 7  106 258 
 RUS  HE ES   1    530 34.14                             133     0.1 7  106 153 
 PTB  HZ EP        530 16.80                             132    -0.310  106 258 
 PTB  HZ I         530 33.32         2.4 0.42                           106 258 
 RUS  HZ EP        530 17.84                             133     0.110  106 153 
 RUS  HZ I         530 19.33         1.3 0.36                           106 153 
 PAM  SN ES   2    530 33.76                             131    -1.3 5  112  54 
 ZAR  HZ EP   1    530 23.61                             118     0.2 7  169 299 
 ZAR  HZ I         530 49.23         2.0 0.32                           169 299 
                                                                                
