 2017  219 0846 39.9 L   6.737 -73.176136.7  RSN  5 0.3 1.0LRSN                1
 GAP=135        0.81       4.9     4.6  6.3  0.5204E+01 -0.1382E+01 -0.4478E+01E
 Epicentro: VILLANUEVA - SANTANDER                                             3
 *PAM-RUS-PTB                                                                  3
 ACTION:UPD 17-05-24 15:37 OP:jn   STATUS:               ID:20170219084639 L   I
 OLDACT:DUP 17-02-19 16:58 OP:cara STATUS:               ID:20170219083744d    3
 2017-02-19-0838-00M.COL___351                                                 6
 STAT SP IPHASW D HRMM SECON CODA AMPLIT PERI AZIMU VELO AIN AR TRES W  DIS CAZ7
 BAR2 EZ EP        846 58.31                             173    0.0210 16.0 182 
 BAR2 EZ ES        847 12.64                             173   -0.0010 16.0 182 
 BAR2 EZ I         847 16.48         2.5 0.54            170           16.0 182 
 BRR  HZ EP        846 59.75                             151   -0.3510 72.0 305 
 BRR  HN ES        847 16.30                             151    0.4210 72.0 305 
 BRR  HZ I         847 22.14         5.6 0.46            147           72.0 305 
 PAM  EN EP        847  1.38                             147   -0.2510 84.9  38 
 PAM  EN I         847 19.50         1.6 0.54            135           84.9  38 
 RUS  HZ EP        847  2.66                             144    0.4010 93.9 174 
 RUS  HN ES        847 19.53                             144   -0.1910 93.9 174 
 RUS  HZ I         847 21.71         0.9 0.34            150           93.9 174 
 PTB  HZ EP        847  6.04                             131    0.34 9  143 261 
 PTB  HN ES        847 25.45                             131   -0.40 9  143 261 
 PTB  HZ I         847 28.16         1.2 0.28            134            143 261 
                                                                                
