 2015  419 0613 11.9 L   6.782 -73.185154.9  RSN  5 0.2 1.1LRSN                1
 GAP=132        0.52       6.9     5.0  8.3 -0.1317E+02 -0.2521E+02  0.2981E+02E
 Epicentro: LOS SANTOS - SANTANDER                                             3
 ACTION:UPD 15-06-03 16:56 OP:cam  STATUS:               ID:20150419061311 L   I
 OLDACT:REG 15-04-19 12:45 OP:spq  STATUS:               ID:20150419060748     3
 2015-04-19-0607-48M.COL___274                                                 6
 STAT SP IPHASW D HRMM SECON CODA AMPLIT PERI AZIMU VELO AIN AR TRES W  DIS CAZ7
 BAR2 EZ EP   1    613 32.34                             172   -0.23 7 20.9 179 
 BRR  HZ EP        613 34.04                             155    0.1610 68.4 302 
 BRR  HE ES        613 51.17                             155    0.1310 68.4 302 
 BRR  HZ I         613 55.79         2.6 0.58            158           68.4 302 
 PAM  SZ EP        613 35.16                             151   -0.1710 81.8  41 
 RUS  HZ EP   1    613 36.67                             146    0.24 7 99.0 173 
 PTB  HZ EP   1    613 39.32                             135    0.12 7  143 259 
 PTB  HN ES   1    614  0.14                             135   -0.37 7  143 259 
 PTB  HZ I         614  2.83         1.1 0.18            139            143 259 
                                                                                
