 2015  519 0636 38.2 L   6.819 -73.132148.0  RSN 19 0.4 2.1LRSN                1
 GAP=119        0.88       2.5     3.5  4.8 -0.9360E+00  0.3884E+01  0.8556E+00E
 Epicentro: LOS SANTOS - SANTANDER                                             3
 ACTION:UPD 15-09-10 22:05 OP:cam  STATUS:               ID:20150519063638 L   I
 OLDACT:REG 15-05-19 12:57 OP:spq  STATUS:               ID:20150519062736     3
 2015-05-19-0627-36M.COL___283                                                 6
 STAT SP IPHASW D HRMM SECON CODA AMPLIT PERI AZIMU VELO AIN AR TRES W  DIS CAZ7
 BAR2 EZ EP        636 58.07                             170   -0.0410 25.6 193 
 BAR2 EZ ES   1    637 13.16                             170   -0.51 7 25.6 193 
 BAR2 EZ I         637 14.61        19.0 0.32            168           25.6 193 
 BRR  HZ EP     C  636 59.79                             153    0.2110 71.6 297 
 BRR  HE ES        637 17.04                             153    0.7610 71.6 297 
 BRR  HZ I         637 18.73        13.6 0.08            149           71.6 297 
 PAM  SZ EP        637  0.96                             152    0.4910 74.8  40 
 PAM  SN ES        637 17.97                             152    0.1010 74.8  40 
 PAM  SZ I         637 20.06        32.1 0.48            155           74.8  40 
 RUS  HZ EP   1    637  2.58                             144    0.30 7  103 177 
 RUS  HN ES   1    637 21.28                             144    0.20 7  103 177 
 RUS  HZ I         637 21.82        18.4 0.24            144            103 177 
 OCA  HZ EP        637  6.00                             131   -0.48 9  158 353 
 OCA  HE ES        637 28.08                             131   -0.48 9  158 353 
 OCA  HZ I         637 32.58        32.2 0.38            130            158 353 
 SPBC HZ EP        637  7.31                             129    0.23 9  166 219 
 SPBC HE ES        637 29.35                             129   -0.28 9  166 219 
 SPBC HZ I         637 31.61        18.6 0.10            128            166 219 
 ZAR  HZ EP        637 10.52                             123   -0.30 9  205 291 
 ZAR  HN ES        637 36.01                             123   -0.29 9  205 291 
 ZAR  HZ I         637 42.47        11.6 0.26            121            205 291 
 NOR  HZ EP   1    637 14.02                             119   -0.27 6  237 234 
 NOR  HE ES   1    637 42.17                             119   -0.29 6  237 234 
 NOR  HZ I         637 48.37        10.1 0.16            118            237 234 
 SML  HZ EP   1    637 14.82                             118    0.03 6  242 335 
 SML  HE ES   1    637 42.93                             118   -0.42 6  242 335 
 SML  HZ I         637 48.16        17.9 0.26            118            242 335 
 CHI  HZ EP   1    637 16.40                             118    0.15 6  251 195 
 CHI  HN ES   1    637 45.77                             118   -0.18 6  251 195 
 CHI  HZ I         637 49.00         9.8 0.30            117            251 195 
 ROSC BZ EP   4    637 18.19                             117    1.51 0  255 211 
 ROSC BN ES   4    637 49.61                             117    2.88 0  255 211 
 ROSC BZ I         637 56.27        11.2 0.35            116            255 211 
 HEL  HZ EP   1    637 19.40                             115    0.69 6  274 255 
 HEL  HE ES   1    637 50.33                             115   -0.01 6  274 255 
 HEL  HZ I         637 57.05         8.6 0.50            114            274 255 
 GUY2CHZ EP   4    637 23.30                             113    1.15 0  304 235 
 GUY2CHN ES   4    638  0.54                             113    4.08 0  304 235 
 GUY2CHZ I         638  3.93         5.5 0.30                           304 235 
 PTGC HZ EP        637 21.33                             112   -0.95 7  310 159 
 PTGC HE ES   4    637 54.65                             112   -2.03 0  310 159 
 PTGC HZ I         637 59.69         8.1 0.26            112            310 159 
 RREF HE ES   4    638  3.59                             111    2.61 0  324 229 
 RREF HZ I         638  7.10         2.8 0.26            111            324 229 
 CBOC HZ EP   1    637 26.39                             110    0.98 5  336 252 
 CBOC HE ES   1    638  2.17                             110   -0.09 5  336 252 
 CBOC HZ I         638  5.54         1.9 0.33            109            336 252 
 MON  HZ EP   4    637 25.10                             109   -2.15 0  354 308 
 MON  HN ES   4    638  3.64                             109   -1.89 0  354 308 
 MON  HZ I         638  4.35         2.0 0.22            109            354 308 
 ARGC HZ EP   1    637 28.00                             109    0.26 5  358 340 
 ARGC HE ES   1    638  6.76                             109    0.35 5  358 340 
 ARGC HZ I         638 15.23         3.1 0.50            109            358 340 
 SJC  HZ EP   4    637 32.19                             106   -1.51 0  408 327 
 SJC  HN ES   4    638 13.19                             106   -3.82 0  408 327 
 SJC  HZ I         638 22.25         2.1 0.42            106            408 327 
                                                                                
