 2011 1019 0400  1.7 L   6.781 -73.119150.5  RSN  5 0.2 1.4LRSN                1
 GAP=141        0.33       3.5     3.7  4.7  0.3060E+01  0.3984E+01 -0.7460E+00E
 Epicentro: LOS SANTOS - SANTANDER                                             3
 ACTION:UPD 12-07-13 16:04 OP:ep   STATUS:               ID:20111019040001 L   I
 2011-10-19-0357-54S.COL___153                                                 6
 STAT SP IPHASW D HRMM SECON CODA AMPLIT PERI AZIMU VELO AIN AR TRES W  DIS CAZ7
 BAR2 SZ EP   2    4 0 21.47                             171   -0.37 5 22.0 198 
 BAR2 SZ ES   2    4 0 37.38                             171   -0.20 5 22.0 198 
 BRR  HZ EP   2    4 0 23.62                             152    0.09 5 74.8 299 
 BRR  HE ES   2    4 0 40.73                             152    0.14 5 74.8 299 
 BRR  HZ I         4 0 43.38         4.6 0.19                          74.8 299 
 PAM  SZ EP   2    4 0 24.61                             152    0.22 5 77.3  37 
 PAM  SN ES   2    4 0 42.06                             152   -0.04 5 77.3  37 
 RUS  HZ EP   2    4 0 25.81                             145    0.08 5 98.3 178 
 RUS  HZ I         4 0 26.57         1.9 0.33                          98.3 178 
 RUS  HE ES   2    4 0 44.66                             145    0.17 5 98.3 178 
 ZAR  HZ EP   2    4 0 34.63                             123   -0.16 4  208 292 
 ZAR  HN ES   2    4 1  0.65                             123    0.03 4  208 292 
 ZAR  HZ I         4 1  5.78         4.3 0.63                           208 292 
                                                                                
