 2014  819 0542 58.9 L   6.801 -73.156150.8  RSN  7 0.4 1.5LRSN                1
 GAP=200        0.90       3.7     5.6  5.7  0.3608E+01  0.4205E+01 -0.3723E+01E
 Epicentro: LOS SANTOS - SANTANDER                                             3
 ACTION:UPD 14-09-15 21:51 OP:nd   STATUS:               ID:20140819054258 L   I
 OLDACT:UP  14-08-19 15:25 OP:cam  STATUS:               ID:20140819054000     3
 OLDACT:REG 14-08-19 13:06 OP:cam  STATUS:               ID:20140819054000     3
 2014-08-19-0540-00M.COL___285                                                 6
 STAT SP IPHASW D HRMM SECON CODA AMPLIT PERI AZIMU VELO AIN AR TRES W  DIS CAZ7
 BAR2 SZ EP     C  543 19.18                             171    0.0110 23.3 187 
 BAR2 SZ ES        543 35.23                             171    0.2810 23.3 187 
 BAR2 SZ I         543 37.61         6.0 0.28            172           23.3 187 
 BRR  HZ EP        543 21.22                             154    0.6510 70.1 299 
 BRR  HN ES        543 37.57                             154    0.1210 70.1 299 
 BRR  HZ I         543 42.18         4.4 0.12            153           70.1 299 
 RUS  HZ EP        543 23.17                             145   -0.0310  101 175 
 RUS  HE ES        543 41.61                             145   -0.5110  101 175 
 RUS  HZ I         543 42.76         2.8 0.28            148            101 175 
 PTB  HZ EP     D  543 26.22                             133    0.00 9  147 259 
 PTB  HN ES        543 47.37                             133   -0.13 9  147 259 
 PTB  HZ I         543 50.46         4.3 0.38            135            147 259 
 SPBC HZ EP        543 28.17                             130    0.40 9  163 219 
 SPBC HN ES        543 49.91                             130   -0.34 9  163 219 
 SPBC HZ I         543 53.03         6.0 0.34            133            163 219 
 SML  HZ EP        543 35.17                             118   -0.62 8  243 336 
 SML  HN ES        544  4.13                             118   -0.40 8  243 336 
 SML  HZ I         544  7.38         4.0 0.10            120            243 336 
 HEL  HZ EP        543 39.58                             116    0.29 8  271 256 
                                                                                
