 2012  119 0106 36.2 L   6.873 -73.130152.0  RSN  5 0.4 1.6LRSN                1
 GAP=135        0.70       6.0     7.3 13.8 -0.5307E+00  0.6527E+02  0.1192E+02E
 Epicentro: LOS SANTOS - SANTANDER                                             3
 ACTION:UP  12-02-03 08:18 OP:REBC STATUS:               ID:20120119010636 L   I
 2012-01-19-0100-00M.COL___187                                                 6
 STAT SP IPHASW D HRMM SECON CODA AMPLIT PERI AZIMU VELO SNR AR TRES W  DIS CAZ7
 PAM  SN ES   1    1 7 16.26                             155     0.0 7   70  43 
 RUS  HZ EP   2    1 7  1.60                             143     0.4 5  109 177 
 RUS  HN ES   1    1 7 20.66                             143     0.0 7  109 177 
 RUS  HZ I         1 7 21.73         3.8 0.31                           109 177 
 PTB  HZ EP   1    1 7  3.54                             133    -0.5 7  151 256 
 PTB  HN ES   2    1 7 25.29                             133    -0.4 5  151 256 
 ZAR  HN ES   2    1 7 35.31                             124     0.8 4  203 290 
 ZAR  HZ I         1 7 42.33         4.7 0.26                           203 290 
 NOR  SE ES   2    1 7 42.10                             119     0.4 4  241 233 
                                                                                
