 2010  419 0614 13.6 L   6.814 -73.002142.0  RSN  6 0.4 2.0LRSN                1
 GAP=266        0.80       6.0     7.4  8.1  0.2948E+01  0.1266E+02  0.2175E+02E
 Epicentro: CEPITA - SANTANDER                                                 3
 ACTION:UPD 10-08-24 09:59 OP:vdl  STATUS:               ID:20100419061425 L   I
 2010-04-19-0612-56S.COL___100                                                 6
 STAT SP IPHASW D HRMM SECON CODA AMPLIT PERI AZIMU VELO AIN AR TRES W  DIS CAZ7
 BAR2 SZ EP        614 32.88                             167    -0.110   32 219 
 BAR2 SZ ES   1    614 48.12                             167     0.0 7   32 219 
 BRR  HZ EP        614 35.10                             147    -0.110   85 293 
 BRR  HZ I         614 35.31        27.4 0.22                            85 293 
 BRR  HN ES        614 52.13                             147     0.110   85 293 
 CHI  HZ EP   2    614 52.46                             115     0.7 4  255 199 
 CHI  HN ES   1    615 21.13                             115    -0.4 6  255 199 
 CHI  HZ I         615 24.25         4.6 0.87                           255 199 
 HEL  HZ EP   1    614 55.36                             112     0.0 5  288 256 
 HEL  HN ES   1    615 27.27                             112    -0.7 5  288 256 
 HEL  HZ I         615 32.16         4.8 0.41                           288 256 
 RREF BN ES   1    615 39.13                             109     1.0 5  335 231 
 RREF BZ I         615 44.40         3.1 0.03                           335 231 
 PRA  HE ES   2    615 50.09                             105    -0.5 3  401 211 
 PRA  HZ I         615 53.30         3.2 0.13                           401 211 
                                                                                
