 2012  719 0337 12.6 L   6.723 -73.217145.0  RSN  5 0.4 1.5LRSN                1
 GAP=217        0.95       9.5     8.6  9.6  0.4958E+02  0.1890E+02  0.6622E+01E
 Epicentro: VILLANUEVA - SANTANDER                                             3
 ACTION:UPD 12-08-14 11:45 OP:ep   STATUS:               ID:20120719033712 L   I
 2012-07-19-0330-00M.COL___201                                                 6
 STAT SP IPHASW D HRMM SECON CODA AMPLIT PERI AZIMU VELO AIN AR TRES W  DIS CAZ7
 BAR2 SZ EP   1    337 31.91                             174    -0.1 8   15 165 
 BAR2 SZ ES   1    337 46.32                             174    -0.8 8   15 165 
 BAR2 SZ I         337 49.32        10.7 0.30            170             15 165 
 BRR  HZ EP   1    337 33.62                             153     0.1 8   69 308 
 BRR  HN ES   1    337 50.50                             153     0.6 8   69 308 
 RUS  HZ EP   1    337 35.74                             146     0.0 8   93 171 
 RUS  HN ES   1    337 54.39                             146     0.6 8   93 171 
 RUS  HZ I         337 55.75         5.8 0.41            145             93 171 
 PTB  HZ EP        337 38.53                             134    -0.110  139 262 
 PTB  HN ES   1    337 58.75                             134    -0.3 7  139 262 
 PTB  HZ I         338  2.48         3.4 0.22            134            139 262 
 ZAR  HN ES   1    338  9.68                             123     0.1 7  200 295 
