 2017  219 0648 27.1 L   6.779 -73.189142.1  RSN  6 0.3 1.1LRSN                1
 GAP=132        0.69       3.1     3.5  4.8 -0.1477E+01  0.1140E+01  0.4759E+01E
 Epicentro: ZAPATOCA - SANTANDER                                               3
 ACTION:UPD 17-05-24 15:37 OP:jn   STATUS:               ID:20170219064827 L   I
 OLDACT:UP  17-02-19 18:34 OP:edw  STATUS:               ID:20170219064741d    3
 OLDACT:DUP 17-02-19 18:31 OP:edw  STATUS:               ID:20170219064741d    3
 OLDACT:REG 17-02-19 12:42 OP:edw  STATUS:               ID:20170219064740     3
 2017-02-19-0648-00M.COL___352                                                 6
 STAT SP IPHASW D HRMM SECON CODA AMPLIT PERI AZIMU VELO AIN AR TRES W  DIS CAZ7
 BAR2 EZ EP        648 46.35                             171    0.1610 20.7 178 
 BAR2 EZ ES        649  1.38                             171    0.2610 20.7 178 
 BAR2 EZ I         649  4.11         4.4 0.30            171           20.7 178 
 BRR  HZ EP   4    648 45.19                             153   -2.45 0 68.2 302 
 BRR  HN ES        649  3.88                             153    0.1910 68.2 302 
 BRR  HZ I         649  7.50         3.4 0.38            154           68.2 302 
 PAM  EZ EP     C  648 49.27                             149    0.0910 82.2  41 
 PAM  EN ES        649  5.92                             149   -0.5210 82.2  41 
 PAM  EZ I         649  7.94         1.4 0.42            152           82.2  41 
 RUS  HZ EP        648 50.41                             143    0.1010 98.7 173 
 RUS  HN ES        649  8.54                             143    0.0910 98.7 173 
 RUS  HZ I         649 10.18         2.3 0.32            146           98.7 173 
 PTB  HZ EP        648 53.31                             132    0.05 9  143 259 
 PTB  HN ES        649 13.41                             132   -0.28 9  143 259 
 PTB  HZ I         649 16.52         1.3 0.40            134            143 259 
 CHI  HZ EP        649  4.39                             117    0.21 8  245 194 
 CHI  HN ES        649 32.64                             117   -0.49 8  245 194 
 CHI  HZ I         649 35.79         0.7 0.36            119            245 194 
                                                                                
