 2011  319 0453 42.2 L   6.744 -73.159140.6  RSN  6 0.5 1.9LRSN                1
 GAP=158        1.11       5.9     9.3 10.5 -0.1419E+02  0.6427E+01 -0.1182E+02E
 Epicentro: VILLANUEVA - SANTANDER                                             3
 ACTION:UP  11-06-16 14:34 OP:jfem STATUS:               ID:20110319045342 L   I
 2011-03-19-0449-01S.COL___134                                                 6
 STAT SP IPHASW D HRMM SECON CODA AMPLIT PERI AZIMU VELO SNR AR TRES W  DIS CAZ7
 BAR2 SZ EP        454  1.15                             173     0.110   17 189 
 BAR2 SZ ES   1    454 15.36                             173    -0.5 7   17 189 
 BAR2 SZ I         454 17.14        16.2 0.16                            17 189 
 BRR  HZ EP        454  3.08                             151     0.210   73 303 
 BRR  HN ES   1    454 19.68                             151     0.6 7   73 303 
 BRR  HZ I         454 25.21        16.2 0.08                            73 303 
 RUS  HZ EP   1    454  5.03                             145     0.0 7   95 175 
 RUS  HN ES   1    454 22.88                             145     0.1 7   95 175 
 RUS  HZ I         454 24.35         9.9 0.23                            95 175 
 GRA  SZ EP   1    454  8.22                             134     0.7 7  132  17 
 GRA  SZ ES   1    454 26.75                             134    -0.5 7  132  17 
 GRA  SZ I         454 30.67         9.3 0.65                           132  17 
 OCA  SZ EP   1    454  9.94                             127    -0.7 7  166 354 
 OCA  SZ I         454 35.67        11.4 0.13                           166 354 
 NOR  SN ES   1    454 43.84                             118    -0.5 6  230 236 
                                                                                
