 2014  519 0254 53.1 L   6.824 -73.148139.6  RSN 11 0.5 1.5LRSN                1
 GAP=135        0.93       3.6     4.3  7.9 -0.3895E+01  0.6015E+01  0.6548E+01E
 Epicentro: LOS SANTOS - SANTANDER                                             3
 ACTION:UPD 15-03-16 16:58 OP:nd   STATUS:               ID:20140519025453 L   I
 OLDACT:REG 14-05-19 12:37 OP:spq  STATUS:               ID:20140519024812     3
 2014-05-19-0248-12M.COL___257                                                 6
 STAT SP IPHASW D HRMM SECON CODA AMPLIT PERI AZIMU VELO AIN AR TRES W  DIS CAZ7
 BRR  HZ EP        255 14.13                             152    0.6310 69.7 297 
 BRR  HN ES   1    255 29.91                             152    0.50 7 69.7 297 
 BRR  HZ I         255 35.03         6.0 0.16            151           69.7 297 
 PAM  SZ EP        255 14.99                             150    0.4410 75.5  41 
 PAM  SE ES   1    255 30.76                             150   -0.52 7 75.5  41 
 PAM  SZ I         255 33.95         6.3 0.30            155           75.5  41 
 RUS  HZ EP   1    255 16.76                             142    0.30 7  103 176 
 RUS  HE ES   1    255 34.19                             142   -0.48 7  103 176 
 PTB  HZ EP        255 19.09                             130   -0.51 9  148 258 
 PTB  HN ES        255 40.26                             130   -0.00 9  148 258 
 PTB  HZ I         255 42.81         3.5 0.18            132            148 258 
 OCA  HE ES   1    255 41.29                             129   -0.90 7  158 353 
 OCA  HZ I         255 46.02         4.1 0.27            132            158 353 
 SPBC HN ES   1    255 43.98                             127    0.65 7  165 218 
 SPBC HZ I         255 48.82         3.3 0.27            130            165 218 
 ZAR  HZ EP   1    255 25.17                             121    0.15 6  203 291 
 ZAR  HN ES   1    255 49.79                             121   -0.12 6  203 291 
 ZAR  HZ I         255 55.91         4.0 0.39            123            203 291 
 NOR  HN ES        255 56.16                             117   -0.17 8  236 234 
 NOR  HZ I         255 59.70         2.2 0.20            120            236 234 
 SML  HN ES   4    255 56.04                             116   -1.15 0  241 335 
 CHI  HZ EP   1    255 30.77                             115    0.03 6  251 195 
 CHI  HE ES   1    255 59.79                             115   -0.31 6  251 195 
 GUY2CHZ EP   1    255 36.47                             111   -0.11 5  303 234 
 GUY2CHN ES   1    256 10.60                             111    0.10 5  303 234 
 GUY2CHZ I         256 20.43         1.3 0.46                           303 234 
 RREF HE ES   1    256 14.40                             109   -0.69 5  323 229 
 RREF HZ I         256 22.27         1.4 0.25            112            323 229 
                                                                                
