 2017  519 0630 26.4 L   6.824 -73.140152.3  RSN 10 0.4 1.9LRSN                1
 GAP=111        0.94       3.5     3.2  6.4  0.6883E-01  0.2166E+01  0.7112E+01E
 Epicentro: LOS SANTOS - SANTANDER                                             3
 ACTION:UPD 17-06-16 13:37 OP:jn   STATUS:               ID:20170519063026 L   I
 OLDACT:UP  17-05-19 15:12 OP:dnl  STATUS:               ID:20170519062738     3
 OLDACT:REG 17-05-19 13:10 OP:dnl  STATUS:               ID:20170519062738     3
 2017-05-19-0628-00M.COL___350                                                 6
 STAT SP IPHASW D HRMM SECON CODA AMPLIT PERI AZIMU VELO AIN AR TRES W  DIS CAZ7
 BRR  HZ EP        630 48.41                             154    0.2210 70.5 296 
 BRR  HN ES        631  5.64                             154    0.4310 70.5 296 
 BRR  HZ I         631  6.17        12.3 0.32            152           70.5 296 
 PAM  EZ IP     D  630 49.33                             153    0.1910 74.9  40 
 PAM  EN ES        631  6.69                             153   -0.2210 74.9  40 
 PAM  EZ I         631  8.37         7.7 0.32            157           74.9  40 
 PTB  HZ EP        630 53.48                             133   -0.50 9  149 258 
 PTB  HN ES        631 14.49                             133   -1.02 9  149 258 
 PTB  HZ I         631 21.78        10.4 0.42            132            149 258 
 SPBC HZ EP        630 55.43                             130   -0.17 9  166 219 
 SPBC HE ES        631 18.36                             130   -0.05 9  166 219 
 SPBC HZ I         631 22.78        15.1 0.30            130            166 219 
 YPLC HZ EP        630 56.68                             128   -0.16 9  179 152 
 YPLC HZ ES        631 20.61                             128    0.00 9  179 152 
 YPLC HZ I         631 21.33         6.1 0.26            130            179 152 
 ZAR  HZ EP        630 59.29                             124    0.09 9  204 291 
 ZAR  HE ES        631 25.24                             124    0.42 9  204 291 
 ZAR  HZ I         631 31.52        10.5 0.42            124            204 291 
 NOR  HZ EP        631  2.50                             120   -0.20 8  237 234 
 NOR  HN ES        631 31.59                             120    0.55 8  237 234 
 NOR  HZ I         631 31.99         6.7 0.18            120            237 234 
 CHI  HZ EP   2    631  4.55                             118   -0.18 4  251 195 
 CHI  HN ES        631 35.19                             118    0.54 8  251 195 
 CHI  HZ I         631 39.36         3.4 0.24            119            251 195 
 HEL  HZ EP   9    631  9.04                             116    1.98 0  273 255 
 HEL  HN ES        631 40.39                             116   -0.39 8  273 255 
 HEL  HZ I         631 45.06         4.0 0.24            116            273 255 
 CBOC HZ EP   2    631 14.67                             111    0.95 3  335 252 
 CBOC HN ES        631 50.62                             111   -0.03 7  335 252 
 CBOC HZ I         631 58.64         1.9 0.48            111            335 252 
                                                                                
