 2012 1219 0928 32.2 L   5.964 -73.613  4.3  RSN  4 0.4 1.4LRSN                1
 GAP=207        0.76       6.3     3.7 10.5  0.7532E+01  0.1801E+02 -0.2390E+02E
 Epicentro: BARBOSA - SANTANDER                                                3
 ACTION:UPD 13-01-04 14:29 OP:ep   STATUS:               ID:20121219092832 L   I
 2012-12-19-0920-00M.COL___243                                                 6
 STAT SP IPHASW D HRMM SECON CODA AMPLIT PERI AZIMU VELO AIN AR TRES W  DIS CAZ7
 RUS  HZ EP        928 42.44                              47    0.1310 59.2  98 
 BAR2 SZ EP   1    928 45.21                              47   -0.63 7 84.3  34 
 BAR2 SZ I         929  1.90         9.0 0.76                          84.3  34 
 PTB  HZ EP        928 49.87                              47   -0.0810  113 304 
 PTB  HN ES        929  3.72                              47   -0.0510  113 304 
 PTB  HZ I         929  4.35        13.7 0.18                           113 304 
 BRR  HZ EP   1    928 52.70                              47    0.65 7  127 355 
 BRR  HZ I         928 57.03         6.0 0.47                           127 355 
 BRR  HE ES   2    929  7.58                              47    0.07 5  127 355 
                                                                                
