 2016 1019 0854 38.8 L   6.789 -73.129144.0  RSN  8 0.5 1.7LRSN                1
 GAP=121        0.92       4.4     5.4  6.2 -0.1119E+02  0.5593E+00  0.4389E+01E
 Epicentro: LOS SANTOS - SANTANDER                                             3
 ACTION:UPD 16-11-09 19:20 OP:rebc STATUS:               ID:20161019085438 L   I
 OLDACT:REG 16-10-19 14:18 OP:cog  STATUS:               ID:20161019084735     3
 2016-10-19-0848-00M.COL___326                                                 6
 STAT SP IPHASW D HRMM SECON CODA AMPLIT PERI AZIMU VELO AIN AR TRES W  DIS CAZ7
 BAR2 EZ EP   3    854 57.88                             171   -0.33 2 22.6 195 
 BAR2 EZ ES   3    855 11.84                             171   -1.50 2 22.6 195 
 BRR  HZ EP        855  0.04                             152    0.1410 73.4 299 
 BRR  HE ES        855 16.92                             152    0.5810 73.4 299 
 BRR  HZ I         855 20.85        11.7 0.35            151           73.4 299 
 PAM  EZ EP        855  0.92                             151    0.1010 77.1  38 
 PAM  EN ES        855 17.81                             151   -0.1810 77.1  38 
 PAM  EZ I         855 20.16         6.2 0.30            155           77.1  38 
 RUS  HZ EP   3    855  2.91                             144    0.62 2 99.3 177 
 RUS  HN ES        855 20.67                             144    0.0610 99.3 177 
 RUS  HZ I         855 21.23         3.1 0.18            146           99.3 177 
 PTB  HZ EP        855  4.77                             132   -1.01 9  149 259 
 PTB  HN ES   3    855 25.05                             132   -1.77 2  149 259 
 PTB  HZ I         855 28.22         7.3 0.34            132            149 259 
 SPBC HZ EP        855  7.45                             129    0.25 9  163 220 
 SPBC HE ES        855 29.53                             129    0.19 9  163 220 
 SPBC HZ I         855 36.29         7.3 0.06            130            163 220 
 SOCV BZ EP        855 21.68                             112    0.01 7  300  56 
 SOCV BN ES   4    855 51.73                             112   -3.37 0  300  56 
 PRA  HZ EP        855 32.19                             107   -0.07 6  392 210 
 PRA  HN ES        856 13.94                             107   -0.01 6  392 210 
 PRA  HZ I         856 16.50         1.7 0.26            108            392 210 
                                                                                
