 2013  619 0704 29.6 L   6.824 -73.118145.5  RSN 12 0.5 1.9LRSN                1
 GAP=163        0.99       3.4     4.8  7.0  0.3454E+01  0.5448E+01  0.2953E+01E
 Epicentro: LOS SANTOS - SANTANDER                                             3
 ACTION:UPD 14-01-08 09:55 OP:ep   STATUS:               ID:20130619070429 L   I
 OLDACT:REG 13-06-19 07:30 OP:carl STATUS:               ID:20130619065959     3
 2013-06-19-0659-59M.COL___261                                                 6
 STAT SP IPHASW D HRMM SECON CODA AMPLIT PERI AZIMU VELO AIN AR TRES W  DIS CAZ7
 BAR2 SZ EP   1    7 4 49.04                             169   -0.20 7 26.6 196 
 BAR2 SZ ES   1    7 5  4.24                             169   -0.34 7 26.6 196 
 BAR2 SZ I         7 5  5.41        12.3 0.20            169           26.6 196 
 GIR2 SZ EP   1    7 4 48.76                             168   -0.40 7 29.4 343 
 GIR2 SZ I         7 5  5.42         6.2 0.20            166           29.4 343 
 BRR  HZ IP     C  7 4 50.78                             152    0.0010 72.8 296 
 BRR  HN ES   1    7 5  7.74                             152    0.42 7 72.8 296 
 BRR  HZ I         7 5  8.53        11.8 0.14            150           72.8 296 
 RUS  HZ EP   1    7 4 53.43                             143   -0.04 7  103 178 
 RUS  HN ES   1    7 5 11.46                             143   -0.66 7  103 178 
 RUS  HZ I         7 5 13.93         5.4 0.18            143            103 178 
 OCA  HZ EP   1    7 4 57.43                             130   -0.22 7  158 352 
 OCA  HE ES   1    7 5 20.93                             130    1.37 7  158 352 
 OCA  HZ I         7 5 21.94        10.6 0.22            129            158 352 
 YOP  SZ EP        7 4 59.71                             126    0.02 9  180 155 
 YOP  SN ES   1    7 5 24.22                             126    1.03 7  180 155 
 YOP  SZ I         7 5 24.70        12.1 0.28            126            180 155 
 ZAR  HN ES   1    7 5 27.54                             122   -0.10 6  206 291 
 ZAR  HN I         7 5 34.47        25.5 0.30            120            206 291 
 NOR  HZ EP   1    7 5  5.76                             118    0.04 6  239 234 
 NOR  HN ES   1    7 5 33.39                             118   -0.53 6  239 234 
 NOR  HZ I         7 5 39.00         6.8 0.20            117            239 234 
 SML  HZ EP   1    7 5  5.67                             117   -0.40 6  243 334 
 SML  HN ES   1    7 5 33.37                             117   -1.16 6  243 334 
 SML  HZ I         7 5 37.67        14.6 0.10            116            243 334 
 CHI  HZ EP   1    7 5  7.62                             117    0.00 6  252 196 
 CHI  HN ES   1    7 5 37.03                             117   -0.27 6  252 196 
 CHI  HZ I         7 5 43.16         3.4 0.48            116            252 196 
 HEL  HZ EP   1    7 5 10.61                             114    0.43 6  276 255 
 HEL  HE ES        7 5 42.39                             114    0.54 7  276 255 
 HEL  HZ I         7 5 47.02         3.9 0.44            113            276 255 
 PRA  HZ EP   1    7 5 23.47                             106   -0.06 4  396 210 
 PRA  HE ES   1    7 6  6.15                             106    0.53 4  396 210 
 PRA  HZ I         7 6 11.54         2.8 0.28            105            396 210 
                                                                                
