 2014  919 0852 30.2 L   6.724 -73.147150.8  RSN  4 0.5 1.3LRSN                1
 GAP=219        1.29       8.7    10.3 10.4  0.3669E+01  0.7684E+01 -0.3103E+02E
 Epicentro: JORDAN - SANTANDER                                                 3
 ACTION:UPD 14-10-03 23:06 OP:nd   STATUS:               ID:20140919085230 L   I
 OLDACT:REG 14-09-19 14:17 OP:carl STATUS:               ID:20140919084806     3
 2014-09-19-0848-06M.COL___281                                                 6
 STAT SP IPHASW D HRMM SECON CODA AMPLIT PERI AZIMU VELO AIN AR TRES W  DIS CAZ7
 BAR2 SZ EP        852 50.57                             174    0.3110 15.1 195 
 BAR2 SZ ES        853  5.20                             174   -0.7510 15.1 195 
 BRR  HZ EP        852 52.51                             152    0.4110 75.5 304 
 BRR  HN ES        853 10.02                             152    0.8110 75.5 304 
 BRR  HZ I         853 11.43         3.5 0.62            147           75.5 304 
 PTB  HZ EP        852 57.60                             133    0.19 9  146 262 
 PTB  HN ES        853 18.19                             133   -0.48 9  146 262 
 PTB  HZ I         853 24.35         1.7 0.18            130            146 262 
 SML  HZ EP        853  7.39                             117   -0.51 8  251 336 
 SML  HN ES        853 36.97                             117   -0.36 8  251 336 
 SML  HZ I         853 40.09         1.8 0.22            117            251 336 
                                                                                
