 2012  119 0327  9.4 L   6.781 -73.223142.8  RSN  4 0.2 1.3LRSN                1
 GAP=224        0.46       5.8     4.8  7.3  0.1479E+02 -0.4904E+01 -0.9203E+01E
 Epicentro: ZAPATOCA - SANTANDER                                               3
 ACTION:UP  12-02-03 08:18 OP:REBC STATUS:               ID:20120119032709 L   I
 2012-01-19-0320-00M.COL___187                                                 6
 STAT SP IPHASW D HRMM SECON CODA AMPLIT PERI AZIMU VELO SNR AR TRES W  DIS CAZ7
 BAR2 SZ EP   1    327 28.33                             171    -0.3 7   21 168 
 BRR  HZ EP   2    327 30.18                             154     0.3 5   65 304 
 BRR  HN ES   2    327 45.84                             154     0.0 5   65 304 
 BRR  HN I         327 52.24        12.2 0.17                            65 304 
 RUS  HZ EP   1    327 32.97                             143     0.2 7   99 171 
 RUS  HE ES   1    327 50.92                             143     0.0 7   99 171 
 RUS  HZ I         327 52.11         1.2 0.18                            99 171 
 PTB  HZ EP   1    327 35.11                             133    -0.2 7  139 259 
 PTB  HN ES   1    327 55.57                             133     0.1 7  139 259 
                                                                                
