 2010 1219 0255  5.1 L   6.809 -73.422126.0  RSN  4 0.4 1.3LRSN                1
 GAP=176        1.04       5.3    25.6 22.1 -0.6461E+02  0.3383E+03 -0.6015E+02E
 Epicentro: SAN VICENTE DE CHUCURI - SANTANDER                                 3
 ACTION:UP  11-01-14 15:25 OP:pat  STATUS:               ID:20101219025505 L   I
 2010-12-19-0253-08S.COL___133                                                 6
 STAT SP IPHASW D HRMM SECON CODA AMPLIT PERI AZIMU VELO SNR AR TRES W  DIS CAZ7
 RUS  HZ EP        255 27.15                             138    -0.510  108 160 
 RUS  HN ES   1    255 45.75                             138     0.6 7  108 160 
 RUS  HZ I         255 47.64         4.2 0.36                           108 160 
 GRA  SZ IP        255 29.98                             130     0.210  137  30 
 GRA  SZ ES   2    255 48.09                             130    -0.8 5  137  30 
 GRA  SZ I         255 50.64         2.8 0.38                           137  30 
 OCA  SZ EP        255 32.06                             126     0.2 9  158   4 
 OCA  SZ ES   2    255 52.39                             126    -0.2 5  158   4 
 OCA  SZ I         255 57.69         3.4 0.28                           158   4 
 CHI  HN ES   1    256  9.28                             114    -0.1 6  243 188 
 CHI  HZ I         256 14.15         1.6 0.79                           243 188 
                                                                                
