 2011  119 0510 44.7 L   6.770 -73.149141.3  RSN 15 0.4 2.5LRSN                1
 GAP=136        0.91       2.9     4.8  6.6 -0.3030E+01  0.1213E+02  0.2009E+01E
 Epicentro: LOS SANTOS - SANTANDER                                             3
 ACTION:UP  11-02-08 08:41 OP:pat  STATUS:               ID:20110119051044 L   I
 2011-01-19-0507-39S.COL___137                                                 6
 STAT SP IPHASW D HRMM SECON CODA AMPLIT PERI AZIMU VELO SNR AR TRES W  DIS CAZ7
 BAR2 SZ IP        511  3.55                             171    -0.210   20 191 
 BAR2 SZ ES   1    511 18.52                             171     0.0 7   20 191 
 BAR2 SZ I         511 20.04       124.8 0.14                            20 191 
 BTL  SZ IP        511  3.77                             171     0.010   21 322 
 GIR2 SZ EP   1    511  3.66                             165    -0.3 7   35 352 
 RUS  HZ EP        511  7.52                             143    -0.210   97 176 
 RUS  HN ES   1    511 25.61                             143    -0.1 7   97 176 
 RUS  HZ I         511 27.31        36.7 0.26                            97 176 
 GRA  SZ IP        511 10.33                             135     0.510  129  17 
 GRA  SZ ES   1    511 29.91                             135     0.5 7  129  17 
 GRA  SZ I         511 31.11        32.4 0.37                           129  17 
 OCA  SZ EP   1    511 12.40                             128    -0.6 7  164 353 
 OCA  SZ ES   1    511 34.86                             128    -0.2 7  164 353 
 OCA  SZ I         511 38.77        36.9 0.20                           164 353 
 YOP  SZ EP   1    511 13.97                             125    -0.2 7  176 153 
 YOP  SN ES   1    511 37.23                             125     0.1 7  176 153 
 YOP  SZ I         511 39.03        31.0 0.26                           176 153 
 NOR  SZ EP   1    511 19.55                             117    -0.4 6  233 235 
 NOR  SN ES   1    511 46.79                             117    -0.6 6  233 235 
 CHI  HZ EP        511 21.71                             116    -0.1 8  245 195 
 CHI  HZ I         511 22.59        23.2 0.34                           245 195 
 CHI  HE ES   1    511 50.65                             116    -0.1 6  245 195 
 ROSC BZ EP        511 22.88                             116     0.6 8  250 211 
 ROSC BE ES   1    511 51.90                             116     0.4 6  250 211 
 ROSC BZ I         511 58.42        42.3 0.53                           250 211 
 HEL  HZ EP   1    511 24.27                             114    -0.3 6  271 256 
 HEL  HE ES   1    511 56.10                             114     0.5 6  271 256 
 HEL  HZ I         512  4.01        23.0 0.45                           271 256 
 VIL  SZ EP   1    511 26.63                             111    -0.7 5  298 190 
 VIL  SZ I         511 29.70        10.6 0.39                           298 190 
 VIL  SN ES   2    512  1.04                             111     0.4 4  298 190 
 RREF HZ EP   1    511 31.32                             110     1.0 5  319 230 
 RREF HN ES   1    512  6.21                             110     0.2 5  319 230 
 RREF HZ I         512 10.49        18.6 0.55                           319 230 
 DBB  SZ EP   1    511 31.11                             108    -0.9 5  339 275 
 TOL  SZ EP   1    511 33.16                             108     0.7 5  341 225 
                                                                                
