 2013  219 0252 57.8 L   6.782 -73.170148.8  RSN 14 0.5 2.5LRSN                1
 GAP= 70        0.98       3.1     3.6  6.1  0.1181E+01  0.4035E+01  0.2100E+01E
 Epicentro: LOS SANTOS - SANTANDER                                             3
 ACTION:UPD 13-03-12 09:34 OP:ep   STATUS:               ID:20130219025257 L   I
 2013-02-19-0250-00M.COL___241                                                 6
 STAT SP IPHASW D HRMM SECON CODA AMPLIT PERI AZIMU VELO AIN AR TRES W  DIS CAZ7
 BAR2 SZ EP        253 17.78                             172   -0.0110 21.1 184 
 BAR2 SZ ES   1    253 33.12                             172   -0.23 7 21.1 184 
 BAR2 SZ I         253 34.49       125.5 0.36            166           21.1 184 
 BRR  HZ EP     C  253 19.64                             153    0.4010 69.8 301 
 BRR  HN ES   1    253 37.16                             153    1.23 7 69.8 301 
 BRR  HZ I         253 41.05        54.6 0.22            147           69.8 301 
 PAM  SZ EP        253 20.54                             150   -0.0310 80.6  40 
 PAM  SN ES   1    253 38.38                             150    0.08 7 80.6  40 
 PAM  SZ I         253 42.11        16.5 0.20            145           80.6  40 
 RUS  HZ EP   1    253 21.67                             145   -0.10 7 98.9 174 
 RUS  HN ES   1    253 40.18                             145   -0.25 7 98.9 174 
 RUS  HZ I         253 41.58        38.0 0.36            136           98.9 174 
 PTB  HZ EP        253 24.34                             133   -0.44 9  145 259 
 PTB  HN ES   1    253 45.13                             133   -0.67 7  145 259 
 PTB  HZ I         253 53.08        63.1 0.22            124            145 259 
 TAM  HZ EP     D  253 25.94                             131   -0.01 9  157 104 
 TAM  HZ I         253 46.79        23.1 0.36            123            157 104 
 TAM  HN ES   1    253 47.62                             131   -0.26 7  157 104 
 OCA  HZ EP   1    253 26.38                             130   -0.16 7  162 354 
 OCA  HN ES   1    253 48.55                             130   -0.37 7  162 354 
 OCA  HZ I         253 52.71        81.3 0.32            123            162 354 
 ZAR  HZ EP        253 30.32                             123    0.02 9  202 293 
 ZAR  HE ES   1    253 56.00                             123    0.38 6  202 293 
 SML  HZ EP   1    253 34.21                             118   -0.49 6  244 336 
 SML  HN ES   1    254  3.69                             118    0.23 6  244 336 
 CHI  HZ EP        253 35.69                             118    0.26 8  246 195 
 CHI  HN ES   1    254  4.72                             118   -0.03 6  246 195 
 CHI  HZ I         254 10.67        14.5 0.41            110            246 195 
 ROSC BN ES   1    254  5.33                             118   -0.07 6  250 211 
 ROSC BZ I         254 15.54        47.2 0.45            110            250 211 
 HEL  HZ EP   1    253 39.01                             116    1.15 6  269 256 
 HEL  HZ I         254 16.96        24.1 0.26            108            269 256 
 URE  HE ES   1    254  9.45                             114   -1.40 6  282 292 
 VIL  SZ EP   1    253 42.07                             113    0.95 5  301 191 
 VIL  SN ES   1    254 14.53                             113   -0.35 5  301 191 
 VIL  SZ I         254 24.88        22.7 0.48            106            301 191 
 RREF HZ EP   4    253 44.77                             112    1.04 0  318 229 
 RREF HN ES   4    254 22.87                             112    3.34 0  318 229 
                                                                                
