 2012  519 0748  4.0 L   6.789 -73.160145.6  RSN  5 0.4 1.9LRSN                1
 GAP=181        1.05       5.5     8.4 10.3  0.6405E+01 -0.9367E+01 -0.1018E+02E
 Epicentro: LOS SANTOS - SANTANDER                                             3
 ACTION:UP  12-07-05 12:06 OP:pat  STATUS:               ID:20120519074804 L   I
 2012-05-19-0740-00M.COL___200                                                 6
 STAT SP IPHASW D HRMM SECON CODA AMPLIT PERI AZIMU VELO SNR AR TRES W  DIS CAZ7
 BAR2 SZ EP        748 23.60                             171     0.010   22 187 
 BAR2 SZ I         748 23.67        19.0 0.40                            22 187 
 BAR2 SZ ES   2    748 38.39                             171    -0.5 5   22 187 
 BRR  HZ EP        748 25.54                             153     0.410   70 300 
 BRR  HN ES   1    748 42.13                             153     0.6 7   70 300 
 BRR  HZ I         748 46.49        17.5 0.14                            70 300 
 RUS  HZ EP        748 27.52                             144    -0.210  100 175 
 RUS  HN ES   1    748 46.26                             144     0.1 7  100 175 
 RUS  HZ I         748 47.59        11.4 0.44                           100 175 
 PTB  HZ EP        748 30.53                             132    -0.3 9  146 259 
 PTB  HN ES   1    748 51.42                             132    -0.3 7  146 259 
 PTB  HZ I         748 53.36         5.8 0.16                           146 259 
 OCA  HZ EP        748 32.75                             129     0.3 9  161 354 
 OCA  HN ES   1    748 53.69                             129    -0.9 7  161 354 
 OCA  HZ I         749  0.60        19.3 0.34                           161 354 
                                                                                
