 2013 1119 0829 38.8 L   6.811 -74.073 80.6  RSN  9 0.4 2.1LRSN                1
 GAP= 76        0.87       2.3     2.6  5.8 -0.1229E+00 -0.1868E+01  0.5995E+00E
 Epicentro: PUERTO PARRA - SANTANDER                                           3
 ACTION:UPD 14-01-09 16:29 OP:ep   STATUS:               ID:20131119082938 L   I
 OLDACT:UP  13-11-19 12:29 OP:mh   STATUS:               ID:20131119082836     3
 OLDACT:REG 13-11-19 12:19 OP:mh   STATUS:               ID:20131119082836     3
 2013-11-19-0828-36M.COL___227                                                 6
 STAT SP IPHASW D HRMM SECON CODA AMPLIT PERI AZIMU VELO AIN AR TRES W  DIS CAZ7
 BRR  HZ EP        829 51.87                             144    0.0010 51.6  51 
 BRR  HN ES        830  2.24                             144    0.1710 51.6  51 
 BRR  HZ I         830  4.01        88.0 0.16            137           51.6  51 
 PTB  HZ EP        829 51.75                             144   -0.1610 51.9 235 
 PTB  HN ES        830  1.79                             144   -0.3610 51.9 235 
 PTB  HZ I         830  3.13        32.1 0.14            142           51.9 235 
 BAR2 SZ EP   1    829 56.71                             124    0.06 7  101 104 
 BAR2 SZ I         830 11.11        23.4 0.18            118            101 104 
 ZAR  HZ EP        829 57.64                             120   -0.1210  115 311 
 ZAR  HN ES        830 12.66                             120    0.0910  115 311 
 ZAR  HZ I         830 15.29        57.2 0.17            115            115 311 
 SPBC HZ EP   1    829 59.85                             117    0.54 7  128 180 
 SPBC HN ES        830 15.71                             117    0.4010  128 180 
 SPBC HZ I         830 16.89        38.0 0.15            112            128 180 
 RUS  HZ EP        830  2.12                             113   -0.07 9  149 133 
 RUS  HN ES        830 20.09                             113   -0.36 9  149 133 
 RUS  HZ I         830 21.38         6.8 0.16            109            149 133 
 PAM  SZ EP   1    830  3.46                             111   -0.25 7  163  69 
 PAM  SN ES   1    830 23.33                             111    0.19 7  163  69 
 PAM  SZ I         830 24.62        15.9 0.24            106            163  69 
 NOR  HZ EP   1    830  3.51                             111    0.23 7  164 213 
 NOR  HN ES        830 22.46                             111    0.08 9  164 213 
 NOR  HZ I         830 26.09        12.3 0.18            107            164 213 
 SML  HZ EP   1    830  8.61                             105   -1.24 6  220   0 
 SML  HN ES   1    830 35.12                             105    1.04 6  220   0 
 SML  HZ I         830 41.20        19.8 0.10            101            220   0 
 SJC  HZ EP   4    830 25.06                              98   -2.11 0  362 340 
 SJC  HN ES   4    831  0.51                              98   -4.40 0  362 340 
                                                                                
