 2013  819 0937 40.3 L   6.802 -73.109153.3  RSN  8 0.4 2.0LRSN                1
 GAP=204        1.11       4.2     5.8  7.0  0.3746E+01  0.5201E+01 -0.3633E+01E
 Epicentro: LOS SANTOS - SANTANDER                                             3
 ACTION:UPD 14-01-14 09:04 OP:ep   STATUS:               ID:20130819093740 L   I
 OLDACT:REG 13-08-19 08:03 OP:cam  STATUS:               ID:20130819092959     3
 2013-08-19-0929-59M.COL___269                                                 6
 STAT SP IPHASW D HRMM SECON CODA AMPLIT PERI AZIMU VELO AIN AR TRES W  DIS CAZ7
 BAR2 SZ EP        938  0.96                             171    0.0910 24.6 199 
 BAR2 SZ ES        938 16.61                             171   -0.3010 24.6 199 
 BRR  HZ EP     C  938  2.90                             153    0.4410 74.6 297 
 BRR  HN ES        938 20.34                             153    0.5910 74.6 297 
 BRR  HZ I         938 27.23         9.9 0.48            153           74.6 297 
 RUS  HZ EP        938  4.86                             145    0.0510  101 178 
 RUS  HN ES        938 23.71                             145   -0.2110  101 178 
 RUS  HZ I         938 26.19         7.8 0.48            150            101 178 
 PTB  HZ EP        938  7.54                             133   -0.71 9  152 259 
 PTB  HN ES        938 29.12                             133   -0.93 9  152 259 
 PTB  HZ I         938 30.99        13.7 0.16            135            152 259 
 SPBC HZ EP        938  9.92                             130    0.27 9  166 220 
 SPBC HZ I         938 10.17        14.3 0.20            133            166 220 
 SPBC HE ES        938 32.78                             130    0.24 9  166 220 
 ZAR  HE ES        938 39.48                             123   -0.13 8  208 292 
 NOR  HZ EP        938 16.86                             120    0.01 8  238 235 
 NOR  HE ES        938 46.12                             120    0.77 8  238 235 
 NOR  HZ I         938 49.17         9.9 0.22            122            238 235 
 SML  HZ EP        938 17.12                             119   -0.40 8  245 334 
 SML  HN ES        938 46.81                             119    0.26 8  245 334 
 SML  HZ I         938 52.48        11.5 0.10            121            245 334 
                                                                                
