 2016  119 0551 26.1 L   6.807 -73.135147.2  RSN 22 0.5 2.4LRSN                1
 GAP= 54        1.18       2.8     3.3  5.6 -0.1051E+01  0.3862E+01  0.3463E+00E
 Epicentro: LOS SANTOS - SANTANDER                                             3
 ACTION:UPD 16-03-09 23:26 OP:cam  STATUS:               ID:20160119054741 L   I
 OLDACT:UP  16-02-23 20:53 OP:AR   STATUS:               ID:20160119054741 L   3
 OLDACT:UP  16-01-19 16:59 OP:ar   STATUS:               ID:20160119054741 L   3
 OLDACT:UP  16-01-19 16:46 OP:ar   STATUS:               ID:20160119054741 L   3
 OLDACT:UP  16-01-19 16:45 OP:ar   STATUS:               ID:20160119054741 L   3
 OLDACT:UPD 16-01-19 16:19 OP:drio STATUS:               ID:20160119054741 L   3
 2016-01-19-0547-41M.COL___322                                                 6
 STAT SP IPHASW D HRMM SECON CODA AMPLIT PERI AZIMU VELO AIN AR TRES W  DIS CAZ7
 BAR2 EZ EP        551 45.89                             170    0.0110 24.3 192 
 BAR2 EZ ES        552  1.17                             170   -0.1810 24.3 192 
 BAR2 EZ I         552  3.58        29.8 0.32            169           24.3 192 
 PAM  EZ EP        551 48.77                             151    0.4210 76.1  39 
 PAM  EN ES        552  5.89                             151    0.1510 76.1  39 
 PAM  EZ I         552  7.70        40.4 0.58            150           76.1  39 
 RUS  HZ EP        551 49.79                             144   -0.2110  101 177 
 RUS  HN ES        552  8.56                             144   -0.1210  101 177 
 PTB  HZ EP        551 52.51                             132   -0.75 9  149 259 
 PTB  HN ES        552 13.99                             132   -0.49 9  149 259 
 PTB  HZ I         552 21.09        35.0 0.36            128            149 259 
 TAM  HZ EP        551 54.04                             131    0.27 9  154 105 
 TAM  HZ I         552 14.82        16.2 0.32            130            154 105 
 TAM  HE ES        552 15.86                             131    0.48 9  154 105 
 OCA  HZ EP        551 54.84                             130    0.41 9  160 353 
 OCA  HN ES        552 16.40                             130   -0.15 9  160 353 
 OCA  HZ I         552 25.76        36.2 0.34            127            160 353 
 SPBC HZ EP        551 54.85                             129    0.06 9  164 219 
 SPBC HN ES        552 16.88                             129   -0.32 9  164 219 
 SPBC HZ I         552 19.75        27.9 0.24            126            164 219 
 ZAR  HZ EP   1    551 59.88                             123    1.20 6  205 292 
 ZAR  HN ES        552 25.03                             123    0.91 9  205 292 
 ZAR  HZ I         552 29.97        31.1 0.34            119            205 292 
 NOR  HZ EP        552  1.74                             119   -0.28 8  236 234 
 NOR  HN ES        552 29.86                             119   -0.21 8  236 234 
 NOR  HZ I         552 35.81        15.3 0.40            116            236 234 
 SML  HZ EP        552  2.29                             118   -0.46 8  244 335 
 SML  HN ES        552 30.68                             118   -0.68 8  244 335 
 SML  HZ I         552 35.68        27.3 0.24            115            244 335 
 CHI  HZ EP        552  4.13                             117    0.18 8  250 195 
 CHI  HN ES        552 33.28                             117   -0.22 8  250 195 
 CHI  HZ I         552 43.08         8.0 0.32            115            250 195 
 ROSC BZ EP   4    552  5.66                             117    1.27 0  254 211 
 ROSC BN ES        552 35.06                             117    0.77 8  254 211 
 ROSC BZ I         552 43.57        25.5 0.35            114            254 211 
 HEL  HZ EP   9    552  7.78                             115    1.29 0  273 256 
 HEL  HN ES        552 40.13                             115    0.81 8  273 256 
 HEL  HZ I         552 44.62        10.9 0.36            112            273 256 
 URE  HZ EP        552  6.78                             114   -0.51 7  285 292 
 URE  HN ES   4    552 36.95                             114   -2.50 0  285 292 
 URE  HZ I         552 49.83        15.0 0.18            111            285 292 
 SOCV BZ EP   1    552  7.86                             112   -1.16 5  300  57 
 SOCV BN ES   4    552 38.85                             112   -3.68 0  300  57 
 GUY2CHZ EP        552 10.87                             112    0.98 7  303 235 
 GUY2CHN ES   4    552 46.60                             112    2.53 0  303 235 
 GUY2CHZ I         552 52.82        10.6 0.64                           303 235 
 PTGC HZ EP        552  9.08                             112   -0.93 7  309 159 
 PTGC HN ES   4    552 42.23                             112   -2.06 0  309 159 
 PTGC HZ I         552 44.62        15.5 0.38            110            309 159 
 LL6C HZ EP   4    552 10.64                             111   -1.10 0  324 357 
 LL6C HN ES   4    552 48.78                             111    1.40 0  324 357 
 LL6C HZ I         552 56.39         5.4 0.54            108            324 357 
 DBB  SZ EP        552 14.26                             110    0.54 7  341 274 
 DBB  SZ ES   4    552 49.37                             110   -1.52 0  341 274 
 DBB  SZ I         553  8.94        21.4 0.60            107            341 274 
 ANIL HZ EP   4    552 17.87                             109    1.80 0  359 225 
 ANIL HN ES   4    552 58.21                             109    3.13 0  359 225 
 ANIL HZ I         553  9.22        22.7 0.28            106            359 225 
 PRA  HZ EP        552 20.48                             107    0.71 6  393 210 
 PRA  HN ES        553  1.40                             107   -0.27 6  393 210 
 PRA  HZ I         553  5.37        10.8 0.60            105            393 210 
 ORTC HZ EP   4    552 18.81                             106   -1.37 0  397 216 
 ORTC HN ES   4    553  4.55                             106    2.16 0  397 216 
 ORTC HZ I         553  8.80         5.8 0.58            104            397 216 
                                                                                
