 2016 1219 0053 49.7 L   6.817 -73.158147.6  RSN  9 0.4 1.7LRSN                1
 GAP=134        0.91       3.7     3.8  5.7  0.2003E+00  0.5086E+01  0.6384E+01E
 Epicentro: LOS SANTOS - SANTANDER                                             3
 ACTION:UPD 17-01-11 20:16 OP:rebc STATUS:               ID:20161219005349 L   I
 OLDACT:UP  16-12-19 14:22 OP:cog  STATUS:               ID:20161219004743     3
 OLDACT:REG 16-12-19 12:29 OP:cog  STATUS:               ID:20161219004743     3
 2016-12-19-0048-00M.COL___330                                                 6
 STAT SP IPHASW D HRMM SECON CODA AMPLIT PERI AZIMU VELO AIN AR TRES W  DIS CAZ7
 BAR2 EZ EP        054  9.23                             170   -0.3310 25.0 186 
 BAR2 HN ES        054 24.83                             170   -0.2510 25.0 186 
 BAR2 EZ I         054 27.16        16.4 0.30            169           25.0 186 
 BRR  HZ EP        054 11.19                             154    0.2810 69.1 298 
 BRR  HE ES        054 28.00                             154    0.5210 69.1 298 
 BRR  HZ I         054 30.74        12.7 0.28            155           69.1 298 
 PAM  EZ EP        054 12.10                             151    0.0510 76.8  41 
 PAM  EN ES        054 29.68                             151    0.1710 76.8  41 
 PAM  EZ I         054 31.51         7.8 0.48            154           76.8  41 
 RUS  HZ EP        054 13.45                             144   -0.3010  103 175 
 RUS  HN ES        054 32.63                             144    0.1010  103 175 
 RUS  HZ I         054 33.24         7.4 0.26            144            103 175 
 PTB  HZ EP        054 16.39                             133   -0.32 9  147 258 
 PTB  HN ES        054 37.11                             133   -0.69 9  147 258 
 PTB  HZ I         054 38.15         7.3 0.16            134            147 258 
 ZAR  HE ES        054 47.19                             123   -0.10 9  202 292 
 CHI  HZ EP        054 27.62                             117   -0.02 8  250 195 
 CHI  HE ES        054 57.50                             117    0.25 8  250 195 
 CHI  HZ I         055  2.49         2.5 0.30            119            250 195 
 GUY2CHZ EP   4    054 36.05                             113    2.68 0  301 234 
 GUY2CHN ES        055  8.32                             113    0.86 7  301 234 
 GUY2CHZ I         055 14.57         3.0 0.58                           301 234 
 ORTC HZ EP        054 44.16                             107    0.41 6  396 216 
 ORTC HN ES   4    055 27.43                             107    1.51 0  396 216 
                                                                                
