 2017  319 0257 43.6 L   6.821 -73.172148.0  RSN  5 0.4 1.1LRSN                1
 GAP=132        1.01       5.0     5.2  8.8 -0.6864E+01  0.2641E+01  0.5517E+01E
 Epicentro: LOS SANTOS - SANTANDER                                             3
 ACTION:UPD 17-05-25 18:42 OP:jn   STATUS:               ID:20170319025743 L   I
 OLDACT:REG 17-03-19 12:50 OP:cara STATUS:               ID:20170319025739     3
 2017-03-19-0258-00M.COL___397                                                 6
 STAT SP IPHASW D HRMM SECON CODA AMPLIT PERI AZIMU VELO AIN AR TRES W  DIS CAZ7
 BRR  HZ EP        258  5.02                             154    0.2310 67.5 298 
 BRR  HN ES        258 22.04                             154    0.7310 67.5 298 
 PAM  EZ EP        258  6.18                             151    0.1310 77.5  42 
 PAM  EE ES        258 23.09                             151   -0.4810 77.5  42 
 PAM  EZ I         258 23.83         2.0 0.50            152           77.5  42 
 RUS  HZ EP        258  7.84                             144    0.0910  103 175 
 RUS  HN ES        258 26.59                             144    0.0010  103 175 
 RUS  HZ I         258 27.23         1.5 0.40            144            103 175 
 PTB  HZ EP        258 10.21                             133   -0.32 9  145 258 
 PTB  HN ES        258 30.84                             133   -0.70 9  145 258 
 PTB  HZ I         258 33.50         2.0 0.14            133            145 258 
 SPBC HZ EP   3    258 12.75                             130    0.48 2  163 218 
 SPBC HN ES        258 34.85                             130    0.22 9  163 218 
                                                                                
