 2014 1119 0520 49.5 L   6.762 -73.134142.0  RSN  9 0.5 1.4LRSN                1
 GAP=140        1.22       4.2     5.5  7.2 -0.6980E+01  0.1380E+02  0.2097E+00E
 Epicentro: LOS SANTOS - SANTANDER                                             3
 ACTION:UPD 14-12-19 15:44 OP:nd   STATUS:               ID:20141119052049 L   I
 OLDACT:REG 14-11-19 14:01 OP:fm   STATUS:               ID:20141119051748     3
 2014-11-19-0517-48M.COL___286                                                 6
 STAT SP IPHASW D HRMM SECON CODA AMPLIT PERI AZIMU VELO AIN AR TRES W  DIS CAZ7
 BAR2 SZ EP        521  8.55                             172   -0.0410 19.5 196 
 BAR2 SZ ES        521 23.53                             172    0.0410 19.5 196 
 BAR2 SZ I         521 25.88         7.1 0.22            171           19.5 196 
 BRR  HZ EP        521 10.76                             151    0.3410 74.4 301 
 BRR  HN ES        521 27.29                             151    0.5410 74.4 301 
 BRR  HZ I         521 28.80         5.3 0.24            149           74.4 301 
 PAM  SN ES        521 28.75                             149    0.1510 79.9  37 
 PAM  SZ I         521 29.31         4.2 0.20            152           79.9  37 
 RUS  HZ EP        521 13.15                             144    0.5910 96.3 177 
 RUS  HN ES        521 30.27                             144   -0.2910 96.3 177 
 RUS  HZ I         521 32.12         3.0 0.22            146           96.3 177 
 PTB  HZ EP        521 15.29                             131   -0.91 9  148 261 
 PTB  HN ES        521 36.66                             131   -0.37 9  148 261 
 PTB  HZ I         521 38.43         4.7 0.20            131            148 261 
 SPBC HZ EP        521 16.54                             129   -0.93 9  161 220 
 SPBC HN ES        521 39.28                             129   -0.01 9  161 220 
 SPBC HZ I         521 40.86         3.7 0.28            129            161 220 
 OCA  HZ EP        521 18.12                             128    0.19 9  165 353 
 OCA  HN ES        521 39.43                             128   -0.68 9  165 353 
 OCA  HZ I         521 42.52         4.3 0.32            129            165 353 
 NOR  HZ EP        521 24.98                             118    0.13 8  233 235 
 NOR  HE ES        521 52.71                             118    0.27 8  233 235 
 NOR  HZ I         521 57.81         2.8 0.24            119            233 235 
 HEL  HZ EP        521 30.48                             114    0.94 8  272 257 
 HEL  HE ES        522  1.07                             114    0.29 8  272 257 
 HEL  HZ I         522  8.78         1.2 0.58            115            272 257 
                                                                                
