 2017 1219 0745 57.3 L   6.832 -73.215130.0  RSN  4 0.2 1.2LRSN                1
 GAP=240        0.60       4.0     3.9  5.3  0.3282E+01  0.6773E+01 -0.3177E+01E
 Epicentro: ZAPATOCA - SANTANDER                                               3
 ACTION:UPD 18-01-04 13:22 OP:rebc STATUS:               ID:20171219074557 L   I
 OLDACT:REG 17-12-19 13:20 OP:dhb  STATUS:               ID:20171219073744     3
 2017-12-19-0738-00M.COL___449                                                 6
 STAT SP IPHASW D HRMM SECON CODA AMPLIT PERI AZIMU VELO AIN AR TRES W  DIS CAZ7
 BAR2 EZ EP        746 14.91                             168   -0.2010 26.7 172 
 BAR2 EZ ES        746 29.12                             168    0.1210 26.7 172 
 BAR2 EZ I         746 37.91         3.6 0.78            172           26.7 172 
 PTB  HZ EP        746 22.00                             130   -0.37 9  141 257 
 PTB  HN ES        746 41.70                             130   -0.24 9  141 257 
 PTB  HZ I         746 46.52         1.2 0.14            137            141 257 
 SPBC HZ EP        746 24.66                             125    0.22 9  161 216 
 SPBC HN ES        746 45.75                             125    0.14 9  161 216 
 SPBC HZ I         746 49.51         3.6 0.10            134            161 216 
 ZAR  HZ EP        746 28.10                             120    0.24 9  196 292 
 ZAR  HN ES        746 51.89                             120    0.19 9  196 292 
 ZAR  HZ I         746 57.71         2.6 0.32            127            196 292 
                                                                                
