 2011 1019 0405 31.5 L   7.059 -73.103144.4  RSN  9 0.2 2.2LRSN                1
 GAP=124        0.34       2.2     2.6  3.8 -0.1060E+00  0.3568E+01  0.1468E+01E
 Epicentro: FLORIDABLANCA - SANTANDER                                          3
 ACTION:UPD 12-07-13 16:04 OP:ep   STATUS:               ID:20111019040531 L   I
 2011-10-19-0402-42S.COL___153                                                 6
 STAT SP IPHASW D HRMM SECON CODA AMPLIT PERI AZIMU VELO AIN AR TRES W  DIS CAZ7
 BAR2 SZ IP        4 5 52.01                             159    0.1110 52.4 190 
 BAR2 SZ ES   2    4 6  7.56                             159   -0.25 5 52.4 190 
 PAM  SZ EP   2    4 5 52.45                             159    0.10 5 54.3  55 
 PAM  SN ES   2    4 6  8.65                             159    0.03 5 54.3  55 
 BRR  HZ IP     D  4 5 52.39                             154    0.1010 67.5 275 
 BRR  HZ I         4 5 52.60       101.1 0.12                          67.5 275 
 BRR  HE ES   2    4 6  8.91                             154    0.40 5 67.5 275 
 RUS  HZ EP   1    4 5 57.16                             136   -0.19 7  129 179 
 RUS  HE ES   2    4 6 17.28                             136   -0.24 5  129 179 
 RUS  HZ I         4 6 19.62        12.0 0.41                           129 179 
 OCA  SZ EP   2    4 5 57.21                             135    0.01 5  133 350 
 OCA  SZ ES   2    4 6 16.99                             135   -0.26 5  133 350 
 OCA  SZ I         4 6 20.18        19.1 0.50                           133 350 
 ZAR  HZ EP   2    4 6  3.03                             123   -0.37 4  200 284 
 ZAR  HN ES   2    4 6 28.08                             123   -0.21 4  200 284 
 ZAR  HZ I         4 6 30.02        19.2 0.28                           200 284 
 NOR  SZ EP   2    4 6  9.64                             116    0.17 4  256 230 
 NOR  SN ES   2    4 6 39.20                             116    0.12 4  256 230 
 HEL  HZ EP   2    4 6 13.05                             113   -0.03 4  285 250 
 HEL  HN ES   2    4 6 45.11                             113   -0.40 4  285 250 
 HEL  HZ I         4 6 52.78         5.7 0.38                           285 250 
 RREF HZ EP   2    4 6 20.41                             109    0.22 3  345 226 
 RREF HN ES   2    4 6 58.49                             109    0.32 3  345 226 
 RREF HZ I         4 7  5.72         4.2 0.26                           345 226 
                                                                                
