 2013 1219 0106 54.7 L   6.936 -73.287125.8  RSN  7 0.5 1.6LRSN                1
 GAP=108        1.18       5.3     5.0  8.5 -0.3587E+01  0.7879E+01  0.3624E+01E
 Epicentro: BETULIA - SANTANDER                                                3
 ACTION:UPD 14-01-13 10:19 OP:ep   STATUS:               ID:20131219010654 L   I
 OLDACT:REG 13-12-19 06:11 OP:jn   STATUS:               ID:20131219010000     3
 2013-12-19-0100-00M.COL___285                                                 6
 STAT SP IPHASW D HRMM SECON CODA AMPLIT PERI AZIMU VELO AIN AR TRES W  DIS CAZ7
 BAR2 SZ EP        1 7 12.64                             161    0.1810 39.8 163 
 BAR2 SZ ES        1 7 26.11                             161   -0.2010 39.8 163 
 BRR  HZ EP        1 7 12.90                             157    0.3110 50.6 292 
 BRR  HN ES        1 7 27.17                             157    0.6410 50.6 292 
 BRR  HZ I         1 7 27.87         7.6 0.28            154           50.6 292 
 PAM  SZ EP        1 7 14.80                             146   -0.1410 78.8  55 
 PAM  SN ES        1 7 30.32                             146   -0.4010 78.8  55 
 PAM  SZ I         1 7 31.47         6.5 0.30            150           78.8  55 
 RUS  HZ EP        1 7 18.21                             134    0.2310  118 169 
 RUS  HN ES        1 7 36.32                             134    0.1910  118 169 
 RUS  HZ I         1 7 37.78         4.6 0.24            134            118 169 
 PTB  HZ EP        1 7 18.52                             129   -0.53 9  136 251 
 PTB  HN ES        1 7 37.14                             129   -0.90 9  136 251 
 PTB  HZ I         1 7 41.83        10.7 0.44            128            136 251 
 SML  HN ES   2    1 7 55.00                             115    0.92 4  224 337 
 NOR  HN ES   1    1 7 56.73                             114    0.92 6  232 229 
 NOR  HZ I         1 8  2.91         3.4 0.14            114            232 229 
                                                                                
