 2016  219 0903  4.0 L   6.007 -73.703115.4  RSN  8 0.4 1.3LRSN                1
 GAP= 81        1.00       2.9     3.4  6.7 -0.3255E-01  0.3652E+01 -0.1757E+01E
 Epicentro: VELEZ - SANTANDER                                                  3
 ACTION:UPD 16-03-04 21:27 OP:rebc STATUS:               ID:20160219090304 L   I
 OLDACT:DUP 16-02-19 19:04 OP:drio STATUS:               ID:20160219085740d    3
 2016-02-19-0857-39M.COL___309                                                 6
 STAT SP IPHASW D HRMM SECON CODA AMPLIT PERI AZIMU VELO AIN AR TRES W  DIS CAZ7
 SPBC HZ EP        9 3 21.16                             152   -0.0210 56.7 226 
 SPBC HN ES        9 3 34.64                             152    0.0610 56.7 226 
 SPBC HZ I         9 3 36.20         5.6 0.30            155           56.7 226 
 RUS  HZ EP        9 3 22.69                             147    0.1210 69.8 100 
 RUS  HE ES        9 3 37.06                             147    0.0110 69.8 100 
 RUS  HZ I         9 3 40.08         2.6 0.34            148           69.8 100 
 BAR2 EZ EP        9 3 23.48                             141    0.0610 86.6  42 
 BAR2 EZ ES        9 3 38.84                             141    0.2710 86.6  42 
 BAR2 EZ I         9 3 40.69        11.2 0.38            142           86.6  42 
 PTB  HZ EP        9 3 24.43                             135    0.0610  102 305 
 PTB  HE ES        9 3 39.52                             135   -0.7410  102 305 
 BRR  HZ EP        9 3 26.27                             130    0.1610  122 360 
 BRR  HE ES        9 3 43.34                             130   -0.0110  122 360 
 NOR  HN ES        9 3 47.27                             126    0.96 9  138 249 
 CHI  HZ EP        9 3 29.27                             123   -0.40 9  152 181 
 CHI  HN ES        9 3 49.24                             123   -0.46 9  152 181 
 ZAR  HZ EP        9 3 35.42                             114    0.31 8  208 322 
 ZAR  HN ES        9 3 58.94                             114   -0.43 8  208 322 
                                                                                
