 2012  719 0220 21.2 L   6.343 -73.618110.0  RSN  6 0.4 1.5LRSN                1
 GAP=108        1.01       5.3     5.0 10.8  0.3607E+01  0.2416E+02  0.1306E+02E
 Epicentro: SANTA HELENA DEL OPON - SANTANDER                                  3
 ACTION:UPD 12-08-14 11:45 OP:ep   STATUS:               ID:20120719022021 L   I
 2012-07-19-0220-00M.COL___201                                                 6
 STAT SP IPHASW D HRMM SECON CODA AMPLIT PERI AZIMU VELO AIN AR TRES W  DIS CAZ7
 BAR2 SZ EP   1    220 38.12                             151     0.2 7   55  60 
 BAR2 SZ I         220 38.34        13.7 0.23            147             55  60 
 BAR2 SZ ES   1    220 51.53                             151     0.5 7   55  60 
 RUS  HZ EP   1    220 39.26                             142    -0.5 7   77 130 
 RUS  HN ES   1    220 53.86                             142    -0.4 7   77 130 
 RUS  HZ I         220 56.52         5.7 0.29            142             77 130 
 BRR  HZ EP        220 39.80                             139     0.110   85 353 
 BRR  HZ I         220 47.31         7.9 0.35            135             85 353 
 BRR  HE ES   1    220 54.20                             139     0.1 7   85 353 
 PTB  HZ EP   1    220 39.95                             136    -0.6 7   95 283 
 PTB  HN ES   1    220 55.07                             136    -0.5 7   95 283 
 PTB  HZ I         220 57.51         5.9 0.17            134             95 283 
 NOR  SZ EP        220 47.56                             119     0.4 9  163 238 
 NOR  SN ES   1    221  8.04                             119     0.6 7  163 238 
 ZAR  HE ES   1    221 11.75                             115    -0.2 7  187 313 
 ZAR  HZ I         221 14.39         4.5 0.20            113            187 313 
