 2012  319 0152 39.6 L   6.762 -73.123152.0  RSN  6 0.4 1.3LRSN                1
 GAP=141        0.70       7.5     7.0 10.0  0.1860E+02  0.1655E+02  0.2423E+02E
 ACTION:UP  12-03-31 23:20 OP:EP   STATUS:               ID:20120319015239 L   I
 2012-03-19-0150-00M.COL___202                                                 6
 STAT SP IPHASW D HRMM SECON CODA AMPLIT PERI AZIMU VELO SNR AR TRES W  DIS CAZ7
 BAR2 SZ ES   2    153 15.10                             172    -0.6 5   20 199 
 BRR  HZ EP   2    153  1.88                             152     0.3 5   75 300 
 BRR  HN ES   1    153 19.31                             152     0.5 7   75 300 
 BRR  HZ I         153 22.20         5.5 0.17                            75 300 
 PAM  SN ES   2    153 20.10                             151    -0.4 5   79  36 
 RUS  HZ EP   1    153  3.83                             146     0.2 7   96 177 
 RUS  HN ES   2    153 22.61                             146     0.2 5   96 177 
 RUS  HZ I         153 24.73         2.7 0.39                            96 177 
 PTB  HZ EP   2    153  6.57                             133    -0.6 5  149 261 
 PTB  HN ES   2    153 28.36                             133    -0.4 5  149 261 
 PTB  HZ I         153 29.89         1.6 0.16                           149 261 
 ZAR  HE ES   2    153 38.57                             123    -0.2 4  208 293 
                                                                                
