 2010 1019 0740 20.9 L   6.789 -73.044148.0  RSN 10 0.3 1.8LRSN                1
 GAP=170        0.72       3.2     5.4  6.2 -0.7109E+01  0.2506E+01  0.8876E+00E
 Epicentro: LOS SANTOS - SANTANDER                                             3
 ACTION:UP  11-02-18 11:10 OP:tino STATUS:               ID:20101019074020 L   I
 2010-10-19-0737-56S.COL___123                                                 6
 STAT SP IPHASW D HRMM SECON CODA AMPLIT PERI AZIMU VELO SNR AR TRES W  DIS CAZ7
 BAR2 SZ EP   1    740 41.07                             169     0.2 7   27 215 
 BAR2 SZ ES   2    740 56.15                             169    -0.3 5   27 215 
 BAR2 SZ I         740 57.78        21.5 0.28                            27 215 
 BRR  HZ IP     C  740 42.95                             150     0.010   82 296 
 BRR  HN ES   1    741  0.02                             150    -0.1 7   82 296 
 BRR  HZ I         741  2.32        11.6 0.30                            82 296 
 RUS  HZ EP   1    740 45.02                             145     0.2 7   99 183 
 RUS  HN ES   1    741  3.72                             145     0.3 7   99 183 
 RUS  HZ I         741  4.95         5.4 0.34                            99 183 
 GUE  SZ EP   1    740 46.14                             140     0.3 7  116   7 
 GRA  SZ IP        740 45.84                             138    -0.410  124  12 
 GRA  SZ ES   1    741  5.61                             138    -0.4 7  124  12 
 GRA  SZ I         741  7.75         8.3 0.22                           124  12 
 OCA  SZ EP   1    740 49.57                             130    -0.1 7  163 349 
 OCA  SZ ES   1    741 12.70                             130     0.6 7  163 349 
 OCA  SZ I         741 17.60        10.5 0.25                           163 349 
 NOR  SZ EP   2    740 57.71                             118     0.0 4  243 236 
 NOR  SN ES   1    741 25.92                             118    -0.5 6  243 236 
 NOR  SZ I         741 32.24         0.9 0.19                           243 236 
 ROSC BZ EP   2    741  0.02                             117     0.3 4  258 213 
 HEL  HZ EP   2    741  2.73                             114     0.3 4  283 257 
 HEL  HE ES   2    741 35.41                             114     0.6 4  283 257 
 HEL  HZ I         741 39.35         2.7 0.32                           283 257 
 PRA  HZ EP   2    741 15.10                             107     0.0 3  397 211 
 PRA  HE ES   1    741 56.56                             107    -0.7 4  397 211 
 PRA  HZ I         742  2.50         8.9 0.26                           397 211 
                                                                                
