 2016  319 0817 23.1 L   6.806 -73.162138.0  RSN  7 0.5 1.4LRSN                1
 GAP=134        1.02       5.9     5.7  7.9 -0.1514E+02  0.1996E+02 -0.8706E+01E
 Epicentro: LOS SANTOS - SANTANDER                                             3
 ACTION:UPD 16-05-13 21:25 OP:cam  STATUS:               ID:20160319081723 L   I
 OLDACT:REG 16-03-19 12:59 OP:dnl  STATUS:               ID:20160319080746     3
 2016-03-19-0807-46M.COL___312                                                 6
 STAT SP IPHASW D HRMM SECON CODA AMPLIT PERI AZIMU VELO AIN AR TRES W  DIS CAZ7
 BAR2 EZ EP        817 41.62                             170   -0.1510 23.8 185 
 BAR2 EZ ES        817 56.81                             170    0.4510 23.8 185 
 BAR2 EZ I         817 59.16         6.6 0.21            171           23.8 185 
 PAM  EZ EP     D  817 44.67                             149    0.1710 78.0  41 
 PAM  EN ES        818  0.91                             149   -0.3110 78.0  41 
 PAM  EZ I         818  3.20         3.6 0.21            138           78.0  41 
 RUS  HZ EP   2    817 46.90                             142    0.78 5  101 175 
 RUS  HE ES   2    818  3.79                             142   -0.32 5  101 175 
 RUS  HZ I         818  5.81         2.4 0.26            138            101 175 
 PTB  HZ EP        817 48.21                             131   -1.05 9  146 258 
 PTB  HN ES        818  9.82                             131    0.14 9  146 258 
 PTB  HZ I         818 10.98         2.3 0.10            119            146 258 
 SPBC HZ EP        817 51.00                             128    0.08 9  163 218 
 SPBC HN ES        818 12.58                             128   -0.07 9  163 218 
 SPBC HZ I         818 16.60         4.5 0.15            119            163 218 
 ZAR  HZ EP        817 55.48                             121    0.67 9  202 292 
 ZAR  HN ES   2    818 19.56                             121   -0.01 4  202 292 
 ZAR  HZ I         818 26.96         2.9 0.32            110            202 292 
 URE  HZ EP   2    818  3.69                             112    0.15 4  282 292 
 URE  HZ I         818 44.55         3.1 0.16            103            282 292 
                                                                                
