 2013 1219 0440 10.1 L   6.797 -73.157144.0  RSN  9 0.5 1.7LRSN                1
 GAP=135        1.14       4.0     5.2  6.6 -0.4272E+01  0.6284E+01  0.2438E+01E
 Epicentro: LOS SANTOS - SANTANDER                                             3
 ACTION:UPD 14-01-13 10:19 OP:ep   STATUS:               ID:20131219044010 L   I
 OLDACT:REG 13-12-19 06:24 OP:jn   STATUS:               ID:20131219044000     3
 2013-12-19-0440-00M.COL___285                                                 6
 STAT SP IPHASW D HRMM SECON CODA AMPLIT PERI AZIMU VELO AIN AR TRES W  DIS CAZ7
 BAR2 SZ EP        440 29.56                             171    0.0510 22.8 187 
 BAR2 SZ ES        440 44.28                             171   -0.3610 22.8 187 
 BAR2 SZ I         440 47.34        24.4 0.28            169           22.8 187 
 BRR  HZ EP     C  440 31.37                             152    0.3610 70.3 299 
 BRR  HN ES        440 47.99                             152    0.6810 70.3 299 
 BRR  HZ I         440 52.50        11.0 0.28            154           70.3 299 
 PAM  SZ EP        440 32.52                             150    0.3310 78.4  40 
 PAM  SN ES        440 49.59                             150    0.1710 78.4  40 
 PAM  SZ I         440 52.61         7.2 0.36            155           78.4  40 
 RUS  HZ EP        440 33.51                             144   -0.1510  100 175 
 RUS  HN ES        440 51.47                             144   -0.5610  100 175 
 RUS  HZ I         440 53.62         5.7 0.28            145            100 175 
 PTB  HZ EP        440 36.42                             132   -0.39 9  147 259 
 PTB  HN ES        440 56.79                             132   -0.85 9  147 259 
 PTB  HZ I         440 59.88         6.9 0.14            134            147 259 
 SPBC HZ EP        440 38.53                             129    0.16 9  162 219 
 SPBC HN ES   1    441  0.97                             129    0.56 7  162 219 
 SPBC HZ I         441  7.50         8.2 0.20            131            162 219 
 NOR  HN ES        441 13.75                             118    0.46 8  234 234 
 SML  HZ EP        440 45.69                             117   -0.92 8  244 336 
 SML  HN ES   2    441 15.70                             117    0.62 4  244 336 
 CHI  HZ EP        440 47.84                             117    0.21 8  248 195 
 CHI  HN ES        441 17.26                             117    0.36 8  248 195 
 CHI  HZ I         441 23.32         3.5 0.34            119            248 195 
                                                                                
