 2017  919 0214 11.2 L   6.789 -73.109143.6  RSN  4 0.2 1.2LRSN                1
 GAP=142        0.62       3.3     4.9  5.1 -0.3689E+00 -0.1656E+01  0.6931E+00E
 Epicentro: LOS SANTOS - SANTANDER                                             3
 ACTION:UPD 17-10-05 19:14 OP:rebc STATUS:               ID:20170919021411 L   I
 OLDACT:REG 17-09-19 12:42 OP:and  STATUS:               ID:20170919020740     3
 2017-09-19-0208-00M.COL___449                                                 6
 STAT SP IPHASW D HRMM SECON CODA AMPLIT PERI AZIMU VELO AIN AR TRES W  DIS CAZ7
 BAR2 EZ IP     D  214 30.34                             170   -0.2010 23.2 201 
 BAR2 EZ ES        214 45.26                             170   -0.3910 23.2 201 
 BRR  HZ EP        214 32.15                             151   -0.1910 75.4 298 
 BRR  HN ES        214 49.11                             151    0.2710 75.4 298 
 PAM  EZ IP     D  214 33.20                             151    0.1310 75.8  37 
 PAM  EN ES        214 50.20                             151    0.0610 75.8  37 
 PAM  EZ I         214 52.33         3.1 0.64            151           75.8  37 
 RUS  HZ EP        214 34.67                             144    0.0610 99.1 178 
 RUS  HN ES        214 53.14                             144    0.2510 99.1 178 
 RUS  HZ I         214 54.82         2.6 0.36            144           99.1 178 
                                                                                
