 2017  219 0653  9.6 L   6.778 -73.110143.8  RSN  5 0.1 1.1LRSN                1
 GAP=142        0.37       1.9     2.6  2.8 -0.2406E+00 -0.1813E+01  0.9633E-01E
 Epicentro: LOS SANTOS - SANTANDER                                             3
 ACTION:UPD 17-05-24 15:37 OP:jn   STATUS:               ID:20170219065309 L   I
 OLDACT:UP  17-02-19 18:38 OP:edw  STATUS:               ID:20170219064742d    3
 OLDACT:DUP 17-02-19 18:36 OP:edw  STATUS:               ID:20170219064742d    3
 OLDACT:UP  17-02-19 18:34 OP:edw  STATUS:               ID:20170219064741d    3
 OLDACT:DUP 17-02-19 18:31 OP:edw  STATUS:               ID:20170219064741d    3
 OLDACT:REG 17-02-19 12:42 OP:edw  STATUS:               ID:20170219064740     3
 2017-02-19-0648-00M.COL___352                                                 6
 STAT SP IPHASW D HRMM SECON CODA AMPLIT PERI AZIMU VELO AIN AR TRES W  DIS CAZ7
 BAR2 EZ EP     C  653 28.96                             171   -0.0110 22.1 201 
 BAR2 EZ ES        653 43.89                             171   -0.1910 22.1 201 
 BAR2 EZ I         653 45.31         2.7 0.26            168           22.1 201 
 BRR  HZ EP        653 30.67                             151   -0.1410 75.8 299 
 BRR  HN ES        653 47.42                             151    0.0710 75.8 299 
 BRR  HZ I         653 48.19         3.8 0.32            149           75.8 299 
 PAM  EZ EP        653 31.69                             151    0.1110 76.8  36 
 PAM  EN ES        653 48.74                             151    0.0310 76.8  36 
 PAM  EZ I         653 49.29         2.0 0.20            153           76.8  36 
 RUS  HZ EP        653 33.03                             144    0.0510 98.0 178 
 RUS  HN ES        653 51.27                             144    0.0710 98.0 178 
 RUS  HZ I         653 53.51         1.9 0.32            143           98.0 178 
 PTB  HZ EP   9    653 35.53                             131   -1.20 0  151 260 
 PTB  HN ES        653 56.83                             132    0.15 9  151 260 
 PTB  HZ I         654  1.64         1.5 0.18            130            151 260 
 CHI  HN ES   4    654 18.65                             117    2.37 0  247 196 
                                                                                
