 2016  619 0718 20.2 L   6.662 -73.201147.0  RSN  6 0.3 1.2LRSN                1
 GAP=214        0.60       4.7     4.4  6.6  0.9440E+01 -0.9944E+00  0.2290E+01E
 Epicentro: VILLANUEVA - SANTANDER                                             3
 ACTION:UPD 16-07-21 22:20 OP:rebc STATUS:               ID:20160619071820 L   I
 OLDACT:REG 16-06-19 12:24 OP:y    STATUS:               ID:20160619071746     3
 2016-06-19-0717-46M.COL___340                                                 6
 STAT SP IPHASW D HRMM SECON CODA AMPLIT PERI AZIMU VELO AIN AR TRES W  DIS CAZ7
 BAR2 EZ EP   2    718 39.16                             177   -0.59 5 8.01 165 
 BAR2 EZ ES   2    718 54.71                             177   -0.30 5 8.01 165 
 BAR2 EZ I         718 56.16         3.3 0.28                          8.01 165 
 BRR  HZ EP        718 41.52                             152   -0.1510 74.9 311 
 BRR  HE ES        718 58.71                             152    0.2710 74.9 311 
 BRR  HZ I         719  0.84         2.1 0.28                          74.9 311 
 RUS  HZ EP        718 43.34                             148    0.2810 86.1 171 
 RUS  HN ES   2    719  0.98                             148    0.06 5 86.1 171 
 RUS  HZ I         719  3.21         1.6 0.64                          86.1 171 
 PTB  HZ EP   2    718 46.33                             134   -0.18 5  140 264 
 PTB  HN ES        719  6.67                             134   -0.38 9  140 264 
 PTB  HZ I         719  7.76         1.5 0.14                           140 264 
 SPBC HZ EP   4    718 51.68                             133    4.35 0  148 221 
 SPBC HN ES   2    719  9.00                             133    0.49 5  148 221 
 SPBC HZ I         719 12.09         2.3 0.10                           148 221 
 ZAR  HZ EP   3    718 53.39                             123    0.61 2  205 297 
 ZAR  HN ES        719 18.29                             123    0.08 9  205 297 
 ZAR  HZ I         719 20.20         2.5 0.20                           205 297 
                                                                                
