 2017  219 0322 54.5 L   6.800 -73.137149.1  RSN  6 0.4 1.2LRSN                1
 GAP=138        1.09       5.5     4.9  7.4  0.2897E+01  0.8901E+01 -0.1681E+01E
 Epicentro: LOS SANTOS - SANTANDER                                             3
 ACTION:UPD 17-05-24 15:37 OP:jn   STATUS:               ID:20170219032254 L   I
 OLDACT:DUP 17-02-19 16:21 OP:edw  STATUS:               ID:20170219031743d    3
 OLDACT:UP  17-02-19 16:20 OP:edw  STATUS:               ID:20170219031742     3
 OLDACT:REG 17-02-19 12:29 OP:edw  STATUS:               ID:20170219031742     3
 2017-02-19-0318-00M.COL___358                                                 6
 STAT SP IPHASW D HRMM SECON CODA AMPLIT PERI AZIMU VELO AIN AR TRES W  DIS CAZ7
 BAR2 EZ EP        323 14.48                             171   -0.0910 23.6 192 
 BAR2 EZ ES        323 30.21                             171    0.0110 23.6 192 
 BAR2 EZ I         323 32.78         3.3 0.44            172           23.6 192 
 BRR  HZ EP        323 16.38                             153    0.2910 72.0 298 
 BRR  HN ES        323 33.53                             153    0.6310 72.0 298 
 PAM  EZ EP        323 17.41                             152    0.3410 76.7  39 
 PAM  EN ES        323 33.95                             152   -0.6910 76.7  39 
 PAM  EZ I         323 36.77         1.9 0.46            153           76.7  39 
 RUS  HZ EP        323 18.87                             144    0.2510  101 177 
 RUS  HN ES        323 37.52                             144    0.1210  101 177 
 RUS  HZ I         323 38.70         2.1 0.52            147            101 177 
 PTB  HZ EP        323 21.61                             132   -0.25 9  149 259 
 PTB  HN ES        323 42.42                             132   -0.76 9  149 259 
 PTB  HZ I         323 44.63         2.6 0.34            133            149 259 
 ZAR  HZ EP        323 26.89                             123   -0.40 9  205 292 
 ZAR  HN ES        323 53.26                             123    0.42 9  205 292 
 ZAR  HZ I         323 59.61         1.7 0.28            124            205 292 
                                                                                
