 2014 1119 0617 38.4 L   6.796 -73.170147.5  RSN  7 0.4 1.6LRSN                1
 GAP=134        0.87       3.7     4.1  6.8 -0.2992E+01  0.1338E+02 -0.1023E+01E
 Epicentro: LOS SANTOS - SANTANDER                                             3
 ACTION:UPD 14-12-19 15:44 OP:nd   STATUS:               ID:20141119061738 L   I
 OLDACT:DUP 14-11-19 18:08 OP:fm   STATUS:               ID:20141119060745d    3
 2014-11-19-0607-44M.COL___286                                                 6
 STAT SP IPHASW D HRMM SECON CODA AMPLIT PERI AZIMU VELO AIN AR TRES W  DIS CAZ7
 PAM  SZ EP        618  1.16                             150    0.2210 79.5  41 
 PAM  SN ES        618 18.71                             150    0.2010 79.5  41 
 PAM  SZ I         618 20.67         6.6 0.20            157           79.5  41 
 RUS  HZ EP        618  2.40                             144    0.0810  100 175 
 RUS  HN ES        618 20.27                             144   -0.6910  100 175 
 RUS  HZ I         618 22.68         2.8 0.52            146            100 175 
 PTB  HZ EP        618  5.38                             133    0.10 9  145 259 
 PTB  HN ES        618 26.59                             133    0.35 9  145 259 
 PTB  HZ I         618 32.49         5.4 0.40            134            145 259 
 NOR  HZ EP        618 13.74                             119   -0.24 8  232 234 
 NOR  HN ES        618 41.90                             119    0.17 8  232 234 
 NOR  HZ I         618 46.36         3.7 0.24            121            232 234 
 HEL  HZ EP        618 17.97                             115   -0.45 8  269 256 
 HEL  HN ES   1    618 49.76                             115    0.14 6  269 256 
 HEL  HZ I         618 57.41         2.1 0.38            117            269 256 
 MON  HZ EP        618 26.89                             109   -0.39 6  352 309 
 MON  HN ES        619  4.86                             109   -0.53 6  352 309 
 MON  HZ I         619  6.09         0.8 0.60            111            352 309 
 PRA  HZ EP        618 32.77                             107    0.98 6  390 209 
 PRA  HN ES        619 13.70                             107    0.27 6  390 209 
 PRA  HZ I         619 22.98         2.0 0.50            109            390 209 
                                                                                
