 2017  219 0658  5.9 L   6.802 -73.179140.0  RSN  6 0.3 1.6LRSN                1
 GAP=132        0.83       4.3     3.6  5.3  0.9089E+00  0.4428E+01 -0.1570E+01E
 Epicentro: LOS SANTOS - SANTANDER                                             3
 ACTION:UPD 17-05-24 15:37 OP:jn   STATUS:               ID:20170219065805 L   I
 OLDACT:REG 17-02-19 12:43 OP:edw  STATUS:               ID:20170219065741     3
 2017-02-19-0658-00M.COL___352                                                 6
 STAT SP IPHASW D HRMM SECON CODA AMPLIT PERI AZIMU VELO AIN AR TRES W  DIS CAZ7
 BAR2 EZ EP        658 24.96                             170    0.1310 23.2 181 
 BAR2 EZ ES        658 39.51                             170   -0.0910 23.2 181 
 BAR2 EZ I         658 41.08         9.6 0.24            173           23.2 181 
 BRR  HZ EP   9    658 26.64                             153    0.40 0 67.9 300 
 BRR  HN ES        658 43.18                                    0.6710 67.9 300 
 BRR  HZ I         658 47.90         5.3 0.16            150           67.9 300 
 PAM  EZ EP        658 27.83                             150    0.1910 79.6  42 
 PAM  EN ES        658 44.60                             150   -0.0010 79.6  42 
 PAM  EZ I         658 47.04        11.5 0.50            151           79.6  42 
 RUS  HZ EP        658 29.04                             143   -0.0910  101 174 
 RUS  HN ES        658 47.27                             143    0.0310  101 174 
 RUS  HZ I         658 48.72         7.8 0.32            148            101 174 
 PTB  HZ EP        658 31.72                             132   -0.36 9  144 258 
 PTB  HN ES        658 52.92                             132    0.42 9  144 258 
 PTB  HZ I         658 55.54         2.9 0.16            133            144 258 
 ZAR  HZ EP        658 37.84                             122    0.22 9  201 292 
 ZAR  HN ES        659  1.84                             122   -0.52 9  201 292 
 ZAR  HZ I         659  9.49         4.1 0.28            123            201 292 
                                                                                
