 2017 1219 0736 22.7 L   6.667 -73.187139.0  RSN  4 0.4 1.3LRSN                1
 GAP=240        0.92       6.2     6.2  7.9  0.4833E+01  0.1500E+02 -0.6041E+01E
 Epicentro: VILLANUEVA - SANTANDER                                             3
 ACTION:UPD 18-01-04 13:22 OP:rebc STATUS:               ID:20171219073622 L   I
 OLDACT:REG 17-12-19 13:18 OP:dhb  STATUS:               ID:20171219072742     3
 2017-12-19-0728-00M.COL___440                                                 6
 STAT SP IPHASW D HRMM SECON CODA AMPLIT PERI AZIMU VELO AIN AR TRES W  DIS CAZ7
 BAR2 EZ EP        736 41.71                             176    0.3710 8.34 176 
 BAR2 EZ ES        736 55.65                             176   -0.2010 8.34 176 
 BAR2 EZ I         736 57.50         5.1 0.74            171           8.34 176 
 PTB  HZ EP        736 47.75                             132   -0.80 9  141 264 
 PTB  HE ES        737  8.59                             132   -0.09 9  141 264 
 PTB  HZ I         737 15.10         1.3 0.56            131            141 264 
 SPBC HZ EP        736 49.36                             130   -0.02 9  149 221 
 SPBC HE ES        737 10.48                             130    0.32 9  149 221 
 SPBC HZ I         737 14.17         2.8 0.10            131            149 221 
 ZAR  HZ EP        736 55.25                             121    0.30 8  206 296 
 ZAR  HE ES        737 20.28                             121    0.21 8  206 296 
 ZAR  HZ I         737 25.79         2.4 0.44            121            206 296 
                                                                                
