 2015  119 0740  2.6 L   6.833 -73.150142.5  RSN 10 0.5 1.6LRSN                1
 GAP=134        1.17       3.5     4.7  7.0 -0.1407E+01  0.7800E+01  0.4232E+01E
 Epicentro: LOS SANTOS - SANTANDER                                             3
 ACTION:UPD 15-03-02 15:40 OP:nd   STATUS:               ID:20150119074002 L   I
 OLDACT:REG 15-01-19 12:57 OP:carl STATUS:               ID:20150119073746     3
 2015-01-19-0737-46M.COL___256                                                 6
 STAT SP IPHASW D HRMM SECON CODA AMPLIT PERI AZIMU VELO AIN AR TRES W  DIS CAZ7
 BAR2 EZ EP        740 21.83                             169   -0.1310 26.8 188 
 BAR2 EZ ES        740 36.42                             169   -0.6010 26.8 188 
 BAR2 EZ I         740 38.17        10.0 0.22            169           26.8 188 
 BRR  HZ IP     C  740 23.57                             153    0.2510 69.1 296 
 BRR  HN ES        740 40.41                             153    0.9610 69.1 296 
 BRR  HZ I         740 44.73         9.1 0.12            152           69.1 296 
 PAM  SZ IP     D  740 24.73                             151    0.3710 74.9  42 
 PAM  SE ES        740 41.58                             151    0.2710 74.9  42 
 PAM  SZ I         740 43.26         6.2 0.16            155           74.9  42 
 RUS  HZ EP        740 26.32                             142   -0.0210  104 176 
 RUS  HE ES        740 44.60                             142   -0.2310  104 176 
 RUS  HZ I         740 48.46         2.6 0.28            145            104 176 
 PTB  HZ EP        740 28.89                             131   -0.48 9  148 257 
 PTB  HE ES        740 49.66                             131   -0.56 9  148 257 
 PTB  HZ I         740 52.06         7.5 0.28            132            148 257 
 OCA  HN ES        740 51.29                             130   -0.69 9  157 353 
 OCA  HZ I         740 56.06         7.7 0.16            132            157 353 
 SPBC HZ EP        740 30.73                             128   -0.41 9  166 218 
 SPBC HE ES        740 53.41                             128    0.05 9  166 218 
 SPBC HZ I         740 59.86         8.0 0.30            130            166 218 
 ZAR  HZ EP        740 35.13                             122    0.43 9  202 291 
 ZAR  HN ES        740 59.75                             122    0.05 9  202 291 
 ZAR  HZ I         741  6.74         6.7 0.38            123            202 291 
 NOR  HN ES        741  6.39                             118    0.15 8  236 234 
 CHI  HZ EP        740 40.34                             116   -0.19 8  252 195 
 CHI  HE ES        741 11.00                             116    0.92 8  252 195 
 CHI  HZ I         741 13.10         1.2 0.38            118            252 195 
                                                                                
