 2016 1019 0954 47.2 L   6.794 -73.091145.4  RSN 13 0.3 1.8LRSN                1
 GAP=124        0.61       2.7     3.3  3.5 -0.2985E+01  0.2044E+01  0.1122E+01E
 Epicentro: LOS SANTOS - SANTANDER                                             3
 ACTION:UPD 16-11-09 19:20 OP:rebc STATUS:               ID:20161019095447 L   I
 OLDACT:UP  16-10-19 19:32 OP:and  STATUS:               ID:20161019094741     3
 OLDACT:UP  16-10-19 19:31 OP:and  STATUS:               ID:20161019094741     3
 OLDACT:UP  16-10-19 19:26 OP:and  STATUS:               ID:20161019094741     3
 OLDACT:REG 16-10-19 19:08 OP:y    STATUS:               ID:20161019094741     3
 2016-10-19-0948-00M.COL___326                                                 6
 STAT SP IPHASW D HRMM SECON CODA AMPLIT PERI AZIMU VELO AIN AR TRES W  DIS CAZ7
 BAR2 EZ EP     C  955  6.67                             170   -0.1410 24.5 204 
 BAR2 EZ ES        955 21.86                             170   -0.2510 24.5 204 
 BAR2 EZ I         955 22.78        16.9 0.26            168           24.5 204 
 PAM  EZ EP     C  955  9.61                             152    0.4210 74.2  36 
 PAM  EN ES        955 26.21                             152   -0.1310 74.2  36 
 PAM  EZ I         955 28.72         7.0 0.50            153           74.2  36 
 BRR  HZ IP     D  955  8.42                             151   -0.2210 76.9 297 
 BRR  HN ES        955 25.60                             151    0.2410 76.9 297 
 BRR  HZ I         955 26.56        14.4 0.24            150           76.9 297 
 RUS  HZ EP   2    955 10.77                             144   -0.08 5 99.7 180 
 RUS  HE ES        955 29.48                             144    0.1810 99.7 180 
 RUS  HZ I         955 30.29         6.3 0.28            143           99.7 180 
 PTB  HZ EP   9    955 13.28                             131   -1.39 0  154 260 
 PTB  HN ES        955 34.41                             132   -0.30 9  154 260 
 PTB  HZ I         955 36.34         6.8 0.22            130            154 260 
 SPBC HZ EP        955 15.35                             128   -0.64 9  167 221 
 SPBC HN ES        955 38.78                             128    0.33 9  167 221 
 SPBC HZ I         955 40.03         9.8 0.13            128            167 221 
 NOR  HZ EP   2    955 23.52                             118    0.12 4  239 235 
 NOR  HN ES   2    955 51.57                             118   -0.07 4  239 235 
 NOR  HZ I         955 56.88         3.0 0.15            117            239 235 
 CHI  HZ EP   2    955 24.63                             117   -0.36 4  250 197 
 CHI  HN ES   2    955 54.32                             117   -0.14 4  250 197 
 CHI  HZ I         955 56.39         3.8 0.30            117            250 197 
 HEL  HZ EP   2    955 28.29                             114    0.26 4  278 256 
 HEL  HN ES   2    956  0.02                             114    0.14 4  278 256 
 PTGC HZ EP   9    955 29.87                             112   -0.85 0  306 160 
 PTGC HN ES        956  3.99                                    0.17 7  306 160 
 GUY2CHZ EP        955 31.62                             112    0.31 7  306 236 
 GUY2CHN ES   4    956  8.25                             112    2.53 0  306 236 
 GUY2CHZ I         956 12.79         2.8 0.32                           306 236 
 CBOC HZ EP   2    955 35.04                             109    0.30 3  339 253 
 PRA  HZ EP   2    955 40.90                             106   -0.09 3  394 210 
 PRA  HE ES   2    956 22.93                             106   -0.02 3  394 210 
 PRA  HZ I         956 28.99         2.8 0.24            106            394 210 
                                                                                
