 2010 1119 0016 52.3 L   6.894 -72.923146.2  RSN  4 0.4 1.3LRSN                1
 GAP=264        0.65      10.8    16.9  9.1  0.1286E+03 -0.4567E+02 -0.8467E+01E
 Epicentro: GUACA - SANTANDER                                                  3
 ACTION:UP  10-12-17 16:53 OP:REBC STATUS:               ID:20101119001652 L   I
 2010-11-19-0012-27S.COL___126                                                 6
 STAT SP IPHASW D HRMM SECON CODA AMPLIT PERI AZIMU VELO SNR AR TRES W  DIS CAZ7
 BAR2 SZ EP   1    017 12.68                             163     0.1 7   44 221 
 BAR2 SZ ES   2    017 29.11                             163     0.7 5   44 221 
 BAR2 SZ I         017 29.52         4.9 0.28                            44 221 
 BRR  HZ EP   1    017 14.73                             147     0.0 7   90 285 
 BRR  HZ I         017 16.25         4.7 0.15                            90 285 
 BRR  HE ES   1    017 31.97                             147    -0.2 7   90 285 
 RUS  HZ EP   2    017 16.56                             141    -0.4 5  112 189 
 RUS  HZ I         017 20.67         1.5 0.48                           112 189 
 RUS  HE ES   2    017 35.78                             141    -0.4 5  112 189 
 PRA  HZ EP   1    017 48.83                             106     0.5 4  414 212 
                                                                                
