 2012 1119 0007 50.6 L   6.729 -73.186147.5  RSN  4 0.3 1.3LRSN                1
 GAP=134        0.55       5.6     6.8  8.3  0.1720E+02 -0.1230E+02 -0.1340E+02E
 Epicentro: VILLANUEVA - SANTANDER                                             3
 ACTION:UPD 12-12-05 15:34 OP:}ep  STATUS:               ID:20121119000750 L   I
 2012-11-19-0000-00M.COL___234                                                 6
 STAT SP IPHASW D HRMM SECON CODA AMPLIT PERI AZIMU VELO AIN AR TRES W  DIS CAZ7
 BRR  HZ EP        0 8 12.17                             153    0.1710 71.6 306 
 BRR  HN ES   1    0 8 28.79                             153    0.13 7 71.6 306 
 BRR  HZ I         0 8 31.97         5.8 0.49                          71.6 306 
 PAM  SZ EP   2    0 8 12.98                             148   -0.61 5 86.2  39 
 RUS  HZ EP   2    0 8 14.53                             146    0.47 5 93.2 173 
 RUS  HE ES   1    0 8 32.21                             146   -0.11 7 93.2 173 
 RUS  HE I         0 8 33.88         2.1 0.26                          93.2 173 
 PTB  HZ EP   2    0 8 17.07                             134   -0.18 5  142 262 
 PTB  HN ES   2    0 8 37.53                             134   -0.47 5  142 262 
 PTB  HZ I         0 8 39.57         2.4 0.17                           142 262 
                                                                                
