 2014  819 0301 15.2 L   6.814 -73.142149.0  RSN  5 0.3 1.4LRSN                1
 GAP=201        0.81       4.4     6.6  6.8  0.7132E+01  0.6549E+01 -0.1292E+02E
 Epicentro: LOS SANTOS - SANTANDER                                             3
 ACTION:UPD 14-09-15 21:51 OP:nd   STATUS:               ID:20140819030115 L   I
 OLDACT:UP  14-08-19 13:58 OP:cam  STATUS:               ID:20140819030000     3
 OLDACT:REG 14-08-19 12:44 OP:cam  STATUS:               ID:20140819030000     3
 2014-08-19-0300-00M.COL___285                                                 6
 STAT SP IPHASW D HRMM SECON CODA AMPLIT PERI AZIMU VELO AIN AR TRES W  DIS CAZ7
 BAR2 SZ ES        3 1 50.76                             170   -0.1210 24.9 190 
 BRR  HZ EP        3 1 37.29                             153    0.6210 70.8 297 
 BRR  HN ES        3 1 53.47                             153    0.0510 70.8 297 
 BRR  HZ I         3 1 57.92         3.6 0.54            153           70.8 297 
 RUS  HN ES        3 1 58.11                             144   -0.1210  102 176 
 RUS  HZ I         3 2  0.11         2.0 0.40            148            102 176 
 PTB  HZ EP        3 1 42.62                             133    0.14 9  148 258 
 PTB  HN ES        3 2  3.56                             133   -0.21 9  148 258 
 PTB  HZ I         3 2  5.76         2.7 0.34            135            148 258 
 SML  HZ EP        3 1 51.25                             118   -0.61 8  242 335 
 SML  HN ES        3 2 20.49                             118    0.02 8  242 335 
 SML  HZ I         3 2 24.21         3.3 0.30            120            242 335 
                                                                                
