 2011  619 0232 39.1 L   6.820 -73.363114.5  RSN  8 0.3 1.6LRSN                1
 GAP=146        0.65       3.3     7.1  6.6  0.2735E+01 -0.8278E+01 -0.4195E+01E
 Epicentro: ZAPATOCA - SANTANDER                                               3
 ACTION:UP  11-07-14 19:06 OP:ep   STATUS:               ID:20110619023239 L   I
 2011-06-19-0220-00M.COL___126                                                 6
 STAT SP IPHASW D HRMM SECON CODA AMPLIT PERI AZIMU VELO SNR AR TRES W  DIS CAZ7
 BTL  SZ EP   1    232 55.25                             172     0.4 7   15  44 
 BAR2 SZ EP   1    232 55.38                             163     0.1 7   32 142 
 BAR2 SZ ES   1    233  8.02                             163     0.2 7   32 142 
 BAR2 SZ I         233  9.03        15.8 0.39                            32 142 
 GIR2 SZ EP   1    232 55.29                             162     0.1 7   34  33 
 BRR  HZ EP   1    232 55.48                             155    -0.2 7   50 309 
 BRR  HN ES   1    233  8.66                             155     0.0 7   50 309 
 BRR  HZ I         233 10.28         7.4 0.14                            50 309 
 RUS  HZ EP   1    233  0.48                             134     0.0 7  107 163 
 RUS  HN ES   2    233 16.53                             134    -0.6 5  107 163 
 RUS  HZ I         233 18.51         3.3 0.34                           107 163 
 BRI  SZ ES   2    233 17.38                             131    -0.7 5  117  32 
 BRI  SZ I         233 20.87         7.8 0.26                           117  32 
 GRA  SZ EP   2    233  2.37                             127    -0.1 5  133  28 
 GRA  SZ ES   2    233 21.20                             127     0.6 5  133  28 
 GRA  SZ I         233 23.61         8.5 0.52                           133  28 
 OCA  SZ EP   1    233  4.90                             122     0.0 7  157   2 
 OCA  SZ ES   1    233 24.63                             122    -0.3 7  157   2 
 OCA  SZ I         233 25.66         7.0 0.21                           157   2 
                                                                                
