 2011  919 0749 15.9 L   7.362 -73.132142.1  RSN  7 0.4 1.5LRSN                1
 GAP=105        0.63       7.0     5.2  8.3 -0.2837E+01 -0.1356E+01 -0.2603E+02E
 Epicentro: RIONEGRO - SANTANDER                                               3
 ACTION:UPD 12-07-13 15:58 OP:ep   STATUS:               ID:20110919074915 L   I
 2011-09-19-0740-00M.COL___173                                                 6
 STAT SP IPHASW D HRMM SECON CODA AMPLIT PERI AZIMU VELO AIN AR TRES W  DIS CAZ7
 GIR2 SZ EP        749 35.17                             165   -0.0110 32.1 192 
 GIR2 SZ ES   2    749 50.35                             165    0.15 5 32.1 192 
 PAM  SZ EP        749 36.52                             160    0.2810 47.8  93 
 PAM  SE ES   2    749 51.92                             160   -0.17 5 47.8  93 
 BTL  SZ EP        749 36.21                             158    0.1910 51.3 197 
 BRR  HZ EP        749 36.61                             152    0.0010 70.0 246 
 BRR  HZ I         749 36.80         7.7 0.16                          70.0 246 
 BRR  HN ES   1    749 52.82                             152    0.08 7 70.0 246 
 BAR2 SZ ES   3    749 53.30                             146   -1.73 2 85.4 184 
 BAR2 SZ I         750  0.20         3.6 0.48                          85.4 184 
 OCA  SZ EP        749 38.31                             144   -0.4210 99.1 348 
 OCA  SZ I         749 57.51         6.3 0.53                          99.1 348 
 ZAR  HE ES   2    750 10.98                             123    0.10 4  191 274 
                                                                                
