 2011  419 0014 33.0 L   6.783 -73.131148.8  RSN  7 0.2 1.5LRSN                1
 GAP=157        0.47       7.1     6.4  6.6 -0.3484E+02 -0.1094E+02  0.1462E+02E
 Epicentro: LOS SANTOS - SANTANDER                                             3
 ACTION:UP  11-06-22 15:31 OP:REBC STATUS:               ID:20110419001433 L   I
 2011-04-19-0013-00S.COL___138                                                 6
 STAT SP IPHASW D HRMM SECON CODA AMPLIT PERI AZIMU VELO SNR AR TRES W  DIS CAZ7
 BAR2 SZ ES   3    015  8.71                             170     0.1 2   22 195 
 BRR  HZ EP        014 54.76                             153     0.110   74 299 
 BRR  HZ I         014 55.53         7.6 0.35                            74 299 
 BRR  HN ES   2    015 11.88                             153     0.4 5   74 299 
 PAM  SZ EP        014 55.71                             152     0.110   78  38 
 PAM  SZ I         014 55.85         4.0 0.19                            78  38 
 PAM  SN ES   2    015 12.93                                    -0.3 5   78  38 
 BRI  SZ EP        014 57.43                             143     0.110  110  20 
 GRA  SZ EP        014 58.61                             138    -0.110  127  16 
 GRA  SZ I         015  0.09         5.4 0.29                           127  16 
 GRA  SZ ES   1    015 18.40                             138    -0.3 7  127  16 
 OCA  SZ EP   3    015  1.36                                    -0.4 2  162 353 
 NOR  SN ES   2    015 36.44                                    -0.6 4  235 235 
                                                                                
