 2013  519 0040 44.5 L   6.409 -73.719  4.0  RSN  7 0.5 1.7LRSN                1
 GAP=118        0.98       4.1     2.7  8.1 -0.2862E+01  0.4336E+01  0.9482E+01E
 Epicentro: SANTA HELENA DEL OPON - SANTANDER                                  3
 ACTION:UPD 13-06-20 09:51 OP:ep   STATUS:               ID:20130519004044 L   I
 2013-05-19-0040-00M.COL___256                                                 6
 STAT SP IPHASW D HRMM SECON CODA AMPLIT PERI AZIMU VELO AIN AR TRES W  DIS CAZ7
 PTB  HN ES   1    041  7.64                              47   -0.31 7 82.9 280 
 PTB  HZ I         041 10.71        21.9 0.10             47           82.9 280 
 RUS  HN ES   1    041 10.48                              47   -0.41 7 90.6 129 
 RUS  HZ I         041 12.08        11.6 0.16             47           90.6 129 
 GIR2 SZ EP   1    040 59.50                              47   -0.01 7 94.1  38 
 PAM  SZ EP   1    041  9.70                              47    0.98 7  153  48 
 PAM  SN ES   1    041 27.12                              47   -0.49 7  153  48 
 PAM  SZ I         041 32.66        13.1 0.16             47            153  48 
 NOR  HZ EP   1    041  9.62                              47    0.53 7  158 234 
 NOR  HE ES   1    041 27.97                              47   -0.30 7  158 234 
 NOR  HZ I         041 29.30        18.5 0.26             47            158 234 
 HEL  HZ EP   1    041 15.47                              37    0.04 6  202 263 
 HEL  HN ES   1    041 38.90                              37   -0.64 6  202 263 
 HEL  HZ I         041 39.81        10.1 0.36             37            202 263 
 GUY2CHZ EP   4    041 19.83                              37    1.43 0  224 234 
 GUY2CHN ES   1    041 45.67                              37    0.84 6  224 234 
 GUY2CHZ I         041 48.46         3.0 0.24                           224 234 
                                                                                
