 2014  919 0746 57.3 L   6.770 -73.191145.2  RSN  5 0.4 1.2LRSN                1
 GAP=230        1.06       6.2     6.6  7.8  0.8974E+01  0.7099E+01  0.5146E+01E
 Epicentro: LOS SANTOS - SANTANDER                                             3
 ACTION:UPD 14-10-03 23:06 OP:nd   STATUS:               ID:20140919074657 L   I
 OLDACT:DUP 14-09-19 15:30 OP:carl STATUS:               ID:20140919073820d    3
 2014-09-19-0738-19M.COL___281                                                 6
 STAT SP IPHASW D HRMM SECON CODA AMPLIT PERI AZIMU VELO AIN AR TRES W  DIS CAZ7
 BAR2 SZ EP        747 16.69                             172   -0.1510 19.6 177 
 BAR2 SZ ES        747 31.63                             172   -0.4110 19.6 177 
 BAR2 SZ I         747 33.11         7.5 0.32            166           19.6 177 
 BRR  HZ EP        747 18.49                             153    0.2110 68.6 303 
 BRR  HN ES        747 35.24                             153    0.6210 68.6 303 
 BRR  HZ I         747 37.83         3.1 0.42            150           68.6 303 
 RUS  HZ EP        747 20.59                             144   -0.2410 97.7 173 
 RUS  HN ES        747 39.26                             144    0.1110 97.7 173 
 RUS  HZ I         747 40.44         1.2 0.42            144           97.7 173 
 PTB  HZ EP        747 23.47                             133   -0.29 9  142 260 
 PTB  HN ES        747 43.64                             133   -0.72 9  142 260 
 PTB  HZ I         747 49.97         1.6 0.46            131            142 260 
 SPBC HZ EP        747 25.70                             130    0.45 9  157 218 
 SPBC HN ES        747 47.47                             130    0.45 9  157 218 
 SPBC HZ I         747 54.52         1.9 0.30            128            157 218 
                                                                                
