 2015  119 0958 30.8 L   6.781 -73.152152.0  RSN  6 0.4 1.3LRSN                1
 GAP=235        0.92       5.6     7.2  8.1  0.1398E+02  0.1402E+02  0.4605E+01E
 Epicentro: LOS SANTOS - SANTANDER                                             3
 ACTION:UPD 15-03-02 15:40 OP:nd   STATUS:               ID:20150119095830 L   I
 OLDACT:REG 15-01-19 19:37 OP:spq  STATUS:               ID:20150119095745     3
 2015-01-19-0957-45M.COL___262                                                 6
 STAT SP IPHASW D HRMM SECON CODA AMPLIT PERI AZIMU VELO AIN AR TRES W  DIS CAZ7
 BAR2 EZ ES   1    959  6.63                             172   -0.36 7 21.1 189 
 BAR2 EZ I         959  7.51         6.6 0.10            172           21.1 189 
 BRR  HZ EP        958 52.80                             153    0.1710 71.6 300 
 BRR  HN ES        959 10.19                             153    0.5110 71.6 300 
 BRR  HZ I         959 14.29         6.2 0.54            151           71.6 300 
 RUS  HE ES   1    959 13.44                             146   -0.47 7 98.5 176 
 RUS  HZ I         959 14.54         1.7 0.30            149           98.5 176 
 PTB  HZ EP        958 57.82                             134   -0.35 9  147 260 
 PTB  HN ES        959 19.13                             134   -0.40 9  147 260 
 PTB  HZ I         959 20.77         1.7 0.38            134            147 260 
 SPBC HZ EP        958 59.87                             131    0.29 9  161 219 
 SPBC HE ES        959 22.52                             131    0.48 9  161 219 
 SPBC HZ I         959 24.73         2.9 0.42            132            161 219 
 ZAR  HE ES        959 29.03                             124   -0.27 9  204 293 
 ZAR  HZ I         959 34.98         1.7 0.22            124            204 293 
                                                                                
