 2017  219 0320 39.9 L   6.563 -73.598100.7  RSN  6 0.3 1.1LRSN                1
 GAP=126        0.93       4.8     4.2  7.3  0.1102E+02  0.1289E+02  0.8330E+01E
 Epicentro: EL CARMEN - SANTANDER                                              3
 ACTION:UPD 17-05-24 15:37 OP:jn   STATUS:               ID:20170219032039 L   I
 OLDACT:UP  17-02-19 16:20 OP:edw  STATUS:               ID:20170219031742     3
 OLDACT:REG 17-02-19 12:29 OP:edw  STATUS:               ID:20170219031742     3
 2017-02-19-0318-00M.COL___358                                                 6
 STAT SP IPHASW D HRMM SECON CODA AMPLIT PERI AZIMU VELO AIN AR TRES W  DIS CAZ7
 BAR2 EZ IP     C  320 55.16                             154    0.0610 46.0  86 
 BAR2 EZ ES        321  7.49                             154    0.5310 46.0  86 
 BAR2 EZ I         321  8.16         4.6 0.50            157           46.0  86 
 BRR  HZ EP     D  320 55.39                             146   -0.3210 61.4 348 
 BRR  HN ES        321  7.86                             146   -0.1710 61.4 348 
 BRR  HZ I         321  9.95         4.2 0.52            148           61.4 348 
 RUS  HZ EP        320 59.08                             134    0.1610 93.5 142 
 RUS  HN ES        321 13.27                             134   -0.4910 93.5 142 
 RUS  HZ I         321 15.74         2.4 0.22            136           93.5 142 
 PTB  HN ES        321 12.85                             133    0.0010 95.0 268 
 PAM  EZ EP   9    321  1.28                             124   -1.25 0  131  49 
 PAM  EN ES        321 18.24                             124   -0.6910  131  49 
 PAM  EZ I         321 19.61         2.3 0.18            126            131  49 
 ZAR  HZ EP        321  6.69                             116    0.31 9  173 306 
 ZAR  HN ES        321 27.02                             116   -0.02 9  173 306 
 ZAR  HZ I         321 30.28         2.3 0.30            116            173 306 
                                                                                
