 2016  219 0603 38.5 L   6.836 -73.177146.0  RSN  7 0.3 1.4LRSN                1
 GAP=131        0.73       3.2     4.0  5.0 -0.4358E+01  0.4936E+01  0.1390E+01E
 Epicentro: ZAPATOCA - SANTANDER                                               3
 ACTION:UPD 16-03-04 21:27 OP:rebc STATUS:               ID:20160219060338 L   I
 OLDACT:REG 16-02-19 12:26 OP:drio STATUS:               ID:20160219055748     3
 2016-02-19-0557-48M.COL___312                                                 6
 STAT SP IPHASW D HRMM SECON CODA AMPLIT PERI AZIMU VELO AIN AR TRES W  DIS CAZ7
 BAR2 EZ EP        6 3 58.34                             169    0.1510 26.9 181 
 BAR2 EZ ES        6 4 13.38                             169   -0.2010 26.9 181 
 BAR2 EZ I         6 4 14.95         8.9 0.38            170           26.9 181 
 BRR  HZ EP        6 3 58.75                             154   -0.6110 66.3 297 
 BRR  HE ES   4    6 4 17.37                             154    1.70 0 66.3 297 
 BRR  HZ I         6 4 21.69         3.7 0.58            153           66.3 297 
 PAM  EZ EP        6 4  0.86                             151    0.2110 76.7  43 
 PAM  EE ES        6 4 18.18                             151    0.2110 76.7  43 
 PAM  EZ I         6 4 20.44         5.6 0.46            155           76.7  43 
 RUS  HZ EP        6 4  2.51                             143   -0.0310  105 174 
 RUS  HE ES        6 4 21.14                             143   -0.1810  105 174 
 RUS  HZ I         6 4 21.90         1.8 0.22            146            105 174 
 PTB  HZ EP        6 4  5.33                             133    0.12 9  145 257 
 PTB  HN ES        6 4 26.03                             133   -0.05 9  145 257 
 PTB  HZ I         6 4 28.09         1.7 0.18            134            145 257 
 SPBC HZ EP        6 4  7.28                             129    0.22 9  164 217 
 SPBC HE ES        6 4 29.91                             129    0.53 9  164 217 
 SPBC HZ I         6 4 34.09         4.2 0.20            131            164 217 
 CHI  HZ EP        6 4 16.26                             117   -0.22 8  252 194 
 CHI  HN ES        6 4 45.98                             117   -0.17 8  252 194 
 CHI  HZ I         6 4 49.25         1.6 0.60            120            252 194 
                                                                                
