 2011 1019 0538 12.7 L   6.789 -73.133141.2  RSN 11 0.3 2.1LRSN                1
 GAP=115        0.45       2.3     2.9  4.5 -0.5374E-01  0.3891E+01  0.1334E+01E
 Epicentro: LOS SANTOS - SANTANDER                                             3
 ACTION:UPD 12-07-13 16:04 OP:ep   STATUS:               ID:20111019053812 L   I
 2011-10-19-0536-40S.COL___153                                                 6
 STAT SP IPHASW D HRMM SECON CODA AMPLIT PERI AZIMU VELO AIN AR TRES W  DIS CAZ7
 BAR2 SZ EP   1    538 31.61                             171   -0.11 7 22.5 194 
 BAR2 SZ ES   2    538 46.24                             171   -0.36 5 22.5 194 
 BAR2 SZ I         538 47.70        40.9 0.35                          22.5 194 
 BRR  HZ IP     D  538 33.39                             151   -0.0310 73.0 299 
 BRR  HZ I         538 33.56        39.7 0.15                          73.0 299 
 BRR  HN ES   2    538 50.40                             151    0.78 5 73.0 299 
 PAM  SZ EP   1    538 34.56                             150    0.17 7 77.4  38 
 PAM  SN ES   2    538 51.34                             150   -0.01 5 77.4  38 
 RUS  HZ EP   1    538 36.00                             143    0.13 7 99.3 177 
 RUS  HN ES   2    538 53.51                             143   -0.47 5 99.3 177 
 RUS  HZ I         538 55.22        12.5 0.36                          99.3 177 
 OCA  SZ EP   1    538 40.39                             128   -0.36 7  162 353 
 OCA  SZ ES   2    539  2.79                             128    0.13 5  162 353 
 OCA  SZ I         539  5.09        15.0 0.15                           162 353 
 YOP  SZ EP   2    538 42.52                             126    0.31 4  177 154 
 YOP  SZ I         538 43.47         6.4 0.68                           177 154 
 YOP  SE ES   2    539  5.63                             126    0.37 4  177 154 
 ZAR  HZ EP   2    538 45.02                             121    0.02 4  206 292 
 ZAR  HN ES   2    539  9.89                             121   -0.33 4  206 292 
 ZAR  HZ I         539 15.22        14.4 0.20                           206 292 
 NOR  SZ EP   2    538 47.71                             117   -0.47 4  235 235 
 NOR  SN ES   2    539 15.57                             117   -0.32 4  235 235 
 HEL  HZ EP   2    538 53.06                             114    0.29 4  273 256 
 HEL  HN ES   2    539 24.55                             114    0.50 4  273 256 
 HEL  HZ I         539 30.02         5.7 0.50                           273 256 
 RREF HZ EP   2    538 58.54                             110   -0.10 3  322 230 
 RREF HN ES   2    539 34.87                             110    0.36 3  322 230 
 RREF HZ I         539 43.73         4.5 0.44                           322 230 
 PRA  HZ EP   2    539  6.09                             106    0.10 3  392 210 
 PRA  HN ES   2    539 47.37                             106   -0.21 3  392 210 
                                                                                
