 2017 1219 0923 37.7 L   6.899 -73.037138.6  RSN  4 0.3 1.3LRSN                1
 GAP=277        0.77       5.8     5.6  6.8  0.7182E+01  0.8922E+01 -0.8080E+01E
 Epicentro: PIEDECUESTA - SANTANDER                                            3
 ACTION:UPD 18-01-04 13:22 OP:rebc STATUS:               ID:20171219092337 L   I
 OLDACT:DUP 17-12-19 16:59 OP:dhb  STATUS:               ID:20171219091740d    3
 OLDACT:REG 17-12-19 13:31 OP:dhb  STATUS:               ID:20171219091739     3
 2017-12-19-0918-00M.COL___449                                                 6
 STAT SP IPHASW D HRMM SECON CODA AMPLIT PERI AZIMU VELO AIN AR TRES W  DIS CAZ7
 BAR2 EZ EP        923 57.12                             164    0.2410 37.5 205 
 BAR2 EZ ES        924 11.70                             164   -0.1310 37.5 205 
 BAR2 EZ I         924 13.34         3.4 0.18            163           37.5 205 
 PTB  HZ EP        924  5.00                             128   -0.46 9  162 256 
 PTB  HE ES        924 26.69                             128   -0.40 9  162 256 
 PTB  HZ I         924 26.95         1.4 0.12            127            162 256 
 SPBC HZ EP        924  7.23                             125   -0.04 9  179 220 
 SPBC HN ES        924 30.72                             125    0.40 9  179 220 
 SPBC HZ I         924 34.28         2.8 0.22            125            179 220 
 ZAR  HZ EP        924 10.53                             120    0.03 8  212 288 
 ZAR  HE ES        924 36.49                             120    0.41 8  212 288 
 ZAR  HZ I         924 41.63         2.8 0.32            120            212 288 
                                                                                
