 2017  319 0434  9.5 L   6.803 -73.409126.5  RSN  4 0.3 1.2LRSN                1
 GAP=178        0.90       6.4     5.5  7.4  0.1669E+02  0.7762E+01  0.9402E+01E
 Epicentro: SAN VICENTE DE CHUCURI - SANTANDER                                 3
 ACTION:UPD 17-05-25 18:42 OP:jn   STATUS:               ID:20170319043409 L   I
 OLDACT:REG 17-03-19 13:03 OP:cara STATUS:               ID:20170319042742     3
 2017-03-19-0428-00M.COL___406                                                 6
 STAT SP IPHASW D HRMM SECON CODA AMPLIT PERI AZIMU VELO AIN AR TRES W  DIS CAZ7
 BAR2 EZ EP        434 26.95                             164   -0.1610 34.2 133 
 BAR2 EZ ES        434 40.37                             164   -0.5010 34.2 133 
 BAR2 EZ I         434 41.28         5.5 0.38            165           34.2 133 
 BRR  HZ EP        434 27.33                             158    0.0510 47.4 315 
 BRR  HE ES        434 41.57                             158    0.4010 47.4 315 
 BRR  HZ I         434 42.35         4.8 0.10            158           47.4 315 
 RUS  HZ EP        434 32.37                             137    0.4610  107 160 
 RUS  HN ES        434 49.55                             137    0.1510  107 160 
 RUS  HZ I         434 50.46         1.5 0.22            138            107 160 
 PTB  HZ EP        434 31.83                             134   -0.4810  119 256 
 PTB  HE ES        434 50.19                             134    0.0610  119 256 
 PTB  HZ I         434 54.01         2.2 0.34            133            119 256 
                                                                                
