 2014  819 0332  1.4 L   6.791 -73.134152.1  RSN 10 0.4 1.8LRSN                1
 GAP=202        0.97       3.6     4.6  6.0  0.2084E+01  0.6231E+01 -0.2495E+01E
 Epicentro: LOS SANTOS - SANTANDER                                             3
 ACTION:UPD 14-09-15 21:51 OP:nd   STATUS:               ID:20140819033201 L   I
 OLDACT:UP  14-08-19 14:29 OP:cam  STATUS:               ID:20140819033000     3
 OLDACT:UP  14-08-19 14:29 OP:cam  STATUS:               ID:20140819033000     3
 OLDACT:REG 14-08-19 12:47 OP:cam  STATUS:               ID:20140819033000     3
 2014-08-19-0330-00M.COL___285                                                 6
 STAT SP IPHASW D HRMM SECON CODA AMPLIT PERI AZIMU VELO AIN AR TRES W  DIS CAZ7
 BAR2 SZ EP     D  332 21.59                             171   -0.1710 22.6 194 
 BAR2 SZ ES        332 37.62                             171   -0.0410 22.6 194 
 BAR2 SZ I         332 38.27         7.6 0.14            166           22.6 194 
 BRR  HZ EP     C  332 23.61                             153    0.3010 72.8 299 
 BRR  HN ES        332 41.32                             153    0.9010 72.8 299 
 BRR  HZ I         332 45.28         8.3 0.16            149           72.8 299 
 RUS  HZ EP        332 25.99                             145    0.3010 99.5 177 
 RUS  HN ES        332 44.29                             145   -0.3510 99.5 177 
 RUS  HZ I         332 45.00         2.7 0.28            146           99.5 177 
 PTB  HZ EP        332 28.83                             133   -0.14 9  149 259 
 PTB  HN ES        332 49.94                             133   -0.55 9  149 259 
 PTB  HZ I         332 57.06        10.1 0.40            131            149 259 
 SPBC HZ EP        332 30.59                             131    0.21 9  163 220 
 SPBC HN ES        332 52.67                             131   -0.33 9  163 220 
 SPBC HZ I         332 59.56        14.0 0.32            130            163 220 
 ZAR  HZ EP        332 34.34                             124   -0.07 8  206 292 
 ZAR  HE ES        333  0.24                             124    0.07 8  206 292 
 ZAR  HZ I         333  6.49         5.6 0.46            123            206 292 
 NOR  HZ EP   1    332 37.73                             120    0.19 6  235 235 
 NOR  HE ES        333  5.86                             120    0.12 8  235 235 
 NOR  HZ I         333 10.53         4.9 0.16            120            235 235 
 SML  HZ EP   1    332 37.99                             119   -0.54 6  245 335 
 SML  HE ES        333  6.87                             119   -0.63 8  245 335 
 HEL  HZ EP   1    332 42.97                             116    0.93 6  273 256 
 HEL  HN ES        333 13.58                             116   -0.17 8  273 256 
 HEL  HZ I         333 21.29         3.6 0.24            116            273 256 
 GUY2CHZ EP   4    332 46.46                             114    1.11 0  302 235 
 SJC  HZ EP   4    332 55.93                             107   -1.41 0  411 327 
 SJC  HE ES   4    333 39.53                             107   -1.46 0  411 327 
 SJC  HE I         333 40.70         2.5 0.20            108            411 327 
                                                                                
