 2012  619 0202 58.3 L   6.826 -73.185143.7  RSN  9 0.5 1.9LRSN                1
 GAP=130        0.70       5.4     5.2  6.8 -0.1262E+02  0.1431E+02 -0.3286E+00E
 Epicentro: ZAPATOCA - SANTANDER                                               3
 ACTION:UPD 12-08-06 17:50 OP:ep   STATUS:               ID:20120619020000 L   I
 2012-06-19-0200-00M.COL___199                                                 6
 STAT SP IPHASW D HRMM SECON CODA AMPLIT PERI AZIMU VELO AIN AR TRES W  DIS CAZ7
 BAR2 SZ IP        2 3 17.76                             169    0.0010 25.9 179 
 BAR2 SZ I         2 3 18.26        22.7 0.34                          25.9 179 
 BAR2 SZ ES   1    2 3 33.29                             169    0.36 7 25.9 179 
 PAM  SZ EP        2 3 20.51                             150    0.1410 78.1  43 
 PAM  SZ I         2 3 20.60        12.1 0.20                          78.1  43 
 PAM  SN ES   1    2 3 37.45                             150   -0.11 7 78.1  43 
 RUS  HZ EP        2 3 21.82                             142   -0.3010  104 174 
 RUS  HZ I         2 3 22.25         6.2 0.30                           104 174 
 RUS  HE ES   2    2 3 40.69                             142    0.02 5  104 174 
 PTB  HZ EP        2 3 24.33                             132   -0.46 9  144 257 
 PTB  HN ES   2    2 3 44.83                             132   -0.61 5  144 257 
 PTB  HZ I         2 3 48.17         9.8 0.22                           144 257 
 OCA  HZ EP   3    2 3 25.66                             130   -0.50 2  157 355 
 OCA  HZ I         2 3 52.49        21.7 0.18                           157 355 
 ZAR  HZ EP   3    2 3 30.31                             123    0.20 2  199 292 
 ZAR  HN ES   3    2 3 55.52                             123    0.62 2  199 292 
 ZAR  HZ I         2 4  2.17        16.6 0.40                           199 292 
 NOR  SZ EP        2 3 34.54                             118    0.80 8  233 233 
 NOR  SN ES   1    2 4  1.31                             118   -0.05 6  233 233 
 CHI  HZ EP   3    2 3 36.14                             116    0.04 2  250 194 
 CHI  HN ES   3    2 4  4.81                             116   -0.75 2  250 194 
 CHI  HZ I         2 4 12.94         3.7 0.32                           250 194 
 HEL  HZ EP   3    2 3 39.63                             115    1.58 2  269 255 
 HEL  HZ I         2 4 17.33         4.6 0.48                           269 255 
                                                                                
