 2016  919 0001  4.7 L   6.789 -73.102145.9  RSN 13 0.4 1.9LRSN                1
 GAP=143        0.73       3.5     4.0  4.6 -0.6316E+01  0.3319E+00  0.3683E+01E
 Epicentro: LOS SANTOS - SANTANDER                                             3
 ACTION:UPD 17-08-17 21:13 OP:lp   STATUS:               ID:20160919000104 L   I
 OLDACT:UP  16-09-19 12:13 OP:and  STATUS:               ID:20160918235951     3
 OLDACT:UP  16-09-19 12:10 OP:and  STATUS:               ID:20160918235951     3
 OLDACT:UP  16-09-19 12:06 OP:and  STATUS:               ID:20160918235951     3
 OLDACT:UP  16-09-19 11:54 OP:and  STATUS:               ID:20160918235951     3
 OLDACT:REG 16-09-19 11:05 OP:ar   STATUS:               ID:20160918235951     3
 2016-09-19-0000-15M.COL___360                                                 6
 STAT SP IPHASW D HRMM SECON CODA AMPLIT PERI AZIMU VELO AIN AR TRES W  DIS CAZ7
 BAR2 EZ EP   2    0 1 24.12                             170   -0.20 5 23.5 202 
 BAR2 EZ ES   2    0 1 39.11                             170   -0.53 5 23.5 202 
 BAR2 EZ I         0 1 40.56        18.7 0.18            170           23.5 202 
 PAM  EZ IP     D  0 1 26.86                             151    0.0810 75.4  36 
 PAM  EN ES        0 1 44.07                             151    0.0410 75.4  36 
 PAM  EZ I         0 1 46.08         4.9 0.39            150           75.4  36 
 BRR  HZ EP     C  0 1 25.69                             151   -0.4210 76.0 298 
 BRR  HE ES        0 1 43.14                             151    0.3110 76.0 298 
 BRR  HZ I         0 1 47.07        10.9 0.14            146           76.0 298 
 RUS  HZ EP   2    0 1 27.99                             144   -0.34 5 99.2 179 
 RUS  HN ES   2    0 1 46.73                             144   -0.06 5 99.2 179 
 RUS  HZ I         0 1 48.21         6.4 0.22            147           99.2 179 
 PTB  HZ EP   9    0 1 30.65                             131   -1.41 0  152 260 
 PTB  HN ES        0 1 51.67                             132   -0.34 9  152 260 
 PTB  HZ I         0 1 53.85         6.2 0.10            129            152 260 
 OCA  HZ EP   2    0 1 33.08                             129   -0.08 5  162 352 
 OCA  HN ES   2    0 1 56.05                             129    0.66 5  162 352 
 OCA  HZ I         0 2 12.38        27.0 0.42            127            162 352 
 SPBC HZ EP        0 1 33.18                             129   -0.20 9  165 221 
 SPBC HE ES        0 1 56.13                             129    0.35 9  165 221 
 SPBC HZ I         0 2  2.87         9.1 0.07            129            165 221 
 ZAR  HZ EP   4    0 1 38.10                             122    0.47 0  209 292 
 ZAR  HN ES   2    0 2  1.92                             122   -1.42 4  209 292 
 ZAR  HZ I         0 2  7.70         7.7 0.12            120            209 292 
 NOR  HZ EP   2    0 1 40.09                             118   -0.67 4  238 235 
 NOR  HE ES   2    0 2  8.78                             118   -0.12 4  238 235 
 NOR  HZ I         0 2 13.91         5.5 0.14            118            238 235 
 CHI  HZ EP   2    0 1 42.13                             117   -0.26 4  249 196 
 CHI  HN ES   2    0 2 11.62                             117   -0.19 4  249 196 
 CHI  HZ I         0 2 13.69         2.9 0.33            118            249 196 
 ROSC BZ EP   9    0 1 44.39                             116    1.43 0  254 212 
 ROSC BE ES        0 2 14.52                                    0.27 8  254 212 
 ROSC BZ I         0 2 18.54         8.7 0.45            117            254 212 
 HEL  HZ EP        0 1 46.04                             114    0.66 7  276 256 
 HEL  HN ES   2    0 2 16.77                             114   -0.35 4  276 256 
 HEL  HZ I         0 2 22.02         3.9 0.28            114            276 256 
 GUY2CHZ EP        0 1 48.97                             112    0.32 7  304 235 
 GUY2CHE ES   4    0 2 25.30                             112    2.34 0  304 235 
 GUY2CHZ I         0 2 30.14         3.7 0.30                           304 235 
                                                                                
