 2012 1219 0443  2.3 L   6.082 -73.619116.3  RSN  7 0.3 1.7LRSN                1
 GAP= 89        0.75       2.8     3.5  5.7  0.1057E+01  0.7072E+01  0.3060E+01E
 Epicentro: CHIPATA - SANTANDER                                                3
 ACTION:UPD 13-01-04 14:29 OP:ep   STATUS:               ID:20121219044302 L   I
 2012-12-19-0440-00M.COL___243                                                 6
 STAT SP IPHASW D HRMM SECON CODA AMPLIT PERI AZIMU VELO AIN AR TRES W  DIS CAZ7
 RUS  HZ EP     D  443 20.26                             150   -0.2410 62.8 109 
 RUS  HN ES        443 34.59                             150   -0.1210 62.8 109 
 RUS  HN I         443 38.83         8.8 0.17                          62.8 109 
 BAR2 SZ EP        443 20.98                             145    0.1010 74.3  41 
 BAR2 SZ ES        443 35.57                             145    0.1810 74.3  41 
 PTB  HZ EP        443 22.54                             135   -0.5010  106 299 
 PTB  HN ES   1    443 38.81                             135   -0.43 7  106 299 
 PTB  HZ I         443 41.59        11.9 0.12                           106 299 
 BRR  HZ EP        443 23.76                             132    0.0110  114 355 
 BRR  HE ES   1    443 41.07                             132    0.57 7  114 355 
 BRR  HZ I         443 42.08         9.7 0.10                           114 355 
 CHI  HZ EP        443 29.07                             122    0.16 9  161 184 
 CHI  HN ES        443 49.87                             122    0.20 9  161 184 
 CHI  HZ I         443 52.93         7.0 0.31                           161 184 
 TAM  HZ EP        443 33.05                             115   -0.20 8  206  79 
 HEL  HZ EP        443 34.80                             114    0.49 8  212 273 
 HEL  HZ I         444  6.27         5.9 0.47                           212 273 
                                                                                
