 2017  219 0316 49.8 L   6.848 -73.148146.7  RSN 22 0.6 2.3LRSN                1
 GAP= 69        1.34       4.8     4.0  5.8  0.4648E+01  0.6458E+01  0.2052E+01E
 Epicentro: LOS SANTOS - SANTANDER                                             3
 ACTION:UPD 17-05-24 15:37 OP:jn   STATUS:               ID:20170219031649 L   I
 OLDACT:UP  17-02-19 16:03 OP:edw  STATUS:               ID:20170219030742d    3
 OLDACT:DUP 17-02-19 15:53 OP:edw  STATUS:               ID:20170219030742d    3
 2017-02-19-0308-00M.COL___358                                                 6
 STAT SP IPHASW D HRMM SECON CODA AMPLIT PERI AZIMU VELO AIN AR TRES W  DIS CAZ7
 BAR2 EZ IP     D  317  9.80                             169    0.1110 28.5 188 
 BAR2 EZ ES        317 24.59                             169   -0.5910 28.5 188 
 BAR2 EZ I         317 26.88        46.2 0.28            164           28.5 188 
 BRR  HZ EP     D  317 11.60                             154    0.6610 68.6 295 
 BRR  HN ES        317 28.66                             154    1.2610 68.6 295 
 BRR  HZ I         317 32.69        25.3 0.28            152           68.6 295 
 PAM  EZ EP   9 D  317 12.61                             152    0.68 0 73.5  42 
 PAM  EN ES        317 29.96                             153    0.1210 73.5  42 
 PAM  EZ I         317 31.95        54.1 0.50            159           73.5  42 
 RUS  HZ EP        317 13.83                             143   -0.2310  106 176 
 RUS  HN ES        317 32.42                             143   -0.5410  106 176 
 RUS  HZ I         317 33.67        54.0 0.32            142            106 176 
 PTB  HZ EP   9    317 16.32                             132   -0.64 0  149 257 
 PTB  HN ES        317 37.62                             132    0.15 9  149 257 
 PTB  HZ I         317 41.18        18.4 0.18            131            149 257 
 TAM  HZ IP     D  317 18.17                             130    0.43 9  157 107 
 TAM  HN ES        317 39.31                             130   -0.20 9  157 107 
 ZAR  HZ EP        317 22.21                             123    0.09 9  202 291 
 ZAR  HN ES        317 46.88                             123   -0.42 9  202 291 
 ZAR  HZ I         317 53.52        17.8 0.24            123            202 291 
 NOR  HZ EP     D  317 26.01                             118    0.08 8  238 233 
 NOR  HN ES        317 53.50                             118   -0.59 8  238 233 
 NOR  HZ I         317 59.41        16.7 0.20            118            238 233 
 CHI  HZ EP   9 C  317 27.97                             117   -0.17 0  254 195 
 CHI  HN ES        317 57.11                             117   -0.73 8  254 195 
 CHI  HZ I         318  3.18         9.3 0.68            117            254 195 
 ROSC BZ EP   4    317 29.88                             116    1.39 0  257 210 
 ROSC BN ES   4    318  0.47                             116    1.83 0  257 210 
 ROSC BZ I         318  7.99        16.2 0.35            116            257 210 
 URE  HZ EP        317 30.27                             114   -0.44 7  282 291 
 URE  HN ES        318  1.80                             114   -0.79 7  282 291 
 URE  HZ I         318 11.72        10.8 0.38            115            282 291 
 VIL  EZ EP        317 33.63                             112   -0.25 7  309 191 
 VIL  EN ES   4    318  6.41                             112   -1.82 0  309 191 
 VIL  EZ I         318 10.46        13.6 0.42            112            309 191 
 PTGC HZ EP   4    317 32.95                             111   -1.36 0  314 159 
 PTGC HN ES   4    318  6.17                             111   -2.82 0  314 159 
 PTGC HZ I         318 11.18        17.8 0.32            113            314 159 
 ELA  HZ EP        317 37.86                             110    0.76 7  332 229 
 ELA  HN ES   4    318 15.27                             110    1.30 0  332 229 
 ELA  HZ I         318 29.25         7.5 0.48            111            332 229 
 CBOC HZ EP        317 38.03                             110    1.08 7  335 251 
 CBOC HN ES        318 14.13                             110    0.43 7  335 251 
 CBOC HZ I         318 17.76         2.9 0.48            110            335 251 
 DBB  EZ EP        317 38.07                             110    0.79 7  339 273 
 DBB  EN ES   4    318 12.54                             110   -1.75 0  339 273 
 DBB  EZ I         318 14.85         3.7 0.26            110            339 273 
 ANIL HZ EP   4    317 41.78                             108    1.68 0  361 224 
 ANIL HN ES   4    318 21.53                             108    2.23 0  361 224 
 ANIL HZ I         318 26.82        23.0 0.24            109            361 224 
 APAC HZ EP        317 43.37                             106   -0.47 6  396 287 
 APAC HN ES        318 24.48                             106   -1.48 6  396 287 
 APAC HZ I         318 28.27         3.4 0.40            107            396 287 
 PRA  HZ EP        317 43.60                             106   -0.32 6  397 209 
 PRA  HN ES        318 25.74                             106   -0.36 6  397 209 
 PRA  HZ I         318 31.99         7.7 0.38            107            397 209 
 ORTC HZ EP        317 44.19                             106   -0.08 6  400 216 
 ORTC HN ES        318 27.75                             106    1.02 6  400 216 
 ORTC HZ I         318 33.64         6.7 0.40            107            400 216 
 SJC  HZ EP        317 43.98                             106   -0.91 6  405 327 
 SJC  HN ES   4    318 24.57                             106   -3.26 0  405 327 
 SJC  HZ I         318 29.49         3.3 0.62            107            405 327 
 CRJC HZ EP   9    317 50.21                             104   -1.53 0  462   4 
 CRJC HN ES        318 37.25                             104   -1.24 5  462   4 
                                                                                
