 2013  319 0712 47.0 L   6.820 -73.124146.1  RSN  5 0.4 1.6LRSN                1
 GAP=138        0.85       4.9     7.1 13.7  0.1184E+02  0.3867E+02 -0.5828E+01E
 Epicentro: LOS SANTOS - SANTANDER                                             3
 ACTION:UPD 13-04-09 14:03 OP:ep   STATUS:               ID:20130319071247 L   I
 2013-03-19-0710-00M.COL___244                                                 6
 STAT SP IPHASW D HRMM SECON CODA AMPLIT PERI AZIMU VELO AIN AR TRES W  DIS CAZ7
 PAM  SN ES   2    713 26.79                             152    0.55 5 74.1  39 
 PAM  SN I         713 27.91         8.6 0.70            154           74.1  39 
 RUS  HZ EP   1    713 11.37                             143    0.46 8  103 177 
 RUS  HN ES   1    713 29.06                             143   -0.52 8  103 177 
 PTB  HZ EP        713 14.18                             131   -0.0410  151 258 
 PTB  HE ES   2    713 35.21                             131   -0.27 5  151 258 
 PTB  HE I         713 37.02         3.4 0.34            134            151 258 
 ZAR  HN ES        713 45.49                             122    0.46 9  205 291 
 SML  HN ES        713 51.47                             117   -0.54 9  243 335 
                                                                                
