 2013  819 0300 56.3 L   6.837 -73.176143.1  RSN 14 0.4 2.5LRSN                1
 GAP=131        0.97       2.6     4.0  5.4 -0.3230E+01  0.9243E+01 -0.1871E+01E
 Epicentro: ZAPATOCA - SANTANDER                                               3
 ACTION:UPD 14-01-14 09:04 OP:ep   STATUS:               ID:20130819030056 L   I
 OLDACT:UP  13-08-19 08:47 OP:cam  STATUS:               ID:20130819025959     3
 OLDACT:REG 13-08-19 07:45 OP:cam  STATUS:               ID:20130819025959     3
 2013-08-19-0259-59M.COL___269                                                 6
 STAT SP IPHASW D HRMM SECON CODA AMPLIT PERI AZIMU VELO AIN AR TRES W  DIS CAZ7
 BAR2 SZ EP     D  3 1 15.51                             169   -0.1410 27.1 181 
 BAR2 SZ ES        3 1 30.66                             169   -0.1210 27.1 181 
 BAR2 SZ I         3 1 31.54        81.5 0.15            172           27.1 181 
 BRR  HZ EP        3 1 17.36                             154    0.5110 66.3 297 
 BRR  HZ I         3 1 35.22        60.9 0.20            150           66.3 297 
 PAM  SZ EP        3 1 18.28                             151    0.1410 76.6  43 
 PAM  SZ I         3 1 18.50       177.8 0.24            151           76.6  43 
 PAM  SN ES        3 1 35.34                             151    0.1310 76.6  43 
 RUS  HZ EP        3 1 19.54                             142   -0.5310  105 174 
 RUS  HE ES        3 1 38.24                             142   -0.4110  105 174 
 RUS  HZ I         3 1 39.02        37.2 0.32            146            105 174 
 PTB  HZ EP   1    3 1 22.28                             132   -0.51 7  145 257 
 PTB  HN ES        3 1 43.25                             132   -0.23 9  145 257 
 PTB  HZ I         3 1 45.07        34.1 0.30            131            145 257 
 OCA  HZ EP        3 1 23.78                             130   -0.17 9  156 354 
 OCA  HN ES        3 1 45.71                             130    0.17 9  156 354 
 OCA  HZ I         3 1 54.35        26.4 0.30            129            156 354 
 SPBC HZ EP        3 1 24.37                             128   -0.29 9  164 217 
 SPBC HN ES        3 1 46.89                             128    0.07 9  164 217 
 SPBC HZ I         3 1 48.85        37.5 0.26            129            164 217 
 NOR  HZ EP        3 1 32.06                             118    0.26 8  234 233 
 NOR  HE ES        3 1 59.59                             118    0.07 8  234 233 
 NOR  HZ I         3 2  3.10        22.9 0.28            119            234 233 
 SML  HZ EP        3 1 31.95                             117   -0.23 8  239 336 
 SML  HN ES        3 2  0.75                             117    0.55 8  239 336 
 SML  HZ I         3 2  7.12        28.7 0.26            117            239 336 
 CHI  HZ EP        3 1 34.21                             116    0.06 8  252 194 
 CHI  HN ES        3 2  4.79                             116    1.09 8  252 194 
 CHI  HZ I         3 2  8.29        10.0 0.28            118            252 194 
 HEL  HZ EP        3 1 36.46                             114    0.37 8  270 255 
 HEL  HE ES        3 2  7.40                             114    0.25 8  270 255 
 HEL  HZ I         3 2 14.34        19.6 0.40            115            270 255 
 URE  HZ EP   1    3 1 35.78                             113   -0.90 6  279 291 
 GUY2CHZ EP        3 1 40.46                             112    0.76 7  301 234 
 GUY2CHE ES        3 2 13.10                             112   -0.49 7  301 234 
 SJC  HZ EP        3 1 50.23                             105   -0.88 6  404 327 
                                                                                
