 2012  319 0248 31.0 L   6.296 -73.685100.4  RSN  5 0.3 0.9LRSN                1
 GAP=164        0.49       5.5     4.5 10.0  0.1461E+02  0.1685E+02  0.1821E+02E
 ACTION:UP  12-03-31 23:20 OP:EP   STATUS:               ID:20120319024831 L   I
 2012-03-19-0240-00M.COL___202                                                 6
 STAT SP IPHASW D HRMM SECON CODA AMPLIT PERI AZIMU VELO SNR AR TRES W  DIS CAZ7
 BAR2 SZ EP   2    248 47.08                             145    -0.2 5   65  59 
 BAR2 SZ ES   2    248 59.54                             145    -0.5 5   65  59 
 RUS  HZ EP   1    248 49.02                             139     0.2 7   80 124 
 RUS  HZ I         248 49.19         2.2 0.11                            80 124 
 RUS  HE ES   2    249  2.94                             139     0.2 5   80 124 
 PTB  HZ EP   2    248 48.64                             135    -0.3 5   89 288 
 PTB  HZ I         248 49.98         2.2 0.14                            89 288 
 PTB  HE ES   2    249  2.99                             135     0.0 5   89 288 
 BRR  HN ES   2    249  3.44                             135     0.4 5   90 358 
 ZAR  HE ES   2    249 20.53                             113     0.0 4  185 316 
                                                                                
