 2011 1019 0215 41.2 L   7.308 -73.781 25.1  RSN  5 0.1 1.4LRSN                1
 GAP=119        0.30       2.0     1.6  2.0  0.2779E+00 -0.2629E+00 -0.2479E+01E
 Epicentro: PUERTO WILCHES - SANTANDER                                         3
 ACTION:UPD 12-07-13 16:04 OP:ep   STATUS:               ID:20111019021541 L   I
 2011-10-19-0212-13S.COL___153                                                 6
 STAT SP IPHASW D HRMM SECON CODA AMPLIT PERI AZIMU VELO AIN AR TRES W  DIS CAZ7
 BRR  HZ IP     C  215 46.64                             132   -0.0610 23.5 161 
 BRR  HZ I         215 46.84        40.8 0.10                          23.5 161 
 BRR  HN ES   2    215 51.14                             132    0.14 5 23.5 161 
 OCA  SZ EP   2    215 59.28                              61    0.11 5  115  26 
 OCA  SZ ES   2    216 13.39                              61    0.20 5  115  26 
 OCA  SZ I         216 16.09         6.7 0.30                           115  26 
 PAM  SZ EP   1    216  0.13                              61   -0.02 7  119  88 
 PAM  SN ES   2    216 14.67                              61   -0.27 5  119  88 
 ZAR  HZ EP   2    215 59.60                              61   -0.12 5  121 280 
 ZAR  HN ES   2    216 14.16                              61   -0.03 5  121 280 
 ZAR  HZ I         216 16.23         5.6 0.45                           121 280 
 RUS  HZ EP   2    216  7.19                              61    0.15 4  175 154 
 RUS  HN ES   2    216 27.36                              61    0.15 4  175 154 
 RUS  HZ I         216 28.09         4.3 0.25                           175 154 
                                                                                
