 2014 1219 0435  5.9 L   6.502 -73.651104.6  RSN  4 0.4 1.0LRSN                1
 GAP=136        1.06       8.8     5.4 11.2  0.2919E+02  0.5388E+01 -0.1710E+02E
 Epicentro: SANTA HELENA DEL OPON - SANTANDER                                  3
 ACTION:UPD 15-02-10 17:05 OP:nd   STATUS:               ID:20141219043505 L   I
 OLDACT:REG 14-12-19 12:56 OP:y    STATUS:               ID:20141219042744     3
 2014-12-19-0427-44M.COL___299                                                 6
 STAT SP IPHASW D HRMM SECON CODA AMPLIT PERI AZIMU VELO AIN AR TRES W  DIS CAZ7
 BAR2 EZ EP        435 21.81                             151   -0.1410 52.8  79 
 BAR2 EZ ES   1    435 34.97                             151    0.54 7 52.8  79 
 BAR2 EZ I         435 35.61         7.6 0.46            152           52.8  79 
 PTB  HZ EP     C  435 24.77                             136    0.4910 89.2 273 
 PTB  HN ES        435 38.53                             136   -0.0510 89.2 273 
 PTB  HZ I         435 41.39         1.7 0.26            136           89.2 273 
 RUS  HZ EP        435 25.65                             135    0.4710 92.1 137 
 RUS  HN ES        435 39.54                             135   -0.6510 92.1 137 
 RUS  HZ I         435 40.34         0.7 0.16            142           92.1 137 
 ZAR  HZ EP   1    435 32.08                             116   -0.50 7  173 309 
 ZAR  HN ES   1    435 52.91                             116   -0.44 7  173 309 
 ZAR  HZ I         436  1.13         1.9 0.44            116            173 309 
                                                                                
