 2012  219 0409 51.7 L   6.674 -73.380138.6  RSN  6 0.4 1.7LRSN                1
 GAP=104        0.76       6.9     5.5  7.9  0.1163E+02  0.7860E+01  0.1077E+02E
 ACTION:UP  12-03-07 16:31 OP:epov STATUS:               ID:20120219040951 L   I
 2012-02-19-0410-00M.COL___188                                                 6
 STAT SP IPHASW D HRMM SECON CODA AMPLIT PERI AZIMU VELO AIN AR TRES W  DIS CAZ7
 BAR2 SZ EP   1    410 10.76                             170    0.25 7 23.6 113 
 BAR2 SZ ES   1    410 24.52                             170   -0.63 7 23.6 113 
 BAR2 SZ I         410 26.24         8.4 0.48                          23.6 113 
 GIR2 SZ EP   1    410 10.91                             159   -0.29 7 49.3  25 
 GIR2 SZ ES   2    410 26.11                             159   -0.27 5 49.3  25 
 BRR  HZ EP   1    410 11.67                             155    0.16 7 60.3 323 
 BRR  HZ I         410 12.39        24.6 0.11                          60.3 323 
 BRR  HE ES   1    410 27.71                             155    0.77 7 60.3 323 
 RUS  HZ EP   1    410 14.46                             145    0.27 7 92.4 159 
 RUS  HN ES   2    410 32.02                             145    0.31 5 92.4 159 
 PTB  HZ EP   1    410 15.32                             137   -0.34 7  120 263 
 PTB  HE ES   1    410 34.21                             137   -0.12 7  120 263 
 ZAR  HN ES   2    410 45.13                             123   -0.34 4  187 299 
 ZAR  HZ I         410 50.68         3.9 0.49                           187 299 
                                                                                
