 2017  919 0708 23.6 L   6.836 -73.288119.6  RSN  6 0.2 1.3LRSN                1
 GAP=107        0.52       2.2     2.5  4.9  0.3781E+00  0.4344E+01  0.7323E+00E
 Epicentro: ZAPATOCA - SANTANDER                                               3
 ACTION:UPD 17-10-05 19:14 OP:rebc STATUS:               ID:20170919070823 L   I
 OLDACT:UP  17-09-19 17:25 OP:and  STATUS:               ID:20170919070638d    3
 OLDACT:DUP 17-09-19 17:24 OP:and  STATUS:               ID:20170919070638d    3
 OLDACT:UP  17-09-19 17:21 OP:and  STATUS:               ID:20170919070637     3
 OLDACT:REG 17-09-19 13:05 OP:and  STATUS:               ID:20170919070637     3
 2017-09-19-0707-00M.COL___432                                                 6
 STAT SP IPHASW D HRMM SECON CODA AMPLIT PERI AZIMU VELO AIN AR TRES W  DIS CAZ7
 BAR2 EZ IP     C  7 8 40.28                             166    0.0610 29.3 157 
 BAR2 EZ ES        7 8 53.20                             166   -0.0110 29.3 157 
 BAR2 EZ I         7 8 54.21        11.4 0.56            166           29.3 157 
 BRR  HZ EP        7 8 40.57                             153   -0.4310 55.7 303 
 BRR  HN ES        7 8 54.77                             153    0.1610 55.7 303 
 BRR  HZ I         7 8 55.67         2.5 0.14            154           55.7 303 
 PAM  EZ EP   2    7 8 44.11                             143    0.45 5 85.6  49 
 PAM  EN ES        7 8 59.26                             143   -0.0710 85.6  49 
 RUS  HZ EP   2    7 8 45.53                             136    0.18 5  107 168 
 RUS  HN ES        7 9  2.38                             136    0.0310  107 168 
 SPBC HN ES        7 9  9.79                             124   -0.06 9  157 214 
 ZAR  HN ES        7 9 15.64                             118    0.20 9  188 293 
                                                                                
