 2011 1219 0218 21.9 L   5.925 -73.750110.4  RSN  7 0.3 1.8LRSN                1
 GAP=110        0.61       2.4     3.2  6.3 -0.3082E+01  0.4655E+01 -0.1908E+01E
 Epicentro: GUAVATA - SANTANDER                                                3
 ACTION:UPD 12-07-13 16:17 OP:ep   STATUS:               ID:20111219021821 L   I
 2011-12-19-0210-00M.COL___188                                                 6
 STAT SP IPHASW D HRMM SECON CODA AMPLIT PERI AZIMU VELO AIN AR TRES W  DIS CAZ7
 RUS  HZ EP        218 40.41                             144    0.1810 74.0  93 
 RUS  HE ES   1    218 54.29                             144   -0.26 7 74.0  93 
 RUS  HZ I         218 56.47        11.2 0.35                          74.0  93 
 BAR2 SZ EP        218 41.94                             136    0.2610 96.9  40 
 BAR2 SZ I         218 42.31        28.8 0.31                          96.9  40 
 BAR2 SZ ES   1    218 57.41                             136    0.28 7 96.9  40 
 NOR  SZ EP   1    218 44.45                             126   -0.05 7  130 252 
 NOR  SN ES   1    219  2.18                             126    0.02 7  130 252 
 BRR  HZ EP        218 44.09                             126   -0.4010  131   2 
 BRR  HN ES   1    219  2.13                             126    0.00 7  131   2 
 BRR  HZ I         219  5.40        16.2 0.13                           131   2 
 GIR2 SZ EP        218 46.10                             124    0.34 9  142  26 
 CHI  HZ EP        218 46.25                             124   -0.03 9  143 179 
 CHI  HZ I         218 47.58         6.3 0.07                           143 179 
 CHI  HN ES   1    219  5.18                             124   -0.15 7  143 179 
 PAM  SZ EP   1    218 51.87                             115   -0.01 6  195  37 
 PAM  SN ES   1    219 14.66                             115   -0.63 6  195  37 
                                                                                
