 2017 1019 0350  4.9 L   6.521 -73.592109.5  RSN  6 0.3 1.3LRSN                1
 GAP= 92        0.89       3.7     3.2  6.4  0.3028E+01  0.5765E+00  0.7156E+01E
 Epicentro: SANTA HELENA DEL OPON - SANTANDER                                  3
 ACTION:UPD 17-11-07 19:33 OP:rebc STATUS:               ID:20171019035004 L   I
 OLDACT:UP  17-10-19 15:01 OP:dani STATUS:               ID:20171019034442d    3
 OLDACT:UP  17-10-19 15:01 OP:dani STATUS:               ID:20171019034442d    3
 OLDACT:DUP 17-10-19 14:57 OP:dani STATUS:               ID:20171019034442d    3
 2017-10-19-0348-00M.COL___435                                                 6
 STAT SP IPHASW D HRMM SECON CODA AMPLIT PERI AZIMU VELO AIN AR TRES W  DIS CAZ7
 BAR2 EZ IP     C  350 21.06                             156   -0.0310 46.0  80 
 BAR2 EZ ES        350 33.38                             156   -0.3210 46.0  80 
 BRR  HZ EP        350 22.03                             146    0.0910 66.2 348 
 BRR  HN ES        350 35.81                             146    0.6010 66.2 348 
 BRR  HZ I         350 37.91         4.8 0.10            153           66.2 348 
 RUS  HZ EP        350 24.22                             138   -0.1510 89.4 141 
 RUS  HZ ES        350 39.41                             138   -0.1310 89.4 141 
 RUS  HZ I         350 40.87         2.2 0.30            141           89.4 141 
 PTB  HZ EP        350 23.83                             136   -0.4010 95.6 271 
 PTB  HN ES        350 38.79                             136   -0.5010 95.6 271 
 PTB  HZ I         350 40.45         4.9 0.16            138           95.6 271 
 SPBC HZ EP        350 26.03                             131    0.4510  110 209 
 SPBC HE ES        350 42.09                             131    0.3910  110 209 
 SPBC HZ I         350 49.64         6.1 0.26            132            110 209 
 YPLC HZ EP        350 32.95                             116   -0.08 9  183 133 
 YPLC HN ES        350 55.04                             116    0.08 9  183 133 
 YPLC HZ I         350 56.86         6.1 0.28            119            183 133 
                                                                                
