 2016  219 0632 42.7 L   7.413 -73.181136.5  RSN  6 0.4 1.4LRSN                1
 GAP=110        0.95       3.6     4.9  6.6 -0.1684E+01  0.4838E+01  0.2907E+01E
 Epicentro: EL PLAYON - SANTANDER                                              3
 ACTION:UPD 16-03-04 21:27 OP:rebc STATUS:               ID:20160219063242 L   I
 OLDACT:REG 16-02-19 12:27 OP:drio STATUS:               ID:20160219062744     3
 2016-02-19-0627-44M.COL___312                                                 6
 STAT SP IPHASW D HRMM SECON CODA AMPLIT PERI AZIMU VELO AIN AR TRES W  DIS CAZ7
 PAM  EZ EP        633  3.20                             157    0.5810 53.7  99 
 PAM  EN ES        633 18.08                             157   -0.0910 53.7  99 
 PAM  EZ I         633 19.69         3.6 0.16            159           53.7  99 
 BRR  HZ EP        633  2.83                             152    0.2010 67.7 240 
 BRR  HE ES        633 18.41                             152    0.2110 67.7 240 
 BRR  HZ I         633 19.02         4.8 0.18            152           67.7 240 
 BAR2 EZ EP        633  4.59                             144    0.1310 90.8 180 
 BAR2 EZ ES        633 21.37                             144   -0.0810 90.8 180 
 BAR2 EZ I         633 22.32         5.3 0.14            146           90.8 180 
 OCA  HZ EP        633  4.71                             144    0.2410 92.5 350 
 OCA  HN ES        633 20.96                             144   -0.5010 92.5 350 
 OCA  HZ I         633 22.85         6.5 0.56            145           92.5 350 
 RUS  HZ EP        633 10.63                             126   -0.91 9  169 176 
 RUS  HN ES        633 34.14                             126    0.08 9  169 176 
 PTB  HZ EP        633 11.21                             125    0.06 9  171 236 
 PTB  HE ES        633 33.26                             125   -0.09 9  171 236 
 PTB  HZ I         633 35.93         1.9 0.14            126            171 236 
                                                                                
