 2017 1019 0729 16.5 L   6.827 -73.174146.4  RSN 15 0.5 2.3LRSN                1
 GAP=108        1.00       2.9     3.3  4.8  0.1910E+01  0.4604E+01  0.3656E+01E
 Epicentro: ZAPATOCA - SANTANDER                                               3
 ACTION:UPD 17-11-07 19:33 OP:rebc STATUS:               ID:20171019072916 L   I
 OLDACT:UP  17-10-19 17:16 OP:dani STATUS:               ID:20171019072740     3
 OLDACT:UP  17-10-19 17:15 OP:dani STATUS:               ID:20171019072740     3
 OLDACT:REG 17-10-19 13:38 OP:dani STATUS:               ID:20171019072740     3
 2017-10-19-0728-00M.COL___438                                                 6
 STAT SP IPHASW D HRMM SECON CODA AMPLIT PERI AZIMU VELO AIN AR TRES W  DIS CAZ7
 BAR2 EZ EP     D  729 36.14                             170   -0.1610 26.0 182 
 BAR2 EZ ES        729 51.46                             170   -0.2610 26.0 182 
 BAR2 EZ I         729 52.75        42.3 0.22            168           26.0 182 
 BRR  HZ EP     D  729 37.92                             154    0.3910 67.1 298 
 BRR  HN ES        729 54.38                             154    0.4810 67.1 298 
 BRR  HZ I         729 58.92        45.1 0.42            153           67.1 298 
 PAM  EZ EP        729 39.16                             151    0.3510 77.2  43 
 PAM  EN ES        729 56.10                             151   -0.0810 77.2  43 
 PAM  EZ I         729 58.83        17.8 0.50            156           77.2  43 
 RUS  HZ EP        729 40.23                             143   -0.3610  104 174 
 RUS  HN ES        729 59.19                             143   -0.1510  104 174 
 RUS  HZ I         729 59.99        16.2 0.22            144            104 174 
 PTB  HZ EP        729 42.71                             133   -0.63 9  145 257 
 PTB  HN ES        730  4.05                             133   -0.20 9  145 257 
 PTB  HZ I         730  5.99        19.4 0.12            133            145 257 
 SPBC HZ EP        729 44.97                             129   -0.16 9  164 217 
 SPBC HN ES        730  7.21                             129   -0.22 9  164 217 
 SPBC HZ I         730 14.15        30.6 0.28            130            164 217 
 YPLC HZ EP        729 46.69                             126   -0.09 9  181 151 
 YPLC HN ES        730 10.55                             126    0.18 9  181 151 
 YPLC HZ I         730 11.59        24.2 0.28            129            181 151 
 ZAR  HZ EP        729 48.43                             123   -0.19 9  200 292 
 ZAR  HN ES        730 14.00                             123    0.36 9  200 292 
 ZAR  HZ I         730 19.67        24.1 0.36            124            200 292 
 CHI  HZ EP        729 54.47                             117   -0.03 8  251 194 
 CHI  HE ES        730 23.93                             117   -0.18 8  251 194 
 CHI  HZ I         730 26.12        11.0 0.36            118            251 194 
 ROSC BZ EP        729 56.08                             117    1.28 8  254 210 
 ROSC BN ES        730 25.25                             117    0.60 8  254 210 
 ROSC BZ I         730 32.53        17.9 0.75            118            254 210 
 URE  HZ EP        729 56.36                             114   -0.84 7  280 292 
 URE  HN ES   3    730 27.42                             114   -1.49 2  280 292 
 GUY2CHZ EP   3    730  1.68                             112    1.59 2  300 234 
 GUY2CHE ES   4    730 37.12                             112    3.06 0  300 234 
 GUY2CHZ I         730 44.20         9.7 0.68                           300 234 
 VIL  EZ EP        729 59.80                             112   -0.45 7  306 191 
 VIL  EN ES        730 34.67                             112    0.33 7  306 191 
 VIL  EZ I         730 37.09        11.8 0.32            113            306 191 
 DBB  EZ EP        730  4.60                             110    0.93 7  336 274 
 DBB  EN ES        730 39.99                             110   -0.43 7  336 274 
 DBB  EZ I         730 43.00         4.9 0.38            111            336 274 
 PRA  HZ EP        730 10.21                             106   -0.00 6  393 209 
 PRA  HN ES        730 51.83                             106   -0.24 6  393 209 
 PRA  HZ I         731  0.03         5.9 0.42            108            393 209 
                                                                                
