 2010 1119 0546 35.3 L   6.778 -73.042148.0  RSN  4 0.2 1.7LRSN                1
 GAP=193        0.45       3.3     8.8  6.3  0.1328E+02 -0.2629E+02 -0.6590E+01E
 Epicentro: LOS SANTOS - SANTANDER                                             3
 ACTION:UP  10-12-17 16:53 OP:REBC STATUS:               ID:20101119054635 L   I
 2010-11-19-0542-23S.COL___126                                                 6
 STAT SP IPHASW D HRMM SECON CODA AMPLIT PERI AZIMU VELO SNR AR TRES W  DIS CAZ7
 BAR2 SZ EP   1    546 55.42                             170     0.2 7   26 217 
 BAR2 SZ ES   2    547 10.37                             170    -0.4 5   26 217 
 BAR2 SZ I         547 11.63        10.3 0.45                            26 217 
 BRR  HZ IP     C  546 57.25                             149    -0.110   83 296 
 BRR  HZ I         546 57.54        22.9 0.17                            83 296 
 BRR  HE ES   1    547 14.62                             149     0.1 7   83 296 
 RUS  HZ EP   1    546 59.09                             145     0.0 7   98 183 
 RUS  HE ES   2    547 17.73                             145     0.1 5   98 183 
 RUS  HZ I         547 19.23         4.3 0.24                            98 183 
 OCA  SZ EP   1    547  3.95                             129    -0.2 7  164 349 
 OCA  SZ ES   1    547 26.83                             129     0.2 7  164 349 
 OCA  SZ I         547 32.21         6.4 0.20                           164 349 
                                                                                
