 2015  519 0927  6.7 L   6.707 -73.507109.8  RSN 13 0.4 2.0LRSN                1
 GAP= 56        1.05       2.6     3.1  5.8 -0.1753E+01  0.5775E+01 -0.8864E+00E
 Epicentro: EL CARMEN - SANTANDER                                              3
 ACTION:UPD 15-09-10 22:05 OP:cam  STATUS:               ID:20150519092706 L   I
 OLDACT:REG 15-05-19 13:06 OP:spq  STATUS:               ID:20150519091749     3
 2015-05-19-0917-49M.COL___280                                                 6
 STAT SP IPHASW D HRMM SECON CODA AMPLIT PERI AZIMU VELO AIN AR TRES W  DIS CAZ7
 BAR2 EZ EP     D  927 22.81                             160    0.2710 38.1 109 
 BAR2 EZ ES   1    927 35.18                             160    0.28 7 38.1 109 
 BAR2 EZ I         927 36.69        76.0 0.36            164           38.1 109 
 BRR  HZ EP     C  927 22.57                             154   -0.1810 49.7 333 
 BRR  HE ES        927 35.42                             154    0.1510 49.7 333 
 BRR  HZ I         927 37.08        23.9 0.14            154           49.7 333 
 RUS  HZ EP   1    927 27.28                             134    0.08 7  102 152 
 RUS  HE ES        927 43.39                             134    0.2010  102 152 
 RUS  HZ I         927 44.47        21.6 0.16            139            102 152 
 PAM  SZ EP        927 28.19                             131   -0.0710  113  52 
 PAM  SN ES        927 45.12                             131    0.0510  113  52 
 PAM  SZ I         927 49.00        10.0 0.24            134            113  52 
 SPBC HZ EP        927 29.22                             126   -0.3310  132 208 
 SPBC HE ES        927 46.86                             126   -0.5110  132 208 
 SPBC HZ I         927 53.27        22.9 0.32            129            132 208 
 OCA  HZ EP        927 33.07                             118   -0.53 9  171   7 
 OCA  HE ES        927 53.84                             118   -0.74 9  171   7 
 OCA  HZ I         928  1.47        19.1 0.28            121            171   7 
 ZAR  HZ EP        927 33.83                             118    0.20 9  173 300 
 ZAR  HN ES        927 55.37                             118    0.74 9  173 300 
 ZAR  HZ I         927 57.99        15.0 0.34            120            173 300 
 TAM  HZ EP        927 36.29                             115    0.49 9  192  99 
 NOR  HZ EP        927 35.80                             114   -0.53 9  197 230 
 NOR  HN ES        927 58.70                             114   -0.75 9  197 230 
 NOR  HZ I         928  1.04         9.3 0.12            117            197 230 
 HEL  HZ EP        927 41.41                             110    0.83 8  231 256 
 HEL  HE ES   1    928  7.30                             110    0.30 6  231 256 
 HEL  HZ I         928 11.54         4.4 0.18            113            231 256 
 SML  HZ EP        927 41.09                             109   -0.04 8  240 345 
 SML  HN ES   1    928  7.87                             109   -0.13 6  240 345 
 SML  HZ I         928 11.80        19.1 0.10            112            240 345 
 GUY2CHZ EP        927 45.17                             107    0.74 8  263 232 
 GUY2CHE ES   1    928 13.77                             107   -0.10 6  263 232 
 GUY2CHZ I         928 22.53         4.2 0.42                           263 232 
 SJC  HZ EP   4    927 59.27                              99   -0.69 0  398 333 
 SJC  HN ES   4    928 38.67                              99   -2.83 0  398 333 
 SJC  HZ I         928 40.31         1.2 0.42            101            398 333 
                                                                                
