 2012  419 0141 21.3 L   6.765 -73.048135.4  RSN  4 0.3 1.3LRSN                1
 GAP=151        0.77       5.2     7.7  8.7 -0.1417E+01 -0.4789E+01  0.7907E+00E
 Epicentro: LOS SANTOS - SANTANDER                                             3
 ACTION:UPD 12-07-05 11:54 OP:tino STATUS:               ID:20120419014121 L   I
 2012-04-19-0140-00M.COL___187                                                 6
 STAT SP IPHASW D HRMM SECON CODA AMPLIT PERI AZIMU VELO AIN AR TRES W  DIS CAZ7
 BAR2 SZ ES   1    141 54.18                             169     0.1 7   24 218 
 PAM  SZ EP   1    141 42.73                             150     0.5 7   74  31 
 PAM  SE ES   1    141 58.22                             150    -0.3 7   74  31 
 BRR  HZ EP   1    141 41.50                             147    -0.5 7   83 297 
 BRR  HN ES   1    141 58.49                             147     0.3 7   83 297 
 BRR  HZ I         142  1.44         7.4 0.35                            83 297 
 RUS  HZ EP   1    141 43.82                             143     0.1 7   97 182 
 RUS  HN ES   1    142  1.10                             143    -0.1 7   97 182 
 RUS  HZ I         142  3.36         2.3 0.33                            97 182 
                                                                                
