 2017  219 0626 44.6 L   6.817 -73.131143.3  RSN 18 0.5 2.1LRSN                1
 GAP= 73        1.19       4.0     3.7  5.4 -0.1370E+00  0.5919E+01  0.1812E+01E
 Epicentro: LOS SANTOS - SANTANDER                                             3
 ACTION:UPD 17-05-24 15:37 OP:jn   STATUS:               ID:20170219062644 L   I
 OLDACT:UP  17-02-19 18:20 OP:edw  STATUS:               ID:20170219061743     3
 OLDACT:REG 17-02-19 12:40 OP:edw  STATUS:               ID:20170219061743     3
 2017-02-19-0618-00M.COL___352                                                 6
 STAT SP IPHASW D HRMM SECON CODA AMPLIT PERI AZIMU VELO AIN AR TRES W  DIS CAZ7
 BAR2 EZ EP     C  627  3.96                             169   -0.0610 25.5 193 
 BAR2 EZ ES        627 18.58                             169   -0.5510 25.5 193 
 BAR2 EZ I         627 20.12        45.9 0.20            167           25.5 193 
 BRR  HZ IP     C  627  5.82                             152    0.2610 71.8 297 
 BRR  HN ES        627 22.57                             152    0.7010 71.8 297 
 BRR  HZ I         627 27.64        24.3 0.14            151           71.8 297 
 PAM  EZ EP        627  6.77                             151    0.3310 74.9  39 
 PAM  EN ES        627 23.30                             151   -0.1510 74.9  39 
 PAM  EZ I         627 25.72        27.4 0.42            155           74.9  39 
 RUS  HZ IP     C  627  8.01                             142   -0.2710  102 177 
 RUS  HN ES        627 26.30                             142   -0.4110  102 177 
 RUS  HZ I         627 28.23        19.3 0.40            142            102 177 
 PTB  HZ EP   9    627 10.89                             131   -0.70 0  150 258 
 PTB  HN ES        627 31.43                             131   -0.48 9  150 258 
 PTB  HZ I         627 34.34        18.2 0.14            130            150 258 
 TAM  HZ IP     C  627 12.36                             130    0.34 9  154 106 
 TAM  HN ES        627 33.60                             130    0.22 9  154 106 
 TAM  HZ I         627 35.38         8.7 0.26            133            154 106 
 ZAR  HZ EP        627 17.15                             121    0.14 9  205 291 
 ZAR  HN ES        627 41.90                             121   -0.36 9  205 291 
 ZAR  HZ I         627 48.53        13.7 0.26            122            205 291 
 NOR  HZ EP        627 20.69                             117    0.20 8  237 234 
 NOR  HN ES        627 48.27                             117   -0.18 8  237 234 
 NOR  HZ I         627 53.42         9.4 0.54            117            237 234 
 CHI  HZ EP   9    627 22.47                             116    0.02 0  251 195 
 CHI  HN ES        627 51.04                             116   -0.92 8  251 195 
 CHI  HZ I         627 55.07         4.4 0.24            116            251 195 
 ROSC BZ EP   4    627 24.12                             115    1.22 0  255 211 
 ROSC BN ES   4    627 54.55                             115    1.82 0  255 211 
 ROSC BZ I         627 57.80         8.6 0.35            116            255 211 
 URE  HZ EP        627 24.46                             113   -1.23 7  285 291 
 URE  HN ES   4    627 56.04                             113   -1.66 0  285 291 
 URE  HZ I         627 59.87         8.9 0.14            113            285 291 
 PTGC HZ EP   9    627 27.29                             111   -1.23 0  310 159 
 PTGC HN ES        628  0.83                             111   -0.68 7  310 159 
 PTGC HZ I         628  6.33         6.1 0.38            112            310 159 
 ELA  HZ EP        627 31.30                             109   -0.37 7  332 229 
 ELA  HN ES   4    628 12.37                             109    4.02 0  332 229 
 ELA  HZ I         628 15.46         5.6 0.64            110            332 229 
 CBOC HZ EP        627 32.26                             109    0.56 7  336 252 
 CBOC HN ES   4    628 10.08                             109    1.67 0  336 252 
 CBOC HZ I         628 13.47         1.6 0.14            109            336 252 
 DBB  EZ EP        627 32.42                             109    0.23 7  341 274 
 DBB  EN ES   4    628  7.90                             109   -1.38 0  341 274 
 DBB  EZ I         628 13.50         5.4 0.14            109            341 274 
 PRA  HZ EP        627 38.51                             106    0.15 6  394 210 
 PRA  HN ES        628 20.50                             106    0.23 6  394 210 
 PRA  HZ I         628 25.90         5.1 0.20            106            394 210 
 ORTC HZ EP        627 38.99                             105    0.22 6  398 216 
 ORTC HN ES        628 22.50                             105    1.51 6  398 216 
 ORTC HZ I         628 27.33         3.6 0.20            106            398 216 
 SJC  HZ EP     D  627 38.74                             105   -1.30 6  409 327 
 SJC  HN ES   4    628 19.23                             105   -4.03 0  409 327 
 SJC  HZ I         628 24.00         4.6 0.56            106            409 327 
                                                                                
