 2012  119 0829 28.2 L   6.745 -73.115144.0  RSN  5 0.3 1.5LRSN                1
 GAP=143        0.88       5.8     5.6  7.7 -0.1964E+01 -0.5249E+00  0.1780E+01E
 Epicentro: JORDAN - SANTANDER                                                 3
 ACTION:UP  12-02-03 08:18 OP:REBC STATUS:               ID:20120119082928 L   I
 2012-01-19-0824-38S.COL___152                                                 6
 STAT SP IPHASW D HRMM SECON CODA AMPLIT PERI AZIMU VELO SNR AR TRES W  DIS CAZ7
 BAR2 SZ EP        829 47.51                             172     0.010   18 204 
 BAR2 SZ ES   1    830  2.17                             172    -0.4 7   18 204 
 BAR2 SZ I         830  5.15         7.0 0.27                            18 204 
 BRR  HZ EP        829 49.28                             150    -0.210   77 301 
 BRR  HZ I         829 49.62        14.6 0.14                            77 301 
 BRR  HE ES        830  6.70                             150     0.610   77 301 
 PAM  SZ EP        829 50.22                             150    -0.210   80  35 
 PAM  SN ES   1    830  7.62                             150    -0.1 7   80  35 
 RUS  HZ EP   1    829 51.60                             145     0.3 7   94 178 
 RUS  HE ES   1    830  9.60                             145     0.3 7   94 178 
 RUS  HZ I         830 11.33         2.7 0.33                            94 178 
 PTB  HZ EP   1    829 55.28                             131     0.1 7  150 261 
 PTB  HN ES   1    830 15.64                             131    -0.7 7  150 261 
                                                                                
