 2010  419 0542 25.1 L   6.811 -73.038150.8  RSN 12 0.5 3.1LRSN                1
 GAP=149        1.00       5.1     6.2  7.9 -0.1745E+02 -0.8247E+01  0.1181E+02E
 Epicentro: CEPITA - SANTANDER                                                 3
 ACTION:UPD 10-08-24 09:59 OP:vdl  STATUS:               ID:20100419054232 L   I
 2010-04-19-0540-52S.COL___100                                                 6
 STAT SP IPHASW D HRMM SECON CODA AMPLIT PERI AZIMU VELO AIN AR TRES W  DIS CAZ7
 BAR2 SZ IP        542 45.23                             169    -0.210   29 214 
 BAR2 SZ ES   2    543  0.58                             169    -0.8 5   29 214 
 BRR  HZ EP        542 47.58                             150     0.210   81 294 
 BRR  HN ES   1    543  5.06                             150     0.3 7   81 294 
 BRR  HZ I         543  7.15       174.6 0.12                            81 294 
 OCA  SZ EP        542 53.61                             131    -0.3 9  161 349 
 OCA  SZ ES   2    543 17.24                             131     0.9 5  161 349 
 OCA  SZ I         543 21.52       151.9 0.26                           161 349 
 CHI  HZ EP   1    543  3.32                             118    -0.3 6  253 198 
 CHI  HN ES   2    543 33.68                             118     0.1 4  253 198 
 CHI  HZ I         543 38.48        42.6 0.80                           253 198 
 ROSC BZ EP        543  4.90                             117     0.6 8  260 213 
 ROSC BN ES   1    543 35.39                             117     0.5 6  260 213 
 ROSC BZ I         543 38.88        69.4 0.92                           260 213 
 HEL  HZ EP        543  7.20                             115     0.3 7  284 256 
 HEL  HN ES   1    543 38.16                             115    -1.3 6  284 256 
 HEL  HZ I         543 44.63        41.6 0.39                           284 256 
 RREF BZ EP   1    543 12.30                             111    -0.3 5  332 231 
 RREF BN ES   1    543 50.55                             111     0.9 5  332 231 
 RREF BZ I         543 55.16        76.3 0.47                           332 231 
 SDV  BZ EP        543 14.62                             110     0.4 6  351  49 
 SDV  BZ I         543 15.51        24.1 0.15                           351  49 
 DBB  SZ EP        543 13.66                             110    -0.5 6  351 274 
 SDV  BE ES   1    543 52.16                             110    -0.3 5  351  49 
 TOL  SZ EP   1    543 14.70                             110     0.1 5  353 226 
 ANIL BZ EP   1    543 16.62                             109     0.4 5  367 226 
 ANIL BN ES   1    543 56.16                             109     0.1 5  367 226 
 PRA  HZ EP        543 18.88                             107    -0.7 6  399 211 
 PRA  HN ES   2    544  1.40                             107    -0.7 3  399 211 
 PRA  HZ I         544  5.49        63.5 0.30                           399 211 
                                                                                
