 2012 1219 0349 40.5 L   6.784 -73.157151.7  RSN  8 0.4 1.9LRSN                1
 GAP=182        0.82       5.5     5.6  6.5  0.1592E+02  0.8080E+00  0.2171E+01E
 Epicentro: LOS SANTOS - SANTANDER                                             3
 ACTION:UPD 13-01-04 14:28 OP:ep   STATUS:               ID:20121219034940 L   I
 2012-12-19-0344-52M.COL___214                                                 6
 STAT SP IPHASW D HRMM SECON CODA AMPLIT PERI AZIMU VELO AIN AR TRES W  DIS CAZ7
 BAR2 SZ EP        350  0.50                             172   -0.3010 21.4 188 
 BAR2 SZ I         350 21.81        17.8 0.22                          21.4 188 
 GIR2 SZ EP   1    350  0.84                             167   -0.07 7 32.9 353 
 GIR2 SZ I         350 18.15        10.2 0.36                          32.9 353 
 BRR  HZ EP        350  2.61                             153    0.3310 71.0 300 
 BRR  HE ES        350 19.66                             153    0.3910 71.0 300 
 BRR  HZ I         350 24.45        18.6 0.19                          71.0 300 
 RUS  HZ EP        350  4.92                             146    0.2110 98.9 175 
 RUS  HN ES        350 23.32                             146   -0.2910 98.9 175 
 RUS  HZ I         350 24.60         5.7 0.23                          98.9 175 
 PTB  HZ EP        350  7.48                             134   -0.33 9  146 259 
 PTB  HE ES        350 28.94                             134   -0.19 9  146 259 
 PTB  HZ I         350 31.79        12.8 0.18                           146 259 
 ZAR  HZ EP   1    350 12.52                             124   -0.77 6  204 293 
 ZAR  HN ES   1    350 38.90                             124    0.03 6  204 293 
 ZAR  HZ I         350 45.19        12.5 0.44                           204 293 
 CHI  HZ EP        350 18.69                             119    0.39 8  247 195 
 CHI  HZ I         350 56.42         3.8 0.45                           247 195 
 HEL  HZ EP   1    350 21.50                             116    0.66 6  270 256 
 HEL  HZ I         351  0.43         6.3 0.22                           270 256 
 MON  HZ EP   4    350 27.89                             109   -1.86 0  354 309 
                                                                                
