 2013 1119 0733 42.9 L   6.802 -73.142147.5  RSN 12 0.5 1.9LRSN                1
 GAP=137        0.98       3.2     4.5  6.2 -0.2403E+01  0.6717E+01  0.5171E+00E
 Epicentro: LOS SANTOS - SANTANDER                                             3
 ACTION:UPD 14-01-09 16:29 OP:ep   STATUS:               ID:20131119073342 L   I
 OLDACT:UP  13-11-19 11:48 OP:mh   STATUS:               ID:20131119073000     3
 OLDACT:REG 13-11-19 07:21 OP:mh   STATUS:               ID:20131119073000     3
 2013-11-19-0730-00M.COL___279                                                 6
 STAT SP IPHASW D HRMM SECON CODA AMPLIT PERI AZIMU VELO AIN AR TRES W  DIS CAZ7
 BAR2 SZ EP        734  2.96                             170    0.1810 23.6 191 
 BAR2 SZ ES   1    734 17.57                             170   -0.69 7 23.6 191 
 BAR2 SZ I         734 19.75        19.3 0.24            167           23.6 191 
 BRR  HZ EP        734  4.86                             153    0.5710 71.5 298 
 BRR  HN ES   1    734 21.64                             153    0.70 7 71.5 298 
 BRR  HZ I         734 25.38        14.8 0.36            150           71.5 298 
 PAM  SZ EP   1    734  5.83                             151    0.52 7 76.9  39 
 PAM  SN ES        734 23.03                             151    0.2710 76.9  39 
 PAM  SZ I         734 25.16        19.4 0.56            157           76.9  39 
 RUS  HZ EP   1    734  6.79                             144   -0.08 7  101 176 
 RUS  HN ES        734 25.32                             144   -0.2210  101 176 
 PTB  HZ EP   1    734  9.59                             132   -0.50 7  148 259 
 PTB  HN ES   1    734 30.61                             132   -0.66 7  148 259 
 OCA  HZ EP        734 10.60                             130   -0.77 9  160 353 
 OCA  HN ES   1    734 33.21                             130   -0.33 7  160 353 
 SPBC HZ EP        734 11.89                             129    0.28 9  164 219 
 SPBC HN ES        734 33.90                             129   -0.08 9  164 219 
 SPBC HZ I         734 39.02         9.6 0.17            129            164 219 
 ZAR  HZ EP   4    734 18.02                             123    2.49 0  204 292 
 ZAR  HN ES        734 41.09                             123    0.14 9  204 292 
 ZAR  HZ I         734 49.06         6.6 0.42            123            204 292 
 NOR  HZ EP   1    734 19.12                             119    0.30 6  235 234 
 NOR  HN ES   1    734 47.26                             119    0.45 6  235 234 
 SML  HZ EP   1    734 19.00                             118   -0.66 6  244 335 
 CHI  HZ EP        734 21.05                             117    0.28 8  249 195 
 CHI  HN ES   1    734 49.74                             117   -0.53 6  249 195 
 CHI  HZ I         735  0.23         3.0 0.54            118            249 195 
 RREF HZ EP   4    734 32.05                             111    2.84 0  322 229 
 RREF HN ES   4    735  7.14                             111    1.84 0  322 229 
 RREF HZ I         735 15.46         5.5 0.34            112            322 229 
                                                                                
