 2011  519 0550 56.5 L   5.896 -74.120 16.0  RSN  6 0.5 1.9LRSN                1
 GAP=141        1.07       7.3     3.9  8.6 -0.1897E+02  0.2078E+02 -0.4235E+02E
 Epicentro: LA BELLEZA - SANTANDER                                             3
 ACTION:UP  11-06-29 08:54 OP:tino STATUS:               ID:20110519055056 L   I
 2011-05-19-0550-00S.COL___141                                                 6
 STAT SP IPHASW D HRMM SECON CODA AMPLIT PERI AZIMU VELO SNR AR TRES W  DIS CAZ7
 NOR  SZ EP   1    551 11.21                              99     0.2 8   91 246 
 NOR  SE ES   1    551 22.29                              99     0.0 8   91 246 
 RUS  HZ IP     D  551 15.44                              97     0.410  115  90 
 RUS  HE ES   1    551 28.68                              97    -0.9 7  115  90 
 RUS  HZ I         551 30.48        29.8 0.25                           115  90 
 BAR2 SZ EP   1    551 17.02                              96     0.0 7  129  53 
 BAR2 SZ I         551 38.97        17.1 0.46                           129  53 
 BRR  HZ EP   1    551 18.87                              56     0.5 7  141  19 
 BRR  HE ES   1    551 35.50                              56     0.1 7  141  19 
 BRR  HZ I         551 37.77        22.5 0.13                           141  19 
 HEL  HZ EP   1    551 21.12                              56     0.1 7  159 282 
 HEL  HN ES   1    551 39.29                              56    -0.9 7  159 282 
 HEL  HZ I         551 41.13        19.5 0.25                           159 282 
 RREF HZ EP   1    551 23.34                              56     0.0 7  175 231 
 RREF HE ES   2    551 44.72                              56     0.5 5  175 231 
 RREF HZ I         551 50.22         8.5 0.63                           175 231 
                                                                                
