 2016  419 0934 40.9 L   6.873 -73.322119.7  RSN  5 0.5 1.7LRSN                1
 GAP=153        1.30       5.0     6.7 11.0 -0.7601E+01  0.2453E+02 -0.1471E+02E
 Epicentro: BETULIA - SANTANDER                                                3
 ACTION:UPD 16-05-05 14:22 OP:rebc STATUS:               ID:20160419092748 L   I
 OLDACT:ARG 16-04-25 20:21 OP:Mher STATUS:               ID:20160419092748 L   3
 2016-04-19-0927-48M.COL___306                                                 6
 STAT SP IPHASW D HRMM SECON CODA AMPLIT PERI AZIMU VELO AIN AR TRES W  DIS CAZ7
 BAR2 EZ EP        934 57.99                             163    0.2310 34.7 154 
 BAR2 EZ ES        935 11.08                             163    0.1810 34.7 154 
 BAR2 EZ I         935 12.28        27.0 0.30            168           34.7 154 
 PTB  HZ EP        935  3.30                             129   -0.9310  131 254 
 PTB  HN ES        935 21.67                             129   -0.7510  131 254 
 PTB  HZ I         935 25.40         3.9 0.28            129            131 254 
 OCA  HZ EP        935  6.21                             125   -0.19 9  151   0 
 OCA  HN ES        935 26.03                             125   -0.25 9  151   0 
 OCA  HZ I         935 27.12        13.4 0.28            127            151   0 
 SPBC HZ EP        935  7.38                             123    0.31 9  159 212 
 SPBC HN ES        935 27.69                             123    0.22 9  159 212 
 SPBC HZ I         935 29.02         4.2 0.20            126            159 212 
 ZAR  HZ EP        935 10.01                             119    0.49 9  183 292 
 ZAR  HN ES        935 32.70                             119    0.87 9  183 292 
 ZAR  HZ I         935 40.28         5.7 0.10            120            183 292 
                                                                                
