 2016  919 0923 17.0 L   6.752 -73.125147.4  RSN  6 0.3 1.6LRSN                1
 GAP=236        0.86       4.7     5.2  5.9  0.9730E+01  0.4979E+01 -0.1124E+01E
 Epicentro: LOS SANTOS - SANTANDER                                             3
 ACTION:UPD 17-08-17 21:14 OP:lp   STATUS:               ID:20160919092317 L   I
 OLDACT:UP  16-09-19 12:46 OP:ar   STATUS:               ID:20160919091738     3
 OLDACT:REG 16-09-19 12:28 OP:ar   STATUS:               ID:20160919091738     3
 2016-09-19-0918-00M.COL___345                                                 6
 STAT SP IPHASW D HRMM SECON CODA AMPLIT PERI AZIMU VELO AIN AR TRES W  DIS CAZ7
 BAR2 EZ EP        923 36.55                             172   -0.1410 18.8 200 
 BAR2 EZ ES        923 52.00                             172   -0.0910 18.8 200 
 BAR2 EZ I         923 53.44         8.3 0.22            168           18.8 200 
 BRR  HZ EP        923 38.52                             151   -0.0210 75.8 301 
 BRR  HN ES        923 55.56                             151    0.1910 75.8 301 
 BRR  HZ I         923 58.19         8.0 0.12            149           75.8 301 
 RUS  HZ EP        923 40.37                             146   -0.1110 95.2 177 
 RUS  HN ES        923 58.97                             146    0.1410 95.2 177 
 RUS  HZ I         924  0.55         3.5 0.18            146           95.2 177 
 PTB  HZ EP        923 44.00                             132   -0.17 9  149 261 
 PTB  HE ES        924  4.52                             132   -0.87 9  149 261 
 PTB  HZ I         924  6.73         3.0 0.16            131            149 261 
 SPBC HZ EP        923 45.35                             130    0.02 9  161 221 
 SPBC HE ES        924  7.97                             130    0.51 9  161 221 
 SPBC HZ I         924 14.25         6.1 0.30            129            161 221 
 ZAR  HZ EP        923 50.08                             122    0.15 8  208 293 
 ZAR  HN ES        924 16.15                             122    0.50 8  208 293 
 ZAR  HZ I         924 22.82         3.8 0.58            122            208 293 
                                                                                
