 2015  419 0224 23.8 L   6.765 -73.134156.0  RSN  6 0.3 1.6LRSN                1
 GAP=184        0.78       4.2     6.8  7.0  0.8114E+01  0.1657E+01 -0.1970E+01E
 Epicentro: LOS SANTOS - SANTANDER                                             3
 ACTION:UPD 15-06-03 16:55 OP:cam  STATUS:               ID:20150419022423 L   I
 OLDACT:DUP 15-04-19 13:37 OP:spq  STATUS:               ID:20150419021750d    3
 2015-04-19-0217-49M.COL___277                                                 6
 STAT SP IPHASW D HRMM SECON CODA AMPLIT PERI AZIMU VELO AIN AR TRES W  DIS CAZ7
 BAR2 EZ EP        224 44.58                             172   -0.0510 19.9 196 
 BAR2 EZ ES   1    225  0.50                             172   -0.35 7 19.9 196 
 BAR2 EZ I         225  1.38         4.8 0.48            172           19.9 196 
 BRR  HZ EP        224 46.59                             153    0.3410 74.2 301 
 BRR  HE ES        225  4.28                             153    0.5310 74.2 301 
 BRR  HZ I         225  8.14         5.6 0.48            150           74.2 301 
 RUS  HZ EP   1    224 48.51                             147    0.18 7 96.7 177 
 RUS  HN ES   1    225  7.41                             147   -0.04 7 96.7 177 
 RUS  HZ I         225  8.41         2.1 0.42            150           96.7 177 
 PTB  HZ EP        224 51.49                             134   -0.21 9  148 260 
 PTB  HN ES   1    225 12.95                             134   -0.49 7  148 260 
 PTB  HZ I         225 18.54         3.9 0.12            133            148 260 
 OCA  HE ES   1    225 15.72                             131   -0.59 7  164 353 
 OCA  HZ I         225 20.45         9.2 0.34            132            164 353 
 SML  HN ES   1    225 30.80                             119   -0.04 6  248 335 
 SML  HZ I         225 34.36         6.5 0.12            120            248 335 
                                                                                
