 2012  419 0520 33.5 L   6.807 -73.121153.6  RSN  9 0.4 2.0LRSN                1
 GAP=139        0.82       3.2     5.5  5.9 -0.7664E+00  0.6827E+01  0.3506E+00E
 Epicentro: LOS SANTOS - SANTANDER                                             3
 ACTION:UPD 12-07-05 11:54 OP:tino STATUS:               ID:20120419052033 L   I
 2012-04-19-0520-00M.COL___187                                                 6
 STAT SP IPHASW D HRMM SECON CODA AMPLIT PERI AZIMU VELO AIN AR TRES W  DIS CAZ7
 BAR2 SZ EP   1    520 54.03                             170     0.0 7   25 196 
 BAR2 SZ ES   1    521  9.58                             170    -0.5 7   25 196 
 BAR2 SZ I         521 10.87        24.9 0.20                            25 196 
 BRR  HZ EP   1    520 55.93                             153     0.4 7   73 297 
 BRR  HN ES   1    521 13.42                             153     0.6 7   73 297 
 BRR  HZ I         521 16.88        14.7 0.14                            73 297 
 PAM  SZ EP        520 56.92                             153     0.510   75  38 
 PAM  SN ES   1    521 14.15                             153    -0.1 7   75  38 
 RUS  HZ EP   1    520 58.06                             145     0.0 7  101 178 
 RUS  HN ES   1    521 16.86                             145    -0.3 7  101 178 
 RUS  HZ I         521 18.28        12.4 0.23                           101 178 
 OCA  SZ EP   2    521  2.08                             131    -0.3 5  160 352 
 OCA  SZ ES   2    521 24.80                             131    -0.1 5  160 352 
 ZAR  HZ EP   1    521  6.55                             124    -0.1 6  206 292 
 ZAR  HN ES   1    521 32.14                             124    -0.4 6  206 292 
 ZAR  HZ I         521 37.32        10.0 0.29                           206 292 
 CHI  HZ EP   1    521 11.18                             118    -0.6 6  250 196 
 CHI  HZ I         521 12.59         5.2 0.10                           250 196 
 CHI  HN ES   1    521 41.73                             118     0.1 6  250 196 
 COD  HZ EP   1    521 21.80                             110    -0.3 5  348 354 
 COD  HZ I         521 24.93         3.3 0.87                           348 354 
 COD  HN ES   1    521 59.54                             110    -0.5 5  348 354 
 PRA  HZ EP   1    521 27.59                             108     0.1 4  394 210 
 PRA  HN ES   1    522 10.35                             108     0.7 4  394 210 
                                                                                
