 2014  319 0037 22.6 L   6.340 -73.610111.1  RSN 10 0.4 1.9LRSN                1
 GAP= 71        1.11       2.9     3.7  6.4 -0.5349E-01  0.8110E+01  0.1952E+01E
 Epicentro: SANTA HELENA DEL OPON - SANTANDER                                  3
 ACTION:UPD 14-04-09 23:18 OP:nd   STATUS:               ID:20140319003722 L   I
 OLDACT:REG 14-03-19 11:16 OP:carl STATUS:               ID:20140319003640     3
 2014-03-19-0036-40M.COL___241                                                 6
 STAT SP IPHASW D HRMM SECON CODA AMPLIT PERI AZIMU VELO AIN AR TRES W  DIS CAZ7
 BAR2 SZ EP        037 39.74                             152    0.3610 54.9  59 
 BAR2 SZ ES        037 52.57                             152    0.0610 54.9  59 
 BAR2 SZ I         037 53.84        33.0 0.36            135           54.9  59 
 RUS  HZ EP        037 41.06                             143   -0.1010 76.5 130 
 RUS  HN ES        037 55.52                             143   -0.1510 76.5 130 
 RUS  HZ I         037 56.66         6.0 0.12            131           76.5 130 
 BRR  HZ EP        037 41.33                             139    0.1710 85.6 352 
 BRR  HN ES        037 56.06                             139    0.3910 85.6 352 
 SPBC HZ EP        037 41.97                             137    0.1910 91.6 214 
 SPBC HE ES        037 57.00                             137    0.2310 91.6 214 
 SPBC HZ I         037 59.33        18.3 0.18            127           91.6 214 
 PTB  HZ EP        037 41.51                             136   -0.5410 96.2 283 
 PTB  HN ES        037 56.53                             136   -0.7310 96.2 283 
 PTB  HZ I         037 59.03        24.9 0.10            122           96.2 283 
 NOR  HZ EP        037 48.38                             120   -0.28 9  164 238 
 NOR  HN ES        038  9.98                             120    0.95 9  164 238 
 NOR  HZ I         038 11.40        12.1 0.16            109            164 238 
 ZAR  HZ EP        037 51.69                             116    0.48 9  188 313 
 ZAR  HE ES        038 13.21                             116   -0.34 9  188 313 
 ZAR  HZ I         038 21.44        10.7 0.26            105            188 313 
 CHI  HZ EP        037 52.13                             116    0.20 9  190 184 
 CHI  HN ES        038 13.99                             116   -0.84 9  190 184 
 CHI  HZ I         038 16.97         3.0 0.26            106            190 184 
 RREF HZ EP        037 59.36                             109    0.37 8  250 231 
 RREF HN ES        038 27.43                             109    0.02 8  250 231 
 RREF HZ I         038 34.18         7.5 0.28            101            250 231 
 SML  HZ EP        038  0.84                             106   -0.52 7  277 349 
 SML  HZ I         038 43.03         7.2 0.10             99            277 349 
                                                                                
