 2011 1219 0718 29.5 L   6.758 -73.092145.7  RSN  5 0.1 1.4LRSN                1
 GAP=145        0.32       2.2     3.2  3.2  0.1368E+00  0.1496E+00 -0.2128E+00E
 Epicentro: LOS SANTOS - SANTANDER                                             3
 ACTION:UPD 12-07-13 16:17 OP:ep   STATUS:               ID:20111219071829 L   I
 2011-12-19-0710-00M.COL___188                                                 6
 STAT SP IPHASW D HRMM SECON CODA AMPLIT PERI AZIMU VELO AIN AR TRES W  DIS CAZ7
 BAR2 SZ EP   1    718 48.90                             171   -0.15 7 20.9 209 
 BAR2 SZ ES   1    719  4.31                             171   -0.01 7 20.9 209 
 BAR2 SZ I         719  6.92         7.0 0.40                          20.9 209 
 GIR2 SZ EP   2    718 49.22                             165   -0.10 5 37.2 342 
 PAM  SZ EP   1    718 51.77                             151    0.07 7 77.6  34 
 PAM  SE ES   1    719  9.03                             151    0.00 7 77.6  34 
 BRR  HZ EP        718 50.99                             150   -0.0710 78.7 299 
 BRR  HN ES   1    719  8.00                             150    0.11 7 78.7 299 
 BRR  HZ I         719 14.38         5.6 0.14                          78.7 299 
 RUS  HZ EP   1    718 53.07                             145    0.19 7 95.7 179 
 RUS  HN ES   1    719 11.07                             145   -0.05 7 95.7 179 
 RUS  HZ I         719 13.12         3.1 0.32                          95.7 179 
                                                                                
