 2012  319 0017 53.3 L   6.467 -73.516125.5  RSN  5 0.2 1.3LRSN                1
 GAP=131        0.52       4.7     4.3  8.1  0.3401E+01  0.1164E+02  0.6837E+00E
 ACTION:UP  12-03-31 23:20 OP:EP   STATUS:               ID:20120319001753 L   I
 2012-03-19-0010-00M.COL___202                                                 6
 STAT SP IPHASW D HRMM SECON CODA AMPLIT PERI AZIMU VELO SNR AR TRES W  DIS CAZ7
 BAR2 SZ EP   1    018 11.32                             161     0.3 7   39  69 
 BAR2 SZ ES   2    018 24.88                             161     0.1 5   39  69 
 BAR2 SZ I         018 25.81        11.1 0.26                            39  69 
 BRR  HE ES   2    018 27.72                             147     0.3 5   74 343 
 RUS  HZ EP   2    018 13.84                             146     0.3 5   80 143 
 RUS  HN ES   1    018 29.21                             146    -0.1 7   80 143 
 RUS  HZ I         018 30.68         2.5 0.27                            80 143 
 PTB  HZ EP   1    018 14.51                             138    -0.3 7  104 274 
 PTB  HN ES   2    018 31.46                             138    -0.1 5  104 274 
 PTB  HZ I         018 34.49         3.1 0.24                           104 274 
 PAM  SE ES   2    018 36.59                             131    -0.4 5  132  43 
                                                                                
