 2014 1219 0535 27.1 L   6.695 -73.223148.7  RSN  4 0.4 1.0LRSN                1
 GAP=220        1.02       8.3     8.4 10.3  0.4416E+02 -0.6135E-01 -0.3391E+01E
 Epicentro: VILLANUEVA - SANTANDER                                             3
 ACTION:UPD 15-02-10 17:05 OP:nd   STATUS:               ID:20141219053527 L   I
 OLDACT:REG 14-12-19 12:59 OP:y    STATUS:               ID:20141219052742     3
 2014-12-19-0527-42M.COL___299                                                 6
 STAT SP IPHASW D HRMM SECON CODA AMPLIT PERI AZIMU VELO AIN AR TRES W  DIS CAZ7
 BRR  HZ EP        535 48.41                             153   -0.1510 70.7 310 
 BRR  HE ES        536  5.16                             153   -0.1210 70.7 310 
 BRR  HZ I         536  9.19         2.3 0.56            153           70.7 310 
 RUS  HZ EP        535 51.07                             147    0.6310 90.1 170 
 RUS  HN ES        536  8.47                             147   -0.1610 90.1 170 
 RUS  HZ I         536 12.02         1.2 0.30            147           90.1 170 
 PTB  HZ EP        535 52.78                             135   -0.64 9  137 263 
 PTB  HN ES        536 14.00                             135    0.07 9  137 263 
 PTB  HZ I         536 22.08         2.0 0.42            134            137 263 
 ZAR  HN ES   1    536 25.40                             123    0.74 6  201 296 
                                                                                
