 2014  419 0742 34.2 L   6.804 -73.167138.6  RSN  6 0.5 1.5LRSN                1
 GAP=134        1.26       4.4     5.6 10.7 -0.2871E+01  0.2137E+02 -0.1136E+02E
 Epicentro: LOS SANTOS - SANTANDER                                             3
 ACTION:UPD 14-05-13 23:09 OP:nd   STATUS:               ID:20140419074234 L   I
 OLDACT:DUP 14-04-19 18:19 OP:stll STATUS:               ID:20140419073807d    3
 2014-04-19-0738-05M.COL___221                                                 6
 STAT SP IPHASW D HRMM SECON CODA AMPLIT PERI AZIMU VELO AIN AR TRES W  DIS CAZ7
 PAM  SZ EP        742 55.99                             149    0.2810 78.6  41 
 PAM  SZ I         742 56.66         6.3 0.24            155           78.6  41 
 PAM  SN ES        743 12.56                             149    0.0510 78.6  41 
 RUS  HZ EP        742 56.99                             142   -0.2910  101 175 
 RUS  HN ES        743 15.48                             142    0.1910  101 175 
 PTB  HZ EP        742 59.92                             131   -0.44 9  146 258 
 PTB  HN ES        743 20.92                             131    0.14 9  146 258 
 PTB  HZ I         743 28.55         4.1 0.30            131            146 258 
 SPBC HZ EP        743  1.80                             128   -0.22 9  162 218 
 SPBC HN ES        743 23.43                             128   -0.31 9  162 218 
 SPBC HZ I         743 29.63         3.9 0.36            130            162 218 
 ZAR  HZ EP        743  7.39                             121    1.48 9  202 292 
 ZAR  HN ES        743 30.79                             121    0.12 9  202 292 
 ZAR  HZ I         743 36.76         2.1 0.32            123            202 292 
 SML  HZ EP        743 10.05                             116   -0.21 8  242 336 
 SML  HN ES        743 37.52                             116   -0.88 8  242 336 
 SML  HZ I         743 42.76         4.3 0.26            119            242 336 
                                                                                
