 2014 1219 0041 16.1 L   6.808 -73.219140.5  RSN  4 0.3 1.0LRSN                1
 GAP=127        0.85       4.5     3.9  9.4 -0.2154E+00  0.1142E+02 -0.4898E+00E
 Epicentro: ZAPATOCA - SANTANDER                                               3
 ACTION:UPD 15-02-10 17:05 OP:nd   STATUS:               ID:20141219004116 L   I
 OLDACT:REG 14-12-19 12:42 OP:y    STATUS:               ID:20141219003744     3
 2014-12-19-0037-44M.COL___296                                                 6
 STAT SP IPHASW D HRMM SECON CODA AMPLIT PERI AZIMU VELO AIN AR TRES W  DIS CAZ7
 PAM  SZ EP        041 38.40                             148    0.3610 82.1  44 
 PAM  SN ES        041 54.98                             148   -0.1910 82.1  44 
 PAM  SZ I         041 57.34         3.3 0.38            154           82.1  44 
 RUS  HZ EP        041 39.65                             142    0.2010  102 172 
 RUS  HE ES        041 57.50                             142   -0.1710  102 172 
 RUS  HZ I         042  3.02         0.8 0.48            144            102 172 
 PTB  HZ EP        041 41.35                             132   -0.56 9  140 258 
 PTB  HN ES        042  2.50                             132    0.43 9  140 258 
 PTB  HZ I         042  5.43         1.8 0.30            136            140 258 
 ZAR  HN ES        042 11.67                             122   -0.12 9  196 293 
                                                                                
