 2014  719 0710 34.0 L   6.807 -73.174142.6  RSN 15 0.5 1.9LRSN                1
 GAP=133        1.07       3.0     4.5  8.0 -0.3559E+01  0.2020E+02 -0.3044E+01E
 Epicentro: LOS SANTOS - SANTANDER                                             3
 ACTION:UPD 15-03-16 20:45 OP:nd   STATUS:               ID:20140719071034 L   I
 OLDACT:REG 14-07-19 13:13 OP:fm   STATUS:               ID:20140719070817     3
 2014-07-19-0708-17M.COL___266                                                 6
 STAT SP IPHASW D HRMM SECON CODA AMPLIT PERI AZIMU VELO AIN AR TRES W  DIS CAZ7
 BAR2 SZ EP        710 53.38                             170    0.1510 23.8 182 
 BAR2 SZ ES   1    711  8.08                             170   -0.17 7 23.8 182 
 BAR2 SZ I         711  9.69        39.8 0.18            169           23.8 182 
 PAM  SZ EP        710 56.34                             150    0.4110 78.8  42 
 PAM  SN ES        711 13.47                             150    0.4010 78.8  42 
 PAM  SZ I         711 15.31        21.6 0.58            150           78.8  42 
 RUS  HN ES        711 15.30                             143   -0.5310  102 174 
 RUS  HZ I         711 16.64         6.6 0.20            142            102 174 
 PTB  HZ EP        711  0.17                             132   -0.25 9  145 258 
 PTB  HZ I         711 22.73        10.0 0.32            128            145 258 
 OCA  HZ EP        711  1.69                             129   -0.24 9  159 354 
 OCA  HN ES        711 22.97                             129   -0.76 9  159 354 
 OCA  HZ I         711 26.86        10.8 0.20            127            159 354 
 SPBC HZ EP        711  2.41                             128    0.31 9  162 218 
 SPBC HN ES        711 24.15                             128    0.11 9  162 218 
 SPBC HZ I         711 27.81         7.6 0.20            126            162 218 
 ZAR  HZ EP        711  6.13                             122    0.25 9  201 292 
 ZAR  HN ES        711 31.96                             122    1.19 9  201 292 
 ZAR  HZ I         711 38.29        11.9 0.28            119            201 292 
 NOR  HN ES        711 37.10                             118    0.25 8  233 234 
 NOR  HZ I         711 41.51         3.6 0.26            116            233 234 
 SML  HZ EP   4    711  8.15                             117   -2.05 0  242 336 
 SML  HE ES        711 38.28                             117   -0.18 8  242 336 
 SML  HZ I         711 44.79        13.5 0.10            115            242 336 
 HEL  HZ EP   1    711 12.93                             114   -0.78 6  269 255 
 HEL  HE ES        711 44.65                             114   -0.06 8  269 255 
 HEL  HZ I         711 51.75         2.1 0.34            112            269 255 
 URE  HZ EP   4    711 17.48                             113    2.95 0  281 292 
 URE  HN ES        711 45.65                             113   -0.52 7  281 292 
 URE  HZ I         711 50.51         4.2 0.38            111            281 292 
 GUY2CHN ES        711 50.32                             112   -0.60 7  299 234 
 GUY2CHZ I         711 59.70         2.8 0.36                           299 234 
 PRA  HZ EP   1    711 27.80                             106    0.52 4  391 209 
 PRA  HN ES        712  8.96                             106    0.09 6  391 209 
 PRA  HZ I         712 15.97         2.5 0.22            105            391 209 
 ORTC HN ES   4    712  8.50                             106   -1.01 0  394 216 
 ORTC HZ I         712 10.17         2.7 0.20            105            394 216 
 SJC  HZ EP   4    711 27.65                             105   -1.50 0  407 327 
 SJC  HN ES   4    712  8.73                             105   -3.46 0  407 327 
 SJC  HZ I         712 13.12         2.5 0.66            104            407 327 
                                                                                
