 2017 1019 0950 57.8 L   6.661 -74.076  4.0  RSN  9 0.4 2.1LRSN                1
 GAP= 82        0.70       1.5     1.2  3.5 -0.2968E+00 -0.5496E-01 -0.3900E+00E
 Epicentro: PUERTO PARRA - SANTANDER                                           3
 ACTION:UPD 17-11-07 19:33 OP:rebc STATUS:               ID:20171019095057 L   I
 OLDACT:UP  17-10-19 18:15 OP:dani STATUS:               ID:20171019094740     3
 OLDACT:UP  17-10-19 18:15 OP:dani STATUS:               ID:20171019094740     3
 OLDACT:UP  17-10-19 18:15 OP:dani STATUS:               ID:20171019094740     3
 OLDACT:REG 17-10-19 13:47 OP:dani STATUS:               ID:20171019094740     3
 2017-10-19-0948-00M.COL___429                                                 6
 STAT SP IPHASW D HRMM SECON CODA AMPLIT PERI AZIMU VELO AIN AR TRES W  DIS CAZ7
 PTB  HZ EP     D  951  5.06                              47   -0.0310 44.1 252 
 PTB  HN ES        951 10.59                              47   -0.1910 44.1 252 
 PTB  HZ I         951 11.10        84.6 0.22             47           44.1 252 
 BRR  HZ EP     D  951  8.15                              47    0.1010 63.7  39 
 BRR  HE ES        951 16.38                              47    0.3410 63.7  39 
 BRR  HZ I         951 17.22       111.4 0.12             47           63.7  39 
 BAR2 EZ IP     D  951 13.48                              47   -0.1810 99.2  94 
 BAR2 EZ ES        951 25.66                              47   -0.3810 99.2  94 
 BAR2 EZ I         951 31.69        41.6 0.42             47           99.2  94 
 SPBC HZ EP        951 15.70                              47    0.3210  112 180 
 SPBC HN ES        951 29.05                              47   -0.0510  112 180 
 SPBC HZ I         951 30.74        39.1 0.26             47            112 180 
 ZAR  HZ EP        951 17.35                              47   -0.1610  126 317 
 ZAR  HE ES        951 32.70                              47   -0.1910  126 317 
 ZAR  HZ I         951 34.82        39.1 0.32             47            126 317 
 RUS  HZ EP        951 19.84                              47   -0.11 9  139 128 
 RUS  HN ES   3    951 35.96                              47   -1.26 2  139 128 
 RUS  HZ I         951 40.05        52.2 0.22             47            139 128 
 NOR  HE ES   4    951 37.12                              47   -2.22 0  150 216 
 PAM  EZ EP        951 24.80                              47    0.20 9  170  64 
 PAM  EE ES        951 45.46                              47   -0.05 9  170  64 
 PAM  EZ I         951 47.65        65.6 0.22             47            170  64 
 GUY2CHZ EP        951 30.88                              37    0.56 8  213 222 
 GUY2CHE ES   3    951 54.93                              37   -0.75 2  213 222 
 GUY2CHZ I         952  0.20        19.0 0.58                           213 222 
 CHI  HZ EP   4    951 34.66                              37    2.63 0  228 170 
 CHI  HN ES   3    952  0.90                              37    2.17 2  228 170 
 CHI  HZ I         952  7.06         5.4 0.44             37            228 170 
                                                                                
