 2015  419 0014 34.1 L   6.792 -73.090148.0  RSN  4 0.3 1.1LRSN                1
 GAP=144        0.63       3.9     4.1  7.3 -0.5441E+01  0.1021E+02 -0.4015E+01E
 Epicentro: LOS SANTOS - SANTANDER                                             3
 ACTION:UPD 15-06-03 16:55 OP:cam  STATUS:               ID:20150419001434 L   I
 OLDACT:REG 15-04-19 12:11 OP:spq  STATUS:               ID:20150419000748     3
 2015-04-19-0007-48M.COL___280                                                 6
 STAT SP IPHASW D HRMM SECON CODA AMPLIT PERI AZIMU VELO AIN AR TRES W  DIS CAZ7
 PAM  SZ EP        014 56.80                             152    0.3810 74.4  35 
 PAM  SN ES        015 13.55                             152   -0.2510 74.4  35 
 PAM  SZ I         015 15.94         3.2 0.68            153           74.4  35 
 BRR  HZ EP   1    014 55.96                             151    0.09 7 77.0 297 
 RUS  HZ EP   1    014 57.79                             144   -0.24 7 99.4 180 
 RUS  HN ES        015 16.73                             144    0.0710 99.4 180 
 RUS  HZ I         015 17.27         1.4 0.38            147           99.4 180 
 PTB  HZ EP   1    015  1.39                             131   -0.43 7  154 260 
 PTB  HN ES        015 23.51                             131    0.10 9  154 260 
 PTB  HZ I         015 24.01         1.3 0.18            133            154 260 
                                                                                
