 2012 1119 0549 27.6 L   6.760 -73.132148.9  RSN  5 0.2 1.5LRSN                1
 GAP=140        0.47       3.3     4.2  5.3 -0.7937E+00  0.3199E+01  0.1325E+01E
 Epicentro: LOS SANTOS - SANTANDER                                             3
 ACTION:UPD 12-12-05 15:34 OP:}ep  STATUS:               ID:20121119054927 L   I
 2012-11-19-0544-38M.COL___213                                                 6
 STAT SP IPHASW D HRMM SECON CODA AMPLIT PERI AZIMU VELO AIN AR TRES W  DIS CAZ7
 BAR2 SZ EP        549 47.50                             172   -0.0510 19.4 197 
 BRR  HZ EP        549 49.43                             152    0.1310 74.7 301 
 BRR  HZ I         549 49.73         7.5 0.16                          74.7 301 
 BRR  HN ES   1    550  6.36                             152    0.14 7 74.7 301 
 PAM  SZ EP        549 50.49                             151    0.1810 79.9  37 
 PAM  SZ I         549 50.88         5.4 0.34                          79.9  37 
 PAM  SN ES   1    550  7.70                             151   -0.32 7 79.9  37 
 RUS  HZ EP   1    549 51.36                             146    0.00 7 96.1 177 
 RUS  HN ES   1    550  9.96                             146    0.07 7 96.1 177 
 RUS  HN I         550 10.74         3.8 0.30                          96.1 177 
 PTB  HZ EP   1    549 54.53                             132   -0.38 7  148 261 
 PTB  HZ I         550 19.90         3.7 0.20                           148 261 
                                                                                
