 2014 1019 0643 46.8 L   6.866 -73.290124.0  RSN 12 0.5 2.2LRSN                1
 GAP=107        1.12       3.4     4.4  7.0 -0.2330E+01  0.7614E+01  0.3016E+01E
 Epicentro: BETULIA - SANTANDER                                                3
 ACTION:UPD 14-11-29 23:51 OP:nd   STATUS:               ID:20141019064346 L   I
 OLDACT:UP  14-10-19 16:40 OP:mh   STATUS:               ID:20141019063739     3
 OLDACT:UP  14-10-19 16:40 OP:mh   STATUS:               ID:20141019063739     3
 OLDACT:UP  14-10-19 16:39 OP:mh   STATUS:               ID:20141019063739     3
 OLDACT:UP  14-10-19 16:38 OP:mh   STATUS:               ID:20141019063739     3
 OLDACT:UP  14-10-19 16:38 OP:mh   STATUS:               ID:20141019063739     3
 OLDACT:UP  14-10-19 16:35 OP:mh   STATUS:               ID:20141019063739     3
 OLDACT:REG 14-10-19 13:39 OP:mh   STATUS:               ID:20141019063739     3
 2014-10-19-0637-39M.COL___265                                                 6
 STAT SP IPHASW D HRMM SECON CODA AMPLIT PERI AZIMU VELO AIN AR TRES W  DIS CAZ7
 BAR2 SZ EP        644  4.39                             164    0.3010 32.6 158 
 BAR2 SZ I         644 18.30       120.9 0.32            163           32.6 158 
 BRR  HZ EP        644  4.79                             155    0.1610 53.7 300 
 BRR  HN ES        644 18.46                             155   -0.0710 53.7 300 
 PAM  SZ EP   1    644  7.44                             144    0.25 7 83.6  51 
 PAM  SN ES        644 23.68                             144    0.5910 83.6  51 
 PAM  SZ I         644 25.99        10.8 0.26            144           83.6  51 
 RUS  HZ EP   1    644  9.41                             136    0.14 7  110 168 
 RUS  HN ES   1    644 26.20                             136   -0.59 7  110 168 
 PTB  HZ EP     C  644  9.70                             130   -1.0610  134 254 
 PTB  HE ES        644 29.78                             130    0.3410  134 254 
 PTB  HZ I         644 31.62        24.3 0.42            130            134 254 
 OCA  HZ EP        644 12.35                             126   -0.33 9  152 359 
 OCA  HN ES        644 32.37                             126   -0.48 9  152 359 
 OCA  HZ I         644 37.19        14.2 0.12            127            152 359 
 SPBC HZ EP   1    644 12.75                             124   -0.63 7  160 213 
 SPBC HN ES   1    644 33.50                             124   -0.61 7  160 213 
 SPBC HZ I         644 38.69        16.3 0.18            124            160 213 
 ZAR  HZ EP   1    644 16.14                             120    0.09 7  186 292 
 ZAR  HN IP   4    644 38.15                             120   22.10 0  186 292 
 ZAR  HN ES        644 39.23                             120    0.38 9  186 292 
 ZAR  HZ I         644 41.50        19.1 0.36            121            186 292 
 SML  HZ EP   1    644 20.19                             114   -0.66 6  231 338 
 SML  HN ES   1    644 47.40                             114    0.01 6  231 338 
 SML  HZ I         644 52.55        29.0 0.08            115            231 338 
 HEL  HZ EP        644 25.50                             111    1.03 8  259 253 
 HEL  HN ES   4    644 49.24                             111   -4.61 0  259 253 
 HEL  HZ I         644 59.25         4.6 0.20            112            259 253 
 URE  HZ EP   4    644 26.28                             111    1.39 0  266 292 
 URE  HN ES   4    644 52.41                             111   -2.19 0  266 292 
 CBOC HZ EP        644 31.65                             106    0.23 7  321 250 
 CBOC HN ES   4    645  4.89                             106   -1.32 0  321 250 
 MON  HZ EP   4    644 27.71                             105   -5.33 0  337 309 
 MON  HN ES   4    645  7.92                             105   -1.18 0  337 309 
 PRA  HZ EP   1    644 40.03                             103    0.50 4  391 207 
 PRA  HN ES        645 21.08                             103    0.43 6  391 207 
 PRA  HZ I         645 28.11         4.6 0.32            103            391 207 
 SJC  HZ EP   4    644 38.36                             103   -1.62 0  394 328 
 SJC  HN ES   4    645 18.96                             103   -2.49 0  394 328 
                                                                                
