 2017  119 0355 17.2 L   6.754 -73.127142.8  RSN  7 0.4 1.5LRSN                1
 GAP=141        1.10       5.0     4.6  7.9 -0.1447E+01  0.9598E+01  0.2165E+01E
 Epicentro: LOS SANTOS - SANTANDER                                             3
 ACTION:UPD 17-05-22 16:01 OP:jn   STATUS:               ID:20170119035517 L   I
 OLDACT:REG 17-01-19 13:26 OP:dani STATUS:               ID:20170119034310     3
 2017-01-19-0348-00M.COL___328                                                 6
 STAT SP IPHASW D HRMM SECON CODA AMPLIT PERI AZIMU VELO AIN AR TRES W  DIS CAZ7
 BAR2 EZ EP        355 36.42                             172    0.0410 18.9 199 
 BAR2 EZ ES        355 51.43                             172    0.0810 18.9 199 
 BAR2 EZ I         355 52.43         8.0 0.18            173           18.9 199 
 BRR  HZ EP        355 38.44                             151    0.1610 75.6 301 
 BRR  HN ES        355 55.18                             151    0.4610 75.6 301 
 BRR  HZ I         355 59.20         5.9 0.11            151           75.6 301 
 PAM  EZ EP        355 39.41                             149    0.1510 80.2  36 
 PAM  EN ES        355 56.34                             149   -0.1410 80.2  36 
 PAM  EZ I         355 58.26         8.3 0.50            152           80.2  36 
 RUS  HZ EP        355 40.40                             145    0.1210 95.3 177 
 RUS  HN ES        355 58.03                             145   -0.2510 95.3 177 
 RUS  HZ I         355 59.90         3.4 0.40            148           95.3 177 
 PTB  HZ EP        355 43.43                             131   -0.60 9  149 261 
 PTB  HN ES        356  4.08                             131   -0.88 9  149 261 
 PTB  HZ I         356  7.46         4.0 0.12            133            149 261 
 ZAR  HN ES        356 15.34                             121    0.01 8  208 293 
 NOR  HN ES        356 21.25                             118    1.00 8  233 236 
                                                                                
