 2011 1219 0725 35.3 L   6.790 -73.073140.0  RSN  4 0.2 1.4LRSN                1
 GAP=147        0.51       3.5     5.2  5.3  0.1481E+01  0.2185E+01  0.1199E+01E
 Epicentro: LOS SANTOS - SANTANDER                                             3
 ACTION:UPD 12-07-13 16:17 OP:ep   STATUS:               ID:20111219072535 L   I
 2011-12-19-0720-00M.COL___188                                                 6
 STAT SP IPHASW D HRMM SECON CODA AMPLIT PERI AZIMU VELO AIN AR TRES W  DIS CAZ7
 BAR2 SZ EP        725 54.24                             169   -0.0410 25.0 209 
 BAR2 SZ ES   1    726  8.71                             169   -0.36 7 25.0 209 
 BAR2 SZ I         726 10.31         6.2 0.29                          25.0 209 
 PAM  SZ EP   2    725 56.80                             151    0.13 5 73.4  34 
 PAM  SN ES   1    726 13.40                             151    0.07 7 73.4  34 
 BRR  HZ EP        725 56.09                             149   -0.2110 78.9 296 
 BRR  HN ES   1    726 13.03                             149    0.36 7 78.9 296 
 BRR  HZ I         726 15.06         7.9 0.16                          78.9 296 
 RUS  HZ EP   1    725 58.58                             143    0.18 7 99.2 181 
 RUS  HE ES   1    726 16.54                             143    0.14 7 99.2 181 
 RUS  HZ I         726 19.23         2.5 0.31                          99.2 181 
                                                                                
