 2012  219 0119 21.1 L   6.774 -73.133152.0  RSN 10 0.3 1.8LRSN                1
 GAP=139        0.54       3.1     3.7  4.8 -0.1350E+00  0.3144E+01  0.2679E+01E
 ACTION:UP  12-03-07 16:31 OP:epov STATUS:               ID:20120219011921 L   I
 2012-02-19-0117-59S.COL___191                                                 6
 STAT SP IPHASW D HRMM SECON CODA AMPLIT PERI AZIMU VELO AIN AR TRES W  DIS CAZ7
 BAR2 SZ ES   2    119 57.10                             172   -0.16 5 20.8 195 
 BAR2 SZ I         119 57.53        14.4 0.41                          20.8 195 
 GIR2 SZ EP   1    119 41.45                             167   -0.11 7 34.4 349 
 GIR2 SZ ES   2    119 57.46                             167   -0.09 5 34.4 349 
 BRR  HZ IP     C  119 43.17                             153    0.1310 73.8 300 
 BRR  HZ I         119 43.44        33.0 0.16                          73.8 300 
 BRR  HE ES   1    120  0.72                             153    0.55 7 73.8 300 
 PAM  SZ EP   1    119 44.13                             151    0.10 7 78.8  37 
 PAM  SN ES   2    120  1.73                             151   -0.21 5 78.8  37 
 RUS  HZ EP   1    119 44.98                             146   -0.25 7 97.6 177 
 RUS  HN ES   1    120  4.03                             146   -0.05 7 97.6 177 
 RUS  HZ I         120  5.15         5.5 0.32                          97.6 177 
 PTB  HZ EP   1    119 48.27                             133   -0.35 7  149 260 
 PTB  HN ES   2    120  9.28                             133   -0.84 5  149 260 
 ZAR  HZ EP   2    119 54.29                             123    0.12 4  206 293 
 ZAR  HE ES   2    120 19.61                             123   -0.38 4  206 293 
 ZAR  HZ I         120 26.36         5.7 0.16                           206 293 
 NOR  SN ES   2    120 25.34                             120    0.12 4  234 235 
 CHI  HZ EP   1    119 59.30                             119    0.44 6  246 196 
 CHI  HZ I         120  1.95         2.3 0.56                           246 196 
 CHI  HN ES   2    120 28.49                             119    0.15 4  246 196 
 RREF HN ES   2    120 43.97                             112    0.44 3  321 230 
 RREF HZ I         120 52.44         2.2 0.48                           321 230 
                                                                                
