 2014  919 0601 31.8 L   6.789 -73.146147.6  RSN  7 0.5 1.5LRSN                1
 GAP=137        1.27       5.3     5.7  8.4  0.3443E+01  0.8588E+01 -0.8998E+01E
 Epicentro: LOS SANTOS - SANTANDER                                             3
 ACTION:UPD 14-10-03 23:06 OP:nd   STATUS:               ID:20140919060131 L   I
 OLDACT:REG 14-09-19 14:09 OP:carl STATUS:               ID:20140919055819     3
 2014-09-19-0558-19M.COL___284                                                 6
 STAT SP IPHASW D HRMM SECON CODA AMPLIT PERI AZIMU VELO AIN AR TRES W  DIS CAZ7
 BAR2 SZ EP        6 1 51.74                             171    0.1110 22.2 190 
 BAR2 SZ ES        6 2  6.43                             171   -0.6610 22.2 190 
 BAR2 SZ I         6 2  9.25         8.0 0.22            171           22.2 190 
 BRR  HZ EP        6 1 53.59                             153    0.4110 71.7 299 
 BRR  HN ES        6 2 10.91                             153    1.0610 71.7 299 
 BRR  HZ I         6 2 22.43         6.6 0.40            150           71.7 299 
 PAM  SZ EP        6 1 54.62                             151    0.3510 78.3  39 
 PAM  SN ES        6 2 11.47                             151   -0.3210 78.3  39 
 PAM  SZ I         6 2 13.90         4.1 0.48            155           78.3  39 
 RUS  HZ EP        6 1 55.99                             144    0.3410 99.4 176 
 RUS  HN ES        6 2 14.16                             144   -0.0910 99.4 176 
 RUS  HZ I         6 2 14.97         2.6 0.50            151           99.4 176 
 PTB  HZ EP        6 1 58.66                             132   -0.24 9  148 259 
 PTB  HN ES        6 2 19.37                             132   -0.66 9  148 259 
 PTB  HZ I         6 2 27.38         3.1 0.34            134            148 259 
 ZAR  HE ES        6 2 30.17                             123    0.32 9  204 292 
 SML  HZ EP        6 2  8.14                             118   -0.51 8  245 335 
 SML  HN ES        6 2 36.89                             118   -0.49 8  245 335 
 SML  HZ I         6 2 43.22         6.2 0.26            121            245 335 
                                                                                
