 2011  519 0421  1.1 L   6.818 -73.221140.2  RSN  7 0.2 1.7LRSN                1
 GAP=125        0.44       2.7     4.2  6.3 -0.3027E+01  0.1613E+02 -0.3891E+01E
 Epicentro: ZAPATOCA - SANTANDER                                               3
 ACTION:UP  11-06-29 08:54 OP:tino STATUS:               ID:20110519042101 L   I
 2011-05-19-0419-28S.COL___141                                                 6
 STAT SP IPHASW D HRMM SECON CODA AMPLIT PERI AZIMU VELO SNR AR TRES W  DIS CAZ7
 BTL  SZ EP   1    421 20.05                             175     0.2 7   12 335 
 BAR2 SZ EP   1    421 20.00                             169    -0.1 7   25 170 
 BAR2 SZ ES   2    421 34.88                             169    -0.1 5   25 170 
 BAR2 SZ I         421 38.03         8.7 0.28                            25 170 
 BRR  HZ EP   1    421 20.88                             154    -0.3 7   63 301 
 BRR  HZ I         421 40.51        17.9 0.14                            63 301 
 PAM  SE ES   1    421 39.94                             148    -0.1 7   82  45 
 RUS  HZ EP   1    421 24.54                             142     0.0 7  103 172 
 RUS  HE ES   1    421 42.97                             142     0.2 7  103 172 
 RUS  HZ I         421 45.41         4.6 0.50                           103 172 
 OCA  SZ EP   1    421 28.93                             129     0.2 7  158 356 
 OCA  SZ ES   2    421 50.61                             129     0.3 5  158 356 
 OCA  SZ I         421 54.90         6.8 0.16                           158 356 
 HEL  HZ EP   2    421 39.96                             114    -0.2 4  265 255 
 HEL  HN ES   1    422 10.79                             114     0.1 6  265 255 
 HEL  HZ I         422 21.10         2.8 0.25                           265 255 
                                                                                
