 2016 1019 0408 48.9 L   6.824 -73.152147.0  RSN 16 0.5 2.0LRSN                1
 GAP= 65        1.15       3.5     4.3  5.6 -0.4413E+01  0.1343E+01  0.2169E+01E
 Epicentro: LOS SANTOS - SANTANDER                                             3
 ACTION:UPD 16-11-09 19:20 OP:rebc STATUS:               ID:20161019040848 L   I
 OLDACT:UP  16-10-19 16:12 OP:and  STATUS:               ID:20161019040734     3
 OLDACT:UP  16-10-19 16:08 OP:and  STATUS:               ID:20161019040734     3
 OLDACT:UP  16-10-19 16:06 OP:and  STATUS:               ID:20161019040734     3
 OLDACT:REG 16-10-19 12:43 OP:y    STATUS:               ID:20161019040734     3
 2016-10-19-0408-00M.COL___329                                                 6
 STAT SP IPHASW D HRMM SECON CODA AMPLIT PERI AZIMU VELO AIN AR TRES W  DIS CAZ7
 BAR2 EZ EP        4 9  8.63                             170   -0.1410 25.8 187 
 BAR2 EZ ES        4 9 23.87                             170   -0.3710 25.8 187 
 BAR2 EZ I         4 9 24.84        23.2 0.24            170           25.8 187 
 BRR  HZ EP        4 9 10.46                             153    0.3410 69.3 297 
 BRR  HN ES        4 9 27.58                             153    0.9410 69.3 297 
 BRR  HZ I         4 9 30.34        12.5 0.17            150           69.3 297 
 PAM  EZ IP     C  4 9 11.59                             151    0.3910 75.9  41 
 PAM  EN ES        4 9 28.47                             151   -0.0910 75.9  41 
 PAM  EZ I         4 9 30.77        22.3 0.52            153           75.9  41 
 RUS  HZ EP        4 9 12.86                             143   -0.1510  103 176 
 RUS  HN ES        4 9 31.71                             143   -0.0710  103 176 
 RUS  HZ I         4 9 32.49        14.5 0.30            145            103 176 
 PTB  HZ EP        4 9 15.29                             132   -0.70 9  148 258 
 PTB  HN ES        4 9 36.37                             132   -0.72 9  148 258 
 PTB  HZ I         4 9 39.32         9.1 0.08            131            148 258 
 TAM  HZ IP     D  4 9 17.00                             130    0.15 9  157 106 
 OCA  HZ EP        4 9 17.73                             130    0.63 9  158 353 
 OCA  HN ES        4 9 38.63                             130   -0.43 9  158 353 
 OCA  HZ I         4 9 43.01        16.2 0.13            130            158 353 
 SPBC HZ EP        4 9 17.56                             129   -0.12 9  165 218 
 SPBC HN ES        4 9 39.90                             129   -0.21 9  165 218 
 SPBC HZ I         4 9 41.42        19.6 0.17            129            165 218 
 NOR  HZ EP        4 9 25.28                             119    0.44 8  236 234 
 NOR  HN ES        4 9 53.08                             119    0.23 8  236 234 
 NOR  HZ I         4 9 58.24        10.0 0.16            118            236 234 
 CHI  HZ EP        4 9 26.89                             117   -0.07 8  251 195 
 CHI  HN ES   2    4 9 56.69                             117    0.07 4  251 195 
 CHI  HZ I         4 9 59.34         5.0 0.54            118            251 195 
 ROSC BZ EP   4    4 9 28.84                             117    1.51 0  255 211 
 HEL  HZ EP   4    4 9 31.44                             115    2.23 0  272 255 
 HEL  HN ES   2    410  0.91                             115    0.29 4  272 255 
 HEL  HZ I         410  7.42         5.1 0.34            115            272 255 
 GUY2CHZ EP   9    4 9 34.35                             112    1.64 0  302 234 
 GUY2CHN ES        410  9.23                                    0.74 7  302 234 
 GUY2CHZ I         410 14.90         5.3 0.31                           302 234 
 PTGC HZ EP   9    4 9 31.80                             112   -1.36 0  311 159 
 PTGC HN ES        410  5.62                                   -0.67 7  311 159 
 LL6C HZ EP   9    4 9 14.57                             111   -19.8 0  322 358 
 CBOC HZ EP   9    4 9 37.18                             110    1.26 0  334 252 
 CBOC HN ES        410 13.77                                   -0.05 7  334 252 
 CBOC HZ I         410 16.90         1.7 0.11            110            334 252 
 PRA  HZ EP        4 9 42.73                             107    0.00 6  394 209 
 PRA  HN ES        410 25.81                             107    1.13 6  394 209 
 SJC  HZ EP        4 9 42.78                             106   -1.46 6  407 327 
 SJC  HN ES   4    410 24.35                             106   -3.02 0  407 327 
 SJC  HZ I         410 31.15         1.4 0.46            106            407 327 
                                                                                
