 2017 1019 0705 11.2 L   6.779 -73.134139.5  RSN  6 0.4 1.1LRSN                1
 GAP=139        0.67       3.3     3.4  5.9  0.2266E-02  0.7873E+01  0.2785E+01E
 Epicentro: LOS SANTOS - SANTANDER                                             3
 ACTION:UPD 17-11-07 19:33 OP:rebc STATUS:               ID:20171019070511 L   I
 OLDACT:UP  17-10-19 16:50 OP:dani STATUS:               ID:20171019065541     3
 OLDACT:REG 17-10-19 13:36 OP:dani STATUS:               ID:20171019065541     3
 2017-10-19-0658-00M.COL___438                                                 6
 STAT SP IPHASW D HRMM SECON CODA AMPLIT PERI AZIMU VELO AIN AR TRES W  DIS CAZ7
 BAR2 EZ EP        7 5 29.83                             171   -0.2310 21.4 195 
 BAR2 HE ES        7 5 44.68                             171   -0.0710 21.4 195 
 PAM  EN ES        7 5 49.75                             150    0.0610 78.4  38 
 RUS  HZ EP        7 5 34.27                             143    0.0810 98.2 177 
 RUS  HN ES        7 5 52.28                             143    0.1810 98.2 177 
 RUS  HZ I         7 5 53.16         1.5 0.27            146           98.2 177 
 PTB  HZ EP   3    7 5 36.66                             130   -1.11 2  149 260 
 PTB  HN ES        7 5 58.10                             130   -0.37 9  149 260 
 PTB  HZ I         7 6  0.26         1.3 0.14            127            149 260 
 SPBC HZ EP        7 5 38.88                             128   -0.28 9  162 220 
 SPBC HN ES        7 6  1.31                             128    0.36 9  162 220 
 SPBC HZ I         7 6  4.38         1.8 0.08            127            162 220 
 ZAR  HZ EP   3    7 5 44.98                             121    1.49 2  206 293 
 ZAR  HE ES        7 6  8.97                             121    0.32 8  206 293 
 ZAR  HZ I         7 6 21.97         2.0 0.53            118            206 293 
                                                                                
