 2017  219 0132  3.8 L   6.627 -73.464136.3  RSN  4 0.4 0.6LRSN                1
 GAP=124        0.98       7.1     6.4  8.6  0.2187E+02  0.1650E+02  0.1454E+02E
 Epicentro: EL CARMEN - SANTANDER                                              3
 ACTION:UPD 17-05-24 15:37 OP:jn   STATUS:               ID:20170219013203 L   I
 OLDACT:UP  17-02-19 14:39 OP:edw  STATUS:               ID:20170219012743     3
 OLDACT:REG 17-02-19 12:20 OP:edw  STATUS:               ID:20170219012743     3
 2017-02-19-0128-00M.COL___358                                                 6
 STAT SP IPHASW D HRMM SECON CODA AMPLIT PERI AZIMU VELO AIN AR TRES W  DIS CAZ7
 BAR2 EZ ES        132 36.71                             166   -0.3210 31.4  97 
 BRR  HZ EP        132 23.02                             155   -0.2310 59.8 333 
 BRR  HN ES        132 38.82                             155    0.3710 59.8 333 
 RUS  HZ EP        132 25.58                             144   -0.3410 91.5 153 
 RUS  HN ES        132 43.60                             144    0.4010 91.5 153 
 PTB  HZ EP        132 27.17                             139    0.5110  110 265 
 PTB  HN ES        132 44.15                             139   -0.3910  110 265 
 PTB  HZ I         132 52.01         0.7 0.14            135            110 265 
                                                                                
