 2014  519 0543 59.9 L   6.709 -73.157148.0  RSN  5 0.2 1.5LRSN                1
 GAP=139        0.43       3.0     2.5  4.3  0.2151E+01 -0.6835E+00 -0.4697E+01E
 Epicentro: VILLANUEVA - SANTANDER                                             3
 ACTION:UPD 15-03-16 16:58 OP:nd   STATUS:               ID:20140519054359 L   I
 OLDACT:DUP 14-05-19 18:41 OP:stll STATUS:               ID:20140519053814d    3
 2014-05-19-0538-12M.COL___254                                                 6
 STAT SP IPHASW D HRMM SECON CODA AMPLIT PERI AZIMU VELO AIN AR TRES W  DIS CAZ7
 BRR  HZ IP     C  544 21.54                             152    0.0510 75.5 306 
 BRR  HZ I         544 21.80         4.3 0.32            149           75.5 306 
 BRR  HN ES        544 38.42                             152    0.0510 75.5 306 
 PAM  SZ EP        544 22.72                             149   -0.1210 86.1  36 
 PAM  SZ I         544 22.88         8.7 0.20            150           86.1  36 
 RUS  HN ES        544 41.40                             147    0.0910 90.7 175 
 PTB  HZ EP        544 26.59                             133   -0.17 9  145 263 
 PTB  HN ES        544 47.63                             133   -0.11 9  145 263 
 PTB  HZ I         544 51.00         2.2 0.10            131            145 263 
 ZAR  HZ EP   1    544 33.19                             122    0.44 6  207 295 
 ZAR  HN ES        544 58.41                             122    0.01 8  207 295 
 ZAR  HZ I         545  3.50         2.8 0.16            121            207 295 
                                                                                
