 2010 1019 0803 54.9 L   6.829 -73.090148.1  RSN  8 0.3 1.7LRSN                1
 GAP=164        0.69       3.9     6.2  7.2 -0.3855E+01 -0.3662E+00 -0.1875E+01E
 Epicentro: LOS SANTOS - SANTANDER                                             3
 ACTION:UP  11-02-18 11:10 OP:tino STATUS:               ID:20101019080354 L   I
 2010-10-19-0801-19S.COL___123                                                 6
 STAT SP IPHASW D HRMM SECON CODA AMPLIT PERI AZIMU VELO SNR AR TRES W  DIS CAZ7
 BAR2 SZ EP        8 4 14.54                             169    -0.310   28 201 
 BAR2 SZ I         8 4 32.28         9.9 0.22                            28 201 
 BRR  HZ EP        8 4 16.27                             152    -0.210   75 294 
 BRR  HZ I         8 4 16.83        17.9 0.03                            75 294 
 BRR  HN ES   1    8 4 33.61                             152     0.2 7   75 294 
 RUS  HZ EP   1    8 4 18.94                             143    -0.1 7  104 180 
 RUS  HN ES   1    8 4 38.15                             143     0.2 7  104 180 
 RUS  HZ I         8 4 38.81         3.7 0.11                           104 180 
 GRA  SZ EP        8 4 20.26                             139     0.310  121  15 
 GRA  SZ I         8 4 41.35         8.4 0.37                           121  15 
 OCA  SZ EP   1    8 4 22.98                             131    -0.2 7  158 351 
 OCA  SZ I         8 4 54.60         6.6 0.17                           158 351 
 NOR  SZ EP   2    8 4 31.83                             118     0.4 4  242 235 
 HEL  HZ EP   2    8 4 36.65                             115     0.7 4  279 255 
 HEL  HN ES   2    8 5  7.45                             115    -0.5 4  279 255 
 HEL  HZ I         8 5 12.95         4.5 0.31                           279 255 
 PRA  HZ EP   1    8 4 49.21                             107     0.1 4  398 210 
 PRA  HN ES   1    8 5 31.76                             107     0.3 4  398 210 
                                                                                
