 2010 1119 0352 13.1 L   6.785 -73.106135.4  RSN  6 0.5 1.6LRSN                1
 GAP=187        0.94       7.1     9.1  8.8  0.1611E+02  0.2138E+02 -0.1135E+01E
 Epicentro: LOS SANTOS - SANTANDER                                             3
 ACTION:UP  10-12-17 16:53 OP:REBC STATUS:               ID:20101119035213 L   I
 2010-11-19-0347-49S.COL___126                                                 6
 STAT SP IPHASW D HRMM SECON CODA AMPLIT PERI AZIMU VELO SNR AR TRES W  DIS CAZ7
 BAR2 SZ EP   1    352 31.32                             170    -0.2 7   23 202 
 BAR2 SZ ES   1    352 45.57                             170    -0.2 7   23 202 
 BAR2 SZ I         352 47.23        12.7 0.17                            23 202 
 BRR  HZ IP     C  352 33.21                             149    -0.210   76 298 
 BRR  HN ES   1    352 49.65                             149     0.4 7   76 298 
 BRR  HZ I         352 51.33        11.6 0.12                            76 298 
 RUS  HZ EP   1    352 35.25                             142    -0.5 7   99 179 
 RUS  HE ES   1    352 53.85                             142     0.5 7   99 179 
 RUS  HZ I         352 54.93         4.5 0.24                            99 179 
 OCA  SZ EP   2    352 40.92                             127     0.1 5  163 352 
 OCA  SZ I         353 11.16         3.3 0.69                           163 352 
 NOR  SZ EP   2    352 49.32                             116     0.8 4  237 236 
 NOR  SE ES   2    353 15.27                             116    -0.9 4  237 236 
 HEL  HZ EP   1    352 54.08                             112     0.8 6  276 256 
 HEL  HN ES   2    353 24.23                             112    -0.3 4  276 256 
 HEL  HZ I         353 30.27         2.2 0.47                           276 256 
                                                                                
