 2014  219 0844 30.9 L   6.799 -73.149145.4  RSN  7 0.4 1.2LRSN                1
 GAP=136        0.82       3.8     4.1  7.6  0.2913E+00  0.1043E+02 -0.7561E+00E
 Epicentro: LOS SANTOS - SANTANDER                                             3
 ACTION:UPD 14-03-10 08:11 OP:ep   STATUS:               ID:20140219084430 L   I
 OLDACT:UP  14-02-19 12:30 OP:cam  STATUS:               ID:20140219084000     3
 OLDACT:REG 14-02-19 11:46 OP:cam  STATUS:               ID:20140219084000     3
 2014-02-19-0840-00M.COL___212                                                 6
 STAT SP IPHASW D HRMM SECON CODA AMPLIT PERI AZIMU VELO AIN AR TRES W  DIS CAZ7
 BAR2 SZ EP        844 50.54                             171    0.0010 23.1 189 
 BAR2 SZ ES   1    845  6.32                             171    0.51 7 23.1 189 
 BAR2 SZ I         845  6.74         4.8 0.20            173           23.1 189 
 PAM  SZ EP   1    844 53.33                             151    0.18 7 77.7  40 
 PAM  SN ES        845 10.26                             151   -0.2010 77.7  40 
 PAM  SZ I         845 11.99         2.3 0.20            150           77.7  40 
 RUS  HZ EP   1    844 54.62                             144   -0.04 7  100 176 
 RUS  HN ES   1    845 13.07                             144   -0.08 7  100 176 
 RUS  HZ I         845 14.36         1.1 0.38            147            100 176 
 PTB  HZ EP   1    844 57.23                             132   -0.63 7  147 259 
 PTB  HN ES        845 18.31                             132   -0.54 9  147 259 
 PTB  HZ I         845 21.55         2.8 0.50            132            147 259 
 ZAR  HZ EP   4    845  5.87                             122    2.52 0  204 292 
 ZAR  HN ES        845 29.31                             122    0.69 9  204 292 
 SML  HZ EP   2    845  7.79                             117    0.24 4  244 335 
 SML  HE ES   1    845 35.89                             117   -0.22 6  244 335 
 SML  HZ I         845 44.54         2.1 0.24            117            244 335 
 CHI  HZ EP   2    845  9.04                             117    0.44 4  248 195 
 CHI  HE ES   2    845 38.76                             117    0.78 4  248 195 
                                                                                
