 2015  819 0921 44.1 L   5.915 -73.766113.3  RSN 18 0.4 2.2LRSN                1
 GAP= 51        0.79       1.8     1.9  4.1 -0.1842E+00  0.1578E+01 -0.3157E+00E
 Epicentro: SUCRE - SANTANDER                                                  3
 ACTION:UPD 15-09-15 23:03 OP:cam  STATUS:               ID:20150819092144 L   I
 OLDACT:REG 15-08-19 13:25 OP:spq  STATUS:               ID:20150819091748     3
 2015-08-19-0917-48M.COL___331                                                 6
 STAT SP IPHASW D HRMM SECON CODA AMPLIT PERI AZIMU VELO AIN AR TRES W  DIS CAZ7
 SPBC HZ EP     C  922  0.34                             157   -0.1210 44.7 229 
 SPBC HE ES        922 13.14                             157   -0.0510 44.7 229 
 SPBC HZ I         922 14.00        70.5 0.42            151           44.7 229 
 RUS  HZ EP        922  3.01                             144    0.1110 75.7  92 
 RUS  HE ES   1    922 17.69                             144    0.15 7 75.7  92 
 RUS  HZ I         922 19.09        14.4 0.22            127           75.7  92 
 BAR2 EZ EP     D  922  4.78                             136    0.4110 98.9  41 
 BAR2 EZ ES   1    922 20.69                             136    0.55 7 98.9  41 
 BAR2 EZ I         922 21.93       120.0 0.22            120           98.9  41 
 NOR  HZ EP        922  6.29                             128   -0.5010  128 252 
 NOR  HE ES        922 24.22                             128   -0.2410  128 252 
 NOR  HZ I         922 26.81        58.3 0.22            116            128 252 
 BRR  HZ EP        922  7.13                             127    0.0510  132   3 
 BRR  HE ES        922 24.89                             127   -0.0810  132   3 
 BRR  HZ I         922 28.01        40.3 0.12            113            132   3 
 ROSC BE ES   4    922 27.55                             127    1.32 0  134 207 
 ROSC BZ I         922 32.00        15.2 0.25            114            134 207 
 CHI  HZ EP   1    922  9.06                             125    0.41 7  142 178 
 CHI  HE ES        922 27.55                             125   -0.21 9  142 178 
 GUY2CHZ EP        922 14.25                             116    0.18 9  193 247 
 GUY2CHN ES        922 37.91                             116    0.50 9  193 247 
 GUY2CHZ I         922 42.13        13.8 0.32                           193 247 
 HEL  HZ EP        922 14.76                             115    0.33 9  197 279 
 HEL  HE ES        922 37.77                             115   -0.30 9  197 279 
 HEL  HZ I         922 42.45        19.2 0.32            106            197 279 
 VIL  SN ES   1    922 37.14                             115   -0.80 6  200 178 
 VIL  SZ I         922 41.82         9.9 0.28            105            200 178 
 ZAR  HZ EP        922 14.88                             113   -0.72 8  212 325 
 ZAR  HN ES        922 39.87                             113   -0.27 8  212 325 
 ZAR  HZ I         922 43.87        18.9 0.18            104            212 325 
 TOL  SZ EP        922 17.98                             112    0.34 8  227 230 
 TOL  SN ES        922 43.44                             112   -0.33 8  227 230 
 TOL  SZ I         922 49.95         7.6 0.20            103            227 230 
 CBOC HZ EP        922 20.48                             109    0.50 8  249 269 
 CBOC HN ES        922 48.42                             109    0.49 8  249 269 
 CBOC HZ I         922 56.28         5.2 0.48            102            249 269 
 PTGC HZ EP        922 21.13                             108   -0.19 8  262 136 
 PTGC HE ES        922 50.31                             108   -0.02 8  262 136 
 PTGC HZ I         922 52.84        10.5 0.54            100            262 136 
 OCA  HN ES   4    922 52.05                             108    1.51 0  262  11 
 OCA  HZ I         922 59.06        18.3 0.30            100            262  11 
 ORTC HZ EP        922 22.96                             107   -0.00 7  276 217 
 ORTC HN ES   1    922 53.59                             107    0.34 6  276 217 
 ORTC HZ I         922 57.26         7.0 0.18            100            276 217 
 DBB  SZ EP        922 25.70                             105    0.28 7  296 294 
 DBB  SZ ES   1    922 57.62                             105   -0.00 5  296 294 
 DBB  SZ I         923  2.56        15.3 0.46             99            296 294 
 SML  HZ EP        922 27.70                             104   -0.49 7  321 354 
 SML  HE ES   1    923  2.23                             104   -0.32 5  321 354 
 SML  HZ I         923 11.13        10.6 0.10             98            321 354 
                                                                                
