 2010  319 0841 13.1 L   6.856 -72.994145.0  RSN  7 0.4 1.7LRSN                1
 GAP=199        0.77       5.4    12.7  7.6  0.2661E+02 -0.2787E+02 -0.3851E+01E
 Epicentro: CEPITA - SANTANDER                                                 3
 ACTION:UP  10-08-24 09:54 OP:vdl  STATUS:               ID:20100319084113 L   I
 2010-03-19-0836-42S.COL___098                                                 6
 STAT SP IPHASW D HRMM SECON CODA AMPLIT PERI AZIMU VELO SNR AR TRES W  DIS CAZ7
 BAR2 SZ EP        841 33.14                             166     0.210   36 216 
 BAR2 SZ ES   1    841 48.00                             166    -0.4 7   36 216 
 BRR  HZ IP        841 34.97                             148     0.010   84 289 
 BRR  HE ES   1    841 52.18                             148     0.2 7   84 289 
 BRR  HZ I         841 53.10        10.9 0.22                            84 289 
 RUS  HZ EP   1    841 37.59                             142     0.4 7  107 185 
 RUS  HE ES   2    841 56.11                             142     0.1 5  107 185 
 RUS  HZ I         841 56.94         7.6 0.24                           107 185 
 OCA  SZ EP   1    841 41.31                             130     0.3 7  157 347 
 OCA  SZ ES   2    842  1.98                             130    -0.9 5  157 347 
 CHI  HZ EP   1    841 51.17                             116    -0.7 6  259 198 
 CHI  HZ I         842 24.35         3.7 0.37                           259 198 
 HEL  HZ EP   3    841 55.13                             113    -0.1 2  290 255 
 HEL  HZ I         842 32.38         2.9 0.36                           290 255 
 PRA  HZ EP   2    842  7.76                             106    -0.4 3  406 211 
                                                                                
