 2015 1219 0049 20.4 L   6.826 -73.144144.7  RSN 17 0.5 2.2LRSN                1
 GAP=119        1.06       3.2     3.6  5.3 -0.2844E+01  0.4496E+01  0.1071E+01E
 Epicentro: LOS SANTOS - SANTANDER                                             3
 ACTION:UPD 16-02-04 15:06 OP:cam  STATUS:               ID:20151219004920 L   I
 OLDACT:UP  15-12-19 17:34 OP:ar   STATUS:               ID:20151219004750     3
 OLDACT:UP  15-12-19 17:34 OP:ar   STATUS:               ID:20151219004750     3
 OLDACT:REG 15-12-19 11:51 OP:mh   STATUS:               ID:20151219004750     3
 2015-12-19-0047-50M.COL___332                                                 6
 STAT SP IPHASW D HRMM SECON CODA AMPLIT PERI AZIMU VELO AIN AR TRES W  DIS CAZ7
 BAR2 EZ IP     D  049 40.09                             169    0.1010 26.2 189 
 BAR2 EZ ES        049 54.99                             169   -0.2610 26.2 189 
 BAR2 EZ I         049 56.41        32.4 0.46            170           26.2 189 
 BRR  HZ IP        049 41.80                             153    0.4110 70.0 296 
 BRR  HN ES        049 58.47                             153    0.7210 70.0 296 
 BRR  HZ I         050  4.01        32.4 0.12            149           70.0 296 
 PAM  EZ EP        049 42.98                             151    0.5910 75.0  41 
 PAM  EN ES        049 59.52                             151    0.0010 75.0  41 
 PAM  EZ I         050  2.06        25.0 0.56            154           75.0  41 
 RUS  HZ EP        049 44.34                             143    0.0610  103 176 
 RUS  HN ES        050  3.07                             143    0.1810  103 176 
 RUS  HZ I         050  4.40        14.7 0.32            146            103 176 
 PTB  HZ EP        049 47.01                             132   -0.37 9  149 258 
 PTB  HN ES        050  7.61                             132   -0.79 9  149 258 
 PTB  HZ I         050 11.13        21.6 0.14            131            149 258 
 OCA  HZ EP   4    049 45.62                             130   -2.76 0  157 353 
 OCA  HN ES        050  9.59                             130   -0.60 9  157 353 
 OCA  HZ I         050 13.98        38.6 0.38            130            157 353 
 SPBC HZ EP        049 49.16                             128    0.09 9  166 218 
 SPBC HN ES        050 10.88                             128   -0.53 9  166 218 
 SPBC HZ I         050 15.25        20.2 0.52            130            166 218 
 ZAR  HZ EP        049 53.04                             122    0.33 9  203 291 
 ZAR  HN ES        050 18.60                             122    0.71 9  203 291 
 ZAR  HZ I         050 25.00        16.8 0.30            122            203 291 
 NOR  HZ EP        049 56.46                             118    0.17 8  237 234 
 NOR  HN ES        050 23.74                             118   -0.53 8  237 234 
 NOR  HZ I         050 31.03         9.8 0.24            119            237 234 
 SML  HZ EP   2    049 56.80                             117    0.09 4  241 335 
 SML  HN ES   2    050 24.04                             117   -0.98 4  241 335 
 SML  HZ I         050 33.59        21.3 0.10            118            241 335 
 HEL  HZ EP   4    050  2.45                             114    1.76 0  273 255 
 HEL  HN ES        050 31.75                             114   -0.34 8  273 255 
 HEL  HZ I         050 39.02         6.3 0.30            115            273 255 
 URE  HZ EP   4    050  4.24                             113    2.90 0  283 291 
 URE  HE ES   4    050 30.84                             113   -2.42 0  283 291 
 URE  HZ I         050 37.28         9.1 0.14            114            283 291 
 SOCV BZ EP        050  2.21                             112   -1.02 7  300  57 
 SOCV BN ES   4    050 34.10                             112   -2.51 0  300  57 
 GUY2CHZ EP   2    050  4.88                             112    0.69 4  303 234 
 GUY2CHN ES        050 38.41                             112    0.08 7  303 234 
 GUY2CHZ I         050 47.63         5.5 0.68                           303 234 
 DBB  SZ EP        050  7.99                             109    0.13 7  339 274 
 DBB  SZ ES   4    050 42.89                             109   -1.96 0  339 274 
 PRA  HZ EP        050 14.90                             106    0.68 6  395 209 
 PRA  HE ES        050 56.36                             106    0.19 6  395 209 
 PRA  HZ I         051  1.92         4.5 0.22            108            395 209 
 SJC  HZ EP   2    050 14.87                             106   -0.81 3  407 327 
 SJC  HN ES   4    050 54.85                             106   -3.93 0  407 327 
 SJC  HZ I         050 59.02         2.2 0.34            107            407 327 
                                                                                
