 2012  619 0625 57.2 L   6.748 -73.142144.4  RSN  7 0.3 1.5LRSN                1
 GAP=139        0.51       4.2     4.1  7.6  0.2313E+01  0.1179E+02  0.1063E+02E
 Epicentro: LOS SANTOS - SANTANDER                                             3
 ACTION:UPD 12-08-06 17:50 OP:ep   STATUS:               ID:20120619062557 L   I
 2012-06-19-0620-00M.COL___199                                                 6
 STAT SP IPHASW D HRMM SECON CODA AMPLIT PERI AZIMU VELO AIN AR TRES W  DIS CAZ7
 BAR2 SZ EP        626 16.74                             173    0.2210 17.8 194 
 BAR2 SZ ES   2    626 31.79                             173    0.17 5 17.8 194 
 BAR2 SZ I         626 35.21         7.9 0.42                          17.8 194 
 PAM  SZ EP   3    626 19.54                             149    0.05 2 81.7  37 
 PAM  SN ES   2    626 36.63                             149   -0.28 5 81.7  37 
 PAM  SZ I         626 38.68         4.4 0.60                          81.7  37 
 RUS  HZ EP        626 20.28                             145   -0.0810 94.8 176 
 RUS  HE ES   3    626 38.76                             145    0.30 2 94.8 176 
 RUS  HZ I         626 40.75         5.3 0.46                          94.8 176 
 PTB  HZ EP        626 23.74                             132   -0.22 9  147 261 
 PTB  HN ES   2    626 44.06                             132   -0.80 5  147 261 
 ZAR  HN ES   2    626 55.84                             122    0.61 4  207 294 
 CHI  HZ EP   3    626 34.23                             117    0.04 2  243 196 
 CHI  HN ES   1    627  3.23                             117    0.16 6  243 196 
 CHI  HZ I         627 12.20         2.1 0.50                           243 196 
 HEL  HE ES   2    627  8.86                             115    0.44 4  271 257 
                                                                                
