 2017  219 0325 33.3 L   6.750 -73.134141.8  RSN  6 0.3 1.3LRSN                1
 GAP=140        0.68       3.3     3.0  4.6  0.9354E+00  0.3600E+01 -0.7613E+00E
 Epicentro: LOS SANTOS - SANTANDER                                             3
 ACTION:UPD 17-05-24 15:37 OP:jn   STATUS:               ID:20170219032533 L   I
 OLDACT:DUP 17-02-19 16:23 OP:edw  STATUS:               ID:20170219031744d    3
 OLDACT:DUP 17-02-19 16:21 OP:edw  STATUS:               ID:20170219031743d    3
 OLDACT:UP  17-02-19 16:20 OP:edw  STATUS:               ID:20170219031742     3
 OLDACT:REG 17-02-19 12:29 OP:edw  STATUS:               ID:20170219031742     3
 2017-02-19-0318-00M.COL___358                                                 6
 STAT SP IPHASW D HRMM SECON CODA AMPLIT PERI AZIMU VELO AIN AR TRES W  DIS CAZ7
 BAR2 EZ EP        325 52.33                             172   -0.0010 18.2 197 
 BAR2 EZ ES        326  7.21                             172    0.0110 18.2 197 
 BAR2 EZ I         326  8.29         4.3 0.22            172           18.2 197 
 BRR  HZ EP        325 54.45                             150    0.2310 75.1 302 
 BRR  HN ES        326 10.92                             150    0.3610 75.1 302 
 BRR  HZ I         326 11.12         4.6 0.40            150           75.1 302 
 PAM  EZ IP     D  325 55.27                             149   -0.0210 81.0  36 
 PAM  EN ES        326 12.17                             149   -0.2910 81.0  36 
 PAM  EZ I         326 14.40         4.3 0.64            150           81.0  36 
 RUS  HZ EP        325 56.69                             145    0.4610 95.0 177 
 RUS  HN ES        326 13.97                             145   -0.1710 95.0 177 
 RUS  HZ I         326 15.96         2.8 0.26            146           95.0 177 
 PTB  HZ EP        325 59.57                             131   -0.38 9  148 261 
 PTB  HN ES        326 20.50                             131   -0.25 9  148 261 
 PTB  HZ I         326 23.16         2.2 0.16            131            148 261 
 ZAR  HZ EP        326  5.66                             121   -0.15 8  207 293 
 ZAR  HN ES        326 31.30                             121    0.11 8  207 293 
 ZAR  HZ I         326 36.53         1.8 0.26            121            207 293 
                                                                                
