 2017  719 0407 17.8 L   6.830 -73.160145.3  RSN 19 0.4 2.7LRSN                1
 GAP=111        0.97       3.5     2.6  5.0  0.2426E+00  0.4307E+01  0.1136E+01E
 Epicentro: LOS SANTOS - SANTANDER                                             3
 ACTION:UPD 17-08-30 15:34 OP:rebc STATUS:               ID:20170719040717 L   I
 OLDACT:UP  17-07-19 15:50 OP:dnl  STATUS:               ID:20170719035730     3
 OLDACT:REG 17-07-19 13:05 OP:dnl  STATUS:               ID:20170719035730     3
 2017-07-19-0358-00M.COL___380                                                 6
 STAT SP IPHASW D HRMM SECON CODA AMPLIT PERI AZIMU VELO AIN AR TRES W  DIS CAZ7
 BAR2 EZ IP     D  4 7 37.34                             169   -0.0910 26.4 185 
 BAR2 EZ ES        4 7 52.86                             169    0.1010 26.4 185 
 BAR2 EZ I         4 7 53.44       156.3 0.36            167           26.4 185 
 PAM  EZ EP        4 7 40.33                             151    0.4610 75.9  42 
 PAM  EN ES        4 7 57.22                             151    0.1310 75.9  42 
 PAM  EZ I         4 7 59.55        90.7 0.52            148           75.9  42 
 RUS  HZ EP     D  4 7 41.27                             143   -0.4810  104 175 
 RUS  HE ES        4 8  0.27                             143   -0.1710  104 175 
 RUS  HZ I         4 8  1.63        60.8 0.44            139            104 175 
 PTB  HZ EP        4 7 43.81                             132   -0.83 9  147 257 
 PTB  HN IS        4 8  5.06                             132   -0.53 9  147 257 
 PTB  HZ I         4 8  7.04        44.7 0.14            130            147 257 
 TAM  HZ IP     D  4 7 45.78                             130    0.12 9  158 106 
 TAM  HZ I         4 8  6.67        41.5 0.38            126            158 106 
 TAM  HN ES        4 8  7.58                             130    0.18 9  158 106 
 SPBC HZ EP        4 7 46.20                             129   -0.21 9  165 218 
 SPBC HN ES        4 8  8.56                             129   -0.17 9  165 218 
 SPBC HZ I         4 8 11.60        96.9 0.10            125            165 218 
 YPLC HZ IP     D  4 7 47.78                             126   -0.14 9  181 151 
 YPLC HN ES        4 8 11.57                             126    0.15 9  181 151 
 YPLC HZ I         4 8 21.14        32.6 0.24            122            181 151 
 ZAR  HZ EP        4 7 50.05                             123    0.13 9  201 291 
 ZAR  HN ES        4 8 15.23                             123    0.24 9  201 291 
 ZAR  HZ I         4 8 20.52        68.4 0.36            120            201 291 
 NOR  HZ EP        4 7 53.42                             118   -0.15 8  235 234 
 NOR  HN ES        4 8 21.85                             118    0.38 8  235 234 
 NOR  HZ I         4 8 30.68        39.0 0.42            116            235 234 
 ROSC BZ EP        4 7 57.02                             116    0.91 8  255 210 
 ROSC BN ES   4    4 8 27.95                             116    1.95 0  255 210 
 ROSC BZ I         4 8 32.14        96.6 0.45            113            255 210 
 HEL  HZ EP   4    4 7 58.94                             115    1.04 0  271 255 
 HEL  HN ES        4 8 29.52                             115    0.33 8  271 255 
 HEL  HZ I         4 8 35.42        35.9 0.28            112            271 255 
 URE  HZ EP        4 7 57.64                             114   -0.89 7  281 291 
 URE  HN ES   4    4 8 27.72                             114   -2.59 0  281 291 
 URE  HZ I         4 8 33.19        28.8 0.14            111            281 291 
 GUY2CHZ EP        4 8  1.50                             112    0.05 7  302 234 
 GUY2CHN ES   4    4 8 38.38                             112    2.87 0  302 234 
 GUY2CHZ I         4 8 43.57        33.3 0.34                           302 234 
 PTGC HZ EP   4    4 8  0.47                             111   -1.58 0  312 159 
 PTGC HN ES   4    4 8 34.15                             111   -2.42 0  312 159 
 PTGC HZ I         4 8 36.58        22.0 0.34            108            312 159 
 CBOC HZ EP        4 8  5.14                             110    0.51 7  333 251 
 CBOC HN ES        4 8 42.14                             110    0.97 7  333 251 
 CBOC HZ I         4 8 46.91         8.9 0.38            107            333 251 
 ORTC HZ EP        4 8 11.74                             106   -0.16 6  397 216 
 ORTC HN ES   4    4 8 52.67                             106   -1.44 0  397 216 
 ORTC HZ I         4 8 58.75        23.7 0.22            104            397 216 
 SJC  HZ EP   4    4 8 11.07                             106   -1.83 0  406 327 
 SJC  HN ES   4    4 8 51.90                             106   -3.99 0  406 327 
 SJC  HZ I         4 8 56.76         7.1 0.50            104            406 327 
 PAL  HZ EP        4 8 12.89                             106   -0.09 6  406 239 
 PAL  HN ES   4    4 8 55.15                             106   -0.87 0  406 239 
 PAL  HZ I         4 9  1.30        10.5 0.80            104            406 239 
 CRJC HZ EP   4    4 8 12.71                             103   -7.18 0  464   4 
 CRJC HN ES   4    4 9  4.75                             103   -3.58 0  464   4 
 CRJC HZ I         4 9 12.52        15.4 0.38            101            464   4 
                                                                                
