 2010  919 0112 13.4 L   6.775 -73.127148.3  RSN  9 0.5 1.9LRSN                1
 GAP=185        0.93       4.2     9.1  8.6  0.5229E+01  0.3381E+00 -0.5368E+00E
 Epicentro: LOS SANTOS - SANTANDER                                             3
 ACTION:UP  11-02-18 11:03 OP:tino STATUS:               ID:20100919011213 L   I
 2010-09-19-0111-09S.COL___121                                                 6
 STAT SP IPHASW D HRMM SECON CODA AMPLIT PERI AZIMU VELO SNR AR TRES W  DIS CAZ7
 BAR2 SZ EP        112 33.32                             171     0.010   21 197 
 BAR2 SZ I         112 33.57        15.9 0.19                            21 197 
 BAR2 SZ ES   2    112 48.19                             171    -0.6 5   21 197 
 BTL  SZ EP        112 33.72                             171     0.410   22 316 
 BRR  HZ EP        112 35.28                             152     0.310   74 300 
 BRR  HN ES   1    112 52.51                             152     0.7 7   74 300 
 BRR  HZ I         112 56.99        29.1 0.17                            74 300 
 RUS  HZ EP        112 37.23                             145     0.010   98 177 
 RUS  HN ES   1    112 55.21                             145    -0.5 7   98 177 
 RUS  HZ I         112 56.61        10.9 0.27                            98 177 
 OCA  SZ EP        112 41.99                             130    -0.2 9  163 353 
 OCA  SZ ES   1    113  3.98                             130    -0.6 7  163 353 
 OCA  SZ I         113  8.46        14.4 0.39                           163 353 
 NOR  HZ EP   2    112 49.40                             119     0.1 4  235 235 
 NOR  HN ES   2    113 16.59                             119    -0.7 4  235 235 
 CHI  HZ EP   1    112 51.11                             118     0.1 6  247 196 
 CHI  HE ES   2    113 20.11                             118    -0.2 4  247 196 
 RREF HN ES   3    113 35.62                             111    -0.1 2  322 230 
 RREF HZ I         113 44.49         3.8 0.37                           322 230 
 MON  HE ES   2    113 40.19                             109    -1.2 3  356 309 
 MON  HZ I         113 42.69         1.9 0.53                           356 309 
                                                                                
