 2017 1219 0440 21.6 L   6.541 -73.527104.3  RSN 14 0.7 1.7LRSN                1
 GAP= 71        1.53       3.5     3.3  7.9 -0.5679E+00  0.5338E+01 -0.2758E+01E
 Epicentro: EL CARMEN - SANTANDER                                              3
 ACTION:UPD 18-01-04 13:21 OP:rebc STATUS:               ID:20171219044021 L   I
 OLDACT:REG 17-12-19 12:58 OP:dhb  STATUS:               ID:20171219043745     3
 2017-12-19-0438-00M.COL___455                                                 6
 STAT SP IPHASW D HRMM SECON CODA AMPLIT PERI AZIMU VELO AIN AR TRES W  DIS CAZ7
 BAR2 EZ IP     C  440 36.94                             158    0.1210 38.5  82 
 BAR2 EZ ES        440 49.53                             158    0.8210 38.5  82 
 PTB  HZ IP     D  440 39.73                             132   -1.3710  103 270 
 PTB  HE ES        440 55.95                             132   -0.3610  103 270 
 PTB  HZ I         440 59.42        10.3 0.10            133            103 270 
 SPBC HZ EP        440 41.75                             128   -0.6210  115 212 
 SPBC HE ES        440 58.58                             128    0.0010  115 212 
 SPBC HZ I         441  3.69        12.0 0.10            130            115 212 
 PAM  EZ EP        440 43.74                             125   -0.3210  127  46 
 PAM  EN ES        441  1.54                             125   -0.0410  127  46 
 PAM  EZ I         441  3.67         4.2 0.18            128            127  46 
 YPLC HZ EP        440 48.79                             115   -0.24 9  179 135 
 YPLC HN ES        441 10.14                             115   -0.29 9  179 135 
 YPLC HZ I         441 12.84        17.6 0.40            117            179 135 
 ZAR  HZ EP        440 49.10                             115   -0.02 9  181 306 
 ZAR  HE ES        441 10.83                             115    0.24 9  181 306 
 ZAR  HZ I         441 15.35         7.6 0.24            116            181 306 
 OCA  HZ EP        440 50.51                             114    0.28 9  189   7 
 OCA  HN ES        441 13.22                             114    0.65 9  189   7 
 OCA  HZ I         441 17.84        20.3 0.40            115            189   7 
 TAM  HZ EP        440 49.77                             113   -0.68 9  192  93 
 TAM  HN ES        441 12.83                             113   -0.13 9  192  93 
 TAM  HZ I         441 18.26         5.5 0.48            115            192  93 
 GUY2CHZ EP        440 58.51                             107    0.88 8  250 235 
 GUY2CHE ES   3    441 28.11                             107    2.36 2  250 235 
 GUY2CHZ I         441 30.01         3.2 0.62                           250 235 
 URE  HZ EP        440 57.30                             106   -0.77 8  259 301 
 URE  HE ES        441 26.29                             106   -0.23 8  259 301 
 URE  HZ I         441 32.96         3.8 0.36            107            259 301 
 CBOC HZ EP        441  2.36                             104    1.01 7  285 255 
 CBOC HE ES        441 32.15                             104   -0.22 7  285 255 
 CBOC HZ I         441 36.33         1.9 0.30            105            285 255 
 DRL03HZ EP        441  5.14                             102    0.41 7  315   1 
 DRL03HN ES        441 38.71                             102    0.33 7  315   1 
 PRA  HZ EP        441 11.12                             100    2.53 6  347 206 
 PRA  HE ES        441 45.68                             100    0.43 6  347 206 
 PRA  HZ I         441 47.41         1.9 0.28            102            347 206 
 SJC  HZ EP        441 16.08                              97   -0.54 6  413 334 
 SJC  HE ES        441 59.41                              97   -0.14 6  413 334 
 SJC  HZ I         442  7.98         1.4 0.26             99            413 334 
                                                                                
