 2014 1019 0948 38.1 L   6.756 -73.156144.2  RSN  6 0.5 1.4LRSN                1
 GAP=137        1.12       6.1     5.4 11.0  0.4322E+01  0.7375E+01 -0.4531E+01E
 Epicentro: LOS SANTOS - SANTANDER                                             3
 ACTION:UPD 14-11-29 23:51 OP:nd   STATUS:               ID:20141019094838 L   I
 OLDACT:REG 14-10-19 13:45 OP:mh   STATUS:               ID:20141019093737     3
 2014-10-19-0937-37M.COL___258                                                 6
 STAT SP IPHASW D HRMM SECON CODA AMPLIT PERI AZIMU VELO AIN AR TRES W  DIS CAZ7
 BAR2 SZ I         949 13.55         6.8 0.17            173           18.4 189 
 BRR  HZ EP        948 59.70                             152    0.5110 72.6 302 
 BRR  HN ES   1    949 15.72                             152    0.11 7 72.6 302 
 BRR  HZ I         949 21.49         3.8 0.10            151           72.6 302 
 PAM  SZ EP        949  0.57                             149    0.1210 81.9  38 
 PAM  SN ES   1    949 17.19                             149   -0.67 7 81.9  38 
 PAM  SZ I         949 19.53         5.0 0.79            152           81.9  38 
 RUS  HZ EP        949  1.51                             145    0.1210 95.8 175 
 RUS  HN ES        949 19.79                             145    0.2710 95.8 175 
 RUS  HZ I         949 21.35         3.0 0.40            150           95.8 175 
 PTB  HZ EP        949  4.00                             132   -0.79 9  146 261 
 PTB  HN ES        949 25.09                             132   -0.49 9  146 261 
 PTB  HZ I         949 28.66         2.7 0.16            134            146 261 
 ZAR  HN ES        949 36.42                             122    0.57 9  205 294 
 ZAR  HZ I         949 41.58         2.1 0.19            124            205 294 
                                                                                
