 2017  619 0638 54.2 L   6.830 -73.195153.6  RSN  8 0.4 1.8LRSN                1
 GAP=278        0.92       5.2     7.3  8.3 -0.5642E+01 -0.4244E+01  0.7453E+01E
 Epicentro: ZAPATOCA - SANTANDER                                               3
 ACTION:UPD 17-09-14 16:53 OP:jn   STATUS:               ID:20170619063854 L   I
 OLDACT:REG 17-06-19 13:10 OP:lv   STATUS:               ID:20170619063739     3
 2017-06-19-0638-00M.COL___337                                                 6
 STAT SP IPHASW D HRMM SECON CODA AMPLIT PERI AZIMU VELO AIN AR TRES W  DIS CAZ7
 BRR  HZ EP        639 15.62                             156   -0.2910 64.8 298 
 BRR  HE ES        639 32.88                             156    0.0710 64.8 298 
 BRR  HZ I         639 34.19        14.2 0.13            148           64.8 298 
 PTB  HZ EP        639 21.00                             135   -0.45 9  143 257 
 PTB  HN ES        639 42.23                             135   -0.44 9  143 257 
 SPBC HZ EP        639 23.80                             131    0.52 9  162 217 
 SPBC HN ES        639 45.97                             131    0.04 9  162 217 
 SPBC HZ I         639 49.54         9.2 0.09            128            162 217 
 ZAR  HZ EP        639 26.69                             125    0.12 9  198 292 
 ZAR  HE ES        639 52.36                             125    0.57 9  198 292 
 ZAR  HZ I         639 58.60        14.1 0.26            121            198 292 
 NOR  HE ES        639 58.61                             120    0.40 8  232 233 
 HEL  HZ EP   4    639 36.38                             117    2.01 0  268 255 
 HEL  HN ES   4    640  4.14                             117   -1.54 0  268 255 
 HEL  HZ I         640 12.85         2.9 0.41            114            268 255 
 CBOC HZ EP   4    639 42.92                             111    1.90 0  329 251 
 CBOC HN ES        640 16.97                             111   -0.53 7  329 251 
 CBOC HZ I         640 22.88         1.4 0.15            110            329 251 
 SJC  HZ EP   4    639 48.60                             107   -0.79 0  403 327 
 SJC  HN ES   4    640 30.29                             107   -2.13 0  403 327 
 SJC  HZ I         640 33.18         1.4 0.34            106            403 327 
                                                                                
