 2014  919 0257 18.1 L   5.869 -73.637130.0  RSN 11 0.5 2.0LRSN                1
 GAP= 97        1.20       2.9     4.3  6.5 -0.2910E+01  0.9013E+01 -0.3539E+00E
 Epicentro: PUENTE NACIONAL - SANTANDER                                        3
 ACTION:UPD 14-10-03 23:06 OP:nd   STATUS:               ID:20140919025718 L   I
 OLDACT:REG 14-09-19 14:04 OP:carl STATUS:               ID:20140919024820     3
 2014-09-19-0248-20M.COL___284                                                 6
 STAT SP IPHASW D HRMM SECON CODA AMPLIT PERI AZIMU VELO AIN AR TRES W  DIS CAZ7
 SPBC HZ IP     D  257 36.82                             156    0.0610 53.8 244 
 SPBC HN ES        257 51.11                             156   -0.1810 53.8 244 
 SPBC HZ I         257 52.79        23.6 0.32            154           53.8 244 
 RUS  HZ EP        257 37.91                             153    0.1810 61.4  88 
 RUS  HN ES        257 53.20                             153    0.1810 61.4  88 
 BAR2 SZ EP        257 40.01                             142    0.4710 94.5  32 
 BAR2 SZ ES        257 56.30                             142    0.0610 94.5  32 
 PTB  HZ EP        257 40.48                             135   -0.5810  117 309 
 PTB  HN ES        257 58.62                             135   -0.3310  117 309 
 PTB  HZ I         258  0.79        15.3 0.12            129            117 309 
 BRR  HZ EP        257 43.30                             130    0.47 9  137 357 
 BRR  HN ES        258  1.79                             130   -0.32 9  137 357 
 BRR  HZ I         258  6.05        13.8 0.12            122            137 357 
 CHI  HZ EP        257 43.80                             131    0.38 9  137 184 
 CHI  HN ES        258  2.59                             131   -0.55 9  137 184 
 CHI  HZ I         258  5.59        11.5 0.36            122            137 184 
 GUY2CHZ EP        257 50.73                             119    0.50 9  204 250 
 GUY2CHN ES        258 16.49                             119    1.22 9  204 250 
 GUY2CHZ I         258 19.07         4.0 0.36                           204 250 
 ZAR  HZ EP        257 52.08                             116    0.25 8  225 323 
 ZAR  HN ES        258 18.35                             116    0.24 8  225 323 
 ZAR  HZ I         258 23.78        13.3 0.30            109            225 323 
 TOL  SZ EP        257 53.54                             115    0.21 8  234 233 
 TOL  SN ES        258 20.77                             115   -0.01 8  234 233 
 PRA  HZ EP        257 56.88                             111   -0.70 7  276 210 
 PRA  HN ES        258 27.38                             111   -0.97 7  276 210 
 PRA  HZ I         258 35.18         4.9 0.54            104            276 210 
 SML  HZ EP        258  3.13                             107   -0.41 7  328 352 
 SML  HE ES        258 37.92                             107   -1.03 7  328 352 
 SML  HZ I         258 43.40         7.8 0.26            100            328 352 
                                                                                
