 2015  819 0736 35.5 L   6.839 -72.983136.5  RSN  5 0.1 1.3LRSN                1
 GAP=200        0.35       2.1     4.9  3.7  0.4199E+01 -0.8194E+01 -0.4222E+01E
 Epicentro: CEPITA - SANTANDER                                                 3
 ACTION:UPD 15-09-15 23:03 OP:cam  STATUS:               ID:20150819073635 L   I
 OLDACT:DUP 15-08-19 17:05 OP:spq  STATUS:               ID:20150819072742d    3
 2015-08-19-0727-41M.COL___334                                                 6
 STAT SP IPHASW D HRMM SECON CODA AMPLIT PERI AZIMU VELO AIN AR TRES W  DIS CAZ7
 BAR2 EZ EP        736 54.49                             165    0.1110 35.0 219 
 BAR2 EZ ES   1    737  8.88                             165   -0.19 7 35.0 219 
 BAR2 EZ I         737 10.11         3.3 0.36            166           35.0 219 
 BRR  HZ EP        736 56.61                             146   -0.0310 85.9 290 
 BRR  HE ES        737 13.17                             146    0.0710 85.9 290 
 BRR  HZ I         737 17.95         4.7 0.46            146           85.9 290 
 RUS  HE ES   1    737 16.85                             140   -0.00 7  105 186 
 RUS  HZ I         737 18.01         2.2 0.36            146            105 186 
 OCA  HZ EP        737  3.15                             128    0.09 9  159 347 
 OCA  HE ES        737 24.51                             128   -0.00 9  159 347 
 OCA  HZ I         737 29.19         5.3 0.26            130            159 347 
 SML  HZ EP        737 11.95                             115   -0.20 8  248 331 
                                                                                
