 2012  819 0705  2.7 L   7.404 -73.184133.3  RSN 10 0.3 2.4LRSN                1
 GAP=107        0.56       2.7     2.2  4.0  0.1111E+00  0.2287E+01  0.8388E+00E
 Epicentro: EL PLAYON - SANTANDER                                              3
 ACTION:UPD 12-09-10 11:57 OP:ep   STATUS:               ID:20120819070502 L   I
 2012-08-19-0700-00M.COL___217                                                 6
 STAT SP IPHASW D HRMM SECON CODA AMPLIT PERI AZIMU VELO AIN AR TRES W  DIS CAZ7
 PAM  SZ EP   1    7 5 22.39                             157    0.12 7 53.9  98 
 PAM  SN ES        7 5 37.60                             157    0.0510 53.9  98 
 PAM  SZ I         7 5 40.34        48.5 0.43                          53.9  98 
 BRR  HZ IP     C  7 5 22.23                             152   -0.0210 66.9 241 
 BRR  HN ES   1    7 5 37.78                             152    0.28 7 66.9 241 
 BRR  HZ I         7 5 39.09        74.8 0.08                          66.9 241 
 BAR2 SZ EP   1    7 5 24.31                             144    0.24 7 89.8 180 
 BAR2 SZ ES   1    7 5 40.53                             144   -0.22 7 89.8 180 
 BAR2 SZ I         7 5 41.78       165.8 0.13                          89.8 180 
 OCA  HZ EP   1    7 5 24.11                             143   -0.12 7 93.5 351 
 OCA  HN ES   2    7 5 40.54                             143   -0.49 5 93.5 351 
 OCA  HZ I         7 5 42.56        57.7 0.28                          93.5 351 
 RUS  HZ EP   1    7 5 31.28                             126    0.06 7  168 176 
 RUS  HN ES   1    7 5 52.70                             126   -0.77 7  168 176 
 RUS  HZ I         7 5 54.52         9.1 0.36                           168 176 
 PTB  HZ EP   1    7 5 30.33                             125   -0.51 7  170 236 
 PTB  HE ES        7 5 52.94                             125    0.14 9  170 236 
 PTB  HZ I         7 5 56.44        14.6 0.16                           170 236 
 ZAR  HZ EP   1    7 5 32.25                             122   -0.11 7  185 273 
 ZAR  HN ES   1    7 5 55.81                             122    0.30 7  185 273 
 ZAR  HZ I         7 5 59.07        24.5 0.30                           185 273 
 TAM  HZ EP   1    7 5 32.90                             122    0.24 7  187 125 
 TAM  HZ I         7 5 33.46        28.6 0.24                           187 125 
 TAM  HN ES   1    7 5 56.29                             122    0.26 7  187 125 
 NOR  SZ EP   1    7 5 42.61                             112    0.27 6  276 223 
 NOR  SN ES   1    7 6 13.41                             112    0.14 6  276 223 
 NOR  SZ I         7 6 20.64         8.5 0.14                           276 223 
 DBB  SZ EP   1    7 5 49.19                             107   -0.20 5  337 263 
                                                                                
