 2010  619 0346 44.8 L   6.774 -73.166152.0  RSN  4 0.2 1.0LRSN                1
 GAP=157        0.42       6.7    13.2 13.3  0.5720E+02 -0.1492E+03 -0.6265E+02E
 Epicentro: LOS SANTOS - SANTANDER                                             3
 *BRR-RUS-GUE-GRA                                                              3
 ACTION:UP  10-08-24 10:11 OP:vdl  STATUS:               ID:20100619034644 L   I
 2010-06-19-0345-40S.COL___118                                                 6
 STAT SP IPHASW D HRMM SECON CODA AMPLIT PERI AZIMU VELO SNR AR TRES W  DIS CAZ7
 BRR  HZ EP   2    347  6.25                             155    -0.3 5   71 301 
 BRR  HN ES   1    347 23.66                             155     0.1 7   71 301 
 BRR  HZ I         347 28.70         3.2 0.83                            71 301 
 RUS  HZ EP   3    347  9.53                             146     0.6 2   98 175 
 RUS  HZ I         347 14.34         1.1 0.20                            98 175 
 RUS  HE ES   2    347 27.77                             146    -0.1 5   98 175 
 GUE  SZ EP   1    347 10.43                             140     0.1 7  120  13 
 GRA  SZ EP   2    347 10.67                             138    -0.2 5  129  18 
                                                                                
