 2013  419 0604 43.7 L   6.794 -73.168148.7  RSN 10 0.4 1.9LRSN                1
 GAP=134        0.91       3.6     5.6  6.2 -0.2484E+01  0.5844E+01 -0.1629E+01E
 Epicentro: LOS SANTOS - SANTANDER                                             3
 ACTION:UPD 13-05-22 14:39 OP:EP   STATUS:               ID:20130419060443 L   I
 2013-04-19-0600-00M.COL___250                                                 6
 STAT SP IPHASW D HRMM SECON CODA AMPLIT PERI AZIMU VELO AIN AR TRES W  DIS CAZ7
 BAR2 SZ ES   1    6 5 19.34                             171    0.12 7 22.3 184 
 BAR2 SZ I         6 5 20.38        21.3 0.44            169           22.3 184 
 BRR  HZ IP     C  6 5  5.39                             154    0.3310 69.4 300 
 BRR  HN ES   1    6 5 22.70                             154    0.98 7 69.4 300 
 BRR  HZ I         6 5 26.82        12.2 0.16            150           69.4 300 
 PAM  SZ EP        6 5  6.40                             151    0.0510 79.5  41 
 PAM  SN ES   2    6 5 23.74                             151   -0.27 5 79.5  41 
 PAM  SZ I         6 5 26.03         6.7 0.64            155           79.5  41 
 RUS  HZ EP        6 5  7.45                             145   -0.2510  100 175 
 RUS  HN ES   1    6 5 26.10                             145   -0.32 7  100 175 
 RUS  HZ I         6 5 27.15         8.5 0.34            147            100 175 
 PTB  HZ EP        6 5 10.08                             133   -0.59 9  145 259 
 PTB  HN ES   1    6 5 31.23                             133   -0.48 7  145 259 
 PTB  HZ I         6 5 34.89        12.9 0.16            132            145 259 
 OCA  HZ EP        6 5 12.54                             130    0.27 9  161 354 
 OCA  HN ES   1    6 5 34.01                             130   -0.55 7  161 354 
 OCA  HZ I         6 5 39.46        10.3 0.22            132            161 354 
 NOR  HZ EP        6 5 19.60                             119    0.26 8  232 234 
 NOR  HN ES   2    6 5 47.11                             119   -0.03 4  232 234 
 NOR  HZ I         6 5 54.85         8.7 0.20            120            232 234 
 SML  HZ EP        6 5 20.15                             118   -0.30 8  243 336 
 SML  HN ES   1    6 5 49.14                             118    0.03 6  243 336 
 SML  HZ I         6 5 51.41        14.2 0.10            119            243 336 
 HEL  HZ EP   4    6 5 25.64                             116    1.87 0  270 256 
 HEL  HN ES   4    6 5 56.21                             116    1.17 0  270 256 
 HEL  HZ I         6 6  1.81         3.7 0.32            116            270 256 
 PRA  HZ EP     D  6 5 37.97                             107    0.87 6  390 209 
 PRA  HN ES   4    6 6 20.03                             107    1.27 0  390 209 
 PRA  HZ I         6 6 22.79         4.6 0.30            108            390 209 
 SJC  HZ EP   4    6 5 37.41                             106   -1.86 0  408 327 
 SJC  HN ES   4    6 6 20.04                             106   -2.57 0  408 327 
                                                                                
