 2010  719 0315 46.7 L   6.777 -73.064141.9  RSN  8 0.4 1.5LRSN                1
 GAP=168        0.90       5.9     9.9 10.2 -0.2366E+01 -0.9189E+01 -0.2315E+02E
 Epicentro: LOS SANTOS - SANTANDER                                             3
 ACTION:UPD 10-12-01 15:18 OP:pat  STATUS:               ID:20100719031546 L   I
 2010-07-19-0313-53S.COL___120                                                 6
 STAT SP IPHASW D HRMM SECON CODA AMPLIT PERI AZIMU VELO AIN AR TRES W  DIS CAZ7
 BAR2 SZ EP        316  6.06                             170     0.210   24 213 
 BAR2 SZ ES   1    316 20.57                             170    -0.3 7   24 213 
 GIR2 SZ EP   2    316  6.97                             165     0.9 5   36 337 
 BRR  HZ IP     C  316  7.76                             149    -0.210   80 297 
 BRR  HN ES   2    316 24.64                             149     0.0 5   80 297 
 BRR  HZ I         316 28.74        11.9 0.06                            80 297 
 RUS  HZ EP   2    316 10.47                             144     0.6 5   98 181 
 RUS  HN ES   2    316 27.79                             144    -0.2 5   98 181 
 RUS  HZ I         316 30.36         2.0 0.15                            98 181 
 GUE  SZ EP   1    316 10.90                             138    -0.3 7  117   8 
 GUE  SZ I         316 38.97         1.9 0.03                           117   8 
 GRA  SZ EP   1    316 11.76                             136     0.1 7  126  13 
 GRA  SZ I         316 32.14         6.9 0.37                           126  13 
 OCA  SZ EP   1    316 14.40                             128    -0.7 7  164 350 
 OCA  SZ ES   1    316 37.84                             128     0.6 7  164 350 
 OCA  SZ I         316 39.32         6.6 0.30                           164 350 
 HEL  HE ES   2    316 59.82                             113     0.3 4  280 257 
 HEL  HZ I         317  4.27         2.3 0.51                           280 257 
                                                                                
