 2014  219 0205 31.0 L   6.529 -73.540114.1  RSN  7 0.4 1.2LRSN                1
 GAP=100        0.93       4.6     5.9 10.5 -0.1315E+02  0.2874E+02 -0.9630E+01E
 Epicentro: EL CARMEN DE CHUCURI - SANTANDER                                   3
 ACTION:UPD 14-03-10 08:11 OP:ep   STATUS:               ID:20140219020531 L   I
 OLDACT:UP  14-02-19 12:06 OP:cam  STATUS:               ID:20140219020000     3
 OLDACT:REG 14-02-19 11:29 OP:cam  STATUS:               ID:20140219020000     3
 2014-02-19-0200-00M.COL___212                                                 6
 STAT SP IPHASW D HRMM SECON CODA AMPLIT PERI AZIMU VELO AIN AR TRES W  DIS CAZ7
 BAR2 SZ EP        2 5 47.70                             159    0.2810 40.2  80 
 BAR2 SZ ES   1    2 6  0.40                             159    0.17 7 40.2  80 
 RUS  HZ EP        2 5 50.71                             140    0.0610 86.6 144 
 RUS  HN ES   2    2 6  6.18                             140    0.19 5 86.6 144 
 RUS  HZ I         2 6  8.19         1.2 0.48            138           86.6 144 
 PTB  HZ EP        2 5 50.53                             135   -0.6710  101 271 
 PTB  HE ES   4    2 6  5.38                             135   -1.58 0  101 271 
 PTB  HZ I         2 6  6.70         7.5 0.30            133            101 271 
 SPBC HN ES        2 6  9.18                             132    0.1410  113 211 
 PAM  SN ES        2 6 12.31                             128   -0.3010  129  46 
 ZAR  HZ EP   1    2 5 59.98                             118    0.97 7  180 306 
 ZAR  HN ES   4    2 6 22.86                             118    2.00 0  180 306 
 ZAR  HZ I         2 6 24.34         3.3 0.44            116            180 306 
 CHI  HZ EP   2    2 6  3.36                             114    0.46 4  211 186 
 CHI  HE ES   1    2 6 27.31                             114   -0.47 6  211 186 
 CHI  HZ I         2 6 32.99         1.0 0.30            111            211 186 
                                                                                
