 2016  719 0003 25.5 L   6.805 -73.137149.6  RSN  8 0.3 1.8LRSN                1
 GAP=137        0.70       2.9     3.2  4.5 -0.1647E+01  0.3399E+01  0.1317E+01E
 Epicentro: LOS SANTOS - SANTANDER                                             3
 ACTION:UPD 17-03-29 16:52 OP:lp   STATUS:               ID:20160719000325 L   I
 OLDACT:REG 16-07-19 12:18 OP:ar   STATUS:               ID:20160719000014     3
 2016-07-19-0000-14S.COL___334                                                 6
 STAT SP IPHASW D HRMM SECON CODA AMPLIT PERI AZIMU VELO AIN AR TRES W  DIS CAZ7
 BAR2 EZ EP        0 3 45.44                             170   -0.1910 24.0 192 
 BAR2 EZ ES        0 4  0.99                             170   -0.3310 24.0 192 
 BRR  HZ EP        0 3 47.17                             153    0.0410 71.8 298 
 BRR  HN ES        0 4  4.15                             153    0.1810 71.8 298 
 BRR  HZ I         0 4  6.46        13.8 0.16            150           71.8 298 
 PAM  EZ EP        0 3 48.31                             152    0.2210 76.4  39 
 PAM  EE ES        0 4  5.57                             152   -0.1310 76.4  39 
 RUS  HZ EP        0 3 49.76                             144    0.0710  101 177 
 RUS  HN ES        0 4  8.88                             144    0.3410  101 177 
 RUS  HZ I         0 4  9.07         5.5 0.34            146            101 177 
 SPBC HZ EP        0 3 53.86                             130   -0.56 9  164 219 
 SPBC HN ES        0 4 17.30                             130    0.35 9  164 219 
 SPBC HZ I         0 4 22.40         6.8 0.18            129            164 219 
 ZAR  HZ EP   2    0 3 58.92                             123    0.63 4  205 292 
 ZAR  HN ES        0 4 23.84                             123   -0.01 9  205 292 
 ZAR  HZ I         0 4 30.50         7.9 0.20            122            205 292 
 NOR  HZ EP        0 4  1.73                             119    0.13 8  236 234 
 NOR  HE ES        0 4 29.42                             119   -0.31 8  236 234 
 NOR  HZ I         0 4 31.72         4.5 0.34            119            236 234 
 GUY2CHZ EP   9    0 4 11.87                             113    2.43 0  302 235 
 GUY2CHN ES        0 4 45.69                                   -0.43 7  302 235 
 GUY2CHZ I         0 4 52.05         2.4 0.26                           302 235 
                                                                                
