 2013  519 0406 26.9 L   6.763 -73.160143.8  RSN  7 0.5 1.7LRSN                1
 GAP=136        1.28       5.6     6.0  9.4 -0.7250E-01  0.9394E+01 -0.2834E+00E
 Epicentro: LOS SANTOS - SANTANDER                                             3
 ACTION:UPD 13-06-20 09:51 OP:ep   STATUS:               ID:20130519040626 L   I
 2013-05-19-0400-00M.COL___256                                                 6
 STAT SP IPHASW D HRMM SECON CODA AMPLIT PERI AZIMU VELO AIN AR TRES W  DIS CAZ7
 BAR2 SZ EP        4 6 46.29                             172    0.0910 19.0 187 
 BAR2 SZ ES        4 7  1.52                             172    0.2510 19.0 187 
 BAR2 SZ I         4 7  2.06        17.7 0.18            172           19.0 187 
 BRR  HZ EP        4 6 48.33                             152    0.4610 71.9 302 
 BRR  HN ES        4 7  4.91                             152    0.6810 71.9 302 
 BRR  HZ I         4 7  5.47         8.0 0.30            152           71.9 302 
 PAM  SZ EP        4 6 49.37                             149    0.2210 81.6  39 
 PAM  SN ES        4 7  6.08                             149   -0.4410 81.6  39 
 PAM  SZ I         4 7  8.50         8.2 0.64            151           81.6  39 
 RUS  HZ EP        4 6 50.39                             145    0.2310 96.6 175 
 RUS  HN ES        4 7  8.08                             145   -0.2410 96.6 175 
 RUS  HZ I         4 7 10.40         6.2 0.36            146           96.6 175 
 PTB  HZ EP        4 6 53.14                             132   -0.35 9  145 260 
 PTB  HN ES        4 7 13.28                             132   -0.95 9  145 260 
 PTB  HZ I         4 7 16.82         7.6 0.09            132            145 260 
 OCA  HE ES   1    4 7 16.69                             128   -0.98 7  164 354 
 ZAR  HN ES   1    4 7 25.29                             122    0.85 6  204 293 
 ZAR  HZ I         4 7 27.62         5.6 0.12            123            204 293 
                                                                                
