 2011  519 0702  9.6 L   6.793 -73.086145.1  RSN  8 0.4 1.7LRSN                1
 GAP=145        0.74       3.5     5.8  6.1 -0.4635E+01  0.6348E+01 -0.1523E+01E
 Epicentro: LOS SANTOS - SANTANDER                                             3
 ACTION:UP  11-06-29 08:54 OP:tino STATUS:               ID:20110519070209 L   I
 2011-05-19-0700-00M.COL___142                                                 6
 STAT SP IPHASW D HRMM SECON CODA AMPLIT PERI AZIMU VELO SNR AR TRES W  DIS CAZ7
 BTL  SZ EP   1    7 2 29.49                             170     0.3 7   24 305 
 BAR2 SZ EP        7 2 28.98                             170    -0.210   25 206 
 BAR2 SZ ES   1    7 2 44.37                             170    -0.1 7   25 206 
 PAM  SZ EP   1    7 2 31.79                             152     0.3 7   74  35 
 PAM  SN ES   1    7 2 48.89                             152     0.2 7   74  35 
 BRR  HZ EP   2    7 2 30.89                             150    -0.1 5   77 297 
 BRR  HN ES   1    7 2 47.99                             150     0.2 7   77 297 
 BRR  HZ I         7 2 49.98        11.6 0.52                            77 297 
 RUS  HZ EP   1    7 2 32.92                             144    -0.3 7  100 180 
 RUS  HN ES   1    7 2 51.73                             144     0.1 7  100 180 
 RUS  HZ I         7 2 52.94         5.2 0.32                           100 180 
 GRA  SZ EP   1    7 2 34.63                             137    -0.1 7  125  14 
 GRA  SZ ES   1    7 2 53.73                             137    -0.5 7  125  14 
 GRA  SZ I         7 2 56.13         7.4 0.41                           125  14 
 OCA  SZ EP   1    7 2 37.79                             129    -0.2 7  162 351 
 OCA  SZ ES   1    7 3  0.21                             129     0.0 7  162 351 
 OCA  SZ I         7 3  4.41         9.1 0.24                           162 351 
 HEL  HZ EP   1    7 2 51.34                             114     0.9 6  278 256 
 HEL  HE ES   2    7 3 21.38                             114    -1.0 4  278 256 
 HEL  HZ I         7 3 28.23         2.4 0.48                           278 256 
                                                                                
