 2016 1019 0505 45.8 L   6.782 -73.145152.0  RSN  5 0.3 1.2LRSN                1
 GAP=153        0.72       5.5     4.7  6.4 -0.1518E+02 -0.4385E+01  0.1334E+02E
 Epicentro: LOS SANTOS - SANTANDER                                             3
 ACTION:UPD 16-11-09 19:20 OP:rebc STATUS:               ID:20161019050545 L   I
 OLDACT:UP  16-10-19 17:40 OP:and  STATUS:               ID:20161019045632     3
 OLDACT:REG 16-10-19 12:50 OP:y    STATUS:               ID:20161019045632     3
 2016-10-19-0457-00M.COL___329                                                 6
 STAT SP IPHASW D HRMM SECON CODA AMPLIT PERI AZIMU VELO AIN AR TRES W  DIS CAZ7
 BAR2 EZ EP        5 6  6.09                             172   -0.0710 21.4 191 
 BAR2 EZ ES   2    5 6 21.60                             172   -0.43 5 21.4 191 
 BAR2 EZ I         5 6 22.25         5.1 0.20            173           21.4 191 
 BRR  HZ EP     C  5 6  7.58                             153   -0.1210 72.2 300 
 BRR  HN ES        5 6 24.77                             153    0.0110 72.2 300 
 PAM  EZ IP     D  5 6  8.74                             152   -0.0410 78.8  39 
 PAM  EN ES        5 6 26.89                             152    0.2010 78.8  39 
 PAM  EZ I         5 6 34.48         3.2 0.50            154           78.8  39 
 PTB  HZ EP        5 6 12.75                             134   -0.52 9  147 260 
 PTB  HN ES        5 6 35.02                             134    0.33 9  147 260 
 PTB  HZ I         5 6 40.66         1.1 0.22            136            147 260 
 SPBC HZ EP        5 6 15.17                             131    0.51 9  162 219 
 SPBC HN ES        5 6 37.02                             131   -0.15 9  162 219 
 SPBC HZ I         5 6 41.56         2.0 0.16            134            162 219 
                                                                                
