 2013 1119 0231 44.8 L   6.789 -73.167138.8  RSN  7 0.5 1.8LRSN                1
 GAP=134        1.06       4.3     4.7  8.0 -0.1509E+01  0.1173E+02 -0.5635E+01E
 Epicentro: LOS SANTOS - SANTANDER                                             3
 ACTION:UPD 14-01-09 16:29 OP:ep   STATUS:               ID:20131119023144 L   I
 OLDACT:UP  13-11-19 08:24 OP:mh   STATUS:               ID:20131119023000     3
 OLDACT:UP  13-11-19 08:24 OP:mh   STATUS:               ID:20131119023000     3
 OLDACT:UP  13-11-19 08:23 OP:mh   STATUS:               ID:20131119023000     3
 OLDACT:REG 13-11-19 07:14 OP:mh   STATUS:               ID:20131119023000     3
 2013-11-19-0230-00M.COL___279                                                 6
 STAT SP IPHASW D HRMM SECON CODA AMPLIT PERI AZIMU VELO AIN AR TRES W  DIS CAZ7
 BAR2 SZ EP   1    232  3.55                             171    0.00 7 21.9 184 
 BAR2 SZ ES   1    232 18.22                             171    0.04 7 21.9 184 
 BAR2 SZ I         232 19.34        20.8 0.12            172           21.9 184 
 BRR  HZ EP   1    232  5.50                             152    0.40 7 69.7 300 
 BRR  HN ES   1    232 21.06                             152    0.12 7 69.7 300 
 BRR  HZ I         232 23.98        12.8 0.17            151           69.7 300 
 PAM  SZ EP        232  6.52                             149    0.1010 79.8  40 
 PAM  SN ES        232 23.30                             149    0.0110 79.8  40 
 PAM  SZ I         232 26.05         7.4 0.49            151           79.8  40 
 RUS  HZ EP   1    232  7.98                             143    0.19 7 99.6 175 
 RUS  HN ES        232 25.79                             143    0.0710 99.6 175 
 RUS  HZ I         232 27.14         4.8 0.35            147           99.6 175 
 PTB  HZ EP        232 10.41                             131   -0.55 9  145 259 
 PTB  HN ES        232 30.88                             131   -0.48 9  145 259 
 PTB  HZ I         232 34.48        11.3 0.11            132            145 259 
 OCA  HZ EP   1    232 13.37                             128    0.72 7  161 354 
 OCA  HN ES        232 33.70                             128   -0.68 9  161 354 
 OCA  HZ I         232 37.00        15.7 0.23            130            161 354 
 ZAR  HZ EP        232 16.26                             121   -0.34 9  202 293 
 ZAR  HN ES        232 42.47                             121    1.05 9  202 293 
 ZAR  HZ I         232 47.68         6.2 0.11            122            202 293 
                                                                                
