 2014  519 0031  4.0 L   6.536 -73.475118.3  RSN 13 0.4 1.6LRSN                1
 GAP=105        0.94       2.6     3.2  6.6 -0.1902E+01  0.4078E+01  0.1323E+01E
 Epicentro: EL CARMEN DE CHUCURI - SANTANDER                                   3
 ACTION:UPD 15-03-16 16:58 OP:nd   STATUS:               ID:20140519003104 L   I
 OLDACT:REG 14-05-19 12:22 OP:spq  STATUS:               ID:20140519002812     3
 2014-05-19-0028-12M.COL___260                                                 6
 STAT SP IPHASW D HRMM SECON CODA AMPLIT PERI AZIMU VELO AIN AR TRES W  DIS CAZ7
 BRR  HZ EP        031 22.21                             148    0.1710 68.4 338 
 BRR  HE ES        031 36.30                             148    0.1710 68.4 338 
 BRR  HZ I         031 46.25         7.4 0.14            151           68.4 338 
 RUS  HZ EP        031 24.15                             143    0.3710 83.3 149 
 RUS  HN ES   1    031 38.96                             143   -0.26 7 83.3 149 
 RUS  HZ I    1    031 41.41         3.2 0.36            152           83.3 149 
 PTB  HZ IP     D  031 24.24                             134   -0.9110  108 270 
 PTB  HE ES   1    031 41.84                             134    0.17 7  108 270 
 PTB  HZ I         031 45.39        11.2 0.10            137            108 270 
 SPBC HZ EP   1    031 27.06                             132    0.97 7  118 214 
 SPBC HN ES   1    031 43.29                             132   -0.06 7  118 214 
 SPBC HZ I         031 49.37         7.4 0.26            137            118 214 
 PAM  SZ EP        031 27.40                             131    0.2610  123  44 
 PAM  SN ES        031 44.91                             131   -0.3010  123  44 
 PAM  SZ I         031 47.16         7.4 0.12            140            123  44 
 ZAR  HZ EP        031 32.75                             118   -0.05 9  186 305 
 ZAR  HN ES        031 55.41                             118    0.12 9  186 305 
 ZAR  HZ I         032  0.47         8.5 0.22            123            186 305 
 NOR  HZ EP        031 33.20                             118    0.10 9  188 235 
 NOR  HN ES        031 55.25                             118   -0.58 9  188 235 
 NOR  HZ I         032  3.57         5.1 0.20            123            188 235 
 OCA  HN ES   1    031 55.89                             118   -0.37 7  189   5 
 OCA  HZ I         032  2.34         6.1 0.18            125            189   5 
 CHI  HZ EP   1    031 35.42                             115   -0.84 6  213 188 
 CHI  HN ES   1    032  2.15                             115    0.70 6  213 188 
 HEL  HZ EP   2    031 38.01                             113   -0.17 4  230 261 
 HEL  HE ES   2    032  5.32                             113    0.46 4  230 261 
 HEL  HZ I         032 11.89         3.0 0.44            118            230 261 
 GUY2CHZ EP   4    031 42.67                             110    1.61 0  255 235 
 GUY2CHN ES   1    032 10.11                             110    0.12 6  255 235 
 GUY2CHZ I         032 21.54         1.8 0.44                           255 235 
 SML  HZ EP   1    031 41.06                             110    0.10 6  259 345 
 SML  HE ES   1    032 10.34                             110    0.52 6  259 345 
 RREF HE ES   1    032 14.58                             108    0.03 6  275 229 
 RREF HZ I         032 24.36         2.5 0.26            114            275 229 
                                                                                
