 2011  719 0956 41.8 L   6.741 -73.035128.0  RSN  4 0.2 1.5LRSN                1
 GAP=172        0.37       4.0     6.0  8.3 -0.5231E+01 -0.3087E+02  0.4768E+01E
 Epicentro: ARATOCA - SANTANDER                                                3
 ACTION:UPD 12-07-25 14:01 OP:epov STATUS:               ID:20110719095641 L   I
 2011-07-19-0940-00M.COL___136                                                 6
 STAT SP IPHASW D HRMM SECON CODA AMPLIT PERI AZIMU VELO AIN AR TRES W  DIS CAZ7
 BAR2 SZ EP   1    956 59.49                             170    0.19 7 23.2 225 
 BAR2 SZ I         957  0.19         6.2 0.09                          23.2 225 
 BRR  HZ EP   1    957  1.78                             145   -0.22 7 85.1 298 
 BRR  HZ I         957  2.24        17.1 0.09                          85.1 298 
 BRR  HN ES   1    957 17.85                             145    0.10 7 85.1 298 
 RUS  HZ EP   3    957  3.50                             142    0.15 2 94.0 183 
 RUS  HN ES   3    957 19.66                             142   -0.49 2 94.0 183 
 RUS  HZ I         957 23.76         4.1 0.29                          94.0 183 
 GRA  SZ EP   1    957  5.78                             132   -0.04 7  129  11 
 GRA  SZ ES   2    957 24.58                             132    0.03 5  129  11 
 GRA  SZ I         957 27.38         5.1 0.40                           129  11 
                                                                                
