 2010  619 0523 14.4 L   7.176 -72.999118.1  RSN  4 0.4 1.2LRSN                1
 GAP=244        0.80      54.0    46.7 35.3 -0.2488E+04 -0.1569E+04  0.1819E+04E
 Epicentro: TONA - SANTANDER                                                   3
 ACTION:UP  10-08-24 10:11 OP:vdl  STATUS:               ID:20100619052314 L   I
 2010-06-19-0519-25S.COL___118                                                 6
 STAT SP IPHASW D HRMM SECON CODA AMPLIT PERI AZIMU VELO SNR AR TRES W  DIS CAZ7
 BRI  SZ EP   1    523 32.70                             150     0.3 7   64  20 
 GUE  SZ EP   1    523 33.74                             146     0.5 7   73   6 
 GUE  SZ ES   1    523 48.24                             146     0.4 7   73   6 
 BRR  HZ EP   1    523 32.91                             144    -0.3 7   79 265 
 BRR  HN ES   1    523 47.95                             144     0.1 7   79 265 
 BRR  HZ I         523 49.60         3.7 0.18                            79 265 
 GRA  SZ IP        523 33.36                             143    -0.210   81  15 
 GRA  SZ ES   1    523 48.00                             143    -0.5 7   81  15 
                                                                                
