 2017  319 0156  4.8 L   6.783 -73.137134.0  RSN  5 0.2 1.0LRSN                1
 GAP=138        0.58       3.1     2.7  4.9 -0.5484E+00  0.4562E+01 -0.1588E+01E
 Epicentro: LOS SANTOS - SANTANDER                                             3
 ACTION:UPD 17-05-25 18:42 OP:jn   STATUS:               ID:20170319015604 L   I
 OLDACT:REG 17-03-19 12:44 OP:cara STATUS:               ID:20170319014739     3
 2017-03-19-0148-00M.COL___397                                                 6
 STAT SP IPHASW D HRMM SECON CODA AMPLIT PERI AZIMU VELO AIN AR TRES W  DIS CAZ7
 BRR  HZ EP        156 24.85                             150    0.0210 72.9 299 
 BRR  HN ES        156 40.54                             150    0.1210 72.9 299 
 PAM  EZ EP        156 25.81                             148   -0.0610 78.2  38 
 PAM  EN ES        156 42.19                             148   -0.0810 78.2  38 
 PAM  EZ I         156 43.64         1.8 0.28            150           78.2  38 
 RUS  HN ES        156 44.96                             142    0.1310 98.7 177 
 RUS  HZ I         156 46.39         0.9 0.30            144           98.7 177 
 PTB  HZ EP        156 30.51                             129   -0.41 9  148 260 
 PTB  HN ES        156 51.17                             129   -0.10 9  148 260 
 PTB  HZ I         156 52.82         1.9 0.22            129            148 260 
 ZAR  HZ EP        156 37.19                             119    0.48 8  206 293 
 ZAR  HN ES        157  1.52                             119   -0.05 8  206 293 
 ZAR  HZ I         157  9.51         1.7 0.48            120            206 293 
                                                                                
