 2015 1219 0030 29.9 L   6.787 -73.136147.1  RSN 12 0.4 2.5LRSN                1
 GAP=138        1.01       2.9     3.7  5.2 -0.1164E+01  0.6081E+01  0.7589E+00E
 Epicentro: LOS SANTOS - SANTANDER                                             3
 ACTION:UPD 16-02-04 15:05 OP:cam  STATUS:               ID:20151219003029 L   I
 OLDACT:REG 15-12-19 11:51 OP:mh   STATUS:               ID:20151219002746     3
 2015-12-19-0027-46M.COL___332                                                 6
 STAT SP IPHASW D HRMM SECON CODA AMPLIT PERI AZIMU VELO AIN AR TRES W  DIS CAZ7
 BAR2 EZ IP     D  030 49.72                             171    0.0910 22.1 193 
 BAR2 EZ ES        031  4.59                             171   -0.4610 22.1 193 
 BAR2 EZ I         031  5.71        95.2 0.32            169           22.1 193 
 BRR  HZ IP     D  030 51.75                             152    0.5010 72.9 299 
 BRR  HE ES        031  8.76                             152    0.8310 72.9 299 
 BRR  HZ I         031 11.79        85.7 0.32            150           72.9 299 
 PAM  EZ IP        030 52.68                             151    0.4310 77.9  38 
 PAM  EN ES        031  9.41                             151   -0.3010 77.9  38 
 PAM  EZ I         031 11.72        84.5 0.54            155           77.9  38 
 RUS  HZ EP        030 53.81                             145    0.1710 99.0 177 
 RUS  HN ES        031 12.28                             145    0.1010 99.0 177 
 RUS  HZ I         031 13.42        28.2 0.32            146           99.0 177 
 PTB  HZ EP        030 56.84                             132   -0.17 9  149 259 
 PTB  HN ES        031 17.72                             132   -0.46 9  149 259 
 PTB  HZ I         031 19.84        32.5 0.14            132            149 259 
 SPBC HZ EP        030 58.36                             129   -0.06 9  163 220 
 SPBC HN ES        031 20.74                             129    0.04 9  163 220 
 SPBC HZ I         031 28.02        32.6 0.20            130            163 220 
 ZAR  HZ EP        031  2.65                             122    0.09 8  206 292 
 ZAR  HE ES        031 28.23                             122    0.17 8  206 292 
 ZAR  HZ I         031 34.40        63.4 0.34            123            206 292 
 NOR  HZ EP        031  5.97                             119    0.29 8  235 235 
 NOR  HE ES        031 33.67                             119    0.06 8  235 235 
 NOR  HZ I         031 38.85        16.0 0.22            119            235 235 
 SML  HZ EP        031  6.18                             118   -0.58 8  245 335 
 SML  HN ES        031 34.95                             118   -0.59 8  245 335 
 SML  HZ I         031 41.53        40.3 0.10            119            245 335 
 CHI  HZ EP        031  7.25                             117   -0.27 8  247 195 
 CHI  HN ES        031 36.22                             117   -0.66 8  247 195 
 CHI  HZ I         031 44.73        10.7 0.42            119            247 195 
 HEL  HZ EP        031  9.71                             115   -0.51 8  273 256 
 HEL  HE ES        031 41.25                             115   -0.45 8  273 256 
 HEL  HZ I         031 48.13        12.2 0.40            116            273 256 
 GUY2CHZ EP        031 14.38                             113    0.84 7  301 235 
 GUY2CHN ES        031 48.02                             113    0.42 7  301 235 
 GUY2CHZ I         031 54.70         7.7 0.52                           301 235 
                                                                                
