 2016 1219 0245  8.0 L   6.842 -73.423121.6  RSN  4 0.4 1.1LRSN                1
 GAP=184        1.02       8.6     6.7 10.5  0.2891E+02  0.2707E+02  0.3017E+02E
 Epicentro: SAN VICENTE DE CHUCURI - SANTANDER                                 3
 ACTION:UPD 17-01-11 20:16 OP:rebc STATUS:               ID:20161219024508 L   I
 OLDACT:UP  16-12-19 14:41 OP:cog  STATUS:               ID:20161219023742     3
 OLDACT:REG 16-12-19 12:48 OP:cog  STATUS:               ID:20161219023742     3
 2016-12-19-0238-00M.COL___330                                                 6
 STAT SP IPHASW D HRMM SECON CODA AMPLIT PERI AZIMU VELO AIN AR TRES W  DIS CAZ7
 BAR2 EZ EP        245 24.56                             161   -0.6010 38.3 136 
 BAR2 EZ ES        245 38.61                             161    0.0310 38.3 136 
 BAR2 EZ I         245 39.05         6.4 0.38            162           38.3 136 
 BRR  HE ES        245 38.55                             159    0.2210 43.4 313 
 RUS  HN ES        245 48.01                             135    0.2310  111 160 
 PTB  HZ EP        245 30.91                             132    0.5610  119 254 
 PTB  HN ES        245 47.40                             132   -0.4210  119 254 
 PTB  HZ I         245 51.65         1.0 0.32            131            119 254 
                                                                                
