 2015 1219 0005 19.9 L   6.779 -73.153136.0  RSN 11 0.4 2.1LRSN                1
 GAP=137        0.90       2.8     3.3  4.8 -0.2400E+01  0.5679E+01  0.1254E+00E
 Epicentro: LOS SANTOS - SANTANDER                                             3
 ACTION:UPD 16-02-04 15:05 OP:cam  STATUS:               ID:20151219000519 L   I
 OLDACT:REG 15-12-19 11:50 OP:mh   STATUS:               ID:20151219000004     3
 2015-12-19-0000-04M.COL___332                                                 6
 STAT SP IPHASW D HRMM SECON CODA AMPLIT PERI AZIMU VELO AIN AR TRES W  DIS CAZ7
 BAR2 EZ IP        0 5 38.11                             171   -0.2110 20.9 189 
 BAR2 EZ ES        0 5 53.21                             171    0.5310 20.9 189 
 BAR2 EZ I         0 5 54.23        17.2 0.18            169           20.9 189 
 BRR  HZ EP        0 5 39.98                             151   -0.0610 71.6 300 
 BRR  HN ES        0 5 56.27                             151    0.5310 71.6 300 
 BRR  HZ I         0 6  1.02        24.8 0.42            149           71.6 300 
 PAM  EZ IP        0 5 41.10                             148   -0.1510 79.7  39 
 PAM  EN ES        0 5 57.85                             148   -0.0410 79.7  39 
 PAM  EZ I         0 6  0.20        19.5 0.66            154           79.7  39 
 RUS  HZ EP        0 5 42.05                             143   -0.5010 98.3 175 
 RUS  HN ES        0 6  0.45                             143    0.2510 98.3 175 
 RUS  HZ I         0 6  1.38         9.0 0.28            146           98.3 175 
 PTB  HZ EP        0 5 45.96                             130   -0.03 9  147 260 
 PTB  HN ES        0 6  5.75                             130   -0.57 9  147 260 
 PTB  HZ I         0 6  8.73        16.1 0.14            131            147 260 
 SPBC HZ IP        0 5 47.32                             127   -0.14 9  161 219 
 SPBC HN ES        0 6  8.50                             127   -0.44 9  161 219 
 SPBC HZ I         0 6 17.77        14.0 0.22            129            161 219 
 OCA  HZ EP        0 5 48.24                             127    0.54 9  162 354 
 OCA  HN ES        0 6  8.76                             127   -0.61 9  162 354 
 OCA  HZ I         0 6 11.35        40.8 0.34            130            162 354 
 ZAR  HZ EP        0 5 52.01                             120    0.25 9  204 293 
 ZAR  HE ES        0 6 16.54                             120   -0.05 9  204 293 
 ZAR  HZ I         0 6 22.41        15.4 0.44            122            204 293 
 NOR  HZ IP        0 5 54.93                             117    0.05 8  233 235 
 NOR  HE ES        0 6 22.17                             117    0.02 8  233 235 
 NOR  HZ I         0 6 28.02         8.2 0.16            119            233 235 
 HEL  HZ EP        0 6  0.10                             113    0.60 8  271 256 
 HEL  HN ES        0 6 30.20                             113   -0.17 8  271 256 
 HEL  HZ I         0 6 37.53         6.2 0.44            115            271 256 
 GUY2CHZ EP        0 6  2.92                             111    0.06 7  299 235 
 GUY2CHN ES        0 6 36.84                             111    0.48 7  299 235 
 GUY2CHZ I         0 6 43.55         5.1 0.34                           299 235 
                                                                                
