 2011 1019 0038 53.5 L   6.268 -73.672112.7  RSN  5 0.2 1.3LRSN                1
 GAP=194        0.35       4.9     5.4  7.9  0.1826E+02  0.1793E+02  0.5575E+01E
 Epicentro: SANTA HELENA DEL OPON - SANTANDER                                  3
 ACTION:UPD 12-07-13 16:04 OP:ep   STATUS:               ID:20111019003853 L   I
 2011-10-19-0038-19S.COL___153                                                 6
 STAT SP IPHASW D HRMM SECON CODA AMPLIT PERI AZIMU VELO AIN AR TRES W  DIS CAZ7
 BAR2 SZ EP   1    039 11.39                             147    0.25 7 65.0  56 
 BAR2 SZ I         039 27.83        13.7 0.94                          65.0  56 
 RUS  HZ EP   2    039 12.42                             143    0.07 5 77.3 122 
 RUS  HN ES   2    039 26.76                             143   -0.26 5 77.3 122 
 RUS  HZ I         039 28.74         1.6 0.39                          77.3 122 
 BRR  HZ EP   2    039 12.60                             137   -0.27 5 92.9 357 
 BRR  HN ES   2    039 28.03                             137    0.07 5 92.9 357 
 BRR  HZ I         039 30.92         6.1 0.81                          92.9 357 
 PAM  SZ EP   3    039 19.47                             121   -0.44 2  160  42 
 PAM  SN ES   3    039 40.37                             121   -0.12 2  160  42 
 ZAR  HZ EP   2    039 22.33                             116    0.00 4  188 316 
 ZAR  HN ES   2    039 44.71                             116   -0.09 4  188 316 
 ZAR  HZ I         039 47.74         3.0 0.22                           188 316 
                                                                                
