 2011  519 0251 49.2 L   6.803 -73.082143.8  RSN  4 0.1 1.5LRSN                1
 GAP=202        0.36       7.3    14.2  9.4  0.8737E+02 -0.9945E+02 -0.3859E+02E
 Epicentro: LOS SANTOS - SANTANDER                                             3
 ACTION:UP  11-06-29 08:54 OP:tino STATUS:               ID:20110519025149 L   I
 2011-05-19-0240-00M.COL___142                                                 6
 STAT SP IPHASW D HRMM SECON CODA AMPLIT PERI AZIMU VELO SNR AR TRES W  DIS CAZ7
 BTL  SZ EP   2    252  8.30                             170    -0.3 5   24 302 
 GIR2 SZ EP   2    252  8.84                             166     0.2 5   33 338 
 BRR  HZ EP   1    252 10.44                             150     0.0 7   77 296 
 BRR  HZ I         252 16.52         8.3 0.59                            77 296 
 BRR  HE ES   1    252 27.10                             150     0.0 7   77 296 
 RUS  HZ EP   1    252 12.78                             143     0.0 7  101 180 
 RUS  HE ES   2    252 31.08                             143     0.0 5  101 180 
 RUS  HZ I         252 32.23         3.2 0.13                           101 180 
                                                                                
