 2016 1219 0739 11.3 L   6.831 -73.180146.5  RSN  5 0.5 1.2LRSN                1
 GAP=237        1.15       6.8     8.1  9.1  0.2126E+02  0.1046E+02  0.1228E+02E
 Epicentro: ZAPATOCA - SANTANDER                                               3
 ACTION:UPD 17-01-11 20:16 OP:rebc STATUS:               ID:20161219073911 L   I
 OLDACT:REG 16-12-19 13:36 OP:cog  STATUS:               ID:20161219073742     3
 2016-12-19-0738-00M.COL___312                                                 6
 STAT SP IPHASW D HRMM SECON CODA AMPLIT PERI AZIMU VELO AIN AR TRES W  DIS CAZ7
 BAR2 EZ EP        739 30.73                             169   -0.3910 26.4 181 
 BAR2 EZ ES        739 46.15                             169   -0.4010 26.4 181 
 BAR2 EZ I         739 47.74         3.9 0.29            169           26.4 181 
 BRR  HZ EP        739 32.55                             154    0.2610 66.3 297 
 BRR  HE ES        739 49.42                             154    0.7810 66.3 297 
 BRR  HZ I         739 56.33         1.9 0.27            152           66.3 297 
 RUS  HZ EP        739 35.66                             143    0.2310  104 174 
 RUS  HN ES        739 54.05                             143   -0.1710  104 174 
 RUS  HZ I         739 54.56         3.4 0.30            145            104 174 
 PTB  HZ EP        739 37.81                             133   -0.28 9  145 257 
 PTB  HN ES        739 58.36                             133   -0.60 9  145 257 
 PTB  HZ I         740  1.35         1.4 0.15            133            145 257 
 CHI  HZ EP   3    739 48.44                             117   -0.88 2  251 194 
 CHI  HE ES        740 19.75                             117    0.79 8  251 194 
 CHI  HZ I         740 23.77         0.9 0.28            119            251 194 
                                                                                
