 2010  819 0823 57.7 L   6.742 -73.167148.0  RSN  5 0.3 1.3LRSN                1
 GAP=157        0.62       6.2    12.3  9.3  0.4574E+02 -0.6672E+02 -0.3057E+02E
 Epicentro: VILLANUEVA - SANTANDER                                             3
 ACTION:UP  10-09-07 10:56 OP:vdl  STATUS:               ID:20100819082356 L   I
 2010-08-19-0821-44S.COL___117                                                 6
 STAT SP IPHASW D HRMM SECON CODA AMPLIT PERI AZIMU VELO SNR AR TRES W  DIS CAZ7
 BAR2 SZ EP   1    824 17.15                             174    -0.3 7   17 186 
 BAR2 SZ ES   2    824 32.47                             174    -0.4 5   17 186 
 BAR2 SZ I         824 33.86         7.7 0.18                            17 186 
 BTL  SZ EP        824 17.41                             171    -0.110   22 330 
 BRR  HZ EP   1    824 19.00                             153    -0.1 7   73 304 
 BRR  HE ES   1    824 36.10                             153     0.2 7   73 304 
 BRR  HZ I         824 39.46         3.7 0.27                            73 304 
 RUS  HZ EP   1    824 21.12                             147    -0.1 7   94 174 
 RUS  HN ES   1    824 39.92                             147     0.4 7   94 174 
 RUS  HZ I         824 41.39         1.8 0.17                            94 174 
 GRA  SZ EP   1    824 23.99                             136     0.3 7  133  18 
                                                                                
