 2011 1019 0918 37.5 L   6.779 -73.103147.6  RSN  8 0.2 1.6LRSN                1
 GAP=143        0.34       1.8     2.8  3.5  0.2614E+00  0.2870E+01 -0.1089E+01E
 Epicentro: LOS SANTOS - SANTANDER                                             3
 ACTION:UPD 12-07-13 16:04 OP:ep   STATUS:               ID:20111019091837 L   I
 2011-10-19-0915-59S.COL___153                                                 6
 STAT SP IPHASW D HRMM SECON CODA AMPLIT PERI AZIMU VELO AIN AR TRES W  DIS CAZ7
 BAR2 SZ EP   2    918 57.51                             171    0.15 5 22.4 203 
 BAR2 SZ ES   2    919 12.35                             171   -0.48 5 22.4 203 
 BAR2 SZ I         919 13.88        10.3 0.56                          22.4 203 
 PAM  SZ EP   1    918 59.86                             151   -0.01 7 76.3  36 
 PAM  SN ES   2    919 17.31                             151    0.00 5 76.3  36 
 BRR  HZ IP     D  918 59.05                             151   -0.1210 76.5 298 
 BRR  HZ I         918 59.26        11.6 0.14                          76.5 298 
 BRR  HE ES   2    919 16.36                             151    0.30 5 76.5 298 
 RUS  HZ EP        919  1.25                             145   -0.0310 98.0 179 
 RUS  HN ES        919 19.89                             145    0.0910 98.0 179 
 RUS  HZ I         919 21.85         2.3 0.36                          98.0 179 
 OCA  SZ EP   2    919  6.32                             129    0.07 5  163 352 
 OCA  SZ ES   2    919 28.95                             129    0.29 5  163 352 
 OCA  SZ I         919 32.58         4.6 0.25                           163 352 
 ZAR  HZ EP   2    919 10.73                             122    0.10 4  209 292 
 ZAR  HN ES   2    919 36.19                             122   -0.26 4  209 292 
 ZAR  HZ I         919 40.63         5.2 0.33                           209 292 
 NOR  SZ EP   2    919 13.48                             119   -0.15 4  237 236 
 NOR  SE ES   2    919 42.00                             119    0.21 4  237 236 
 HEL  HZ EP   2    919 18.43                             115    0.16 4  276 257 
 HEL  HZ I         919 56.71         2.4 0.39                           276 257 
                                                                                
