 2012  719 0038 11.6 L   6.757 -73.134146.0  RSN 10 0.4 2.2LRSN                1
 GAP=140        0.99       4.0     4.7  7.1 -0.2555E+01  0.1018E+02  0.9198E+00E
 Epicentro: LOS SANTOS - SANTANDER                                             3
 ACTION:UPD 12-08-14 11:45 OP:ep   STATUS:               ID:20120719003811 L   I
 2012-07-19-0030-00M.COL___201                                                 6
 STAT SP IPHASW D HRMM SECON CODA AMPLIT PERI AZIMU VELO AIN AR TRES W  DIS CAZ7
 BAR2 SZ EP        038 31.24                             172     0.110   19 196 
 BAR2 SZ ES   1    038 45.68                             172    -0.7 7   19 196 
 BAR2 SZ I         038 47.71        30.8 0.16            168             19 196 
 BRR  HZ EP        038 33.21                             151     0.310   75 301 
 BRR  HN ES   1    038 50.13                             151     0.5 7   75 301 
 BRR  HZ I         038 53.18        44.7 0.17            150             75 301 
 PAM  SZ EP        038 34.18                             150     0.210   80  37 
 PAM  SN ES   1    038 51.08                             150    -0.4 7   80  37 
 RUS  HZ EP        038 35.35                             145     0.410   96 177 
 RUS  HN ES   1    038 53.16                             145    -0.1 7   96 177 
 RUS  HZ I         038 56.06        14.4 0.37            145             96 177 
 PTB  HZ EP   1    038 37.96                             132    -0.6 7  148 261 
 PTB  HE ES   1    038 59.85                             132     0.2 7  148 261 
 PTB  HZ I         039  2.82        12.7 0.13            131            148 261 
 OCA  HZ EP   1    038 39.99                             129    -0.3 7  165 353 
 OCA  HE ES   1    039  2.90                             129     0.1 7  165 353 
 OCA  HZ I         039  5.12        34.3 0.19            131            165 353 
 ZAR  HZ EP        038 44.28                             122     0.0 8  207 293 
 ZAR  HN ES   1    039  9.49                             122    -0.4 6  207 293 
 ZAR  HZ I         039 16.81        18.0 0.21            122            207 293 
 NOR  SZ EP        038 47.42                             119     0.3 8  233 236 
 NOR  SE ES   1    039 15.55                             119     0.7 6  233 236 
 CHI  HN ES   1    039 17.33                             117    -0.5 6  244 196 
 CHI  HZ I         039 27.00         4.3 0.44            118            244 196 
 HEL  HZ EP   1    038 50.93                             115    -0.9 6  272 257 
 HEL  HN ES   1    039 22.81                             115    -0.4 6  272 257 
 HEL  HZ I         039 29.92        10.4 0.44            115            272 257 
