 2012 1019 0542 12.2 L   6.771 -73.139139.1  RSN  8 0.3 2.0LRSN                1
 GAP= 72        0.57       3.1     2.5  4.1  0.1402E+01  0.2174E+01  0.4189E+00E
 Epicentro: LOS SANTOS - SANTANDER                                             3
 ACTION:UPD 12-11-22 17:04 OP:ep   STATUS:               ID:20121019054212 L   I
 2012-10-19-0540-00M.COL___231                                                 6
 STAT SP IPHASW D HRMM SECON CODA AMPLIT PERI AZIMU VELO AIN AR TRES W  DIS CAZ7
 BAR2 SZ EP   1    542 30.88                             171   -0.09 7 20.3 194 
 BAR2 SZ I         542 31.04        39.8 0.21                          20.3 194 
 BAR2 SZ ES   1    542 45.36                             171   -0.25 7 20.3 194 
 GIR2 SZ EP        542 30.97                             165   -0.2110 34.6 350 
 GIR2 SZ ES   1    542 45.79                             165   -0.19 7 34.6 350 
 BRR  HZ EP   1    542 32.79                             151    0.02 7 73.4 300 
 BRR  HN ES   1    542 49.61                             151    0.80 7 73.4 300 
 BRR  HZ I         542 54.60        27.2 0.14                          73.4 300 
 PAM  SZ EP   1    542 33.92                             149    0.08 7 79.4  38 
 PAM  SZ I         542 34.14        52.8 0.20                          79.4  38 
 PAM  SN ES   1    542 50.51                             149   -0.21 7 79.4  38 
 RUS  HZ EP   1    542 34.87                             143   -0.19 7 97.3 176 
 RUS  HZ I         542 35.76         4.3 0.11                          97.3 176 
 RUS  HN ES        542 52.95                             143    0.0610 97.3 176 
 RUS  HN I         542 54.83        19.5 0.32                          97.3 176 
 TAM  HZ EP   1    542 39.28                             129    0.07 7  154 104 
 TAM  HZ I         542 39.42        14.2 0.20                           154 104 
 TAM  HN ES   1    543  0.64                             129    0.36 7  154 104 
 ZAR  HZ EP   1    542 44.24                             121   -0.18 6  206 293 
 ZAR  HN ES   1    543  9.53                             121   -0.03 6  206 293 
 ZAR  HZ I         543 12.02         8.0 0.24                           206 293 
 HEL  HZ EP   1    542 52.44                             113    0.36 6  272 257 
 HEL  HZ I         542 53.48         2.2 0.16                           272 257 
 HEL  HN ES   1    543 22.96                             113   -0.22 6  272 257 
 HEL  HN I         543 30.51         5.1 0.33                           272 257 
                                                                                
