 2017  419 0443  5.3 L   6.819 -73.139151.6  RSN 12 0.3 2.0LRSN                1
 GAP=112        0.78       2.6     2.7  4.2  0.9597E+00  0.2668E+01  0.1286E+01E
 Epicentro: LOS SANTOS - SANTANDER                                             3
 ACTION:UPD 17-05-30 21:14 OP:jn   STATUS:               ID:20170419044305 L   I
 OLDACT:REG 17-04-19 13:07 OP:dnl  STATUS:               ID:20170419043744     3
 2017-04-19-0438-00M.COL___368                                                 6
 STAT SP IPHASW D HRMM SECON CODA AMPLIT PERI AZIMU VELO AIN AR TRES W  DIS CAZ7
 BAR2 EZ IP     C  443 25.46                             170   -0.1810 25.5 191 
 BAR2 EZ ES        443 41.31                             170   -0.2310 25.5 191 
 BAR2 EZ I         443 43.01        32.2 0.26            168           25.5 191 
 BRR  HZ EP        443 27.39                             154    0.3610 70.9 297 
 BRR  HE ES        443 44.60                             154    0.5910 70.9 297 
 BRR  HZ I         443 46.84        10.2 0.22            150           70.9 297 
 PAM  EZ EP        443 28.26                             152    0.2710 75.3  40 
 PAM  EN ES        443 45.49                             152   -0.2210 75.3  40 
 PAM  EZ I         443 47.74        13.1 0.62            156           75.3  40 
 RUS  HZ EP        443 29.59                             144   -0.1510  103 177 
 RUS  HN ES        443 48.75                             144   -0.0810  103 177 
 RUS  HZ I         443 49.22        10.1 0.28            145            103 177 
 PTB  HZ EP        443 32.31                             133   -0.50 9  149 258 
 PTB  HE ES        443 53.79                             133   -0.52 9  149 258 
 PTB  HZ I         443 57.47         9.4 0.18            131            149 258 
 SPBC HZ EP   2    443 34.13                             130   -0.28 5  165 219 
 SPBC HN ES        443 57.00                             130   -0.15 9  165 219 
 SPBC HZ I         443 59.24        21.4 0.10            129            165 219 
 YPLC HZ EP        443 35.67                             128    0.04 9  178 152 
 YPLC HN ES        443 59.60                             128    0.28 9  178 152 
 YPLC HZ I         444  0.58        10.7 0.26            129            178 152 
 ZAR  HZ EP        443 38.13                             124    0.05 9  204 292 
 ZAR  HE ES        444  3.75                             124    0.06 9  204 292 
 ZAR  HZ I         444 11.90        10.8 0.42            123            204 292 
 NOR  HZ EP        443 41.78                             119    0.25 8  237 234 
 NOR  HE ES        444 10.44                             119    0.62 8  237 234 
 NOR  HZ I         444 15.25         5.4 0.16            119            237 234 
 CHI  HZ EP   2    443 43.54                             118    0.01 4  251 195 
 CHI  HN ES        444 13.34                             118   -0.04 8  251 195 
 CHI  HZ I         444 19.76         4.2 0.32            118            251 195 
 HEL  HZ EP   2    443 46.50                             116    0.59 4  273 255 
 HEL  HE ES   4    444 21.07                             116    3.45 0  273 255 
 HEL  HZ I         444 26.43         4.3 0.38            115            273 255 
 URE  HZ EP        443 46.16                             115   -0.45 7  284 291 
 URE  HE ES   4    444 16.92                             115   -1.94 0  284 291 
 URE  HZ I         444 25.25         5.2 0.36            114            284 291 
                                                                                
