 2017  519 0557 57.8 L   6.822 -73.145148.0  RSN 22 0.5 2.4LRSN                1
 GAP=111        0.96       2.6     3.0  5.2  0.2210E+00  0.3401E+01  0.2718E+01E
 Epicentro: LOS SANTOS - SANTANDER                                             3
 ACTION:UPD 17-06-16 13:37 OP:jn   STATUS:               ID:20170519055757 L   I
 OLDACT:UP  17-05-19 15:03 OP:dnl  STATUS:               ID:20170519054735     3
 OLDACT:UP  17-05-19 15:02 OP:dnl  STATUS:               ID:20170519054735     3
 OLDACT:REG 17-05-19 12:52 OP:dnl  STATUS:               ID:20170519054735     3
 2017-05-19-0548-00M.COL___353                                                 6
 STAT SP IPHASW D HRMM SECON CODA AMPLIT PERI AZIMU VELO AIN AR TRES W  DIS CAZ7
 BRR  HZ IP     D  558 19.13                             153    0.0310 70.2 297 
 BRR  HE ES        558 36.41                             153    0.6710 70.2 297 
 BRR  HZ I         558 38.97        40.2 0.46            152           70.2 297 
 PAM  EZ EP        558 20.17                             152    0.0610 75.5  41 
 PAM  EN ES        558 37.23                             152   -0.3010 75.5  41 
 PAM  EZ I         558 39.44        60.6 0.46            158           75.5  41 
 PTB  HZ EP   9    558 23.75                             133   -1.21 0  148 258 
 PTB  HN ES        558 45.10                             132    0.13 9  148 258 
 PTB  HZ I         558 52.19        35.9 0.52            132            148 258 
 SPBC HZ EP        558 26.19                             129   -0.42 9  165 218 
 SPBC HE ES        558 48.57                             129   -0.55 9  165 218 
 SPBC HZ I         558 51.09        40.6 0.20            130            165 218 
 YPLC HZ IP     C  558 27.88                             127   -0.04 9  179 152 
 YPLC HZ ES        558 52.10                             127    0.66 9  179 152 
 YPLC HZ I         558 52.79        39.8 0.28            130            179 152 
 ZAR  HZ EP        558 29.71                             123   -0.56 9  203 292 
 ZAR  HN ES        558 55.33                             123   -0.30 9  203 292 
 ZAR  HZ I         559  0.89        25.9 0.32            124            203 292 
 NOR  HZ EP        558 33.43                             119   -0.35 8  236 234 
 NOR  HE ES        559  2.02                             119    0.15 8  236 234 
 NOR  HZ I         559  8.28        24.9 0.16            120            236 234 
 CHI  HZ EP        558 35.64                             117   -0.20 8  251 195 
 CHI  HN ES        559  5.53                             117   -0.01 8  251 195 
 CHI  HZ I         559  8.28        19.0 0.42            119            251 195 
 ROSC BZ EP   4    558 37.62                             117    1.39 0  255 211 
 ROSC BE ES   4    559  9.49                             117    3.25 0  255 211 
 ROSC BZ I         559 15.73        22.8 0.35            118            255 211 
 HEL  HZ EP   4    558 39.64                             115    1.48 0  273 255 
 HEL  HE ES        559  9.66                             115   -0.02 8  273 255 
 HEL  HZ I         559 17.73        14.6 0.34            116            273 255 
 VIL  EZ EP   2    558 41.31                             112   -0.24 4  306 191 
 VIL  EN ES        559 14.88                             112   -0.82 7  306 191 
 VIL  EZ I         559 18.20        15.2 0.52            114            306 191 
 PTGC HZ EP   4    558 40.63                             112   -1.34 0  311 159 
 PTGC HN ES   4    559 14.14                             112   -2.31 0  311 159 
 PTGC HZ I         559 16.51        18.0 0.38            114            311 159 
 ELA  HZ EP   4    558 47.19                             111    2.30 0  331 229 
 ELA  HN ES   4    559 26.36                             111    4.71 0  331 229 
 ELA  HZ I         559 32.04         7.8 0.34            112            331 229 
 CBOC HZ EP        558 45.67                             110    0.81 7  334 252 
 CBOC HN ES        559 22.50                             110    0.90 7  334 252 
 CBOC HZ I         559 24.80         3.8 0.28            112            334 252 
 DBB  EZ EP        558 45.77                             110    0.45 7  339 274 
 DBB  EE ES   4    559 20.31                             110   -2.10 0  339 274 
 DBB  EZ I         559 23.54         7.3 0.20            111            339 274 
 ARGC HZ EP        558 47.48                             109    0.23 6  357 340 
 ARGC HN ES        559 25.86                             109    0.02 6  357 340 
 ARGC HZ I         559 26.65         8.7 0.38            111            357 340 
 ORTC HZ EP        558 52.33                             107    0.34 6  397 216 
 ORTC HE ES        559 35.36                             107    1.07 6  397 216 
 ORTC HZ I         559 41.48         6.5 0.64            108            397 216 
 APAC HZ EP   4    558 50.74                             107   -1.21 0  398 288 
 APAC HN ES        559 33.67                             107   -0.55 6  398 288 
 APAC HZ I         559 38.31         4.7 0.48            108            398 288 
 SJC  HZ EP   4    558 50.92                             106   -2.25 0  407 327 
 SJC  HN ES   4    559 32.43                             106   -3.95 0  407 327 
 SJC  HZ I         559 36.75         4.3 0.46            108            407 327 
 PAL  HZ EP        558 53.15                             106    0.00 6  407 239 
 PAL  HN ES        559 35.72                             106   -0.63 6  407 239 
 PAL  HZ I         559 41.05         3.9 0.28            108            407 239 
 YOT  HZ EP   2    559  1.73                             104    0.67 2  474 229 
 YOT  HE ES   4    559 54.01                             104    3.57 0  474 229 
 GUA  EE ES   4    559 48.43                             103   -2.35 0  476 173 
 GUA  EZ I         559 51.94         6.8 0.48            105            476 173 
                                                                                
