 2014 1219 0902 32.0 L   6.529 -73.545108.3  RSN 11 0.5 1.6LRSN                1
 GAP= 64        1.38       3.4     4.0  8.5 -0.1756E+01  0.1155E+02 -0.5769E+01E
 Epicentro: EL CARMEN - SANTANDER                                              3
 ACTION:UPD 15-02-10 17:05 OP:nd   STATUS:               ID:20141219090232 L   I
 OLDACT:REG 14-12-19 13:07 OP:y    STATUS:               ID:20141219085746     3
 2014-12-19-0857-46M.COL___293                                                 6
 STAT SP IPHASW D HRMM SECON CODA AMPLIT PERI AZIMU VELO AIN AR TRES W  DIS CAZ7
 BAR2 EZ EP        9 2 48.59                             158    0.8410 40.7  80 
 BAR2 EZ ES        9 3  0.44                             158    0.3810 40.7  80 
 BAR2 EZ I         9 3  2.49        32.8 0.48            160           40.7  80 
 RUS  HZ EP        9 2 51.78                             139    0.6710 86.9 144 
 RUS  HN ES        9 3  5.10                             139   -0.9410 86.9 144 
 PTB  HZ EP     D  9 2 51.37                             133   -0.2610  101 271 
 PTB  HN ES        9 3  6.40                             133   -0.5610  101 271 
 PTB  HZ I         9 3  7.76         5.2 0.10            133            101 271 
 SPBC HZ EP        9 2 53.82                             130    0.9710  113 211 
 SPBC HE ES        9 3  9.52                             130    0.3810  113 211 
 SPBC HZ I         9 3 12.96        10.2 0.14            130            113 211 
 PAM  SZ EP        9 2 54.66                             126   -0.2910  129  46 
 PAM  SN ES        9 3 12.70                             126   -0.1810  129  46 
 PAM  SZ I         9 3 15.67         4.9 0.28            127            129  46 
 ZAR  HZ EP        9 2 59.61                             116   -0.01 9  180 306 
 ZAR  HN ES        9 3 21.59                             116    0.41 9  180 306 
 ZAR  HZ I         9 3 25.99         7.0 0.34            116            180 306 
 OCA  HE ES        9 3 23.46                             114   -0.16 9  191   7 
 OCA  HZ I         9 3 28.67         6.8 0.44            115            191   7 
 CHI  HZ EP        9 3  3.06                             112   -0.53 8  211 186 
 CHI  HE ES        9 3 27.46                             112   -0.79 8  211 186 
 CHI  HZ I         9 3 34.64         2.2 0.78            113            211 186 
 HEL  HZ EP        9 3  5.18                             111    0.33 8  223 260 
 HEL  HN ES        9 3 30.31                             111   -0.19 8  223 260 
 HEL  HZ I         9 3 36.80         2.1 0.24            111            223 260 
 SML  HZ EP        9 3  8.50                             107    0.05 8  258 347 
 SML  HN ES        9 3 36.25                             107   -0.66 8  258 347 
 SML  HZ I         9 3 46.53         8.0 0.10            107            258 347 
 SJC  HN ES   4    9 4  7.05                              98   -3.06 0  414 334 
 SJC  HZ I         9 4  9.86         1.0 0.46             98            414 334 
                                                                                
