 2013  219 0329  0.5 L   6.090 -73.800 97.0  RSN  5 0.2 1.0LRSN                1
 GAP=127        0.43       2.1     2.7  6.9  0.1317E+01  0.2747E+01  0.3571E+01E
 Epicentro: EL PEON - SANTANDER                                                3
 ACTION:UPD 13-03-12 09:34 OP:ep   STATUS:               ID:20130219032900 L   I
 2013-02-19-0327-42M.COL___186                                                 6
 STAT SP IPHASW D HRMM SECON CODA AMPLIT PERI AZIMU VELO AIN AR TRES W  DIS CAZ7
 RUS  HZ EP   1    329 17.99                             137   -0.20 7 82.3 105 
 RUS  HN ES   1    329 32.24                             137    0.22 7 82.3 105 
 RUS  HZ I         329 33.06         2.6 0.18            146           82.3 105 
 PTB  HN ES   1    329 31.65                             135   -0.09 7 88.0 304 
 PTB  HZ I         329 35.83         2.8 0.11            138           88.0 304 
 BAR2 SZ ES   1    329 32.03                             135   -0.25 7 88.1  51 
 BRR  HZ EP   1    329 20.44                             127    0.10 7  113   5 
 BRR  HN ES   1    329 36.05                             127    0.20 7  113   5 
 CHI  HE ES   1    329 45.96                             117    0.04 7  162 177 
                                                                                
