 2013  719 0137 31.1 L   6.814 -73.150139.9  RSN 18 0.4 3.0LRSN 3.4WRSN        1
 SPEC AVERAGE  MO 14.1 ST  7.5 OM  2.4 f0 3.69 R0.5382 AL 2.45 WI 24.0 MW  3.4 3
 SPEC SD       MO  0.3 ST  8.7 OM  0.5 f0 1.01 R0.1791 AL      WI      MW  0.2 3
 GAP=112        0.91       2.2     2.6  4.6 -0.1380E+00  0.2587E+01  0.6808E+00E
 Epicentro: LOS SANTOS - SANTANDER                                             3
 SPEC PRA HH Z MO 14.2 ST  2.2 OM  1.4 f0 4.18 R0.6727 AL 2.13 WI 32.1 MW  3.4 3
 SPEC PRA HH Z T 13822 K 0.000 GD  417 VP 7.60 DE 3.20 Q0300.0 QA 0.60 VS 4.20 3
 SPEC SML HH Z MO 14.3 ST  5.5 OM  1.7 f0 5.13 R0.5481 AL 2.25 WI 26.5 MW  3.5 3
 SPEC SML HH Z T 138 5 K 0.000 GD  279 VP 7.60 DE 3.20 Q0300.0 QA 0.60 VS 4.20 3
 SPEC PTB HH Z MO 13.8 ST  2.9 OM  2.1 f0 3.37 R0.4611 AL 1.92 WI 23.9 MW  3.1 3
 SPEC PTB HH Z T 13815 K 0.000 GD  203 VS 4.20 DE 3.20 Q0300.0 QA 0.60 VS 4.20 3
 SPEC RUS HH N MO 14.0 ST  2.2 OM  2.4 f0 2.59 R0.6000 AL 2.28 WI 21.2 MW  3.3 3
 SPEC RUS HH N T 13810 K 0.000 GD  173 VS 4.20 DE 3.20 Q0300.0 QA 0.60 VS 4.20 3
 SPEC MACCHH Z MO 14.5 ST  1.5 OM  1.6 f0 2.88 R0.9764 AL 2.58 WI 28.1 MW  3.6 3
 SPEC MACCHH Z T 13834 K 0.000 GD  540 VP 7.60 DE 3.20 Q0300.0 QA 0.60 VS 4.20 3
 SPECGUY2CHH N MO 14.3 ST  1.3 OM 2.41 f0 1.74 R0.8924 AL 2.53 WI 24.0 MW  3.5 3
 SPECGUY2CHH N T 13846 K 0.000 GD  333 VS 4.20 DE 3.20 Q0300.0 QA 0.60 VS 4.20 3
 SPEC HEL HH N MO 14.0 ST  1.7 OM  2.1 f0 2.47 R0.6291 AL 1.96 WI 32.2 MW  3.3 3
 SPEC HEL HH N T 13838 K 0.000 GD  305 VS 4.20 DE 3.20 Q0300.0 QA 0.60 VS 4.20 3
 SPEC NOR HH Z MO 13.8 ST 10.0 OM  2.0 f0 5.01 R0.3102 AL 2.48 WI 22.4 MW  3.2 3
 SPEC NOR HH Z T 13831 K 0.000 GD  273 VS 4.20 DE 3.20 Q0300.0 QA 0.60 VS 4.20 3
 SPEC OCA HH N MO 14.7 ST 31.5 OM  3.0 f0 3.71 R0.4189 AL 2.62 WI 25.6 MW  3.8 3
 SPEC OCA HH N T 13818 K 0.000 GD  211 VS 4.20 DE 3.20 Q0300.0 QA 0.60 VS 4.20 3
 SPEC CHI HH N MO 14.3 ST  5.0 OM  2.4 f0 2.88 R0.5396 AL 3.11 WI 14.9 MW  3.4 3
 SPEC CHI HH N T 13836 K 0.000 GD  286 VS 4.20 DE 3.20 Q0300.0 QA 0.60 VS 4.20 3
 SPEC BRR HH N MO 14.1 ST 17.5 OM  2.5 f0 4.95 R0.3139 AL 3.13 WI 22.9 MW  3.3 3
 SPEC BRR HH N T 138 6 K 0.000 GD  156 VS 4.20 DE 3.20 Q0300.0 QA 0.60 VS 4.20 3
 SPEC BAR2SH Z MO 13.7 ST  2.7 OM  2.2 f0 3.45 R0.4504 AL 2.50 WI 14.7 MW  3.1 3
 SPEC BAR2SH Z T 138 3 K 0.000 GD  142 VS 4.20 DE 3.20 Q0300.0 QA 0.60 VS 4.20 3
 ACTION:UPD 13-08-12 10:38 OP:ep   STATUS:               ID:20130719013730 L   I
 OLDACT:UP  13-07-19 09:33 OP:mh   STATUS:               ID:20130719013730 L   3
 OLDACT:UPD 13-07-19 09:03 OP:stll STATUS:               ID:20130719013730 L   3
 2013-07-19-0129-59M.COL___267                                                 6
 STAT SP IPHASW D HRMM SECON CODA AMPLIT PERI AZIMU VELO AIN AR TRES W  DIS CAZ7
 BAR2 SZ IP     C  137 50.28                             169    0.2010 24.8 188 
 BAR2 SZ ES   1    138  4.70                             169   -0.17 7 24.8 188 
 BAR2 SZ I         138  6.28       148.0 0.34            170           24.8 188 
 GIR2 SZ EP     C  137 50.41                             167    0.3510 29.7 351 
 GIR2 SZ ES   1    138  4.62                             167   -0.21 7 29.7 351 
 GIR2 SZ I         138  6.69        90.2 0.22            168           29.7 351 
 BRR  HZ IP     C  137 52.20                             152    0.6210 70.0 298 
 BRR  HN ES   1    138  7.96                             152    0.43 7 70.0 298 
 BRR  HZ I         138 13.20       137.7 0.12            152           70.0 298 
 RUS  HZ EP        137 54.29                             142   -0.1310  102 176 
 RUS  HN ES        138 12.15                             142   -0.4510  102 176 
 RUS  HN I         138 14.19       278.6 0.40            144            102 176 
 PTB  HZ EP     C  137 56.95                             131   -0.65 9  148 258 
 PTB  HN ES        138 18.92                             131    0.66 9  148 258 
 PTB  HN I         138 20.24       350.9 0.30            132            148 258 
 TAM  HZ EP        137 58.66                             129    0.23 9  156 105 
 TAM  HN ES        138 19.54                             129   -0.19 9  156 105 
 TAM  HN I         138 20.78        82.2 0.26            132            156 105 
 OCA  HZ EP        137 58.63                             129   -0.20 9  159 353 
 OCA  HN ES        138 20.28                             129   -0.17 9  159 353 
 OCA  HZ I         138 24.18       169.0 0.20            131            159 353 
 SPBC HZ EP   1    137 59.34                             127    0.07 7  164 219 
 SPBC HN ES   1    138 20.57                             127   -0.65 7  164 219 
 YOP  SZ EP   1    138  1.15                             125    0.23 7  181 153 
 YOP  SN ES        138 24.64                             125    0.49 9  181 153 
 YOP  SN I         138 25.74       402.9 0.46            127            181 153 
 NOR  HZ IP     D  138  6.95                             117    0.38 8  235 234 
 NOR  HN ES        138 33.80                             117   -0.42 8  235 234 
 NOR  HN I         138 36.30       157.0 0.16            119            235 234 
 SML  HZ EP        138  6.48                             116   -0.77 8  242 335 
 SML  HN ES   1    138 34.74                             116   -0.69 6  242 335 
 SML  HZ I         138 37.78        76.4 0.14            118            242 335 
 CHI  HZ EP   1    138  8.59                             116   -0.06 6  250 195 
 CHI  HN ES        138 37.67                             116   -0.26 8  250 195 
 CHI  HZ I         138 42.00        35.9 0.44            117            250 195 
 HEL  HZ EP   1    138 10.93                             114   -0.10 6  272 255 
 HEL  HN ES        138 41.92                             114   -0.24 8  272 255 
 HEL  HZ I         138 47.29        40.5 0.32            115            272 255 
 GUY2CHZ EP        138 15.18                             111    0.66 7  302 234 
 GUY2CHN ES        138 48.95                             111    0.58 7  302 234 
 GUY2CHZ I         138 57.71        46.1 0.54                           302 234 
 ARGC HZ EP   1    138 20.98                             107    0.61 5  358 340 
 ARGC HN ES   1    138 59.19                             107    0.40 5  358 340 
 PRA  HZ EP        138 24.15                             105   -0.43 6  393 209 
 PRA  HN ES        139  6.03                             105   -0.24 6  393 209 
 PRA  HZ I         139 16.38        29.1 0.52            107            393 209 
 ORTC HZ EP   1    138 24.60                             105   -0.36 4  396 216 
 ORTC HN ES        139  6.94                             105   -0.01 6  396 216 
 SJC  HZ EP   4    138 24.94                             105   -1.37 0  408 327 
 SJC  HN ES   4    139  5.66                             105   -3.70 0  408 327 
 MACC HZ EP   4    138 37.63                             101   -2.24 0  522 189 
 MACC HN ES   4    139 29.05                             101   -4.44 0  522 189 
 MACC HN I         139 32.53        21.4 0.20            102            522 189 
                                                                                
