 2017  619 0741 50.4 L   6.745 -73.177147.2  RSN  4 0.3 3.4LRSN                1
 GAP=275        0.75       4.9     7.9  7.7 -0.2069E+01 -0.8025E+01 -0.1474E+01E
 Epicentro: VILLANUEVA - SANTANDER                                             3
 ACTION:UPD 17-09-14 16:53 OP:jn   STATUS:               ID:20170619074150 L   I
 OLDACT:UP  17-06-19 18:29 OP:lv   STATUS:               ID:20170619073741d    3
 OLDACT:DUP 17-06-19 18:27 OP:lv   STATUS:               ID:20170619073741d    3
 2017-06-19-0738-00M.COL___337                                                 6
 STAT SP IPHASW D HRMM SECON CODA AMPLIT PERI AZIMU VELO AIN AR TRES W  DIS CAZ7
 BRR  HZ EP        742 11.49                             153   -0.2410 71.4 304 
 BRR  HN ES        742 28.51                             153    0.1510 71.4 304 
 BRR  HZ I         742 29.40       509.8 0.03            154           71.4 304 
 PTB  HZ EP        742 16.75                             133   -0.35 9  143 261 
 PTB  HN ES        742 37.69                             133   -0.23 9  143 261 
 SPBC HN ES        742 40.43                             131    0.24 9  156 219 
 ZAR  HZ EP        742 23.45                             123    0.58 9  203 294 
 ZAR  HN ES        742 48.15                             123   -0.04 9  203 294 
                                                                                
