 2017  819 0543 57.1 L   6.788 -73.137141.5  RSN 20 0.5 2.1LRSN                1
 GAP= 71        0.97       2.9     2.6  4.9  0.5658E+00  0.3493E+01  0.2467E+01E
 Epicentro: LOS SANTOS - SANTANDER                                             3
 ACTION:UPD 17-09-04 20:22 OP:rebc STATUS:               ID:20170819054357 L   I
 OLDACT:UP  17-08-19 14:43 OP:and  STATUS:               ID:20170819053736     3
 OLDACT:UP  17-08-19 14:42 OP:and  STATUS:               ID:20170819053736     3
 OLDACT:UP  17-08-19 14:41 OP:and  STATUS:               ID:20170819053736     3
 OLDACT:UP  17-08-19 14:40 OP:and  STATUS:               ID:20170819053736     3
 OLDACT:UP  17-08-19 14:39 OP:and  STATUS:               ID:20170819053736     3
 OLDACT:UP  17-08-19 14:39 OP:and  STATUS:               ID:20170819053736     3
 OLDACT:UP  17-08-19 14:38 OP:and  STATUS:               ID:20170819053736     3
 OLDACT:UP  17-08-19 14:37 OP:and  STATUS:               ID:20170819053736     3
 OLDACT:REG 17-08-19 12:37 OP:and  STATUS:               ID:20170819053736     3
 2017-08-19-0538-00M.COL___411                                                 6
 STAT SP IPHASW D HRMM SECON CODA AMPLIT PERI AZIMU VELO AIN AR TRES W  DIS CAZ7
 BAR2 EZ IP     C  544 16.08                             171   -0.1110 22.2 193 
 BAR2 EZ ES        544 30.48                             171   -0.6010 22.2 193 
 BAR2 EZ I         544 31.85        35.7 0.18            167           22.2 193 
 BRR  HZ IP     C  544 18.02                             151    0.1510 72.7 299 
 BRR  HN ES        544 34.69                             151    0.6210 72.7 299 
 BRR  HZ I         544 38.90        21.8 0.10            143           72.7 299 
 PAM  EZ EP        544 19.04                             150    0.1610 77.8  38 
 PAM  EN ES        544 35.80                             150   -0.0810 77.8  38 
 PAM  EZ I         544 38.45        20.8 0.64            147           77.8  38 
 RUS  HZ IP     C  544 20.06                             143   -0.2610 99.2 177 
 RUS  HN ES        544 38.19                             143   -0.2610 99.2 177 
 RUS  HZ I         544 39.93        14.4 0.48            139           99.2 177 
 TAM  HZ IP     D  544 24.49                             130    0.18 9  154 105 
 TAM  HN ES        544 45.58                             130    0.03 9  154 105 
 TAM  HZ I         544 46.43        12.5 0.24            127            154 105 
 SPBC HZ EP        544 25.01                             128   -0.22 9  163 220 
 SPBC HN ES        544 47.97                             128    0.80 9  163 220 
 SPBC HZ I         544 52.79        20.2 0.10            122            163 220 
 YPLC HZ EP        544 26.53                             126    0.11 9  175 151 
 YPLC HN ES        544 49.42                             126    0.13 9  175 151 
 YPLC HZ I         544 52.84        30.7 0.26            122            175 151 
 ZAR  HZ EP        544 29.30                             121   -0.11 8  205 292 
 ZAR  HN ES        544 54.99                             121    0.38 8  205 292 
 ZAR  HZ I         545  3.11        13.1 0.19            115            205 292 
 TABC EZ EP        544 33.45                             118    0.93 8  229 211 
 TABC EZ ES        544 59.30                             118   -0.86 8  229 211 
 TABC EZ I         545 13.12        10.1 0.54            113            229 211 
 NOR  HZ EP        544 32.10                             117   -0.48 8  235 235 
 NOR  HN ES        545  0.57                             117    0.31 8  235 235 
 NOR  HZ I         545  5.70        10.1 0.30            112            235 235 
 CHI  HZ EP   2    544 34.75                             116    0.31 4  248 195 
 CHI  HN ES        545  3.37                             116   -0.21 8  248 195 
 CHI  HZ I         545  7.59         5.1 0.28            112            248 195 
 ROSC BZ EP   3    544 36.30                             116    1.39 2  252 211 
 ROSC BN ES   4    545  7.78                             116    3.37 0  252 211 
 ROSC BZ I         545 12.31         9.7 0.60            111            252 211 
 HEL  HZ EP   3    544 38.62                             114    1.46 2  273 256 
 HEL  HN ES        545  8.26                             114   -0.15 8  273 256 
 HEL  HZ I         545 15.07         9.2 0.30            108            273 256 
 URE  HZ EP        544 37.43                             113   -0.68 7  285 292 
 URE  HZ I         545 23.87         7.3 0.18            107            285 292 
 GUY2CHZ EP   3    544 41.55                             111    1.04 2  301 235 
 GUY2CHN ES   4    545 16.95                             111    2.58 0  301 235 
 GUY2CHZ I         545 21.47         4.5 0.54                           301 235 
 PTGC HZ EP   3    544 39.42                             111   -1.16 2  307 159 
 PTGC HN ES   4    545 12.27                             111   -2.23 0  307 159 
 PTGC HZ I         545 18.64         8.9 0.52            107            307 159 
 ELA  HN ES   4    545 24.32                             109    4.18 0  329 230 
 ELA  HZ I         545 32.79         4.5 0.46            105            329 230 
 DBB  EN ES        545 20.76                             109   -0.75 7  341 274 
 DBB  EZ I         545 25.90         4.2 0.16            104            341 274 
 PRA  HZ EP        544 50.80                             106    0.41 6  391 210 
 PRA  HN ES   3    545 33.87                             106    1.91 1  391 210 
 PRA  HZ I         545 36.60         6.6 0.18            102            391 210 
 SJC  HZ EP   3    544 51.13                             105   -1.58 1  411 327 
 SJC  HN ES   4    545 31.60                             105   -4.49 0  411 327 
 SJC  HZ I         545 35.45         2.1 0.42            101            411 327 
                                                                                
