 2014 1119 0138  8.3 L   6.760 -73.197141.1  RSN  7 0.5 1.5LRSN                1
 GAP=132        1.31       6.0     6.3  8.8 -0.8929E+01  0.6599E+01  0.5947E+01E
 Epicentro: ZAPATOCA - SANTANDER                                               3
 ACTION:UPD 14-12-19 15:44 OP:nd   STATUS:               ID:20141119013808 L   I
 OLDACT:REG 14-11-19 13:38 OP:fm   STATUS:               ID:20141119012743     3
 2014-11-19-0127-43M.COL___286                                                 6
 STAT SP IPHASW D HRMM SECON CODA AMPLIT PERI AZIMU VELO AIN AR TRES W  DIS CAZ7
 BAR2 SZ EP        138 27.38                             172    0.1310 18.6 175 
 BAR2 SZ ES        138 42.05                             172   -0.0010 18.6 175 
 BAR2 SZ I         138 43.63         5.5 0.38            171           18.6 175 
 BRR  HZ EP        138 29.17                             153    0.4110 68.6 304 
 BRR  HN ES        138 45.71                             153    0.9610 68.6 304 
 BRR  HZ I         138 50.83         8.5 0.26            152           68.6 304 
 PAM  SZ EP        138 30.19                             148   -0.2410 84.4  41 
 PAM  SN ES        138 46.92                             148   -0.8010 84.4  41 
 PAM  SZ I         138 49.12         5.6 0.44            153           84.4  41 
 RUS  HZ EP        138 31.60                             144    0.3210 96.7 172 
 RUS  HN ES        138 49.56                             144    0.3310 96.7 172 
 RUS  HZ I         138 51.59         3.3 0.42            146           96.7 172 
 PTB  HZ EP        138 34.37                             132    0.10 9  141 260 
 PTB  HN ES        138 53.72                             132   -0.83 9  141 260 
 PTB  HZ I         138 57.73         3.8 0.16            133            141 260 
 SPBC HN ES        138 56.68                             129   -0.49 9  156 218 
 SPBC HZ I         139  4.20         6.1 0.10            131            156 218 
 PRA  HZ EP        139  0.74                             106   -0.11 6  385 209 
                                                                                
