 2013  919 0758 52.0 L   6.800 -73.109148.9  RSN  7 0.5 1.6LRSN                1
 GAP=204        1.00       5.8     7.6  7.7  0.1255E+02  0.1249E+02 -0.8111E+00E
 Epicentro: LOS SANTOS - SANTANDER                                             3
 ACTION:UPD 13-10-22 09:23 OP:ep   STATUS:               ID:20130919075852 L   I
 OLDACT:REG 13-09-19 07:55 OP:jn   STATUS:               ID:20130919075735     3
 2013-09-19-0757-35M.COL___223                                                 6
 STAT SP IPHASW D HRMM SECON CODA AMPLIT PERI AZIMU VELO AIN AR TRES W  DIS CAZ7
 BAR2 SZ EP        759 12.23                             171    0.2210 24.4 199 
 BAR2 SZ ES        759 27.10                             171   -0.5310 24.4 199 
 BAR2 SZ I         759 28.61         6.8 0.20            165           24.4 199 
 BRR  HZ EP        759 14.19                             152    0.5210 74.7 297 
 BRR  HN ES        759 31.12                             152    0.5410 74.7 297 
 BRR  HZ I         759 35.35         8.4 0.24            150           74.7 297 
 RUS  HN ES   1    759 34.61                             145   -0.17 7  100 178 
 RUS  HZ I         759 36.64         2.7 0.41            144            100 178 
 PTB  HZ EP        759 19.08                             132   -0.48 9  152 259 
 PTB  HN ES   1    759 40.29                             132   -0.78 7  152 259 
 PTB  HZ I         759 44.10         5.9 0.40            131            152 259 
 SPBC HZ EP        759 21.20                             129    0.24 9  166 220 
 SPBC HN ES   1    759 43.62                             129    0.05 7  166 220 
 SPBC HZ I         759 50.22         7.4 0.40            129            166 220 
 ZAR  HE ES   1    759 51.11                             122    0.33 6  208 292 
 SML  HZ EP   2    759 28.45                             118   -0.52 4  245 334 
 SML  HE ES   2    759 56.97                             118   -0.84 4  245 334 
                                                                                
