 2014  619 0140 53.2 L   6.843 -73.171138.0  RSN  8 0.5 1.8LRSN                1
 GAP=131        1.22       4.6     6.1  8.8 -0.5418E+01  0.1822E+02  0.7438E+01E
 Epicentro: LOS SANTOS - SANTANDER                                             3
 ACTION:UPD 14-07-01 22:55 OP:nd   STATUS:               ID:20140619014053 L   I
 OLDACT:REG 14-06-19 12:39 OP:carl STATUS:               ID:20140619013817     3
 2014-06-19-0138-17M.COL___262                                                 6
 STAT SP IPHASW D HRMM SECON CODA AMPLIT PERI AZIMU VELO AIN AR TRES W  DIS CAZ7
 BAR2 SZ EP        141 11.97                             168   -0.0410 27.8 183 
 BAR2 SZ ES        141 26.49                             168   -0.1810 27.8 183 
 BAR2 SZ I         141 28.46        11.4 0.16            166           27.8 183 
 BRR  HN ES        141 29.37                             153    0.4810 66.5 296 
 PAM  SN ES        141 31.44                             150    0.3410 75.6  43 
 RUS  HZ EP        141 16.11                             141   -0.4710  106 175 
 RUS  HN ES        141 35.00                             141    0.1810  106 175 
 RUS  HZ I         141 36.45         9.3 0.32            142            106 175 
 PTB  HZ EP        141 18.63                             131   -0.77 9  146 257 
 PTB  HN ES        141 39.17                             131   -0.65 9  146 257 
 PTB  HZ I         141 47.21         6.5 0.44            130            146 257 
 OCA  HN ES        141 41.66                             129   -0.02 9  155 354 
 SPBC HN ES        141 43.29                             127    0.04 9  165 217 
 SPBC HZ I         141 49.22         9.0 0.28            128            165 217 
 GUY2CHZ EP        141 37.08                             111    0.55 7  302 234 
 GUY2CHN ES        142 11.59                             111    1.27 7  302 234 
 GUY2CHZ I         142 19.82         3.1 0.56                           302 234 
                                                                                
