 2012  119 0058 53.8 L   6.830 -73.383126.1  RSN  5 0.2 1.4LRSN                1
 GAP=103        0.46       3.8     4.4  7.9 -0.4705E+01  0.2191E+02 -0.8107E+01E
 Epicentro: SAN VICENTE DE CHUCURI - SANTANDER                                 3
 ACTION:UP  12-02-03 08:18 OP:REBC STATUS:               ID:20120119005853 L   I
 2012-01-19-0056-37S.COL___157                                                 6
 STAT SP IPHASW D HRMM SECON CODA AMPLIT PERI AZIMU VELO SNR AR TRES W  DIS CAZ7
 BAR2 SZ EP   1    059 11.18                             164    -0.2 7   34 140 
 BAR2 SZ ES   1    059 25.19                             164     0.1 7   34 140 
 BAR2 SZ I         059 26.02         8.6 0.33                            34 140 
 BRR  HZ EP   1    059 11.86                             158     0.3 7   48 310 
 BRR  HZ I         059 16.06         6.1 0.44                            48 310 
 PAM  SE ES   1    059 31.69                             141    -0.1 7   94  53 
 RUS  HN ES   1    059 33.93                             137     0.0 7  109 162 
 PTB  HZ EP   1    059 16.93                             133     0.0 7  123 255 
 PTB  HE ES   2    059 34.62                             133    -0.3 5  123 255 
                                                                                
