 2010  619 0331 20.4 L   6.774 -73.126146.9  RSN  9 0.2 1.8LRSN                1
 GAP=158        0.62       2.8     5.8  4.6 -0.5354E+01 -0.9771E+00 -0.3837E+00E
 Epicentro: LOS SANTOS - SANTANDER                                             3
 ACTION:UP  10-08-24 10:11 OP:vdl  STATUS:               ID:20100619033120 L   I
 2010-06-19-0328-07S.COL___118                                                 6
 STAT SP IPHASW D HRMM SECON CODA AMPLIT PERI AZIMU VELO SNR AR TRES W  DIS CAZ7
 BAR2 SZ EP   1    331 40.07                             171     0.0 7   21 198 
 BAR2 SZ ES   1    331 55.86                             171     0.4 7   21 198 
 BRR  HZ EP        331 41.74                             152    -0.110   75 300 
 BRR  HN ES   1    331 58.40                             152    -0.2 7   75 300 
 BRR  HZ I         332  1.03        12.9 0.07                            75 300 
 RUS  HZ EP        331 43.78                             145    -0.210   98 177 
 RUS  HN ES   1    332  2.45                             145     0.0 7   98 177 
 RUS  HZ I         332  3.78         7.6 0.27                            98 177 
 BRI  SZ EP        331 44.49                             141     0.010  110  19 
 BRI  SZ ES   1    332  3.38                             141     0.0 7  110  19 
 GUE  SZ IP        331 45.91                             139     0.510  119  11 
 GUE  SZ ES   1    332  4.86                             139     0.0 7  119  11 
 GRA  SZ IP        331 45.70                             137    -0.210  128  16 
 GRA  SZ ES   1    332  5.48                             137    -0.3 7  128  16 
 OCA  SZ EP   1    331 49.02                             129     0.0 7  163 353 
 OCA  SZ I         332 30.38         9.0 0.38                           163 353 
 CHI  HZ EP   2    331 58.10                             118     0.2 4  246 196 
 CHI  HZ I         332 31.72         3.6 0.06                           246 196 
 HEL  HZ EP   2    332  1.02                             115     0.2 4  273 257 
 HEL  HZ I         332 36.92         2.6 0.47                           273 257 
                                                                                
