 2015 1219 0856  7.2 L   6.804 -73.139151.1  RSN  8 0.4 1.9LRSN                1
 GAP=184        1.00       3.8     5.5  6.4  0.5044E+01  0.2271E+01 -0.5871E+01E
 Epicentro: LOS SANTOS - SANTANDER                                             3
 ACTION:UPD 16-02-04 15:06 OP:cam  STATUS:               ID:20151219085607 L   I
 OLDACT:REG 15-12-19 12:02 OP:mh   STATUS:               ID:20151219084738     3
 2015-12-19-0847-38M.COL___315                                                 6
 STAT SP IPHASW D HRMM SECON CODA AMPLIT PERI AZIMU VELO AIN AR TRES W  DIS CAZ7
 BAR2 EZ EP        856 27.70                             171    0.2110 23.9 192 
 BAR2 EZ ES        856 42.65                             171   -0.6610 23.9 192 
 BAR2 EZ I         856 43.81        21.5 0.22            169           23.9 192 
 BRR  HZ EP     C  856 29.37                             153    0.4110 71.7 298 
 BRR  HN ES        856 46.79                             153    0.8610 71.7 298 
 BRR  HZ I         857 38.85         9.2 0.32            151           71.7 298 
 RUS  HZ EP        856 31.54                             145    0.0310  101 177 
 RUS  HN ES        856 50.63                             145    0.1610  101 177 
 RUS  HZ I         856 51.34         5.9 0.18            161            101 177 
 PTB  HZ EP        856 34.58                             133   -0.11 9  149 259 
 PTB  HN ES        856 55.67                             133   -0.45 9  149 259 
 PTB  HZ I         857  3.18         7.6 0.24            139            149 259 
 OCA  HZ EP   2    856 35.96                             131    0.06 5  160 353 
 OCA  HN ES   2    856 58.13                             131   -0.15 5  160 353 
 OCA  HZ I         857  1.32        12.0 0.18            137            160 353 
 SPBC HZ EP        856 36.30                             130    0.11 9  164 219 
 SPBC HN ES        856 58.50                             130   -0.31 9  164 219 
 SPBC HZ I         857  1.16        11.1 0.22            141            164 219 
 ZAR  HZ EP        856 40.05                             123   -0.01 9  205 292 
 ZAR  HN ES        857  6.00                             123    0.32 9  205 292 
 ZAR  HZ I         857 11.68         4.8 0.56            130            205 292 
 SML  HZ EP        856 43.95                             119   -0.17 8  244 335 
 SML  HN ES        857 12.19                             119   -0.73 8  244 335 
 SML  HZ I         857 17.58         8.2 0.10            126            244 335 
                                                                                
