 2017 1219 0654 16.7 L   6.683 -73.108149.0  RSN  5 0.3 1.3LRSN                1
 GAP=227        0.76       3.6     5.1  6.5 -0.2889E+01  0.9564E+01 -0.2638E+01E
 Epicentro: JORDAN - SANTANDER                                                 3
 ACTION:UPD 18-01-04 13:22 OP:rebc STATUS:               ID:20171219065416 L   I
 OLDACT:DUP 17-12-19 15:44 OP:dhb  STATUS:               ID:20171219063330d    3
 OLDACT:REG 17-12-19 13:13 OP:dhb  STATUS:               ID:20171219063327     3
 2017-12-19-0648-00M.COL___452                                                 6
 STAT SP IPHASW D HRMM SECON CODA AMPLIT PERI AZIMU VELO AIN AR TRES W  DIS CAZ7
 BAR2 EZ EP        654 36.48                             175   -0.0310 12.9 219 
 BAR2 EZ ES        654 52.00                             175   -0.0110 12.9 219 
 BAR2 EZ I         654 53.24         4.0 0.30            172           12.9 219 
 PTB  HZ EP        654 43.69                             132   -0.39 9  150 264 
 PTB  HN ES        655  5.74                             132    0.26 9  150 264 
 PTB  HZ I         655  6.53         1.3 0.20            133            150 264 
 SPBC HZ EP        654 44.60                             131   -0.15 9  156 223 
 SPBC HN ES        655  6.76                             131    0.10 9  156 223 
 SPBC HZ I         655 11.76         1.7 0.32            131            156 223 
 OCA  HN ES        655  9.79                             128    0.04 9  174 352 
 ZAR  HZ EP        654 50.91                             122    0.68 8  213 295 
 ZAR  HN ES        655 15.98                             122   -0.45 8  213 295 
 ZAR  HZ I         655 17.02         3.0 0.40            123            213 295 
                                                                                
