 2013  219 0545 57.1 L   6.767 -73.207159.5  RSN  5 0.4 1.3LRSN                1
 GAP=195        0.74       5.7     8.6 10.3  0.1119E+02 -0.3669E+02 -0.7814E+01E
 Epicentro: VILLANUEVA - SANTANDER                                             3
 ACTION:UPD 13-03-12 09:34 OP:ep   STATUS:               ID:20130219054557 L   I
 2013-02-19-0540-00M.COL___241                                                 6
 STAT SP IPHASW D HRMM SECON CODA AMPLIT PERI AZIMU VELO AIN AR TRES W  DIS CAZ7
 BAR2 SZ EP   1    546 18.09                             173   -0.25 7 19.5 172 
 BAR2 SZ I         546 34.12         6.6 0.48            164           19.5 172 
 BRR  HZ EP   1    546 20.11                             156    0.54 7 67.3 304 
 BRR  HN ES   1    546 37.11                             156    0.03 7 67.3 304 
 BRR  HZ I         546 40.78         2.1 0.37            168           67.3 304 
 RUS  HZ EP   1    546 21.99                             147   -0.06 7 97.6 172 
 PTB  HZ EP   1    546 25.10                             136    0.49 7  140 260 
 PTB  HN ES   1    546 45.67                             136   -0.39 7  140 260 
 PTB  HZ I         546 51.89         2.2 0.24            145            140 260 
 SML  HZ EP   1    546 33.92                             120   -0.70 6  244 337 
 SML  HE ES   1    547  4.01                             120    0.14 6  244 337 
 SML  HZ I         547  6.20         1.3 0.08            126            244 337 
                                                                                
