 2017  819 0058  9.5 L   6.777 -73.107147.8  RSN 11 0.5 1.8LRSN                1
 GAP=123        0.87       3.2     3.9  5.4 -0.1044E+01  0.2087E+01  0.5675E+01E
 Epicentro: LOS SANTOS - SANTANDER                                             3
 ACTION:UPD 17-09-04 20:21 OP:rebc STATUS:               ID:20170819005811dL   I
 OLDACT:UP  17-08-19 13:33 OP:and  STATUS:               ID:20170819005740     3
 OLDACT:UP  17-08-19 13:32 OP:and  STATUS:               ID:20170819005740     3
 OLDACT:UP  17-08-19 13:31 OP:and  STATUS:               ID:20170819005740     3
 OLDACT:REG 17-08-19 12:18 OP:and  STATUS:               ID:20170819005740     3
 2017-08-19-0058-00M.COL___414                                                 6
 STAT SP IPHASW D HRMM SECON CODA AMPLIT PERI AZIMU VELO AIN AR TRES W  DIS CAZ7
 BAR2 EZ ES        058 44.63                             171   -0.2210 22.1 202 
 BAR2 EZ I         058 45.99        33.0 0.24            167           22.1 202 
 BRR  HZ IP     C  058 31.25                             151    0.0810 76.2 299 
 BRR  HN ES        058 48.60                             151    0.5410 76.2 299 
 BRR  HZ I         058 49.20         8.7 0.44            147           76.2 299 
 PAM  EZ IP     C  058 32.15                             151    0.2410 76.8  36 
 PAM  EN ES        058 49.33                             151   -0.0510 76.8  36 
 RUS  HZ EP        058 33.26                             145   -0.0110 97.8 178 
 RUS  HN ES        058 51.61                             145   -0.1910 97.8 178 
 RUS  HZ I         058 53.27         9.9 0.26            144           97.8 178 
 SPBC HZ EP        058 38.34                             129    0.09 9  164 221 
 SPBC HN ES        059  0.48                             129   -0.17 9  164 221 
 SPBC HZ I         059  6.45        11.5 0.20            127            164 221 
 ZAR  HN ES        059  7.71                             122   -0.70 8  209 292 
 ZAR  HZ I         059 13.52         4.3 0.11            120            209 292 
 NOR  HN ES        059 13.56                             119   -0.15 8  237 236 
 NOR  HZ I         059 16.50         4.0 0.16            117            237 236 
 CHI  HZ EP        058 47.51                             118    0.32 8  247 196 
 CHI  HN ES        059 17.15                             118    0.58 8  247 196 
 CHI  HZ I         059 22.38         2.7 0.44            117            247 196 
 URE  HE ES   4    059 20.97                             114   -2.80 0  289 292 
 URE  HZ I         059 31.98         3.5 0.36            112            289 292 
 GUY2CHZ EP   3    058 54.51                             113    1.06 2  303 236 
 GUY2CHN ES   3    059 29.89                             113    2.17 2  303 236 
 GUY2CHZ I         059 36.40         2.4 0.64                           303 236 
 PTGC HN EP        058 52.26                             112   -0.76 7  305 159 
 PTGC HZ EP        058 52.30                             112            305 159 
                                                                                
