 2012  519 0506  0.5 L   6.113 -73.875110.6  RSN  8 0.4 1.9LRSN                1
 GAP= 98        1.00       4.9     4.6  9.3  0.6278E+01  0.1289E+02  0.1320E+02E
 Epicentro: EL PEON - SANTANDER                                                3
 ACTION:UP  12-07-05 12:06 OP:pat  STATUS:               ID:20120519050600 L   I
 2012-05-19-0500-00M.COL___200                                                 6
 STAT SP IPHASW D HRMM SECON CODA AMPLIT PERI AZIMU VELO SNR AR TRES W  DIS CAZ7
 PTB  HZ EP        5 6 18.17                             141    -0.410   80 306 
 PTB  HN ES   1    5 6 32.81                             141     0.1 7   80 306 
 RUS  HZ EP        5 6 19.99                             138    -0.210   91 105 
 RUS  HN ES   1    5 6 35.25                             138    -0.3 7   91 105 
 BAR2 SZ EP        5 6 20.31                             137     0.310   93  55 
 BAR2 SZ ES   1    5 6 35.13                             137    -0.1 7   93  55 
 BAR2 SZ I         5 6 36.90        32.0 0.22                            93  55 
 BRR  HZ EP        5 6 21.50                             131     0.210  111   9 
 BRR  HN ES   1    5 6 38.11                             131     0.6 7  111   9 
 BRR  HZ I         5 6 39.60        24.5 0.12                           111   9 
 CHI  HZ EP        5 6 27.18                             120     0.0 9  165 174 
 CHI  HZ I         5 6 27.92         8.1 0.16                           165 174 
 HEL  HZ EP        5 6 29.58                             116     0.5 9  183 273 
 HEL  HZ I         5 6 54.66         3.8 0.24                           183 273 
 ZAR  HN ES   1    5 6 50.62                             116    -0.7 7  187 325 
 ZAR  HZ I         5 6 52.83        18.1 0.24                           187 325 
 OCA  HZ EP        5 6 35.14                             109    -0.4 8  243  15 
                                                                                
