 2011  419 0950 32.3 L   6.461 -73.771103.7  RSN  7 0.3 1.9LRSN                1
 GAP=244        0.66       6.5     5.9  6.0  0.1181E+02  0.4917E+01 -0.6754E+01E
 Epicentro: SANTA HELENA DEL OPON - SANTANDER                                  3
 ACTION:UP  11-06-22 15:31 OP:REBC STATUS:               ID:20110419094910 L   I
 2011-04-19-0949-10S.COL___138                                                 6
 STAT SP IPHASW D HRMM SECON CODA AMPLIT PERI AZIMU VELO SNR AR TRES W  DIS CAZ7
 BAR2 SZ EP        950 49.27                             145     0.110   67  77 
 BAR2 SZ ES   1    951  1.81                             145    -0.4 7   67  77 
 BAR2 SZ I         951  3.45        24.2 0.28                            67  77 
 BRR  HZ EP        950 49.31                             143     0.210   72   5 
 BRR  HZ I         950 49.61        20.7 0.12                            72   5 
 BRR  HN ES   1    951  2.57                             143     0.3 7   72   5 
 PAM  SZ EP        950 57.26                             120    -0.2 9  153  51 
 BRI  SZ EP   2    950 59.91                             116     0.4 4  176  38 
 GRA  SZ EP        951  1.21                             113     0.2 9  190  34 
 GRA  SZ ES   1    951 23.24                             113    -0.2 7  190  34 
 GRA  SZ I         951 25.68        11.8 0.29                           190  34 
 OCA  SZ EP        951  2.38                             112    -0.1 9  203  14 
 OCA  SZ I         951 32.26         8.8 0.54                           203  14 
 MON  HZ EP   2    951 17.57                             101     0.3 3  331 321 
 MON  HN ES   2    951 51.23                             101    -1.1 3  331 321 
                                                                                
