 2013  519 0014 21.5 L   6.819 -73.145147.8  RSN 16 0.4 2.7LRSN 3.3WRSN        1
 SPEC AVERAGE  MO 14.0 ST  6.8 OM  2.6 f0 3.26 R0.5225 AL 2.03 WI 24.3 MW  3.3 3
 SPEC SD       MO  0.2 ST  6.8 OM  0.4 f00.987 R0.1559 AL      WI      MW  0.1 3
 GAP= 55        0.97       2.6     2.6  4.3  0.1488E+00  0.1552E+01  0.2000E+01E
 Epicentro: LOS SANTOS - SANTANDER                                             3
 SPEC ZAR HH N MO 14.2 ST 19.9 OM  2.4 f0 4.77 R0.3258 AL 1.58 WI 28.8 MW  3.4 3
 SPEC ZAR HH N T 01518 K 0.000 GD  251 VS 4.20 DE 3.20 Q0300.0 QA 0.60 VS 4.20 3
 SPEC TAM HH E MO 14.0 ST  1.4 OM  2.3 f0 2.24 R0.6937 AL 1.88 WI 18.4 MW  3.3 3
 SPEC TAM HH E T 01510 K 0.000 GD  214 VS 4.20 DE 3.20 Q0300.0 QA 0.60 VS 4.20 3
 SPEC PTB HH E MO 13.7 ST  2.9 OM  2.0 f0 3.62 R0.4293 AL 1.65 WI 26.8 MW  3.1 3
 SPEC PTB HH E T 015 8 K 0.000 GD  209 VS 4.20 DE 3.20 Q0300.0 QA 0.60 VS 4.20 3
 SPEC RUS HH N MO 13.8 ST0.482 OM  2.1 f0 1.94 R0.8010 AL 1.44 WI 12.1 MW  3.1 3
 SPEC RUS HH N T 015 3 K 0.000 GD  180 VS 4.20 DE 3.20 Q0300.0 QA 0.60 VS 4.20 3
 SPEC HEL HH N MO 13.9 ST  2.2 OM  2.0 f0 2.88 R0.5396 AL 2.07 WI 33.4 MW  3.2 3
 SPEC HEL HH N T 01532 K 0.000 GD  310 VS 4.20 DE 3.20 Q0300.0 QA 0.60 VS 4.20 3
 SPEC NOR HH N MO 14.1 ST  9.2 OM  2.3 f0 3.84 R0.4047 AL 1.79 WI 30.4 MW  3.4 3
 SPEC NOR HH N T 01524 K 0.000 GD  278 VS 4.20 DE 3.20 Q0300.0 QA 0.60 VS 4.20 3
 SPEC OCA HH N MO 14.3 ST  9.3 OM  2.6 f0 3.33 R0.4667 AL 1.74 WI 32.9 MW  3.5 3
 SPEC OCA HH N T 01510 K 0.000 GD  216 VS 4.20 DE 3.20 Q0300.0 QA 0.60 VS 4.20 3
 SPEC PAM SH N MO 13.9 ST  1.1 OM  2.3 f0 2.27 R0.6846 AL 2.27 WI 16.2 MW  3.2 3
 SPEC PAM SH N T 015 0 K 0.000 GD  166 VS 4.20 DE 3.20 Q0300.0 QA 0.60 VS 4.20 3
 SPEC CHI HH N MO 14.2 ST  3.5 OM  2.3 f0 2.75 R0.5651 AL 1.92 WI 24.1 MW  3.4 3
 SPEC CHI HH N T 01527 K 0.000 GD  291 VS 4.20 DE 3.20 Q0300.0 QA 0.60 VS 4.20 3
 SPEC BRR HH N MO 14.1 ST 18.2 OM  2.5 f0 4.94 R0.3146 AL 3.98 WI 20.0 MW  3.4 3
 SPEC BRR HH N T 01459 K 0.000 GD  163 VS 4.20 DE 3.20 Q0300.0 QA 0.60 VS 4.20 3
 ACTION:UPD 13-06-20 09:51 OP:ep   STATUS:               ID:20130519001421 L   I
 2013-05-19-0010-00M.COL___256                                                 6
 STAT SP IPHASW D HRMM SECON CODA AMPLIT PERI AZIMU VELO AIN AR TRES W  DIS CAZ7
 BAR2 SZ EP        014 41.42                             170    0.0210 25.4 189 
 BAR2 SZ ES        014 56.56                             170   -0.3810 25.4 189 
 BAR2 SZ I         014 58.03       142.4 0.28            168           25.4 189 
 GIR2 SZ EP        014 41.50                             168    0.1610 29.2 349 
 GIR2 SZ ES        014 56.95                             168    0.1110 29.2 349 
 GIR2 SZ I         014 58.50        85.9 0.18            169           29.2 349 
 BRR  HZ IP     C  014 43.24                             153    0.4410 70.3 297 
 BRR  HN ES        015  0.26                             153    0.8310 70.3 297 
 BRR  HZ I         015  2.81        88.8 0.30            152           70.3 297 
 PAM  SZ EP     C  014 44.24                             152    0.4310 75.7  41 
 PAM  SN ES        015  0.94                             152   -0.3010 75.7  41 
 PAM  SZ I         015  4.21        50.7 0.22            155           75.7  41 
 RUS  HZ EP     D  014 45.30                             144   -0.2810  103 176 
 RUS  HN ES        015  3.90                             144   -0.4910  103 176 
 RUS  HZ I         015  5.25        51.4 0.66            144            103 176 
 PTB  HZ EP        014 48.08                             132   -0.58 9  148 258 
 PTB  HE ES        015  9.65                             132   -0.21 9  148 258 
 PTB  HZ I         015 15.89        66.1 0.36            132            148 258 
 TAM  HZ IP     C  014 49.82                             131    0.46 9  156 106 
 TAM  HE ES        015 10.93                             131   -0.18 9  156 106 
 TAM  HZ I         015 12.98        33.8 0.46            134            156 106 
 OCA  HZ EP   1    014 49.38                             130   -0.37 7  158 353 
 OCA  HN ES        015 11.40                             130   -0.41 9  158 353 
 OCA  HZ I         015 14.87        55.9 0.27            132            158 353 
 YOP  SZ EP        014 52.11                             126    0.26 9  181 154 
 YOP  SN ES   1    015 16.51                             126    0.97 7  181 154 
 YOP  SZ I         015 17.82        36.8 0.42            128            181 154 
 ZAR  HN ES        015 19.10                             123   -0.24 9  203 292 
 ZAR  HZ I         015 24.68        76.2 0.22            123            203 292 
 NOR  HZ EP        014 57.62                             119    0.15 8  236 234 
 NOR  HN ES        015 25.77                             119    0.23 8  236 234 
 NOR  HZ I         015 35.27        47.2 0.47            119            236 234 
 SML  HZ EP   1    014 57.46                             118   -0.55 6  242 335 
 SML  HE ES   1    015 27.06                             118    0.55 6  242 335 
 CHI  HZ EP        014 59.58                             117    0.07 8  251 195 
 CHI  HN ES        015 28.77                             117   -0.41 8  251 195 
 CHI  HZ I         015 33.20        37.5 0.74            118            251 195 
 HEL  HZ EP        015  2.36                             115    0.50 8  273 255 
 HEL  HN ES        015 33.16                             115   -0.20 8  273 255 
 HEL  HZ I         015 39.57        33.1 0.32            116            273 255 
 GUY2CHZ EP        015  5.29                             112   -0.04 7  302 234 
 GUY2CHZ I         015 47.73        43.0 0.36                           302 234 
 SDV  BZ EP        015 10.89                             109   -0.54 6  359  50 
 SJC  HZ EP   4    015 15.63                             106   -1.27 0  407 327 
 SJC  HN ES   4    015 55.56                             106   -4.58 0  407 327 
                                                                                
