 2016  519 0600 36.8 L   6.830 -73.129146.0  RSN  8 0.3 1.6LRSN                1
 GAP=185        0.71       2.7     3.7  5.4  0.4681E+00  0.5634E+01  0.1363E+01E
 Epicentro: LOS SANTOS - SANTANDER                                             3
 ACTION:UPD 16-08-18 17:47 OP:cam  STATUS:               ID:20160519060036 L   I
 OLDACT:UP  16-05-19 18:15 OP:mh   STATUS:               ID:20160519055742     3
 OLDACT:UP  16-05-19 18:15 OP:mh   STATUS:               ID:20160519055742     3
 OLDACT:UP  16-05-19 18:15 OP:mh   STATUS:               ID:20160519055742     3
 OLDACT:REG 16-05-19 15:17 OP:mh   STATUS:               ID:20160519055742     3
 2016-05-19-0557-42M.COL___288                                                 6
 STAT SP IPHASW D HRMM SECON CODA AMPLIT PERI AZIMU VELO AIN AR TRES W  DIS CAZ7
 BAR2 EZ EP        6 0 56.24                             169   -0.3310 27.0 193 
 BAR2 EZ ES        6 1 11.69                             169   -0.2710 27.0 193 
 BAR2 EZ I         6 1 14.78         5.8 0.33            170           27.0 193 
 RUS  HZ EP        6 1  0.91                             143    0.0710  104 177 
 RUS  HN ES        6 1 19.97                             143    0.4110  104 177 
 RUS  HZ I         6 1 20.49         3.0 0.32            145            104 177 
 PTB  HZ EP        6 1  3.83                             132   -0.21 9  150 258 
 PTB  HE ES        6 1 25.22                             132   -0.05 9  150 258 
 PTB  HZ I         6 1 26.50         2.6 0.14            131            150 258 
 OCA  HN ES        6 1 26.85                             130    0.11 9  157 352 
 OCA  HZ I         6 1 32.24         8.1 0.22            130            157 352 
 SPBC HZ EP        6 1  5.78                             128    0.08 9  167 219 
 SPBC HN ES        6 1 28.44                             128    0.22 9  167 219 
 SPBC HZ I         6 1 30.65         4.8 0.23            129            167 219 
 ZAR  HE ES        6 1 35.14                             122    0.44 9  205 291 
 ZAR  HZ I         6 1 41.16         3.1 0.30            122            205 291 
 NOR  HN ES        6 1 40.52                             118   -0.59 8  238 234 
 NOR  HZ I         6 1 43.09         3.4 0.21            118            238 234 
 PRA  HZ EP        6 1 30.75                             106   -0.05 6  396 210 
 PRA  HN ES   1    6 2 13.43                             106    0.53 4  396 210 
 PRA  HZ I         6 2 21.30         1.8 0.46            107            396 210 
                                                                                
