 2017  319 0720 26.5 L   6.778 -73.128143.0  RSN  6 0.3 1.4LRSN                1
 GAP=140        0.80       4.0     3.6  5.9  0.1176E+01  0.4293E+01  0.3102E+00E
 Epicentro: LOS SANTOS - SANTANDER                                             3
 ACTION:UPD 17-05-25 18:42 OP:jn   STATUS:               ID:20170319072026 L   I
 OLDACT:UP  17-03-19 17:12 OP:cog  STATUS:               ID:20170319071649     3
 OLDACT:REG 17-03-19 13:20 OP:cara STATUS:               ID:20170319071649     3
 2017-03-19-0718-00M.COL___400                                                 6
 STAT SP IPHASW D HRMM SECON CODA AMPLIT PERI AZIMU VELO AIN AR TRES W  DIS CAZ7
 BAR2 EZ EP        720 45.70                             171   -0.1110 21.4 196 
 BAR2 EZ ES        721  0.39                             171   -0.4410 21.4 196 
 BAR2 EZ I         721  1.68         6.6 0.20            173           21.4 196 
 BRR  HZ EP        720 47.60                             151    0.0410 74.1 299 
 BRR  HN ES        721  4.32                             151    0.3610 74.1 299 
 BRR  HZ I         721  8.66         9.3 0.30            151           74.1 299 
 PAM  EZ EP        720 48.69                             150    0.1810 78.0  37 
 PAM  EN ES        721  5.65                             150    0.0110 78.0  37 
 PAM  EZ I         721  7.84         3.1 0.54            152           78.0  37 
 RUS  HZ EP        720 50.03                             144    0.1910 98.1 177 
 RUS  HN ES        721  7.97                             144   -0.0510 98.1 177 
 RUS  HZ I         721  8.92         2.2 0.48            147           98.1 177 
 PTB  HZ EP        720 53.12                             131   -0.30 9  149 260 
 PTB  HE ES        721 14.93                             131    0.54 9  149 260 
 PTB  HZ I         721 16.54         3.6 0.26            133            149 260 
 ZAR  HN ES        721 23.95                             121   -0.53 8  207 293 
                                                                                
