 2016  619 0059 36.6 L   6.817 -73.131150.8  RSN 22 0.5 2.7LRSN                1
 GAP= 71        1.01       2.7     2.7  4.4 -0.1019E+01  0.3469E+01  0.2006E+01E
 Epicentro: LOS SANTOS - SANTANDER                                             3
 ACTION:UPD 16-07-21 22:20 OP:rebc STATUS:               ID:20160619005936 L   I
 OLDACT:REG 16-06-19 12:17 OP:y    STATUS:               ID:20160619005746     3
 2016-06-19-0057-46M.COL___343                                                 6
 STAT SP IPHASW D HRMM SECON CODA AMPLIT PERI AZIMU VELO AIN AR TRES W  DIS CAZ7
 BAR2 EZ IP     D  059 56.75                             170   -0.1010 25.5 193 
 BAR2 EZ ES        1 0 12.27                             170   -0.4010 25.5 193 
 BAR2 EZ I         1 0 15.07        58.0 0.42                          25.5 193 
 BRR  HZ EP     D  059 58.64                             153    0.3510 71.7 297 
 BRR  HE ES        1 0 16.15                             153    0.9110 71.7 297 
 BRR  HZ I         1 0 20.57        66.8 0.26                          71.7 297 
 PAM  EZ EP        059 59.57                             152    0.3910 74.9  40 
 PAM  EN ES        1 0 16.81                             152   -0.0110 74.9  40 
 PAM  EZ I         1 0 18.97        59.8 0.48                          74.9  40 
 RUS  HZ IP     D  1 0  0.59                             144   -0.3610  102 177 
 RUS  HN ES        1 0 19.65                             144   -0.3110  102 177 
 PTB  HZ EP        1 0  3.25                             133   -0.88 9  150 258 
 PTB  HE ES        1 0 25.07                             133   -0.55 9  150 258 
 PTB  HZ I         1 0 30.68        71.6 0.26                           150 258 
 TAM  HZ IP     D  1 0  4.91                             132    0.35 9  154 106 
 TAM  HE ES        1 0 26.65                             132    0.26 9  154 106 
 TAM  HZ I         1 0 27.19        32.4 0.30                           154 106 
 OCA  HZ EP        1 0  4.99                             131   -0.13 9  159 352 
 OCA  HE ES        1 0 26.89                             131   -0.50 9  159 352 
 OCA  HZ I         1 0 32.81        74.4 0.22                           159 352 
 SPBC HZ EP        1 0  5.75                             130    0.06 9  166 219 
 SPBC HN ES        1 0 28.26                             130   -0.15 9  166 219 
 SPBC HZ I         1 0 34.89        99.5 0.38                           166 219 
 ZAR  HZ EP        1 0  9.24                             123   -0.19 9  205 291 
 ZAR  HE ES        1 0 35.62                             123    0.57 9  205 291 
 ZAR  HZ I         1 0 41.62        80.4 0.58                           205 291 
 NOR  HZ EP        1 0 12.60                             119   -0.25 8  237 234 
 NOR  HN ES        1 0 41.03                             119   -0.12 8  237 234 
 NOR  HZ I         1 0 44.50        45.4 0.16                           237 234 
 CHI  HZ EP        1 0 14.96                             118    0.16 8  251 195 
 CHI  HE ES        1 0 44.29                             118   -0.32 8  251 195 
 CHI  HZ I         1 0 51.96        14.1 0.34                           251 195 
 ROSC BZ EP   3    1 0 15.91                             117    0.67 2  255 211 
 ROSC BE ES   4    1 0 46.79                             117    1.40 0  255 211 
 ROSC BZ I         1 0 53.04        38.6 0.45                           255 211 
 HEL  HZ EP        1 0 18.10                             115    0.83 8  274 255 
 HEL  HN ES        1 0 49.55                             115    0.54 8  274 255 
 HEL  HZ I         1 0 56.06        22.6 0.26                           274 255 
 URE  HZ EP        1 0 17.28                             114   -0.70 7  285 291 
 URE  HN ES   4    1 0 47.95                             114   -2.32 0  285 291 
 URE  HZ I         1 1  1.02        22.6 0.38                           285 291 
 SOCV BZ EP   2    1 0 19.28                             113   -0.31 4  299  57 
 SOCV BN ES   4    1 0 51.14                             113   -2.00 0  299  57 
 GUY2CHZ EP        1 0 20.94                             113    0.25 7  304 235 
 GUY2CHE ES   4    1 0 56.86                             113    1.77 0  304 235 
 GUY2CHZ I         1 1  6.27        31.9 0.72                           304 235 
 CBOC HZ EP        1 0 24.45                             111    0.51 7  336 252 
 CBOC HE ES        1 1  0.49                             111   -0.39 7  336 252 
 CBOC HZ I         1 1 13.42         8.3 0.56                           336 252 
 DBB  SZ EP        1 0 24.34                             110   -0.08 7  341 274 
 DBB  SZ ES   4    1 0 58.84                             110   -2.91 0  341 274 
 DBB  SZ I         1 1 15.39        46.9 0.50                           341 274 
 ANIL HZ EP        1 0 27.10                             109    0.24 6  360 224 
 ANIL HN ES        1 1  6.50                             109    0.42 6  360 224 
 ANIL HZ I         1 1 16.94        55.3 0.24                           360 224 
 PRA  HZ EP        1 0 30.11                             107   -0.45 6  394 210 
 PRA  HN ES        1 1 13.46                             107    0.80 6  394 210 
 PRA  HZ I         1 1 18.18        14.5 0.56                           394 210 
 ORTC HZ EP        1 0 31.10                             107    0.14 6  398 216 
 ORTC HN ES        1 1 14.18                             107    0.80 6  398 216 
 ORTC HZ I         1 1 19.69        12.1 0.24                           398 216 
 PAL  HZ EP   2    1 0 31.35                             106   -0.83 3  408 239 
 PAL  HN ES        1 1 14.72                             106   -0.83 6  408 239 
 PAL  HZ I         1 1 19.83         9.9 0.24                           408 239 
                                                                                
