 2012  319 0827 23.4 L   6.756 -73.132154.0  RSN  6 0.3 1.4LRSN                1
 GAP=140        0.68       6.1     5.3  8.0  0.5816E+01  0.4140E+01  0.5114E+01E
 ACTION:UP  12-03-31 23:20 OP:EP   STATUS:               ID:20120319082723 L   I
 2012-03-19-0820-00M.COL___201                                                 6
 STAT SP IPHASW D HRMM SECON CODA AMPLIT PERI AZIMU VELO SNR AR TRES W  DIS CAZ7
 BAR2 SZ EP        827 43.89                             173     0.010   19 197 
 BRR  HZ EP        827 45.85                             153     0.210   75 301 
 BRR  HN ES   1    828  3.23                             153     0.3 7   75 301 
 BRR  HZ I         828  5.41         7.5 0.15                            75 301 
 PAM  SZ EP   1    827 46.72                             152     0.1 7   80  37 
 PAM  SN ES   2    828  4.14                             152    -0.6 5   80  37 
 RUS  HZ EP   1    827 47.76                             147     0.1 7   96 177 
 RUS  HZ I         827 48.51         1.0 0.32                            96 177 
 RUS  HN ES   2    828  6.68                             147     0.2 5   96 177 
 PTB  HZ EP   1    827 50.75                             134    -0.3 7  148 261 
 PTB  HE ES   2    828 12.08                             134    -0.6 5  148 261 
 PTB  HZ I         828 19.14         3.8 0.36                           148 261 
 ZAR  HZ EP   1    827 56.31                             124    -0.4 6  207 293 
 ZAR  HN ES   2    828 23.33                             124     0.6 4  207 293 
 ZAR  HZ I         828 30.01         2.6 0.45                           207 293 
                                                                                
