 2017  119 0232 41.6 L   6.804 -73.166145.4  RSN  5 0.4 1.1LRSN                1
 GAP=134        0.99       5.3     4.7  8.4 -0.4448E+00  0.1180E+02 -0.3385E+01E
 Epicentro: LOS SANTOS - SANTANDER                                             3
 ACTION:UPD 17-05-22 16:01 OP:jn   STATUS:               ID:20170119023241 L   I
 OLDACT:DUP 17-01-19 16:01 OP:dani STATUS:               ID:20170119022742d    3
 OLDACT:UP  17-01-19 16:00 OP:dani STATUS:               ID:20170119022741     3
 OLDACT:REG 17-01-19 13:21 OP:dani STATUS:               ID:20170119022741     3
 2017-01-19-0228-00M.COL___334                                                 6
 STAT SP IPHASW D HRMM SECON CODA AMPLIT PERI AZIMU VELO AIN AR TRES W  DIS CAZ7
 BAR2 EZ EP        233  0.96                             170   -0.2110 23.5 184 
 BAR2 EZ ES        233 16.93                             170    0.4810 23.5 184 
 BAR2 EZ I         233 17.66         2.8 0.15            171           23.5 184 
 PAM  EZ EP        233  4.49                             150    0.6710 78.5  41 
 PAM  EE ES        233 20.69                             150   -0.4810 78.5  41 
 PAM  EZ I         233 23.65         2.1 0.56            154           78.5  41 
 RUS  HZ EP        233  4.95                             144   -0.3910  101 175 
 RUS  HN ES        233 23.74                             144   -0.1310  101 175 
 RUS  HZ I         233 25.25         2.3 0.35            146            101 175 
 PTB  HZ EP        233  8.57                             132    0.25 9  146 258 
 PTB  HE ES        233 29.25                             132    0.06 9  146 258 
 PTB  HZ I         233 35.50         1.7 0.14            133            146 258 
 ZAR  HN ES        233 38.58                             123   -0.30 9  202 292 
                                                                                
