 2017  419 0449 27.9 L   6.782 -73.162146.6  RSN 10 0.5 1.7LRSN                1
 GAP=210        1.15       5.3     5.1  7.3  0.8974E+01  0.5027E+01  0.5492E+01E
 Epicentro: LOS SANTOS - SANTANDER                                             3
 ACTION:UPD 17-05-30 21:14 OP:jn   STATUS:               ID:20170419044927 L   I
 OLDACT:UP  17-04-19 15:42 OP:dnl  STATUS:               ID:20170419043746d    3
 OLDACT:DUP 17-04-19 15:22 OP:dnl  STATUS:               ID:20170419043746d    3
 OLDACT:UP  17-04-19 15:22 OP:dnl  STATUS:               ID:20170419043745d    3
 OLDACT:DUP 17-04-19 15:16 OP:dnl  STATUS:               ID:20170419043745d    3
 OLDACT:REG 17-04-19 13:07 OP:dnl  STATUS:               ID:20170419043744     3
 2017-04-19-0438-00M.COL___368                                                 6
 STAT SP IPHASW D HRMM SECON CODA AMPLIT PERI AZIMU VELO AIN AR TRES W  DIS CAZ7
 BAR2 EZ EP   2    449 47.73                             171    0.11 5 21.0 186 
 BAR2 EZ ES        450  2.07                             171   -0.9010 21.0 186 
 BAR2 EZ I         450  3.62        13.5 0.32            164           21.0 186 
 BRR  HZ EP        449 49.33                             153    0.1910 70.6 301 
 BRR  HE ES        450  6.65                             153    0.9710 70.6 301 
 BRR  HZ I         450 11.65        10.0 0.30            150           70.6 301 
 RUS  HZ EP        449 51.85                             144    0.2210 98.7 175 
 RUS  HN ES        450  9.94                             144   -0.1710 98.7 175 
 RUS  HZ I         450 11.28         4.5 0.30            132           98.7 175 
 PTB  HZ EP        449 54.29                             132   -0.48 9  146 259 
 PTB  HE ES        450 15.50                             132   -0.20 9  146 259 
 PTB  HZ I         450 17.21         5.7 0.14            126            146 259 
 YPLC HZ EP        449 57.99                             127    0.29 9  176 150 
 YPLC HZ I         450 32.79         3.8 0.48            113            176 150 
 ZAR  HZ EP   2    449 59.99                             123   -0.35 4  203 293 
 ZAR  HE ES        450 25.39                             123   -0.22 9  203 293 
 ZAR  HZ I         450 27.90         4.4 0.28            114            203 293 
 NOR  HZ EP   2    450  2.64                             119   -0.78 4  232 235 
 NOR  HE ES        450 31.94                             119    0.84 8  232 235 
 NOR  HZ I         450 36.26         2.3 0.12            110            232 235 
 CHI  HZ EP   2    450  5.88                             117    0.47 4  246 195 
 CHI  HN ES        450 34.85                             117    0.21 8  246 195 
 CHI  HZ I         450 40.15         3.0 0.36            107            246 195 
 ROSC BZ EP   9    450  7.35                             117    1.55 0  250 211 
 ROSC BN ES        450 37.36                             116    0.47 8  250 211 
 ROSC BZ I         450 42.20         7.2 0.40            108            250 211 
 HEL  HZ EP   2    450  7.14                             115   -0.79 4  270 256 
 HEL  HE ES        450 38.66                             115   -0.48 8  270 256 
 HEL  HZ I         450 45.85         2.8 0.54            106            270 256 
                                                                                
