 2015  819 0949 12.7 L   6.784 -73.144147.4  RSN  5 0.3 1.4LRSN                1
 GAP=236        0.69       5.3     6.0  7.8  0.1649E+02  0.2705E+01 -0.4997E+01E
 Epicentro: LOS SANTOS - SANTANDER                                             3
 ACTION:UPD 15-09-15 23:03 OP:cam  STATUS:               ID:20150819094912 L   I
 OLDACT:DUP 15-08-19 16:54 OP:spq  STATUS:               ID:20150819093753d    3
 2015-08-19-0937-50M.COL___334                                                 6
 STAT SP IPHASW D HRMM SECON CODA AMPLIT PERI AZIMU VELO AIN AR TRES W  DIS CAZ7
 BAR2 EZ EP        949 32.26                             171   -0.2010 21.6 191 
 BAR2 EZ ES   1    949 47.43                             171   -0.47 7 21.6 191 
 BAR2 EZ I         949 49.87         4.3 0.24            169           21.6 191 
 BRR  HZ EP        949 34.22                             152    0.1710 72.2 300 
 BRR  HN ES   1    949 51.33                             152    0.61 7 72.2 300 
 BRR  HZ I         949 53.65         6.1 0.33            150           72.2 300 
 RUS  HZ EP   1    949 36.63                             145    0.17 7 98.8 176 
 RUS  HE ES   1    949 55.11                             145    0.10 7 98.8 176 
 RUS  HZ I         949 55.94         3.0 0.26            147           98.8 176 
 SPBC HN ES   1    950  3.47                             130    0.06 7  162 219 
 SPBC HZ I         950  5.92         5.1 0.18            130            162 219 
 ZAR  HN ES        950 10.43                             123   -0.32 9  205 293 
 ZAR  HZ I         950 16.50         2.5 0.28            123            205 293 
                                                                                
