 2012 1019 0704 19.7 L   7.352 -73.188134.2  RSN  6 0.3 1.6LRSN                1
 GAP=177        0.56       5.6     4.8  7.5  0.1123E+02 -0.1693E+01 -0.1088E+02E
 Epicentro: RIONEGRO - SANTANDER                                               3
 ACTION:UPD 12-11-22 17:04 OP:ep   STATUS:               ID:20121019070419 L   I
 2012-10-19-0700-00M.COL___231                                                 6
 STAT SP IPHASW D HRMM SECON CODA AMPLIT PERI AZIMU VELO AIN AR TRES W  DIS CAZ7
 GIR2 SZ ES   1    7 4 51.82                             167   -0.42 7 30.2 181 
 PAM  SZ EP   1    7 4 39.52                             157    0.11 7 53.9  91 
 PAM  SN I         7 4 56.04         9.6 0.26                          53.9  91 
 BRR  HZ EP   1    7 4 39.20                             153   -0.01 7 63.9 245 
 BRR  HN ES   1    7 4 54.63                             153    0.22 7 63.9 245 
 BRR  HZ I         7 4 55.40         5.1 0.14                          63.9 245 
 BAR2 SZ ES   1    7 4 57.64                             146    0.40 7 84.0 180 
 BAR2 SZ I         7 4 58.70         9.7 0.16                          84.0 180 
 RUS  HN ES   1    7 5  9.36                             127   -0.26 7  162 176 
 ZAR  HN ES   1    7 5 12.53                             122   -0.11 7  185 275 
                                                                                
