 2012  819 0350 44.5 L   6.780 -73.156148.1  RSN  6 0.5 1.7LRSN                1
 GAP=136        1.05       6.2     5.8 14.8 -0.8085E+01  0.3822E+02 -0.2892E+02E
 Epicentro: LOS SANTOS - SANTANDER                                             3
 ACTION:UPD 12-09-10 11:57 OP:ep   STATUS:               ID:20120819035044 L   I
 2012-08-19-0350-00M.COL___217                                                 6
 STAT SP IPHASW D HRMM SECON CODA AMPLIT PERI AZIMU VELO AIN AR TRES W  DIS CAZ7
 BAR2 SZ EP   1    351  4.29                             172   -0.05 7 21.0 188 
 BAR2 SZ I         351  5.03         8.2 0.19                          21.0 188 
 BAR2 SZ ES   1    351 19.95                             172    0.11 7 21.0 188 
 PAM  SZ EP   1    351  7.23                             150    0.14 7 79.8  39 
 PAM  SZ I         351  7.72        11.9 0.27                          79.8  39 
 PAM  SN ES        351 25.00                             150    0.2810 79.8  39 
 RUS  HN ES   1    351 26.80                             145   -0.10 7 98.5 175 
 PTB  HN ES        351 32.07                             133   -0.50 9  146 260 
 OCA  HN ES   1    351 34.53                             130   -1.01 7  162 354 
 ZAR  HN ES        351 43.25                             123    0.79 9  204 293 
                                                                                
