 2017  319 0650 25.1 L   6.838 -73.500  4.5  RSN  4 0.7 0.5LRSN                1
 GAP=166        1.22       4.5     3.6  9.0  0.8768E+01  0.3816E+01  0.3391E+01E
 Epicentro: SAN VICENTE DE CHUCURI - SANTANDER                                 3
 ACTION:UPD 17-05-25 18:42 OP:jn   STATUS:               ID:20170319065025 L   I
 OLDACT:DUP 17-03-19 16:38 OP:cog  STATUS:               ID:20170319064749d    3
 2017-03-19-0648-00M.COL___400                                                 6
 STAT SP IPHASW D HRMM SECON CODA AMPLIT PERI AZIMU VELO AIN AR TRES W  DIS CAZ7
 BRR  HZ EP        650 31.23                              47   -0.1810 37.9 322 
 BRR  HE ES        650 36.46                              47    0.1110 37.9 322 
 BRR  HZ I         650 37.08         6.1 0.42             90           37.9 322 
 BAR2 EZ EP        650 32.73                              47    0.1010 44.3 128 
 BAR2 EZ ES        650 38.18                              47   -0.3410 44.3 128 
 BAR2 EZ I         650 42.48         3.5 0.43             90           44.3 128 
 PTB  HZ EP        650 43.19                              47    0.7310  111 253 
 PTB  HN ES        650 55.35                              47   -0.6810  111 253 
 PTB  HZ I         650 59.39         1.7 0.20             90            111 253 
 RUS  HZ EP   3    650 45.38                              47    1.91 2  114 156 
 RUS  HZ I         651  0.18         0.6 0.56             90            114 156 
 RUS  HN ES   3    651  0.31                              47    2.48 2  114 156 
                                                                                
