 2014 1219 0720 53.4 L   6.802 -73.165144.3  RSN 17 0.4 1.8LRSN                1
 GAP= 70        0.86       2.1     2.6  4.6 -0.7790E+00  0.3959E+01 -0.5530E+00E
 Epicentro: LOS SANTOS - SANTANDER                                             3
 ACTION:UPD 15-02-10 17:05 OP:nd   STATUS:               ID:20141219072053 L   I
 OLDACT:REG 14-12-19 13:04 OP:y    STATUS:               ID:20141219071746     3
 2014-12-19-0717-46M.COL___296                                                 6
 STAT SP IPHASW D HRMM SECON CODA AMPLIT PERI AZIMU VELO AIN AR TRES W  DIS CAZ7
 BAR2 EZ EP        721 12.94                             170    0.0610 23.3 185 
 BAR2 EZ ES        721 28.23                             170    0.1810 23.3 185 
 BAR2 EZ I         721 30.91         9.8 0.26            169           23.3 185 
 PAM  SZ EP        721 15.75                             150    0.1910 78.6  41 
 PAM  SN ES        721 32.71                             150   -0.1010 78.6  41 
 PAM  SZ I         721 34.90         7.6 0.58            156           78.6  41 
 RUS  HZ EP        721 16.82                             143   -0.2410  101 175 
 RUS  HE ES        721 35.24                             143   -0.2610  101 175 
 RUS  HZ I         721 40.81         3.0 0.24            146            101 175 
 PTB  HZ EP        721 19.75                             132   -0.34 9  146 259 
 PTB  HN ES        721 40.94                             132    0.05 9  146 259 
 PTB  HZ I         721 48.39        10.4 0.42            132            146 259 
 TAM  HZ EP        721 21.06                             130   -0.12 9  157 105 
 TAM  HN ES   4    721 41.38                             130   -1.45 0  157 105 
 TAM  HZ I         721 42.07         6.0 0.42            137            157 105 
 OCA  HZ EP        721 22.27                             129    0.69 9  160 354 
 OCA  HN ES        721 43.92                             129    0.38 9  160 354 
 OCA  HZ I         721 47.87         7.8 0.30            133            160 354 
 SPBC HZ EP        721 21.89                             129    0.18 9  162 218 
 SPBC HN ES        721 43.63                             129   -0.13 9  162 218 
 SPBC HZ I         721 47.35        14.8 0.10            130            162 218 
 ZAR  HZ EP        721 25.50                             122   -0.07 9  202 292 
 ZAR  HE ES        721 49.82                             122   -0.82 9  202 292 
 ZAR  HZ I         721 58.05         8.4 0.28            124            202 292 
 NOR  HE ES        721 56.98                             118    0.41 8  233 234 
 NOR  HZ I         722  3.34         5.2 0.16            120            233 234 
 SML  HZ EP        721 29.34                             117   -0.52 8  243 336 
 SML  HN ES        721 57.93                             117   -0.34 8  243 336 
 SML  HZ I         722  2.08        11.2 0.22            120            243 336 
 CHI  HZ EP        721 30.92                             117   -0.09 8  248 195 
 CHI  HN ES        722  0.36                             117    0.04 8  248 195 
 CHI  HZ I         722  4.31         1.8 0.46            120            248 195 
 HEL  HZ EP        721 33.70                             115    0.35 8  270 256 
 HEL  HN ES        722  4.78                             115    0.30 8  270 256 
 HEL  HZ I         722 12.60         4.0 0.26            116            270 256 
 URE  HZ EP   1    721 33.09                             113   -1.11 6  282 292 
 URE  HE ES        722  6.50                             113    0.50 7  282 292 
 URE  HZ I         722 11.80         4.5 0.18            115            282 292 
 CBOC HZ EP        721 40.80                             110    0.74 7  332 252 
 CBOC HN ES        722 16.38                             110   -0.05 7  332 252 
 CBOC HZ I         722 28.67         1.5 0.74            112            332 252 
 TOL  SN ES        722 18.81                             109   -0.14 7  342 224 
 TOL  SZ I         722 26.37         6.8 0.40            111            342 224 
 MON  HZ EP   4    721 40.12                             108   -2.05 0  352 309 
 MON  HE ES   4    722 18.56                             108   -1.62 0  352 309 
 MON  HZ I         722 22.57         1.3 0.42            111            352 309 
 SJC  HE ES   4    722 26.01                             105   -5.95 0  408 327 
 SJC  HZ I         722 33.23         1.8 0.50            108            408 327 
                                                                                
