 2015  419 0119 24.2 L   6.778 -73.152147.1  RSN  5 0.3 1.1LRSN                1
 GAP=137        0.68       4.9     4.6  7.4 -0.2033E+01  0.5289E+01  0.4031E+01E
 Epicentro: LOS SANTOS - SANTANDER                                             3
 ACTION:UPD 15-06-03 16:55 OP:cam  STATUS:               ID:20150419011924 L   I
 OLDACT:REG 15-04-19 12:14 OP:spq  STATUS:               ID:20150419011749     3
 2015-04-19-0117-49M.COL___277                                                 6
 STAT SP IPHASW D HRMM SECON CODA AMPLIT PERI AZIMU VELO AIN AR TRES W  DIS CAZ7
 BAR2 EZ EP   1    119 43.88                             172   -0.02 7 20.8 189 
 BRR  HZ EP        119 45.80                             152    0.3210 71.8 300 
 BRR  HE ES   1    120  2.45                             152    0.34 7 71.8 300 
 BRR  HZ I         120  7.88         4.8 0.34            152           71.8 300 
 PAM  SZ EP   1    119 46.97                             150    0.32 7 79.7  39 
 PAM  SN ES   1    120  3.65                             150   -0.54 7 79.7  39 
 PAM  SZ I         120  6.06         2.3 0.46            154           79.7  39 
 RUS  HZ EP   1    119 47.82                             145   -0.05 7 98.2 176 
 RUS  HN ES   1    120  6.50                             145    0.14 7 98.2 176 
 RUS  HZ I         120  7.11         0.7 0.24            151           98.2 176 
 PTB  HZ EP        119 50.78                             132   -0.35 9  147 260 
 PTB  HN ES   1    120 11.94                             132   -0.23 7  147 260 
 PTB  HZ I         120 14.36         1.8 0.10            135            147 260 
                                                                                
