 2015 1119 0210 27.8 L   6.794 -73.102139.8  RSN  5 0.2 1.4LRSN                1
 GAP=204        0.65       4.6     6.9  5.2  0.2315E+02  0.2045E+01 -0.4783E+01E
 Epicentro: LOS SANTOS - SANTANDER                                             3
 ACTION:UPD 15-12-28 16:11 OP:cam  STATUS:               ID:20151119021027 L   I
 OLDACT:UP  15-11-19 14:58 OP:ak   STATUS:               ID:20151119020750d    3
 OLDACT:DUP 15-11-19 14:54 OP:ak   STATUS:               ID:20151119020750d    3
 OLDACT:REG 15-11-19 12:58 OP:ak   STATUS:               ID:20151119020749     3
 2015-11-19-0207-49M.COL___307                                                 6
 STAT SP IPHASW D HRMM SECON CODA AMPLIT PERI AZIMU VELO AIN AR TRES W  DIS CAZ7
 BAR2 EZ ES        211  1.22                             170   -0.2210 24.0 202 
 BAR2 EZ I         211  2.81         4.7 0.29            165           24.0 202 
 BRR  HZ EP        210 48.86                             150    0.3310 75.8 297 
 BRR  HN ES        211  5.10                             150    0.3610 75.8 297 
 RUS  HZ EP        210 50.93                             143    0.0810 99.7 179 
 RUS  HE ES        211  8.67                             143   -0.2010 99.7 179 
 RUS  HZ I         211 10.07         2.5 0.44            141           99.7 179 
 ZAR  HZ EP        211  0.32                             120    0.01 8  209 292 
 ZAR  HE ES        211 25.48                             120   -0.23 8  209 292 
 ZAR  HZ I         211 29.85         5.3 0.28            119            209 292 
 SML  HE ES        211 32.57                             116   -0.31 8  246 334 
 MON  HN ES   4    211 53.41                             107   -2.04 0  358 308 
                                                                                
