 2013  219 0710 29.8 L   6.815 -73.156142.4  RSN  8 0.4 1.6LRSN                1
 GAP=182        0.84       3.5     6.3  7.7  0.5889E+01  0.1062E+02 -0.2755E+01E
 Epicentro: LOS SANTOS - SANTANDER                                             3
 ACTION:UPD 13-03-12 09:34 OP:ep   STATUS:               ID:20130219071029 L   I
 2013-02-19-0710-00M.COL___241                                                 6
 STAT SP IPHASW D HRMM SECON CODA AMPLIT PERI AZIMU VELO AIN AR TRES W  DIS CAZ7
 BAR2 SZ EP   1    710 49.27                             170    0.17 7 24.8 187 
 BAR2 SZ ES   1    711  4.38                             170    0.26 7 24.8 187 
 BAR2 SZ I         711  5.45        13.8 0.14            168           24.8 187 
 BRR  HZ EP   1    710 51.13                             152    0.60 7 69.4 298 
 BRR  HN ES   4    711  8.55                             152    1.89 0 69.4 298 
 RUS  HZ EP   1    710 53.64                             143    0.25 7  102 175 
 RUS  HN ES   1    711 11.07                             143   -0.69 7  102 175 
 RUS  HZ I         711 12.92         4.5 0.36            142            102 175 
 PTB  HZ EP   1    710 55.95                             131   -0.52 7  147 258 
 PTB  HN ES   1    711 16.75                             131   -0.49 7  147 258 
 OCA  HN ES   1    711 19.37                             129   -0.10 7  158 353 
 ZAR  HZ EP   1    711  2.41                             122    0.51 6  202 292 
 ZAR  HN ES   1    711 27.34                             122    0.44 6  202 292 
 ZAR  HZ I         711 30.30         5.3 0.12            121            202 292 
 SML  HZ EP   1    711  5.71                             117   -0.36 6  242 335 
 SML  HN ES   1    711 34.02                             117   -0.30 6  242 335 
 SML  HZ I         711 38.77         5.8 0.22            117            242 335 
 CHI  HZ EP   1    711  7.02                             116   -0.48 6  250 195 
 CHI  HN ES   1    711 37.51                             116    0.64 6  250 195 
 CHI  HZ I         711 42.04         1.4 0.36            116            250 195 
                                                                                
