 2017  319 0319 53.5 L   6.819 -73.156145.3  RSN  9 0.3 1.9LRSN                1
 GAP=134        0.67       2.4     2.7  3.8 -0.3399E+00  0.2577E+01  0.1663E+01E
 Epicentro: LOS SANTOS - SANTANDER                                             3
 ACTION:UPD 17-05-25 18:42 OP:jn   STATUS:               ID:20170319031953 L   I
 OLDACT:REG 17-03-19 12:53 OP:cara STATUS:               ID:20170319031745     3
 2017-03-19-0318-00M.COL___397                                                 6
 STAT SP IPHASW D HRMM SECON CODA AMPLIT PERI AZIMU VELO AIN AR TRES W  DIS CAZ7
 BAR2 EZ EP        320 13.15                             170    0.0410 25.3 187 
 BAR2 EZ ES        320 28.24                             170   -0.1710 25.3 187 
 BAR2 EZ I         320 30.52        19.7 0.38            167           25.3 187 
 BRR  HZ EP        320 14.80                             153    0.3110 69.2 297 
 BRR  HN ES        320 31.26                             153    0.4110 69.2 297 
 PAM  EZ EP        320 15.74                             151    0.1310 76.5  41 
 PAM  EN ES        320 32.74                             151   -0.1110 76.5  41 
 PAM  EZ I         320 34.31        13.1 0.36            155           76.5  41 
 RUS  HZ EP        320 17.05                             143   -0.3110  103 176 
 RUS  HE ES        320 35.98                             143    0.0110  103 176 
 RUS  HZ I         320 37.46        10.3 0.28            143            103 176 
 PTB  HZ EP        320 19.87                             132   -0.50 9  147 258 
 PTB  HN ES        320 40.91                             132   -0.41 9  147 258 
 PTB  HZ I         320 43.43        12.2 0.12            133            147 258 
 SPBC HZ EP        320 22.05                             129   -0.00 9  164 218 
 SPBC HE ES        320 44.29                             129   -0.03 9  164 218 
 SPBC HZ I         320 48.92        12.9 0.22            129            164 218 
 ZAR  HZ EP        320 25.59                             122   -0.14 9  202 292 
 ZAR  HN ES        320 50.94                             122    0.08 9  202 292 
 NOR  HZ EP        320 29.60                             118    0.36 8  235 234 
 NOR  HN ES        320 57.19                             118    0.08 8  235 234 
 NOR  HZ I         321  2.18         7.6 0.30            119            235 234 
 CHI  HZ EP        320 31.37                             117    0.01 8  250 195 
 CHI  HN ES        321  1.34                             117    0.45 8  250 195 
 CHI  HZ I         321  4.56         3.1 0.70            118            250 195 
 GUY2CHZ EP   4    320 38.49                             112    1.37 0  302 234 
 GUY2CHN ES   4    321 13.91                             112    2.76 0  302 234 
                                                                                
