 2015 1119 0256 52.9 L   6.800 -73.098145.4  RSN 16 0.5 2.1LRSN                1
 GAP=123        1.18       3.0     4.4  6.0 -0.2403E+01  0.7175E+01  0.1268E+01E
 Epicentro: LOS SANTOS - SANTANDER                                             3
 ACTION:UPD 15-12-28 16:11 OP:cam  STATUS:               ID:20151119025652 L   I
 OLDACT:REG 15-11-19 13:01 OP:ak   STATUS:               ID:20151119024749     3
 2015-11-19-0247-49M.COL___307                                                 6
 STAT SP IPHASW D HRMM SECON CODA AMPLIT PERI AZIMU VELO AIN AR TRES W  DIS CAZ7
 BAR2 EZ EP     C  257 12.47                             170   -0.0110 24.8 202 
 BAR2 EZ ES        257 27.81                             170    0.0310 24.8 202 
 BAR2 EZ I         257 29.02        17.0 0.30            169           24.8 202 
 PAM  EZ EP        257 15.33                             152    0.4810 74.2  36 
 PAM  EE ES        257 32.63                             152    0.6310 74.2  36 
 PAM  EZ I         257 34.65        18.2 0.48            153           74.2  36 
 BRR  HZ EP     C  257 14.30                             151    0.0510 75.9 297 
 BRR  HE ES        257 31.31                             151    0.3910 75.9 297 
 BRR  HZ I         257 35.49        16.5 0.22            147           75.9 297 
 RUS  HZ EP        257 16.62                             144    0.0610  100 179 
 RUS  HN ES        257 34.36                             144   -0.6810  100 179 
 RUS  HZ I         257 36.37        15.2 0.36            146            100 179 
 OCA  HZ EP        257 21.23                             129    0.01 9  161 351 
 OCA  HE ES        257 43.08                             129   -0.25 9  161 351 
 OCA  HZ I         257 46.51        25.6 0.14            129            161 351 
 SPBC HZ EP        257 21.76                             128    0.11 9  167 220 
 SPBC HN ES        257 43.53                             128   -0.58 9  167 220 
 SPBC HZ I         257 45.31        19.7 0.22            129            167 220 
 ZAR  HZ EP        257 26.58                             122    0.79 8  209 292 
 ZAR  HN ES        257 50.73                             122   -0.75 8  209 292 
 ZAR  HZ I         257 56.09        13.3 0.44            121            209 292 
 NOR  HZ EP   2    257 28.95                             118   -0.08 4  239 235 
 NOR  HN ES        257 56.89                             118   -0.35 8  239 235 
 NOR  HZ I         258  2.13         6.2 0.20            118            239 235 
 SML  HZ EP        257 28.95                             117   -0.77 8  246 334 
 SML  HE ES        257 57.61                             117   -0.85 8  246 334 
 SML  HZ I         258  1.28        15.0 0.11            117            246 334 
 ROSC BZ EP   4    257 32.71                             116    1.45 0  255 212 
 ROSC BN ES        258  1.72                             116    0.51 8  255 212 
 HEL  HE ES        258  6.20                             114    0.78 7  277 256 
 URE  HZ EP   4    257 33.26                             113   -1.21 0  289 292 
 URE  HE ES   4    258  4.10                             113   -2.82 0  289 292 
 URE  HZ I         258 13.86         9.1 0.28            113            289 292 
 GUY2CHZ EP        257 37.89                             112    0.95 7  305 235 
 GUY2CHN ES        258 11.64                             112    0.32 7  305 235 
 GUY2CHZ I         258 22.68         4.4 0.44                           305 235 
 PTGC HZ EP        257 35.85                             112   -0.64 7  307 160 
 PTGC HE ES   4    258  9.10                             112   -1.41 0  307 160 
 MON  HZ EP   4    257 39.73                             108   -2.61 0  358 308 
 MON  HE ES   4    258 18.27                             108   -2.65 0  358 308 
 MON  HZ I         258 33.11         4.4 0.46            108            358 308 
 PRA  HZ EP        257 46.33                             106   -0.35 6  395 210 
 PRA  HN ES        258 28.42                             106   -0.23 6  395 210 
 PRA  HZ I         258 34.95         5.1 0.60            107            395 210 
                                                                                
