 2011  919 0849  4.0 L   6.797 -73.121146.5  RSN  7 0.3 1.4LRSN                1
 GAP=140        0.60       6.4     8.5  6.0  0.3217E+02  0.1048E+02  0.9805E+01E
 Epicentro: LOS SANTOS - SANTANDER                                             3
 ACTION:UPD 12-07-13 15:58 OP:ep   STATUS:               ID:20110919084903 L   I
 2011-09-19-0846-33S.COL___171                                                 6
 STAT SP IPHASW D HRMM SECON CODA AMPLIT PERI AZIMU VELO AIN AR TRES W  DIS CAZ7
 BTL  SZ EP        849 23.88                             171    0.2410 21.1 310 
 BAR2 SZ EP        849 23.45                             171   -0.2410 23.6 197 
 BAR2 SZ I         849 23.65         4.6 0.40                          23.6 197 
 BAR2 SZ ES   1    849 38.75                             171   -0.32 7 23.6 197 
 GIR2 SZ ES   1    849 39.22                             167    0.04 7 32.2 346 
 BRR  HZ EP        849 25.44                             152    0.1010 73.8 298 
 BRR  HZ I         849 26.91         4.6 0.12                          73.8 298 
 BRR  HN ES   2    849 42.63                             152    0.62 5 73.8 298 
 PAM  SN ES   3    849 42.73                             151   -0.76 2 75.9  38 
 RUS  HZ EP        849 27.74                             144   -0.0110  100 178 
 RUS  HE ES   2    849 46.66                             144    0.35 5  100 178 
 ZAR  HE ES   2    850  1.53                             122   -0.76 4  207 292 
                                                                                
