 2015  419 0607 19.0 L   6.795 -73.135150.0  RSN 13 0.4 1.7LRSN                1
 GAP=138        0.97       3.3     4.5  6.6 -0.1421E+01  0.3408E+01  0.2368E+01E
 Epicentro: LOS SANTOS - SANTANDER                                             3
 ACTION:UPD 15-06-03 16:56 OP:cam  STATUS:               ID:20150419060719 L   I
 OLDACT:UP  15-04-19 16:06 OP:spq  STATUS:               ID:20150419055748d    3
 OLDACT:DUP 15-04-19 15:48 OP:spq  STATUS:               ID:20150419055748d    3
 2015-04-19-0557-46M.COL___274                                                 6
 STAT SP IPHASW D HRMM SECON CODA AMPLIT PERI AZIMU VELO AIN AR TRES W  DIS CAZ7
 BAR2 EZ EP        6 7 39.17                             171   -0.0110 23.0 193 
 BAR2 EZ ES   1    6 7 54.46                             171   -0.42 7 23.0 193 
 BAR2 EZ I         6 7 55.58        15.4 0.34            172           23.0 193 
 BRR  HZ EP     D  6 7 41.02                             153    0.3010 72.5 298 
 BRR  HN ES        6 7 58.46                             153    0.8210 72.5 298 
 BRR  HZ I         6 8  3.40         4.6 0.19            150           72.5 298 
 PAM  SZ EP        6 7 42.08                             152    0.3910 77.1  39 
 PAM  SN ES        6 7 59.42                             152    0.0610 77.1  39 
 PAM  SZ I         6 8  2.44         3.4 0.32            153           77.1  39 
 RUS  HZ EP   1    6 7 43.27                             145    0.10 7 99.9 177 
 RUS  HN ES   1    6 8  1.43                             145   -0.55 7 99.9 177 
 RUS  HZ I         6 8  2.56         6.3 0.42            149           99.9 177 
 PTB  HZ EP   1    6 7 45.95                             133   -0.50 7  149 259 
 PTB  HN ES   1    6 8  7.15                             133   -0.68 7  149 259 
 PTB  HZ I         6 8  9.02         3.9 0.10            132            149 259 
 OCA  HZ EP   1    6 7 46.97                             130   -0.78 7  161 353 
 OCA  HE ES        6 8  9.65                             130   -0.50 9  161 353 
 OCA  HZ I         6 8 10.83        12.5 0.42            130            161 353 
 SPBC HZ EP   1    6 7 48.21                             130    0.31 7  163 219 
 SPBC HE ES        6 8 10.35                             130   -0.05 9  163 219 
 SPBC HZ I         6 8 11.46        15.3 0.22            131            163 219 
 ZAR  HN ES        6 8 17.64                             123    0.11 8  205 292 
 ZAR  HZ I         6 8 24.08         5.2 0.30            123            205 292 
 SML  HE ES   1    6 8 24.73                             118   -0.13 6  245 335 
 SML  HZ I         6 8 30.14         7.2 0.05            118            245 335 
 CHI  HZ EP        6 7 57.21                             118    0.26 8  248 195 
 GUY2CHZ EP   4    6 8  5.04                             113    2.12 0  302 235 
 GUY2CHE ES   4    6 8 40.70                             113    3.55 0  302 235 
 GUY2CHZ I         6 8 47.02         1.9 0.32                           302 235 
 MON  HN ES   4    6 8 45.11                             109   -1.72 0  355 308 
 MON  HZ I         6 8 49.98         0.8 0.48            110            355 308 
 SJC  HZ EP   4    6 8 13.31                             106   -1.57 0  410 327 
 SJC  HN ES   4    6 8 56.27                             106   -2.16 0  410 327 
 SJC  HZ I         6 9  5.70         1.5 0.66            107            410 327 
                                                                                
