 2011  819 0211 33.8 L   6.787 -73.011146.4  RSN  4 0.2 1.9LRSN                1
 GAP=216        0.46       6.4    10.0  5.5  0.4276E+02 -0.1609E+02 -0.9392E+01E
 Epicentro: CEPITA - SANTANDER                                                 3
 ACTION:UPD 12-07-13 15:52 OP:ep   STATUS:               ID:20110819021133 L   I
 2011-08-19-0200-00M.COL___151                                                 6
 STAT SP IPHASW D HRMM SECON CODA AMPLIT PERI AZIMU VELO AIN AR TRES W  DIS CAZ7
 BAR2 SZ EP   1    211 53.30                             169   -0.36 7 28.6 221 
 BAR2 SZ ES   1    212  9.02                             169   -0.10 7 28.6 221 
 BAR2 SZ I         212  9.99        13.2 0.19                          28.6 221 
 GIR2 SZ EP   1    211 54.11                             165    0.33 7 38.0 328 
 GIR2 SZ ES   2    212  9.36                             165    0.02 5 38.0 328 
 BRR  HZ EP        211 55.81                             148   -0.0810 85.1 295 
 BRR  HN ES   1    212 13.18                             148    0.08 7 85.1 295 
 BRR  HZ I         212 14.26        16.4 0.17                          85.1 295 
 RUS  HZ EP   2    211 57.79                             144    0.24 5 99.2 185 
 RUS  HN ES   2    212 16.23                             144    0.18 5 99.2 185 
                                                                                
