 2017  619 0008 55.7 L   6.822 -73.309159.5  RSN  7 0.3 1.6LRSN                1
 GAP=246        0.79       4.0     6.5  8.1  0.2049E+01 -0.1295E+02  0.1079E+02E
 Epicentro: ZAPATOCA - SANTANDER                                               3
 ACTION:UPD 17-09-14 16:53 OP:jn   STATUS:               ID:20170619000855 L   I
 OLDACT:REG 17-06-19 12:41 OP:lv   STATUS:               ID:20170619000000     3
 2017-06-19-0000-15M.COL___338                                                 6
 STAT SP IPHASW D HRMM SECON CODA AMPLIT PERI AZIMU VELO AIN AR TRES W  DIS CAZ7
 BRR  HZ EP        0 9 17.61                             160    0.0610 54.6 305 
 BRR  HN ES        0 9 34.68                             160    0.0710 54.6 305 
 BRR  HZ I         0 9 38.27         8.5 0.16            153           54.6 305 
 PTB  HZ EP        0 9 22.87                             139    0.5010  131 256 
 PTB  HN ES        0 9 43.33                             139    0.1410  131 256 
 PTB  HZ I         0 9 46.37         3.5 0.13            134            131 256 
 SPBC HN ES        0 9 46.62                             134   -0.34 9  155 213 
 ZAR  HN ES        0 9 51.49                             128   -0.53 9  186 294 
 ZAR  HZ I         0 9 59.71         2.9 0.22            124            186 294 
 NOR  HZ EP   4    0 9 28.19                             123   -2.71 0  222 231 
 NOR  HN ES        0 9 58.71                             123    0.32 8  222 231 
 NOR  HZ I         010  5.19         3.3 0.26            120            222 231 
 CHI  HZ EP        0 9 33.57                             120   -0.42 8  247 191 
 CHI  HN ES        010  3.92                             120    0.04 8  247 191 
 CHI  HZ I         010  6.98         1.8 0.44            119            247 191 
 HEL  HN ES   4    010  9.51                             119    4.16 0  255 254 
 HEL  HZ I         010 11.26         2.8 0.28            117            255 254 
 ORTC HN ES   4    010 32.80                             109    1.97 0  387 214 
                                                                                
