 2013 1219 0843 13.1 L   6.794 -73.169145.2  RSN  9 0.4 1.6LRSN                1
 GAP=134        0.86       3.2     4.3  5.9 -0.3757E+01  0.6204E+01  0.2509E+01E
 Epicentro: LOS SANTOS - SANTANDER                                             3
 ACTION:UPD 14-01-13 10:19 OP:ep   STATUS:               ID:20131219084313 L   I
 OLDACT:REG 13-12-19 08:21 OP:jn   STATUS:               ID:20131219084000     3
 2013-12-19-0840-00M.COL___285                                                 6
 STAT SP IPHASW D HRMM SECON CODA AMPLIT PERI AZIMU VELO AIN AR TRES W  DIS CAZ7
 BAR2 SZ EP        843 32.79                             171    0.1510 22.4 184 
 BAR2 SZ ES        843 47.74                             171   -0.1510 22.4 184 
 BAR2 SZ I         843 49.11        12.4 0.38            172           22.4 184 
 PAM  SZ EP        843 35.66                             150    0.2810 79.5  41 
 PAM  SN ES        843 52.63                             150   -0.1310 79.5  41 
 PAM  SZ I         843 54.96        13.0 0.54            150           79.5  41 
 RUS  HZ EP        843 36.48                             144   -0.2810  100 175 
 RUS  HN ES        843 55.70                             144    0.4810  100 175 
 RUS  HZ I         843 57.11         4.4 0.22            145            100 175 
 PTB  HZ EP        843 39.40                             132   -0.38 9  145 259 
 PTB  HN ES        844  0.73                             132    0.13 9  145 259 
 PTB  HZ I         844  3.04         4.4 0.14            133            145 259 
 OCA  HN ES   1    844  3.08                             129   -0.39 7  161 354 
 OCA  HZ I         844  8.46         7.0 0.28            130            161 354 
 SPBC HZ EP        843 41.72                             129    0.36 9  161 218 
 SPBC HN ES        844  3.45                             129    0.05 9  161 218 
 ZAR  HN ES   2    844 10.58                             123    0.18 4  202 293 
 CHI  HZ EP        843 50.89                             117    0.26 8  247 195 
 CHI  HN ES        844 18.96                             117   -0.94 8  247 195 
 CHI  HZ I         844 25.66         1.9 0.32            118            247 195 
 GUY2CHZ EP   2    843 57.23                             112    0.83 4  299 235 
 GUY2CHZ I         844 40.77         2.7 0.40                           299 235 
                                                                                
