 2014  819 0641 11.0 L   6.861 -73.136155.4  RSN  8 0.3 1.8LRSN                1
 GAP=215        0.80       3.6     5.3  5.5  0.1566E+01  0.1865E+01 -0.4199E+01E
 Epicentro: LOS SANTOS - SANTANDER                                             3
 ACTION:UPD 14-09-15 21:51 OP:nd   STATUS:               ID:20140819064111 L   I
 OLDACT:UP  14-08-19 15:58 OP:cam  STATUS:               ID:20140819064000     3
 OLDACT:UP  14-08-19 15:57 OP:cam  STATUS:               ID:20140819064000     3
 OLDACT:REG 14-08-19 13:10 OP:cam  STATUS:               ID:20140819064000     3
 2014-08-19-0640-00M.COL___285                                                 6
 STAT SP IPHASW D HRMM SECON CODA AMPLIT PERI AZIMU VELO AIN AR TRES W  DIS CAZ7
 BAR2 SZ EP     D  641 31.90                             169   -0.0810 30.2 190 
 BAR2 SZ ES        641 47.95                             169   -0.3710 30.2 190 
 BAR2 SZ I         641 50.25         4.1 0.32            168           30.2 190 
 BRR  HZ EP        641 33.55                             155    0.4110 69.2 293 
 BRR  HE ES        641 50.80                             155    0.4310 69.2 293 
 BRR  HZ I         641 54.82        10.0 0.18            150           69.2 293 
 PTB  HZ EP        641 38.52                             134   -0.51 9  150 256 
 PTB  HN ES        642  0.54                             134   -0.32 9  150 256 
 PTB  HN I         642  1.87        17.9 0.16            132            150 256 
 SPBC HZ EP        641 41.12                             130    0.27 9  169 218 
 SPBC HN ES        642  4.37                             130    0.27 9  169 218 
 SPBC HZ I         642 10.52         5.2 0.32            130            169 218 
 ZAR  HZ EP        641 43.79                             125   -0.20 9  203 290 
 ZAR  HE ES        642  9.78                             125    0.10 9  203 290 
 ZAR  HZ I         642 16.35         7.0 0.30            124            203 290 
 SML  HZ EP        641 47.80                             120    0.17 8  238 334 
 SML  HE ES        642 15.93                             120   -0.23 8  238 334 
 SML  HZ I         642 25.37         5.7 0.24            120            238 334 
 HEL  HZ EP   4    641 53.70                             116    1.64 0  275 254 
 HEL  HN ES   4    642 23.41                             116   -0.65 0  275 254 
 HEL  HZ I         642 31.15         3.3 0.40            116            275 254 
 GUY2CHZ EP   4    641 58.42                             114    2.77 0  306 234 
 GUY2CHN ES   4    642 32.49                             114    2.05 0  306 234 
 GUY2CHZ I         642 40.75         2.5 0.46                           306 234 
                                                                                
