 2013  719 0738 19.6 L   6.512 -73.574109.1  RSN 10 0.4 2.3LRSN                1
 GAP= 69        0.88       2.7     3.0  6.4  0.3325E+00  0.4462E+01  0.2014E+01E
 Epicentro: EL CARMEN DE CHUCURI - SANTANDER                                   3
 ACTION:UPD 13-08-12 10:38 OP:ep   STATUS:               ID:20130719073642 L   I
 OLDACT:UP  13-07-19 11:36 OP:mh   STATUS:               ID:20130719073642 L   3
 OLDACT:UP  13-07-19 11:36 OP:mh   STATUS:               ID:20130719073642 L   3
 OLDACT:UPD 13-07-19 09:03 OP:stll STATUS:               ID:20130719073642 L   3
 2013-07-19-0736-42M.COL___219                                                 6
 STAT SP IPHASW D HRMM SECON CODA AMPLIT PERI AZIMU VELO AIN AR TRES W  DIS CAZ7
 BAR2 SZ IP     C  738 35.71                             156    0.0710 44.2  78 
 BAR2 SZ ES   1    738 47.94                             156   -0.21 7 44.2  78 
 BAR2 SZ I         738 49.69        62.7 0.34            161           44.2  78 
 BRR  HZ EP        738 36.57                             146   -0.1010 67.5 347 
 BRR  HN ES        738 50.53                             146    0.5410 67.5 347 
 BRR  HN I         739  0.25        34.6 0.20            147           67.5 347 
 GIR2 SZ EP   1    738 37.27                             143   -0.17 7 75.4  34 
 GIR2 SZ ES   1    738 51.38                             143    0.03 7 75.4  34 
 GIR2 SZ I         738 51.81        29.1 0.12            146           75.4  34 
 RUS  HZ EP   1    738 38.63                             139   -0.22 7 87.4 142 
 RUS  HN ES   1    738 53.72                             139   -0.15 7 87.4 142 
 RUS  HZ I         738 55.56         8.6 0.38            146           87.4 142 
 PTB  HZ IP     C  738 38.48                             135   -0.5710 97.6 272 
 PTB  HN ES   1    738 53.40                             135   -0.82 7 97.6 272 
 PTB  HN I         738 54.35        67.6 0.22            137           97.6 272 
 SPBC HZ EP   1    738 40.45                             131    0.20 7  110 210 
 SPBC HN ES   1    738 56.51                             131    0.15 7  110 210 
 SPBC HN I         738 59.31        49.2 0.12            136            110 210 
 NOR  HZ EP   1    738 46.70                             117   -0.39 7  178 234 
 NOR  HE ES        739  8.95                             117    0.41 9  178 234 
 NOR  HN I         739 11.93        34.6 0.20            121            178 234 
 ZAR  HZ EP   1    738 47.74                             117    0.61 7  179 307 
 ZAR  HE ES   1    739  9.17                             117    0.56 7  179 307 
 ZAR  HE I         739 13.85        47.0 0.18            120            179 307 
 YOP  SN ES        739  9.55                             116    0.27 9  181 135 
 OCA  HZ EP   1    738 49.28                             115    0.37 7  193   8 
 OCA  HN ES   1    739 11.09                             115   -0.68 7  193   8 
 OCA  HN I         739 16.64        40.0 0.32            118            193   8 
                                                                                
