 2013  219 0447  9.4 L   6.747 -73.176152.5  RSN  5 0.3 1.2LRSN                1
 GAP=206        0.59       5.9     6.3 11.3  0.6622E+01 -0.1925E+02 -0.1666E+02E
 Epicentro: VILLANUEVA - SANTANDER                                             3
 ACTION:UPD 13-03-12 09:34 OP:ep   STATUS:               ID:20130219044709 L   I
 2013-02-19-0440-00M.COL___240                                                 6
 STAT SP IPHASW D HRMM SECON CODA AMPLIT PERI AZIMU VELO AIN AR TRES W  DIS CAZ7
 BAR2 SZ EP   1    447 29.44                             173   -0.34 7 17.1 182 
 BAR2 SZ I         447 46.49         5.1 0.38            156           17.1 182 
 BRR  HZ EP   1    447 31.84                             154    0.51 7 71.4 304 
 BRR  HN ES   1    447 48.50                             154    0.10 7 71.4 304 
 BRR  HZ I         447 55.77         1.9 0.44            174           71.4 304 
 PTB  HE ES   1    447 57.60                             134   -0.15 7  143 261 
 PTB  HZ I         448  0.16         1.8 0.12            146            143 261 
 ZAR  HE ES   1    448  7.88                             124    0.04 6  203 294 
 SML  HN ES   1    448 15.82                             118   -0.26 6  248 337 
                                                                                
