 2011 1219 0804 11.5 L   6.756 -73.136141.0  RSN 10 0.2 2.1LRSN                1
 GAP=140        0.45       1.8     2.5  3.3 -0.1205E+01  0.2293E+01  0.9261E+00E
 Epicentro: LOS SANTOS - SANTANDER                                             3
 ACTION:UPD 12-07-13 16:17 OP:ep   STATUS:               ID:20111219080411 L   I
 2011-12-19-0800-00M.COL___188                                                 6
 STAT SP IPHASW D HRMM SECON CODA AMPLIT PERI AZIMU VELO AIN AR TRES W  DIS CAZ7
 BAR2 SZ IP        8 4 30.52                             172    0.0410 18.8 196 
 BAR2 SZ ES   1    8 4 45.13                             172   -0.14 7 18.8 196 
 BAR2 SZ I         8 4 47.16        33.0 0.23                          18.8 196 
 GIR2 SZ EP   1    8 4 30.44                             165   -0.32 7 36.3 350 
 BRR  HZ EP        8 4 32.34                             150    0.0010 74.6 301 
 BRR  HE ES   1    8 4 48.82                             150    0.23 7 74.6 301 
 BRR  HZ I         8 4 50.61        28.0 0.21                          74.6 301 
 PAM  SZ EP        8 4 33.42                             149    0.0110 80.5  37 
 PAM  SE ES   1    8 4 50.27                             149   -0.23 7 80.5  37 
 RUS  HZ EP        8 4 34.45                             144    0.0210 95.6 177 
 RUS  HN ES   1    8 4 52.60                             144    0.29 7 95.6 177 
 RUS  HZ I         8 4 54.89        12.0 0.37                          95.6 177 
 OCA  SZ EP   1    8 4 40.18                             128    0.25 7  165 353 
 OCA  SZ ES   1    8 5  2.06                             128   -0.04 7  165 353 
 OCA  SZ I         8 5 10.96        14.1 0.56                           165 353 
 NOR  SZ EP   1    8 4 46.31                             118   -0.45 6  233 236 
 NOR  SE ES   1    8 5 13.94                             118   -0.31 6  233 236 
 CHI  HZ EP        8 4 48.65                             117    0.19 8  244 196 
 CHI  HN ES   1    8 5 17.26                             117   -0.02 6  244 196 
 CHI  HZ I         8 5 21.77         9.4 0.52                           244 196 
 HEL  HZ EP   1    8 4 51.81                             114    0.34 6  272 257 
 HEL  HN ES   1    8 5 22.90                             114    0.26 6  272 257 
 HEL  HZ I         8 5 29.06         8.8 0.34                           272 257 
 RREF HZ EP   2    8 4 56.62                             110   -0.56 3  319 230 
 RREF HN ES   1    8 5 32.72                             110   -0.09 5  319 230 
 RREF HZ I         8 5 42.67         8.7 0.40                           319 230 
                                                                                
