 2014 1219 0741 21.0 L   6.827 -73.168135.4  RSN 20 0.5 2.1LRSN                1
 GAP= 69        1.23       2.7     3.1  5.9 -0.1182E+01  0.5691E+01  0.4876E+00E
 Epicentro: LOS SANTOS - SANTANDER                                             3
 ACTION:UPD 15-02-10 17:05 OP:nd   STATUS:               ID:20141219074121 L   I
 OLDACT:REG 14-12-19 13:04 OP:y    STATUS:               ID:20141219073739     3
 2014-12-19-0737-39M.COL___296                                                 6
 STAT SP IPHASW D HRMM SECON CODA AMPLIT PERI AZIMU VELO AIN AR TRES W  DIS CAZ7
 BAR2 EZ EP        741 39.94                             169    0.4710 26.0 184 
 BAR2 EZ ES        741 54.68                             169    0.8310 26.0 184 
 BAR2 EZ I         741 56.11        50.1 0.18            169           26.0 184 
 PAM  SZ EP     C  741 42.72                             149    0.6210 76.7  42 
 PAM  SN ES        741 58.89                             149    0.3510 76.7  42 
 PAM  SZ I         742  1.68        43.5 0.42            153           76.7  42 
 RUS  HZ EP        741 43.98                             141   -0.0310  104 175 
 RUS  HE ES        742  1.71                             141   -0.2310  104 175 
 RUS  HZ I         742  4.17        12.6 0.42            143            104 175 
 PTB  HZ EP        741 46.98                             130   -0.02 9  146 258 
 PTB  HN ES        742  6.47                             130   -0.79 9  146 258 
 PTB  HZ I         742 10.39        20.5 0.16            131            146 258 
 OCA  HZ EP        741 48.38                             128    0.14 9  157 354 
 OCA  HE ES        742  9.63                             128    0.17 9  157 354 
 OCA  HZ I         742 13.13        20.6 0.34            130            157 354 
 TAM  HZ IP     D  741 48.33                             127    0.13 9  158 106 
 TAM  HE ES        742  8.38                             127   -1.02 9  158 106 
 TAM  HZ I         742 11.05         8.2 0.22            132            158 106 
 SPBC HZ EP        741 48.84                             126    0.01 9  164 218 
 SPBC HN ES        742  9.71                             126   -0.80 9  164 218 
 SPBC HZ I         742 16.76        17.5 0.30            128            164 218 
 ZAR  HZ EP        741 52.77                             120    0.31 9  201 292 
 ZAR  HN ES        742 17.14                             120    0.16 9  201 292 
 ZAR  HZ I         742 20.56        18.5 0.28            122            201 292 
 NOR  HZ EP        741 56.63                             116    0.48 8  234 234 
 NOR  HN ES        742 22.81                             116   -0.73 8  234 234 
 NOR  HZ I         742 29.38         9.9 0.14            118            234 234 
 SML  HZ EP        741 56.17                             116   -0.51 8  240 336 
 SML  HE ES        742 23.65                             116   -0.84 8  240 336 
 SML  HZ I         742 34.15        22.2 0.22            117            240 336 
 CHI  HZ EP        741 58.23                             115   -0.19 8  251 194 
 CHI  HN ES        742 27.10                             115   -0.48 8  251 194 
 CHI  HZ I         742 31.04         4.5 0.62            117            251 194 
 ROSC BZ EP        741 58.75                             114    0.00 8  254 210 
 ROSC BN ES        742 29.03                             114    0.86 8  254 210 
 ROSC BZ I         742 33.80         9.3 0.35            116            254 210 
 HEL  HZ EP        742  1.62                             113    1.07 8  270 255 
 HEL  HE ES        742 30.80                             113   -0.57 8  270 255 
 HEL  HZ I         742 38.90         6.0 0.42            114            270 255 
 URE  HN ES        742 32.35                             112   -0.24 7  280 292 
 URE  HZ I         742 35.51         9.5 0.20            113            280 292 
 PTGC HZ EP   4    742  3.26                             109   -1.60 0  312 158 
 PTGC HN ES   4    742 35.32                             109   -3.72 0  312 158 
 PTGC HZ I         742 39.00         8.2 0.36            111            312 158 
 CBOC HZ EP        742  7.31                             108   -0.06 7  332 251 
 CBOC HE ES        742 43.60                             108    0.08 7  332 251 
 CBOC HZ I         742 47.92         2.1 0.30            109            332 251 
 TOL  SZ EP        742  9.12                             107    0.19 7  344 224 
 TOL  SE ES        742 47.13                             107    0.83 7  344 224 
 TOL  SZ I         742 54.37        12.4 0.28            109            344 224 
 MON  HZ EP   4    742  7.63                             107   -1.58 0  350 308 
 MON  HE ES   4    742 45.75                             107   -1.04 0  350 308 
 MON  HZ I         742 47.00         5.1 0.14            108            350 308 
 SDV  BZ EP        742  9.91                             106   -0.78 6  360  51 
 SDV  BE ES   4    742 46.56                             106   -2.86 0  360  51 
 ORTC HZ EP        742 14.73                             105    0.01 6  396 216 
 ORTC HN ES        742 56.93                             105    0.32 6  396 216 
 ORTC HZ I         743  3.27         3.7 0.24            106            396 216 
                                                                                
