 2017  319 0348  9.8 L   7.340 -73.121 11.1  RSN  6 0.4 1.4LRSN                1
 GAP=175        0.94       3.5     2.1  4.3 -0.7360E+00  0.3509E+01  0.1414E+01E
 Epicentro: RIONEGRO - SANTANDER                                               3
 ACTION:UPD 17-05-25 18:42 OP:jn   STATUS:               ID:20170319034809 L   I
 OLDACT:DUP 17-03-19 14:57 OP:cara STATUS:               ID:20170319033743d    3
 2017-03-19-0338-00M.COL___397                                                 6
 STAT SP IPHASW D HRMM SECON CODA AMPLIT PERI AZIMU VELO AIN AR TRES W  DIS CAZ7
 PAM  EZ EP        348 18.06                             100   -0.0010 46.6  90 
 PAM  EN ES        348 24.26                             100   -0.2410 46.6  90 
 PAM  EZ I         348 25.35        25.2 0.16             97           46.6  90 
 BRR  HZ EP        348 21.15                              96    0.0710 70.1 248 
 BRR  HN ES        348 30.12                              96    0.2410 70.1 248 
 BAR2 EZ ES        348 33.43                              95   -0.3410 83.0 185 
 RUS  HZ EP        348 35.88                              56    0.81 9  160 178 
 RUS  HN ES        348 54.94                              56    0.17 9  160 178 
 RUS  HZ I         348 58.25         4.3 0.30             92            160 178 
 PTB  HZ EP        348 36.10                              56    0.12 9  172 239 
 PTB  HN ES        348 55.73                              56   -0.67 9  172 239 
 PTB  HZ I         348 57.51         6.7 0.22             56            172 239 
 ZAR  HE ES        349  0.79                              56   -0.13 9  192 275 
                                                                                
