 2014  719 0332 46.6 L   6.813 -73.129151.9  RSN  6 0.4 1.4LRSN                1
 GAP=185        1.01       5.5     7.0 10.4  0.7243E+01  0.1130E+02 -0.6499E+01E
 Epicentro: LOS SANTOS - SANTANDER                                             3
 ACTION:UPD 15-03-16 20:45 OP:nd   STATUS:               ID:20140719033246 L   I
 OLDACT:REG 14-07-19 13:02 OP:fm   STATUS:               ID:20140719032806     3
 2014-07-19-0328-06M.COL___269                                                 6
 STAT SP IPHASW D HRMM SECON CODA AMPLIT PERI AZIMU VELO AIN AR TRES W  DIS CAZ7
 BAR2 SZ EP        333  7.28                             170    0.2610 25.1 193 
 BAR2 SZ ES   1    333 23.11                             170    0.18 7 25.1 193 
 BAR2 SZ I         333 23.76         5.8 0.58            171           25.1 193 
 BRR  HZ EP        333  8.99                             153    0.5110 72.1 297 
 BRR  HN ES        333 25.93                             153    0.3910 72.1 297 
 BRR  HZ I         333 30.74         3.0 0.14            149           72.1 297 
 RUS  HN ES   1    333 29.53                             145   -0.61 7  102 177 
 PTB  HZ EP   1    333 13.90                             133   -0.37 7  150 258 
 PTB  HN ES   1    333 35.22                             133   -0.62 7  150 258 
 PTB  HZ I         333 40.56         2.3 0.42            133            150 258 
 OCA  HE ES        333 37.06                             131   -0.61 9  159 352 
 OCA  HZ I         333 45.12         4.6 0.30            130            159 352 
 ZAR  HN ES        333 45.38                             124    0.09 9  205 292 
 ZAR  HZ I         333 52.56         2.6 0.28            123            205 292 
                                                                                
