 2013  519 0544 46.7 L   7.527 -73.120142.4  RSN 12 0.4 2.2LRSN                1
 GAP= 77        0.96       3.2     3.3  4.9  0.5589E+00  0.1259E+01 -0.1157E+01E
 Epicentro: EL PLAYON - SANTANDER                                              3
 ACTION:UPD 13-06-20 09:51 OP:ep   STATUS:               ID:20130519054446 L   I
 2013-05-19-0540-00M.COL___256                                                 6
 STAT SP IPHASW D HRMM SECON CODA AMPLIT PERI AZIMU VELO AIN AR TRES W  DIS CAZ7
 GIR2 SZ EP        545  6.90                             160    0.2610 50.2 189 
 GIR2 SZ ES        545 21.76                             160   -0.4310 50.2 189 
 GIR2 SZ I         545 24.74        26.6 0.36            158           50.2 189 
 PAM  SZ EP        545  7.67                             159    0.4910 50.9 114 
 PAM  SE ES        545 23.66                             159    0.5110 50.9 114 
 PAM  SZ I         545 24.53       111.6 0.40            159           50.9 114 
 BRR  HZ IP     D  545  8.29                             149    0.2710 80.1 235 
 BRR  HE ES        545 24.86                             149    0.2110 80.1 235 
 BRR  HZ I         545 26.69        28.5 0.18            148           80.1 235 
 OCA  HZ EP        545  8.43                             148    0.0810 81.7 344 
 OCA  HN ES        545 25.23                             148   -0.0010 81.7 344 
 OCA  HZ I         545 28.44        25.0 0.38            151           81.7 344 
 BAR2 SZ EP        545 10.12                             142    0.1410  104 184 
 BAR2 SZ ES        545 27.69                             142   -0.4610  104 184 
 BAR2 SZ I         545 29.31        52.5 0.14            141            104 184 
 SML  HZ EP        545 15.40                             126   -0.62 9  176 323 
 SML  HN ES   1    545 38.10                             126   -0.80 7  176 323 
 RUS  HZ EP   1    545 17.29                             125    0.10 7  181 179 
 RUS  HE ES   1    545 40.62                             125   -0.36 7  181 179 
 RUS  HZ I         545 46.92         4.8 0.38            125            181 179 
 PTB  HZ EP        545 16.75                             125   -0.10 9  184 234 
 PTB  HN ES        545 40.16                             125   -0.20 9  184 234 
 PTB  HZ I         545 43.83        19.9 0.18            125            184 234 
 TAM  HZ EP   1    545 17.83                             124    0.29 7  190 129 
 TAM  HE ES   1    545 40.80                             124   -0.79 7  190 129 
 TAM  HZ I         545 47.13         8.7 0.38            124            190 129 
 ZAR  HN ES        545 42.35                             123    0.53 9  192 269 
 ZAR  HZ I         545 43.25        22.4 0.12            124            192 269 
 HEL  HZ EP        545 30.98                             111    0.60 7  304 241 
 HEL  HE ES   1    546  3.74                             111   -0.72 5  304 241 
 HEL  HZ I         546 11.67         5.2 0.34            112            304 241 
 SDV  BZ EP        545 30.79                             111   -0.31 7  313  61 
 SDV  BE ES   4    546  3.24                             111   -2.49 0  313  61 
                                                                                
