 2011 1119 0529  2.9 L   6.791 -73.091148.6  RSN  6 0.4 1.4LRSN                1
 GAP=144        0.81       5.1     6.1  8.8  0.6054E+01  0.2739E+01 -0.8744E-01E
 Epicentro: LOS SANTOS - SANTANDER                                             3
 ACTION:UPD 12-07-13 16:11 OP:ep   STATUS:               ID:20111119052902 L   I
 2011-11-19-0526-07S.COL___178                                                 6
 STAT SP IPHASW D HRMM SECON CODA AMPLIT PERI AZIMU VELO AIN AR TRES W  DIS CAZ7
 BAR2 SZ EP   1    529 22.72                             170   -0.18 7 24.2 205 
 BAR2 SZ I         529 45.91         4.3 0.39                          24.2 205 
 PAM  SZ EP   1    529 25.81                             152    0.54 7 74.5  36 
 PAM  SZ I         529 26.40         2.8 0.20                          74.5  36 
 PAM  SN ES   1    529 42.20                             152   -0.50 7 74.5  36 
 BRR  HZ EP   1    529 25.09                             151    0.39 7 76.9 297 
 BRR  HZ I         529 26.96         4.7 0.12                          76.9 297 
 BRR  HN ES   1    529 42.27                             151    0.58 7 76.9 297 
 RUS  HZ EP        529 26.73                             145   -0.1310 99.4 179 
 RUS  HN ES   1    529 45.50                             145   -0.04 7 99.4 179 
 OCA  SZ EP   1    529 31.50                             130   -0.11 7  162 351 
 ZAR  HE ES   1    530  1.44                             122   -0.64 6  210 292 
 ZAR  HZ I         530  7.73         3.2 0.08                           210 292 
                                                                                
