 2015  319 0518 55.1 L   6.808 -73.169141.7  RSN  9 0.4 1.6LRSN                1
 GAP= 70        1.04       3.5     3.7  6.5  0.1416E+01  0.1161E+01  0.9646E+00E
 Epicentro: LOS SANTOS - SANTANDER                                             3
 ACTION:UPD 15-04-30 16:27 OP:nd   STATUS:               ID:20150319051855 L   I
 OLDACT:REG 15-03-19 12:53 OP:stll STATUS:               ID:20150319051749     3
 2015-03-19-0517-49M.COL___275                                                 6
 STAT SP IPHASW D HRMM SECON CODA AMPLIT PERI AZIMU VELO AIN AR TRES W  DIS CAZ7
 BAR2 EZ EP        519 14.42                             170    0.2210 23.9 184 
 BAR2 EZ ES        519 29.06                             170   -0.0810 23.9 184 
 BAR2 EZ I         519 32.09         5.3 0.24            165           23.9 184 
 BRR  HZ EP        519 16.34                             153    0.7310 68.5 299 
 BRR  HN ES        519 31.93                             153    0.2910 68.5 299 
 BRR  HZ I         519 37.30         4.8 0.30            146           68.5 299 
 PAM  SZ EP        519 17.39                             150    0.4910 78.4  41 
 PAM  SZ I         519 17.53        10.9 0.18            150           78.4  41 
 PAM  SN ES        519 34.13                             150    0.2010 78.4  41 
 RUS  HZ EP        519 18.52                             143    0.0410  102 175 
 RUS  HN ES        519 36.54                             143   -0.2110  102 175 
 RUS  HZ I         519 38.56         2.4 0.32            137            102 175 
 PTB  HZ EP        519 20.77                             131   -0.70 9  145 258 
 PTB  HN ES        519 41.81                             131   -0.27 9  145 258 
 PTB  HZ I         519 44.05         4.0 0.40            124            145 258 
 TAM  HZ EP        519 22.66                             129   -0.00 9  158 105 
 TAM  HE ES        519 43.61                             129   -0.59 9  158 105 
 OCA  HN ES        519 44.33                             129   -0.36 9  159 354 
 OCA  HZ I         519 52.87         9.6 0.20            125            159 354 
 SPBC HZ EP        519 23.52                             128    0.37 9  162 218 
 SPBC HZ I         519 47.84         4.8 0.10            122            162 218 
 SML  HN ES        519 58.95                             117   -0.54 8  242 336 
 SML  HZ I         520  1.56         5.8 0.26            113            242 336 
                                                                                
