 2015  119 0556 42.6 L   6.775 -73.167147.5  RSN  4 0.4 1.3LRSN                1
 GAP=140        1.08       6.1     6.3 10.4 -0.1687E+02  0.1756E+02 -0.2698E+01E
 Epicentro: LOS SANTOS - SANTANDER                                             3
 ACTION:UPD 15-03-02 15:40 OP:nd   STATUS:               ID:20150119055642 L   I
 OLDACT:DUP 15-01-19 16:32 OP:carl STATUS:               ID:20150119054737d    3
 2015-01-19-0547-36M.COL___256                                                 6
 STAT SP IPHASW D HRMM SECON CODA AMPLIT PERI AZIMU VELO AIN AR TRES W  DIS CAZ7
 PAM  SZ EP        557  5.42                             150    0.2310 81.0  40 
 PAM  SN ES        557 22.85                             150    0.0210 81.0  40 
 PAM  SZ I         557 24.37         3.1 0.52            152           81.0  40 
 RUS  HZ EP        557  5.41                             145   -0.9010 98.0 175 
 RUS  HN ES        557 25.02                             145    0.1910 98.0 175 
 RUS  HZ I         557 25.79         2.7 0.28            147           98.0 175 
 PTB  HZ EP        557  9.46                             133    0.04 9  145 260 
 PTB  HN ES        557 30.07                             133   -0.30 9  145 260 
 PTB  HZ I         557 31.89         3.1 0.30            134            145 260 
 SPBC HZ EP        557 11.48                             130    0.62 9  160 219 
 SPBC HN ES        557 33.11                             130    0.18 9  160 219 
 SPBC HZ I         557 35.82         3.9 0.26            132            160 219 
                                                                                
