 2010  119 0249 40.8 L   6.818 -72.951148.6  RSN  8 0.3 2.1LRSN                1
 GAP=203        0.63       2.6     8.7  4.5 -0.5629E+01  0.1255E+02  0.7683E+00E
 Epicentro: CEPITA - SANTANDER                                                 3
 ACTION:UP  10-08-24 09:44 OP:vdl  STATUS:               ID:20100119024941 L   I
 2010-01-19-0246-43S.COL___096                                                 6
 STAT SP IPHASW D HRMM SECON CODA AMPLIT PERI AZIMU VELO SNR AR TRES W  DIS CAZ7
 BAR2 SZ EP        250  1.24                             166     0.110   36 226 
 BAR2 SZ ES   1    250 16.47                             166    -0.5 7   36 226 
 GIR2 SZ EP        250  1.31                             165     0.210   39 317 
 GIR2 SZ ES   1    250 17.01                             165     0.1 7   39 317 
 RUS  BZ EP        250  5.22                             144     0.210  103 188 
 RUS  BN ES        250 24.00                             144     0.110  103 188 
 RUS  BZ I         250 25.18        13.6 0.20                           103 188 
 OCA  SZ EP        250  9.58                             130     0.0 9  162 346 
 OCA  SZ ES   1    250 31.59                             130    -0.4 7  162 346 
 CHI  HZ EP        250 19.58                             117     0.0 8  257 200 
 CHI  HN ES   2    250 49.59                             117    -0.2 4  257 200 
 CHI  HZ I         250 52.48         7.9 0.82                           257 200 
 RREF BZ EP   2    250 29.63                             110     0.5 3  340 232 
 RREF BE ES   2    251  7.56                             110     0.8 3  340 232 
 RREF BZ I         251 12.96         7.8 0.52                           340 232 
 TOL  SZ EP   1    250 30.96                             109    -0.2 5  360 227 
 PRA  HZ EP        250 35.14                             106    -0.8 6  405 212 
 PRA  HN ES        251 18.64                             106    -0.3 6  405 212 
                                                                                
