 2010  619 0248 37.2 L   6.780 -73.068142.2  RSN  8 0.5 1.7LRSN                1
 GAP=165        1.07       4.5    10.2  8.9 -0.1927E+02  0.5424E+01 -0.3577E+01E
 Epicentro: LOS SANTOS - SANTANDER                                             3
 ACTION:UP  10-08-24 10:11 OP:vdl  STATUS:               ID:20100619024837 L   I
 2010-06-19-0245-09S.COL___118                                                 6
 STAT SP IPHASW D HRMM SECON CODA AMPLIT PERI AZIMU VELO SNR AR TRES W  DIS CAZ7
 BAR2 SZ IP        248 56.27                             170    -0.110   24 211 
 BAR2 SZ ES   1    249 10.99                             170    -0.4 7   24 211 
 BRR  HZ EP   1    248 57.65                             149    -0.8 7   80 297 
 BRR  HN ES   2    249 14.93                             149    -0.1 5   80 297 
 BRR  HZ I         249 28.22        12.2 0.46                            80 297 
 RUS  HZ EP        249  0.24                             144    -0.210   98 181 
 RUS  HN ES   1    249 19.08                             144     0.6 7   98 181 
 RUS  HZ I         249 20.37         3.3 0.36                            98 181 
 BRI  SZ IP        249  0.72                             141     0.110  108  16 
 BRI  SZ ES   1    249 18.90                             141    -0.1 7  108  16 
 GUE  SZ EP        249  2.19                             138     0.610  117   8 
 GUE  SZ ES   2    249 20.50                             138    -0.2 5  117   8 
 GRA  SZ IP        249  1.97                             136    -0.110  126  13 
 GRA  SZ ES   1    249 21.67                             136     0.2 7  126  13 
 OCA  SZ EP   1    249  4.62                             128    -0.9 7  164 350 
 OCA  SZ ES   1    249 28.39                             128     0.7 7  164 350 
 OCA  SZ I         249 30.49        11.9 0.05                           164 350 
 RREF HN ES   1    250  0.89                             110     0.8 5  327 231 
 RREF HZ I         250  7.75         2.7 0.21                           327 231 
                                                                                
