 2017  619 0448  7.2 L   6.731 -73.247136.4  RSN 15 0.5 2.4LRSN                1
 GAP=198        1.19       4.3     4.9  7.8  0.9139E+01 -0.5428E+01  0.1685E+01E
 Epicentro: ZAPATOCA - SANTANDER                                               3
 ACTION:UPD 17-09-14 16:53 OP:jn   STATUS:               ID:20170619044807 L   I
 OLDACT:DUP 17-06-19 17:24 OP:lv   STATUS:               ID:20170619043730d    3
 2017-06-19-0438-00M.COL___334                                                 6
 STAT SP IPHASW D HRMM SECON CODA AMPLIT PERI AZIMU VELO AIN AR TRES W  DIS CAZ7
 BRR  HZ IP     C  448 26.73                             152   -0.3310 66.1 309 
 BRR  HN ES        448 42.95                             152    0.4110 66.1 309 
 PTB  HZ EP        448 31.55                             132   -0.74 9  135 261 
 PTB  HN ES        448 51.64                             132   -0.22 9  135 261 
 PTB  HZ I         448 55.81        27.3 0.04            121            135 261 
 SPBC HZ EP        448 33.95                             129    0.18 9  150 217 
 SPBC HN ES        448 54.44                             129   -0.04 9  150 217 
 SPBC HZ I         448 56.88        38.4 0.17            118            150 217 
 YPLC HZ EP        448 35.41                             124   -0.85 9  176 147 
 YPLC HN ES        448 59.10                             124    0.18 9  176 147 
 YPLC HZ I         449  1.83                             116            176 147 
 ZAR  HZ EP        448 38.18                             121   -0.13 9  197 295 
 ZAR  HN ES        449  3.09                             121    0.52 9  197 295 
 ZAR  HZ I         449  8.98        30.3 0.16            113            197 295 
 TABC EZ EP        448 41.95                             119    0.84 8  218 209 
 TABC EZ I         449 14.32        18.9 0.31            109            218 209 
 NOR  HZ EP        448 40.91                             118   -0.03 8  221 234 
 NOR  HN ES        449  6.75                             118   -0.51 8  221 234 
 NOR  HZ I         449 16.12        25.4 0.29            109            221 234 
 CHI  HZ EP        448 43.29                             116   -0.00 8  239 193 
 CHI  HN ES        449 12.08                             116    0.64 8  239 193 
 CHI  HZ I         449 15.75         7.4 0.38            108            239 193 
 ROSC BZ EP   4    448 45.00                             116    1.51 0  241 210 
 ROSC BN ES   4    449 16.17                             116    4.39 0  241 210 
 ROSC BZ I         449 18.81        16.4 0.43            107            241 210 
 HEL  HZ EP   9    448 47.16                             114    1.62 0  259 257 
 HEL  HN ES        449 16.77                                   -0.29 8  259 257 
 HEL  HZ I         449 24.28        16.6 0.33            106            259 257 
 URE  HZ EP        448 48.11                             112    1.10 7  277 294 
 URE  HN ES        449 17.32                             112   -0.74 7  277 294 
 URE  HZ I         449 18.99        36.1 0.05            105            277 294 
 PTGC HZ EP   9    448 48.20                             110   -2.15 0  306 156 
 PTGC HN ES        449 21.08                                   -0.77 7  306 156 
 PTGC HZ I         449 23.05        11.3 0.34            103            306 156 
 CBOC HZ EP   9    448 53.44                             109    1.19 0  321 253 
 CBOC HN ES        449 28.45                                   -0.12 7  321 253 
 CBOC HZ I         449 29.69         6.3 0.39            102            321 253 
 ORTC HZ EP        448 59.58                             105    0.26 6  383 215 
 ORTC HN ES   4    449 44.08                             105    4.11 0  383 215 
 ORTC HZ I         449 49.62         5.5 0.06             99            383 215 
 SJC  HZ EP   4    448 59.84                             104   -2.70 0  410 329 
 SJC  HN ES   4    449 41.31                             104   -4.38 0  410 329 
 SJC  HZ I         449 45.13        10.5 0.49             99            410 329 
                                                                                
