 2012  319 0622 36.2 L   6.399 -72.837  4.0  RSN  5 0.4 1.4LRSN                1
 GAP=198        0.92       3.5     7.5  9.0  0.3730E+01  0.2463E+02 -0.7306E+01E
 ACTION:UP  12-03-31 23:20 OP:EP   STATUS:               ID:20120319062236 L   I
 2012-03-19-0620-00M.COL___202                                                 6
 STAT SP IPHASW D HRMM SECON CODA AMPLIT PERI AZIMU VELO SNR AR TRES W  DIS CAZ7
 BAR2 SZ EP        622 43.30                              47    -0.310   44 299 
 BAR2 SZ ES   2    622 48.73                              47    -0.7 5   44 299 
 BAR2 SZ I         622 49.42        33.6 0.15                            44 299 
 RUS  HZ EP        622 46.73                              47     0.010   62 206 
 RUS  HN ES   2    622 54.76                              47    -0.2 5   62 206 
 RUS  HZ I         622 55.35         9.3 0.14                            62 206 
 PAM  SN ES   2    623  6.07                              47    -0.4 5  105   8 
 BRR  HZ EP   1    622 56.39                              47     0.8 7  124 309 
 BRR  HN ES   1    623 11.15                              47     0.4 7  124 309 
 BRR  HZ I         623 15.65         9.6 0.19                           124 309 
 PTB  HZ EP   1    623  4.21                              37     0.3 7  180 275 
 PTB  HN ES   2    623 25.35                              37    -0.2 4  180 275 
 PTB  HZ I         623 26.36         7.6 0.19                           180 275 
                                                                                
