 2011  919 0412 30.9 L   6.762 -73.090148.5  RSN  5 0.2 1.1LRSN                1
 GAP=145        0.49       4.2     7.0  7.3  0.4347E+01 -0.1572E+02  0.2629E+00E
 Epicentro: LOS SANTOS - SANTANDER                                             3
 ACTION:UPD 12-07-13 15:58 OP:ep   STATUS:               ID:20110919041230 L   I
 2011-09-19-0411-23S.COL___170                                                 6
 STAT SP IPHASW D HRMM SECON CODA AMPLIT PERI AZIMU VELO AIN AR TRES W  DIS CAZ7
 BTL  SZ EP   3    412 50.45                             170   -0.50 2 26.1 311 
 GIR2 SZ EP        412 50.86                             165   -0.2210 36.8 342 
 GIR2 SZ ES   2    413  6.54                             165   -0.27 5 36.8 342 
 PAM  SZ EP        412 53.67                             151    0.2610 77.1  34 
 BRR  HN EP        412 52.71                             151   -0.0910 78.6 299 
 BRR  HE ES   2    413 10.30                             151    0.44 5 78.6 299 
 RUS  HZ EP        412 54.68                             146    0.0510 96.1 180 
 RUS  HN ES   2    413 13.11                             146   -0.02 5 96.1 180 
 RUS  HZ I         413 14.99         2.0 0.24                          96.1 180 
                                                                                
