 2014  219 0402 58.7 L   6.828 -73.161143.1  RSN  8 0.3 1.5LRSN                1
 GAP=200        0.68       3.6     4.8  6.5  0.8194E+01  0.3647E+01 -0.6456E+01E
 Epicentro: LOS SANTOS - SANTANDER                                             3
 ACTION:UPD 14-03-10 08:11 OP:ep   STATUS:               ID:20140219040258 L   I
 OLDACT:REG 14-02-19 11:35 OP:cam  STATUS:               ID:20140219040000     3
 2014-02-19-0400-00M.COL___212                                                 6
 STAT SP IPHASW D HRMM SECON CODA AMPLIT PERI AZIMU VELO AIN AR TRES W  DIS CAZ7
 BAR2 SZ EP   1    4 3 18.30                             169    0.18 8 26.2 185 
 BAR2 SZ ES   1    4 3 33.50                             169    0.28 8 26.2 185 
 BAR2 SZ I         4 3 34.01         7.7 0.32            171           26.2 185 
 RUS  HZ EP        4 3 22.62                             142    0.1510  104 175 
 RUS  HN ES        4 3 40.72                             142   -0.2610  104 175 
 RUS  HZ I         4 3 42.67         3.1 0.38            144            104 175 
 PTB  HZ EP        4 3 24.96                             132   -0.45 9  147 258 
 PTB  HN ES   1    4 3 45.67                             132   -0.53 7  147 258 
 PTB  HZ I         4 3 48.41         5.0 0.12            131            147 258 
 OCA  HE ES   4    4 3 49.71                             130    1.50 0  157 354 
 OCA  HZ I         4 3 54.95         3.8 0.20            129            157 354 
 SPBC HZ EP   2    4 3 27.55                             128    0.37 5  165 218 
 SPBC HN ES   2    4 3 49.91                             128    0.56 5  165 218 
 SPBC HZ I         4 3 53.95         4.2 0.56            129            165 218 
 ZAR  HZ EP   1    4 3 31.14                             122    0.40 6  201 291 
 ZAR  HN ES        4 3 56.08                             122    0.39 9  201 291 
 ZAR  HZ I         4 4  1.70         4.3 0.34            122            201 291 
 SML  HZ EP   2    4 3 34.56                             117   -0.28 4  240 335 
 SML  HN ES        4 4  2.81                             117   -0.18 8  240 335 
 SML  HZ I         4 4  4.61         4.7 0.26            117            240 335 
 CHI  HZ EP   2    4 3 36.66                             116    0.08 4  251 195 
 CHI  HZ I         4 3 40.45         0.9 0.34            117            251 195 
 CHI  HN ES   4    4 4  7.55                             116    1.46 0  251 195 
                                                                                
