 2012  619 0953 29.4 L   6.819 -73.176145.3  RSN 10 0.3 2.7LRSN                1
 GAP=132        0.66       3.1     3.9  5.4 -0.2869E+01  0.9544E+01 -0.6896E+00E
 Epicentro: LOS SANTOS - SANTANDER                                             3
 ACTION:UPD 12-08-06 17:50 OP:ep   STATUS:               ID:20120619095329 L   I
 2012-06-19-0950-00M.COL___199                                                 6
 STAT SP IPHASW D HRMM SECON CODA AMPLIT PERI AZIMU VELO AIN AR TRES W  DIS CAZ7
 BAR2 SZ IP        953 49.10                             170    0.0910 25.1 181 
 BAR2 SZ ES   1    954  4.64                             170    0.34 7 25.1 181 
 BAR2 SZ I         954  6.44       113.7 0.34                          25.1 181 
 PAM  SZ EP        953 51.85                             151    0.2510 78.0  42 
 PAM  SN ES   1    954  8.76                             151   -0.16 7 78.0  42 
 PAM  SZ I         954 10.25        44.3 0.40                          78.0  42 
 RUS  HZ EP        953 53.11                             143   -0.1710  103 174 
 RUS  HE ES   2    954 11.67                             143   -0.23 5  103 174 
 RUS  HZ I         954 13.32        55.1 0.32                           103 174 
 PTB  HZ EP        953 55.59                             132   -0.48 9  145 258 
 PTB  HN ES   2    954 16.21                             132   -0.65 5  145 258 
 PTB  HZ I         954 22.44        58.0 0.50                           145 258 
 OCA  HZ EP        953 57.10                             130   -0.34 9  158 354 
 OCA  HZ I         954 24.15       172.5 0.22                           158 354 
 ZAR  HZ EP        954  1.61                             123    0.20 9  200 292 
 ZAR  HN ES   2    954 27.17                             123    0.80 4  200 292 
 ZAR  HZ I         954 33.41        77.3 0.34                           200 292 
 NOR  SZ EP        954  5.05                             119    0.11 8  233 234 
 NOR  SE ES   1    954 32.53                             119   -0.13 6  233 234 
 CHI  HZ EP        954  7.36                             117    0.16 8  250 194 
 CHI  HN ES   1    954 36.70                             117    0.01 6  250 194 
 CHI  HZ I         954 42.89        24.6 0.64                           250 194 
 HEL  HZ EP   1    954 10.01                             115    0.73 6  269 255 
 HEL  HZ I         954 49.77        30.3 0.42                           269 255 
 DBB  SZ EP   2    954 16.27                             110   -0.18 3  336 274 
                                                                                
