 2014  119 0716 34.8 L   6.448 -73.613107.5  RSN  4 0.1 1.2LRSN                1
 GAP=140        0.43       5.2     2.2  4.9 -0.1612E+00  0.2784E+01 -0.1317E+00E
 Epicentro: SANTA HELENA DEL OPON - SANTANDER                                  3
 ACTION:UPD 14-03-13 09:56 OP:ep   STATUS:               ID:20140119071634 L   I
 OLDACT:UP  14-01-19 09:03 OP:cam  STATUS:               ID:20140119071002d    3
 OLDACT:DUP 14-01-19 09:01 OP:cam  STATUS:               ID:20140119071002d    3
 OLDACT:UP  14-01-19 08:59 OP:cam  STATUS:               ID:20140119071000     3
 OLDACT:REG 14-01-19 07:57 OP:cam  STATUS:               ID:20140119071000     3
 2014-01-19-0710-00M.COL___285                                                 6
 STAT SP IPHASW D HRMM SECON CODA AMPLIT PERI AZIMU VELO AIN AR TRES W  DIS CAZ7
 BAR2 SZ EP        716 50.70                             153   -0.2310 50.2  71 
 BAR2 SZ ES        717  3.64                             153    0.0910 50.2  71 
 BAR2 SZ I         717  4.81         9.0 0.30            156           50.2  71 
 RUS  HZ EP   2    716 53.89                             139    0.23 5 84.9 136 
 PTB  HZ EP        716 53.86                             136    0.1210 93.8 276 
 PTB  HN ES        717  8.50                             136   -0.0510 93.8 276 
 PTB  HZ I         717  9.96         2.2 0.40            137           93.8 276 
 SML  HN ES   2    717 41.25                             106    0.11 4  265 349 
                                                                                
