 2013  119 0447 52.8 L   7.418 -73.214131.5  RSN  4 0.3 1.1LRSN                1
 GAP=221        0.55       8.0     4.8  7.2 -0.2091E+02  0.1682E+02 -0.2162E+02E
 Epicentro: EL PLAYON - SANTANDER                                              3
 ACTION:UPD 13-02-15 09:15 OP:ep   STATUS:               ID:20130119044752 L   I
 2013-01-19-0440-00M.COL___241                                                 6
 STAT SP IPHASW D HRMM SECON CODA AMPLIT PERI AZIMU VELO AIN AR TRES W  DIS CAZ7
 PAM  SZ EP   1    448 12.32                             155   -0.03 7 57.4  99 
 PAM  SN ES   1    448 27.32                             155   -0.28 7 57.4  99 
 PAM  SZ I         448 29.42         3.4 0.60            157           57.4  99 
 BRR  HZ EP     D  448 12.13                             152    0.0910 64.9 238 
 BRR  HN ES   1    448 27.33                             152    0.28 7 64.9 238 
 BRR  HZ I         448 28.09         2.8 0.26            152           64.9 238 
 BAR2 SZ ES   1    448 30.92                             143    0.17 7 91.4 178 
 PTB  HZ EP   1    448 20.79                             125    0.15 7  168 235 
 PTB  HE ES   1    448 41.83                             125   -0.53 7  168 235 
 PTB  HZ I         448 45.16         1.3 0.16            126            168 235 
                                                                                
