 2012  319 0724 43.4 L   6.798 -73.138140.6  RSN  6 0.4 1.5LRSN                1
 GAP=138        0.94       7.4     5.9  9.9 -0.2240E+01  0.9135E+01  0.1212E+02E
 ACTION:UP  12-03-31 23:20 OP:EP   STATUS:               ID:20120319072443 L   I
 2012-03-19-0720-00M.COL___202                                                 6
 STAT SP IPHASW D HRMM SECON CODA AMPLIT PERI AZIMU VELO SNR AR TRES W  DIS CAZ7
 BAR2 SZ EP   1    725  2.47                             170     0.1 7   23 192 
 BAR2 SZ ES   2    725 16.69                             170    -0.5 5   23 192 
 BAR2 SZ I         725 18.63         7.5 0.42                            23 192 
 BRR  HZ EP   1    725  4.37                             151     0.3 7   72 298 
 BRR  HE ES   1    725 20.85                             151     0.7 7   72 298 
 BRR  HZ I         725 24.94         7.2 0.13                            72 298 
 PAM  SZ EP   1    725  5.35                             150     0.3 7   77  39 
 PAM  SN ES   1    725 21.33                             150    -0.6 7   77  39 
 RUS  HZ EP   1    725  6.65                             143     0.0 7  100 177 
 RUS  HN ES   2    725 25.30                             143     0.6 5  100 177 
 RUS  HZ I         725 27.15         5.5 0.46                           100 177 
 PTB  HZ EP   1    725  9.45                             131    -0.6 7  149 259 
 PTB  HN ES   1    725 30.34                             131    -0.4 7  149 259 
 PTB  HZ I         725 33.13         3.4 0.16                           149 259 
 ZAR  HZ EP   2    725 15.72                             121     0.1 4  205 292 
 ZAR  HN ES   2    725 40.67                             121    -0.1 4  205 292 
 ZAR  HZ I         725 42.48         3.7 0.16                           205 292 
                                                                                
