 2017  219 0147  3.5 L   6.807 -73.083148.1  RSN  7 0.3 1.4LRSN                1
 GAP=244        0.71       3.7     4.4  5.2  0.5630E+01  0.4546E+01  0.5263E+01E
 Epicentro: LOS SANTOS - SANTANDER                                             3
 ACTION:UPD 17-05-24 15:37 OP:jn   STATUS:               ID:20170219014703 L   I
 OLDACT:UP  17-04-17 20:28 OP:nlst STATUS:               ID:20170219014703 L   3
 OLDACT:REG 17-02-19 12:21 OP:edw  STATUS:               ID:20170219013746     3
 2017-02-19-0138-00M.COL___358                                                 6
 STAT SP IPHASW D HRMM SECON CODA AMPLIT PERI AZIMU VELO AIN AR TRES W  DIS CAZ7
 BAR2 EZ EP        147 23.26                             170   -0.1610 26.1 205 
 BAR2 EZ ES        147 38.83                             170   -0.1610 26.1 205 
 BAR2 EZ I         147 41.01         7.2 0.42            167           26.1 205 
 BRR  HZ EP        147 25.28                             151    0.1010 77.0 296 
 BRR  HN ES        147 42.59                             151    0.4610 77.0 296 
 BRR  HZ I         147 47.50         5.0 0.26            150           77.0 296 
 RUS  HZ EP        147 27.47                             144    0.0110  101 180 
 RUS  HN ES        147 46.03                             144   -0.1710  101 180 
 RUS  HZ I         147 46.87         4.1 0.26            145            101 180 
 PTB  HZ EP   1    147 31.65                             131    0.41 7  155 259 
 PTB  HN ES   1    147 53.04                             131    0.13 7  155 259 
 PTB  HZ I         147 55.73         3.2 0.14            131            155 259 
 ZAR  HN ES   1    148  1.66                             122   -0.93 6  210 291 
 NOR  HE ES        148  8.29                             118   -0.16 8  241 235 
 NOR  HZ I         148 10.88         2.0 0.20            119            241 235 
 CHI  HZ EP        147 41.56                             117   -0.00 8  251 197 
 CHI  HE ES        148 11.49                             117    0.20 8  251 197 
 CHI  HZ I         148 16.26         1.0 0.42            119            251 197 
                                                                                
