 2011  119 0730  1.6 L   6.848 -72.984151.7  RSN  5 0.1 1.3LRSN                1
 GAP=290        0.32       4.2     6.5  4.6 -0.3572E+01  0.1454E+02  0.4836E+00E
 Epicentro: CEPITA - SANTANDER                                                 3
 ACTION:UP  11-02-08 08:41 OP:pat  STATUS:               ID:20110119073001 L   I
 2011-01-19-0726-21S.COL___137                                                 6
 STAT SP IPHASW D HRMM SECON CODA AMPLIT PERI AZIMU VELO SNR AR TRES W  DIS CAZ7
 BAR2 SZ EP   2    730 22.42                             166     0.2 5   36 218 
 BAR2 SZ ES   2    730 38.33                             166     0.0 5   36 218 
 BAR2 SZ I         730 39.82         3.6 0.40                            36 218 
 RUS  HZ EP   2    730 26.28                             143     0.0 5  106 186 
 RUS  HE ES   2    730 45.49                             143    -0.1 5  106 186 
 RUS  HZ I         730 46.44         1.9 0.38                           106 186 
 CHI  HZ EP   1    730 40.60                             117    -0.1 6  259 199 
 CHI  HN ES   1    731 11.37                             117     0.1 6  259 199 
 CHI  HZ I         731 15.46         1.2 0.31                           259 199 
 HEL  HZ EP   2    730 43.92                             114    -0.2 4  291 256 
 HEL  HZ I         731 20.28         1.2 0.53                           291 256 
 RREF HZ EP   1    730 50.08                             111     0.2 5  339 231 
 RREF HE ES   2    731 27.62                             111     0.0 3  339 231 
 RREF HZ I         731 33.27         1.6 0.23                           339 231 
                                                                                
