 2016  619 0336 43.2 L   6.879 -73.243122.8  RSN  7 0.3 1.9LRSN                1
 GAP=171        0.63       2.6     3.5  4.6 -0.4458E+00  0.4723E+01 -0.1833E+01E
 Epicentro: BETULIA - SANTANDER                                                3
 ACTION:UPD 16-07-21 22:20 OP:rebc STATUS:               ID:20160619033643 L   I
 OLDACT:REG 16-06-19 12:20 OP:y    STATUS:               ID:20160619032743     3
 2016-06-19-0327-43M.COL___340                                                 6
 STAT SP IPHASW D HRMM SECON CODA AMPLIT PERI AZIMU VELO AIN AR TRES W  DIS CAZ7
 BAR2 EZ EP        337  0.68                             164    0.3910 32.4 168 
 BAR2 EZ ES        337 13.75                             164    0.1010 32.4 168 
 BRR  HZ IP     D  337  0.99                             153   -0.0710 57.6 296 
 BRR  HE ES        337 15.04                             153    0.0310 57.6 296 
 BRR  HZ I         337 16.67        13.4 0.14                          57.6 296 
 RUS  HZ EP   2    337  5.70                             135    0.14 5  111 171 
 RUS  HN ES   2    337 22.02                             135   -1.00 5  111 171 
 PTB  HZ IP   4 C  337  5.92                             128   -1.61 0  139 254 
 PTB  HN ES   4    337 23.26                             128   -3.28 0  139 254 
 PTB  HZ I         337 28.12        10.8 0.42                           139 254 
 OCA  HZ EP        337  8.66                             126   -0.16 9  151 357 
 OCA  HN ES        337 28.65                             126   -0.19 9  151 357 
 OCA  HZ I         337 34.04        26.1 0.72                           151 357 
 ZAR  HZ EP        337 13.16                             119    0.37 9  191 291 
 ZAR  HN ES        337 35.82                             119   -0.08 9  191 291 
 ZAR  HZ I         337 40.16         9.9 0.46                           191 291 
 NOR  HZ EP   2    337 16.99                             113   -0.31 4  231 231 
 NOR  HE ES        337 43.76                             113   -0.16 8  231 231 
 NOR  HZ I         337 48.16         2.7 0.14                           231 231 
                                                                                
