 2016 1219 0621  4.6 L   6.727 -73.181146.5  RSN  4 0.3 1.0LRSN                1
 GAP=228        0.90       7.1     6.7  7.2  0.2336E+02  0.5418E+01  0.1643E+01E
 Epicentro: VILLANUEVA - SANTANDER                                             3
 ACTION:UPD 17-01-11 20:16 OP:rebc STATUS:               ID:20161219062104 L   I
 OLDACT:REG 16-12-19 13:24 OP:cog  STATUS:               ID:20161219061745     3
 2016-12-19-0618-00M.COL___312                                                 6
 STAT SP IPHASW D HRMM SECON CODA AMPLIT PERI AZIMU VELO AIN AR TRES W  DIS CAZ7
 BAR2 EZ EP        621 23.88                             174   -0.3210 14.9 180 
 BAR2 EZ ES        621 39.08                             174   -0.4010 14.9 180 
 BAR2 EZ I         621 40.20         4.9 0.16            173           14.9 180 
 BRR  HZ EP        621 25.72                             152   -0.1810 72.1 306 
 BRR  HE ES        621 43.06                             152    0.5610 72.1 306 
 BRR  HZ I         621 46.67         1.7 0.07            151           72.1 306 
 RUS  HZ EP        621 28.41                             146    0.5010 92.9 173 
 RUS  HE ES        621 46.17                             146    0.0910 92.9 173 
 RUS  HZ I         621 47.69         0.9 0.52            148           92.9 173 
 PTB  HZ EP        621 31.06                             133   -0.12 9  143 262 
 PTB  HN ES        621 51.73                             133   -0.16 9  143 262 
 PTB  HZ I         621 55.44         1.5 0.14            133            143 262 
                                                                                
