 2013  919 0518 37.6 L   6.808 -73.141144.0  RSN  6 0.5 1.1LRSN                1
 GAP=183        1.04       5.7     9.0 10.1  0.3737E+01  0.1868E+02  0.6075E+01E
 Epicentro: LOS SANTOS - SANTANDER                                             3
 ACTION:UPD 13-10-22 09:23 OP:ep   STATUS:               ID:20130919051837 L   I
 OLDACT:REG 13-09-19 06:36 OP:jn   STATUS:               ID:20130919051747     3
 2013-09-19-0517-47M.COL___226                                                 6
 STAT SP IPHASW D HRMM SECON CODA AMPLIT PERI AZIMU VELO AIN AR TRES W  DIS CAZ7
 BAR2 SZ ES   1    519 12.25                             170    0.01 8 24.3 191 
 BAR2 SZ I         519 14.05         3.1 0.34            165           24.3 191 
 BRR  HN ES   1    519 15.69                             152    0.74 8 71.2 298 
 RUS  HZ EP   1    519  1.79                             143    0.51 8  101 176 
 RUS  HN ES   1    519 18.99                             143   -0.73 8  101 176 
 RUS  HZ I         519 21.59         1.6 0.48            143            101 176 
 PTB  HZ EP        519  4.03                             132   -0.4910  148 259 
 PTB  HN ES   1    519 24.97                             132   -0.52 7  148 259 
 PTB  HZ I         519 30.17         2.0 0.26            131            148 259 
 OCA  HN ES   1    519 27.44                             129   -0.21 7  159 353 
 SPBC HZ EP   1    519  6.54                             129    0.44 7  164 219 
 SPBC HN ES   1    519 28.88                             129    0.58 7  164 219 
 SPBC HZ I         519 33.01         2.1 0.38            128            164 219 
                                                                                
