 2015  419 0455 24.4 L   6.887 -73.351130.0  RSN 10 0.4 1.6LRSN                1
 GAP= 95        0.92       3.4     4.5  6.1 -0.1313E+00  0.7978E+01 -0.4755E+01E
 Epicentro: SAN VICENTE DE CHUCURI - SANTANDER                                 3
 ACTION:UPD 15-06-03 16:56 OP:cam  STATUS:               ID:20150419045524 L   I
 OLDACT:REG 15-04-19 12:38 OP:spq  STATUS:               ID:20150419044745     3
 2015-04-19-0447-45M.COL___274                                                 6
 STAT SP IPHASW D HRMM SECON CODA AMPLIT PERI AZIMU VELO AIN AR TRES W  DIS CAZ7
 BAR2 EZ EP        455 42.52                             163   -0.0310 37.5 150 
 BAR2 EZ ES   1    455 55.83                             163   -0.88 7 37.5 150 
 BAR2 EZ I         455 56.82        10.6 0.36            168           37.5 150 
 BRR  HZ EP        455 42.93                             159    0.3710 46.7 301 
 BRR  HE ES        455 57.06                             159    0.3310 46.7 301 
 BRR  HZ I         455 58.73         6.4 0.16            155           46.7 301 
 PAM  SZ EP   1    455 45.97                             144    0.31 7 87.7  55 
 PAM  SE ES        456  2.51                             144    0.2610 87.7  55 
 PAM  SZ I         456  4.15         5.8 0.26            147           87.7  55 
 RUS  HZ EP   1    455 48.08                             137    0.37 7  114 165 
 RUS  HN ES   1    456  5.43                             137   -0.46 7  114 165 
 RUS  HZ I         456  6.01         2.2 0.38            140            114 165 
 PTB  HZ EP        455 47.83                             133   -0.4610  128 253 
 PTB  HE ES   1    456  7.54                             133    0.61 7  128 253 
 PTB  HZ I         456  9.85         4.4 0.21            132            128 253 
 OCA  HZ EP        455 50.68                             128    0.20 9  150   1 
 OCA  HE ES        456 10.44                             128   -0.39 9  150   1 
 OCA  HZ I         456 11.76        16.6 0.18            128            150   1 
 ZAR  HZ EP   4    455 54.90                             122    1.63 0  179 292 
 ZAR  HN ES   4    456 18.13                             122    2.34 0  179 292 
 ZAR  HZ I         456 20.78         4.8 0.72            122            179 292 
 SML  HZ EP   4    455 59.42                             116    1.18 0  226 339 
 SML  HE ES   1    456 24.50                             116   -0.14 6  226 339 
 SML  HZ I         456 31.88         6.4 0.10            116            226 339 
 MON  HZ EP   1    456  9.64                             107   -0.42 5  330 309 
 SJC  HZ EP        456 17.37                             104    0.29 6  389 329 
 SJC  HN ES        456 57.50                             104   -0.68 6  389 329 
 SJC  HZ I         457  1.52         1.6 0.84            104            389 329 
                                                                                
