 2016  919 0154 22.1 L   6.790 -73.149152.2  RSN 15 0.4 1.8LRSN                1
 GAP=137        0.93       2.9     3.6  5.6 -0.1784E+01  0.2755E+01  0.7821E+00E
 Epicentro: LOS SANTOS - SANTANDER                                             3
 ACTION:UPD 17-08-17 21:13 OP:lp   STATUS:               ID:20160919015422 L   I
 OLDACT:UP  16-09-19 13:37 OP:and  STATUS:               ID:20160919014736     3
 OLDACT:UP  16-09-19 13:37 OP:and  STATUS:               ID:20160919014736     3
 OLDACT:UP  16-09-19 13:15 OP:and  STATUS:               ID:20160919014736     3
 OLDACT:REG 16-09-19 11:13 OP:ar   STATUS:               ID:20160919014736     3
 2016-09-19-0148-00M.COL___360                                                 6
 STAT SP IPHASW D HRMM SECON CODA AMPLIT PERI AZIMU VELO AIN AR TRES W  DIS CAZ7
 BAR2 EZ EP        154 42.27                             171   -0.2210 22.2 190 
 BAR2 EZ ES   2    154 58.46                             171    0.07 5 22.2 190 
 BAR2 EZ I         155  0.35         9.7 0.30            169           22.2 190 
 BRR  HZ EP     C  154 44.19                             154    0.2310 71.4 299 
 BRR  HN ES        155  1.54                             154    0.5210 71.4 299 
 BRR  HZ I         155  4.47         7.3 0.14            151           71.4 299 
 PAM  EZ EP        154 45.15                             152    0.0810 78.4  39 
 PAM  EN ES        155  2.38                             152   -0.6110 78.4  39 
 PAM  EZ I         155  4.31        10.6 0.56            156           78.4  39 
 RUS  HZ EP        154 46.61                             145    0.1910 99.5 176 
 RUS  HE ES        155  5.40                             145    0.0110 99.5 176 
 RUS  HZ I         155  6.41         5.2 0.21            146           99.5 176 
 PTB  HZ EP        154 49.07                             134   -0.48 9  147 259 
 PTB  HN ES        155 10.41                             134   -0.56 9  147 259 
 PTB  HZ I         155 13.04         8.9 0.18            132            147 259 
 OCA  HZ EP        154 50.75                             131   -0.27 9  161 353 
 OCA  HE ES        155 14.18                             131    0.61 9  161 353 
 SPBC HZ EP        154 51.08                             131    0.07 9  162 219 
 SPBC HN ES        155 13.41                             131   -0.14 9  162 219 
 SPBC HZ I         155 20.27        15.8 0.18            130            162 219 
 ZAR  HZ EP   2    154 55.25                             124    0.27 4  204 292 
 ZAR  HN ES        155 20.95                             124    0.32 9  204 292 
 ZAR  HZ I         155 26.36         5.8 0.22            124            204 292 
 NOR  HZ EP   4    155  0.10                             120    1.98 0  234 235 
 NOR  HE ES        155 26.47                             120    0.26 8  234 235 
 NOR  HZ I         155 27.76         7.1 0.18            120            234 235 
 CHI  HZ EP        155  0.53                             118    0.48 8  248 195 
 CHI  HN ES   2    155 30.29                             118    0.65 4  248 195 
 CHI  HZ I         155 35.14         2.4 0.20            119            248 195 
 ROSC BZ EP   4    155  1.98                             118    1.52 0  252 211 
 ROSC BE ES   4    155 33.56                             118    3.18 0  252 211 
 ROSC BZ I         155 38.02         6.4 0.40            118            252 211 
 HEL  HN ES   2    155 34.86                             116    0.70 4  271 256 
 URE  HZ EP        155  2.87                             115   -0.63 7  284 292 
 URE  HE ES   2    155 34.65                             115   -1.14 4  284 292 
 URE  HZ I         155 44.66         3.7 0.16            115            284 292 
 GUY2CHZ EP   9    155  7.74                             114    1.83 0  300 235 
 GUY2CHE ES        155 41.35                                   -0.56 7  300 235 
 GUY2CHZ I         155 52.82         3.5 0.50                           300 235 
 SJC  HZ EP   4    155 16.35                             107   -1.62 0  410 327 
 SJC  HN ES   4    155 57.89                             107   -3.65 0  410 327 
 SJC  HZ I         156  3.84         1.6 0.26            107            410 327 
                                                                                
