 2012  419 0233  8.9 L   6.767 -73.130150.0  RSN  9 0.4 2.0LRSN                1
 GAP=140        0.84       4.0     4.7  8.5 -0.2185E+01  0.1127E+02  0.7205E+01E
 Epicentro: LOS SANTOS - SANTANDER                                             3
 ACTION:UPD 12-07-05 11:54 OP:tino STATUS:               ID:20120419023308 L   I
 2012-04-19-0230-00M.COL___187                                                 6
 STAT SP IPHASW D HRMM SECON CODA AMPLIT PERI AZIMU VELO AIN AR TRES W  DIS CAZ7
 BAR2 SZ EP   1    233 28.98                             172     0.0 7   20 197 
 BAR2 SZ I         233 29.42        21.7 0.09                            20 197 
 BRR  HZ EP   1    233 31.06                             152     0.3 7   75 300 
 BRR  HZ I         233 31.55        26.7 0.19                            75 300 
 BRR  HE ES   1    233 48.04                             152     0.3 7   75 300 
 PAM  SZ EP        233 31.97                             151     0.310   79  37 
 PAM  SN ES   1    233 49.05                             151    -0.4 7   79  37 
 RUS  HZ EP   1    233 32.93                             146     0.1 7   97 177 
 RUS  HE ES   1    233 51.54                             146     0.1 7   97 177 
 RUS  HZ I         233 52.91        12.0 0.29                            97 177 
 OCA  SZ ES   1    233 59.90                             130    -0.6 7  164 353 
 ZAR  HZ EP   1    233 42.12                             123     0.2 6  207 293 
 ZAR  HN ES   1    234  8.17                             123     0.4 6  207 293 
 ZAR  HZ I         234 15.50         8.4 0.32                           207 293 
 NOR  SN ES   1    234 12.01                             119    -0.8 6  234 235 
 HEL  HN ES   1    234 20.84                             115    -0.2 6  273 257 
 HEL  HZ I         234 28.19         4.2 0.62                           273 257 
 PRA  HZ EP   1    234  1.70                             107    -0.6 4  390 210 
 PRA  HN ES   1    234 44.44                             107     0.5 4  390 210 
                                                                                
