 2015  719 0404 31.6 L   6.798 -73.074154.0  RSN  9 0.3 1.8LRSN                1
 GAP=190        0.56       2.1     3.0  5.0 -0.7918E+00  0.5770E+01 -0.3238E+01E
 Epicentro: LOS SANTOS - SANTANDER                                             3
 ACTION:UPD 15-09-08 21:49 OP:cam  STATUS:               ID:20150719040431 L   I
 OLDACT:REG 15-07-19 16:22 OP:spq  STATUS:               ID:20150719035749     3
 2015-07-19-0357-49M.COL___340                                                 6
 STAT SP IPHASW D HRMM SECON CODA AMPLIT PERI AZIMU VELO AIN AR TRES W  DIS CAZ7
 BAR2 EZ EP        4 4 52.32                             170    0.0510 25.7 208 
 BAR2 EZ ES   1    4 5  8.26                             170   -0.13 7 25.7 208 
 BAR2 EZ I         4 5 10.30         9.2 0.24            168           25.7 208 
 RUS  HZ EP        4 4 56.21                             146    0.0710  100 181 
 RUS  HN ES        4 5 15.28                             146    0.0010  100 181 
 RUS  HZ I         4 5 16.20         2.7 0.68            149            100 181 
 OCA  HZ EP        4 5  0.55                             131   -0.13 9  162 350 
 OCA  HN ES        4 5 23.63                             131    0.27 9  162 350 
 OCA  HZ I         4 5 26.81        13.6 0.40            132            162 350 
 ZAR  HZ EP        4 5  4.93                             123   -0.41 8  211 291 
 ZAR  HE ES        4 5 31.83                             123    0.16 8  211 291 
 ZAR  HZ I         4 5 37.43         7.2 0.30            124            211 291 
 NOR  HE ES   1    4 5 36.81                             119   -0.46 6  241 236 
 NOR  HZ I         4 5 40.03         4.4 0.18            121            241 236 
 SML  HZ EP        4 5  9.27                             119    0.19 8  247 334 
 SML  HE ES   1    4 5 37.85                             119   -0.46 6  247 334 
 SML  HZ I         4 5 44.51         8.6 0.22            120            247 334 
 HEL  HE ES   1    4 5 45.21                             116   -0.22 6  280 256 
 HEL  HZ I         4 5 50.63         3.4 0.36            117            280 256 
 GUY2CHZ EP   4    4 5 18.36                             113    2.05 0  308 236 
 GUY2CHE ES   1    4 5 51.58                             113    0.39 5  308 236 
 GUY2CHZ I         4 5 57.29         3.1 0.34                           308 236 
 CBOC HZ EP   4    4 5 21.17                             111    1.46 0  341 253 
 CBOC HN ES        4 5 57.64                             111    0.40 7  341 253 
 CBOC HZ I         4 6  2.45         1.3 0.50            112            341 253 
                                                                                
