 2012 1019 0534 42.1 L   6.779 -73.143153.0  RSN  5 0.2 1.4LRSN                1
 GAP=186        0.50       5.1     7.3  5.2  0.2324E+02  0.1721E+01  0.1761E+01E
 Epicentro: LOS SANTOS - SANTANDER                                             3
 ACTION:UPD 12-11-22 17:04 OP:ep   STATUS:               ID:20121019053442 L   I
 2012-10-19-0530-00M.COL___231                                                 6
 STAT SP IPHASW D HRMM SECON CODA AMPLIT PERI AZIMU VELO AIN AR TRES W  DIS CAZ7
 BAR2 SZ EP   1    535  2.51                             172   -0.04 7 21.1 192 
 BAR2 SZ I         535  2.66         7.7 0.40                          21.1 192 
 BAR2 SZ ES   1    535 18.31                             172   -0.19 7 21.1 192 
 GIR2 SZ EP   1    535  2.39                             167   -0.29 7 33.6 351 
 GIR2 SZ ES   1    535 18.80                             167    0.05 7 33.6 351 
 BRR  HZ EP   1    535  4.16                             153    0.06 7 72.6 300 
 BRR  HZ I         535  4.96         4.2 0.42                          72.6 300 
 BRR  HE ES   1    535 21.60                             153    0.34 7 72.6 300 
 RUS  HZ EP   1    535  6.74                             146    0.34 7 98.3 176 
 RUS  HN ES   1    535 25.24                             146   -0.12 7 98.3 176 
 RUS  HN I         535 25.84         3.5 0.34                          98.3 176 
 ZAR  HE ES   2    535 40.39                             124   -0.51 4  205 293 
                                                                                
