 2011  619 0515 13.1 L   6.784 -73.115140.0  RSN 10 0.4 1.7LRSN                1
 GAP=159        0.73       4.0     5.7  5.7 -0.8652E+01  0.2540E+01  0.1000E+00E
 Epicentro: LOS SANTOS - SANTANDER                                             3
 ACTION:UP  11-07-14 19:06 OP:ep   STATUS:               ID:20110619051513 L   I
 2011-06-19-0513-22S.COL___140                                                 6
 STAT SP IPHASW D HRMM SECON CODA AMPLIT PERI AZIMU VELO SNR AR TRES W  DIS CAZ7
 BTL  SZ EP   1    515 31.99                             170     0.0 7   22 311 
 BTL  SZ ES   2    515 47.10                             170     0.4 5   22 311 
 BAR2 SZ EP   1    515 31.71                             170    -0.3 7   22 199 
 BAR2 SZ ES   1    515 47.30                             170     0.6 7   22 199 
 BAR2 SZ I         515 47.75        13.3 0.13                            22 199 
 GIR2 SZ EP   1    515 31.91                             166    -0.2 7   34 345 
 GIR2 SZ ES   2    515 46.31                             166    -0.7 5   34 345 
 BRR  HZ EP   1    515 33.64                             150    -0.2 7   75 298 
 BRR  HZ I         515 34.02        12.3 0.11                            75 298 
 BRR  HN ES   1    515 50.17                             150     0.2 7   75 298 
 RUS  HZ EP   1    515 35.72                             143    -0.4 7   99 178 
 RUS  HZ I         515 36.38         6.9 0.34                            99 178 
 RUS  HN ES   2    515 54.06                             143     0.0 5   99 178 
 BRI  SZ EP   1    515 37.04                             140     0.6 7  109  19 
 BRI  SZ ES   2    515 54.62                             140    -0.1 5  109  19 
 BRI  SZ I         516  0.32         6.3 0.62                           109  19 
 GRA  SZ EP   1    515 37.81                             136     0.0 7  126  16 
 GRA  SZ ES   1    515 56.94                             136    -0.2 7  126  16 
 GRA  SZ I         515 59.48         6.3 0.44                           126  16 
 OCA  SZ EP   2    515 41.40                             128     0.3 5  162 352 
 OCA  SZ ES   2    516  2.63                             128    -0.4 5  162 352 
 NOR  SN ES   2    516 16.06                             117    -0.3 4  236 235 
 HEL  HZ EP   1    515 53.93                             113     0.6 6  275 256 
 HEL  HN ES   2    516 24.04                             113    -0.6 4  275 256 
 HEL  HZ I         516 32.36         2.3 0.30                           275 256 
                                                                                
