 2013  119 0107 49.1 L   6.548 -73.569106.8  RSN  8 0.4 1.7LRSN                1
 GAP= 85        0.83       3.2     3.6  8.2  0.2256E+00  0.6829E+01  0.4429E+00E
 Epicentro: EL CARMEN DE CHUCURI - SANTANDER                                   3
 ACTION:UPD 13-02-15 09:15 OP:ep   STATUS:               ID:20130119010749 L   I
 2013-01-19-0100-00M.COL___241                                                 6
 STAT SP IPHASW D HRMM SECON CODA AMPLIT PERI AZIMU VELO AIN AR TRES W  DIS CAZ7
 BAR2 SZ EP        1 8  5.30                             156    0.4410 43.0  83 
 BAR2 SZ ES   1    1 8 17.41                             156    0.28 7 43.0  83 
 BRR  HZ EP   1    1 8  6.11                             147    0.38 7 63.8 346 
 BRR  HZ I         1 8 24.30        13.3 0.14            140           63.8 346 
 RUS  HZ EP   1    1 8  8.23                             137   -0.18 7 90.2 143 
 RUS  HE ES   1    1 8 23.48                             137    0.03 7 90.2 143 
 RUS  HZ I         1 8 25.26        10.0 0.42            135           90.2 143 
 PTB  HZ EP     C  1 8  8.08                             134   -0.3610 98.1 270 
 PTB  HN ES   1    1 8 22.86                             134   -0.63 7 98.1 270 
 PTB  HZ I         1 8 24.45        22.7 0.09            130           98.1 270 
 PAM  SZ EP   1    1 8 11.97                             126   -0.09 7  130  48 
 PAM  SN ES   1    1 8 29.47                             126   -0.48 7  130  48 
 PAM  SZ I         1 8 34.32         7.8 0.40            121            130  48 
 ZAR  HE ES   1    1 8 38.40                             116    0.85 7  177 306 
 ZAR  HZ I         1 8 41.83        14.6 0.52            112            177 306 
 OCA  HN ES   1    1 8 39.98                             114   -0.34 7  189   8 
 CHI  HZ EP   1    1 8 20.94                             111    0.04 6  213 185 
 CHI  HN ES   1    1 8 45.74                             111    0.07 6  213 185 
 CHI  HZ I         1 8 50.96         2.4 0.50            110            213 185 
                                                                                
