 2013  719 0248 46.2 L   6.800 -73.164145.9  RSN  8 0.5 1.9LRSN                1
 GAP=181        1.02       4.6     6.4  8.1  0.6527E+01  0.6757E+01 -0.7382E+01E
 Epicentro: LOS SANTOS - SANTANDER                                             3
 ACTION:UPD 13-08-12 10:38 OP:ep   STATUS:               ID:20130719024643dL   I
 OLDACT:DUP 13-07-19 10:13 OP:mh   STATUS:               ID:20130719024643dL   3
 OLDACT:UP  13-07-19 10:02 OP:mh   STATUS:               ID:20130719024642 L   3
 OLDACT:UPD 13-07-19 09:03 OP:stll STATUS:               ID:20130719024642 L   3
 2013-07-19-0246-42M.COL___225                                                 6
 STAT SP IPHASW D HRMM SECON CODA AMPLIT PERI AZIMU VELO AIN AR TRES W  DIS CAZ7
 BAR2 SZ ES   1    249 20.51                             171   -0.64 7 23.0 185 
 BAR2 SZ I         249 21.94         8.9 0.24            169           23.0 185 
 GIR2 SZ EP   1    249  5.99                             167    0.11 7 31.0 354 
 GIR2 SZ ES   1    249 21.31                             167    0.08 7 31.0 354 
 GIR2 SZ I         249 22.35        15.0 0.32            167           31.0 354 
 BRR  HZ IP     C  249  7.75                             153    0.4910 69.4 299 
 BRR  HN ES        249 24.40                             153    0.7110 69.4 299 
 BRR  HN I         249 25.44        40.2 0.18            151           69.4 299 
 RUS  HZ EP   1    249 10.35                             144    0.38 7  101 175 
 RUS  HE ES        249 28.41                             144   -0.1010  101 175 
 RUS  HE I         249 29.70         4.6 0.24            145            101 175 
 PTB  HZ EP   1    249 12.85                             133   -0.14 7  146 259 
 PTB  HN ES        249 33.20                             133   -0.69 9  146 259 
 PTB  HN I         249 38.61         9.9 0.28            132            146 259 
 OCA  HN ES   1    249 36.22                             130   -0.36 7  160 354 
 ZAR  HE ES   1    249 44.00                             123    0.38 6  202 292 
 SML  HZ EP   1    249 22.35                             118   -0.39 6  243 336 
 SML  HN ES   1    249 50.61                             118   -0.64 6  243 336 
 SML  HN I         249 53.10        12.7 0.10            118            243 336 
                                                                                
