 2012  719 0431 58.5 L   6.743 -73.141140.0  RSN  8 0.5 1.7LRSN                1
 GAP=140        1.22       5.8     6.6 10.8 -0.5282E+01  0.1487E+02 -0.5673E+01E
 Epicentro: JORDAN - SANTANDER                                                 3
 ACTION:UPD 12-08-14 11:45 OP:ep   STATUS:               ID:20120719043158 L   I
 2012-07-19-0430-00M.COL___201                                                 6
 STAT SP IPHASW D HRMM SECON CODA AMPLIT PERI AZIMU VELO AIN AR TRES W  DIS CAZ7
 BAR2 SZ EP        432 17.18                             173    -0.110   17 195 
 BAR2 SZ ES   1    432 31.65                             173    -0.3 7   17 195 
 BAR2 SZ I         432 33.41        16.2 0.21            170             17 195 
 BRR  HZ EP   1    432 19.15                             150    -0.1 7   75 303 
 BRR  HN ES   1    432 36.00                             150     0.6 7   75 303 
 BRR  HZ I         432 37.85        13.2 0.15            147             75 303 
 PAM  SZ EP   1    432 19.97                             148    -0.4 7   82  36 
 PAM  SN ES   1    432 36.79                             148    -0.6 7   82  36 
 RUS  HZ EP   1    432 21.14                             144     0.0 7   94 176 
 RUS  HZ I         432 22.00         5.1 0.10            146             94 176 
 RUS  HN ES   1    432 39.70                             144     0.8 7   94 176 
 PTB  HZ EP   1    432 24.21                             131    -0.7 7  147 261 
 PTB  HN ES   1    432 44.77                             131    -0.8 7  147 261 
 PTB  HZ I         432 50.80         3.5 0.21            129            147 261 
 OCA  HZ EP   1    432 27.65                             127     0.7 7  167 353 
 OCA  HN ES   1    432 49.85                             127     0.7 7  167 353 
 ZAR  HE ES   1    432 55.93                             121    -0.2 6  207 294 
 ZAR  HZ I         433  2.26         4.6 0.27            120            207 294 
 NOR  SN ES   1    433  1.50                             118     0.6 6  232 236 
