 2017  219 0046  3.4 L   6.770 -73.204141.1  RSN  6 0.3 1.1LRSN                1
 GAP=131        0.70       4.3     3.7  5.4  0.6027E+01  0.2141E+00 -0.3877E+01E
 Epicentro: ZAPATOCA - SANTANDER                                               3
 ACTION:UPD 17-05-24 15:37 OP:jn   STATUS:               ID:20170219004603 L   I
 OLDACT:UP  17-02-19 13:05 OP:edw  STATUS:               ID:20170219003746     3
 OLDACT:REG 17-02-19 12:15 OP:edw  STATUS:               ID:20170219003746     3
 2017-02-19-0038-00M.COL___358                                                 6
 STAT SP IPHASW D HRMM SECON CODA AMPLIT PERI AZIMU VELO AIN AR TRES W  DIS CAZ7
 BAR2 EZ ES        046 37.08                             172   -0.1610 19.8 173 
 BRR  HZ EP        046 24.23                             153    0.3810 67.4 304 
 BRR  HN ES        046 40.08                             153    0.3010 67.4 304 
 PAM  EZ IP     D  046 25.20                             148   -0.3710 84.1  41 
 RUS  HZ EP        046 26.86                             144    0.3310 98.0 172 
 RUS  HN ES        046 44.49                             144   -0.0610 98.0 172 
 RUS  HZ I         046 46.43         2.5 0.26            142           98.0 172 
 PTB  HZ EP        046 29.21                             132   -0.17 9  141 260 
 PTB  HN ES        046 49.42                             132   -0.20 9  141 260 
 PTB  HZ I         046 52.46         1.4 0.14            131            141 260 
 ZAR  HN ES        046 59.67                             122   -0.11 9  199 294 
                                                                                
