 2017  219 0354 10.0 L   6.756 -73.159141.0  RSN 11 0.4 1.8LRSN                1
 GAP=120        0.99       4.1     3.7  5.9 -0.7557E+00  0.9765E+01  0.1311E+00E
 Epicentro: LOS SANTOS - SANTANDER                                             3
 ACTION:UPD 17-05-24 15:37 OP:jn   STATUS:               ID:20170219035410 L   I
 OLDACT:UP  17-02-19 17:07 OP:edw  STATUS:               ID:20170219034743d    3
 OLDACT:UP  17-02-19 17:06 OP:edw  STATUS:               ID:20170219034743d    3
 OLDACT:DUP 17-02-19 16:55 OP:edw  STATUS:               ID:20170219034743d    3
 2017-02-19-0348-00M.COL___352                                                 6
 STAT SP IPHASW D HRMM SECON CODA AMPLIT PERI AZIMU VELO AIN AR TRES W  DIS CAZ7
 BAR2 EZ IP     D  354 29.10                             172    0.1010 18.3 188 
 BAR2 EZ ES        354 43.36                             172   -0.4410 18.3 188 
 BAR2 EZ I         354 44.75        16.3 0.28            171           18.3 188 
 BRR  HZ IP     C  354 30.96                             151    0.2210 72.4 302 
 BRR  HN ES        354 47.84                             151    0.9510 72.4 302 
 BRR  HZ I         354 49.51        13.8 0.16            151           72.4 302 
 PAM  EZ EP        354 31.84                             148   -0.2010 82.1  38 
 PAM  EN ES        354 48.83                             148   -0.3710 82.1  38 
 PAM  EZ I         354 51.23        10.5 0.60            151           82.1  38 
 RUS  HZ EP        354 33.45                             144    0.4710 95.9 175 
 RUS  HN ES        354 50.98                             144    0.1010 95.9 175 
 RUS  HZ I         354 52.32         6.1 0.22            146           95.9 175 
 PTB  HZ EP        354 35.92                             131   -0.49 9  145 261 
 PTB  HN ES        354 56.43                             131   -0.55 9  145 261 
 PTB  HZ I         354 59.52        12.7 0.30            132            145 261 
 ZAR  HZ EP        354 42.47                             121    0.24 9  205 294 
 ZAR  HN ES        355  7.38                             121    0.04 9  205 294 
 ZAR  HZ I         355 13.98         9.0 0.28            122            205 294 
 NOR  HZ EP        354 44.99                             118   -0.07 8  231 235 
 NOR  HN ES        355 12.73                             118    0.34 8  231 235 
 NOR  HZ I         355 15.79         4.6 0.28            119            231 235 
 CHI  HZ EP   4    354 48.93                             117    2.01 0  244 195 
 CHI  HN ES   4    355 18.12                             117    2.42 0  244 195 
 CHI  HZ I         355 19.89         1.2 0.20            118            244 195 
 PTGC HZ EP   9    354 52.29                             111   -0.94 0  305 158 
 PTGC HN ES        355 25.52                             111   -0.46 7  305 158 
 CBOC HZ EP   4    354 57.86                             109    1.43 0  331 253 
 CBOC HN ES        355 32.33                             109   -0.29 7  331 253 
 DBB  EZ EP        354 57.13                             109   -0.07 7  338 275 
 DBB  EN ES        355 33.68                             109   -0.31 7  338 275 
 DBB  EZ I         355 35.03         2.6 0.20            110            338 275 
                                                                                
