 2012  719 0743 38.9 L   6.728 -73.216154.3  RSN  4 0.2 1.2LRSN                1
 GAP=219        0.53       6.3     5.8  7.6  0.1028E+02 -0.7879E+01  0.8499E+00E
 Epicentro: VILLANUEVA - SANTANDER                                             3
 ACTION:UPD 12-08-14 11:45 OP:ep   STATUS:               ID:20120719074338 L   I
 2012-07-19-0740-00M.COL___201                                                 6
 STAT SP IPHASW D HRMM SECON CODA AMPLIT PERI AZIMU VELO AIN AR TRES W  DIS CAZ7
 BAR2 SZ EP   1    743 59.08                             174    -0.3 7   15 166 
 BAR2 SZ I         743 59.86         2.8 0.10            169             15 166 
 BRR  HZ EP        744  0.94                             155     0.110   69 307 
 BRR  HZ I         744  1.40         7.2 0.13            151             69 307 
 BRR  HN ES   1    744 18.03                             155     0.1 7   69 307 
 RUS  HZ EP   2    744  3.56                             147     0.5 5   94 171 
 RUS  HN ES   2    744 21.75                             147    -0.1 5   94 171 
 PTB  HZ EP   1    744  5.69                             136    -0.1 7  139 261 
 PTB  HN ES   1    744 26.76                             136     0.0 7  139 261 
 PTB  HZ I         744 31.08         1.1 0.22            132            139 261 
