 2014  819 0024 19.8 L   6.819 -73.189136.1  RSN  6 0.4 1.5LRSN                1
 GAP=130        1.05       4.8     5.0  7.2 -0.5617E+01  0.5330E+01  0.4382E+01E
 Epicentro: ZAPATOCA - SANTANDER                                               3
 ACTION:UPD 14-09-15 21:51 OP:nd   STATUS:               ID:20140819002419 L   I
 OLDACT:UP  14-08-19 13:45 OP:cam  STATUS:               ID:20140819002000     3
 OLDACT:UP  14-08-19 13:45 OP:cam  STATUS:               ID:20140819002000     3
 OLDACT:REG 14-08-19 12:26 OP:cam  STATUS:               ID:20140819002000     3
 2014-08-19-0020-00M.COL___285                                                 6
 STAT SP IPHASW D HRMM SECON CODA AMPLIT PERI AZIMU VELO AIN AR TRES W  DIS CAZ7
 BAR2 SZ EP        024 38.32                             169   -0.0310 25.1 178 
 BAR2 SZ ES        024 52.67                             169   -0.1110 25.1 178 
 BAR2 SZ I         024 54.39        17.2 0.20            170           25.1 178 
 BRR  HZ EP     C  024 40.28                             152    0.6310 66.0 299 
 BRR  HN ES        024 55.67                             152    0.5710 66.0 299 
 BRR  HZ I         024 58.45         5.1 0.32            152           66.0 299 
 PAM  SZ EP     C  024 41.36                             148    0.2310 79.0  43 
 PAM  SN ES        024 57.17                             148   -0.5710 79.0  43 
 PAM  SZ I         025  1.00         6.2 0.34            153           79.0  43 
 RUS  HZ EP     D  024 42.82                             141   -0.0210  103 173 
 RUS  HE ES        025  0.92                             141    0.1310  103 173 
 RUS  HZ I         025  1.95         3.5 0.28            144            103 173 
 PTB  HZ EP     D  024 45.33                             131   -0.31 9  144 258 
 PTB  HN ES        025  5.03                             131   -0.74 9  144 258 
 PTB  HZ I         025 11.23         3.0 0.14            132            144 258 
 SPBC HZ EP     D  024 47.29                             127   -0.20 9  162 217 
 SPBC HE ES        025  9.38                             127    0.33 9  162 217 
 SPBC HZ I         025 14.26         4.0 0.18            129            162 217 
                                                                                
