 2017 1019 0944  1.3 L   6.872 -73.158145.5  RSN  7 0.4 1.5LRSN                1
 GAP=149        0.87       5.0     4.8  6.5 -0.6569E+01  0.6564E+01  0.8780E+01E
 Epicentro: ZAPATOCA - SANTANDER                                               3
 ACTION:UPD 17-11-07 19:33 OP:rebc STATUS:               ID:20171019094401 L   I
 OLDACT:UP  17-10-19 18:06 OP:dani STATUS:               ID:20171019093331     3
 OLDACT:REG 17-10-19 13:46 OP:dani STATUS:               ID:20171019093331     3
 2017-10-19-0938-00M.COL___429                                                 6
 STAT SP IPHASW D HRMM SECON CODA AMPLIT PERI AZIMU VELO AIN AR TRES W  DIS CAZ7
 BAR2 EZ EP        944 21.18                             167    0.0610 31.0 185 
 BAR2 EZ ES        944 36.62                             167    0.0810 31.0 185 
 PAM  EN ES        944 40.62                             152    0.3110 72.4  44 
 RUS  HN ES        944 44.11                             142   -0.5110  109 176 
 PTB  HZ EP        944 27.90                             132   -0.42 9  148 256 
 PTB  HN ES        944 49.13                             132   -0.23 9  148 256 
 PTB  HZ I         944 52.04         1.6 0.14            131            148 256 
 SPBC HN ES        944 53.42                             128    0.47 9  169 217 
 YPLC HZ EP        944 31.67                             125   -0.20 9  184 152 
 PRA  HZ EP        944 55.95                             106    0.37 6  398 209 
 PRA  HE ES        945 38.69                             106    0.80 6  398 209 
 PRA  HZ I         945 40.75         2.0 0.25            106            398 209 
                                                                                
