 2015  219 0223 55.9 L   6.684 -73.124146.0  RSN  4 0.4 1.4LRSN                1
 GAP=180        0.96      17.0     7.7 14.5 -0.9778E+02 -0.5764E+02  0.1804E+03E
 Epicentro: VILLANUEVA - SANTANDER                                             3
 ACTION:UPD 15-04-30 21:27 OP:nd   STATUS:               ID:20150219022355 L   I
 OLDACT:UP  15-02-19 17:05 OP:mh   STATUS:               ID:20150219021749     3
 OLDACT:REG 15-02-19 12:22 OP:mh   STATUS:               ID:20150219021749     3
 2015-02-19-0217-49M.COL___299                                                 6
 STAT SP IPHASW D HRMM SECON CODA AMPLIT PERI AZIMU VELO AIN AR TRES W  DIS CAZ7
 BAR2 EZ EP        224 15.57                             175    0.2110 12.0 212 
 BAR2 EZ I         224 33.82         7.1 0.23            127           12.0 212 
 BRR  HZ EP   1    224 17.22                             149   -0.35 7 80.1 306 
 BRR  HN ES        224 34.96                             149    0.4610 80.1 306 
 BRR  HZ I         224 36.72         4.2 0.09            142           80.1 306 
 PAM  SZ EP        224 19.13                             148    0.4610 86.4  33 
 PAM  SN ES        224 35.93                             148   -0.5310 86.4  33 
 PAM  SZ I         224 38.29         5.1 0.78            135           86.4  33 
 PTB  HZ EP        224 22.64                             132   -0.26 9  148 264 
 PTB  HN ES        224 43.77                             132   -0.21 9  148 264 
 PTB  HZ I         224 48.77         3.2 0.26            123            148 264 
                                                                                
