 2017 1119 0418 36.7 L   6.812 -73.160144.6  RSN  5 0.4 1.4LRSN                1
 GAP=110        0.93       6.6     4.1  7.6 -0.5590E+00  0.4848E+01  0.1154E+02E
 Epicentro: LOS SANTOS - SANTANDER                                             3
 ACTION:UPD 17-12-12 19:57 OP:rebc STATUS:               ID:20171119041836 L   I
 OLDACT:UP  17-11-19 16:37 OP:leo  STATUS:               ID:20171119040739     3
 OLDACT:REG 17-11-19 13:53 OP:leo  STATUS:               ID:20171119040739     3
 2017-11-19-0408-00M.COL___471                                                 6
 STAT SP IPHASW D HRMM SECON CODA AMPLIT PERI AZIMU VELO AIN AR TRES W  DIS CAZ7
 BAR2 EZ EP        418 56.70                             170    0.5110 24.4 186 
 BAR2 EZ ES        419 11.06                             170   -0.3610 24.4 186 
 PAM  EZ EP        418 59.00                             151    0.2310 77.4  41 
 PAM  EN ES        419 15.99                             151   -0.0210 77.4  41 
 PAM  EZ I         419 18.22         7.1 0.50            151           77.4  41 
 PTB  HZ EP        419  3.17                             132   -0.26 9  146 258 
 PTB  HN ES        419 24.82                             132    0.52 9  146 258 
 PTB  HZ I         419 26.65         2.5 0.16            133            146 258 
 YPLC HZ EP        419  6.25                             126   -0.33 9  179 151 
 ZAR  HN ES        419 33.48                             122   -0.45 9  202 292 
                                                                                
