 2012  619 0627 29.7 L   6.811 -73.183144.6  RSN  7 0.5 1.8LRSN                1
 GAP=131        0.75       4.3     7.9  7.9 -0.1350E+02  0.3381E+02 -0.1075E+02E
 Epicentro: LOS SANTOS - SANTANDER                                             3
 ACTION:UPD 12-08-06 17:50 OP:ep   STATUS:               ID:20120619062729 L   I
 2012-06-19-0620-00M.COL___199                                                 6
 STAT SP IPHASW D HRMM SECON CODA AMPLIT PERI AZIMU VELO AIN AR TRES W  DIS CAZ7
 BAR2 SZ EP        627 49.36                             169    0.1710 24.1 180 
 BAR2 SZ I         627 49.95        19.7 0.14                          24.1 180 
 BAR2 SZ ES   1    628  3.86                             169   -0.55 7 24.1 180 
 PAM  SZ EP        627 52.34                             149    0.4510 79.2  42 
 PAM  SN ES   1    628  9.11                             149   -0.10 7 79.2  42 
 PAM  SZ I         628 11.34         9.5 0.46                          79.2  42 
 RUS  HZ EP        627 53.46                             142    0.0310  102 174 
 RUS  HE ES   1    628 11.96                             142    0.00 7  102 174 
 RUS  HZ I         628 13.36         6.6 0.24                           102 174 
 PTB  HZ EP        627 55.99                             132   -0.22 9  144 258 
 PTB  HZ I         628 24.03         5.9 0.52                           144 258 
 OCA  HZ EP        627 57.46                             129   -0.29 9  159 355 
 OCA  HZ I         628 24.05        15.4 0.26                           159 355 
 CHI  HZ EP   2    628  7.56                             116    0.23 4  249 194 
 CHI  HN ES   2    628 36.84                             116    0.15 4  249 194 
 CHI  HZ I         628 40.77         4.6 0.32                           249 194 
 HEL  HN ES   3    628 43.26                             114    2.84 2  268 255 
                                                                                
