 2010  819 0458  1.3 L   6.794 -73.015144.9  RSN  7 0.2 1.5LRSN                1
 GAP=173        0.55       3.5     6.7  5.9  0.6134E+01 -0.1626E+02 -0.7158E+01E
 Epicentro: CEPITA - SANTANDER                                                 3
 ACTION:UP  10-09-07 10:56 OP:vdl  STATUS:               ID:20100819045801 L   I
 2010-08-19-0453-26S.COL___117                                                 6
 STAT SP IPHASW D HRMM SECON CODA AMPLIT PERI AZIMU VELO SNR AR TRES W  DIS CAZ7
 BAR2 SZ ES   1    458 36.05                             168    -0.3 7   29 220 
 BAR2 SZ I         458 37.60         7.8 0.33                            29 220 
 BRR  HZ EP        458 22.92                             148    -0.310   84 294 
 BRR  HZ I         458 23.12        11.8 0.17                            84 294 
 BRR  HN ES        458 40.41                             148     0.210   84 294 
 RUS  HZ EP   1    458 25.10                             144     0.2 7  100 184 
 RUS  HE ES   1    458 43.43                             144     0.1 7  100 184 
 RUS  HZ I         458 44.91         2.7 0.17                           100 184 
 GUE  SZ EP   1    458 26.09                             140     0.3 7  115   5 
 GRA  SZ ES   2    458 45.58                             137    -0.1 5  123  11 
 GRA  SZ I         458 47.62         2.1 0.53                           123  11 
 OCA  SZ EP   1    458 29.77                             129    -0.1 7  163 348 
 OCA  SZ I         458 56.00         5.1 0.79                           163 348 
 CHI  HZ I         458 39.46         1.9 0.84                           252 198 
 CHI  HN ES   3    459  8.85                             117    -0.2 2  252 198 
                                                                                
