 2017  919 0056  9.9 L   6.754 -73.099140.7  RSN  5 0.3 1.5LRSN                1
 GAP=145        0.65       2.9     5.0  5.3 -0.2732E+01  0.6888E+00  0.2266E+01E
 Epicentro: LOS SANTOS - SANTANDER                                             3
 ACTION:UPD 17-10-05 19:14 OP:rebc STATUS:               ID:20170919005609 L   I
 OLDACT:UP  17-09-19 13:55 OP:and  STATUS:               ID:20170919004745d    3
 OLDACT:DUP 17-09-19 13:54 OP:and  STATUS:               ID:20170919004745d    3
 2017-09-19-0048-00M.COL___447                                                 6
 STAT SP IPHASW D HRMM SECON CODA AMPLIT PERI AZIMU VELO AIN AR TRES W  DIS CAZ7
 BAR2 EZ IP     D  056 28.69                             171   -0.2110 20.2 207 
 BAR2 EZ ES        056 43.23                             171   -0.4610 20.2 207 
 BAR2 EZ I         056 45.05         7.6 0.17            172           20.2 207 
 BRR  HZ EP        056 30.81                             149   -0.1610 78.1 300 
 BRR  HE ES        056 47.66                             149    0.3010 78.1 300 
 BRR  HZ I         056 48.05         5.4 0.42            152           78.1 300 
 PAM  EZ IP     C  056 31.64                             150   -0.0410 78.3  34 
 PAM  EN ES        056 48.82                             150    0.1910 78.3  34 
 PAM  EZ I         056 50.93         6.9 0.66            150           78.3  34 
 RUS  HZ EP   2    056 33.12                             144    0.30 5 95.3 179 
 RUS  HN ES        056 50.98                             144    0.3210 95.3 179 
 RUS  HZ I         056 52.41         6.5 0.32            146           95.3 179 
 CHI  HZ EP   3    056 47.35                             116    0.36 2  245 197 
 CHI  HN ES        057 15.84                             116   -0.05 8  245 197 
                                                                                
