 2017  319 0844 43.7 L   6.823 -73.221135.1  RSN  5 0.4 1.1LRSN                1
 GAP=125        1.18       6.0     5.6  8.7 -0.3064E+01  0.6129E+01  0.3184E+01E
 Epicentro: ZAPATOCA - SANTANDER                                               3
 ACTION:UPD 17-05-25 18:42 OP:jn   STATUS:               ID:20170319084443 L   I
 OLDACT:REG 17-03-19 13:26 OP:cara STATUS:               ID:20170319083740     3
 2017-03-19-0838-00M.COL___385                                                 6
 STAT SP IPHASW D HRMM SECON CODA AMPLIT PERI AZIMU VELO AIN AR TRES W  DIS CAZ7
 BAR2 EZ EP        845  1.87                             169   -0.2010 25.8 170 
 BAR2 EZ ES        845 16.68                             169    0.2510 25.8 170 
 BAR2 EZ I         845 23.34         3.4 0.60            170           25.8 170 
 BRR  HZ EP        845  3.79                             154    0.6110 62.7 300 
 BRR  HE ES        845 17.47                             154   -0.9410 62.7 300 
 PAM  EZ EP        845  4.82                             147   -0.1810 81.2  45 
 PAM  EE ES        845 22.04                             147    0.4010 81.2  45 
 PAM  EZ I         845 24.46         1.7 0.60            152           81.2  45 
 RUS  HZ EP        845  6.30                             140   -0.3410  104 172 
 RUS  HN ES        845 24.56                             140   -0.0110  104 172 
 RUS  HZ I         845 25.30         1.9 0.26            145            104 172 
 PTB  HZ EP        845  8.95                             131   -0.12 9  140 257 
 PTB  HN ES        845 29.44                             131    0.55 9  140 257 
 PTB  HZ I         845 32.02         2.7 0.22            135            140 257 
 ZAR  HZ EP   4    845 14.90                             121    0.38 0  195 292 
 ZAR  HN ES   4    845 40.22                             121    1.63 0  195 292 
                                                                                
