 2011  919 0521 28.0 L   6.757 -73.141140.2  RSN  7 0.2 1.2LRSN                1
 GAP=139        0.59       5.4     8.2  7.2  0.7937E+01 -0.1691E+02 -0.7070E+01E
 Epicentro: LOS SANTOS - SANTANDER                                             3
 ACTION:UPD 12-07-13 15:58 OP:ep   STATUS:               ID:20110919052128 L   I
 2011-09-19-0520-22S.COL___171                                                 6
 STAT SP IPHASW D HRMM SECON CODA AMPLIT PERI AZIMU VELO AIN AR TRES W  DIS CAZ7
 BAR2 SZ EP        521 46.84                             172    0.0110 18.7 194 
 BAR2 SZ I         521 46.99         5.6 0.40                          18.7 194 
 BAR2 SZ ES   1    522  1.62                             172    0.07 7 18.7 194 
 BTL  SZ EP        521 47.01                             170    0.1010 22.7 322 
 GIR2 SZ EP        521 46.56                             165   -0.5610 36.1 351 
 BRR  HZ EP        521 48.78                             150    0.1010 74.1 302 
 BRR  HZ I         521 49.74         4.0 0.16                          74.1 302 
 BRR  HE ES   2    522  4.93                             150    0.09 5 74.1 302 
 PAM  SZ EP        521 49.99                             149    0.1910 80.8  37 
 RUS  HZ EP        521 50.86                             144    0.0410 95.8 176 
 RUS  HZ I         521 51.49         1.5 0.28                          95.8 176 
 OCA  SZ EP   2    521 56.61                             127    0.30 5  165 353 
                                                                                
