 2014  219 0849 43.9 L   6.806 -73.167145.2  RSN 10 0.3 1.7LRSN                1
 GAP=134        0.75       2.2     3.5  4.9  0.1043E+00  0.6420E+01 -0.1024E+01E
 Epicentro: LOS SANTOS - SANTANDER                                             3
 ACTION:UPD 14-03-10 08:11 OP:ep   STATUS:               ID:20140219084943 L   I
 OLDACT:UP  14-02-19 12:37 OP:cam  STATUS:               ID:20140219084740     3
 OLDACT:REG 14-02-19 12:34 OP:cam  STATUS:               ID:20140219084740     3
 2014-02-19-0847-40M.COL___215                                                 6
 STAT SP IPHASW D HRMM SECON CODA AMPLIT PERI AZIMU VELO AIN AR TRES W  DIS CAZ7
 BAR2 SZ EP        850  3.46                             170   -0.0410 23.7 184 
 BAR2 SZ ES        850 18.76                             170   -0.0010 23.7 184 
 BAR2 SZ I         850 19.74        17.8 0.18            170           23.7 184 
 PAM  SZ EP   1    850  6.28                             150    0.14 7 78.4  41 
 PAM  SN ES        850 23.76                             150    0.2910 78.4  41 
 PAM  SZ I         850 24.76         5.2 0.66            152           78.4  41 
 RUS  HZ EP     C  850  7.50                             143   -0.1910  101 175 
 RUS  HE ES        850 26.21                             143   -0.0110  101 175 
 RUS  HZ I         850 27.31         5.9 0.28            145            101 175 
 PTB  HZ EP        850 10.53                             132   -0.12 9  146 258 
 PTB  HN ES        850 31.17                             132   -0.33 9  146 258 
 PTB  HZ I         850 34.09         7.5 0.18            131            146 258 
 OCA  HZ EP   2    850 12.98                             130    0.88 5  159 354 
 OCA  HN ES        850 33.59                             130   -0.49 9  159 354 
 OCA  HZ I         850 38.13         7.0 0.14            130            159 354 
 SPBC HN ES   2    850 34.15                             129   -0.27 5  162 218 
 ZAR  HZ EP        850 16.28                             123    0.19 9  202 292 
 ZAR  HN ES        850 42.01                             123    0.84 9  202 292 
 ZAR  HZ I         850 48.10         8.5 0.32            122            202 292 
 SML  HZ EP        850 20.20                             117   -0.15 8  242 336 
 SML  HN ES        850 48.45                             117   -0.31 8  242 336 
 SML  HZ I         850 55.89         8.5 0.26            117            242 336 
 CHI  HZ EP   1    850 21.90                             117    0.30 6  249 195 
 CHI  HN ES        850 51.06                             117    0.07 8  249 195 
 CHI  HZ I         850 58.03         1.8 0.44            118            249 195 
 HEL  HZ EP   4    850 26.46                             115    2.58 0  270 256 
 URE  HZ EP   2    850 24.24                             114   -0.46 4  281 292 
 SJC  HZ EP   4    850 37.65                             106   -1.60 0  407 327 
                                                                                
