 2017  919 0516 48.9 L   6.461 -73.641104.0  RSN  7 0.4 1.0LRSN                1
 GAP= 76        0.65       2.9     3.1  6.8 -0.2932E+01  0.1201E+02 -0.2686E+00E
 Epicentro: SANTA HELENA DEL OPON - SANTANDER                                  3
 ACTION:UPD 17-10-05 19:14 OP:rebc STATUS:               ID:20170919051648 L   I
 OLDACT:UP  17-09-19 15:53 OP:and  STATUS:               ID:20170919050748d    3
 OLDACT:UP  17-09-19 15:52 OP:and  STATUS:               ID:20170919050748d    3
 OLDACT:UP  17-09-19 15:52 OP:and  STATUS:               ID:20170919050748d    3
 OLDACT:DUP 17-09-19 15:49 OP:and  STATUS:               ID:20170919050748d    3
 OLDACT:UP  17-09-19 15:49 OP:and  STATUS:               ID:20170919050747d    3
 OLDACT:UP  17-09-19 15:48 OP:and  STATUS:               ID:20170919050747d    3
 OLDACT:UP  17-09-19 15:48 OP:and  STATUS:               ID:20170919050747d    3
 OLDACT:UP  17-09-19 15:46 OP:and  STATUS:               ID:20170919050747d    3
 OLDACT:DUP 17-09-19 15:42 OP:and  STATUS:               ID:20170919050747d    3
 OLDACT:UP  17-09-19 15:42 OP:and  STATUS:               ID:20170919050746     3
 OLDACT:UP  17-09-19 15:42 OP:and  STATUS:               ID:20170919050746     3
 OLDACT:UP  17-09-19 15:40 OP:and  STATUS:               ID:20170919050746     3
 OLDACT:REG 17-09-19 12:55 OP:and  STATUS:               ID:20170919050746     3
 2017-09-19-0508-00M.COL___444                                                 6
 STAT SP IPHASW D HRMM SECON CODA AMPLIT PERI AZIMU VELO AIN AR TRES W  DIS CAZ7
 BAR2 EZ EP        517  4.91                             151    0.1110 52.7  74 
 BAR2 EZ ES        517 17.03                             151   -0.2010 52.7  74 
 BAR2 EZ I         517 18.36         3.5 0.09            159           52.7  74 
 BRR  HN ES   2    517 18.31                             142   -0.60 5 71.9 354 
 RUS  HZ EP        517  7.85                             136    0.1510 88.1 135 
 RUS  HN ES        517 22.34                             136   -0.0610 88.1 135 
 RUS  HZ I         517 24.23         1.1 0.21            143           88.1 135 
 SPBC HZ EP        517  8.33                             132    0.0210  101 208 
 SPBC HN ES   3    517 24.47                             132    0.98 2  101 208 
 SPBC HZ I         517 28.21         2.2 0.10            135            101 208 
 PAM  EN ES        517 31.76                             121    0.20 9  142  47 
 NOR  HZ EP        517 14.77                             116   -0.29 9  168 234 
 NOR  HE ES        517 35.63                             116    0.14 9  168 234 
 NOR  HZ I         517 38.06         1.6 0.18            120            168 234 
 ZAR  HZ EP   2    517 15.06                             115   -0.82 4  176 310 
 ZAR  HN ES   2    517 37.85                             115    0.90 4  176 310 
 ZAR  HZ I         517 38.69         2.9 0.42            120            176 310 
                                                                                
