 2017  519 0329 19.1 L   6.751 -73.209150.0  RSN  5 0.3 1.7LRSN                1
 GAP=249        0.68       4.3     6.9  7.6  0.8473E+01 -0.6628E+01  0.1054E+02E
 Epicentro: VILLANUEVA - SANTANDER                                             3
 ACTION:UPD 17-06-16 13:37 OP:jn   STATUS:               ID:20170519032919 L   I
 OLDACT:REG 17-05-19 12:45 OP:dnl  STATUS:               ID:20170519032741     3
 2017-05-19-0328-00M.COL___353                                                 6
 STAT SP IPHASW D HRMM SECON CODA AMPLIT PERI AZIMU VELO AIN AR TRES W  DIS CAZ7
 BRR  HZ EP        329 40.31                             155   -0.2810 68.1 305 
 BRR  HN ES        329 57.64                             155    0.3310 68.1 305 
 BRR  HZ I         330  1.60         7.5 0.18            153           68.1 305 
 PTB  HZ EP        329 45.35                             135   -0.42 9  140 260 
 PTB  HN ES        330  6.35                             135   -0.18 9  140 260 
 PTB  HZ I         330  8.15         3.6 0.40            134            140 260 
 ZAR  HZ EP   2    329 52.02                             124    0.59 4  200 294 
 ZAR  HE ES        330 16.76                             124    0.15 9  200 294 
 ZAR  HZ I         330 22.78         5.5 0.28            125            200 294 
 NOR  HZ EP   2    329 54.81                             121    0.62 4  226 235 
 NOR  HE ES   4    330 23.14                             121    1.62 0  226 235 
 NOR  HZ I         330 27.02         5.9 0.14            121            226 235 
 CHI  HN EP   2    329 56.60                             119    0.27 4  242 194 
 CHI  HE ES        330 25.51                             119    0.18 8  242 194 
 CHI  HN I         330 30.28         4.1 0.36            120            242 194 
                                                                                
