 2015  419 0914 35.1 L   6.696 -73.170152.2  RSN  4 0.2 1.1LRSN                1
 GAP=240        0.49       6.4     3.9  5.4  0.6874E+01  0.2710E+01  0.5588E+01E
 Epicentro: VILLANUEVA - SANTANDER                                             3
 ACTION:UPD 15-06-03 16:56 OP:cam  STATUS:               ID:20150419091435 L   I
 OLDACT:REG 15-04-19 12:56 OP:spq  STATUS:               ID:20150419090749     3
 2015-04-19-0907-49M.COL___271                                                 6
 STAT SP IPHASW D HRMM SECON CODA AMPLIT PERI AZIMU VELO AIN AR TRES W  DIS CAZ7
 BAR2 EZ EP        914 55.44                             176    0.0710 11.6 187 
 BAR2 EZ ES   1    915 10.82                             176   -0.33 7 11.6 187 
 BAR2 EZ I         915 11.64         4.8 0.38            175           11.6 187 
 BRR  HZ EP   1    914 57.30                             152    0.09 7 75.2 307 
 BRR  HN ES        915 14.59                             152    0.1710 75.2 307 
 BRR  HZ I         915 16.86         1.7 0.33            147           75.2 307 
 PTB  HZ EP   1    915  2.15                             134   -0.10 7  143 263 
 PTB  HN ES        915 23.51                             134    0.11 9  143 263 
 PTB  HZ I         915 26.12         0.9 0.16            132            143 263 
 ZAR  HN ES   1    915 33.66                             123   -0.39 6  206 295 
 ZAR  HZ I         915 39.88         1.0 0.31            122            206 295 
                                                                                
