 2014  319 0027 43.5 L   6.812 -73.146149.4  RSN 12 0.5 2.0LRSN                1
 GAP=136        1.11       3.0     4.5  5.8 -0.1054E+01  0.6992E+01  0.1273E+01E
 Epicentro: LOS SANTOS - SANTANDER                                             3
 ACTION:UPD 14-04-09 23:18 OP:nd   STATUS:               ID:20140319002743 L   I
 OLDACT:REG 14-03-19 11:16 OP:carl STATUS:               ID:20140319002640     3
 2014-03-19-0026-40M.COL___241                                                 6
 STAT SP IPHASW D HRMM SECON CODA AMPLIT PERI AZIMU VELO AIN AR TRES W  DIS CAZ7
 BAR2 SZ EP        028  3.60                             170    0.0310 24.7 189 
 BAR2 SZ ES        028 18.89                             170   -0.3610 24.7 189 
 BAR2 SZ I         028 19.98        33.2 0.36            167           24.7 189 
 BRR  HZ EP        028  5.52                             153    0.5310 70.5 298 
 BRR  HN ES        028 22.48                             153    0.7210 70.5 298 
 PAM  SZ EP        028  6.53                             152    0.5110 76.3  40 
 PAM  SN ES        028 23.88                             152    0.2810 76.3  40 
 PAM  SZ I         028 25.83        24.1 0.54            157           76.3  40 
 RUS  HZ EP        028  7.52                             144   -0.1710  102 176 
 RUS  HN ES        028 26.43                             144   -0.1410  102 176 
 RUS  HZ I         028 29.32         4.8 0.20            145            102 176 
 PTB  HZ EP        028 10.23                             133   -0.54 9  148 258 
 PTB  HN ES        028 31.64                             133   -0.41 9  148 258 
 PTB  HZ I         028 38.96        21.4 0.42            132            148 258 
 OCA  HN ES        028 33.31                             131   -0.84 9  159 353 
 SPBC HZ EP        028 12.53                             130    0.17 9  164 219 
 SPBC HN ES        028 35.23                             130    0.35 9  164 219 
 SPBC HZ I         028 41.91        12.1 0.32            130            164 219 
 ZAR  HZ EP        028 16.45                             123    0.34 9  204 292 
 ZAR  HN ES        028 41.83                             123    0.27 9  204 292 
 ZAR  HZ I         028 48.87         9.5 0.18            124            204 292 
 NOR  HZ EP        028 19.28                             119   -0.23 8  235 234 
 NOR  HN ES        028 47.42                             119   -0.19 8  235 234 
 NOR  HZ I         028 51.47         5.9 0.22            120            235 234 
 SML  HZ EP        028 19.81                             118   -0.37 8  242 335 
 SML  HN ES        028 48.31                             118   -0.49 8  242 335 
 SML  HZ I         028 52.24        14.3 0.24            120            242 335 
 CHI  HZ EP        028 21.43                             118   -0.10 8  250 195 
 CHI  HE ES        028 50.59                             118   -0.61 8  250 195 
 CHI  HZ I         029  0.84         3.1 0.50            119            250 195 
 GUY2CHZ EP        028 28.35                             113    1.00 7  302 235 
 GUY2CHN ES   4    029  1.22                             113   -0.34 0  302 235 
                                                                                
