 2014  119 0631  3.1 L   6.017 -74.011 89.1  RSN  5 0.3 1.2LRSN                1
 GAP= 96        0.83       4.7     3.1  6.8  0.1220E+01 -0.2297E+01 -0.7401E+01E
 Epicentro: LA BELLEZA - SANTANDER                                             3
 ACTION:UPD 14-03-13 09:56 OP:ep   STATUS:               ID:20140119063103 L   I
 OLDACT:UP  14-01-19 08:51 OP:cam  STATUS:               ID:20140119063000     3
 OLDACT:REG 14-01-19 07:56 OP:cam  STATUS:               ID:20140119063000     3
 2014-01-19-0630-00M.COL___285                                                 6
 STAT SP IPHASW D HRMM SECON CODA AMPLIT PERI AZIMU VELO AIN AR TRES W  DIS CAZ7
 SPBC HN ES        631 27.21                             153    0.1510 40.9 190 
 PTB  HZ EP   4 C  631 18.13                             136   -0.85 0 75.9 320 
 PTB  HN ES        631 30.99                             136   -0.3410 75.9 320 
 PTB  HZ I         631 35.18         4.7 0.14            133           75.9 320 
 RUS  HZ EP        631 21.78                             127   -0.4010  104  98 
 RUS  HZ I         631 23.58         0.8 0.24            129            104  98 
 RUS  HN ES        631 36.93                             127   -0.1010  104  98 
 BAR2 SZ EP        631 22.54                             125   -0.1010  112  55 
 BAR2 SZ ES        631 38.33                             125    0.4810  112  55 
 BAR2 SZ I         631 39.78        15.3 0.50            125            112  55 
 HEL  HZ EP        631 29.44                             113    0.39 9  169 277 
 HEL  HN ES   4    631 51.37                             113    2.11 0  169 277 
 HEL  HZ I         631 53.25         2.1 0.42            112            169 277 
                                                                                
