 2015  819 0939 17.5 L   6.806 -73.102145.5  RSN  7 0.4 1.7LRSN                1
 GAP=187        0.84       3.1     5.7  6.7  0.2323E+01  0.2543E+01 -0.1683E+01E
 Epicentro: LOS SANTOS - SANTANDER                                             3
 ACTION:UPD 15-09-15 23:03 OP:cam  STATUS:               ID:20150819093917 L   I
 OLDACT:REG 15-08-19 13:26 OP:spq  STATUS:               ID:20150819093750     3
 2015-08-19-0937-50M.COL___334                                                 6
 STAT SP IPHASW D HRMM SECON CODA AMPLIT PERI AZIMU VELO AIN AR TRES W  DIS CAZ7
 BAR2 EZ EP        939 37.29                             170    0.1110 25.2 201 
 BAR2 EZ ES   1    939 52.31                             170   -0.19 7 25.2 201 
 BAR2 EZ I         939 53.24        14.1 0.36            169           25.2 201 
 BRR  HZ EP        939 39.12                             151    0.2310 75.2 296 
 BRR  HN ES        939 56.21                             151    0.6710 75.2 296 
 BRR  HZ I         939 57.04         5.7 0.26            148           75.2 296 
 RUS  HZ EP   1    939 41.56                             144    0.26 7  101 179 
 RUS  HE ES   1    939 59.64                             144   -0.19 7  101 179 
 RUS  HZ I         940  0.71         3.8 0.22            145            101 179 
 OCA  HZ EP   1    939 45.95                             130    0.12 7  160 351 
 OCA  HN ES        940  7.37                             130   -0.53 9  160 351 
 OCA  HZ I         940 10.61        12.2 0.24            129            160 351 
 SPBC HZ EP        939 46.21                             128   -0.15 9  167 220 
 SPBC HE ES        940  8.44                             128   -0.40 9  167 220 
 SPBC HZ I         940 10.33         5.8 0.34            128            167 220 
 ZAR  HZ EP   1    939 51.02                             122    0.61 6  208 291 
 ZAR  HN ES        940 15.76                             122   -0.28 8  208 291 
 ZAR  HZ I         940 21.92         4.2 0.32            121            208 291 
 SML  HE ES   1    940 22.62                             117   -0.37 6  245 334 
 SML  HZ I         940 26.17         5.3 0.10            117            245 334 
                                                                                
