 2010  719 0701 51.9 L   6.757 -73.108148.2  RSN 12 0.3 2.5LRSN                1
 GAP=160        0.66       3.1     4.9  4.2 -0.5065E+01  0.3600E+01  0.6166E+00E
 Epicentro: LOS SANTOS - SANTANDER                                             3
 ACTION:UPD 10-12-01 15:18 OP:pat  STATUS:               ID:20100719070151 L   I
 2010-07-19-0700-19S.COL___120                                                 6
 STAT SP IPHASW D HRMM SECON CODA AMPLIT PERI AZIMU VELO AIN AR TRES W  DIS CAZ7
 BAR2 SZ IP        7 2 11.70                             172    -0.110   20 205 
 BAR2 SZ ES   1    7 2 27.09                             172    -0.2 7   20 205 
 BAR2 SZ I         7 2 27.90        94.0 0.14                            20 205 
 GIR2 SZ IP        7 2 11.93                             165    -0.110   37 345 
 GIR2 SZ ES   1    7 2 27.58                             165    -0.2 7   37 345 
 BRR  HZ IP     D  7 2 13.71                             151     0.010   77 300 
 BRR  HN ES   1    7 2 31.07                             151     0.4 7   77 300 
 BRR  HZ I         7 2 32.17       101.4 0.17                            77 300 
 RUS  HZ EP        7 2 15.49                             146    -0.110   96 178 
 RUS  HN ES   1    7 2 34.18                             146     0.1 7   96 178 
 RUS  HZ I         7 2 35.75        48.3 0.39                            96 178 
 BRI  SZ EP   1    7 2 16.51                             141     0.2 7  112  18 
 GUE  SZ EP        7 2 16.93                             139    -0.310  120  10 
 GUE  SZ I         7 2 38.39        24.5 0.15                           120  10 
 GRA  SZ IP        7 2 17.80                             137     0.110  129  15 
 GRA  SZ I         7 2 19.08        48.9 0.22                           129  15 
 GRA  SZ ES   1    7 2 38.10                             137     0.3 7  129  15 
 ROSC BZ EP   1    7 2 30.50                             117     0.5 6  251 212 
 ROSC BZ I         7 3  7.83        19.0 0.78                           251 212 
 HEL  HZ EP   1    7 2 32.48                             115    -0.1 6  275 257 
 HEL  HN ES   2    7 3  3.87                             115    -0.5 4  275 257 
 HEL  HZ I         7 3 11.10        17.5 0.27                           275 257 
 RREF HZ EP   1    7 2 39.01                             111     0.8 5  322 231 
 RREF HZ I         7 3 19.22        22.7 0.26                           322 231 
 DBB  SZ EP   1    7 2 39.59                             110    -0.5 5  344 275 
 DBB  SZ I         7 3 19.96         6.1 0.46                           344 275 
 PRA  HZ EP   1    7 2 45.11                             107    -0.2 4  390 210 
 PRA  HN ES   2    7 3 27.20                             107     0.3 3  390 210 
 PRA  HZ I         7 3 31.88        14.0 0.27                           390 210 
                                                                                
