 2017  219 0738 54.8 L   6.706 -73.204137.5  RSN  7 0.5 1.6LRSN                1
 GAP=118        1.25       5.9     5.7  7.7  0.2165E+01  0.5667E+01  0.4595E+01E
 Epicentro: VILLANUEVA - SANTANDER                                             3
 ACTION:UPD 17-05-24 15:37 OP:jn   STATUS:               ID:20170219073854 L   I
 OLDACT:UP  17-02-19 18:01 OP:cara STATUS:               ID:20170219073742d    3
 OLDACT:DUP 17-02-19 17:52 OP:cara STATUS:               ID:20170219073742d    3
 OLDACT:REG 17-02-19 12:46 OP:edw  STATUS:               ID:20170219073741     3
 2017-02-19-0738-00M.COL___352                                                 6
 STAT SP IPHASW D HRMM SECON CODA AMPLIT PERI AZIMU VELO AIN AR TRES W  DIS CAZ7
 BAR2 EZ EP        739 13.51                             174    0.2110 12.8 169 
 BAR2 EZ ES        739 27.52                             174   -0.1810 12.8 169 
 BAR2 EZ I         739 29.59        11.7 0.28            174           12.8 169 
 BRR  HZ EP        739 15.53                             151    0.4110 71.5 308 
 BRR  HN ES        739 31.72                             151    0.7810 71.5 308 
 BRR  HZ I         739 31.73         9.0 0.42            153           71.5 308 
 PAM  EZ IP        739 16.60                             145   -0.3910 89.5  38 
 PAM  EN ES        739 33.78                             145   -0.4810 89.5  38 
 PAM  EZ I         739 35.80         7.9 0.68            147           89.5  38 
 RUS  HZ EP        739 17.39                             145    0.3010 90.9 172 
 RUS  HN ES        739 34.76                             145    0.3210 90.9 172 
 RUS  HZ I         739 36.89         4.2 0.30            146           90.9 172 
 PTB  HZ EP        739 20.03                             132   -0.37 9  140 262 
 PTB  HN ES        739 39.36                             132   -0.98 9  140 262 
 PTB  HZ I         739 40.71         5.1 0.23            134            140 262 
 ZAR  HZ EP        739 27.08                             121    0.50 9  202 296 
 PTGC HZ EP        739 37.27                             110   -0.25 7  302 157 
                                                                                
