 2017  719 0451 41.0 L   7.026 -73.484107.8  RSN  5 0.3 1.2LRSN                1
 GAP=262        0.68       7.1     4.2  8.7 -0.4808E+01  0.1455E+02 -0.1149E+02E
 Epicentro: SAN VICENTE DE CHUCURI - SANTANDER                                 3
 ACTION:UPD 17-08-30 15:34 OP:rebc STATUS:               ID:20170719045141 L   I
 OLDACT:DUP 17-07-19 15:59 OP:dnl  STATUS:               ID:20170719044741d    3
 OLDACT:UP  17-07-19 15:58 OP:dnl  STATUS:               ID:20170719044740     3
 OLDACT:REG 17-07-19 13:06 OP:dnl  STATUS:               ID:20170719044740     3
 2017-07-19-0448-00M.COL___380                                                 6
 STAT SP IPHASW D HRMM SECON CODA AMPLIT PERI AZIMU VELO AIN AR TRES W  DIS CAZ7
 BAR2 EZ EP        451 57.93                             149    0.2610 58.4 145 
 BAR2 EZ ES        452 10.61                             149   -0.0810 58.4 145 
 BAR2 EZ I         452 11.15         5.5 0.56            154           58.4 145 
 PTB  HZ EP        452  2.51                             128    0.1110  120 243 
 PTB  HN ES        452 18.90                             128   -0.2010  120 243 
 PTB  HZ I         452 20.29         2.0 0.24            126            120 243 
 RUS  HZ EP   2    452  3.28                             125   -1.00 5  133 160 
 RUS  HN ES   4    452 19.96                             125   -2.49 0  133 160 
 RUS  HZ I         452 23.13         1.4 0.30            127            133 160 
 ZAR  HZ EP   4    452  9.36                             119    2.89 0  160 289 
 ZAR  HE ES   4    452 31.63                             119    5.28 0  160 289 
 ZAR  HZ I         452 33.31         3.5 0.10            116            160 289 
 SPBC HZ EP   4    452  8.42                             118    1.31 0  165 203 
 SPBC HN ES        452 27.64                             118    0.16 9  165 203 
 SPBC HZ I         452 31.64         4.6 0.22            118            165 203 
                                                                                
