 2012  219 0855  4.5 L   6.778 -73.154147.7  RSN  9 0.2 1.7LRSN                1
 GAP=136        0.42       3.0     2.6  4.1 -0.1878E+01  0.6890E+00  0.3750E+01E
 ACTION:UP  12-03-07 16:32 OP:epov STATUS:               ID:20120219085504 L   I
 2012-02-19-0850-00M.COL___188                                                 6
 STAT SP IPHASW D HRMM SECON CODA AMPLIT PERI AZIMU VELO AIN AR TRES W  DIS CAZ7
 BAR2 SZ EP   1    855 24.17                             172   -0.17 7 20.8 189 
 BAR2 SZ I         855 24.58        11.6 0.16                          20.8 189 
 BAR2 SZ ES   2    855 39.49                             172   -0.31 5 20.8 189 
 GIR2 SZ EP   2    855 24.35                             167   -0.14 5 33.5 353 
 GIR2 SZ ES   2    855 40.20                             167    0.14 5 33.5 353 
 BRR  HZ EP   1    855 26.07                             153    0.16 7 71.6 301 
 BRR  HZ I         855 26.48        13.3 0.11                          71.6 301 
 BRR  HN ES   2    855 43.23                             153    0.65 5 71.6 301 
 PAM  SZ IP        855 27.15                             150    0.0510 79.9  39 
 PAM  SN ES   1    855 44.61                             150   -0.09 7 79.9  39 
 RUS  HZ EP   1    855 28.25                             145   -0.06 7 98.2 175 
 RUS  HE ES   2    855 47.00                             145    0.15 5 98.2 175 
 RUS  HZ I         855 47.41         3.5 0.23                          98.2 175 
 PTB  HZ EP   1    855 31.30                             133   -0.23 7  146 260 
 PTB  HN ES   1    855 52.37                             133   -0.22 7  146 260 
 ZAR  HN ES   2    856  2.43                             123   -0.08 4  204 293 
 ZAR  HZ I         856  8.44         5.4 0.31                           204 293 
 NOR  SE ES   2    856  8.09                             119    0.18 4  233 235 
 CHI  HZ EP   1    855 42.41                             118    0.35 6  246 195 
                                                                                
