 2016  519 0428 46.9 L   7.047 -73.535109.4  RSN  6 0.5 1.8LRSN                1
 GAP= 99        1.22       5.9     4.7  8.9 -0.1608E+01  0.4013E+01 -0.1681E+02E
 Epicentro: SAN VICENTE DE CHUCURI - SANTANDER                                 3
 ACTION:UPD 16-08-18 17:47 OP:cam  STATUS:               ID:20160519042846 L   I
 OLDACT:UP  16-05-19 18:11 OP:mh   STATUS:               ID:20160519042745     3
 OLDACT:UP  16-05-19 18:11 OP:mh   STATUS:               ID:20160519042745     3
 OLDACT:UP  16-05-19 18:10 OP:mh   STATUS:               ID:20160519042745     3
 OLDACT:REG 16-05-19 15:14 OP:mh   STATUS:               ID:20160519042745     3
 2016-05-19-0427-45M.COL___299                                                 6
 STAT SP IPHASW D HRMM SECON CODA AMPLIT PERI AZIMU VELO AIN AR TRES W  DIS CAZ7
 BRR  HZ IP     C  429  2.24                             169    0.4910 20.7 289 
 BRR  HN ES        429 13.31                             169   -0.0310 20.7 289 
 BAR2 EZ EP        429  4.52                             148    0.4410 63.6 142 
 BAR2 EZ ES        429 17.39                             148   -0.1010 63.6 142 
 BAR2 EZ I         429 18.86        22.4 0.32            156           63.6 142 
 PAM  EZ EP        429  7.46                             135    0.4210 97.8  71 
 PTB  HZ EP        429  7.28                             130   -0.7810  116 241 
 PTB  HN ES        429 24.14                             130   -0.4310  116 241 
 OCA  HZ EP        429  9.32                             125   -0.6510  134  10 
 OCA  HN ES   1    429 27.46                             125   -0.50 7  134  10 
 OCA  HZ I         429 34.23        11.0 0.14            126            134  10 
 ZAR  HZ EP        429 12.13                             121    0.29 9  154 289 
 ZAR  HN ES        429 31.94                             121    0.64 9  154 289 
 ZAR  HZ I         429 36.60         7.9 0.11            123            154 289 
 PRA  HZ EP   4    429 41.42                              99    1.31 0  398 202 
 PRA  HE ES   4    430 23.81                              99    2.19 0  398 202 
                                                                                
