 2016  819 0049 13.2 L   6.853 -73.292120.0  RSN 11 0.5 1.8LRSN                1
 GAP=109        1.10       3.7     3.5  5.5 -0.2795E+01  0.4032E+01  0.2881E+01E
 Epicentro: ZAPATOCA - SANTANDER                                               3
 ACTION:UPD 16-10-29 15:36 OP:rebc STATUS:               ID:20160819004913 L   I
 OLDACT:REG 16-08-19 12:35 OP:ak   STATUS:               ID:20160819004759     3
 2016-08-19-0047-59S.COL___343                                                 6
 STAT SP IPHASW D HRMM SECON CODA AMPLIT PERI AZIMU VELO AIN AR TRES W  DIS CAZ7
 BAR2 EZ IP     C  049 30.03                             164    0.0710 31.3 157 
 BAR2 EZ ES        049 43.09                             164    0.0510 31.3 157 
 BAR2 EZ I         049 44.24        47.0 0.24                          31.3 157 
 BRR  HZ IP     C  049 30.39                             154   -0.2110 54.2 301 
 BRR  HN ES        049 44.49                             154    0.3110 54.2 301 
 BRR  HZ I         049 45.39        25.3 0.10                          54.2 301 
 PAM  EZ EP        049 33.44                             142    0.1810 84.7  51 
 PAM  EN ES        049 49.64                             142    0.7210 84.7  51 
 PAM  EZ I         049 51.88        14.2 0.38                          84.7  51 
 RUS  HZ EP        049 34.92                             135   -0.2710  109 168 
 RUS  HN ES        049 51.93                             135   -0.4110  109 168 
 RUS  HZ I         049 54.30         7.3 0.38                           109 168 
 PTB  HZ IP   9 D  049 35.27                             129   -1.51 0  133 255 
 PTB  HN ES        049 53.26                                   -0.4110  133 255 
 PTB  HZ I         049 57.29         7.4 0.08                           133 255 
 SPBC HZ EP        049 38.98                             123   -0.38 9  158 213 
 SPBC HN ES        049 59.18                             123   -0.59 9  158 213 
 SPBC HZ I         050  2.53         9.7 0.08                           158 213 
 ZAR  HZ EP   2    049 41.66                             118   -0.58 4  187 292 
 ZAR  HN ES        050  4.12                             118   -0.77 9  187 292 
 ZAR  HZ I         050  9.04         7.1 0.09                           187 292 
 NOR  HZ EP        049 46.69                             113    0.17 8  225 231 
 NOR  HN ES        050 13.04                             113    0.52 8  225 231 
 NOR  HZ I         050 16.87         3.1 0.12                           225 231 
 HEL  HZ EP        049 51.23                             110    0.62 8  258 254 
 HEL  HN ES        050 19.77                             110   -0.03 8  258 254 
 HEL  HZ I         050 28.29         3.1 0.51                           258 254 
 SOCV BZ EP        049 55.74                             106   -0.70 7  312  59 
 SOCV BN ES   4    050 28.60                             106   -1.57 0  312  59 
 PRA  HZ EP        050  6.42                             102    0.78 6  389 207 
 PRA  HE ES        050 47.48                             102    0.93 6  389 207 
 PRA  HZ I         050 54.00         1.5 0.25                           389 207 
                                                                                
