 2016  219 0709  5.8 L   6.775 -73.140145.0  RSN  7 0.4 1.6LRSN                1
 GAP=138        0.95       3.9     4.7  6.1 -0.3995E+01  0.2622E+01  0.6023E+01E
 Epicentro: LOS SANTOS - SANTANDER                                             3
 ACTION:UPD 16-03-04 21:27 OP:rebc STATUS:               ID:20160219070905 L   I
 OLDACT:REG 16-02-19 12:28 OP:drio STATUS:               ID:20160219070746     3
 2016-02-19-0707-46M.COL___309                                                 6
 STAT SP IPHASW D HRMM SECON CODA AMPLIT PERI AZIMU VELO AIN AR TRES W  DIS CAZ7
 BAR2 EZ EP        7 9 24.75                             171   -0.5510 20.8 193 
 BAR2 EZ ES        7 9 40.27                             171   -0.2310 20.8 193 
 BAR2 EZ I         7 9 41.58        17.0 0.16            170           20.8 193 
 BRR  HZ EP        7 9 27.30                             152    0.3110 73.0 300 
 BRR  HN ES        7 9 44.10                             152    0.6010 73.0 300 
 PAM  EZ EP        7 9 28.33                             150    0.2710 79.2  38 
 PAM  EE ES        7 9 45.26                             150   -0.1410 79.2  38 
 PAM  EZ I         7 9 47.86         3.4 0.62            153           79.2  38 
 RUS  HZ EP        7 9 29.05                             144   -0.2410 97.8 176 
 RUS  HE ES        7 9 47.69                             144    0.0910 97.8 176 
 RUS  HZ I         7 9 48.94         4.0 0.32            145           97.8 176 
 PTB  HZ EP        7 9 32.35                             132   -0.38 9  148 260 
 PTB  HN ES        7 9 53.09                             132   -0.62 9  148 260 
 PTB  HZ I         7 9 55.38         5.3 0.14            133            148 260 
 SPBC HZ EP        7 9 34.27                             129    0.18 9  161 220 
 SPBC HE ES        7 9 56.59                             129    0.45 9  161 220 
 SPBC HZ I         710  2.58         5.8 0.24            130            161 220 
 CHI  HZ EP        7 9 43.54                             117    0.34 8  246 195 
 CHI  HN ES        710 12.40                             117    0.04 8  246 195 
                                                                                
