 2017  319 0636 22.9 L   6.805 -73.111144.8  RSN  8 0.4 1.6LRSN                1
 GAP=141        1.03       4.2     4.4  7.7  0.2810E+00  0.7536E+01  0.1176E+02E
 Epicentro: LOS SANTOS - SANTANDER                                             3
 ACTION:UPD 17-05-25 18:42 OP:jn   STATUS:               ID:20170319063622 L   I
 OLDACT:REG 17-03-19 13:16 OP:cara STATUS:               ID:20170319062747     3
 2017-03-19-0628-00M.COL___400                                                 6
 STAT SP IPHASW D HRMM SECON CODA AMPLIT PERI AZIMU VELO AIN AR TRES W  DIS CAZ7
 BAR2 EZ EP        636 42.10                             170   -0.3310 24.8 199 
 BAR2 EZ I         637  1.58         9.5 0.12            170           24.8 199 
 BRR  HZ EP        636 44.19                             151    0.0810 74.3 297 
 BRR  HE ES        637  1.23                             151    0.5610 74.3 297 
 PAM  EZ EP        636 45.01                             152    0.1810 74.6  38 
 PAM  EN ES        637  2.06                             152    0.1110 74.6  38 
 PAM  EZ I         637  3.44         8.4 0.52            148           74.6  38 
 RUS  HZ EP        636 46.34                             143   -0.2210  101 178 
 RUS  HN ES        637  4.73                             143   -0.3010  101 178 
 RUS  HZ I         637  5.85         3.8 0.26            142            101 178 
 PTB  HZ EP        636 49.45                             131   -0.67 9  152 259 
 PTB  HN ES        637 10.87                             131   -0.50 9  152 259 
 PTB  HZ I         637 12.65         5.9 0.34            131            152 259 
 ZAR  HN ES        637 21.06                             122   -0.08 8  207 292 
 CHI  HZ EP        637  0.61                             117   -0.08 8  250 196 
 CHI  HE ES        637 30.94                             117    0.75 8  250 196 
 GUY2CHZ EP        637  7.70                             112    0.87 7  305 235 
 GUY2CHN ES        637 41.41                             112    0.29 7  305 235 
                                                                                
