 2010  919 0205 47.1 L   6.799 -73.079142.4  RSN  6 0.3 1.8LRSN                1
 GAP=166        0.83       5.3    13.0 13.2  0.2925E+02 -0.1085E+03 -0.3644E+02E
 Epicentro: LOS SANTOS - SANTANDER                                             3
 ACTION:UP  11-02-18 11:03 OP:tino STATUS:               ID:20100919020547 L   I
 2010-09-19-0202-20S.COL___121                                                 6
 STAT SP IPHASW D HRMM SECON CODA AMPLIT PERI AZIMU VELO SNR AR TRES W  DIS CAZ7
 BTL  SZ EP        2 6  6.75                             170     0.410   25 302 
 BRR  HZ EP        2 6  8.22                             150    -0.110   78 296 
 BRR  HZ I         2 6  8.54        21.3 0.11                            78 296 
 BRR  HE ES   1    2 6 24.86                             150     0.0 7   78 296 
 RUS  HZ EP        2 6 10.55                             143     0.010  100 180 
 RUS  HN ES   1    2 6 28.41                             143    -0.4 7  100 180 
 RUS  HZ I         2 6 29.55         3.6 0.15                           100 180 
 GUE  SZ EP   2    2 6 10.82                             139    -0.6 5  115   9 
 GRA  SZ EP        2 6 12.32                             137     0.410  124  14 
 GRA  SZ I         2 6 13.65         8.2 0.25                           124  14 
 OCA  SZ EP        2 6 14.93                             129    -0.4 9  161 351 
 OCA  SZ ES   2    2 6 37.03                             129    -0.2 5  161 351 
 OCA  SZ I         2 6 41.80        10.6 0.67                           161 351 
                                                                                
