 2014  419 0838 25.5 L   6.180 -74.144 78.2  RSN  5 0.5 1.4LRSN                1
 GAP=134        1.19       4.5     4.9 11.3  0.7743E+01 -0.7269E+01 -0.1933E+02E
 Epicentro: CIMITARRA - SANTANDER                                              3
 ACTION:UPD 14-05-13 23:09 OP:nd   STATUS:               ID:20140419083825 L   I
 OLDACT:DUP 14-04-19 18:32 OP:stll STATUS:               ID:20140419082806d    3
 2014-04-19-0828-05M.COL___221                                                 6
 STAT SP IPHASW D HRMM SECON CODA AMPLIT PERI AZIMU VELO AIN AR TRES W  DIS CAZ7
 PTB  HZ EP        838 38.26                             143   -0.2010 52.7 319 
 PTB  HN ES        838 48.45                             143   -0.1110 52.7 319 
 PTB  HZ I         838 52.16         6.4 0.24            145           52.7 319 
 SPBC HZ EP        838 39.82                             140    0.7710 58.9 172 
 SPBC HN ES        838 50.08                             140    0.4710 58.9 172 
 SPBC HZ I         838 51.54        12.9 0.20            148           58.9 172 
 NOR  HN ES        838 56.71                             122   -0.6410  105 230 
 RUS  HN ES        839  0.88                             118   -0.5810  122 105 
 ZAR  HZ EP        838 50.04                             110    0.01 9  165 331 
 ZAR  HN ES        839  9.43                             110    0.29 9  165 331 
 ZAR  HZ I         839 12.98         4.9 0.50            114            165 331 
                                                                                
