 2015  419 0430 40.1 L   6.748 -73.195150.0  RSN  5 0.3 1.1LRSN                1
 GAP=228        0.79       7.3     6.8  7.2  0.2919E+02  0.6474E+01  0.3874E+01E
 Epicentro: VILLANUEVA - SANTANDER                                             3
 ACTION:UPD 15-06-03 16:55 OP:cam  STATUS:               ID:20150419043040 L   I
 OLDACT:REG 15-04-19 12:36 OP:spq  STATUS:               ID:20150419042748     3
 2015-04-19-0427-48M.COL___274                                                 6
 STAT SP IPHASW D HRMM SECON CODA AMPLIT PERI AZIMU VELO AIN AR TRES W  DIS CAZ7
 BAR2 EZ EP        430 59.89                             173   -0.2510 17.2 175 
 BAR2 EZ ES   1    431 15.05                             173   -0.72 7 17.2 175 
 BAR2 EZ I         431 17.33         3.5 0.22            171           17.2 175 
 BRR  HZ EP        431  1.71                             154    0.0810 69.6 305 
 BRR  HN ES        431 18.84                             154    0.4310 69.6 305 
 BRR  HZ I         431 19.82         3.4 0.40            151           69.6 305 
 RUS  HZ EP   1    431  4.32                             146    0.40 7 95.4 173 
 RUS  HE ES   1    431 22.84                             146    0.35 7 95.4 173 
 RUS  HZ I         431 24.76         1.3 0.40            147           95.4 173 
 PTB  HZ EP        431  6.70                             134   -0.16 9  141 261 
 PTB  HN ES   1    431 27.58                             134   -0.14 7  141 261 
 PTB  HZ I         431 29.19         1.3 0.28            133            141 261 
 ZAR  HE ES   1    431 37.71                             124   -0.15 6  201 294 
 ZAR  HZ I         431 45.98         1.8 0.36            123            201 294 
                                                                                
