 2012 1019 0846 33.6 L   6.735 -73.189156.0  RSN  4 0.1 1.4LRSN                1
 GAP=227        0.36       5.9     6.8  5.7  0.3389E+02 -0.8874E+01 -0.7941E+01E
 Epicentro: VILLANUEVA - SANTANDER                                             3
 ACTION:UPD 12-11-22 17:04 OP:ep   STATUS:               ID:20121019084633 L   I
 2012-10-19-0840-00M.COL___231                                                 6
 STAT SP IPHASW D HRMM SECON CODA AMPLIT PERI AZIMU VELO AIN AR TRES W  DIS CAZ7
 BAR2 SZ EP   1    846 54.20                             174   -0.19 7 15.8 177 
 BRR  HZ EP   1    846 55.91                             154    0.01 7 71.0 305 
 BRR  HZ I         846 56.21         5.0 0.58                          71.0 305 
 BRR  HN ES   1    847 13.35                             154    0.10 7 71.0 305 
 RUS  HZ EP   1    846 58.15                             148    0.18 7 93.9 173 
 RUS  HE ES   1    847 16.88                             148   -0.06 7 93.9 173 
 RUS  HE I         847 17.65         1.7 0.46                          93.9 173 
 ZAR  HE ES   1    847 32.29                             125   -0.06 6  203 295 
 ZAR  HE I         847 38.48         4.5 0.22                           203 295 
                                                                                
