 2014  919 0013 21.0 L   6.800 -73.160150.9  RSN  6 0.5 1.8LRSN                1
 GAP=146        1.36       5.4     7.3  8.6 -0.4904E+01  0.9683E+01  0.3703E+01E
 Epicentro: LOS SANTOS - SANTANDER                                             3
 ACTION:UPD 14-10-03 23:06 OP:nd   STATUS:               ID:20140919001321 L   I
 OLDACT:REG 14-09-19 13:22 OP:carl STATUS:               ID:20140919000817     3
 2014-09-19-0008-17M.COL___281                                                 6
 STAT SP IPHASW D HRMM SECON CODA AMPLIT PERI AZIMU VELO AIN AR TRES W  DIS CAZ7
 BAR2 SZ EP        013 41.12                             171   -0.0910 23.1 186 
 BAR2 SZ ES        013 56.39                             171   -0.6110 23.1 186 
 BAR2 SZ I         013 57.82        13.3 0.28            172           23.1 186 
 BRR  HZ EP        013 43.13                             154    0.5410 69.8 299 
 BRR  HN ES        014  0.47                             154    1.0010 69.8 299 
 BRR  HZ I         014  2.72         7.6 0.20            151           69.8 299 
 PAM  SZ EP        013 44.47                             151    0.6910 78.4  40 
 PAM  SN ES        014  1.20                             151   -0.3910 78.4  40 
 PAM  SZ I         014  3.32         5.9 0.20            153           78.4  40 
 PTB  HZ EP        013 47.51                             133   -0.71 9  146 259 
 PTB  HN ES        014  9.33                             133   -0.15 9  146 259 
 PTB  HN I         014 14.57        19.5 0.46            133            146 259 
 SML  HZ EP        013 57.77                             119   -0.04 8  243 336 
 SML  HN ES        014 25.84                             119   -0.71 8  243 336 
 SML  HZ I         014 30.75         8.1 0.22            119            243 336 
 CHI  HZ EP        013 58.90                             118   -0.01 8  248 195 
 CHI  HN ES        014 28.64                             118    0.13 8  248 195 
                                                                                
