 2017  719 0845 48.7 L   6.820 -73.162142.5  RSN  5 0.3 1.4LRSN                1
 GAP=243        0.67       4.9     5.0  6.9  0.1070E+02  0.1315E+02 -0.3450E+01E
 Epicentro: LOS SANTOS - SANTANDER                                             3
 ACTION:UPD 17-08-30 15:34 OP:rebc STATUS:               ID:20170719084548 L   I
 OLDACT:REG 17-07-19 13:59 OP:dnl  STATUS:               ID:20170719083740     3
 2017-07-19-0838-00M.COL___365                                                 6
 STAT SP IPHASW D HRMM SECON CODA AMPLIT PERI AZIMU VELO AIN AR TRES W  DIS CAZ7
 BAR2 EZ EP   2    846  8.16                             169    0.16 5 25.3 185 
 BAR2 EZ ES        846 22.76                             169   -0.2810 25.3 185 
 BAR2 EZ I         846 24.12         5.8 0.36            167           25.3 185 
 RUS  HZ EP   2    846 12.56                             142    0.24 5  103 175 
 RUS  HN ES        846 31.07                             142    0.3410  103 175 
 RUS  HZ I         846 31.80         2.9 0.26            143            103 175 
 PTB  HZ EP        846 14.89                             131   -0.41 9  146 258 
 PTB  HN ES        846 35.87                             131   -0.17 9  146 258 
 PTB  HZ I         846 37.72         1.7 0.12            130            146 258 
 SPBC HZ EP   2    846 16.73                             128   -0.29 5  164 218 
 SPBC HN ES        846 39.13                             128    0.02 9  164 218 
 SPBC HZ I         846 44.90         4.2 0.10            127            164 218 
 ZAR  HZ EP   2    846 20.94                             122    0.25 4  202 292 
 ZAR  HE ES        846 46.10                             122    0.46 9  202 292 
 ZAR  HZ I         846 53.29         3.7 0.46            121            202 292 
                                                                                
