 2013  319 0106 16.9 L   6.775 -73.127151.8  RSN  6 0.4 1.5LRSN                1
 GAP=140        0.81       6.1     6.6  9.4  0.1336E+02 -0.1934E+02 -0.4919E+01E
 Epicentro: LOS SANTOS - SANTANDER                                             3
 ACTION:UPD 13-04-09 14:03 OP:ep   STATUS:               ID:20130319010616 L   I
 2013-03-19-0100-00M.COL___244                                                 6
 STAT SP IPHASW D HRMM SECON CODA AMPLIT PERI AZIMU VELO AIN AR TRES W  DIS CAZ7
 BAR2 SZ EP        1 6 37.06                             172   -0.2010 21.1 197 
 BAR2 SZ I         1 6 54.83         6.9 0.36            171           21.1 197 
 BRR  HZ EP        1 6 38.84                             152   -0.0810 74.3 300 
 BRR  HN ES        1 6 56.29                             152    0.2310 74.3 300 
 BRR  HN I         1 6 59.61        11.1 0.26            147           74.3 300 
 PAM  SZ EP        1 6 39.73                             152   -0.1310 78.3  37 
 PAM  SN I         1 7  1.93         4.0 0.42            135           78.3  37 
 RUS  HZ EP        1 6 41.75                             146    0.6610 97.7 177 
 RUS  HN ES   1    1 6 59.49                             146   -0.44 7 97.7 177 
 RUS  HN I         1 7  1.53         4.3 0.38            147           97.7 177 
 PTB  HZ EP   1    1 6 44.03                             133   -0.51 7  149 260 
 PTB  HN ES   2    1 7  5.91                             133   -0.16 5  149 260 
 PTB  HN I         1 7 12.30         2.6 0.46            132            149 260 
 ZAR  HN ES   2    1 7 16.23                             123    0.29 4  207 293 
 ZAR  HN I         1 7 21.13         5.6 0.30            118            207 293 
                                                                                
