 2014 1219 0622 27.2 L   6.825 -73.170137.1  RSN  7 0.5 1.4LRSN                1
 GAP=199        1.15       4.3     6.5  9.1  0.9343E+01  0.2307E+01 -0.1108E+02E
 Epicentro: LOS SANTOS - SANTANDER                                             3
 ACTION:UPD 15-02-10 17:05 OP:nd   STATUS:               ID:20141219062227 L   I
 OLDACT:UP  14-12-19 15:46 OP:fm   STATUS:               ID:20141219061744     3
 OLDACT:REG 14-12-19 13:02 OP:y    STATUS:               ID:20141219061744     3
 2014-12-19-0617-44M.COL___299                                                 6
 STAT SP IPHASW D HRMM SECON CODA AMPLIT PERI AZIMU VELO AIN AR TRES W  DIS CAZ7
 BAR2 EZ EP   1    622 45.01                             169   -0.80 8 25.7 183 
 BAR2 EZ ES   1    623  0.85                             169    0.49 8 25.7 183 
 BAR2 EZ I         623  4.16         5.5 0.32            169           25.7 183 
 RUS  HZ EP        622 50.88                             141    0.5810  104 175 
 RUS  HE ES        623  8.30                             141   -0.0410  104 175 
 RUS  HZ I         623 10.04         1.6 0.14            145            104 175 
 PTB  HZ EP        622 52.95                             130   -0.30 9  146 258 
 PTB  HN ES        623 13.29                             130   -0.30 9  146 258 
 PTB  HZ I         623 16.46         2.1 0.10            131            146 258 
 SPBC HE ES        623 16.24                             127   -0.58 9  164 218 
 SPBC HZ I         623 21.67         3.5 0.24            129            164 218 
 ZAR  HZ EP        622 59.57                             121    0.88 9  201 292 
 ZAR  HN ES        623 23.89                             121    0.61 9  201 292 
 ZAR  HZ I         623 31.64         3.7 0.32            122            201 292 
 SML  HZ EP        623  2.45                             116   -0.47 8  240 336 
 SML  HN ES        623 30.44                             116   -0.38 8  240 336 
 SML  HZ I         623 36.19         4.2 0.26            118            240 336 
 CHI  HZ EP        623  4.56                             115   -0.05 8  251 194 
 CHI  HN ES        623 34.02                             115    0.20 8  251 194 
 CHI  HZ I         623 37.86         1.5 0.62            118            251 194 
                                                                                
