 2017  719 0600 34.8 L   6.830 -73.168146.9  RSN 17 0.4 2.2LRSN                1
 GAP=109        0.75       2.4     2.4  4.4 -0.6441E+00  0.3948E+01 -0.6897E+00E
 Epicentro: LOS SANTOS - SANTANDER                                             3
 ACTION:UPD 17-08-30 15:34 OP:rebc STATUS:               ID:20170719060034 L   I
 OLDACT:UP  17-07-19 16:36 OP:dnl  STATUS:               ID:20170719055743     3
 OLDACT:REG 17-07-19 13:11 OP:dnl  STATUS:               ID:20170719055743     3
 2017-07-19-0558-00M.COL___380                                                 6
 STAT SP IPHASW D HRMM SECON CODA AMPLIT PERI AZIMU VELO AIN AR TRES W  DIS CAZ7
 BAR2 EZ EP        6 0 54.59                             169   -0.0210 26.4 184 
 BAR2 EZ ES        6 1  9.97                             169   -0.1010 26.4 184 
 BAR2 EZ I         6 1 10.68        57.3 0.34            170           26.4 184 
 PAM  EZ EP        6 0 57.44                             151    0.3810 76.5  43 
 PAM  EN ES        6 1 14.36                             151   -0.0810 76.5  43 
 PAM  EZ I         6 1 16.82        46.9 0.52            153           76.5  43 
 RUS  HZ EP   2    6 0 58.45                             143   -0.45 5  104 175 
 RUS  HN ES        6 1 17.35                             143   -0.3610  104 175 
 RUS  HZ I         6 1 18.26        14.5 0.24            145            104 175 
 PTB  HZ EP        6 1  1.71                             132    0.02 9  146 257 
 PTB  HN ES        6 1 22.56                             132   -0.11 9  146 257 
 PTB  HZ I         6 1 28.70        12.0 0.20            130            146 257 
 SPBC HZ EP        6 1  3.59                             129    0.12 9  164 218 
 SPBC HE ES        6 1 26.09                             129    0.24 9  164 218 
 SPBC HZ I         6 1 30.43        36.9 0.24            129            164 218 
 YPLC HZ IP     D  6 1  5.03                             126   -0.03 9  181 151 
 YPLC HN ES        6 1 28.95                             126    0.28 9  181 151 
 YPLC HZ I         6 1 31.72        16.3 0.30            129            181 151 
 ZAR  HZ EP        6 1  7.12                             123    0.18 9  201 292 
 ZAR  HE ES        6 1 32.68                             123    0.65 9  201 292 
 ZAR  HZ I         6 1 39.27        23.7 0.24            121            201 292 
 NOR  HZ EP        6 1 10.74                             119    0.16 8  235 233 
 NOR  HN ES        6 1 38.30                             119   -0.19 8  235 233 
 NOR  HZ I         6 1 45.75         9.5 0.14            118            235 233 
 HEL  HZ EP   4    6 1 16.42                             115    1.53 0  271 255 
 HEL  HE ES        6 1 45.51                             115   -0.66 8  271 255 
 HEL  HZ I         6 1 53.57         9.0 0.46            114            271 255 
 URE  HE ES   4    6 1 45.60                             114   -1.69 0  280 291 
 URE  HZ I         6 1 58.53        14.0 0.18            113            280 291 
 GUY2CHZ EP   4    6 1 19.64                             112    1.20 0  301 234 
 GUY2CHN ES   2    6 1 52.17                             112   -0.32 4  301 234 
 GUY2CHZ I         6 2  0.86         9.6 0.34                           301 234 
 PTGC HZ IP   4 D  6 1 17.79                             111   -1.35 0  313 158 
 PTGC HN ES   4    6 1 51.29                             111   -2.45 0  313 158 
 PTGC HZ I         6 1 52.78         7.6 0.66            113            313 158 
 LL6C HZ EP   2    6 1 19.22                             111   -0.92 3  321 358 
 LL6C HN ES        6 1 54.85                             111   -0.67 7  321 358 
 LL6C HZ I         6 2  2.05         7.1 0.44            111            321 358 
 CBOC HZ EP   4    6 1 22.97                             110    1.37 0  332 251 
 CBOC HE ES        6 1 58.62                             110    0.51 7  332 251 
 CBOC HZ I         6 2  4.78         2.9 0.40            110            332 251 
 PAL  HZ EP        6 1 30.21                             106    0.27 6  405 238 
 PAL  HN ES        6 2 12.35                             106   -0.61 6  405 238 
 PAL  HZ I         6 2 19.61         2.2 0.18            106            405 238 
 SJC  HZ EP   4    6 1 28.82                             106   -1.08 0  405 327 
 SJC  HE ES   4    6 2  9.93                             106   -2.96 0  405 327 
 SJC  HZ I         6 2 18.59         4.3 0.42            106            405 327 
 CRJC HZ EP   4    6 1 34.85                             103   -2.09 0  464   4 
 CRJC HE ES   4    6 2 23.12                             103   -2.30 0  464   4 
 CRJC HZ I         6 2 29.75         9.8 0.38            104            464   4 
                                                                                
