 2017  119 0437  9.6 L   6.768 -73.142156.5  RSN  7 0.6 1.6LRSN                1
 GAP=209        1.02       7.7     7.2  7.7  0.3264E+02  0.2739E+01 -0.7545E+01E
 Epicentro: LOS SANTOS - SANTANDER                                             3
 ACTION:UPD 17-05-22 16:01 OP:jn   STATUS:               ID:20170119043709 L   I
 OLDACT:UP  17-01-19 17:39 OP:dani STATUS:               ID:20170119042156     3
 OLDACT:UP  17-01-19 17:38 OP:dani STATUS:               ID:20170119042156     3
 OLDACT:UP  17-01-19 17:38 OP:dani STATUS:               ID:20170119042156     3
 OLDACT:UP  17-01-19 17:37 OP:dani STATUS:               ID:20170119042156     3
 OLDACT:REG 17-01-19 13:28 OP:dani STATUS:               ID:20170119042156     3
 2017-01-19-0428-00M.COL___322                                                 6
 STAT SP IPHASW D HRMM SECON CODA AMPLIT PERI AZIMU VELO AIN AR TRES W  DIS CAZ7
 BAR2 EZ EP        437 30.43                             173   -0.0810 19.9 193 
 BAR2 EZ ES        437 46.17                             173   -0.6210 19.9 193 
 BAR2 EZ I         437 48.40         6.2 0.28            174           19.9 193 
 BRR  HZ EP     C  437 32.64                             154    0.5610 73.3 301 
 BRR  HN ES        437 50.09                             154    0.5110 73.3 301 
 BRR  HZ I         437 53.31         5.9 0.62            154           73.3 301 
 RUS  HZ EP        437 34.45                             147    0.2210 97.0 176 
 RUS  HN ES        437 53.48                             147    0.0810 97.0 176 
 RUS  HZ I         437 55.83         4.8 0.52            150           97.0 176 
 PTB  HZ EP        437 37.40                             135   -0.08 9  147 260 
 PTB  HN ES        437 58.63                             135   -0.57 9  147 260 
 PTB  HZ I         438  1.61         5.8 0.26            136            147 260 
 ZAR  HE ES        438  9.02                             124    0.03 8  206 293 
 GUY2CHZ EP   3    437 55.84                             114    2.26 2  299 235 
 GUY2CHE ES   4    438 32.04                             114    4.19 0  299 235 
 GUY2CHZ I         438 36.14         2.3 0.58                           299 235 
 SJC  HZ EP   1    438  4.87                             107   -1.08 4  412 327 
 SJC  HN ES   3    438 48.46                             107   -1.40 1  412 327 
 SJC  HZ I         438 53.73         1.3 0.43            108            412 327 
                                                                                
