 2010  619 0544 32.9 L   6.768 -73.133142.5  RSN  5 0.2 1.2LRSN                1
 GAP=157        0.46       2.8     5.3  5.8 -0.4354E+01 -0.5363E+01 -0.1664E+01E
 Epicentro: LOS SANTOS - SANTANDER                                             3
 ACTION:UP  10-08-24 10:11 OP:vdl  STATUS:               ID:20100619054432 L   I
 2010-06-19-0543-00S.COL___118                                                 6
 STAT SP IPHASW D HRMM SECON CODA AMPLIT PERI AZIMU VELO SNR AR TRES W  DIS CAZ7
 BRR  HZ EP   1    544 53.93                             151     0.0 7   74 300 
 BRR  HE ES   1    545 10.18                             151    -0.1 7   74 300 
 BRR  HZ I         545 12.00         4.8 0.12                            74 300 
 RUS  HZ EP   3    544 56.62                             144     0.5 2   97 177 
 RUS  HE ES   1    545 14.12                             144     0.0 7   97 177 
 RUS  HZ I         545 15.56         2.1 0.14                            97 177 
 BRI  SZ EP   2    544 56.83                             140     0.1 5  111  19 
 BRI  SZ ES   1    545 15.34                             140     0.1 7  111  19 
 GUE  SZ EP   1    544 57.52                             138    -0.1 7  120  11 
 GUE  SZ ES   2    545 17.53                             138     0.7 5  120  11 
 GRA  SZ EP   1    544 58.04                             136    -0.1 7  129  16 
 GRA  SZ ES   1    545 17.48                             136    -0.3 7  129  16 
                                                                                
