 2012  319 0701 29.1 L   6.497 -73.411133.9  RSN  4 0.2 1.1LRSN                1
 GAP=121        0.59       6.6     6.3  7.4  0.2080E+02  0.1748E+02  0.1709E+02E
 ACTION:UP  12-03-31 23:20 OP:EP   STATUS:               ID:20120319070129 L   I
 2012-03-19-0700-00M.COL___202                                                 6
 STAT SP IPHASW D HRMM SECON CODA AMPLIT PERI AZIMU VELO SNR AR TRES W  DIS CAZ7
 BAR2 SZ EP   1    7 1 47.07                             168    -0.3 7   27  67 
 BAR2 SZ ES   1    7 2  1.49                             168    -0.2 7   27  67 
 BRR  HZ EP   1    7 1 49.08                             149    -0.1 7   75 334 
 BRR  HZ I         7 1 49.25         6.0 0.15                            75 334 
 BRR  HN ES   1    7 2  5.27                             149     0.3 7   75 334 
 RUS  HZ EP   1    7 1 50.36                             149     0.4 7   76 152 
 RUS  HZ I         7 1 50.99         1.0 0.36                            76 152 
 RUS  HN ES   2    7 2  6.31                             149     0.0 5   76 152 
 PTB  HZ EP   1    7 1 52.24                             137     0.0 7  116 272 
 PTB  HN ES   2    7 2 10.12                             137    -0.2 5  116 272 
 PTB  HZ I         7 2 11.48         1.7 0.15                           116 272 
                                                                                
