 2017 1119 0912 32.2 L   6.729 -73.150141.5  RSN  4 0.2 1.2LRSN                1
 GAP=157        0.49       6.2     2.8  9.2 -0.6499E-01 -0.3384E+01 -0.1960E+02E
 Epicentro: JORDAN - SANTANDER                                                 3
 ACTION:UPD 17-12-12 19:57 OP:rebc STATUS:               ID:20171119091232 L   I
 OLDACT:REG 17-11-19 14:32 OP:leo  STATUS:               ID:20171119090739     3
 2017-11-19-0908-00M.COL___465                                                 6
 STAT SP IPHASW D HRMM SECON CODA AMPLIT PERI AZIMU VELO AIN AR TRES W  DIS CAZ7
 BAR2 EZ EP        912 51.18                             173    0.0310 15.6 193 
 PAM  EZ EP        912 54.31                             148   -0.0210 83.9  36 
 PTB  HZ EP        912 58.36                             131   -0.26 9  146 262 
 PTB  HN ES        913 19.37                             131    0.12 9  146 262 
 PTB  HZ I         913 22.73         1.2 0.30            134            146 262 
 ZAR  HZ EP        913  4.91                             121    0.31 8  207 294 
 ZAR  HN ES        913 29.76                             121   -0.15 8  207 294 
 ZAR  HZ I         913 31.67         2.9 0.10            124            207 294 
                                                                                
