 2010 1019 0420 53.4 L   6.707 -72.968  3.8  RSN  4 0.5 0.9LRSN                1
 GAP=180        1.19       5.1     8.8 16.1  0.6213E+01  0.8936E+02  0.1987E+02E
 Epicentro: ARATOCA - SANTANDER                                                3
 ACTION:UP  11-02-18 11:10 OP:tino STATUS:               ID:20101019042053 L   I
 2010-10-19-0419-15S.COL___123                                                 6
 STAT SP IPHASW D HRMM SECON CODA AMPLIT PERI AZIMU VELO SNR AR TRES W  DIS CAZ7
 BAR2 SZ EP        420 58.19                              47    -0.210   27 242 
 BAR2 SZ ES   1    421  1.75                              47    -0.5 7   27 242 
 BAR2 SZ I         421  2.43        18.0 0.16                            27 242 
 RUS  HZ EP        421  8.92                              47     0.610   91 188 
 RUS  HZ I         421  9.17         3.1 0.20                            91 188 
 RUS  HN ES   2    421 19.49                              47    -0.5 5   91 188 
 BRR  HZ EP   2    421  8.68                              47     0.5 5   93 298 
 BRR  HE ES   2    421 20.41                              47     0.7 5   93 298 
 BRR  HZ I         421 21.46         3.5 0.29                            93 298 
 GRA  SZ EP   1    421 13.55                              47    -0.6 7  132   8 
 GRA  SZ I         421 34.10         2.1 0.26                           132   8 
                                                                                
