 2016 1219 0251 18.5 L   6.809 -73.132146.0  RSN  9 0.6 1.7LRSN                1
 GAP=138        1.18       4.5     6.0  7.9  0.8285E+00  0.1266E+02  0.1009E+02E
 Epicentro: LOS SANTOS - SANTANDER                                             3
 ACTION:UPD 17-01-11 20:16 OP:rebc STATUS:               ID:20161219025118 L   I
 OLDACT:UP  16-12-19 14:48 OP:cog  STATUS:               ID:20161219024746     3
 OLDACT:REG 16-12-19 12:50 OP:cog  STATUS:               ID:20161219024746     3
 2016-12-19-0248-00M.COL___330                                                 6
 STAT SP IPHASW D HRMM SECON CODA AMPLIT PERI AZIMU VELO AIN AR TRES W  DIS CAZ7
 BAR2 EZ EP        251 38.19                             170   -0.0010 24.6 193 
 BAR2 EZ ES        251 53.25                             170   -0.3010 24.6 193 
 BAR2 EZ I         251 54.47        22.4 0.18            169           24.6 193 
 BRR  HZ EP        251 39.67                             152   -0.0610 72.1 297 
 BRR  HN ES        251 57.15                             152    0.8610 72.1 297 
 PAM  EZ EP        251 40.81                             151    0.1610 75.7  39 
 PAM  EN ES        251 58.09                             151    0.1710 75.7  39 
 PAM  EZ I         252  0.39         5.3 0.52            153           75.7  39 
 RUS  HZ EP        251 42.11                             144   -0.2410  101 177 
 RUS  HN ES        252  0.54                             144   -0.4010  101 177 
 RUS  HZ I         252  1.89         8.0 0.28            143            101 177 
 PTB  HZ EP        251 45.08                             132   -0.57 9  149 259 
 PTB  HN ES   3    252  5.96                             132   -0.85 2  149 259 
 PTB  HZ I         252  7.54         5.0 0.20            133            149 259 
 ZAR  HN ES        252 16.03                             122   -0.44 9  205 292 
 CHI  HZ EP        251 56.08                             117   -0.28 8  250 195 
 CHI  HE ES        252 27.15                             117    1.26 8  250 195 
 CHI  HZ I         252 32.50         2.0 0.46            117            250 195 
 ROSC BN EP   4    251 58.79                             117    1.97 0  254 211 
 ROSC BE ES        252 26.55                             117   -0.14 8  254 211 
 GUY2CHZ EP   3    252  4.07                             112    1.74 2  303 235 
 GUY2CHN ES   3    252 39.55                             112    3.04 2  303 235 
 GUY2CHZ I         252 44.42         3.4 0.30                           303 235 
                                                                                
