 2013 1219 0614 58.5 L   6.788 -73.138149.2  RSN 11 0.5 1.5LRSN                1
 GAP=138        1.16       3.2     4.8  6.6 -0.8511E+00  0.6467E+01  0.1253E+01E
 Epicentro: LOS SANTOS - SANTANDER                                             3
 ACTION:UPD 14-01-13 10:19 OP:ep   STATUS:               ID:20131219061458 L   I
 OLDACT:REG 13-12-19 08:16 OP:jn   STATUS:               ID:20131219061000     3
 2013-12-19-0610-00M.COL___285                                                 6
 STAT SP IPHASW D HRMM SECON CODA AMPLIT PERI AZIMU VELO AIN AR TRES W  DIS CAZ7
 BAR2 SZ EP        615 18.95                             171    0.3910 22.2 193 
 BAR2 SZ ES        615 34.09                             171   -0.0910 22.2 193 
 BAR2 SZ I         615 35.33        12.1 0.36            171           22.2 193 
 BRR  HZ EP        615 20.47                             153    0.3310 72.6 299 
 BRR  HN ES        615 37.94                             153    0.9510 72.6 299 
 BRR  HZ I         615 40.30         4.3 0.54            153           72.6 299 
 PAM  SZ EP        615 21.55                             151    0.4010 77.8  38 
 PAM  SN ES        615 38.73                             151   -0.0510 77.8  38 
 PAM  SZ I         615 40.90         4.3 0.46            153           77.8  38 
 RUS  HZ EP        615 22.63                             145    0.0910 99.2 177 
 RUS  HN ES        615 40.67                             145   -0.5810 99.2 177 
 RUS  HZ I         615 42.33         2.7 0.30            146           99.2 177 
 PTB  HZ EP        615 25.37                             133   -0.48 9  148 259 
 PTB  HN ES        615 46.67                             133   -0.48 9  148 259 
 PTB  HZ I         615 49.26         2.5 0.22            134            148 259 
 OCA  HN ES        615 49.24                             130   -0.40 9  162 353 
 OCA  HZ I         615 53.92         4.7 0.32            132            162 353 
 SPBC HZ EP        615 27.52                             130    0.26 9  163 220 
 SPBC HN ES        615 49.04                             130   -0.63 9  163 220 
 SPBC HZ I         615 54.73         5.3 0.22            131            163 220 
 ZAR  HE ES        615 57.46                             123    0.52 8  205 292 
 SML  HZ EP        615 35.00                             118   -0.53 8  245 335 
 SML  HN ES        616  3.68                             118   -0.70 8  245 335 
 CHI  HZ EP        615 36.49                             118    0.17 8  248 195 
 CHI  HN ES        616  6.10                             118    0.31 8  248 195 
 CHI  HZ I         616  9.94         1.2 0.30            119            248 195 
 GUY2CHE ES   1    616 16.87                             113    0.42 5  301 235 
                                                                                
