 2017  919 0228 25.1 L   6.380 -74.065  6.0  RSN 18 0.6 2.3LRSN                1
 GAP= 62        1.14       2.5     2.1  4.9 -0.1593E+01 -0.1875E+01  0.1185E+01E
 Epicentro: CIMITARRA - SANTANDER                                              3
 ACTION:UPD 17-10-05 19:14 OP:rebc STATUS:               ID:20170919022825 L   I
 OLDACT:UP  17-09-19 14:55 OP:and  STATUS:               ID:20170919022745     3
 OLDACT:UP  17-09-19 14:52 OP:and  STATUS:               ID:20170919022745     3
 OLDACT:UP  17-09-19 14:50 OP:and  STATUS:               ID:20170919022745     3
 OLDACT:UP  17-09-19 14:50 OP:and  STATUS:               ID:20170919022745     3
 OLDACT:UP  17-09-19 14:50 OP:and  STATUS:               ID:20170919022745     3
 OLDACT:UP  17-09-19 14:49 OP:and  STATUS:               ID:20170919022745     3
 OLDACT:UP  17-09-19 14:49 OP:and  STATUS:               ID:20170919022745     3
 OLDACT:UP  17-09-19 14:47 OP:and  STATUS:               ID:20170919022745     3
 OLDACT:UP  17-09-19 14:47 OP:and  STATUS:               ID:20170919022745     3
 OLDACT:UP  17-09-19 14:47 OP:and  STATUS:               ID:20170919022745     3
 OLDACT:UP  17-09-19 14:43 OP:and  STATUS:               ID:20170919022745     3
 OLDACT:REG 17-09-19 12:43 OP:and  STATUS:               ID:20170919022745     3
 2017-09-19-0228-00M.COL___450                                                 6
 STAT SP IPHASW D HRMM SECON CODA AMPLIT PERI AZIMU VELO AIN AR TRES W  DIS CAZ7
 SPBC HZ IP   9 C  228 39.68                              92    1.68 0 80.5 181 
 SPBC HN ES        228 49.48                              92   -0.2510 80.5 181 
 SPBC HZ I         228 50.35       127.1 0.07             47           80.5 181 
 BRR  HZ EP   9    228 40.76                              91    1.51 0 89.4  26 
 BRR  HN ES        228 52.30                              90    0.5110 89.4  26 
 BRR  HZ I         228 53.44        82.1 0.10             47           89.4  26 
 BAR2 EZ IP     D  228 41.84                              91    0.6710  100  76 
 BAR2 EZ ES        228 53.14                              91   -0.5610  100  76 
 BAR2 EZ I         228 54.26        88.3 0.12             47            100  76 
 RUS  HZ IP     D  228 44.77                              91    0.1710  121 116 
 RUS  HN ES   3    228 58.54                              91   -1.27 2  121 116 
 RUS  HZ I         228 59.76       165.5 0.46             47            121 116 
 NOR  HZ EP        228 45.38                              91    0.4110  127 225 
 NOR  HN ES        228 59.72                              91   -0.7410  127 225 
 NOR  HZ I         229  6.08        27.3 0.24             47            127 225 
 ZAR  HZ EP        228 48.73                              91    0.14 9  151 325 
 ZAR  HE ES        229  6.75                              91   -0.16 9  151 325 
 ZAR  HZ I         229 15.97        18.6 0.18             47            151 325 
 HEL  HZ IP     D  228 51.49                              91    0.66 9  163 263 
 HEL  HN ES        229 10.31                              91   -0.58 9  163 263 
 HEL  HZ I         229 11.25        86.5 0.20             47            163 263 
 PAM  EZ EP        228 53.99                              56    0.14 9  185  55 
 PAM  EN ES        229 15.32                              56   -0.94 9  185  55 
 PAM  EZ I         229 16.84        76.3 0.20             47            185  55 
 GUY2CHZ EP   3    228 55.90                              56    1.07 2  192 228 
 GUY2CHN ES        229 17.86                              56   -0.15 9  192 228 
 GUY2CHZ I         229 19.49        12.2 0.24                           192 228 
 CHI  HZ EP   9    228 57.66                              56    2.33 0  197 169 
 CHI  HN ES        229 21.82                              37    0.59 9  197 169 
 YPLC HZ EP   3    228 58.76                              56    1.48 2  216 120 
 YPLC HN ES   4    229 26.70                              56    4.32 0  216 120 
 YPLC HZ I         229 29.61        34.8 0.30             37            216 120 
 CBOC HZ EP   4    229  0.68                              56    2.41 0  223 255 
 CBOC HN ES   4    229 27.47                              56    3.34 0  223 255 
 CBOC HZ I         229 28.55         6.2 0.20             37            223 255 
 ELA  HZ IP   3 C  229  0.35                              56    1.54 2  224 221 
 ELA  HZ I         229 28.94        16.9 0.32             37            224 221 
 TAM  HZ EP        229  1.90                              56    0.20 8  252  88 
 TAM  HN ES   3    229 31.42                              56    1.17 2  252  88 
 TAM  HZ I         229 39.25        19.0 0.42             37            252  88 
 ORTC HZ EP   4    229  9.40                              55    1.31 0  303 206 
 PRA  HZ EP   4    229 11.02                              55    2.24 0  309 197 
 PRA  HE ES        229 43.53                              55    0.68 7  309 197 
 PRA  HZ I         229 58.44         4.9 0.22             36            309 197 
 PTGC HZ EP        229  9.98                              55   -0.48 7  322 138 
 LL6C HZ EP        229 18.31                              55    0.60 6  381  13 
 LL6C HE ES        229 58.39                              55   -0.35 6  381  13 
 SJC  HZ EP        229 21.97                              55    0.90 6  408 343 
 SJC  HN ES   3    230  3.52                              55   -1.19 1  408 343 
                                                                                
