 2016  719 0801 59.9 L   6.796 -73.132150.6  RSN  6 0.3 1.5LRSN                1
 GAP=138        0.63       2.7     3.2  4.3  0.2499E-01  0.3493E+01  0.5129E+00E
 Epicentro: LOS SANTOS - SANTANDER                                             3
 ACTION:UPD 17-03-29 16:52 OP:lp   STATUS:               ID:20160719080159 L   I
 OLDACT:REG 16-07-19 13:15 OP:ar   STATUS:               ID:20160719075759     3
 2016-07-19-0757-59S.COL___328                                                 6
 STAT SP IPHASW D HRMM SECON CODA AMPLIT PERI AZIMU VELO AIN AR TRES W  DIS CAZ7
 BAR2 EZ EP        8 2 19.91                             171   -0.2010 23.2 194 
 BAR2 EZ ES        8 2 36.08                             171    0.2110 23.2 194 
 BRR  HZ EP   2    8 2 22.55                             153    0.90 5 72.7 298 
 BRR  HN ES        8 2 38.84                             153    0.2110 72.7 298 
 BRR  HZ I         8 2 40.50         4.7 0.40            151           72.7 298 
 PAM  EZ EP        8 2 22.72                             152    0.1210 76.8  38 
 PAM  EN ES        8 2 40.18                             152   -0.1310 76.8  38 
 PAM  EZ I         8 2 41.14         4.2 0.18            156           76.8  38 
 RUS  HZ EP        8 2 24.01                             145   -0.0810  100 177 
 RUS  HN ES        8 2 42.72                             145   -0.2410  100 177 
 RUS  HZ I         8 2 44.18         3.5 0.36            145            100 177 
 SPBC HZ EP        8 2 28.97                             130    0.15 9  164 219 
 SPBC HN ES        8 2 51.50                             130    0.11 9  164 219 
 SPBC HZ I         8 2 58.23         8.1 0.58            129            164 219 
 ZAR  HZ EP        8 2 32.79                             123   -0.03 8  206 292 
 ZAR  HN ES        8 2 58.04                             123   -0.46 8  206 292 
 ZAR  HZ I         8 3  4.03         3.8 0.24            123            206 292 
                                                                                
