 2014  519 0947 40.3 L   7.005 -73.016176.8  RSN 12 0.5 2.0LRSN                1
 GAP=140        0.96       3.5     4.7  6.8 -0.4947E+01  0.5358E+01 -0.4835E+00E
 Epicentro: PIEDECUESTA - SANTANDER                                            3
 ACTION:UPD 15-03-16 16:59 OP:nd   STATUS:               ID:20140519094740 L   I
 OLDACT:REG 14-05-19 13:30 OP:spq  STATUS:               ID:20140519093812     3
 2014-05-19-0938-12M.COL___242                                                 6
 STAT SP IPHASW D HRMM SECON CODA AMPLIT PERI AZIMU VELO AIN AR TRES W  DIS CAZ7
 PAM  SZ EP        948  4.68                             163   -0.1010 50.9  43 
 PAM  SE ES        948 23.36                             163   -0.4910 50.9  43 
 PAM  SZ I         948 25.16        10.8 0.30            167           50.9  43 
 BRR  HZ EP        948  5.68                             155    0.4610 77.8 278 
 BRR  HN ES        948 25.35                             155    0.7110 77.8 278 
 BRR  HZ I         948 28.29        13.8 0.42            153           77.8 278 
 RUS  HZ EP   2    948  9.40                             144    0.64 5  123 183 
 RUS  HN ES   2    948 30.38                             144   -0.56 5  123 183 
 RUS  HZ I         948 32.28         6.7 0.28            146            123 183 
 OCA  HZ EP        948  9.86                             140    0.27 9  141 346 
 OCA  HN ES        948 32.55                             140    0.14 9  141 346 
 OCA  HZ I         948 35.02         7.7 0.20            141            141 346 
 PTB  HZ EP        948 11.68                             135    0.05 9  167 252 
 PTB  HN ES        948 35.57                             135   -0.47 9  167 252 
 PTB  HZ I         948 41.36         7.3 0.14            135            167 252 
 SPBC HE ES        948 40.06                             131    0.25 9  190 218 
 ZAR  HE ES        948 42.86                             128   -0.23 8  210 285 
 SML  HZ EP        948 17.50                             125   -0.01 8  230 330 
 SML  HN ES        948 46.27                             125   -0.24 8  230 330 
 SML  HZ I         948 49.71        16.8 0.24            126            230 330 
 CHI  HN ES   1    948 54.90                             120   -0.66 6  274 197 
 URE  HN ES   4    948 56.23                             119   -1.35 0  290 287 
 HEL  HZ EP   4    948 25.94                             119    1.52 0  292 252 
 HEL  HN ES        948 58.25                             119   -0.57 7  292 252 
 HEL  HZ I         949  7.13         3.0 0.24            119            292 252 
 GUY2CHN ES   1    949  6.50                             116    0.86 5  326 233 
 SJC  HZ EP   1    948 34.86                             111   -1.01 4  399 323 
 SJC  HN ES   4    949 16.02                             111   -3.17 0  399 323 
 SJC  HZ I         949 19.02         3.0 0.34            112            399 323 
                                                                                
