 2012 1219 0307 41.8 L   6.744 -73.138142.3  RSN  6 0.3 2.0LRSN                1
 GAP=140        0.74       4.4     4.0  5.8  0.2217E+01  0.1549E+01  0.4559E+00E
 Epicentro: JORDAN - SANTANDER                                                 3
 ACTION:UPD 13-01-04 14:28 OP:ep   STATUS:               ID:20121219030741 L   I
 2012-12-19-0300-00M.COL___243                                                 6
 STAT SP IPHASW D HRMM SECON CODA AMPLIT PERI AZIMU VELO AIN AR TRES W  DIS CAZ7
 BAR2 SZ EP        3 8  0.98                             173    0.0710 17.5 196 
 BAR2 SZ ES        3 8 15.73                             173   -0.0910 17.5 196 
 BAR2 SZ I         3 8 16.98        31.8 0.21                          17.5 196 
 BRR  HZ EP        3 8  2.97                             151    0.1610 75.1 302 
 BRR  HN ES        3 8 19.70                             151    0.5010 75.1 302 
 BRR  HZ I         3 8 24.97        13.7 0.19                          75.1 302 
 PAM  SZ EP        3 8  4.01                             149    0.0910 81.7  36 
 PAM  SZ I         3 8  4.23        26.8 0.30                          81.7  36 
 PAM  SE ES   1    3 8 20.54                             149   -0.64 7 81.7  36 
 RUS  HZ EP        3 8  4.93                             145    0.1610 94.3 176 
 RUS  HN ES   1    3 8 22.68                             145    0.00 7 94.3 176 
 RUS  HN I         3 8 26.25        14.4 0.51                          94.3 176 
 PTB  HZ EP   1    3 8  8.07                             131   -0.41 7  148 261 
 PTB  HE ES   1    3 8 28.73                             131   -0.55 7  148 261 
 PTB  HZ I         3 8 31.51        12.4 0.11                           148 261 
 ZAR  HN ES   1    3 8 39.61                             121   -0.15 6  207 294 
 ZAR  HZ I         3 8 46.96         7.8 0.30                           207 294 
                                                                                
