 2012  319 0830  3.7 L   6.775 -73.141153.2  RSN  6 0.2 1.8LRSN                1
 GAP=138        0.61       4.1     3.9  5.2  0.1541E+01  0.3792E+01  0.1630E+00E
 ACTION:UP  12-03-31 23:20 OP:EP   STATUS:               ID:20120319083003 L   I
 2012-03-19-0830-00M.COL___202                                                 6
 STAT SP IPHASW D HRMM SECON CODA AMPLIT PERI AZIMU VELO SNR AR TRES W  DIS CAZ7
 BAR2 SZ EP        830 24.18                             172     0.010   21 193 
 BAR2 SZ ES   1    830 40.27                             172     0.1 7   21 193 
 BAR2 SZ I         830 40.89        13.9 0.22                            21 193 
 BRR  HZ EP        830 26.04                             153     0.210   73 300 
 BRR  HZ I         830 26.41        19.7 0.13                            73 300 
 BRR  HN ES   1    830 43.38                             153     0.4 7   73 300 
 PAM  SZ EP   1    830 26.95                             151     0.1 7   79  38 
 PAM  SN ES   1    830 44.44                             151    -0.5 7   79  38 
 RUS  HZ EP        830 28.08                             146     0.010   98 176 
 RUS  HN ES   1    830 47.05                             146     0.1 7   98 176 
 RUS  HZ I         830 48.05         6.2 0.43                            98 176 
 PTB  HZ EP   1    830 31.07                             134    -0.3 7  148 260 
 PTB  HN ES   1    830 52.40                             134    -0.4 7  148 260 
 PTB  HZ I         830 54.03         6.5 0.19                           148 260 
 ZAR  HZ EP   1    830 36.82                             124     0.0 6  206 293 
 ZAR  HN ES   2    831  2.73                             124     0.1 4  206 293 
 ZAR  HZ I         831  8.20         7.2 0.35                           206 293 
                                                                                
