 2013  919 0015  8.2 L   6.693 -73.185142.0  RSN  5 0.3 1.4LRSN                1
 GAP=225        0.64       5.8     4.7  6.1  0.1051E+02  0.7581E+01 -0.4673E+01E
 Epicentro: VILLANUEVA - SANTANDER                                             3
 ACTION:UPD 13-10-22 09:23 OP:ep   STATUS:               ID:20130919001508 L   I
 OLDACT:REG 13-09-19 06:11 OP:jn   STATUS:               ID:20130919000959     3
 2013-09-19-0009-59M.COL___269                                                 6
 STAT SP IPHASW D HRMM SECON CODA AMPLIT PERI AZIMU VELO AIN AR TRES W  DIS CAZ7
 BAR2 SZ EP        015 27.36                             175    0.2010 11.1 179 
 BAR2 SZ ES        015 41.74                             175   -0.2310 11.1 179 
 BAR2 SZ I         015 43.09         6.0 0.18            172           11.1 179 
 BRR  HZ EP        015 29.22                             151    0.1310 74.1 308 
 BRR  HN ES   1    015 45.65                             151    0.25 7 74.1 308 
 BRR  HZ I         015 47.71         8.3 0.20            149           74.1 308 
 RUS  HN ES   1    015 48.27                             146   -0.09 7 89.2 173 
 RUS  HZ I         015 51.88         1.9 0.38            147           89.2 173 
 PTB  HZ EP        015 34.07                             132   -0.21 9  142 263 
 PTB  HN ES        015 54.92                             132    0.28 9  142 263 
 PTB  HZ I         015 57.75         4.4 0.14            131            142 263 
 ZAR  HN ES   1    016  5.04                             121   -0.61 6  205 296 
 ZAR  HZ I         016 13.88         2.1 0.15            121            205 296 
                                                                                
