 2016  219 0309 21.3 L   6.861 -73.344122.9  RSN  7 0.5 1.5LRSN                1
 GAP=109        1.26       4.9     5.3  8.4 -0.5333E+01  0.3007E+01  0.1177E+02E
 Epicentro: SAN VICENTE DE CHUCURI - SANTANDER                                 3
 ACTION:UPD 16-03-04 21:27 OP:rebc STATUS:               ID:20160219030921 L   I
 OLDACT:REG 16-02-19 12:22 OP:drio STATUS:               ID:20160219030747     3
 2016-02-19-0307-47M.COL___316                                                 6
 STAT SP IPHASW D HRMM SECON CODA AMPLIT PERI AZIMU VELO AIN AR TRES W  DIS CAZ7
 BAR2 EZ EP        3 9 38.62                             163    0.1110 34.7 149 
 BAR2 EZ ES        3 9 51.57                             163   -0.3810 34.7 149 
 BAR2 EZ I         3 9 53.01        17.1 0.26            164           34.7 149 
 BRR  HZ EP        3 9 39.16                             157    0.4110 48.9 304 
 BRR  HN ES        3 9 53.25                             157    0.8710 48.9 304 
 PAM  EZ EP        3 9 42.17                             142    0.2310 88.7  53 
 PAM  EN ES        3 9 57.48                             142   -0.5710 88.7  53 
 PAM  EZ I         310  0.74         5.0 0.48            145           88.7  53 
 RUS  HZ EP        3 9 43.83                             135    0.1010  111 165 
 RUS  HN ES        310  1.33                             135    0.1010  111 165 
 RUS  HZ I         310  2.95         2.5 0.36            137            111 165 
 PTB  HZ EP        3 9 43.98                             131   -0.6310  128 254 
 PTB  HN ES        310  1.97                             131   -0.8310  128 254 
 PTB  HZ I         310  5.81         4.2 0.26            132            128 254 
 SPBC HZ EP   4    3 9 48.92                             125    1.50 0  156 211 
 SPBC HE ES        310  8.39                             125    0.58 9  156 211 
 SPBC HZ I         310 11.16         4.7 0.24            126            156 211 
 CHI  HZ EP        3 9 58.28                             112    0.25 8  250 190 
 CHI  HN ES        310 26.43                             112   -0.26 8  250 190 
                                                                                
