 2017  819 0419 44.9 L   6.763 -73.129144.5  RSN  6 0.3 1.6LRSN                1
 GAP=140        0.59       2.8     3.8  4.3 -0.3131E+01  0.1455E+01  0.1431E+01E
 Epicentro: LOS SANTOS - SANTANDER                                             3
 ACTION:UPD 17-09-04 20:21 OP:rebc STATUS:               ID:20170819041944 L   I
 OLDACT:UP  17-08-19 14:22 OP:and  STATUS:               ID:20170819041737     3
 OLDACT:UP  17-08-19 14:21 OP:and  STATUS:               ID:20170819041737     3
 OLDACT:REG 17-08-19 12:32 OP:and  STATUS:               ID:20170819041737     3
 2017-08-19-0418-00M.COL___411                                                 6
 STAT SP IPHASW D HRMM SECON CODA AMPLIT PERI AZIMU VELO AIN AR TRES W  DIS CAZ7
 BAR2 EZ EP        420  4.02                             172   -0.2410 19.8 197 
 BAR2 EZ ES        420 19.29                             172   -0.1210 19.8 197 
 BAR2 EZ I         420 21.83        10.5 0.28            177           19.8 197 
 BRR  HZ IP     C  420  5.82                             151   -0.2510 74.8 301 
 BRR  HN ES        420 22.96                             151    0.3410 74.8 301 
 BRR  HZ I         420 24.51         6.6 0.38            152           74.8 301 
 PAM  EZ IP     D  420  6.97                             150   -0.0910 79.4  37 
 PAM  EN ES        420 24.42                             150    0.0410 79.4  37 
 PAM  EZ I         420 36.09         4.4 0.54            149           79.4  37 
 RUS  HZ EP        420  8.25                             145    0.0710 96.4 177 
 RUS  HN ES        420 26.56                             145    0.1810 96.4 177 
 RUS  HZ I         420 27.92         8.0 0.32            151           96.4 177 
 SPBC HZ EP        420 13.28                             129    0.21 9  161 220 
 SPBC HN ES        420 34.94                             129   -0.14 9  161 220 
 SPBC HZ I         420 37.43         7.3 0.10            134            161 220 
 ZAR  HZ EP   3    420 19.13                             122    1.58 2  207 293 
 ZAR  HN ES   3    420 41.88                             122   -1.18 2  207 293 
 ZAR  HZ I         420 48.19         2.8 0.32            124            207 293 
                                                                                
