 2016  919 0547 20.3 L   6.833 -73.099145.6  RSN  9 0.4 1.6LRSN                1
 GAP=188        0.98       3.7     7.0  6.6 -0.3869E+01 -0.4829E+01  0.2699E+01E
 Epicentro: LOS SANTOS - SANTANDER                                             3
 ACTION:UPD 17-08-17 21:14 OP:lp   STATUS:               ID:20160919054720 L   I
 OLDACT:UP  16-09-19 21:41 OP:and  STATUS:               ID:20160919053732     3
 OLDACT:REG 16-09-19 12:03 OP:ar   STATUS:               ID:20160919053732     3
 2016-09-19-0538-00M.COL___354                                                 6
 STAT SP IPHASW D HRMM SECON CODA AMPLIT PERI AZIMU VELO AIN AR TRES W  DIS CAZ7
 BAR2 EZ EP     C  547 40.03                             169    0.0610 28.1 199 
 BAR2 EZ ES        547 54.94                             169   -0.4110 28.1 199 
 BAR2 EZ I         547 56.25         5.7 0.18            166           28.1 199 
 BRR  HZ EP     C  547 41.91                             152    0.3510 74.3 294 
 BRR  HN ES        547 58.87                             152    0.6910 74.3 294 
 BRR  HZ I         548  2.13         5.8 0.12            148           74.3 294 
 RUS  HZ EP        547 44.20                             143   -0.0310  104 179 
 RUS  HN ES   2    548  2.95                             143    0.01 5  104 179 
 RUS  HZ I         548  3.67         2.9 0.30            143            104 179 
 PTB  HZ EP        547 46.91                             131   -0.83 9  154 258 
 PTB  HN ES   4    548  7.99                             131   -1.19 0  154 258 
 PTB  HZ I         548 10.95         4.0 0.12            129            154 258 
 OCA  HZ EP        547 48.58                             130    0.30 9  157 351 
 OCA  HN ES        548 10.00                             130   -0.14 9  157 351 
 OCA  HZ I         548 11.79         7.5 0.40            130            157 351 
 SPBC HZ EP        547 49.22                             128   -0.10 9  169 220 
 SPBC HN ES        548 11.67                             128   -0.32 9  169 220 
 SPBC HZ I         548 13.68         7.3 0.13            127            169 220 
 ZAR  HZ EP   9    547 54.96                             122    1.91 0  208 291 
 ZAR  HE ES        548 19.87                                   -0.67 8  208 291 
 ZAR  HZ I         548 24.88         4.4 0.46            120            208 291 
 NOR  HZ EP   2    547 56.91                             118    0.26 4  241 234 
 NOR  HE ES   2    548 25.41                             118    0.36 4  241 234 
 NOR  HZ I         548 26.82         3.7 0.14            117            241 234 
 CHI  HZ EP   3    547 59.78                             117    1.31 2  254 196 
 CHI  HN ES   2    548 28.96                             117    0.68 4  254 196 
 CHI  HZ I         548 34.20         1.4 0.28            117            254 196 
                                                                                
