 2017  319 0300 52.2 L   6.800 -73.167152.4  RSN  5 0.4 1.5LRSN                1
 GAP=134        1.01       5.4     4.6  8.8  0.1778E+01  0.6095E+01  0.4848E+01E
 Epicentro: LOS SANTOS - SANTANDER                                             3
 ACTION:UPD 17-05-25 18:42 OP:jn   STATUS:               ID:20170319030052 L   I
 OLDACT:DUP 17-03-19 14:09 OP:cara STATUS:               ID:20170319025740d    3
 2017-03-19-0258-00M.COL___397                                                 6
 STAT SP IPHASW D HRMM SECON CODA AMPLIT PERI AZIMU VELO AIN AR TRES W  DIS CAZ7
 BRR  HZ EP        3 1 14.30                             154    0.3810 69.1 299 
 BRR  HE ES        3 1 31.47                             154    0.5710 69.1 299 
 BRR  HZ I         3 1 49.22         7.0 0.22            154           69.1 299 
 PAM  EZ EP        3 1 15.45                             151    0.2810 78.9  41 
 PAM  EN ES        3 1 32.50                             151   -0.6210 78.9  41 
 PAM  EZ I         3 1 34.47         6.0 0.54            156           78.9  41 
 RUS  HZ EP        3 1 16.55                             145   -0.0310  101 175 
 RUS  HN ES        3 1 35.80                             145    0.1610  101 175 
 RUS  HZ I         3 1 36.11         3.2 0.24            155            101 175 
 PTB  HZ EP        3 1 19.14                             134   -0.34 9  145 259 
 PTB  HN ES        3 1 40.29                             134   -0.49 9  145 259 
 PTB  HZ I         3 1 42.16         3.3 0.12            139            145 259 
 ZAR  HN ES        3 1 50.29                             124   -0.02 9  202 292 
                                                                                
