 2017 1019 0502 34.1 L   6.882 -73.384172.1  RSN  5 0.4 1.2LRSN                1
 GAP=201        0.90       6.4     8.1  9.1  0.1494E+02  0.2712E+02 -0.5412E+01E
 Epicentro: SAN VICENTE DE CHUCURI - SANTANDER                                 3
 ACTION:UPD 17-11-07 19:33 OP:rebc STATUS:               ID:20171019050234 L   I
 OLDACT:UP  17-10-19 15:39 OP:dani STATUS:               ID:20171019045638     3
 OLDACT:UP  17-10-19 15:39 OP:dani STATUS:               ID:20171019045638     3
 OLDACT:UP  17-10-19 15:38 OP:dani STATUS:               ID:20171019045638     3
 OLDACT:UP  17-10-19 15:38 OP:dani STATUS:               ID:20171019045638     3
 OLDACT:UP  17-10-19 15:38 OP:dani STATUS:               ID:20171019045638     3
 OLDACT:UP  17-10-19 15:37 OP:dani STATUS:               ID:20171019045638     3
 OLDACT:REG 17-10-19 13:26 OP:dani STATUS:               ID:20171019045638     3
 2017-10-19-0457-00M.COL___432                                                 6
 STAT SP IPHASW D HRMM SECON CODA AMPLIT PERI AZIMU VELO AIN AR TRES W  DIS CAZ7
 BAR2 EZ ES        5 3 15.47                             167    0.1610 39.0 145 
 BRR  HZ EP        5 2 56.76                             165   -0.2810 44.0 305 
 BRR  HN ES   4    5 3 12.18                             165   -2.76 0 44.0 305 
 BRR  HZ I         5 3 15.04         2.3 0.14            164           44.0 305 
 PTB  HZ EP        5 3  2.17                             143    0.6810  124 252 
 PTB  HN ES   3 C  5 3 23.69                             143    0.83 2  124 252 
 PTB  HZ I         5 3 25.25         1.0 0.26            141            124 252 
 SPBC HZ EP        5 3  4.27                             136    0.17 9  156 209 
 SPBC HE ES        5 3 27.07                             136   -0.44 9  156 209 
 SPBC HZ I         5 3 30.77         3.3 0.23            134            156 209 
 ZAR  HZ EP        5 3  5.36                             132   -0.42 9  176 293 
 ZAR  HN ES        5 3 30.50                             132    0.00 9  176 293 
                                                                                
