 2014 1219 0251 13.4 L   6.817 -73.233131.1  RSN  6 0.5 1.2LRSN                1
 GAP=122        1.22       4.7     5.3 10.6 -0.9102E+00  0.2237E+02 -0.5332E+01E
 Epicentro: ZAPATOCA - SANTANDER                                               3
 ACTION:UPD 15-02-10 17:05 OP:nd   STATUS:               ID:20141219025113 L   I
 OLDACT:REG 14-12-19 12:53 OP:y    STATUS:               ID:20141219024749     3
 2014-12-19-0247-49M.COL___299                                                 6
 STAT SP IPHASW D HRMM SECON CODA AMPLIT PERI AZIMU VELO AIN AR TRES W  DIS CAZ7
 BAR2 EZ EP        251 31.86                             168    0.5510 25.5 167 
 BAR2 EZ ES   1    251 45.74                             168    0.46 7 25.5 167 
 BAR2 EZ I         251 47.90         6.4 0.16            173           25.5 167 
 PAM  SZ EP     C  251 34.62                             146    0.2110 82.5  46 
 PAM  SN ES        251 50.82                             146    0.0210 82.5  46 
 PAM  SZ I         251 57.85         1.7 0.18            151           82.5  46 
 RUS  HZ EP        251 35.71                             140   -0.2510  104 171 
 RUS  HN ES        251 53.44                             140   -0.1210  104 171 
 RUS  HZ I         251 55.90         2.1 0.22            147            104 171 
 PTB  HZ EP        251 37.78                             130   -0.57 9  139 257 
 PTB  HN ES        251 57.25                             130   -0.56 9  139 257 
 PTB  HZ I         252  1.69         2.7 0.26            135            139 257 
 OCA  HN ES        252  0.59                             126   -0.76 9  158 357 
 ZAR  HZ EP        251 44.46                             120    0.56 9  194 293 
 ZAR  HN ES        252  8.47                             120    0.77 9  194 293 
 ZAR  HZ I         252 16.38         2.7 0.34            124            194 293 
                                                                                
