 2011  319 0128 33.8 L   6.774 -73.119151.8  RSN  6 0.3 1.8LRSN                1
 GAP=185        0.54       3.0     6.7  5.5  0.3786E+01 -0.2371E+01 -0.3023E+01E
 Epicentro: LOS SANTOS - SANTANDER                                             3
 ACTION:UP  11-06-16 14:34 OP:jfem STATUS:               ID:20110319012834 L   I
 2011-03-19-0125-45S.COL___128                                                 6
 STAT SP IPHASW D HRMM SECON CODA AMPLIT PERI AZIMU VELO SNR AR TRES W  DIS CAZ7
 BAR2 SZ EP   1    128 54.18                             172     0.1 7   21 199 
 BAR2 SZ ES   1    129  9.79                             172    -0.2 7   21 199 
 BAR2 SZ I         129 10.94        10.3 0.21                            21 199 
 BRR  HZ EP        128 55.99                             152     0.210   75 299 
 BRR  HZ I         128 56.30        27.3 0.21                            75 299 
 BRR  HE ES   1    129 13.30                             152     0.3 7   75 299 
 RUS  HZ EP   1    128 58.20                             146     0.3 7   98 178 
 RUS  HN ES   1    129 16.63                             146    -0.1 7   98 178 
 RUS  HZ I         129 17.98         5.0 0.40                            98 178 
 OCA  SZ EP   1    129  2.77                             130    -0.1 7  163 352 
 OCA  SZ ES   1    129 25.23                             130    -0.3 7  163 352 
 OCA  SZ I         129 30.19         7.3 0.28                           163 352 
 NOR  SN ES   2    129 37.54                             119    -0.7 4  236 236 
 CHI  HZ EP   3    129 11.76                             118     0.1 2  247 196 
 CHI  HE ES   3    129 40.69                             118    -0.4 2  247 196 
                                                                                
