 2016 1019 0156 57.7 L   6.831 -73.124146.0  RSN 10 0.4 1.6LRSN                1
 GAP=138        0.79       3.7     4.2  6.3 -0.7545E+01  0.4666E+01  0.1118E+01E
 Epicentro: LOS SANTOS - SANTANDER                                             3
 ACTION:UPD 16-11-09 19:20 OP:rebc STATUS:               ID:20161019015657 L   I
 OLDACT:UP  16-10-19 15:34 OP:and  STATUS:               ID:20161019014740d    3
 OLDACT:UP  16-10-19 15:33 OP:and  STATUS:               ID:20161019014740d    3
 OLDACT:DUP 16-10-19 15:26 OP:and  STATUS:               ID:20161019014740d    3
 OLDACT:UP  16-10-19 15:24 OP:and  STATUS:               ID:20161019014739     3
 OLDACT:UP  16-10-19 15:21 OP:and  STATUS:               ID:20161019014739     3
 OLDACT:UP  16-10-19 15:18 OP:and  STATUS:               ID:20161019014739     3
 OLDACT:REG 16-10-19 12:23 OP:y    STATUS:               ID:20161019014739     3
 2016-10-19-0148-00M.COL___329                                                 6
 STAT SP IPHASW D HRMM SECON CODA AMPLIT PERI AZIMU VELO AIN AR TRES W  DIS CAZ7
 BAR2 EZ EP        157 17.24                             169   -0.1810 27.2 194 
 BAR2 EZ ES        157 32.32                             169   -0.5010 27.2 194 
 BAR2 EZ I         157 34.31        11.1 0.28            167           27.2 194 
 BRR  HZ EP        157 19.12                             152    0.2310 71.8 295 
 BRR  HN ES        157 35.77                             152    0.3410 71.8 295 
 PAM  EZ IP     C  157 20.12                             152    0.4510 73.2  40 
 PAM  EN ES        157 36.92                             152    0.0910 73.2  40 
 PAM  EZ I         157 41.19         4.3 0.25            154           73.2  40 
 RUS  HZ EP   2    157 21.70                             143    0.01 5  104 178 
 RUS  HE ES   3    157 39.33                             143   -1.09 2  104 178 
 PTB  HZ EP   2    157 24.29                             131   -0.65 5  151 258 
 PTB  HN ES        157 46.34                             131    0.13 9  151 258 
 PTB  HZ I         157 47.58         5.1 0.14            132            151 258 
 OCA  HN ES        157 47.16                             130   -0.43 9  157 352 
 SPBC HE ES        157 49.54                             128    0.39 9  167 219 
 SPBC HZ I         157 55.15         5.8 0.16            129            167 219 
 NOR  HE ES        158  1.77                             118   -0.29 8  239 234 
 NOR  HZ I         158  4.32         4.1 0.24            119            239 234 
 HEL  HN ES   2    158  9.34                             114   -0.57 4  275 255 
 SJC  HZ EP   2    157 52.71                             106   -0.36 3  408 326 
 SJC  HN ES   4    158 33.78                             106   -2.49 0  408 326 
 SJC  HZ I         158 37.74         1.3 0.40            107            408 326 
                                                                                
