 2013  419 0528 56.8 L   6.554 -73.703 99.7  RSN 10 0.5 1.9LRSN                1
 GAP= 93        1.01       3.6     3.9  7.6 -0.2076E+01  0.1141E+02  0.8609E-01E
 Epicentro: SANTA HELENA DEL OPON - SANTANDER                                  3
 ACTION:UPD 13-05-22 14:39 OP:EP   STATUS:               ID:20130419052856 L   I
 2013-04-19-0526-53M.COL___215                                                 6
 STAT SP IPHASW D HRMM SECON CODA AMPLIT PERI AZIMU VELO AIN AR TRES W  DIS CAZ7
 BAR2 SZ IP     C  529 12.89                             148    0.2510 57.7  86 
 BAR2 SZ ES   1    529 25.12                             148    0.15 7 57.7  86 
 BAR2 SZ I         529 25.77        36.0 0.52            148           57.7  86 
 BRR  HZ IP     D  529 12.26                             146   -0.2710 61.2 359 
 BRR  HE ES        529 25.11                             146    0.3410 61.2 359 
 BRR  HZ I         529 32.58        38.3 0.90            143           61.2 359 
 GIR2 SZ EP     D  529 14.25                             138    0.0310 80.9  44 
 GIR2 SZ I         529 28.53        18.3 0.32            137           80.9  44 
 PTB  HZ IP     C  529 13.25                             137   -1.0010 83.3 269 
 PTB  HN ES   4    529 26.02                             137   -1.82 0 83.3 269 
 PTB  HZ I         529 26.99        18.4 0.06            138           83.3 269 
 RUS  HZ EP        529 16.47                             132    0.0810  100 137 
 RUS  HN ES   1    529 31.38                             132   -0.26 7  100 137 
 RUS  HZ I         529 33.05         9.8 0.11            134            100 137 
 PAM  SZ EP        529 20.21                             122   -0.20 9  141  52 
 PAM  SN ES   2    529 38.47                             122   -0.32 5  141  52 
 PAM  SZ I         529 39.70        15.0 0.16            121            141  52 
 NOR  HZ EP        529 23.40                             116    0.49 9  169 230 
 NOR  HN ES   2    529 42.88                             116   -0.37 5  169 230 
 NOR  HZ I         529 45.39         9.8 0.18            117            169 230 
 OCA  HZ EP   2    529 26.38                             113    0.90 4  191  13 
 OCA  HN ES   1    529 48.05                             113    0.23 7  191  13 
 OCA  HZ I         529 51.10        10.5 0.32            112            191  13 
 HEL  HZ EP        529 28.27                             112    0.82 8  206 259 
 HEL  HN ES   1    529 51.31                             112   -0.01 6  206 259 
 HEL  HZ I         529 54.52         6.7 0.34            111            206 259 
 SML  HZ EP        529 31.74                             107   -0.58 8  252 351 
 SML  HN ES   1    530  0.19                             107    0.20 6  252 351 
 SML  HZ I         530  4.52        10.0 0.10            105            252 351 
                                                                                
