 2017  219 0829 29.8 L   6.754 -73.166141.4  RSN 11 0.3 1.9LRSN                1
 GAP=136        0.77       3.0     3.3  4.6  0.1087E+01  0.4483E+01  0.2836E+01E
 Epicentro: LOS SANTOS - SANTANDER                                             3
 ACTION:UPD 17-05-24 15:37 OP:jn   STATUS:               ID:20170219082929 L   I
 OLDACT:REG 17-02-19 12:51 OP:edw  STATUS:               ID:20170219082742     3
 2017-02-19-0828-00M.COL___351                                                 6
 STAT SP IPHASW D HRMM SECON CODA AMPLIT PERI AZIMU VELO AIN AR TRES W  DIS CAZ7
 BAR2 EZ IP        829 49.10                             172    0.2910 17.9 186 
 BAR2 EZ ES        830  3.63                             172   -0.0110 17.9 186 
 BAR2 EZ I         830  6.75        29.0 0.28            166           17.9 186 
 BRR  HZ IP     D  829 50.75                             151    0.2210 71.9 303 
 BRR  HN ES        830  7.13                             151    0.4410 71.9 303 
 BRR  HZ I         830 10.37        14.4 0.16            149           71.9 303 
 PAM  EZ EP        829 51.74                             148   -0.1610 82.8  38 
 PAM  EE ES        830  8.93                             148   -0.2010 82.8  38 
 PAM  EZ I         830 11.13        14.3 0.44            156           82.8  38 
 RUS  HZ EP        829 52.92                             144    0.1410 95.7 175 
 RUS  HN ES        830 10.43                             144   -0.2610 95.7 175 
 RUS  HZ I         830 12.87        14.8 0.34            143           95.7 175 
 PTB  HZ EP        829 55.75                             132   -0.39 9  145 261 
 PTB  HN ES        830 16.80                             132    0.13 9  145 261 
 PTB  HZ I         830 22.44         7.5 0.52            129            145 261 
 ZAR  HZ EP        830  1.70                             121   -0.27 9  204 294 
 ZAR  HN ES        830 26.63                             121   -0.42 9  204 294 
 ZAR  HZ I         830 32.18         8.4 0.24            121            204 294 
 NOR  HZ EP        830  5.04                             118    0.27 8  230 235 
 NOR  HN ES   4    830 32.90                             118    0.85 0  230 235 
 NOR  HZ I         830 40.83         6.4 0.18            117            230 235 
 CHI  HZ EP        830  7.23                             117    0.56 8  243 195 
 CHI  HN ES        830 34.98                             117   -0.43 8  243 195 
 CHI  HZ I         830 42.72         4.0 0.34            117            243 195 
 ROSC BZ EP   4    830  8.92                             116    1.83 0  247 211 
 ROSC BN ES   4    830 38.22                             116    2.06 0  247 211 
 ROSC BZ I         830 45.10         6.9 0.35            116            247 211 
 URE  HZ EP   4    830  8.52                             113   -2.14 0  284 293 
 URE  HN ES   4    830 39.70                             113   -2.82 0  284 293 
 URE  HZ I         830 52.29         4.9 0.72            113            284 293 
 PTGC HZ EP   4    830 12.15                             111   -0.88 0  305 158 
 PTGC HN ES   4    830 44.05                             111   -2.68 0  305 158 
 PTGC HZ I         830 50.41         6.0 0.32            112            305 158 
                                                                                
