 2016 1219 0704 22.3 L   6.716 -73.167142.0  RSN  4 0.2 1.1LRSN                1
 GAP=239        0.59       5.9     4.5  5.5  0.1692E+02  0.4134E+01 -0.4047E+01E
 Epicentro: VILLANUEVA - SANTANDER                                             3
 ACTION:UPD 17-01-11 20:16 OP:rebc STATUS:               ID:20161219070422 L   I
 OLDACT:REG 16-12-19 13:30 OP:cog  STATUS:               ID:20161219065744     3
 2016-12-19-0658-00M.COL___312                                                 6
 STAT SP IPHASW D HRMM SECON CODA AMPLIT PERI AZIMU VELO AIN AR TRES W  DIS CAZ7
 BAR2 EZ EP        7 4 41.20                             174   -0.1210 13.8 187 
 BAR2 EZ ES        7 4 56.17                             174    0.0210 13.8 187 
 BAR2 EZ I         7 4 58.70         3.5 0.26            174           13.8 187 
 RUS  HZ EP        7 4 44.81                             146   -0.2410 91.6 174 
 RUS  HE ES        7 5  2.99                             146    0.2110 91.6 174 
 RUS  HZ I         7 5  4.64         2.3 0.24            147           91.6 174 
 PTB  HZ EP        7 4 48.95                             132    0.33 9  144 262 
 PTB  HN ES        7 5  8.85                             132   -0.28 9  144 262 
 PTB  HZ I         7 5 10.55         1.0 0.26            134            144 262 
 ZAR  HE ES        7 5 20.02                             121    0.12 8  206 295 
                                                                                
