 2013  619 0416 26.8 L   6.393 -73.658102.1  RSN 18 0.5 2.4LRSN                1
 GAP= 50        0.97       2.3     2.5  6.0 -0.3097E+00  0.2500E+01  0.1556E+01E
 Epicentro: SANTA HELENA DEL OPON - SANTANDER                                  3
 ACTION:UPD 14-01-08 09:55 OP:ep   STATUS:               ID:20130619041626 L   I
 OLDACT:REG 13-06-19 07:08 OP:carl STATUS:               ID:20130619040959     3
 2013-06-19-0409-59M.COL___261                                                 6
 STAT SP IPHASW D HRMM SECON CODA AMPLIT PERI AZIMU VELO AIN AR TRES W  DIS CAZ7
 BAR2 SZ IP     C  416 43.05                             149    0.2210 57.0  67 
 BAR2 SZ ES   1    416 55.64                             149    0.33 7 57.0  67 
 BAR2 SZ I         416 57.22       200.6 0.46            152           57.0  67 
 BRR  HZ IP     D  416 44.08                             139   -0.0210 79.2 356 
 BRR  HN ES   1    416 58.52                             139    0.96 7 79.2 356 
 BRR  HZ I         417  8.24        29.0 0.62            141           79.2 356 
 RUS  HZ EP        416 44.98                             138   -0.2210 84.3 131 
 RUS  HN ES   1    416 58.92                             138   -0.60 7 84.3 131 
 RUS  HZ I         417  2.83        39.0 0.60            143           84.3 131 
 PTB  HZ IP     D  416 44.12                             135   -0.8810 89.8 280 
 PTB  HN ES   1    416 58.27                             135   -0.90 7 89.8 280 
 PTB  HZ I         417  0.78        51.4 0.30            138           89.8 280 
 GIR2 SZ EP        416 45.44                             135    0.1110 91.6  34 
 NOR  HZ EP   1    416 51.79                             117   -0.50 7  162 236 
 NOR  HE ES   1    417 11.87                             117   -0.27 7  162 236 
 NOR  HZ I         417 14.87        32.7 0.14            121            162 236 
 YOP  SN EP   1    416 54.63                             114    0.47 7  179 130 
 YOP  SE ES   1    417 16.24                             114    0.77 7  179 130 
 YOP  SN I         417 17.43        65.7 0.48            119            179 130 
 ZAR  HZ EP   1    416 54.23                             114    0.08 7  180 313 
 ZAR  HN ES   1    417 15.91                             114    0.46 7  180 313 
 ZAR  HZ I         417 22.03        35.7 0.28            117            180 313 
 CHI  HZ EP   1    416 56.64                             112    0.26 6  195 182 
 CHI  HN ES   1    417 19.71                             112    0.28 6  195 182 
 CHI  HZ I         417 22.86        17.5 0.24            116            195 182 
 OCA  HZ EP   1    416 56.52                             110   -0.93 6  207  10 
 OCA  HN ES   1    417 21.53                             110    0.20 6  207  10 
 TAM  HZ EP        416 57.06                             110   -0.14 8  207  89 
 TAM  HN ES   1    417 20.59                             110   -0.30 6  207  89 
 TAM  HZ I         417 22.92        17.8 0.48            115            207  89 
 HEL  HZ EP   1    416 57.73                             110   -0.07 6  208 264 
 HEL  HN ES   1    417 22.49                             110    0.53 6  208 264 
 HEL  HZ I         417 25.61        29.4 0.28            114            208 264 
 GUY2CHZ EP   1    417  0.42                             108    0.09 6  229 236 
 GUY2CHN ES   1    417 27.38                             108    0.92 6  229 236 
 GUY2CHZ I         417 31.48        12.1 0.66                           229 236 
 RREF HZ EP   1    417  3.57                             106    0.65 6  250 229 
 RREF HE ES   1    417 31.78                             106    0.72 6  250 229 
 VIL  SN ES   1    417 29.73                             106   -0.80 6  252 181 
 VIL  SZ I         417 32.93        28.0 0.30            110            252 181 
 SML  HZ EP   1    417  4.42                             104   -0.13 6  270 350 
 SML  HN ES   1    417 33.99                             104    0.02 6  270 350 
 SML  HZ I         417 38.21        26.0 0.26            107            270 350 
 PRA  HZ EP   1    417 11.12                             100   -0.15 5  326 205 
 PRA  HN ES   1    417 46.03                             100    0.09 5  326 205 
 PRA  HZ I         417 52.18         7.1 0.24            104            326 205 
 COD  HZ EP   1    417 19.45                              97    0.24 4  392   3 
 COD  HN ES   1    418  0.01                              97   -0.06 4  392   3 
 COD  HZ I         418 11.83         3.9 0.64            100            392   3 
                                                                                
