 2012 1119 0528  1.3 L   6.792 -73.147146.0  RSN  4 0.4 1.1LRSN                1
 GAP=137        0.73       5.3     5.7  8.0  0.1473E+01 -0.7328E+01  0.2125E+01E
 Epicentro: LOS SANTOS - SANTANDER                                             3
 ACTION:UPD 12-12-05 15:34 OP:}ep  STATUS:               ID:20121119052801 L   I
 2012-11-19-0520-00M.COL___234                                                 6
 STAT SP IPHASW D HRMM SECON CODA AMPLIT PERI AZIMU VELO AIN AR TRES W  DIS CAZ7
 BRR  HZ EP        528 22.63                             153    0.0910 71.5 299 
 BRR  HE ES        528 39.41                             153    0.3410 71.5 299 
 BRR  HZ I         528 42.77         2.5 0.25                          71.5 299 
 PAM  SZ EP        528 23.70                             151    0.0610 78.2  39 
 PAM  SN ES   2    528 40.14                             151   -0.88 5 78.2  39 
 PAM  SZ I         528 42.76         3.7 0.52                          78.2  39 
 RUS  HZ EP   1    528 25.13                             144    0.07 7 99.7 176 
 RUS  HN ES   1    528 43.69                             144    0.14 7 99.7 176 
 RUS  HN I         528 45.26         1.9 0.39                          99.7 176 
 PTB  HZ EP   1    528 27.82                             133   -0.48 7  147 259 
 PTB  HN ES   2    528 48.60                             133   -0.73 5  147 259 
 PTB  HZ I         528 53.99         1.3 0.23                           147 259 
                                                                                
