 2015 1019 0306 36.1 L   6.812 -73.141153.0  RSN  8 0.4 1.7LRSN                1
 GAP=137        0.91       3.3     5.0  7.5  0.1656E+01  0.5274E+01  0.4838E+01E
 Epicentro: LOS SANTOS - SANTANDER                                             3
 ACTION:UPD 15-12-22 20:41 OP:cam  STATUS:               ID:20151019030636 L   I
 OLDACT:UP  15-10-19 13:36 OP:mh   STATUS:               ID:20151019025747     3
 OLDACT:REG 15-10-19 12:37 OP:mh   STATUS:               ID:20151019025747     3
 2015-10-19-0257-47M.COL___331                                                 6
 STAT SP IPHASW D HRMM SECON CODA AMPLIT PERI AZIMU VELO AIN AR TRES W  DIS CAZ7
 BAR2 EZ EP   1    3 6 56.75                             170    0.09 7 24.8 191 
 BAR2 EZ I         3 7 12.92         9.6 0.45            171           24.8 191 
 BRR  HZ EP   1    3 6 57.19                             154   -0.87 7 71.0 297 
 BRR  HN ES        3 7 15.59                             154    0.4310 71.0 297 
 BRR  HZ I         3 7 19.43         7.7 0.32            152           71.0 297 
 PAM  EZ EP        3 6 59.73                             153    0.6910 76.0  40 
 PAM  EN ES        3 7 16.63                             153   -0.2810 76.0  40 
 PAM  EZ I         3 7 19.09         6.6 0.28            153           76.0  40 
 RUS  HZ EP   1    3 7  0.87                             145    0.18 7  102 176 
 RUS  HN ES   2    3 7 18.88                             145   -0.97 5  102 176 
 RUS  HZ I         3 7 20.76         2.6 0.46            145            102 176 
 OCA  HZ EP   1    3 7  4.67                             131   -0.22 7  159 353 
 OCA  HN ES        3 7 27.32                             131   -0.01 9  159 353 
 OCA  HZ I         3 7 34.66         7.5 0.24            131            159 353 
 ZAR  HN ES        3 7 34.75                             124    0.01 9  204 292 
 ZAR  HZ I         3 7 39.82         4.8 0.28            123            204 292 
 SML  HZ EP   1    3 7 12.70                             119   -0.36 6  243 335 
 SML  HN ES        3 7 41.69                             119   -0.18 8  243 335 
 SML  HZ I         3 7 51.08         7.2 0.10            118            243 335 
 CHI  HZ EP   1    3 7 14.73                             118    0.33 6  250 195 
 CHI  HN ES        3 7 44.21                             118   -0.04 8  250 195 
 CHI  HZ I         3 7 49.23         2.6 0.30            118            250 195 
 MON  HN ES   4    3 8  2.09                             110   -1.69 0  353 308 
                                                                                
