 2015  419 0805 54.1 L   6.382 -73.285  4.1  RSN  4 0.2 0.8LRSN                1
 GAP=131        0.52       1.4     1.6  3.7  0.3557E+00  0.1125E+01 -0.3247E+00E
 Epicentro: PALMAS DEL SOCORRO - SANTANDER                                     3
 ACTION:UPD 15-06-03 16:56 OP:cam  STATUS:               ID:20150419080554 L   I
 OLDACT:REG 15-04-19 12:51 OP:spq  STATUS:               ID:20150419075750     3
 2015-04-19-0757-50M.COL___271                                                 6
 STAT SP IPHASW D HRMM SECON CODA AMPLIT PERI AZIMU VELO AIN AR TRES W  DIS CAZ7
 BAR2 EZ EP        8 5 58.73                              47   -0.1510 25.8  26 
 BAR2 EZ ES   1    8 6  2.47                              47   -0.12 7 25.8  26 
 BAR2 EZ I         8 6  2.94        15.2 0.26            137           25.8  26 
 RUS  HZ EP   1    8 6  4.48                              47    0.37 7 58.6 158 
 RUS  HE ES   1    8 6 11.68                              47   -0.21 7 58.6 158 
 RUS  HZ I         8 6 13.24         1.8 0.32            112           58.6 158 
 BRR  HZ EP        8 6  8.95                              47    0.1410 93.0 330 
 BRR  HN ES        8 6 20.37                              47    0.1110 93.0 330 
 BRR  HZ I         8 6 26.22         2.1 0.14             71           93.0 330 
 PTB  HZ EP        8 6 14.66                              47    0.1310  131 278 
 PTB  HN ES        8 6 30.19                              47   -0.2610  131 278 
 PTB  HZ I         8 6 31.36         3.8 0.38             56            131 278 
                                                                                
