 2010  419 0802 36.8 L   6.804 -73.040144.6  RSN 10 0.4 2.6LRSN                1
 GAP=149        1.07       4.5     8.7  7.5 -0.1889E+02 -0.1779E+02  0.1415E+02E
 Epicentro: CEPITA - SANTANDER                                                 3
 ACTION:UPD 10-08-24 09:59 OP:vdl  STATUS:               ID:20100419080244 L   I
 2010-04-19-0758-11S.COL___100                                                 6
 STAT SP IPHASW D HRMM SECON CODA AMPLIT PERI AZIMU VELO AIN AR TRES W  DIS CAZ7
 BAR2 SZ IP        8 2 56.55                             169     0.110   28 214 
 BAR2 SZ ES   1    8 3 11.23                             169    -0.5 7   28 214 
 BRR  HZ EP        8 2 58.83                             149     0.410   82 294 
 BRR  HN ES        8 3 15.89                             149     0.510   82 294 
 BRR  HZ I         8 3 19.21        81.4 0.25                            82 294 
 OCA  SZ EP        8 3  5.00                             129    -0.2 9  162 349 
 OCA  SZ ES        8 3 26.73                             129    -0.6 9  162 349 
 OCA  SZ I         8 3 31.07        92.7 0.80                           162 349 
 CHI  HZ EP   1    8 3 14.88                             116     0.0 6  252 198 
 CHI  HN ES   1    8 3 44.36                             116    -0.2 6  252 198 
 CHI  HZ I         8 3 51.33        14.6 0.66                           252 198 
 ROSC BZ EP        8 3 16.32                             116     0.7 8  259 213 
 ROSC BN ES   1    8 3 45.15                             116    -0.7 6  259 213 
 ROSC BZ I         8 3 52.81        18.0 0.05                           259 213 
 HEL  HZ EP   1    8 3 18.04                             114    -0.2 6  284 256 
 HEL  HZ I         8 3 54.65        13.0 0.22                           284 256 
 RREF BZ EP   1    8 3 23.78                             110    -0.2 5  331 231 
 RREF BN ES   1    8 4  0.06                             110    -0.7 5  331 231 
 RREF BZ I         8 4  8.52        16.7 0.59                           331 231 
 SDV  BZ EP        8 3 26.07                             108     0.3 6  351  49 
 SDV  BZ I         8 3 27.00        24.8 0.08                           351  49 
 TOL  SZ EP   1    8 3 26.20                             109     0.2 5  352 226 
 PRA  HZ EP        8 3 30.27                             106    -0.8 6  398 211 
 PRA  HN ES        8 4 13.70                             106     0.4 6  398 211 
 PRA  HZ I         8 4 17.63        15.6 0.39                           398 211 
                                                                                
