 2011  419 0336 14.2 L   6.738 -73.107143.5  RSN  8 0.4 1.8LRSN                1
 GAP=173        0.68       8.2     8.0  9.5 -0.1733E+02 -0.1255E+01 -0.5039E+01E
 Epicentro: JORDAN - SANTANDER                                                 3
 ACTION:UP  11-06-22 15:31 OP:REBC STATUS:               ID:20110419033614 L   I
 2011-04-19-0335-10S.COL___137                                                 6
 STAT SP IPHASW D HRMM SECON CODA AMPLIT PERI AZIMU VELO SNR AR TRES W  DIS CAZ7
 BAR2 SZ EP        336 33.55                             172     0.110   18 207 
 BAR2 SZ ES   2    336 47.77                             172    -0.7 5   18 207 
 BAR2 SZ I         336 50.05        22.1 0.17                            18 207 
 BRR  HZ EP        336 35.51                             150     0.010   78 301 
 BRR  HN ES   2    336 52.64                             150     0.5 5   78 301 
 BRR  HZ I         336 54.51        12.4 0.15                            78 301 
 PAM  SZ EP        336 36.40                             149     0.110   80  34 
 PAM  SZ I         336 55.74         5.7 0.53                            80  34 
 GRA  SZ ES   3    336 59.58                             135     0.0 2  131  15 
 GRA  SZ I         337  0.18        11.0 0.24                           131  15 
 OCA  SZ EP   2    336 42.23                             128    -0.8 5  168 352 
 OCA  SZ ES   3    337  5.00                             128    -0.5 2  168 352 
 NOR  SZ EP   2    336 49.45                             118    -0.3 4  234 236 
 HEL  HZ EP   3    336 55.21                             114     0.7 2  275 257 
 HEL  HN ES   3    337 25.36                             114    -0.7 2  275 257 
 HEL  HZ I         337 31.54         4.7 0.70                           275 257 
 MON  HZ EP   4    337  0.61                             108    -3.3 0  361 309 
 MON  HN ES   4    337 37.39                             108    -5.4 0  361 309 
 MON  HZ I         337 44.63         1.1 0.28                           361 309 
                                                                                
