 2011 1119 0139 55.4 L   6.926 -72.981140.1  RSN  4 0.1 1.5LRSN                1
 GAP=259        0.39       6.6     6.6  5.0  0.3812E+02 -0.1448E+01 -0.3899E+01E
 Epicentro: PIEDECUESTA - SANTANDER                                            3
 ACTION:UPD 12-07-13 16:11 OP:ep   STATUS:               ID:20111119013955 L   I
 2011-11-19-0138-39S.COL___179                                                 6
 STAT SP IPHASW D HRMM SECON CODA AMPLIT PERI AZIMU VELO AIN AR TRES W  DIS CAZ7
 BAR2 SZ EP   1    140 14.77                             162   -0.11 9 43.1 211 
 BAR2 SZ ES   1    140 30.33                             162    0.22 9 43.1 211 
 BAR2 SZ I         140 33.12         9.7 0.32                          43.1 211 
 BRR  HZ I         140 18.83        12.1 0.20                          83.2 284 
 BRR  HN ES   1    140 33.07                             147   -0.16 9 83.2 284 
 RUS  HZ EP   1    140 19.75                             139    0.10 9  115 186 
 RUS  HN ES   1    140 38.48                             139   -0.12 9  115 186 
 RUS  HZ I         140 40.14         2.2 0.16                           115 186 
 ZAR  HN ES        140 54.87                             119    0.0610  217 287 
                                                                                
