 2015  819 0037 32.9 L   7.242 -73.152142.0  RSN  8 0.5 1.9LRSN                1
 GAP=108        1.12       3.9     5.2  7.0  0.4500E+01  0.1193E+02 -0.4405E+01E
 Epicentro: RIONEGRO - SANTANDER                                               3
 ACTION:UPD 15-09-15 23:03 OP:cam  STATUS:               ID:20150819003732 L   I
 OLDACT:UP  15-08-19 18:37 OP:ak   STATUS:               ID:20150819002750d    3
 OLDACT:DUP 15-08-19 18:31 OP:ak   STATUS:               ID:20150819002750d    3
 OLDACT:UP  15-08-19 18:28 OP:ak   STATUS:               ID:20150819002749     3
 OLDACT:REG 15-08-19 12:52 OP:spq  STATUS:               ID:20150819002749     3
 2015-08-19-0027-49M.COL___346                                                 6
 STAT SP IPHASW D HRMM SECON CODA AMPLIT PERI AZIMU VELO AIN AR TRES W  DIS CAZ7
 PAM  EZ EP        037 53.31                             159   -0.0310 51.1  78 
 PAM  EN ES        038  9.48                             159    0.2010 51.1  78 
 PAM  EZ I         038 11.45        19.1 0.41            164           51.1  78 
 BRR  HZ EP        037 53.22                             154    0.0010 63.6 257 
 BRR  HN ES        038  9.39                             154    0.3210 63.6 257 
 BAR2 EZ EP        037 54.71                             152    0.6910 71.9 183 
 BAR2 EZ ES        038  9.51                             152   -0.9910 71.9 183 
 BAR2 EZ I         038 11.99        12.4 0.26            154           71.9 183 
 RUS  HZ EP        038  0.66                             131    0.31 9  149 177 
 RUS  HN ES        038 21.37                             131   -0.39 9  149 177 
 RUS  HZ I         038 23.54         2.4 0.18            134            149 177 
 ZAR  HZ EP        038  3.59                             123   -0.10 9  190 278 
 ZAR  HN ES        038 28.02                             123    0.31 9  190 278 
 ZAR  HZ I         038 35.80         7.5 0.26            125            190 278 
 SML  HZ EP        038  4.57                             122   -0.09 9  200 330 
 SML  HN ES        038 29.81                             122    0.37 9  200 330 
 SML  HZ I         038 34.57        19.4 0.10            124            200 330 
 GUY2CHZ EP   1    038 20.48                             109    0.71 5  331 228 
 GUY2CHN ES        038 56.32                             109   -0.01 7  331 228 
 GUY2CHZ I         039  4.95         2.6 0.44                           331 228 
 SJC  HZ EP        038 22.81                             107   -0.79 6  369 323 
 SJC  HN ES        039  2.22                             107   -0.93 6  369 323 
 SJC  HZ I         039  2.94         2.8 0.30            109            369 323 
                                                                                
