 2010  819 0315  7.5 L   6.797 -73.050141.7  RSN  5 0.3 1.5LRSN                1
 GAP=200        0.64       6.5     7.9  7.8 -0.2238E+02 -0.3371E+02  0.1484E+02E
 Epicentro: LOS SANTOS - SANTANDER                                             3
 ACTION:UP  10-09-07 10:56 OP:vdl  STATUS:               ID:20100819031507 L   I
 2010-08-19-0310-30S.COL___117                                                 6
 STAT SP IPHASW D HRMM SECON CODA AMPLIT PERI AZIMU VELO SNR AR TRES W  DIS CAZ7
 BAR2 SZ EP        315 26.60                             169    -0.110   27 213 
 BAR2 SZ I         315 27.01         7.3 0.32                            27 213 
 BTL  SZ EP        315 26.81                             169     0.110   28 299 
 BTL  SZ ES   1    315 41.80                             169     0.1 7   28 299 
 GIR2 SZ EP   3    315 27.75                             166     1.0 2   35 333 
 BRR  HZ EP        315 28.50                             150    -0.310   81 295 
 BRR  HN ES        315 45.53                             150     0.110   81 295 
 GRA  SZ EP        315 32.48                             137     0.310  123  13 
 GRA  SZ ES   1    315 51.06                             137    -0.4 7  123  13 
 GRA  SZ I         315 53.21         4.0 0.43                           123  13 
                                                                                
