 2015  919 0156 57.0 L   6.788 -73.187144.6  RSN 12 0.3 1.8LRSN                1
 GAP=132        0.76       2.2     2.9  4.0 -0.8905E+00  0.3223E+01  0.2154E+01E
 Epicentro: ZAPATOCA - SANTANDER                                               3
 ACTION:UPD 15-10-28 16:27 OP:cam  STATUS:               ID:20150919015657 L   I
 OLDACT:DUP 15-09-19 14:27 OP:ak   STATUS:               ID:20150919014750d    3
 OLDACT:UP  15-09-19 14:23 OP:ak   STATUS:               ID:20150919014749d    3
 OLDACT:UP  15-09-19 14:23 OP:ak   STATUS:               ID:20150919014749d    3
 OLDACT:DUP 15-09-19 14:07 OP:ak   STATUS:               ID:20150919014749d    3
 OLDACT:REG 15-09-19 12:25 OP:ak   STATUS:               ID:20150919014748     3
 2015-09-19-0147-48M.COL___355                                                 6
 STAT SP IPHASW D HRMM SECON CODA AMPLIT PERI AZIMU VELO AIN AR TRES W  DIS CAZ7
 BAR2 EZ EP        157 16.51                             171    0.0410 21.7 179 
 BAR2 EZ ES        157 31.75                             171    0.1110 21.7 179 
 BAR2 EZ I         157 34.21        10.1 0.33            170           21.7 179 
 BRR  HZ EP        157 17.75                             153   -0.1010 67.9 301 
 BRR  HN ES        157 34.62                             153    0.5210 67.9 301 
 BRR  HZ I         157 39.35        10.7 0.30            153           67.9 301 
 PAM  EZ EP        157 19.45                             149    0.1110 81.4  41 
 PAM  EN ES        157 36.67                             149   -0.0910 81.4  41 
 PAM  EZ I         157 39.51         8.1 0.34            155           81.4  41 
 RUS  HZ EP        157 20.46                             144   -0.1210 99.7 173 
 RUS  HN ES        157 39.09                             144    0.1310 99.7 173 
 RUS  HZ I         157 40.50         5.1 0.30            146           99.7 173 
 PTB  HZ EP        157 23.20                             133   -0.25 9  143 259 
 PTB  HN ES        157 44.06                             133   -0.02 9  143 259 
 SPBC HZ EP        157 24.82                             129   -0.23 9  159 218 
 SPBC HN ES        157 46.96                             129    0.04 9  159 218 
 SPBC HZ I         157 51.65        12.0 0.14            131            159 218 
 OCA  HE ES        157 46.78                             129   -0.60 9  161 355 
 ZAR  HZ EP        157 29.04                             123    0.04 9  200 293 
 ZAR  HN ES        157 53.85                             123   -0.09 9  200 293 
 ZAR  HZ I         157 59.85         4.6 0.62            125            200 293 
 NOR  HZ EP        157 32.71                             119    0.52 8  230 234 
 NOR  HE ES        157 59.44                             119   -0.19 8  230 234 
 NOR  HZ I         158  7.34         5.6 0.16            120            230 234 
 CHI  HZ EP        157 34.40                             117    0.02 8  246 194 
 CHI  HE ES        158  3.08                             117   -0.44 8  246 194 
 CHI  HZ I         158  9.28         4.1 0.32            119            246 194 
 GUY2CHZ EP        157 40.83                             112    0.77 7  297 234 
 GUY2CHE ES        158 13.75                             112    0.12 7  297 234 
 GUY2CHZ I         158 22.85         3.4 0.58                           297 234 
 PRA  HZ EP        157 50.65                             106    0.56 6  389 209 
 PRA  HN ES        158 30.73                             106   -0.77 6  389 209 
 PRA  HZ I         158 36.75         3.6 0.23            108            389 209 
                                                                                
