 2013 1219 0809 44.0 L   6.838 -73.207143.7  RSN  8 0.5 1.5LRSN                1
 GAP=127        0.97       3.7     5.1  9.7 -0.4186E+01  0.9863E+01  0.4682E+01E
 Epicentro: ZAPATOCA - SANTANDER                                               3
 ACTION:UPD 14-01-13 10:19 OP:ep   STATUS:               ID:20131219080944 L   I
 OLDACT:DUP 13-12-19 10:57 OP:jn   STATUS:               ID:20131219080738d    3
 OLDACT:REG 13-12-19 08:48 OP:jn   STATUS:               ID:20131219080737     3
 2013-12-19-0807-37M.COL___232                                                 6
 STAT SP IPHASW D HRMM SECON CODA AMPLIT PERI AZIMU VELO AIN AR TRES W  DIS CAZ7
 BRR  HN ES   2    810 21.15                             155    0.65 5 63.2 298 
 PAM  SZ EP        810  6.66                             150    0.5510 78.8  45 
 PAM  SN ES        810 23.10                             150   -0.2310 78.8  45 
 PAM  SZ I         810 24.39         5.3 0.18            154           78.8  45 
 RUS  HZ EP        810  7.83                             142   -0.1010  105 173 
 RUS  HN ES        810 26.85                             142    0.2710  105 173 
 RUS  HZ I         810 28.30         4.1 0.32            144            105 173 
 PTB  HZ EP        810 10.63                             133    0.33 9  142 257 
 PTB  HN ES        810 30.93                             133    0.13 9  142 257 
 PTB  HZ I         810 35.33         3.8 0.14            134            142 257 
 OCA  HN ES   1    810 32.38                             130   -0.93 7  155 355 
 SPBC HE ES   1    810 33.67                             128   -0.66 7  162 216 
 SPBC HZ I         810 37.48         4.8 0.32            130            162 216 
 SML  HN ES   2    810 47.71                             117   -0.02 4  237 336 
 CHI  HN ES        810 50.91                             116   -0.48 8  251 193 
                                                                                
