 2011 1219 0232 13.7 L   6.753 -73.085143.0  RSN  6 0.2 1.7LRSN                1
 GAP=147        0.37       2.2     3.7  3.5  0.3313E+00  0.6343E-01 -0.1240E+01E
 Epicentro: LOS SANTOS - SANTANDER                                             3
 ACTION:UPD 12-07-13 16:17 OP:ep   STATUS:               ID:20111219023213 L   I
 2011-12-19-0230-00M.COL___188                                                 6
 STAT SP IPHASW D HRMM SECON CODA AMPLIT PERI AZIMU VELO AIN AR TRES W  DIS CAZ7
 BAR2 SZ EP        232 32.93                             171    0.0010 20.8 211 
 BAR2 SZ I         232 33.27        15.2 0.09                          20.8 211 
 BAR2 SZ ES   1    232 47.95                             171    0.01 7 20.8 211 
 GIR2 SZ EP   2    232 33.07                             164   -0.15 5 38.0 342 
 PAM  SZ EP   1    232 35.69                             150    0.08 7 77.5  33 
 PAM  SN ES   1    232 52.66                             150   -0.05 7 77.5  33 
 BRR  HZ IP     C  232 34.82                             149   -0.2110 79.6 299 
 BRR  HZ I         232 35.19        20.2 0.10                          79.6 299 
 BRR  HN ES   1    232 51.87                             149    0.18 7 79.6 299 
 RUS  HZ EP   1    232 36.78                             145    0.01 7 95.2 180 
 RUS  HE ES   1    232 54.79                             145    0.01 7 95.2 180 
 RUS  HZ I         232 56.83         5.3 0.38                          95.2 180 
 OCA  SZ EP   1    232 42.69                             128    0.34 7  166 351 
 OCA  SZ ES   2    233  4.51                             128   -0.21 5  166 351 
 OCA  SZ I         233  7.98         4.6 0.25                           166 351 
                                                                                
