 2014 1019 0531 44.0 L   6.784 -73.160142.7  RSN  8 0.4 1.7LRSN                1
 GAP=135        0.98       3.7     4.3  7.1 -0.1330E+01  0.7501E+01 -0.3850E+00E
 Epicentro: LOS SANTOS - SANTANDER                                             3
 ACTION:UPD 14-11-29 23:51 OP:nd   STATUS:               ID:20141019053144 L   I
 OLDACT:UP  14-10-19 16:30 OP:mh   STATUS:               ID:20141019052745     3
 OLDACT:UP  14-10-19 16:28 OP:mh   STATUS:               ID:20141019052745     3
 OLDACT:UP  14-10-19 16:28 OP:mh   STATUS:               ID:20141019052745     3
 OLDACT:REG 14-10-19 13:36 OP:mh   STATUS:               ID:20141019052745     3
 2014-10-19-0527-45M.COL___271                                                 6
 STAT SP IPHASW D HRMM SECON CODA AMPLIT PERI AZIMU VELO AIN AR TRES W  DIS CAZ7
 BAR2 SZ EP   1    532  3.55                             171    0.31 7 21.3 187 
 BAR2 SZ ES        532 17.59                             171   -0.6410 21.3 187 
 BAR2 SZ I         532 19.11         9.3 0.18            170           21.3 187 
 BRR  HZ EP        532  4.90                             152    0.1010 70.7 300 
 BRR  HN ES        532 21.56                             152    0.5410 70.7 300 
 BRR  HZ I         532 23.94         5.9 0.12            151           70.7 300 
 PAM  SZ EP        532  5.73                             149   -0.3210 79.8  40 
 PAM  SN ES        532 22.98                             149   -0.2610 79.8  40 
 PAM  SZ I         532 24.90        12.5 0.52            153           79.8  40 
 RUS  HZ EP   1    532  7.82                             144    0.47 7 98.9 175 
 RUS  HN ES        532 25.84                             144    0.2910 98.9 175 
 RUS  HZ I         532 27.42         6.4 0.44            145           98.9 175 
 PTB  HZ EP        532 10.12                             132   -0.44 9  146 259 
 PTB  HN ES        532 31.09                             132   -0.17 9  146 259 
 PTB  HZ I         532 33.54         7.4 0.58            131            146 259 
 SPBC HZ EP   1    532 11.94                             129   -0.11 7  161 219 
 SPBC HN ES   1    532 34.41                             129    0.49 7  161 219 
 SPBC HZ I         532 39.94         7.0 0.26            129            161 219 
 OCA  HN ES        532 34.81                             129    0.56 9  162 354 
 OCA  HZ I         532 35.94         5.3 0.16            130            162 354 
 ZAR  HN ES        532 40.91                             122   -0.35 9  203 293 
 ZAR  HZ I         532 47.35         4.9 0.30            122            203 293 
                                                                                
