 2014  419 0823 32.1 L   6.821 -73.150142.1  RSN  6 0.4 1.8LRSN                1
 GAP=152        0.98       4.9     3.9  8.5 -0.1337E+01  0.4588E+01  0.5538E+01E
 Epicentro: LOS SANTOS - SANTANDER                                             3
 ACTION:UPD 14-05-13 23:09 OP:nd   STATUS:               ID:20140419082332 L   I
 OLDACT:UP  14-04-19 18:26 OP:stll STATUS:               ID:20140419081805     3
 OLDACT:REG 14-04-19 13:55 OP:stll STATUS:               ID:20140419081805     3
 2014-04-19-0818-05M.COL___221                                                 6
 STAT SP IPHASW D HRMM SECON CODA AMPLIT PERI AZIMU VELO AIN AR TRES W  DIS CAZ7
 PAM  SZ EP        823 54.23                             151    0.3610 76.0  41 
 PAM  SN ES        824 10.98                             151    0.1510 76.0  41 
 PAM  SZ I         824 13.38        12.3 0.54            152           76.0  41 
 PTB  HZ EP        823 58.69                             131   -0.11 9  148 258 
 PTB  HN ES        824 19.06                             131   -0.54 9  148 258 
 PTB  HZ I         824 21.21         5.2 0.18            132            148 258 
 TAM  HZ EP        823 59.61                             129   -0.02 9  156 106 
 TAM  HZ I         823 59.86        12.2 0.38            132            156 106 
 OCA  HZ EP        823 59.61                             129   -0.33 9  158 353 
 OCA  HN ES        824 21.34                             129   -0.28 9  158 353 
 OCA  HZ I         824 24.33         5.9 0.52            130            158 353 
 ZAR  HZ EP        824  4.96                             122    0.76 9  203 292 
 ZAR  HN ES        824 29.71                             122    0.50 9  203 292 
 ZAR  HZ I         824 35.34         4.2 0.32            122            203 292 
 SML  HZ EP        824  7.65                             117   -0.65 8  241 335 
 SML  HZ I         824 11.61         5.2 0.10            118            241 335 
 SML  HN ES        824 36.64                             117    0.13 8  241 335 
                                                                                
