 2017 1219 0116 41.6 L   6.812 -73.377113.4  RSN  7 0.5 1.6LRSN                1
 GAP=136        1.00       3.4     5.0  7.5 -0.4719E+01  0.1198E+02 -0.8355E+01E
 Epicentro: SAN VICENTE DE CHUCURI - SANTANDER                                 3
 ACTION:UPD 18-01-04 13:21 OP:rebc STATUS:               ID:20171219011641 L   I
 OLDACT:REG 17-12-19 12:30 OP:dhb  STATUS:               ID:20171219010740     3
 2017-12-19-0108-00M.COL___461                                                 6
 STAT SP IPHASW D HRMM SECON CODA AMPLIT PERI AZIMU VELO AIN AR TRES W  DIS CAZ7
 BAR2 EZ EP        116 57.27                             163   -0.3610 32.5 139 
 BAR2 EZ ES        117 10.53                             163    0.3910 32.5 139 
 BAR2 EZ I         117 13.51        15.5 0.50            167           32.5 139 
 PTB  HZ EP   3    117  2.54                             129   -1.17 2  123 256 
 PTB  HN ES        117 20.93                             129   -0.0310  123 256 
 PTB  HZ I         117 23.35         5.4 0.48            131            123 256 
 SPBC HZ EP        117  7.15                             123    0.73 9  150 211 
 SPBC HE ES        117 25.04                             123   -0.75 9  150 211 
 SPBC HZ I         117 30.36         8.5 0.12            126            150 211 
 OCA  HE ES        117 27.55                             122    0.08 9  158   2 
 ZAR  HZ EP        117  9.98                             118    0.45 9  180 295 
 ZAR  HE ES        117 31.28                             118   -0.04 9  180 295 
 ZAR  HZ I         117 37.69         5.2 0.50            120            180 295 
 GUY2CHZ EP        117 21.56                             107   -0.06 7  282 232 
 GUY2CHE ES   3    117 54.83                             107    1.99 2  282 232 
 GUY2CHZ I         118  0.93         2.0 0.66                           282 232 
 DRL03HZ EP        117 21.36                             106   -0.11 7  285 358 
 DRL03HN ES        117 52.08                             106   -0.50 7  285 358 
                                                                                
