 2011  519 0249  9.5 L   6.708 -73.232145.5  RSN  5 0.2 1.5LRSN                1
 GAP=151        0.47       7.3    12.6  7.1  0.6932E+02 -0.4060E+02 -0.1512E+02E
 Epicentro: VILLANUEVA - SANTANDER                                             3
 ACTION:UP  11-06-29 08:54 OP:tino STATUS:               ID:20110519024909 L   I
 2011-05-19-0240-00M.COL___142                                                 6
 STAT SP IPHASW D HRMM SECON CODA AMPLIT PERI AZIMU VELO SNR AR TRES W  DIS CAZ7
 BAR2 SZ EP        249 28.88                             174    -0.110   14 157 
 BAR2 SZ ES   2    249 44.02                             174    -0.1 5   14 157 
 BAR2 SZ I         249 46.96         9.9 0.44                            14 157 
 BTL  SZ EP   1    249 29.15                             170     0.0 7   24 350 
 GIR2 SZ EP   1    249 29.63                             163     0.1 7   41   6 
 BRR  HZ EP   1    249 30.75                             153     0.2 7   69 310 
 BRR  HZ I         249 46.08         7.8 0.11                            69 310 
 BRR  HN ES   1    249 46.80                             153    -0.1 7   69 310 
 RUS  HZ EP   1    249 32.41                             146    -0.2 7   92 170 
 RUS  HE ES   2    249 51.10                             146     0.4 5   92 170 
 RUS  HZ I         249 52.84         2.9 0.33                            92 170 
                                                                                
