 2017  319 0601  5.1 L   6.902 -73.180174.4  RSN  7 0.5 1.1LRSN                1
 GAP=127        1.04       7.0     5.2  9.9 -0.9480E+01 -0.6653E+01  0.2613E+02E
 Epicentro: BETULIA - SANTANDER                                                3
 ACTION:UPD 17-05-25 18:42 OP:jn   STATUS:               ID:20170319060105 L   I
 OLDACT:UP  17-04-27 20:56 OP:nlst STATUS:               ID:20170319060105 L   3
 OLDACT:DUP 17-03-19 16:04 OP:cara STATUS:               ID:20170319055749d    3
 OLDACT:UP  17-03-19 16:00 OP:cara STATUS:               ID:20170319055747     3
 OLDACT:UP  17-03-19 15:59 OP:cara STATUS:               ID:20170319055747     3
 OLDACT:UP  17-03-19 15:57 OP:cara STATUS:               ID:20170319055747     3
 OLDACT:REG 17-03-19 13:14 OP:cara STATUS:               ID:20170319055747     3
 2017-03-19-0558-00M.COL___406                                                 6
 STAT SP IPHASW D HRMM SECON CODA AMPLIT PERI AZIMU VELO AIN AR TRES W  DIS CAZ7
 BAR2 EZ EP        6 1 28.49                             168    0.0910 34.3 180 
 BRR  HZ EP   3    6 1 27.47                             159   -1.55 2 63.0 291 
 BRR  HN ES        6 1 47.86                             159    0.1710 63.0 291 
 PAM  EZ EP        6 1 29.71                             157   -0.4310 71.8  48 
 PAM  EE ES        6 1 49.60                             157   -0.0810 71.8  48 
 PAM  EZ I         6 1 51.67         2.2 0.46            156           71.8  48 
 RUS  HZ EP        6 1 33.31                             146    0.8010  112 175 
 RUS  HZ I         6 1 52.47         1.3 0.24            136            112 175 
 PTB  HZ EP        6 1 34.07                             138   -0.37 9  147 254 
 PTB  HN ES        6 1 57.03                             138   -0.30 9  147 254 
 PTB  HZ I         6 2  4.56         1.5 0.26            134            147 254 
 SPBC HN ES        6 2  0.72                             134   -0.30 9  170 216 
 ZAR  HN ES        6 2  5.70                             129    0.54 9  197 290 
                                                                                
