 2012  719 0138 57.4 L   6.782 -73.149142.2  RSN 14 0.5 3.1LRSN                1
 GAP=114        1.12       3.4     4.5  7.0  0.2130E-01  0.7697E+01  0.4919E+01E
 Epicentro: LOS SANTOS - SANTANDER                                             3
 ACTION:UPD 12-08-14 11:45 OP:ep   STATUS:               ID:20120719013857 L   I
 2012-07-19-0137-37M.COL___197                                                 6
 STAT SP IPHASW D HRMM SECON CODA AMPLIT PERI AZIMU VELO AIN AR TRES W  DIS CAZ7
 BAR2 SZ IP        139 16.67                             171     0.110   21 190 
 BAR2 SZ I         139 16.96       286.7 0.20            167             21 190 
 BAR2 SZ ES   1    139 31.19                             171    -0.3 7   21 190 
 BRR  HZ IP        139 18.63                             152     0.410   72 300 
 BRR  HN ES   1    139 35.40                             152     1.0 7   72 300 
 BRR  HZ I         139 38.83       362.8 0.28            151             72 300 
 PAM  SZ IP        139 19.59                             150     0.210   79  39 
 PAM  SN ES   1    139 36.65                             150     0.2 7   79  39 
 RUS  HZ EP        139 20.75                             144     0.110   99 176 
 RUS  HN ES   1    139 38.39                             144    -0.4 7   99 176 
 RUS  HZ I         139 40.35       175.2 0.39            144             99 176 
 PTB  HZ EP        139 23.32                             131    -0.7 9  147 260 
 PTB  HN ES   1    139 44.28                             131    -0.5 7  147 260 
 PTB  HZ I         139 47.71       104.1 0.25            131            147 260 
 OCA  HZ EP        139 25.11                             129    -0.5 9  162 353 
 OCA  HN ES   1    139 46.72                             129    -0.9 7  162 353 
 OCA  HZ I         139 50.20       600.8 0.30            132            162 353 
 YOP  SZ EP   1    139 26.63                             126    -0.4 7  177 153 
 YOP  SN ES   1    139 50.72                             126     0.6 7  177 153 
 YOP  SZ I         139 55.03        79.0 0.38            128            177 153 
 ZAR  HZ EP        139 29.70                             122     0.0 9  204 293 
 ZAR  HN ES   1    139 55.20                             122     0.4 6  204 293 
 ZAR  HZ I         140  0.87       182.6 0.48            123            204 293 
 NOR  SZ EP        139 32.60                             118    -0.2 8  233 235 
 NOR  SN ES   1    139 59.84                             118    -0.5 6  233 235 
 CHI  HZ EP        139 34.86                             117     0.2 8  247 195 
 CHI  HN ES   1    140  3.62                             117    -0.1 6  247 195 
 CHI  HZ I         140  8.28        31.7 0.42            118            247 195 
 ROSC BE ES   1    140  4.83                             116     0.3 6  251 211 
 ROSC BZ I         140 13.24        86.4 0.65            117            251 211 
 HEL  HZ EP   1    139 38.36                             114     1.0 6  271 256 
 HEL  HN ES   1    140  8.45                             114     0.0 6  271 256 
 HEL  HZ I         140 16.62        53.9 0.41            115            271 256 
 VIL  SZ EP   1    139 39.91                             112    -0.5 5  301 192 
 VIL  SN ES   1    140 13.82                             112    -0.2 5  301 192 
 VIL  SZ I         140 23.41        24.5 0.40            113            301 192 
 TOL  SZ EP   1    139 46.25                             109     0.9 5  342 225 
 TOL  SZ ES   1    140 22.84                             109     0.1 5  342 225 
