 2010  719 0919 29.1 L   6.781 -73.089134.7  RSN 10 0.5 1.9LRSN                1
 GAP=165        1.03       6.2    11.0  9.9 -0.2679E+02  0.3708E+02 -0.3700E+01E
 Epicentro: LOS SANTOS - SANTANDER                                             3
 ACTION:UPD 10-12-01 15:18 OP:pat  STATUS:               ID:20100719091929 L   I
 2010-07-19-0918-05S.COL___120                                                 6
 STAT SP IPHASW D HRMM SECON CODA AMPLIT PERI AZIMU VELO AIN AR TRES W  DIS CAZ7
 BAR2 SZ IP        919 47.38                             170     0.010   23 207 
 BAR2 SZ ES   1    920  1.89                             170     0.2 7   23 207 
 BAR2 SZ I         920  3.48        19.8 0.38                            23 207 
 BRR  HZ EP        919 49.19                             148    -0.310   78 298 
 BRR  HZ I         920  5.73        20.0 0.16                            78 298 
 RUS  HZ EP   1    919 51.34                             142    -0.3 7   98 180 
 RUS  HZ I         920 11.24        12.1 0.17                            98 180 
 GUE  SZ EP   1    919 53.38                             137     0.5 7  117   9 
 GUE  SZ I         920 14.54         3.4 0.22                           117   9 
 GRA  SZ EP   1    919 53.26                             134    -0.1 7  126  14 
 GRA  SZ I         920 14.18         5.8 0.13                           126  14 
 OCA  SZ EP   1    919 56.20                             127    -0.7 7  163 351 
 OCA  SZ ES   2    920 19.05                             127     0.5 5  163 351 
 OCA  SZ I         920 22.66         8.3 0.42                           163 351 
 ROSC BZ EP   1    920  7.62                             114     0.8 6  254 212 
 ROSC BZ I         920 43.85         7.5 0.45                           254 212 
 HEL  HZ EP   1    920  9.58                             112     0.2 6  278 257 
 HEL  HN ES   2    920 40.33                             112    -0.5 4  278 257 
 HEL  HZ I         920 45.49         4.8 0.30                           278 257 
 RREF HZ EP   1    920 16.09                             108     0.9 5  325 230 
 RREF HZ I         920 59.58         5.1 0.39                           325 230 
 PRA  HZ EP   1    920 21.78                             105    -0.6 4  393 211 
 PRA  HN ES   2    921  3.12                             105    -0.9 3  393 211 
 PRA  HZ I         921  8.03         3.7 0.33                           393 211 
                                                                                
