 2014  719 0712 10.7 L   7.067 -73.109161.9  RSN  5 0.2 1.5LRSN                1
 GAP=265        0.57       4.5     6.2  6.7  0.7845E+01  0.7004E+01 -0.6703E+01E
 Epicentro: FLORIDABLANCA - SANTANDER                                          3
 ACTION:UPD 15-03-16 20:45 OP:nd   STATUS:               ID:20140719071210 L   I
 OLDACT:DUP 14-07-19 15:46 OP:fm   STATUS:               ID:20140719070818d    3
 2014-07-19-0708-17M.COL___266                                                 6
 STAT SP IPHASW D HRMM SECON CODA AMPLIT PERI AZIMU VELO AIN AR TRES W  DIS CAZ7
 BAR2 SZ ES   1    712 50.60                             161   -0.02 8 53.1 189 
 BAR2 SZ I         712 51.81         7.5 0.32            153           53.1 189 
 PTB  HZ EP        712 40.14                             133    0.0610  160 249 
 PTB  HE ES        713  3.42                             133    0.4110  160 249 
 PTB  HZ I         713  4.47         2.6 0.20            129            160 249 
 SPBC HN ES        713  7.78                             128   -0.2510  189 214 
 SPBC HZ I         713 21.38         1.3 0.54            125            189 214 
 ZAR  HZ EP        712 43.79                             126    0.08 9  199 284 
 ZAR  HN ES        713  9.15                             126   -0.33 9  199 284 
 ZAR  HZ I         713 15.76         1.9 0.28            125            199 284 
 ORTC HN ES   1    713 53.11                             108   -0.07 4  422 214 
 ORTC HZ I         713 56.13         2.1 0.16            107            422 214 
                                                                                
