 2012 1119 0658  5.9 L   6.951 -73.399116.7  RSN 10 0.4 2.1LRSN                1
 GAP= 88        0.93       3.5     4.3  6.1  0.2404E+01  0.6911E+01 -0.2041E+01E
 Epicentro: SAN VICENTE DE CHUCURI - SANTANDER                                 3
 ACTION:UPD 12-12-05 15:34 OP:}ep  STATUS:               ID:20121119065805 L   I
 2012-11-19-0650-00M.COL___234                                                 6
 STAT SP IPHASW D HRMM SECON CODA AMPLIT PERI AZIMU VELO AIN AR TRES W  DIS CAZ7
 GIR2 SZ EP        658 22.37                             166    0.3910 26.7  58 
 BRR  HZ IP     D  658 22.48                             160    0.2910 38.6 297 
 BRR  HZ I         658 22.62        77.9 0.13                          38.6 297 
 BRR  HN ES        658 34.88                             160   -0.0210 38.6 297 
 BAR2 SZ EP        658 23.29                             157    0.4110 46.4 149 
 BAR2 SZ ES   1    658 35.79                             157   -0.35 7 46.4 149 
 BAR2 SZ I         658 36.88        71.6 0.23                          46.4 149 
 PAM  SZ EP   1    658 26.22                             140    0.30 7 88.4  61 
 PAM  SN ES   1    658 41.04                             140   -0.51 7 88.4  61 
 PAM  SZ I         658 45.05        11.1 0.19                          88.4  61 
 RUS  HZ EP        658 28.73                             131   -0.0810  122 163 
 RUS  HE ES   1    658 46.51                             131   -0.19 7  122 163 
 PTB  HZ EP        658 27.67                             129   -0.8110  125 249 
 OCA  HZ EP        658 30.60                             125    0.27 9  143   4 
 OCA  HE ES        658 49.21                             125   -0.19 9  143   4 
 OCA  HZ I         658 50.80        17.9 0.32                           143   4 
 ZAR  HZ EP   1    658 33.94                             120    0.80 7  172 290 
 ZAR  HE ES   1    658 54.80                             120    0.41 7  172 290 
 ZAR  HZ I         658 57.15        12.4 0.14                           172 290 
 SML  HZ EP   1    658 37.71                             113   -0.40 6  218 340 
 MON  HZ EP        658 49.61                             105   -0.48 7  321 309 
 MON  HN ES   2    659 23.99                             105   -0.58 3  321 309 
                                                                                
