 2015  819 0036 25.5 L   6.433 -73.621122.1  RSN  4 0.4 1.4LRSN                1
 GAP=195        0.86       8.7     6.5  9.5 -0.3020E+02  0.3926E+02 -0.1173E+02E
 Epicentro: SANTA HELENA DEL OPON - SANTANDER                                  3
 ACTION:UPD 15-09-15 23:03 OP:cam  STATUS:               ID:20150819003625 L   I
 OLDACT:UP  15-08-19 18:28 OP:ak   STATUS:               ID:20150819002749     3
 OLDACT:REG 15-08-19 12:52 OP:spq  STATUS:               ID:20150819002749     3
 2015-08-19-0027-49M.COL___346                                                 6
 STAT SP IPHASW D HRMM SECON CODA AMPLIT PERI AZIMU VELO AIN AR TRES W  DIS CAZ7
 BAR2 EZ ES        036 57.24                             156   -0.0210 51.6  70 
 BAR2 EZ I         036 58.57        15.3 0.12            158           51.6  70 
 RUS  HZ EP   1    036 45.57                             143   -0.16 7 84.3 135 
 RUS  HN ES        037  1.55                             143    0.0210 84.3 135 
 RUS  HZ I         037  3.46         1.5 0.26            145           84.3 135 
 SPBC HZ EP        036 46.96                             138    0.5910 99.8 210 
 SPBC HN ES        037  2.38                             138   -0.2710 99.8 210 
 SPBC HZ I         037  5.00         5.1 0.22            139           99.8 210 
 GUY2CHZ EP        036 59.91                             113   -0.61 8  235 235 
 GUY2CHN ES        037 28.09                             113    0.25 8  235 235 
 GUY2CHZ I         037 34.86         2.4 0.34                           235 235 
                                                                                
