 2013 1219 0042 21.0 L   6.759 -73.160152.4  RSN 11 0.4 2.0LRSN                1
 GAP=137        0.89       2.8     4.1  5.7 -0.4718E+00  0.3723E+01  0.2220E+01E
 Epicentro: LOS SANTOS - SANTANDER                                             3
 ACTION:UPD 14-01-13 10:19 OP:ep   STATUS:               ID:20131219004221 L   I
 OLDACT:REG 13-12-19 06:11 OP:jn   STATUS:               ID:20131219004000     3
 2013-12-19-0040-00M.COL___285                                                 6
 STAT SP IPHASW D HRMM SECON CODA AMPLIT PERI AZIMU VELO AIN AR TRES W  DIS CAZ7
 BAR2 SZ EP        042 41.28                             173   -0.0210 18.6 188 
 BAR2 SZ ES        042 57.36                             173    0.1910 18.6 188 
 BAR2 SZ I         042 57.86        57.6 0.18            171           18.6 188 
 BRR  HZ EP        042 43.19                             153    0.3210 72.1 302 
 BRR  HN ES        043  0.45                             153    0.4810 72.1 302 
 BRR  HZ I         043  2.84        11.4 0.30            152           72.1 302 
 PAM  SZ EP        042 44.19                             151    0.0510 81.9  38 
 PAM  SN ES        043  1.92                             151   -0.3110 81.9  38 
 PAM  SZ I         043  3.77        12.6 0.60            153           81.9  38 
 RUS  HZ EP        042 45.16                             146    0.1010 96.2 175 
 RUS  HN ES        043  3.58                             146   -0.2810 96.2 175 
 RUS  HZ I         043  5.14        12.3 0.28            146           96.2 175 
 PTB  HZ EP        042 48.19                             134   -0.07 9  145 260 
 PTB  HN ES        043  9.19                             134   -0.37 9  145 260 
 PTB  HZ I         043 11.35        12.1 0.18            133            145 260 
 SPBC HN ES   1    043 12.25                             131    0.39 7  159 220 
 OCA  HN ES        043 12.54                             130   -0.45 9  165 354 
 ZAR  HN ES   1    043 19.70                             124    0.16 6  204 293 
 ZAR  HZ I         043 24.64         8.9 0.30            123            204 293 
 CHI  HZ EP        042 59.28                             119    0.77 8  244 195 
 CHI  HN ES        043 27.33                             119   -0.48 8  244 195 
 CHI  HZ I         043 37.04         3.9 0.56            119            244 195 
 SML  HN ES   1    043 27.49                             118    0.00 6  247 336 
 GUY2CHZ EP   2    043  2.79                             114   -1.65 4  297 235 
 GUY2CHZ I         043 51.50         5.2 0.60                           297 235 
                                                                                
