 2013  619 0559 55.3 L   6.824 -73.126144.6  RSN 14 0.5 2.4LRSN                1
 GAP=185        0.90       3.1     4.8  6.2 -0.1576E+01  0.5665E+01  0.1144E+01E
 Epicentro: LOS SANTOS - SANTANDER                                             3
 ACTION:UPD 14-01-08 09:55 OP:ep   STATUS:               ID:20130619055955 L   I
 OLDACT:REG 13-06-19 07:27 OP:carl STATUS:               ID:20130619055959     3
 2013-06-19-0559-59M.COL___261                                                 6
 STAT SP IPHASW D HRMM SECON CODA AMPLIT PERI AZIMU VELO AIN AR TRES W  DIS CAZ7
 BAR2 SZ EP   1    6 0 15.04                             169    0.14 8 26.3 194 
 BAR2 SZ ES   1    6 0 30.54                             169    0.39 8 26.3 194 
 BAR2 SZ I         6 0 32.16        24.5 0.14            168           26.3 194 
 GIR2 SZ EP   1    6 0 14.96                             168    0.14 8 29.2 345 
 BRR  HZ EP   1    6 0 16.84                             152    0.43 8 72.0 296 
 BRR  HN ES   1    6 0 33.72                             152    0.88 8 72.0 296 
 BRR  HZ I         6 0 37.32        51.6 0.38            150           72.0 296 
 RUS  HZ EP   1    6 0 19.20                             143    0.04 8  103 177 
 RUS  HN ES   1    6 0 37.20                             143   -0.54 8  103 177 
 RUS  HZ I         6 0 39.44        15.3 0.18            144            103 177 
 PTB  HZ EP   1    6 0 21.80                             131   -0.66 8  150 258 
 PTB  HN ES   1    6 0 42.88                             131   -0.73 8  150 258 
 PTB  HZ I         6 0 45.07        36.5 0.64            131            150 258 
 OCA  HZ EP        6 0 23.57                             130    0.2210  158 352 
 OCA  HN ES   1    6 0 44.78                             130   -0.41 7  158 352 
 OCA  HZ I         6 0 48.71        30.7 0.44            131            158 352 
 ZAR  HN ES   1    6 0 52.63                             122   -0.53 7  205 291 
 ZAR  HN I         6 0 57.55        64.1 0.52            122            205 291 
 NOR  HZ EP   1    6 0 31.43                             118    0.06 7  238 234 
 NOR  HN ES   1    6 0 59.17                             118   -0.29 7  238 234 
 NOR  HZ I         6 1  2.87        13.6 0.20            118            238 234 
 SML  HZ EP   1    6 0 31.56                             117   -0.19 7  242 335 
 SML  HE ES   1    6 0 59.95                             117   -0.20 7  242 335 
 SML  HZ I         6 1  3.46        36.6 0.10            119            242 335 
 CHI  HZ EP   1    6 0 33.45                             117    0.13 6  252 196 
 CHI  HN ES   1    6 1  2.25                             117   -0.68 6  252 196 
 CHI  HZ I         6 1  9.82        11.0 0.44            118            252 196 
 ROSC BZ EP   4    6 0 35.71                             116    1.94 0  256 211 
 ROSC BN ES   4    6 1  7.09                             116    3.35 0  256 211 
 HEL  HZ EP   1    6 0 36.77                             114    0.96 6  275 255 
 HEL  HN ES   1    6 1  6.92                             114   -0.45 6  275 255 
 HEL  HZ I         6 1 14.49        12.2 0.30            115            275 255 
 GUY2CHZ EP   1    6 0 39.41                             112    0.13 6  305 235 
 GUY2CHN ES   1    6 1 13.82                             112    0.28 6  305 235 
 GUY2CHZ I         6 1 19.40         8.3 0.24                           305 235 
 RREF HN ES   2    6 1 20.07                             110    2.00 4  325 229 
 PRA  HZ EP   1    6 0 48.70                             106   -0.52 5  395 210 
 PRA  HN ES   1    6 1 31.63                             106    0.39 5  395 210 
 PRA  HZ I         6 1 37.50        12.1 0.30            107            395 210 
                                                                                
