 2013  219 0209  3.6 L   6.801 -73.157142.5  RSN  9 0.4 1.7LRSN                1
 GAP= 70        0.82       3.3     4.7  6.6  0.3453E+00  0.6998E+00  0.2828E+01E
 Epicentro: LOS SANTOS - SANTANDER                                             3
 ACTION:UPD 13-03-12 09:34 OP:ep   STATUS:               ID:20130219020903 L   I
 2013-02-19-0207-48M.COL___186                                                 6
 STAT SP IPHASW D HRMM SECON CODA AMPLIT PERI AZIMU VELO AIN AR TRES W  DIS CAZ7
 BAR2 SZ EP        2 9 22.89                             170    0.0710 23.3 187 
 BAR2 SZ ES   1    2 9 37.65                             170   -0.18 7 23.3 187 
 BAR2 SZ I         2 9 38.81        20.2 0.38            167           23.3 187 
 BRR  HZ EP     C  2 9 24.69                             152    0.3710 70.0 299 
 BRR  HN ES   1    2 9 41.28                             152    0.79 7 70.0 299 
 BRR  HZ I         2 9 46.65        13.4 0.10            150           70.0 299 
 PAM  SZ EP   1    2 9 25.80                             150    0.30 7 78.1  40 
 PAM  SN ES   1    2 9 42.75                             150    0.16 7 78.1  40 
 RUS  HZ EP   1    2 9 26.93                             143   -0.11 7  101 175 
 RUS  HN ES   1    2 9 44.79                             143   -0.54 7  101 175 
 RUS  HZ I         2 9 46.48         4.5 0.24            143            101 175 
 PTB  HZ EP   1    2 9 29.74                             131   -0.44 7  147 259 
 PTB  HN ES   1    2 9 50.65                             131   -0.27 7  147 259 
 PTB  HZ I         2 9 53.82        11.1 0.26            130            147 259 
 TAM  HZ EP   1    2 9 31.18                             130    0.06 7  156 105 
 OCA  HE ES   1    2 9 52.52                             129   -0.96 7  160 354 
 SML  HE ES   1    210  8.25                             117   -0.08 6  243 336 
 CHI  HZ EP   1    2 9 41.22                             116    0.14 6  248 195 
 CHI  HN ES   1    210 10.55                             116    0.22 6  248 195 
 CHI  HZ I         210 17.40         2.7 0.46            117            248 195 
                                                                                
