 2014  419 0257  9.3 L   6.810 -73.138141.7  RSN  5 0.3 1.5LRSN                1
 GAP=184        0.80       3.6     5.2  8.6 -0.8243E+00  0.1102E+02  0.1301E+01E
 Epicentro: LOS SANTOS - SANTANDER                                             3
 ACTION:UPD 14-05-13 23:09 OP:nd   STATUS:               ID:20140419025709 L   I
 OLDACT:DUP 14-04-19 16:36 OP:stll STATUS:               ID:20140419024806d    3
 2014-04-19-0248-05M.COL___233                                                 6
 STAT SP IPHASW D HRMM SECON CODA AMPLIT PERI AZIMU VELO AIN AR TRES W  DIS CAZ7
 RUS  HZ EP        257 32.74                             143   -0.0110  102 177 
 RUS  HN ES        257 51.03                             143    0.0110  102 177 
 RUS  HZ I         257 52.61         4.7 0.36            147            102 177 
 PTB  HZ EP        257 35.87                             131   -0.19 9  149 258 
 PTB  HE ES        257 56.45                             131   -0.46 9  149 258 
 PTB  HZ I         257 57.62         5.4 0.12            133            149 258 
 OCA  HN ES        257 59.23                             129    0.23 9  159 353 
 OCA  HZ I         258  5.56         3.4 0.18            129            159 353 
 SPBC HZ EP        257 37.49                             128   -0.16 9  165 219 
 NOR  HZ EP        257 44.95                             117   -0.02 8  236 234 
 NOR  HN ES        258 13.56                             117    0.80 8  236 234 
 NOR  HZ I         258 17.93         3.3 0.26            120            236 234 
                                                                                
