 2010  419 0924 22.1 L   6.829 -73.063141.4  RSN 10 0.6 2.5LRSN                1
 GAP=147        1.26       6.1     8.8  8.6 -0.2740E+02 -0.1374E+02  0.1832E+02E
 Epicentro: LOS SANTOS - SANTANDER                                             3
 ACTION:UP  10-08-24 09:59 OP:vdl  STATUS:               ID:20100419092421 L   I
 2010-04-19-0922-09S.COL___100                                                 6
 STAT SP IPHASW D HRMM SECON CODA AMPLIT PERI AZIMU VELO AIN AR TRES W  DIS CAZ7
 BAR2 SZ IP        924 41.24                             168    -0.110   29 207 
 BAR2 SZ ES   1    924 55.83                             168    -0.5 7   29 207 
 BRR  HZ IP     C  924 43.51                             149     0.310   78 293 
 BRR  HN ES        925  0.31                             149     0.710   78 293 
 BRR  HZ I         925  4.90        56.9 0.87                            78 293 
 OCA  SZ EP        924 49.68                             129    -0.2 9  158 350 
 OCA  SZ ES   1    925 10.87                             129    -0.7 7  158 350 
 OCA  SZ I         925 12.84        74.8 1.28                           158 350 
 CHI  HE ES   3    925 28.90                             116    -1.0 2  254 197 
 ROSC BZ EP        925  1.61                             115     0.8 8  260 212 
 ROSC BN ES   1    925 31.17                             115     0.2 6  260 212 
 ROSC BZ I         925 36.23        12.8 0.54                           260 212 
 HEL  HZ EP   1    925  3.56                             113     0.4 6  282 256 
 HEL  HN ES   1    925 33.82                             113    -1.4 6  282 256 
 HEL  HZ I         925 41.57        17.2 0.46                           282 256 
 RREF BZ EP        925  9.58                             109     0.5 7  331 230 
 RREF BN ES        925 45.58                             109    -0.2 7  331 230 
 RREF BZ I         925 50.57        11.1 0.18                           331 230 
 SDV  BZ IP     D  925 10.95                             108     0.0 6  351  50 
 SDV  BZ I         925 11.70        19.6 0.09                           351  50 
 TOL  SZ EP   1    925 11.08                             108    -0.1 5  352 225 
 PRA  HZ EP   1    925 15.71                             105    -0.6 4  399 210 
 PRA  HN ES   1    925 57.35                             105    -1.3 4  399 210 
 PRA  HZ I         926  3.34         9.9 0.45                           399 210 
                                                                                
