 2010  819 0719 32.0 L   6.770 -73.117141.0  RSN  8 0.4 1.7LRSN                1
 GAP=162        0.94       4.5     8.6  7.5 -0.1605E+02 -0.3417E-01  0.3388E+01E
 Epicentro: LOS SANTOS - SANTANDER                                             3
 ACTION:UP  10-09-07 10:56 OP:vdl  STATUS:               ID:20100819071931 L   I
 2010-08-19-0715-42S.COL___117                                                 6
 STAT SP IPHASW D HRMM SECON CODA AMPLIT PERI AZIMU VELO SNR AR TRES W  DIS CAZ7
 BAR2 SZ ES   1    720  5.64                             171    -0.2 8   21 200 
 BAR2 SZ I         720  8.39        13.3 0.71                            21 200 
 BRR  HZ EP   1    719 52.54                             150    -0.3 8   76 300 
 BRR  HE ES   1    720  8.98                             150    -0.2 8   76 300 
 BRR  HZ I         720 11.89         9.5 0.12                            76 300 
 RUS  HZ EP   1    719 54.66                             144    -0.3 8   97 178 
 RUS  HN ES   1    720 13.26                             144     0.3 8   97 178 
 RUS  HZ I         720 14.76         5.6 0.36                            97 178 
 GUE  SZ EP   1    719 55.69                             138    -0.8 8  119  10 
 GRA  SZ IP        719 57.48                             135     0.510  128  16 
 GRA  SZ ES   1    720 16.86                             135     0.4 7  128  16 
 GRA  SZ I         720 18.21         4.4 0.31                           128  16 
 CHI  HZ EP   1    720  9.01                             116    -0.1 6  246 196 
 CHI  HN ES   2    720 37.95                             116    -0.2 4  246 196 
 CHI  HZ I         720 42.70         2.3 0.59                           246 196 
 RREF HN ES   1    720 54.59                             110     0.8 5  322 230 
 RREF HZ I         721  4.85         3.5 0.72                           322 230 
 PRA  HZ EP   1    720 25.23                             106     0.1 5  391 210 
 PRA  HN ES   2    721  6.66                             106     0.0 3  391 210 
 PRA  HZ I         721 12.18         1.7 0.54                           391 210 
                                                                                
