 2017 1119 0638 53.5 L   6.751 -73.155142.7  RSN  5 0.2 1.3LRSN                1
 GAP=112        0.46       4.0     2.0  6.4 -0.1729E+00  0.1007E+01  0.1576E+02E
 Epicentro: LOS SANTOS - SANTANDER                                             3
 ACTION:UPD 17-12-12 19:57 OP:rebc STATUS:               ID:20171119063853 L   I
 OLDACT:UP  17-11-19 18:58 OP:leo  STATUS:               ID:20171119062741     3
 OLDACT:REG 17-11-19 14:09 OP:leo  STATUS:               ID:20171119062741     3
 2017-11-19-0628-00M.COL___456                                                 6
 STAT SP IPHASW D HRMM SECON CODA AMPLIT PERI AZIMU VELO AIN AR TRES W  DIS CAZ7
 BAR2 EZ EP        639 12.93                             173    0.2210 17.8 190 
 BAR2 EZ I         639 36.66         6.8 0.48            157           17.8 190 
 PAM  EZ EP        639 15.89                             149    0.1510 82.3  38 
 PAM  EN ES        639 32.94                             149   -0.1210 82.3  38 
 PAM  EZ I         639 33.60         3.0 0.18            156           82.3  38 
 PTB  HZ EP        639 20.12                             132    0.03 9  146 261 
 PTB  HN ES        639 40.82                             132    0.03 9  146 261 
 PTB  HZ I         639 45.64         1.6 0.36            132            146 261 
 YPLC HZ EP        639 22.48                             127   -0.23 9  173 150 
 ZAR  HN ES        639 50.99                             121   -0.16 9  205 294 
                                                                                
