 2012  119 0424 49.7 L   6.782 -73.139138.8  RSN 10 0.4 1.5LRSN                1
 GAP=138        0.90       5.0     5.4  7.1 -0.1649E+01  0.8813E+01  0.3798E+01E
 Epicentro: LOS SANTOS - SANTANDER                                             3
 ACTION:UP  12-02-03 08:18 OP:REBC STATUS:               ID:20120119042449 L   I
 2012-01-19-0420-00M.COL___187                                                 6
 STAT SP IPHASW D HRMM SECON CODA AMPLIT PERI AZIMU VELO SNR AR TRES W  DIS CAZ7
 BAR2 SZ EP   1    425  7.75                             171    -0.8 7   22 193 
 BAR2 SZ ES   1    425 22.81                             171    -0.3 7   22 193 
 BAR2 SZ I         425 24.97         9.6 0.18                            22 193 
 BRR  HZ EP   1    425 10.40                             151     0.2 7   73 300 
 BRR  HN ES   1    425 27.19                             151     1.0 7   73 300 
 BRR  HZ I         425 28.93         9.8 0.15                            73 300 
 PAM  SZ EP   1    425 11.34                             149     0.0 7   78  38 
 PAM  SN ES   1    425 28.07                             149     0.0 7   78  38 
 PAM  SZ I         425 30.32         5.1 0.41                            78  38 
 RUS  HZ EP   1    425 12.69                             143     0.0 7   99 176 
 RUS  HN ES   1    425 30.85                             143     0.3 7   99 176 
 RUS  HZ I         425 32.89         4.2 0.23                            99 176 
 PTB  HZ EP   1    425 16.29                             130     0.1 7  148 260 
 PTB  HN ES   2    425 36.15                             130    -0.7 5  148 260 
 PTB  HZ I         425 37.72                                            148 260 
 OCA  SZ EP   1    425 17.75                             128     0.0 7  162 353 
 ZAR  HN ES   2    425 46.22                             121    -0.8 4  205 293 
 CHI  HZ EP   1    425 26.84                             116     0.0 6  247 195 
 HEL  HN ES   1    426  0.55                             113    -0.2 6  272 256 
 PRA  HZ EP   1    425 43.32                             106     0.4 4  391 210 
                                                                                
