 2014 1119 0232 43.5 L   6.784 -73.177155.4  RSN 10 0.4 1.6LRSN                1
 GAP=133        1.10       4.0     4.6  6.1 -0.1182E+01  0.9904E+01  0.6499E+00E
 Epicentro: LOS SANTOS - SANTANDER                                             3
 ACTION:UPD 14-12-19 15:44 OP:nd   STATUS:               ID:20141119023243 L   I
 OLDACT:REG 14-11-19 13:45 OP:fm   STATUS:               ID:20141119022745     3
 2014-11-19-0227-45M.COL___283                                                 6
 STAT SP IPHASW D HRMM SECON CODA AMPLIT PERI AZIMU VELO AIN AR TRES W  DIS CAZ7
 BAR2 SZ EP        233  4.35                             172    0.1110 21.3 182 
 BAR2 SZ ES        233 20.24                             172   -0.1910 21.3 182 
 BAR2 SZ I         233 20.67         8.1 0.30            168           21.3 182 
 BRR  HZ EP        233  6.44                             155    0.8610 69.1 301 
 BRR  HE ES        233 23.60                             155    0.8010 69.1 301 
 BRR  HZ I         233 26.09         5.6 0.34            153           69.1 301 
 PAM  SZ EP        233  7.16                             151    0.2210 80.9  41 
 PAM  SN ES        233 24.60                             151   -0.6410 80.9  41 
 PAM  SZ I         233 26.78         6.9 0.40            157           80.9  41 
 RUS  HZ EP        233  8.28                             146    0.1810 99.2 174 
 RUS  HE ES        233 26.79                             146   -0.5110 99.2 174 
 RUS  HZ I         233 28.24         2.3 0.32            146           99.2 174 
 PTB  HZ EP        233 10.83                             135   -0.11 9  144 259 
 PTB  HN ES        233 32.32                             135   -0.03 9  144 259 
 PTB  HZ I         233 36.97         6.8 0.18            134            144 259 
 SPBC HZ EP        233 12.92                             132    0.49 9  160 218 
 SPBC HE ES        233 34.56                             132   -0.44 9  160 218 
 SPBC HZ I         233 42.61         9.8 0.18            131            160 218 
 CHI  HZ EP   1    233 21.50                             119    0.03 6  246 194 
 CHI  HN ES        233 51.26                             119    0.17 8  246 194 
 CHI  HZ I         233 58.85         2.7 0.22            120            246 194 
 HEL  HZ EP        233 23.39                             117   -0.41 8  268 256 
 HEL  HN ES        233 55.23                             117   -0.01 8  268 256 
 HEL  HZ I         234  3.79         3.9 0.36            117            268 256 
 CBOC HZ EP        233 30.23                             112   -0.16 7  330 252 
 MON  HZ EP        233 31.90                             110   -0.79 6  352 309 
 MON  HN ES        234 10.52                             110   -0.56 6  352 309 
 MON  HZ I         234 12.70         1.6 0.66            111            352 309 
                                                                                
