 2011  419 0625 44.9 L   6.763 -73.119148.6  RSN  9 0.4 2.0LRSN                1
 GAP=164        1.01       7.7     8.2  6.9 -0.4305E+02  0.5396E+01  0.3458E+00E
 Epicentro: LOS SANTOS - SANTANDER                                             3
 ACTION:UP  11-06-22 15:31 OP:REBC STATUS:               ID:20110419062544 L   I
 2011-04-19-0621-12S.COL___138                                                 6
 STAT SP IPHASW D HRMM SECON CODA AMPLIT PERI AZIMU VELO SNR AR TRES W  DIS CAZ7
 BAR2 SZ EP        626  4.76                             172     0.010   20 200 
 BAR2 SZ I         626  5.02        23.2 0.17                            20 200 
 BAR2 SZ ES   1    626 19.88                             172    -0.4 7   20 200 
 GIR2 SZ EP        626  5.16                             166     0.210   36 347 
 GIR2 SZ ES   1    626 20.84                             166     0.1 7   36 347 
 BRR  HZ EP        626  6.79                             152     0.210   76 300 
 BRR  HN ES   1    626 24.19                             152     0.7 7   76 300 
 BRR  HZ I         626 26.24        33.1 0.07                            76 300 
 PAM  SZ EP        626  7.70                             151     0.210   79  36 
 PAM  SN ES   1    626 24.96                             151    -0.1 7   79  36 
 PAM  SZ I         626 26.93         9.8 0.34                            79  36 
 BRI  SZ EP        626  9.44                             141     0.210  111  19 
 GRA  SZ EP        626 10.62                             137     0.010  129  16 
 GRA  SZ ES   1    626 30.07                             137    -0.6 7  129  16 
 GRA  SZ I         626 31.85        20.5 0.33                           129  16 
 OCA  SZ EP        626 13.20                             129    -0.6 9  165 352 
 OCA  SZ I         626 38.49        11.9 0.14                           165 352 
 NOR  SZ EP        626 21.09                             119     0.3 8  235 236 
 NOR  SN ES   1    626 47.79                             119    -1.0 6  235 236 
 HEL  HN ES   2    626 56.87                             115    -0.2 4  274 257 
 HEL  HZ I         627  3.42         5.8 0.35                           274 257 
                                                                                
