 2012  519 0723 15.7 L   6.742 -73.164146.7  RSN  4 0.3 2.2LRSN                1
 GAP=231        0.53       9.8    12.1  7.2  0.8985E+02 -0.2530E+02 -0.2540E+02E
 Epicentro: VILLANUEVA - SANTANDER                                             3
 ACTION:UP  12-07-05 12:06 OP:pat  STATUS:               ID:20120519072315 L   I
 2012-05-19-0720-00M.COL___200                                                 6
 STAT SP IPHASW D HRMM SECON CODA AMPLIT PERI AZIMU VELO SNR AR TRES W  DIS CAZ7
 BAR2 SZ EP        723 35.25                             172    -0.110   17 187 
 BAR2 SZ ES   1    723 50.34                             172    -0.3 7   17 187 
 BAR2 SZ I         723 51.28        22.2 0.34                            17 187 
 BRR  HZ EP        723 37.11                             152     0.110   73 304 
 BRR  HZ I         723 37.13        40.2 0.14                            73 304 
 BRR  HN ES   1    723 53.78                             152     0.1 7   73 304 
 RUS  HN ES   2    723 57.84                             145     0.5 5   94 175 
 PTB  HN ES   3    724  2.80                             132    -0.5 2  145 261 
                                                                                
