 2010  819 0409 26.9 L   6.810 -73.085139.2  RSN 12 0.5 2.1LRSN                1
 GAP=165        1.05       3.8     7.1  7.3 -0.1046E+02  0.6139E+00  0.6051E+01E
 Epicentro: LOS SANTOS - SANTANDER                                             3
 ACTION:UP  10-09-07 10:56 OP:vdl  STATUS:               ID:20100819040926 L   I
 2010-08-19-0408-32S.COL___117                                                 6
 STAT SP IPHASW D HRMM SECON CODA AMPLIT PERI AZIMU VELO SNR AR TRES W  DIS CAZ7
 BAR2 SZ EP   1    4 9 45.74                             169    -0.1 7   26 204 
 BAR2 SZ ES   2    410  0.34                             169    -0.2 5   26 204 
 GIR2 SZ EP   1    4 9 45.85                             166     0.0 7   32 338 
 BRR  HZ EP        4 9 47.55                             149    -0.110   77 295 
 BRR  HN ES        410  4.37                             149     0.510   77 295 
 BRR  HZ I         410  8.83        43.3 0.09                            77 295 
 RUS  HZ EP   1    4 9 49.88                             142    -0.2 7  101 180 
 RUS  HN ES   1    410  7.87                             142    -0.3 7  101 180 
 RUS  HZ I         410  9.79        12.1 0.38                           101 180 
 GUE  SZ EP        4 9 50.78                             138     0.010  114   9 
 GUE  SZ I         410  2.60         6.9 0.09                           114   9 
 GRA  SZ IP        4 9 51.60                             136     0.310  123  15 
 GRA  SZ ES   1    410 10.73                             136     0.4 7  123  15 
 GRA  SZ I         410 11.98        16.2 0.29                           123  15 
 OCA  SZ EP        4 9 54.24                             128    -0.5 9  160 351 
 OCA  SZ ES   1    410 15.74                             128    -0.6 7  160 351 
 OCA  SZ I         410 17.34        25.7 0.17                           160 351 
 CHI  HZ EP   1    410  5.07                             115     0.5 6  251 197 
 CHI  HZ I         410  6.65         5.3 0.82                           251 197 
 CHI  HN ES   1    410 33.16                             115    -0.8 6  251 197 
 ROSC BZ EP   1    410  6.00                             115     0.8 6  257 212 
 ROSC BZ I         410 41.85         7.0 0.39                           257 212 
 HEL  HZ EP   1    410  7.62                             113     0.1 6  279 256 
 HEL  HN ES   2    410 37.62                             113    -1.6 4  279 256 
 HEL  HZ I         410 45.01         9.2 0.33                           279 256 
 RREF HZ EP        410 14.09                             109     0.7 7  328 230 
 RREF HE ES   1    410 50.10                             109     0.4 5  328 230 
 RREF HZ I         410 56.00         5.6 0.22                           328 230 
 PRA  HZ EP   1    410 20.26                             105    -0.4 4  396 210 
 PRA  HN ES   1    411  2.00                             105    -0.7 4  396 210 
 PRA  HZ I         411  7.89         5.4 0.76                           396 210 
                                                                                
