 2011 1219 0302 45.6 L   6.761 -73.114142.8  RSN  5 0.2 1.9LRSN                1
 GAP=142        0.40       2.9     4.4  4.3  0.1885E+01  0.2758E+01  0.1118E+01E
 Epicentro: LOS SANTOS - SANTANDER                                             3
 ACTION:UPD 12-07-13 16:17 OP:ep   STATUS:               ID:20111219030245 L   I
 2011-12-19-0300-00M.COL___188                                                 6
 STAT SP IPHASW D HRMM SECON CODA AMPLIT PERI AZIMU VELO AIN AR TRES W  DIS CAZ7
 BAR2 SZ EP        3 3  4.70                             172   -0.1410 20.1 202 
 BAR2 SZ ES   1    3 3 19.56                             172   -0.26 7 20.1 202 
 BAR2 SZ I         3 3 21.00         9.7 0.94                          20.1 202 
 GIR2 SZ EP   2    3 3  5.30                             165    0.21 5 36.2 346 
 BRR  HZ EP        3 3  6.75                             150   -0.0110 76.4 300 
 BRR  HE ES   1    3 3 23.38                             150    0.13 7 76.4 300 
 BRR  HE I         3 3 25.47        23.5 0.23                          76.4 300 
 PAM  SN ES   1    3 3 24.82                             150    0.07 7 78.7  36 
 RUS  HZ EP   1    3 3  8.77                             144    0.01 7 96.1 178 
 RUS  HN ES   1    3 3 27.03                             144    0.22 7 96.1 178 
                                                                                
