 2011  219 0123 57.0 L   6.131 -73.747103.2  RSN 10 0.4 2.3LRSN                1
 GAP= 82        0.89       3.2     3.4  8.0 -0.4185E+01  0.1252E+02 -0.6115E+01E
 Epicentro: LANDAZURI - SANTANDER                                              3
 ACTION:UP  11-03-28 15:09 OP:jfem STATUS:               ID:20110219012357 L   I
 2011-02-19-0120-27S.COL___137                                                 6
 STAT SP IPHASW D HRMM SECON CODA AMPLIT PERI AZIMU VELO SNR AR TRES W  DIS CAZ7
 RUS  HZ EP        124 14.84                             140    -0.110   78 110 
 RUS  HE ES   1    124 28.65                             140    -0.3 7   78 110 
 RUS  HZ I         124 31.25        39.5 0.28                            78 110 
 BAR2 SZ IP        124 14.82                             139     0.010   81  51 
 BAR2 SZ ES   1    124 28.75                             139     0.1 7   81  51 
 BAR2 SZ I         124 29.96       213.6 0.36                            81  51 
 BTL  SZ IP        124 16.61                             132     0.010  102  31 
 NOR  SZ EP        124 19.46                             122    -0.6 9  139 243 
 NOR  SN ES   1    124 38.59                             122     0.5 7  139 243 
 CHI  HZ EP        124 22.88                             117    -0.5 9  166 179 
 CHI  HE ES   1    124 44.35                             117     0.4 7  166 179 
 CHI  HZ I         124 49.51        12.4 0.34                           166 179 
 YOP  SZ IP        124 23.57                             116     0.1 9  170 120 
 GRA  SZ EP        124 29.78                             109     0.7 8  220  28 
 GRA  SZ ES   2    124 53.98                             109    -0.2 4  220  28 
 GRA  SZ I         124 57.07        16.2 0.30                           220  28 
 RREF HZ EP        124 30.39                             109     0.3 8  223 233 
 RREF HN ES   1    124 56.37                             109     0.5 6  223 233 
 RREF HZ I         124 59.99        22.9 0.31                           223 233 
 OCA  SZ EP        124 30.97                             107    -0.2 8  238  11 
 OCA  SZ ES   2    124 58.25                             107     0.5 4  238  11 
 OCA  SZ I         125  4.00        17.6 0.49                           238  11 
 DBB  SZ EP        124 37.09                             103     0.0 7  289 290 
 DBB  SZ ES   1    125  7.95                             103    -0.5 5  289 290 
                                                                                
