 2017  219 0739  3.5 L   6.748 -73.143140.6  RSN 11 0.4 2.0LRSN                1
 GAP=139        0.92       3.2     3.7  5.3 -0.3854E+00  0.6385E+01  0.3483E+01E
 Epicentro: LOS SANTOS - SANTANDER                                             3
 ACTION:UPD 17-05-24 15:37 OP:jn   STATUS:               ID:20170219073903 L   I
 OLDACT:REG 17-02-19 12:46 OP:edw  STATUS:               ID:20170219073741     3
 2017-02-19-0738-00M.COL___352                                                 6
 STAT SP IPHASW D HRMM SECON CODA AMPLIT PERI AZIMU VELO AIN AR TRES W  DIS CAZ7
 BAR2 EZ IP        739 22.55                             172    0.1210 17.7 194 
 BAR2 EZ ES        739 36.97                             172   -0.2110 17.7 194 
 BAR2 EZ I         739 39.37        25.2 0.32            168           17.7 194 
 BRR  HZ EP        739 24.38                             150    0.0710 74.3 302 
 BRR  HN ES        739 40.59                             150    0.0810 74.3 302 
 BRR  HZ I         739 46.28        23.9 0.26            142           74.3 302 
 PAM  EZ EP        739 25.22                             148   -0.2510 81.8  37 
 PAM  EN ES        739 42.35                             148   -0.2410 81.8  37 
 PAM  EZ I         739 44.50        16.0 0.40            146           81.8  37 
 RUS  HZ EP        739 26.47                             144    0.1110 94.8 176 
 RUS  HN ES        739 44.66                             144    0.5010 94.8 176 
 RUS  HZ I         739 46.33        11.2 0.28            139           94.8 176 
 PTB  HZ EP        739 29.57                             131   -0.44 9  147 261 
 PTB  HN ES        739 50.69                             131    0.03 9  147 261 
 PTB  HZ I         739 52.11        16.0 0.16            123            147 261 
 ZAR  HZ EP        739 36.19                             121    0.29 8  207 294 
 ZAR  HN ES        740  1.49                             121    0.34 8  207 294 
 ZAR  HZ I         740  7.59        26.7 0.30            114            207 294 
 NOR  HZ EP        739 38.38                             118   -0.25 8  232 236 
 NOR  HN ES        740  6.13                             118    0.13 8  232 236 
 NOR  HZ I         740 14.37        13.0 0.26            111            232 236 
 CHI  HZ EP        739 40.69                             117    0.35 8  243 196 
 CHI  HN ES        740  9.49                             117    0.43 8  243 196 
 CHI  HZ I         740 19.61         4.8 0.44            111            243 196 
 ROSC BZ EP   4    739 43.40                             116    2.56 0  248 212 
 ROSC BN ES        740  8.68                             116   -1.27 8  248 212 
 ROSC BZ I         740 16.01        12.3 0.45            110            248 212 
 PTGC HZ EP   4    739 45.42                             111   -1.11 0  303 158 
 PTGC HN ES   4    740 16.89                             111   -3.19 0  303 158 
 PTGC HZ I         740 21.10         5.5 0.30            107            303 158 
 CBOC HZ EP        739 50.29                             109    0.23 7  332 253 
 CBOC HZ I         740 38.76         2.2 0.50            104            332 253 
                                                                                
