 2015  519 0430 50.9 L   6.799 -73.057149.7  RSN  5 0.2 1.6LRSN                1
 GAP=192        0.53       2.3     5.3  4.9 -0.8324E+00 -0.2322E+01  0.1470E+01E
 Epicentro: LOS SANTOS - SANTANDER                                             3
 ACTION:UPD 15-09-10 22:05 OP:cam  STATUS:               ID:20150519043050 L   I
 OLDACT:REG 15-05-19 12:46 OP:spq  STATUS:               ID:20150519042749     3
 2015-05-19-0427-49M.COL___288                                                 6
 STAT SP IPHASW D HRMM SECON CODA AMPLIT PERI AZIMU VELO AIN AR TRES W  DIS CAZ7
 BAR2 EZ EP        431 11.06                             169   -0.0110 26.8 211 
 BAR2 EZ ES   1    431 26.52                             169   -0.29 7 26.8 211 
 BAR2 EZ I         431 28.80         6.6 0.30            169           26.8 211 
 BRR  HZ EP        431 13.26                             150    0.2810 80.0 295 
 BRR  HN ES        431 30.40                             150    0.1910 80.0 295 
 BRR  HZ I         431 33.18         3.9 0.12            148           80.0 295 
 RUS  HZ EP   1    431 15.17                             145    0.16 7  100 182 
 RUS  HE ES   1    431 34.00                             145    0.18 7  100 182 
 RUS  HZ I         431 34.75         2.4 0.30            148            100 182 
 OCA  HN ES        431 41.87                             130   -0.23 9  162 350 
 OCA  HZ I         431 49.68        11.2 0.50            130            162 350 
 SPBC HZ EP        431 20.07                             129   -0.22 9  169 222 
 SPBC HE ES        431 43.07                             129   -0.15 9  169 222 
 SPBC HZ I         431 47.91         6.7 0.12            130            169 222 
                                                                                
