 2012  419 0630 23.8 L   6.668 -73.642102.2  RSN  5 0.2 1.4LRSN                1
 GAP=160        0.45       2.7     2.6  4.5  0.3279E+01  0.3312E+01  0.1133E+01E
 Epicentro: EL CARMEN DE CHUCURI - SANTANDER                                   3
 ACTION:UPD 12-07-05 11:54 OP:tino STATUS:               ID:20120419063023 L   I
 2012-04-19-0630-00M.COL___187                                                 6
 STAT SP IPHASW D HRMM SECON CODA AMPLIT PERI AZIMU VELO AIN AR TRES W  DIS CAZ7
 BRR  HZ EP        630 38.74                             152    -0.310   49 351 
 BRR  HE ES   1    630 50.78                             152    -0.1 7   49 351 
 BRR  HZ I         630 52.86         8.8 0.12                            49 351 
 BAR2 SZ EP        630 39.57                             151     0.110   52  99 
 BAR2 SZ ES   1    630 51.97                             151     0.2 7   52  99 
 BAR2 SZ I         630 53.16        12.7 0.15                            52  99 
 RUS  HZ EP   1    630 44.19                             130     0.1 7  106 144 
 RUS  HN ES   1    630 59.78                             130    -0.1 7  106 144 
 RUS  HZ I         631  3.13         2.9 0.38                           106 144 
 PAM  SZ EP   1    630 46.28                             124     0.0 7  128  54 
 PAM  SN ES   1    631  3.78                             124     0.1 7  128  54 
 ZAR  HZ EP   1    630 49.28                             117     0.1 7  162 304 
 ZAR  HN ES   1    631  9.24                             117     0.2 7  162 304 
                                                                                
