 2015  119 0313 45.1 L   6.849 -73.331130.4  RSN  6 0.4 1.5LRSN                1
 GAP=149        0.97       4.1     4.7  7.2  0.2120E+01  0.6963E+01 -0.8595E+01E
 Epicentro: BETULIA - SANTANDER                                                3
 ACTION:UPD 15-03-02 15:40 OP:nd   STATUS:               ID:20150119031345 L   I
 OLDACT:REG 15-01-19 12:44 OP:carl STATUS:               ID:20150119030739     3
 2015-01-19-0307-39M.COL___256                                                 6
 STAT SP IPHASW D HRMM SECON CODA AMPLIT PERI AZIMU VELO AIN AR TRES W  DIS CAZ7
 BAR2 EZ EP        314  3.65                             165    0.5110 32.9 150 
 BAR2 EZ ES        314 16.79                             165   -0.4210 32.9 150 
 BAR2 EZ I         314 17.90         8.6 0.24            170           32.9 150 
 BRR  HZ EP        314  3.91                             157    0.4210 50.8 304 
 BRR  HN ES        314 18.25                             157    0.4210 50.8 304 
 RUS  HN ES        314 26.03                             138    0.0510  109 165 
 PTB  HZ EP        314  8.82                             132   -0.2910  129 255 
 PTB  HE ES        314 27.35                             132   -0.4910  129 255 
 PTB  HZ I         314 30.84         3.9 0.22            132            129 255 
 OCA  HZ EP        314 11.10                             127   -0.51 9  154   0 
 OCA  HN ES        314 32.09                             127   -0.20 9  154   0 
 OCA  HZ I         314 35.60         4.4 0.18            128            154   0 
 ZAR  HZ EP        314 14.62                             122    0.25 9  183 293 
 ZAR  HN ES        314 37.40                             122    0.20 9  183 293 
 ZAR  HZ I         314 43.20         2.8 0.54            122            183 293 
                                                                                
