 2010  219 0442 39.8 L   6.865 -73.128153.3  RSN  7 0.3 2.1LRSN                1
 GAP=200        0.60       3.5     8.2  8.5 -0.4666E+00  0.4196E+02 -0.1704E+01E
 Epicentro: LOS SANTOS - SANTANDER                                             3
 ACTION:UP  10-08-24 09:49 OP:vdl  STATUS:               ID:20100219044239 L   I
 2010-02-19-0440-00S.COL___093                                                 6
 STAT SP IPHASW D HRMM SECON CODA AMPLIT PERI AZIMU VELO SNR AR TRES W  DIS CAZ7
 BAR2 SZ IP        443  0.55                             168     0.010   31 192 
 BAR2 SZ ES   2    443 16.54                             168    -0.1 5   31 192 
 OCA  SZ EP        443  8.27                             133     0.2 9  153 352 
 OCA  SZ I         443 38.77        19.8 0.19                           153 352 
 CHI  HZ IP        443 18.58                             118    -0.2 8  256 195 
 CHI  HN ES   2    443 49.37                             118     0.2 4  256 195 
 CHI  HZ I         443 53.84         4.6 0.30                           256 195 
 HEL  HZ EP   2    443 21.52                             116     0.7 4  276 254 
 DBB  SZ EP        443 28.27                             111     0.5 7  341 273 
 MON  HZ EP        443 28.27                             110    -0.5 6  350 307 
 MON  HE ES   2    444  6.51                             110    -0.4 3  350 307 
 MON  HZ I         444 25.78         2.5 0.72                           350 307 
 PRA  HZ EP   1    443 34.31                             107    -0.2 4  399 209 
 PRA  HN ES   1    444 16.75                             107    -0.3 4  399 209 
 PRA  HZ I         444 21.82         5.7 0.29                           399 209 
                                                                                
