 2013  319 0909 54.5 L   6.787 -73.140149.9  RSN  8 0.4 1.9LRSN                1
 GAP=138        0.78       4.2     4.3  6.7  0.1156E+01  0.4175E+00 -0.2628E+00E
 Epicentro: LOS SANTOS - SANTANDER                                             3
 ACTION:UPD 13-04-09 14:03 OP:ep   STATUS:               ID:20130319090954 L   I
 2013-03-19-0908-53M.COL___208                                                 6
 STAT SP IPHASW D HRMM SECON CODA AMPLIT PERI AZIMU VELO AIN AR TRES W  DIS CAZ7
 BAR2 SZ EP        910 14.57                             171   -0.0310 22.0 192 
 BAR2 SZ I         910 31.30        16.6 0.20            174           22.0 192 
 BRR  HN ES   1    910 33.83                             153    0.77 7 72.4 299 
 BRR  HN I         910 35.17        15.9 0.18            148           72.4 299 
 PAM  SZ EP        910 17.53                             151    0.3410 78.1  39 
 PAM  SN ES   2    910 34.38                             151   -0.52 5 78.1  39 
 PAM  SN I         910 35.12         9.0 0.38            148           78.1  39 
 RUS  HZ EP        910 18.60                             145    0.0510 99.1 176 
 RUS  HN ES   1    910 37.04                             145   -0.28 7 99.1 176 
 RUS  HN I         910 37.93         4.9 0.36            147           99.1 176 
 PTB  HZ EP        910 21.52                             133   -0.31 9  148 259 
 PTB  HN ES        910 42.78                             133   -0.38 9  148 259 
 PTB  HN I         910 48.05        17.5 0.30            130            148 259 
 ZAR  HZ EP   1    910 27.41                             123    0.08 6  205 292 
 ZAR  HN ES   2    910 53.16                             123    0.22 4  205 292 
 ZAR  HN I         910 59.13         7.5 0.14            120            205 292 
 SML  HZ EP   1    910 31.23                             118   -0.29 6  245 335 
 SML  HN ES   2    910 59.55                             118   -0.86 4  245 335 
 SML  HN I         911 12.65        11.1 0.10            115            245 335 
 ROSC BZ EP        910 33.17                             118    0.43 8  252 211 
                                                                                
