 2010 1019 0306 36.3 L   6.771 -73.084143.5  RSN 12 0.4 2.8LRSN                1
 GAP=131        0.81       3.2     4.9  5.5 -0.6024E+01  0.4132E+01  0.1444E+00E
 Epicentro: LOS SANTOS - SANTANDER                                             3
 ACTION:UP  11-02-18 11:10 OP:tino STATUS:               ID:20101019030636 L   I
 2010-10-19-0303-52S.COL___123                                                 6
 STAT SP IPHASW D HRMM SECON CODA AMPLIT PERI AZIMU VELO SNR AR TRES W  DIS CAZ7
 BAR2 SZ IP        3 6 55.96                             171     0.310   23 209 
 BAR2 SZ ES   1    3 7 10.73                             171     0.0 7   23 209 
 BAR2 SZ I         3 7 11.83       139.8 0.14                            23 209 
 BRR  HZ IP     D  3 6 57.95                             150     0.310   79 298 
 BRR  HE ES   1    3 7 14.76                             150     0.4 7   79 298 
 BRR  HZ I         3 7 19.67       173.0 0.19                            79 298 
 RUS  HZ EP   1    3 6 59.83                             144     0.2 7   97 180 
 RUS  HE ES   1    3 7 17.62                             144    -0.1 7   97 180 
 RUS  HZ I         3 7 19.27        79.4 0.23                            97 180 
 GRA  SZ IP        3 7  1.07                             136    -0.410  127  14 
 GRA  SZ ES   1    3 7 20.67                             136    -0.4 7  127  14 
 GRA  SZ I         3 7 21.74       109.4 0.25                           127  14 
 OCA  SZ IP        3 7  4.74                             128    -0.1 9  164 351 
 OCA  SZ ES   1    3 7 26.97                             128    -0.1 7  164 351 
 OCA  SZ I         3 7 31.45       111.3 0.27                           164 351 
 NOR  SZ EP   2    3 7 11.99                             118    -0.3 4  239 236 
 NOR  SE ES   1    3 7 39.57                             118    -0.9 6  239 236 
 CHI  HZ EP   2    3 7 13.43                             117    -0.3 4  247 197 
 CHI  HZ I         3 7 16.61        21.3 0.50                           247 197 
 CHI  HN ES   2    3 7 43.03                             117     0.1 4  247 197 
 HEL  HZ EP   1    3 7 17.73                             114     0.7 6  278 257 
 HEL  HE ES   1    3 7 48.62                             114    -0.2 6  278 257 
 HEL  HZ I         3 7 55.00        23.1 0.39                           278 257 
 TOL  SZ EP   1    3 7 25.45                             109     0.7 5  346 226 
 DBB  SZ EP   1    3 7 24.50                             109     0.0 5  347 275 
 SDV  BZ EP   1    3 7 26.10                             108     0.2 5  357  49 
 SDV  BZ I         3 8  8.29        14.1 0.48                           357  49 
 PRA  HZ EP   1    3 7 29.77                             106    -0.1 4  393 211 
 PRA  HE ES   1    3 8 10.78                             106    -0.8 4  393 211 
 PRA  HZ I         3 8 18.19        62.6 0.25                           393 211 
                                                                                
