 2014  119 0336 22.0 L   6.818 -73.135150.4  RSN 15 0.5 1.9LRSN                1
 GAP= 71        1.03       2.7     3.2  5.2 -0.6379E-01  0.3423E+01  0.5081E+00E
 Epicentro: LOS SANTOS - SANTANDER                                             3
 ACTION:UPD 14-03-13 09:56 OP:ep   STATUS:               ID:20140119033622 L   I
 OLDACT:UP  14-01-19 08:23 OP:cam  STATUS:               ID:20140119033000     3
 OLDACT:REG 14-01-19 07:44 OP:cam  STATUS:               ID:20140119033000     3
 2014-01-19-0330-00M.COL___285                                                 6
 STAT SP IPHASW D HRMM SECON CODA AMPLIT PERI AZIMU VELO AIN AR TRES W  DIS CAZ7
 BAR2 SZ IP     C  336 42.04                             170   -0.2110 25.5 192 
 BAR2 SZ ES        336 57.64                             170   -0.3910 25.5 192 
 BAR2 SZ I         336 58.71        20.2 0.28            168           25.5 192 
 BRR  HZ EP     C  336 43.93                             153    0.2510 71.4 297 
 BRR  HN ES        337  1.36                             153    0.7810 71.4 297 
 BRR  HZ I         337  3.92         9.3 0.26            151           71.4 297 
 PAM  SZ EP   2    336 44.70                             152    0.10 5 75.1  40 
 PAM  SE ES        337  2.26                             152    0.0510 75.1  40 
 RUS  HZ EP        336 45.98                             144   -0.3810  102 177 
 RUS  HN ES        337  4.96                             144   -0.3910  102 177 
 RUS  HZ I         337  5.87         4.8 0.38            145            102 177 
 PTB  HZ EP        336 48.72                             133   -0.79 9  149 258 
 PTB  HE ES        337 10.22                             133   -0.73 9  149 258 
 PTB  HZ I         337 17.62        11.1 0.36            131            149 258 
 TAM  HZ EP        336 50.21                             132    0.20 9  154 106 
 TAM  HN ES        337 11.85                             132    0.01 9  154 106 
 OCA  HZ EP   1    336 51.00                             131    0.47 7  158 353 
 OCA  HN ES        337 12.98                             131    0.21 9  158 353 
 OCA  HZ I         337 16.69         8.5 0.48            132            158 353 
 SPBC HZ EP        336 51.00                             130   -0.09 9  165 219 
 SPBC HN ES        337 14.21                             130    0.44 9  165 219 
 SPBC HZ I         337 20.15        14.5 0.20            129            165 219 
 ZAR  HZ EP   1    336 54.65                             123   -0.16 6  204 292 
 ZAR  HE ES        337 20.60                             123    0.21 9  204 292 
 ZAR  HZ I         337 26.41        10.7 0.34            123            204 292 
 NOR  HZ EP        336 58.29                             119    0.04 8  237 234 
 NOR  HE ES        337 26.46                             119   -0.05 8  237 234 
 NOR  HZ I         337 33.14         6.0 0.34            119            237 234 
 SML  HZ EP        336 58.98                             118    0.20 8  242 335 
 SML  HN ES        337 27.01                             118   -0.44 8  242 335 
 SML  HZ I         337 31.87        10.0 0.10            119            242 335 
 CHI  HZ EP   1    337  0.12                             118   -0.10 6  251 195 
 CHI  HN ES        337 31.02                             118    1.01 8  251 195 
 CHI  HZ I         337 38.44         2.5 0.42            118            251 195 
 HEL  HZ EP   1    337  3.56                             115    0.90 6  274 255 
 GUY2CHZ EP   1    337  6.38                             113    0.30 5  303 235 
 SJC  HZ EP   1    337 16.65                             106   -0.98 4  408 327 
 SJC  HN ES   4    337 57.55                             106   -3.45 0  408 327 
                                                                                
