 2012 1019 0817 13.0 L   6.693 -73.196153.2  RSN  5 0.2 1.4LRSN                1
 GAP=223        0.49       4.6     4.3  5.4  0.6020E+01  0.6196E+01  0.4585E+01E
 Epicentro: VILLANUEVA - SANTANDER                                             3
 ACTION:UPD 12-11-22 17:04 OP:ep   STATUS:               ID:20121019081713 L   I
 2012-10-19-0810-00M.COL___231                                                 6
 STAT SP IPHASW D HRMM SECON CODA AMPLIT PERI AZIMU VELO AIN AR TRES W  DIS CAZ7
 BAR2 SZ EP   1    817 33.23                             176   -0.10 7 11.2 172 
 BAR2 SZ I         817 33.57         5.6 0.12                          11.2 172 
 BAR2 SZ ES   1    817 49.10                             176   -0.11 7 11.2 172 
 BRR  HZ EP   1    817 34.88                             153   -0.16 7 73.1 309 
 BRR  HE ES   1    817 52.58                             153    0.32 7 73.1 309 
 BRR  HZ I         817 54.85         3.4 0.11                          73.1 309 
 RUS  HZ EP   1    817 36.77                             148    0.05 7 89.4 172 
 ZAR  HZ EP   1    817 46.25                             124    0.36 6  204 296 
 ZAR  HN ES   1    818 11.17                             124   -0.39 6  204 296 
 NOR  HE ES   1    818 15.29                             121    0.05 6  223 236 
                                                                                
