 2012  919 0212 51.1 L   6.774 -73.170146.1  RSN  6 0.5 1.6LRSN                1
 GAP=135        0.93       6.2     5.4  9.6  0.1343E+01  0.2197E+01 -0.6649E+01E
 Epicentro: LOS SANTOS - SANTANDER                                             3
 ACTION:UPD 12-10-22 14:19 OP:ep   STATUS:               ID:20120919021251 L   I
 2012-09-19-0210-00M.COL___226                                                 6
 STAT SP IPHASW D HRMM SECON CODA AMPLIT PERI AZIMU VELO AIN AR TRES W  DIS CAZ7
 BAR2 SZ ES   1    213 26.08                             172    0.02 7 20.1 184 
 BAR2 SZ I         213 28.75        13.1 0.38                          20.1 184 
 BRR  HZ EP   1    213 12.76                             153    0.48 7 70.3 302 
 BRR  HZ I         213 15.13         6.6 0.32                          70.3 302 
 BRR  HN ES   1    213 29.58                             153    0.81 7 70.3 302 
 PAM  SZ EP        213 13.62                             150   -0.0210 81.4  40 
 PAM  SN ES   1    213 30.76                             150   -0.43 7 81.4  40 
 PAM  SN I         213 31.99        10.7 0.24                          81.4  40 
 PAM  SZ I         213 32.91         4.0 0.52                          81.4  40 
 RUS  HZ EP   1    213 15.02                             145    0.28 7 97.9 174 
 RUS  HE ES   1    213 32.77                             145   -0.38 7 97.9 174 
 RUS  HZ I         213 35.17         2.3 0.42                          97.9 174 
 PTB  HN ES   1    213 38.59                             133   -0.09 7  145 260 
 PTB  HN I         213 43.45         5.3 0.22                           145 260 
 ZAR  HE ES   1    213 47.77                             123   -0.91 6  203 293 
 ZAR  HZ I         213 58.27         4.5 0.46                           203 293 
                                                                                
