 2013 1119 0428 14.0 L   6.853 -73.217138.3  RSN  5 0.3 1.2LRSN                1
 GAP=125        0.60       3.1     3.2  7.8 -0.3824E+00  0.5577E+01  0.3095E+01E
 Epicentro: ZAPATOCA - SANTANDER                                               3
 ACTION:UPD 14-01-09 16:29 OP:ep   STATUS:               ID:20131119042814 L   I
 OLDACT:REG 13-11-19 07:17 OP:mh   STATUS:               ID:20131119042000     3
 2013-11-19-0420-00M.COL___279                                                 6
 STAT SP IPHASW D HRMM SECON CODA AMPLIT PERI AZIMU VELO AIN AR TRES W  DIS CAZ7
 PAM  SZ EP   1    428 35.73                             149    0.20 8 78.5  47 
 PAM  SN ES   1    428 52.41                             149    0.11 8 78.5  47 
 PAM  SZ I         428 55.03         4.9 0.51            154           78.5  47 
 RUS  HZ EP        428 37.73                             140    0.1610  107 172 
 RUS  HE ES   1    428 55.80                             140   -0.12 7  107 172 
 RUS  HZ I         428 57.85         0.9 0.20            144            107 172 
 PTB  HZ EP        428 39.55                             131   -0.2710  141 256 
 PTB  HN ES        428 59.82                             131   -0.1110  141 256 
 PTB  HZ I         429  3.80         4.0 0.11            136            141 256 
 OCA  HN ES   1    429  1.91                             129   -0.39 7  154 356 
 ZAR  HN ES   1    429  9.79                             122    0.60 7  195 291 
                                                                                
