 2016 1219 0350 37.6 L   6.708 -73.169149.9  RSN  4 0.4 1.1LRSN                1
 GAP=228        0.95       7.6     7.2  7.7  0.2683E+02  0.5760E+01  0.1210E+01E
 Epicentro: VILLANUEVA - SANTANDER                                             3
 ACTION:UPD 17-01-11 20:16 OP:rebc STATUS:               ID:20161219035037 L   I
 OLDACT:REG 16-12-19 13:01 OP:cog  STATUS:               ID:20161219034742     3
 2016-12-19-0348-00M.COL___330                                                 6
 STAT SP IPHASW D HRMM SECON CODA AMPLIT PERI AZIMU VELO AIN AR TRES W  DIS CAZ7
 BAR2 EZ EP        350 56.86                             175   -0.6710 12.9 187 
 BAR2 EZ ES        351 12.93                             175   -0.1710 12.9 187 
 BAR2 EZ I         351 13.15         2.9 0.23            175           12.9 187 
 BRR  HZ EP        350 59.35                             152    0.0110 74.5 306 
 BRR  HE ES        351 16.76                             152    0.4310 74.5 306 
 RUS  HZ EP        351  1.31                             147    0.2610 90.7 174 
 RUS  HN ES        351 19.57                             147    0.2010 90.7 174 
 PTB  HZ EP        351  4.83                             134    0.33 9  144 263 
 PTB  HN ES        351 25.10                             134   -0.41 9  144 263 
                                                                                
