 2010  919 0514 49.9 L   6.784 -73.181149.9  RSN  7 0.4 1.9LRSN                1
 GAP=155        1.01       4.6    11.0  9.8 -0.9759E+01 -0.1583E+02  0.4107E+01E
 Epicentro: LOS SANTOS - SANTANDER                                             3
 ACTION:UP  11-02-18 11:03 OP:tino STATUS:               ID:20100919051449 L   I
 2010-09-19-0512-37S.COL___121                                                 6
 STAT SP IPHASW D HRMM SECON CODA AMPLIT PERI AZIMU VELO SNR AR TRES W  DIS CAZ7
 BTL  SZ EP        515 10.12                             173     0.110   18 327 
 BRR  HZ EP        515 11.34                             154    -0.110   69 301 
 BRR  HZ I         515 11.63        35.5 0.14                            69 301 
 BRR  HN ES   1    515 28.46                             154     0.3 7   69 301 
 RUS  HZ EP        515 13.86                             145    -0.110   99 174 
 RUS  HE ES   1    515 32.28                             145    -0.5 7   99 174 
 GRA  SZ EP        515 16.31                             137     0.510  129  19 
 GRA  SZ ES   1    515 36.07                             137     0.1 7  129  19 
 GRA  SZ I         515 40.65         6.0 0.63                           129  19 
 OCA  SZ EP        515 17.96                             130    -0.7 9  162 355 
 OCA  SZ I         515 44.52        10.2 0.24                           162 355 
 NOR  HE ES   3    515 52.22                             120    -1.0 2  231 234 
 CHI  HZ EP        515 27.97                             118     0.4 8  246 194 
 CHI  HE ES   2    515 57.48                             118     0.5 4  246 194 
 CHI  HZ I         516  3.44         3.4 0.29                           246 194 
                                                                                
