 2013  419 0205 22.7 L   6.754 -73.167145.6  RSN  6 0.4 1.5LRSN                1
 GAP=136        0.88       5.4     5.5  6.5 -0.3441E+01  0.3782E+01  0.5934E+01E
 Epicentro: LOS SANTOS - SANTANDER                                             3
 ACTION:UPD 13-05-22 14:39 OP:EP   STATUS:               ID:20130419020522 L   I
 2013-04-19-0200-00M.COL___250                                                 6
 STAT SP IPHASW D HRMM SECON CODA AMPLIT PERI AZIMU VELO AIN AR TRES W  DIS CAZ7
 BAR2 SZ EP        2 5 42.02                             173   -0.1510 17.9 186 
 BAR2 SZ ES   1    2 5 57.14                             173   -0.26 7 17.9 186 
 BAR2 SZ I         2 5 59.69        11.3 0.28            173           17.9 186 
 GIR2 SZ EP        2 5 42.48                             165    0.0310 36.1 355 
 GIR2 SZ ES        2 5 57.67                             165   -0.2210 36.1 355 
 GIR2 SZ I         2 5 59.06         5.3 0.52            167           36.1 355 
 BRR  HZ IP     D  2 5 44.14                             152    0.3210 71.8 303 
 BRR  HN ES   1    2 6  1.23                             152    0.89 7 71.8 303 
 BRR  HZ I         2 6  3.04         7.2 0.32            154           71.8 303 
 PAM  SZ EP        2 5 45.27                             149    0.0810 82.8  39 
 PAM  SN ES   1    2 6  2.37                             149   -0.39 7 82.8  39 
 PAM  SZ I         2 6  3.94         3.2 0.18            152           82.8  39 
 RUS  HZ EP        2 5 46.42                             145    0.3810 95.7 174 
 RUS  HE ES   1    2 6  4.42                             145    0.13 7 95.7 174 
 RUS  HZ I         2 6  5.93         4.0 0.28            147           95.7 174 
 PTB  HZ EP        2 5 48.73                             133   -0.59 9  145 261 
 PTB  HN ES   1    2 6  9.85                             133   -0.27 7  145 261 
 PTB  HZ I         2 6 10.42         5.5 0.50            135            145 261 
                                                                                
