 2012  819 0202 30.2 L   6.701 -73.191158.7  RSN  7 0.3 1.6LRSN                1
 GAP=135        0.71       3.8     4.5  8.0  0.3233E+01 -0.4926E+01 -0.8786E+00E
 Epicentro: VILLANUEVA - SANTANDER                                             3
 ACTION:UPD 12-09-10 11:57 OP:ep   STATUS:               ID:20120819020230 L   I
 2012-08-19-0200-00M.COL___217                                                 6
 STAT SP IPHASW D HRMM SECON CODA AMPLIT PERI AZIMU VELO AIN AR TRES W  DIS CAZ7
 BAR2 SZ EP   1    2 2 50.89                             175   -0.36 7 12.1 176 
 BAR2 SZ I         2 2 51.25        11.2 0.20                          12.1 176 
 BRR  HZ EP   1    2 2 52.98                             154    0.10 7 73.0 308 
 BRR  HZ I         2 2 53.45        11.7 0.11                          73.0 308 
 BRR  HN ES        2 3 10.52                             154   -0.0310 73.0 308 
 PAM  SZ EP   1    2 2 53.88                             149   -0.63 7 89.0  38 
 PAM  SZ I         2 3 13.55         5.2 0.28                          89.0  38 
 RUS  HZ EP   1    2 2 54.96                             149    0.37 7 90.2 172 
 RUS  HN ES   1    2 3 13.65                             149    0.06 7 90.2 172 
 RUS  HZ I         2 3 14.93         2.6 0.32                          90.2 172 
 PTB  HZ EP   1    2 2 58.12                             136    0.42 7  141 263 
 PTB  HN ES   1    2 3 19.12                             136   -0.01 7  141 263 
 OCA  HN ES        2 3 24.52                             131    0.38 9  171 355 
 ZAR  HN ES        2 3 29.20                             125   -0.30 9  204 296 
                                                                                
