 2010  919 0528 20.0 L   6.383 -73.633106.0  RSN  6 0.3 1.4LRSN                1
 GAP=117        0.78       4.0     7.7 15.1 -0.6048E+01  0.3558E+02 -0.2256E+02E
 Epicentro: SANTA HELENA DEL OPON - SANTANDER                                  3
 ACTION:UP  11-02-18 11:03 OP:tino STATUS:               ID:20100919052820 L   I
 2010-09-19-0524-43S.COL___121                                                 6
 STAT SP IPHASW D HRMM SECON CODA AMPLIT PERI AZIMU VELO SNR AR TRES W  DIS CAZ7
 BTL  SZ EP        528 37.94                             144     0.510   72  34 
 BRR  HZ EP        528 37.58                             140    -0.210   81 354 
 RUS  HZ EP        528 38.28                             141    -0.210   82 132 
 RUS  HZ I         528 38.81         6.9 0.32                            82 132 
 RUS  HN ES   2    528 52.58                             141    -0.3 5   82 132 
 NOR  HN ES   2    529  5.98                             118    -0.1 5  164 237 
 CHI  HZ EP   2    528 49.51                             114    -0.1 4  194 183 
 CHI  HN ES   1    529 13.01                             114     0.3 6  194 183 
 CHI  HZ I         529 16.60         1.9 0.36                           194 183 
 OCA  SZ EP        528 50.60                             112    -0.3 8  208  10 
 OCA  SZ I         529 20.37         3.8 0.06                           208  10 
                                                                                
