 2017  919 0803  4.1 L   6.785 -73.111148.3  RSN  9 0.2 2.0LRSN                1
 GAP=142        0.67       2.7     3.2  4.2 -0.7089E+00  0.4381E+01  0.7705E+00E
 Epicentro: LOS SANTOS - SANTANDER                                             3
 ACTION:UPD 17-10-05 19:14 OP:rebc STATUS:               ID:20170919080304 L   I
 OLDACT:UP  17-09-19 15:06 OP:leo  STATUS:               ID:20170919075736     3
 OLDACT:REG 17-09-19 13:11 OP:and  STATUS:               ID:20170919075736     3
 2017-09-19-0758-00M.COL___428                                                 6
 STAT SP IPHASW D HRMM SECON CODA AMPLIT PERI AZIMU VELO AIN AR TRES W  DIS CAZ7
 BAR2 EZ EP        8 3 23.83                             171   -0.1610 22.8 200 
 BAR2 EZ ES        8 3 39.12                             171   -0.4210 22.8 200 
 BAR2 EZ I         8 3 40.25        22.4 0.32            166           22.8 200 
 BRR  HZ EP        8 3 25.69                             152   -0.0410 75.3 298 
 BRR  HN ES        8 3 43.06                             152    0.4410 75.3 298 
 BRR  HZ I         8 3 45.28        12.1 0.36            151           75.3 298 
 PAM  EZ EP        8 3 26.77                             152    0.2810 76.3  37 
 PAM  EN ES        8 3 43.80                             152   -0.1810 76.3  37 
 PAM  EZ I         8 3 45.90        14.1 0.48            158           76.3  37 
 RUS  HZ EP        8 3 27.80                             145   -0.1410 98.8 178 
 RUS  HN ES        8 3 47.01                             145    0.4410 98.8 178 
 RUS  HZ I         8 3 49.85         6.7 0.18            144           98.8 178 
 SPBC HZ EP        8 3 32.78                             129   -0.10 9  164 220 
 SPBC HN ES        8 3 55.21                             129   -0.13 9  164 220 
 SPBC HZ I         8 4  3.81        15.1 0.14            128            164 220 
 YPLC HZ EP   4    8 3 34.09                             128    0.35 0  174 152 
 YPLC HE ES   4    8 3 59.08                             128    2.20 0  174 152 
 YPLC HZ I         8 4  0.71         7.4 0.26            129            174 152 
 ZAR  HZ EP        8 3 37.24                             122    0.13 8  208 292 
 ZAR  HN ES        8 4  2.66                             122   -0.21 8  208 292 
 ZAR  HZ I         8 4  7.88         9.3 0.24            123            208 292 
 NOR  HZ EP        8 3 40.21                             119    0.03 8  237 235 
 NOR  HN ES   1    8 4  8.38                             119    0.03 6  237 235 
 NOR  HZ I         8 4 14.12         9.7 0.32            119            237 235 
 ROSC BZ EP   4    8 3 44.76                             117    2.37 0  253 212 
 ROSC BN ES   4    8 4 16.55                             117    4.26 0  253 212 
 ROSC BZ I    4    8 4 21.67        16.6 0.40            117            253 212 
 HEL  HZ EP   4    8 3 45.27                             115    0.49 0  275 256 
 HEL  HN ES   4    8 4 21.35                             115    4.82 0  275 256 
 HEL  HZ I         8 4 23.34         4.3 0.20            115            275 256 
                                                                                
