 2010  619 0325 55.1 L   7.394 -73.217131.6  RSN  6 0.4 1.6LRSN                1
 GAP=125        0.89       4.8     7.7  7.3 -0.1540E+02  0.5382E+01  0.1939E+01E
 Epicentro: EL PLAYON - SANTANDER                                              3
 ACTION:UP  10-08-24 10:11 OP:vdl  STATUS:               ID:20100619032555 L   I
 2010-06-19-0323-49S.COL___118                                                 6
 STAT SP IPHASW D HRMM SECON CODA AMPLIT PERI AZIMU VELO SNR AR TRES W  DIS CAZ7
 BRI  SZ IP        326 14.31                             155     0.010   58  52 
 BRI  SZ ES   1    326 29.36                             155     0.1 7   58  52 
 GUE  SZ IP        326 15.05                             155     0.610   58  34 
 GUE  SZ ES   1    326 30.05                             155     0.5 7   58  34 
 BRR  HZ IP     D  326 14.08                             153    -0.210   63 240 
 BRR  HE ES   1    326 29.24                             153     0.0 7   63 240 
 BRR  HZ I         326 30.80        16.4 0.16                            63 240 
 GRA  SZ IP        326 14.72                             150    -0.210   71  40 
 GRA  SZ ES   1    326 29.50                             150    -0.9 7   71  40 
 BAR2 SZ IP        326 16.16                             144    -0.110   89 178 
 BAR2 SZ ES   1    326 32.76                             144     0.0 7   89 178 
 OCA  SZ IP        326 16.43                             142    -0.110   94 353 
 OCA  SZ ES   1    326 33.23                             142     0.0 7   94 353 
 OCA  SZ I         326 41.07         5.2 0.53                            94 353 
                                                                                
