 2010  819 0717 19.1 L   6.757 -73.041140.4  RSN  6 0.5 1.6LRSN                1
 GAP=171        1.48       7.2    12.2 15.5 -0.2695E+02 -0.5325E+02  0.1321E+02E
 Epicentro: ARATOCA - SANTANDER                                                3
 ACTION:UP  10-09-07 10:56 OP:vdl  STATUS:               ID:20100819071719 L   I
 2010-08-19-0715-42S.COL___117                                                 6
 STAT SP IPHASW D HRMM SECON CODA AMPLIT PERI AZIMU VELO SNR AR TRES W  DIS CAZ7
 BRR  HZ EP        717 39.75                             148    -0.710   84 298 
 BRR  HZ I         717 40.02        18.2 0.04                            84 298 
 BRR  HN ES        717 57.24                             148     0.210   84 298 
 RUS  HZ EP        717 42.29                             144     0.310   96 183 
 RUS  HN ES   1    717 59.50                             144    -0.3 7   96 183 
 RUS  HZ I         718  1.87         2.8 0.30                            96 183 
 GUE  SZ EP        717 42.95                             137    -0.610  119   6 
 GUE  SZ I         717 44.41         2.5 0.24                           119   6 
 GRA  SZ EP        717 44.68                             135     0.710  127  12 
 GRA  SZ ES   1    718  3.69                             135     0.3 7  127  12 
 GRA  SZ I         718  9.09         3.7 0.29                           127  12 
 RREF HN ES   1    718 42.88                             109     0.9 5  328 231 
 RREF HZ I         718 50.64         1.9 0.07                           328 231 
 PRA  HE ES   2    718 53.53                             105    -0.9 3  394 211 
 PRA  HZ I         718 57.85         2.1 0.43                           394 211 
                                                                                
