 2013 1019 0712 40.1 L   6.770 -73.138149.1  RSN  7 0.3 1.7LRSN                1
 GAP=139        0.84       4.0     4.3  5.6 -0.4217E+01  0.2774E+01  0.2932E+01E
 Epicentro: LOS SANTOS - SANTANDER                                             3
 ACTION:UPD 13-11-25 09:22 OP:ep   STATUS:               ID:20131019071240 L   I
 OLDACT:UP  13-10-19 09:38 OP:cam  STATUS:               ID:20131019070835     3
 OLDACT:REG 13-10-19 08:24 OP:cam  STATUS:               ID:20131019070835     3
 2013-10-19-0708-35M.COL___211                                                 6
 STAT SP IPHASW D HRMM SECON CODA AMPLIT PERI AZIMU VELO AIN AR TRES W  DIS CAZ7
 BAR2 SZ EP        712 59.95                             172   -0.0810 20.2 194 
 BAR2 SZ ES        713 15.19                             172   -0.4210 20.2 194 
 BAR2 SZ I         713 16.48        15.1 0.20            172           20.2 194 
 BRR  HZ EP        713  1.82                             152    0.1210 73.6 300 
 BRR  HN ES        713 19.26                             152    0.6710 73.6 300 
 BRR  HZ I         713 23.11         9.1 0.26            152           73.6 300 
 PAM  SZ EP        713  2.88                             151    0.1310 79.5  37 
 PAM  SN ES        713 20.24                             151   -0.2110 79.5  37 
 PAM  SZ I         713 21.80         8.1 0.58            153           79.5  37 
 RUS  HZ EP        713  3.85                             145   -0.0510 97.2 176 
 RUS  HN ES        713 22.77                             145    0.2810 97.2 176 
 RUS  HZ I         713 23.89         3.4 0.36            148           97.2 176 
 PTB  HZ EP        713  6.76                             133   -0.56 9  148 260 
 PTB  HN ES        713 28.28                             133   -0.31 9  148 260 
 PTB  HZ I         713 30.92         5.1 0.14            134            148 260 
 SPBC HZ EP        713  8.85                             130    0.23 9  161 220 
 SPBC HN ES        713 30.99                             130    0.09 9  161 220 
 SPBC HZ I         713 32.69         9.1 0.22            132            161 220 
 CHI  HZ EP   2    713 18.05                             118    0.43 4  246 196 
                                                                                
