 2015  319 0208 29.7 L   6.830 -73.223147.9  RSN  4 0.6 1.0LRSN                1
 GAP=149        1.47       9.2     8.6 12.5 -0.2433E+02  0.2832E+02 -0.1145E+02E
 Epicentro: ZAPATOCA - SANTANDER                                               3
 ACTION:UPD 15-04-30 16:27 OP:nd   STATUS:               ID:20150319020829 L   I
 OLDACT:DUP 15-03-19 14:38 OP:stll STATUS:               ID:20150319015737d    3
 2015-03-19-0157-36M.COL___281                                                 6
 STAT SP IPHASW D HRMM SECON CODA AMPLIT PERI AZIMU VELO AIN AR TRES W  DIS CAZ7
 BAR2 EZ EP        2 8 50.05                             169    0.4010 26.7 170 
 BAR2 EZ ES        2 9  4.92                             169   -0.3010 26.7 170 
 BAR2 EZ I         2 9  6.38         2.2 0.24            169           26.7 170 
 PAM  SZ EP        2 8 52.99                             150    0.6610 80.7  46 
 PAM  SN ES        2 9  9.65                             150   -0.3510 80.7  46 
 RUS  HZ EP        2 8 54.00                             143    0.0410  105 172 
 RUS  HN ES        2 9 12.90                             143    0.0110  105 172 
 RUS  HZ I         2 9 14.45         1.0 0.38            144            105 172 
 PTB  HZ EP        2 8 54.94                             134   -1.21 9  140 257 
 PTB  HN ES        2 9 17.48                             134    0.68 9  140 257 
 PTB  HZ I         2 9 19.44         2.4 0.60            134            140 257 
                                                                                
