 2011  519 0529 14.8 L   5.990 -73.206 29.8  RSN  5 0.5 1.6LRSN                1
 GAP=115        0.98       8.5    12.7  9.6 -0.6625E+02  0.9372E+02 -0.6166E+02E
 Epicentro: GAMBITA - SANTANDER                                                3
 ACTION:UP  11-06-29 08:54 OP:tino STATUS:               ID:20110519052914 L   I
 2011-05-19-0526-50S.COL___141                                                 6
 STAT SP IPHASW D HRMM SECON CODA AMPLIT PERI AZIMU VELO SNR AR TRES W  DIS CAZ7
 RUS  HZ EP        529 20.57                             152    -0.410   17 128 
 RUS  HE ES   2    529 26.25                             152     0.5 5   17 128 
 RUS  HZ I         529 31.22        53.9 0.79                            17 128 
 BAR2 SZ EP   1    529 26.87                             106     0.4 7   67   2 
 BAR2 SZ I         529 28.14        30.1 0.56                            67   2 
 BRR  HZ EP   1    529 34.34                              61    -0.6 7  136 336 
 PAM  SZ EP   1    529 38.18                              61    -0.3 7  159  21 
 PAM  SN ES   2    529 57.68                              61     0.8 5  159  21 
 RREF HZ EP        529 52.38                              60     0.4 8  266 243 
                                                                                
