 2016  719 0535 59.0 L   6.751 -73.067147.7  RSN  4 0.2 1.5LRSN                1
 GAP=184        0.48       3.5     3.9  3.9 -0.8128E+01 -0.9044E+00  0.3565E+01E
 Epicentro: JORDAN - SANTANDER                                                 3
 ACTION:UPD 17-03-29 16:52 OP:lp   STATUS:               ID:20160719053559 L   I
 OLDACT:REG 16-07-19 12:58 OP:ar   STATUS:               ID:20160719052759     3
 2016-07-19-0527-59S.COL___328                                                 6
 STAT SP IPHASW D HRMM SECON CODA AMPLIT PERI AZIMU VELO AIN AR TRES W  DIS CAZ7
 BAR2 EZ EP        536 18.84                             171    0.0010 21.7 216 
 BAR2 EZ ES        536 34.13                             171   -0.1710 21.7 216 
 PAM  EZ EP        536 21.57                             151    0.1810 76.7  32 
 PAM  EN ES        536 38.88                             151    0.0410 76.7  32 
 PAM  EZ I         536 40.93         4.4 0.18            152           76.7  32 
 BRR  HZ EP        536 20.66                             150   -0.3010 81.4 299 
 BRR  HN ES        536 38.23                             150    0.1410 81.4 299 
 BRR  HZ I         536 41.58         4.0 0.16            148           81.4 299 
 SPBC HZ EP        536 27.80                             129    0.00 9  165 223 
 SPBC HN ES        536 50.40                             129    0.14 9  165 223 
 SPBC HZ I         536 51.77         6.1 0.14            130            165 223 
                                                                                
