 2011  319 0358 57.4 L   7.424 -73.230129.2  RSN  6 0.2 1.5LRSN                1
 GAP=131        0.42       2.9     4.8  5.0 -0.5625E+01 -0.1850E+01  0.1159E+01E
 Epicentro: EL PLAYON - SANTANDER                                              3
 ACTION:UP  11-06-16 14:34 OP:jfem STATUS:               ID:20110319035857 L   I
 2011-03-19-0353-22S.COL___135                                                 6
 STAT SP IPHASW D HRMM SECON CODA AMPLIT PERI AZIMU VELO SNR AR TRES W  DIS CAZ7
 GIR2 SZ EP   3    359 14.94                             163    -0.4 2   38 174 
 BTL  SZ EP   1    359 16.44                             155     0.2 7   56 184 
 BRR  HZ EP   1    359 16.46                             152     0.1 7   64 237 
 BRR  HN ES   1    359 31.10                             152     0.0 7   64 237 
 BRR  HZ I         359 32.83         8.6 0.05                            64 237 
 GRA  SZ EP   1    359 17.09                             150     0.2 7   69  43 
 GRA  SZ ES   1    359 32.04                             150    -0.1 7   69  43 
 GRA  SZ I         359 35.91         6.2 0.42                            69  43 
 OCA  SZ EP   2    359 17.90                             143    -0.4 5   91 354 
 OCA  SZ ES   2    359 34.71                             143     0.0 5   91 354 
 OCA  SZ I         359 41.37         3.3 0.55                            91 354 
 BAR2 SZ EP   1    359 18.40                             142    -0.2 7   92 177 
 BAR2 SZ ES   1    359 34.98                             142    -0.1 7   92 177 
 BAR2 SZ I         359 35.99         7.8 0.21                            92 177 
                                                                                
