 2015  419 0309 56.0 L   6.308 -73.732 97.3  RSN  6 0.2 1.2LRSN                1
 GAP=165        0.44       3.1     2.0  4.7  0.1770E+01  0.1682E+01  0.3821E+01E
 Epicentro: LANDAZURI - SANTANDER                                              3
 ACTION:UPD 15-06-03 16:55 OP:cam  STATUS:               ID:20150419030956 L   I
 OLDACT:REG 15-04-19 12:30 OP:spq  STATUS:               ID:20150419030749     3
 2015-04-19-0307-49M.COL___277                                                 6
 STAT SP IPHASW D HRMM SECON CODA AMPLIT PERI AZIMU VELO AIN AR TRES W  DIS CAZ7
 BAR2 EZ EP        310 12.39                             142    0.0910 68.4  63 
 BAR2 EZ ES   1    310 24.98                             142   -0.04 7 68.4  63 
 BAR2 EZ I         310 26.94         7.9 0.22            140           68.4  63 
 PTB  HZ EP        310 13.08                             136   -0.1810 84.1 288 
 PTB  HN ES        310 26.72                             136   -0.0010 84.1 288 
 PTB  HZ I         310 28.03         4.3 0.14            136           84.1 288 
 RUS  HZ EP   1    310 14.21                             136    0.20 7 85.2 123 
 BRR  HZ EP   1    310 13.41                             134   -0.20 7 88.4   1 
 BRR  HE ES        310 27.29                             134   -0.0510 88.4   1 
 BRR  HZ I         310 32.70         7.3 0.28            131           88.4   1 
 ZAR  HZ EP   1    310 22.98                             114   -0.18 7  181 317 
 ZAR  HN ES        310 44.66                             114    0.32 9  181 317 
 ZAR  HZ I         310 48.77         1.7 0.11            113            181 317 
 GUY2CHZ EP   4    310 29.63                             110    1.73 0  217 237 
 GUY2CHE ES   4    310 58.28                             110    5.49 0  217 237 
 GUY2CHZ I         311  0.45         1.1 0.48                           217 237 
                                                                                
