 2016  319 0751 38.0 L   6.772 -73.150142.4  RSN 18 0.5 2.2LRSN                1
 GAP= 65        0.93       2.8     2.5  5.1 -0.1164E+01  0.3904E+01  0.6853E-02E
 Epicentro: LOS SANTOS - SANTANDER                                             3
 ACTION:UPD 16-05-13 21:25 OP:cam  STATUS:               ID:20160319075138 L   I
 OLDACT:UP  16-03-29 21:25 OP:cam  STATUS:               ID:20160319075138 L   3
 OLDACT:UP  16-03-28 15:35 OP:Mher STATUS:               ID:20160319075138 L   3
 OLDACT:REG 16-03-19 12:58 OP:dnl  STATUS:               ID:20160319074740     3
 2016-03-19-0747-40M.COL___312                                                 6
 STAT SP IPHASW D HRMM SECON CODA AMPLIT PERI AZIMU VELO AIN AR TRES W  DIS CAZ7
 BAR2 EZ IP     C  751 57.36                             172    0.1810 20.2 190 
 BAR2 EZ ES        752 12.34                             172    0.2010 20.2 190 
 BAR2 EZ I         752 14.20        57.7 0.28            171           20.2 190 
 PAM  EZ IP     C  752  0.45                             149    0.4010 80.1  38 
 PAM  EN ES        752 17.45                             149    0.2210 80.1  38 
 PAM  EZ I         752 19.96        35.1 0.48            152           80.1  38 
 RUS  HZ EP        752  1.15                             144   -0.0710 97.5 176 
 RUS  HN ES        752 19.57                             144    0.2510 97.5 176 
 RUS  HZ I         752 20.85        29.6 0.34            146           97.5 176 
 PTB  HZ EP        752  3.91                             131   -0.70 9  147 260 
 PTB  HN ES        752 24.78                             131   -0.58 9  147 260 
 PTB  HZ I         752 29.19        32.1 0.14            131            147 260 
 TAM  HZ IP     D  752  5.58                             130    0.18 9  155 104 
 TAM  HN ES        752 26.35                             130   -0.42 9  155 104 
 SPBC HZ EP        752  6.02                             129    0.02 9  160 220 
 SPBC HN ES        752 27.84                             129    0.01 9  160 220 
 SPBC HZ I         752 30.38        18.9 0.12            130            160 220 
 OCA  HZ EP        752  6.00                             128   -0.36 9  163 353 
 OCA  HN ES        752 27.91                             128   -0.56 9  163 353 
 OCA  HZ I         752 34.41        42.9 0.18            130            163 353 
 ZAR  HZ EP        752 10.53                             122    0.21 9  205 293 
 ZAR  HE ES        752 36.02                             122    0.50 9  205 293 
 ZAR  HZ I         752 42.55        17.0 0.15            122            205 293 
 NOR  HZ EP   2    752 12.21                             118   -1.10 4  232 235 
 NOR  HE ES        752 41.09                             118    0.24 8  232 235 
 NOR  HZ I         752 48.15        13.9 0.16            119            232 235 
 HEL  HZ EP   2    752 18.98                             114    1.06 4  271 256 
 HEL  HN ES        752 49.49                             114    0.44 8  271 256 
 HEL  HZ I         752 56.92         7.1 0.38            115            271 256 
 URE  HZ EP   9    752 17.73                             113   -1.27 0  285 293 
 URE  HE ES        752 49.47                             113   -0.23 7  285 293 
 URE  HZ I         752 51.55        13.4 0.14            114            285 293 
 GUY2CHZ EP   2    752 22.02                             112    0.80 4  299 235 
 GUY2CHN ES   2    752 53.41                             112   -1.51 4  299 235 
 GUY2CHZ I         753  3.26         6.3 0.40                           299 235 
 SOCV BZ EP   4    752 19.57                             111   -1.58 0  303  56 
 SOCV BN ES   4    752 51.14                             111   -3.66 0  303  56 
 PTGC HZ EP   9 D  752 20.04                             111   -1.37 0  306 158 
 PTGC HN ES        752 53.09                             111   -0.80 7  306 158 
 PTGC HZ I         752 56.06         4.4 0.19            113            306 158 
 CBOC HZ EP        752 25.16                             109    0.53 7  332 253 
 CBOC HN ES        753  0.74                             109   -0.25 7  332 253 
 CBOC HZ I         753  4.26         3.3 0.32            110            332 253 
 MON  HZ EP   9    752 25.09                             108   -1.98 0  355 309 
 MON  HN ES        753  3.99                             108    0.64 6  355 309 
 MON  HZ I         753  4.95         4.5 0.24            109            355 309 
 ORTC HZ EP   2    752 31.23                             106   -0.26 3  393 216 
 ORTC HE ES        753 13.00                             106   -0.20 6  393 216 
 ORTC HZ I         753 19.81         2.7 0.40            107            393 216 
 PAL  HZ EP   2    752 33.16                             105    0.33 3  404 239 
 PAL  HN ES   4    753 13.15                             105   -2.43 0  404 239 
 PAL  HZ I         753 21.66         2.8 0.40            106            404 239 
 SJC  HZ EP   4    752 32.25                             105   -1.49 0  412 327 
 SJC  HE ES   4    753 12.36                             105   -4.85 0  412 327 
 SJC  HZ I         753 19.83         4.4 0.30            106            412 327 
                                                                                
