 2017 1119 0040 16.2 L   6.825 -73.109143.8  RSN 16 0.6 2.3LRSN                1
 GAP=108        1.34       4.7     3.7  7.2 -0.6928E+00  0.6628E+01  0.1078E+02E
 Epicentro: LOS SANTOS - SANTANDER                                             3
 ACTION:UPD 17-12-12 19:57 OP:rebc STATUS:               ID:20171119004016 L   I
 OLDACT:UP  17-11-19 14:37 OP:leo  STATUS:               ID:20171119003739     3
 OLDACT:REG 17-11-19 11:38 OP:leo  STATUS:               ID:20171119003739     3
 2017-11-19-0038-00M.COL___471                                                 6
 STAT SP IPHASW D HRMM SECON CODA AMPLIT PERI AZIMU VELO AIN AR TRES W  DIS CAZ7
 BAR2 EZ EP        040 35.51                             169   -0.1610 27.0 197 
 BAR2 EZ ES        040 50.36                             169   -0.5110 27.0 197 
 BAR2 EZ I         040 51.53        54.9 0.36            165           27.0 197 
 PAM  EZ EP        040 38.35                             152    0.4210 72.7  39 
 PAM  EN ES        040 55.34                             152    0.4610 72.7  39 
 PAM  EZ I         040 57.53        37.7 0.52            156           72.7  39 
 TAM  HZ EP        040 43.91                             130    0.48 9  152 106 
 TAM  HE ES        041  4.06                             130   -0.61 9  152 106 
 PTB  HZ EP        040 42.38                             130   -1.04 9  152 258 
 PTB  HE ES        041  4.18                             130   -0.47 9  152 258 
 SPBC HZ EP        040 45.78                             128    0.78 9  168 219 
 SPBC HN ES        041  7.18                             128   -0.28 9  168 219 
 SPBC HZ I         041  9.12        30.7 0.20            127            168 219 
 YPLC HZ EP        040 45.97                             126    0.06 9  177 153 
 YPLC HN ES        041  9.77                             126    0.68 9  177 153 
 YPLC HZ I         041 12.47        11.7 0.20            126            177 153 
 ZAR  HZ EP        040 49.49                             121    0.70 8  207 291 
 ZAR  HE ES        041 14.26                             121    0.04 8  207 291 
 ZAR  HZ I         041 19.97        18.3 0.16            123            207 291 
 NOR  HZ EP        040 52.03                             117   -0.31 8  240 234 
 NOR  HN ES        041 20.49                             117   -0.04 8  240 234 
 NOR  HZ I         041 23.50        14.2 0.26            118            240 234 
 CHI  HZ EP        040 53.83                             116   -0.37 8  252 196 
 CHI  HN ES        041 23.76                             116   -0.08 8  252 196 
 CHI  HZ I         041 30.09         9.2 0.48            116            252 196 
 ROSC BZ EP        040 55.28                             116    0.58 8  257 211 
 ROSC BN ES   4    041 26.20                             116    1.46 0  257 211 
 ROSC BZ I         041 33.15        16.6 0.45            116            257 211 
 GUY2CHZ EP        040 59.96                             111   -0.31 7  306 235 
 GUY2CHN ES        041 35.63                             111    0.98 7  306 235 
 GUY2CHZ I         041 41.85         9.0 0.64                           306 235 
 PTGC HZ EP        040 58.81                             111   -1.29 7  310 160 
 PTGC HN ES   4    041 32.11                             111   -2.24 0  310 160 
 PTGC HZ I         041 45.11         9.0 0.42            111            310 160 
 CBOC HZ EP        041  3.37                             109   -0.20 7  338 252 
 CBOC HE ES   4    041 32.41                             109   -8.11 0  338 252 
 CBOC HZ I         041 45.02         4.0 0.50            110            338 252 
 PRA  HZ EP        041  9.90                             106   -0.27 6  396 210 
 PRA  HN ES        041 52.33                             106    0.06 6  396 210 
 PRA  HZ I         041 56.61        11.2 0.30            106            396 210 
 ORTC HZ EP        041  9.80                             106   -0.79 6  400 216 
 ORTC HN ES        041 54.69                             106    1.67 6  400 216 
 ORTC HZ I         042  0.10         5.8 0.26            106            400 216 
 SJC  HZ EP   4    041  9.76                             105   -1.92 0  409 326 
 SJC  HN ES   4    041 51.47                             105   -3.48 0  409 326 
 SJC  HZ I         041 54.72         4.5 0.34            106            409 326 
                                                                                
