 2017  119 0908 58.9 L   5.855 -73.674130.0  RSN  7 0.2 1.3LRSN                1
 GAP=128        0.58       2.2     3.2  5.8  0.2580E+01  0.5566E+01  0.1319E+01E
 Epicentro: PUENTE NACIONAL - SANTANDER                                        3
 ACTION:UPD 17-05-22 16:01 OP:jn   STATUS:               ID:20170119090858 L   I
 OLDACT:UP  17-01-19 19:39 OP:dani STATUS:               ID:20170119090742     3
 OLDACT:UP  17-01-19 19:39 OP:dani STATUS:               ID:20170119090742     3
 OLDACT:UP  17-01-19 19:38 OP:dani STATUS:               ID:20170119090742     3
 OLDACT:UP  17-01-19 19:38 OP:dani STATUS:               ID:20170119090742     3
 OLDACT:REG 17-01-19 14:48 OP:dani STATUS:               ID:20170119090742     3
 2017-01-19-0908-00M.COL___321                                                 6
 STAT SP IPHASW D HRMM SECON CODA AMPLIT PERI AZIMU VELO AIN AR TRES W  DIS CAZ7
 RUS  HZ EP        9 9 18.87                             152    0.1210 65.5  86 
 RUS  HN ES        9 9 33.90                             152   -0.3210 65.5  86 
 RUS  HZ I         9 9 34.64         1.9 0.26            101           65.5  86 
 BAR2 EZ EP        9 9 20.95                             140    0.3610 98.0  34 
 BAR2 EZ I         9 9 47.28         6.7 0.16             56           98.0  34 
 PTB  HZ EP        9 9 21.33                             136   -0.3410  115 311 
 PTB  HN ES        9 9 39.55                             136    0.1310  115 311 
 PTB  HZ I         9 9 40.42         1.8 0.14             99            115 311 
 CHI  HZ EP        9 9 23.98                             131   -0.06 9  136 183 
 CHI  HN ES        9 9 43.77                             131    0.13 9  136 183 
 CHI  HZ I         9 9 49.22         1.1 0.19             56            136 183 
 BRR  HZ EP   4    9 9 27.78                             130    4.03 0  139 358 
 BRR  HN ES        9 9 43.15                             130    0.04 9  139 358 
 BRR  HZ I         9 9 44.87         9.1 0.31             56            139 358 
 PAM  EZ EP   4    9 9 27.91                             120   -2.27 0  196  33 
 PAM  EZ I         9 9 46.07         3.6 0.31             56            196  33 
 ZAR  HZ EP   3    9 9 31.75                             116   -0.73 2  223 324 
 ZAR  HN ES        9 9 58.63                             116   -0.04 8  223 324 
 ZAR  HZ I         910  3.81         2.7 0.20             56            223 324 
                                                                                
