 2014 1119 0336 33.5 L   7.415 -73.429121.1  RSN 10 0.5 1.6LRSN                1
 GAP= 88        1.21       3.4     4.6  7.3 -0.8000E+00  0.1323E+02  0.1769E+01E
 Epicentro: SABANA DE TORRES - SANTANDER                                       3
 ACTION:UPD 14-12-19 15:44 OP:nd   STATUS:               ID:20141119033633 L   I
 OLDACT:DUP 14-11-19 16:17 OP:fm   STATUS:               ID:20141119032742d    3
 2014-11-19-0327-41M.COL___282                                                 6
 STAT SP IPHASW D HRMM SECON CODA AMPLIT PERI AZIMU VELO AIN AR TRES W  DIS CAZ7
 BRR  HZ EP        336 51.30                             158    0.7010 46.2 223 
 BRR  HN ES        337  4.11                             158    0.1510 46.2 223 
 BRR  HZ I         337  5.38        14.4 0.18            154           46.2 223 
 PAM  SZ EP        336 53.79                             144    0.4210 80.9  96 
 PAM  SN ES        337  8.73                             144   -0.1610 80.9  96 
 PAM  SZ I         337 10.71         6.4 0.28            147           80.9  96 
 OCA  HZ EP        336 53.90                             140    0.1810 91.9   8 
 OCA  HN ES        337  9.32                             140   -0.1910 91.9   8 
 OCA  HZ I         337 11.23        16.9 0.30            142           91.9   8 
 BAR2 SZ EP        336 54.53                             139    0.4610 95.0 163 
 BAR2 SZ ES        337 10.15                             139    0.0010 95.0 163 
 BAR2 SZ I         337 10.57        14.7 0.12            139           95.0 163 
 PTB  HZ EP        336 58.23                             125   -0.46 9  149 230 
 PTB  HN ES        337 17.73                             125   -0.63 9  149 230 
 PTB  HZ I         337 20.93         3.4 0.12            124            149 230 
 RUS  HZ EP        337  0.84                             121   -0.86 9  173 167 
 RUS  HN ES        337 23.06                             121   -0.66 9  173 167 
 RUS  HZ I         337 25.22         1.8 0.28            121            173 167 
 SPBC HZ EP        337  4.52                             116   -0.40 8  208 200 
 SPBC HN ES        337 29.88                             116    0.43 8  208 200 
 SPBC HZ I         337 36.51         4.7 0.26            115            208 200 
 NOR  HZ EP        337 11.09                             110    0.39 8  259 218 
 NOR  HN ES        337 40.65                             110    0.91 8  259 218 
 NOR  HZ I         337 48.48         2.7 0.16            110            259 218 
 MON  HZ EP        337 14.33                             108    0.30 7  289 302 
 MON  HN ES        337 45.02                             108   -0.65 7  289 302 
 MON  HZ I         337 49.86         0.9 0.46            108            289 302 
 TOL  SZ EP   4    337 29.05                             103    4.29 0  377 214 
 TOL  SN ES   4    338  8.89                             103    4.12 0  377 214 
 TOL  SZ I         338 14.63         4.5 0.28            102            377 214 
                                                                                
