 2017  719 0228 56.3 L   6.864 -73.227146.6  RSN  4 0.4 1.3LRSN                1
 GAP=275        0.79       8.2     5.4  8.7  0.7578E+01  0.8456E+01  0.3468E+01E
 Epicentro: ZAPATOCA - SANTANDER                                               3
 ACTION:UPD 17-08-30 15:34 OP:rebc STATUS:               ID:20170719022856 L   I
 OLDACT:REG 17-07-19 12:43 OP:dnl  STATUS:               ID:20170719022745     3
 2017-07-19-0228-00M.COL___380                                                 6
 STAT SP IPHASW D HRMM SECON CODA AMPLIT PERI AZIMU VELO AIN AR TRES W  DIS CAZ7
 BAR2 EZ EP   2    229 16.74                             168    0.49 5 30.5 171 
 BAR2 EZ ES        229 31.90                             168    0.1310 30.5 171 
 BAR2 EZ I         229 32.31         5.8 0.32            160           30.5 171 
 RUS  HZ EP        229 20.95                             142    0.1710  109 172 
 RUS  HN ES        229 39.39                             142   -0.4410  109 172 
 RUS  HZ I         229 40.78         2.0 0.36            138            109 172 
 PTB  HZ EP   2    229 21.95                             134   -0.80 5  141 255 
 PTB  HN ES        229 43.18                             134   -0.17 9  141 255 
 PTB  HZ I         229 48.89         1.7 0.42            129            141 255 
 SPBC HN ES        229 47.65                             129    0.41 9  163 215 
 SPBC HZ I         229 55.37         2.8 0.22            125            163 215 
                                                                                
