 2017  819 0231 53.1 L   6.802 -73.128144.3  RSN  6 0.2 1.2LRSN                1
 GAP=139        0.40       2.6     3.5  4.3 -0.2178E+01  0.4560E+01 -0.4307E+01E
 Epicentro: LOS SANTOS - SANTANDER                                             3
 ACTION:UPD 17-09-04 20:21 OP:rebc STATUS:               ID:20170819023152 L   I
 OLDACT:UP  17-08-22 21:45 OP:nlst STATUS:               ID:20170819023152 L   3
 OLDACT:UP  17-08-19 13:52 OP:and  STATUS:               ID:20170819022740     3
 OLDACT:UP  17-08-19 13:52 OP:and  STATUS:               ID:20170819022740     3
 OLDACT:UP  17-08-19 13:50 OP:and  STATUS:               ID:20170819022740     3
 OLDACT:REG 17-08-19 12:24 OP:and  STATUS:               ID:20170819022740     3
 2017-08-19-0228-00M.COL___405                                                 6
 STAT SP IPHASW D HRMM SECON CODA AMPLIT PERI AZIMU VELO AIN AR TRES W  DIS CAZ7
 BAR2 EZ EP        232 12.32                             170   -0.2110 23.9 194 
 BAR2 EZ ES        232 27.57                             170   -0.1410 23.9 194 
 BAR2 EZ I         232 28.86         4.4 0.18            174           23.9 194 
 BRR  HZ EP        232 14.30                             152    0.1510 72.8 298 
 BRR  HN ES   3    232 31.31                             152    0.72 2 72.8 298 
 PAM  EZ IP     D  232 15.10                             151    0.0510 76.0  39 
 PAM  EN ES   1    232 32.22                             151    0.03 7 76.0  39 
 PAM  EZ I         232 39.09         2.6 0.34            151           76.0  39 
 RUS  HZ EP   3    232 16.81                             143    0.13 2  101 177 
 RUS  HN ES        232 35.20                             143    0.1110  101 177 
 RUS  HZ I         232 36.34         1.7 0.32            148            101 177 
 SPBC HN ES   2    232 43.90                             128    0.08 5  165 219 
 SPBC HZ I         232 46.23         3.2 0.28            133            165 219 
 ZAR  HN ES   2    232 50.69                             122   -0.27 4  206 292 
                                                                                
