 2012 1219 0258 14.0 L   6.751 -73.154147.1  RSN  5 0.3 1.9LRSN                1
 GAP=138        0.63       4.0     3.8  4.8 -0.3093E+00  0.1001E+01  0.1216E+01E
 Epicentro: LOS SANTOS - SANTANDER                                             3
 ACTION:UPD 13-01-04 14:28 OP:ep   STATUS:               ID:20121219025814 L   I
 2012-12-19-0250-00M.COL___243                                                 6
 STAT SP IPHASW D HRMM SECON CODA AMPLIT PERI AZIMU VELO AIN AR TRES W  DIS CAZ7
 BAR2 SZ EP        258 33.84                             173    0.1210 17.8 190 
 BAR2 SZ ES        258 49.09                             173    0.0110 17.8 190 
 BAR2 SZ I         258 50.51        17.8 0.44                          17.8 190 
 BRR  HZ EP        258 35.63                             152    0.2010 73.2 303 
 BRR  HZ I         258 35.96        15.5 0.23                          73.2 303 
 BRR  HE ES        258 52.48                             152    0.3610 73.2 303 
 PAM  SZ EP        258 36.56                             150   -0.1210 82.2  38 
 PAM  SZ I         258 36.76        16.1 0.29                          82.2  38 
 PAM  SN ES   1    258 53.93                             150   -0.41 7 82.2  38 
 RUS  HZ EP        258 37.71                             146    0.1810 95.2 175 
 RUS  HN ES   1    258 55.77                             146   -0.09 7 95.2 175 
 RUS  HN I         258 58.29         7.8 0.28                          95.2 175 
 PTB  HZ EP        258 40.67                             133   -0.26 9  146 261 
 PTB  HE ES   1    259  1.43                             133   -0.49 7  146 261 
 PTB  HZ I         259  7.69         8.5 0.41                           146 261 
                                                                                
