 2015 1119 0138 40.6 L   6.818 -73.096149.0  RSN 14 0.5 2.1LRSN                1
 GAP=123        1.14       3.0     4.4  5.7 -0.2014E+01  0.7008E+01  0.1462E+01E
 Epicentro: LOS SANTOS - SANTANDER                                             3
 ACTION:UPD 15-12-28 16:11 OP:cam  STATUS:               ID:20151119013840 L   I
 OLDACT:UP  15-11-19 14:41 OP:ak   STATUS:               ID:20151119013750     3
 OLDACT:REG 15-11-19 12:57 OP:ak   STATUS:               ID:20151119013750     3
 2015-11-19-0137-50M.COL___307                                                 6
 STAT SP IPHASW D HRMM SECON CODA AMPLIT PERI AZIMU VELO AIN AR TRES W  DIS CAZ7
 BAR2 EZ IP     C  139  0.68                             169   -0.0310 26.7 201 
 BAR2 EZ ES        139 16.47                             169    0.0910 26.7 201 
 PAM  EZ EP        139  3.51                             153    0.6110 72.4  37 
 PAM  EN ES        139 20.54                             153    0.2610 72.4  37 
 PAM  EZ I         139 22.77        20.5 0.50            155           72.4  37 
 BRR  HZ EP        139  2.48                             152    0.1310 75.1 295 
 BRR  HN ES        139 19.97                             152    0.6810 75.1 295 
 BRR  HZ I         139 23.24        16.3 0.24            148           75.1 295 
 RUS  HZ EP        139  4.55                             144   -0.2710  102 179 
 RUS  HE ES        139 23.64                             144   -0.0510  102 179 
 RUS  HZ I         139 24.07        10.0 0.44            147            102 179 
 OCA  HZ EP        139  9.56                             131    0.49 9  159 351 
 OCA  HN ES        139 30.34                             131   -0.92 9  159 351 
 OCA  HZ I         139 38.83        27.9 0.34            130            159 351 
 SPBC HZ EP        139  9.74                             129   -0.10 9  168 220 
 SPBC HN ES        139 31.80                             129   -0.83 9  168 220 
 ZAR  HZ EP        139 13.64                             123   -0.09 8  208 291 
 ZAR  HE ES        139 39.40                             123   -0.14 8  208 291 
 ZAR  HZ I         139 44.94        22.7 0.29            122            208 291 
 NOR  HZ EP        139 16.75                             119   -0.39 8  240 235 
 NOR  HE ES        139 45.14                             119   -0.48 8  240 235 
 NOR  HZ I         139 50.87         7.9 0.13            119            240 235 
 SML  HZ EP        139 17.34                             118   -0.15 8  244 334 
 SML  HE ES        139 45.43                             118   -0.81 8  244 334 
 HEL  HZ EP   1    139 22.58                             115    0.94 6  278 256 
 HEL  HE ES        139 54.05                             115    0.42 7  278 256 
 HEL  HZ I         140  0.60         5.4 0.38            115            278 256 
 URE  HZ EP   4    139 20.83                             114   -1.51 0  288 291 
 URE  HN ES   4    139 52.83                             114   -2.04 0  288 291 
 URE  HZ I         140  4.72        10.3 0.22            114            288 291 
 GUY2CHZ EP        139 25.73                             112    0.72 7  307 235 
 GUY2CHE ES        140  0.31                             112    0.67 7  307 235 
 GUY2CHZ I         140  9.40         7.0 0.54                           307 235 
 PTGC HZ EP        139 24.05                             112   -0.57 7  309 160 
 PTGC HN ES   4    139 56.98                             112   -1.95 0  309 160 
 MON  HZ EP   4    139 28.00                             109   -2.11 0  357 308 
 MON  HE ES   4    140  6.92                             109   -1.78 0  357 308 
 PRA  HZ EP        139 35.34                             107    0.56 6  396 210 
 PRA  HN ES        140 16.74                             107   -0.27 6  396 210 
 PRA  HZ I         140 25.04         5.2 0.30            108            396 210 
 SJC  HZ EP   4    139 34.58                             106   -1.87 0  411 326 
 SJC  HN ES   4    140 17.09                             106   -2.90 0  411 326 
                                                                                
