 2017  319 0536 20.4 L   6.802 -73.149145.3  RSN 19 0.6 2.5LRSN                1
 GAP=119        1.26       3.7     4.1  5.7  0.5780E+00  0.5349E+01  0.6438E+01E
 Epicentro: LOS SANTOS - SANTANDER                                             3
 ACTION:UPD 17-05-25 18:42 OP:jn   STATUS:               ID:20170319053620 L   I
 OLDACT:UP  17-03-19 15:39 OP:cara STATUS:               ID:20170319052740d    3
 OLDACT:DUP 17-03-19 15:27 OP:cara STATUS:               ID:20170319052740d    3
 2017-03-19-0528-00M.COL___406                                                 6
 STAT SP IPHASW D HRMM SECON CODA AMPLIT PERI AZIMU VELO AIN AR TRES W  DIS CAZ7
 BAR2 EZ EP        536 39.94                             170   -0.0510 23.5 189 
 BAR2 EZ ES        536 54.94                             170   -0.3210 23.5 189 
 BAR2 EZ I         536 56.06       116.8 0.34            168           23.5 189 
 BRR  HZ IP     C  536 41.69                             153    0.2110 70.7 298 
 BRR  HE ES        536 58.75                             153    0.8310 70.7 298 
 BRR  HZ I         537  1.98        54.5 0.28            150           70.7 298 
 PAM  EZ EP        536 42.85                             151    0.2810 77.4  40 
 PAM  EE ES        536 59.86                             151   -0.0110 77.4  40 
 PAM  EZ I         537  3.23        39.4 0.48            151           77.4  40 
 RUS  HZ EP        536 43.95                             144   -0.1810  101 176 
 RUS  HN ES        537  2.51                             144   -0.1310  101 176 
 RUS  HZ I         537  3.65        33.6 0.18            141            101 176 
 PTB  HZ EP        536 46.70                             132   -0.61 9  147 259 
 PTB  HN ES        537  7.68                             132   -0.61 9  147 259 
 PTB  HZ I         537  9.73        34.6 0.05            129            147 259 
 SPBC HZ EP        536 48.73                             129   -0.14 9  163 219 
 SPBC HE ES        537 11.22                             129    0.15 9  163 219 
 SPBC HZ I         537 13.40        67.6 0.10            126            163 219 
 ZAR  HZ EP        536 52.87                             122    0.10 9  204 292 
 ZAR  HN ES        537 17.59                             122   -0.43 9  204 292 
 NOR  HZ EP        536 56.53                             118    0.44 8  235 234 
 NOR  HN ES        537 24.30                             118    0.37 8  235 234 
 NOR  HZ I         537 29.51        24.4 0.16            116            235 234 
 CHI  HZ EP        536 58.16                             117    0.07 8  249 195 
 CHI  HN ES        537 27.41                             117   -0.08 8  249 195 
 CHI  HZ I         537 32.59        23.4 0.42            115            249 195 
 ROSC BZ EP   9    537  0.14                             116    1.64 0  253 211 
 ROSC BE ES        537 29.88                             117    0.02 8  253 211 
 ROSC BZ I         537 34.66        75.3 0.40            114            253 211 
 GUY2CHN ES   4    537 42.53                             112    4.57 0  301 235 
 VIL  EZ EP        537  3.84                             112    0.02 7  304 191 
 VIL  EN ES        537 38.01                             112    0.32 7  304 191 
 VIL  EZ I         537 40.71        34.0 0.40            110            304 191 
 PTGC HZ EP        537  3.10                             111   -1.18 7  309 159 
 PTGC HE ES   4    537 36.87                             111   -1.64 0  309 159 
 PTGC HZ I         537 39.25        12.9 0.34            110            309 159 
 ELA  HZ EP        537  9.08                             110    1.86 7  329 229 
 ELA  HZ I         537 52.66        17.3 0.58            108            329 229 
 CBOC HZ EP        537  7.92                             110    0.65 7  333 252 
 CBOC HE ES        537 43.49                             110   -0.33 7  333 252 
 CBOC HZ I         537 54.93         5.6 0.30            108            333 252 
 DBB  EZ EP        537  8.11                             109    0.29 7  339 274 
 DBB  EN ES        537 43.42                             109   -1.38 7  339 274 
 DBB  EZ I         537 44.63         8.8 0.42            107            339 274 
 ANIL HZ EP        537 10.17                             108   -0.01 6  357 224 
 ANIL HE ES        537 50.43                             108    1.42 6  357 224 
 PRA  HZ EP        537 13.90                             106   -0.01 6  392 210 
 PRA  HN ES        537 54.31                             106   -1.34 6  392 210 
 ORTC HZ EP   4    537  9.28                             106   -5.03 0  395 216 
 ORTC HN ES   4    537 57.98                             106    1.63 0  395 216 
 GUA  EZ EP        537 22.76                             103   -0.82 5  474 173 
 GUA  EN ES        538 13.53                             103    0.67 5  474 173 
 FLO2 HZ EP        537 42.91                              99   -0.62 2  641 206 
                                                                                
