 2011  519 0531 57.7 L   6.746 -73.103142.2  RSN  8 0.4 1.9LRSN                1
 GAP=145        0.99       4.7     8.5  7.4 -0.6905E+01  0.7131E+01 -0.1973E+01E
 Epicentro: JORDAN - SANTANDER                                                 3
 ACTION:UP  11-06-29 08:54 OP:tino STATUS:               ID:20110519053157 L   I
 2011-05-19-0526-50S.COL___141                                                 6
 STAT SP IPHASW D HRMM SECON CODA AMPLIT PERI AZIMU VELO SNR AR TRES W  DIS CAZ7
 BAR2 SZ EP        532 16.82                             172     0.010   19 207 
 BAR2 SZ ES   1    532 30.68                             172    -1.0 7   19 207 
 BAR2 SZ I         532 34.84        23.0 0.34                            19 207 
 GIR2 SZ EP   1    532 17.26                             164     0.1 7   38 345 
 GIR2 SZ ES   1    532 32.58                             164     0.3 7   38 345 
 BRR  HZ EP   1    532 18.83                             149     0.0 7   78 301 
 BRR  HE ES   1    532 35.82                             149     0.5 7   78 301 
 BRR  HZ I         532 38.48        20.6 0.17                            78 301 
 PAM  SZ EP   1    532 19.56                             149    -0.1 7   79  34 
 PAM  SN ES   1    532 36.83                             149     0.1 7   79  34 
 RUS  HZ EP   1    532 20.68                             145     0.1 7   94 179 
 RUS  HN ES   1    532 38.81                             145     0.3 7   94 179 
 RUS  HZ I         532 40.79         6.8 0.39                            94 179 
 GRA  SZ EP   1    532 23.62                             135     0.7 7  130  15 
 GRA  SZ ES   1    532 42.48                             135    -0.2 7  130  15 
 GRA  SZ I         532 43.38        13.3 0.41                           130  15 
 OCA  SZ EP   1    532 25.46                             128    -0.9 7  167 352 
 OCA  SZ ES   1    532 48.73                             128     0.1 7  167 352 
 OCA  SZ I         532 53.21        14.4 0.17                           167 352 
 HEL  HZ EP   1    532 37.84                             114    -0.2 6  275 257 
 HEL  HZ I         533 14.95         5.5 0.14                           275 257 
                                                                                
