 2011  619 0657 15.9 L   6.777 -73.094144.5  RSN 13 0.3 2.1LRSN                1
 GAP=144        0.63       2.9     4.3  5.1 -0.5908E+01  0.5178E+01  0.3213E+01E
 Epicentro: LOS SANTOS - SANTANDER                                             3
 ACTION:UP  11-07-14 19:06 OP:ep   STATUS:               ID:20110619065715 L   I
 2011-06-19-0656-37S.COL___140                                                 6
 STAT SP IPHASW D HRMM SECON CODA AMPLIT PERI AZIMU VELO SNR AR TRES W  DIS CAZ7
 BAR2 SZ IP        657 35.51                             171     0.110   23 205 
 BAR2 SZ I         657 35.83        50.1 0.10                            23 205 
 BAR2 SZ ES   2    657 50.46                             171    -0.1 5   23 205 
 BTL  SZ EP   1    657 35.59                             170     0.1 7   25 309 
 GIR2 SZ EP   1    657 35.56                             166     0.0 7   35 342 
 GIR2 SZ ES   2    657 51.16                             166     0.3 5   35 342 
 PAM  SZ EP   2    657 38.25                             151     0.3 5   76  35 
 PAM  SE ES   2    657 54.79                             151    -0.3 5   76  35 
 BRR  HZ IP     C  657 37.35                             150     0.010   77 298 
 BRR  HZ I         657 37.82        34.4 0.11                            77 298 
 BRR  HN ES   2    657 54.45                             150     0.5 5   77 298 
 RUS  HZ EP   1    657 39.45                             144     0.1 7   98 179 
 RUS  HN ES   2    657 58.14                             144     0.5 5   98 179 
 RUS  HZ I         657 59.65        13.1 0.33                            98 179 
 BRI  SZ EP   1    657 40.14                             141     0.4 7  109  18 
 BRI  SZ ES   1    657 58.03                             141    -0.3 7  109  18 
 BRI  SZ I         658  0.84        15.0 0.43                           109  18 
 GRA  SZ EP   1    657 41.23                             136     0.1 7  127  15 
 GRA  SZ ES   1    658  0.57                             136    -0.2 7  127  15 
 GRA  SZ I         658  2.21        21.0 0.52                           127  15 
 OCA  SZ EP   1    657 44.38                             129    -0.1 7  164 351 
 OCA  SZ ES   2    658  5.84                             129    -0.9 5  164 351 
 OCA  SZ I         658  9.92        12.7 0.18                           164 351 
 NOR  SZ EP   1    657 51.77                             118    -0.2 6  238 236 
 NOR  SN ES   1    658 19.71                             118    -0.3 6  238 236 
 CHI  HZ EP   1    657 52.97                             117    -0.5 6  248 197 
 CHI  HN ES   2    658 21.81                             117    -0.9 4  248 197 
 CHI  HZ I         658 27.47         6.6 0.42                           248 197 
 HEL  HZ EP   1    657 57.30                             114     0.7 6  277 257 
 HEL  HN ES   1    658 28.37                             114     0.0 6  277 257 
 HEL  HZ I         658 34.10         6.9 0.32                           277 257 
 PRA  HZ EP   1    658  9.51                             106     0.0 4  393 210 
 PRA  HE ES   2    658 51.38                             106     0.1 3  393 210 
                                                                                
