 2013  719 0836 11.0 L   6.752 -73.148145.3  RSN  6 0.4 1.7LRSN                1
 GAP=233        0.81       4.7     6.0  7.2  0.1247E+02  0.8930E+01  0.1366E+01E
 Epicentro: LOS SANTOS - SANTANDER                                             3
 ACTION:UPD 13-08-12 10:38 OP:ep   STATUS:               ID:20130719082960dL   I
 OLDACT:UP  13-07-19 11:44 OP:mh   STATUS:               ID:20130719082960dL   3
 OLDACT:UP  13-07-19 11:43 OP:mh   STATUS:               ID:20130719082960dL   3
 OLDACT:DUP 13-07-19 11:43 OP:mh   STATUS:               ID:20130719082960dL   3
 2013-07-19-0829-59M.COL___267                                                 6
 STAT SP IPHASW D HRMM SECON CODA AMPLIT PERI AZIMU VELO AIN AR TRES W  DIS CAZ7
 BAR2 SZ EP   1    836 30.54                             173    0.09 7 18.1 192 
 BAR2 SZ ES   1    836 45.53                             173   -0.11 7 18.1 192 
 BAR2 SZ I         836 46.55         4.7 0.16            168           18.1 192 
 BRR  HZ EP        836 32.43                             152    0.2210 73.7 302 
 BRR  HN ES        836 49.10                             152    0.3310 73.7 302 
 BRR  HN I         836 52.52        14.0 0.20            149           73.7 302 
 RUS  HZ EP   1    836 34.43                             145    0.13 7 95.3 176 
 RUS  HE ES        836 52.05                             145   -0.4510 95.3 176 
 RUS  HN I         836 55.15         4.5 0.36            147           95.3 176 
 PTB  HZ EP   1    836 37.31                             132   -0.48 7  147 261 
 PTB  HN ES   2    836 58.03                             132   -0.68 5  147 261 
 PTB  HZ I         837  4.17         3.8 0.14            131            147 261 
 SPBC HZ EP   1    836 39.16                             130    0.13 7  159 220 
 SPBC HN ES        837  1.45                             130    0.53 9  159 220 
 SPBC HN I         837  3.73        17.2 0.12            130            159 220 
 ZAR  HE ES        837  8.59                             122   -0.41 8  206 294 
 ZAR  HE I         837 14.86        13.3 0.40            122            206 294 
                                                                                
