 2012 1019 0925 46.2 L   6.732 -73.122141.7  RSN  5 0.3 1.5LRSN                1
 GAP=143        0.60       4.1     4.5  6.4  0.3804E+01  0.3556E+01 -0.8517E+00E
 Epicentro: JORDAN - SANTANDER                                                 3
 ACTION:UPD 12-11-22 17:04 OP:ep   STATUS:               ID:20121019092546 L   I
 2012-10-19-0920-00M.COL___234                                                 6
 STAT SP IPHASW D HRMM SECON CODA AMPLIT PERI AZIMU VELO AIN AR TRES W  DIS CAZ7
 BAR2 SZ EP   1    926  5.29                             173    0.09 7 16.8 203 
 BAR2 SZ ES   1    926 20.01                             173   -0.03 7 16.8 203 
 BAR2 SZ I         926 21.60        16.6 0.16                          16.8 203 
 BRR  HZ EP   1    926  7.25                             150    0.00 7 77.3 303 
 BRR  HN ES   1    926 24.24                             150    0.55 7 77.3 303 
 PAM  SZ EP   1    926  8.28                             149    0.04 7 81.9  35 
 PAM  SZ I         926  8.49         4.4 0.24                          81.9  35 
 PAM  SN ES   1    926 25.21                             149   -0.24 7 81.9  35 
 PAM  SN I         926 26.31         6.7 0.48                          81.9  35 
 RUS  HZ EP   1    926  9.24                             145    0.26 7 92.9 177 
 RUS  HZ I         926 10.06         2.3 0.12                          92.9 177 
 RUS  HE ES   1    926 26.48                             145   -0.28 7 92.9 177 
 ZAR  HN ES   1    926 43.92                             121   -0.54 6  209 294 
                                                                                
