 2013 1219 0121 14.0 L   6.799 -73.151140.7  RSN  8 0.4 1.8LRSN                1
 GAP=136        0.99       4.2     4.3  7.0  0.1457E+01  0.6236E+01 -0.2526E+01E
 Epicentro: LOS SANTOS - SANTANDER                                             3
 ACTION:UPD 14-01-13 10:19 OP:ep   STATUS:               ID:20131219012114 L   I
 OLDACT:REG 13-12-19 06:13 OP:jn   STATUS:               ID:20131219012000     3
 2013-12-19-0120-00M.COL___285                                                 6
 STAT SP IPHASW D HRMM SECON CODA AMPLIT PERI AZIMU VELO AIN AR TRES W  DIS CAZ7
 BAR2 SZ EP        121 32.97                             170   -0.0910 23.1 189 
 BAR2 SZ ES        121 48.23                             170    0.3410 23.1 189 
 BAR2 SZ I         121 50.60        17.3 0.46            172           23.1 189 
 BRR  HZ EP        121 34.74                             152    0.1210 70.7 299 
 BRR  HN ES        121 51.09                             152    0.4310 70.7 299 
 BRR  HZ I         121 54.88        18.4 0.32            153           70.7 299 
 PAM  SZ EP        121 35.85                             150    0.1010 77.9  40 
 PAM  SN ES        121 52.65                             150   -0.0310 77.9  40 
 PAM  SZ I         121 54.98        10.6 0.38            152           77.9  40 
 RUS  HZ EP        121 37.04                             143   -0.2610  101 176 
 RUS  HN ES        121 55.28                             143   -0.1510  101 176 
 RUS  HZ I         121 58.00         4.2 0.34            147            101 176 
 PTB  HZ EP   4    121 39.27                             131   -1.28 0  147 259 
 PTB  HN ES        122  0.65                             131   -0.56 9  147 259 
 PTB  HZ I         122  3.60         8.3 0.26            134            147 259 
 OCA  HN ES   1    122  2.72                             128   -1.03 7  160 353 
 OCA  HZ I         122  6.58         8.4 0.46            131            160 353 
 ZAR  HZ EP        121 46.85                             121    0.74 9  204 292 
 ZAR  HN ES        122 11.09                             121   -0.03 9  204 292 
 GUY2CHZ EP   4    121 57.52                             111    0.16 0  301 235 
 GUY2CHZ I         122 39.36         3.2 0.30                           301 235 
 SJC  HZ EP   4    122  7.36                             105   -2.05 0  409 327 
 SJC  HN ES   4    122 48.44                             105   -4.16 0  409 327 
                                                                                
