 2010  619 0225 12.5 L   6.789 -73.114141.5  RSN  8 0.4 2.2LRSN                1
 GAP=159        1.01       4.1     7.5  7.6 -0.9451E+01  0.3525E+01 -0.1365E+01E
 Epicentro: LOS SANTOS - SANTANDER                                             3
 ACTION:UP  10-08-24 10:11 OP:vdl  STATUS:               ID:20100619022512 L   I
 2010-06-19-0222-31S.COL___118                                                 6
 STAT SP IPHASW D HRMM SECON CODA AMPLIT PERI AZIMU VELO SNR AR TRES W  DIS CAZ7
 BAR2 SZ IP        225 31.48                             170    -0.210   23 200 
 BAR2 SZ ES   1    225 45.89                             170    -0.7 7   23 200 
 BRR  HZ IP     D  225 33.21                             151    -0.210   75 298 
 BRR  HE ES   1    225 50.07                             151     0.3 7   75 298 
 BRR  HZ I         225 50.89        48.6 0.12                            75 298 
 RUS  HZ EP        225 35.53                             143    -0.210   99 178 
 RUS  HE ES   1    225 54.54                             143     0.7 7   99 178 
 RUS  HZ I         225 56.06        15.8 0.32                            99 178 
 BRI  SZ EP        225 35.93                             141    -0.110  108  19 
 BRI  SZ ES   1    225 54.19                             141    -0.1 7  108  19 
 GUE  SZ IP        225 37.36                             138     0.510  117  10 
 GUE  SZ ES   1    225 56.61                             138     0.7 7  117  10 
 GRA  SZ EP        225 37.19                             136    -0.210  126  16 
 GRA  SZ ES   1    225 57.01                             136     0.2 7  126  16 
 OCA  SZ EP   1    225 40.16                             128    -0.5 7  162 352 
 OCA  SZ ES   1    226  2.10                             128    -0.5 7  162 352 
 OCA  SZ I         226 10.27        16.0 0.48                           162 352 
 HEL  HZ EP   1    225 53.75                             114     0.9 6  275 256 
 HEL  HN ES   2    226 24.01                             114    -0.3 4  275 256 
 HEL  HZ I         226 29.80         9.6 0.50                           275 256 
                                                                                
