 2017  719 0505 38.8 L   6.832 -73.167136.0  RSN  5 0.4 1.4LRSN                1
 GAP=243        0.93       6.7     6.9  9.6  0.2086E+02  0.2667E+02 -0.5834E+01E
 Epicentro: LOS SANTOS - SANTANDER                                             3
 ACTION:UPD 17-08-30 15:34 OP:rebc STATUS:               ID:20170719050538 L   I
 OLDACT:DUP 17-07-19 16:07 OP:dnl  STATUS:               ID:20170719045642d    3
 2017-07-19-0457-00M.COL___380                                                 6
 STAT SP IPHASW D HRMM SECON CODA AMPLIT PERI AZIMU VELO AIN AR TRES W  DIS CAZ7
 BAR2 EZ EP   2    5 5 57.65                             168    0.34 5 26.6 184 
 BAR2 EZ ES        5 6 12.16                             168    0.3910 26.6 184 
 BAR2 EZ I         5 6 13.81         8.0 0.30            165           26.6 184 
 RUS  HZ EP   2    5 6  1.89                             141    0.02 5  104 175 
 RUS  HN ES        5 6 19.30                             141   -0.5810  104 175 
 RUS  HZ I         5 6 21.31         2.1 0.62            143            104 175 
 PTB  HZ EP        5 6  4.68                             130   -0.15 9  146 257 
 PTB  HN ES        5 6 24.68                             130   -0.46 9  146 257 
 PTB  HZ I         5 6 31.62         1.6 0.20            129            146 257 
 SPBC HZ EP   2    5 6  6.41                             127   -0.27 5  164 218 
 SPBC HN ES        5 6 29.17                             127    0.73 9  164 218 
 SPBC HZ I         5 6 33.37         5.1 0.22            127            164 218 
 ZAR  HZ EP   2    5 6 10.58                             121    0.33 4  201 291 
 ZAR  HN ES        5 6 34.80                             121    0.01 9  201 291 
 ZAR  HZ I         5 6 40.92         3.0 0.40            121            201 291 
                                                                                
