 2017  419 0606 36.8 L   6.774 -73.156146.6  RSN  6 0.4 1.6LRSN                1
 GAP=136        1.13       5.7     5.0  7.6  0.2997E+01  0.9545E+01 -0.1955E+01E
 Epicentro: LOS SANTOS - SANTANDER                                             3
 ACTION:UPD 17-05-30 21:14 OP:jn   STATUS:               ID:20170419060636 L   I
 OLDACT:UP  17-04-19 15:59 OP:dnl  STATUS:               ID:20170419055737     3
 OLDACT:UP  17-04-19 15:59 OP:dnl  STATUS:               ID:20170419055737     3
 OLDACT:UP  17-04-19 15:59 OP:dnl  STATUS:               ID:20170419055737     3
 OLDACT:UP  17-04-19 15:58 OP:dnl  STATUS:               ID:20170419055737     3
 OLDACT:REG 17-04-19 13:13 OP:dnl  STATUS:               ID:20170419055737     3
 2017-04-19-0558-00M.COL___368                                                 6
 STAT SP IPHASW D HRMM SECON CODA AMPLIT PERI AZIMU VELO AIN AR TRES W  DIS CAZ7
 BAR2 EZ IP     C  6 6 56.35                             172   -0.1210 20.3 188 
 BAR2 EZ ES        6 7 11.91                             172    0.0910 20.3 188 
 BAR2 EZ I         6 7 13.14         7.9 0.20            172           20.3 188 
 BRR  HZ EP        6 6 58.40                             152    0.3410 71.6 301 
 BRR  HE ES        6 7 15.50                             152    0.8510 71.6 301 
 BRR  HZ I         6 7 20.39         9.4 0.68            150           71.6 301 
 PAM  EZ EP        6 6 59.26                             150   -0.0210 80.4  39 
 PAM  EE ES        6 7 16.19                             150   -0.6310 80.4  39 
 PAM  EZ I         6 7 18.56         7.3 0.24            152           80.4  39 
 RUS  HZ EP        6 7  0.91                             145    0.4810 97.7 175 
 RUS  HE ES        6 7 18.76                             145   -0.1010 97.7 175 
 RUS  HZ I         6 7 19.58         2.2 0.28            150           97.7 175 
 PTB  HZ EP        6 7  3.27                             132   -0.41 9  146 260 
 PTB  HN ES        6 7 23.97                             132   -0.68 9  146 260 
 PTB  HZ I         6 7 27.67         5.1 0.46            133            146 260 
 ZAR  HZ EP        6 7  9.52                             122    0.22 9  204 293 
 ZAR  HN ES        6 7 34.51                             122   -0.15 9  204 293 
 ZAR  HZ I         6 7 43.45        10.3 0.24            123            204 293 
                                                                                
