 2017 1119 0709 57.9 L   6.845 -73.130145.3  RSN 19 0.7 2.3LRSN                1
 GAP= 66        1.42       3.7     4.6  7.1  0.1249E+00  0.8939E+01  0.1382E+01E
 Epicentro: LOS SANTOS - SANTANDER                                             3
 ACTION:UPD 17-12-12 19:57 OP:rebc STATUS:               ID:20171119070957 L   I
 OLDACT:UP  17-11-19 17:41 OP:leo  STATUS:               ID:20171119070645     3
 OLDACT:UP  17-11-19 17:38 OP:leo  STATUS:               ID:20171119070645     3
 OLDACT:REG 17-11-19 14:14 OP:leo  STATUS:               ID:20171119070645     3
 2017-11-19-0707-00M.COL___465                                                 6
 STAT SP IPHASW D HRMM SECON CODA AMPLIT PERI AZIMU VELO AIN AR TRES W  DIS CAZ7
 BAR2 EZ IP        710 17.56                             168    0.0210 28.5 192 
 BAR2 EZ ES        710 32.15                             168   -0.7510 28.5 192 
 BAR2 EZ I         710 34.15        41.1 0.20            165           28.5 192 
 PAM  EZ EP        710 20.47                             152    0.7410 72.5  41 
 PAM  EN ES        710 37.35                             152    0.5510 72.5  41 
 PAM  EZ I         710 40.21        11.4 0.50            155           72.5  41 
 PTB  HZ EP        710 24.34                             131   -0.70 9  151 257 
 PTB  HN ES        710 45.65                             131   -0.59 9  151 257 
 PTB  HZ I         710 47.15        19.8 0.60            129            151 257 
 TAM  HZ EP        710 24.61                             130   -0.85 9  155 107 
 SPBC HZ EP        710 26.57                             128   -0.22 9  168 218 
 SPBC HE ES        710 49.37                             128    0.01 9  168 218 
 SPBC HZ I         710 55.56        27.1 0.28            126            168 218 
 YPLC HZ EP        710 28.04                             126    0.08 9  180 153 
 YPLC HN ES        710 52.07                             126    0.62 9  180 153 
 YPLC HZ I         710 52.97        20.8 0.26            125            180 153 
 ZAR  HZ EP        710 29.85                             122   -0.40 9  204 291 
 ZAR  HN ES        710 55.69                             122    0.17 9  204 291 
 ZAR  HZ I         711  1.09        21.6 0.36            121            204 291 
 TABC EZ EP        710 34.25                             118    0.12 8  235 210 
 NOR  HZ EP        710 33.50                             118   -0.52 8  239 234 
 NOR  HZ I         711  4.17         9.8 0.18            116            239 234 
 CHI  HZ EP        710 35.94                             116   -0.16 8  254 195 
 CHI  HN ES        711  5.95                             116    0.02 8  254 195 
 CHI  HZ I         711  8.42         8.9 0.38            115            254 195 
 ROSC BN EP   4    710 37.92                             116    1.41 0  258 211 
 ROSC BE ES   4    711 10.78                             116    4.12 0  258 211 
 ROSC BN I         711 16.52        30.8 0.65            115            258 211 
 GUY2CHZ EP        710 42.96                             112    1.03 7  306 234 
 GUY2CHN ES   4    711 18.20                             112    1.89 0  306 234 
 GUY2CHZ I         711 27.90         8.5 0.44                           306 234 
 PTGC HZ EP   4    710 40.87                             111   -1.27 0  313 159 
 PTGC HN ES   4    711 14.34                             111   -2.35 0  313 159 
 PTGC HZ I         711 15.50         9.3 0.28            111            313 159 
 CBOC HN EP        710 45.92                             109    0.80 7  337 251 
 CBOC HN ES        711 23.01                             109    1.02 7  337 251 
 CBOC HN I         711 26.78         6.4 0.22            109            337 251 
 ARGC HZ EP        710 46.64                             108   -0.38 6  355 340 
 ARGC HN ES        711 27.45                             108    2.08 6  355 340 
 PRA  HZ EP        710 51.69                             106   -0.27 6  397 209 
 PRA  HN ES        711 33.99                             106   -0.18 6  397 209 
 PRA  HZ I         711 37.69         6.9 0.26            105            397 209 
 ORTC HZ EP        710 52.64                             106    0.29 6  400 216 
 ORTC HN ES        711 35.63                             106    0.78 6  400 216 
 ORTC HZ I         711 41.37         4.6 0.50            105            400 216 
 SJC  HZ EP        710 51.58                             106   -1.45 6  406 326 
 SJC  HN ES        711 35.16                             106   -0.90 6  406 326 
 SMAR HZ EP        711  2.93                             102   -0.26 4  493 346 
 SMAR HE ES   4    711 47.85                             102   -6.30 0  493 346 
                                                                                
