 2013 1219 0356 37.3 L   6.745 -73.217150.2  RSN  5 0.1 1.1LRSN                1
 GAP=190        0.37       2.8     3.2  4.3  0.3322E+01 -0.2623E+01 -0.8115E+00E
 Epicentro: VILLANUEVA - SANTANDER                                             3
 ACTION:UPD 14-01-13 10:19 OP:ep   STATUS:               ID:20131219035637 L   I
 OLDACT:DUP 13-12-19 07:55 OP:jn   STATUS:               ID:20131219035001d    3
 2013-12-19-0350-00M.COL___285                                                 6
 STAT SP IPHASW D HRMM SECON CODA AMPLIT PERI AZIMU VELO AIN AR TRES W  DIS CAZ7
 BAR2 SZ EP   1    356 57.11                             173   -0.21 7 17.3 167 
 BRR  HZ EP        356 58.72                             154    0.0210 67.8 306 
 BRR  HE ES        357 15.54                             154    0.1110 67.8 306 
 BRR  HZ I         357 17.94         2.3 0.20            154           67.8 306 
 RUS  HZ EP   1    357  1.21                             146    0.12 7 95.4 171 
 RUS  HN ES   1    357 19.61                             146   -0.06 7 95.4 171 
 PTB  HZ EP   1    357  4.00                             135    0.19 7  139 261 
 PTB  HN ES        357 24.41                             135   -0.11 9  139 261 
 PTB  HZ I         357 27.37         1.5 0.28            135            139 261 
 SML  HE ES   2    357 43.11                             118   -0.26 4  246 338 
                                                                                
