 2015  619 0532 20.9 L   6.778 -73.118142.6  RSN  4 0.4 1.5LRSN                1
 GAP=239        1.07      12.0    13.5  9.6  0.1280E+03  0.1086E+02 -0.2248E+02E
 Epicentro: LOS SANTOS - SANTANDER                                             3
 ACTION:UPD 15-09-10 22:13 OP:cam  STATUS:               ID:20150619053220 L   I
 OLDACT:REG 15-06-19 12:34 OP:drio STATUS:               ID:20150619052751     3
 2015-06-19-0527-51M.COL___304                                                 6
 STAT SP IPHASW D HRMM SECON CODA AMPLIT PERI AZIMU VELO AIN AR TRES W  DIS CAZ7
 BAR2 EZ EP        532 39.91                             171   -0.1610 21.7 199 
 BAR2 EZ ES        532 54.70                             171   -0.3610 21.7 199 
 BAR2 EZ I         532 55.95         4.7 0.28            165           21.7 199 
 BRR  HZ EP        532 41.63                             151   -0.2610 75.1 299 
 BRR  HE ES        532 58.96                             151    0.6610 75.1 299 
 RUS  HE ES        533  2.42                             144    0.1810 97.9 178 
 ZAR  HZ EP        532 54.03                             121    0.54 8  208 292 
 ZAR  HE ES        533 18.35                             121   -0.60 8  208 292 
 ZAR  HZ I         533 23.65         4.6 0.36            120            208 292 
                                                                                
