 2017  319 0905 10.6 L   6.777 -73.139141.0  RSN  6 0.4 1.0LRSN                1
 GAP=138        0.84       4.2     3.8  6.8  0.1311E+01  0.4056E+01 -0.1192E+01E
 Epicentro: LOS SANTOS - SANTANDER                                             3
 ACTION:UPD 17-05-25 18:42 OP:jn   STATUS:               ID:20170319090510 L   I
 OLDACT:UP  17-03-19 18:21 OP:cog  STATUS:               ID:20170319085711d    3
 OLDACT:DUP 17-03-19 18:15 OP:cog  STATUS:               ID:20170319085711d    3
 2017-03-19-0858-00M.COL___394                                                 6
 STAT SP IPHASW D HRMM SECON CODA AMPLIT PERI AZIMU VELO AIN AR TRES W  DIS CAZ7
 BAR2 EZ ES        9 5 44.34                             171   -0.0610 21.0 193 
 BAR2 EZ I         9 5 46.52         4.3 0.30            171           21.0 193 
 BRR  HZ EP        9 5 31.45                             151    0.1410 73.1 300 
 BRR  HN ES        9 5 47.97                             151    0.4910 73.1 300 
 PAM  EZ EP        9 5 32.32                             150   -0.0410 78.9  38 
 PAM  EE ES        9 5 49.15                             150   -0.2210 78.9  38 
 PAM  EZ I         9 5 50.72         1.2 0.26            152           78.9  38 
 RUS  HZ EP        9 5 33.42                             144   -0.2410 98.0 176 
 RUS  HE ES        9 5 52.00                             144    0.3210 98.0 176 
 RUS  HZ I         9 5 52.95         1.3 0.28            145           98.0 176 
 PTB  HZ EP   3    9 5 38.42                             131    1.25 2  148 260 
 PTB  HE ES        9 5 57.26                             131   -0.66 9  148 260 
 PTB  HZ I         9 6  1.16         1.2 0.12            132            148 260 
 ZAR  HZ EP   4    9 5 40.93                             121   -1.94 0  206 293 
 ZAR  HN ES        9 6  8.23                             121    0.16 8  206 293 
                                                                                
