 2012  519 0302 42.3 L   6.752 -73.138150.4  RSN  6 0.4 1.9LRSN                1
 GAP=140        0.83       8.8     8.2  7.7  0.3225E+02  0.2331E+02  0.1927E+02E
 Epicentro: LOS SANTOS - SANTANDER                                             3
 ACTION:UP  12-07-05 12:06 OP:pat  STATUS:               ID:20120519030242 L   I
 2012-05-19-0300-00M.COL___200                                                 6
 STAT SP IPHASW D HRMM SECON CODA AMPLIT PERI AZIMU VELO SNR AR TRES W  DIS CAZ7
 BAR2 SZ EP        3 3  2.37                             173     0.010   18 195 
 BAR2 SZ ES   1    3 3 17.67                             173    -0.4 7   18 195 
 BAR2 SZ I         3 3 20.29        12.0 0.30                            18 195 
 BRR  HZ EP        3 3  4.31                             152     0.210   75 302 
 BRR  HZ I         3 3  5.78        26.9 0.12                            75 302 
 BRR  HN ES   1    3 3 21.64                             152     0.5 7   75 302 
 PAM  SE ES   3    3 3 22.10                             150    -1.0 2   81  37 
 RUS  HZ EP        3 3  6.23                             146     0.110   95 176 
 RUS  HZ I         3 3  7.61         7.2 0.44                            95 176 
 RUS  HN ES   2    3 3 25.08                             146     0.4 5   95 176 
 PTB  HZ EP        3 3  9.17                             133    -0.5 9  148 261 
 PTB  HN ES   2    3 3 30.60                             133    -0.4 5  148 261 
 PTB  HZ I         3 3 36.27        10.0 0.42                           148 261 
 HEL  HZ EP        3 3 22.99                             116     0.3 8  272 257 
 HEL  HZ I         3 4  0.86         4.9 0.32                           272 257 
                                                                                
