 2012 1019 0926 37.0 L   6.794 -72.986128.0  RSN  5 0.3 1.3LRSN                1
 GAP=158        0.62       5.8     6.2 13.4  0.1663E+02 -0.1811E+02 -0.3415E+02E
 Epicentro: CEPITA - SANTANDER                                                 3
 ACTION:UPD 12-11-22 17:04 OP:ep   STATUS:               ID:20121019092637 L   I
 2012-10-19-0920-00M.COL___234                                                 6
 STAT SP IPHASW D HRMM SECON CODA AMPLIT PERI AZIMU VELO AIN AR TRES W  DIS CAZ7
 BAR2 SZ EP   1    926 54.25                             166   -0.45 7 31.1 224 
 BAR2 SZ I         926 54.73         4.1 0.15                          31.1 224 
 PAM  SZ EP   1    926 57.06                             151    0.29 7 68.1  28 
 PAM  SZ I         926 57.25         9.1 0.18                          68.1  28 
 BRR  HN ES   2    927 12.90                             144   -0.32 5 87.3 293 
 RUS  HZ EP   1    926 58.83                             140   -0.19 7  100 186 
 RUS  HN ES   1    927 16.52                             140    0.32 7  100 186 
 RUS  HN I         927 17.92         2.2 0.16                           100 186 
 ZAR  HE ES   1    927 36.27                             116    0.25 6  221 291 
                                                                                
