 2012  319 0809 10.5 L   6.336 -73.721105.5  RSN  4 0.2 1.3LRSN                1
 GAP=161        0.39       4.2     3.0  6.4  0.4825E+01  0.7227E+01  0.1029E+02E
 ACTION:UP  12-03-31 23:20 OP:EP   STATUS:               ID:20120319080910 L   I
 2012-03-19-0800-00M.COL___202                                                 6
 STAT SP IPHASW D HRMM SECON CODA AMPLIT PERI AZIMU VELO SNR AR TRES W  DIS CAZ7
 BAR2 SZ EP   1    8 9 27.38                             146    -0.1 7   66  65 
 BAR2 SZ ES   1    8 9 40.59                             146    -0.1 7   66  65 
 PTB  HZ EP   1    8 9 28.59                             138     0.0 7   84 285 
 PTB  HN ES   2    8 9 42.52                             138    -0.1 5   84 285 
 PTB  HZ I         8 9 45.32         2.9 0.20                            84 285 
 BRR  HZ EP   2    8 9 28.30                             138    -0.3 5   85   1 
 BRR  HZ I         8 9 28.89         7.3 0.12                            85   1 
 BRR  HN ES   2    8 9 43.00                             138     0.3 5   85   1 
 RUS  HZ EP   1    8 9 29.53                             138     0.2 7   86 125 
 RUS  HN ES   2    8 9 43.94                             138    -0.1 5   86 125 
                                                                                
