 2012  819 0522 57.9 L   6.784 -73.158145.1  RSN  6 0.3 1.5LRSN                1
 GAP=136        0.60       3.9     3.4  8.6  0.4740E+00  0.1133E+02  0.2321E+01E
 Epicentro: LOS SANTOS - SANTANDER                                             3
 ACTION:UPD 12-09-10 11:57 OP:ep   STATUS:               ID:20120819052257 L   I
 2012-08-19-0520-00M.COL___217                                                 6
 STAT SP IPHASW D HRMM SECON CODA AMPLIT PERI AZIMU VELO AIN AR TRES W  DIS CAZ7
 BAR2 SZ EP   1    523 16.85                             171   -0.56 7 21.4 187 
 BAR2 SZ I         523 35.01        10.4 0.25                          21.4 187 
 BRR  HZ EP   1    523 19.32                             152    0.36 7 70.9 300 
 BRR  HZ I         523 38.26        12.3 0.05                          70.9 300 
 PAM  SZ EP   1    523 20.23                             150    0.05 7 79.6  40 
 PAM  SZ I         523 20.38         6.3 0.20                          79.6  40 
 PAM  SN ES        523 37.51                             150   -0.0410 79.6  40 
 RUS  HZ EP   1    523 21.47                             144    0.00 7 99.0 175 
 RUS  HN ES   1    523 40.16                             144    0.31 7 99.0 175 
 RUS  HZ I         523 42.70         2.3 0.26                          99.0 175 
 PTB  HN ES   1    523 45.25                             132   -0.28 7  146 259 
 ZAR  HN ES        523 55.59                             122    0.13 9  203 293 
                                                                                
