 2011 1019 0545 49.3 L   6.907 -73.218120.9  RSN  7 0.3 1.5LRSN                1
 GAP=122        0.43       3.9     4.1  5.7  0.3483E+01  0.3351E+01  0.3559E+01E
 Epicentro: BETULIA - SANTANDER                                                3
 ACTION:UPD 12-07-13 16:04 OP:ep   STATUS:               ID:20111019054549 L   I
 2011-10-19-0540-00M.COL___171                                                 6
 STAT SP IPHASW D HRMM SECON CODA AMPLIT PERI AZIMU VELO AIN AR TRES W  DIS CAZ7
 BTL  SZ EP   2    546  5.92                             177    0.20 5 5.61 283 
 GIR2 SZ EP   2    546  6.00                             170    0.25 5 19.2   8 
 GIR2 SZ ES   2    546 18.66                             170    0.11 5 19.2   8 
 BAR2 SZ EP        546  6.54                             163    0.2010 35.0 173 
 BAR2 SZ ES   2    546 19.39                             163   -0.21 5 35.0 173 
 BAR2 SZ I         546 20.83        19.9 0.36                          35.0 173 
 BRR  HZ EP   2    546  7.06                             152   -0.04 5 58.9 292 
 BRR  HE ES   2    546 21.12                             152    0.16 5 58.9 292 
 BRR  HZ I         546 21.60         6.4 0.12                          58.9 292 
 PAM  SZ EP   2    546  8.83                             147    0.04 5 74.6  50 
 PAM  SE ES   2    546 23.46                             147   -0.49 5 74.6  50 
 RUS  HZ EP   2    546 11.32                             134   -0.48 5  113 172 
 RUS  HE ES   2    546 29.26                             134   -0.06 5  113 172 
 ZAR  HE ES   2    546 41.75                             118   -0.42 4  192 290 
 ZAR  HZ I         546 44.82         1.6 0.40                           192 290 
                                                                                
