 2016  919 0302  5.7 L   6.825 -73.149153.7  RSN 15 0.5 1.9LRSN                1
 GAP=135        0.92       3.1     4.6  4.9 -0.4284E+01  0.6779E+01 -0.7965E+00E
 Epicentro: LOS SANTOS - SANTANDER                                             3
 ACTION:UPD 17-08-17 21:13 OP:lp   STATUS:               ID:20160919030205 L   I
 OLDACT:UP  16-09-19 15:44 OP:and  STATUS:               ID:20160919025735     3
 OLDACT:UP  16-09-19 15:40 OP:and  STATUS:               ID:20160919025735     3
 OLDACT:UP  16-09-19 15:36 OP:and  STATUS:               ID:20160919025735     3
 OLDACT:UP  16-09-19 15:25 OP:and  STATUS:               ID:20160919025735     3
 OLDACT:REG 16-09-19 11:33 OP:ar   STATUS:               ID:20160919025735     3
 2016-09-19-0258-00M.COL___360                                                 6
 STAT SP IPHASW D HRMM SECON CODA AMPLIT PERI AZIMU VELO AIN AR TRES W  DIS CAZ7
 BAR2 EZ EP        3 2 26.10                             170   -0.2210 25.9 188 
 BAR2 EZ ES        3 2 42.06                             170   -0.3510 25.9 188 
 BAR2 EZ I         3 2 44.46        14.8 0.33            168           25.9 188 
 BRR  HZ IP     D  3 2 27.96                             154    0.3510 69.6 297 
 BRR  HE ES        3 2 45.41                             154    0.7010 69.6 297 
 BRR  HZ I         3 2 48.50         8.9 0.13            150           69.6 297 
 PAM  EZ EP   2    3 2 29.05                             153    0.40 5 75.6  41 
 PAM  EN ES        3 2 46.56                             153    0.0110 75.6  41 
 PAM  EZ I         3 2 47.84        18.4 0.18            156           75.6  41 
 RUS  HZ EP   2    3 2 30.58                             145    0.16 5  103 176 
 RUS  HN ES   2    3 2 49.08                             145   -0.62 5  103 176 
 RUS  HZ I         3 2 49.90         5.3 0.34            147            103 176 
 PTB  HZ EP        3 2 33.12                             134   -0.21 9  148 258 
 PTB  HN ES        3 2 54.20                             134   -0.68 9  148 258 
 PTB  HZ I         3 2 55.24         7.2 0.17            132            148 258 
 OCA  HZ EP        3 2 34.22                             132   -0.15 9  158 353 
 OCA  HE ES        3 2 56.72                             132   -0.03 9  158 353 
 OCA  HZ I         3 3  6.11        20.7 0.30            132            158 353 
 SPBC HZ EP        3 2 35.12                             130    0.14 9  165 218 
 SPBC HE ES        3 2 57.60                             130   -0.22 9  165 218 
 SPBC HZ I         3 3  3.72        11.6 0.12            130            165 218 
 ZAR  HZ EP        3 2 39.21                             124    0.69 9  203 291 
 ZAR  HN ES   2    3 3  4.77                             124    0.64 4  203 291 
 ZAR  HZ I         3 3 10.18         9.0 0.22            123            203 291 
 NOR  HZ EP        3 2 41.86                             120   -0.16 8  236 234 
 NOR  HE ES   2    3 3 10.86                             120    0.50 4  236 234 
 NOR  HZ I         3 3 16.31         6.1 0.16            120            236 234 
 CHI  HZ EP   2    3 2 44.75                             118    0.64 4  251 195 
 CHI  HN ES        3 3 14.59                             118    0.52 8  251 195 
 CHI  HZ I         3 3 19.57         2.4 0.34            120            251 195 
 ROSC BZ EP   9    3 2 47.32                             118    2.84 0  255 211 
 ROSC BN ES        3 3 17.61                                    0.03 8  255 211 
 ROSC BZ I         3 3 21.99         8.8 0.35            119            255 211 
 URE  HZ EP        3 2 46.35                             115   -0.65 7  282 291 
 URE  HE ES   4    3 3 17.82                             115   -1.41 0  282 291 
 URE  HZ I         3 3 29.61         6.1 0.16            115            282 291 
 GUY2CHZ EP   4    3 2 51.30                             114    1.49 0  302 234 
 GUY2CHN ES   4    3 3 27.35                             114    3.12 0  302 234 
 GUY2CHZ I         3 3 36.55         2.9 0.58                           302 234 
 CBOC HZ EP   2    3 2 54.10                             111    1.11 3  334 252 
 CBOC HE ES   2    3 3 29.96                             111    0.07 3  334 252 
 CBOC HZ I         3 3 35.65         1.0 0.24            111            334 252 
 SJC  HZ EP        3 3  0.37                             107   -0.86 6  407 327 
 SJC  HN ES   4    3 3 42.15                             107   -2.40 0  407 327 
 SJC  HZ I         3 3 45.98         2.1 0.36            108            407 327 
                                                                                
