 2011  619 0451 33.2 L   6.749 -73.032140.1  RSN  4 0.4 1.3LRSN                1
 GAP=210        0.79      10.0    19.2 12.3  0.1164E+03 -0.3223E+02 -0.3391E+01E
 Epicentro: ARATOCA - SANTANDER                                                3
 ACTION:UP  11-07-14 19:06 OP:ep   STATUS:               ID:20110619045133 L   I
 2011-06-19-0440-00M.COL___126                                                 6
 STAT SP IPHASW D HRMM SECON CODA AMPLIT PERI AZIMU VELO SNR AR TRES W  DIS CAZ7
 BTL  SZ EP   1    451 53.04                             167     0.7 7   32 306 
 GIR2 SZ EP   1    451 52.13                             163    -0.3 7   41 334 
 GIR2 SZ ES   2    452  7.43                             163    -0.1 5   41 334 
 BRR  HZ EP     C  451 54.29                             147    -0.310   85 298 
 BRR  HZ I         451 54.39         4.5 0.10                            85 298 
 BRR  HE ES   2    452 11.56                             147     0.3 5   85 298 
 RUS  HZ EP   1    451 56.01                             145     0.1 7   95 183 
 RUS  HE ES   2    452 13.48                             145    -0.2 5   95 183 
 RUS  HZ I         452 16.15         2.7 0.30                            95 183 
                                                                                
