 2015  419 0250  2.0 L   6.746 -73.140146.0  RSN  6 0.4 1.3LRSN                1
 GAP=140        0.75       6.4     5.4  7.5  0.1196E+02 -0.1999E+01 -0.1140E+02E
 Epicentro: LOS SANTOS - SANTANDER                                             3
 ACTION:UPD 15-06-03 16:55 OP:cam  STATUS:               ID:20150419025002 L   I
 OLDACT:REG 15-04-19 12:21 OP:spq  STATUS:               ID:20150419024748     3
 2015-04-19-0247-48M.COL___277                                                 6
 STAT SP IPHASW D HRMM SECON CODA AMPLIT PERI AZIMU VELO AIN AR TRES W  DIS CAZ7
 BAR2 EZ EP        250 21.48                             173   -0.0910 17.6 195 
 BAR2 EZ ES   1    250 36.40                             173   -0.43 7 17.6 195 
 BAR2 EZ I         250 37.48         5.2 0.40            171           17.6 195 
 BRR  HZ EP        250 23.56                             151    0.1710 74.7 302 
 BRR  HN ES        250 40.35                             151    0.2810 74.7 302 
 BRR  HZ I         250 44.93         3.7 0.25            149           74.7 302 
 PAM  SZ EP   1    250 24.20                             150   -0.32 7 81.7  37 
 RUS  HE ES   1    250 44.10                             146    0.52 7 94.6 176 
 RUS  HZ I         250 45.05         1.8 0.26            149           94.6 176 
 PTB  HZ EP   1    250 28.97                             132    0.01 7  147 261 
 PTB  HN ES   1    250 49.30                             132   -0.68 7  147 261 
 PTB  HZ I         250 52.86         1.9 0.22            132            147 261 
 ZAR  HE ES   1    251  0.57                             122    0.25 6  207 294 
 ZAR  HZ I         251  6.30         2.8 0.34            122            207 294 
                                                                                
