 2012  719 0711 26.6 L   6.784 -73.138148.1  RSN  6 0.4 1.5LRSN                1
 GAP=138        0.92       6.6     5.3  8.6 -0.2199E+01  0.9879E+01 -0.7190E+01E
 Epicentro: LOS SANTOS - SANTANDER                                             3
 ACTION:UPD 12-08-14 11:45 OP:ep   STATUS:               ID:20120719071126 L   I
 2012-07-19-0710-00M.COL___201                                                 6
 STAT SP IPHASW D HRMM SECON CODA AMPLIT PERI AZIMU VELO AIN AR TRES W  DIS CAZ7
 BAR2 SZ EP        711 46.77                             171     0.310   22 193 
 BAR2 SZ I         711 47.40         4.1 0.29            172             22 193 
 BAR2 SZ ES   1    712  2.16                             171     0.2 7   22 193 
 BRR  HZ EP   1    711 48.50                             152     0.4 7   73 299 
 BRR  HE ES   1    712  5.22                             152     0.4 7   73 299 
 BRR  HZ I         712  9.78         7.8 0.17            149             73 299 
 PAM  SZ EP        711 49.33                             151     0.210   78  38 
 PAM  SN ES   1    712  6.00                             151    -0.7 7   78  38 
 RUS  HN ES   1    712  8.90                             145    -0.2 7   99 176 
 PTB  HZ EP        711 53.29                             132    -0.5 9  148 260 
 PTB  HN ES   1    712 14.89                             132    -0.1 7  148 260 
 PTB  HZ I         712 17.93         2.8 0.19            132            148 260 
 ZAR  HN ES   1    712 24.80                             123    -0.1 6  206 293 
 ZAR  HZ I         712 30.10         5.2 0.42            123            206 293 
