 2011  519 0518 35.2 L   6.539 -73.544107.5  RSN  6 0.4 1.6LRSN                1
 GAP=110        0.95       6.4    11.2 13.2 -0.2096E+02  0.7432E+02 -0.3403E+02E
 Epicentro: EL CARMEN DE CHUCURI - SANTANDER                                   3
 ACTION:UP  11-06-29 08:54 OP:tino STATUS:               ID:20110519051835 L   I
 2011-05-19-0515-50S.COL___141                                                 6
 STAT SP IPHASW D HRMM SECON CODA AMPLIT PERI AZIMU VELO SNR AR TRES W  DIS CAZ7
 BAR2 SZ EP   1    518 51.19                             158     0.3 9   40  82 
 BAR2 SZ ES   1    519  2.81                             158    -0.3 9   40  82 
 BAR2 SZ I         519  4.88        29.3 0.40                            40  82 
 BTL  SZ EP   1    518 51.50                             152     0.1 9   52  36 
 BRR  HZ EP   1    518 51.48                             146    -0.5 9   65 344 
 BRR  HZ I         518 59.05         8.9 0.05                            65 344 
 RUS  HZ EP   1    518 54.52                             138     0.2 9   88 144 
 RUS  HZ I         519 16.97         4.7 0.37                            88 144 
 NOR  SN ES   2    519 25.14                             115     0.3 5  182 234 
 OCA  SZ EP        519  3.57                             114    -0.410  190   8 
 OCA  SZ ES   1    519 27.29                             114     0.8 7  190   8 
 OCA  SZ I         519 31.47         5.2 0.30                           190   8 
                                                                                
