 2013 1219 0810 52.5 L   6.802 -73.152146.0  RSN 13 0.5 2.0LRSN                1
 GAP=119        1.07       2.9     4.2  5.7 -0.1271E+01  0.3351E+01  0.2406E+00E
 Epicentro: LOS SANTOS - SANTANDER                                             3
 ACTION:UPD 14-01-13 10:19 OP:ep   STATUS:               ID:20131219081053dL   I
 OLDACT:DUP 13-12-19 11:06 OP:jn   STATUS:               ID:20131219081001d    3
 OLDACT:REG 13-12-19 08:19 OP:jn   STATUS:               ID:20131219081000     3
 2013-12-19-0810-00M.COL___285                                                 6
 STAT SP IPHASW D HRMM SECON CODA AMPLIT PERI AZIMU VELO AIN AR TRES W  DIS CAZ7
 BAR2 SZ EP        811 12.42                             170    0.2210 23.4 188 
 BAR2 SZ ES        811 27.50                             170   -0.0410 23.4 188 
 BAR2 SZ I         811 28.44        31.3 0.16            169           23.4 188 
 BRR  HZ EP        811 14.26                             153    0.5810 70.5 299 
 BRR  HN ES        811 30.60                             153    0.4410 70.5 299 
 BRR  HZ I         811 34.49        28.1 0.30            152           70.5 299 
 PAM  SZ EP        811 15.31                             151    0.5110 77.7  40 
 PAM  SN ES        811 32.03                             151   -0.1310 77.7  40 
 PAM  SZ I         811 34.38        16.9 0.54            154           77.7  40 
 RUS  HZ EP        811 16.33                             144   -0.0010  101 176 
 RUS  HN ES        811 34.38                             144   -0.5110  101 176 
 RUS  HZ I         811 36.29         9.6 0.28            145            101 176 
 PTB  HZ EP        811 19.26                             132   -0.21 9  147 259 
 PTB  HN ES        811 39.92                             132   -0.56 9  147 259 
 PTB  HZ I         811 42.52        14.6 0.14            132            147 259 
 OCA  HZ EP        811 21.02                             130    0.17 9  160 353 
 OCA  HN ES   1    811 42.21                             130   -0.71 7  160 353 
 OCA  HZ I         811 47.60        10.4 0.18            131            160 353 
 SPBC HZ EP        811 21.42                             129    0.39 9  163 219 
 SPBC HN ES        811 43.54                             129    0.29 9  163 219 
 SPBC HZ I         811 50.60        10.5 0.20            129            163 219 
 ZAR  HN ES   1    811 50.53                             122    0.34 6  203 292 
 ZAR  HZ I         811 57.07        19.3 0.32            123            203 292 
 NOR  HN ES        811 56.50                             118    0.42 8  234 234 
 SML  HZ EP        811 28.59                             117   -0.54 8  243 335 
 SML  HN ES        811 57.24                             117   -0.43 8  243 335 
 CHI  HZ EP        811 30.80                             117    0.55 8  249 195 
 CHI  HN ES        811 58.87                             117   -0.80 8  249 195 
 CHI  HZ I         812  9.61         2.9 0.50            118            249 195 
 URE  HN ES   2    812  4.29                             114   -1.24 4  283 292 
 PTGC HZ EP   1    811 35.57                             111   -0.89 5  309 159 
                                                                                
