 2011 1119 0253 38.0 L   6.795 -73.118154.0  RSN  5 0.3 1.3LRSN                1
 GAP=140        0.69       5.0     5.7  8.5 -0.9449E+01  0.6809E+01  0.1139E+02E
 Epicentro: LOS SANTOS - SANTANDER                                             3
 ACTION:UPD 12-07-13 16:11 OP:ep   STATUS:               ID:20111119025338 L   I
 2011-11-19-0252-32S.COL___179                                                 6
 STAT SP IPHASW D HRMM SECON CODA AMPLIT PERI AZIMU VELO AIN AR TRES W  DIS CAZ7
 BAR2 SZ EP   1    253 57.95                             171   -0.67 7 23.5 198 
 BRR  HZ EP   1    254  0.61                             153    0.41 7 74.2 298 
 BRR  HN ES   1    254 17.50                             153   -0.02 7 74.2 298 
 BRR  HZ I         254 25.30        10.5 0.40                          74.2 298 
 PAM  SZ EP   1    254  1.35                             153    0.34 7 75.9  37 
 PAM  SZ I         254  2.67         2.1 0.26                          75.9  37 
 PAM  SN ES        254 18.85                             153   -0.1110 75.9  37 
 RUS  HZ EP   1    254  2.39                             146   -0.12 7 99.8 178 
 RUS  HN ES   1    254 21.97                             146    0.34 7 99.8 178 
 RUS  HZ I         254 22.08         1.7 0.22                          99.8 178 
 NOR  SN ES   1    254 42.77                             120   -0.11 6  237 235 
                                                                                
