 2017  719 0822 47.6 L   6.747 -73.122145.2  RSN  5 0.1 1.4LRSN                1
 GAP=244        0.38       2.7     2.5  4.1  0.2165E+01  0.3329E+01 -0.1974E+01E
 Epicentro: LOS SANTOS - SANTANDER                                             3
 ACTION:UPD 17-08-30 15:34 OP:rebc STATUS:               ID:20170719082247 L   I
 OLDACT:REG 17-07-19 13:58 OP:dnl  STATUS:               ID:20170719081741     3
 2017-07-19-0818-00M.COL___365                                                 6
 STAT SP IPHASW D HRMM SECON CODA AMPLIT PERI AZIMU VELO AIN AR TRES W  DIS CAZ7
 BAR2 EZ EP        823  7.02                             172   -0.0910 18.4 201 
 BAR2 EZ ES        823 22.23                             172   -0.0710 18.4 201 
 BAR2 EZ I         823 22.85         6.6 0.42            169           18.4 201 
 RUS  HZ EP   2    823 11.04                             145    0.13 5 94.6 177 
 RUS  HN ES        823 29.23                             145    0.1710 94.6 177 
 RUS  HZ I         823 30.72         3.1 0.24            145           94.6 177 
 PTB  HZ EP   2    823 14.64                             132   -0.06 5  149 261 
 PTB  HN ES        823 35.96                             132    0.15 9  149 261 
 PTB  HZ I         823 38.09         2.4 0.12            130            149 261 
 SPBC HZ EP   2    823 16.07                             129    0.24 5  160 221 
 SPBC HN ES        823 37.57                             129   -0.25 9  160 221 
 SPBC HZ I         823 41.84         5.2 0.20            128            160 221 
 ZAR  HZ EP   2    823 20.46                             122   -0.07 4  209 293 
 ZAR  HE ES        823 46.21                             122    0.03 8  209 293 
 ZAR  HZ I         823 51.08         3.2 0.32            121            209 293 
                                                                                
