 2014  519 0922 59.2 L   6.843 -72.934  0.3  RSN  4 0.3 1.4LRSN                1
 GAP=254        0.51       2.3     4.5  4.1 -0.4442E+01  0.6943E+01 -0.7803E+00E
 Epicentro: CEPITA - SANTANDER                                                 3
 ACTION:UPD 15-03-16 16:59 OP:nd   STATUS:               ID:20140519092259 L   I
 OLDACT:REG 14-05-19 13:29 OP:spq  STATUS:               ID:20140519091809     3
 2014-05-19-0918-09M.COL___242                                                 6
 STAT SP IPHASW D HRMM SECON CODA AMPLIT PERI AZIMU VELO AIN AR TRES W  DIS CAZ7
 PTB  HZ EP        923 26.54                              47    0.2310  172 259 
 PTB  HN ES        923 47.33                              47   -0.1510  172 259 
 PTB  HZ I         923 54.79         3.4 0.42            129            172 259 
 SPBC HZ EP   1    923 28.18                              37    0.25 7  182 224 
 SPBC HN ES        923 50.33                              37   -0.0410  182 224 
 SPBC HZ I         923 56.25         4.2 0.14            128            182 224 
 SML  HZ EP        923 35.97                              37   -0.34 9  250 330 
 SML  HE ES        924  5.47                              37    0.19 9  250 330 
 SML  HZ I         924  7.95         4.2 0.10            118            250 330 
 GUY2CHZ EP   2    923 45.30                              36   -0.68 4  323 236 
 GUY2CHN ES   1    924 22.59                              36    0.11 6  323 236 
 GUY2CHZ I         924 28.90         1.1 0.64                           323 236 
 SJC  HZ EP   4    923 53.72                              36   -3.52 0  419 324 
 SJC  HE ES   4    924 35.54                              36   -7.00 0  419 324 
                                                                                
