 2016  319 0931 53.6 L   6.868 -73.183134.0  RSN  7 0.4 1.5LRSN                1
 GAP=180        0.78       2.9     4.4  7.1 -0.3468E+00  0.1406E+02 -0.1704E+01E
 Epicentro: ZAPATOCA - SANTANDER                                               3
 ACTION:UPD 16-05-13 21:25 OP:cam  STATUS:               ID:20160319093153 L   I
 OLDACT:REG 16-03-19 13:01 OP:dnl  STATUS:               ID:20160319092749     3
 2016-03-19-0927-49M.COL___309                                                 6
 STAT SP IPHASW D HRMM SECON CODA AMPLIT PERI AZIMU VELO AIN AR TRES W  DIS CAZ7
 BAR2 EZ EP   2    932 12.63                             167    0.64 5 30.5 180 
 BAR2 EZ ES        932 26.84                             167    0.5010 30.5 180 
 BAR2 EZ I         932 28.99         9.9 0.11            170           30.5 180 
 RUS  HZ EP   2    932 16.85                             139    0.04 5  108 174 
 RUS  HN ES        932 34.35                             139   -0.5810  108 174 
 RUS  HZ I         932 35.84         2.8 0.29            145            108 174 
 PTB  HZ EP   2    932 19.66                             130    0.27 5  145 256 
 PTB  HE ES        932 39.48                             130   -0.04 9  145 256 
 PTB  HZ I         932 42.45         2.8 0.11            131            145 256 
 OCA  HZ EP   2    932 21.00                             128    0.76 5  152 354 
 OCA  HN ES        932 40.64                             128   -0.39 9  152 354 
 OCA  HZ I         932 45.96         7.9 0.24            130            152 354 
 SPBC HZ EP        932 21.51                             126   -0.04 9  167 216 
 SPBC HN ES        932 43.55                             126    0.19 9  167 216 
 SPBC HZ I         932 45.92         5.2 0.16            129            167 216 
 ZAR  HZ EP   2    932 24.94                             121    0.35 4  197 291 
 ZAR  HN ES        932 48.72                             121   -0.06 9  197 291 
 ZAR  HZ I         932 57.87         2.4 0.10            122            197 291 
 GUY2CHZ EP   4    932 38.47                             110    1.67 0  302 233 
 GUY2CHE ES        933 10.30                             110   -0.20 7  302 233 
 GUY2CHZ I         933 19.41         1.0 0.64                           302 233 
                                                                                
