 2012 1219 0408 15.7 L   6.718 -73.187147.2  RSN  4 0.3 1.4LRSN                1
 GAP=226        0.54       5.1     5.4  5.8  0.1390E+02 -0.7139E+00  0.1340E+01E
 Epicentro: VILLANUEVA - SANTANDER                                             3
 ACTION:UPD 13-01-04 14:28 OP:ep   STATUS:               ID:20121219040815 L   I
 2012-12-19-0400-00M.COL___243                                                 6
 STAT SP IPHASW D HRMM SECON CODA AMPLIT PERI AZIMU VELO AIN AR TRES W  DIS CAZ7
 BAR2 SZ EP   1    4 8 35.32                             174   -0.06 7 13.9 178 
 BAR2 SZ ES   2    4 8 49.92                             174   -0.78 5 13.9 178 
 BAR2 SZ I         4 8 51.91        14.1 0.19                          13.9 178 
 BRR  HZ EP     D  4 8 37.11                             153    0.0310 72.2 307 
 BRR  HN ES        4 8 53.89                             153    0.1510 72.2 307 
 BRR  HZ I         4 8 57.38         4.8 0.28                          72.2 307 
 RUS  HZ EP   1    4 8 38.93                             147   -0.09 7 92.0 173 
 RUS  HN ES   1    4 8 57.56                             147    0.37 7 92.0 173 
 RUS  HN I         4 8 58.77         2.8 0.20                          92.0 173 
 PTB  HZ EP   1    4 8 42.17                             134   -0.10 7  142 262 
 PTB  HN ES   1    4 9  2.86                             134   -0.11 7  142 262 
 PTB  HZ I         4 9  8.21         1.7 0.12                           142 262 
                                                                                
