 2017  919 0433 24.4 L   6.816 -73.061143.4  RSN  8 0.5 1.3LRSN                1
 GAP=147        0.82       4.7     4.6  5.5 -0.7400E+01  0.2114E+01  0.3142E+01E
 Epicentro: LOS SANTOS - SANTANDER                                             3
 ACTION:UPD 17-10-05 19:14 OP:rebc STATUS:               ID:20170919043324 L   I
 OLDACT:UP  17-09-19 15:33 OP:and  STATUS:               ID:20170919042739     3
 OLDACT:UP  17-09-19 15:33 OP:and  STATUS:               ID:20170919042739     3
 OLDACT:UP  17-09-19 15:33 OP:and  STATUS:               ID:20170919042739     3
 OLDACT:UP  17-09-19 15:32 OP:and  STATUS:               ID:20170919042739     3
 OLDACT:UP  17-09-19 15:32 OP:and  STATUS:               ID:20170919042739     3
 OLDACT:REG 17-09-19 12:52 OP:and  STATUS:               ID:20170919042739     3
 2017-09-19-0428-00M.COL___444                                                 6
 STAT SP IPHASW D HRMM SECON CODA AMPLIT PERI AZIMU VELO AIN AR TRES W  DIS CAZ7
 BAR2 EZ IP     C  433 43.68                             169   -0.1710 28.1 208 
 BAR2 EZ ES        433 59.04                             169    0.0210 28.1 208 
 BAR2 EZ I         434  1.43         6.5 0.38            169           28.1 208 
 PAM  EZ IP     C  433 46.58                             152    0.6310 70.3  35 
 PAM  EN ES   2    434  1.78                             152   -0.98 5 70.3  35 
 PAM  EZ I         434  6.00         2.8 0.58            154           70.3  35 
 BRR  HZ EP        433 45.51                             150   -0.2210 78.8 294 
 BRR  HN ES        434  2.83                             150    0.4410 78.8 294 
 RUS  HZ EP        433 47.88                             143   -0.1410  102 181 
 RUS  HN ES   2    434  6.78                             143    0.32 5  102 181 
 RUS  HZ I         434  6.83         1.4 0.32            145            102 181 
 SPBC HZ EP   9    433 52.49                             128   -0.93 0  171 221 
 SPBC HE ES        434 15.03                             128   -0.10 9  171 221 
 SPBC HZ I         434 17.39         2.9 0.00            129            171 221 
 ZAR  HZ EP   2    433 58.22                             121    0.70 4  212 291 
 ZAR  HN ES   2    434 22.48                             121   -0.88 4  212 291 
 NOR  HZ EP        434  0.74                             117   -0.18 8  243 235 
 NOR  HN ES        434 29.06                             117   -0.35 8  243 235 
 NOR  HZ I         434 33.09         1.5 0.36            119            243 235 
 GUY2CHZ EP   3    434  9.97                             111    1.10 2  310 236 
 GUY2CHN ES        434 43.44                             111   -0.13 7  310 236 
 GUY2CHZ I         434 50.09         1.0 0.28                           310 236 
                                                                                
