 2014  219 0648 20.4 L   7.450 -73.191132.4  RSN  8 0.5 1.9LRSN                1
 GAP=112        1.03       3.5     5.1  8.2  0.2080E+01  0.1618E+02  0.3492E+01E
 Epicentro: EL PLAYON - SANTANDER                                              3
 ACTION:UPD 14-03-10 08:11 OP:ep   STATUS:               ID:20140219064820 L   I
 OLDACT:REG 14-02-19 12:01 OP:fm   STATUS:               ID:20140219064735     3
 2014-02-19-0647-35M.COL___215                                                 6
 STAT SP IPHASW D HRMM SECON CODA AMPLIT PERI AZIMU VELO AIN AR TRES W  DIS CAZ7
 PAM  SZ EP        648 40.39                             156    0.3910 55.6 103 
 PAM  SN ES   1    648 55.35                             156    0.08 7 55.6 103 
 PAM  SZ I         648 58.12         5.1 0.37            158           55.6 103 
 OCA  HZ EP        648 41.90                             144    0.3810 88.4 351 
 OCA  HN ES        648 58.30                             144    0.3310 88.4 351 
 OCA  HZ I         649  0.49        11.4 0.25            146           88.4 351 
 BAR2 SZ EP        648 41.97                             142   -0.1310 94.8 179 
 BAR2 SZ ES        648 58.50                             142   -0.5110 94.8 179 
 BAR2 SZ I         648 59.60        48.4 0.12            145           94.8 179 
 PTB  HZ EP        648 48.60                             124   -0.16 9  172 234 
 PTB  HN ES   1    649 10.44                             124   -0.40 7  172 234 
 PTB  HZ I         649 12.28         7.5 0.24            127            172 234 
 SML  HZ IP     C  648 48.88                             123   -0.45 9  178 327 
 SML  HE ES        649 11.05                             123   -0.82 9  178 327 
 SML  HZ I         649 13.29        19.1 0.09            125            178 327 
 ZAR  HN ES        649 13.69                             122    0.72 9  184 272 
 SPBC HZ EP   2    648 54.43                             117    0.41 4  221 206 
 SPBC HN ES   2    649 20.97                             117    0.76 4  221 206 
 NOR  HZ EP        649  0.50                             111    0.09 7  279 222 
                                                                                
