 2010  119 0215  1.4 L   6.075 -73.642120.5  RSN  6 0.5 1.5LRSN                1
 GAP=128        0.97       8.9     6.4 19.7  0.2443E+01  0.6284E+02  0.9981E+02E
 Epicentro: CHIPATA - SANTANDER                                                3
 ACTION:UP  10-08-24 09:44 OP:vdl  STATUS:               ID:20100119021500 L   I
 2010-01-19-0210-21S.COL___096                                                 6
 STAT SP IPHASW D HRMM SECON CODA AMPLIT PERI AZIMU VELO SNR AR TRES W  DIS CAZ7
 RUS  BZ EP        215 20.34                             150     0.110   65 108 
 RUS  BE ES   2    215 34.43                             150    -0.4 5   65 108 
 RUS  BZ I         215 38.46         6.5 1.05                            65 108 
 BAR2 SZ ES   1    215 35.74                             146     0.2 7   76  42 
 CHI  HZ EP   1    215 27.99                             123    -0.2 7  160 184 
 CHI  HN ES   2    215 48.74                             123    -0.4 5  160 184 
 CHI  HZ I         215 54.32         2.3 0.36                           160 184 
 HEL  HN ES   1    215 57.65                             116    -0.7 6  209 274 
 HEL  HZ I         216  0.48         4.4 0.30                           209 274 
 RREF BN ES   1    216  3.88                             113     1.0 6  229 236 
 RREF BZ I         216  6.94         4.0 0.33                           229 236 
 PRA  HN ES   3    216 14.63                             107    -0.4 2  295 208 
                                                                                
