 2013 1219 0541 34.4 L   6.780 -73.244147.6  RSN  4 0.5 1.1LRSN                1
 GAP=192        1.16       7.8     9.4 10.9  0.3678E+02 -0.1454E+02 -0.1638E+02E
 Epicentro: ZAPATOCA - SANTANDER                                               3
 ACTION:UPD 14-01-13 10:19 OP:ep   STATUS:               ID:20131219054135dL   I
 OLDACT:REG 13-12-19 08:15 OP:jn   STATUS:               ID:20131219054002d    3
 2013-12-19-0540-00M.COL___285                                                 6
 STAT SP IPHASW D HRMM SECON CODA AMPLIT PERI AZIMU VELO AIN AR TRES W  DIS CAZ7
 BRR  HN ES        542 12.16                             156    0.4810 63.1 305 
 BRR  HZ I         542 13.59         4.4 0.34            156           63.1 305 
 RUS  HZ EP        541 58.50                             145    0.1810 99.7 170 
 RUS  HN ES        542 16.58                             145   -0.3510 99.7 170 
 RUS  HZ I         542 19.23         1.0 0.26            146           99.7 170 
 PTB  HZ EP        542  1.25                             135    0.67 9  137 259 
 PTB  HN ES        542 20.29                             135   -0.68 9  137 259 
 PTB  HZ I         542 23.81         2.4 0.22            136            137 259 
 SML  HZ EP   1    542 10.45                             118   -0.48 6  241 338 
 SML  HN ES   2    542 38.60                             118   -0.79 4  241 338 
                                                                                
