 2010 1019 0614 23.0 L   6.836 -73.071144.4  RSN 13 0.4 2.5LRSN                1
 GAP=166        0.83       3.1     5.7  5.7 -0.7308E+01  0.6748E+01  0.1869E+01E
 Epicentro: LOS SANTOS - SANTANDER                                             3
 ACTION:UP  11-02-18 11:10 OP:tino STATUS:               ID:20101019061423 L   I
 2010-10-19-0612-14S.COL___123                                                 6
 STAT SP IPHASW D HRMM SECON CODA AMPLIT PERI AZIMU VELO SNR AR TRES W  DIS CAZ7
 BAR2 SZ EP        614 42.75                             168     0.110   30 205 
 BAR2 SZ ES   1    614 57.72                             168    -0.2 7   30 205 
 BAR2 SZ I         615  0.20        64.6 0.39                            30 205 
 BRR  HZ EP        614 44.38                             150     0.010   77 293 
 BRR  HN ES   1    615  1.10                             150     0.1 7   77 293 
 BRR  HZ I         615  3.34        64.1 0.18                            77 293 
 RUS  HZ EP   1    614 46.78                             142    -0.1 7  104 181 
 RUS  HE ES   1    615  5.69                             142     0.1 7  104 181 
 RUS  HZ I         615  7.23        52.4 0.23                           104 181 
 GUE  SZ EP   1    614 47.40                             140     0.2 7  111   8 
 GRA  SZ IP        614 47.26                             138    -0.410  120  14 
 GRA  SZ ES   1    615  6.62                             138    -0.2 7  120  14 
 GRA  SZ I         615  8.04        40.0 0.34                           120  14 
 OCA  SZ EP   1    614 51.11                             130     0.1 7  158 350 
 OCA  SZ ES   1    615 13.21                             130     0.4 7  158 350 
 OCA  SZ I         615 18.14        46.4 0.22                           158 350 
 NOR  SZ EP   1    614 59.17                             117    -0.5 6  244 235 
 NOR  SE ES   1    615 27.65                             117    -0.6 6  244 235 
 NOR  SZ I         615 33.06         3.9 0.08                           244 235 
 CHI  HZ EP   1    615  1.17                             116    -0.1 6  255 197 
 CHI  HE ES   2    615 31.12                             116    -0.1 4  255 197 
 CHI  HZ I         615 36.12        15.0 0.21                           255 197 
 ROSC BZ EP   1    615  2.86                             116     0.9 6  260 212 
 ROSC BE ES   1    615 33.10                             116     0.8 6  260 212 
 ROSC BZ I         615 39.91        24.6 0.34                           260 212 
 HEL  HZ EP   1    615  4.61                             114     0.4 6  281 255 
 HEL  HE ES   2    615 35.87                             114    -0.4 4  281 255 
 HEL  HZ I         615 41.56        27.0 0.45                           281 255 
 DBB  SZ EP   1    615 11.15                             109    -0.2 5  347 274 
 TOL  SZ EP   1    615 12.85                             108     0.6 5  352 225 
 PRA  HZ EP   1    615 16.57                             106    -0.8 4  400 210 
 PRA  HN ES   1    615 59.37                             106    -0.4 4  400 210 
 PRA  HZ I         616  6.29        68.2 0.36                           400 210 
                                                                                
