 2016  519 0048  9.5 L   7.406 -73.178130.7  RSN 13 0.4 2.4LRSN                1
 GAP= 78        0.86       2.7     3.0  4.4 -0.1345E+01  0.3004E+01  0.1592E+01E
 Epicentro: EL PLAYON - SANTANDER                                              3
 ACTION:UPD 16-08-18 17:47 OP:cam  STATUS:               ID:20160519004809 L   I
 OLDACT:UP  16-05-19 17:09 OP:mh   STATUS:               ID:20160519004744     3
 OLDACT:UP  16-05-19 17:09 OP:mh   STATUS:               ID:20160519004744     3
 OLDACT:UP  16-05-19 17:09 OP:mh   STATUS:               ID:20160519004744     3
 OLDACT:UP  16-05-19 17:07 OP:mh   STATUS:               ID:20160519004744     3
 OLDACT:REG 16-05-19 12:13 OP:mh   STATUS:               ID:20160519004744     3
 2016-05-19-0047-44M.COL___301                                                 6
 STAT SP IPHASW D HRMM SECON CODA AMPLIT PERI AZIMU VELO AIN AR TRES W  DIS CAZ7
 PAM  EZ EP        048 29.27                             157    0.4710 53.4  98 
 PAM  EN ES        048 44.21                             157    0.3810 53.4  98 
 PAM  EZ I         048 46.49        34.6 0.24            158           53.4  98 
 BRR  HZ EP     C  048 29.00                             151    0.1510 67.6 241 
 BRR  HN ES        048 43.99                             151    0.0710 67.6 241 
 BRR  HZ I         048 48.03        60.5 0.36            149           67.6 241 
 BAR2 EZ EP        048 30.90                             143    0.2210 90.0 180 
 BAR2 EZ ES        048 46.93                             143   -0.2510 90.0 180 
 BAR2 EZ I         048 48.41        88.2 0.19            142           90.0 180 
 OCA  HZ EP        048 30.64                             142   -0.1710 93.4 350 
 OCA  HN ES        048 47.39                             142   -0.0110 93.4 350 
 OCA  HZ I         048 49.56        56.5 0.62            144           93.4 350 
 RUS  HZ EP        048 37.81                             125   -0.09 9  168 176 
 RUS  HN ES        048 59.39                             125   -0.64 9  168 176 
 PTB  HZ EP        048 37.29                             124   -0.28 9  171 236 
 PTB  HN ES        048 58.78                             124   -0.66 9  171 236 
 PTB  HZ I         049  0.68        21.4 0.25            123            171 236 
 ZAR  HZ EP        048 38.92                             122   -0.18 9  186 273 
 ZAR  HN ES        049  2.26                             122    0.10 9  186 273 
 ZAR  HZ I         049  6.44        45.7 0.18            121            186 273 
 SPBC HZ EP        048 43.06                             117    0.44 8  218 207 
 SPBC HN ES        049  8.56                             117    0.13 8  218 207 
 SPBC HZ I         049 17.96        26.1 0.16            117            218 207 
 NOR  HZ EP        048 49.32                             111    0.18 7  277 223 
 NOR  HE ES        049 20.12                             111    0.09 7  277 223 
 NOR  HZ I         049 26.75        16.5 0.36            111            277 223 
 HEL  HZ EP        048 50.78                             110   -0.57 7  293 243 
 HEL  HN ES        049 24.42                             110    0.44 7  293 243 
 HEL  HZ I         049 30.01         8.1 0.30            110            293 243 
 SDV  BZ EP        048 54.26                             107   -0.60 7  325  60 
 SDV  BN ES   4    049 28.17                             107   -2.05 0  325  60 
 SDV  BZ I         049 33.96         7.8 0.40            108            325  60 
 ANIL HE ES   4    049 51.58                             103    4.20 0  406 217 
 ORTC HZ EP   1    049  9.38                             101   -0.02 4  449 211 
 ORTC HN ES   4    049 52.85                             101   -3.25 0  449 211 
 ORTC HZ I         050  6.35         5.8 0.23            102            449 211 
 PRA  HZ EP        049 10.59                             101    1.12 5  450 205 
 PRA  HN ES   1    049 56.81                             101    0.58 4  450 205 
 PRA  HZ I         050  7.11         5.5 0.58            102            450 205 
                                                                                
