 2011 1219 0404 15.0 L   6.783 -73.052148.3  RSN  6 0.1 1.6LRSN                1
 GAP=208        0.28       2.0     4.4  2.9  0.3290E+01 -0.1382E+00  0.1212E+01E
 Epicentro: LOS SANTOS - SANTANDER                                             3
 ACTION:UPD 12-07-13 16:17 OP:ep   STATUS:               ID:20111219040415 L   I
 2011-12-19-0400-00M.COL___188                                                 6
 STAT SP IPHASW D HRMM SECON CODA AMPLIT PERI AZIMU VELO AIN AR TRES W  DIS CAZ7
 BAR2 SZ EP        4 4 34.92                             170   -0.0910 25.6 214 
 BAR2 SZ ES   2    4 4 50.71                             170    0.12 5 25.6 214 
 BAR2 SZ I         4 4 51.75        16.3 0.25                          25.6 214 
 GIR2 SZ EP   2    4 4 35.40                             166    0.26 5 36.2 334 
 BRR  HZ EP        4 4 36.98                             150   -0.0610 81.2 296 
 BRR  HE ES   1    4 4 54.23                             150    0.02 7 81.2 296 
 BRR  HZ I         4 4 57.61         8.3 0.18                          81.2 296 
 RUS  HZ EP   1    4 4 38.89                             145    0.00 7 98.6 182 
 RUS  HE ES   1    4 4 57.49                             145    0.00 7 98.6 182 
 RUS  HZ I         4 4 58.84         3.9 0.30                          98.6 182 
 CTAU SZ EP   1    4 4 48.65                             123    0.10 6  206 212 
 CHI  HZ EP   1    4 4 53.01                             117    0.01 6  250 198 
 CHI  HN ES   1    4 5 22.62                             117    0.01 6  250 198 
 CHI  HZ I         4 5 28.24         2.3 0.21                           250 198 
                                                                                
