 2013  119 0954 32.2 L   6.154 -73.603106.8  RSN  4 0.5 1.1LRSN                1
 GAP=250        0.87      10.8     6.2 12.5  0.1108E+02  0.3480E+02  0.3597E+02E
 Epicentro: LA PAZ - SANTANDER                                                 3
 ACTION:UPD 13-02-15 09:15 OP:ep   STATUS:               ID:20130119095432 L   I
 2013-01-19-0950-00M.COL___241                                                 6
 STAT SP IPHASW D HRMM SECON CODA AMPLIT PERI AZIMU VELO AIN AR TRES W  DIS CAZ7
 BAR2 SZ EP   1    954 49.56                             145    0.22 7 67.2  44 
 BAR2 SZ ES   1    955  2.13                             145   -0.59 7 67.2  44 
 PTB  HZ EP   1    954 52.38                             132    0.41 7  104 294 
 PTB  HN ES   1    955  7.37                             132   -0.02 7  104 294 
 PTB  HZ I         955  8.25         1.9 0.14            133            104 294 
 BRR  HE ES   1    955  8.42                             131    0.66 7  106 353 
 ZAR  HZ EP   1    955  1.91                             112   -0.38 6  203 317 
 ZAR  HN ES   1    955 25.25                             112   -0.53 6  203 317 
 ZAR  HZ I         955 26.09         2.1 0.48            113            203 317 
                                                                                
