 2017  719 0941 10.6 L   6.795 -73.187136.0  RSN  4 0.3 1.2LRSN                1
 GAP=241        0.47       5.6     3.7  5.8  0.7505E+01  0.4534E+01 -0.6007E+01E
 Epicentro: ZAPATOCA - SANTANDER                                               3
 ACTION:UPD 17-08-30 15:34 OP:rebc STATUS:               ID:20170719094110 L   I
 OLDACT:REG 17-07-19 14:03 OP:dnl  STATUS:               ID:20170719093741     3
 2017-07-19-0938-00M.COL___365                                                 6
 STAT SP IPHASW D HRMM SECON CODA AMPLIT PERI AZIMU VELO AIN AR TRES W  DIS CAZ7
 BAR2 EZ EP        941 28.98                             170   -0.1010 22.5 179 
 BAR2 EZ ES        941 43.52                             170    0.0610 22.5 179 
 BAR2 EZ I         941 45.95         4.5 0.70             47           22.5 179 
 RUS  HZ EP   2    941 33.16                             142   -0.28 5  100 173 
 RUS  HN ES        941 51.26                             142    0.0410  100 173 
 RUS  HZ I         941 53.05         2.1 0.48             47            100 173 
 PTB  HZ EP   2    941 37.14                             131    0.74 5  143 259 
 PTB  HN ES        941 56.39                             131   -0.11 9  143 259 
 PTB  HZ I         941 59.02         1.9 0.18             47            143 259 
 ZAR  HZ EP   3    941 42.14                             121    0.09 2  200 293 
 ZAR  HZ I         942 17.22         2.4 0.48             37            200 293 
                                                                                
