 2012  719 0804  3.0 L   6.752 -73.162146.5  RSN  5 0.5 1.5LRSN                1
 GAP=149        1.05      11.1     9.8 11.1 -0.2247E+02  0.1021E+02 -0.1399E+01E
 Epicentro: LOS SANTOS - SANTANDER                                             3
 ACTION:UPD 12-08-14 11:45 OP:ep   STATUS:               ID:20120719080403 L   I
 2012-07-19-0800-00M.COL___201                                                 6
 STAT SP IPHASW D HRMM SECON CODA AMPLIT PERI AZIMU VELO AIN AR TRES W  DIS CAZ7
 BAR2 SZ EP   1    8 4 23.02                             173     0.4 7   18 187 
 BAR2 SZ ES   1    8 4 37.42                             173    -0.5 7   18 187 
 BAR2 SZ I         8 4 38.84         6.4 0.37            170             18 187 
 BRR  HZ EP        8 4 24.68                             152     0.410   72 303 
 BRR  HZ I         8 4 24.96        12.1 0.15            151             72 303 
 BRR  HN ES   1    8 4 41.49                             152     0.6 7   72 303 
 PAM  SZ EP   2    8 4 25.74                             149     0.1 5   83  38 
 PTB  HZ EP        8 4 29.38                             133    -0.4 9  145 261 
 PTB  HN ES   1    8 4 50.50                             133    -0.2 7  145 261 
 PTB  HZ I         8 4 53.75         1.6 0.23            132            145 261 
 OCA  HN ES   2    8 4 53.42                             129    -0.9 5  165 354 
