 2014  319 0402 21.7 L   6.829 -73.121147.2  RSN 11 0.4 2.0LRSN                1
 GAP=203        0.85       3.0     4.0  5.5  0.1947E+01  0.4348E+01 -0.2701E+01E
 Epicentro: LOS SANTOS - SANTANDER                                             3
 ACTION:UPD 14-04-09 23:18 OP:nd   STATUS:               ID:20140319040221 L   I
 OLDACT:REG 14-03-19 08:47 OP:cam  STATUS:               ID:20140319035806     3
 2014-03-19-0358-06M.COL___232                                                 6
 STAT SP IPHASW D HRMM SECON CODA AMPLIT PERI AZIMU VELO AIN AR TRES W  DIS CAZ7
 BAR2 SZ EP        4 2 41.87                             169    0.2710 27.0 194 
 BAR2 SZ ES        4 2 57.03                             169   -0.0810 27.0 194 
 BAR2 SZ I         4 2 58.62        27.6 0.46            168           27.0 194 
 RUS  HZ EP        4 2 46.22                             143    0.3910  104 178 
 RUS  HN ES        4 3  4.81                             143    0.1710  104 178 
 RUS  HZ I         4 3  6.83         9.5 0.48            145            104 178 
 PTB  HZ EP        4 2 48.73                             132   -0.38 9  151 258 
 PTB  HN ES        4 3  9.99                             132   -0.47 9  151 258 
 PTB  HZ I         4 3 11.69        14.2 0.16            130            151 258 
 OCA  HN ES   4    4 3 14.24                             130    2.40 0  157 352 
 SPBC HZ EP        4 2 50.87                             129    0.14 9  167 219 
 SPBC HN ES        4 3 12.93                             129   -0.42 9  167 219 
 SPBC HZ I         4 3 17.83        15.4 0.22            129            167 219 
 ZAR  HE ES        4 3 20.30                             122    0.41 8  205 291 
 NOR  HZ EP        4 2 58.08                             118    0.11 8  239 234 
 NOR  HE ES        4 3 26.59                             118    0.35 8  239 234 
 NOR  HZ I         4 3 30.11         9.2 0.18            118            239 234 
 SML  HZ EP        4 2 58.33                             118    0.09 8  242 334 
 SML  HE ES        4 3 26.56                             118   -0.16 8  242 334 
 SML  HZ I         4 3 33.52        12.9 0.26            118            242 334 
 CHI  HZ EP        4 2 59.77                             117   -0.14 8  252 196 
 CHI  HN ES        4 3 29.27                             117   -0.43 8  252 196 
 CHI  HZ I         4 3 33.28         3.6 0.32            118            252 196 
 HEL  HZ EP   4    4 3  3.48                             115    1.09 0  276 255 
 HEL  HN ES        4 3 34.82                             115    0.71 7  276 255 
 HEL  HZ I         4 3 41.15         5.0 0.70            115            276 255 
 URE  HZ EP        4 3  2.33                             114   -0.68 7  285 291 
 URE  HE ES   4    4 3 33.02                             114   -2.20 0  285 291 
 URE  HZ I         4 3 45.89         6.1 0.28            114            285 291 
 GUY2CHZ EP   4    4 3  6.89                             112    1.03 0  305 235 
 GUY2CHE ES   4    4 3 39.91                             112   -0.37 0  305 235 
 GUY2CHZ I         4 3 47.65         5.1 0.56                           305 235 
 SJC  HN EP   4    4 3 16.24                             106   -0.95 0  408 326 
 SJC  HE ES   4    4 3 58.49                             106   -1.97 0  408 326 
                                                                                
