 2015 1019 0437 25.3 L   6.792 -73.157145.5  RSN  9 0.4 1.8LRSN                1
 GAP=136        0.88       2.7     4.0  6.0 -0.6043E+00  0.5300E+01  0.2726E+01E
 Epicentro: LOS SANTOS - SANTANDER                                             3
 ACTION:UPD 15-12-22 20:41 OP:cam  STATUS:               ID:20151019043725 L   I
 OLDACT:UP  15-10-19 13:55 OP:mh   STATUS:               ID:20151019042747     3
 OLDACT:UP  15-10-19 13:55 OP:mh   STATUS:               ID:20151019042747     3
 OLDACT:UP  15-10-19 13:54 OP:mh   STATUS:               ID:20151019042747     3
 OLDACT:REG 15-10-19 12:41 OP:mh   STATUS:               ID:20151019042747     3
 2015-10-19-0427-47M.COL___331                                                 6
 STAT SP IPHASW D HRMM SECON CODA AMPLIT PERI AZIMU VELO AIN AR TRES W  DIS CAZ7
 BRR  HZ EP        437 46.42                             153    0.0710 70.5 300 
 BRR  HN ES        438  3.58                             153    0.7910 70.5 300 
 BRR  HZ I         438  7.51         9.3 0.32            152           70.5 300 
 PAM  EZ EP        437 47.67                             150    0.1310 78.8  40 
 PAM  EN ES   1    438  4.46                             150   -0.45 7 78.8  40 
 PAM  EZ I         438  7.21         6.7 0.42            155           78.8  40 
 RUS  HZ EP   1    437 48.86                             144   -0.08 7 99.8 175 
 RUS  HN ES        438  7.23                             144   -0.1710 99.8 175 
 RUS  HZ I         438  7.64         8.7 0.24            148           99.8 175 
 OCA  HZ EP        437 53.50                             130   -0.12 9  161 354 
 OCA  HN ES        438 15.47                             130   -0.27 9  161 354 
 OCA  HZ I         438 22.80        14.0 0.22            133            161 354 
 SPBC HZ EP        437 53.53                             129   -0.09 9  162 219 
 SPBC HN ES   1    438 15.95                             129    0.23 7  162 219 
 SPBC HZ I         438 23.87         9.1 0.44            132            162 219 
 ZAR  HZ EP   1    437 58.00                             123    0.38 6  203 292 
 ZAR  HN ES        438 22.46                             123   -0.38 9  203 292 
 ZAR  HZ I         438 27.69         7.2 0.42            125            203 292 
 CHI  HZ EP        438  2.86                             117    0.03 8  248 195 
 CHI  HN ES        438 32.10                             117   -0.03 8  248 195 
 CHI  HZ I         438 37.18         4.4 0.34            120            248 195 
 HEL  HZ EP   1    438  5.89                             115    0.57 6  271 256 
 HEL  HN ES        438 35.65                             115   -0.90 8  271 256 
 URE  HN ES   4    438 34.36                             114   -3.83 0  283 292 
 GUY2CHZ EP        438  9.15                             112    0.45 7  300 235 
 GUY2CHN ES   4    438 46.94                             112    4.36 0  300 235 
 GUY2CHZ I         438 50.78         3.0 0.34                           300 235 
                                                                                
