 2010  619 0446 10.3 L   6.788 -73.146140.8  RSN  6 0.3 1.6LRSN                1
 GAP=155        0.88       4.0     8.8  7.4 -0.1086E+02 -0.1188E+02 -0.1209E+01E
 Epicentro: LOS SANTOS - SANTANDER                                             3
 ACTION:UP  10-08-24 10:11 OP:vdl  STATUS:               ID:20100619044610 L   I
 2010-06-19-0444-06S.COL___118                                                 6
 STAT SP IPHASW D HRMM SECON CODA AMPLIT PERI AZIMU VELO SNR AR TRES W  DIS CAZ7
 BAR2 SZ ES   1    446 43.92                             171    -0.2 7   22 191 
 BRR  HZ IP     D  446 30.85                             151    -0.110   72 299 
 BRR  HE ES   1    446 47.19                             151     0.1 7   72 299 
 BRR  HZ I         446 51.95        11.4 0.17                            72 299 
 RUS  HZ EP        446 33.49                             143     0.010   99 176 
 RUS  HE ES   1    446 51.72                             143     0.2 7   99 176 
 RUS  HZ I         446 52.65         4.1 0.20                            99 176 
 BRI  SZ IP        446 33.63                             140    -0.210  110  21 
 BRI  SZ ES   1    446 52.66                             140     0.5 7  110  21 
 GUE  SZ IP        446 35.39                             138     0.710  118  12 
 GUE  SZ ES   1    446 53.62                             138    -0.1 7  118  12 
 GRA  SZ IP        446 34.81                             136    -0.410  127  17 
 GRA  SZ ES   1    446 54.25                             136    -0.4 7  127  17 
                                                                                
