 2012  919 0900 29.3 L   6.740 -73.169142.0  RSN  4 0.3 1.2LRSN                1
 GAP=230        0.67       6.9     6.7  7.2  0.2322E+02  0.5645E+01  0.1776E+01E
 Epicentro: VILLANUEVA - SANTANDER                                             3
 ACTION:UPD 12-10-22 14:19 OP:ep   STATUS:               ID:20120919090029 L   I
 2012-09-19-0900-00M.COL___226                                                 6
 STAT SP IPHASW D HRMM SECON CODA AMPLIT PERI AZIMU VELO AIN AR TRES W  DIS CAZ7
 BAR2 SZ EP   1    9 0 47.96                             173   -0.37 7 16.4 185 
 BAR2 SZ ES   1    9 1  3.04                             173   -0.15 7 16.4 185 
 BAR2 SZ I         9 1  5.13         5.2 0.28                          16.4 185 
 BRR  HZ EP   1    9 0 49.81                             151   -0.28 7 72.4 304 
 BRR  HZ I         9 0 56.73         4.3 0.44                          72.4 304 
 BRR  HN ES   1    9 1  6.77                             151    0.45 7 72.4 304 
 RUS  HZ EP   1    9 0 52.34                             145    0.14 7 94.2 174 
 RUS  HE ES   1    9 1 10.24                             145    0.16 7 94.2 174 
 RUS  HZ I         9 1 12.87         1.7 0.34                          94.2 174 
 PTB  HZ EP   1    9 0 56.07                             132    0.47 7  144 261 
 PTB  HE ES   1    9 1 15.71                             132   -0.42 7  144 261 
                                                                                
