 2011 1119 0827 39.0 L   6.791 -73.157144.0  RSN 10 0.4 2.3LRSN                1
 GAP=135        0.83       3.2     4.4  5.9 -0.1679E+01  0.9331E+01  0.1786E+01E
 Epicentro: LOS SANTOS - SANTANDER                                             3
 ACTION:UPD 12-07-13 16:11 OP:ep   STATUS:               ID:20111119082739 L   I
 2011-11-19-0825-49S.COL___178                                                 6
 STAT SP IPHASW D HRMM SECON CODA AMPLIT PERI AZIMU VELO AIN AR TRES W  DIS CAZ7
 BAR2 SZ EP        827 58.66                             171    0.2310 22.1 187 
 BAR2 SZ ES   1    828 13.10                             171   -0.45 7 22.1 187 
 BAR2 SZ I         828 15.39        88.7 0.26                          22.1 187 
 BRR  HZ IP     C  828  0.50                             152    0.5410 70.6 300 
 BRR  HZ I         828  0.76       141.1 0.15                          70.6 300 
 BRR  HN ES   1    828 16.94                             152    0.66 7 70.6 300 
 PAM  SZ EP   1    828  1.37                             150    0.21 7 79.0  40 
 PAM  SN ES   1    828 18.17                             150   -0.25 7 79.0  40 
 PAM  SZ I         828 21.23        14.9 0.25                          79.0  40 
 RUS  HZ EP   1    828  2.44                             144   -0.11 7 99.7 175 
 RUS  HN ES   1    828 20.95                             144    0.07 7 99.7 175 
 RUS  HZ I         828 22.49        23.2 0.35                          99.7 175 
 OCA  SZ EP        828  7.06                             129   -0.23 9  161 354 
 OCA  SZ ES   1    828 29.10                             129   -0.23 7  161 354 
 OCA  SZ I         828 35.57        24.9 0.32                           161 354 
 ZAR  HZ EP   1    828 10.63                             122   -0.65 6  203 293 
 ZAR  HE ES   1    828 36.08                             122   -0.35 6  203 293 
 ZAR  HZ I         828 43.63        24.5 0.27                           203 293 
 NOR  SZ EP        828 14.09                             118   -0.39 8  233 234 
 NOR  SN ES   1    828 42.53                             118    0.40 6  233 234 
 CHI  HZ EP   1    828 16.29                             117   -0.20 6  247 195 
 CHI  HZ I         828 17.66         4.9 0.17                           247 195 
 CHI  HN ES   1    828 45.29                             117   -0.42 6  247 195 
 HEL  HZ EP   1    828 19.62                             115    0.63 6  271 256 
 HEL  HN ES   1    828 49.53                             115   -0.63 6  271 256 
 HEL  HZ I         828 57.22        10.5 0.26                           271 256 
 RREF HZ EP   1    828 25.62                             111    0.71 5  320 229 
                                                                                
