 2017  519 0422 37.9 L   6.741 -73.109145.9  RSN  5 0.3 1.6LRSN                1
 GAP=187        0.66       4.3     3.8  7.2 -0.5805E+01  0.2716E+01  0.7287E+01E
 Epicentro: JORDAN - SANTANDER                                                 3
 ACTION:UPD 17-06-16 13:37 OP:jn   STATUS:               ID:20170519042237 L   I
 OLDACT:UP  17-05-19 14:46 OP:dnl  STATUS:               ID:20170519041741     3
 OLDACT:UP  17-05-19 14:46 OP:dnl  STATUS:               ID:20170519041741     3
 OLDACT:UP  17-05-19 14:46 OP:dnl  STATUS:               ID:20170519041741     3
 OLDACT:UP  17-05-19 14:46 OP:dnl  STATUS:               ID:20170519041741     3
 OLDACT:UP  17-05-19 14:45 OP:dnl  STATUS:               ID:20170519041741     3
 OLDACT:REG 17-05-19 12:48 OP:dnl  STATUS:               ID:20170519041741     3
 2017-05-19-0418-00M.COL___350                                                 6
 STAT SP IPHASW D HRMM SECON CODA AMPLIT PERI AZIMU VELO AIN AR TRES W  DIS CAZ7
 BRR  HZ EP        422 59.50                             150    0.0410 78.0 301 
 BRR  HE ES        423 16.63                             150    0.3510 78.0 301 
 BRR  HZ I         423 19.61        10.9 0.34            146           78.0 301 
 PAM  EZ EP        423  0.57                             150    0.2710 80.2  34 
 PAM  EN ES        423 17.44                             150   -0.3410 80.2  34 
 PAM  EZ I         423 18.10         4.3 0.40            152           80.2  34 
 PTB  HZ EP   2    423  4.62                             131   -0.52 5  151 262 
 PTB  HN ES   4    423 25.14                             131   -1.24 0  151 262 
 PTB  HZ I         423 31.02         3.6 0.38            130            151 262 
 SPBC HZ EP   2    423  6.47                             129    0.29 5  161 222 
 SPBC HN ES        423 28.12                             129   -0.12 9  161 222 
 SPBC HZ I         423 29.32         6.8 0.18            130            161 222 
 ZAR  HZ EP   4    423 12.76                             121    1.76 0  210 293 
 ZAR  HE ES        423 36.58                             121   -0.24 8  210 293 
 ZAR  HZ I         423 42.21         5.1 0.62            121            210 293 
                                                                                
