 2011  719 0848 11.1 L   6.830 -73.104144.4  RSN  6 0.3 1.6LRSN                1
 GAP=160        0.53       2.7     7.1  5.1  0.6009E+01 -0.7838E+01 -0.4311E+01E
 Epicentro: LOS SANTOS - SANTANDER                                             3
 ACTION:UPD 12-07-25 14:01 OP:epov STATUS:               ID:20110719084811 L   I
 2011-07-19-0844-46S.COL___143                                                 6
 STAT SP IPHASW D HRMM SECON CODA AMPLIT PERI AZIMU VELO AIN AR TRES W  DIS CAZ7
 BAR2 SZ EP   2    848 31.58                             169    0.96 5 27.7 198 
 BAR2 SZ ES   1    848 45.77                             169   -0.11 7 27.7 198 
 BAR2 SZ I         848 46.55        14.5 0.27                          27.7 198 
 BRR  HZ EP        848 32.28                             151    0.0610 73.8 295 
 BRR  HN ES   1    848 48.82                             151    0.11 7 73.8 295 
 BRR  HZ I         848 52.57        11.5 0.17                          73.8 295 
 RUS  HZ EP   1    848 34.66                             143   -0.25 7  104 179 
 RUS  HE ES        848 53.46                             143   -0.0410  104 179 
 RUS  HZ I         848 55.10         2.5 0.29                           104 179 
 BRI  SZ EP   1    848 34.61                             142    0.14 7  104  19 
 BRI  SZ I         848 54.72         4.5 0.27                           104  19 
 OCA  SZ EP   1    848 38.91                             130   -0.11 7  158 351 
 OCA  SZ ES   1    849  0.56                             130   -0.26 7  158 351 
 OCA  SZ I         849  4.05         5.8 0.48                           158 351 
 PRA  HZ EP   1    849  4.98                             106   -0.16 4  397 210 
                                                                                
