 2014  519 0240 43.2 L   6.821 -73.138138.5  RSN 13 0.3 1.5LRSN                1
 GAP=136        0.62       2.5     2.8  5.5 -0.9806E+00  0.2850E+01  0.5124E+01E
 Epicentro: LOS SANTOS - SANTANDER                                             3
 ACTION:UPD 15-03-16 16:58 OP:nd   STATUS:               ID:20140519024043 L   I
 OLDACT:REG 14-05-19 12:36 OP:spq  STATUS:               ID:20140519023807     3
 2014-05-19-0238-07M.COL___257                                                 6
 STAT SP IPHASW D HRMM SECON CODA AMPLIT PERI AZIMU VELO AIN AR TRES W  DIS CAZ7
 BRR  HN ES   1    241 19.45                             151    0.06 8 70.8 297 
 BRR  HZ I         241 31.35         5.6 0.38            150           70.8 297 
 PAM  SZ EP   1    241  4.17                             150   -0.31 8 75.1  40 
 PAM  SN ES   1    241 21.46                             150    0.36 8 75.1  40 
 PAM  SZ I         241 25.23         3.9 0.42            156           75.1  40 
 RUS  HZ EP        241  6.65                             142    0.2710  103 177 
 RUS  HE ES   1    241 24.16                             142   -0.33 7  103 177 
 RUS  HZ I         241 27.12         3.6 0.24            149            103 177 
 PTB  HZ EP        241  9.56                             130   -0.11 9  149 258 
 PTB  HE ES        241 30.61                             130    0.27 9  149 258 
 PTB  HZ I         241 32.80         5.1 0.14            133            149 258 
 OCA  HE ES   1    241 32.15                             128   -0.05 7  158 353 
 OCA  HZ I         241 37.67         4.1 0.38            133            158 353 
 SPBC HZ EP   1    241 11.43                             127    0.08 7  165 219 
 SPBC HE ES   1    241 32.77                             127   -0.55 7  165 219 
 SPBC HZ I         241 36.56         7.7 0.24            132            165 219 
 ZAR  HN ES   1    241 39.43                             121   -0.64 6  204 291 
 ZAR  HZ I         241 47.76         2.7 0.28            124            204 291 
 NOR  HE ES   1    241 46.94                             117    0.52 6  237 234 
 NOR  HZ I         241 50.40         3.1 0.18            121            237 234 
 CHI  HZ EP   1    241 20.70                             115   -0.05 6  251 195 
 CHI  HN ES   1    241 49.92                             115   -0.14 6  251 195 
 ROSC BN ES   1    241 50.47                             115   -0.34 6  255 211 
 ROSC BZ I         241 56.00         3.8 0.40            120            255 211 
 HEL  HN ES   1    241 54.22                             113   -0.16 6  273 255 
 HEL  HZ I         242  0.98         2.2 0.28            117            273 255 
 GUY2CHZ EP   1    241 26.76                             111    0.08 5  303 234 
 GUY2CHN ES   1    242  1.20                             111    0.58 5  303 234 
 GUY2CHZ I         242  8.82         1.7 0.34                           303 234 
 RREF HN ES   1    242  5.47                             109    0.28 5  324 229 
 RREF HZ I         242 14.76         1.7 0.26            114            324 229 
                                                                                
