 2017  919 0733  0.0 L   6.776 -73.139142.5  RSN  4 0.5 1.2LRSN                1
 GAP=236        1.12       6.7    10.1  9.7  0.1437E+02  0.5244E+00  0.7770E+01E
 Epicentro: LOS SANTOS - SANTANDER                                             3
 ACTION:UPD 17-10-05 19:14 OP:rebc STATUS:               ID:20170919073300 L   I
 OLDACT:REG 17-09-19 13:08 OP:and  STATUS:               ID:20170919072741     3
 2017-09-19-0728-00M.COL___432                                                 6
 STAT SP IPHASW D HRMM SECON CODA AMPLIT PERI AZIMU VELO AIN AR TRES W  DIS CAZ7
 BAR2 EZ EP        733 18.95                             171   -0.2710 20.9 193 
 BAR2 EZ IS   1    733 33.21                             171   -0.98 7 20.9 193 
 BAR2 EZ I         733 35.16         4.0 0.24            165           20.9 193 
 BRR  HZ EP        733 20.73                             152   -0.2110 73.1 300 
 BRR  HE ES        733 37.80                             152    0.5510 73.1 300 
 BRR  HZ I         733 41.56         3.7 0.18            147           73.1 300 
 RUS  HZ EP        733 23.46                             144    0.1910 97.9 176 
 RUS  HN ES        733 41.98                             144    0.5910 97.9 176 
 RUS  HZ I         733 42.93         1.1 0.42            144           97.9 176 
 SPBC HZ EP        733 28.07                             129   -0.05 9  162 220 
 SPBC HN ES        733 49.73                             129   -0.31 9  162 220 
 SPBC HZ I         733 56.06         2.9 0.18            127            162 220 
                                                                                
