 2016  619 0320 13.9 L   6.994 -73.119155.1  RSN  6 0.5 1.7LRSN                1
 GAP=198        1.01       5.9     7.3  8.9 -0.2743E+00  0.1244E+02 -0.3275E+01E
 Epicentro: PIEDECUESTA - SANTANDER                                            3
 ACTION:UPD 16-07-21 22:20 OP:rebc STATUS:               ID:20160619032013 L   I
 OLDACT:DUP 16-06-19 13:56 OP:dnl  STATUS:               ID:20160619031744d    3
 2016-06-19-0317-43M.COL___340                                                 6
 STAT SP IPHASW D HRMM SECON CODA AMPLIT PERI AZIMU VELO AIN AR TRES W  DIS CAZ7
 BAR2 EZ EP   2    320 35.13                             163   -0.07 5 44.9 189 
 BAR2 EZ ES        320 51.41                             163   -0.4310 44.9 189 
 BAR2 EZ I         320 57.01         3.6 0.15                          44.9 189 
 BRR  HZ EP        320 36.15                             156    0.3710 66.7 281 
 BRR  HN ES        320 53.58                             156    0.7010 66.7 281 
 BRR  HZ I         320 55.14        16.1 0.12                          66.7 281 
 OCA  HZ EP   2    320 41.37                             136    0.30 5  139 351 
 OCA  HN ES   2    321  1.49                             136   -0.81 5  139 351 
 OCA  HZ I         321  6.62         9.5 0.28                           139 351 
 PTB  HZ EP        320 42.08                             132   -0.26 9  156 251 
 PTB  HN ES        321  3.88                             132   -0.68 9  156 251 
 PTB  HZ I         321  6.72         3.5 0.44                           156 251 
 SPBC HZ EP   2    320 44.98                             128    0.12 4  182 215 
 SPBC HN ES        321  9.42                             128    0.38 9  182 215 
 SPBC HZ I         321 12.50         4.4 0.36                           182 215 
 ZAR  HZ EP   4    320 49.52                             125    3.03 0  200 286 
 ZAR  HN ES        321 11.91                             125   -0.04 9  200 286 
 ZAR  HZ I         321 13.95         5.5 0.26                           200 286 
                                                                                
