 2010  319 0256 59.3 L   7.463 -73.090121.3  RSN  4 0.2 1.4LRSN                1
 GAP=196        0.43       5.8     9.0  7.8  0.3005E+02 -0.4749E+02 -0.2046E+02E
 Epicentro: EL PLAYON - SANTANDER                                              3
 ACTION:UP  10-08-24 09:54 OP:vdl  STATUS:               ID:20100319025659 L   I
 2010-03-19-0252-50S.COL___098                                                 6
 STAT SP IPHASW D HRMM SECON CODA AMPLIT PERI AZIMU VELO SNR AR TRES W  DIS CAZ7
 BRR  HZ IP        257 18.26                             145    -0.210   79 240 
 BRR  HE ES   1    257 33.46                             145     0.1 7   79 240 
 BRR  HZ I         257 34.55        13.1 0.10                            79 240 
 OCA  SZ EP   3    257 20.17                             141     0.8 2   89 344 
 OCA  SZ ES   3    257 34.66                             141    -0.4 2   89 344 
 BAR2 SZ EP        257 20.18                             139     0.110   97 186 
 BAR2 SZ ES   1    257 36.20                             139    -0.1 7   97 186 
 RUS  HZ EP   1    257 27.68                             121     0.0 7  174 180 
 RUS  HZ I         257 52.53         1.5 0.30                           174 180 
                                                                                
