 2017 1219 0219 45.8 L   6.763 -73.101140.3  RSN  5 0.3 1.4LRSN                1
 GAP=171        0.68       3.9     3.5  5.3 -0.5040E+01  0.7382E+01 -0.1750E+01E
 Epicentro: LOS SANTOS - SANTANDER                                             3
 ACTION:UPD 18-01-04 13:21 OP:rebc STATUS:               ID:20171219021945 L   I
 OLDACT:REG 17-12-19 12:37 OP:dhb  STATUS:               ID:20171219021740     3
 2017-12-19-0218-00M.COL___461                                                 6
 STAT SP IPHASW D HRMM SECON CODA AMPLIT PERI AZIMU VELO AIN AR TRES W  DIS CAZ7
 BAR2 EZ IP     C  220  4.86                             171    0.1110 20.9 205 
 BAR2 EZ ES        220 19.33                             171   -0.1810 20.9 205 
 BAR2 EZ I         220 26.31         3.2 0.28            170           20.9 205 
 PAM  EZ EP        220  7.69                             150    0.2010 77.7  35 
 PAM  EN ES        220 24.35                             150   -0.0210 77.7  35 
 PAM  EZ I         220 25.21         4.1 0.16            155           77.7  35 
 PTB  HZ EP        220 12.41                             130   -0.33 9  152 261 
 PTB  HN ES        220 33.42                             130   -0.31 9  152 261 
 PTB  HZ I         220 34.56         2.4 0.28            133            152 261 
 SPBC HZ EP        220 13.68                             128   -0.24 9  163 221 
 SPBC HE ES        220 36.33                             128    0.51 9  163 221 
 SPBC HZ I         220 40.23         4.4 0.32            131            163 221 
 ZAR  HZ EP        220 18.55                             120   -0.02 8  210 293 
 ZAR  HE ES        220 44.43                             120    0.33 8  210 293 
 ZAR  HZ I         220 49.56         4.3 0.44            124            210 293 
                                                                                
