 2016  419 0505 17.8 L   6.786 -73.149141.9  RSN 16 0.4 2.9LRSN                1
 GAP= 65        0.82       2.6     2.1  4.3 -0.4884E+00  0.2289E+01  0.2659E+00E
 Epicentro: LOS SANTOS - SANTANDER                                             3
 ACTION:UPD 16-05-05 14:22 OP:rebc STATUS:               ID:20160419050517 L   I
 OLDACT:ARG 16-04-19 13:16 OP:cara STATUS:               ID:20160419045751     3
 2016-04-19-0457-51M.COL___307                                                 6
 STAT SP IPHASW D HRMM SECON CODA AMPLIT PERI AZIMU VELO AIN AR TRES W  DIS CAZ7
 BAR2 EZ IP     C  5 5 37.02                             171    0.1010 21.8 190 
 BAR2 EZ ES        5 5 51.87                             171    0.0310 21.8 190 
 BAR2 EZ I         5 5 52.74       346.6 0.32            167           21.8 190 
 PAM  EZ EP     C  5 5 39.92                             150    0.2510 78.7  39 
 PAM  EN ES        5 5 56.93                             150    0.1910 78.7  39 
 PAM  EZ I         5 5 59.15       112.6 0.46            152           78.7  39 
 RUS  HZ EP        5 5 41.10                             143    0.0510 99.1 176 
 RUS  HN ES        5 5 59.22                             143    0.0310 99.1 176 
 RUS  HZ I         5 6  0.24       119.1 0.26            141           99.1 176 
 PTB  HZ EP        5 5 43.80                             131   -0.58 9  147 259 
 PTB  HN ES        5 6  4.51                             131   -0.62 9  147 259 
 PTB  HZ I         5 6 10.39        91.8 0.30            127            147 259 
 TAM  HZ IP     D  5 5 45.45                             130    0.30 9  155 104 
 TAM  HN ES        5 6  6.45                             130   -0.05 9  155 104 
 OCA  HZ EP     C  5 5 45.36                             128   -0.57 9  162 353 
 OCA  HN ES   4    5 6  6.96                             128   -0.93 0  162 353 
 OCA  HZ I         5 6 10.99       310.3 0.20            127            162 353 
 SPBC HZ EP        5 5 45.95                             128    0.09 9  162 219 
 SPBC HN ES        5 6  7.69                             128   -0.06 9  162 219 
 SPBC HZ I         5 6  9.92       150.9 0.18            125            162 219 
 ZAR  HZ EP        5 5 50.10                             121    0.09 9  204 293 
 ZAR  HN ES        5 6 15.41                             121    0.27 9  204 293 
 ZAR  HZ I         5 6 23.60        87.2 0.28            119            204 293 
 NOR  HZ EP        5 5 53.60                             118    0.43 8  234 235 
 NOR  HN ES        5 6 20.84                             118    0.07 8  234 235 
 NOR  HZ I         5 6 26.84        70.2 0.16            115            234 235 
 CHI  HZ EP        5 5 55.37                             116    0.27 8  247 195 
 CHI  HN ES        5 6 24.09                             116   -0.12 8  247 195 
 CHI  HZ I         5 6 31.42        18.2 0.54            114            247 195 
 ROSC BZ EP   4    5 5 57.08                             116    1.55 0  251 211 
 ROSC BN ES   4    5 6 26.50                             116    1.52 0  251 211 
 ROSC BZ I         5 6 35.65        48.2 0.35            114            251 211 
 HEL  HZ EP   9    5 5 59.25                             114    1.53 0  271 256 
 HEL  HN ES        5 6 30.52                                    0.11 8  271 256 
 HEL  HZ I         5 6 36.26        42.2 0.30            112            271 256 
 URE  HZ EP   4    5 5 57.87                             113   -0.83 0  284 292 
 URE  HE ES        5 6 30.48                             113   -0.13 7  284 292 
 URE  HZ I         5 6 35.42        50.2 0.14            111            284 292 
 GUY2CHZ EP   4    5 6  2.43                             112    1.34 0  300 235 
 GUY2CHN ES        5 6 34.75                             112   -0.11 7  300 235 
 GUY2CHZ I         5 6 47.07        30.2 0.52                           300 235 
 PTGC HZ EP        5 6  0.36                             111   -0.96 7  307 158 
 PTGC HZ I         5 6  1.49        65.3 0.14            110            307 158 
 PTGC HN ES   4    5 6 33.28                             111   -2.00 0  307 158 
 CBOC HZ EP        5 6  5.16                             109    0.71 7  333 252 
 CBOC HN ES        5 6 41.39                             109    0.54 7  333 252 
 CBOC HZ I         5 6 45.95        12.3 0.26            107            333 252 
                                                                                
