 2012  519 0059 58.0 L   6.771 -73.157146.5  RSN  5 0.5 1.7LRSN                1
 GAP=136        1.08       7.2     6.9 10.3 -0.5435E+01  0.7137E+01  0.5405E+01E
 Epicentro: LOS SANTOS - SANTANDER                                             3
 ACTION:UP  12-07-05 12:06 OP:pat  STATUS:               ID:20120519005958 L   I
 2012-05-19-0100-00M.COL___200                                                 6
 STAT SP IPHASW D HRMM SECON CODA AMPLIT PERI AZIMU VELO SNR AR TRES W  DIS CAZ7
 BAR2 SZ ES   2    1 0 32.66                             172    -0.3 5   20 188 
 BRR  HZ EP        1 0 19.31                             152     0.110   72 301 
 BRR  HZ I         1 0 20.10         9.0 0.26                            72 301 
 BRR  HE ES   1    1 0 36.82                             152     1.0 7   72 301 
 PAM  SZ EP        1 0 20.52                             150     0.110   81  39 
 PAM  SE ES   1    1 0 37.28                             150    -0.7 7   81  39 
 RUS  HZ EP        1 0 21.77                             145     0.210   97 175 
 RUS  HN ES   1    1 0 40.02                             145     0.1 7   97 175 
 PTB  HZ EP        1 0 24.62                             133    -0.2 9  146 260 
 PTB  HN ES   1    1 0 44.94                             133    -0.8 7  146 260 
                                                                                
