 2013  219 0844  3.4 L   6.805 -73.133146.6  RSN 10 0.4 1.9LRSN                1
 GAP= 72        0.85       3.3     3.7  6.5  0.3726E+00  0.2662E+01  0.1382E+01E
 Epicentro: LOS SANTOS - SANTANDER                                             3
 ACTION:UPD 13-03-12 09:34 OP:ep   STATUS:               ID:20130219084403 L   I
 2013-02-19-0840-00M.COL___241                                                 6
 STAT SP IPHASW D HRMM SECON CODA AMPLIT PERI AZIMU VELO AIN AR TRES W  DIS CAZ7
 BAR2 SZ EP   1    844 23.03                             170   -0.14 7 24.1 193 
 BAR2 SZ ES   1    844 38.44                             170   -0.13 7 24.1 193 
 BAR2 SZ I         844 40.79        29.8 0.28            169           24.1 193 
 BRR  HZ EP     C  844 24.92                             152    0.2010 72.1 298 
 BRR  HN ES   1    844 42.25                             152    0.93 7 72.1 298 
 BRR  HZ I         844 45.87         8.4 0.12            150           72.1 298 
 PAM  SZ EP   1    844 25.86                             151    0.21 7 76.1  39 
 PAM  SN ES   1    844 43.24                             151    0.25 7 76.1  39 
 RUS  HZ EP   1    844 27.27                             144   -0.02 7  101 177 
 RUS  HN ES   1    844 45.22                             144   -0.69 7  101 177 
 RUS  HZ I         844 46.72         8.5 0.38            145            101 177 
 PTB  HZ EP   1    844 30.11                             132   -0.48 7  149 259 
 PTB  HN ES   1    844 51.12                             132   -0.66 7  149 259 
 PTB  HZ I         844 56.78        13.0 0.40            131            149 259 
 TAM  HZ EP   1    844 31.23                             131    0.17 7  154 105 
 TAM  HN ES   1    844 52.73                             131    0.11 7  154 105 
 TAM  HZ I         844 54.10         4.9 0.42            135            154 105 
 OCA  HZ EP   1    844 31.72                             130   -0.05 7  160 353 
 OCA  HN ES   1    844 53.17                             130   -0.70 7  160 353 
 OCA  HZ I         844 59.05        10.5 0.14            131            160 353 
 SML  HN ES   1    845  8.59                             118   -0.13 6  244 335 
 CHI  HZ EP   1    844 41.18                             117   -0.09 6  250 195 
 CHI  HN ES   1    845 11.34                             117    0.56 6  250 195 
 CHI  HZ I         845 15.63         2.3 0.64            118            250 195 
 HEL  HE ES   1    845 16.06                             115    0.69 6  274 256 
 HEL  HZ I         845 22.68         9.7 0.58            115            274 256 
                                                                                
