 2012 1119 0743 28.0 L   6.764 -73.137146.3  RSN 11 0.4 2.4LRSN                1
 GAP= 73        0.84       3.7     3.4  5.1 -0.1022E+01  0.1512E+01  0.4880E+01E
 Epicentro: LOS SANTOS - SANTANDER                                             3
 ACTION:UPD 12-12-05 15:34 OP:}ep  STATUS:               ID:20121119074328 L   I
 2012-11-19-0740-00M.COL___234                                                 6
 STAT SP IPHASW D HRMM SECON CODA AMPLIT PERI AZIMU VELO AIN AR TRES W  DIS CAZ7
 BAR2 SZ EP        743 47.68                             172    0.1010 19.6 195 
 BAR2 SZ ES        744  2.62                             172   -0.2810 19.6 195 
 BAR2 SZ I         744  5.56        60.1 0.31                          19.6 195 
 GIR2 SZ EP        743 47.74                             166   -0.0710 35.4 350 
 BRR  HZ IP     C  743 49.54                             152    0.2210 74.0 301 
 BRR  HN ES        744  6.79                             152    0.8010 74.0 301 
 BRR  HZ I         744  9.22        19.3 0.21                          74.0 301 
 PAM  SZ EP        743 50.46                             150    0.0810 79.9  37 
 PAM  SZ I         743 50.70        63.9 0.23                          79.9  37 
 PAM  SN ES        744  7.58                             150   -0.3010 79.9  37 
 RUS  HZ EP        743 51.61                             145    0.1410 96.5 176 
 RUS  HN ES   1    744  9.32                             145   -0.50 7 96.5 176 
 RUS  HN I         744 12.21        61.6 0.50                          96.5 176 
 PTB  HZ EP        743 54.40                             132   -0.59 9  148 260 
 PTB  HN ES   1    744 15.68                             132   -0.39 7  148 260 
 PTB  HZ I         744 21.56        24.0 0.45                           148 260 
 TAM  HZ EP        743 55.79                             131    0.29 9  153 104 
 ZAR  HZ EP   1    744  0.34                             122   -0.34 6  206 293 
 ZAR  HE ES   1    744 25.90                             122   -0.31 6  206 293 
 ZAR  HZ I         744 32.18        22.3 0.42                           206 293 
 NOR  HZ EP   1    744  3.41                             119   -0.14 6  233 235 
 NOR  HN ES   1    744 31.88                             119    0.56 6  233 235 
 NOR  HZ I         744 35.39        20.3 0.21                           233 235 
 CHI  HZ EP   1    744  5.58                             118    0.29 6  245 196 
 CHI  HZ I         744  7.85        10.4 0.10                           245 196 
 CHI  HN ES   1    744 34.73                             118    0.31 6  245 196 
 PRA  HZ EP   1    744 20.92                             107   -0.22 4  389 210 
 PRA  HZ I         745  9.02         7.6 0.27                           389 210 
                                                                                
