 2010 1219 0138  3.1 L   6.758 -73.130144.1  RSN  8 0.4 1.7LRSN                1
 GAP=161        0.88       4.2     7.2  9.7 -0.1373E+02  0.8398E+01  0.5944E+01E
 Epicentro: LOS SANTOS - SANTANDER                                             3
 ACTION:UP  11-01-14 15:25 OP:pat  STATUS:               ID:20101219013803 L   I
 2010-12-19-0136-33S.COL___134                                                 6
 STAT SP IPHASW D HRMM SECON CODA AMPLIT PERI AZIMU VELO SNR AR TRES W  DIS CAZ7
 BAR2 SZ EP        138 22.20                             172    -0.310   19 198 
 BAR2 SZ I         138 40.13        10.6 0.29                            19 198 
 BRR  HZ EP        138 24.36                             151     0.010   75 301 
 BRR  HN ES   2    138 41.51                             151     0.7 5   75 301 
 BRR  HZ I         138 44.54        11.3 0.20                            75 301 
 RUS  HZ EP        138 26.21                             145    -0.210   96 177 
 RUS  HN ES   2    138 44.61                             145     0.1 5   96 177 
 RUS  HZ I         138 45.96         4.3 0.41                            96 177 
 GRA  SZ EP        138 29.13                             135     0.610  130  16 
 GRA  SZ ES   1    138 47.85                             135    -0.5 7  130  16 
 OCA  SZ EP        138 31.76                             128     0.0 9  165 353 
 OCA  SZ I         138 58.76         7.7 0.27                           165 353 
 NOR  SZ EP        138 38.25                             118    -0.4 8  234 236 
 NOR  SN ES   1    139  6.18                             118    -0.2 6  234 236 
 CHI  HZ EP        138 40.59                             117     0.3 8  245 196 
 CHI  HN ES   2    139 10.08                             117     0.8 4  245 196 
 CHI  HZ I         139 15.45         2.4 0.13                           245 196 
 RREF HZ EP   3    138 50.51                             110     1.5 2  320 230 
 RREF HN ES   2    139 24.74                             110    -0.1 3  320 230 
 RREF HZ I         139 30.90         3.8 0.34                           320 230 
                                                                                
