 2012 1219 0240 42.4 L   6.817 -73.166141.5  RSN 21 0.6 3.6LRSN 3.7WRSN        1
 SPEC AVERAGE  MO 14.6 ST  9.9 OM  3.5 f0 2.27 R0.7854 AL 2.16 WI 19.3 MW  3.7 3
 SPEC SD       MO  0.1 ST  7.4 OM  0.8 f00.838 R0.3888 AL      WI      MW  0.1 3
 GAP= 67        1.37       3.3     3.8  5.6 -0.9327E+00  0.3500E+01  0.4857E+01E
 Epicentro: LOS SANTOS - SANTANDER                                             3
 SPEC ZAR HH N MO 14.8 ST 19.6 OM  3.0 f0 2.85 R0.5158 AL 1.28 WI 18.5 MW  3.8 3
 SPEC ZAR HH N T 24139 K 0.000 GD  245 VS 4.20 DE 3.20 Q0300.0 QA 0.60 VS 4.20 3
 SPEC PRA HH N MO 14.6 ST  2.2 OM  2.6 f0 1.56 R0.9423 AL 1.31 WI 12.5 MW  3.7 3
 SPEC PRA HH N T 24216 K 0.000 GD  417 VS 4.20 DE 3.20 Q0300.0 QA 0.60 VS 4.20 3
 SPEC CHI HH Z MO 14.6 ST0.482 OM  2.7 f00.991 R1.4834 AL 1.55 WI 26.6 MW  3.6 3
 SPEC CHI HH Z T 24145 K 0.000 GD  287 VS 4.20 DE 3.20 Q0300.0 QA 0.60 VS 4.20 3
 SPEC ROSCBH Z MO 14.7 ST 15.5 OM  2.8 f0 2.91 R0.5052 AL 3.92 WI 21.4 MW  3.7 3
 SPEC ROSCBH Z T 24147 K 0.000 GD  289 VS 4.20 DE 3.20 Q0300.0 QA 0.60 VS 4.20 3
 SPEC HEL HH Z MO 14.5 ST 12.0 OM  2.6 f0 3.06 R0.4804 AL 2.73 WI 17.4 MW  3.6 3
 SPEC HEL HH Z T 24154 K 0.000 GD  304 VS 4.20 DE 3.20 Q0300.0 QA 0.60 VS 4.20 3
 ACTION:UPD 13-01-04 14:28 OP:ep   STATUS:               ID:20121219024042 L   I
 2012-12-19-0240-00M.COL___243                                                 6
 STAT SP IPHASW D HRMM SECON CODA AMPLIT PERI AZIMU VELO AIN AR TRES W  DIS CAZ7
 BAR2 SZ IP        241  1.86                             170    0.3110 24.9 184 
 BAR2 SZ ES        241 15.78                             170   -0.7110 24.9 184 
 BAR2 SZ I         241 17.80      2185.5 0.25                          24.9 184 
 GIR2 SZ IP        241  1.83                             168    0.3210 29.1 354 
 GIR2 SZ I         241  2.63       381.3 0.40                          29.1 354 
 GIR2 SZ ES        241 16.00                             168   -0.4110 29.1 354 
 BRR  HZ IP     C  241  3.62                             153    0.6910 68.3 298 
 BRR  HZ I         241  3.91      1292.8 0.19                          68.3 298 
 BRR  HN ES        241 20.55                             153    1.6210 68.3 298 
 PAM  SZ EP        241  4.60                             150    0.4410 77.4  42 
 PAM  SZ I         241  5.11      1441.8 0.21                          77.4  42 
 PAM  SN ES        241 20.98                             150   -0.1610 77.4  42 
 RUS  HZ EP        241  6.01                             142    0.1310  103 175 
 RUS  HN ES        241 23.81                             142   -0.3910  103 175 
 RUS  HN I         241 27.89       977.1 0.49                           103 175 
 PTB  HZ EP        241  8.42                             131   -0.43 9  146 258 
 PTB  HN ES        241 29.22                             131   -0.27 9  146 258 
 PTB  HZ I         241 34.84       445.8 0.50                           146 258 
 OCA  HE ES        241 31.40                             129   -0.45 9  158 354 
 OCA  HZ I         241 35.81       503.0 0.16                           158 354 
 TAM  HZ EP        241 10.35                             129    0.36 9  158 105 
 TAM  HE ES        241 31.46                             129   -0.05 9  158 105 
 TAM  HZ I         241 32.72       176.8 0.27                           158 105 
 OCA  HZ EP     C  241  9.77                             129   -0.41 9  158 354 
 ZAR  HZ EP        241 14.16                             122   -0.12 9  201 292 
 ZAR  HN ES        241 38.89                             122   -0.26 9  201 292 
 ZAR  HZ I         241 46.26       532.9 0.28                           201 292 
 CTAB SZ EP   4    241 20.66                             118    2.71 0  230 210 
 SML  HZ EP        241 17.99                             117   -0.51 8  241 336 
 SML  HZ I         241 48.68       412.7 0.32                           241 336 
 CHI  HZ EP        241 20.11                             116    0.11 8  250 195 
 CHI  HN ES        241 48.78                             116   -0.54 8  250 195 
 CHI  HZ I         241 57.23       135.2 0.38                           250 195 
 ROSC BZ EP     D  241 21.92                             116    1.58 8  253 210 
 ROSC BN ES        241 49.83                             116   -0.10 8  253 210 
 ROSC BZ I         241 55.63       306.2 0.42                           253 210 
 HEL  HZ EP        241 22.55                             114    0.34 8  270 255 
 HEL  HN ES        241 52.43                             114   -0.83 8  270 255 
 HEL  HZ I         242  0.40       206.7 0.32                           270 255 
 CVER SZ EP        241 23.43                             114    0.79 8  273 202 
 URE  HZ EP   4    241 21.66                             113   -1.29 0  281 292 
 VIL  SZ EP        241 25.30                             111   -0.48 7  305 191 
 VIL  SE ES   1    241 59.77                             111    0.15 5  305 191 
 VIL  SZ I         242 10.59       242.9 0.61                           305 191 
 RREF HZ EP   4    241 30.58                             110    2.27 0  321 229 
 TOL  SZ EP   1    241 30.77                             108    0.31 5  343 224 
 COD  HN ES   4    242  6.76                             108   -1.03 0  346 355 
 MON  HZ EP   4    241 28.88                             108   -2.02 0  351 308 
 MON  HN ES   4    242  7.18                             108   -1.55 0  351 308 
 MON  HZ I         242 22.68       159.2 0.65                           351 308 
 ANIL HZ EP   1    241 32.25                             108    0.23 5  357 224 
 ANIL HE ES   1    242  9.77                             108   -0.95 5  357 224 
 SDV  BZ EP        241 31.45                             107   -0.89 6  361  51 
 PRA  HZ EP        241 35.33                             106   -0.51 6  393 209 
 PRA  HN ES        242 17.53                             106    0.01 6  393 209 
 PRA  HZ I         242 23.73       156.4 0.72                           393 209 
 SJA  SZ EP   4    241 38.07                             105    1.10 0  401 193 
 PAL  HZ EP   4    241 37.98                             105    0.67 0  405 239 
 YOT  HZ EP   4    241 45.95                             102    0.68 0  471 229 
 GUA  SZ EP        241 44.94                             102   -0.75 5  476 173 
 SMAR HZ EP   4    241 47.52                             102   -0.36 0  495 346 
 SOTA HZ EP   4    242  7.33                              98    0.96 0  643 217 
                                                                                
