 2016 1019 0807 26.7 L   6.824 -73.147144.7  RSN 12 0.6 2.4LRSN                1
 GAP=135        1.27       4.5     5.7  7.6 -0.8799E+01  0.9302E+01  0.4585E+01E
 Epicentro: LOS SANTOS - SANTANDER                                             3
 ACTION:UPD 16-11-09 19:20 OP:rebc STATUS:               ID:20161019080726 L   I
 OLDACT:REG 16-10-19 12:40 OP:cog  STATUS:               ID:20161019075735     3
 2016-10-19-0758-00M.COL___326                                                 6
 STAT SP IPHASW D HRMM SECON CODA AMPLIT PERI AZIMU VELO AIN AR TRES W  DIS CAZ7
 BAR2 EZ EP        8 7 46.19                             169   -0.1110 25.9 189 
 BAR2 EZ ES   1    8 8  0.61                             169   -0.94 7 25.9 189 
 BAR2 EZ I         8 8  2.16       104.7 0.28            172           25.9 189 
 BRR  HZ IP        8 7 47.96                             153    0.2710 69.8 297 
 BRR  HE ES        8 8  5.11                             153    1.0710 69.8 297 
 BRR  HZ I         8 8  8.03        33.6 0.16            142           69.8 297 
 PAM  EZ EP        8 7 48.94                             151    0.2110 75.5  41 
 PAM  EE ES        8 8  6.18                             151    0.3010 75.5  41 
 PAM  EZ I         8 8  8.47        30.0 0.40            143           75.5  41 
 RUS  HZ EP        8 7 50.44                             143   -0.1410  103 176 
 RUS  HN ES        8 8  9.09                             143   -0.0810  103 176 
 RUS  HZ I         8 8 10.33        29.1 0.26            142            103 176 
 PTB  HZ EP        8 7 52.63                             132   -1.02 9  148 258 
 PTB  HN ES   1    8 8 13.87                             132   -0.77 7  148 258 
 PTB  HZ I         8 8 18.98        27.4 0.22            124            148 258 
 OCA  HZ EP        8 7 54.30                             130   -0.42 9  158 353 
 OCA  HZ I         8 8 20.76        79.1 0.12            120            158 353 
 SPBC HZ EP        8 7 55.28                             129   -0.06 9  165 218 
 SPBC HN ES        8 8 17.21                             129   -0.44 9  165 218 
 SPBC HZ I         8 8 20.42        36.9 0.16            123            165 218 
 NOR  HZ EP        8 8  2.65                             118    0.09 8  236 234 
 NOR  HE ES        8 8 30.06                             118   -0.43 8  236 234 
 NOR  HZ I         8 8 35.31        20.8 0.20            112            236 234 
 CHI  HZ EP        8 8  4.61                             117   -0.04 8  251 195 
 CHI  HE ES        8 8 34.67                             117    0.45 8  251 195 
 CHI  HZ I         8 8 38.58        11.8 0.28            112            251 195 
 ROSC BZ EP   3    8 8  6.36                             116    1.32 2  255 211 
 ROSC BE ES        8 8 36.13                             116    1.22 8  255 211 
 ROSC BZ I         8 8 39.72        26.1 0.35            111            255 211 
 VIL  EZ EP   3    8 8 10.27                             112   -0.13 2  306 191 
 CBOC HZ EP   3    8 8 14.27                             110    0.59 2  334 252 
 CBOC HN ES        8 8 50.77                             110    0.47 7  334 252 
 CBOC HZ I         8 9  5.82         3.4 0.56            104            334 252 
                                                                                
