 2015 1219 0151 49.1 L   6.806 -73.123151.0  RSN 22 0.5 2.5LRSN                1
 GAP=121        1.07       2.5     3.7  4.7 -0.1328E+01  0.4544E+01  0.1028E+01E
 Epicentro: LOS SANTOS - SANTANDER                                             3
 ACTION:UPD 16-02-04 15:06 OP:cam  STATUS:               ID:20151219015149 L   I
 OLDACT:UP  15-12-19 17:55 OP:ar   STATUS:               ID:20151219014746     3
 OLDACT:REG 15-12-19 11:52 OP:mh   STATUS:               ID:20151219014746     3
 2015-12-19-0147-46M.COL___332                                                 6
 STAT SP IPHASW D HRMM SECON CODA AMPLIT PERI AZIMU VELO AIN AR TRES W  DIS CAZ7
 BAR2 EZ EP        152  9.47                             170    0.1310 24.5 195 
 BAR2 EZ ES        152 24.82                             170   -0.3310 24.5 195 
 BAR2 EZ I         152 26.94        59.0 0.34            169           24.5 195 
 BRR  HZ IP     D  152 11.25                             153    0.3810 73.1 297 
 BRR  HE ES        152 28.57                             153    0.6810 73.1 297 
 BRR  HZ I         152 35.29        33.4 0.18            150           73.1 297 
 PAM  EZ EP        152 12.28                             152    0.5710 75.3  38 
 PAM  EN ES        152 29.34                             152   -0.0410 75.3  38 
 PAM  EZ I         152 31.54        38.4 0.48            154           75.3  38 
 RUS  HZ EP        152 13.26                             145   -0.1010  101 177 
 RUS  HE ES        152 32.12                             145   -0.1910  101 177 
 RUS  HZ I         152 33.11        17.5 0.22            145            101 177 
 PTB  HZ EP        152 16.00                             133   -0.68 9  150 259 
 PTB  HN ES        152 37.54                             133   -0.69 9  150 259 
 PTB  HZ I         152 44.75        62.7 0.40            130            150 259 
 OCA  HZ EP        152 17.48                             131   -0.27 9  160 352 
 OCA  HZ I         152 36.24        16.6 0.20            130            160 352 
 OCA  HN ES        152 39.83                             131   -0.29 9  160 352 
 SPBC HZ EP        152 18.28                             130    0.13 9  165 220 
 SPBC HN ES        152 40.56                             130   -0.29 9  165 220 
 SPBC HZ I         152 44.24        63.2 0.40            129            165 220 
 ZAR  HZ EP        152 22.05                             123   -0.01 8  206 292 
 ZAR  HN ES        152 48.32                             123    0.52 8  206 292 
 ZAR  HZ I         152 52.89        30.6 0.28            122            206 292 
 NOR  HZ EP   2    152 25.36                             119    0.01 4  237 235 
 NOR  HE ES        152 52.97                             119   -0.68 8  237 235 
 NOR  HZ I         152 56.91        26.9 0.20            118            237 235 
 SML  HZ EP        152 26.37                             118    0.34 8  244 335 
 SML  HN ES        152 55.06                             118    0.19 8  244 335 
 SML  HZ I         152 57.44        54.7 0.24            118            244 335 
 CHI  HZ EP        152 27.68                             118    0.50 8  250 196 
 CHI  HN ES        152 57.68                             118    0.76 8  250 196 
 CHI  HZ I         153  2.22        11.3 0.32            118            250 196 
 ROSC BZ EP   4    152 29.39                             117    1.73 0  255 211 
 ROSC BN ES   4    153  0.70                             117    2.92 0  255 211 
 ROSC BZ I         153  7.16        22.0 0.35            117            255 211 
 HEL  HZ EP        152 30.36                             116    0.54 8  275 256 
 HEL  HN ES   2    153  1.60                             116   -0.02 4  275 256 
 HEL  HZ I         153  7.61        23.8 0.30            115            275 256 
 URE  HZ EP        152 29.86                             114   -0.75 7  286 292 
 URE  HN ES   4    153  0.50                             114   -2.53 0  286 292 
 URE  HZ I         153 12.89        22.4 0.16            113            286 292 
 SOCV BZ EP   4    152 29.76                             113   -2.31 0  299  57 
 GUY2CHZ EP   4    152 35.46                             113    2.28 0  304 235 
 GUY2CHE ES        153  8.54                             113    0.95 7  304 235 
 GUY2CHZ I         153 14.68        16.2 0.26                           304 235 
 PTGC HZ EP        152 32.27                             113   -0.84 7  308 159 
 PTGC HN ES   4    153  5.64                             113   -1.84 0  308 159 
 PTGC HZ I         153 12.27        15.1 0.32            113            308 159 
 CBOC HZ EP   2    152 36.04                             111   -0.44 3  336 252 
 CBOC HN ES   2    153 14.29                             111    0.82 3  336 252 
 CBOC HZ I         153 19.48         6.0 0.58            110            336 252 
 ANIL HZ EP   2    152 40.30                             109    0.98 3  360 225 
 ANIL HE ES   2    153 18.75                             109    0.23 3  360 225 
 ANIL HZ I         153 30.68        21.2 0.30            109            360 225 
 PRA  HZ EP        152 43.37                             107    0.40 6  394 210 
 PRA  HN ES        153 24.24                             107   -0.78 6  394 210 
 PRA  HZ I         153 29.32        11.6 0.30            107            394 210 
 ORTC HZ EP        152 43.65                             107    0.26 6  397 216 
 ORTC HN ES   2    153 26.75                             107    0.98 3  397 216 
 ORTC HZ I         153 33.12         7.8 0.46            107            397 216 
 PAL  HZ EP        152 45.17                             107    0.49 6  408 239 
 PAL  HN ES        153 27.50                             107   -0.57 6  408 239 
 PAL  HZ I         153 33.90         4.9 0.44            106            408 239 
 SJC  HZ EP        152 43.55                             106   -1.34 6  410 327 
 SJC  HN ES   2    153 27.44                             106   -1.00 3  410 327 
 SJC  HZ I         153 29.10         7.9 0.66            106            410 327 
                                                                                
