 2012  119 0654 42.3 L   6.762 -73.129143.5  RSN  7 0.3 1.5LRSN                1
 GAP=140        0.67       2.8     4.2  4.9 -0.1496E+01 -0.4933E+00  0.7890E+00E
 Epicentro: LOS SANTOS - SANTANDER                                             3
 ACTION:UP  12-02-03 08:18 OP:REBC STATUS:               ID:20120119065442 L   I
 2012-01-19-0650-00M.COL___187                                                 6
 STAT SP IPHASW D HRMM SECON CODA AMPLIT PERI AZIMU VELO SNR AR TRES W  DIS CAZ7
 BAR2 SZ EP   1    655  1.25                             172    -0.3 7   20 197 
 BAR2 SZ ES   1    655 16.52                             172    -0.1 7   20 197 
 BAR2 SZ I         655 19.50         8.9 0.46                            20 197 
 BRR  HZ EP        655  3.53                             151     0.110   75 301 
 BRR  HN ES        655 20.24                             151     0.410   75 301 
 BRR  HZ I         655 23.65         6.9 0.19                            75 301 
 PAM  SZ EP        655  4.39                             150     0.010   80  37 
 PAM  SE ES   1    655 21.40                             150    -0.3 7   80  37 
 RUS  HZ EP   1    655  5.63                             145     0.1 7   96 177 
 RUS  HN ES   1    655 23.63                             145     0.0 7   96 177 
 RUS  HZ I         655 25.98         2.7 0.24                            96 177 
 PTB  HZ EP   1    655  8.59                             131    -0.6 7  149 261 
 PTB  HE ES   1    655 29.74                             131    -0.4 7  149 261 
 OCA  SZ EP        655 10.99                             128     0.1 9  165 353 
 OCA  SZ ES   1    655 33.19                             128     0.1 7  165 353 
 OCA  SZ I         655 41.14         5.4 0.31                           165 353 
 CHI  HZ EP   1    655 19.72                             117     0.2 6  245 196 
 CHI  HZ I         655 20.48         1.8 0.46                           245 196 
 CHI  HE ES   1    655 48.87                             117     0.4 6  245 196 
                                                                                
