 2015  219 0504  2.9 L   6.759 -73.125144.9  RSN  8 0.4 1.3LRSN                1
 GAP=141        1.01       3.6     5.1  6.3 -0.4217E+01  0.5043E+01 -0.1906E+01E
 Epicentro: LOS SANTOS - SANTANDER                                             3
 ACTION:UPD 15-04-30 21:27 OP:nd   STATUS:               ID:20150219050402 L   I
 OLDACT:DUP 15-02-19 18:13 OP:mh   STATUS:               ID:20150219045745d    3
 OLDACT:DUP 15-02-19 18:10 OP:mh   STATUS:               ID:20150219045744d    3
 2015-02-19-0457-43M.COL___296                                                 6
 STAT SP IPHASW D HRMM SECON CODA AMPLIT PERI AZIMU VELO AIN AR TRES W  DIS CAZ7
 BAR2 EZ EP   4    5 4 24.13                             172    1.72 0 19.5 199 
 BAR2 EZ ES        5 4 37.17                             172   -0.4110 19.5 199 
 BAR2 EZ I    1    5 4 40.68         3.2 0.40             56           19.5 199 
 BRR  HZ EP        5 4 24.81                             151    0.5610 75.4 301 
 BRR  HN ES        5 4 41.51                             151    0.6410 75.4 301 
 BRR  HZ I         5 4 46.41         2.7 0.11             56           75.4 301 
 PAM  SZ EP        5 4 25.34                             150    0.1310 79.5  36 
 PAM  SN ES        5 4 42.28                             150   -0.2910 79.5  36 
 PAM  SZ I         5 4 45.11         5.5 0.40             56           79.5  36 
 RUS  HZ EP        5 4 26.47                             145    0.1810 95.9 177 
 RUS  HN ES   1    5 4 44.61                             145    0.12 7 95.9 177 
 RUS  HZ I         5 4 46.27         2.5 0.25            105           95.9 177 
 PTB  HZ EP        5 4 30.13                             131    0.15 9  149 261 
 PTB  HN ES        5 4 50.26                             131   -0.81 9  149 261 
 PTB  HZ I         5 5  0.29         1.9 0.17            101            149 261 
 SPBC HZ I         5 3 14.38         5.2 0.32            119            161 221 
 SPBC HZ EP        5 4 30.81                             129   -0.38 9  161 221 
 SPBC HN ES   1    5 4 53.80                             129    0.58 7  161 221 
 OCA  HZ EP        5 4 31.43                             128   -0.22 9  165 353 
 OCA  HE ES        5 4 54.20                             128    0.17 9  165 353 
 OCA  HZ I         5 4 58.32         4.8 0.20             55            165 353 
 SML  HZ EP   1    5 4 39.52                             117   -0.56 6  249 335 
 SML  HN ES   1    5 5  8.96                             117   -0.08 6  249 335 
                                                                                
