 2014  719 0038 59.1 L   6.784 -73.132145.6  RSN  8 0.4 1.7LRSN                1
 GAP=139        1.06       4.1     4.9  8.1 -0.2505E+01  0.4039E+01  0.3120E+01E
 Epicentro: LOS SANTOS - SANTANDER                                             3
 ACTION:UPD 15-03-16 20:45 OP:nd   STATUS:               ID:20140719003859 L   I
 OLDACT:REG 14-07-19 12:56 OP:fm   STATUS:               ID:20140719003819     3
 2014-07-19-0038-19M.COL___269                                                 6
 STAT SP IPHASW D HRMM SECON CODA AMPLIT PERI AZIMU VELO AIN AR TRES W  DIS CAZ7
 BAR2 SZ EP        039 18.81                             171    0.1210 21.9 195 
 BAR2 SZ ES   1    039 33.97                             171    0.01 7 21.9 195 
 BAR2 SZ I         039 35.25        13.5 0.18            172           21.9 195 
 BRR  HZ EP        039 20.63                             152    0.2710 73.4 299 
 BRR  HE ES        039 37.57                             152    0.6310 73.4 299 
 BRR  HZ I         039 39.66         9.4 0.44            150           73.4 299 
 PAM  SZ EP        039 21.67                             151    0.3410 77.8  38 
 PAM  SN ES   1    039 38.38                             151   -0.28 7 77.8  38 
 PAM  SZ I         039 39.42         6.9 0.36            152           77.8  38 
 RUS  HZ EP   1    039 22.60                             144   -0.11 7 98.7 177 
 RUS  HN ES   1    039 40.93                             144   -0.18 7 98.7 177 
 RUS  HZ I         039 42.64         3.7 0.32            147           98.7 177 
 PTB  HZ EP        039 25.52                             132   -0.65 9  149 260 
 PTB  HN ES        039 46.58                             132   -0.69 9  149 260 
 PTB  HZ I         039 48.98         7.1 0.18            132            149 260 
 OCA  HE ES        039 49.15                             129   -0.66 9  162 353 
 OCA  HZ I         039 55.08         7.3 0.30            130            162 353 
 SPBC HZ EP        039 27.95                             129    0.39 9  163 220 
 SPBC HN ES        039 49.71                             129   -0.03 9  163 220 
 SPBC HZ I         039 52.39         7.2 0.18            130            163 220 
 ZAR  HN ES        039 57.74                             122    0.51 8  206 292 
 ZAR  HZ I         040  3.19         5.8 0.30            122            206 292 
                                                                                
