 2017  219 0651 44.6 L   6.756 -73.175151.1  RSN  8 0.7 1.6LRSN                1
 GAP=135        1.49       5.3     6.6  8.6  0.5195E+01  0.1451E+02  0.8348E+00E
 Epicentro: LOS SANTOS - SANTANDER                                             3
 ACTION:UPD 17-05-24 15:37 OP:jn   STATUS:               ID:20170219065144 L   I
 OLDACT:REG 17-02-19 12:42 OP:edw  STATUS:               ID:20170219064740     3
 2017-02-19-0648-00M.COL___352                                                 6
 STAT SP IPHASW D HRMM SECON CODA AMPLIT PERI AZIMU VELO AIN AR TRES W  DIS CAZ7
 BAR2 EZ EP        652  4.90                             173    0.1010 18.2 182 
 BAR2 EZ ES        652 20.53                             173   -0.0110 18.2 182 
 BAR2 EZ I         652 21.74         9.6 0.28            174           18.2 182 
 BRR  HZ IP     C  652  6.94                             153    0.6110 70.9 303 
 BRR  HN ES        652 24.02                             153    0.7610 70.9 303 
 BRR  HZ I         652 24.91         4.9 0.14            153           70.9 303 
 PAM  EZ EP        652  8.12                             150    0.3710 83.2  39 
 PAM  EN ES        652 25.38                             150   -0.4110 83.2  39 
 PAM  EZ I         652 27.49         4.5 0.46            151           83.2  39 
 RUS  HZ EP        652  9.03                             146    0.4410 96.1 174 
 RUS  HN ES        652 26.27                             146   -1.0110 96.1 174 
 RUS  HZ I         652 28.09         7.8 0.54            148           96.1 174 
 PTB  HZ EP        652 11.66                             134   -0.01 9  144 260 
 PTB  HN ES        652 32.32                             134   -0.44 9  144 260 
 PTB  HZ I         652 33.63         4.5 0.14            135            144 260 
 ZAR  HZ EP        652 18.16                             123    0.86 9  203 294 
 ZAR  HN ES        652 42.46                             123   -0.33 9  203 294 
 ZAR  HZ I         652 46.79         3.7 0.10            124            203 294 
 CHI  HZ EP        652 22.02                             119   -0.01 8  243 195 
 CHI  HN ES        652 51.26                             119    0.05 8  243 195 
 SJC  HZ EP        652 39.87                             106   -0.76 6  412 328 
 SJC  HN ES        653 22.18                             106   -2.13 6  412 328 
                                                                                
