 2017 1219 0834 43.0 L   6.798 -73.138139.5  RSN  7 0.4 1.7LRSN                1
 GAP=113        1.06       3.6     4.0  7.3  0.3976E+00  0.5401E+01 -0.2299E+00E
 Epicentro: LOS SANTOS - SANTANDER                                             3
 ACTION:UPD 18-01-04 13:22 OP:rebc STATUS:               ID:20171219083443 L   I
 OLDACT:REG 17-12-19 13:27 OP:dhb  STATUS:               ID:20171219082739     3
 2017-12-19-0828-00M.COL___449                                                 6
 STAT SP IPHASW D HRMM SECON CODA AMPLIT PERI AZIMU VELO AIN AR TRES W  DIS CAZ7
 BAR2 EZ EP        835  2.09                             170    0.2110 23.3 192 
 BAR2 EZ ES        835 15.98                             170   -0.6310 23.3 192 
 BAR2 EZ I         835 17.47         7.6 0.20            169           23.3 192 
 PAM  EZ EP        835  4.31                             150   -0.2310 77.0  39 
 PAM  EE ES        835 21.30                             150   -0.0410 77.0  39 
 PAM  EZ I         835 23.19         9.9 0.48            152           77.0  39 
 PTB  HZ EP        835  8.93                             130   -0.61 9  149 259 
 PTB  HE ES        835 30.21                             130   -0.03 9  149 259 
 PTB  HZ I         835 32.47         2.1 0.20            130            149 259 
 OCA  HZ EP        835 11.14                             128    0.27 9  161 353 
 OCA  HE ES        835 33.06                             128    0.46 9  161 353 
 OCA  HZ I         835 35.60        12.1 0.20            129            161 353 
 SPBC HE ES        835 33.41                             127    0.46 9  164 219 
 SPBC HZ I         835 37.90         5.1 0.28            128            164 219 
 YPLC HZ EP        835 12.11                             125   -0.18 9  176 152 
 YPLC HN ES        835 35.72                             125    0.58 9  176 152 
 YPLC HZ I         835 38.22         5.9 0.26            127            176 152 
 ZAR  HZ EP        835 14.54                             121   -0.60 9  205 292 
 ZAR  HE ES        835 40.73                             121    0.52 9  205 292 
 ZAR  HN I         835 46.76         9.1 0.30            121            205 292 
                                                                                
