 2015  319 0921 15.0 L   6.078 -73.820101.0  RSN 14 0.5 1.8LRSN                1
 GAP=100        1.14       2.6     3.0  5.7 -0.3428E+01  0.3843E+01  0.2277E+00E
 Epicentro: EL PENON - SANTANDER                                               3
 ACTION:UPD 15-04-30 16:27 OP:nd   STATUS:               ID:20150319092115 L   I
 OLDACT:REG 15-03-19 13:01 OP:stll STATUS:               ID:20150319091747     3
 2015-03-19-0917-47M.COL___272                                                 6
 STAT SP IPHASW D HRMM SECON CODA AMPLIT PERI AZIMU VELO AIN AR TRES W  DIS CAZ7
 SPBC HZ EP        921 30.55                             149   -0.0210 54.7 211 
 SPBC HN ES        921 42.81                             149    0.1310 54.7 211 
 SPBC HZ I         921 45.20        32.8 0.22            145           54.7 211 
 RUS  HZ EP        921 33.19                             137   -0.0910 84.0 104 
 RUS  HZ I         921 33.44        14.2 0.34            135           84.0 104 
 RUS  HE ES        921 47.42                             137   -0.0910 84.0 104 
 PTB  HZ EP        921 31.98                             136   -0.9010 87.0 306 
 PTB  HN ES        921 45.81                             136   -0.9810 87.0 306 
 PTB  HZ I         921 51.79         5.1 0.10            132           87.0 306 
 BAR2 EZ EP        921 33.80                             135    0.3110 90.6  51 
 BAR2 EZ ES        921 47.82                             135   -0.0610 90.6  51 
 BAR2 EZ I         921 50.03        35.0 0.60            132           90.6  51 
 BRR  HZ EP        921 35.77                             127    0.4010  114   6 
 BRR  HN ES        921 52.28                             127    1.0510  114   6 
 NOR  HZ EP        921 36.53                             123   -0.4010  129 244 
 NOR  HN ES        921 54.08                             123    0.0710  129 244 
 NOR  HZ I         921 57.27        15.2 0.14            120            129 244 
 PAM  SZ EP        921 43.60                             113   -0.05 9  187  42 
 PAM  SZ I         921 45.70         6.3 0.14            111            187  42 
 PAM  SN ES        922  5.82                             113   -0.16 9  187  42 
 ZAR  HZ EP        921 43.63                             112   -0.26 9  194 324 
 ZAR  HE ES        922  6.85                             112    0.46 9  194 324 
 ZAR  HZ I         922 12.04         7.5 0.34            110            194 324 
 GUY2CHZ EP        921 45.13                             112    0.49 9  195 241 
 GUY2CHN ES        922  8.16                             112    0.42 9  195 241 
 GUY2CHZ I         922 11.93         8.5 0.68                           195 241 
 RREF HZ EP        921 46.63                             110   -0.27 8  214 233 
 RREF HN ES        922 11.59                             110   -0.17 8  214 233 
 TOL  SZ EP        921 49.14                             107    0.21 8  234 225 
 TOL  SE ES        922 16.17                             107    0.80 8  234 225 
 PRA  HZ EP        921 54.39                             103   -0.38 7  287 204 
 PRA  HE ES        922 25.19                             103   -0.56 7  287 204 
 PRA  HZ I         922 31.33         3.5 0.28            103            287 204 
 ORTC HZ EP        921 54.70                             103   -0.11 7  287 213 
 ORTC HZ I         921 56.17         2.9 0.14            103            287 213 
 ORTC HN ES        922 26.44                             103    0.61 7  287 213 
 SML  HZ EP        921 56.18                             101   -0.39 7  302 355 
 SML  HN ES        922 28.99                             101    0.03 7  302 355 
 SML  HZ I         922 35.22         6.3 0.26            102            302 355 
                                                                                
