 2014  119 0333 37.3 L   6.813 -73.133148.1  RSN 12 0.4 1.5LRSN                1
 GAP=113        0.88       4.1     4.0  6.6  0.5809E+00  0.3213E+01 -0.8201E+01E
 Epicentro: LOS SANTOS - SANTANDER                                             3
 ACTION:UPD 14-03-13 09:56 OP:ep   STATUS:               ID:20140119033337 L   I
 OLDACT:UP  14-01-19 08:29 OP:cam  STATUS:               ID:20140119033001d    3
 OLDACT:DUP 14-01-19 08:23 OP:cam  STATUS:               ID:20140119033001d    3
 OLDACT:UP  14-01-19 08:23 OP:cam  STATUS:               ID:20140119033000     3
 OLDACT:REG 14-01-19 07:44 OP:cam  STATUS:               ID:20140119033000     3
 2014-01-19-0330-00M.COL___285                                                 6
 STAT SP IPHASW D HRMM SECON CODA AMPLIT PERI AZIMU VELO AIN AR TRES W  DIS CAZ7
 BAR2 SZ EP        333 57.35                             170    0.0810 25.1 193 
 BAR2 SZ ES        334 12.81                             170   -0.0210 25.1 193 
 BAR2 SZ I         334 14.92         7.2 0.36            170           25.1 193 
 BRR  HZ EP        333 59.47                             153    0.7110 71.8 297 
 BRR  HN ES   4    334 16.86                             153    1.38 0 71.8 297 
 RUS  HZ EP   1    334  1.14                             144   -0.26 7  102 177 
 RUS  HN ES        334 20.05                             144   -0.1410  102 177 
 RUS  HZ I         334 22.61         2.4 0.46            147            102 177 
 PTB  HZ EP        334  4.11                             132   -0.52 9  149 258 
 PTB  HE ES        334 25.49                             132   -0.45 9  149 258 
 PTB  HZ I         334 32.91         3.3 0.28            133            149 258 
 TAM  HZ EP   1    334  5.52                             131    0.43 7  154 106 
 OCA  HN ES   2    334 27.67                             130   -0.15 5  159 353 
 OCA  HZ I         334 32.25         3.5 0.30            132            159 353 
 SPBC HN ES        334 28.55                             129   -0.16 9  165 219 
 ZAR  HE ES        334 35.87                             123    0.38 9  205 292 
 NOR  HZ EP   1    334 13.31                             119   -0.09 6  237 234 
 NOR  HE ES        334 42.00                             119    0.45 8  237 234 
 NOR  HZ I         334 48.64         2.6 0.34            121            237 234 
 SML  HZ EP   1    334 13.80                             118   -0.20 6  243 335 
 SML  HN ES   4    334 41.26                             118   -1.35 0  243 335 
 SML  HZ I         334 45.25         5.4 0.32            120            243 335 
 CHI  HZ EP   2    334 15.72                             117    0.38 4  250 195 
 GUY2CHZ EP   4    334 23.59                             113    2.33 0  303 235 
 SJC  HZ EP   1    334 31.68                             106   -1.22 4  409 327 
 SJC  HN ES   4    335 14.46                             106   -1.80 0  409 327 
                                                                                
