 2011  219 0143 27.7 L   6.752 -73.422148.0  RSN  5 0.2 1.5LRSN                1
 GAP=158        0.56       4.3     8.9  8.3 -0.2090E+02  0.5004E+02 -0.1480E+02E
 Epicentro: EL CARMEN DE CHUCURI - SANTANDER                                   3
 ACTION:UP  11-03-28 15:09 OP:jfem STATUS:               ID:20110219014327 L   I
 2011-02-19-0139-43S.COL___137                                                 6
 STAT SP IPHASW D HRMM SECON CODA AMPLIT PERI AZIMU VELO SNR AR TRES W  DIS CAZ7
 BAR2 SZ EP        143 47.91                             168     0.110   32 124 
 BAR2 SZ ES   2    144  3.21                             168    -0.2 5   32 124 
 BAR2 SZ I         144  4.72        10.5 0.35                            32 124 
 RUS  HZ EP        143 51.65                             144    -0.110  102 158 
 RUS  HE ES   1    144 10.78                             144     0.2 7  102 158 
 GRA  SZ EP        143 54.68                             134     0.1 9  143  29 
 GRA  SZ ES   2    144 15.07                             134    -0.5 5  143  29 
 GRA  SZ I         144 24.22         3.9 0.31                           143  29 
 NOR  SZ EP        144  0.73                             123     0.1 8  207 231 
 CHI  HZ EP   1    144  3.80                             119    -0.5 6  237 188 
 CHI  HZ I         144 40.61         1.7 0.25                           237 188 
                                                                                
