 2011  619 0137 14.4 L   6.737 -73.112143.5  RSN 14 0.3 2.2LRSN                1
 GAP=144        0.66       3.1     4.5  4.7 -0.7622E+01  0.4927E+00  0.3652E+01E
 Epicentro: JORDAN - SANTANDER                                                 3
 ACTION:UP  11-07-14 19:06 OP:ep   STATUS:               ID:20110619013714 L   I
 2011-06-19-0135-03S.COL___140                                                 6
 STAT SP IPHASW D HRMM SECON CODA AMPLIT PERI AZIMU VELO SNR AR TRES W  DIS CAZ7
 BAR2 SZ EP   1    137 33.79                             173     0.1 7   18 206 
 BAR2 SZ ES   2    137 48.03                             173    -0.7 5   18 206 
 BAR2 SZ I         137 50.65        53.1 0.19                            18 206 
 BTL  SZ EP        137 33.96                             169     0.110   26 319 
 BTL  SZ ES   2    137 48.47                             169    -0.5 5   26 319 
 GIR2 SZ EP   1    137 33.97                             164    -0.1 7   39 347 
 GIR2 SZ ES   2    137 48.94                             164    -0.4 5   39 347 
 BRR  HZ EP   1    137 35.85                             150     0.1 7   78 302 
 BRR  HE ES   1    137 53.00                             150     0.7 7   78 302 
 BRR  HZ I         137 53.60        38.0 0.14                            78 302 
 PAM  SZ EP   1    137 36.92                             149     0.3 7   81  34 
 PAM  SN ES   2    137 53.29                             149    -0.6 5   81  34 
 RUS  HZ EP   1    137 37.39                             145     0.0 7   93 178 
 RUS  HE ES   2    137 55.76                             145     0.4 5   93 178 
 RUS  HZ I         137 57.76        24.5 0.31                            93 178 
 BRI  SZ EP        137 38.54                             139     0.010  114  18 
 BRI  SZ ES   1    137 57.63                             139     0.3 7  114  18 
 BRI  SZ I         138  2.80        19.4 0.37                           114  18 
 GRA  SZ IP        137 39.85                             135    -0.110  131  15 
 GRA  SZ ES   1    137 59.80                             135     0.0 7  131  15 
 GRA  SZ I         138  1.59        24.6 0.44                           131  15 
 OCA  SZ EP   1    137 42.88                             128    -0.4 7  168 352 
 OCA  SZ ES   2    138  5.71                             128     0.0 5  168 352 
 OCA  SZ I         138 10.13        17.3 0.13                           168 352 
 NOR  SZ EP   1    137 49.46                             118    -0.5 6  234 236 
 NOR  SN ES   1    138 16.93                             118    -0.7 6  234 236 
 CHI  HZ EP   1    137 51.67                             117     0.3 6  243 196 
 CHI  HZ I         137 54.16         7.1 0.34                           243 196 
 CHI  HE ES   2    138 20.44                             117     0.3 4  243 196 
 HEL  HZ EP   2    137 54.72                             114     0.0 4  274 257 
 HEL  HN ES   2    138 26.32                             114     0.1 4  274 257 
 HEL  HZ I         138 32.71         8.4 0.28                           274 257 
 RREF HZ EP   2    138  0.61                             110     0.3 3  320 231 
 RREF HN ES   2    138 36.51                             110     0.5 3  320 231 
 RREF HZ I         138 46.02        19.5 0.46                           320 231 
 PRA  HZ EP   1    138  7.11                             106    -0.3 4  388 211 
 PRA  HE ES   2    138 48.67                             106     0.0 3  388 211 
                                                                                
