 2017  419 0856 11.1 L   6.769 -73.119152.0  RSN  8 0.4 1.7LRSN                1
 GAP=141        0.92       4.5     4.3  6.9  0.5703E+00  0.9678E+01  0.3299E+01E
 Epicentro: LOS SANTOS - SANTANDER                                             3
 ACTION:UPD 17-05-30 21:14 OP:jn   STATUS:               ID:20170419085611 L   I
 OLDACT:UP  17-04-19 16:37 OP:dnl  STATUS:               ID:20170419084743d    3
 OLDACT:UP  17-04-19 16:37 OP:dnl  STATUS:               ID:20170419084743d    3
 OLDACT:DUP 17-04-19 16:32 OP:dnl  STATUS:               ID:20170419084743d    3
 2017-04-19-0848-00M.COL___367                                                 6
 STAT SP IPHASW D HRMM SECON CODA AMPLIT PERI AZIMU VELO AIN AR TRES W  DIS CAZ7
 BAR2 EZ IP     C  856 31.26                             172   -0.1310 20.8 200 
 BAR2 EZ ES        856 47.16                             172   -0.0910 20.8 200 
 BAR2 EZ I         856 47.49        13.1 0.32            170           20.8 200 
 BRR  HZ EP        856 33.17                             152    0.0610 75.5 300 
 BRR  HE ES        856 51.06                             152    0.7410 75.5 300 
 BRR  HZ I         856 55.42         7.3 0.40            148           75.5 300 
 PAM  EZ EP   2    856 34.23                             152    0.25 5 78.2  36 
 PAM  EN ES        856 51.53                             152   -0.3410 78.2  36 
 PAM  EZ I         856 52.09         4.0 0.20            153           78.2  36 
 RUS  HZ EP        856 35.60                             146    0.4210 97.0 178 
 RUS  HN ES        856 53.93                             146   -0.0610 97.0 178 
 RUS  HZ I         856 55.11         5.3 0.30            148           97.0 178 
 PTB  HZ EP        856 38.14                             133   -0.60 9  150 260 
 PTB  HE ES        857  0.24                             133   -0.10 9  150 260 
 PTB  HZ I         857  0.91         5.7 0.16            131            150 260 
 ZAR  HZ EP   2    856 45.37                             123    1.05 4  208 293 
 ZAR  HN ES        857  9.95                             123   -0.32 8  208 293 
 ZAR  HZ I         857 16.38         8.6 0.28            122            208 293 
 NOR  HZ EP   4    856 48.78                             120    1.58 0  235 236 
 NOR  HE ES        857 15.37                             120   -0.03 8  235 236 
 NOR  HZ I         857 20.37         3.6 0.44            119            235 236 
 URE  HZ EP   4    856 55.73                             115    2.85 0  288 292 
 URE  HE ES   4    857 22.36                             115   -3.14 0  288 292 
 URE  HZ I         857 34.18         3.0 0.16            114            288 292 
                                                                                
