 2016  919 0849 56.0 L   6.768 -72.899  3.7  RSN  6 0.5 1.4LRSN                1
 GAP=259        1.17       6.1    10.9 10.7  0.4886E+02  0.9914E+02  0.4160E+02E
 Epicentro: SAN ANDRES - SANTANDER                                             3
 ACTION:UPD 17-08-17 21:14 OP:lp   STATUS:               ID:20160919084956 L   I
 OLDACT:UP  16-09-19 13:00 OP:ar   STATUS:               ID:20160919084742     3
 OLDACT:REG 16-09-19 12:25 OP:ar   STATUS:               ID:20160919084742     3
 2016-09-19-0848-00M.COL___345                                                 6
 STAT SP IPHASW D HRMM SECON CODA AMPLIT PERI AZIMU VELO AIN AR TRES W  DIS CAZ7
 BAR2 EZ IP   9 D  850  1.41                              47   -1.09 0 36.8 238 
 BAR2 EZ ES        850  5.81                              96   -0.6410 36.8 238 
 BAR2 EZ I         850  7.22        18.8 0.38             47           36.8 238 
 BRR  HZ EP        850 11.32                              47   -0.1010 97.3 293 
 BRR  HN ES        850 23.33                              47   -0.0910 97.3 293 
 BRR  HZ I         850 31.95         6.4 0.32             47           97.3 293 
 RUS  HZ EP        850 11.64                              47   -0.5210 98.9 192 
 RUS  HN ES   2    850 23.79                              47   -0.95 5 98.9 192 
 RUS  HZ I         850 25.98         4.4 0.18             47           98.9 192 
 PTB  HZ EP        850 23.26                              47    0.20 9  174 262 
 PTB  HE ES        850 43.88                              47   -0.25 9  174 262 
 PTB  HZ I         850 45.60         5.9 0.44             47            174 262 
 SPBC HZ EP        850 24.70                              37    0.86 9  179 227 
 SPBC HN ES        850 46.11                              37    0.59 9  179 227 
 SPBC HZ I         850 51.52         7.6 0.38             37            179 227 
 ZAR  HZ EP   4    850 34.43                              37    4.23 0  231 290 
 ZAR  HN ES        850 56.61                              37   -0.23 8  231 290 
 ZAR  HZ I         850 58.52         4.4 0.46             37            231 290 
                                                                                
