 2014  819 0828 38.7 L   6.760 -73.156141.1  RSN  8 0.5 1.8LRSN                1
 GAP=199        1.29       4.6     6.4  7.8  0.4411E+01  0.9871E+01 -0.5283E+01E
 Epicentro: LOS SANTOS - SANTANDER                                             3
 ACTION:UPD 14-09-15 21:51 OP:nd   STATUS:               ID:20140819082838 L   I
 OLDACT:REG 14-08-19 13:18 OP:cam  STATUS:               ID:20140819082000     3
 2014-08-19-0820-00M.COL___285                                                 6
 STAT SP IPHASW D HRMM SECON CODA AMPLIT PERI AZIMU VELO AIN AR TRES W  DIS CAZ7
 BAR2 SZ IP     C  828 57.79                             172    0.1310 18.8 189 
 BAR2 SZ ES        829 11.61                             172   -0.8610 18.8 189 
 BAR2 SZ I         829 13.52        18.0 0.72            168           18.8 189 
 BRR  HZ EP        828 59.56                             151    0.1610 72.5 302 
 BRR  HN ES        829 16.44                             151    0.8810 72.5 302 
 BRR  HZ I         829 20.81         9.9 0.18            149           72.5 302 
 RUS  HZ EP        829  1.82                             144    0.1610 96.3 175 
 RUS  HE ES        829 20.10                             144    0.5210 96.3 175 
 RUS  HZ I         829 21.89         6.4 0.46            146           96.3 175 
 PTB  HZ EP        829  4.70                             131   -0.39 9  146 260 
 PTB  HN ES        829 25.47                             131   -0.23 9  146 260 
 PTB  HZ I         829 28.20        11.0 0.14            130            146 260 
 SPBC HZ EP        829  6.81                             129    0.38 9  159 220 
 SPBC HE ES        829 27.29                             129   -0.78 9  159 220 
 SPBC HZ I         829 34.89        10.4 0.30            129            159 220 
 ZAR  HZ EP        829 10.93                             121    0.04 9  205 293 
 ZAR  HE ES        829 36.62                             121    0.60 9  205 293 
 ZAR  HZ I         829 42.60         5.1 0.26            122            205 293 
 NOR  HZ EP        829 14.31                             118    0.54 8  231 235 
 NOR  HN ES        829 40.83                             118   -0.31 8  231 235 
 NOR  HZ I         829 47.49         3.6 0.16            119            231 235 
 SML  HZ EP        829 14.74                             116   -0.70 8  247 336 
 SML  HN ES        829 43.63                             116   -0.48 8  247 336 
 SML  HZ I         829 45.86         5.7 0.30            118            247 336 
                                                                                
