 2014  119 0056 47.9 L   6.809 -73.146147.5  RSN  5 0.4 1.5LRSN                1
 GAP=201        0.90       4.6     7.5  8.4  0.1508E+02 -0.1171E+02 -0.6119E+01E
 Epicentro: LOS SANTOS - SANTANDER                                             3
 ACTION:UPD 14-03-13 09:56 OP:ep   STATUS:               ID:20140119005647 L   I
 OLDACT:REG 14-01-19 07:33 OP:cam  STATUS:               ID:20140119005000     3
 2014-01-19-0050-00M.COL___285                                                 6
 STAT SP IPHASW D HRMM SECON CODA AMPLIT PERI AZIMU VELO AIN AR TRES W  DIS CAZ7
 BRR  HZ EP   1    057  9.72                             153    0.47 8 70.7 298 
 BRR  HN ES   1    057 26.56                             153    0.70 8 70.7 298 
 RUS  HZ EP        057 11.81                             144   -0.1310  102 176 
 RUS  HN ES        057 30.30                             144   -0.3510  102 176 
 RUS  HZ I         057 32.11         2.1 0.30            142            102 176 
 PTB  HZ EP   1    057 14.77                             132   -0.29 7  148 258 
 PTB  HN ES        057 35.78                             132   -0.44 9  148 258 
 PTB  HZ I         057 41.52         3.9 0.26            128            148 258 
 SML  HZ EP   1    057 24.40                             118   -0.16 6  243 335 
 SML  HE ES   1    057 53.03                             118   -0.09 6  243 335 
 SML  HZ I         057 56.46         6.4 0.24            117            243 335 
 CHI  HZ EP        057 25.99                             117    0.14 8  250 195 
 CHI  HN ES   1    057 56.40                             117    0.99 6  250 195 
 CHI  HZ I         058  1.40         1.3 0.32            116            250 195 
                                                                                
