 2012  119 0445 41.6 L   6.624 -73.228144.1  RSN  4 0.3 1.6LRSN                1
 GAP=214        0.70       7.5     8.1 10.6  0.3330E+02  0.1908E+02 -0.8371E+01E
 Epicentro: BARICHARA - SANTANDER                                              3
 ACTION:UP  12-02-03 08:18 OP:REBC STATUS:               ID:20120119044541 L   I
 2012-01-19-0440-00M.COL___187                                                 6
 STAT SP IPHASW D HRMM SECON CODA AMPLIT PERI AZIMU VELO SNR AR TRES W  DIS CAZ7
 BRR  HZ EP   1    446  3.24                             151     0.4 7   76 315 
 BRR  HZ I         446 19.07         8.1 0.41                            76 315 
 BRR  HE ES   1    446 19.29                             151    -0.1 7   76 315 
 RUS  HN ES   1    446 21.18                             149    -0.2 7   82 169 
 PTB  HZ EP   1    446  7.11                             134    -0.3 7  136 266 
 PTB  HN ES   1    446 27.89                             134     0.4 7  136 266 
 ZAR  HE ES   1    446 38.67                             122    -0.5 6  204 298 
                                                                                
