 2011  619 0611 16.9 L   6.739 -73.120146.6  RSN  7 0.3 1.6LRSN                1
 GAP=159        0.63       3.8     6.5  7.2 -0.6470E+01 -0.1116E+02  0.2943E+00E
 Epicentro: JORDAN - SANTANDER                                                 3
 ACTION:UP  11-07-14 19:06 OP:ep   STATUS:               ID:20110619061116 L   I
 2011-06-19-0600-00M.COL___126                                                 6
 STAT SP IPHASW D HRMM SECON CODA AMPLIT PERI AZIMU VELO SNR AR TRES W  DIS CAZ7
 BAR2 SZ EP   1    611 36.47                             173    -0.1 7   18 203 
 BAR2 SZ ES   2    611 51.39                             173    -0.5 5   18 203 
 BAR2 SZ I         611 53.28         8.1 0.26                            18 203 
 BRR  HZ EP   1    611 38.55                             150     0.1 7   77 302 
 BRR  HN ES   1    611 55.73                             150     0.4 7   77 302 
 BRR  HZ I         611 56.82        11.2 0.17                            77 302 
 RUS  HZ EP   1    611 40.02                             146    -0.2 7   94 178 
 RUS  HE ES   2    611 58.94                             146     0.5 5   94 178 
 RUS  HZ I         612  0.30         3.7 0.43                            94 178 
 BRI  SZ EP   1    611 41.64                             140     0.3 7  114  18 
 BRI  SZ ES   2    611 59.93                             140    -0.4 5  114  18 
 BRI  SZ I         612  5.20         5.8 0.62                           114  18 
 GRA  SZ EP   1    611 42.86                             136     0.1 7  131  15 
 GRA  SZ ES   2    612  2.44                             136    -0.4 5  131  15 
 GRA  SZ I         612  4.99         5.8 0.41                           131  15 
 OCA  SZ EP   2    611 45.93                             128     0.0 5  167 352 
 OCA  SZ ES   2    612  8.21                             128    -0.4 5  167 352 
 OCA  SZ I         612 12.78         5.0 0.29                           167 352 
 NOR  SN ES   2    612 19.90                             119    -0.4 4  233 236 
                                                                                
