 2012 1119 0308 49.7 L   6.791 -73.171146.4  RSN 11 0.4 2.2LRSN                1
 GAP= 70        0.99       4.0     4.7  6.1  0.8245E+00  0.1254E+01 -0.6409E-01E
 Epicentro: LOS SANTOS - SANTANDER                                             3
 ACTION:UPD 12-12-05 15:34 OP:}ep  STATUS:               ID:20121119030849 L   I
 2012-11-19-0300-00M.COL___234                                                 6
 STAT SP IPHASW D HRMM SECON CODA AMPLIT PERI AZIMU VELO AIN AR TRES W  DIS CAZ7
 BAR2 SZ EP        3 9  9.49                             171    0.0810 22.0 183 
 BAR2 SZ ES   1    3 9 24.30                             171   -0.46 7 22.0 183 
 BAR2 SZ I         3 9 25.94        46.1 0.19                          22.0 183 
 GIR2 SZ EP        3 9  9.47                             167   -0.0310 32.0 356 
 BRR  HZ IP     C  3 9 11.31                             153    0.4710 69.2 300 
 BRR  HN ES        3 9 28.04                             153    0.7410 69.2 300 
 BRR  HZ I         3 9 32.13        23.2 0.15                          69.2 300 
 PAM  SZ EP        3 9 12.41                             150    0.2410 80.0  41 
 PAM  SZ I         3 9 12.73        53.4 0.22                          80.0  41 
 PAM  SN ES        3 9 29.26                             150   -0.4110 80.0  41 
 RUS  HZ EP        3 9 13.70                             144    0.2110 99.8 174 
 RUS  HE ES   1    3 9 31.48                             144   -0.53 7 99.8 174 
 RUS  HE I         3 9 33.40        14.8 0.14                          99.8 174 
 PTB  HZ EP        3 9 16.39                             133   -0.09 9  145 259 
 PTB  HN ES   1    3 9 36.77                             133   -0.57 7  145 259 
 PTB  HZ I         3 9 40.13        14.8 0.13                           145 259 
 TAM  HZ EP        3 9 17.94                             130    0.25 9  158 104 
 OCA  HZ EP        3 9 17.67                             130   -0.49 9  161 354 
 OCA  HN ES   1    3 9 40.94                             130    0.61 7  161 354 
 OCA  HZ I         3 9 43.81        17.1 0.27                           161 354 
 ZAR  HZ EP   1    3 9 21.47                             123   -0.52 6  202 293 
 SML  HZ EP   1    3 9 25.63                             118   -0.74 6  243 336 
 SML  HN ES   1    3 9 54.56                             118   -0.38 6  243 336 
 PRA  HZ EP   1    3 9 43.66                             107    0.66 4  390 209 
                                                                                
