 2011  219 0756 31.9 L   6.780 -73.140148.6  RSN  6 0.4 1.3LRSN                1
 GAP=159        0.84       4.9     9.9  9.8 -0.2418E+02  0.3932E+02 -0.1505E+02E
 Epicentro: LOS SANTOS - SANTANDER                                             3
 ACTION:UP  11-03-28 15:09 OP:jfem STATUS:               ID:20110219075632 L   I
 2011-02-19-0755-22S.COL___137                                                 6
 STAT SP IPHASW D HRMM SECON CODA AMPLIT PERI AZIMU VELO SNR AR TRES W  DIS CAZ7
 BAR2 SZ EP   1    756 51.40                             171    -0.4 7   21 193 
 BAR2 SZ ES   1    757  7.28                             171    -0.1 7   21 193 
 BAR2 SZ I         757  8.09         4.4 0.28                            21 193 
 BTL  SZ IP        756 52.46                             171     0.710   21 317 
 RUS  HZ EP   1    756 55.59                             145    -0.1 7   98 176 
 RUS  HN ES   1    757 14.23                             145    -0.1 7   98 176 
 RUS  HZ I         757 15.19         2.1 0.48                            98 176 
 GRA  SZ EP   2    756 57.51                             137     0.0 5  128  17 
 GRA  SZ ES   1    757 17.07                             137    -0.5 7  128  17 
 GRA  SZ I         757 19.75         2.5 0.43                           128  17 
 OCA  SZ EP   1    757  0.79                                     0.2 7  163 353 
 OCA  SZ ES   2    757 22.84                                    -0.2 5  163 353 
 OCA  SZ I         757 27.78         3.5 0.46                           163 353 
 NOR  SZ EP   2    757  7.03                                    -0.7 4  234 235 
 NOR  SE ES   1    757 35.60                             119     0.0 6  234 235 
                                                                                
