 2012 1219 0128 56.4 L   6.817 -73.359123.1  RSN  5 0.3 1.7LRSN                1
 GAP=102        0.87       5.3     6.6  6.6  0.1391E+02  0.1237E+01 -0.7359E+00E
 Epicentro: ZAPATOCA - SANTANDER                                               3
 ACTION:UPD 13-01-04 14:28 OP:ep   STATUS:               ID:20121219012856 L   I
 2012-12-19-0120-00M.COL___243                                                 6
 STAT SP IPHASW D HRMM SECON CODA AMPLIT PERI AZIMU VELO AIN AR TRES W  DIS CAZ7
 BAR2 SZ EP        129 13.71                             165    0.1910 31.7 142 
 BAR2 SZ ES        129 26.35                             165   -0.5410 31.7 142 
 BAR2 SZ I         129 27.96        69.2 0.20                          31.7 142 
 BRR  HZ EP     C  129 14.10                             156    0.1610 50.4 309 
 BRR  HN ES        129 27.99                             156    0.3610 50.4 309 
 BRR  HZ I         129 29.12        16.2 0.14                          50.4 309 
 PAM  SZ EP        129 17.21                             141   -0.1610 93.0  52 
 PAM  SZ I         129 18.12         3.7 0.13                          93.0  52 
 RUS  HZ EP        129 18.74                             137    0.2610  107 163 
 RUS  HE ES        129 35.91                             137    0.1910  107 163 
 RUS  HE I         129 37.21         5.2 0.20                           107 163 
 PTB  HZ EP     C  129 18.96                             131   -0.4910  125 256 
 PTB  HZ I         129 21.29         6.3 0.22                           125 256 
                                                                                
