 2017  719 0540 18.1 L   6.791 -73.123139.9  RSN 12 0.5 1.9LRSN                1
 GAP=114        1.21       4.4     4.1  7.8 -0.8206E+00  0.9761E+01  0.5306E+01E
 Epicentro: LOS SANTOS - SANTANDER                                             3
 ACTION:UPD 17-08-30 15:34 OP:rebc STATUS:               ID:20170719054018 L   I
 OLDACT:UP  17-07-19 16:30 OP:dnl  STATUS:               ID:20170719053740     3
 OLDACT:REG 17-07-19 13:11 OP:dnl  STATUS:               ID:20170719053740     3
 2017-07-19-0538-00M.COL___380                                                 6
 STAT SP IPHASW D HRMM SECON CODA AMPLIT PERI AZIMU VELO AIN AR TRES W  DIS CAZ7
 BAR2 EZ EP        540 37.14                             170    0.0910 23.0 197 
 BAR2 EZ ES        540 51.89                             170    0.0910 23.0 197 
 BAR2 EZ I         540 52.92        34.1 0.30            168           23.0 197 
 PAM  EZ EP        540 40.11                             150    0.4310 76.6  38 
 PAM  EN ES        540 56.82                             150    0.3410 76.6  38 
 PAM  EZ I         540 59.03        21.0 0.54            153           76.6  38 
 RUS  HZ EP        540 41.38                             143    0.1510 99.5 177 
 RUS  HN ES        540 59.26                             143    0.0210 99.5 177 
 RUS  HZ I         541  0.65         9.3 0.40            143           99.5 177 
 PTB  HZ EP        540 44.07                             130   -0.77 9  150 259 
 PTB  HE ES        541  4.88                             130   -0.80 9  150 259 
 PTB  HZ I         541  9.88         5.2 0.28            130            150 259 
 SPBC HZ EP        540 46.24                             128   -0.03 9  164 220 
 SPBC HN ES        541  8.50                             128    0.28 9  164 220 
 SPBC HZ I         541 12.38        11.9 0.68            128            164 220 
 YPLC HZ EP        540 47.41                             126    0.11 9  175 152 
 YPLC HN ES        541  9.16                             126   -0.89 9  175 152 
 YPLC HZ I         541 14.13         5.5 0.30            127            175 152 
 ZAR  HZ EP   2    540 49.95                             121   -0.54 4  207 292 
 ZAR  HN ES        541 15.72                             121   -0.00 8  207 292 
 ZAR  HZ I         541 20.90         6.8 0.36            121            207 292 
 NOR  HZ EP   2    540 53.51                             117   -0.18 4  236 235 
 NOR  HN ES        541 20.80                             117   -0.63 8  236 235 
 NOR  HZ I         541 23.56         4.8 0.14            118            236 235 
 ROSC BN ES        541 26.17                             115    0.65 8  253 212 
 ROSC BZ I         541 34.97         6.1 0.40            116            253 212 
 GUY2CHZ EP   2    541  1.51                             111   -0.14 4  303 235 
 GUY2CHN ES        541 37.13                             111    1.54 7  303 235 
 GUY2CHZ I         541 43.46         3.2 0.78                           303 235 
 CBOC HZ EP   2    541  5.28                             109    0.22 3  336 252 
 CBOC HN ES   4    541 40.46                             109   -1.19 0  336 252 
 CBOC HZ I         541 44.94         1.2 0.28            109            336 252 
 SJC  HZ EP   4    541 11.39                             105   -2.38 0  411 327 
 SJC  HN ES   4    541 52.97                             105   -4.19 0  411 327 
 SJC  HZ I         541 57.16         3.5 0.60            106            411 327 
                                                                                
