 2016 1219 0615 16.6 L   6.718 -73.192160.9  RSN  5 0.5 1.2LRSN                1
 GAP=226        1.13       9.1     8.2  8.3  0.4588E+02  0.7419E+01 -0.6662E+01E
 Epicentro: VILLANUEVA - SANTANDER                                             3
 ACTION:UPD 17-01-11 20:16 OP:rebc STATUS:               ID:20161219061516 L   I
 OLDACT:REG 16-12-19 13:23 OP:cog  STATUS:               ID:20161219060745     3
 2016-12-19-0608-00M.COL___312                                                 6
 STAT SP IPHASW D HRMM SECON CODA AMPLIT PERI AZIMU VELO AIN AR TRES W  DIS CAZ7
 BAR2 EZ EP        615 37.69                             175   -0.2210 14.0 176 
 BAR2 EZ ES        615 54.79                             175    0.2510 14.0 176 
 BRR  HZ EP        615 39.56                             155    0.1310 71.8 307 
 BRR  HE ES        615 57.06                             155   -0.1810 71.8 307 
 BRR  HZ I         616  0.04         2.3 0.14            153           71.8 307 
 RUS  HZ EP        615 41.65                             149    0.3410 92.1 172 
 RUS  HE ES        616  0.30                             149   -0.2910 92.1 172 
 PTB  HZ EP        615 44.92                             137    0.64 9  141 262 
 PTB  HN ES        616  5.55                             137   -0.32 9  141 262 
 PTB  HZ I         616 11.66         1.9 0.32            135            141 262 
 ZAR  HZ EP        615 48.95                             126   -1.01 9  203 295 
 ZAR  HN ES        616 16.55                             126    0.56 9  203 295 
                                                                                
