 2014  119 0739  1.8 L   6.817 -73.154146.0  RSN 12 0.4 2.0LRSN                1
 GAP=135        0.93       2.4     3.8  5.3 -0.1612E+01  0.6486E+01 -0.4640E+00E
 Epicentro: LOS SANTOS - SANTANDER                                             3
 ACTION:UPD 14-03-13 09:56 OP:ep   STATUS:               ID:20140119073901 L   I
 OLDACT:UP  14-01-19 10:22 OP:cam  STATUS:               ID:20140119073635     3
 OLDACT:REG 14-01-19 09:43 OP:cam  STATUS:               ID:20140119073635     3
 2014-01-19-0736-35M.COL___229                                                 6
 STAT SP IPHASW D HRMM SECON CODA AMPLIT PERI AZIMU VELO AIN AR TRES W  DIS CAZ7
 BAR2 SZ IP     C  739 21.49                             170   -0.0310 25.1 187 
 BAR2 SZ ES        739 36.60                             170   -0.2810 25.1 187 
 BAR2 SZ I         739 38.23        24.9 0.46            168           25.1 187 
 PAM  SZ EP        739 24.40                             151    0.3810 76.5  41 
 PAM  SN ES        739 41.72                             151    0.3910 76.5  41 
 PAM  SZ I         739 43.64        22.7 0.58            157           76.5  41 
 RUS  HZ EP        739 25.45                             143   -0.2910  103 176 
 RUS  HN ES        739 44.64                             143    0.2410  103 176 
 RUS  HZ I         739 46.82         8.9 0.42            146            103 176 
 PTB  HZ EP        739 28.14                             132   -0.62 9  147 258 
 PTB  HN ES        739 49.76                             132   -0.01 9  147 258 
 PTB  HZ I         739 56.97        11.9 0.28            132            147 258 
 OCA  HZ EP        739 29.48                             130   -0.49 9  158 353 
 OCA  HN ES        739 51.80                             130   -0.11 9  158 353 
 OCA  HZ I         739 56.04         8.3 0.18            133            158 353 
 SPBC HZ EP        739 30.49                             129    0.06 9  164 218 
 SPBC HN ES        739 52.63                             129   -0.11 9  164 218 
 SPBC HZ I         740  0.91        15.0 0.22            130            164 218 
 ZAR  HZ EP   2    739 34.16                             123    0.04 4  202 292 
 ZAR  HN ES        739 59.83                             123    0.52 9  202 292 
 ZAR  HZ I         740  7.02         9.3 0.32            124            202 292 
 NOR  HZ EP        739 37.60                             119   -0.01 8  235 234 
 NOR  HN ES        740  5.43                             119   -0.08 8  235 234 
 NOR  HZ I         740  8.89         7.2 0.42            120            235 234 
 SML  HZ EP        739 37.86                             118   -0.37 8  242 335 
 SML  HE ES        740  6.64                             118    0.01 8  242 335 
 SML  HZ I         740  9.33        19.2 0.32            120            242 335 
 CHI  HZ EP        739 39.67                             117   -0.04 8  250 195 
 CHI  HN ES        740  9.10                             117   -0.16 8  250 195 
 CHI  HZ I         740 15.22         3.9 0.64            120            250 195 
 HEL  HZ EP   4    739 43.68                             115    1.68 0  272 255 
 HEL  HN ES   4    740 14.30                             115    0.97 0  272 255 
 HEL  HZ I         740 19.67         5.3 0.32            116            272 255 
 GUY2CHZ EP        739 46.87                             112    1.39 7  302 234 
 RREF HZ EP   4    739 50.44                             111    2.40 0  322 229 
 SJC  HZ EP   4    739 55.78                             106   -1.36 0  407 327 
                                                                                
