 2013  819 0015 18.2 L   6.809 -73.142147.3  RSN 16 0.4 2.5LRSN                1
 GAP=137        0.95       2.4     4.1  5.0 -0.1090E+01  0.7863E+01 -0.7734E-01E
 Epicentro: LOS SANTOS - SANTANDER                                             3
 ACTION:UPD 14-01-14 09:04 OP:ep   STATUS:               ID:20130819001518 L   I
 OLDACT:UP  13-08-19 08:13 OP:cam  STATUS:               ID:20130819000959     3
 OLDACT:REG 13-08-19 07:34 OP:cam  STATUS:               ID:20130819000959     3
 2013-08-19-0009-59M.COL___269                                                 6
 STAT SP IPHASW D HRMM SECON CODA AMPLIT PERI AZIMU VELO AIN AR TRES W  DIS CAZ7
 BAR2 SZ EP        015 38.09                             170    0.0410 24.4 191 
 BAR2 SZ ES        015 53.27                             170   -0.2510 24.4 191 
 BAR2 SZ I         015 56.33        59.4 0.23            166           24.4 191 
 BRR  HZ IP        015 39.95                             153    0.4310 71.1 298 
 BRR  HN ES   4    015 57.37                             153    1.23 0 71.1 298 
 BRR  HZ I         015 59.78        31.2 0.16            144           71.1 298 
 PAM  SZ EP        015 40.84                             151    0.3210 76.3  40 
 PAM  SZ I         015 41.12        97.8 0.22            152           76.3  40 
 PAM  SN ES        015 58.21                             151    0.2810 76.3  40 
 RUS  HZ EP        015 41.89                             144   -0.2910  102 176 
 RUS  HN ES        016  0.59                             144   -0.3010  102 176 
 RUS  HZ I         016  2.39        27.1 0.38            143            102 176 
 PTB  HZ EP        015 44.70                             132   -0.66 9  148 258 
 PTB  HN ES        016  6.20                             132   -0.34 9  148 258 
 PTB  HZ I         016 13.32        47.1 0.50            126            148 258 
 OCA  HZ EP   1    015 46.27                             130   -0.28 7  159 353 
 OCA  HN ES        016  8.98                             130    0.33 9  159 353 
 OCA  HZ I         016 13.23        37.2 0.16            126            159 353 
 SPBC HZ EP        015 46.99                             129    0.06 9  164 219 
 SPBC HN ES        016  9.28                             129   -0.05 9  164 219 
 SPBC HZ I         016 14.58        55.0 0.38            125            164 219 
 ZAR  HZ EP   1    015 50.86                             123    0.11 6  204 292 
 ZAR  HN ES        016 16.55                             123    0.41 9  204 292 
 ZAR  HZ I         016 23.32        34.9 0.50            118            204 292 
 NOR  HZ EP        015 53.97                             119   -0.16 8  236 234 
 SML  HZ EP        015 54.35                             118   -0.49 8  243 335 
 SML  HE ES        016 23.16                             118   -0.25 8  243 335 
 SML  HZ I         016 30.36        39.3 0.10            114            243 335 
 CHI  HZ EP        015 56.24                             117    0.13 8  250 195 
 CHI  HN ES        016 26.02                             117    0.34 8  250 195 
 CHI  HZ I         016 33.74        11.5 0.34            115            250 195 
 HEL  HZ EP        015 59.53                             115    0.96 8  273 256 
 URE  HZ EP        015 58.56                             114   -0.79 7  284 292 
 URE  HZ I         016 45.90        18.6 0.18            110            284 292 
 GUY2CHZ EP        016  2.99                             112    1.00 7  302 235 
 GUY2CHZ I         016 44.77        15.3 0.26                           302 235 
 COD  HZ EP   1    016  5.84                             109   -0.69 5  347 355 
 PRA  HZ EP        016 11.75                             107   -0.16 6  393 210 
 PRA  HE ES        016 53.84                             107    0.04 6  393 210 
 PRA  HZ I         016 59.23        12.6 0.16            105            393 210 
                                                                                
