 2017 1119 0952 48.5 L   6.822 -73.141147.5  RSN 18 0.5 2.3LRSN                1
 GAP= 66        0.98       2.9     2.5  4.9  0.1907E+00  0.3058E+01  0.1488E+01E
 Epicentro: LOS SANTOS - SANTANDER                                             3
 ACTION:UPD 17-12-12 19:57 OP:rebc STATUS:               ID:20171119095248 L   I
 OLDACT:UP  17-11-19 18:35 OP:edw  STATUS:               ID:20171119094739     3
 OLDACT:UP  17-11-19 18:34 OP:edw  STATUS:               ID:20171119094739     3
 OLDACT:UP  17-11-19 18:34 OP:edw  STATUS:               ID:20171119094739     3
 OLDACT:REG 17-11-19 14:33 OP:leo  STATUS:               ID:20171119094739     3
 2017-11-19-0948-00M.COL___465                                                 6
 STAT SP IPHASW D HRMM SECON CODA AMPLIT PERI AZIMU VELO AIN AR TRES W  DIS CAZ7
 BAR2 EZ EP     D  953  8.39                             170   -0.0210 25.8 190 
 BAR2 EZ ES        953 23.70                             170   -0.2310 25.8 190 
 BAR2 EZ I         953 25.38        37.7 0.20            168           25.8 190 
 PAM  EZ EP        953 11.25                             152    0.4610 75.2  40 
 PAM  EN ES        953 28.17                             152    0.0010 75.2  40 
 PAM  EZ I         953 30.20        69.8 0.50            156           75.2  40 
 PTB  HZ EP        953 15.50                             132   -0.22 9  149 258 
 PTB  HE ES        953 36.99                             132    0.05 9  149 258 
 PTB  HZ I         953 39.44        18.6 0.14            133            149 258 
 TAM  HZ IP     D  953 16.72                             131    0.37 9  155 106 
 TAM  HN ES        953 37.79                             131   -0.26 9  155 106 
 SPBC HZ EP        953 17.56                             129    0.20 9  165 219 
 SPBC HN E         953 39.65                                            165 219 
 SPBC HN ES        953 39.65                             129   -0.21 9  165 219 
 SPBC HZ I         953 43.19        32.9 0.18            129            165 219 
 YPLC HZ EP        953 18.84                             127    0.22 9  179 152 
 YPLC HN ES        953 42.49                             127    0.39 9  179 152 
 YPLC HZ I         953 45.29        37.6 0.26            128            179 152 
 ZAR  HZ EP        953 20.67                             123   -0.37 9  204 291 
 ZAR  HN ES        953 47.31                             123    0.90 9  204 291 
 ZAR  HZ I         953 52.42        24.1 0.32            124            204 291 
 NOR  HZ EP        953 24.89                             119    0.34 8  237 234 
 NOR  HN ES        953 52.45                             119   -0.20 8  237 234 
 NOR  HZ I         953 54.40         9.2 0.14            119            237 234 
 CHI  HZ EP        953 26.54                             117   -0.04 8  251 195 
 CHI  HN ES        953 55.50                             117   -0.77 8  251 195 
 CHI  HZ I         954  0.23         6.3 0.40            118            251 195 
 ROSC BZ EP        953 27.00                             117    0.01 8  255 211 
 ROSC HE ES   4    954  0.04                             117    3.04 0  255 211 
 ROSC BZ I         954  3.04        12.5 0.40            118            255 211 
 URE  HZ EP        953 29.46                             114   -0.18 7  283 291 
 URE  HN ES        954  0.72                             114   -0.99 7  283 291 
 URE  HZ I         954  2.20        21.0 0.14            115            283 291 
 DRL03HZ EP        953 29.89                             114   -0.07 7  287 353 
 DRL03HN ES   4    954  3.13                             114    0.86 0  287 353 
 GUY2CHZ EP   4    953 33.98                             112    1.56 0  303 234 
 GUY2CHN ES        954  7.31                             112    0.65 7  303 234 
 GUY2CHZ I         954 14.97         6.8 0.36                           303 234 
 PTGC HZ EP     D  953 31.70                             112   -0.99 7  311 159 
 PTGC HN ES   4    954  5.11                             112   -2.02 0  311 159 
 CBOC HZ EP   4    953 37.34                             110    1.69 0  335 252 
 CBOC HE ES        954 12.77                             110    0.35 7  335 252 
 CBOC HZ I         954 15.16         2.9 0.44            111            335 252 
 PRA  HZ EP        953 42.91                             107    0.53 6  394 209 
 PRA  HE ES   1    954 23.82                             107   -0.57 4  394 209 
 PRA  HZ I         954 30.18         4.8 0.32            108            394 209 
 ORTC HZ EP        953 43.45                             106    0.68 6  398 216 
 ORTC HN ES   4    954 26.79                             106    1.71 0  398 216 
 ORTC HZ I         954 31.38         4.3 0.28            107            398 216 
 SJC  HZ EP        953 43.25                             106   -0.69 6  408 327 
 SJC  HN ES   4    954 24.50                             106   -2.67 0  408 327 
 SJC  HZ I         954 28.08         6.6 0.54            107            408 327 
 CRJC HZ EP   4    953 49.03                             104   -1.75 0  465   3 
 CRJC HE ES   4    954 31.92                             104   -7.42 0  465   3 
                                                                                
