 2017  619 0355 26.0 L   6.786 -73.213155.0  RSN  6 0.3 1.4LRSN                1
 GAP=206        0.75       3.9     4.3  7.2  0.7755E+01 -0.6885E+01  0.4988E+01E
 Epicentro: ZAPATOCA - SANTANDER                                               3
 ACTION:UPD 17-09-14 16:53 OP:jn   STATUS:               ID:20170619035526 L   I
 OLDACT:DUP 17-06-19 16:49 OP:lv   STATUS:               ID:20170619034737d    3
 2017-06-19-0348-00M.COL___335                                                 6
 STAT SP IPHASW D HRMM SECON CODA AMPLIT PERI AZIMU VELO AIN AR TRES W  DIS CAZ7
 BRR  HZ EP        355 47.99                             156    0.1610 65.6 303 
 BRR  HN ES        356  5.26                             156    0.3710 65.6 303 
 BRR  HZ I         356  8.45         5.7 0.33            157           65.6 303 
 PTB  HZ EP        355 53.16                             136    0.11 9  140 259 
 PTB  HN ES        356 13.93                             136   -0.24 9  140 259 
 PTB  HZ I         356 17.56         2.8 0.15            137            140 259 
 SPBC HN ES        356 17.18                             132    0.13 9  157 217 
 YPLC HZ EP        355 56.77                             128    0.10 9  179 149 
 YPLC HN ES        356 20.05                             128   -0.57 9  179 149 
 ZAR  HE ES        356 23.20                             125   -0.51 9  198 293 
 CHI  HZ EP        356  3.90                             119    0.06 8  245 194 
 CHI  HE ES        356 33.66                             119    0.28 8  245 194 
 CHI  HZ I         356 37.16         1.7 0.17            122            245 194 
                                                                                
