 2010  919 0654 42.7 L   6.774 -73.090144.5  RSN  4 0.3 1.4LRSN                1
 GAP=230        0.81      13.2    25.4 16.2  0.2905E+03 -0.2855E+03 -0.1321E+03E
 Epicentro: LOS SANTOS - SANTANDER                                             3
 ACTION:UP  11-02-18 11:03 OP:tino STATUS:               ID:20100919065442 L   I
 2010-09-19-0652-27S.COL___121                                                 6
 STAT SP IPHASW D HRMM SECON CODA AMPLIT PERI AZIMU VELO SNR AR TRES W  DIS CAZ7
 BAR2 SZ EP        655  1.81                             171    -0.310   23 207 
 BAR2 SZ I         655 18.54         7.6 0.07                            23 207 
 BTL  SZ EP        655  2.41                             170     0.210   25 309 
 BRR  HZ EP        655  3.81                             150    -0.310   78 298 
 BRR  HZ I         655 20.45         4.9 0.37                            78 298 
 BRR  HE ES   1    655 21.00                             150     0.2 7   78 298 
 RUS  HZ EP        655  6.37                             144     0.310   97 180 
 RUS  HN ES   1    655 24.11                             144    -0.2 7   97 180 
 RUS  HZ I         655 26.32         3.3 0.33                            97 180 
                                                                                
