 2010  519 0259 49.0 L   6.753 -73.037145.9  RSN  6 0.4 1.8LRSN                1
 GAP=208        0.78       8.9    11.9 12.5 -0.2667E+01 -0.8841E+02 -0.3099E+02E
 Epicentro: LOS SANTOS - SANTANDER                                             3
 ACTION:UP  10-08-24 10:05 OP:vdl  STATUS:               ID:20100519025949 L   I
 2010-05-19-0300-01S.COL___116                                                 6
 STAT SP IPHASW D HRMM SECON CODA AMPLIT PERI AZIMU VELO SNR AR TRES W  DIS CAZ7
 BAR2 SZ EP   1    3 0  8.28                             171    -0.4 7   24 222 
 BAR2 SZ ES   2    3 0 24.22                             171     0.2 5   24 222 
 BRR  HZ IP     C  3 0 10.92                             149     0.010   84 298 
 BRR  HZ I         3 0 11.08        17.4 0.15                            84 298 
 BRR  HN ES   1    3 0 28.17                             149     0.1 7   84 298 
 BRI  SZ EP   1    3 0 12.80                             141    -0.2 7  110  14 
 GUE  SZ EP   2    3 0 13.50                             139    -0.5 5  120   6 
 GRA  SZ EP        3 0 15.03                             137     0.610  128  12 
 OCA  SZ EP   2    3 0 17.72                             129    -0.3 5  167 349 
 OCA  SZ ES   2    3 0 40.05                             129    -0.5 5  167 349 
 OCA  SZ I         3 0 44.93         4.2 0.36                           167 349 
                                                                                
