 2010  519 0143 58.0 L   6.778 -73.047148.5  RSN 13 0.5 2.7LRSN                1
 GAP=149        0.97       5.4     7.9  8.6 -0.2542E+02 -0.1505E+02  0.1546E+02E
 Epicentro: LOS SANTOS - SANTANDER                                             3
 ACTION:UP  10-08-24 10:05 OP:vdl  STATUS:               ID:20100519014358 L   I
 2010-05-19-0142-53S.COL___108                                                 6
 STAT SP IPHASW D HRMM SECON CODA AMPLIT PERI AZIMU VELO SNR AR TRES W  DIS CAZ7
 BAR2 SZ EP        144 17.61                             170    -0.410   26 216 
 BAR2 SZ ES   2    144 33.25                             170    -0.4 5   26 216 
 BRR  HZ IP     C  144 20.25                             150     0.110   82 296 
 BRR  HN ES   1    144 37.54                             150     0.2 7   82 296 
 BRR  HZ I         144 41.94        87.7 0.13                            82 296 
 BRI  SZ EP   1    144 23.14                             143     1.0 7  107  15 
 GUE  SZ EP        144 23.69                             140     0.610  117   7 
 GRA  SZ EP        144 23.35                             138    -0.110  125  12 
 GRA  SZ ES   2    144 43.08                             138    -0.3 5  125  12 
 OCA  SZ EP   1    144 26.23                             130    -0.7 7  164 349 
 OCA  SZ ES   2    144 48.72                             130    -0.8 5  164 349 
 OCA  SZ I         144 52.87        53.2 0.31                           164 349 
 CHI  HZ EP   1    144 35.68                             118    -0.3 6  249 198 
 CHI  HE ES   2    145  5.55                             118     0.0 4  249 198 
 CHI  HZ I         145 13.31        23.4 0.37                           249 198 
 ROSC BZ EP   2    144 37.03                             117     0.3 4  257 213 
 ROSC BN ES   2    145  7.55                             117     0.7 4  257 213 
 ROSC BZ I         145 11.10        25.6 0.51                           257 213 
 HEL  HZ EP   1    144 39.59                             115     0.1 6  282 257 
 HEL  HE ES   2    145 11.69                             115    -0.1 4  282 257 
 HEL  HZ I         145 15.75        26.3 0.26                           282 257 
 RREF BZ EP   1    144 44.79                             111    -0.3 5  329 231 
 RREF BE ES   2    145 22.48                             111     0.7 3  329 231 
 RREF BZ I         145 29.30        25.5 0.42                           329 231 
 DBB  SZ EP   2    144 46.05                             110    -0.8 3  351 275 
 SDV  BZ EP   1    144 47.01                             109    -0.4 5  354  49 
 PRA  HZ EP   1    144 51.22                             107    -0.8 4  395 211 
 PRA  HN ES   2    145 33.75                             107    -0.4 3  395 211 
 PRA  HZ I         145 37.57        27.8 0.45                           395 211 
                                                                                
