 2017 1119 0855 24.0 L   6.723 -73.151149.4  RSN  4 0.2 1.5LRSN                1
 GAP=157        0.61       5.5     3.2  5.2 -0.5705E+01  0.6890E+01 -0.5701E+01E
 Epicentro: JORDAN - SANTANDER                                                 3
 ACTION:UPD 17-12-12 19:57 OP:rebc STATUS:               ID:20171119085524 L   I
 OLDACT:REG 17-11-19 14:31 OP:leo  STATUS:               ID:20171119084740     3
 2017-11-19-0848-00M.COL___456                                                 6
 STAT SP IPHASW D HRMM SECON CODA AMPLIT PERI AZIMU VELO AIN AR TRES W  DIS CAZ7
 BAR2 EZ EP        855 44.28                             174    0.3310 14.8 194 
 BAR2 EZ ES        855 59.38                             174   -0.1210 14.8 194 
 BAR2 EZ I         856  0.41         7.3 0.26            174           14.8 194 
 PAM  EZ EP        855 47.25                             149    0.2010 84.5  36 
 PAM  EN ES        856  4.86                             149   -0.1610 84.5  36 
 PTB  HZ EP        855 50.77                             133   -0.34 9  146 262 
 PTB  HN ES        856 12.35                             133    0.11 9  146 262 
 PTB  HZ I         856 15.33         2.4 0.58            133            146 262 
 ZAR  HZ EP        855 56.76                             123   -0.24 8  207 294 
 ZAR  HN ES        856 22.91                             123    0.19 8  207 294 
 ZAR  HZ I         856 28.31         3.4 0.38            122            207 294 
                                                                                
