 2013 1019 0607 36.1 L   7.473 -73.226132.7  RSN  5 0.2 1.6LRSN                1
 GAP=137        0.43       2.1     2.3  3.8 -0.5187E+00  0.2818E+01 -0.2004E+01E
 Epicentro: EL PLAYON - SANTANDER                                              3
 ACTION:UPD 13-11-25 09:22 OP:ep   STATUS:               ID:20131019060736 L   I
 OLDACT:UP  13-10-19 09:22 OP:cam  STATUS:               ID:20131019055843     3
 OLDACT:UP  13-10-19 09:22 OP:cam  STATUS:               ID:20131019055843     3
 OLDACT:REG 13-10-19 08:23 OP:cam  STATUS:               ID:20131019055843     3
 2013-10-19-0558-43M.COL___211                                                 6
 STAT SP IPHASW D HRMM SECON CODA AMPLIT PERI AZIMU VELO AIN AR TRES W  DIS CAZ7
 PAM  SZ EP        6 7 56.06                             154    0.1310 60.0 104 
 PAM  SE ES        6 8 11.26                             154   -0.1410 60.0 104 
 BRR  HZ EP        6 7 55.74                             151    0.1210 67.2 233 
 BRR  HN ES        6 8 11.03                             151    0.1910 67.2 233 
 BRR  HZ I         6 8 11.42         5.5 0.10            151           67.2 233 
 BAR2 SZ EP   2    6 7 57.64                             142   -0.37 5 97.5 177 
 PTB  HZ EP        6 8  4.32                             124    0.03 9  171 233 
 PTB  HN ES        6 8 26.06                             124   -0.20 9  171 233 
 PTB  HZ I         6 8 28.75         2.8 0.16            124            171 233 
 SML  HZ EP        6 8  4.61                             124    0.02 9  174 328 
 SML  HN ES        6 8 26.68                             124   -0.12 9  174 328 
 SML  HZ I         6 8 28.59        14.9 0.10            124            174 328 
                                                                                
