 2017  119 0533  9.7 L   6.788 -73.151154.4  RSN  5 0.4 1.0LRSN                1
 GAP=136        0.94       5.4     5.0  8.1 -0.2984E+01  0.2185E+01  0.6022E+01E
 Epicentro: LOS SANTOS - SANTANDER                                             3
 *RUS                                                                          3
 ACTION:UPD 17-05-22 16:01 OP:jn   STATUS:               ID:20170119053309 L   I
 OLDACT:UP  17-01-19 18:08 OP:dani STATUS:               ID:20170119052743d    3
 OLDACT:DUP 17-01-19 18:05 OP:dani STATUS:               ID:20170119052743d    3
 OLDACT:REG 17-01-19 14:28 OP:dani STATUS:               ID:20170119052741     3
 2017-01-19-0528-00M.COL___328                                                 6
 STAT SP IPHASW D HRMM SECON CODA AMPLIT PERI AZIMU VELO AIN AR TRES W  DIS CAZ7
 BAR2 EZ EP        533 30.46                             172    0.0810 21.9 189 
 BRR  HZ EP        533 31.26                             154   -0.5710 71.4 300 
 BRR  HE ES        533 49.68                             154    0.6210 71.4 300 
 BRR  HZ I         533 52.37         1.8 0.42            154           71.4 300 
 PAM  EZ EP        533 33.20                             152    0.2510 78.8  39 
 PAM  EN ES        533 50.73                             152   -0.3310 78.8  39 
 PAM  EZ I         533 53.12         2.8 0.61            156           78.8  39 
 RUS  HZ EP        533 34.45                             146    0.2010 99.3 176 
 RUS  HE ES        533 53.30                             146   -0.0810 99.3 176 
 RUS  HZ I         533 55.99         1.7 0.28            148           99.3 176 
 PTB  HZ EP        533 37.56                             134    0.21 9  147 259 
 PTB  HN ES        533 58.49                             134   -0.40 9  147 259 
 PTB  HZ I         534  4.22         0.9 0.17            136            147 259 
                                                                                
