 2014  419 0157  4.4 L   6.812 -73.166137.0  RSN 12 0.6 1.8LRSN                1
 GAP=133        1.27       3.2     4.5  7.4 -0.2698E+01  0.8029E+01  0.2926E+01E
 Epicentro: LOS SANTOS - SANTANDER                                             3
 ACTION:UPD 14-05-13 23:09 OP:nd   STATUS:               ID:20140419015704 L   I
 OLDACT:DUP 14-04-19 15:47 OP:stll STATUS:               ID:20140419014806d    3
 2014-04-19-0148-05M.COL___236                                                 6
 STAT SP IPHASW D HRMM SECON CODA AMPLIT PERI AZIMU VELO AIN AR TRES W  DIS CAZ7
 BRR  HZ IP     D  157 24.80                             152    0.4010 68.5 298 
 BRR  HN ES        157 40.96                             152    0.9210 68.5 298 
 BRR  HZ I         157 45.64        11.2 0.26            152           68.5 298 
 PAM  SZ EP        157 25.94                             149    0.2710 77.8  41 
 PAM  SZ I         157 26.10        20.5 0.20            155           77.8  41 
 PAM  SN ES        157 42.53                             149    0.2310 77.8  41 
 RUS  HZ EP        157 27.20                             142   -0.1710  102 175 
 RUS  HN ES        157 44.91                             142   -0.4110  102 175 
 RUS  HZ I         157 47.22         7.8 0.20            144            102 175 
 PTB  HZ EP        157 29.98                             130   -0.46 9  146 258 
 PTB  HN ES        157 50.55                             130   -0.23 9  146 258 
 PTB  HZ I         157 53.33         7.6 0.12            132            146 258 
 OCA  HZ EP        157 31.73                             128   -0.11 9  159 354 
 OCA  HN ES        157 52.94                             128   -0.34 9  159 354 
 OCA  HZ I         157 55.77        11.1 0.20            132            159 354 
 SPBC HZ EP        157 32.34                             127    0.18 9  163 218 
 SPBC HE ES        157 53.61                             127   -0.24 9  163 218 
 SPBC HZ I         158  1.33         8.9 0.24            129            163 218 
 ZAR  HZ EP   1    157 35.81                             121   -0.16 6  201 292 
 ZAR  HN ES        158  0.67                             121    0.05 9  201 292 
 NOR  HZ EP        157 39.45                             117   -0.02 8  234 234 
 NOR  HN ES        158  6.62                             117   -0.25 8  234 234 
 NOR  HZ I         158 13.28         5.5 0.14            119            234 234 
 SML  HZ EP   1    157 40.03                             116   -0.23 6  242 336 
 SML  HN ES        158  7.06                             116   -1.21 8  242 336 
 CHI  HZ EP        157 41.41                             115   -0.25 8  249 195 
 CHI  HN ES        158 10.41                             115   -0.35 8  249 195 
 CHI  HZ I         158 14.33         3.0 0.38            118            249 195 
 HEL  HZ EP        157 45.62                             113    1.70 8  270 255 
 HEL  HN ES        158 14.79                             113    0.00 8  270 255 
 HEL  HZ I         158 23.50         2.7 0.28            115            270 255 
 GUY2CHZ EP        157 48.47                             111    1.02 7  300 234 
 GUY2CHN ES        158 20.51                             111   -0.55 7  300 234 
 GUY2CHZ I         158 31.13         3.6 0.44                           300 234 
                                                                                
