 2017  119 0615 47.0 L   6.810 -73.140147.5  RSN  8 0.6 1.6LRSN                1
 GAP=137        1.29       5.1     5.7  8.0  0.2472E+01  0.1208E+02 -0.7185E+00E
 Epicentro: LOS SANTOS - SANTANDER                                             3
 ACTION:UPD 17-05-22 16:01 OP:jn   STATUS:               ID:20170119061547 L   I
 OLDACT:UP  17-01-19 18:17 OP:dani STATUS:               ID:20170119060742d    3
 OLDACT:UP  17-01-19 18:17 OP:dani STATUS:               ID:20170119060742d    3
 OLDACT:UP  17-01-19 18:17 OP:dani STATUS:               ID:20170119060742d    3
 OLDACT:UP  17-01-19 18:15 OP:dani STATUS:               ID:20170119060742d    3
 OLDACT:UP  17-01-19 18:15 OP:dani STATUS:               ID:20170119060742d    3
 OLDACT:DUP 17-01-19 18:11 OP:dani STATUS:               ID:20170119060742d    3
 2017-01-19-0608-00M.COL___325                                                 6
 STAT SP IPHASW D HRMM SECON CODA AMPLIT PERI AZIMU VELO AIN AR TRES W  DIS CAZ7
 BAR2 EZ EP     C  616  6.86                             170    0.0110 24.5 191 
 BAR2 EZ ES        616 21.73                             170   -0.6110 24.5 191 
 BAR2 EZ I         616 23.25         8.6 0.24            169           24.5 191 
 BRR  HZ EP     C  616  8.63                             153    0.3110 71.2 297 
 BRR  HE ES        616 25.83                             153    0.8610 71.2 297 
 BRR  HZ I         616 29.45         9.7 0.14            149           71.2 297 
 PAM  EZ EP        616  9.69                             151    0.3810 76.1  40 
 PAM  EN ES        616 26.74                             151    0.0210 76.1  40 
 PAM  EZ I         616 27.25         3.0 0.26            155           76.1  40 
 RUS  HZ EP        616 10.98                             144   -0.0010  102 176 
 RUS  HN ES        616 29.45                             144   -0.2510  102 176 
 RUS  HZ I         616 30.96         5.0 0.26            147            102 176 
 PTB  HZ EP        616 13.58                             132   -0.59 9  149 258 
 PTB  HN ES        616 34.55                             132   -0.83 9  149 258 
 PTB  HZ I         616 42.56         3.6 0.28            131            149 258 
 ZAR  HZ EP        616 19.99                             123    0.43 9  204 292 
 ZAR  HN ES        616 45.30                             123    0.33 9  204 292 
 ZAR  HZ I         616 52.02         7.2 0.32            122            204 292 
 NOR  HN ES   4    616 47.90                             119   -3.09 0  236 234 
 CHI  HN ES        616 55.17                             117    0.67 8  250 195 
 SJC  HZ EP        616 41.24                             106   -1.29 6  409 327 
 SJC  HN ES   3    617 23.80                             106   -2.06 1  409 327 
 SJC  HZ I         617 31.93         2.1 0.83            107            409 327 
                                                                                
