 2015  619 0545 31.1 L   7.280 -73.243120.7  RSN  4 0.1 1.5LRSN                1
 GAP=180        0.44       2.2     2.9  4.1  0.1294E+01  0.3100E+01 -0.5970E+00E
 Epicentro: RIONEGRO - SANTANDER                                               3
 ACTION:UPD 15-09-10 22:13 OP:cam  STATUS:               ID:20150619054531 L   I
 OLDACT:REG 15-06-19 12:34 OP:drio STATUS:               ID:20150619053749     3
 2015-06-19-0537-49M.COL___304                                                 6
 STAT SP IPHASW D HRMM SECON CODA AMPLIT PERI AZIMU VELO AIN AR TRES W  DIS CAZ7
 BRR  HZ EP        545 48.46                             154   -0.1410 55.2 250 
 BRR  HN ES        546  2.16                             154   -0.1210 55.2 250 
 BRR  HZ I         546  2.50         6.9 0.12            152           55.2 250 
 BAR2 EZ EP        545 50.41                             146    0.1710 76.3 175 
 BAR2 EZ ES        546  5.22                             146    0.0210 76.3 175 
 BAR2 EZ I         546  6.26         9.6 0.36            145           76.3 175 
 OCA  HN ES        546  9.18                             136    0.0310  106 355 
 ZAR  HZ EP        545 59.21                             120   -0.19 9  180 278 
 ZAR  HN ES        546 21.73                             120    0.22 9  180 278 
 ZAR  HZ I         546 24.26         4.2 0.38            119            180 278 
                                                                                
