 2015  419 0857 37.0 L   6.677 -73.190154.1  RSN  4 0.1 1.2LRSN                1
 GAP=225        0.37       5.4     3.6  4.5  0.6194E+01  0.5765E+00  0.6913E+01E
 Epicentro: VILLANUEVA - SANTANDER                                             3
 ACTION:UPD 15-06-03 16:56 OP:cam  STATUS:               ID:20150419085737 L   I
 OLDACT:REG 15-04-19 12:55 OP:spq  STATUS:               ID:20150419084750     3
 2015-04-19-0847-50M.COL___271                                                 6
 STAT SP IPHASW D HRMM SECON CODA AMPLIT PERI AZIMU VELO AIN AR TRES W  DIS CAZ7
 BAR2 EZ EP   1    857 57.43                             176   -0.05 7 9.38 175 
 BRR  HZ EP   1    857 59.38                             153    0.09 7 74.8 310 
 BRR  HE ES        858 16.64                             153   -0.0010 74.8 310 
 BRR  HZ I         858 21.23         3.3 0.38            152           74.8 310 
 PTB  HZ EP   1    858  3.89                             135   -0.20 7  141 264 
 PTB  HN ES   1    858 25.33                             135    0.14 7  141 264 
 PTB  HZ I         858 28.50         1.2 0.14            136            141 264 
 ZAR  HZ EP   1    858 10.37                             124    0.23 6  205 296 
 ZAR  HE ES        858 35.86                             124   -0.11 9  205 296 
 ZAR  HZ I         858 40.55         1.3 0.28            126            205 296 
                                                                                
