 2015  919 0205 10.4 L   6.801 -73.132144.0  RSN  9 0.4 2.1LRSN                1
 GAP=138        1.00       3.5     4.4  6.5 -0.1615E+01  0.8141E+01  0.6683E+01E
 Epicentro: LOS SANTOS - SANTANDER                                             3
 ACTION:UPD 15-10-28 16:27 OP:cam  STATUS:               ID:20150919020510 L   I
 OLDACT:UP  15-09-19 14:46 OP:ak   STATUS:               ID:20150919015747     3
 OLDACT:UP  15-09-19 14:45 OP:ak   STATUS:               ID:20150919015747     3
 OLDACT:REG 15-09-19 12:26 OP:ak   STATUS:               ID:20150919015747     3
 2015-09-19-0157-47M.COL___355                                                 6
 STAT SP IPHASW D HRMM SECON CODA AMPLIT PERI AZIMU VELO AIN AR TRES W  DIS CAZ7
 BRR  HZ IP     C  2 5 31.54                             152    0.1210 72.5 298 
 BRR  HN ES        2 5 48.35                             152    0.5210 72.5 298 
 BRR  HZ I         2 5 51.66        14.0 0.36            151           72.5 298 
 PAM  EZ EP        2 5 32.46                             151    0.1010 76.3  39 
 PAM  EN ES        2 5 49.28                             151   -0.2110 76.3  39 
 PAM  EZ I         2 5 51.69        20.7 0.46            155           76.3  39 
 RUS  HZ EP        2 5 33.58                             143   -0.3910  101 177 
 RUS  HN ES        2 5 52.77                             143    0.4010  101 177 
 SPBC HZ EP        2 5 38.88                             128    0.02 9  164 219 
 SPBC HN ES        2 6  0.22                             128   -0.84 9  164 219 
 SPBC HZ I         2 6  3.43        15.3 0.14            130            164 219 
 ZAR  HZ EP        2 5 43.02                             122    0.15 8  205 292 
 ZAR  HN ES        2 6  7.75                             122   -0.44 8  205 292 
 ZAR  HZ I         2 6 13.89        12.3 0.44            123            205 292 
 NOR  HZ EP        2 5 45.37                             118   -0.79 8  236 235 
 NOR  HE ES        2 6 14.12                             118    0.06 8  236 235 
 NOR  HZ I         2 6 18.99         7.3 0.24            119            236 235 
 CHI  HZ EP        2 5 48.17                             117    0.12 8  249 196 
 CHI  HN ES        2 6 17.20                             117   -0.23 8  249 196 
 CHI  HZ I         2 6 23.13         8.5 0.59            119            249 196 
 GUY2CHZ EP        2 5 54.38                             112    0.31 7  303 235 
 GUY2CHN ES        2 6 28.72                             112    0.58 7  303 235 
 GUY2CHZ I         2 6 41.93         7.0 0.40                           303 235 
 PRA  HZ EP        2 6  4.41                             106    0.45 6  393 210 
 PRA  HE ES        2 6 46.58                             106    0.85 6  393 210 
 PRA  HZ I         2 6 51.86         6.4 0.28            108            393 210 
                                                                                
