 2017  119 0701 21.4 L   6.699 -73.200145.8  RSN  4 0.2 0.8LRSN                1
 GAP=222        0.63       4.9     4.9  5.7  0.1181E+02 -0.8371E+00 -0.3250E+00E
 Epicentro: VILLANUEVA - SANTANDER                                             3
 ACTION:UPD 17-05-22 16:01 OP:jn   STATUS:               ID:20170119070121 L   I
 OLDACT:UP  17-01-19 18:35 OP:dani STATUS:               ID:20170119065526     3
 OLDACT:UP  17-01-19 18:35 OP:dani STATUS:               ID:20170119065526     3
 OLDACT:UP  17-01-19 18:35 OP:dani STATUS:               ID:20170119065526     3
 OLDACT:UP  17-01-19 18:35 OP:dani STATUS:               ID:20170119065526     3
 OLDACT:REG 17-01-19 14:37 OP:dani STATUS:               ID:20170119065526     3
 2017-01-19-0658-00M.COL___327                                                 6
 STAT SP IPHASW D HRMM SECON CODA AMPLIT PERI AZIMU VELO AIN AR TRES W  DIS CAZ7
 BAR2 EZ EP        7 1 40.57                             175   -0.3310 11.9 171 
 BAR2 EZ ES        7 1 55.83                             175   -0.2510 11.9 171 
 BRR  HZ EP        7 1 42.76                             152    0.1010 72.4 309 
 BRR  HN ES        7 1 59.50                             152    0.2910 72.4 309 
 BRR  HZ I         7 2  0.26         1.9 0.11            152           72.4 309 
 RUS  HZ EP        7 1 44.61                             147    0.1510 90.1 172 
 RUS  HE ES        7 2  2.62                             147    0.2010 90.1 172 
 RUS  HZ I         7 2  3.95         0.7 0.36            146           90.1 172 
 PTB  HZ EP   4    7 1 50.91                             134    3.19 0  140 263 
 PTB  HN ES        7 2  8.05                             134   -0.17 9  140 263 
 PTB  HZ I         7 2 10.65         0.8 0.15            133            140 263 
                                                                                
