 2017 1219 0641 26.3 L   6.768 -73.159139.1  RSN  4 0.3 1.3LRSN                1
 GAP=254        0.74       5.2     5.1  6.5  0.4620E+01  0.9541E+01 -0.4942E+01E
 Epicentro: LOS SANTOS - SANTANDER                                             3
 ACTION:UPD 18-01-04 13:21 OP:rebc STATUS:               ID:20171219064126 L   I
 OLDACT:REG 17-12-19 13:12 OP:dhb  STATUS:               ID:20171219062654     3
 2017-12-19-0638-00M.COL___452                                                 6
 STAT SP IPHASW D HRMM SECON CODA AMPLIT PERI AZIMU VELO AIN AR TRES W  DIS CAZ7
 BAR2 EZ EP        641 44.87                             172   -0.1810 19.6 188 
 BAR2 EZ ES        641 59.80                             172    0.1210 19.6 188 
 BAR2 EZ I         642  0.63         5.3 0.18            170           19.6 188 
 PTB  HZ EP        641 52.01                             131   -0.53 9  146 260 
 PTB  HE ES        642 12.70                             131   -0.31 9  146 260 
 PTB  HZ I         642 14.92         1.5 0.36            130            146 260 
 SPBC HZ EP        641 54.25                             128    0.31 9  160 219 
 SPBC HE ES        642 15.67                             128    0.17 9  160 219 
 SPBC HZ I         642 19.35         1.8 0.44            129            160 219 
 ZAR  HZ EP        641 58.59                             121    0.27 9  204 293 
 ZAR  HN ES        642 23.59                             121    0.29 9  204 293 
 ZAR  HZ I         642 31.36         2.4 0.54            121            204 293 
                                                                                
