 2012 1019 0111 26.9 L   6.793 -73.107141.6  RSN  9 0.3 2.4LRSN 2.9WRSN        1
 SPEC AVERAGE  MO 13.4 ST  3.6 OM  2.2 f0 4.68 R0.3226 AL 2.34 WI 10.3 MW  2.9 3
 SPEC SD       MO  0.2 ST  1.7 OM  0.7 f00.732 R0.0544 AL      WI      MW  0.1 3
 GAP=142        0.67       3.5     3.6  4.8 -0.7552E-01  0.5775E+01  0.4125E+01E
 Epicentro: LOS SANTOS - SANTANDER                                             3
 SPEC ZAR HH N MO 13.5 ST  6.5 OM  1.7 f0 5.30 R0.2774 AL 1.35 WI  5.5 MW  2.9 3
 SPEC ZAR HH N T 11223 K 0.000 GD  251 VS 4.20 DE 3.20 Q0230.0 QA 0.60 VS 4.20 3
 SPEC RREFHH Z MO 13.3 ST  2.6 OM  1.4 f0 4.38 R0.3356 AL 1.93 WI 18.4 MW  2.8 3
 SPEC RREFHH Z T 11250 K 0.000 GD  354 VS 4.20 DE 3.20 Q0230.0 QA 0.60 VS 4.20 3
 SPEC PAM SH N MO 13.1 ST  2.8 OM  1.5 f0 5.42 R0.2712 AL 4.05 WI  1.7 MW  2.7 3
 SPEC PAM SH N T 112 5 K 0.000 GD  160 VS 4.20 DE 3.20 Q0230.0 QA 0.60 VS 4.20 3
 SPEC HEL HH N MO 13.6 ST  2.5 OM  1.7 f0 3.62 R0.4061 AL 2.01 WI 15.5 MW  3.0 3
 SPEC HEL HH N T 11238 K 0.000 GD  310 VS 4.20 DE 3.20 Q0230.0 QA 0.60 VS 4.20 3
 ACTION:UPD 12-11-22 17:04 OP:ep   STATUS:               ID:20121019011126 L   I
 2012-10-19-0110-00M.COL___230                                                 6
 STAT SP IPHASW D HRMM SECON CODA AMPLIT PERI AZIMU VELO AIN AR TRES W  DIS CAZ7
 BAR2 SZ EP        111 46.01                             170   -0.0510 23.7 201 
 BAR2 SZ ES   1    112  1.00                             170    0.01 7 23.7 201 
 BAR2 SZ I         112  1.89        38.5 0.30                          23.7 201 
 GIR2 SZ EP        111 45.92                             166   -0.2410 33.1 343 
 GIR2 SZ ES   1    112  0.86                             166   -0.29 7 33.1 343 
 PAM  SZ EP        111 48.80                             151    0.2210 75.4  37 
 PAM  SN ES   1    112  5.72                             151    0.26 7 75.4  37 
 PAM  SN I         112  7.73        70.4 0.64                          75.4  37 
 BRR  HZ EP        111 47.71                             150   -0.1710 75.4 298 
 BRR  HE ES   1    112  4.49                             150    0.28 7 75.4 298 
 BRR  HN I         112  9.91        95.6 0.16                          75.4 298 
 RUS  HZ EP        111 50.22                             143    0.0210 99.6 179 
 RUS  HN ES   1    112  8.40                             143    0.06 7 99.6 179 
 RUS  HN I         112 10.64        30.3 0.54                          99.6 179 
 ZAR  HZ EP   1    111 59.96                             121    0.40 6  208 292 
 ZAR  HN ES   1    112 24.22                             121   -0.78 6  208 292 
 ZAR  HN I         112 28.76        41.3 0.56                           208 292 
 CHI  HZ EP   1    112  4.10                             116   -0.34 6  249 196 
 CHI  HN I         112 39.79        11.1 0.56                           249 196 
 HEL  HZ EP   1    112  8.11                             113    0.73 6  276 256 
 HEL  HN ES   1    112 39.57                             113    0.64 6  276 256 
 HEL  HN I         112 44.87        20.7 0.38                           276 256 
 RREF HZ EP   1    112 12.69                             110   -0.52 5  325 230 
 RREF HN ES   1    112 49.34                             110    0.03 5  325 230 
 RREF HZ I         113  0.40         7.3 0.26                           325 230 
                                                                                
