 2017  919 0821 32.4 L   6.787 -73.085140.0  RSN  8 0.6 1.7LRSN                1
 GAP=243        1.20       5.6     6.6  7.3  0.8066E+01  0.1861E+02  0.4069E+01E
 Epicentro: LOS SANTOS - SANTANDER                                             3
 ACTION:UPD 17-10-05 19:14 OP:rebc STATUS:               ID:20170919082132 L   I
 OLDACT:UP  17-09-19 15:25 OP:leo  STATUS:               ID:20170919081738     3
 OLDACT:REG 17-09-19 13:13 OP:and  STATUS:               ID:20170919081738     3
 2017-09-19-0818-00M.COL___428                                                 6
 STAT SP IPHASW D HRMM SECON CODA AMPLIT PERI AZIMU VELO AIN AR TRES W  DIS CAZ7
 BAR2 EZ EP     C  821 51.27                             170   -0.0410 24.1 207 
 BAR2 EZ ES        822  5.85                             170   -0.2510 24.1 207 
 BAR2 EZ I         822  7.49        11.9 0.36            163           24.1 207 
 BRR  HZ EP        821 53.10                             149   -0.1910 77.8 297 
 BRR  HE ES        822 10.15                             149    0.5410 77.8 297 
 BRR  HZ I         822 14.90        10.0 0.14            146           77.8 297 
 RUS  HZ EP        821 55.23                             143   -0.1910 98.9 180 
 RUS  HN ES        822 13.86                             143    0.4510 98.9 180 
 RUS  HZ I         822 14.63         4.0 0.16            144           98.9 180 
 SPBC HZ EP        822  0.35                             127   -0.38 9  166 221 
 SPBC HN ES        822 22.93                             127    0.07 9  166 221 
 SPBC HZ I         822 30.44         7.5 0.28            127            166 221 
 ZAR  HZ EP        822  4.61                             120   -0.54 8  211 292 
 ZAR  HN ES        822 30.82                             120    0.10 8  211 292 
 ZAR  HZ I         822 35.92         7.2 0.26            121            211 292 
 NOR  HZ EP        822  7.95                             117   -0.32 8  239 236 
 NOR  HN ES        822 35.74                             117   -0.54 8  239 236 
 NOR  HZ I         822 42.49         3.3 0.32            118            239 236 
 HEL  HZ EP        822 12.42                             113   -0.56 7  278 256 
 HEL  HN EP   1    822 13.90                             113    0.92 6  278 256 
 HEL  HE ES   1    822 44.97                             113    0.31 6  278 256 
 HEL  HZ I         822 50.62         4.2 0.52            114            278 256 
 GUY2CHZ EP        822 17.99                             111    1.75 7  306 236 
 GUY2CHN ES   1    822 49.95                             111   -0.52 5  306 236 
 GUY2CHZ I         822 58.46         1.9 0.30                           306 236 
                                                                                
