 2012  519 0001 30.8 L   6.763 -73.181144.0  RSN  5 0.3 1.7LRSN                1
 GAP=134        0.74       5.5     5.3  7.8  0.4046E+01 -0.5063E+01 -0.6136E+01E
 Epicentro: VILLANUEVA - SANTANDER                                             3
 ACTION:UP  12-07-05 12:06 OP:pat  STATUS:               ID:20120519000130 L   I
 2012-05-19-0000-00M.COL___200                                                 6
 STAT SP IPHASW D HRMM SECON CODA AMPLIT PERI AZIMU VELO SNR AR TRES W  DIS CAZ7
 BAR2 SZ ES   2    0 2  4.79                             172    -0.4 5   19 181 
 BRR  HZ EP        0 1 52.07                             153     0.410   70 303 
 BRR  HN ES   1    0 2  8.20                             153     0.2 7   70 303 
 BRR  HZ I         0 2 16.86         9.0 0.36                            70 303 
 PAM  SZ EP        0 1 52.90                             149    -0.210   83  40 
 RUS  HZ EP        0 1 54.27                             145     0.210   97 174 
 RUS  HN ES   1    0 2 12.34                             145     0.1 7   97 174 
 PTB  HZ EP        0 1 56.74                             133    -0.4 9  143 260 
 PTB  HN ES   1    0 2 17.74                             133     0.0 7  143 260 
                                                                                
