 2013  119 0648  1.7 L   5.945 -73.715111.8  RSN  5 0.2 0.9LRSN                1
 GAP=128        0.39       2.6     2.6  5.1  0.2371E+01  0.5454E+01  0.5063E+01E
 Epicentro: GUAVATA - SANTANDER                                                3
 ACTION:UPD 13-02-15 09:15 OP:ep   STATUS:               ID:20130119064801 L   I
 2013-01-19-0640-00M.COL___241                                                 6
 STAT SP IPHASW D HRMM SECON CODA AMPLIT PERI AZIMU VELO AIN AR TRES W  DIS CAZ7
 RUS  HZ EP   1    648 19.99                             146    0.10 7 70.2  95 
 RUS  HN ES   1    648 34.05                             146   -0.05 7 70.2  95 
 RUS  HZ I         648 37.36         1.6 0.20             47           70.2  95 
 BAR2 SZ EP   1    648 21.47                             137    0.23 7 92.7  39 
 BAR2 SZ ES   1    648 36.37                             137   -0.13 7 92.7  39 
 PTB  HZ EP   1    648 21.69                             133   -0.31 7  105 309 
 PTB  HN ES   1    648 38.04                             133    0.18 7  105 309 
 PTB  HZ I         648 38.93         1.9 0.09             47            105 309 
 BRR  HZ EP   1    648 24.14                             127   -0.02 7  128   0 
 BRR  HN ES   1    648 41.70                             127    0.00 7  128   0 
 BRR  HZ I         648 45.35         2.6 0.13             47            128   0 
 CHI  HZ EP   1    648 26.39                             124   -0.01 7  145 181 
 CHI  HZ I         648 47.48         0.8 0.20             47            145 181 
                                                                                
