 2010  819 0336 20.4 L   6.277 -73.604106.2  RSN  8 0.3 1.7LRSN                1
 GAP=121        0.75       3.8     5.1  7.3 -0.2021E+01  0.1383E+02  0.7747E+01E
 Epicentro: SANTA HELENA DEL OPON - SANTANDER                                  3
 ACTION:UP  10-09-07 10:56 OP:vdl  STATUS:               ID:20100819033620 L   I
 2010-08-19-0333-34S.COL___117                                                 6
 STAT SP IPHASW D HRMM SECON CODA AMPLIT PERI AZIMU VELO SNR AR TRES W  DIS CAZ7
 BAR2 SZ EP        336 36.97                             149     0.110   58  53 
 BAR2 SZ ES   1    336 50.08                             149     0.4 7   58  53 
 BAR2 SZ I         336 51.36        45.2 0.13                            58  53 
 RUS  HZ EP        336 38.04                             144    -0.110   72 126 
 RUS  HZ I         336 39.02         3.8 0.11                            72 126 
 RUS  HN ES   2    336 51.74                             144    -0.2 5   72 126 
 BTL  SZ EP        336 38.48                             140     0.110   80  28 
 BTL  SZ ES   1    336 52.20                             140    -0.3 7   80  28 
 BRR  HZ EP        336 38.82                             135    -0.310   93 353 
 BRR  HZ I         336 45.88        16.1 0.36                            93 353 
 BRR  HN ES        336 53.70                             135     0.010   93 353 
 GIR2 SZ EP   3    336 39.50                             133    -0.4 2  100  27 
 GUE  SZ EP        336 49.48                             114     0.4 9  187  24 
 GUE  SZ I         336 50.12         4.5 0.24                           187  24 
 HEL  HZ I         337 20.10         3.8 0.65                           213 268 
 RREF HZ EP   1    336 55.53                             108    -0.6 6  246 232 
 RREF HN ES   1    337 24.62                             108     0.5 6  246 232 
 RREF HZ I         337 29.61         3.4 0.12                           246 232 
                                                                                
