 2013 1219 0812 56.1 L   6.733 -73.148143.7  RSN  6 0.3 1.2LRSN                1
 GAP=139        0.64       4.1     4.2  6.5  0.5789E+01 -0.5184E+01 -0.5245E+01E
 Epicentro: JORDAN - SANTANDER                                                 3
 ACTION:UPD 14-01-13 10:19 OP:ep   STATUS:               ID:20131219081256 L   I
 OLDACT:DUP 13-12-19 11:11 OP:jn   STATUS:               ID:20131219081002d    3
 OLDACT:DUP 13-12-19 11:06 OP:jn   STATUS:               ID:20131219081001d    3
 OLDACT:REG 13-12-19 08:19 OP:jn   STATUS:               ID:20131219081000     3
 2013-12-19-0810-00M.COL___285                                                 6
 STAT SP IPHASW D HRMM SECON CODA AMPLIT PERI AZIMU VELO AIN AR TRES W  DIS CAZ7
 BAR2 SZ EP        813 15.35                             173   -0.0210 16.0 194 
 BRR  HZ EP        813 17.11                             151   -0.1410 74.9 304 
 BRR  HE ES        813 33.97                             151    0.2310 74.9 304 
 PAM  SZ EP        813 18.28                             148   -0.2010 83.4  36 
 PAM  SZ I         813 35.63         2.2 0.50            137           83.4  36 
 RUS  HZ EP        813 19.37                             145    0.2310 93.2 176 
 RUS  HN ES        813 37.06                             145   -0.0310 93.2 176 
 RUS  HZ I         813 39.14         1.2 0.44            149           93.2 176 
 PTB  HZ EP        813 22.96                             132    0.18 9  146 262 
 PTB  HN ES   1    813 42.93                             132   -0.65 7  146 262 
 PTB  HZ I         813 45.97         2.7 0.18            133            146 262 
 ZAR  HE ES   2    813 54.71                             121    0.58 4  207 294 
 ZAR  HZ I         813 59.38         2.9 0.28            119            207 294 
                                                                                
