 2010  419 0913 43.0 L   6.803 -72.922141.2  RSN  8 0.5 2.1LRSN                1
 GAP=216        0.95       4.5    10.1  7.8 -0.1390E+02 -0.1181E+02  0.1018E+02E
 Epicentro: CEPITA - SANTANDER                                                 3
 ACTION:UP  10-08-24 09:59 OP:vdl  STATUS:               ID:20100419091352 L   I
 2010-04-19-0908-18S.COL___100                                                 6
 STAT SP IPHASW D HRMM SECON CODA AMPLIT PERI AZIMU VELO AIN AR TRES W  DIS CAZ7
 BAR2 SZ EP        914  2.84                             165     0.410   37 231 
 BAR2 SZ ES   1    914 17.51                             165    -0.1 7   37 231 
 BRR  HZ EP        914  5.15                             145     0.110   94 291 
 BRR  HN ES        914 22.29                             145     0.010   94 291 
 BRR  HZ I         914 23.39        22.2 0.04                            94 291 
 OCA  SZ EP        914 11.33                             128     0.0 9  165 345 
 OCA  SZ ES   1    914 33.03                             128    -0.5 7  165 345 
 OCA  SZ I         914 36.44        26.3 0.17                           165 345 
 CHI  HZ EP   1    914 21.42                             115     0.2 6  256 201 
 CHI  HN ES   1    914 50.64                             115    -0.5 6  256 201 
 CHI  HZ I         914 54.15        10.1 0.62                           256 201 
 ROSC BZ EP   2    914 21.42                             114    -0.9 4  267 216 
 ROSC BN ES   1    914 52.43                             114    -0.7 6  267 216 
 ROSC BZ I         914 56.89         9.5 1.58                           267 216 
 HEL  HZ EP   1    914 25.05                             112    -0.6 5  296 257 
 HEL  HZ I         914 58.84         2.2 0.79                           296 257 
 RREF BZ EP   1    914 31.69                             109     0.6 5  341 232 
 RREF BN ES   1    915  9.71                             109     1.0 5  341 232 
 PRA  HZ I         914 39.31         4.0 0.82                           405 213 
                                                                                
