 2016  919 0629 55.3 L   6.750 -73.192161.4  RSN  4 0.4 1.3LRSN                1
 GAP=274        0.86       5.7    10.7  8.3  0.1517E+02 -0.1809E+02  0.2949E+01E
 Epicentro: VILLANUEVA - SANTANDER                                             3
 ACTION:UPD 17-08-17 21:14 OP:lp   STATUS:               ID:20160919062955 L   I
 OLDACT:REG 16-09-19 12:08 OP:ar   STATUS:               ID:20160919062734     3
 2016-09-19-0628-00M.COL___345                                                 6
 STAT SP IPHASW D HRMM SECON CODA AMPLIT PERI AZIMU VELO AIN AR TRES W  DIS CAZ7
 BRR  HE ES        630 35.90                             156    0.0210 69.7 305 
 BRR  HZ I         630 40.95         3.2 0.50            155           69.7 305 
 PTB  HZ EP        630 22.90                             137   -0.20 9  142 261 
 PTB  HN ES        630 44.27                             137   -0.50 9  142 261 
 PTB  HZ I         630 45.95         2.1 0.34            138            142 261 
 SPBC HZ EP        630 24.75                             134    0.34 9  156 219 
 SPBC HE ES        630 47.23                             134    0.14 9  156 219 
 SPBC HZ I         630 50.47         2.6 0.17            137            156 219 
 ZAR  HZ EP        630 28.24                             126   -0.35 9  201 294 
 ZAR  HN ES        630 55.13                             126    0.60 9  201 294 
 ZAR  HZ I         631  1.24         1.7 0.25            128            201 294 
                                                                                
