 2011  619 0901 17.6 L   6.770 -73.101142.4  RSN  4 0.1 1.6LRSN                1
 GAP=164        0.39       2.3     5.0  5.7 -0.3063E+00 -0.9844E+01 -0.3943E+00E
 Epicentro: LOS SANTOS - SANTANDER                                             3
 ACTION:UP  11-07-14 19:06 OP:ep   STATUS:               ID:20110619090117 L   I
 2011-06-19-0900-00M.COL___126                                                 6
 STAT SP IPHASW D HRMM SECON CODA AMPLIT PERI AZIMU VELO SNR AR TRES W  DIS CAZ7
 BAR2 SZ EP        9 1 36.87                             171     0.110   22 205 
 BAR2 SZ I         9 1 37.28         8.8 0.01                            22 205 
 BRR  HZ EP   1    9 1 38.53                             150    -0.2 7   77 299 
 BRR  HN ES   1    9 1 55.33                             150     0.1 7   77 299 
 BRR  HZ I         9 1 56.44        14.9 0.19                            77 299 
 RUS  HZ EP   1    9 1 40.90                             144     0.1 7   97 179 
 RUS  HN ES   1    9 1 58.71                             144    -0.1 7   97 179 
 RUS  HZ I         9 2  1.12         3.4 0.20                            97 179 
 GRA  SZ EP   1    9 1 42.70                             136     0.0 7  128  15 
 GRA  SZ ES   1    9 2  2.27                             136     0.0 7  128  15 
 GRA  SZ I         9 2  3.51         7.4 0.25                           128  15 
                                                                                
