 2016  319 0209 39.8 L   6.822 -73.165142.0  RSN 11 0.4 1.8LRSN                1
 GAP=133        0.84       2.9     3.2  5.5 -0.4335E+00  0.7015E+01  0.1148E+01E
 Epicentro: LOS SANTOS - SANTANDER                                             3
 ACTION:UPD 16-05-13 21:25 OP:cam  STATUS:               ID:20160319020939 L   I
 OLDACT:REG 16-03-19 12:35 OP:dnl  STATUS:               ID:20160319020742     3
 2016-03-19-0207-42M.COL___326                                                 6
 STAT SP IPHASW D HRMM SECON CODA AMPLIT PERI AZIMU VELO AIN AR TRES W  DIS CAZ7
 BAR2 EZ EP        2 9 58.93                             169   -0.1210 25.5 184 
 BAR2 EZ ES        210 14.02                             169   -0.0210 25.5 184 
 BAR2 EZ I         210 15.25        14.8 0.32            169           25.5 184 
 PAM  EZ EP        210  1.81                             150    0.2010 76.9  42 
 PAM  EN ES        210 18.89                             150    0.2810 76.9  42 
 PAM  EZ I         210 21.38        16.1 0.23            153           76.9  42 
 RUS  HZ EP        210  2.89                             142   -0.5110  103 175 
 RUS  HE ES        210 21.79                             142   -0.0010  103 175 
 RUS  HZ I         210 24.46         3.1 0.32            147            103 175 
 PTB  HZ EP        210  5.87                             132   -0.47 9  146 258 
 PTB  HN ES        210 26.89                             132   -0.13 9  146 258 
 PTB  HZ I         210 32.66         8.0 0.18            130            146 258 
 SPBC HZ EP        210  7.88                             128   -0.21 9  164 218 
 SPBC HN ES        210 29.93                             128   -0.21 9  164 218 
 SPBC HZ I         210 36.02         8.3 0.10            129            164 218 
 ZAR  HZ EP        210 11.99                             122    0.27 9  201 292 
 ZAR  HE ES        210 37.06                             122    0.46 9  201 292 
 ZAR  HZ I         210 43.07         7.7 0.20            121            201 292 
 NOR  HZ EP   2    210 15.32                             118    0.02 4  234 234 
 NOR  HN ES        210 43.34                             118    0.36 8  234 234 
 NOR  HZ I         210 51.59         5.9 0.22            118            234 234 
 CHI  HZ EP        210 17.31                             116   -0.21 8  250 195 
 CHI  HN ES        210 47.59                             116    0.67 8  250 195 
 CHI  HZ I         210 49.13         2.7 0.20            118            250 195 
 URE  HZ EP   4    210 23.28                             113    2.90 0  281 292 
 URE  HN ES        210 51.34                             113   -0.68 7  281 292 
 URE  HZ I         211  3.07         5.3 0.26            113            281 292 
 GUY2CHZ EP   2    210 24.35                             112    1.13 4  301 234 
 GUY2CHE ES        210 57.47                             112    0.40 7  301 234 
 GUY2CHZ I         211  5.73         3.1 0.42                           301 234 
 MON  HZ EP   4    210 32.63                             108    4.33 0  350 308 
 MON  HN ES   4    211 16.04                             108    9.92 0  350 308 
 MON  HZ I         211 24.14         1.3 0.34            108            350 308 
                                                                                
