 2017 1219 0724 23.7 L   6.700 -73.092138.4  RSN  4 0.2 1.1LRSN                1
 GAP=286        0.60       4.2     4.2  5.1  0.2353E+01  0.6336E+01 -0.2838E+01E
 Epicentro: JORDAN - SANTANDER                                                 3
 ACTION:UPD 18-01-04 13:22 OP:rebc STATUS:               ID:20171219072423 L   I
 OLDACT:DUP 17-12-19 16:03 OP:dhb  STATUS:               ID:20171219071535d    3
 OLDACT:REG 17-12-19 13:15 OP:dhb  STATUS:               ID:20171219071534     3
 2017-12-19-0718-00M.COL___448                                                 6
 STAT SP IPHASW D HRMM SECON CODA AMPLIT PERI AZIMU VELO AIN AR TRES W  DIS CAZ7
 BAR2 EZ EP        724 42.39                             173    0.1210 15.6 220 
 BAR2 EZ ES        724 56.72                             173   -0.0610 15.6 220 
 BAR2 EZ I         725  0.51         1.9 0.26            171           15.6 220 
 PTB  HZ EP        724 50.11                             129   -0.33 9  152 263 
 PTB  HE ES        725 11.24                             129   -0.07 9  152 263 
 PTB  HZ I         725 13.85         1.0 0.24            131            152 263 
 SPBC HZ EP        724 50.94                             128   -0.25 9  159 223 
 SPBC HE ES        725 12.92                             128    0.27 9  159 223 
 SPBC HZ I         725 15.97         1.7 0.16            131            159 223 
 ZAR  HZ EP        724 57.10                             119    0.42 8  214 294 
 ZAR  HE ES        725 22.38                             119   -0.05 8  214 294 
 ZAR  HZ I         725 27.07         2.5 0.30            122            214 294 
                                                                                
