 2011 1219 0933 32.3 L   6.788 -73.089139.2  RSN  6 0.2 1.8LRSN                1
 GAP=145        0.43       2.6     4.2  4.2 -0.1817E+01  0.3534E+00  0.3719E+01E
 Epicentro: LOS SANTOS - SANTANDER                                             3
 ACTION:UPD 12-07-13 16:17 OP:ep   STATUS:               ID:20111219093332 L   I
 2011-12-19-0930-00M.COL___187                                                 6
 STAT SP IPHASW D HRMM SECON CODA AMPLIT PERI AZIMU VELO AIN AR TRES W  DIS CAZ7
 BAR2 SZ EP        933 51.18                             170    0.0510 24.0 206 
 BAR2 SZ ES   1    934  5.45                             170   -0.38 7 24.0 206 
 BAR2 SZ I         934  7.50        11.2 0.30                          24.0 206 
 GIR2 SZ EP   2    933 51.21                             165   -0.04 5 34.2 340 
 PAM  SZ EP   1    933 53.79                             150    0.16 7 74.6  35 
 PAM  SN ES   1    934 10.36                             150    0.08 7 74.6  35 
 BRR  HZ EP        933 52.97                             149   -0.1210 77.4 297 
 BRR  HE ES   1    934  9.55                             149    0.22 7 77.4 297 
 BRR  HN I         934 10.94        42.0 0.24                          77.4 297 
 RUS  HZ EP   1    933 55.11                             143   -0.16 7 99.0 180 
 RUS  HZ I         933 56.42         5.2 0.15                          99.0 180 
 RUS  HE ES   2    934 13.50                             143    0.30 5 99.0 180 
 CHI  HZ EP   1    934  9.51                             116   -0.15 6  249 197 
 CHI  HN ES   1    934 39.10                             116    0.28 6  249 197 
 CHI  HZ I         934 46.03         2.8 0.53                           249 197 
                                                                                
