 2012 1019 0530 24.9 L   6.720 -73.132142.3  RSN  5 0.4 1.4LRSN                1
 GAP=186        0.77       7.2     9.1  7.9  0.4178E+02  0.1301E+02  0.6207E+01E
 Epicentro: JORDAN - SANTANDER                                                 3
 ACTION:UPD 12-11-22 17:04 OP:ep   STATUS:               ID:20121019053024 L   I
 2012-10-19-0530-00M.COL___231                                                 6
 STAT SP IPHASW D HRMM SECON CODA AMPLIT PERI AZIMU VELO AIN AR TRES W  DIS CAZ7
 BAR2 SZ EP   1    530 43.92                             173   -0.05 7 15.1 201 
 BAR2 SZ ES   1    530 59.36                             173    0.51 7 15.1 201 
 BAR2 SZ I         531  0.55         4.5 0.26                          15.1 201 
 GIR2 SZ EP   1    530 44.79                             163    0.35 7 40.3 350 
 GIR2 SZ ES   1    530 58.91                             163   -0.77 7 40.3 350 
 BRR  HZ EP   1    530 46.17                             150    0.15 7 77.1 304 
 BRR  HN ES   1    531  2.87                             150    0.37 7 77.1 304 
 BRR  HN I         531  3.76        11.3 0.14                          77.1 304 
 RUS  HZ EP   1    530 47.55                             146   -0.13 7 91.6 177 
 RUS  HN ES   1    531  5.24                             146   -0.20 7 91.6 177 
 RUS  HN I         531  6.14         1.8 0.42                          91.6 177 
 ZAR  HN ES   1    531 22.84                             121   -0.31 6  209 294 
                                                                                
