 2015 1019 0323 59.8 L   6.813 -73.149148.1  RSN  6 0.4 1.3LRSN                1
 GAP=135        0.92       4.2     5.1  7.1  0.2969E+01  0.1269E+02  0.3993E+01E
 Epicentro: LOS SANTOS - SANTANDER                                             3
 ACTION:UPD 15-12-22 20:41 OP:cam  STATUS:               ID:20151019032359 L   I
 OLDACT:REG 15-10-19 12:39 OP:mh   STATUS:               ID:20151019031747     3
 2015-10-19-0317-47M.COL___331                                                 6
 STAT SP IPHASW D HRMM SECON CODA AMPLIT PERI AZIMU VELO AIN AR TRES W  DIS CAZ7
 BAR2 EZ EP        324 19.59                             170   -0.2010 24.7 189 
 BAR2 EZ ES        324 34.76                             170   -0.5810 24.7 189 
 BAR2 EZ I         324 36.04         4.7 0.46            165           24.7 189 
 BRR  HZ EP        324 21.58                             153    0.3810 70.2 298 
 BRR  HN ES        324 38.49                             153    0.6410 70.2 298 
 BRR  HZ I         324 46.87         4.5 0.40            149           70.2 298 
 PAM  EE ES        324 39.75                             151    0.0010 76.5  40 
 RUS  HZ EP        324 23.94                             144    0.0010  102 176 
 RUS  HN ES        324 42.82                             144    0.1010  102 176 
 RUS  HZ I         324 44.28         1.3 0.28            146            102 176 
 SPBC HZ EP   1    324 28.65                             129    0.04 7  164 219 
 SPBC HN ES        324 51.20                             129    0.15 9  164 219 
 SPBC HZ I         324 58.93         3.6 0.20            130            164 219 
 ZAR  HZ EP   1    324 32.30                             123   -0.06 6  203 292 
 ZAR  HE ES        324 57.07                             123   -0.64 9  203 292 
 ZAR  HZ I         325  3.79         2.7 0.32            123            203 292 
 GUY2CHE ES   4    325 20.93                             113    3.16 0  302 235 
                                                                                
