 2016  319 0518 22.2 L   6.821 -73.147140.9  RSN 15 0.3 2.0LRSN                1
 GAP= 70        0.70       2.2     2.5  4.1 -0.1007E+01  0.2798E+01 -0.7297E-01E
 Epicentro: LOS SANTOS - SANTANDER                                             3
 ACTION:UPD 16-05-13 21:25 OP:cam  STATUS:               ID:20160319051822 L   I
 OLDACT:UP  16-03-28 15:35 OP:Mher STATUS:               ID:20160319051822 L   3
 OLDACT:UP  16-03-19 15:04 OP:dnl  STATUS:               ID:20160319051743     3
 OLDACT:REG 16-03-19 12:48 OP:dnl  STATUS:               ID:20160319051743     3
 2016-03-19-0517-43M.COL___315                                                 6
 STAT SP IPHASW D HRMM SECON CODA AMPLIT PERI AZIMU VELO AIN AR TRES W  DIS CAZ7
 BAR2 EZ EP        518 41.53                             169    0.2610 25.6 189 
 BAR2 EZ ES        518 56.48                             169    0.3210 25.6 189 
 BAR2 EZ I         518 58.18        36.8 0.21            168           25.6 189 
 PAM  EZ EP     C  518 44.24                             150    0.4710 75.7  41 
 PAM  EN ES        519  0.34                             150   -0.2810 75.7  41 
 PAM  EZ I         519  3.64        20.7 0.50            153           75.7  41 
 RUS  HZ EP        518 45.44                             142   -0.1810  103 176 
 RUS  HN ES        519  3.62                             142   -0.2910  103 176 
 RUS  HZ I         519  5.12        10.0 0.24            144            103 176 
 PTB  HZ EP        518 48.27                             131   -0.50 9  148 258 
 PTB  HN ES        519  9.50                             131   -0.03 9  148 258 
 PTB  HZ I         519 11.89         8.8 0.18            129            148 258 
 TAM  HZ EP        518 49.86                             129    0.32 9  156 106 
 TAM  HE ES   4    519  8.28                             129   -2.61 0  156 106 
 OCA  HZ EP        518 49.46                             129   -0.43 9  158 353 
 OCA  HN ES        519 11.47                             129   -0.03 9  158 353 
 OCA  HZ I         519 14.90        21.2 0.29            128            158 353 
 SPBC HZ EP   2    518 50.38                             128   -0.09 5  165 218 
 SPBC HN ES        519 12.55                             128    0.01 9  165 218 
 SPBC HZ I         519 17.39        13.6 0.11            127            165 218 
 ZAR  HZ EP        518 54.05                             121   -0.15 9  203 292 
 ZAR  HN ES        519 19.27                             121    0.09 9  203 292 
 ZAR  HZ I         519 26.15        12.6 0.18            120            203 292 
 ROSC BZ EP   4    519  1.85                             115    1.61 0  255 211 
 ROSC BN ES   4    519 29.01                             115   -0.93 0  255 211 
 ROSC BZ I         519 36.15        15.7 0.45            116            255 211 
 URE  HZ EP   4    519  5.74                             113    2.85 0  283 291 
 URE  HN ES   4    519 31.79                             113   -2.87 0  283 291 
 URE  HZ I         519 39.20         4.8 0.17            112            283 291 
 GUY2CHZ EP        519  6.10                             111    0.40 7  302 234 
 GUY2CHN ES   2    519 39.53                             111   -0.12 4  302 234 
 GUY2CHZ I         519 47.76         5.1 0.34                           302 234 
 CBOC HZ EP   2    519  9.65                             109    0.70 3  334 252 
 CBOC HE ES        519 45.96                             109    0.52 7  334 252 
 CBOC HZ I         519 53.58         1.5 0.38            109            334 252 
 MON  HZ EP   9    519  8.67                             108   -2.13 0  352 308 
 MON  HN ES        519 46.72                             108    0.12 6  352 308 
 MON  HZ I         520  3.71         4.2 0.78            107            352 308 
 ANIL HE ES   4    519 48.23                             107   -2.59 0  359 224 
 ORTC HZ EP   2    519 15.80                             105   -0.34 3  397 216 
 ORTC HN ES        519 57.80                             105   -0.43 6  397 216 
 ORTC HZ I         520  2.81         3.6 0.36            106            397 216 
 SJC  HZ EP   4    519 15.64                             105   -1.69 0  407 327 
 SJC  HE ES   4    519 56.85                             105   -3.51 0  407 327 
 SJC  HZ I         520  4.73         1.7 0.16            105            407 327 
                                                                                
