 2014 1119 0242 50.2 L   6.799 -73.183126.3  RSN  4 0.2 1.1LRSN                1
 GAP=143        0.54       2.9     3.0  6.5 -0.3411E+01  0.5425E+01 -0.4226E+00E
 Epicentro: ZAPATOCA - SANTANDER                                               3
 ACTION:UPD 14-12-19 15:44 OP:nd   STATUS:               ID:20141119024250 L   I
 OLDACT:DUP 14-11-19 15:29 OP:fm   STATUS:               ID:20141119023744d    3
 2014-11-19-0237-43M.COL___286                                                 6
 STAT SP IPHASW D HRMM SECON CODA AMPLIT PERI AZIMU VELO AIN AR TRES W  DIS CAZ7
 PAM  SZ EP        243 10.75                             146    0.2010 80.1  42 
 PAM  SN ES        243 26.25                             146   -0.1910 80.1  42 
 PAM  SZ I         243 29.79         3.4 0.52            154           80.1  42 
 RUS  HZ EP        243 12.12                             139    0.0310  101 174 
 RUS  HN ES        243 29.26                             139    0.0810  101 174 
 RUS  HZ I         243 32.77         1.6 0.20            143            101 174 
 PTB  HZ EP   1    243 14.90                             128   -0.35 7  144 259 
 PTB  HN ES        243 35.03                             128    0.23 9  144 259 
 PTB  HZ I         243 38.50         1.5 0.18            132            144 259 
 SPBC HN ES   1    243 37.61                             125   -0.31 7  161 218 
 SPBC HZ I         243 45.88         2.7 0.22            129            161 218 
                                                                                
