 2015  719 0852 37.1 L   6.802 -73.148146.9  RSN  6 0.2 1.7LRSN                1
 GAP=136        0.59       2.6     4.1  5.7  0.3982E+01  0.2439E+01 -0.5127E+01E
 Epicentro: LOS SANTOS - SANTANDER                                             3
 ACTION:UPD 15-09-08 21:49 OP:cam  STATUS:               ID:20150719085237 L   I
 OLDACT:REG 15-07-19 16:35 OP:spq  STATUS:               ID:20150719084742     3
 2015-07-19-0847-42M.COL___340                                                 6
 STAT SP IPHASW D HRMM SECON CODA AMPLIT PERI AZIMU VELO AIN AR TRES W  DIS CAZ7
 BAR2 EZ EP        852 56.85                             170   -0.0210 23.5 189 
 BAR2 EZ ES   1    853 12.01                             170   -0.28 7 23.5 189 
 BAR2 EZ I         853 13.28         7.9 0.28            175           23.5 189 
 PAM  EZ EP        852 59.72                             151    0.2910 77.4  40 
 RUS  HZ EP        853  1.00                             144    0.0210  101 176 
 RUS  HE ES        853 19.58                             144   -0.0310  101 176 
 RUS  HZ I         853 20.82         2.9 0.26            151            101 176 
 OCA  HE ES        853 27.79                             130    0.18 9  160 353 
 OCA  HZ I         853 36.14        10.8 0.38            131            160 353 
 ZAR  HZ EP   1    853  9.87                             123    0.28 6  204 292 
 ZAR  HE ES        853 35.09                             123    0.16 9  204 292 
 ZAR  HZ I         853 39.95         4.1 0.24            125            204 292 
 SML  HZ EP        853 13.21                             118   -0.54 8  243 335 
 SML  HE ES        853 42.12                             118   -0.23 8  243 335 
 SML  HZ I         853 46.00         4.4 0.26            120            243 335 
                                                                                
