 2016 1019 0326 25.0 L   6.818 -73.176146.0  RSN  5 0.4 1.3LRSN                1
 GAP=236        0.79       5.3     6.6  6.8  0.1383E+01  0.1008E+02 -0.2533E+01E
 Epicentro: ZAPATOCA - SANTANDER                                               3
 ACTION:UPD 16-11-09 19:20 OP:rebc STATUS:               ID:20161019032625 L   I
 OLDACT:UP  16-10-19 15:57 OP:and  STATUS:               ID:20161019031734d    3
 OLDACT:UP  16-10-19 15:55 OP:and  STATUS:               ID:20161019031734d    3
 OLDACT:DUP 16-10-19 15:53 OP:and  STATUS:               ID:20161019031734d    3
 OLDACT:REG 16-10-19 12:36 OP:y    STATUS:               ID:20161019031733     3
 2016-10-19-0318-00M.COL___329                                                 6
 STAT SP IPHASW D HRMM SECON CODA AMPLIT PERI AZIMU VELO AIN AR TRES W  DIS CAZ7
 BAR2 EZ EP        326 44.58                             170   -0.1210 25.0 182 
 BAR2 EZ ES        326 59.54                             170   -0.5110 25.0 182 
 BAR2 EZ I         327  1.37         3.4 0.21            169           25.0 182 
 BRR  HZ EP        326 46.18                             154    0.2210 67.3 298 
 BRR  HN ES   2    327  3.33                             154    1.02 5 67.3 298 
 RUS  HZ EP        326 48.91                             143   -0.0310  103 174 
 RUS  HN ES        327  7.98                             143    0.3710  103 174 
 RUS  HZ I         327  8.19         3.0 0.28            144            103 174 
 PTB  HZ EP   2    326 51.25                             132   -0.48 5  145 258 
 PTB  HN ES   2    327 12.08                             132   -0.50 5  145 258 
 PTB  HZ I         327 13.19         1.5 0.18            133            145 258 
 SPBC HZ EP        326 53.58                             129    0.11 9  163 218 
 SPBC HN ES        327 15.61                             129   -0.06 9  163 218 
 SPBC HZ I         327 17.05         3.7 0.14            130            163 218 
                                                                                
