 2017  519 0843 50.5 L   5.880 -73.777  0.2  RSN  7 0.6 1.3LRSN                1
 GAP=212        1.44       5.1     9.0  9.1  0.2866E+02  0.3631E+02  0.6232E+01E
 Epicentro: JESUS MARIA - SANTANDER                                            3
 ACTION:UPD 17-06-16 13:37 OP:jn   STATUS:               ID:20170519084350 L   I
 OLDACT:UP  17-05-19 15:51 OP:dnl  STATUS:               ID:20170519083731     3
 OLDACT:UP  17-05-19 15:50 OP:dnl  STATUS:               ID:20170519083731     3
 OLDACT:UP  17-05-19 15:50 OP:dnl  STATUS:               ID:20170519083731     3
 OLDACT:REG 17-05-19 14:01 OP:dnl  STATUS:               ID:20170519083731     3
 2017-05-19-0838-00M.COL___350                                                 6
 STAT SP IPHASW D HRMM SECON CODA AMPLIT PERI AZIMU VELO AIN AR TRES W  DIS CAZ7
 SPBC HZ EP   4    843 56.61                              47   -1.42 0 41.3 232 
 SPBC HE ES        844  3.88                              47    0.0110 41.3 232 
 SPBC HZ I         844  5.64        17.9 0.10            117           41.3 232 
 PTB  HZ EP   4    844  6.28                              47   -1.28 0  105 314 
 PTB  HN ES        844 21.59                              47    0.7510  105 314 
 PTB  HZ I         844 22.82         6.9 0.40             92            105 314 
 NOR  HZ IP     D  844 11.04                              47    0.2310  126 254 
 NOR  HE ES   4    844 28.87                              47    2.24 0  126 254 
 NOR  HZ I         844 29.10         2.9 0.18             93            126 254 
 BRR  HZ EP   4    844  7.37                              47   -4.89 0  136   3 
 BRR  HZ I         844 48.14         8.9 0.44             56            136   3 
 CHI  HZ EP        844 12.41                              47   -0.66 9  138 178 
 CHI  HE ES        844 31.23                              47    0.59 9  138 178 
 CHI  HZ I         844 38.23         2.5 0.44             92            138 178 
 HEL  HZ EP        844 20.71                              37   -0.79 9  197 280 
 HEL  HE ES        844 45.23                              37   -0.42 9  197 280 
 HEL  HZ I         844 47.77         3.4 0.20             91            197 280 
 ZAR  HZ EP   9    844 21.44                              37   -1.83 0  215 326 
 ZAR  HE ES        844 46.09                              56   -0.88 8  215 326 
 ZAR  HZ I         844 48.91         2.7 0.24             56            215 326 
                                                                                
