 2012  219 0604 11.4 L   6.731 -73.137152.0  RSN  5 0.4 1.2LRSN                1
 GAP=186        0.65       7.3     7.7  8.5  0.1695E+02 -0.5015E+00  0.1587E+02E
 ACTION:UP  12-03-07 16:32 OP:epov STATUS:               ID:20120219060411 L   I
 2012-02-19-0600-00M.COL___188                                                 6
 STAT SP IPHASW D HRMM SECON CODA AMPLIT PERI AZIMU VELO AIN AR TRES W  DIS CAZ7
 BAR2 SZ EP   2    6 4 31.50                             174   -0.17 5 16.1 198 
 GIR2 SZ EP   1    6 4 31.78                             165   -0.27 7 39.0 351 
 GIR2 SZ ES   2    6 4 47.56                             165   -0.58 5 39.0 351 
 BRR  HZ EP   1    6 4 33.60                             152    0.10 7 76.0 303 
 BRR  HZ I         6 4 34.43         2.8 0.15                          76.0 303 
 BRR  HN ES   1    6 4 51.35                             152    0.62 7 76.0 303 
 RUS  HZ EP   1    6 4 35.46                             147    0.20 7 92.9 176 
 RUS  HN ES   2    6 4 54.04                             147    0.18 5 92.9 176 
 PTB  HZ EP   1    6 4 38.71                             134   -0.16 7  147 262 
 PTB  HE ES   2    6 4 59.62                             134   -0.66 5  147 262 
                                                                                
