 2012  319 0850 36.3 L   6.749 -73.166144.0  RSN  6 0.3 1.6LRSN                1
 GAP=136        0.65       4.8     4.4  6.8  0.3053E+01  0.2212E+01 -0.2315E+01E
 ACTION:UP  12-03-31 23:21 OP:EP   STATUS:               ID:20120319085036 L   I
 2012-03-19-0850-00M.COL___202                                                 6
 STAT SP IPHASW D HRMM SECON CODA AMPLIT PERI AZIMU VELO SNR AR TRES W  DIS CAZ7
 BAR2 SZ EP   1    850 55.63                             173     0.0 7   17 186 
 BAR2 SZ ES   2    851 10.46                             173    -0.2 5   17 186 
 BAR2 SZ I         851 12.06         9.6 0.34                            17 186 
 BRR  HZ EP   1    850 57.37                             152     0.1 7   72 303 
 BRR  HN ES   1    851 14.13                             152     0.5 7   72 303 
 BRR  HZ I         851 15.99        13.1 0.17                            72 303 
 PAM  SZ EP   1    850 58.67                             149     0.0 7   83  38 
 PAM  SN ES   2    851 15.58                             149    -0.5 5   83  38 
 RUS  HZ EP   1    850 59.79                             145     0.3 7   95 174 
 RUS  HN ES   1    851 17.50                             145     0.0 7   95 174 
 RUS  HZ I         851 20.51         2.7 0.26                            95 174 
 PTB  HZ EP   1    851  2.21                             132    -0.6 7  145 261 
 PTB  HN ES   1    851 23.43                             132    -0.1 7  145 261 
 PTB  HZ I         851 30.52         4.7 0.48                           145 261 
 ZAR  HZ EP   2    851  8.80                             122     0.2 4  204 294 
 ZAR  HN ES   2    851 33.66                             122    -0.2 4  204 294 
 ZAR  HZ I         851 38.20         4.2 0.30                           204 294 
                                                                                
