 2012  219 0608 42.4 L   5.813 -73.882108.0  RSN  7 0.4 1.1LRSN                1
 GAP= 88        0.60       2.7     3.5  9.1 -0.2048E+01  0.4546E+01 -0.3039E+00E
 ACTION:UP  12-03-07 16:32 OP:epov STATUS:               ID:20120219060842 L   I
 2012-02-19-0600-00M.COL___188                                                 6
 STAT SP IPHASW D HRMM SECON CODA AMPLIT PERI AZIMU VELO AIN AR TRES W  DIS CAZ7
 RUS  HZ EP   1    6 9  1.43                             138   -0.21 7 88.9  84 
 RUS  HZ I         6 9  1.81         2.1 0.19                          88.9  84 
 RUS  HN ES   2    6 9 16.11                             138   -0.56 5 88.9  84 
 PTB  HZ EP   2    6 9  1.75                             133   -0.39 5  102 322 
 PTB  HE ES   2    6 9 17.18                             133   -0.39 5  102 322 
 NOR  SZ EP   1    6 9  2.75                             130   -0.38 7  113 256 
 NOR  SN ES   2    6 9 20.09                             130    0.75 5  113 256 
 BAR2 SZ EP   1    6 9  3.56                             129   -0.12 7  116  42 
 BAR2 SZ ES   1    6 9 20.63                             129    0.33 7  116  42 
 BAR2 SZ I         6 9 21.88         5.5 0.17                           116  42 
 CHI  HZ EP   2    6 9  5.68                             126    0.22 5  132 173 
 CHI  HN ES   1    6 9 23.63                             126    0.15 7  132 173 
 CHI  HZ I         6 9 25.17         1.2 0.36                           132 173 
 BRR  HZ EP   1    6 9  6.61                             122    0.43 7  144   7 
 BRR  HZ I         6 9  6.95         2.9 0.20                           144   7 
 BRR  HN ES   1    6 9 24.69                             122   -0.07 7  144   7 
 GIR2 SZ ES   2    6 9 28.15                             120    0.26 5  159  29 
                                                                                
