 2011  419 0348 42.9 L   6.731 -73.114140.3  RSN  9 0.4 1.8LRSN                1
 GAP=172        0.58       5.6     6.1  6.0 -0.1917E+02  0.1234E+02 -0.1544E+01E
 Epicentro: JORDAN - SANTANDER                                                 3
 ACTION:UP  11-06-22 15:31 OP:REBC STATUS:               ID:20110419034842 L   I
 2011-04-19-0340-00M.COL___139                                                 6
 STAT SP IPHASW D HRMM SECON CODA AMPLIT PERI AZIMU VELO SNR AR TRES W  DIS CAZ7
 BAR2 SZ EP        349  1.70                             173     0.010   17 206 
 BAR2 SZ I         349  2.08        16.6 0.04                            17 206 
 BAR2 SZ ES   2    349 16.91                             173     0.5 5   17 206 
 GIR2 SZ EP   3    349  1.81                             164    -0.3 2   39 347 
 BRR  HZ EP        349  3.45                             149    -0.410   78 302 
 BRR  HN ES   2    349 20.18                             149     0.0 5   78 302 
 BRR  HZ I         349 24.28        24.2 0.19                            78 302 
 PAM  SZ EP        349  4.76                             148     0.010   81  34 
 PAM  SN ES   1    349 21.76                             148    -0.1 7   81  34 
 PAM  SZ I         349 22.94         2.7 0.41                            81  34 
 BRI  SZ EP   3    349  7.39                             138     0.7 2  114  18 
 GRA  SZ EP   3    349  7.56                             134    -0.6 2  132  15 
 OCA  SZ EP        349 11.81                             127     0.3 9  168 352 
 OCA  SZ I         349 38.03        12.2 0.37                           168 352 
 NOR  SZ EP        349 18.25                             117     0.1 8  233 236 
 NOR  SN ES   3    349 45.12                             117    -0.5 2  233 236 
 HEL  HZ EP   3    349 24.04                             113     1.0 2  274 258 
 HEL  HN ES   3    349 55.26                             113     1.0 2  274 258 
 HEL  HZ I         350  1.27         5.9 0.49                           274 258 
                                                                                
