 2014  519 0620  0.6 L   6.757 -73.201126.0  RSN  5 0.5 1.1LRSN                1
 GAP=220        1.24       8.9     6.1 11.3 -0.2428E+02  0.9152E+01  0.1838E+02E
 Epicentro: VILLANUEVA - SANTANDER                                             3
 ACTION:UPD 15-03-16 16:59 OP:nd   STATUS:               ID:20140519062000 L   I
 OLDACT:REG 14-05-19 13:01 OP:spq  STATUS:               ID:20140519061812     3
 2014-05-19-0618-12M.COL___254                                                 6
 STAT SP IPHASW D HRMM SECON CODA AMPLIT PERI AZIMU VELO AIN AR TRES W  DIS CAZ7
 BRR  HZ EP        620 19.67                             150    0.1610 68.4 304 
 BRR  HN ES        620 34.36                             150    0.1310 68.4 304 
 BRR  HZ I         620 37.98         2.2 0.40            148           68.4 304 
 PAM  SZ EP        620 20.82                             144   -0.4810 84.9  41 
 PAM  SZ I         620 20.95         4.5 0.16            150           84.9  41 
 PAM  SN ES        620 37.67                             144    0.2410 84.9  41 
 PTB  HZ EP        620 24.88                             129   -0.52 9  141 260 
 PTB  HN ES        620 44.80                             129    0.08 9  141 260 
 PTB  HZ I         620 51.16         1.6 0.42            129            141 260 
 OCA  HE ES        620 49.02                             124   -0.14 9  164 355 
 ZAR  HZ EP        620 32.69                             118    1.23 9  200 294 
 ZAR  HN ES        620 54.90                             118   -0.61 9  200 294 
 ZAR  HZ I         621  2.47         1.4 0.16            119            200 294 
                                                                                
