 2012  419 0802 46.7 L   7.437 -73.178132.9  RSN 15 0.5 3.1LRSN                1
 GAP= 78        0.93       3.5     4.4  5.6 -0.1850E+01  0.5453E+01  0.3721E+00E
 Epicentro: EL PLAYON - SANTANDER                                              3
 ACTION:UPD 12-07-05 11:54 OP:tino STATUS:               ID:20120419080246 L   I
 2012-04-19-0800-00M.COL___187                                                 6
 STAT SP IPHASW D HRMM SECON CODA AMPLIT PERI AZIMU VELO AIN AR TRES W  DIS CAZ7
 PAM  SZ EP        8 3  6.48                             157     0.210   54 101 
 PAM  SN ES   1    8 3 21.61                             157     0.1 7   54 101 
 BRR  HZ IP     D  8 3  6.31                             151     0.010   69 238 
 BRR  HE ES   1    8 3 21.36                             151    -0.3 7   69 238 
 BRR  HZ I         8 3 22.72       526.8 0.16                            69 238 
 OCA  SZ EP        8 3  8.21                             144     0.310   90 350 
 OCA  SZ ES   1    8 3 25.22                             144     0.7 7   90 350 
 BAR2 SZ EP        8 3  8.23                             143    -0.110   93 180 
 BAR2 SZ ES   1    8 3 24.64                             143    -0.5 7   93 180 
 BAR2 SZ I         8 3 25.79       371.7 0.11                            93 180 
 RUS  HZ EP   1    8 3 15.01                             125    -0.5 7  171 176 
 RUS  HZ I         8 3 44.24        26.8 0.31                           171 176 
 ZAR  HZ EP        8 3 16.27                             122    -0.1 9  186 272 
 ZAR  HN ES   1    8 3 39.64                             122     0.1 7  186 272 
 ZAR  HZ I         8 3 44.11       278.8 0.20                           186 272 
 COD  HZ EP   1    8 3 26.01                             111    -0.5 6  278 354 
 COD  HN ES   1    8 3 56.23                             111    -1.3 6  278 354 
 COD  HZ I         8 4  0.80        67.4 0.42                           278 354 
 NOR  SZ EP   1    8 3 26.46                             111    -0.2 6  279 222 
 HEL  HZ EP   1    8 3 28.44                             110    -0.3 5  294 242 
 HEL  HZ I         8 4  9.18        95.3 0.27                           294 242 
 CHI  HZ EP   1    8 3 31.93                             109     0.5 5  316 191 
 CHI  HZ I         8 4 15.57        25.7 0.28                           316 191 
 SDV  BZ EP        8 3 31.94                             108     0.0 7  323  60 
 DBB  SZ EP        8 3 33.63                             107     0.1 7  338 262 
 GUY  SZ EP   1    8 3 35.96                             107     1.0 5  346 225 
 TOL  SZ EP   1    8 3 41.27                             104     0.8 4  395 217 
 PRA  HZ EP   1    8 3 46.65                             102    -0.4 4  453 205 
 PRA  HN ES   1    8 4 34.49                             102     0.4 4  453 205 
                                                                                
