 2016  119 0700 14.9 L   6.820 -73.180141.0  RSN  9 0.4 1.5LRSN                1
 GAP=131        0.88       2.9     4.6  5.5 -0.4551E+01  0.7563E+01  0.1990E+00E
 Epicentro: ZAPATOCA - SANTANDER                                               3
 ACTION:UPD 16-03-09 23:26 OP:cam  STATUS:               ID:20160119065735 L   I
 OLDACT:UPD 16-01-19 16:19 OP:drio STATUS:               ID:20160119065735 L   3
 2016-01-19-0657-35M.COL___325                                                 6
 STAT SP IPHASW D HRMM SECON CODA AMPLIT PERI AZIMU VELO AIN AR TRES W  DIS CAZ7
 BAR2 EZ EP        7 0 33.51                             169   -0.5110 25.2 180 
 BAR2 EZ ES        7 0 48.54                             169   -0.3810 25.2 180 
 BAR2 EZ I         7 0 51.53         5.4 0.28            168           25.2 180 
 PAM  EZ EP        7 0 36.76                             150    0.0710 78.2  43 
 PAM  EN ES        7 0 53.97                             150    0.3110 78.2  43 
 PAM  EZ I         7 0 56.00         5.6 0.56            156           78.2  43 
 RUS  HZ EP        7 0 38.25                             142   -0.1510  103 174 
 RUS  HN ES        7 0 57.16                             142    0.4510  103 174 
 RUS  HZ I         7 0 59.66         2.9 0.26            147            103 174 
 PTB  HZ EP        7 0 40.99                             132   -0.21 9  144 258 
 PTB  HE ES        7 1  1.56                             132   -0.14 9  144 258 
 PTB  HZ I         7 1 13.23         1.8 0.46            131            144 258 
 OCA  HZ EP        7 0 42.80                             129    0.18 9  158 354 
 OCA  HN ES        7 1  4.17                             129   -0.04 9  158 354 
 OCA  HZ I         7 1 12.26         6.0 0.18            131            158 354 
 SPBC HZ EP        7 0 43.05                             128    0.05 9  163 217 
 SPBC HN ES        7 1  5.31                             128    0.41 9  163 217 
 SPBC HZ I         7 1  9.63         6.3 0.10            130            163 217 
 CHI  HZ EP        7 0 51.90                             116   -0.59 8  250 194 
 CHI  HN ES        7 1 21.64                             116   -0.16 8  250 194 
 CHI  HZ I         7 1 25.18         1.7 0.42            119            250 194 
 GUY2CHZ EP        7 0 59.06                             111    0.95 7  299 234 
 GUY2CHE ES   4    7 1 37.05                             111    5.26 0  299 234 
 GUY2CHZ I         7 1 40.31         2.2 0.28                           299 234 
 PRA  HZ EP   2    7 1  8.26                             106   -0.03 3  392 209 
 PRA  HN ES   4    7 1 52.07                             106    2.15 0  392 209 
 PRA  HZ I         7 1 55.55         2.0 0.34            108            392 209 
                                                                                
