 2012  319 0546 55.9 L   6.780 -73.153146.6  RSN  7 0.3 1.7LRSN                1
 GAP=136        0.64       5.7     4.5  7.3 -0.9106E-01  0.9126E+01  0.3682E+01E
 ACTION:UP  12-03-31 23:20 OP:EP   STATUS:               ID:20120319054655 L   I
 2012-03-19-0540-00M.COL___202                                                 6
 STAT SP IPHASW D HRMM SECON CODA AMPLIT PERI AZIMU VELO SNR AR TRES W  DIS CAZ7
 BAR2 SZ EP        547 15.60                             171     0.010   21 189 
 BAR2 SZ ES   2    547 30.33                             171    -0.6 5   21 189 
 BAR2 SZ I         547 32.20        14.0 0.18                            21 189 
 BRR  HZ EP   1    547 17.42                             153     0.3 7   72 300 
 BRR  HE ES   2    547 34.15                             153     0.4 5   72 300 
 BRR  HZ I         547 36.46        10.6 0.21                            72 300 
 PAM  SZ EP   1    547 18.29                             150     0.0 7   80  39 
 PAM  SN ES   2    547 35.83                             150     0.0 5   80  39 
 RUS  HZ EP   1    547 19.51                             145    -0.1 7   98 175 
 RUS  HE ES   2    547 38.54                             145     0.5 5   98 175 
 PTB  HZ EP   1    547 22.19                             132    -0.6 7  147 260 
 PTB  HN ES   2    547 43.55                             132    -0.3 5  147 260 
 PTB  HZ I         547 50.17         4.1 0.36                           147 260 
 ZAR  HN ES   2    547 53.67                             123    -0.1 4  204 293 
 HEL  HZ EP   1    547 36.38                             115     0.4 6  271 256 
 HEL  HN ES   2    548  7.64                             115     0.4 4  271 256 
 HEL  HZ I         548 13.68         2.9 0.35                           271 256 
                                                                                
