 2015  719 0756 48.6 L   6.751 -73.189135.0  RSN  4 0.1 1.2LRSN                1
 GAP=178        0.37       2.0     3.3  4.9  0.1972E+01  0.6752E+01 -0.1680E+01E
 Epicentro: VILLANUEVA - SANTANDER                                             3
 ACTION:UPD 15-09-08 21:49 OP:cam  STATUS:               ID:20150719075648 L   I
 OLDACT:DUP 15-07-19 19:05 OP:spq  STATUS:               ID:20150719074737d    3
 OLDACT:UP  15-07-19 19:04 OP:spq  STATUS:               ID:20150719074736     3
 OLDACT:REG 15-07-19 16:32 OP:spq  STATUS:               ID:20150719074736     3
 2015-07-19-0747-36M.COL___340                                                 6
 STAT SP IPHASW D HRMM SECON CODA AMPLIT PERI AZIMU VELO AIN AR TRES W  DIS CAZ7
 BAR2 EZ ES   1    757 21.10                             172    0.05 8 17.6 178 
 BAR2 EZ I         757 21.88         4.2 0.38            174           17.6 178 
 RUS  HZ EP   1    757 11.14                             143    0.19 8 95.7 173 
 RUS  HE ES   1    757 28.22                             143   -0.16 8 95.7 173 
 RUS  HZ I         757 29.62         1.1 0.26            146           95.7 173 
 OCA  HN ES        757 38.38                             126   -0.0210  165 355 
 OCA  HZ I         757 42.92         5.4 0.48            126            165 355 
 ZAR  HZ EP   1    757 19.96                             120   -0.18 7  202 294 
 ZAR  HE ES        757 44.80                             120    0.07 9  202 294 
 ZAR  HZ I         757 49.96         2.0 0.42            120            202 294 
                                                                                
