 2017  419 0622 45.2 L   6.117 -74.222 32.1  RSN  4 0.2 1.4LRSN                1
 GAP=128        0.56       1.9     1.5  8.2 -0.2051E+00 -0.1705E+01 -0.1440E+01E
 Epicentro: CIMITARRA - SANTANDER                                              3
 ACTION:UPD 17-05-30 21:14 OP:jn   STATUS:               ID:20170419062245 L   I
 OLDACT:REG 17-04-19 13:14 OP:dnl  STATUS:               ID:20170419061739     3
 2017-04-19-0618-00M.COL___368                                                 6
 STAT SP IPHASW D HRMM SECON CODA AMPLIT PERI AZIMU VELO AIN AR TRES W  DIS CAZ7
 PTB  HZ EP        622 54.70                              61   -0.1010 53.4 331 
 PTB  HN ES        623  2.30                              61    0.0210 53.4 331 
 PTB  HZ I         623  2.99        34.0 0.26             47           53.4 331 
 NOR  HZ EP        622 59.97                              61    0.0110 94.3 230 
 NOR  HE ES        623 11.40                              61   -0.0610 94.3 230 
 NOR  HZ I         623 11.88         9.2 0.16             47           94.3 230 
 BAR2 EZ ES        623 18.99                              61   -0.0210  126  65 
 BAR2 EZ I         623 22.31        10.8 0.46             47            126  65 
 RUS  HZ EP        623  5.20                              61    0.4410  129 101 
 RUS  HN ES        623 19.73                              61   -0.2810  129 101 
 RUS  HZ I         623 21.36         1.7 0.30             47            129 101 
                                                                                
