 2012  119 0050  5.3 L   6.771 -73.176145.1  RSN  9 0.5 2.1LRSN                1
 GAP=134        1.07       5.9     6.2  8.9 -0.2381E+01  0.3824E+01  0.1598E+02E
 Epicentro: LOS SANTOS - SANTANDER                                             3
 ACTION:UP  12-02-03 08:18 OP:REBC STATUS:               ID:20120119005005 L   I
 2012-01-19-0050-00M.COL___187                                                 6
 STAT SP IPHASW D HRMM SECON CODA AMPLIT PERI AZIMU VELO SNR AR TRES W  DIS CAZ7
 BAR2 SZ EP        050 25.10                             172     0.310   20 182 
 BAR2 SZ ES   1    050 39.80                             172    -0.2 7   20 182 
 BAR2 SZ I         050 41.99        30.3 0.22                            20 182 
 BRR  HZ EP   1    050 26.97                             153     0.6 7   70 302 
 BRR  HN ES   1    050 43.19                             153     0.5 7   70 302 
 BRR  HZ I         050 44.97        22.0 0.14                            70 302 
 PAM  SZ EP   1    050 27.91                             149     0.1 7   82  40 
 PAM  SE ES   1    050 44.73                             149    -0.5 7   82  40 
 PAM  SZ I         050 47.52        20.6 0.45                            82  40 
 RUS  HZ EP   1    050 29.15                             144     0.3 7   98 174 
 RUS  HZ I         050 49.42        21.5 0.27                            98 174 
 PTB  HZ EP   1    050 31.76                             133    -0.1 7  144 260 
 PTB  HN ES   1    050 51.90                             133    -0.7 7  144 260 
 OCA  SZ EP   1    050 33.04                             129    -0.8 7  163 354 
 ZAR  HN ES   1    051  2.96                             122     0.3 6  202 293 
 CHI  HZ EP   1    050 43.14                             117     0.6 6  245 195 
 CHI  HZ I         050 45.04         5.7 0.17                           245 195 
 CHI  HN ES   1    051 11.28                             117    -0.3 6  245 195 
 PRA  HZ EP   1    050 57.43                             106    -0.9 4  388 209 
                                                                                
