 2013 1119 0258  6.0 L   6.786 -73.075140.0  RSN  5 0.4 1.5LRSN                1
 GAP=146        0.93       4.8     6.4  9.3 -0.8853E+01  0.6762E+00  0.1353E+02E
 Epicentro: LOS SANTOS - SANTANDER                                             3
 ACTION:UPD 14-01-09 16:29 OP:ep   STATUS:               ID:20131119025806 L   I
 OLDACT:UP  13-11-19 12:23 OP:mh   STATUS:               ID:20131119025743     3
 OLDACT:REG 13-11-19 12:19 OP:mh   STATUS:               ID:20131119025743     3
 2013-11-19-0257-43M.COL___228                                                 6
 STAT SP IPHASW D HRMM SECON CODA AMPLIT PERI AZIMU VELO AIN AR TRES W  DIS CAZ7
 BAR2 SZ EP   1    258 24.97                             170    0.04 7 24.5 209 
 BAR2 SZ I         258 41.55        15.4 0.19            171           24.5 209 
 PAM  SZ EP   1    258 27.82                             151    0.45 7 74.0  34 
 PAM  SN ES        258 43.52                             151   -0.5410 74.0  34 
 PAM  SZ I         258 47.22         5.3 0.48            146           74.0  34 
 BRR  HZ EP   1    258 26.86                             149   -0.10 7 78.8 297 
 BRR  HN ES        258 43.75                             149    0.4110 78.8 297 
 BRR  HZ I         258 46.62         4.4 0.16            147           78.8 297 
 RUS  HZ EP        258 29.37                             143    0.3410 98.8 180 
 RUS  HN ES        258 47.24                             143    0.2210 98.8 180 
 RUS  HZ I         258 49.01         4.9 0.29            141           98.8 180 
 SPBC HZ EP   1    258 33.84                             127   -0.57 7  167 221 
 SPBC HN ES        258 56.11                             127   -0.48 9  167 221 
                                                                                
