 2017  819 0737 42.1 L   6.803 -73.111144.2  RSN  8 0.3 1.9LRSN                1
 GAP=141        0.66       3.2     3.6  4.9  0.6584E+00  0.4513E+01  0.1951E+01E
 Epicentro: LOS SANTOS - SANTANDER                                             3
 ACTION:UPD 17-09-04 20:22 OP:rebc STATUS:               ID:20170819073742 L   I
 OLDACT:UP  17-08-19 16:08 OP:mg   STATUS:               ID:20170819072744d    3
 OLDACT:UP  17-08-19 16:07 OP:mg   STATUS:               ID:20170819072744d    3
 OLDACT:DUP 17-08-19 16:01 OP:mg   STATUS:               ID:20170819072744d    3
 OLDACT:UP  17-08-19 16:00 OP:mg   STATUS:               ID:20170819072743     3
 OLDACT:UP  17-08-19 15:57 OP:mg   STATUS:               ID:20170819072743     3
 OLDACT:UP  17-08-19 15:53 OP:mg   STATUS:               ID:20170819072743     3
 OLDACT:REG 17-08-19 12:40 OP:mg   STATUS:               ID:20170819072743     3
 2017-08-19-0728-00M.COL___411                                                 6
 STAT SP IPHASW D HRMM SECON CODA AMPLIT PERI AZIMU VELO AIN AR TRES W  DIS CAZ7
 BAR2 EZ EP   1    738  1.50                             170   -0.10 7 24.6 199 
 BAR2 EZ ES   1    738 16.41                             170   -0.37 7 24.6 199 
 BAR2 EZ I         738 17.30        17.4 0.22            171           24.6 199 
 BRR  HZ IP        738  3.13                             151   -0.1610 74.4 297 
 BRR  HN ES        738 20.06                             151    0.2610 74.4 297 
 BRR  HZ I         738 23.30         9.5 0.32            149           74.4 297 
 PAM  EZ EP     C  738  4.17                             152    0.1510 74.7  37 
 PAM  EN ES        738 21.08                             152   -0.0110 74.7  37 
 PAM  EZ I         738 23.50         9.0 0.70            153           74.7  37 
 RUS  HZ EP        738  5.31                             143   -0.4310  101 178 
 RUS  HN ES        738 24.38                             143    0.2310  101 178 
 RUS  HZ I         738 24.86         5.7 0.24            147            101 178 
 SPBC HZ EP        738 11.08                             128    0.31 9  166 220 
 SPBC HN ES   3    738 34.23                             128    1.13 2  166 220 
 SPBC HZ  AMP      738 34.40       166.2 0.09                           166 220 
 ZAR  HZ EP   1    738 15.21                             122    0.39 6  207 292 
 ZAR  HN ES   1    738 39.95                             122   -0.37 6  207 292 
 ZAR  HZ I         738 45.76         5.5 0.31            122            207 292 
 HEL  HN ES   2    738 53.66                             114   -0.65 4  276 256 
 GUY2CHZ EP   9    738 27.61                             112    1.57 0  305 235 
 GUY2CHN ES   2    739  2.20                                    0.34 4  305 235 
 GUY2CHZ I         739  5.61         1.4 0.40                           305 235 
                                                                                
