 2015  219 0502  7.5 L   7.460 -73.216132.3  RSN  7 0.5 1.8LRSN                1
 GAP=111        1.11       3.9     5.8  7.7 -0.4122E+01  0.1524E+02 -0.3080E+01E
 Epicentro: EL PLAYON - SANTANDER                                              3
 ACTION:UPD 15-04-30 21:27 OP:nd   STATUS:               ID:20150219050207 L   I
 OLDACT:REG 15-02-19 12:29 OP:mh   STATUS:               ID:20150219045743     3
 2015-02-19-0457-43M.COL___296                                                 6
 STAT SP IPHASW D HRMM SECON CODA AMPLIT PERI AZIMU VELO AIN AR TRES W  DIS CAZ7
 PAM  SZ EP        5 2 26.96                             155   -0.2410 58.5 103 
 PAM  SN ES        5 2 42.20                             155   -0.3710 58.5 103 
 PAM  SZ I         5 2 44.15         6.5 0.36            159           58.5 103 
 BRR  HZ EP        5 2 27.37                             151    0.4010 67.2 235 
 BRR  HN ES        5 2 42.47                             151    0.3210 67.2 235 
 BRR  HZ I         5 2 42.86         9.2 0.40            151           67.2 235 
 OCA  HZ EP        5 2 29.12                             145    0.6610 86.9 352 
 OCA  HN ES   1    5 2 45.60                             145    0.79 7 86.9 352 
 OCA  HZ I         5 2 49.56         8.5 0.48            146           86.9 352 
 BAR2 EZ EP   1    5 2 29.49                             142    0.25 7 96.0 178 
 BAR2 EZ ES        5 2 45.66                             142   -0.5510 96.0 178 
 BAR2 EZ I         5 2 46.83        19.4 0.09            143           96.0 178 
 PTB  HZ EP        5 2 35.53                             124   -0.12 9  171 233 
 PTB  HN ES        5 2 57.32                             124   -0.29 9  171 233 
 PTB  HZ I         5 3  1.62         6.4 0.12            125            171 233 
 SML  HZ EP        5 2 35.56                             123   -0.57 9  176 328 
 SML  HN ES   1    5 2 57.60                             123   -0.87 7  176 328 
 SML  HZ I         5 2 59.39        19.5 0.10            125            176 328 
 SPBC HZ EP        5 2 41.25                             117    0.20 8  221 205 
 SPBC HN ES        5 3  7.55                             117    0.33 8  221 205 
 SPBC HZ I         5 3 14.38         5.2 0.32            118            221 205 
                                                                                
