 2014  619 0410 11.3 L   6.813 -73.158141.6  RSN  9 0.4 2.2LRSN                1
 GAP=134        1.00       3.4     4.1  5.7 -0.4855E+01  0.7078E+01 -0.5335E-01E
 Epicentro: LOS SANTOS - SANTANDER                                             3
 ACTION:UPD 14-07-01 22:55 OP:nd   STATUS:               ID:20140619041011 L   I
 OLDACT:REG 14-06-19 12:42 OP:carl STATUS:               ID:20140619040820     3
 2014-06-19-0408-20M.COL___262                                                 6
 STAT SP IPHASW D HRMM SECON CODA AMPLIT PERI AZIMU VELO AIN AR TRES W  DIS CAZ7
 BAR2 SZ IP     D  410 30.59                             170    0.1310 24.6 186 
 BAR2 SZ ES        410 45.06                             170   -0.3510 24.6 186 
 BAR2 SZ I         410 53.72        15.9 0.32            171           24.6 186 
 BRR  HZ IP     C  410 32.44                             152    0.5410 69.3 298 
 BRR  HN ES        410 48.58                             152    0.6310 69.3 298 
 BRR  HZ I         410 54.50        28.5 0.14            153           69.3 298 
 PAM  SZ EP        410 33.42                             150    0.3510 77.2  41 
 PAM  SN ES        410 50.28                             150    0.2410 77.2  41 
 PAM  SZ I         410 50.98        25.8 0.22            156           77.2  41 
 RUS  HZ EP        410 34.73                             142   -0.0410  102 175 
 RUS  HN ES        410 52.93                             142   -0.1410  102 175 
 RUS  HZ I         410 54.96        17.9 0.34            148            102 175 
 PTB  HZ EP        410 37.18                             131   -0.66 9  147 258 
 PTB  HN ES        410 58.30                             131   -0.23 9  147 258 
 PTB  HZ I         411  4.19        22.3 0.32            135            147 258 
 OCA  HZ EP        410 38.56                             129   -0.58 9  159 354 
 OCA  HN ES        411  0.27                             129   -0.58 9  159 354 
 OCA  HZ I         411  3.82        14.9 0.28            134            159 354 
 SPBC HZ EP        410 39.63                             128    0.12 9  163 218 
 SPBC HN ES        411  1.32                             128   -0.20 9  163 218 
 SPBC HZ I         411  4.14        25.0 0.18            132            163 218 
 NOR  HZ EP        410 47.18                             118    0.41 8  234 234 
 NOR  HE ES        411 14.09                             118   -0.33 8  234 234 
 NOR  HZ I         411 17.51        18.5 0.26            122            234 234 
 HEL  HZ EP        410 51.51                             114    0.31 8  271 255 
 HEL  HN ES        411 22.68                             114    0.37 8  271 255 
                                                                                
