 2011 1219 0447 50.4 L   6.761 -73.100133.4  RSN  6 0.2 1.8LRSN                1
 GAP=144        0.41       2.1     3.9  3.8  0.4904E+00  0.2143E-01 -0.1426E+01E
 Epicentro: LOS SANTOS - SANTANDER                                             3
 ACTION:UPD 12-07-13 16:17 OP:ep   STATUS:               ID:20111219044750 L   I
 2011-12-19-0440-00M.COL___188                                                 6
 STAT SP IPHASW D HRMM SECON CODA AMPLIT PERI AZIMU VELO AIN AR TRES W  DIS CAZ7
 BAR2 SZ EP        448  8.49                             171    0.0310 20.7 206 
 BAR2 SZ ES   1    448 22.30                             171   -0.27 7 20.7 206 
 BAR2 SZ I         448 24.35        16.2 0.48                          20.7 206 
 GIR2 SZ EP        448  8.71                             164   -0.0310 36.6 344 
 BRR  HZ EP        448 10.50                             148   -0.1010 77.7 300 
 BRR  HZ I         448 10.90        27.9 0.09                          77.7 300 
 BRR  HE ES   1    448 26.63                             148    0.24 7 77.7 300 
 PAM  SZ EP   1    448 11.20                             148   -0.11 7 77.8  35 
 PAM  SN ES   1    448 27.85                             148    0.20 7 77.8  35 
 RUS  HZ EP   1    448 12.55                             142   -0.03 7 96.0 179 
 RUS  HE ES   1    448 30.04                             142    0.13 7 96.0 179 
 RUS  HZ I         448 32.24         5.8 0.38                          96.0 179 
 OCA  SZ EP   1    448 18.50                             126    0.27 7  165 352 
 OCA  SZ ES   1    448 39.74                             126   -0.23 7  165 352 
 OCA  SZ I         448 43.48         9.3 0.44                           165 352 
                                                                                
