 2013  519 0950 53.1 L   6.156 -73.766 83.6  RSN  4 0.1 1.1LRSN                1
 GAP=129        0.33       2.8     1.5  5.4  0.2332E+00  0.3189E+01  0.7729E+01E
 Epicentro: LANDAZURI - SANTANDER                                              3
 ACTION:UPD 13-06-20 09:51 OP:ep   STATUS:               ID:20130519095053 L   I
 2013-05-19-0950-00M.COL___256                                                 6
 STAT SP IPHASW D HRMM SECON CODA AMPLIT PERI AZIMU VELO AIN AR TRES W  DIS CAZ7
 BAR2 SZ EP   1    951  9.36                             132    0.17 7 80.6  53 
 BAR2 SZ ES   1    951 21.61                             132   -0.12 7 80.6  53 
 BAR2 SZ I         951 24.66         7.7 0.50            140           80.6  53 
 RUS  HZ EP   1    951  9.45                             133   -0.12 7 81.0 111 
 RUS  HN ES   1    951 22.48                             133    0.08 7 81.0 111 
 RUS  HZ I         951 26.96         1.5 0.36            137           81.0 111 
 PTB  HN ES   1    951 22.34                             130    0.01 7 87.4 299 
 GUY2CHZ EP   1    951 23.05                             107   -0.03 6  205 240 
 GUY2CHN ES   1    951 46.44                             107   -0.00 6  205 240 
 GUY2CHZ I         951 52.98         1.6 0.74                           205 240 
                                                                                
