 2013  119 0309 12.2 L   6.788 -73.132143.5  RSN  9 0.4 2.2LRSN                1
 GAP= 72        0.84       3.7     3.5  6.6  0.8892E+00 -0.2694E+00  0.3963E+01E
 Epicentro: LOS SANTOS - SANTANDER                                             3
 ACTION:UPD 13-02-15 09:15 OP:ep   STATUS:               ID:20130119030912 L   I
 2013-01-19-0307-40M.COL___181                                                 6
 STAT SP IPHASW D HRMM SECON CODA AMPLIT PERI AZIMU VELO AIN AR TRES W  DIS CAZ7
 BAR2 SZ EP   1    3 9 31.47                             171   -0.07 7 22.4 194 
 BAR2 SZ ES   1    3 9 46.84                             171    0.21 7 22.4 194 
 BRR  HZ EP     D  3 9 33.43                             151    0.2110 73.1 299 
 BRR  HN ES   1    3 9 50.20                             151    0.59 7 73.1 299 
 BRR  HZ I         3 9 55.86        22.9 0.16            150           73.1 299 
 PAM  SZ EP        3 9 34.38                             150    0.1910 77.5  38 
 PAM  SN ES   1    3 9 51.24                             150   -0.09 7 77.5  38 
 PAM  SZ I         3 9 53.39        34.2 0.46            153           77.5  38 
 RUS  HZ EP   1    3 9 35.50                             144   -0.13 7 99.2 177 
 RUS  HN ES   1    3 9 53.52                             144   -0.39 7 99.2 177 
 RUS  HZ I         3 9 55.48        16.3 0.28            147           99.2 177 
 PTB  HZ EP   1    3 9 38.32                             131   -0.78 7  149 259 
 PTB  HN ES   1    3 9 59.84                             131   -0.23 7  149 259 
 PTB  HZ I         310  2.40        19.0 0.26            132            149 259 
 TAM  HZ IP     C  3 9 39.82                             130    0.28 9  153 105 
 TAM  HE ES   1    310  0.73                             130   -0.13 7  153 105 
 OCA  HN ES   1    310  1.58                             129   -0.95 7  162 353 
 OCA  HZ I         310  7.10        25.4 0.22            130            162 353 
 ZAR  HN ES   1    310 10.51                             122    0.47 6  206 292 
 ZAR  HZ I         310 16.45        16.8 0.30            122            206 292 
 CHI  HZ EP   1    3 9 50.30                             117    0.61 6  248 196 
 CHI  HN ES   1    310 18.59                             117   -0.33 6  248 196 
 CHI  HZ I         310 22.22         5.9 0.34            119            248 196 
                                                                                
