 2015 1119 0727 55.0 L   6.810 -73.127148.0  RSN 10 0.5 2.1LRSN                1
 GAP=138        1.12       3.7     5.3  6.6  0.1688E+00  0.1127E+02 -0.4567E+01E
 Epicentro: LOS SANTOS - SANTANDER                                             3
 ACTION:UPD 15-12-28 16:11 OP:cam  STATUS:               ID:20151119072755 L   I
 OLDACT:UP  15-11-19 17:48 OP:ak   STATUS:               ID:20151119071750d    3
 OLDACT:UP  15-11-19 17:48 OP:ak   STATUS:               ID:20151119071750d    3
 OLDACT:UP  15-11-19 17:47 OP:ak   STATUS:               ID:20151119071750d    3
 OLDACT:DUP 15-11-19 17:40 OP:ak   STATUS:               ID:20151119071750d    3
 OLDACT:REG 15-11-19 13:18 OP:ak   STATUS:               ID:20151119071749     3
 2015-11-19-0717-49M.COL___313                                                 6
 STAT SP IPHASW D HRMM SECON CODA AMPLIT PERI AZIMU VELO AIN AR TRES W  DIS CAZ7
 BAR2 EZ EP        728 15.00                             170    0.1210 24.9 194 
 BAR2 EZ ES        728 30.13                             170   -0.3010 24.9 194 
 BAR2 EZ I         728 31.55        32.9 0.30            171           24.9 194 
 BRR  HZ EP        728 16.81                             152    0.4010 72.5 297 
 BRR  HN ES        728 33.16                             152    0.0110 72.5 297 
 BRR  HZ I         728 37.81        19.6 0.10            151           72.5 297 
 PAM  EZ EP        728 17.92                             151    0.6410 75.2  39 
 PAM  EN ES        728 34.59                             151   -0.1010 75.2  39 
 PAM  EZ I         728 37.29        30.0 0.62            154           75.2  39 
 RUS  HZ EP        728 19.27                             143    0.2810  102 177 
 RUS  HN ES        728 37.02                             143   -0.7310  102 177 
 RUS  HZ I         728 38.62         9.4 0.28            148            102 177 
 OCA  HZ EP        728 23.42                             130    0.07 9  159 352 
 OCA  HE ES        728 45.70                             130    0.19 9  159 352 
 ZAR  HZ EP        728 28.43                             122    0.74 8  206 292 
 ZAR  HN ES        728 53.07                             122   -0.16 8  206 292 
 ZAR  HZ I         728 59.69        22.1 0.30            124            206 292 
 SML  HZ EP        728 31.20                             117   -0.48 8  244 335 
 SML  HN ES        728 59.73                             117   -0.60 8  244 335 
 SML  HZ I         729  6.31        19.1 0.10            119            244 335 
 GUY2CHZ EP   2    728 37.98                             112   -0.94 4  303 235 
 GUY2CHN ES        729 13.71                             112    0.49 7  303 235 
 GUY2CHZ I         729 23.87         4.6 0.32                           303 235 
 MON  HZ EP   4    728 42.44                             109   -1.70 0  355 308 
 MON  HN ES   4    729 20.42                             109   -2.09 0  355 308 
 MON  HZ I         729 21.78         3.3 0.20            110            355 308 
 SJC  HZ EP        728 49.32                             106   -1.28 6  409 327 
 SJC  HN ES   4    729 31.32                             106   -2.69 0  409 327 
                                                                                
