 2016  519 0642 58.0 L   6.827 -73.131147.8  RSN 26 0.5 2.7LRSN                1
 GAP= 67        0.97       2.4     2.7  4.4 -0.1063E+01  0.3477E+01  0.1496E+01E
 Epicentro: LOS SANTOS - SANTANDER                                             3
 ACTION:UPD 16-08-18 17:47 OP:cam  STATUS:               ID:20160519064258 L   I
 OLDACT:UP  16-05-19 16:28 OP:dnl  STATUS:               ID:20160519063743     3
 OLDACT:REG 16-05-19 15:18 OP:mh   STATUS:               ID:20160519063743     3
 2016-05-19-0637-43M.COL___291                                                 6
 STAT SP IPHASW D HRMM SECON CODA AMPLIT PERI AZIMU VELO AIN AR TRES W  DIS CAZ7
 BAR2 EZ EP        643 17.59                             169   -0.3410 26.6 192 
 BAR2 EZ ES        643 32.82                             169   -0.6710 26.6 192 
 BAR2 EZ I         643 34.51       103.7 0.44            169           26.6 192 
 BRR  HZ EP        643 19.51                             153    0.1510 71.3 296 
 BRR  HN ES        643 36.78                             153    0.7410 71.3 296 
 BRR  HZ I         643 40.33        53.1 0.14            149           71.3 296 
 PAM  EZ EP        643 20.43                             152    0.2010 74.0  40 
 PAM  EN ES        643 37.95                             152    0.3810 74.0  40 
 PAM  EZ I         643 40.29        87.5 0.58            150           74.0  40 
 RUS  HZ EP        643 21.74                             143   -0.4110  103 177 
 RUS  HN ES        643 40.76                             143   -0.2310  103 177 
 RUS  HZ I         643 41.87        48.9 0.34            141            103 177 
 PTB  HZ EP        643 24.63                             132   -0.69 9  150 258 
 PTB  HE ES        643 46.60                             132   -0.05 9  150 258 
 PTB  HZ I         643 50.11        57.9 0.14            129            150 258 
 TAM  HZ IP     C  643 25.88                             131    0.13 9  154 106 
 TAM  HZ I         643 47.06        29.3 0.34            129            154 106 
 TAM  HN ES        643 47.84                             131    0.43 9  154 106 
 OCA  HZ EP        643 26.15                             131   -0.05 9  158 352 
 OCA  HN ES        643 47.99                             131   -0.22 9  158 352 
 OCA  HZ I         643 51.91        86.5 0.24            127            158 352 
 SPBC HZ EP        643 26.61                             129   -0.35 9  167 219 
 SPBC HN ES        643 49.45                             129   -0.11 9  167 219 
 SPBC HZ I         643 54.90       109.2 0.22            126            167 219 
 ZAR  HZ EP        643 30.85                             123    0.24 9  204 291 
 ZAR  HE ES        643 56.45                             123    0.39 9  204 291 
 ZAR  HZ I         644  4.43        56.2 0.50            120            204 291 
 NOR  HZ EP        643 33.92                             118   -0.25 8  238 234 
 NOR  HE ES        644  2.17                             118   -0.22 8  238 234 
 NOR  HZ I         644  7.41        69.4 0.18            116            238 234 
 CHI  HZ EP   2    643 36.07                             117   -0.09 4  252 195 
 CHI  HN ES   2    644  5.60                             117   -0.33 4  252 195 
 CHI  HZ I         644 12.50        27.4 0.34            115            252 195 
 ROSC BZ EP   4    643 37.87                             117    1.28 0  256 211 
 ROSC BE ES        644  7.00                             117    0.30 8  256 211 
 ROSC BZ I         644 16.59        47.5 0.30            114            256 211 
 HEL  HZ EP        643 38.86                             115    0.29 8  274 255 
 HEL  HN ES   4    644 12.14                             115    1.92 0  274 255 
 HEL  HZ I         644 18.02        36.0 0.42            112            274 255 
 URE  HZ EP   4    643 37.86                             114   -1.35 0  284 291 
 URE  HN ES   4    644  9.05                             114   -2.31 0  284 291 
 URE  HZ I         644 21.09        20.4 0.20            111            284 291 
 PTGC HZ EP   4    643 40.82                             112   -1.37 0  311 159 
 PTGC HN ES   4    644 14.19                             112   -2.47 0  311 159 
 PTGC HZ I         644 16.22        25.3 0.40            110            311 159 
 ELA  HZ EP   4    643 46.64                             110    1.35 0  332 229 
 ELA  HN ES        644 21.36                             110   -0.83 7  332 229 
 ELA  HZ I         644 29.67        32.8 0.28            108            332 229 
 CBOC HZ EP        643 45.84                             110    0.56 7  336 252 
 CBOC HE ES        644 22.51                             110    0.35 7  336 252 
 CBOC HZ I         644 31.77        13.4 0.46            108            336 252 
 ARGC HZ EP   2    643 47.73                             109    0.27 3  357 340 
 ARGC HN ES        644 25.09                             109   -0.96 6  357 340 
 ARGC HZ I         644 38.52         6.4 0.30            106            357 340 
 ANIL HZ EP        643 48.85                             109    0.60 6  361 224 
 ANIL HE ES   3    644 27.67                             109    0.21 2  361 224 
 ANIL HZ I         644 36.31        52.3 0.26            106            361 224 
 PRA  HZ EP        643 51.63                             107   -0.35 6  395 210 
 PRA  HN ES        644 35.27                             107    1.18 6  395 210 
 PRA  HZ I         644 40.61        33.5 0.24            105            395 210 
 ORTC HZ EP        643 52.67                             106    0.29 6  399 216 
 ORTC HE ES        644 35.92                             106    1.12 6  399 216 
 ORTC HZ I         644 42.23        20.7 0.40            104            399 216 
 SJC  HZ EP   4    643 52.18                             106   -1.25 0  408 327 
 SJC  HN ES   4    644 33.11                             106   -3.57 0  408 327 
 SJC  HZ I         644 36.73        10.6 0.32            104            408 327 
 PAL  HZ EP   2    643 53.34                             106   -0.23 3  409 239 
 PAL  HN ES        644 36.56                             106   -0.35 6  409 239 
 PAL  HZ I         644 42.78        14.7 0.52            104            409 239 
 CRJC HZ EP   4    643 57.92                             104   -2.26 0  465   3 
 CRJC HE ES   4    644 44.59                             104   -4.10 0  465   3 
 CRJC HZ I         644 56.93         5.7 0.24            102            465   3 
 GUA  SZ EP   4    644  0.11                             103   -1.42 0  477 173 
 GUA  SE ES   2    644 50.78                             103   -0.31 2  477 173 
 GUA  SZ I         644 53.07        18.6 0.22            102            477 173 
 MACC HZ EP   4    644  4.85                             102   -2.28 0  524 189 
 MACC HN ES   4    644 56.10                             102   -4.96 0  524 189 
 MACC HZ I         645  5.41         2.7 0.22            100            524 189 
                                                                                
