 2016  519 0132 58.2 L   6.483 -73.527115.3  RSN  8 0.4 1.7LRSN                1
 GAP= 71        1.01       3.3     4.4  8.2 -0.1052E+01  0.1700E+02 -0.5210E+01E
 Epicentro: SANTA HELENA DEL OPON - SANTANDER                                  3
 ACTION:UPD 16-08-18 17:47 OP:cam  STATUS:               ID:20160519013258 L   I
 OLDACT:UP  16-05-19 17:35 OP:mh   STATUS:               ID:20160519012745     3
 OLDACT:UP  16-05-19 17:34 OP:mh   STATUS:               ID:20160519012745     3
 OLDACT:UP  16-05-19 17:34 OP:mh   STATUS:               ID:20160519012745     3
 OLDACT:UP  16-05-19 17:33 OP:mh   STATUS:               ID:20160519012745     3
 OLDACT:UP  16-05-19 17:31 OP:mh   STATUS:               ID:20160519012745     3
 OLDACT:REG 16-05-19 14:23 OP:mh   STATUS:               ID:20160519012745     3
 2016-05-19-0127-45M.COL___299                                                 6
 STAT SP IPHASW D HRMM SECON CODA AMPLIT PERI AZIMU VELO AIN AR TRES W  DIS CAZ7
 BAR2 EZ EP        133 15.04                             160    0.2610 40.0  72 
 BAR2 EZ ES        133 27.79                             160    0.1110 40.0  72 
 BAR2 EZ I         133 28.67        34.8 0.42            153           40.0  72 
 BRR  HZ EP        133 15.85                             146   -0.3810 72.0 344 
 BRR  HZ I         133 29.24        12.2 0.30            139           72.0 344 
 BRR  HN ES        133 29.89                             146   -0.3910 72.0 344 
 RUS  HZ EP     C  133 17.95                             142    0.3310 81.7 143 
 RUS  HN ES        133 32.57                             142   -0.1810 81.7 143 
 PTB  HZ EP        133 17.91                             135   -0.7610  103 274 
 PTB  HN ES   4    133 32.94                             135   -1.67 0  103 274 
 PTB  HZ I         133 33.88         5.0 0.18            132            103 274 
 SPBC HN ES        133 36.12                             133    0.2410  110 213 
 NOR  HN ES        133 48.41                             118    0.18 9  180 236 
 ZAR  HZ EP        133 26.52                             117   -0.24 9  185 307 
 ZAR  HN ES        133 49.68                             117    0.66 9  185 307 
 ZAR  HZ I         133 51.85         5.6 0.40            113            185 307 
 OCA  HN ES        133 51.88                             116    0.40 9  196   7 
                                                                                
