 2010 1219 0521  3.7 L   6.875 -73.300139.5  RSN  4 0.2 1.3LRSN                1
 GAP=195        0.52       5.0    21.6  8.8 -0.8045E+02  0.1019E+03 -0.1115E+02E
 Epicentro: BETULIA - SANTANDER                                                3
 ACTION:UP  11-01-14 15:25 OP:pat  STATUS:               ID:20101219052103 L   I
 2010-12-19-0520-00M.COL___132                                                 6
 STAT SP IPHASW D HRMM SECON CODA AMPLIT PERI AZIMU VELO SNR AR TRES W  DIS CAZ7
 BAR2 SZ EP        521 23.16                             167     0.310   34 158 
 BAR2 SZ ES   2    521 37.69                             167    -0.1 5   34 158 
 RUS  HZ EP        521 27.63                             140     0.010  111 168 
 RUS  HN ES   1    521 46.29                             140    -0.1 7  111 168 
 RUS  HZ I         521 47.73         3.3 0.26                           111 168 
 GRA  SZ ES   1    521 47.24                             136    -0.2 7  124  26 
 GRA  SZ I         521 49.50         3.9 0.03                           124  26 
 CHI  HZ EP   2    521 41.18                             115    -0.4 4  253 191 
 CHI  HZ I         521 43.61         1.0 0.36                           253 191 
 CHI  HN ES   2    522 10.79                             115    -0.2 4  253 191 
                                                                                
