 2012  119 0606 53.3 L   7.324 -73.241121.7  RSN  6 0.4 1.5LRSN                1
 GAP= 93        0.90       5.0     5.0  9.2 -0.4350E+01  0.1367E+02 -0.3441E+01E
 Epicentro: RIONEGRO - SANTANDER                                               3
 ACTION:UP  12-02-03 08:18 OP:REBC STATUS:               ID:20120119060653 L   I
 2012-01-19-0600-00M.COL___187                                                 6
 STAT SP IPHASW D HRMM SECON CODA AMPLIT PERI AZIMU VELO SNR AR TRES W  DIS CAZ7
 BRR  HZ EP        6 7 11.16                             153     0.110   57 245 
 BRR  HZ I         6 7 11.37        32.4 0.13                            57 245 
 BRR  HN ES   1    6 7 25.40                             153     0.5 7   57 245 
 PAM  SZ EP   1    6 7 11.76                             152    -0.1 7   60  88 
 PAM  SN ES   1    6 7 26.14                             152    -0.3 7   60  88 
 PAM  SZ I         6 7 28.47         4.8 0.25                            60  88 
 BAR2 SZ EP   1    6 7 12.79                             144    -0.1 7   81 175 
 BAR2 SZ ES   1    6 7 28.41                             144     0.2 7   81 175 
 BAR2 SZ I         6 7 30.49         5.1 0.17                            81 175 
 OCA  SZ EP   1    6 7 14.76                             137     0.4 7  102 355 
 OCA  SZ ES   1    6 7 30.43                             137    -0.4 7  102 355 
 OCA  SZ I         6 7 32.91         4.5 0.13                           102 355 
 PTB  HZ EP   1    6 7 19.77                             123     0.2 7  160 237 
 PTB  HN ES   1    6 7 39.28                             123    -0.9 7  160 237 
 PTB  HZ I         6 7 43.25         0.0 0.16                           160 237 
 ZAR  HN ES   1    6 7 43.84                             120     0.1 7  179 276 
 ZAR  HZ I         6 7 46.87         3.7 0.36                           179 276 
                                                                                
