 2012  519 0145 26.1 L   6.726 -73.192150.2  RSN  5 0.2 1.7LRSN                1
 GAP=226        0.56       6.8     6.1  7.1  0.2402E+02  0.5327E+01  0.2713E+01E
 Epicentro: VILLANUEVA - SANTANDER                                             3
 ACTION:UP  12-07-05 12:06 OP:pat  STATUS:               ID:20120519014526 L   I
 2012-05-19-0140-00M.COL___200                                                 6
 STAT SP IPHASW D HRMM SECON CODA AMPLIT PERI AZIMU VELO SNR AR TRES W  DIS CAZ7
 BAR2 SZ EP        145 46.08                             174    -0.110   15 176 
 BAR2 SZ ES   2    146  1.30                             174    -0.5 5   15 176 
 BAR2 SZ I         146  2.41        18.2 0.14                            15 176 
 BRR  HZ EP        145 47.95                             153     0.210   71 306 
 BRR  HN ES   2    146  5.05                             153     0.4 5   71 306 
 BRR  HZ I         146  9.64        16.6 0.26                            71 306 
 RUS  HZ EP        145 49.93                             147     0.110   93 173 
 RUS  HZ I         145 51.00         3.0 0.18                            93 173 
 RUS  HN ES   2    146  8.30                             147     0.0 5   93 173 
 PTB  HZ EP        145 52.73                             134    -0.2 9  141 262 
 PTB  HN ES   2    146 14.03                             134     0.2 5  141 262 
 PTB  HZ I         146 19.14         2.9 0.36                           141 262 
 ZAR  HN ES   2    146 23.77                             123    -0.4 4  203 295 
 ZAR  HZ I         146 29.26         5.4 0.42                           203 295 
                                                                                
