 2014  319 0428  2.9 L   6.243 -73.925 88.2  RSN 11 0.5 1.6LRSN                1
 GAP= 64        1.30       3.3     3.2  8.2  0.2028E+00  0.1743E+01 -0.4204E+01E
 Epicentro: CIMITARRA - SANTANDER                                              3
 ACTION:UPD 14-04-09 23:18 OP:nd   STATUS:               ID:20140319042802 L   I
 OLDACT:REG 14-03-19 11:16 OP:carl STATUS:               ID:20140319042647     3
 2014-03-19-0426-47M.COL___235                                                 6
 STAT SP IPHASW D HRMM SECON CODA AMPLIT PERI AZIMU VELO AIN AR TRES W  DIS CAZ7
 PTB  HZ IP     C  428 17.54                             140   -0.4210 67.3 299 
 PTB  HN ES        428 29.40                             140   -0.2910 67.3 299 
 SPBC HZ EP        428 18.16                             140    0.0910 67.3 194 
 SPBC HN ES        428 30.33                             140    0.4510 67.3 194 
 SPBC HZ I         428 32.29        19.5 0.34            139           67.3 194 
 RUS  HZ EP        428 21.91                             128    0.2910  101 113 
 RUS  HN ES        428 36.38                             128    0.1710  101 113 
 RUS  HZ I         428 38.54         3.0 0.30            129            101 113 
 NOR  HZ EP        428 23.04                             120   -0.8810  129 234 
 NOR  HE ES        428 39.19                             120   -1.1010  129 234 
 NOR  HZ I         428 42.66         9.3 0.52            120            129 234 
 ZAR  HZ EP        428 28.78                             112    0.07 9  172 323 
 ZAR  HN ES        428 49.28                             112    0.46 9  172 323 
 ZAR  HZ I         428 51.59        12.6 0.26            114            172 323 
 HEL  HZ EP        428 29.47                             112   -0.29 9  178 268 
 HEL  HE ES        428 51.48                             112    0.79 9  178 268 
 HEL  HZ I         428 53.52         7.3 0.18            113            178 268 
 CHI  HZ EP        428 30.17                             111    0.12 9  180 173 
 CHI  HN ES        428 50.95                             111   -0.26 9  180 173 
 CHI  HZ I         428 56.48         2.8 0.32            112            180 173 
 PAM  SZ EP        428 30.73                             111    0.35 9  182  48 
 GUY2CHZ EP        428 31.53                             110   -0.40 9  195 235 
 GUY2CHN ES        428 55.60                             110    1.04 9  195 235 
 GUY2CHZ I         429  1.08         5.4 0.50                           195 235 
 OCA  HN ES        429  0.71                             106   -0.52 8  231  17 
 CBOC HZ EP        428 36.60                             106    0.39 8  235 260 
 CBOC HN ES        429  2.40                             106    0.23 8  235 260 
 CBOC HZ I         429  7.85         2.5 0.56            107            235 260 
                                                                                
