 2013 1219 0809 44.3 L   6.781 -73.155144.2  RSN  7 0.5 1.5LRSN                1
 GAP=136        1.17       5.8     5.5  9.1 -0.3922E+01  0.1011E+02  0.5110E+00E
 Epicentro: LOS SANTOS - SANTANDER                                             3
 ACTION:UPD 14-01-13 10:19 OP:ep   STATUS:               ID:20131219080945dL   I
 OLDACT:REG 13-12-19 08:19 OP:jn   STATUS:               ID:20131219081000     3
 2013-12-19-0810-00M.COL___285                                                 6
 STAT SP IPHASW D HRMM SECON CODA AMPLIT PERI AZIMU VELO AIN AR TRES W  DIS CAZ7
 BAR2 SZ EP        810  3.84                             171    0.1510 21.1 188 
 BAR2 SZ ES        810 18.66                             171   -0.1610 21.1 188 
 BAR2 SZ I         810 19.78         9.3 0.26            172           21.1 188 
 BRR  HN ES   1    810 22.79                             152    1.14 7 71.3 300 
 PAM  SZ EP        810  6.72                             150    0.2410 79.7  39 
 PAM  SN ES        810 23.38                             150   -0.4010 79.7  39 
 PAM  SZ I         810 26.02         4.7 0.28            151           79.7  39 
 RUS  HZ EP        810  7.88                             144    0.1310 98.6 175 
 RUS  HN ES        810 26.18                             144    0.1410 98.6 175 
 RUS  HZ I         810 28.29         4.1 0.32            147           98.6 175 
 PTB  HZ EP        810 10.63                             132   -0.38 9  146 260 
 PTB  HN ES        810 30.92                             132   -0.92 9  146 260 
 PTB  HZ I         810 35.34         3.8 0.14            132            146 260 
 SPBC HN ES   1    810 34.81                             129    0.39 7  161 219 
 ZAR  HN ES   1    810 42.37                             122    0.53 6  204 293 
 ZAR  HZ I         810 47.93         5.0 0.30            122            204 293 
                                                                                
