 2017 1219 0650 18.7 L   6.807 -73.127139.8  RSN  5 0.3 1.6LRSN                1
 GAP=202        0.72       3.1     4.4  5.8 -0.3347E+01  0.6088E+01 -0.3972E+01E
 Epicentro: LOS SANTOS - SANTANDER                                             3
 ACTION:UPD 18-01-04 13:21 OP:rebc STATUS:               ID:20171219065019dL   I
 OLDACT:REG 17-12-19 13:13 OP:dhb  STATUS:               ID:20171219063327     3
 2017-12-19-0648-00M.COL___452                                                 6
 STAT SP IPHASW D HRMM SECON CODA AMPLIT PERI AZIMU VELO AIN AR TRES W  DIS CAZ7
 BAR2 EZ IP     C  650 37.75                             170    0.1310 24.5 194 
 BAR2 EZ ES        650 52.38                             170   -0.0110 24.5 194 
 BAR2 EZ I         650 55.10         4.9 0.28            169           24.5 194 
 PTB  HZ EP        650 44.80                             130   -0.57 9  150 259 
 PTB  HE ES        651  6.41                             130    0.22 9  150 259 
 PTB  HZ I         651  8.06         2.9 0.16            131            150 259 
 OCA  HZ EP        650 46.82                             128    0.34 9  160 352 
 OCA  HE ES        651  7.90                             128   -0.27 9  160 352 
 OCA  HZ I         651  9.14         8.8 0.32            130            160 352 
 SPBC HZ EP        650 46.68                             127   -0.23 9  165 219 
 SPBC HN ES        651  9.02                             127    0.09 9  165 219 
 SPBC HZ I         651 11.31         6.9 0.20            129            165 219 
 ZAR  HZ EP        650 51.32                             121    0.41 8  206 292 
 ZAR  HN ES        651 15.96                             121   -0.09 8  206 292 
 ZAR  HZ I         651 22.21         4.4 0.36            122            206 292 
                                                                                
