 2016  919 0612 23.8 L   6.758 -73.243150.8  RSN  4 0.1 1.2LRSN                1
 GAP=270        0.43       3.0     5.1  4.8  0.4238E+01 -0.1593E+01  0.4321E+01E
 Epicentro: ZAPATOCA - SANTANDER                                               3
 ACTION:UPD 17-08-17 21:14 OP:lp   STATUS:               ID:20160919061223 L   I
 OLDACT:REG 16-09-19 12:06 OP:ar   STATUS:               ID:20160919060742     3
 2016-09-19-0608-00M.COL___354                                                 6
 STAT SP IPHASW D HRMM SECON CODA AMPLIT PERI AZIMU VELO AIN AR TRES W  DIS CAZ7
 BRR  HE ES        613  1.84                             156    0.0010 64.6 307 
 PTB  HZ EP        612 49.99                             136   -0.23 9  136 260 
 PTB  HN ES        613 10.85                             136    0.05 9  136 260 
 PTB  HZ I         613 12.53         1.1 0.10            127            136 260 
 SPBC HZ EP        612 52.00                             132    0.21 9  153 217 
 SPBC HE ES        613 13.51                             132   -0.07 9  153 217 
 SPBC HZ I         613 16.35         3.2 0.26            126            153 217 
 ZAR  HN ES        613 20.79                             125    0.06 9  196 295 
 ZAR  HZ I         613 29.08         1.7 0.09            118            196 295 
                                                                                
