 2017  219 0602 16.2 L   6.781 -73.129142.9  RSN 12 0.4 1.8LRSN                1
 GAP=121        0.91       3.2     3.8  4.9 -0.7904E-01  0.2813E+01  0.4444E+01E
 Epicentro: LOS SANTOS - SANTANDER                                             3
 ACTION:UPD 17-05-24 15:37 OP:jn   STATUS:               ID:20170219060216 L   I
 OLDACT:UP  17-02-19 18:10 OP:edw  STATUS:               ID:20170219055742d    3
 OLDACT:DUP 17-02-19 18:05 OP:edw  STATUS:               ID:20170219055742d    3
 OLDACT:UP  17-02-19 18:04 OP:edw  STATUS:               ID:20170219055741     3
 OLDACT:REG 17-02-19 12:39 OP:edw  STATUS:               ID:20170219055741     3
 2017-02-19-0558-00M.COL___352                                                 6
 STAT SP IPHASW D HRMM SECON CODA AMPLIT PERI AZIMU VELO AIN AR TRES W  DIS CAZ7
 BAR2 EZ IP     D  6 2 35.54                             171    0.0610 21.7 196 
 BAR2 EZ ES        6 2 50.01                             171   -0.4810 21.7 196 
 BAR2 EZ I         6 2 51.43        15.6 0.26            168           21.7 196 
 BRR  HZ IP        6 2 37.26                             151    0.0410 73.8 299 
 BRR  HN ES        6 2 54.29                             151    0.7010 73.8 299 
 BRR  HZ I         6 2 54.80        13.7 0.32            152           73.8 299 
 PAM  EZ IP     C  6 2 38.16                             150   -0.0110 77.9  38 
 PAM  EN ES        6 2 55.29                             150    0.0110 77.9  38 
 PAM  EZ I         6 2 57.30        12.2 0.50            153           77.9  38 
 RUS  HZ EP        6 2 39.70                             144    0.1610 98.4 177 
 RUS  HN ES        6 2 57.68                             144   -0.0410 98.4 177 
 RUS  HZ I         6 3  0.10        16.2 0.26            143           98.4 177 
 PTB  HZ EP   9    6 2 42.31                             131   -0.79 0  149 260 
 PTB  HN ES        6 3  3.29                             132    0.03 9  149 260 
 PTB  HZ I         6 3  5.75         8.9 0.40            131            149 260 
 ZAR  HZ EP        6 2 48.60                             121   -0.15 8  207 292 
 ZAR  HN ES        6 3 13.52                             121   -0.59 8  207 292 
 ZAR  HZ I         6 3 16.04         6.5 0.22            122            207 292 
 NOR  HZ EP        6 2 52.21                             118    0.38 8  235 235 
 NOR  HN ES        6 3 19.15                             118   -0.44 8  235 235 
 NOR  HZ I         6 3 23.32         3.6 0.16            118            235 235 
 CHI  HZ EP        6 2 54.19                             117    0.59 8  247 196 
 CHI  HN ES        6 3 22.75                             117   -0.01 8  247 196 
 CHI  HZ I         6 3 25.53         1.5 0.26            117            247 196 
 URE  HZ EP   4    6 2 59.39                             113    1.95 0  286 292 
 URE  HN ES   4    6 3 26.44                             113   -3.15 0  286 292 
 URE  HZ I         6 3 27.69         6.4 0.16            113            286 292 
 PTGC HZ EP        6 2 58.87                             111   -0.79 7  306 159 
 PTGC HN ES   4    6 3 31.30                             111   -2.24 0  306 159 
 PTGC HZ I         6 3 36.27         2.7 0.22            111            306 159 
 CBOC HZ EP   4    6 3  4.12                             109    0.96 0  335 253 
 CBOC HN ES   4    6 3 37.57                             109   -2.19 0  335 253 
 CBOC HZ I         6 3 45.16         0.8 0.18            110            335 253 
 PRA  HZ EP   4    6 3 10.35                             106    0.80 0  391 210 
 PRA  HE ES        6 3 51.59                             106    0.45 6  391 210 
 PRA  HZ I         6 3 57.91         2.4 0.30            106            391 210 
 SJC  HZ EP   4    6 3  9.64                             105   -2.38 0  412 327 
 SJC  HN ES   4    6 3 51.48                             105   -4.06 0  412 327 
                                                                                
