 2016  219 0952 42.4 L   6.823 -73.176145.7  RSN  4 0.3 1.1LRSN                1
 GAP=277        0.76       6.7     5.0  6.5  0.3275E+01  0.6938E+01 -0.5684E+01E
 Epicentro: ZAPATOCA - SANTANDER                                               3
 ACTION:UPD 16-03-04 21:27 OP:rebc STATUS:               ID:20160219095242 L   I
 OLDACT:REG 16-02-19 12:32 OP:drio STATUS:               ID:20160219094749     3
 2016-02-19-0947-49M.COL___303                                                 6
 STAT SP IPHASW D HRMM SECON CODA AMPLIT PERI AZIMU VELO AIN AR TRES W  DIS CAZ7
 BAR2 EZ EP        953  2.14                             170    0.0310 25.5 182 
 BAR2 EZ ES        953 17.76                             170    0.3110 25.5 182 
 BAR2 EZ I         953 18.77         3.6 0.56            164           25.5 182 
 RUS  HZ EP        953  6.17                             143   -0.2210  103 174 
 RUS  HE ES        953 24.74                             143   -0.3310  103 174 
 RUS  HZ I         953 26.96         1.0 0.30            141            103 174 
 PTB  HZ EP        953  8.95                             133   -0.20 9  145 258 
 PTB  HN ES        953 29.74                             133   -0.25 9  145 258 
 PTB  HZ I         953 33.28         1.9 0.16            131            145 258 
 SPBC HZ EP        953 11.47                             129    0.54 9  163 218 
 SPBC HN ES        953 33.34                             129    0.19 9  163 218 
 SPBC HZ I         953 38.88         2.9 0.24            128            163 218 
                                                                                
