 2014 1219 0545  3.0 L   6.800 -73.191142.4  RSN 14 0.4 1.8LRSN                1
 GAP=131        0.95       2.4     3.3  4.8 -0.1071E+01  0.5493E+01  0.8659E+00E
 Epicentro: ZAPATOCA - SANTANDER                                               3
 ACTION:UPD 15-02-10 17:05 OP:nd   STATUS:               ID:20141219054503 L   I
 OLDACT:REG 14-12-19 13:00 OP:y    STATUS:               ID:20141219053748     3
 2014-12-19-0537-48M.COL___299                                                 6
 STAT SP IPHASW D HRMM SECON CODA AMPLIT PERI AZIMU VELO AIN AR TRES W  DIS CAZ7
 BAR2 EZ EP        545 22.10                             170   -0.1110 23.0 178 
 BAR2 EZ ES        545 37.07                             170   -0.1310 23.0 178 
 BAR2 EZ I         545 38.90        14.1 0.26            169           23.0 178 
 BRR  HZ EP        545 24.27                             153    0.7410 66.8 301 
 BRR  HE ES        545 40.39                             153    0.8410 66.8 301 
 BRR  HZ I         545 45.20         9.2 0.28            149           66.8 301 
 PAM  SZ EP     C  545 25.39                             149    0.3310 80.7  42 
 PAM  SN ES        545 42.10                             149   -0.1610 80.7  42 
 PAM  SZ I         545 44.58        12.6 0.46            150           80.7  42 
 RUS  HZ EP        545 26.65                             143    0.2110  101 173 
 RUS  HE ES        545 44.45                             143   -0.2910  101 173 
 RUS  HZ I         545 46.28         9.4 0.36            141            101 173 
 PTB  HZ EP        545 29.18                             132   -0.06 9  143 258 
 PTB  HN ES        545 49.88                             132    0.18 9  143 258 
 PTB  HZ I         545 51.96         5.2 0.12            128            143 258 
 SPBC HZ EP        545 31.24                             129    0.31 9  160 218 
 SPBC HN ES        545 52.37                             129   -0.36 9  160 218 
 SPBC HZ I         545 59.65        12.0 0.28            126            160 218 
 OCA  HE ES        545 52.45                             129   -0.39 9  160 355 
 OCA  HZ I         545 59.02         5.4 0.44            127            160 355 
 ZAR  HZ EP        545 34.69                             122   -0.05 9  199 293 
 ZAR  HN ES        545 59.33                             122   -0.17 9  199 293 
 ZAR  HZ I         546 10.95         5.5 0.18            119            199 293 
 NOR  HE ES        546  5.29                             118   -0.17 8  231 234 
 NOR  HZ I         546 14.29         6.1 0.20            116            231 234 
 SML  HZ EP        545 38.84                             117   -0.37 8  242 336 
 SML  HE ES        546  6.72                             117   -0.74 8  242 336 
 SML  HZ I         546 10.78        11.8 0.10            115            242 336 
 CHI  HZ EP        545 40.64                             117    0.28 8  247 194 
 CHI  HE ES        546  8.75                             117   -0.76 8  247 194 
 CHI  HZ I         546 16.22         3.0 0.32            114            247 194 
 HEL  HZ EP        545 42.30                             115   -0.19 8  267 256 
 HEL  HN ES        546 13.23                             115   -0.07 8  267 256 
 HEL  HZ I         546 22.71         3.3 0.38            112            267 256 
 CBOC HZ EP   1    545 50.03                             110    0.81 5  329 252 
 CBOC HE ES        546 24.98                             110   -0.29 7  329 252 
 CBOC HZ I         546 29.82         0.9 0.18            108            329 252 
 TOL  SZ EP        545 50.78                             109    0.08 7  340 224 
 TOL  SN ES        546 28.26                             109    0.34 7  340 224 
 TOL  SZ I         546 35.17         5.2 0.34            107            340 224 
                                                                                
