 2013  419 0634 10.2 L   6.812 -73.201140.3  RSN  6 0.4 1.7LRSN                1
 GAP=129        0.82       3.7     5.1  7.2 -0.9876E+00  0.2173E+01 -0.4667E+01E
 Epicentro: ZAPATOCA - SANTANDER                                               3
 ACTION:UPD 13-05-22 14:39 OP:EP   STATUS:               ID:20130419063410 L   I
 2013-04-19-0630-00M.COL___250                                                 6
 STAT SP IPHASW D HRMM SECON CODA AMPLIT PERI AZIMU VELO AIN AR TRES W  DIS CAZ7
 BRR  HZ EP        634 31.10                             153    0.7210 65.3 300 
 BRR  HN ES   1    634 46.57                             153    0.41 7 65.3 300 
 BRR  HZ I         634 52.09         9.9 0.12            154           65.3 300 
 PAM  SZ EP        634 32.22                             149    0.2410 80.4  43 
 PAM  SN ES   1    634 48.66                             149   -0.35 7 80.4  43 
 PAM  SZ I         634 51.02        15.1 0.44            153           80.4  43 
 RUS  HZ EP        634 33.42                             142   -0.1010  102 173 
 RUS  HN ES   1    634 51.37                             142   -0.36 7  102 173 
 RUS  HZ I         634 52.81         4.8 0.24            148            102 173 
 PTB  HZ EP   1    634 36.20                             132    0.04 7  142 258 
 PTB  HN ES   1    634 55.97                             132   -0.48 7  142 258 
 PTB  HZ I         634 59.33         6.4 0.28            135            142 258 
 OCA  HZ EP        634 37.80                             129   -0.07 9  158 355 
 OCA  HN ES   1    634 59.24                             129   -0.24 7  158 355 
 OCA  HZ I         635  3.24         8.5 0.20            132            158 355 
 SML  HZ EP        634 45.72                             117   -0.36 8  240 336 
 SML  HN ES   2    635 13.63                             117   -0.47 4  240 336 
                                                                                
