 2014  619 0648 38.6 L   6.355 -73.615103.8  RSN 14 0.5 2.1LRSN                1
 GAP= 82        1.28       3.2     3.4  6.9 -0.4745E+01  0.1026E+02 -0.5489E+01E
 Epicentro: SANTA HELENA DEL OPON - SANTANDER                                  3
 ACTION:UPD 14-07-01 22:55 OP:nd   STATUS:               ID:20140619064838 L   I
 OLDACT:REG 14-06-19 12:47 OP:carl STATUS:               ID:20140619063814     3
 2014-06-19-0638-14M.COL___256                                                 6
 STAT SP IPHASW D HRMM SECON CODA AMPLIT PERI AZIMU VELO AIN AR TRES W  DIS CAZ7
 BAR2 SZ IP     C  648 54.90                             150    0.2910 54.5  61 
 BAR2 SZ ES        649  7.86                             150    0.7510 54.5  61 
 BAR2 SZ I         649  9.28        81.2 0.38            154           54.5  61 
 RUS  HZ EP        648 56.17                             141   -0.4310 78.0 131 
 RUS  HN ES        649  9.89                             141   -0.7610 78.0 131 
 SPBC HZ EP        648 57.01                             135   -0.2610 92.8 213 
 SPBC HE ES        649 12.51                             135    0.6710 92.8 213 
 SPBC HZ I         649 14.35        32.4 0.18            137           92.8 213 
 PTB  HZ IP     C  648 56.62                             134   -0.7610 95.3 282 
 PTB  HN ES        649 11.65                             134   -0.3910 95.3 282 
 PTB  HZ I         649 15.30        24.9 0.14            134           95.3 282 
 PAM  SZ EP        649  2.88                             120   -0.34 9  149  43 
 PAM  SE ES        649 22.52                             120    0.10 9  149  43 
 PAM  SZ I         649 26.62        10.5 0.20            123            149  43 
 NOR  HZ EP        649  3.42                             117   -0.90 9  164 238 
 NOR  HE ES        649 24.25                             117   -0.15 9  164 238 
 NOR  HZ I         649 26.56        34.2 0.18            119            164 238 
 ZAR  HZ EP        649  6.51                             114   -0.18 9  186 313 
 ZAR  HE ES        649 28.67                             114    0.05 9  186 313 
 ZAR  HZ I         649 33.57        22.8 0.40            115            186 313 
 OCA  HZ EP        649 10.61                             111    0.95 8  211   9 
 OCA  HN ES        649 34.17                             111    0.28 8  211   9 
 OCA  HZ I         649 41.27        11.4 0.22            112            211   9 
 HEL  HZ EP        649 10.21                             110    0.08 8  213 265 
 HEL  HN ES        649 35.58                             110    0.85 8  213 265 
 HEL  HZ I         649 43.53         6.4 0.22            112            213 265 
 GUY2CHZ EP        649 12.39                             109    0.04 8  231 237 
 GUY2CHN ES        649 38.50                             109   -0.18 8  231 237 
 GUY2CHZ I         649 46.25        12.2 0.26                           231 237 
 RREF HZ EP        649 15.58                             107    0.74 8  250 230 
 RREF HN ES        649 43.56                             107    0.45 8  250 230 
 RREF HZ I         649 52.81         9.7 0.24            109            250 230 
 CBOC HZ EP        649 16.77                             105    0.11 8  271 259 
 CBOC HN ES        649 45.67                             105   -0.69 8  271 259 
 CBOC HZ I         649 50.49         4.1 0.16            106            271 259 
 TOL  SZ EP        649 17.77                             105    0.76 8  272 224 
 TOL  SN ES        649 47.31                             105    0.33 8  272 224 
 TOL  SZ I         649 53.52        14.3 0.32            107            272 224 
 SML  HZ EP        649 16.73                             104   -0.21 8  275 349 
 SML  HE ES        649 46.35                             104   -0.51 8  275 349 
                                                                                
