 2013 1019 0541 52.5 L   6.533 -73.499112.6  RSN  7 0.4 1.6LRSN                1
 GAP=100        0.94       3.8     5.3  7.5  0.6415E+01  0.2362E+02  0.4446E+01E
 Epicentro: EL CARMEN DE CHUCURI - SANTANDER                                   3
 ACTION:UPD 13-11-25 09:22 OP:ep   STATUS:               ID:20131019054152 L   I
 OLDACT:UP  13-10-19 09:18 OP:cam  STATUS:               ID:20131019053838     3
 OLDACT:REG 13-10-19 08:21 OP:cam  STATUS:               ID:20131019053838     3
 2013-10-19-0538-38M.COL___211                                                 6
 STAT SP IPHASW D HRMM SECON CODA AMPLIT PERI AZIMU VELO AIN AR TRES W  DIS CAZ7
 BAR2 SZ EP     D  542  8.54                             161   -0.0210 35.6  79 
 BAR2 SZ ES        542 21.40                             161    0.3110 35.6  79 
 BAR2 SZ I         542 22.54        31.9 0.44            163           35.6  79 
 BRR  HZ EP        542  9.30                             147   -0.6510 67.8 340 
 BRR  HE ES        542 23.31                             147   -0.2410 67.8 340 
 BRR  HZ I         542 29.98         9.5 0.16            148           67.8 340 
 RUS  HZ EP   1    542 12.01                             141    0.17 7 84.4 147 
 RUS  HN ES        542 27.21                             141    0.2810 84.4 147 
 RUS  HZ I         542 28.64         3.7 0.50            145           84.4 147 
 PTB  HZ EP   4    542 11.43                             133   -1.55 0  106 270 
 PTB  HN ES   4    542 26.36                             133   -2.59 0  106 270 
 PTB  HZ I         542 27.46        13.5 0.16            136            106 270 
 SPBC HZ EP        542 13.61                             131   -0.4010  116 213 
 SPBC HE ES        542 30.53                             131   -0.2610  116 213 
 SPBC HZ I         542 31.70         9.5 0.18            134            116 213 
 ZAR  HZ EP        542 20.93                             117    0.12 9  184 305 
 ZAR  HN ES        542 43.33                             117    0.44 9  184 305 
 HEL  HZ EP        542 26.78                             111    0.62 8  228 261 
 HEL  HN ES   4    542 52.80                             111    0.39 0  228 261 
 HEL  HZ I         542 55.64         3.2 0.38            114            228 261 
                                                                                
