 2014  119 0828  8.3 L   6.804 -73.182148.8  RSN  5 0.2 1.2LRSN                1
 GAP=179        0.62       2.8     4.2  6.2 -0.1431E+01  0.5484E+01 -0.1581E+01E
 Epicentro: LOS SANTOS - SANTANDER                                             3
 ACTION:UPD 14-03-13 09:56 OP:ep   STATUS:               ID:20140119082808 L   I
 OLDACT:UP  14-01-19 09:17 OP:cam  STATUS:               ID:20140119082001d    3
 OLDACT:DUP 14-01-19 09:15 OP:cam  STATUS:               ID:20140119082001d    3
 2014-01-19-0820-00M.COL___285                                                 6
 STAT SP IPHASW D HRMM SECON CODA AMPLIT PERI AZIMU VELO AIN AR TRES W  DIS CAZ7
 BAR2 SZ EP        828 28.40                             171    0.1010 23.4 180 
 BAR2 SZ ES        828 44.26                             171    0.3610 23.4 180 
 BAR2 SZ I         828 45.48         4.8 0.28            171           23.4 180 
 RUS  HZ EP   1    828 32.34                             144   -0.08 7  101 174 
 RUS  HN ES        828 50.82                             144   -0.3910  101 174 
 RUS  HZ I         828 51.28         1.5 0.22            146            101 174 
 PTB  HZ EP   2    828 35.46                             134    0.28 5  144 258 
 PTB  HN ES        828 55.87                             134   -0.26 9  144 258 
 PTB  HZ I         828 59.12         2.6 0.16            134            144 258 
 OCA  HN ES        828 58.86                             130   -0.12 9  159 355 
 SPBC HZ EP   1    828 37.00                             130    0.16 7  161 218 
 SPBC HN ES        828 59.29                             130    0.20 9  161 218 
                                                                                
