 2017  819 0924 49.4 L   6.667 -73.285146.0  RSN  5 0.3 1.2LRSN                1
 GAP=170        0.78      10.0    10.6  8.8  0.8913E+02  0.2906E+01 -0.1847E+02E
 Epicentro: GALAN - SANTANDER                                                  3
 ACTION:UPD 17-09-04 20:22 OP:rebc STATUS:               ID:20170819092449 L   I
 OLDACT:UP  17-08-19 17:19 OP:mg   STATUS:               ID:20170819091739     3
 OLDACT:UP  17-08-19 17:18 OP:mg   STATUS:               ID:20170819091739     3
 OLDACT:UP  17-08-19 17:18 OP:mg   STATUS:               ID:20170819091739     3
 OLDACT:UP  17-08-19 17:17 OP:mg   STATUS:               ID:20170819091739     3
 OLDACT:UP  17-08-19 17:17 OP:mg   STATUS:               ID:20170819091739     3
 OLDACT:UP  17-08-19 17:16 OP:mg   STATUS:               ID:20170819091739     3
 OLDACT:UP  17-08-19 17:15 OP:mg   STATUS:               ID:20170819091739     3
 OLDACT:REG 17-08-19 13:27 OP:mg   STATUS:               ID:20170819091739     3
 2017-08-19-0918-00M.COL___411                                                 6
 STAT SP IPHASW D HRMM SECON CODA AMPLIT PERI AZIMU VELO AIN AR TRES W  DIS CAZ7
 BAR2 EZ EP   1    925  9.34                             174    0.42 7 14.0 126 
 BAR2 EZ ES   2    925 23.72                             174   -0.41 5 14.0 126 
 BAR2 EZ I         925 23.91         2.6 0.19            170           14.0 126 
 BRR  HZ EP        925 10.34                             154   -0.0610 67.8 316 
 BRR  HN ES   2    925 26.98                             154    0.21 5 67.8 316 
 BRR  HZ I         925 28.24         3.3 0.41            152           67.8 316 
 RUS  HZ EP     C  925 11.81                             148   -0.5410 88.5 165 
 RUS  HN ES        925 30.56                             148    0.3110 88.5 165 
 RUS  HZ I         925 31.90         1.7 0.30            145           88.5 165 
 ZAR  HZ EP        925 21.41                             124    0.33 9  196 298 
 ZAR  HN ES        925 45.59                             124   -0.19 9  196 298 
 ZAR  HZ I         925 46.92         1.2 0.34            123            196 298 
 NOR  HN ES   4    925 49.89                             121    0.81 0  214 235 
 NOR  HZ I         925 53.72         4.2 0.01            119            214 235 
                                                                                
