 2013  619 0134 52.7 L   7.202 -73.362116.0  RSN  9 0.5 1.8LRSN                1
 GAP=124        0.93       3.3     4.7  6.7  0.1538E+01  0.9306E+01 -0.9820E+00E
 Epicentro: LEBRIJA - SANTANDER                                                3
 ACTION:UPD 14-01-08 09:55 OP:ep   STATUS:               ID:20130619013452 L   I
 OLDACT:REG 13-06-19 07:03 OP:carl STATUS:               ID:20130619012959     3
 2013-06-19-0129-59M.COL___261                                                 6
 STAT SP IPHASW D HRMM SECON CODA AMPLIT PERI AZIMU VELO AIN AR TRES W  DIS CAZ7
 GIR2 SZ EP        135  8.72                             168    0.1510 23.1 126 
 GIR2 SZ ES   1    135 19.94                             168   -1.04 7 23.1 126 
 GIR2 SZ I         135 21.47         7.4 0.20            174           23.1 126 
 BRR  HZ IP     D  135  9.14                             160    0.2010 40.0 255 
 BRR  HN ES   1    135 21.89                             160    0.26 7 40.0 255 
 BRR  HZ I         135 24.89         8.1 0.36            156           40.0 255 
 BAR2 SZ EP        135 11.47                             146    0.5110 70.3 164 
 BAR2 SZ ES   1    135 25.52                             146    0.29 7 70.3 164 
 BAR2 SZ I         135 26.50        60.6 0.38            151           70.3 164 
 OCA  HZ EP   1    135 14.47                             132    0.08 7  115   2 
 OCA  HN ES   1    135 31.58                             132    0.23 7  115   2 
 OCA  HZ I         135 32.95        37.4 0.34            134            115   2 
 PTB  HZ EP   1    135 16.54                             125   -0.20 7  141 239 
 PTB  HN ES   1    135 35.12                             125   -0.41 7  141 239 
 PTB  HZ I         135 38.17         6.7 0.16            126            141 239 
 RUS  HZ EP   1    135 18.12                             124    0.08 7  148 168 
 RUS  HN ES   1    135 37.41                             124   -0.42 7  148 168 
 RUS  HZ I         135 39.03        10.2 0.26            128            148 168 
 ZAR  HZ EP   1    135 19.92                             120    0.44 7  168 281 
 ZAR  HN ES   1    135 41.09                             120    0.68 7  168 281 
 ZAR  HZ I         135 46.08         6.2 0.16            121            168 281 
 SML  HZ EP   1    135 21.55                             116   -0.61 7  193 336 
 SML  HN ES   1    135 44.43                             116   -0.75 7  193 336 
 SML  HZ I         135 49.88        15.3 0.10            118            193 336 
 GUY2CHZ EP   1    135 36.16                             105   -0.11 5  311 225 
 GUY2CHE ES   1    136  9.60                             105   -0.68 5  311 225 
 GUY2CHZ I         136 19.72         2.7 0.40                           311 225 
                                                                                
