 2015  319 0214 14.6 L   6.758 -73.155144.7  RSN  5 0.4 1.6LRSN                1
 GAP=137        1.13       6.0     5.8  8.3 -0.3163E+01  0.5894E+01  0.1832E+01E
 Epicentro: LOS SANTOS - SANTANDER                                             3
 ACTION:UPD 15-04-30 16:27 OP:nd   STATUS:               ID:20150319021414 L   I
 OLDACT:REG 15-03-19 12:45 OP:stll STATUS:               ID:20150319020748     3
 2015-03-19-0207-48M.COL___281                                                 6
 STAT SP IPHASW D HRMM SECON CODA AMPLIT PERI AZIMU VELO AIN AR TRES W  DIS CAZ7
 BAR2 EZ EP        214 34.18                             172    0.1410 18.6 189 
 BAR2 EZ ES        214 49.28                             172    0.0910 18.6 189 
 BAR2 EZ I         214 50.00         8.8 0.38            170           18.6 189 
 BRR  HZ EP        214 36.29                             152    0.5510 72.6 302 
 BRR  HN ES        214 52.85                             152    0.6410 72.6 302 
 BRR  HZ I         214 57.12         8.4 0.46            148           72.6 302 
 PAM  SZ EP        214 37.01                             149    0.0210 81.6  38 
 PAM  SZ I         214 37.40        10.2 0.26            152           81.6  38 
 PAM  SN ES        214 53.76                             149   -0.6710 81.6  38 
 RUS  HZ EP        214 38.18                             145    0.2310 96.1 175 
 RUS  HZ I         214 39.03         3.9 0.28            147           96.1 175 
 RUS  HN ES        214 56.09                             145   -0.0510 96.1 175 
 PTB  HZ EP        214 40.88                             132   -0.46 9  146 261 
 PTB  HN ES        215  1.54                             132   -0.63 9  146 261 
 PTB  HZ I         215  8.81         3.8 0.16            130            146 261 
                                                                                
