 2017  219 0144 26.5 L   6.746 -73.206159.2  RSN  5 0.2 1.0LRSN                1
 GAP=226        0.54       3.2     4.1  5.2  0.7490E+01  0.1064E+01  0.1693E+01E
 Epicentro: VILLANUEVA - SANTANDER                                             3
 ACTION:UPD 17-05-24 15:37 OP:jn   STATUS:               ID:20170219014426 L   I
 OLDACT:DUP 17-02-19 15:13 OP:edw  STATUS:               ID:20170219013747d    3
 OLDACT:REG 17-02-19 12:21 OP:edw  STATUS:               ID:20170219013746     3
 2017-02-19-0138-00M.COL___358                                                 6
 STAT SP IPHASW D HRMM SECON CODA AMPLIT PERI AZIMU VELO AIN AR TRES W  DIS CAZ7
 BRR  HZ IP     C  144 49.00                             155    0.0610 68.7 306 
 BRR  HN ES        145  6.72                             155    0.2510 68.7 306 
 RUS  HZ EP        144 51.00                             148   -0.2010 95.4 172 
 RUS  HN ES        145 10.35                             148   -0.1510 95.4 172 
 RUS  HZ I         145 14.60         1.3 0.66            148           95.4 172 
 PTB  HZ EP        144 54.11                             136    0.21 9  140 261 
 PTB  HN ES        145 15.14                             136   -0.16 9  140 261 
 PTB  HZ I         145 21.02         1.7 0.18            137            140 261 
 ZAR  HN ES        145 24.94                             126   -0.22 9  200 294 
 CHI  HN ES        145 33.81                             121    0.26 8  241 194 
                                                                                
