 2012 1119 0506 45.3 L   6.770 -73.162146.9  RSN  6 0.3 1.5LRSN                1
 GAP=136        0.59       4.2     4.0  6.7 -0.1983E+01  0.9937E+00  0.3400E+01E
 Epicentro: LOS SANTOS - SANTANDER                                             3
 ACTION:UPD 12-12-05 15:34 OP:}ep  STATUS:               ID:20121119050645 L   I
 2012-11-19-0500-00M.COL___234                                                 6
 STAT SP IPHASW D HRMM SECON CODA AMPLIT PERI AZIMU VELO AIN AR TRES W  DIS CAZ7
 BAR2 SZ EP        5 7  5.04                             172    0.0210 19.8 187 
 BAR2 SZ I         5 7 22.98        10.3 0.61                          19.8 187 
 GIR2 SZ EP   1    5 7  5.19                             166   -0.02 7 34.3 354 
 BRR  HZ EP   1    5 7  6.89                             153    0.30 7 71.3 302 
 BRR  HE ES   1    5 7 23.68                             153    0.49 7 71.3 302 
 BRR  HZ I         5 7 25.16         5.0 0.23                          71.3 302 
 PAM  SZ EP   1    5 7  7.94                             150    0.07 7 81.1  39 
 PAM  SN ES   1    5 7 25.04                             150   -0.43 7 81.1  39 
 PAM  SZ I         5 7 27.37         4.3 0.29                          81.1  39 
 RUS  HZ EP   1    5 7  9.03                             145    0.08 7 97.4 175 
 RUS  HE ES   1    5 7 27.46                             145    0.07 7 97.4 175 
 RUS  HE I         5 7 29.48         6.5 0.27                          97.4 175 
 PTB  HZ EP   1    5 7 11.95                             133   -0.21 7  145 260 
 PTB  HE ES   1    5 7 32.64                             133   -0.47 7  145 260 
                                                                                
