 2017 1019 0554  6.4 L   6.768 -73.169153.2  RSN  6 0.3 1.5LRSN                1
 GAP=232        0.89       5.1     5.3  6.6  0.1066E+02  0.5097E+01  0.1929E+01E
 Epicentro: LOS SANTOS - SANTANDER                                             3
 ACTION:UPD 17-11-07 19:33 OP:rebc STATUS:               ID:20171019055406 L   I
 OLDACT:UP  17-10-19 16:07 OP:dani STATUS:               ID:20171019054743     3
 OLDACT:UP  17-10-19 16:06 OP:dani STATUS:               ID:20171019054743     3
 OLDACT:UP  17-10-19 16:05 OP:dani STATUS:               ID:20171019054743     3
 OLDACT:REG 17-10-19 13:30 OP:dani STATUS:               ID:20171019054743     3
 2017-10-19-0548-00M.COL___432                                                 6
 STAT SP IPHASW D HRMM SECON CODA AMPLIT PERI AZIMU VELO AIN AR TRES W  DIS CAZ7
 BAR2 EZ EP        554 26.45                             172   -0.3810 19.5 184 
 BAR2 EZ ES        554 42.83                             172    0.0510 19.5 184 
 BAR2 EZ I         554 44.31         5.3 0.44            171           19.5 184 
 BRR  HZ EP        554 28.56                             154    0.2610 70.7 302 
 BRR  HN ES        554 45.75                             154    0.3410 70.7 302 
 BRR  HZ I         554 49.73         5.3 0.10            154           70.7 302 
 RUS  HZ EP        554 30.81                             146    0.1710 97.3 174 
 RUS  HE ES        554 49.23                             146   -0.3310 97.3 174 
 RUS  HZ I         554 50.19         4.3 0.29            148           97.3 174 
 PTB  HZ EP        554 33.24                             134   -0.44 9  145 260 
 PTB  HN ES        554 54.46                             134   -0.51 9  145 260 
 PTB  HZ I         554 56.38         2.4 0.50            135            145 260 
 SPBC HZ EP        554 35.45                             131    0.40 9  159 219 
 SPBC HN ES        554 57.90                             131    0.48 9  159 219 
 SPBC HZ I         555  1.95         5.2 0.10            133            159 219 
 ZAR  HN ES        555  4.81                             124   -0.01 9  203 293 
                                                                                
