 2014  419 0714 10.8 L   6.794 -73.158130.0  RSN 11 0.5 1.9LRSN                1
 GAP=135        1.19       3.3     4.4  8.1 -0.3617E+01  0.1328E+02  0.2155E+01E
 Epicentro: LOS SANTOS - SANTANDER                                             3
 ACTION:UPD 14-05-13 23:09 OP:nd   STATUS:               ID:20140419071410 L   I
 OLDACT:REG 14-04-19 13:38 OP:stll STATUS:               ID:20140419070805     3
 2014-04-19-0708-05M.COL___227                                                 6
 STAT SP IPHASW D HRMM SECON CODA AMPLIT PERI AZIMU VELO AIN AR TRES W  DIS CAZ7
 PAM  SZ EP        714 31.84                             147    0.4210 78.8  40 
 PAM  SN ES        714 47.88                             147    0.3510 78.8  40 
 PAM  SZ I         714 49.89        10.2 0.22            152           78.8  40 
 RUS  HZ EP        714 32.61                             141   -0.3510  100 175 
 RUS  HN ES        714 50.58                             141    0.3210  100 175 
 RUS  HZ I         714 52.23         7.2 0.22            146            100 175 
 PTB  HZ EP        714 35.62                             129   -0.73 9  146 259 
 PTB  HN ES        714 56.39                             129    0.08 9  146 259 
 PTB  HZ I         715  0.06        11.4 0.10            130            146 259 
 OCA  HZ EP        714 38.19                             126    0.24 9  161 354 
 OCA  HN ES        714 57.92                             126   -1.23 9  161 354 
 OCA  HZ I         715  5.46         8.5 0.18            128            161 354 
 SPBC HZ EP        714 37.97                             126    0.01 9  162 219 
 SPBC HZ I         714 38.40        13.9 0.10            128            162 219 
 SPBC HN ES        714 59.26                             126    0.08 9  162 219 
 ZAR  HZ EP        714 41.97                             119   -0.15 9  203 292 
 ZAR  HE ES        715  7.55                             119    0.97 9  203 292 
 ZAR  HZ I         715 13.29        11.4 0.48            121            203 292 
 NOR  HZ EP        714 45.52                             115    0.06 8  233 234 
 NOR  HN ES        715 12.18                             115   -0.35 8  233 234 
 NOR  HZ I         715 17.90         8.4 0.24            118            233 234 
 CHI  HZ EP        714 47.33                             114   -0.20 8  248 195 
 CHI  HE ES        715 15.66                             114   -0.54 8  248 195 
 HEL  HZ EP        714 50.55                             112    0.50 8  271 256 
 HEL  HN ES        715 20.49                             112   -0.20 8  271 256 
 HEL  HZ I         715 27.74         4.6 0.20            114            271 256 
 GUY2CHZ EP        714 54.04                             109    0.52 7  300 235 
 GUY2CHN ES        715 27.25                             109    0.39 7  300 235 
 GUY2CHZ I         715 35.63         6.8 0.36                           300 235 
 RREF HZ EP        714 56.79                             108    0.69 7  320 229 
 RREF HN ES        715 30.76                             108   -0.70 7  320 229 
 RREF HZ I         715 40.61         3.9 0.32            111            320 229 
                                                                                
