 2010 1119 0307 22.0 L   6.944 -72.606  0.0  RSN  4 0.4 1.3LRSN                1
 GAP=233        0.66       3.2    10.0 10.5  0.1346E+02  0.6288E+02  0.1081E+02E
 Epicentro: CERRITO - SANTANDER                                                3
 ACTION:UP  10-12-17 16:53 OP:REBC STATUS:               ID:20101119030722 L   I
 2010-11-19-0304-57S.COL___126                                                 6
 STAT SP IPHASW D HRMM SECON CODA AMPLIT PERI AZIMU VELO SNR AR TRES W  DIS CAZ7
 BRR  HZ EP   2    3 7 41.04                              47    -0.9 5  124 279 
 BRR  HZ I         3 7 46.31         4.2 0.08                           124 279 
 BRR  HN ES   2    3 7 57.58                              47     0.1 5  124 279 
 RUS  HZ EP   1    3 7 43.02                              47     0.0 7  128 204 
 RUS  HE ES   1    3 7 59.64                              47     0.2 7  128 204 
 RUS  HZ I         3 8  2.65         4.1 0.42                           128 204 
 OCA  SZ EP   2    3 7 48.09                              47     0.0 5  163 331 
 OCA  SZ ES   2    3 8  9.00                              47     0.5 5  163 331 
 OCA  SZ I         3 8 12.82         7.4 0.22                           163 331 
 NOR  SZ EP   2    3 8  4.53                              37    -0.2 4  293 239 
                                                                                
