 2016 1219 0815  4.2 L   6.290 -73.653107.9  RSN  5 0.3 1.1LRSN                1
 GAP=162        0.78       4.4     3.7  6.7  0.8322E+01  0.9612E+01  0.2940E+01E
 Epicentro: SANTA HELENA DEL OPON - SANTANDER                                  3
 ACTION:UPD 17-01-11 20:16 OP:rebc STATUS:               ID:20161219081504 L   I
 OLDACT:REG 16-12-19 13:40 OP:cog  STATUS:               ID:20161219080747     3
 2016-12-19-0808-00M.COL___315                                                 6
 STAT SP IPHASW D HRMM SECON CODA AMPLIT PERI AZIMU VELO AIN AR TRES W  DIS CAZ7
 BAR2 EZ EP        815 21.21                             148    0.0510 61.8  57 
 BAR2 EZ ES        815 34.10                             148   -0.2410 61.8  57 
 BAR2 EZ I         815 35.32         6.1 0.42            149           61.8  57 
 RUS  HZ EP        815 22.61                             142    0.0510 76.8 125 
 RUS  HE ES        815 36.84                             142   -0.0110 76.8 125 
 BRR  HZ EP        815 22.75                             137   -0.2210 90.6 356 
 BRR  HE ES        815 37.96                             137    0.3910 90.6 356 
 BRR  HZ I         815 44.03         1.9 0.14            137           90.6 356 
 PTB  HZ EP        815 23.01                             136   -0.1910 93.1 287 
 PTB  HN ES        815 38.17                             136    0.1810 93.1 287 
 PTB  HZ I         815 40.38         3.8 0.34            138           93.1 287 
 ZAR  HZ EP        815 33.33                             115    0.56 9  188 315 
 ZAR  HN ES        815 54.46                             115   -0.57 9  188 315 
                                                                                
