 2011  119 0411 37.8 L   5.977 -73.417137.7  RSN 10 0.5 1.9LRSN                1
 GAP= 87        1.12       4.6     4.9 10.9 -0.7000E+01  0.2061E+02 -0.1633E+02E
 Epicentro: GAMBITA - SANTANDER                                                3
 ACTION:UP  11-02-08 08:41 OP:pat  STATUS:               ID:20110119041137 L   I
 2011-01-19-0409-44S.COL___137                                                 6
 STAT SP IPHASW D HRMM SECON CODA AMPLIT PERI AZIMU VELO SNR AR TRES W  DIS CAZ7
 RUS  HZ EP   1    411 57.24                             164    -0.1 8   38 104 
 RUS  HZ I         411 58.12         9.5 0.15                            38 104 
 RUS  HE ES   1    412 12.65                             164     0.2 8   38 104 
 BAR2 SZ EP   1    411 57.72                             151    -0.8 8   73  21 
 BAR2 SZ I         412 16.89        18.6 0.42                            73  21 
 BTL  SZ EP   1    412  0.66                             140    -0.2 8  105   9 
 YOP  SZ EP   1    412  2.15                             134    -0.5 8  130 122 
 YOP  SE ES   1    412 22.87                             134     0.8 8  130 122 
 YOP  SZ I         412 24.23        13.3 0.37                           130 122 
 CHI  HZ IP     D  412  5.20                             129     0.010  153 193 
 CHI  HE ES   1    412 25.60                             129    -0.9 7  153 193 
 CHI  HZ I         412 28.31         5.8 0.53                           153 193 
 NOR  SZ EP   1    412  6.55                             126     0.4 7  168 254 
 NOR  SN ES   1    412 28.43                             126     0.3 7  168 254 
 GRA  SZ EP   1    412 12.27                             118     0.4 7  222  18 
 GRA  SZ ES   1    412 38.75                             118     0.4 7  222  18 
 GRA  SZ I         412 42.85         8.8 0.41                           222  18 
 HEL  HZ EP   1    412 13.49                             117    -0.1 7  235 276 
 HEL  HN ES   1    412 40.76                             117    -0.6 7  235 276 
 HEL  HZ I         412 48.38         4.8 0.31                           235 276 
 RREF HZ EP   1    412 15.45                             116     0.5 6  245 241 
 RREF HE ES   1    412 44.77                             116     0.8 6  245 241 
 RREF HZ I         412 50.11         7.3 0.28                           245 241 
 OCA  SZ EP   1    412 14.88                             115    -0.1 6  250   2 
 OCA  SZ ES   1    412 43.83                             115    -0.1 6  250   2 
 OCA  SZ I         412 48.22        13.5 0.40                           250   2 
                                                                                
