 2012  119 0934 14.7 L   6.788 -73.149146.7  RSN  6 0.4 1.5LRSN                1
 GAP=137        0.89       5.0     6.1  7.7 -0.2637E+01  0.5412E+01  0.8793E+01E
 Epicentro: LOS SANTOS - SANTANDER                                             3
 ACTION:UP  12-02-03 08:18 OP:REBC STATUS:               ID:20120119093414 L   I
 2012-01-19-0930-00M.COL___187                                                 6
 STAT SP IPHASW D HRMM SECON CODA AMPLIT PERI AZIMU VELO SNR AR TRES W  DIS CAZ7
 BAR2 SZ EP        934 34.56                             171     0.110   22 190 
 BAR2 SZ ES   1    934 50.00                             171     0.2 7   22 190 
 BAR2 SZ I         934 51.36         6.1 0.29                            22 190 
 BRR  HZ EP        934 36.51                             152     0.510   72 300 
 BRR  HN ES   1    934 52.79                             152     0.2 7   72 300 
 BRR  HZ I         934 57.37        10.3 0.51                            72 300 
 PAM  SZ EP   1    934 37.30                             151     0.2 7   79  39 
 PAM  SE ES   1    934 53.83                             151    -0.8 7   79  39 
 RUS  HZ EP   1    934 38.03                             144    -0.4 7   99 176 
 RUS  HE ES   1    934 57.33                             144     0.3 7   99 176 
 PTB  HZ EP   1    934 41.56                             132    -0.2 7  147 259 
 PTB  HN ES   1    935  2.18                             132    -0.6 7  147 259 
 CHI  HZ EP   1    934 52.14                             117    -0.2 6  247 195 
 CHI  HN ES   1    935 21.62                             117     0.0 6  247 195 
 CHI  HZ I         935 32.05         1.5 0.51                           247 195 
                                                                                
