 2012  319 0434 28.8 L   5.768 -73.936105.3  RSN 10 0.5 1.7LRSN                1
 GAP=123        0.94       4.7     3.7  9.8 -0.7134E+01 -0.2990E+01  0.3987E+01E
 ACTION:UP  12-03-31 23:20 OP:EP   STATUS:               ID:20120319043428 L   I
 2012-03-19-0430-00M.COL___202                                                 6
 STAT SP IPHASW D HRMM SECON CODA AMPLIT PERI AZIMU VELO SNR AR TRES W  DIS CAZ7
 RUS  HZ EP   1    434 47.90                             135    -0.4 8   95  82 
 RUS  HE ES   2    435  3.30                             135    -0.3 5   95  82 
 PTB  HZ EP   1    434 47.50                             132    -0.9 8  103 326 
 PTB  HN ES   1    435  3.09                             132    -0.6 8  103 326 
 PTB  HZ I         435  5.25         6.1 0.31                           103 326 
 NOR  SZ EP   1    434 48.51                             131    -0.2 8  106 258 
 NOR  SN ES   1    435  4.60                             131     0.4 8  106 258 
 BAR2 SZ EP        434 50.63                             126     0.010  124  42 
 BAR2 SZ ES   1    435  8.08                             126     0.4 7  124  42 
 BAR2 SZ I         435  8.97        11.5 0.15                           124  42 
 BRR  HZ EP        434 52.93                             120    -0.110  150  10 
 BRR  HZ I         434 54.10        21.9 0.16                           150  10 
 BRR  HN ES   1    435 12.49                             120     0.6 7  150  10 
 HEL  HZ EP   1    434 57.29                             115     0.3 7  182 285 
 HEL  HN ES   1    435 19.19                             115     0.2 7  182 285 
 HEL  HZ I         435 23.51         4.5 0.32                           182 285 
 RREF HZ EP   2    434 57.38                             115     0.0 5  183 239 
 RREF HN ES   2    435 20.69                             115     0.9 5  183 239 
 RREF HZ I         435 24.31         5.6 0.23                           183 239 
 ZAR  HZ EP   1    434 59.79                             110    -0.5 6  216 332 
 ZAR  HN ES   2    435 24.99                             110     0.1 4  216 332 
 ZAR  HZ I         435 28.97         6.7 0.42                           216 332 
 PAM  SZ EP   1    435  2.29                             110     0.8 6  221  38 
 PAM  SN ES   2    435 27.29                             110     0.3 4  221  38 
 PRA  HN ES   2    435 31.93                             107    -0.1 4  250 205 
                                                                                
