 2017  319 0441 38.3 L   6.798 -73.109149.2  RSN  6 0.4 1.2LRSN                1
 GAP=141        0.92       4.9     5.1  6.9  0.4006E+01  0.8930E+01  0.1021E+01E
 Epicentro: LOS SANTOS - SANTANDER                                             3
 ACTION:UPD 17-05-25 18:42 OP:jn   STATUS:               ID:20170319044138 L   I
 OLDACT:UP  17-03-19 15:10 OP:cara STATUS:               ID:20170319043743     3
 OLDACT:REG 17-03-19 13:04 OP:cara STATUS:               ID:20170319043743     3
 2017-03-19-0438-00M.COL___406                                                 6
 STAT SP IPHASW D HRMM SECON CODA AMPLIT PERI AZIMU VELO AIN AR TRES W  DIS CAZ7
 BAR2 EZ ES        442 14.00                             170    0.0510 24.1 200 
 BRR  HZ EP        442  0.31                             152    0.3310 74.9 297 
 BRR  HN ES        442 17.15                             152    0.2310 74.9 297 
 BRR  HZ I         442 21.31         2.8 0.14            151           74.9 297 
 PAM  EZ EP        442  0.56                             152   -0.1310 75.1  37 
 PAM  EN ES        442 17.93                             152   -0.2710 75.1  37 
 RUS  HZ EP        442  2.73                             145    0.4210  100 178 
 RUS  HN ES        442 20.97                             145   -0.1010  100 178 
 RUS  HZ I         442 22.28         2.1 0.44            147            100 178 
 PTB  HZ EP        442  5.09                             132   -0.76 9  152 259 
 PTB  HN ES   3    442 25.67                             132   -1.71 2  152 259 
 PTB  HZ I         442 29.09         3.0 0.42            133            152 259 
 ZAR  HN ES        442 37.40                             123    0.29 8  208 292 
                                                                                
