 2013  119 0252 17.2 L   6.768 -73.152149.8  RSN  7 0.4 1.8LRSN                1
 GAP=137        0.89       4.9     5.3  8.5  0.8737E+00  0.8511E+01 -0.1075E+01E
 Epicentro: LOS SANTOS - SANTANDER                                             3
 ACTION:UPD 13-02-15 09:15 OP:ep   STATUS:               ID:20130119025217 L   I
 2013-01-19-0250-00M.COL___241                                                 6
 STAT SP IPHASW D HRMM SECON CODA AMPLIT PERI AZIMU VELO AIN AR TRES W  DIS CAZ7
 BAR2 SZ EP   1    252 37.44                             172    0.16 7 19.7 190 
 BAR2 SZ ES   1    252 53.16                             172    0.24 7 19.7 190 
 BRR  HZ EP     C  252 39.30                             153    0.4210 72.3 301 
 BRR  HN ES   1    252 56.51                             153    0.75 7 72.3 301 
 BRR  HZ I         253  1.59         9.8 0.16            150           72.3 301 
 PAM  SZ EP   1    252 40.22                             150    0.16 7 80.6  38 
 PAM  SN ES   1    252 57.51                             150   -0.36 7 80.6  38 
 PAM  SZ I         252 59.50         7.9 0.20            156           80.6  38 
 RUS  HZ EP   1    252 41.34                             145    0.20 7 97.1 175 
 RUS  HN ES   1    252 59.26                             145   -0.53 7 97.1 175 
 RUS  HZ I         253  1.45         5.5 0.40            150           97.1 175 
 PTB  HZ EP   1    252 44.11                             133   -0.30 7  146 260 
 PTB  HN ES   1    253  4.96                             133   -0.65 7  146 260 
 PTB  HZ I         253 11.26        10.9 0.28            133            146 260 
 OCA  HN ES   1    253  8.05                             130   -0.70 7  164 354 
 ZAR  HE ES   1    253 15.64                             123    0.06 6  205 293 
 ZAR  HZ I         253 21.95        11.0 0.54            124            205 293 
                                                                                
