 2014  519 0001  1.0 L   6.805 -73.168150.3  RSN  6 0.4 1.4LRSN                1
 GAP=133        0.78       3.5     4.5  6.5 -0.1529E+01  0.4875E+01  0.1886E+00E
 Epicentro: LOS SANTOS - SANTANDER                                             3
 ACTION:UPD 15-03-16 16:58 OP:nd   STATUS:               ID:20140519000101 L   I
 OLDACT:UP  14-05-19 13:59 OP:spq  STATUS:               ID:20140519000012     3
 OLDACT:REG 14-05-19 12:19 OP:spq  STATUS:               ID:20140519000012     3
 2014-05-19-0000-12M.COL___260                                                 6
 STAT SP IPHASW D HRMM SECON CODA AMPLIT PERI AZIMU VELO AIN AR TRES W  DIS CAZ7
 BRR  HZ EP   1    0 1 23.13                             154    0.63 7 68.7 299 
 BRR  HN ES        0 1 39.49                             154    0.2110 68.7 299 
 BRR  HZ I         0 1 43.60         4.8 0.34            153           68.7 299 
 PAM  SZ EP        0 1 24.04                             151    0.2810 78.5  41 
 PAM  SN ES        0 1 41.49                             151   -0.0310 78.5  41 
 PAM  SZ I         0 1 43.45         5.8 0.58            156           78.5  41 
 RUS  HZ EP   1    0 1 24.67                             144   -0.58 7  101 175 
 RUS  HN ES   1    0 1 43.98                             144   -0.19 7  101 175 
 RUS  HZ I         0 1 45.58         1.8 0.26            148            101 175 
 PTB  HZ EP        0 1 28.45                             133    0.32 9  145 258 
 PTB  HN ES   1    0 1 48.89                             133   -0.40 7  145 258 
 PTB  HZ I         0 1 55.46         2.4 0.16            134            145 258 
 OCA  HN ES        0 1 51.64                             131   -0.24 9  159 354 
 OCA  HZ I         0 1 55.76         4.1 0.26            134            159 354 
 SML  HZ EP   1    0 1 37.31                             118   -0.40 6  242 336 
 SML  HN ES   1    0 2  5.99                             118   -0.36 6  242 336 
                                                                                
