 2012  919 0445  7.7 L   6.797 -73.054141.7  RSN  4 0.1 1.5LRSN                1
 GAP=208        0.30       3.5     6.5  3.3  0.1590E+02  0.6734E+00  0.2201E+00E
 Epicentro: LOS SANTOS - SANTANDER                                             3
 ACTION:UPD 12-10-22 14:19 OP:ep   STATUS:               ID:20120919044507 L   I
 2012-09-19-0440-00M.COL___226                                                 6
 STAT SP IPHASW D HRMM SECON CODA AMPLIT PERI AZIMU VELO AIN AR TRES W  DIS CAZ7
 BAR2 SZ EP   1    445 27.10                             169    0.13 7 26.8 212 
 BAR2 SZ ES   1    445 41.93                             169   -0.03 7 26.8 212 
 BAR2 SZ I         445 43.06         8.3 0.16                          26.8 212 
 GIR2 SZ ES   1    445 42.07                             166   -0.02 7 34.7 334 
 BRR  HZ EP        445 28.95                             149   -0.0710 80.4 295 
 BRR  HZ I         445 29.35         4.7 0.32                          80.4 295 
 BRR  HN ES   1    445 45.67                             149    0.06 7 80.4 295 
 RUS  HZ EP   2    445 31.06                             143   -0.01 5  100 182 
 RUS  HN ES   1    445 49.24                             143   -0.02 7  100 182 
                                                                                
