 2015  219 0724 46.7 L   6.820 -73.133151.0  RSN 10 0.4 1.6LRSN                1
 GAP=137        0.87       3.4     5.2  6.4 -0.2887E+01  0.1939E+01  0.5423E+01E
 Epicentro: LOS SANTOS - SANTANDER                                             3
 ACTION:UPD 15-04-30 21:27 OP:nd   STATUS:               ID:20150219072446 L   I
 OLDACT:REG 15-02-19 12:35 OP:mh   STATUS:               ID:20150219071736     3
 2015-02-19-0717-36M.COL___290                                                 6
 STAT SP IPHASW D HRMM SECON CODA AMPLIT PERI AZIMU VELO AIN AR TRES W  DIS CAZ7
 BAR2 EZ EP        725  6.81                             170   -0.1710 25.8 192 
 BAR2 EZ ES   1    725 22.10                             170   -0.73 7 25.8 192 
 BAR2 EZ I         725 23.49        11.0 0.14            172           25.8 192 
 BRR  HZ EP     C  725  8.72                             153    0.3210 71.4 296 
 BRR  HN ES        725 25.50                             153    0.1410 71.4 296 
 BRR  HZ I         725 29.64         6.3 0.26            150           71.4 296 
 PAM  SZ EP   1    725  9.81                             153    0.51 7 74.8  40 
 PAM  SN ES   1    725 27.17                             153    0.22 7 74.8  40 
 PAM  SZ I         725 29.88         4.3 0.60            152           74.8  40 
 RUS  HZ EP        725 10.87                             144   -0.2210  103 177 
 RUS  HE ES        725 30.14                             144   -0.0010  103 177 
 RUS  HZ I         725 31.37         4.9 0.40            147            103 177 
 PTB  HZ EP   1    725 13.52                             133   -0.71 7  150 258 
 PTB  HE ES   1    725 35.25                             133   -0.48 7  150 258 
 PTB  HZ I         725 38.42         4.7 0.25            132            150 258 
 OCA  HN ES   1    725 37.33                             131   -0.14 7  158 353 
 OCA  HZ I         725 47.34         3.5 0.28            130            158 353 
 SPBC HZ EP        725 15.72                             130   -0.10 9  166 219 
 SPBC HE ES        725 39.38                             130    0.82 9  166 219 
 SPBC HZ I         725 42.74         5.7 0.20            130            166 219 
 CHI  HZ EP   1    725 25.04                             118    0.11 6  251 195 
 CHI  HE ES        725 54.72                             118   -0.06 8  251 195 
 CHI  HZ I         725 57.67         2.2 0.30            119            251 195 
 GUY2CHZ EP   4    725 32.97                             113    2.17 0  304 235 
 GUY2CHN ES   4    726  8.28                             113    3.06 0  304 235 
 GUY2CHZ I         726 12.19         1.9 0.58                           304 235 
 PRA  HN ES   2    726 22.77                             107   -0.04 3  395 210 
 PRA  HZ I         726 27.03         2.1 0.66            108            395 210 
                                                                                
