 2013  619 0455 48.8 L   6.825 -73.137146.0  RSN 13 0.5 2.4LRSN                1
 GAP=184        0.96       3.3     5.1  6.0  0.5969E+00  0.7989E+01  0.2808E+01E
 Epicentro: LOS SANTOS - SANTANDER                                             3
 ACTION:UPD 14-01-08 09:55 OP:ep   STATUS:               ID:20130619045548 L   I
 OLDACT:REG 13-06-19 07:10 OP:carl STATUS:               ID:20130619044959     3
 2013-06-19-0449-59M.COL___261                                                 6
 STAT SP IPHASW D HRMM SECON CODA AMPLIT PERI AZIMU VELO AIN AR TRES W  DIS CAZ7
 BAR2 SZ IP     D  456  8.54                             169   -0.0210 26.2 191 
 BAR2 SZ ES   1    456 23.89                             169   -0.05 7 26.2 191 
 BAR2 SZ I         456 25.15        65.1 0.14            169           26.2 191 
 GIR2 SZ IP     C  456  8.55                             168    0.0810 28.8 347 
 GIR2 SZ ES   1    456 23.89                             168    0.10 7 28.8 347 
 GIR2 SZ I         456 25.35        31.5 0.10            165           28.8 347 
 BRR  HZ IP     C  456 10.33                             153    0.3410 70.8 296 
 BRR  HN ES   1    456 27.41                             153    0.92 7 70.8 296 
 BRR  HZ I         456 31.25        92.2 0.44            149           70.8 296 
 RUS  HZ IP     C  456 12.50                             143   -0.3110  103 177 
 RUS  HN ES   1    456 31.20                             143   -0.30 7  103 177 
 RUS  HZ I         456 32.82        15.8 0.50            146            103 177 
 PTB  HZ EP   4    456 15.06                             132   -0.90 0  149 258 
 PTB  HE ES   1    456 37.07                             132   -0.05 7  149 258 
 PTB  HZ I         456 37.34        39.1 0.14            130            149 258 
 OCA  HZ EP   1    456 16.85                             130   -0.07 7  158 353 
 OCA  HN ES   1    456 38.47                             130   -0.35 7  158 353 
 OCA  HZ I         456 43.72        26.5 0.20            130            158 353 
 ZAR  HZ EP   1    456 21.46                             122    0.17 6  204 291 
 ZAR  HE ES   1    456 45.11                             122   -1.49 6  204 291 
 ZAR  HZ I         456 52.12        41.3 0.32            121            204 291 
 NOR  HZ EP   1    456 24.88                             118    0.04 6  237 234 
 NOR  HN ES   4    456 53.84                             118    0.92 0  237 234 
 NOR  HZ I         456 57.28        16.5 0.26            118            237 234 
 SML  HZ EP   1    456 24.84                             118   -0.41 6  242 335 
 SML  HE ES   1    456 53.75                             118    0.10 6  242 335 
 SML  HZ I         457  2.42        37.8 0.22            117            242 335 
 CHI  HZ EP   1    456 26.78                             117   -0.09 6  252 195 
 CHI  HE ES   1    456 56.20                             117   -0.33 6  252 195 
 CHI  HZ I         456 58.46        19.0 0.36            118            252 195 
 ROSC BZ EP   4    456 28.15                             116    0.87 0  256 211 
 ROSC BE ES   4    456 59.89                             116    2.62 0  256 211 
 HEL  HZ EP   1    456 30.68                             115    1.44 6  274 255 
 HEL  HN ES   1    457  0.02                             115   -0.74 6  274 255 
 HEL  HZ I         457  6.17        12.2 0.42            115            274 255 
 GUY2CHZ EP   1    456 33.12                             112    0.39 5  304 234 
 GUY2CHN ES   1    457  7.74                             112    0.78 5  304 234 
 GUY2CHZ I         457 16.65        11.9 0.42                           304 234 
 PRA  HZ EP   1    456 42.58                             106   -0.12 4  395 209 
 PRA  HN ES   1    457 24.64                             106   -0.08 4  395 209 
 PRA  HZ I         457 29.44        13.0 0.54            107            395 209 
                                                                                
