 2015  319 0710 14.0 L   6.836 -73.176140.7  RSN  7 0.5 1.8LRSN                1
 GAP=131        1.35       4.6     6.5  8.5 -0.5312E+00  0.8856E+01 -0.9266E+01E
 Epicentro: ZAPATOCA - SANTANDER                                               3
 ACTION:UPD 15-04-30 16:27 OP:nd   STATUS:               ID:20150319071014 L   I
 OLDACT:REG 15-03-19 12:56 OP:stll STATUS:               ID:20150319070738     3
 2015-03-19-0707-38M.COL___275                                                 6
 STAT SP IPHASW D HRMM SECON CODA AMPLIT PERI AZIMU VELO AIN AR TRES W  DIS CAZ7
 BAR2 EZ EP        710 33.23                             169    0.1110 27.0 181 
 BAR2 EZ ES        710 47.92                             169   -0.1010 27.0 181 
 BAR2 EZ I         710 49.43         9.0 0.14            170           27.0 181 
 BRR  HZ EP        710 34.98                             153    0.6410 66.3 297 
 BRR  HZ I         710 35.14        10.1 0.30            151           66.3 297 
 BRR  HN ES        710 51.03                             153    0.8310 66.3 297 
 PAM  SZ EP        710 35.97                             150    0.3210 76.6  43 
 PAM  SZ I         710 36.29        25.5 0.20            152           76.6  43 
 PAM  SN ES        710 52.32                             150   -0.2010 76.6  43 
 RUS  HZ EP        710 38.20                             141    0.6110  105 174 
 RUS  HN ES        710 55.02                             141   -0.9610  105 174 
 RUS  HZ I         710 57.14         4.2 0.22            144            105 174 
 PTB  HZ EP        710 40.08                             131   -0.27 9  145 257 
 PTB  HN ES        711  0.71                             131   -0.18 9  145 257 
 PTB  HZ I         711  5.77         5.6 0.18            131            145 257 
 OCA  HZ EP        710 41.72                             129    0.20 9  156 354 
 OCA  HN ES        711  2.92                             129   -0.06 9  156 354 
 OCA  HZ I         711  8.11        16.3 0.14            130            156 354 
 SML  HZ EP        710 49.36                             117   -0.45 8  239 336 
 SML  HN ES        711 16.68                             117   -1.05 8  239 336 
 SML  HZ I         711 21.24        11.6 0.10            117            239 336 
                                                                                
