 2014 1019 0814 26.3 L   6.756 -73.120153.3  RSN  5 0.4 1.3LRSN                1
 GAP=142        0.88       4.7     4.5  8.7 -0.2306E+01  0.1193E+02 -0.8706E+01E
 Epicentro: LOS SANTOS - SANTANDER                                             3
 ACTION:UPD 14-11-29 23:51 OP:nd   STATUS:               ID:20141019081426 L   I
 OLDACT:UP  14-10-19 17:12 OP:mh   STATUS:               ID:20141019080739d    3
 OLDACT:DUP 14-10-19 17:12 OP:mh   STATUS:               ID:20141019080739d    3
 2014-10-19-0807-38M.COL___265                                                 6
 STAT SP IPHASW D HRMM SECON CODA AMPLIT PERI AZIMU VELO AIN AR TRES W  DIS CAZ7
 PAM  SZ EP        814 48.95                             151   -0.5410 79.5  36 
 PAM  SN ES        815  7.92                             151    0.3810 79.5  36 
 PAM  SZ I         815  8.32         1.4 0.22            153           79.5  36 
 RUS  HZ EP   1    814 50.49                             147   -0.01 7 95.6 178 
 RUS  HN ES   1    815  9.21                             147   -0.14 7 95.6 178 
 RUS  HZ I         815 10.72         2.1 0.41            151           95.6 178 
 PTB  HZ EP        814 54.78                             133    0.67 9  150 261 
 PTB  HN ES     C  815 15.43                             133   -0.33 9  150 261 
 PTB  HZ I         815 18.73         2.4 0.16            133            150 261 
 ZAR  HN ES        815 25.83                             123    0.03 8  209 293 
 ZAR  HZ I         815 34.22         2.4 0.61            123            209 293 
 SML  HZ EP        815  4.06                             118    0.06 8  249 335 
 SML  HN ES   1    815 33.08                             118   -0.29 6  249 335 
 SML  HZ I         815 41.04         1.8 0.60            119            249 335 
                                                                                
