 2015  219 0548 12.1 L   6.831 -73.162151.4  RSN  6 0.5 1.6LRSN                1
 GAP=143        1.37       7.1     8.4 11.3 -0.3277E+02 -0.9367E+01  0.1962E+02E
 Epicentro: LOS SANTOS - SANTANDER                                             3
 ACTION:UPD 15-04-30 21:27 OP:nd   STATUS:               ID:20150219054812 L   I
 OLDACT:UP  15-02-19 18:26 OP:mh   STATUS:               ID:20150219053742     3
 OLDACT:REG 15-02-19 12:31 OP:mh   STATUS:               ID:20150219053742     3
 2015-02-19-0537-42M.COL___290                                                 6
 STAT SP IPHASW D HRMM SECON CODA AMPLIT PERI AZIMU VELO AIN AR TRES W  DIS CAZ7
 BAR2 EZ EP        548 32.68                             170    0.1910 26.4 185 
 BAR2 EZ I         548 48.39        10.1 0.28            167           26.4 185 
 BRR  HZ EP     C  548 34.45                             154    0.7410 68.0 297 
 BRR  HN ES        548 51.20                             154    0.6510 68.0 297 
 BRR  HZ I         548 55.73         6.6 0.25            158           68.0 297 
 PAM  SZ EP        548 35.39                             152    0.5410 76.0  42 
 PAM  SN ES        548 52.10                             152   -0.4910 76.0  42 
 PAM  SZ I         548 54.18         5.7 0.16            154           76.0  42 
 PTB  HZ EP        548 38.69                             133   -0.76 9  147 257 
 PTB  HN ES        549  0.94                             133    0.16 9  147 257 
 PTB  HZ I         549  5.67         4.1 0.15            136            147 257 
 OCA  HZ EP        548 40.51                             132   -0.03 9  157 354 
 OCA  HN ES        549  1.97                             132   -0.74 9  157 354 
 OCA  HZ I         549  6.22         5.1 0.22            135            157 354 
 SPBC HZ EP        548 41.30                             130    0.11 9  165 218 
 SPBC HN ES        549  3.21                             130   -0.67 9  165 218 
 SPBC HZ I         549  6.01         4.0 0.22            131            165 218 
                                                                                
