 2015  319 0323 40.7 L   6.027 -73.995 91.1  RSN 27 0.6 2.8LRSN                1
 GAP= 37        1.57       2.5     2.8  6.9 -0.2048E+01  0.2186E+01 -0.8507E+00E
 Epicentro: LA BELLEZA - SANTANDER                                             3
 ACTION:UPD 15-04-30 16:27 OP:nd   STATUS:               ID:20150319032340 L   I
 OLDACT:DUP 15-03-19 15:24 OP:stll STATUS:               ID:20150319031748d    3
 2015-03-19-0317-47M.COL___281                                                 6
 STAT SP IPHASW D HRMM SECON CODA AMPLIT PERI AZIMU VELO AIN AR TRES W  DIS CAZ7
 SPBC HZ IP     D  323 54.53                             153    0.1010 42.3 192 
 SPBC HN ES        324  5.23                             153    0.1010 42.3 192 
 SPBC HZ I         324  6.48       552.9 0.18            148           42.3 192 
 PTB  HZ IP     D  323 56.41                             137   -0.3310 76.3 318 
 PTB  HN ES        324  8.95                             137   -0.3010 76.3 318 
 PTB  HZ I         324 10.25       250.3 0.30            128           76.3 318 
 RUS  HZ IP     D  323 59.54                             128   -0.1910  102  98 
 RUS  HN ES        324 13.85                             128   -0.7210  102  98 
 BAR2 EZ IP     D  324  0.81                             126    0.6910  109  55 
 BAR2 EZ ES        324 16.34                             126    1.0710  109  55 
 NOR  HZ EP     C  323 59.21                             126   -0.6810  110 242 
 NOR  HN ES        324 13.91                             126   -0.9510  110 242 
 NOR  HZ I         324 16.70       356.8 0.32            118            110 242 
 BRR  HZ IP     D  324  1.66                             122    0.4210  123  15 
 BRR  HZ I         324  1.84       112.1 0.14            115            123  15 
 BRR  HE ES        324 18.08                             122    0.8210  123  15 
 ROSC BZ EP     C  324  3.44                             119    0.35 9  136 195 
 ROSC BN ES        324 19.75                             119   -0.81 9  136 195 
 ROSC BZ I         324 23.85        84.1 0.40            114            136 195 
 HEL  HZ EP     C  324  6.68                             113   -0.21 9  171 276 
 HEL  HZ I         324  8.43       102.8 0.40            108            171 276 
 HEL  HN ES        324 28.24                             113    0.93 9  171 276 
 GUY2CHZ IP     C  324  7.64                             113    0.04 9  176 240 
 GUY2CHN ES        324 28.16                             113   -0.42 9  176 240 
 GUY2CHZ I         324 32.92        90.7 0.34                           176 240 
 ZAR  HZ EP        324  8.34                             111   -0.07 9  188 330 
 ZAR  HE ES        324 31.05                             111    1.04 9  188 330 
 ZAR  HZ I         324 34.82       144.9 0.28            106            188 330 
 PAM  SZ EP        324 11.04                             109    0.20 9  204  45 
 PAM  SZ I         324 13.78        44.4 0.12            105            204  45 
 PAM  SE ES        324 33.90                             109   -0.45 9  204  45 
 VIL  SZ EP        324 11.48                             108   -0.15 8  214 171 
 VIL  SN ES        324 37.25                             108    1.50 8  214 171 
 VIL  SZ I         324 41.85        64.7 0.32            104            214 171 
 TOL  SZ EP        324 12.03                             108   -0.13 8  217 223 
 TOL  SE ES        324 37.05                             108    0.35 8  217 223 
 TOL  SZ I         324 41.87        56.2 0.22            103            217 223 
 CBOC HZ EP        324 13.30                             107    0.48 8  224 265 
 CBOC HZ I         324 16.58        21.8 0.40            103            224 265 
 CBOC HE ES        324 37.74                             107   -0.12 8  224 265 
 ANIL HZ EP        324 13.80                             107    0.06 8  231 223 
 ANIL HE ES        324 40.09                             107    0.57 8  231 223 
 TAM  HZ EP        324 15.67                             105    0.19 8  248  79 
 TAM  HN ES        324 41.40                             105   -1.21 8  248  79 
 TAM  HZ I         324 45.83        37.5 0.22            102            248  79 
 URE  HZ EP        324 15.04                             105   -1.29 8  255 318 
 URE  HE ES        324 43.20                             105   -0.93 8  255 318 
 URE  HZ I         324 52.63        92.6 0.22            101            255 318 
 OCA  HZ EP        324 16.41                             105   -0.13 8  256  17 
 OCA  HE ES        324 43.77                             105   -0.72 8  256  17 
 OCA  HZ I         324 55.31       112.1 0.26            101            256  17 
 DBB  SZ EP        324 18.34                             104    0.38 8  268 294 
 DBB  SZ I         324 51.39        95.4 0.34            100            268 294 
 ORTC HZ EP        324 18.12                             104   -0.25 8  272 211 
 ORTC HN ES        324 48.29                             104    0.53 8  272 211 
 ORTC HZ I         324 53.65        47.6 0.22            100            272 211 
 PRA  HZ EP        324 18.51                             104   -0.11 8  274 201 
 PRA  HE ES        324 47.91                             104   -0.28 8  274 201 
 PRA  HZ I         324 54.88        30.5 0.54            100            274 201 
 PTGC HZ EP   9 D  324 19.58                             103   -0.74 0  289 134 
 PTGC HZ I         324 20.19        23.6 0.38            100            289 134 
 PTGC HN ES        324 49.59                                   -0.90 7  289 134 
 SML  HZ EP        324 22.54                             102    0.06 7  307 358 
 SML  HE ES        324 55.43                             102    0.36 7  307 358 
 SJC  HZ EP   9    324 38.15                              98   -1.51 0  447 343 
 SJC  HN ES        325 21.55                                   -2.59 5  447 343 
 SJC  HZ I         325 26.39        10.8 0.40             96            447 343 
 SDV  BZ EP   9    324 44.67                              97   -0.04 0  487  49 
 SDV  BE ES        325 32.48                                   -2.12 4  487  49 
 SDV  BZ I         325 38.91         9.8 0.30             95            487  49 
 CRJC HZ EP   9    324 54.82                              96    0.64 0  566  12 
 CRJC HN ES        325 51.22                                   -0.92 3  566  12 
 CRJC HZ I         326  3.92        14.8 0.40             94            566  12 
 URI  HZ EP   9    325  4.48                              95   -1.80 0  665  19 
 URI  HE ES        326  9.30                                   -1.93 2  665  19 
                                                                                
