 2015 1119 0213 27.3 L   6.832 -73.113147.0  RSN 11 0.4 1.7LRSN                1
 GAP=139        0.99       3.3     4.3  5.7 -0.1697E+00  0.1053E+02  0.9909E+00E
 Epicentro: LOS SANTOS - SANTANDER                                             3
 ACTION:UPD 15-12-28 16:11 OP:cam  STATUS:               ID:20151119021327 L   I
 OLDACT:REG 15-11-19 12:58 OP:ak   STATUS:               ID:20151119020749     3
 2015-11-19-0207-49M.COL___307                                                 6
 STAT SP IPHASW D HRMM SECON CODA AMPLIT PERI AZIMU VELO AIN AR TRES W  DIS CAZ7
 BAR2 EZ EP        213 46.98                             169   -0.1410 27.6 196 
 BAR2 EZ ES        214  2.45                             169   -0.1710 27.6 196 
 BAR2 EZ I         214  3.62        11.2 0.22            168           27.6 196 
 PAM  EZ IP        213 49.99                             153    0.6810 72.4  39 
 PAM  EN ES        214  6.85                             153    0.3310 72.4  39 
 PAM  EZ I         214 10.06         7.7 0.32            156           72.4  39 
 BRR  HZ EP        213 48.80                             152    0.1710 72.8 295 
 BRR  HE ES        214  5.46                             152    0.1610 72.8 295 
 BRR  HZ I         214  9.00         7.9 0.26            150           72.8 295 
 RUS  HZ EP        213 51.02                             143   -0.3510  104 178 
 RUS  HN ES        214  9.80                             143   -0.3810  104 178 
 RUS  HZ I         214 10.84         6.0 0.38            146            104 178 
 ZAR  HZ EP        213 59.28                             122   -0.71 8  206 291 
 ZAR  HE ES        214 25.04                             122   -0.48 8  206 291 
 ZAR  HZ I         214 33.92         4.6 0.12            123            206 291 
 SML  HZ EP        214  3.59                             118   -0.18 8  242 334 
 SML  HE ES        214 31.80                             118   -0.45 8  242 334 
 HEL  HZ EP   2    214  8.39                             115    0.38 4  276 255 
 HEL  HN ES        214 40.57                             115    0.77 7  276 255 
 HEL  HZ I         214 47.26         3.8 0.38            116            276 255 
 GUY2CHZ EP   1    214 12.18                             112    0.70 5  306 235 
 GUY2CHN ES        214 46.62                             112    0.64 7  306 235 
 GUY2CHZ I         214 57.24         3.4 0.46                           306 235 
 CBOC HZ EP        214 15.13                             110    0.39 7  338 252 
 MON  HZ EP   4    214 13.74                             109   -2.64 0  354 308 
 MON  HE ES   4    214 52.78                             109   -1.92 0  354 308 
 MON  HZ I         214 54.77         1.3 0.32            110            354 308 
 PRA  HZ EP        214 21.12                             106   -0.26 6  397 210 
 PRA  HE ES        215  3.20                             106   -0.40 6  397 210 
 PRA  HZ I         215  8.77         3.0 0.22            108            397 210 
                                                                                
