 2012 1119 0607  7.3 L   6.408 -73.800 88.4  RSN  4 0.2 1.0LRSN                1
 GAP=156        0.47       3.1     2.7  5.9  0.3744E+01  0.1076E+01  0.4776E+00E
 Epicentro: SANTA HELENA DEL OPON - SANTANDER                                  3
 ACTION:UPD 12-12-05 15:34 OP:}ep  STATUS:               ID:20121119060707 L   I
 2012-11-19-0600-00M.COL___234                                                 6
 STAT SP IPHASW D HRMM SECON CODA AMPLIT PERI AZIMU VELO AIN AR TRES W  DIS CAZ7
 PTB  HZ EP        6 7 22.72                             137   -0.2010 74.1 281 
 PTB  HN ES   1    6 7 35.24                             137    0.15 7 74.1 281 
 BRR  HZ EP        6 7 23.03                             135   -0.1910 77.9   7 
 BRR  HE ES   1    6 7 35.74                             135    0.11 7 77.9   7 
 BRR  HZ I         6 7 37.35         2.6 0.10                          77.9   7 
 RUS  HZ EP   1    6 7 26.06                             129    0.35 7 97.7 126 
 RUS  HN ES   1    6 7 39.98                             129   -0.08 7 97.7 126 
 RUS  HN I         6 7 42.61         2.7 0.21                          97.7 126 
 ZAR  HZ EP   1    6 7 32.70                             113    0.16 7  167 316 
 ZAR  HN ES   2    6 7 52.36                             113    0.14 5  167 316 
 ZAR  HZ I         6 7 55.14         2.2 0.28                           167 316 
                                                                                
