 2014  719 0914 27.3 L   6.815 -73.137146.1  RSN 28 0.6 2.9LRSN                1
 GAP= 71        1.18       2.6     3.1  5.7 -0.1029E+01  0.6119E+01  0.1395E+01E
 Epicentro: LOS SANTOS - SANTANDER                                             3
 ACTION:UPD 15-03-16 20:45 OP:nd   STATUS:               ID:20140719091427 L   I
 OLDACT:REG 14-07-19 13:21 OP:fm   STATUS:               ID:20140719090814     3
 2014-07-19-0908-14M.COL___266                                                 6
 STAT SP IPHASW D HRMM SECON CODA AMPLIT PERI AZIMU VELO AIN AR TRES W  DIS CAZ7
 BAR2 SZ EP     C  914 47.03                             170    0.0510 25.2 192 
 BAR2 SZ ES   1    915  2.29                             170   -0.06 7 25.2 192 
 BAR2 SZ I         915  4.73       236.8 0.28            168           25.2 192 
 PAM  SZ EP     C  914 49.78                             151    0.3710 75.5  40 
 PAM  SN ES        915  6.88                             151    0.2110 75.5  40 
 PAM  SZ I         915  9.13       132.4 0.20            153           75.5  40 
 RUS  HZ EP        914 50.91                             143   -0.2610  102 177 
 RUS  HN ES        915  9.71                             143   -0.1010  102 177 
 RUS  HZ I         915 10.83        56.6 0.46            143            102 177 
 PTB  HZ EP        914 53.55                             132   -0.84 9  149 258 
 PTB  HN ES        915 14.78                             132   -0.75 9  149 258 
 PTB  HZ I         915 20.85        98.3 0.22            129            149 258 
 TAM  HZ EP        914 55.11                             131    0.18 9  155 106 
 TAM  HN ES        915 16.79                             131    0.29 9  155 106 
 TAM  HZ I         915 18.16        63.4 0.42            132            155 106 
 OCA  HZ EP        914 55.40                             130   -0.07 9  159 353 
 OCA  HN ES        915 17.19                             130   -0.26 9  159 353 
 OCA  HZ I         915 25.47        80.9 0.28            129            159 353 
 SPBC HZ EP     D  914 55.82                             129   -0.16 9  165 219 
 SPBC HN ES        915 18.91                             129    0.54 9  165 219 
 SPBC HZ I         915 23.07       129.0 0.40            127            165 219 
 ZAR  HZ EP        914 59.57                             122   -0.20 9  204 292 
 ZAR  HN ES        915 25.23                             122    0.11 9  204 292 
 ZAR  HZ I         915 31.27        91.8 0.30            120            204 292 
 NOR  HZ EP        915  2.86                             118   -0.35 8  236 234 
 NOR  HN ES        915 30.62                             118   -0.62 8  236 234 
 NOR  HZ I         915 38.20        61.3 0.20            117            236 234 
 SML  HZ EP        915  3.30                             118   -0.50 8  243 335 
 SML  HE ES        915 33.03                             118    0.74 8  243 335 
 SML  HZ I         915 36.74        80.4 0.46            116            243 335 
 CHI  HZ EP        915  4.98                             117   -0.22 8  251 195 
 CHI  HN ES        915 34.15                             117   -0.62 8  251 195 
 CHI  HZ I         915 40.37        30.6 0.28            116            251 195 
 ROSC BZ EP   1    915  6.53                             116    0.91 6  255 211 
 ROSC BN ES   4    915 37.75                             116    2.21 0  255 211 
 ROSC BZ I         915 44.80        89.3 0.45            115            255 211 
 HEL  HZ EP        915  8.07                             115    0.41 8  273 256 
 HEL  HN ES        915 39.39                             115    0.24 8  273 256 
 HEL  HZ I         915 45.65        36.8 0.34            113            273 256 
 GUY2CHZ EP        915 11.82                             112    0.72 7  303 235 
 GUY2CHE ES        915 47.41                             112    2.13 7  303 235 
 GUY2CHZ I         915 53.87        71.5 0.76                           303 235 
 VIL  SZ EP        915 10.06                             112   -0.86 7  305 192 
 VIL  SE ES        915 44.47                             112   -0.48 7  305 192 
 VIL  SZ I         915 55.71        41.8 0.30            111            305 192 
 PTGC HZ EP   4 D  915  9.91                             111   -1.37 0  310 159 
 PTGC HE ES   4    915 43.74                             111   -1.87 0  310 159 
 PTGC HZ I         915 48.06        14.3 0.28            111            310 159 
 RREF HZ EP   4    915 15.08                             111    1.44 0  324 229 
 RREF HN ES   4    915 52.24                             111    2.43 0  324 229 
 RREF HZ I         915 55.63        43.3 0.22            110            324 229 
 CBOC HZ EP        915 14.68                             110    0.31 7  335 252 
 CBOC HE ES        915 50.53                             110   -0.57 7  335 252 
 CBOC HZ I         916  0.10        14.0 0.40            109            335 252 
 DBB  SZ EP        915 14.52                             109   -0.35 7  340 274 
 DBB  SZ ES   1    915 51.23                             109   -0.75 5  340 274 
 TOL  SZ EP        915 16.36                             109    0.60 6  345 225 
 TOL  SN ES        915 54.32                             109    0.74 6  345 225 
 ARGC HZ EP        915 17.09                             108    0.29 6  358 340 
 ARGC HN ES   4    915 56.89                             108    1.46 0  358 340 
 ARGC HZ I         916  7.85        22.3 0.40            107            358 340 
 ANIL HZ EP   4    915 18.93                             108    1.62 0  359 224 
 ANIL HN ES   4    915 57.75                             108    1.41 0  359 224 
 PRA  HZ EP        915 20.37                             106   -0.67 6  394 210 
 PRA  HN ES        916  3.49                             106    0.52 6  394 210 
 PRA  HZ I         916  8.75        46.9 0.36            106            394 210 
 ORTC HZ EP        915 21.30                             106   -0.13 6  397 216 
 ORTC HN ES        916  4.14                             106    0.47 6  397 216 
 ORTC HZ I         916 11.72        28.3 0.60            105            397 216 
 PAL  HZ EP   1    915 22.76                             106    0.11 4  407 239 
 PAL  HZ I         916 10.59        35.3 0.14            105            407 239 
 SJC  HZ EP   4    915 21.18                             106   -1.57 0  408 327 
 SJC  HN ES   4    916  2.36                             106   -3.65 0  408 327 
 SJC  HZ I         916 14.96        11.1 0.32            105            408 327 
 YOT  HZ EP   4    915 29.56                             103   -0.99 0  474 229 
 SMAR HZ EP   4    915 31.99                             102   -1.00 0  496 346 
 SMAR HN ES   4    916 19.83                             102   -4.42 0  496 346 
 SMAR HZ I         916 26.53        17.5 0.42            102            496 346 
 CAP2 HN ES   4    916 19.02                             102   -7.87 0  508 294 
 CAP2 HZ I         916 24.59         6.1 0.22            101            508 294 
 MACC HZ EP   4    915 33.70                             102   -2.51 0  522 189 
 MACC HE ES   4    916 26.14                             102   -3.84 0  522 189 
 MACC HZ I         916 31.47         5.0 0.44            101            522 189 
                                                                                
