 2016  219 0434 24.7 L   6.775 -73.129151.0  RSN  6 0.4 1.3LRSN                1
 GAP=237        1.09       5.5     7.0  7.3  0.7977E+01  0.4218E+01  0.9077E+01E
 Epicentro: LOS SANTOS - SANTANDER                                             3
 ACTION:UPD 16-03-04 21:27 OP:rebc STATUS:               ID:20160219043424 L   I
 OLDACT:DUP 16-02-19 16:52 OP:drio STATUS:               ID:20160219042751d    3
 2016-02-19-0427-50M.COL___316                                                 6
 STAT SP IPHASW D HRMM SECON CODA AMPLIT PERI AZIMU VELO AIN AR TRES W  DIS CAZ7
 BAR2 EZ EP        434 44.76                             172   -0.2010 21.1 196 
 BAR2 EZ ES        435  0.87                             172    0.1310 21.1 196 
 BAR2 EZ I         435  6.88         3.0 0.28            168           21.1 196 
 BRR  HZ EP        434 46.75                             152    0.1210 74.2 300 
 BRR  HE ES        435  4.28                             152    0.5810 74.2 300 
 BRR  HZ I         435  8.50         4.5 0.24            152           74.2 300 
 RUS  HZ EP        434 48.97                             146    0.1510 97.7 177 
 RUS  HE ES        435  6.90                             146   -0.6910 97.7 177 
 RUS  HZ I         435  9.87         1.2 0.38            148           97.7 177 
 PTB  HZ EP        434 51.68                             133   -0.58 9  149 260 
 PTB  HN ES        435 13.08                             133   -0.65 9  149 260 
 PTB  HZ I         435 20.30         4.5 0.40            134            149 260 
 SPBC HZ EP        434 53.84                             130    0.27 9  162 220 
 SPBC HN ES        435 16.54                             130    0.49 9  162 220 
 SPBC HZ I         435 22.91         5.9 0.38            132            162 220 
 CHI  HZ EP        435  2.73                             118    0.22 8  247 196 
 CHI  HN ES        435 32.28                             118    0.31 8  247 196 
                                                                                
