 2012  119 0105 39.5 L   6.824 -73.369109.7  RSN 10 0.4 1.9LRSN                1
 GAP= 89        0.84       3.4     3.7  6.2  0.2476E-01  0.8175E+01  0.3019E+01E
 Epicentro: SAN VICENTE DE CHUCURI - SANTANDER                                 3
 ACTION:UP  12-02-03 08:18 OP:REBC STATUS:               ID:20120119010539 L   I
 2012-01-19-0100-00M.COL___187                                                 6
 STAT SP IPHASW D HRMM SECON CODA AMPLIT PERI AZIMU VELO SNR AR TRES W  DIS CAZ7
 BAR2 SZ EP        1 5 55.33                             162     0.210   33 141 
 BAR2 SZ ES   1    1 6  7.35                             162     0.1 7   33 141 
 BAR2 SZ I         1 6  8.93        93.2 0.40                            33 141 
 BRR  HZ EP   1    1 5 55.36                             154    -0.1 7   49 310 
 BRR  HE ES   1    1 6  8.14                             154     0.2 7   49 310 
 BRR  HZ I         1 6  9.86        33.5 0.14                            49 310 
 PAM  SZ EP   1    1 5 59.28                             137     0.0 7   93  52 
 PAM  SN ES   1    1 6 14.83                             137     0.1 7   93  52 
 PAM  SZ I         1 6 18.76         7.4 0.34                            93  52 
 RUS  HZ EP   1    1 6  0.24                             132    -0.3 7  108 163 
 RUS  HN ES   1    1 6 16.48                             132    -0.4 7  108 163 
 PTB  HN ES   2    1 6 18.18                             127    -0.4 5  124 255 
 OCA  SZ EP   1    1 6  4.15                             121    -0.7 7  157   2 
 OCA  SZ I         1 6 25.96        18.2 0.23                           157   2 
 ZAR  HZ EP   1    1 6  7.31                             116     0.1 7  180 294 
 ZAR  HN ES   1    1 6 29.17                             116     0.3 7  180 294 
 ZAR  HZ I         1 6 31.74        10.9 0.36                           180 294 
 NOR  SZ EP   1    1 6 11.14                             112    -0.2 6  217 230 
 NOR  SN ES   1    1 6 35.43                             112    -0.8 6  217 230 
 NOR  SZ I         1 6 39.40         1.0 0.23                           217 230 
 CHI  HZ EP   1    1 6 15.70                             109     0.6 6  246 189 
 CHI  HN ES   1    1 6 43.49                             109     0.5 6  246 189 
 CHI  HZ I         1 6 49.34         7.0 0.32                           246 189 
 HEL  HZ EP   1    1 6 16.00                             108     0.6 6  249 254 
 HEL  HN ES   2    1 6 43.66                             108     0.2 4  249 254 
 HEL  HZ I         1 6 47.09         5.3 0.21                           249 254 
                                                                                
