 2014  319 0452  9.0 L   6.722 -73.167146.0  RSN  6 0.3 1.6LRSN                1
 GAP=198        0.71       5.1     5.2  5.9  0.1192E+02  0.5537E+01 -0.8181E+01E
 Epicentro: VILLANUEVA - SANTANDER                                             3
 ACTION:UPD 14-04-09 23:18 OP:nd   STATUS:               ID:20140319045209 L   I
 OLDACT:UP  14-03-19 10:55 OP:cam  STATUS:               ID:20140319044806     3
 OLDACT:REG 14-03-19 08:49 OP:cam  STATUS:               ID:20140319044806     3
 2014-03-19-0448-06M.COL___232                                                 6
 STAT SP IPHASW D HRMM SECON CODA AMPLIT PERI AZIMU VELO AIN AR TRES W  DIS CAZ7
 BAR2 SZ EP        452 28.49                             174   -0.0210 14.4 187 
 BAR2 SZ ES        452 43.93                             174    0.2010 14.4 187 
 BAR2 SZ I         452 45.16        10.7 0.26            179           14.4 187 
 RUS  HZ EP   1    452 32.16                             146   -0.02 7 92.1 174 
 RUS  HE ES        452 50.10                             146   -0.1710 92.1 174 
 RUS  HZ I         452 53.14         5.6 0.40            151           92.1 174 
 PTB  HZ EP        452 35.38                             133   -0.27 9  144 262 
 PTB  HN ES   1    452 55.91                             133   -0.53 7  144 262 
 PTB  HZ I         452 58.42         3.4 0.44            135            144 262 
 SPBC HZ EP        452 37.24                             131    0.49 9  155 220 
 ZAR  HE ES        453  7.37                             122    0.35 8  205 295 
 SML  HZ EP        452 46.14                             117   -0.26 8  251 337 
 SML  HE ES   4    453 13.41                             117   -2.15 0  251 337 
 SML  HZ I         453 22.40         3.2 0.26            117            251 337 
                                                                                
