 2016  419 0704 30.4 L   6.824 -73.203145.5  RSN  6 0.2 1.4LRSN                1
 GAP=275        0.49       4.3     3.2  4.3  0.1350E+01  0.2914E+01 -0.2333E+01E
 Epicentro: ZAPATOCA - SANTANDER                                               3
 ACTION:UPD 16-05-05 14:22 OP:rebc STATUS:               ID:20160419070430 L   I
 OLDACT:DUP 16-04-19 21:52 OP:ar   STATUS:               ID:20160419065749d    3
 2016-04-19-0657-48M.COL___307                                                 6
 STAT SP IPHASW D HRMM SECON CODA AMPLIT PERI AZIMU VELO AIN AR TRES W  DIS CAZ7
 BAR2 EZ EP        7 4 49.89                             169   -0.1610 25.7 175 
 BAR2 EZ ES        7 5  5.46                             169    0.0910 25.7 175 
 BAR2 EZ I         7 5  6.51         6.4 0.14            160           25.7 175 
 RUS  HZ EP        7 4 54.56                             143    0.2010  104 173 
 RUS  HN ES        7 5 12.93                             143   -0.1210  104 173 
 RUS  HZ I         7 5 13.72         4.0 0.32            138            104 173 
 PTB  HZ EP        7 4 56.58                             133   -0.26 9  142 257 
 PTB  HN ES        7 5 17.60                             133    0.14 9  142 257 
 PTB  HZ I         7 5 20.73         2.1 0.21            128            142 257 
 SPBC HZ EP        7 4 58.93                             129    0.22 9  161 217 
 SPBC HN ES        7 5 20.67                             129   -0.12 9  161 217 
 SPBC HZ I         7 5 27.86         4.7 0.10            125            161 217 
 NOR  HZ EP   4    7 4 59.20                             119   -6.53 0  231 233 
 NOR  HE ES   4    7 5 35.34                             119    2.04 0  231 233 
 NOR  HZ I         7 5 41.75         2.1 0.22            116            231 233 
 GUY2CHZ EP   4    7 5 11.30                             112   -2.29 0  298 234 
 GUY2CHN ES   4    7 5 51.84                             112    4.56 0  298 234 
 GUY2CHZ I         7 5 56.04         1.5 0.34                           298 234 
                                                                                
