 2017  319 0801 38.6 L   6.826 -73.121148.9  RSN  5 0.2 1.0LRSN                1
 GAP=138        0.58       3.2     3.3  5.6  0.2195E+01  0.2618E+01  0.1950E+01E
 Epicentro: LOS SANTOS - SANTANDER                                             3
 ACTION:UPD 17-05-25 18:42 OP:jn   STATUS:               ID:20170319080138 L   I
 OLDACT:REG 17-03-19 13:22 OP:cara STATUS:               ID:20170319075741     3
 2017-03-19-0758-00M.COL___400                                                 6
 STAT SP IPHASW D HRMM SECON CODA AMPLIT PERI AZIMU VELO AIN AR TRES W  DIS CAZ7
 BRR  HZ EP        8 2  0.24                             153    0.0510 72.3 295 
 BRR  HN ES        8 2 17.22                             153    0.2210 72.3 295 
 BRR  HZ I         8 2 17.90         2.8 0.34            151           72.3 295 
 PAM  EZ EP        8 2  1.26                             153    0.3010 73.4  39 
 PAM  EE ES        8 2 18.10                             153   -0.2710 73.4  39 
 RUS  HZ EP        8 2  2.73                             144   -0.1710  103 178 
 RUS  HN ES        8 2 21.85                             144    0.0310  103 178 
 PTB  HE ES   4    8 2 26.39                             132   -1.23 0  151 258 
 PTB  HZ I         8 2 31.88         0.7 0.06            131            151 258 
 ZAR  HN ES        8 2 36.80                             123   -0.22 8  206 291 
                                                                                
