 2011  919 0603  9.2 L   6.779 -73.134149.1  RSN  8 0.2 2.0LRSN                1
 GAP=139        0.51       3.4     4.6  4.5  0.2977E+01 -0.3087E+01 -0.2703E+01E
 Epicentro: LOS SANTOS - SANTANDER                                             3
 ACTION:UPD 12-07-13 15:58 OP:ep   STATUS:               ID:20110919060309 L   I
 2011-09-19-0600-25S.COL___171                                                 6
 STAT SP IPHASW D HRMM SECON CODA AMPLIT PERI AZIMU VELO AIN AR TRES W  DIS CAZ7
 BTL  SZ EP        6 3 29.44                             171    0.2310 21.3 316 
 BAR2 SZ EP        6 3 29.15                             171   -0.0510 21.4 194 
 BAR2 SZ ES   1    6 3 44.57                             171   -0.23 7 21.4 194 
 BAR2 SZ I         6 3 45.71        24.6 0.14                          21.4 194 
 GIR2 SZ EP        6 3 29.30                             167   -0.0510 33.7 349 
 GIR2 SZ ES   2    6 3 45.16                             167    0.11 5 33.7 349 
 BRR  HZ EP        6 3 30.96                             152    0.1110 73.4 300 
 BRR  HZ I         6 3 31.22        31.6 0.14                          73.4 300 
 BRR  HN ES   1    6 3 48.10                             152    0.38 7 73.4 300 
 PAM  SZ EP        6 3 31.97                             151    0.1310 78.4  38 
 PAM  SN ES   2    6 3 49.08                             151   -0.41 5 78.4  38 
 RUS  HZ EP        6 3 33.13                             145    0.0010 98.2 177 
 RUS  HE ES   2    6 3 51.60                             145   -0.18 5 98.2 177 
 OCA  SZ EP        6 3 37.73                             130   -0.28 9  163 353 
 OCA  SZ I         6 4  5.96         5.6 0.33                           163 353 
 ZAR  HE ES   2    6 4  7.05                             123   -0.68 4  206 293 
 ZAR  HZ I         6 4 13.99         6.3 0.28                           206 293 
                                                                                
