 2010 1219 0210 36.0 L   6.805 -73.396128.0  RSN  5 0.3 1.7LRSN                1
 GAP=174        0.83       5.4    24.5 20.0 -0.9027E+02  0.3626E+03 -0.7357E+02E
 Epicentro: SAN VICENTE DE CHUCURI - SANTANDER                                 3
 ACTION:UP  11-01-14 15:25 OP:pat  STATUS:               ID:20101219021036 L   I
 2010-12-19-0209-18S.COL___134                                                 6
 STAT SP IPHASW D HRMM SECON CODA AMPLIT PERI AZIMU VELO SNR AR TRES W  DIS CAZ7
 BAR2 SZ EP        210 53.88                             165     0.110   33 135 
 BAR2 SZ I         211 11.18        11.7 0.64                            33 135 
 RUS  HZ EP        210 58.22                             138    -0.310  107 161 
 RUS  HN ES   1    211 15.92                             138    -0.2 7  107 161 
 RUS  HZ I         211 17.80         5.7 0.43                           107 161 
 GRA  SZ EP        211  0.94                             130     0.3 9  136  29 
 GRA  SZ ES   2    211 20.42                             130     0.5 5  136  29 
 GRA  SZ I         211 21.96         8.5 0.54                           136  29 
 OCA  SZ EP        211  2.50                             125    -0.3 9  159   3 
 OCA  SZ I         211 29.51         7.9 0.34                           159   3 
 CHI  HZ EP   2    211 12.61                             114     0.4 4  243 189 
 CHI  HN ES   1    211 41.00                             114     0.6 6  243 189 
                                                                                
