 2010  119 0210 23.2 L   6.835 -72.890135.2  RSN  4 0.1 1.2LRSN                1
 GAP=209        0.36       1.7    11.5  4.4  0.1825E+01 -0.1833E+02 -0.1765E+01E
 Epicentro: SAN ANDRES - SANTANDER                                             3
 ACTION:UP  10-08-24 09:44 OP:vdl  STATUS:               ID:20100119021025dL   I
 2010-01-19-0210-21S.COL___096                                                 6
 STAT SP IPHASW D HRMM SECON CODA AMPLIT PERI AZIMU VELO SNR AR TRES W  DIS CAZ7
 BAR2 SZ ES   1    210 56.79                             162    -0.1 8   42 230 
 RUS  BZ EP        210 46.42                             140     0.010  106 192 
 RUS  BN ES   1    211  4.58                             140     0.1 7  106 192 
 RUS  BZ I         211  6.31         2.4 0.30                           106 192 
 OCA  SZ EP        210 50.86                             127    -0.1 9  162 343 
 OCA  SZ ES   1    211 12.72                             127     0.2 7  162 343 
 CHI  HE ES   1    211 31.81                             114     0.0 6  261 201 
 CHI  HZ I         211 36.99         1.1 0.48                           261 201 
                                                                                
