 2015  619 0406 21.6 L   6.820 -73.135148.8  RSN 20 0.4 2.3LRSN                1
 GAP=119        0.89       2.1     3.0  4.1 -0.5469E+00  0.4360E+01  0.1467E+01E
 Epicentro: LOS SANTOS - SANTANDER                                             3
 ACTION:UPD 15-09-10 22:13 OP:cam  STATUS:               ID:20150619040621 L   I
 OLDACT:UP  15-06-19 16:11 OP:drio STATUS:               ID:20150619035750     3
 OLDACT:REG 15-06-19 12:25 OP:drio STATUS:               ID:20150619035750     3
 2015-06-19-0357-50M.COL___304                                                 6
 STAT SP IPHASW D HRMM SECON CODA AMPLIT PERI AZIMU VELO AIN AR TRES W  DIS CAZ7
 BAR2 EZ EP        4 6 41.75                             170    0.0710 25.7 192 
 BAR2 EZ ES        4 6 57.08                             170   -0.2310 25.7 192 
 BAR2 EZ I         4 6 58.24        42.7 0.22            167           25.7 192 
 BRR  HZ EP        4 6 43.54                             153    0.4310 71.3 297 
 BRR  HE ES        4 7  0.42                             153    0.5510 71.3 297 
 BRR  HZ I         4 7  3.08        26.0 0.14            150           71.3 297 
 PAM  SZ EP        4 6 44.74                             152    0.7110 74.9  40 
 PAM  SE ES        4 7  1.23                             152   -0.2710 74.9  40 
 PAM  SZ I         4 7  3.87        43.3 0.50            157           74.9  40 
 RUS  HZ EP        4 6 45.76                             144   -0.0810  103 177 
 RUS  HE ES        4 7  4.56                             144   -0.1510  103 177 
 RUS  HZ I         4 7  5.57        25.4 0.32            145            103 177 
 OCA  HZ EP        4 6 50.22                             131    0.23 9  158 353 
 OCA  HE ES        4 7 11.82                             131   -0.29 9  158 353 
 OCA  HZ I         4 7 18.27        34.9 0.44            132            158 353 
 ZAR  HZ EP        4 6 54.06                             123   -0.25 9  204 291 
 ZAR  HE ES        4 7 19.70                             123   -0.10 9  204 291 
 ZAR  HZ I         4 7 30.23        16.0 0.22            123            204 291 
 NOR  HZ EP        4 6 58.31                             119    0.53 8  237 234 
 NOR  HN ES        4 7 25.67                             119   -0.31 8  237 234 
 NOR  HZ I         4 7 33.51        20.4 0.18            119            237 234 
 SML  HZ EP        4 6 58.34                             118    0.07 8  242 335 
 SML  HE ES        4 7 26.33                             118   -0.52 8  242 335 
 ROSC BZ EP        4 7  0.33                             117    0.14 8  255 211 
 ROSC BE ES        4 7 30.48                             117    0.21 8  255 211 
 HEL  HZ EP        4 7  2.28                             115    0.09 8  274 255 
 HEL  HE ES        4 7 34.48                             115    0.65 8  274 255 
 HEL  HZ I         4 7 41.35         9.6 0.48            116            274 255 
 URE  HZ EP        4 7  2.27                             114   -0.62 7  284 291 
 URE  HZ ES        4 7 34.72                             114   -0.35 7  284 291 
 GUY2CHZ EP        4 7  5.89                             113    0.25 7  303 235 
 GUY2CHN ES        4 7 39.20                             113   -0.76 7  303 235 
 GUY2CHZ I         4 7 51.98        10.9 0.44                           303 235 
 VIL  SZ EP        4 7  4.81                             112   -0.65 7  306 192 
 VIL  SE ES   4    4 7 41.43                             112    1.78 0  306 192 
 VIL  SZ I         4 7 48.73        10.2 0.48            114            306 192 
 PTGC HZ EP        4 7  5.06                             112   -0.75 7  310 159 
 PTGC HN ES   4    4 7 38.39                             112   -1.88 0  310 159 
 CBOC HZ EP        4 7  9.59                             110    0.70 7  335 252 
 CBOC HN ES        4 7 45.64                             110   -0.10 7  335 252 
 CBOC HZ I         4 8  2.75         3.7 0.52            111            335 252 
 TOL  SZ EP   4    4 7 11.77                             110    1.48 0  346 225 
 TOL  SN ES        4 7 48.18                             110   -0.06 6  346 225 
 MON  HZ EP        4 7 10.33                             109   -0.38 6  353 308 
 MON  HE ES   4    4 7 47.55                             109   -1.43 0  353 308 
 MON  HZ I         4 7 49.08         3.5 0.20            110            353 308 
 PRA  HZ EP        4 7 15.79                             107    0.24 6  395 210 
 PRA  HE ES        4 7 57.26                             107   -0.35 6  395 210 
 PRA  HZ I         4 8  4.02         7.6 0.38            108            395 210 
 ORTC HZ EP        4 7 16.48                             107    0.53 6  398 216 
 ORTC HE ES        4 7 58.44                             107    0.13 6  398 216 
 ORTC HZ I         4 8  5.68         5.9 0.22            108            398 216 
 SJC  HZ EP   4    4 7 15.44                             106   -1.72 0  408 327 
 SJC  HE ES   4    4 7 56.35                             106   -4.12 0  408 327 
 SJC  HZ I         4 8  3.93         3.6 0.48            107            408 327 
                                                                                
