 2015  319 0640 36.2 L   6.818 -73.171142.9  RSN  8 0.5 1.5LRSN                1
 GAP= 69        1.28       4.5     5.3  7.5 -0.1654E+01  0.1981E+01 -0.3009E+01E
 Epicentro: LOS SANTOS - SANTANDER                                             3
 ACTION:UPD 15-04-30 16:27 OP:nd   STATUS:               ID:20150319064036 L   I
 OLDACT:REG 15-03-19 12:56 OP:stll STATUS:               ID:20150319063748     3
 2015-03-19-0637-48M.COL___275                                                 6
 STAT SP IPHASW D HRMM SECON CODA AMPLIT PERI AZIMU VELO AIN AR TRES W  DIS CAZ7
 BAR2 EZ EP        640 55.98                             170    0.5010 25.0 183 
 BAR2 EZ ES        641 10.33                             170   -0.2210 25.0 183 
 BAR2 EZ I         641 12.44         6.1 0.46            168           25.0 183 
 BRR  HZ EP        640 57.57                             153    0.7610 67.8 298 
 BRR  HN ES        641 13.80                             153    0.8910 67.8 298 
 PAM  SZ EP        640 58.56                             150    0.4710 77.7  42 
 PAM  SN ES        641 14.91                             150   -0.2910 77.7  42 
 RUS  HZ EP        640 59.88                             143    0.0910  103 175 
 RUS  HN ES        641 17.67                             143   -0.5510  103 175 
 RUS  HZ I         641 19.28         2.8 0.24            144            103 175 
 PTB  HZ EP        641  2.46                             132   -0.22 9  145 258 
 PTB  HN ES        641 23.18                             132   -0.19 9  145 258 
 PTB  HZ I         641 31.19         4.6 0.44            129            145 258 
 TAM  HZ EP        641  3.76                             129   -0.16 9  158 105 
 SPBC HZ EP        641  4.42                             129   -0.00 9  163 218 
 SPBC HN ES        641 26.13                             129   -0.33 9  163 218 
 SPBC HZ I         641 33.61         4.9 0.30            127            163 218 
 SML  HZ EP        641 12.11                             117   -0.20 8  241 336 
 SML  HN ES        641 39.33                             117   -1.17 8  241 336 
 SML  HZ I         641 48.25         3.9 0.28            117            241 336 
                                                                                
