 2013 1219 0006 50.6 L   6.753 -73.134145.8  RSN  8 0.4 1.7LRSN                1
 GAP= 95        0.92       4.5     4.2  6.0 -0.3560E+01  0.8792E+00  0.3224E+01E
 Epicentro: LOS SANTOS - SANTANDER                                             3
 ACTION:UPD 14-01-13 10:19 OP:ep   STATUS:               ID:20131219000650 L   I
 OLDACT:REG 13-12-19 06:09 OP:jn   STATUS:               ID:20131219000000     3
 2013-12-19-0000-00M.COL___285                                                 6
 STAT SP IPHASW D HRMM SECON CODA AMPLIT PERI AZIMU VELO AIN AR TRES W  DIS CAZ7
 BAR2 SZ EP        0 7 10.01                             172   -0.1010 18.6 197 
 BAR2 SZ ES        0 7 25.41                             172    0.0510 18.6 197 
 BAR2 SZ I         0 7 26.85        16.8 0.22            165           18.6 197 
 BRR  HZ EP        0 7 12.18                             151    0.2510 74.9 302 
 BRR  HN ES        0 7 29.19                             151    0.6010 74.9 302 
 PAM  SZ EP        0 7 12.96                             150   -0.0210 80.7  36 
 PAM  SN ES        0 7 30.17                             150   -0.2910 80.7  36 
 PAM  SZ I         0 7 32.32        11.6 0.50            145           80.7  36 
 RUS  HZ EP        0 7 14.01                             145    0.0610 95.3 177 
 RUS  HN ES        0 7 31.90                             145   -0.2810 95.3 177 
 RUS  HZ I         0 7 34.17         3.6 0.38            135           95.3 177 
 PTB  HZ EP        0 7 17.11                             132   -0.46 9  148 261 
 PTB  HN ES        0 7 37.96                             132   -0.67 9  148 261 
 PTB  HZ I         0 7 43.99         7.8 0.26            120            148 261 
 TAM  HZ EP   1    0 7 18.32                             131    0.31 7  153 103 
 SPBC HZ EP   1    0 7 19.11                             130    0.34 7  160 221 
 SPBC HN ES   1    0 7 41.56                             130    0.79 7  160 221 
 NOR  HZ EP   2    0 7 26.28                             119    0.19 4  233 236 
 NOR  HZ I         0 7 57.52         3.2 0.22            109            233 236 
                                                                                
