 2012  419 0724 34.8 L   6.766 -73.082150.8  RSN  6 0.5 1.5LRSN                1
 GAP=146        1.04       7.0     7.8 10.9  0.9237E+01  0.1517E+02 -0.7833E+01E
 Epicentro: LOS SANTOS - SANTANDER                                             3
 ACTION:UPD 12-07-05 11:54 OP:tino STATUS:               ID:20120419072434 L   I
 2012-04-19-0720-00M.COL___187                                                 6
 STAT SP IPHASW D HRMM SECON CODA AMPLIT PERI AZIMU VELO AIN AR TRES W  DIS CAZ7
 BAR2 SZ EP   1    724 54.87                             171    -0.1 7   22 210 
 BAR2 SZ I         725 15.13         8.7 0.39                            22 210 
 PAM  SZ EP   1    724 57.66                             152     0.2 7   76  34 
 PAM  SE ES   1    725 14.91                             152    -0.2 7   76  34 
 PAM  SZ I         725 19.05         1.8 0.17                            76  34 
 BRR  HZ EP   1    724 56.71                             151    -0.2 7   79 298 
 BRR  HE ES   1    725 13.91                             151    -0.3 7   79 298 
 BRR  HZ I         725 16.96        10.0 0.18                            79 298 
 RUS  HZ EP   1    724 58.71                             146     0.0 7   97 180 
 RUS  HN ES   1    725 17.72                             146     0.3 7   97 180 
 RUS  HZ I         725 18.96         4.7 0.20                            97 180 
 OCA  SZ EP   1    725  4.58                             130     0.7 7  165 351 
 ZAR  HZ EP   1    725  7.34                             122    -1.0 6  212 292 
 ZAR  HN ES   1    725 35.29                             122     0.7 6  212 292 
 ZAR  HZ I         725 39.34         5.3 0.19                           212 292 
                                                                                
