 2014  419 0806  1.8 L   6.831 -73.171140.7  RSN 10 0.4 1.8LRSN                1
 GAP= 69        0.85       2.5     2.6  5.8 -0.3064E+00  0.4302E+01 -0.4405E+00E
 Epicentro: LOS SANTOS - SANTANDER                                             3
 ACTION:UPD 14-05-13 23:09 OP:nd   STATUS:               ID:20140419080601 L   I
 OLDACT:REG 14-04-19 13:54 OP:stll STATUS:               ID:20140419075805     3
 2014-04-19-0758-05M.COL___221                                                 6
 STAT SP IPHASW D HRMM SECON CODA AMPLIT PERI AZIMU VELO AIN AR TRES W  DIS CAZ7
 PAM  SZ EP        8 6 23.82                             150    0.3410 76.6  43 
 PAM  SN ES        8 6 40.63                             150    0.2810 76.6  43 
 PAM  SZ I         8 6 42.76        10.8 0.56            149           76.6  43 
 RUS  HZ EP        8 6 25.45                             142    0.0810  104 175 
 RUS  HN ES        8 6 43.81                             142    0.0910  104 175 
 RUS  HZ I         8 6 45.51         7.9 0.18            137            104 175 
 PTB  HZ EP        8 6 27.66                             131   -0.56 9  146 257 
 PTB  HN ES        8 6 48.59                             131   -0.20 9  146 257 
 PTB  HZ I         8 6 51.17         9.1 0.20            125            146 257 
 TAM  HZ EP        8 6 29.38                             129   -0.08 9  159 106 
 TAM  HZ I         8 6 29.61        12.4 0.38            126            159 106 
 TAM  HE ES        8 6 50.72                             129   -0.29 9  159 106 
 SPBC HZ EP        8 6 30.25                             128    0.20 9  164 217 
 SPBC HN ES        8 6 51.67                             128   -0.39 9  164 217 
 SPBC HZ I         8 6 56.92        10.5 0.24            122            164 217 
 ZAR  HZ EP        8 6 33.75                             122    0.19 9  200 292 
 ZAR  HN ES        8 6 58.57                             122    0.26 9  200 292 
 ZAR  HZ I         8 7  4.82         8.6 0.18            116            200 292 
 NOR  HZ EP        8 6 37.08                             117   -0.18 8  234 233 
 NOR  HN ES        8 7  4.84                             117   -0.05 8  234 233 
 NOR  HZ I         8 7  8.64         4.6 0.14            112            234 233 
 SML  HZ EP        8 6 37.25                             117   -0.48 8  239 336 
 SML  HN ES        8 7  5.37                             117   -0.34 8  239 336 
 SML  HZ I         8 7  7.42         8.4 0.10            112            239 336 
 CHI  HZ EP        8 6 39.42                             116   -0.13 8  251 194 
 CHI  HN ES        8 7  9.19                             116    0.22 8  251 194 
 CHI  HZ I         8 7 16.38         3.1 0.36            111            251 194 
 HEL  HZ EP        8 6 42.71                             114    1.11 8  270 255 
 HEL  HZ I         8 7 19.19         3.0 0.28            109            270 255 
                                                                                
