 2016  519 0817 17.2 L   6.800 -73.141149.2  RSN 10 0.3 1.9LRSN                1
 GAP=183        0.76       2.6     3.4  4.6  0.1467E+00  0.3876E+01  0.1190E+01E
 Epicentro: LOS SANTOS - SANTANDER                                             3
 ACTION:UPD 16-08-18 17:47 OP:cam  STATUS:               ID:20160519081717 L   I
 OLDACT:REG 16-05-19 15:21 OP:mh   STATUS:               ID:20160519080748     3
 2016-05-19-0807-48M.COL___291                                                 6
 STAT SP IPHASW D HRMM SECON CODA AMPLIT PERI AZIMU VELO AIN AR TRES W  DIS CAZ7
 BAR2 EZ IP        817 37.22                             171   -0.0610 23.4 191 
 BAR2 EZ ES        817 52.45                             171   -0.4610 23.4 191 
 BAR2 EZ I         817 53.76        17.3 0.26            168           23.4 191 
 BRR  HZ EP        817 39.01                             153    0.2310 71.6 298 
 BRR  HE ES        817 56.32                             153    0.7410 71.6 298 
 BRR  HZ I         818  0.29        10.9 0.27            150           71.6 298 
 RUS  HZ EP        817 41.20                             144   -0.1210  101 176 
 RUS  HN ES        818  0.10                             144   -0.0110  101 176 
 RUS  HZ I         818  1.30         5.3 0.20            145            101 176 
 PTB  HZ EP        817 44.18                             133   -0.34 9  148 259 
 PTB  HE ES        818  5.41                             133   -0.40 9  148 259 
 PTB  HZ I         818  7.59         6.6 0.14            131            148 259 
 OCA  HZ EP   2    817 45.64                             130   -0.17 5  160 353 
 OCA  HN ES        818  8.07                             130   -0.04 9  160 353 
 OCA  HZ I         818 10.47        12.9 0.26            132            160 353 
 SPBC HZ EP        817 46.14                             130    0.12 9  164 219 
 SPBC HE ES        818  8.89                             130    0.41 9  164 219 
 SPBC HZ I         818 12.61        11.9 0.20            129            164 219 
 ZAR  HZ EP        817 50.22                             123    0.27 9  205 292 
 ZAR  HN ES        818 15.13                             123   -0.34 9  205 292 
 ZAR  HZ I         818 20.41         7.5 0.28            122            205 292 
 NOR  HZ EP   2    817 53.25                             119    0.05 4  235 235 
 NOR  HE ES        818 21.13                             119   -0.13 8  235 235 
 NOR  HZ I         818 30.53         5.7 0.44            119            235 235 
 HEL  HZ EP   4    817 56.13                             115   -1.54 0  273 256 
 HEL  HE ES        818 29.13                             115   -0.09 8  273 256 
 HEL  HZ I         818 35.66         3.1 0.40            115            273 256 
 PRA  HZ EP        818 11.04                             107    0.14 6  392 210 
 PRA  HN ES        818 53.01                             107    0.25 6  392 210 
 PRA  HZ I         818 59.47         4.0 0.34            108            392 210 
 SJC  HZ EP   4    818 11.44                             106   -1.50 0  409 327 
 SJC  HN ES   4    818 49.83                             106   -6.56 0  409 327 
                                                                                
