 2016  819 0245 56.2 L   6.845 -73.118147.4  RSN  4 0.2 1.2LRSN                1
 GAP=281        0.50       4.5     3.7  4.6  0.1017E+01  0.5102E+01 -0.3545E+01E
 Epicentro: LOS SANTOS - SANTANDER                                             3
 ACTION:UPD 16-10-29 15:36 OP:rebc STATUS:               ID:20160819024556 L   I
 OLDACT:REG 16-08-19 18:57 OP:ak   STATUS:               ID:20160819023642     3
 2016-08-19-0237-00M.COL___371                                                 6
 STAT SP IPHASW D HRMM SECON CODA AMPLIT PERI AZIMU VELO AIN AR TRES W  DIS CAZ7
 BAR2 EZ EP        246 15.91                             168   -0.2810 28.9 194 
 BAR2 EZ ES        246 31.96                             168    0.2110 28.9 194 
 BAR2 EZ I         246 32.93         4.0 0.15                          28.9 194 
 RUS  HZ EP   2    246 20.93                             143    0.43 5  105 178 
 RUS  HE ES        246 39.28                             143   -0.1510  105 178 
 RUS  HZ I         246 40.88         1.1 0.25                           105 178 
 PTB  HZ EP        246 23.78                             132    0.08 9  152 257 
 PTB  HE ES        246 45.03                             132   -0.10 9  152 257 
 PTB  HZ I         246 51.18         1.8 0.10                           152 257 
 SPBC HZ EP        246 25.56                             128    0.15 9  169 219 
 SPBC HN ES        246 48.19                             128    0.01 9  169 219 
 SPBC HZ I         246 53.37         2.4 0.11                           169 219 
                                                                                
