 2013  219 0727  5.4 L   6.791 -73.150150.1  RSN  5 0.5 1.3LRSN                1
 GAP=214        0.98       5.4    10.3  8.9  0.9288E+01 -0.3380E+00  0.5916E+00E
 Epicentro: LOS SANTOS - SANTANDER                                             3
 ACTION:UPD 13-03-12 09:34 OP:ep   STATUS:               ID:20130219072706dL   I
 2013-02-19-0720-00M.COL___241                                                 6
 STAT SP IPHASW D HRMM SECON CODA AMPLIT PERI AZIMU VELO AIN AR TRES W  DIS CAZ7
 BAR2 SZ EP   1    727 25.44                             171   -0.12 7 22.3 189 
 BAR2 SZ ES   1    727 40.65                             171   -0.60 7 22.3 189 
 BAR2 SZ I         727 43.87         6.9 0.50            164           22.3 189 
 BRR  HZ EP   1    727 27.43                             153    0.38 7 71.3 299 
 BRR  HN ES   1    727 44.65                             153    0.74 7 71.3 299 
 BRR  HZ I         727 48.13         3.3 0.42            151           71.3 299 
 PTB  HZ EP   1    727 31.95                             133   -0.74 7  147 259 
 PTB  HN ES   1    727 53.54                             133   -0.42 7  147 259 
 PTB  HZ I         727 59.26         3.5 0.42            131            147 259 
 SML  HZ EP   1    727 41.88                             118   -0.49 6  244 335 
 SML  HE ES   1    728 11.63                             118    0.44 6  244 335 
 CHI  HZ EP   1    727 43.65                             118    0.40 6  248 195 
 CHI  HN ES   1    728 13.39                             118    0.63 6  248 195 
 CHI  HZ I         728 21.57         0.9 0.53            118            248 195 
                                                                                
