 2011 1219 0943 51.7 L   6.778 -73.093145.9  RSN  6 0.2 2.0LRSN                1
 GAP=144        0.51       3.6     6.6  5.2  0.2937E+01 -0.7910E+01  0.1838E+01E
 Epicentro: LOS SANTOS - SANTANDER                                             3
 ACTION:UPD 12-07-13 16:17 OP:ep   STATUS:               ID:20111219094351 L   I
 2011-12-19-0940-00M.COL___187                                                 6
 STAT SP IPHASW D HRMM SECON CODA AMPLIT PERI AZIMU VELO AIN AR TRES W  DIS CAZ7
 BAR2 SZ EP   1    944 11.17                             171   -0.15 7 22.8 206 
 BAR2 SZ ES   1    944 26.35                             171   -0.28 7 22.8 206 
 BAR2 SZ I         944 29.33        16.4 0.44                          22.8 206 
 GIR2 SZ EP        944 11.44                             166   -0.0410 35.0 342 
 PAM  SZ EP   1    944 14.03                             151    0.21 7 75.8  35 
 BRR  HZ EP        944 12.94                             151   -0.2710 77.4 298 
 BRR  HE ES   1    944 30.40                             151    0.40 7 77.4 298 
 BRR  HE I         944 32.07        43.8 0.16                          77.4 298 
 RUS  HZ EP   1    944 15.51                             145    0.25 7 97.9 179 
 RUS  HN ES   2    944 33.83                             145    0.19 5 97.9 179 
 CHI  HZ EP   1    944 29.40                             117    0.09 6  248 197 
 CHI  HN ES   2    944 58.52                             117   -0.14 4  248 197 
 CHI  HZ I         945  8.53         3.8 0.43                           248 197 
                                                                                
