 2016 1219 0433 10.9 L   6.804 -73.382120.7  RSN  5 0.3 1.3LRSN                1
 GAP=184        0.68       4.6     4.0  5.6  0.1148E+02  0.6196E+01  0.4598E+01E
 Epicentro: SAN VICENTE DE CHUCURI - SANTANDER                                 3
 ACTION:UPD 17-01-11 20:16 OP:rebc STATUS:               ID:20161219043310 L   I
 OLDACT:REG 16-12-19 13:07 OP:cog  STATUS:               ID:20161219042746     3
 2016-12-19-0428-00M.COL___321                                                 6
 STAT SP IPHASW D HRMM SECON CODA AMPLIT PERI AZIMU VELO AIN AR TRES W  DIS CAZ7
 BAR2 EZ EP        433 27.53                             164   -0.2210 32.2 137 
 BAR2 EZ ES        433 40.81                             164   -0.1110 32.2 137 
 BAR2 EZ I         433 41.88        14.3 0.36            164           32.2 137 
 BRR  HZ EP        433 27.95                             156   -0.1710 49.5 313 
 BRR  HE ES        433 41.67                             156    0.1010 49.5 313 
 BRR  HZ I         433 43.17         2.5 0.20            157           49.5 313 
 RUS  HZ EP        433 33.04                             136    0.3410  106 162 
 RUS  HN ES        433 49.92                             136    0.1910  106 162 
 RUS  HZ I         433 51.19         2.6 0.26            137            106 162 
 PTB  HZ EP        433 33.16                             131   -0.3310  122 256 
 PTB  HN ES        433 50.94                             131   -0.1810  122 256 
 PTB  HZ I         433 55.38         2.8 0.50            131            122 256 
 ZAR  HE ES        434  1.79                             120    0.46 9  180 295 
                                                                                
