 2012  719 0714 30.0 L   6.802 -73.162146.1  RSN  8 0.4 1.9LRSN                1
 GAP=134        1.02       4.7     5.5  7.9  0.4447E+00  0.4843E+01  0.2320E+01E
 Epicentro: LOS SANTOS - SANTANDER                                             3
 ACTION:UPD 12-08-14 11:45 OP:ep   STATUS:               ID:20120719071430 L   I
 2012-07-19-0710-00M.COL___201                                                 6
 STAT SP IPHASW D HRMM SECON CODA AMPLIT PERI AZIMU VELO AIN AR TRES W  DIS CAZ7
 BAR2 SZ EP        714 49.78                             170     0.110   23 186 
 BAR2 SZ I         714 50.14        16.2 0.31            155             23 186 
 BAR2 SZ ES   1    715  4.71                             170    -0.3 7   23 186 
 BRR  HZ IP     D  714 51.52                             153     0.510   70 299 
 BRR  HN ES   1    715  8.26                             153     0.8 7   70 299 
 PAM  SZ EP        714 52.51                             151     0.210   78  41 
 PAM  SN ES   1    715  9.70                             151     0.0 7   78  41 
 RUS  HZ EP        714 53.65                             144    -0.110  101 175 
 RUS  HN ES   1    715 12.08                             144    -0.3 7  101 175 
 RUS  HZ I         715 14.01         8.5 0.42            121            101 175 
 PTB  HZ EP        714 56.49                             132    -0.3 9  146 259 
 PTB  HN ES   1    715 17.30                             132    -0.4 7  146 259 
 PTB  HZ I         715 20.39         6.2 0.18            112            146 259 
 OCA  HZ EP   1    714 58.05                             130    -0.2 7  160 354 
 OCA  HN ES   1    715 19.36                             130    -1.0 7  160 354 
 OCA  HZ I         715 24.97        25.7 0.24            112            160 354 
 ZAR  HN ES   1    715 27.64                             123     0.2 6  202 292 
 ZAR  HZ I         715 34.01        12.8 0.30            106            202 292 
 CHI  HZ EP   1    715  7.85                             117     0.2 6  248 195 
 CHI  HZ I         715 40.22         3.4 0.32            102            248 195 
