 2013  719 0536 21.6 L   6.678 -73.257141.4  RSN  4 0.4 1.6LRSN                1
 GAP=186        0.78       7.1     6.3  8.9  0.1534E+02  0.1335E+02  0.4798E+01E
 Epicentro: BARICHARA - SANTANDER                                              3
 ACTION:UPD 13-08-12 10:38 OP:ep   STATUS:               ID:20130719052959 L   I
 OLDACT:UP  13-07-19 11:16 OP:mh   STATUS:               ID:20130719052959 L   3
 OLDACT:UPD 13-07-19 09:03 OP:stll STATUS:               ID:20130719052959 L   3
 2013-07-19-0529-59M.COL___266                                                 6
 STAT SP IPHASW D HRMM SECON CODA AMPLIT PERI AZIMU VELO AIN AR TRES W  DIS CAZ7
 BAR2 SZ EP   1    536 40.39                             175   -0.10 7 12.6 139 
 BAR2 SZ ES   1    536 54.56                             175   -0.69 7 12.6 139 
 BAR2 SZ I         536 56.45         7.9 0.22            174           12.6 139 
 BRR  HZ EP   1    536 42.14                             152    0.02 7 69.1 313 
 BRR  HN ES        536 58.51                             152    0.3610 69.1 313 
 BRR  HN I         537  2.50        13.5 0.16            152           69.1 313 
 RUS  HN ES   1    537  2.11                             146    0.50 7 89.0 168 
 RUS  HN I         537  3.85         5.1 0.20            149           89.0 168 
 PTB  HZ EP   1    536 46.80                             134   -0.09 7  134 263 
 PTB  HN ES        537  6.46                             134   -0.1910  134 263 
 PTB  HN I         537 11.75         5.9 0.24            134            134 263 
                                                                                
