 2011  719 0839 28.8 L   6.759 -73.061140.3  RSN  4 0.3 1.4LRSN                1
 GAP=169        0.59       4.9     8.8  7.5  0.1201E+02 -0.1590E+02 -0.7675E+00E
 Epicentro: LOS SANTOS - SANTANDER                                             3
 ACTION:UPD 12-07-25 14:01 OP:epov STATUS:               ID:20110719083928 L   I
 2011-07-19-0837-55S.COL___143                                                 6
 STAT SP IPHASW D HRMM SECON CODA AMPLIT PERI AZIMU VELO AIN AR TRES W  DIS CAZ7
 BAR2 SZ EP   1    839 47.62                             170   -0.11 7 22.8 216 
 BAR2 SZ ES   1    840  2.15                             170   -0.37 7 22.8 216 
 BAR2 SZ I         840  6.16         5.8 0.47                          22.8 216 
 BRR  HZ EP   1    839 49.59                             148   -0.38 7 81.6 298 
 BRR  HN ES   1    840  6.84                             148    0.33 7 81.6 298 
 BRR  HZ I         840  8.33         4.8 0.18                          81.6 298 
 RUS  HZ EP   1    839 52.01                             144    0.37 7 95.8 181 
 RUS  HN ES   2    840  9.65                             144    0.17 5 95.8 181 
 RUS  HZ I         840 11.82         3.5 0.22                          95.8 181 
 GRA  SZ EP   3    839 53.42                             135   -0.28 2  128  13 
 GRA  SZ ES   2    840 13.43                             135    0.30 5  128  13 
 GRA  SZ I         840 15.69         4.0 0.31                           128  13 
                                                                                
