 2016 1019 0415 34.2 L   6.772 -73.126146.3  RSN 18 0.5 2.1LRSN                1
 GAP=122        1.05       3.6     4.5  5.3 -0.5064E+01  0.5754E+01  0.4013E+01E
 Epicentro: LOS SANTOS - SANTANDER                                             3
 ACTION:UPD 16-11-09 19:20 OP:rebc STATUS:               ID:20161019041534 L   I
 OLDACT:UP  16-10-19 16:38 OP:and  STATUS:               ID:20161019040736d    3
 OLDACT:UP  16-10-19 16:34 OP:and  STATUS:               ID:20161019040736d    3
 OLDACT:DUP 16-10-19 16:25 OP:and  STATUS:               ID:20161019040736d    3
 OLDACT:UP  16-10-19 16:24 OP:and  STATUS:               ID:20161019040735d    3
 OLDACT:UP  16-10-19 16:23 OP:and  STATUS:               ID:20161019040735d    3
 OLDACT:DUP 16-10-19 16:15 OP:and  STATUS:               ID:20161019040735d    3
 OLDACT:UP  16-10-19 16:12 OP:and  STATUS:               ID:20161019040734     3
 OLDACT:UP  16-10-19 16:08 OP:and  STATUS:               ID:20161019040734     3
 OLDACT:UP  16-10-19 16:06 OP:and  STATUS:               ID:20161019040734     3
 OLDACT:REG 16-10-19 12:43 OP:y    STATUS:               ID:20161019040734     3
 2016-10-19-0408-00M.COL___329                                                 6
 STAT SP IPHASW D HRMM SECON CODA AMPLIT PERI AZIMU VELO AIN AR TRES W  DIS CAZ7
 BAR2 EZ IP     C  415 53.44                             172   -0.4010 20.8 197 
 BAR2 EZ ES        416  8.89                             172   -0.2810 20.8 197 
 BAR2 EZ I         416 10.41        32.4 0.14            168           20.8 197 
 BRR  HZ IP     C  415 55.41                             151   -0.1910 74.6 300 
 BRR  HN ES        416 13.02                             151    0.7310 74.6 300 
 BRR  HZ I         416 15.15        24.5 0.14            147           74.6 300 
 PAM  EZ IP     C  415 56.33                             151   -0.2110 78.5  37 
 PAM  EN ES        416 13.88                             151   -0.0810 78.5  37 
 PAM  EZ I         416 16.28        17.8 0.36            153           78.5  37 
 RUS  HZ EP        415 57.68                             145   -0.0910 97.3 177 
 RUS  HN ES        416 16.10                             145   -0.0610 97.3 177 
 RUS  HZ I         416 17.07        12.9 0.32            147           97.3 177 
 PTB  HZ EP   9    416  0.07                             132   -1.27 0  149 260 
 PTB  HN ES        416 21.31                             131    0.06 9  149 260 
 PTB  HZ I         416 26.61        24.2 0.17            130            149 260 
 SPBC HZ EP        416  2.43                             130   -0.21 9  162 220 
 SPBC HN ES        416 25.22                             130    0.40 9  162 220 
 SPBC HZ I         416 31.31        29.7 0.22            129            162 220 
 OCA  HZ EP   3    416  1.69                             129   -1.17 2  164 353 
 OCA  HN ES   2    416 26.17                             129    0.94 5  164 353 
 OCA  HZ I         416 30.87        48.9 0.23            129            164 353 
 NOR  HZ EP        416  9.44                             119   -0.51 8  235 235 
 NOR  HN ES        416 37.68                             119   -0.16 8  235 235 
 NOR  HZ I         416 39.63        13.9 0.19            118            235 235 
 CHI  HZ EP        416 11.96                             118    0.30 8  246 196 
 CHI  HN ES        416 40.87                             118   -0.01 8  246 196 
 CHI  HZ I         416 42.89         5.0 0.34            118            246 196 
 ROSC BN ES        416 42.95                             117    1.15 8  251 212 
 ROSC BZ I         416 48.39         6.7 0.37            117            251 212 
 HEL  HZ EP        416 14.99                             115    0.41 8  273 257 
 HEL  HN ES   2    416 45.51                             115   -0.57 4  273 257 
 HEL  HZ I         416 53.18         6.3 0.27            114            273 257 
 GUY2CHZ EP   2    416 18.49                             113    0.67 4  301 235 
 GUY2CHN ES   2    416 52.39                             113    0.53 4  301 235 
 GUY2CHZ I         416 59.86         8.6 0.48                           301 235 
 PTGC HZ EP   9    416 16.31                             112   -1.35 0  305 159 
 PTGC HN ES        416 49.48                             111   -0.73 7  305 159 
 LL6C HZ EP   9    415 58.97                             110   -21.3 0  328 357 
 LL6C HN ES        416 36.41                                    1.49 7  328 357 
 CBOC HZ EP   2    416 21.40                             110    0.15 3  335 253 
 CBOC HN ES        416 57.02                             110   -0.94 7  335 253 
 CBOC HZ I         417 10.03         2.3 0.37            110            335 253 
 PRA  HZ EP        416 27.82                             107    0.28 6  390 210 
 PRA  HN ES        417  8.82                             107   -0.33 6  390 210 
 PRA  HZ I         417 16.48         4.6 0.22            107            390 210 
 PAL  HZ EP        416 29.21                             106   -0.19 6  406 240 
 PAL  HN ES   3    417 12.92                             106    0.46 1  406 240 
 SJC  HZ EP   4    416 27.37                             106   -2.85 0  413 327 
 SJC  HN ES   4    417  9.21                             106   -4.70 0  413 327 
 SJC  HZ I         417 17.37         3.7 0.45            106            413 327 
                                                                                
