 2013  519 0137 19.7 L   6.773 -73.157151.5  RSN  6 0.3 1.4LRSN                1
 GAP=136        0.86       4.7     4.7  5.7 -0.9783E+00  0.1766E+01  0.1989E+01E
 Epicentro: LOS SANTOS - SANTANDER                                             3
 ACTION:UPD 13-06-20 09:51 OP:ep   STATUS:               ID:20130519013719 L   I
 2013-05-19-0130-00M.COL___256                                                 6
 STAT SP IPHASW D HRMM SECON CODA AMPLIT PERI AZIMU VELO AIN AR TRES W  DIS CAZ7
 BAR2 SZ EP        137 39.94                             172    0.0110 20.2 188 
 BAR2 SZ ES        137 55.54                             172   -0.2010 20.2 188 
 BAR2 SZ I         137 56.81         5.9 0.36            172           20.2 188 
 GIR2 SZ EP        137 39.89                             167   -0.2110 34.1 353 
 GIR2 SZ ES        137 56.51                             167    0.4710 34.1 353 
 GIR2 SZ I         137 57.01         5.4 0.28            166           34.1 353 
 BRR  HZ EP        137 41.82                             153    0.3510 71.6 301 
 BRR  HE ES        137 58.75                             153    0.2810 71.6 301 
 BRR  HZ I         138  3.70         5.3 0.20            152           71.6 301 
 PAM  SZ EP        137 42.78                             151    0.1010 80.5  39 
 PAM  SE ES   1    137 59.78                             151   -0.85 7 80.5  39 
 RUS  HZ EP        137 44.01                             146    0.2210 97.7 175 
 RUS  HN ES        138  2.64                             146    0.0410 97.7 175 
 RUS  HZ I         138  3.57         2.8 0.42            148           97.7 175 
 PTB  HZ EP        137 46.72                             134   -0.24 9  146 260 
 PTB  HN ES        138  7.82                             134   -0.42 9  146 260 
 PTB  HZ I         138 10.50         4.7 0.20            134            146 260 
                                                                                
