 2011  619 0526 48.2 L   6.053 -73.946 10.0  RSN  5 0.3 1.1LRSN                1
 GAP=175        0.72       4.9     7.2 20.6  0.2021E+02  0.1348E+03  0.6510E+02E
 Epicentro: EL PEON - SANTANDER                                                3
 ACTION:UP  11-07-14 19:06 OP:ep   STATUS:               ID:20110619052648 L   I
 2011-06-19-0520-00M.COL___126                                                 6
 STAT SP IPHASW D HRMM SECON CODA AMPLIT PERI AZIMU VELO SNR AR TRES W  DIS CAZ7
 RUS  HZ EP   1    527  4.08                              94     0.0 7   97 100 
 RUS  HN ES   2    527 15.95                              94    -0.4 5   97 100 
 RUS  HZ I         527 17.21         3.2 0.34                            97 100 
 BAR2 SZ EP   1    527  4.55                              94    -0.2 7  103  55 
 BAR2 SZ ES   1    527 17.70                              94     0.1 7  103  55 
 BAR2 SZ I         527 18.83         6.6 0.24                           103  55 
 BRR  HZ EP   1    527  7.04                              93     0.2 7  119  12 
 BRR  HN ES   1    527 21.07                              93    -0.4 7  119  12 
 BRR  HZ I         527 22.79         3.7 0.13                           119  12 
 BTL  SZ EP   1    527  8.11                              93     0.6 7  122  38 
 HEL  HZ EP   1    527 15.04                              56    -0.3 7  176 275 
 HEL  HN ES   2    527 36.86                              56     0.3 4  176 275 
                                                                                
