 2012  219 0404 41.2 L   6.552 -73.526113.0  RSN 21 0.5 2.9LRSN                1
 GAP= 54        0.82       2.4     2.8  5.1 -0.1321E+01  0.4191E+01  0.3171E+01E
 ACTION:UP  12-03-07 16:31 OP:epov STATUS:               ID:20120219040441 L   I
 2012-02-19-0400-00M.COL___188                                                 6
 STAT SP IPHASW D HRMM SECON CODA AMPLIT PERI AZIMU VELO AIN AR TRES W  DIS CAZ7
 BAR2 SZ IP        4 4 57.71                             160    0.2610 38.3  83 
 BAR2 SZ ES   1    4 5 10.45                             160    0.35 7 38.3  83 
 BRR  HZ IP     D  4 4 58.51                             148   -0.0110 64.8 342 
 BRR  HN ES   1    4 5 12.57                             148    0.56 7 64.8 342 
 BRR  HZ I         4 5 18.37       239.3 0.14                          64.8 342 
 GIR2 SZ IP        4 4 59.27                             146    0.2710 68.9  32 
 GIR2 SZ ES   2    4 5 12.96                             146    0.10 5 68.9  32 
 RUS  HZ EP   1    4 5  0.62                             140   -0.26 7 87.8 146 
 RUS  HN ES   2    4 5 16.40                             140    0.20 5 87.8 146 
 RUS  HZ I         4 5 17.82       136.5 0.20                          87.8 146 
 PTB  HZ IP     D  4 5  0.49                             135   -0.9810  103 269 
 PTB  HE ES   2    4 5 15.56                             135   -1.70 5  103 269 
 PAM  SZ EP        4 5  4.14                             128   -0.1110  126  46 
 PAM  SE ES   2    4 5 21.87                             128   -0.33 5  126  46 
 ZAR  HZ I         4 5 34.70       195.1 0.64                           180 305 
 YOP  SZ EP   2    4 5  8.73                             117   -0.57 4  180 137 
 YOP  SN ES   2    4 5 31.69                             117    0.49 4  180 137 
 ZAR  HZ EP   1    4 5  9.65                             117    0.49 7  180 305 
 ZAR  HE ES   2    4 5 31.43                             117    0.48 4  180 305 
 NOR  SZ EP        4 5  9.19                             117   -0.49 9  185 234 
 NOR  SN ES   2    4 5 31.60                             117   -0.28 4  185 234 
 OCA  SZ EP        4 5 10.20                             116    0.01 9  188   7 
 OCA  SZ ES   2    4 5 32.73                             116   -0.05 4  188   7 
 ROSC BZ EP   2    4 5 12.71                             114   -0.08 4  209 205 
 ROSC BN ES   2    4 5 37.06                             114   -0.34 4  209 205 
 ROSC BZ I         4 5 47.58        52.0 0.56                           209 205 
 CHI  HZ EP   1    4 5 13.35                             113   -0.03 6  214 186 
 CHI  HN ES   2    4 5 38.92                             113    0.47 4  214 186 
 CHI  HZ I         4 5 42.47        29.7 0.30                           214 186 
 HEL  HZ EP   1    4 5 14.68                             112    0.07 6  225 260 
 HEL  HN ES   2    4 5 40.73                             112    0.09 4  225 260 
 HEL  HZ I         4 5 48.73        57.8 0.61                           225 260 
 GUY  SZ EP   2    4 5 18.52                             109    0.56 4  253 235 
 GUY  SN ES   2    4 5 46.89                             109    0.28 4  253 235 
 GUY  SZ I         4 5 51.66       112.9 0.35                           253 235 
 VIL  SZ EP   1    4 5 19.93                             107    0.42 6  270 184 
 VIL  SN ES   1    4 5 49.11                             107   -0.26 6  270 184 
 VIL  SZ I         4 5 58.35        33.1 0.60                           270 184 
 RREF HZ EP   1    4 5 20.97                             107    0.64 6  272 228 
 RREF HN ES   1    4 5 50.50                             107   -0.33 6  272 228 
 RREF HZ I         4 5 57.36        43.9 0.41                           272 228 
 TOL  SZ EP   1    4 5 23.32                             106    0.72 5  295 223 
 TOL  SZ ES   2    4 5 55.61                             106    0.75 4  295 223 
 DBB  SZ EP        4 5 23.77                             105    0.72 7  301 280 
 DBB  SZ ES   2    4 5 55.89                             105    0.23 4  301 280 
 PRA  HZ EP   1    4 5 28.36                             102   -0.21 5  348 206 
 PRA  HN ES   1    4 6  5.44                             102   -0.05 5  348 206 
 SJA  SZ EP   2    4 5 30.33                             101   -0.41 3  366 187 
 SJA  SZ ES   2    4 6  9.27                             101   -0.09 3  366 187 
 SDV  BZ EP   1    4 5 35.75                              99   -0.47 4  410  51 
 SDV  BZ I         4 5 36.87        30.3 0.46                           410  51 
 SDV  BN ES   2    4 6 18.13                              99   -0.98 3  410  51 
                                                                                
