 2017 1019 0626  7.9 L   6.796 -73.148143.7  RSN 17 0.5 2.5LRSN                1
 GAP=101        0.93       3.0     2.6  4.6 -0.6959E-02  0.2298E+01  0.4403E+01E
 Epicentro: LOS SANTOS - SANTANDER                                             3
 ACTION:UPD 17-11-07 19:33 OP:rebc STATUS:               ID:20171019062607 L   I
 OLDACT:UP  17-10-19 16:33 OP:dani STATUS:               ID:20171019061436     3
 OLDACT:REG 17-10-19 13:33 OP:dani STATUS:               ID:20171019061436     3
 2017-10-19-0618-00M.COL___438                                                 6
 STAT SP IPHASW D HRMM SECON CODA AMPLIT PERI AZIMU VELO AIN AR TRES W  DIS CAZ7
 BAR2 EZ IP     D  626 27.11                             170   -0.1810 22.9 190 
 BAR2 EZ ES        626 42.14                             170   -0.2610 22.9 190 
 BAR2 EZ I         626 42.99       117.5 0.20            168           22.9 190 
 BRR  HZ IP     D  626 29.03                             152    0.1810 71.2 299 
 BRR  HN ES        626 46.04                             152    0.8710 71.2 299 
 BRR  HZ I         626 50.05        60.3 0.30            153           71.2 299 
 PAM  EZ IP     D  626 29.98                             150    0.0310 77.8  39 
 PAM  EN ES        626 47.09                             150   -0.0310 77.8  39 
 PAM  EZ I         626 49.43        65.5 0.38            154           77.8  39 
 RUS  HZ EP        626 31.12                             143   -0.3210  100 176 
 RUS  HN ES        626 49.36                             143   -0.4210  100 176 
 RUS  HZ I         626 50.48        39.4 0.26            143            100 176 
 PTB  HZ EP        626 34.05                             132   -0.65 9  147 259 
 PTB  HN ES        626 54.85                             132   -0.73 9  147 259 
 PTB  HZ I         626 57.29        34.5 0.12            132            147 259 
 TAM  HZ EP        626 35.45                             130    0.00 9  155 105 
 TAM  HN ES        626 56.99                             130    0.08 9  155 105 
 TAM  HZ I         627  1.63        20.3 0.31            131            155 105 
 SPBC HZ EP        626 36.14                             129   -0.08 9  163 219 
 SPBC HN ES        626 58.86                             129    0.57 9  163 219 
 SPBC HZ I         627  0.23        36.5 0.24            129            163 219 
 YPLC HZ EP     C  626 37.49                             126   -0.05 9  177 151 
 YPLC HN ES        627  1.23                             126    0.59 9  177 151 
 YPLC HZ I         627  2.13        22.2 0.26            127            177 151 
 CHI  HZ EP        626 45.20                             117   -0.26 8  248 195 
 CHI  HN ES        627 14.48                             117   -0.25 8  248 195 
 CHI  HZ I         627 21.28        12.5 0.60            117            248 195 
 ROSC BZ EP   3    626 47.25                             116    1.37 2  252 211 
 ROSC BN ES   4    627 19.16                             116    3.68 0  252 211 
 ROSC BZ I         627 22.99        24.8 0.35            117            252 211 
 URE  HN ES   3    627 19.12                             113   -1.72 2  284 292 
 GUY2CHZ EP   3    626 52.94                             112    1.55 2  301 235 
 GUY2CHN ES        627 25.44                             112    0.15 7  301 235 
 GUY2CHZ I         627 31.78        13.2 0.34                           301 235 
 VIL  EZ EP        626 50.89                             112   -0.31 7  303 192 
 VIL  EN ES        627 25.28                             112    0.33 7  303 192 
 VIL  EZ I         627 29.27        17.7 0.30            112            303 192 
 DBB  EZ EP        626 55.83                             109    0.53 7  339 274 
 DBB  EN ES        627 32.29                             109    0.04 7  339 274 
 DBB  EZ I         627 34.58         7.6 0.22            110            339 274 
 PRA  HZ EP        627  1.18                             106   -0.14 6  392 210 
 PRA  HN ES        627 43.59                             106    0.62 6  392 210 
 PRA  HZ I         627 49.02        14.5 0.22            107            392 210 
 ORTC HZ EP        627  2.23                             106    0.51 6  395 216 
 ORTC HE ES   3    627 45.11                             106    1.43 1  395 216 
 ORTC HZ I         627 51.66        11.3 0.28            107            395 216 
 MACC HZ EP   4    627 14.24                             101   -2.29 0  520 189 
 MACC HN ES   4    628  6.75                             101   -3.29 0  520 189 
 MACC HZ I         628 12.56         3.7 0.64            102            520 189 
                                                                                
