 2016 1119 0319 45.6 L   6.755 -73.111141.4  RSN  5 0.4 1.5LRSN                1
 GAP=169        0.93       7.8     5.7  7.0 -0.2651E+02  0.2707E+01  0.1468E+02E
 Epicentro: LOS SANTOS - SANTANDER                                             3
 ACTION:UPD 17-10-26 21:09 OP:lp   STATUS:               ID:20161119031945 L   I
 OLDACT:UP  16-11-19 14:31 OP:and  STATUS:               ID:20161119031743     3
 OLDACT:REG 16-11-19 12:45 OP:and  STATUS:               ID:20161119031743     3
 2016-11-19-0318-00M.COL___340                                                 6
 STAT SP IPHASW D HRMM SECON CODA AMPLIT PERI AZIMU VELO AIN AR TRES W  DIS CAZ7
 BAR2 EZ EP        320  4.69                             172    0.1110 19.6 204 
 BAR2 EZ ES        320 19.29                             172   -0.1410 19.6 204 
 BAR2 EZ I         320 20.82         8.1 0.26            171           19.6 204 
 BRR  HZ EP        320  6.45                             150   -0.1310 77.0 300 
 BRR  HN ES     D  320 23.52                             150    0.5410 77.0 300 
 PAM  EZ IP     C  320  7.60                             149    0.2010 79.0  35 
 PAM  EN ES        320 24.25                             149   -0.2010 79.0  35 
 PAM  EZ I         320 26.85         4.6 0.50            151           79.0  35 
 PTB  HZ EP        320 11.74                             130   -0.70 9  151 261 
 PTB  HN ES        320 33.07                             130   -0.34 9  151 261 
 PTB  HZ I         320 35.68         3.4 0.18            131            151 261 
 NOR  HZ EP        320 21.67                             117    0.61 8  235 236 
 NOR  HN ES        320 48.94                             117    0.18 8  235 236 
 NOR  HZ I         320 50.87         2.8 0.18            119            235 236 
                                                                                
