 2013 1119 0850  7.9 L   6.787 -73.168139.0  RSN  9 0.4 1.8LRSN                1
 GAP=134        0.90       3.0     4.1  6.8 -0.8489E+00  0.4860E+01  0.1687E+01E
 Epicentro: LOS SANTOS - SANTANDER                                             3
 ACTION:UPD 14-01-09 16:29 OP:ep   STATUS:               ID:20131119085007 L   I
 OLDACT:REG 13-11-19 07:24 OP:mh   STATUS:               ID:20131119085000     3
 2013-11-19-0850-00M.COL___279                                                 6
 STAT SP IPHASW D HRMM SECON CODA AMPLIT PERI AZIMU VELO AIN AR TRES W  DIS CAZ7
 BRR  HZ EP        850 28.78                             152    0.5310 69.8 301 
 BRR  HN ES   1    850 44.00                             152   -0.12 7 69.8 301 
 BRR  HZ I         850 48.97        11.4 0.15            150           69.8 301 
 PAM  SZ EP   1    850 29.93                             148    0.35 7 80.1  40 
 PAM  SN ES        850 46.59                             148    0.1110 80.1  40 
 PAM  SZ I         850 48.84        21.4 0.47            154           80.1  40 
 RUS  HZ EP   1    850 30.82                             143   -0.09 7 99.3 175 
 RUS  HN ES        850 48.79                             143   -0.0610 99.3 175 
 RUS  HZ I         850 50.49         8.5 0.36            146           99.3 175 
 PTB  HZ EP   1    850 33.73                             131   -0.36 7  145 259 
 PTB  HN ES        850 53.96                             131   -0.55 9  145 259 
 PTB  HZ I         851  0.27         5.3 0.26            132            145 259 
 SPBC HZ EP   1    850 35.57                             128   -0.07 7  160 219 
 SPBC HN ES   1    850 57.27                             128   -0.00 7  160 219 
 SPBC HZ I         851  1.15         8.8 0.25            130            160 219 
 OCA  HZ EP   1    850 35.73                             128   -0.09 7  161 354 
 OCA  HN ES   1    850 56.97                             128   -0.62 7  161 354 
 OCA  HZ I         851  1.75         9.4 0.20            131            161 354 
 ZAR  HZ EP   4    850 41.62                             121    1.87 0  202 293 
 ZAR  HN ES        851  5.40                             121    0.82 9  202 293 
 ZAR  HZ I         851 11.32         5.8 0.25            123            202 293 
 SML  HZ EP   1    850 43.29                             116   -0.91 6  244 336 
 CHI  HZ EP        850 45.26                             116    0.24 8  247 195 
 CHI  HN ES   1    851 13.81                             116   -0.15 6  247 195 
 CHI  HZ I         851 18.45         2.1 0.34            119            247 195 
                                                                                
