 2016 1019 0025 50.8 L   6.823 -73.074152.0  RSN  4 0.3 1.2LRSN                1
 GAP=145        0.67       4.0     7.3  5.8 -0.7487E+01  0.6700E+01 -0.1553E+01E
 Epicentro: LOS SANTOS - SANTANDER                                             3
 ACTION:UPD 16-11-09 19:20 OP:rebc STATUS:               ID:20161019002550 L   I
 OLDACT:REG 16-10-19 12:08 OP:and  STATUS:               ID:20161019001732     3
 2016-10-19-0018-00M.COL___332                                                 6
 STAT SP IPHASW D HRMM SECON CODA AMPLIT PERI AZIMU VELO AIN AR TRES W  DIS CAZ7
 BAR2 EZ EP     D  026 11.08                             169   -0.1810 28.2 205 
 BAR2 EZ ES        026 27.12                             169   -0.1310 28.2 205 
 BAR2 EZ I         026 28.84         5.0 0.30            168           28.2 205 
 PAM  EZ IP     D  026 13.73                             154    0.4510 70.5  36 
 PAM  EN ES        026 30.64                             154   -0.2010 70.5  36 
 PAM  EZ I         026 31.41         3.8 0.24            156           70.5  36 
 BRR  HZ EP        026 12.83                             152   -0.1110 77.2 294 
 BRR  HN ES   2    026 30.76                             152    0.53 5 77.2 294 
 RUS  HZ EP        026 15.11                             144   -0.2010  103 181 
 RUS  HE ES        026 34.69                             144    0.2410  103 181 
 RUS  HZ I         026 37.34         1.2 0.44            144            103 181 
                                                                                
