 2012  819 0834 40.7 L   6.817 -73.137145.0  RSN 14 0.5 2.6LRSN                1
 GAP= 66        0.95       3.2     2.9  5.6  0.1818E+01  0.3986E+01  0.3650E+01E
 Epicentro: LOS SANTOS - SANTANDER                                             3
 ACTION:UPD 12-09-10 11:57 OP:ep   STATUS:               ID:20120819083440 L   I
 2012-08-19-0830-00M.COL___217                                                 6
 STAT SP IPHASW D HRMM SECON CODA AMPLIT PERI AZIMU VELO AIN AR TRES W  DIS CAZ7
 BAR2 SZ EP   1    835  0.11                             170   -0.19 7 25.3 192 
 BAR2 SZ ES   1    835 14.73                             170   -0.84 7 25.3 192 
 BAR2 SZ I         835 17.16       121.0 0.35                          25.3 192 
 BRR  HZ IP     C  835  2.04                             152    0.2610 71.2 297 
 BRR  HZ I         835  5.90        74.0 0.14                          71.2 297 
 BRR  HN ES        835 18.94                             152    0.7310 71.2 297 
 PAM  SZ EP   1    835  3.03                             151    0.30 7 75.3  40 
 PAM  SN ES        835 19.98                             151    0.0910 75.3  40 
 PAM  SZ I         835 21.89        43.9 0.40                          75.3  40 
 RUS  HZ EP   1    835  4.00                             143   -0.52 7  102 177 
 RUS  HE ES   1    835 22.67                             143   -0.42 7  102 177 
 RUS  HZ I         835 23.49        52.2 0.33                           102 177 
 PTB  HZ EP   1    835  7.03                             131   -0.72 7  149 258 
 PTB  HN ES   1    835 28.09                             131   -0.74 7  149 258 
 PTB  HZ I         835 29.45        32.9 0.19                           149 258 
 TAM  HZ EP        835  8.43                             130    0.14 9  155 106 
 TAM  HZ I         835  8.62        54.7 0.12                           155 106 
 TAM  HE ES   1    835 29.68                             130   -0.11 7  155 106 
 OCA  HZ EP   1    835  8.52                             130   -0.29 7  159 353 
 OCA  HN ES   1    835 30.07                             130   -0.64 7  159 353 
 OCA  HZ I         835 33.70        54.5 0.27                           159 353 
 YOP  SZ EP   1    835 10.81                             126   -0.02 7  180 154 
 YOP  SN ES        835 34.78                             126    0.47 9  180 154 
 YOP  SZ I         835 37.62        38.5 0.33                           180 154 
 ZAR  HZ EP   1    835 13.49                             122    0.35 6  204 292 
 ZAR  HN ES        835 39.07                             122    0.65 9  204 292 
 ZAR  HZ I         835 45.13        35.4 0.10                           204 292 
 NOR  SZ EP   1    835 16.73                             118    0.12 6  237 234 
 NOR  SN ES   1    835 44.80                             118    0.20 6  237 234 
 NOR  SZ I         835 49.96        23.9 0.16                           237 234 
 CHI  HZ EP   1    835 18.86                             117    0.26 6  251 195 
 CHI  HN ES   1    835 48.34                             117    0.20 6  251 195 
 CHI  HZ I         835 50.89        15.6 0.30                           251 195 
 HEL  HZ EP   1    835 20.99                             114   -0.06 6  274 255 
 HEL  HN ES        835 52.42                             114   -0.09 8  274 255 
 HEL  HZ I         835 59.35        23.0 0.46                           274 255 
 URE  HZ EP   1    835 21.10                             113   -0.68 6  284 291 
 URE  HE ES   2    835 52.36                             113   -1.44 4  284 291 
 DBB  SZ EP   1    835 28.92                             109    0.66 5  340 274 
                                                                                
