 2016  719 0124 34.3 L   6.799 -73.147152.0  RSN  6 0.4 2.0LRSN                1
 GAP=136        0.91       4.2     5.0  6.4  0.1989E+01  0.7538E+01  0.6680E+01E
 Epicentro: LOS SANTOS - SANTANDER                                             3
 ACTION:UPD 17-03-29 16:52 OP:lp   STATUS:               ID:20160719012434 L   I
 OLDACT:REG 16-07-19 12:21 OP:ar   STATUS:               ID:20160719011659     3
 2016-07-19-0116-59S.COL___334                                                 6
 STAT SP IPHASW D HRMM SECON CODA AMPLIT PERI AZIMU VELO AIN AR TRES W  DIS CAZ7
 BAR2 EZ EP        124 54.81                             171    0.1110 23.2 190 
 BAR2 EZ ES        125 10.41                             171   -0.1910 23.2 190 
 BRR  HZ EP        124 55.31                             154   -0.8410 71.1 299 
 BRR  HN ES        125 13.69                             154    0.5210 71.1 299 
 BRR  HZ I         125 16.07        28.8 0.42            152           71.1 299 
 PAM  EZ EP        124 57.63                             152    0.4110 77.6  40 
 PAM  EN ES        125 15.00                             152   -0.0810 77.6  40 
 RUS  HZ EP        124 58.62                             145   -0.0710  100 176 
 RUS  HN ES        125 17.70                             145    0.0110  100 176 
 ZAR  HN ES        125 32.75                             124   -0.04 9  204 292 
 ZAR  HZ I         125 34.89         4.2 0.10            123            204 292 
 PRA  HZ EP        125 28.31                             108    0.26 6  392 210 
 PRA  HN ES        126 10.13                             108    0.18 6  392 210 
 PRA  HZ I         126 16.76         2.6 0.34            107            392 210 
                                                                                
