 2011  519 0749  5.4 L   6.762 -73.117146.5  RSN 19 0.3 3.6LRSN                1
 GAP=142        0.49       2.3     3.0  3.2 -0.3602E+01  0.2151E+01  0.1434E+01E
 Epicentro: LOS SANTOS - SANTANDER                                             3
 ACTION:UP  11-06-29 08:54 OP:tino STATUS:               ID:20110519074905 L   I
 2011-05-19-0747-22S.COL___141                                                 6
 STAT SP IPHASW D HRMM SECON CODA AMPLIT PERI AZIMU VELO SNR AR TRES W  DIS CAZ7
 BAR2 SZ IP        749 25.00                             172     0.010   20 201 
 BAR2 SZ ES   2    749 40.76                             172     0.4 5   20 201 
 BAR2 SZ I         749 42.49       749.2 0.23                            20 201 
 BTL  SZ IP        749 25.16                             170     0.110   24 316 
 BTL  SZ ES   2    749 40.56                             170     0.1 5   24 316 
 GIR2 SZ IP        749 25.21                             166     0.010   36 347 
 BRR  HZ IP     C  749 26.93                             151     0.110   76 300 
 BRR  HE ES   1    749 43.88                             151     0.2 7   76 300 
 BRR  HZ I         749 46.39       954.1 0.18                            76 300 
 PAM  SZ IP        749 27.86                             151     0.110   79  36 
 PAM  SE ES        749 44.88                             151    -0.310   79  36 
 RUS  HZ EP   1    749 28.97                             145     0.1 7   96 178 
 RUS  HN ES   2    749 47.00                             145    -0.2 5   96 178 
 RUS  HZ I         749 48.87       290.0 0.37                            96 178 
 BRI  SZ IP        749 29.65                             141     0.110  111  19 
 BRI  SZ ES   1    749 48.50                             141     0.1 7  111  19 
 BRI  SZ I         749 53.61       564.4 0.57                           111  19 
 GUE  SZ EP   2    749 30.26                             139    -0.2 5  120  10 
 GRA  SZ IP        749 30.92                             136     0.010  129  16 
 GRA  SZ ES   2    749 50.65                             136    -0.2 5  129  16 
 GRA  SZ I         749 51.59       514.4 0.38                           129  16 
 OCA  SZ EP   1    749 33.89                             129    -0.3 7  165 352 
 OCA  SZ ES   2    749 56.59                             129     0.0 5  165 352 
 OCA  SZ I         749 59.16       518.5 0.45                           165 352 
 NOR  SZ EP   1    749 40.93                             118    -0.2 6  235 236 
 NOR  SN ES   2    750  8.87                             118    -0.2 4  235 236 
 HEL  HZ EP   2    749 45.38                             115    -0.5 4  274 257 
 HEL  HE ES   2    750 17.20                             115    -0.2 4  274 257 
 HEL  HZ I         750 24.38       184.2 0.61                           274 257 
 VIL  SZ EP   2    749 48.29                             112    -0.1 4  300 192 
 VIL  SN ES   2    750 22.30                             112     0.3 4  300 192 
 VIL  SZ I         750 28.47       101.2 0.35                           300 192 
 GUY  SZ EP   1    749 49.62                             112     0.3 5  304 236 
 GUY  SN ES   1    750 22.78                             112    -0.8 5  304 236 
 GUY  SZ I         750 32.15       251.4 0.34                           304 236 
 RREF HZ EP   2    749 51.96                             111     0.5 3  321 230 
 RREF HN ES   2    750 27.78                             111     0.3 3  321 230 
 RREF HZ I         750 35.41       124.3 0.62                           321 230 
 DBB  SZ EP   1    749 53.50                             109     0.2 5  343 275 
 TOL  SZ EP   1    749 54.08                             109     0.5 5  343 226 
 PRA  HZ EP   2    749 58.30                             107    -0.4 3  390 210 
 PRA  HE ES   2    750 40.49                             107     0.3 3  390 210 
 SJA  SZ EP   2    749 58.92                             106    -0.6 3  397 194 
 SJA  SZ I         750 52.66       173.4 0.49                           397 194 
                                                                                
