 2014  419 0017 58.4 L   6.799 -73.162134.0  RSN 13 0.6 2.0LRSN                1
 GAP= 70        1.34       3.3     3.7  7.4 -0.1747E+01  0.6296E+01  0.1723E+01E
 Epicentro: LOS SANTOS - SANTANDER                                             3
 ACTION:UPD 14-05-13 23:09 OP:nd   STATUS:               ID:20140419001758 L   I
 OLDACT:DUP 14-04-19 14:30 OP:stll STATUS:               ID:20140419000818d    3
 2014-04-19-0008-17M.COL___239                                                 6
 STAT SP IPHASW D HRMM SECON CODA AMPLIT PERI AZIMU VELO AIN AR TRES W  DIS CAZ7
 BRR  HZ EP   9    018 19.03                             151    0.88 0 69.7 299 
 BRR  HN ES        018 35.31                                    0.8410 69.7 299 
 BRR  HZ I         018 40.33        14.5 0.46            151           69.7 299 
 PAM  SZ EP        018 20.08                             149    0.6710 78.6  40 
 PAM  SN ES        018 36.61                             149    0.7810 78.6  40 
 PAM  SZ I         018 38.99        33.2 0.52            153           78.6  40 
 RUS  HZ EP        018 21.14                             142    0.1710  101 175 
 RUS  HN ES        018 38.82                             142    0.2110  101 175 
 RUS  HZ I         018 40.77        12.1 0.26            146            101 175 
 PTB  HZ EP        018 24.26                             130    0.04 9  146 259 
 PTB  HN ES        018 44.05                             130   -0.35 9  146 259 
 PTB  HZ I         018 48.16        13.9 0.14            132            146 259 
 TAM  HZ IP     D  018 25.57                             128    0.28 9  157 105 
 TAM  HZ I         018 25.97        20.2 0.38            134            157 105 
 TAM  HE ES        018 45.40                             128   -0.89 9  157 105 
 OCA  HZ IP        018 25.49                             128   -0.27 9  160 354 
 OCA  HZ EP        018 26.50                             127            160 354 
 OCA  HN ES        018 46.93                             128   -0.21 9  160 354 
 OCA  HZ I         018 50.96        13.8 0.48            131            160 354 
 SPBC HZ EP        018 26.21                             127    0.35 9  162 219 
 SPBC HN ES        018 47.27                             127   -0.05 9  162 219 
 SPBC HZ I         018 51.94        14.1 0.20            130            162 219 
 ZAR  HZ EP        018 30.19                             120    0.30 9  202 292 
 ZAR  HN ES        018 54.85                             120    0.36 9  202 292 
 ZAR  HZ I         019  1.08        13.1 0.58            123            202 292 
 NOR  HZ EP        018 33.96                             117    0.69 8  233 234 
 NOR  HE ES        018 59.92                             117   -0.58 8  233 234 
 NOR  HZ I         019  5.82         5.3 0.16            120            233 234 
 SML  HZ EP        018 33.62                             116   -0.66 8  243 336 
 SML  HN ES        019  1.12                             116   -1.17 8  243 336 
 SML  HZ I         019  5.40        13.2 0.26            119            243 336 
 CHI  HZ EP        018 34.87                             115   -0.50 8  248 195 
 CHI  HE ES        019  3.47                             115   -0.77 8  248 195 
 GUY2CHZ EP        018 42.35                             111    1.08 7  300 235 
 GUY2CHN ES        019 15.13                             111    0.38 7  300 235 
 GUY2CHZ I         019 19.08         3.9 0.38                           300 235 
 RREF HZ EP        018 43.52                             109   -0.33 7  320 229 
 RREF HN ES        019 19.17                             109   -0.17 7  320 229 
 RREF HZ I         019 25.00         3.2 0.28            112            320 229 
                                                                                
