 2016 1019 0419 37.2 L   6.796 -73.142145.5  RSN 17 0.5 2.2LRSN                1
 GAP= 66        1.07       3.2     3.3  5.3 -0.1403E+01  0.4273E+01  0.3502E+01E
 Epicentro: LOS SANTOS - SANTANDER                                             3
 ACTION:UPD 16-11-09 19:20 OP:rebc STATUS:               ID:20161019041937 L   I
 OLDACT:UP  16-10-19 16:50 OP:and  STATUS:               ID:20161019041736     3
 OLDACT:UP  16-10-19 16:47 OP:and  STATUS:               ID:20161019041736     3
 OLDACT:REG 16-10-19 12:44 OP:y    STATUS:               ID:20161019041736     3
 2016-10-19-0418-00M.COL___329                                                 6
 STAT SP IPHASW D HRMM SECON CODA AMPLIT PERI AZIMU VELO AIN AR TRES W  DIS CAZ7
 BAR2 EZ IP     D  419 56.60                             171   -0.1710 22.9 191 
 BAR2 EZ ES        420 11.87                             171   -0.1810 22.9 191 
 BAR2 EZ I         420 14.46        57.9 0.28            168           22.9 191 
 BRR  HZ EP     C  419 58.44                             152    0.1110 71.8 299 
 BRR  HN ES        420 15.50                             152    0.6710 71.8 299 
 BRR  HZ I         420 19.49        33.7 0.26            150           71.8 299 
 PAM  EZ IP     C  419 59.41                             151    0.0410 77.5  39 
 PAM  EN ES        420 16.60                             151   -0.0810 77.5  39 
 PAM  EZ I         420 20.13        17.7 0.46            155           77.5  39 
 RUS  HZ EP        420  0.49                             144   -0.3810  100 176 
 RUS  HN ES        420 19.42                             144    0.0710  100 176 
 RUS  HZ I         420 20.52        19.4 0.32            145            100 176 
 PTB  HZ EP        420  3.28                             132   -0.87 9  148 259 
 PTB  HN ES        420 24.58                             132   -0.61 9  148 259 
 PTB  HZ I         420 31.20        14.4 0.14            131            148 259 
 TAM  HZ IP     C  420  5.02                             131    0.23 9  155 105 
 TAM  HN ES        420 26.83                             131    0.50 9  155 105 
 OCA  HZ EP        420  4.70                             129   -0.82 9  161 353 
 OCA  HN ES        420 27.68                             129    0.06 9  161 353 
 OCA  HZ I         420 30.22        35.4 0.16            131            161 353 
 SPBC HZ EP        420  5.48                             129   -0.17 9  163 219 
 NOR  HZ EP        420 12.65                             118   -0.25 8  235 235 
 NOR  HN ES        420 41.15                             118    0.39 8  235 235 
 NOR  HZ I         420 46.16        13.1 0.18            119            235 235 
 CHI  HZ IP     C  420 14.93                             117    0.10 8  248 195 
 CHI  HN ES        420 44.12                             117   -0.07 8  248 195 
 CHI  HZ I         420 54.22         8.1 0.34            118            248 195 
 ROSC BZ EP   4    420 16.90                             117    1.64 0  253 211 
 ROSC BN ES   4    420 47.54                             117    2.57 0  253 211 
 ROSC BZ I         420 51.29        26.1 0.45            117            253 211 
 HEL  HZ EP        420 18.31                             115    0.90 8  272 256 
 HEL  HN ES        420 49.16                             115    0.38 8  272 256 
 HEL  HZ I         420 55.46         7.5 0.38            115            272 256 
 GUY2CHZ EP        420 21.64                             112    0.86 7  301 235 
 GUY2CHN ES   4    420 59.25                             112    4.46 0  301 235 
 GUY2CHZ I         421  2.81        10.7 0.34                           301 235 
 PTGC HZ EP   9    420 19.71                             112   -1.25 0  308 159 
 PTGC HN ES        420 53.22                                   -0.64 7  308 159 
 PTGC HZ I         420 55.01         8.1 0.56            113            308 159 
 CBOC HZ EP        420 24.82                             110    0.71 7  334 252 
 CBOC HE ES   3    421  0.06                             110   -0.65 2  334 252 
 CBOC HZ I         421  9.67         2.3 0.33            110            334 252 
 PRA  HZ EP        420 30.36                             106   -0.31 6  392 210 
 PRA  HE ES        421 12.01                             106   -0.38 6  392 210 
 PRA  HZ I         421 18.77        12.4 0.42            107            392 210 
 SJC  HZ EP   4    420 30.79                             106   -2.01 0  410 327 
 SJC  HN ES   4    421 11.83                             106   -4.36 0  410 327 
 SJC  HZ I         421 26.58         2.4 0.30            107            410 327 
                                                                                
