 2017  119 0803 20.0 L   6.774 -73.205133.6  RSN  5 0.3 0.9LRSN                1
 GAP=130        0.73       4.9     4.5  7.1 -0.5553E+01  0.1454E+02 -0.2384E+01E
 Epicentro: ZAPATOCA - SANTANDER                                               3
 ACTION:UPD 17-05-22 16:01 OP:jn   STATUS:               ID:20170119080320 L   I
 OLDACT:UP  17-01-19 19:06 OP:dani STATUS:               ID:20170119075741d    3
 OLDACT:DUP 17-01-19 19:04 OP:dani STATUS:               ID:20170119075741d    3
 OLDACT:UP  17-01-19 19:03 OP:dani STATUS:               ID:20170119075740     3
 OLDACT:REG 17-01-19 14:44 OP:dani STATUS:               ID:20170119075740     3
 2017-01-19-0758-00M.COL___315                                                 6
 STAT SP IPHASW D HRMM SECON CODA AMPLIT PERI AZIMU VELO AIN AR TRES W  DIS CAZ7
 BAR2 EZ EP        8 3 37.82                             171   -0.3110 20.2 173 
 BAR2 EZ ES        8 3 52.51                             171    0.2610 20.2 173 
 BAR2 EZ I         8 3 53.56         2.8 0.31            171           20.2 173 
 BRR  HZ EP        8 3 39.86                             152    0.2410 67.1 303 
 PAM  EN ES        8 3 57.92                             146   -0.1310 83.9  42 
 RUS  HZ EP   1    8 3 42.15                             142   -0.28 7 98.4 172 
 RUS  HN ES   1    8 4  0.02                             142    0.12 7 98.4 172 
 RUS  HZ I         8 4  0.91         0.7 0.22            143           98.4 172 
 PTB  HZ EP        8 3 45.78                             130    0.41 9  141 259 
 PTB  HN ES        8 4  4.76                             130   -0.38 9  141 259 
 PTB  HZ I         8 4  7.79         1.3 0.19            131            141 259 
                                                                                
