 2012  719 0415 58.1 L   6.697 -73.236144.6  RSN  4 0.2 1.1LRSN                1
 GAP=202        0.40       5.9     4.7  7.1  0.1125E+02 -0.2617E+01 -0.2311E+01E
 Epicentro: BARICHARA - SANTANDER                                              3
 ACTION:UPD 12-08-14 11:45 OP:ep   STATUS:               ID:20120719041558 L   I
 2012-07-19-0410-00M.COL___201                                                 6
 STAT SP IPHASW D HRMM SECON CODA AMPLIT PERI AZIMU VELO AIN AR TRES W  DIS CAZ7
 BAR2 SZ EP   2    416 17.09                             175    -0.3 5   13 153 
 BRR  HZ EP   2    416 18.95                             153    -0.1 5   69 311 
 BRR  HN ES   2    416 35.54                             153     0.2 5   69 311 
 BRR  HZ I         416 39.05         4.3 0.20            156             69 311 
 RUS  HZ EP   2    416 21.20                             146     0.2 5   91 169 
 RUS  HE ES   2    416 38.96                             146     0.0 5   91 169 
 RUS  HZ I         416 41.65         1.7 0.40            152             91 169 
 PTB  HZ EP   1    416 24.10                             134     0.2 7  136 263 
 PTB  HN ES   1    416 43.96                             134    -0.1 7  136 263 
 PTB  HZ I         416 47.20         1.4 0.15            139            136 263 
