 2015  419 0552 41.4 L   6.825 -73.157149.4  RSN  8 0.4 1.4LRSN                1
 GAP=134        0.86       4.0     4.1  6.6  0.1120E+01  0.6959E+01  0.1569E+00E
 Epicentro: LOS SANTOS - SANTANDER                                             3
 ACTION:UPD 15-06-03 16:56 OP:cam  STATUS:               ID:20150419055241 L   I
 OLDACT:DUP 15-04-19 15:23 OP:spq  STATUS:               ID:20150419054749d    3
 2015-04-19-0547-48M.COL___274                                                 6
 STAT SP IPHASW D HRMM SECON CODA AMPLIT PERI AZIMU VELO AIN AR TRES W  DIS CAZ7
 BAR2 EZ EP        553  1.39                             170   -0.1410 25.9 186 
 BAR2 EZ ES   1    553 16.90                             170   -0.33 7 25.9 186 
 BAR2 EZ I         553 19.13         4.3 0.38            170           25.9 186 
 BRR  HZ EP        553  3.10                             154    0.2810 68.8 297 
 BRR  HN ES        553 20.08                             154    0.5510 68.8 297 
 BRR  HZ I         553 20.62         5.7 0.30            153           68.8 297 
 PAM  SZ EP        553  4.30                             152    0.3610 76.0  42 
 PAM  SN ES        553 21.18                             152   -0.3310 76.0  42 
 PAM  SZ I         553 21.78         5.4 0.18            154           76.0  42 
 RUS  HZ EP   1    553  5.50                             144   -0.23 7  103 175 
 RUS  HE ES   1    553 25.04                             144    0.34 7  103 175 
 RUS  HZ I         553 26.80         1.4 0.24            146            103 175 
 PTB  HZ EP        553  8.22                             133   -0.40 9  147 258 
 PTB  HN ES   1    553 29.29                             133   -0.56 7  147 258 
 PTB  HZ I         553 31.32         2.9 0.18            133            147 258 
 OCA  HN ES   1    553 31.75                             131   -0.08 7  157 353 
 OCA  HZ I         553 34.86         5.5 0.14            132            157 353 
 ZAR  HZ EP   1    553 14.52                             123    0.65 6  202 292 
 ZAR  HN ES        553 39.18                             123   -0.01 9  202 292 
 ZAR  HZ I         553 45.34         3.5 0.42            124            202 292 
 SML  HE ES   1    553 45.82                             119   -0.57 6  241 335 
 SML  HZ I         553 48.00         3.0 0.28            119            241 335 
                                                                                
