 2017  819 0614 19.9 L   6.782 -73.121136.4  RSN  4 0.3 1.3LRSN                1
 GAP=140        0.57       3.4     3.9  6.1  0.1971E+01  0.9974E+01  0.1889E+01E
 Epicentro: LOS SANTOS - SANTANDER                                             3
 ACTION:UPD 17-09-04 20:22 OP:rebc STATUS:               ID:20170819061419 L   I
 OLDACT:UP  17-08-19 14:49 OP:mg   STATUS:               ID:20170819060739d    3
 OLDACT:UP  17-08-19 14:47 OP:mg   STATUS:               ID:20170819060739d    3
 OLDACT:DUP 17-08-19 14:36 OP:mg   STATUS:               ID:20170819060739d    3
 OLDACT:UP  17-08-19 14:35 OP:mg   STATUS:               ID:20170819060738     3
 OLDACT:UP  17-08-19 14:30 OP:mg   STATUS:               ID:20170819060738     3
 OLDACT:UP  17-08-19 14:29 OP:mg   STATUS:               ID:20170819060738     3
 OLDACT:UP  17-08-19 14:28 OP:mg   STATUS:               ID:20170819060738     3
 OLDACT:UP  17-08-19 14:27 OP:mg   STATUS:               ID:20170819060738     3
 OLDACT:UP  17-08-19 14:23 OP:mg   STATUS:               ID:20170819060738     3
 OLDACT:UP  17-08-19 14:23 OP:mg   STATUS:               ID:20170819060738     3
 OLDACT:UP  17-08-19 14:16 OP:mg   STATUS:               ID:20170819060738     3
 OLDACT:REG 17-08-19 12:22 OP:mg   STATUS:               ID:20170819060738     3
 2017-08-19-0608-00M.COL___411                                                 6
 STAT SP IPHASW D HRMM SECON CODA AMPLIT PERI AZIMU VELO AIN AR TRES W  DIS CAZ7
 BAR2 HZ EP   2    614 37.66                             170   -0.68 5 22.1 198 
 BAR2 HZ ES        614 52.57                             170   -0.1810 22.1 198 
 BAR2 EZ I         614 53.33         4.6 0.30            171           22.1 198 
 PAM  EZ EP   2    614 40.57                             149   -0.51 5 77.2  37 
 PAM  EN ES        614 57.84                             149    0.2110 77.2  37 
 PAM  EZ I         614 59.85         3.6 0.24            149           77.2  37 
 RUS  HZ EP        614 42.66                             142    0.1210 98.5 178 
 RUS  HN ES   1    615  0.37                             142    0.13 7 98.5 178 
 RUS  HZ I         615  1.82         3.3 0.28            144           98.5 178 
 ZAR  HZ EP   3    614 52.96                             120    0.91 2  207 292 
 ZAR  HN ES        615 17.21                             120    0.04 8  207 292 
 ZAR  HZ I         615 19.90         2.3 0.30            120            207 292 
                                                                                
