 2014  519 0510 52.3 L   6.809 -73.176134.0  RSN 12 0.4 1.6LRSN                1
 GAP= 69        1.20       4.3     3.9  7.1 -0.3372E+01  0.4961E+01  0.1129E+01E
 Epicentro: LOS SANTOS - SANTANDER                                             3
 ACTION:UPD 15-03-16 16:58 OP:nd   STATUS:               ID:20140519051051 L   I
 OLDACT:UP  14-05-19 19:22 OP:nlst STATUS:               ID:20140519051051 L   3
 OLDACT:REG 14-05-19 12:52 OP:spq  STATUS:               ID:20140519050812     3
 2014-05-19-0508-12M.COL___254                                                 6
 STAT SP IPHASW D HRMM SECON CODA AMPLIT PERI AZIMU VELO AIN AR TRES W  DIS CAZ7
 BRR  HZ IP   9 C  511 12.48                             152    0.45 0 67.8 299 
 BRR  HZ I         511 12.74        13.5 0.28            153           67.8 299 
 BRR  HN ES        511 29.15                             153    1.3210 67.8 299 
 PAM  SZ EP        511 13.54                             149    0.1310 78.8  42 
 PAM  SN ES        511 30.32                             149    0.4810 78.8  42 
 PAM  SZ I         511 32.79         9.5 0.48            153           78.8  42 
 RUS  HZ EP        511 15.02                             142   -0.0410  102 174 
 RUS  HN ES        511 32.73                             142   -0.0410  102 174 
 RUS  HZ I         511 34.66         2.5 0.26            142            102 174 
 PTB  HZ EP        511 17.35                             131   -0.74 9  145 258 
 PTB  HN ES        511 38.12                             131   -0.05 9  145 258 
 PTB  HZ I         511 40.93         5.4 0.28            131            145 258 
 TAM  HZ EP        511 19.15                             128   -0.30 9  159 105 
 SPBC HZ EP        511 19.97                             128    0.13 9  162 218 
 SPBC HN ES        511 41.50                             128    0.21 9  162 218 
 SPBC HZ I         511 48.05         4.3 0.26            128            162 218 
 ZAR  HZ EP        511 23.69                             121    0.01 9  201 292 
 ZAR  HZ I         511 25.63         4.5 0.26            123            201 292 
 ZAR  HN ES        511 48.25                             121    0.12 9  201 292 
 NOR  HZ EP        511 27.42                             117    0.23 8  233 234 
 NOR  HE ES        511 53.79                             117   -0.58 8  233 234 
 NOR  HZ I         511 58.52         4.5 0.36            118            233 234 
 SML  HZ EP   1    511 27.53                             116   -0.55 6  241 336 
 SML  HN ES   2    511 54.66                             116   -1.30 4  241 336 
 HEL  HZ EP        511 32.56                             114    0.91 8  269 255 
 HEL  HN ES        512  1.85                             114   -0.46 8  269 255 
 HEL  HZ I         512  9.07         2.3 0.58            115            269 255 
 GUY2CHN ES        512  9.12                             111    0.51 7  299 234 
 GUY2CHZ I         512 19.77         2.4 0.64                           299 234 
 PRA  HZ EP   1    511 45.41                             105    0.02 4  391 209 
 PRA  HN ES   1    512 27.44                             105    0.67 4  391 209 
 PRA  HZ I         512 33.55         2.1 0.32            106            391 209 
                                                                                
