 2011  919 0330 54.4 L   7.323 -73.140  4.0  RSN 17 0.5 3.5LRSN 4.1WRSN        1
 SPEC AVERAGE  MO 15.2 ST  1.5 OM  4.9 f0 1.75 R1.7288 AL 1.26 WI 30.0 MW  4.1 3
 SPEC SD       MO  0.2 ST0.656 OM  2.3 f00.496 R0.4210 AL      WI      MW  0.1 3
 GAP= 73        0.95       1.8     2.4  5.1 -0.3153E+00  0.1841E+01  0.4471E+00E
 Epicentro: RIONEGRO - SANTANDER                                               3
 SPEC MON HH Z MO 15.3 ST  1.2 OM  2.6 f0 1.49 R1.8872 AL 0.98 WI 35.5 MW  4.1 3
 SPEC MON HH Z T 33140 K 0.020 GD  321 VP 7.60 DE 3.20 Q0230.0 QA 0.60 VS 4.20 3
 SPEC HEL HH Z MO 14.9 ST  2.5 OM  2.3 f0 2.44 R1.1525 AL 1.60 WI 29.6 MW  3.9 3
 SPEC HEL HH Z T 33133 K 0.020 GD  292 VP 7.60 DE 3.20 Q0230.0 QA 0.60 VS 4.20 3
 SPEC COD HH Z MO 15.3 ST0.954 OM  2.7 f0 1.31 R2.1466 AL 1.20 WI 24.8 MW  4.2 3
 SPEC COD HH Z T 33134 K 0.020 GD  291 VP 7.60 DE 3.20 Q0230.0 QA 0.60 VS 4.20 3
 Evento Sentido                                                                2
 Reportado como Sentido en:                                                    3
 FLORIDABLANCA, BUCARAMANGA, GIRON, RIONEGRO, LEBRIJA                          3
 ACTION:UPD 12-07-13 15:58 OP:ep   STATUS:               ID:20110919033054 L   I
 2011-09-19-0329-58S.COL___171                                                 6
 STAT SP IPHASW D HRMM SECON CODA AMPLIT PERI AZIMU VELO AIN AR TRES W  DIS CAZ7
 GIR2 SZ IP        330 59.32                              47    0.0110 27.6 192 
 GIR2 SZ ES   1    331  3.23                              47    0.07 7 27.6 192 
 BTL  SZ IP        331  2.16                              47   -0.1710 46.9 197 
 PAM  SZ IP        331  3.28                              47    0.4210 48.7  88 
 PAM  SE ES   1    331  8.44                              47   -1.04 7 48.7  88 
 GUE  SZ EP        331  4.46                              47   -0.0710 60.9  23 
 SAN  SZ IP        331  5.19                              47    0.5810 62.2 173 
 SAN  SZ ES   1    331 12.34                              47   -0.25 7 62.2 173 
 BRR  HZ IP     C  331  5.30                              47    0.0910 67.5 249 
 BRR  HE ES   1    331 13.55                              47   -0.09 7 67.5 249 
 BRR  HZ I         331 15.01      2143.1 0.14                          67.5 249 
 BAR2 SZ IP        331  7.23                              47   -0.2610 81.0 183 
 BAR2 SZ ES   2    331 17.07                              47   -0.65 5 81.0 183 
 OCA  SZ IP        331 10.99                              47    0.2210  103 349 
 OCA  SZ ES   1    331 23.47                              47   -0.08 7  103 349 
 OCA  SZ I         331 25.31      1366.1 0.37                           103 349 
 RUS  HZ IP     D  331 19.32                              47   -0.16 9  158 178 
 RUS  HN ES   3    331 38.05                              47   -1.00 2  158 178 
 RUS  HZ I         331 40.16       576.8 0.24                           158 178 
 ZAR  HZ EP        331 23.03                              37   -0.44 9  191 276 
 ZAR  HN ES   1    331 45.06                              37   -1.09 7  191 276 
 ZAR  HZ I         331 46.52      1215.9 0.28                           191 276 
 YOP  SZ EP   1    331 29.15                              37    0.39 6  232 160 
 NOR  SZ EP        331 34.29                              37    0.48 8  273 225 
 COD  HZ EP        331 36.27                              37    0.29 7  291 353 
 COD  HZ I         332 17.13       137.8 0.42                           291 353 
 HEL  HZ EP        331 36.49                              37   -0.13 7  292 245 
 HEL  HZ I         332 16.70       118.9 0.34                           292 245 
 ROSC BN ES   3    332 13.24                              36    1.03 2  304 205 
 ROSC BZ I         332 28.07       143.5 0.35                           304 205 
 CHI  HZ EP   1    331 39.42                              36    1.18 5  305 192 
 MON  HZ IP   4    331 40.57                              36    0.80 0  321 300 
 GUY  SZ EP        331 43.28                              36    0.58 7  340 227 
 GUY  SZ I         332 34.60       126.9 0.42                           340 227 
                                                                                
