 2014  719 0009 21.8 L   6.871 -73.206138.7  RSN 12 0.5 2.0LRSN                1
 GAP=126        1.19       3.6     4.2  7.6 -0.1182E+01  0.1005E+02 -0.4896E+01E
 Epicentro: BETULIA - SANTANDER                                                3
 ACTION:UPD 15-03-16 20:45 OP:nd   STATUS:               ID:20140719000921 L   I
 OLDACT:REG 14-07-19 12:53 OP:fm   STATUS:               ID:20140718235950     3
 2014-07-18-2359-50M.COL___269                                                 6
 STAT SP IPHASW D HRMM SECON CODA AMPLIT PERI AZIMU VELO AIN AR TRES W  DIS CAZ7
 BAR2 SZ EP        0 9 40.89                             167    0.1510 30.9 175 
 BAR2 SZ ES   1    0 9 55.03                             167   -0.50 7 30.9 175 
 BAR2 SZ I         0 9 56.07        29.0 0.14            168           30.9 175 
 BRR  HZ EP        0 9 42.00                             155    0.3710 61.7 295 
 BRR  HN ES        0 9 57.64                             155    0.5210 61.7 295 
 BRR  HZ I         0 9 58.38        21.3 0.14            151           61.7 295 
 PAM  SZ EP        0 9 43.63                             150    0.4610 76.3  47 
 PAM  SN ES        0 9 59.86                             150   -0.0010 76.3  47 
 PAM  SZ I         010  2.08        10.9 0.44            153           76.3  47 
 RUS  HZ EP        0 9 45.54                             140    0.0610  109 173 
 RUS  HN ES        010  4.35                             140    0.3810  109 173 
 RUS  HZ I         010  5.34         6.9 0.24            142            109 173 
 PTB  HZ EP        0 9 47.28                             131   -0.45 9  143 255 
 PTB  HN ES        010  7.19                             131   -0.79 9  143 255 
 PTB  HZ I         010 11.00        18.3 0.34            130            143 255 
 OCA  HZ EP   1    0 9 48.48                             130   -0.26 7  152 355 
 OCA  HN ES        010  9.01                             130   -0.76 9  152 355 
 OCA  HZ I         010 17.19        13.8 0.42            130            152 355 
 SPBC HN ES        010 11.26                             127   -0.66 9  165 215 
 SPBC HZ I         010 17.43         9.7 0.34            127            165 215 
 ZAR  HZ EP        0 9 53.15                             122    0.33 9  195 291 
 ZAR  HN ES        010 18.11                             122    1.07 9  195 291 
 ZAR  HZ I         010 26.46        10.2 0.28            121            195 291 
 SML  HZ EP        0 9 56.56                             117   -0.38 8  234 336 
 SML  HN ES        010 24.20                             117   -0.16 8  234 336 
 SML  HZ I         010 28.34        15.4 0.10            117            234 336 
 NOR  HZ EP   4    0 9 50.75                             117   -6.28 0  234 232 
 NOR  HE ES   4    010 25.74                             117    1.22 0  234 232 
 NOR  HZ I         010 30.56         4.9 0.16            117            234 232 
 HEL  HZ EP   4    010  3.23                             114    2.09 0  268 254 
 HEL  HN ES        010 32.01                             114    0.16 8  268 254 
 HEL  HZ I         010 39.39         3.5 0.32            114            268 254 
 URE  HN ES        010 32.43                             113   -0.03 8  275 291 
 URE  HZ I         010 38.26        14.0 0.24            113            275 291 
                                                                                
