 2015  219 0502  7.6 L   7.454 -73.201131.4  RSN  9 0.4 1.6LRSN                1
 GAP=111        1.03       2.9     4.9  6.3  0.5957E+00  0.7674E+01  0.1837E+01E
 Epicentro: EL PLAYON - SANTANDER                                              3
 ACTION:UPD 15-04-30 21:27 OP:nd   STATUS:               ID:20150219050208dL   I
 OLDACT:DUP 15-02-19 18:10 OP:mh   STATUS:               ID:20150219045744d    3
 2015-02-19-0457-43M.COL___296                                                 6
 STAT SP IPHASW D HRMM SECON CODA AMPLIT PERI AZIMU VELO AIN AR TRES W  DIS CAZ7
 PAM  SZ EP        5 2 26.96                             156   -0.1510 56.7 103 
 PAM  SN ES        5 2 42.20                             156   -0.1210 56.7 103 
 PAM  SZ I         5 2 44.15         6.5 0.36            157           56.7 103 
 BRR  HZ EP        5 2 27.37                             151    0.3410 68.2 236 
 BRR  HN ES        5 2 42.47                             151    0.2910 68.2 236 
 BRR  HZ I         5 2 42.86         9.2 0.40            150           68.2 236 
 OCA  HZ EP        5 2 29.12                             144    0.5910 87.8 351 
 OCA  HN ES   1    5 2 45.60                             144    0.74 7 87.8 351 
 OCA  HZ I         5 2 49.56         8.5 0.48            147           87.8 351 
 BAR2 EZ EP   1    5 2 29.49                             142    0.29 7 95.3 179 
 BAR2 EZ ES        5 2 45.66                             142   -0.3910 95.3 179 
 BAR2 EZ I         5 2 46.83        19.4 0.09            141           95.3 179 
 PTB  HZ EP        5 2 35.53                             124   -0.25 9  172 234 
 PTB  HN ES        5 2 57.32                             124   -0.45 9  172 234 
 PTB  HZ I         5 3  1.62         6.4 0.12            124            172 234 
 RUS  HZ EP        5 2 36.30                             124   -0.26 9  173 176 
 RUS  HN ES        5 2 58.67                             124   -0.48 9  173 176 
 RUS  HZ I         5 3  5.86         1.7 0.36            124            173 176 
 SML  HZ EP        5 2 35.56                             123   -0.76 9  177 327 
 SML  HN ES        5 2 58.45                             123   -0.28 9  177 327 
 SPBC HZ EP        5 2 41.25                             117    0.14 8  221 206 
 SPBC HN ES        5 3  7.55                             117    0.29 8  221 206 
 SPBC HZ I         5 3 14.38         5.2 0.32            117            221 206 
 URE  HZ EP   4    5 2 45.92                             113    0.68 0  259 277 
 URE  HN ES   4    5 3 13.81                             113   -0.79 0  259 277 
 CHI  HZ EP   1    5 2 53.06                             108    0.64 5  318 191 
 CHI  HN ES        5 3 28.18                             108    0.81 7  318 191 
 CHI  HZ I         5 3 35.92         1.2 0.30            109            318 191 
                                                                                
