 2015 1019 0904 27.0 L   6.259 -73.567113.7  RSN 10 0.3 1.5LRSN                1
 GAP= 78        0.62       1.5     2.5  3.8 -0.7170E+00  0.3058E+01 -0.1274E+01E
 Epicentro: EL GUACAMAYO - SANTANDER                                           3
 ACTION:UPD 15-12-22 20:41 OP:cam  STATUS:               ID:20151019090427 L   I
 OLDACT:REG 15-10-19 12:49 OP:mh   STATUS:               ID:20151019085741     3
 2015-10-19-0857-41M.COL___331                                                 6
 STAT SP IPHASW D HRMM SECON CODA AMPLIT PERI AZIMU VELO AIN AR TRES W  DIS CAZ7
 BAR2 EZ IP     D  9 4 44.52                             152    0.3510 56.3  49 
 BAR2 EZ ES   1    9 4 57.70                             152    0.12 7 56.3  49 
 BAR2 EZ I         9 4 59.55        14.3 0.33            149           56.3  49 
 RUS  HZ EP   1    9 4 45.35                             148    0.15 7 67.2 127 
 RUS  HE ES        9 4 59.28                             148   -0.1310 67.2 127 
 RUS  HZ I         9 4 59.90         3.9 0.24            146           67.2 127 
 SPBC HZ EP        9 4 45.77                             140   -0.3210 87.3 220 
 SPBC HN ES        9 5  1.03                             140    0.0310 87.3 220 
 BRR  HZ EP   1    9 4 46.38                             137   -0.22 7 95.2 350 
 BRR  HN ES        9 5  1.71                             137   -0.2010 95.2 350 
 BRR  HZ I         9 5  3.38         5.3 0.46            136           95.2 350 
 PAM  EZ EP        9 4 52.51                             123   -0.22 9  153  39 
 PAM  EN ES        9 5 12.86                             123    0.05 9  153  39 
 PAM  EZ I         9 5 18.74         2.7 0.28            121            153  39 
 CHI  HZ EP        9 4 55.34                             118   -0.22 9  181 186 
 CHI  HN ES        9 5 18.25                             118    0.39 9  181 186 
 CHI  HZ I         9 5 23.15         1.8 0.32            118            181 186 
 ZAR  HZ EP   1    9 4 56.47                             115   -0.35 6  197 314 
 ZAR  HN ES        9 5 20.12                             115    0.02 9  197 314 
 ZAR  HZ I         9 5 20.96         4.6 0.10            115            197 314 
 OCA  HZ EP   1    9 4 59.39                             112   -0.22 6  221   7 
 OCA  HN ES        9 5 24.99                             112   -0.07 8  221   7 
 OCA  HZ I         9 5 29.73         9.2 0.28            112            221   7 
 GUY2CHZ EP        9 5  1.20                             111    0.17 8  230 240 
 GUY2CHN ES   4    9 5 28.81                             111    1.22 0  230 240 
 GUY2CHZ I         9 5 37.40         2.9 0.42                           230 240 
 SML  HZ EP        9 5  7.05                             106    0.04 7  287 349 
 SML  HN ES        9 5 38.95                             106    0.72 7  287 349 
 SML  HZ I         9 5 40.91         3.7 0.10            106            287 349 
                                                                                
