 2015  219 0605 53.7 L   6.695 -73.571110.0  RSN 13 0.5 2.3LRSN                1
 GAP= 64        1.65       4.0     5.0  8.8 -0.2941E+01  0.8329E+01 -0.2220E+01E
 Epicentro: EL CARMEN - SANTANDER                                              3
 ACTION:UPD 15-04-30 21:27 OP:nd   STATUS:               ID:20150219060553 L   I
 OLDACT:REG 15-02-19 12:33 OP:mh   STATUS:               ID:20150219055743     3
 2015-02-19-0557-43M.COL___287                                                 6
 STAT SP IPHASW D HRMM SECON CODA AMPLIT PERI AZIMU VELO AIN AR TRES W  DIS CAZ7
 BAR2 EZ EP        6 6 10.34                             156    0.4910 44.4 105 
 BAR2 EZ ES        6 6 22.07                             156   -0.3710 44.4 105 
 BAR2 EZ I         6 6 23.42        39.1 0.08            160           44.4 105 
 BRR  HZ EP        6 6 10.06                             154    0.3710 48.1 341 
 BRR  HN ES        6 6 22.69                             154    0.5310 48.1 341 
 BRR  HZ I         6 6 23.52       120.8 0.11            148           48.1 341 
 PTB  HZ EP     C  6 6 13.15                             134   -0.2310 99.5 260 
 PTB  HN ES   4    6 6 27.55                             134   -1.19 0 99.5 260 
 PTB  HZ I         6 6 29.17        45.1 0.22            127           99.5 260 
 RUS  HZ EP        6 6 14.84                             134    0.4210  104 149 
 RUS  HN ES        6 6 30.77                             134    0.1910  104 149 
 RUS  HZ I         6 6 32.12        53.5 0.42            132            104 149 
 PAM  SZ EP   1    6 6 15.81                             129   -0.06 7  120  53 
 PAM  SN ES   1    6 6 32.70                             129   -0.46 7  120  53 
 PAM  SZ I         6 6 35.94        19.3 0.38            128            120  53 
 SPBC HZ EP        6 6 15.57                             127   -0.5610  128 206 
 SPBC HN ES        6 6 34.04                             127    0.4110  128 206 
 SPBC HZ I         6 6 42.32        40.7 0.22            122            128 206 
 OCA  HZ EP        6 6 20.24                             118   -0.62 9  173   9 
 OCA  HN ES        6 6 41.72                             118   -0.32 9  173   9 
 OCA  HZ I         6 6 47.31        34.2 0.42            115            173   9 
 NOR  HZ EP        6 6 22.95                             115    0.29 9  191 229 
 NOR  HN ES        6 6 44.59                             115   -0.66 9  191 229 
 NOR  HZ I         6 6 48.13        18.8 0.22            111            191 229 
 TAM  HZ EP        6 6 23.89                             114    0.33 9  199  98 
 TAM  HN ES        6 6 45.76                             114   -1.09 9  199  98 
 TAM  HZ I         6 6 48.08        20.8 0.26            113            199  98 
 CHI  HZ EP        6 6 27.91                             110    0.46 8  229 184 
 CHI  HN ES   4    6 6 55.73                             110    1.96 0  229 184 
 CHI  HZ I         6 6 59.78         5.1 0.26            109            229 184 
 SML  HZ EP        6 6 28.07                             109   -0.02 8  239 347 
 SML  HN ES        6 6 55.31                             109    0.39 8  239 347 
 SML  HZ I         6 7  0.79        43.1 0.22            107            239 347 
 URE  HN EP   4    6 6 29.03                             109    0.12 0  246 298 
 URE  HE ES   4    6 6 53.56                             109   -2.81 0  246 298 
 CBOC HZ EP   9    6 6 35.75                             105    2.07 0  285 251 
 CBOC HN ES        6 7  4.08                                   -2.85 7  285 251 
 DBB  SZ EP   1    6 6 34.83                             105    0.26 5  294 277 
 DBB  SZ I         6 7 12.39        38.6 0.44            103            294 277 
                                                                                
