 2017  219 0819 14.4 L   6.473 -73.190141.2  RSN 13 0.4 1.8LRSN                1
 GAP= 64        0.94       3.2     3.2  5.7 -0.1063E+01  0.4563E+01  0.2131E+01E
 Epicentro: VALLE DE SAN JOSE - SANTANDER                                      3
 ACTION:UPD 17-05-24 15:37 OP:jn   STATUS:               ID:20170219081914 L   I
 OLDACT:REG 17-02-19 12:49 OP:edw  STATUS:               ID:20170219081740     3
 2017-02-19-0818-00M.COL___351                                                 6
 STAT SP IPHASW D HRMM SECON CODA AMPLIT PERI AZIMU VELO AIN AR TRES W  DIS CAZ7
 BAR2 EZ IP     D  819 33.42                             174    0.0910 13.2   4 
 BAR2 EZ ES        819 47.72                             174   -0.3610 13.2   4 
 BAR2 EZ I         819 49.14        37.6 0.26            174           13.2   4 
 RUS  HZ EP     D  819 35.81                             154    0.3610 65.2 170 
 RUS  HN ES        819 52.21                             154    0.3410 65.2 170 
 RUS  HZ I         819 54.19        11.9 0.38            149           65.2 170 
 BRR  HZ EP        819 36.81                             145    0.4910 90.8 321 
 BRR  HN ES   4    819 54.43                             145    1.02 0 90.8 321 
 BRR  HZ I         819 56.50        13.5 0.34            140           90.8 321 
 PAM  EZ EP        819 38.90                             140    0.4710  110  29 
 PAM  EE ES        819 56.90                             140   -0.2810  110  29 
 PAM  EZ I         820  4.78         4.1 0.58            138            110  29 
 PTB  HZ EP        819 39.55                             132   -0.77 9  140 273 
 PTB  HN ES   4    819 59.42                             132   -1.12 0  140 273 
 PTB  HZ I         820  4.77         8.7 0.12            126            140 273 
 TAM  HZ EP        819 41.73                             129    0.03 9  155  91 
 TAM  HN ES        820  2.76                             129   -0.23 9  155  91 
 TAM  HZ I         820  4.51         8.3 0.36            127            155  91 
 NOR  HZ EP   4    819 48.21                             120    0.83 0  211 242 
 NOR  HN ES        820 13.00                             120   -0.10 8  211 242 
 NOR  HZ I         820 21.59         5.4 0.26            115            211 242 
 CHI  HZ EP        819 48.39                             120    0.42 8  212 196 
 CHI  HN ES        820 14.14                             120   -0.01 8  212 196 
 CHI  HZ I         820 21.41         2.0 0.66            115            212 196 
 ZAR  HZ EP        819 47.68                             120   -0.14 8  216 302 
 ZAR  HE ES        820 14.04                             120    0.16 8  216 302 
 ZAR  HZ I         820 19.58        10.4 0.28            115            216 302 
 ROSC BZ EP   4    819 50.59                             119    1.89 0  220 215 
 ROSC BZ I         820 23.79         2.8 0.30            114            220 215 
 PTGC HZ EP        819 53.72                             113   -0.80 7  277 155 
 PTGC HN ES   4    820 23.71                             113   -2.09 0  277 155 
 PTGC HZ I         820 28.06         8.8 0.26            109            277 155 
 URE  HZ EP   4    819 55.16                             112   -1.35 0  295 299 
 URE  HN ES   4    820 26.94                             112   -2.41 0  295 299 
 URE  HZ I         820 37.00         3.8 0.36            108            295 299 
 ORTC HZ EP   4    820  5.18                             107    0.72 0  364 219 
 ORTC HN ES        820 43.39                             107   -0.12 6  364 219 
 ORTC HZ I         820 50.74         1.9 0.16            103            364 219 
 SJC  HZ EP   4    820 10.34                             104   -2.82 0  438 330 
 SJC  HN ES   4    820 55.59                             104   -3.41 0  438 330 
                                                                                
