 2012  519 0606 49.5 L   6.810 -73.112151.1  RSN  7 0.5 1.8LRSN                1
 GAP=140        1.23      10.8    12.0 13.0  0.4652E+02  0.4647E+02  0.5257E+02E
 Epicentro: LOS SANTOS - SANTANDER                                             3
 ACTION:UP  12-07-05 12:06 OP:pat  STATUS:               ID:20120519060649 L   I
 2012-05-19-0600-00M.COL___200                                                 6
 STAT SP IPHASW D HRMM SECON CODA AMPLIT PERI AZIMU VELO SNR AR TRES W  DIS CAZ7
 BAR2 SZ EP        6 7  9.89                             170     0.110   25 198 
 BAR2 SZ ES   1    6 7 24.80                             170    -0.8 7   25 198 
 BAR2 SZ I         6 7 26.55        12.0 0.24                            25 198 
 PAM  SN ES   2    6 7 29.54                             152    -0.1 5   74  38 
 BRR  HZ IP     C  6 7 11.79                             152     0.510   74 296 
 BRR  HZ I         6 7 11.86        31.9 0.14                            74 296 
 BRR  HN ES   1    6 7 29.06                             152     0.7 7   74 296 
 RUS  HZ EP        6 7 14.06                             145     0.310  102 178 
 RUS  HZ I         6 7 33.48         5.5 0.36                           102 178 
 PTB  HZ EP        6 7 16.58                             132    -0.6 9  152 259 
 PTB  HZ I         6 7 45.02         5.3 0.42                           152 259 
 OCA  HE ES   2    6 7 39.85                             130    -0.6 5  160 352 
 ZAR  HN ES   2    6 7 48.18                             123    -0.2 4  207 291 
                                                                                
