 2016 1119 0519 36.9 L   6.828 -73.106143.6  RSN  6 0.3 1.4LRSN                1
 GAP=160        0.66       4.2     3.2  4.2 -0.3677E+01  0.2778E+01  0.1777E+01E
 Epicentro: LOS SANTOS - SANTANDER                                             3
 ACTION:UPD 17-10-26 21:09 OP:lp   STATUS:               ID:20161119051936 L   I
 OLDACT:REG 16-11-19 12:54 OP:and  STATUS:               ID:20161119051745     3
 2016-11-19-0518-00M.COL___340                                                 6
 STAT SP IPHASW D HRMM SECON CODA AMPLIT PERI AZIMU VELO AIN AR TRES W  DIS CAZ7
 BAR2 EZ IP     C  519 55.90                             169   -0.4210 27.4 198 
 BAR2 EZ ES        520 11.29                             169   -0.2110 27.4 198 
 BAR2 EZ I         520 13.07         4.9 0.28            169           27.4 198 
 PAM  EZ IP     D  519 58.89                             152    0.3410 72.2  38 
 PAM  EN ES        520 15.64                             152    0.1810 72.2  38 
 PAM  EZ I         520 17.84         4.9 0.42            153           72.2  38 
 BRR  HZ EP     C  519 57.73                             151   -0.2010 73.8 295 
 BRR  HN ES        520 14.48                             151    0.1310 73.8 295 
 PTB  HZ EP   9    520  2.79                             130   -1.32 0  153 258 
 PTB  HN ES        520 24.04                                    0.00 9  153 258 
 PTB  HZ I         520 26.13         3.0 0.26            130            153 258 
 ZAR  HZ EP        520  9.30                             121   -0.18 8  207 291 
 ZAR  HN ES        520 34.80                             121   -0.11 8  207 291 
 ZAR  HZ I         520 40.11         3.4 0.30            121            207 291 
 NOR  HZ EP        520 13.17                             117    0.12 8  240 234 
 NOR  HN ES        520 41.73                             117    0.46 8  240 234 
 NOR  HZ I         520 45.79         1.4 0.15            118            240 234 
                                                                                
