 2017  119 0906  0.7 L   6.777 -73.109152.2  RSN 10 0.5 1.7LRSN                1
 GAP=123        0.83       3.4     4.5  4.9  0.1827E+01  0.4217E+01  0.4378E+01E
 Epicentro: LOS SANTOS - SANTANDER                                             3
 ACTION:UPD 17-05-22 16:01 OP:jn   STATUS:               ID:20170119090600 L   I
 OLDACT:UP  17-01-19 19:33 OP:dani STATUS:               ID:20170119085739     3
 OLDACT:UP  17-01-19 19:31 OP:dani STATUS:               ID:20170119085739     3
 OLDACT:UP  17-01-19 19:29 OP:dani STATUS:               ID:20170119085739     3
 OLDACT:UP  17-01-19 19:29 OP:dani STATUS:               ID:20170119085739     3
 OLDACT:REG 17-01-19 14:48 OP:dani STATUS:               ID:20170119085739     3
 2017-01-19-0858-00M.COL___321                                                 6
 STAT SP IPHASW D HRMM SECON CODA AMPLIT PERI AZIMU VELO AIN AR TRES W  DIS CAZ7
 BAR2 EZ EP        9 6 21.00                             171   -0.0510 21.9 202 
 BAR2 EZ ES        9 6 36.95                             171    0.0110 21.9 202 
 BAR2 EZ I         9 6 38.77         8.1 0.26            170           21.9 202 
 BRR  HZ EP        9 6 22.98                             152    0.2010 75.9 299 
 BRR  HN ES        9 6 40.44                             152    0.4110 75.9 299 
 BRR  HZ I         9 6 43.51        11.3 0.52            151           75.9 299 
 PAM  EZ EP        9 6 23.82                             152    0.2710 77.0  36 
 PAM  EN ES        9 6 41.15                             152   -0.2410 77.0  36 
 PAM  EZ I         9 6 43.17         5.3 0.22            155           77.0  36 
 RUS  HZ EP        9 6 24.89                             146    0.0210 97.8 178 
 RUS  HN ES        9 6 43.62                             146   -0.1210 97.8 178 
 RUS  HZ I         9 6 44.62         4.0 0.34            147           97.8 178 
 PTB  HZ EP        9 6 28.44                             133   -0.04 9  151 260 
 PTB  HN ES   2    9 6 49.10                             133   -1.07 5  151 260 
 PTB  HZ I         9 6 51.13         5.6 0.12            133            151 260 
 ZAR  HZ EP     D  9 6 33.66                             123   -0.36 8  209 292 
 ZAR  HE ES   2    9 6 58.92                             123   -1.11 4  209 292 
 ZAR  HZ I         9 7  4.76         8.3 0.78            124            209 292 
 NOR  HZ EP   4    9 6 41.27                             120    4.29 0  236 236 
 CHI  HZ EP        9 6 38.81                             119    0.22 8  247 196 
 CHI  HN ES        9 7  8.55                             119    0.39 8  247 196 
 CHI  HZ I         9 7 12.57         2.2 0.35            120            247 196 
 GUY2CHZ EP   2    9 6 46.36                             113    1.57 4  303 236 
 GUY2CHN ES   4    9 7 23.06                             113    3.86 0  303 236 
 GUY2CHZ I         9 7 27.65         2.4 0.34                           303 236 
 PTGC HZ EP        9 6 43.76                             113   -0.63 7  305 159 
 PTGC HE ES   3    9 7 17.26                             113   -1.23 2  305 159 
 PTGC HZ I         9 7 19.61         2.9 0.30            114            305 159 
 SJC  HZ EP   9    9 6 55.16                             107   -1.80 0  414 327 
 SJC  HN ES        9 7 39.23                             106    0.17 6  414 327 
 SJC  HZ I         9 7 41.07         0.9 0.14            107            414 327 
 SJC  HZ I         9 7 48.91         1.5 0.41                           414 327 
                                                                                
