 2016  319 0758 35.8 L   6.788 -73.239138.0  RSN  5 0.4 1.0LRSN                1
 GAP=146        0.54       6.7     6.3  8.0 -0.2783E+02  0.6354E+01 -0.4871E+01E
 Epicentro: ZAPATOCA - SANTANDER                                               3
 ACTION:UPD 16-05-13 21:25 OP:cam  STATUS:               ID:20160319075835 L   I
 OLDACT:DUP 16-03-19 16:43 OP:dnl  STATUS:               ID:20160319074741d    3
 OLDACT:REG 16-03-19 12:58 OP:dnl  STATUS:               ID:20160319074740     3
 2016-03-19-0747-40M.COL___312                                                 6
 STAT SP IPHASW D HRMM SECON CODA AMPLIT PERI AZIMU VELO AIN AR TRES W  DIS CAZ7
 BAR2 EZ EP   3    758 54.38                             170   -0.13 2 22.5 164 
 BAR2 EZ ES   2    759  9.74                             170    0.66 5 22.5 164 
 PAM  EZ EP        758 57.53                             147   -0.2110 85.3  44 
 PAM  EN ES   2    759 14.97                             147    0.14 5 85.3  44 
 PAM  EZ I         759 17.70         1.4 0.23            153           85.3  44 
 RUS  HZ EP   2    758 59.07                             142    0.25 5  100 170 
 RUS  HN ES   3    759 16.05                             142   -0.70 2  100 170 
 RUS  HZ I         759 18.82         1.6 0.20            148            100 170 
 PTB  HZ EP   2    759  1.47                             133    0.24 5  137 259 
 PTB  HN ES   2    759 20.82                             133   -0.21 5  137 259 
 PTB  HZ I         759 24.99         1.2 0.16            136            137 259 
 SPBC HZ EP   2    759  3.57                             129    0.53 5  156 216 
 SPBC HN ES   2    759 23.70                             129   -0.55 5  156 216 
 SPBC HZ I         759 27.39         2.0 0.18            133            156 216 
                                                                                
