 2014 1119 0644 51.1 L   6.861 -73.136155.7  RSN 14 0.5 1.8LRSN                1
 GAP=135        1.13       3.1     4.5  5.5 -0.3121E+01  0.7789E+01  0.2184E+01E
 Epicentro: LOS SANTOS - SANTANDER                                             3
 ACTION:UPD 14-12-19 15:44 OP:nd   STATUS:               ID:20141119064451 L   I
 OLDACT:DUP 14-11-19 18:22 OP:fm   STATUS:               ID:20141119063744d    3
 2014-11-19-0637-43M.COL___289                                                 6
 STAT SP IPHASW D HRMM SECON CODA AMPLIT PERI AZIMU VELO AIN AR TRES W  DIS CAZ7
 BAR2 SZ EP        645 12.31                             169    0.2110 30.2 190 
 BAR2 SZ ES        645 28.64                             169    0.1810 30.2 190 
 BAR2 SZ I         645 29.35         6.9 0.10            167           30.2 190 
 BRR  HZ EP        645 14.02                             155    0.7610 69.3 293 
 BRR  HN ES        645 31.14                             155    0.6310 69.3 293 
 BRR  HZ I         645 34.62        11.4 0.48            153           69.3 293 
 PAM  SZ EP        645 15.03                             154    0.9410 71.5  42 
 PAM  SN ES        645 31.74                             154   -0.2610 71.5  42 
 PAM  SZ I         645 32.75         9.3 0.20            158           71.5  42 
 RUS  HZ EP        645 16.52                             144    0.1810  107 177 
 RUS  HN ES        645 35.15                             144   -0.8510  107 177 
 RUS  HZ I         645 37.14         4.8 0.26            145            107 177 
 PTB  HZ EP        645 18.98                             134   -0.17 9  150 256 
 PTB  HN ES        645 41.01                             134    0.01 9  150 256 
 PTB  HZ I         645 43.99         8.7 0.32            133            150 256 
 OCA  HZ EP        645 18.97                             133   -0.67 9  154 352 
 OCA  HN ES        645 41.19                             133   -0.68 9  154 352 
 OCA  HZ I         645 46.20         6.8 0.58            135            154 352 
 SPBC HN ES        645 43.88                             130   -0.35 9  169 218 
 SPBC HZ I         645 46.16        10.0 0.24            130            169 218 
 NOR  HZ EP        645 27.32                             120   -0.65 8  240 233 
 NOR  HN ES        645 56.41                             120   -0.29 8  240 233 
 NOR  HZ I         646  3.30         5.7 0.20            120            240 233 
 CHI  HZ EP        645 30.31                             118    0.18 8  255 195 
 CHI  HN ES        646  0.59                             118    0.05 8  255 195 
 CHI  HZ I         646  6.19         3.5 0.22            119            255 195 
 HEL  HZ EP        645 32.33                             116    0.16 8  275 254 
 HEL  HN ES        646  4.57                             116    0.38 8  275 254 
 HEL  HZ I         646 12.11         5.6 0.48            117            275 254 
 TOL  SZ EP        645 40.54                             111    0.10 6  349 224 
 TOL  SN ES        646 19.28                             111    0.37 6  349 224 
 MON  HZ EP        645 39.98                             110   -0.18 6  350 307 
 MON  HN ES        646 17.92                             110   -0.48 6  350 307 
 MON  HZ I         646 18.66         1.1 0.22            111            350 307 
 PRA  HZ EP        645 46.26                             108    0.50 6  398 209 
 PRA  HN ES        646 27.78                             108   -0.58 6  398 209 
 PRA  HZ I         646 34.98         2.5 0.66            109            398 209 
 ORTC HZ EP        645 45.76                             108   -0.36 6  402 216 
 ORTC HN ES        646 29.42                             108    0.41 6  402 216 
 ORTC HZ I         646 36.29         2.0 0.38            108            402 216 
                                                                                
