 2013  519 0526  5.9 L   6.829 -73.136148.4  RSN 11 0.4 1.9LRSN                1
 GAP=136        1.05       3.3     4.5  5.8  0.3370E+00  0.6818E+01  0.2435E+01E
 Epicentro: LOS SANTOS - SANTANDER                                             3
 ACTION:UPD 13-06-20 09:51 OP:ep   STATUS:               ID:20130519052605 L   I
 2013-05-19-0520-00M.COL___256                                                 6
 STAT SP IPHASW D HRMM SECON CODA AMPLIT PERI AZIMU VELO AIN AR TRES W  DIS CAZ7
 BAR2 SZ EP        526 25.92                             169    0.0310 26.6 191 
 BAR2 SZ ES        526 41.01                             169   -0.4910 26.6 191 
 BAR2 SZ I         526 42.57        27.7 0.18            168           26.6 191 
 GIR2 SZ EP        526 25.83                             169    0.0510 28.4 347 
 GIR2 SZ ES        526 41.42                             169    0.1110 28.4 347 
 GIR2 SZ I         526 42.75        15.8 0.54            166           28.4 347 
 BRR  HZ EP        526 27.60                             153    0.3310 70.7 296 
 BRR  HN ES        526 44.94                             153    0.9710 70.7 296 
 BRR  HZ I         526 49.88        12.1 0.12            150           70.7 296 
 PAM  SZ EP        526 28.57                             152    0.3810 74.3  40 
 PAM  SN ES        526 45.58                             152   -0.0110 74.3  40 
 PAM  SZ I         526 46.28        10.5 0.24            155           74.3  40 
 RUS  HZ EP     C  526 29.93                             143   -0.1710  104 177 
 RUS  HE ES        526 48.77                             143   -0.2410  104 177 
 RUS  HZ I         526 49.99         8.7 0.30            145            104 177 
 PTB  HZ EP        526 32.52                             132   -0.68 9  149 258 
 PTB  HN ES        526 53.91                             132   -0.61 9  149 258 
 PTB  HZ I         526 56.06        19.4 0.14            131            149 258 
 OCA  HN ES   1    526 55.68                             131   -0.45 7  157 353 
 OCA  HZ I         527  1.17         9.2 0.41            131            157 353 
 ZAR  HE ES   1    527  4.19                             123    0.30 6  204 291 
 ZAR  HZ I         527  9.50        11.7 0.22            122            204 291 
 SML  HZ EP   1    526 41.93                             118   -0.45 6  241 335 
 SML  HE ES        527 10.42                             118   -0.44 8  241 335 
 CHI  HZ EP        526 44.29                             117    0.21 8  252 195 
 CHI  HN ES        527 14.23                             117    0.35 8  252 195 
 CHI  HZ I         527 17.92         3.2 0.48            118            252 195 
 HEL  HZ EP   1    526 47.30                             115    0.88 6  274 255 
 HEL  HN ES   1    527 18.24                             115    0.20 6  274 255 
 HEL  HZ I         527 26.64         6.7 0.50            115            274 255 
                                                                                
