 2012  419 0453 25.5 L   6.793 -73.126150.3  RSN 19 0.4 3.4LRSN 3.6WRSN        1
 SPEC AVERAGE  MO 14.4 ST 16.4 OM  2.6 f0 3.39 R0.4375 AL 2.29 WI 28.4 MW  3.6 3
 GAP=139        0.78       2.5     3.8  4.8 -0.1542E+01  0.6146E+01  0.2321E+01E
 Epicentro: LOS SANTOS - SANTANDER                                             3
 SPEC RREFHH Z MO 14.4 ST 14.7 OM  2.5 f0 3.36 R0.4375 AL 2.02 WI 41.7 MW  3.6 3
 SPEC RREFHH Z T 45441 K 0.020 GD  356 VS 4.20 DE 3.20 Q0230.0 QA 0.60 VS 4.20 3
 SPEC ROSCBH Z MO 14.5 ST 11.1 OM  2.6 f0 3.02 R0.4868 AL 2.98 WI 27.9 MW  3.6 3
 SPEC ROSCBH Z T 45431 K 0.020 GD  294 VS 4.20 DE 3.20 Q0230.0 QA 0.60 VS 4.20 3
 SPEC RUS HH Z MO 14.2 ST  5.6 OM  2.5 f0 3.06 R0.4804 AL 1.96 WI 12.8 MW  3.4 3
 SPEC RUS HH Z T 454 7 K 0.020 GD  180 VS 4.20 DE 3.20 Q0230.0 QA 0.60 VS 4.20 3
 SPEC COD HH Z MO 14.6 ST 28.5 OM  2.6 f0 3.80 R0.3868 AL 2.22 WI 28.5 MW  3.7 3
 SPEC COD HH Z T 45448 K 0.020 GD  379 VS 4.20 DE 3.20 Q0230.0 QA 0.60 VS 4.20 3
 SPEC HEL HH Z MO 14.5 ST 21.8 OM  2.6 f0 3.71 R0.3962 AL 2.28 WI 31.2 MW  3.6 3
 SPEC HEL HH Z T 45432 K 0.020 GD  312 VS 4.20 DE 3.20 Q0230.0 QA 0.60 VS 4.20 3
 ACTION:UP  12-07-05 14:03 OP:tino STATUS:               ID:20120419045325 L   I
 2012-04-19-0450-00M.COL___187                                                 6
 STAT SP IPHASW D HRMM SECON CODA AMPLIT PERI AZIMU VELO AIN AR TRES W  DIS CAZ7
 BAR2 SZ IP        453 45.74                             171    0.0510 23.1 196 
 BAR2 SZ ES   1    454  0.64                             171   -0.79 7 23.1 196 
 BAR2 SZ I         454  2.07       778.4 0.42                          23.1 196 
 BRR  HZ IP     C  453 47.63                             153    0.3510 73.5 298 
 BRR  HZ I         453 47.94      1414.7 0.18                          73.5 298 
 BRR  HE ES   1    454  4.99                             153    0.73 7 73.5 298 
 PAM  SZ IP        453 48.52                             152    0.3510 76.6  38 
 PAM  SN ES   1    454  5.94                             152    0.10 7 76.6  38 
 RUS  HZ IP     D  453 49.58                             145   -0.0810 99.7 177 
 RUS  HN ES   1    454  8.26                             145   -0.23 7 99.7 177 
 RUS  HZ I         454  9.67       280.6 0.38                          99.7 177 
 OCA  SZ EP        453 54.11                             130   -0.16 9  161 352 
 OCA  SZ ES   1    454 16.79                             130    0.08 7  161 352 
 ZAR  HZ EP   1    453 58.02                             123   -0.47 6  206 292 
 ZAR  HN ES   1    454 23.34                             123   -0.88 6  206 292 
 ZAR  HZ I         454 30.88       451.3 0.43                           206 292 
 NOR  SZ EP   1    454  1.48                             119   -0.18 6  236 235 
 NOR  SN ES   1    454 29.56                             119   -0.29 6  236 235 
 CHI  HZ EP   1    454  3.22                             118   -0.24 6  249 196 
 CHI  HN ES   1    454 33.19                             118    0.14 6  249 196 
 CHI  HZ I         454 37.25        66.6 0.59                           249 196 
 ROSC BZ EP   1    454  3.97                             117    0.03 6  253 212 
 ROSC BN ES   1    454 33.89                             117   -0.03 6  253 212 
 ROSC BZ I         454 43.95       139.5 0.34                           253 212 
 HEL  HZ EP   1    454  6.15                             115   -0.03 6  274 256 
 HEL  HE ES   2    454 37.69                             115   -0.20 4  274 256 
 HEL  HZ I         454 44.10       159.2 0.41                           274 256 
 VIL  SZ EP   1    454  8.63                             113   -0.48 5  303 192 
 VIL  SE ES   1    454 43.17                             113    0.05 5  303 192 
 VIL  SZ I         454 51.10        61.3 0.56                           303 192 
 GUY  SZ EP   1    454 10.56                             113    0.81 5  305 235 
 GUY  SZ I         454 50.07       199.1 0.45                           305 235 
 RREF HZ EP   1    454 12.28                             111    0.29 5  323 230 
 RREF HN ES   1    454 48.73                             111    0.48 5  323 230 
 RREF HZ I         454 55.75       124.6 0.36                           323 230 
 DBB  SZ EP        454 13.45                             110    0.02 7  342 274 
 DBB  SZ ES   2    454 50.55                             110   -0.26 3  342 274 
 COD  HZ EP   2    454 13.51                             110   -0.67 3  349 354 
 COD  HZ I         455  0.46        82.9 0.58                           349 354 
 ANIL HZ EP   1    454 16.01                             109    0.40 5  358 225 
 ANIL HN ES   1    454 55.36                             109    0.67 5  358 225 
 PRA  HZ EP   1    454 19.22                             107   -0.03 4  392 210 
 PRA  HE ES   1    455  1.27                             107    0.11 4  392 210 
 SJA  SZ EP   2    454 19.31                             107   -0.89 3  400 193 
 SJA  SZ ES   2    455  2.90                             107    0.04 3  400 193 
 YOT  HZ EP   1    454 28.14                             104   -0.68 4  473 229 
                                                                                
