 2010 1219 0432 37.0 L   6.799 -73.139143.3  RSN 11 0.4 2.2LRSN                1
 GAP=136        0.81       3.6     5.5  6.2 -0.7069E+01  0.1211E+02  0.9940E+00E
 Epicentro: LOS SANTOS - SANTANDER                                             3
 ACTION:UP  11-01-14 15:25 OP:pat  STATUS:               ID:20101219043237 L   I
 2010-12-19-0420-00M.COL___132                                                 6
 STAT SP IPHASW D HRMM SECON CODA AMPLIT PERI AZIMU VELO SNR AR TRES W  DIS CAZ7
 BAR2 SZ IP        432 56.54                             170     0.210   23 192 
 BAR2 SZ ES   1    433 11.38                             170     0.0 7   23 192 
 BAR2 SZ I         433 14.53        73.1 0.36                            23 192 
 RUS  HZ IP     D  433  0.35                             144    -0.110  100 177 
 RUS  HN ES   1    433 18.78                             144     0.0 7  100 177 
 RUS  HZ I         433 20.42        18.7 0.21                           100 177 
 GRA  SZ IP        433  2.32                             136     0.310  126  17 
 GRA  SZ ES   1    433 21.26                             136    -0.2 7  126  17 
 GRA  SZ I         433 24.81        24.1 0.29                           126  17 
 OCA  SZ EP   2    433  3.89                             129    -1.2 5  160 353 
 OCA  SZ I         433 29.92        17.0 0.39                           160 353 
 YOP  SZ EP        433  6.78                             126     0.0 9  179 154 
 NOR  SZ EP        433 12.38                             118    -0.3 8  235 235 
 NOR  SN ES   1    433 40.82                             118     0.4 6  235 235 
 CHI  HZ EP        433 14.37                             117    -0.2 8  249 195 
 CHI  HN ES   1    433 43.18                             117    -0.7 6  249 195 
 CHI  HZ I         433 52.05        10.3 0.60                           249 195 
 HEL  HZ EP        433 17.73                             114     0.6 8  273 256 
 HEL  HN ES   3    433 47.96                             114    -0.5 2  273 256 
 HEL  HZ I         433 56.14        10.7 0.34                           273 256 
 RREF HZ EP   1    433 23.24                             110     0.2 5  322 229 
 RREF HN ES   2    433 59.83                             110     0.8 3  322 229 
 RREF HZ I         434  8.65        16.2 0.51                           322 229 
 MON  HN ES   3    434  2.42                             108    -1.7 2  353 308 
 MON  HZ I         434  7.54         3.7 0.29                           353 308 
 PRA  HZ EP        433 30.39                             106    -0.1 6  392 210 
 PRA  HN ES   1    434 12.26                             106     0.1 4  392 210 
                                                                                
