 2014  419 0738  2.6 L   6.834 -73.150125.0  RSN  5 0.5 1.1LRSN                1
 GAP=183        1.17       4.8     8.2 17.4 -0.3481E+01  0.6125E+02 -0.3170E+02E
 Epicentro: LOS SANTOS - SANTANDER                                             3
 ACTION:UPD 14-05-13 23:09 OP:nd   STATUS:               ID:20140419073802 L   I
 OLDACT:REG 14-04-19 13:54 OP:stll STATUS:               ID:20140419072805     3
 2014-04-19-0728-05M.COL___224                                                 6
 STAT SP IPHASW D HRMM SECON CODA AMPLIT PERI AZIMU VELO AIN AR TRES W  DIS CAZ7
 RUS  HN ES        738 41.69                             138   -0.1810  104 176 
 RUS  HZ I         738 44.19         1.4 0.34            148            104 176 
 PTB  HZ EP        738 27.16                             127   -0.80 9  148 257 
 PTB  HN ES        738 47.41                             127   -0.35 9  148 257 
 OCA  HN ES        738 49.75                             125    0.17 9  157 353 
 OCA  HZ I         738 56.77         2.6 0.36            129            157 353 
 SPBC HE ES        738 51.89                             123    0.80 9  166 218 
 ZAR  HZ EP        738 34.02                             118    0.46 9  202 291 
 ZAR  HN ES        738 57.79                             118    0.06 9  202 291 
 ZAR  HZ I         739  3.90         1.8 0.66            123            202 291 
                                                                                
