 2016  719 0812 18.2 L   6.752 -73.124139.1  RSN  6 0.3 1.7LRSN                1
 GAP=142        0.87       3.5     4.3  5.8 -0.1739E+00  0.7052E+01  0.2506E+00E
 Epicentro: LOS SANTOS - SANTANDER                                             3
 ACTION:UPD 17-03-29 16:52 OP:lp   STATUS:               ID:20160719081218 L   I
 OLDACT:UP  16-07-19 17:22 OP:ar   STATUS:               ID:20160719080759     3
 OLDACT:REG 16-07-19 13:16 OP:ar   STATUS:               ID:20160719080759     3
 2016-07-19-0807-59S.COL___328                                                 6
 STAT SP IPHASW D HRMM SECON CODA AMPLIT PERI AZIMU VELO AIN AR TRES W  DIS CAZ7
 BAR2 EZ EP        812 36.76                             172   -0.1710 18.9 200 
 BAR2 EZ ES        812 51.64                             172    0.0910 18.9 200 
 BRR  HZ EP        812 38.63                             150   -0.2710 75.9 301 
 BRR  HN ES        812 55.33                             150    0.2710 75.9 301 
 BRR  HZ I         812 59.82         9.7 0.12            148           75.9 301 
 PAM  EZ EP        812 39.76                             149   -0.1010 80.1  36 
 PAM  EN ES        812 56.57                             149   -0.2010 80.1  36 
 PAM  EZ I         812 58.59        12.9 0.42            152           80.1  36 
 RUS  HZ EP        812 40.97                             144    0.0810 95.2 177 
 RUS  HN ES        812 58.96                             144    0.3610 95.2 177 
 SPBC HZ EP        812 45.85                             128   -0.09 9  161 221 
 SPBC HN ES        813  7.11                             128   -0.48 9  161 221 
 SPBC HZ I         813 10.83         5.5 0.12            129            161 221 
 ZAR  HZ EP        812 51.55                             120    0.90 8  208 293 
 ZAR  HN ES        813 15.68                             120   -0.30 8  208 293 
 ZAR  HZ I         813 21.01         5.1 0.24            121            208 293 
                                                                                
