 2014  419 0957 13.1 L   6.829 -73.202139.9  RSN  6 0.2 1.5LRSN                1
 GAP=128        0.52       2.3     2.5  4.9 -0.1557E+01  0.4690E+01 -0.2982E+01E
 Epicentro: ZAPATOCA - SANTANDER                                               3
 ACTION:UPD 14-05-13 23:09 OP:nd   STATUS:               ID:20140419095713 L   I
 OLDACT:REG 14-04-19 13:57 OP:stll STATUS:               ID:20140419094808     3
 2014-04-19-0948-08M.COL___224                                                 6
 STAT SP IPHASW D HRMM SECON CODA AMPLIT PERI AZIMU VELO AIN AR TRES W  DIS CAZ7
 PAM  SZ I         957 34.99         6.0 0.20            151           79.2  44 
 PAM  SZ EP        957 35.02                             149    0.1710 79.2  44 
 PAM  SN ES        957 51.62                             149   -0.1610 79.2  44 
 RUS  HN ES        957 55.00                             141    0.0910  104 173 
 PTB  HZ EP        957 38.78                             132   -0.37 9  142 257 
 PTB  HN ES        957 59.69                             132    0.26 9  142 257 
 PTB  HZ I         958  2.36         4.9 0.12            132            142 257 
 SPBC HZ EP        957 41.11                             128    0.03 9  162 217 
 SPBC HE ES        958  2.76                             128   -0.11 9  162 217 
 ZAR  HN ES        958  8.88                             122   -0.07 9  197 292 
 SML  HZ EP        957 49.04                             117    0.18 8  238 336 
                                                                                
