 2016 1019 0150 47.3 L   6.798 -73.142140.0  RSN 18 0.4 2.2LRSN                1
 GAP= 71        0.79       2.5     2.5  4.0 -0.1633E+01  0.1523E+01  0.9576E+00E
 Epicentro: LOS SANTOS - SANTANDER                                             3
 ACTION:UPD 16-11-09 19:20 OP:rebc STATUS:               ID:20161019015047 L   I
 OLDACT:UP  16-10-19 15:24 OP:and  STATUS:               ID:20161019014739     3
 OLDACT:UP  16-10-19 15:21 OP:and  STATUS:               ID:20161019014739     3
 OLDACT:UP  16-10-19 15:18 OP:and  STATUS:               ID:20161019014739     3
 OLDACT:REG 16-10-19 12:23 OP:y    STATUS:               ID:20161019014739     3
 2016-10-19-0148-00M.COL___329                                                 6
 STAT SP IPHASW D HRMM SECON CODA AMPLIT PERI AZIMU VELO AIN AR TRES W  DIS CAZ7
 BAR2 EZ IP     C  151  6.20                             170   -0.0810 23.2 191 
 BAR2 EZ ES        151 20.83                             170   -0.2210 23.2 191 
 BAR2 EZ I         151 21.96        45.9 0.20            169           23.2 191 
 BRR  HZ IP     C  151  8.07                             151    0.1710 71.6 299 
 BRR  HN ES        151 24.94                             151    1.0110 71.6 299 
 BRR  HZ I         151 28.93        29.6 0.13            150           71.6 299 
 PAM  EZ EP        151  9.13                             150    0.1910 77.3  39 
 PAM  EN ES        151 25.81                             150    0.0210 77.3  39 
 PAM  EZ I         151 29.03        26.8 0.32            153           77.3  39 
 RUS  HZ EP        151 10.19                             143   -0.3310  100 176 
 RUS  HN ES        151 28.48                             143   -0.1110  100 176 
 RUS  HZ I         151 29.43        15.7 0.24            143            100 176 
 PTB  HZ EP   9    151 12.76                             131   -1.12 0  148 259 
 PTB  HN ES        151 33.64                                    0.18 9  148 259 
 PTB  HZ I         151 36.16        27.4 0.18            130            148 259 
 TAM  HZ EP     D  151 14.61                             130    0.08 9  155 105 
 TAM  HN ES        151 36.08                             130    0.34 9  155 105 
 OCA  HZ EP        151 15.06                             128   -0.18 9  161 353 
 OCA  HE ES        151 36.25                             128   -0.74 9  161 353 
 OCA  HZ I         151 39.52        47.9 0.31            130            161 353 
 SPBC HZ EP        151 15.15                             128   -0.27 9  163 219 
 SPBC HN ES        151 37.20                             128   -0.11 9  163 219 
 SPBC HZ I         151 39.15        18.6 0.10            128            163 219 
 NOR  HZ EP        151 22.83                             117    0.06 8  235 235 
 NOR  HN ES        151 49.91                             117   -0.49 8  235 235 
 NOR  HZ I         151 52.11        16.6 0.12            117            235 235 
 CHI  HZ EP   3    151 26.03                             116    1.31 2  249 195 
 CHI  HN ES   2    151 54.40                             116    0.53 4  249 195 
 CHI  HZ I         151 59.77         4.6 0.26            117            249 195 
 ROSC BZ EP   9    151 26.98                             116    1.82 0  253 211 
 ROSC BN ES   2    151 56.51                                    0.03 4  253 211 
 ROSC BZ I         152  2.53        17.2 0.45            116            253 211 
 HEL  HZ EP   4    151 28.49                             114    1.18 0  272 256 
 HEL  HN ES   2    151 57.93                             114   -0.55 4  272 256 
 HEL  HZ I         152  5.20        11.1 0.26            114            272 256 
 GUY2CHZ EP   9    151 31.87                             111    1.15 0  301 235 
 GUY2CHE ES        152  5.72                                    0.02 7  301 235 
 GUY2CHZ I         152 11.61        10.4 0.24                           301 235 
 PTGC HZ EP   4    151 29.52                             111   -1.39 0  308 159 
 PTGC HN ES   4    152  2.68                             111   -2.21 0  308 159 
 LL6C HZ EP   9    151 12.15                             109   -20.7 0  325 358 
 CBOC HZ EP        151 34.22                             109    0.16 7  334 252 
 CBOC HN ES        152 10.80                             109    0.30 7  334 252 
 CBOC HZ I         152 14.12         4.0 0.29            109            334 252 
 PRA  HZ EP   2    151 41.39                             106    0.71 3  392 210 
 PRA  HE ES   2    152 22.37                             106    0.10 3  392 210 
 PRA  HZ I         152 26.61         4.2 0.21            106            392 210 
 PAL  HZ EP   2    151 42.59                             105    0.24 3  406 239 
 PAL  HN ES        152 25.30                             105    0.05 6  406 239 
 PAL  HZ I         152 27.54         3.3 0.24            105            406 239 
 SJC  HZ EP   4    151 41.28                             105   -1.49 0  410 327 
 SJC  HE ES   4    152 21.83                             105   -4.17 0  410 327 
 SJC  HZ I         152 25.94         2.7 0.35            105            410 327 
 CRJC HZ EP   9    151 46.85                             103   -2.86 0  468   3 
 CRJC HN ES        152 35.43                                   -0.06 5  468   3 
                                                                                
