 2012  419 0325  3.8 L   6.798 -73.119142.9  RSN 11 0.4 2.0LRSN                1
 GAP=140        0.67       3.1     4.4  5.7 -0.1992E+01  0.9437E+01  0.1858E+01E
 Epicentro: LOS SANTOS - SANTANDER                                             3
 ACTION:UPD 12-07-05 11:54 OP:tino STATUS:               ID:20120419032503 L   I
 2012-04-19-0320-00M.COL___187                                                 6
 STAT SP IPHASW D HRMM SECON CODA AMPLIT PERI AZIMU VELO AIN AR TRES W  DIS CAZ7
 BAR2 SZ EP   1    325 22.97                             170    -0.1 7   24 197 
 BAR2 SZ I         325 23.15        20.6 0.20                            24 197 
 BAR2 SZ ES   2    325 37.34                             170    -0.8 5   24 197 
 BRR  HZ EP        325 24.71                             151    -0.110   74 298 
 BRR  HZ I         325 25.00        42.2 0.20                            74 298 
 BRR  HE ES   1    325 41.56                             151     0.4 7   74 298 
 PAM  SZ EP   1    325 25.76                             151     0.1 7   76  38 
 PAM  SN ES   1    325 42.76                             151     0.1 7   76  38 
 RUS  HZ EP   1    325 27.03                             143    -0.2 7  100 178 
 RUS  HE ES   1    325 45.90                             143     0.4 7  100 178 
 RUS  HZ I         325 47.28         9.7 0.29                           100 178 
 OCA  SZ EP   1    325 31.51                             129    -0.4 7  161 352 
 OCA  SZ ES   2    325 53.85                             129    -0.1 5  161 352 
 ZAR  HZ EP   1    325 36.48                             121     0.1 6  207 292 
 ZAR  HE ES   2    326  1.66                             121    -0.1 4  207 292 
 ZAR  HZ I         326  6.63        14.0 0.45                           207 292 
 NOR  SN ES   2    326  7.09                             118    -0.5 4  237 235 
 CHI  HN ES   2    326 10.77                             117     0.0 4  249 196 
 CHI  HZ I         326 19.18         5.6 0.26                           249 196 
 HEL  HZ EP   1    325 45.15                             114     1.0 6  275 256 
 HEL  HE ES   2    326 15.80                             114     0.1 4  275 256 
 HEL  HZ I         326 22.46         5.9 0.42                           275 256 
 RREF HZ EP   2    325 49.52                             110    -0.6 3  324 230 
 RREF HN ES   2    326 25.87                             110    -0.3 3  324 230 
 RREF HZ I         326 34.74         5.3 0.39                           324 230 
 PRA  HZ EP   1    325 57.43                             106     0.0 4  393 210 
 PRA  HN ES   1    326 39.15                             106     0.0 4  393 210 
                                                                                
