 2010  819 0035 34.0 L   6.820 -73.010143.7  RSN  7 0.5 1.7LRSN                1
 GAP=174        1.14       4.9     9.6  9.5 -0.1048E+02 -0.1475E+02  0.7821E+01E
 Epicentro: CEPITA - SANTANDER                                                 3
 ACTION:UP  10-09-07 10:56 OP:vdl  STATUS:               ID:20100819003534 L   I
 2010-08-19-0034-59S.COL___117                                                 6
 STAT SP IPHASW D HRMM SECON CODA AMPLIT PERI AZIMU VELO SNR AR TRES W  DIS CAZ7
 BTL  SZ EP        035 53.71                             168     0.210   30 291 
 BTL  SZ ES   1    036  8.22                             168    -0.6 7   30 291 
 BRR  HZ EP        035 55.41                             148    -0.310   84 292 
 BRR  HN ES        036 12.74                             148     0.110   84 292 
 BRR  HZ I         036 15.35        16.8 0.32                            84 292 
 RUS  HZ EP   1    035 57.68                             143     0.0 7  103 184 
 RUS  HN ES        036 16.67                             143     0.510  103 184 
 RUS  HZ I         036 17.97         7.4 0.39                           103 184 
 GUE  SZ EP   1    035 58.84                             140     0.7 7  112   5 
 GUE  SZ I         036 20.51         1.9 0.42                           112   5 
 GRA  SZ EP   1    035 58.82                             138     0.2 7  120  11 
 GRA  SZ ES   1    036 17.27                             138    -0.5 7  120  11 
 GRA  SZ I         036 20.19         6.9 0.36                           120  11 
 CHI  HZ EP   1    036 11.46                             116    -0.8 6  255 198 
 CHI  HN ES   1    036 41.38                             116    -0.8 6  255 198 
 CHI  HZ I         036 48.34         3.3 0.35                           255 198 
 RREF HN ES   1    036 59.22                             110     0.6 5  335 231 
 RREF HZ I         037  5.37         4.4 0.15                           335 231 
                                                                                
