 2010  619 0648 35.5 L   6.769 -73.106140.2  RSN  5 0.3 1.0LRSN                1
 GAP=163        0.62       7.1    21.1 21.5  0.9357E+02 -0.4007E+03 -0.8333E+02E
 Epicentro: LOS SANTOS - SANTANDER                                             3
 ACTION:UP  10-08-24 10:11 OP:vdl  STATUS:               ID:20100619064835 L   I
 2010-06-19-0646-19S.COL___118                                                 6
 STAT SP IPHASW D HRMM SECON CODA AMPLIT PERI AZIMU VELO SNR AR TRES W  DIS CAZ7
 BAR2 SZ EP        648 54.26                             171    -0.210   21 204 
 BRR  HN ES   1    649 12.74                             149     0.0 7   77 299 
 RUS  HZ EP   1    648 58.64                             143     0.2 7   97 178 
 RUS  HN ES   2    649 16.50                             143     0.1 5   97 178 
 RUS  HZ I         649 18.73         1.8 0.51                            97 178 
 GUE  SZ EP   2    649  0.70                             137     0.7 5  119  10 
 GRA  SZ EP   2    648 60.00                             135    -0.5 5  128  15 
                                                                                
