 2016  619 0835 56.8 L   6.793 -73.143142.2  RSN  6 0.4 1.2LRSN                1
 GAP=237        0.92       6.0     6.3  7.8  0.3430E+01  0.9267E+01 -0.1841E+00E
 Epicentro: LOS SANTOS - SANTANDER                                             3
 ACTION:UPD 16-07-21 22:20 OP:rebc STATUS:               ID:20160619083556 L   I
 OLDACT:DUP 16-06-19 15:12 OP:dnl  STATUS:               ID:20160619082748d    3
 2016-06-19-0827-46M.COL___337                                                 6
 STAT SP IPHASW D HRMM SECON CODA AMPLIT PERI AZIMU VELO AIN AR TRES W  DIS CAZ7
 BAR2 EZ EP        836 15.89                             171   -0.0910 22.7 191 
 BAR2 EZ ES        836 30.40                             171   -0.5410 22.7 191 
 BAR2 EZ I         836 32.45         4.3 0.32                          22.7 191 
 BRR  HZ EP        836 17.66                             152    0.0710 71.8 299 
 BRR  HN ES        836 34.48                             152    0.6710 71.8 299 
 BRR  HZ I         836 38.53         4.2 0.28                          71.8 299 
 RUS  HZ EP   2    836 20.49                             143    0.35 5 99.8 176 
 RUS  HN ES   2    836 38.70                             143    0.36 5 99.8 176 
 RUS  HZ I         836 40.43         1.5 0.22                          99.8 176 
 PTB  HZ EP     D  836 23.30                             131   -0.18 9  148 259 
 PTB  HN ES        836 43.80                             131   -0.49 9  148 259 
 PTB  HZ I         836 45.90         2.3 0.48                           148 259 
 SPBC HN ES        836 47.38                             128    0.42 9  163 219 
 SPBC HZ I         836 51.23         2.6 0.42                           163 219 
 ZAR  HZ EP   2    836 29.26                             121    0.20 4  205 292 
 ZAR  HN ES   2    836 53.66                             121   -0.57 4  205 292 
 ZAR  HZ I         836 58.69         1.8 0.30                           205 292 
                                                                                
