 2015  919 0739 45.8 L   6.810 -73.136142.8  RSN 10 0.4 1.8LRSN                1
 GAP=137        0.96       2.6     3.9  6.1 -0.7969E+00  0.5254E+01  0.1417E+01E
 Epicentro: LOS SANTOS - SANTANDER                                             3
 ACTION:UPD 15-10-28 16:27 OP:cam  STATUS:               ID:20150919073945 L   I
 OLDACT:REG 15-09-19 13:03 OP:ak   STATUS:               ID:20150919073746     3
 2015-09-19-0737-46M.COL___355                                                 6
 STAT SP IPHASW D HRMM SECON CODA AMPLIT PERI AZIMU VELO AIN AR TRES W  DIS CAZ7
 BRR  HZ EP        740  7.01                             152    0.3510 71.7 297 
 BRR  HE ES        740 22.91                             152   -0.0110 71.7 297 
 PAM  EZ EP        740  8.02                             151    0.4110 75.8  39 
 PAM  EN ES        740 24.83                             151    0.2110 75.8  39 
 PAM  EZ I         740 26.94        15.0 0.48            152           75.8  39 
 RUS  HZ EP        740  9.66                             143    0.3210  102 177 
 RUS  HN ES        740 27.64                             143   -0.0610  102 177 
 RUS  HZ I         740 29.16         4.8 0.40            146            102 177 
 PTB  HZ EP        740 12.41                             131   -0.24 9  149 258 
 PTB  HN ES        740 33.42                             131   -0.17 9  149 258 
 PTB  HZ I         740 35.08         4.8 0.30            132            149 258 
 OCA  HZ EP   4    740 11.89                             129   -1.90 0  159 353 
 OCA  HN ES        740 35.09                             129   -0.53 9  159 353 
 OCA  HZ I         740 39.17        14.8 0.21            130            159 353 
 SPBC HZ EP   1    740 14.05                             128   -0.18 7  165 219 
 SPBC HN ES        740 35.90                             128   -0.50 9  165 219 
 SPBC HZ I         740 38.18        37.6 0.04            130            165 219 
 ZAR  HZ EP        740 18.41                             122    0.29 9  205 292 
 ZAR  HN ES        740 44.24                             122    0.91 9  205 292 
 ZAR  HZ I         740 50.18         4.6 0.34            123            205 292 
 SML  HZ EP        740 21.43                             117   -0.78 8  243 335 
 SML  HN ES        740 50.16                             117   -0.44 8  243 335 
 CHI  HZ EP        740 23.69                             116    0.20 8  250 195 
 CHI  HE ES        740 52.41                             116   -0.47 8  250 195 
 GUY2CHZ EP   2    740 29.60                             112    0.15 4  303 235 
 GUY2CHE ES        741  3.74                             112    0.24 7  303 235 
 GUY2CHZ I         741 12.64         1.5 0.54                           303 235 
                                                                                
