 2014  419 0026  8.7 L   6.798 -73.139143.7  RSN 11 0.5 1.8LRSN                1
 GAP= 71        1.09       3.4     4.1  6.5 -0.4263E+01  0.3412E+01  0.4762E+01E
 Epicentro: LOS SANTOS - SANTANDER                                             3
 ACTION:UPD 14-05-13 23:09 OP:nd   STATUS:               ID:20140419002608 L   I
 OLDACT:DUP 14-04-19 15:02 OP:stll STATUS:               ID:20140419001813d    3
 2014-04-19-0018-12M.COL___239                                                 6
 STAT SP IPHASW D HRMM SECON CODA AMPLIT PERI AZIMU VELO AIN AR TRES W  DIS CAZ7
 BRR  HZ EP        026 29.93                             152    0.2810 71.9 298 
 BRR  HN ES        026 46.60                             152    0.6010 71.9 298 
 BRR  HZ I         026 50.56         6.3 0.14            153           71.9 298 
 PAM  SZ EP        026 30.93                             150    0.2610 77.2  39 
 PAM  SN ES        026 47.85                             150    0.0410 77.2  39 
 PAM  SZ I         026 50.18        12.0 0.56            153           77.2  39 
 RUS  HZ EP        026 32.23                             143    0.0210  100 176 
 RUS  HN ES        026 50.81                             143    0.2510  100 176 
 RUS  HZ I         026 51.87         6.2 0.34            145            100 176 
 PTB  HZ EP        026 35.06                             131   -0.48 9  148 259 
 PTB  HN ES        026 55.44                             131   -1.05 9  148 259 
 PTB  HZ I         026 57.91         6.9 0.18            134            148 259 
 TAM  HZ EP   1    026 36.29                             130    0.16 7  154 105 
 OCA  HZ EP        026 36.65                             129   -0.22 9  161 353 
 OCA  HN ES        026 58.26                             129   -0.59 9  161 353 
 OCA  HZ I         027  2.86         8.3 0.38            132            161 353 
 SPBC HZ EP        026 36.92                             128   -0.13 9  163 219 
 SPBC HN ES        026 58.87                             128   -0.30 9  163 219 
 SPBC HZ I         027  1.65        13.8 0.28            131            163 219 
 NOR  HZ EP        026 44.48                             118    0.14 8  235 235 
 NOR  HE ES        027 12.52                             118    0.37 8  235 235 
 NOR  HZ I         027 15.54         5.0 0.16            120            235 235 
 CHI  HZ EP        026 46.10                             117   -0.16 8  249 195 
 CHI  HN ES        027 15.06                             117   -0.51 8  249 195 
 CHI  HZ I         027 23.12         2.9 0.44            119            249 195 
 HEL  HZ EP        026 49.56                             114    0.70 8  273 256 
 HEL  HN ES        027 21.16                             114    0.96 8  273 256 
 RREF HZ EP        026 55.01                             110    0.23 7  322 229 
 RREF HN ES        027 30.45                             110   -0.28 7  322 229 
                                                                                
