 2012  619 0928 15.2 L   6.803 -73.190141.3  RSN  4 0.3 1.7LRSN                1
 GAP=144        0.63       5.8     4.6 10.0 -0.7571E+01  0.4918E+01  0.5338E-01E
 Epicentro: ZAPATOCA - SANTANDER                                               3
 ACTION:UPD 12-08-06 17:50 OP:ep   STATUS:               ID:20120619092815 L   I
 2012-06-19-0920-00M.COL___199                                                 6
 STAT SP IPHASW D HRMM SECON CODA AMPLIT PERI AZIMU VELO AIN AR TRES W  DIS CAZ7
 BAR2 SZ EP        928 34.26                             170   -0.0210 23.3 178 
 BAR2 SZ I         928 50.62        14.8 0.20                          23.3 178 
 PAM  SZ IP        928 37.27                             149    0.1510 80.4  42 
 PAM  SZ I         928 37.45        10.4 0.22                          80.4  42 
 PAM  SN ES   2    928 54.17                             149   -0.05 5 80.4  42 
 RUS  HZ EP        928 38.83                             143    0.2710  101 173 
 RUS  HE ES   2    928 56.41                             143   -0.38 5  101 173 
 PTB  HZ EP        928 40.90                             132   -0.46 9  143 258 
 PTB  HN ES   1    929  2.02                             132    0.25 7  143 258 
 PTB  HZ I         929  4.72         3.8 0.26                           143 258 
                                                                                
