 2017 1119 1023  9.3 L   6.799 -73.177140.0  RSN 12 0.3 1.9LRSN                1
 GAP=109        0.83       2.7     3.1  5.4  0.9265E+00  0.1285E+01 -0.4820E+00E
 Epicentro: LOS SANTOS - SANTANDER                                             3
 ACTION:UPD 17-12-12 19:57 OP:rebc STATUS:               ID:20171119102309 L   I
 OLDACT:REG 17-11-19 20:02 OP:lv   STATUS:               ID:20171119101739     3
 2017-11-19-1018-00M.COL___465                                                 6
 STAT SP IPHASW D HRMM SECON CODA AMPLIT PERI AZIMU VELO AIN AR TRES W  DIS CAZ7
 BAR2 EZ IP     C 1023 28.13                             170   -0.1110 22.9 181 
 BAR2 EZ ES       1023 43.05                             170    0.0410 22.9 181 
 BAR2 EZ I        1023 45.24        15.0 0.18            168           22.9 181 
 PAM  EZ EP       1023 31.02                             149   -0.0410 79.7  41 
 PAM  EZ I        1023 48.62         9.4 0.18            142           79.7  41 
 PTB  HZ EP       1023 34.95                             131   -0.55 9  144 259 
 PTB  HN ES       1023 55.89                             131   -0.04 9  144 259 
 PTB  HZ I        1023 58.52         8.2 0.16            126            144 259 
 SPBC HZ EP       1023 37.49                             128    0.33 9  161 218 
 SPBC HN ES       1023 59.53                             128    0.65 9  161 218 
 SPBC HZ I        1024  6.25        13.0 0.34            122            161 218 
 YPLC HZ IP     C 1023 38.69                             125   -0.17 9  178 150 
 YPLC HN ES       1024  1.77                             125   -0.13 9  178 150 
 YPLC HZ I        1024  5.23        10.4 0.30            118            178 150 
 ZAR  HZ EP       1023 41.36                             121    0.30 9  201 293 
 ZAR  HE ES       1024  5.46                             121   -0.36 9  201 293 
 ZAR  HZ I        1024 12.21        12.8 0.30            116            201 293 
 NOR  HZ EP       1023 44.17                             117   -0.24 8  232 234 
 NOR  HN ES       1024 11.43                             117   -0.35 8  232 234 
 NOR  HZ I        1024 18.13         8.0 0.18            112            232 234 
 CHI  HZ EP       1023 46.84                             116    0.25 8  248 194 
 CHI  HN ES       1024 15.94                             116    0.27 8  248 194 
 CHI  HZ I        1024 19.68         2.8 0.48            110            248 194 
 DRL03HZ EP   4   1023 52.21                             112    1.59 0  289 353 
 DRL03HN ES       1024 23.18                             112    0.35 7  289 353 
 PTGC HZ EP   9   1023 51.61                             110   -1.45 0  310 158 
 PTGC HN ES       1024 24.76                                   -0.97 7  310 158 
 PRA  HZ EP       1024  2.37                             106   -0.06 6  390 209 
 PRA  HZ I        1024 49.28         2.7 0.40            101            390 209 
 SJC  HZ EP   4   1024  2.48                             105   -2.00 0  407 327 
 SJC  HN ES   4   1024 42.74                             105   -4.76 0  407 327 
 SJC  HZ I        1024 47.90         1.2 0.40            100            407 327 
                                                                                
