 2017  219 1414 46.3 L   6.795 -73.189144.5  RSN  5 0.5 1.3LRSN                1
 GAP=131        1.29       6.9     6.5  9.5 -0.4175E+01  0.7389E+01  0.3047E+01E
 Epicentro: ZAPATOCA - SANTANDER                                               3
 ACTION:UPD 17-05-24 15:38 OP:jn   STATUS:               ID:20170219141446 L   I
 OLDACT:REG 17-02-19 21:03 OP:cog  STATUS:               ID:20170219140743     3
 2017-02-19-1408-00M.COL___352                                                 6
 STAT SP IPHASW D HRMM SECON CODA AMPLIT PERI AZIMU VELO AIN AR TRES W  DIS CAZ7
 BAR2 EZ EP       1415  5.76                             171   -0.0310 22.4 178 
 BAR2 EZ ES       1415 20.40                             171   -0.5710 22.4 178 
 BRR  HZ EP       1415  7.58                             154    0.4510 67.3 301 
 BRR  HN ES       1415 24.30                             154    0.9510 67.3 301 
 PAM  EZ EP       1415  8.56                             149   -0.0710 80.9  42 
 PAM  EN ES       1415 25.59                             149   -0.4310 80.9  42 
 PAM  EZ I        1415 27.91         4.7 0.80            152           80.9  42 
 RUS  HZ EP       1415 10.04                             144    0.0910  100 173 
 RUS  HE ES       1415 28.83                             144    0.4610  100 173 
 RUS  HZ I        1415 30.00         2.1 0.34            145            100 173 
 PTB  HZ EP       1415 12.53                             133   -0.23 9  143 259 
 PTB  HN ES       1415 32.64                             133   -0.74 9  143 259 
 PTB  HZ I        1415 37.22         3.3 0.28            133            143 259 
                                                                                
