 2012 1019 1413 17.1 L   6.804 -73.139141.5  RSN 11 0.4 3.0LRSN                1
 GAP= 66        0.94       2.9     3.5  5.1  0.1794E+01  0.3098E+01  0.2656E+01E
 Epicentro: LOS SANTOS - SANTANDER                                             3
 ACTION:UPD 12-11-22 17:04 OP:ep   STATUS:               ID:20121019141317 L   I
 2012-10-19-1410-00M.COL___234                                                 6
 STAT SP IPHASW D HRMM SECON CODA AMPLIT PERI AZIMU VELO AIN AR TRES W  DIS CAZ7
 BAR2 SZ IP       1413 36.25                             170    0.0210 23.9 191 
 BAR2 SZ ES       1413 50.70                             170   -0.4510 23.9 191 
 BAR2 SZ I        1413 52.32       432.7 0.36                          23.9 191 
 GIR2 SZ EP       1413 36.25                             167   -0.0110 30.9 349 
 BRR  HZ IP     D 1413 38.05                             152    0.2410 71.6 298 
 BRR  HE ES       1413 54.88                             152    0.9110 71.6 298 
 BRR  HZ I        1413 59.16       211.2 0.16                          71.6 298 
 PAM  SZ EP       1413 39.02                             150    0.2110 76.6  39 
 PAM  SN ES       1413 55.78                             150    0.0310 76.6  39 
 PAM  SZ I        1413 58.18       201.2 0.54                          76.6  39 
 RUS  HZ EP       1413 40.27                             143   -0.2010  101 176 
 RUS  HN ES       1413 58.32                             143   -0.3710  101 176 
 RUS  HN I        1414  0.71       255.6 0.38                           101 176 
 TAM  HZ EP       1413 44.60                             130    0.21 9  155 105 
 TAM  HZ I        1413 44.95       149.5 0.46                           155 105 
 OCA  HZ EP   1   1413 44.74                             129   -0.31 7  160 353 
 OCA  HN ES   1   1414  5.97                             129   -0.87 7  160 353 
 YOP  SZ EP       1413 46.99                             125    0.14 9  179 154 
 YOP  SZ I        1413 47.84        57.1 0.09                           179 154 
 YOP  SN ES       1414 10.55                             125    0.50 9  179 154 
 ZAR  HZ EP       1413 48.98                             121   -0.34 9  205 292 
 ZAR  HN ES   1   1414 14.23                             121   -0.22 6  205 292 
 ZAR  HZ I        1414 20.40        91.2 0.43                           205 292 
 CHI  HZ EP       1413 54.50                             116   -0.13 8  249 195 
 CHI  HE ES       1414 23.38                             116   -0.53 8  249 195 
 CHI  HZ I        1414 27.74        44.7 0.77                           249 195 
 HEL  HZ EP       1413 57.49                             114    0.30 8  273 256 
 HEL  HN ES       1414 28.57                             114    0.12 8  273 256 
 HEL  HZ I        1414 34.59        54.5 0.29                           273 256 
                                                                                
