 2017 1219 1611  4.4 L   7.542 -73.059150.1  RSN  4 0.1 1.5LRSN                1
 GAP=140        0.44       2.4     4.9  4.2  0.2287E+01  0.1003E+02  0.1998E+01E
 Epicentro: EL PLAYON - SANTANDER                                              3
 ACTION:UPD 18-01-04 13:22 OP:rebc STATUS:               ID:20171219161104 L   I
 OLDACT:UP  17-12-19 22:39 OP:dani STATUS:               ID:20171219160745     3
 OLDACT:REG 17-12-19 20:39 OP:dani STATUS:               ID:20171219160745     3
 2017-12-19-1608-00M.COL___463                                                 6
 STAT SP IPHASW D HRMM SECON CODA AMPLIT PERI AZIMU VELO AIN AR TRES W  DIS CAZ7
 PAM  EZ EP       1611 25.75                             162    0.1510 45.6 119 
 PAM  EE ES       1611 42.16                             162    0.0610 45.6 119 
 PAM  EZ I        1611 43.36         6.2 0.20            163           45.6 119 
 OCA  HZ EP       1611 26.90                             150   -0.0310 82.2 340 
 OCA  HN ES       1611 44.42                             150   -0.0510 82.2 340 
 BAR2 EZ EP       1611 28.38                             143   -0.2710  106 187 
 BAR2 EZ ES       1611 47.53                             143   -0.0110  106 187 
 BAR2 EZ I        1611 50.31         4.6 0.36            143            106 187 
 PTB  HZ EP       1611 35.98                             125    0.20 9  190 234 
                                                                                
