 2014  119 1641 47.8 L   6.825 -73.146144.9  RSN 16 0.4 2.6LRSN                1
 GAP= 70        0.92       2.1     2.5  4.1 -0.7194E+00  0.2433E+01  0.5786E-01E
 Epicentro: LOS SANTOS - SANTANDER                                             3
 ACTION:UPD 14-03-13 09:56 OP:ep   STATUS:               ID:20140119164147 L   I
 OLDACT:REG 14-01-19 15:56 OP:carl STATUS:               ID:20140119164000     3
 2014-01-19-1640-00M.COL___285                                                 6
 STAT SP IPHASW D HRMM SECON CODA AMPLIT PERI AZIMU VELO AIN AR TRES W  DIS CAZ7
 BAR2 SZ EP       1642  7.35                             169    0.0110 26.0 189 
 BAR2 SZ ES       1642 22.20                             169   -0.4110 26.0 189 
 BAR2 SZ I        1642 23.07        89.2 0.10            169           26.0 189 
 BRR  HZ EP       1642  9.07                             153    0.3310 69.9 297 
 BRR  HN ES       1642 25.94                             153    0.8410 69.9 297 
 BRR  HZ I        1642 30.47        97.2 0.14            153           69.9 297 
 PAM  SZ IP     C 1642 10.24                             151    0.4910 75.3  41 
 PAM  SN ES       1642 26.98                             151    0.0710 75.3  41 
 PAM  SZ I        1642 28.98        81.0 0.38            150           75.3  41 
 RUS  HZ EP       1642 11.61                             143   -0.0110  103 176 
 RUS  HN ES       1642 30.03                             143   -0.2010  103 176 
 RUS  HZ I        1642 31.54        21.5 0.20            142            103 176 
 PTB  HZ EP       1642 14.04                             132   -0.66 9  148 258 
 PTB  HE ES       1642 35.46                             132   -0.26 9  148 258 
 PTB  HZ I        1642 41.31        41.5 0.10            131            148 258 
 TAM  HZ IP     C 1642 15.74                             130    0.31 9  156 106 
 TAM  HZ I        1642 36.13        20.7 0.44            129            156 106 
 TAM  HN ES       1642 37.16                             130    0.15 9  156 106 
 OCA  HZ EP       1642 15.40                             130   -0.34 9  158 353 
 OCA  HN ES       1642 37.03                             130   -0.54 9  158 353 
 OCA  HZ I        1642 42.08        55.6 0.36            129            158 353 
 SPBC HZ EP       1642 16.26                             128   -0.13 9  165 218 
 SPBC HN ES       1642 38.48                             128   -0.24 9  165 218 
 SPBC HZ I        1642 47.31        56.9 0.36            128            165 218 
 ZAR  HZ EP       1642 20.04                             122   -0.00 9  203 291 
 ZAR  HE ES       1642 45.74                             122    0.52 9  203 291 
 ZAR  HZ I        1642 50.65        50.2 0.20            122            203 291 
 NOR  HZ EP       1642 23.44                             118   -0.17 8  236 234 
 NOR  HN ES       1642 51.14                             118   -0.43 8  236 234 
 NOR  HZ I        1642 53.89        40.9 0.16            117            236 234 
 SML  HZ EP       1642 23.58                             117   -0.48 8  241 335 
 SML  HN ES       1642 52.00                             117   -0.38 8  241 335 
 SML  HZ I        1642 54.55        74.2 0.36            117            241 335 
 CHI  HZ EP       1642 25.83                             117    0.14 8  251 195 
 CHI  HN ES       1642 55.03                             117   -0.25 8  251 195 
 CHI  HZ I        1643  1.52        14.7 0.56            116            251 195 
 ROSC BZ EP   4   1642 27.80                             116    1.71 0  255 211 
 ROSC BN ES   4   1642 58.16                             116    2.18 0  255 211 
 HEL  HZ EP       1642 28.06                             114    0.06 8  273 255 
 HEL  HN ES       1642 59.58                             114    0.19 8  273 255 
 HEL  HZ I        1643  5.79        25.5 0.34            114            273 255 
 URE  HZ EP   4   1642 27.55                             113   -1.12 0  283 291 
 URE  HN ES   4   1642 56.89                             113   -3.69 0  283 291 
 GUY2CHZ EP       1642 32.05                             112    0.54 7  303 234 
 GUY2CHN ES       1643  6.09                             112    0.46 7  303 234 
 GUY2CHZ I        1643 11.52        21.7 0.58                           303 234 
 COD  HZ EP       1642 35.29                             109   -0.49 6  346 355 
 COD  HN ES       1643 13.91                             109    0.67 6  346 355 
 COD  HZ I        1643 21.83         6.3 0.44            108            346 355 
 ORTC HZ EP       1642 42.43                             106    0.52 6  398 216 
 ORTC HE ES       1643 24.37                             106    0.23 6  398 216 
 ORTC HZ I        1643 29.91         7.6 0.20            105            398 216 
 SJC  HZ EP   4   1642 41.39                             106   -1.63 0  407 327 
 SJC  HN ES   4   1643 21.57                             106   -4.56 0  407 327 
                                                                                
