 2012 1019 1443  9.0 L   6.766 -73.106148.5  RSN  6 0.2 2.0LRSN                1
 GAP=143        0.43       2.5     2.6  4.4  0.1322E+01  0.2839E+01  0.3844E+01E
 Epicentro: LOS SANTOS - SANTANDER                                             3
 ACTION:UPD 12-11-22 17:04 OP:ep   STATUS:               ID:20121019144309 L   I
 2012-10-19-1440-00M.COL___234                                                 6
 STAT SP IPHASW D HRMM SECON CODA AMPLIT PERI AZIMU VELO AIN AR TRES W  DIS CAZ7
 BAR2 SZ EP       1443 28.90                             172   -0.0510 21.0 204 
 BAR2 SZ I        1443 29.16        24.6 0.22                          21.0 204 
 BRR  HZ EP       1443 30.78                             151   -0.0210 76.8 299 
 BRR  HE ES   1   1443 48.17                             151    0.39 7 76.8 299 
 BRR  HZ I        1443 50.55        27.7 0.16                          76.8 299 
 PAM  SZ EP       1443 31.67                             151    0.1110 77.7  35 
 PAM  SE ES       1443 49.02                             151   -0.1110 77.7  35 
 PAM  SZ I        1443 51.46        23.0 0.56                          77.7  35 
 RUS  HZ EP       1443 32.76                             145   -0.0210 96.6 178 
 RUS  HN ES   1   1443 51.18                             145   -0.12 7 96.6 178 
 RUS  HN I        1443 53.52        11.6 0.20                          96.6 178 
 ZAR  HN ES       1444  7.90                             122   -0.20 8  210 293 
 CHI  HZ EP   1   1443 46.81                             118    0.19 6  246 196 
 CHI  HZ I        1444 19.68         3.9 0.60                           246 196 
                                                                                
