 2012  419 1142  8.2 L   6.765 -73.076148.3  RSN  7 0.2 2.0LRSN                1
 GAP=147        0.42       1.9     2.9  3.1 -0.5031E+00  0.1832E+01  0.6583E-01E
 Epicentro: LOS SANTOS - SANTANDER                                             3
 ACTION:UPD 12-07-05 11:54 OP:tino STATUS:               ID:20120419114208 L   I
 2012-04-19-1140-00M.COL___186                                                 6
 STAT SP IPHASW D HRMM SECON CODA AMPLIT PERI AZIMU VELO AIN AR TRES W  DIS CAZ7
 BAR2 SZ EP       1142 28.16                             171     0.010   22 212 
 BAR2 SZ I        1142 28.44        20.8 0.21                            22 212 
 BAR2 SZ ES   1   1142 43.34                             171    -0.3 7   22 212 
 PAM  SZ EP   1   1142 30.73                             152     0.1 7   76  33 
 PAM  SE ES   1   1142 47.93                             152    -0.2 7   76  33 
 BRR  HZ EP       1142 30.09                             150    -0.110   80 298 
 BRR  HN ES       1142 47.38                             150     0.110   80 298 
 BRR  HZ I        1142 49.79        34.1 0.11                            80 298 
 RUS  HZ EP       1142 31.98                             145     0.010   96 180 
 RUS  HN ES       1142 50.61                             145     0.210   96 180 
 RUS  HZ I        1142 54.31         7.3 0.41                            96 180 
 OCA  SZ EP   1   1142 37.17                             129     0.0 7  165 351 
 OCA  SZ ES   1   1142 59.91                             129     0.1 7  165 351 
 NOR  SZ EP   1   1142 44.21                             119    -0.3 6  239 236 
 NOR  SE ES   1   1143 12.85                             119     0.0 6  239 236 
 HEL  HZ EP   1   1142 49.31                             115     0.0 6  279 257 
 HEL  HZ I        1143 27.91         6.1 0.23                           279 257 
                                                                                
