 2013  719 1459  9.3 L   6.800 -73.138147.1  RSN 10 0.4 1.9LRSN                1
 GAP=188        1.09       4.2     5.5  6.1  0.1094E+00  0.6363E+01  0.3221E+00E
 Epicentro: LOS SANTOS - SANTANDER                                             3
 ACTION:UPD 13-08-12 10:38 OP:ep   STATUS:               ID:20130719145909 L   I
 OLDACT:REG 13-07-19 18:22 OP:nd   STATUS:               ID:20130719145848     3
 2013-07-19-1458-48M.COL___223                                                 6
 STAT SP IPHASW D HRMM SECON CODA AMPLIT PERI AZIMU VELO AIN AR TRES W  DIS CAZ7
 BAR2 SZ EP       1459 29.14                             170   -0.0110 23.5 192 
 BAR2 SZ ES       1459 43.97                             170   -0.6210 23.5 192 
 BAR2 SZ I        1459 45.97        11.2 0.42            171           23.5 192 
 GIR2 SZ EP       1459 29.01                             167   -0.1810 31.4 349 
 GIR2 SZ ES       1459 44.62                             167   -0.0410 31.4 349 
 GIR2 SZ I        1459 48.84        13.2 0.10            163           31.4 349 
 BRR  HZ IP     D 1459 31.13                             152    0.4410 72.0 298 
 BRR  HN ES       1459 48.26                             152    0.9310 72.0 298 
 BRR  HZ I        1459 52.48        14.8 0.26            149           72.0 298 
 RUS  HZ EP     D 1459 33.54                             144    0.3110  101 177 
 RUS  HN ES   4   1459 51.27                             144   -0.59 0  101 177 
 RUS  HZ I        1459 52.79         6.8 0.38            148            101 177 
 PTB  HZ EP       1459 35.89                             132   -0.61 9  149 259 
 PTB  HN ES       1459 57.44                             132   -0.25 9  149 259 
 PTB  HZ I        1459 59.18         8.6 0.18            131            149 259 
 SPBC HZ EP       1459 38.21                             129    0.21 9  164 219 
 SPBC HN ES       15 0  0.36                             129    0.01 9  164 219 
 SPBC HZ I        15 0  2.87        12.3 0.52            131            164 219 
 ZAR  HZ EP       1459 42.56                             122    0.59 9  205 292 
 ZAR  HE ES       15 0  7.45                             122    0.04 9  205 292 
 ZAR  HZ I        15 0 14.22        13.5 0.30            122            205 292 
 NOR  HZ EP   1   1459 45.01                             119   -0.22 6  235 235 
 NOR  HN ES   1   15 0 12.84                             119   -0.38 6  235 235 
 NOR  HZ I        15 0 19.20         5.7 0.14            120            235 235 
 SML  HZ EP       1459 46.09                             118    0.00 8  244 335 
 SML  HN ES       15 0 13.94                             118   -0.81 8  244 335 
 SML  HZ I        15 0 22.41        12.1 0.10            118            244 335 
 SJC  HZ EP   4   15 0  3.08                             106   -1.93 0  410 327 
 SJC  HN ES   4   15 0 46.46                             106   -1.97 0  410 327 
 SJC  HZ I        15 0 57.08         1.8 0.42            107            410 327 
                                                                                
