 2012  119 1702 55.5 L   6.747 -73.134144.2  RSN  6 0.5 1.5LRSN                1
 GAP=140        1.00       7.9     6.4 10.0 -0.3270E+01  0.8561E+01  0.9458E+01E
 Epicentro: LOS SANTOS - SANTANDER                                             3
 ACTION:UP  12-02-03 08:18 OP:REBC STATUS:               ID:20120119170255 L   I
 2012-01-19-1700-00M.COL___187                                                 6
 STAT SP IPHASW D HRMM SECON CODA AMPLIT PERI AZIMU VELO SNR AR TRES W  DIS CAZ7
 BAR2 SZ EP   1   17 3 14.90                             173     0.0 7   18 197 
 BAR2 SZ ES   1   17 3 29.28                             173    -0.7 7   18 197 
 BAR2 SZ I        17 3 30.58         7.4 0.27                            18 197 
 BRR  HZ EP   1   17 3 16.82                             151     0.1 7   75 302 
 BRR  HZ I        17 3 17.20        13.1 0.15                            75 302 
 BRR  HE ES   1   17 3 34.23                             151     0.9 7   75 302 
 PAM  SZ EP   1   17 3 17.65                             149    -0.2 7   81  36 
 PAM  SN ES   1   17 3 35.00                             149    -0.2 7   81  36 
 RUS  HZ EP   1   17 3 19.17                             145     0.5 7   95 177 
 RUS  HN ES   2   17 3 37.30                             145     0.5 5   95 177 
 RUS  HZ I        17 3 38.01         2.9 0.30                            95 177 
 PTB  HZ EP   1   17 3 22.01                             132    -0.4 7  148 261 
 PTB  HE ES   1   17 3 42.82                             132    -0.5 7  148 261 
 ZAR  HN ES   2   17 3 53.72                             121     0.0 4  207 294 
                                                                                
