 2011  419 1356 40.5 L   6.721 -73.078137.2  RSN  9 0.5 1.9LRSN                1
 GAP=139        0.90       4.6     7.5  8.3  0.2500E+01 -0.1356E+02 -0.4871E+00E
 Epicentro: JORDAN - SANTANDER                                                 3
 ACTION:UP  11-06-22 15:31 OP:REBC STATUS:               ID:20110419135640 L   I
 2011-04-19-1340-00M.COL___140                                                 6
 STAT SP IPHASW D HRMM SECON CODA AMPLIT PERI AZIMU VELO SNR AR TRES W  DIS CAZ7
 BAR2 SZ EP       1356 59.29                             172     0.310   18 219 
 BAR2 SZ ES   1   1357 12.96                             172    -0.4 7   18 219 
 BAR2 SZ I        1357 15.42        20.4 0.16                            18 219 
 BTL  SZ EP   1   1356 59.04                             167    -0.2 7   30 316 
 GIR2 SZ EP   1   1357  0.43                             162     1.0 7   42 342 
 BRR  HZ EP   1   1357  0.99                             147    -0.4 7   82 301 
 BRR  HN ES   1   1357 18.03                             147     0.4 7   82 301 
 BRI  SZ EP   1   1357  3.76                             138    -0.3 7  114  16 
 GRA  SZ EP   1   1357  4.94                             133    -0.6 7  132  13 
 YOP  SZ EP   1   1357  9.29                             126     0.5 7  168 154 
 YOP  SN ES   2   1357 30.19                             126    -0.7 5  168 154 
 OCA  SZ EP   1   1357  9.12                             126     0.1 7  170 351 
 OCA  SZ ES   1   1357 31.28                             126    -0.1 7  170 351 
 NOR  SZ EP   1   1357 15.77                             116    -0.1 6  236 237 
 NOR  SN ES   2   1357 42.81                             116    -0.6 4  236 237 
                                                                                
