 2014 1219 1432 35.6 L   6.823 -73.227140.5  RSN  4 0.1 1.0LRSN                1
 GAP=148        0.36       2.9     2.6  3.9 -0.2757E+01  0.3454E+01 -0.2264E+01E
 Epicentro: ZAPATOCA - SANTANDER                                               3
 ACTION:UPD 15-02-10 17:05 OP:nd   STATUS:               ID:20141219143235 L   I
 OLDACT:REG 14-12-19 20:54 OP:spq  STATUS:               ID:20141219142745     3
 2014-12-19-1427-45M.COL___296                                                 6
 STAT SP IPHASW D HRMM SECON CODA AMPLIT PERI AZIMU VELO AIN AR TRES W  DIS CAZ7
 BAR2 EZ ES   1   1433  9.69                             169    0.19 7 26.0 169 
 BAR2 EZ I        1433 11.13         3.4 0.09            170           26.0 169 
 PAM  SZ EP       1432 57.54                             148    0.0310 81.6  46 
 PAM  SN ES   1   1433 14.48                             148   -0.12 7 81.6  46 
 PAM  SZ I        1433 16.66         2.5 0.60            151           81.6  46 
 RUS  HZ EP   1   1432 58.97                             142   -0.11 7  104 171 
 RUS  HN ES   1   1433 17.36                             142   -0.05 7  104 171 
 RUS  HZ I        1433 19.23         1.2 0.30            144            104 171 
 PTB  HZ EP       1433  1.49                             132    0.12 9  139 257 
 PTB  HN ES   1   1433 21.33                             132   -0.16 7  139 257 
 PTB  HZ I        1433 23.42         1.5 0.09            135            139 257 
                                                                                
