 2010 1019 1111 39.2 L   6.745 -73.134142.5  RSN  6 0.4 1.7LRSN                1
 GAP=161        0.87       6.3    10.4 10.2 -0.1289E+02  0.1222E+02 -0.1102E+02E
 Epicentro: JORDAN - SANTANDER                                                 3
 ACTION:UP  11-02-18 11:10 OP:tino STATUS:               ID:20101019111139 L   I
 2010-10-19-1108-51S.COL___123                                                 6
 STAT SP IPHASW D HRMM SECON CODA AMPLIT PERI AZIMU VELO SNR AR TRES W  DIS CAZ7
 BAR2 SZ IP     C 1111 58.18                             172    -0.210   18 198 
 BAR2 SZ ES   2   1112 12.87                             172    -0.4 5   18 198 
 BAR2 SZ I        1112 14.20        12.9 0.21                            18 198 
 BRR  HZ EP   1   1112  0.13                             150    -0.2 7   75 302 
 BRR  HZ I        1112  2.15        19.7 0.07                            75 302 
 BRR  HE ES   2   1112 16.88                             150     0.2 5   75 302 
 RUS  HZ EP   1   1112  2.38                             145     0.2 7   94 177 
 RUS  HN ES   2   1112 20.58                             145     0.4 5   94 177 
 RUS  HZ I        1112 22.24         2.8 0.29                            94 177 
 GUE  SZ EP   1   1112  3.40                             137    -0.7 7  122  11 
 GRA  SZ EP   1   1112  5.17                             135     0.5 7  131  16 
 GRA  SZ I        1112  6.48        10.3 0.36                           131  16 
 GRA  SZ ES   2   1112 25.22                             135     0.7 5  131  16 
 HEL  HZ EP   1   1112 19.61                             114     0.3 6  272 257 
                                                                                
