 2013  819 1128 31.5 L   6.766 -73.114144.0  RSN 11 0.5 2.0LRSN                1
 GAP=142        1.21       4.4     4.7  7.2 -0.3227E+01  0.1207E+02  0.5942E+01E
 Epicentro: LOS SANTOS - SANTANDER                                             3
 ACTION:UPD 14-01-14 09:04 OP:ep   STATUS:               ID:20130819112831 L   I
 OLDACT:DUP 13-08-19 17:20 OP:stll STATUS:               ID:20130819111851d    3
 2013-08-19-1118-50M.COL___201                                                 6
 STAT SP IPHASW D HRMM SECON CODA AMPLIT PERI AZIMU VELO AIN AR TRES W  DIS CAZ7
 BAR2 SZ IP     D 1128 50.78                             171   -0.0910 20.7 201 
 BAR2 SZ I        1128 50.93        17.8 0.20            170           20.7 201 
 BAR2 SZ ES       1129  5.76                             171   -0.2210 20.7 201 
 BRR  HZ IP     C 1128 52.63                             151   -0.1210 76.0 300 
 BRR  HZ I        1128 52.93        16.4 0.26            149           76.0 300 
 BRR  HN ES       1129  9.86                             151    0.5410 76.0 300 
 PAM  SZ EP       1128 53.51                             150   -0.0810 78.2  36 
 PAM  SZ I        1128 53.86        14.8 0.26            152           78.2  36 
 PAM  SN ES       1129 10.86                             150    0.0510 78.2  36 
 RUS  HZ EP       1128 54.67                             145   -0.1410 96.7 178 
 RUS  HN ES       1129 13.31                             145    0.3310 96.7 178 
 RUS  HZ I        1129 14.30         5.3 0.26            145           96.7 178 
 PTB  HZ EP       1128 57.31                             131   -1.27 9  150 260 
 PTB  HN ES       1129 18.89                             131   -0.81 9  150 260 
 PTB  HZ I        1129 22.01        15.9 0.36            131            150 260 
 SPBC HZ EP       1128 59.68                             129   -0.13 9  163 221 
 OCA  HN ES       1129 22.88                             129    0.52 9  164 352 
 OCA  HZ I        1129 24.73        15.4 0.22            129            164 352 
 ZAR  HN ES       1129 29.60                             121   -0.31 8  209 293 
 NOR  HZ EP       1129  7.00                             118   -0.21 8  235 236 
 NOR  HN ES       1129 35.36                             118    0.30 8  235 236 
 NOR  HZ I        1129 38.33         9.7 0.24            118            235 236 
 HEL  HZ EP       1129 12.54                             114    0.63 8  275 257 
 HEL  HN ES       1129 43.85                             114    0.43 8  275 257 
 HEL  HZ I        1129 49.91         6.2 0.34            114            275 257 
 GUY2CHZ EP       1129 15.68                             112    0.56 7  302 236 
 GUY2CHN ES       1129 50.03                             112    0.90 7  302 236 
 GUY2CHZ I        1129 57.58         8.2 0.76                           302 236 
                                                                                
