 2016  519 1922 28.8 L   6.811 -73.144146.0  RSN 24 0.5 2.8LRSN                1
 GAP= 71        1.14       2.5     3.1  4.8 -0.9924E+00  0.3610E+01  0.1500E+01E
 Epicentro: LOS SANTOS - SANTANDER                                             3
 ACTION:UPD 16-08-18 17:47 OP:cam  STATUS:               ID:20160519192228 L   I
 OLDACT:UP  16-05-24 15:33 OP:dnl  STATUS:               ID:20160519192228 L   3
 OLDACT:UP  16-05-20 01:48 OP:ar   STATUS:               ID:20160519191746     3
 OLDACT:REG 16-05-19 20:40 OP:drio STATUS:               ID:20160519191746     3
 2016-05-19-1917-46M.COL___303                                                 6
 STAT SP IPHASW D HRMM SECON CODA AMPLIT PERI AZIMU VELO AIN AR TRES W  DIS CAZ7
 BAR2 EZ IP     C 1922 48.23                             170   -0.2510 24.5 190 
 BAR2 EZ ES       1923  4.36                             170    0.5310 24.5 190 
 BAR2 EZ I        1923  6.19       116.8 0.24            169           24.5 190 
 BRR  HZ EP       1922 50.12                             153    0.1710 70.8 298 
 BRR  HN ES       1923  7.48                             153    1.0410 70.8 298 
 BRR  HZ I        1923 10.36       126.8 0.40            152           70.8 298 
 PAM  EZ EP       1922 51.11                             151    0.1410 76.4  40 
 PAM  EN ES       1923  8.30                             151    0.0310 76.4  40 
 PAM  EZ I        1923 10.38       133.4 0.58            151           76.4  40 
 RUS  HZ EP       1922 52.09                             144   -0.5610  102 176 
 RUS  HN ES       1923 10.94                             144   -0.3210  102 176 
 RUS  HZ I        1923 11.84        48.4 0.26            142            102 176 
 PTB  HZ EP       1922 54.85                             132   -0.97 9  148 258 
 PTB  HN ES       1923 16.27                             132   -0.62 9  148 258 
 PTB  HZ I        1923 22.09       115.3 0.38            131            148 258 
 TAM  HZ EP     C 1922 56.37                             131   -0.13 9  155 105 
 TAM  HZ I        1923 17.01        41.3 0.36            130            155 105 
 TAM  HE ES       1923 18.39                             131    0.28 9  155 105 
 OCA  HZ EP       1922 57.05                             130    0.03 9  159 353 
 OCA  HN ES       1923 18.55                             130   -0.48 9  159 353 
 OCA  HZ I        1923 22.38       132.8 0.26            129            159 353 
 SPBC HZ EP       1922 57.06                             129   -0.35 9  164 219 
 SPBC HN ES       1923 19.58                             129   -0.14 9  164 219 
 SPBC HZ I        1923 22.62        91.7 0.12            128            164 219 
 ZAR  HZ EP       1923  0.83                             123   -0.40 9  204 292 
 ZAR  HE ES       1923 25.96                             123   -0.56 9  204 292 
 ZAR  HZ I        1923 33.08       108.8 0.28            122            204 292 
 NOR  HZ EP       1923  4.04                             119   -0.58 8  236 234 
 NOR  HN ES       1923 32.06                             119   -0.51 8  236 234 
 NOR  HZ I        1923 40.01        56.8 0.22            117            236 234 
 CHI  HZ EP       1923  6.34                             117   -0.29 8  250 195 
 CHI  HN ES       1923 35.85                             117   -0.29 8  250 195 
 CHI  HZ I        1923 40.91        28.3 0.28            116            250 195 
 ROSC BZ EP       1923  7.46                             117    0.42 8  254 211 
 ROSC BN ES       1923 37.51                             117    0.63 8  254 211 
 ROSC BZ I        1923 45.35        63.8 0.45            116            254 211 
 HEL  HZ EP       1923  9.73                             115    0.66 8  273 256 
 HEL  HN ES       1923 40.92                             115    0.44 8  273 256 
 HEL  HZ I        1923 46.32        39.7 0.24            114            273 256 
 VIL  SZ EP       1923 13.07                             112    0.72 7  305 192 
 VIL  SN ES       1923 46.47                             112    0.14 7  305 192 
 PTGC HZ EP   4   1923 11.05                             112   -1.73 0  310 159 
 PTGC HN ES   4   1923 44.32                             112   -2.76 0  310 159 
 PTGC HZ I        1923 49.35        37.0 0.26            111            310 159 
 ELA  HZ EP   4   1923 18.14                             110    2.38 0  330 229 
 ELA  HN ES   4   1923 56.94                             110    4.55 0  330 229 
 ELA  HZ I        1924  0.63        27.4 0.54            109            330 229 
 CBOC HZ EP       1923 16.26                             110    0.48 7  334 252 
 CBOC HN ES       1923 53.30                             110    0.88 7  334 252 
 CBOC HZ I        1923 57.55        12.3 0.24            109            334 252 
 ARGC HZ EP       1923 18.59                             108    0.25 6  358 340 
 ARGC HN ES       1923 57.67                             108    0.69 6  358 340 
 ARGC HZ I        1924  3.48        14.3 0.34            108            358 340 
 ANIL HZ EP       1923 19.47                             109    0.75 6  358 224 
 ANIL HN ES   4   1923 59.75                             109    2.09 0  358 224 
 ANIL HZ I        1924  4.14        70.7 0.42            108            358 224 
 PRA  HZ EP       1923 21.94                             107   -0.51 6  393 210 
 PRA  HN ES       1924  4.19                             107   -0.11 6  393 210 
 PRA  HZ I        1924  7.43        33.1 0.60            106            393 210 
 ORTC HZ EP       1923 23.01                             106    0.17 6  396 216 
 ORTC HN ES       1924  6.05                             106    1.05 6  396 216 
 ORTC HZ I        1924 10.94        16.2 0.28            106            396 216 
 PAL  HZ EP       1923 23.73                             106   -0.32 6  406 239 
 PAL  HN ES   4   1924  5.29                             106   -1.86 0  406 239 
 PAL  HZ I        1924 18.67        10.7 0.48            105            406 239 
 SJC  HZ EP   4   1923 21.84                             106   -2.42 0  408 327 
 SJC  HN ES   4   1924  3.65                             106   -3.87 0  408 327 
 CVALLEZ EP   4   1923 25.34                             106    1.03 0  409 358 
 CVALLEN ES       1924  7.45                             106   -0.16 6  409 358 
 CRJC HZ EP   4   1923 28.29                             103   -2.87 0  466   4 
 CRJC HN ES   4   1924 15.45                             103   -4.36 0  466   4 
 CRJC HZ I        1924 20.32        16.2 0.18            103            466   4 
                                                                                
