 2012  819 1559 53.0 L   6.790 -73.139148.0  RSN 15 0.5 3.1LRSN 3.1WRSN        1
 SPEC AVERAGE  MO 13.7 ST  1.7 OM  3.3 f0 3.06 R0.5136 AL 1.99 WI 13.3 MW  3.1 3
 SPEC SD       MO  0.3 ST0.072 OM  1.3 f00.707 R0.1415 AL      WI      MW  0.2 3
 GAP=115        0.92       3.0     3.9  4.9  0.9902E+00  0.5418E+01  0.3512E+01E
 Epicentro: LOS SANTOS - SANTANDER                                             3
 SPEC ROSCBH Z MO 14.1 ST  1.6 OM  2.3 f0 2.06 R0.7136 AL 2.30 WI  9.6 MW  3.4 3
 SPEC ROSCBH Z T16 1 2 K 0.000 GD  292 VS 4.20 DE 3.00 Q0230.0 QA 0.60 VS 4.20 3
 SPEC RUS HH Z MO 13.4 ST  1.7 OM  1.8 f0 3.62 R0.4061 AL 1.47 WI 10.7 MW  2.9 3
 SPEC RUS HH Z T16 033 K 0.000 GD  178 VS 4.20 DE 3.00 Q0230.0 QA 0.60 VS 4.20 3
 SPEC PAM SH Z MO 13.5 ST  1.8 OM  1.9 f0 3.49 R0.4212 AL 2.20 WI 19.7 MW  2.9 3
 SPEC PAM SH Z T16 030 K 0.000 GD  167 VS 4.20 DE 3.00 Q0230.0 QA 0.60 VS 4.20 3
 ACTION:UPD 12-09-10 11:57 OP:ep   STATUS:               ID:20120819155952 L   I
 2012-08-19-1600-00M.COL___217                                                 6
 STAT SP IPHASW D HRMM SECON CODA AMPLIT PERI AZIMU VELO AIN AR TRES W  DIS CAZ7
 BAR2 SZ IP       16 0 12.86                             171   -0.0410 22.4 192 
 BAR2 SZ ES       16 0 28.68                             171    0.2710 22.4 192 
 BAR2 SZ I        16 0 29.99       367.8 0.44                          22.4 192 
 BRR  HZ IP     C 16 0 14.79                             153    0.3110 72.4 299 
 BRR  HZ I        16 0 15.08       335.6 0.18                          72.4 299 
 BRR  HE ES       16 0 31.98                             153    0.7610 72.4 299 
 PAM  SZ IP     C 16 0 15.62                             151    0.1210 77.8  39 
 PAM  SN ES       16 0 32.77                             151   -0.2710 77.8  39 
 PAM  SZ I        16 0 35.49       178.3 0.52                          77.8  39 
 RUS  HZ EP       16 0 16.70                             145   -0.2110 99.4 176 
 RUS  HN ES       16 0 35.48                             145   -0.0610 99.4 176 
 RUS  HZ I        16 0 37.20       112.8 0.37                          99.4 176 
 PTB  HZ EP   1   16 0 19.52                             133   -0.70 7  148 259 
 PTB  HE ES   1   16 0 40.88                             133   -0.55 7  148 259 
 PTB  HZ I        16 0 42.60        78.2 0.24                           148 259 
 OCA  HZ EP   1   16 0 21.10                             130   -0.52 7  161 353 
 OCA  HE ES   1   16 0 43.44                             130   -0.49 7  161 353 
 OCA  HZ I        16 0 48.26       159.8 0.22                           161 353 
 YOP  SZ EP   1   16 0 23.22                             127    0.12 7  178 153 
 YOP  SE ES   1   16 0 46.77                             127    0.21 7  178 153 
 YOP  SZ I        16 0 48.98        92.8 0.25                           178 153 
 ZAR  HZ EP   1   16 0 25.51                             123   -0.22 6  205 292 
 ZAR  HE ES   1   16 0 51.13                             123   -0.11 6  205 292 
 ZAR  HZ I        16 0 58.01       122.1 0.44                           205 292 
 NOR  SZ EP       16 0 28.53                             119   -0.35 8  235 235 
 NOR  SN ES   1   16 0 56.33                             119   -0.51 6  235 235 
 NOR  SZ I        16 1  1.22        86.1 0.22                           235 235 
 CHI  HZ EP   1   16 0 30.80                             118    0.05 6  248 195 
 CHI  HE ES   1   16 1  0.02                             118   -0.16 6  248 195 
 ROSC BZ EP   1   16 0 32.54                             117    1.34 6  252 211 
 ROSC BZ I        16 1  9.09       106.0 0.50                           252 211 
 HEL  HZ EP   1   16 0 34.06                             115    0.66 6  273 256 
 HEL  HZ I        16 1 11.89        50.7 0.63                           273 256 
 VIL  SZ EP   1   16 0 36.40                             113   -0.04 5  302 192 
 VIL  SN ES   1   16 1  9.45                             113   -0.85 5  302 192 
 VIL  SZ I        16 1 20.99        47.7 0.47                           302 192 
 DBB  SZ EP   1   16 0 40.89                             110    0.20 5  340 274 
 TOL  SZ EP   1   16 0 42.09                             110    0.75 5  343 225 
                                                                                
