 2014  119 1814 42.3 L   6.814 -73.148146.5  RSN 14 0.4 2.3LRSN                1
 GAP=136        1.04       2.7     3.8  5.2 -0.1185E+01  0.6127E+01  0.1498E+01E
 Epicentro: LOS SANTOS - SANTANDER                                             3
 ACTION:UPD 14-03-13 09:56 OP:ep   STATUS:               ID:20140119181442 L   I
 OLDACT:REG 14-01-19 15:57 OP:carl STATUS:               ID:20140119181000     3
 2014-01-19-1810-00M.COL___285                                                 6
 STAT SP IPHASW D HRMM SECON CODA AMPLIT PERI AZIMU VELO AIN AR TRES W  DIS CAZ7
 BAR2 SZ IP     D 1815  2.10                             170    0.0210 24.8 189 
 BAR2 SZ ES       1815 17.58                             170    0.1010 24.8 189 
 BAR2 SZ I        1815 18.49        75.0 0.20            168           24.8 189 
 BRR  HZ IP     C 1815  3.88                             153    0.3810 70.3 298 
 BRR  HN ES       1815 20.81                             153    0.7910 70.3 298 
 BRR  HZ I        1815 21.53        32.1 0.14            151           70.3 298 
 PAM  SZ EP       1815  5.01                             151    0.4510 76.3  40 
 PAM  SN ES       1815 22.13                             151    0.2310 76.3  40 
 PAM  SZ I        1815 23.66        23.7 0.18            155           76.3  40 
 RUS  HZ IP     C 1815  6.13                             144   -0.1310  102 176 
 RUS  HN ES       1815 24.13                             144   -0.8010  102 176 
 RUS  HZ I        1815 26.63        16.0 0.34            144            102 176 
 PTB  HZ EP       1815  8.75                             132   -0.61 9  148 258 
 PTB  HN ES       1815 29.89                             132   -0.56 9  148 258 
 PTB  HZ I        1815 31.33        26.0 0.62            131            148 258 
 OCA  HN ES       1815 32.38                             130   -0.18 9  159 353 
 OCA  HZ I        1815 35.07        24.0 0.20            131            159 353 
 SPBC HZ EP       1815 11.01                             129    0.03 9  164 219 
 SPBC HN ES       1815 33.38                             129    0.05 9  164 219 
 SPBC HZ I        1815 40.67        28.0 0.20            128            164 219 
 ZAR  HZ EP       1815 14.60                             123   -0.14 9  203 292 
 ZAR  HN ES       1815 39.90                             123   -0.12 9  203 292 
 ZAR  HZ I        1815 47.17        15.0 0.40            122            203 292 
 NOR  HZ EP       1815 18.58                             119    0.40 8  235 234 
 NOR  HN ES       1815 45.92                             119   -0.22 8  235 234 
 NOR  HZ I        1815 52.13        20.1 0.18            118            235 234 
 SML  HZ EP       1815 18.49                             118   -0.35 8  242 335 
 SML  HN ES       1815 46.41                             118   -0.90 8  242 335 
 SML  HZ I        1815 51.94        22.0 0.24            118            242 335 
 CHI  HZ EP       1815 20.46                             117    0.24 8  250 195 
 CHI  HE ES       1815 49.68                             117   -0.10 8  250 195 
 CHI  HZ I        1815 58.36         6.5 0.40            117            250 195 
 ROSC BN ES   4   1815 52.33                             117    1.85 0  254 211 
 HEL  HZ EP   1   1815 23.30                             115    0.70 6  272 255 
 HEL  HN ES       1815 54.47                             115    0.47 8  272 255 
 HEL  HZ I        1816  2.76         9.2 0.24            115            272 255 
 GUY2CHZ EP       1815 26.78                             112    0.73 7  302 235 
 GUY2CHN ES   1   1816  0.69                             112    0.54 5  302 235 
 GUY2CHZ I        1816 11.28        10.6 0.46                           302 235 
 ORTC HZ EP       1815 35.81                             106   -0.59 6  397 216 
 ORTC HN ES   2   1816 18.75                             106    0.17 3  397 216 
 ORTC HZ I        1816 26.42         7.0 0.28            107            397 216 
                                                                                
