 2013  619 1754  7.4 L   6.807 -73.145144.0  RSN 12 0.5 2.4LRSN                1
 GAP=112        0.99       4.0     3.9  5.7 -0.1970E+00  0.3096E+01  0.7701E+01E
 Epicentro: LOS SANTOS - SANTANDER                                             3
 ACTION:UPD 14-01-08 09:55 OP:ep   STATUS:               ID:20130619175407 L   I
 OLDACT:UP  13-06-19 18:27 OP:cam  STATUS:               ID:20130619174960d    3
 OLDACT:DUP 13-06-19 18:12 OP:cam  STATUS:               ID:20130619174960d    3
 2013-06-19-1749-59M.COL___261                                                 6
 STAT SP IPHASW D HRMM SECON CODA AMPLIT PERI AZIMU VELO AIN AR TRES W  DIS CAZ7
 BAR2 SZ EP       1754 26.59                             170   -0.2010 24.1 190 
 BAR2 SZ ES       1754 41.70                             170   -0.2510 24.1 190 
 BAR2 SZ I        1754 43.01        60.6 0.14            167           24.1 190 
 GIR2 SZ EP       1754 26.46                             168   -0.3410 30.6 350 
 GIR2 SZ ES       1754 42.68                             168    0.7110 30.6 350 
 BRR  HZ EP       1754 28.34                             153    0.0410 70.9 298 
 BRR  HN ES       1754 45.24                             153    0.6010 70.9 298 
 BRR  HZ I        1754 48.28        48.0 0.34            151           70.9 298 
 RUS  HZ EP       1754 30.68                             143   -0.3110  101 176 
 RUS  HZ I        1754 31.86        28.2 0.12            143            101 176 
 RUS  HN ES   1   1754 48.88                             143   -0.54 7  101 176 
 PTB  HZ EP       1754 33.44                             132   -0.76 9  148 259 
 PTB  HN ES   4   1754 54.32                             132   -0.82 0  148 259 
 PTB  HZ I        1754 59.27        35.3 0.10            131            148 259 
 TAM  HZ EP       1754 35.03                             131    0.12 9  155 105 
 TAM  HN ES       1754 56.60                             131    0.20 9  155 105 
 TAM  HZ I        1754 57.18        16.9 0.26            133            155 105 
 OCA  HN ES   1   1754 56.95                             130   -0.44 7  160 353 
 OCA  HZ I        1754 59.45        44.7 0.22            132            160 353 
 NOR  HZ EP       1754 43.07                             118    0.03 8  235 234 
 NOR  HN ES       1755 10.63                             118   -0.24 8  235 234 
 NOR  HZ I        1755 17.71        19.4 0.58            118            235 234 
 SML  HZ EP   2   1754 44.10                             118    0.28 4  243 335 
 CHI  HZ EP   1   1754 45.16                             117    0.12 6  249 195 
 CHI  HN ES   1   1755 15.25                             117    0.82 6  249 195 
 CHI  HZ I        1755 22.33         9.8 0.36            117            249 195 
 HEL  HZ EP   2   1754 48.18                             115    0.67 4  272 256 
 HEL  HN ES   4   1755 21.19                             115    2.36 0  272 256 
 PRA  HZ EP   2   1755  1.25                             106    0.35 3  393 210 
 PRA  HN ES       1755 43.53                             106    0.87 6  393 210 
 PRA  HZ I        1755 47.91        13.5 0.76            107            393 210 
                                                                                
