 2010  719 1027 22.1 L   6.733 -73.125148.0  RSN  6 0.3 1.5LRSN                1
 GAP=162        0.77       5.2     8.8  7.8 -0.4058E+01 -0.1475E+01 -0.7058E+00E
 Epicentro: JORDAN - SANTANDER                                                 3
 ACTION:UPD 10-12-01 15:18 OP:pat  STATUS:               ID:20100719102722 L   I
 2010-07-19-1023-59S.COL___123                                                 6
 STAT SP IPHASW D HRMM SECON CODA AMPLIT PERI AZIMU VELO AIN AR TRES W  DIS CAZ7
 BAR2 SZ EP   1   1027 41.45                             173    -0.4 7   17 203 
 BAR2 SZ ES   1   1027 56.96                             173    -0.4 7   17 203 
 BAR2 SZ I        1028  0.24        10.9 0.39                            17 203 
 BRR  HZ IP     C 1027 43.60                             151    -0.210   77 303 
 BRR  HZ I        1027 43.85        12.6 0.13                            77 303 
 BRR  HE ES   1   1028  1.17                             151     0.4 7   77 303 
 RUS  HZ EP   1   1027 45.86                             146     0.3 7   93 177 
 RUS  HN ES   2   1028  4.32                             146     0.5 5   93 177 
 RUS  HZ I        1028  6.05         4.2 0.39                            93 177 
 GUE  SZ EP   2   1027 47.64                             138     0.1 5  123  10 
 GUE  SZ I        1028  9.22         1.4 0.19                           123  10 
 GRA  SZ EP   2   1027 48.54                             136     0.5 5  132  16 
 GRA  SZ ES   1   1028  8.38                             136     0.0 7  132  16 
 GRA  SZ I        1028  9.06         4.1 0.34                           132  16 
 HEL  HZ EP   2   1028  2.38                             115    -0.1 4  273 257 
 HEL  HZ I        1028 40.68         3.0 0.53                           273 257 
                                                                                
