 2010  819 1010 30.2 L   6.740 -73.129149.8  RSN  6 0.5 1.7LRSN                1
 GAP=161        1.09       6.5    14.1 11.2 -0.3628E+01 -0.4695E+02 -0.1239E+02E
 Epicentro: JORDAN - SANTANDER                                                 3
 ACTION:UP  10-09-07 10:56 OP:vdl  STATUS:               ID:20100819101030 L   I
 2010-08-19-1008-42S.COL___117                                                 6
 STAT SP IPHASW D HRMM SECON CODA AMPLIT PERI AZIMU VELO SNR AR TRES W  DIS CAZ7
 BAR2 SZ EP       1010 50.03                             173    -0.110   17 200 
 BAR2 SZ ES   1   1011  5.16                             173    -0.6 7   17 200 
 BAR2 SZ I        1011  6.30        13.5 0.40                            17 200 
 GIR2 SZ EP   2   1010 50.16                             165    -0.3 5   38 349 
 BRR  HZ EP   1   1010 51.87                             151    -0.2 7   76 302 
 BRR  HZ I        1010 52.39        20.3 0.06                            76 302 
 BRR  HN ES   1   1011  9.46                             151     0.4 7   76 302 
 RUS  HZ EP   1   1010 54.07                             146     0.2 7   94 177 
 RUS  HN ES   2   1011 12.99                             146     0.7 5   94 177 
 RUS  HZ I        1011 14.35         3.3 0.35                            94 177 
 GRA  SZ EP       1010 56.82                             136     0.610  132  16 
 GRA  SZ ES   1   1011 16.46                             136    -0.1 7  132  16 
 GRA  SZ I        1011 18.11         9.1 0.29                           132  16 
 OCA  SZ EP   1   1010 58.48                             129    -0.9 7  167 353 
 OCA  SZ ES   2   1011 22.98                             129     0.7 5  167 353 
                                                                                
