 2012 1219 1951  9.0 L   6.813 -73.151152.1  RSN 28 0.6 4.1LRSN 4.1WRSN        1
 SPEC AVERAGE  MO 15.3 ST 96.0 OM  3.6 f0 2.12 R0.8334 AL 1.71 WI 20.9 MW  4.1 3
 SPEC SD       MO  0.2 ST244.6 OM  0.5 f0 1.22 R0.2626 AL      WI      MW  0.1 3
 GAP=125        1.05       2.9     4.5  5.0 -0.2504E+01  0.5589E+01  0.1451E+01E
 Epicentro: LOS SANTOS - SANTANDER                                             3
 SPEC ROSCBH Z MO 15.5 ST 15.5 OM  2.9 f0 1.48 R0.9932 AL 1.93 WI 28.9 MW  4.3 3
 SPEC ROSCBH Z T195148 K 0.000 GD  296 VP 7.60 DE 3.20 Q0300.0 QA 0.60 VS 4.20 3
 SPEC PTB HH N MO 15.2 ST 16.8 OM  3.5 f0 1.94 R0.7577 AL 1.07 WI 13.6 MW  4.1 3
 SPEC PTB HH N T195156 K 0.000 GD  211 VS 4.20 DE 3.20 Q0300.0 QA 0.60 VS 4.20 3
 SPEC RUS HH N MO 15.2 ST 20.1 OM  3.5 f0 2.16 R0.6806 AL 2.10 WI  7.6 MW  4.1 3
 SPEC RUS HH N T195151 K 0.000 GD  183 VS 4.20 DE 3.20 Q0300.0 QA 0.60 VS 4.20 3
 SPEC PRA HH N MO 15.1 ST  4.5 OM  3.1 f0 1.35 R1.0889 AL 1.16 WI 24.3 MW  4.0 3
 SPEC PRA HH N T195242 K 0.000 GD  421 VS 4.20 DE 3.20 Q0300.0 QA 0.60 VS 4.20 3
 SPEC HEL HH E MO 15.2 ST  4.8 OM  3.3 f0 1.31 R1.1221 AL 1.48 WI 25.7 MW  4.1 3
 SPEC HEL HH E T195219 K 0.000 GD  311 VS 4.20 DE 3.20 Q0300.0 QA 0.60 VS 4.20 3
 SPEC NOR HH N MO 15.5 ST829.3 OM  3.7 f0 5.56 R0.2644 AL 4.08 WI 15.4 MW  4.3 3
 SPEC NOR HH N T195211 K 0.000 GD  279 VS 4.20 DE 3.20 Q0300.0 QA 0.60 VS 4.20 3
 SPEC OCA HH N MO 15.4 ST 18.6 OM  3.7 f0 1.70 R0.8647 AL 1.09 WI 28.3 MW  4.2 3
 SPEC OCA HH N T195156 K 0.000 GD  220 VS 4.20 DE 3.20 Q0300.0 QA 0.60 VS 4.20 3
 SPEC CHI HH N MO 15.3 ST  6.5 OM  3.4 f0 1.37 R1.0730 AL 1.93 WI 18.3 MW  4.1 3
 SPEC CHI HH N T195216 K 0.000 GD  292 VS 4.20 DE 3.20 Q0300.0 QA 0.60 VS 4.20 3
 SPEC CHI HH Z MO 15.2 ST  8.7 OM  2.6 f0 1.54 R0.9545 AL 1.13 WI 29.5 MW  4.1 3
 SPEC CHI HH Z T195146 K 0.000 GD  292 VP 7.60 DE 3.20 Q0300.0 QA 0.60 VS 4.20 3
 SPEC BRR HH Z MO 15.1 ST 35.6 OM  2.7 f0 2.75 R0.5345 AL 1.13 WI 17.2 MW  4.0 3
 SPEC BRR HH Z T195131 K 0.000 GD  167 VP 7.60 DE 3.20 Q0300.0 QA 0.60 VS 4.20 3
 ACTION:UPD 13-01-04 14:29 OP:ep   STATUS:               ID:20121219195109 L   I
 2012-12-19-1950-00M.COL___242                                                 6
 STAT SP IPHASW D HRMM SECON CODA AMPLIT PERI AZIMU VELO AIN AR TRES W  DIS CAZ7
 BAR2 SZ EP       1951 29.49                             170    0.0910 24.6 188 
 BAR2 SZ ES   1   1951 44.58                             170   -0.75 7 24.6 188 
 BAR2 SZ I        1951 46.42      3394.3 0.36                          24.6 188 
 GIR2 SZ IP     D 1951 29.67                             168    0.3010 29.8 351 
 GIR2 SZ ES   1   1951 45.31                             168    0.03 7 29.8 351 
 BRR  HZ IP     D 1951 31.37                             154    0.6110 70.0 298 
 BRR  HE ES   1   1951 48.64                             154    0.89 7 70.0 298 
 BRR  HZ I        1951 53.81      1291.1 0.16                          70.0 298 
 PAM  SZ EP       1951 32.26                             152    0.4210 76.7  41 
 PAM  SN ES   1   1951 49.49                             152   -0.17 7 76.7  41 
 PAM  SZ I        1951 51.75      2389.7 0.54                          76.7  41 
 RUS  HZ EP   1   1951 33.31                             145   -0.15 7  102 176 
 RUS  HN ES   1   1951 52.27                             145   -0.29 7  102 176 
 RUS  HZ I        1951 53.88      1352.5 0.36                           102 176 
 PTB  HZ EP   1   1951 36.18                             133   -0.27 7  147 258 
 PTB  HN ES   1   1951 57.04                             133   -0.83 7  147 258 
 PTB  HZ I        1951 59.68      1331.6 0.34                           147 258 
 OCA  HZ EP   1   1951 37.56                             131   -0.10 7  159 353 
 OCA  HE ES   1   1951 59.49                             131   -0.54 7  159 353 
 OCA  HZ I        1952  4.64      1201.5 0.31                           159 353 
 ZAR  HZ EP   1   1951 41.84                             124    0.10 6  203 292 
 ZAR  HE ES   1   1952  7.55                             124    0.26 6  203 292 
 ZAR  HZ I        1952 14.98      1025.7 0.36                           203 292 
 CTAB SZ EP   4   1951 46.68                             120    1.47 0  231 210 
 NOR  HZ EP     C 1951 45.13                             120    0.01 8  235 234 
 NOR  HN ES   1   1952 12.61                             120   -0.70 6  235 234 
 NOR  HZ I        1952 17.84      1111.5 0.20                           235 234 
 SML  HZ EP   1   1951 45.74                             119   -0.07 6  242 335 
 SML  HE ES   1   1952 15.83                             119    1.29 6  242 335 
 CHI  HZ EP     C 1951 47.11                             118   -0.06 8  250 195 
 CHI  HE ES   1   1952 16.77                             118   -0.18 6  250 195 
 CHI  HZ I        1952 22.41       458.6 0.30                           250 195 
 ROSC BZ EP   1   1951 48.69                             118    1.14 6  254 211 
 ROSC BZ I        1952 24.18       967.6 0.40                           254 211 
 HEL  HZ EP   1   1951 49.80                             116    0.30 6  272 255 
 HEL  HE ES   1   1952 20.46                             116   -0.65 6  272 255 
 HEL  HZ I        1952 27.84       704.8 0.30                           272 255 
 URE  HZ EP   1   1951 49.46                             115   -0.79 6  283 292 
 VIL  SZ EP   1   1951 52.62                             113   -0.21 5  305 191 
 VIL  SN ES   1   1952 26.70                             113   -0.34 5  305 191 
 VIL  SZ I        1952 32.82       666.0 0.48                           305 191 
 RREF HZ EP     C 1951 56.52                             112    1.06 7  322 229 
 TOL  SZ EP   1   1951 58.26                             110    0.69 5  344 224 
 TOL  SZ ES   1   1952 36.09                             110    0.63 5  344 224 
 COD  HZ EP     C 1951 56.60                             110   -0.85 6  347 355 
 COD  HE ES   1   1952 34.95                             110   -0.30 5  347 355 
 COD  HZ I        1952 42.28       209.7 0.32                           347 355 
 MON  HZ EP     D 1951 56.48                             110   -1.60 6  352 308 
 ANIL HZ EP   1   1951 59.99                             109    0.89 5  358 224 
 SDV  BZ EP   1   1951 58.81                             109   -0.41 5  360  50 
 PRA  HZ EP     C 1952  2.39                             107   -0.44 6  393 209 
 PRA  HN ES   1   1952 44.06                             107   -0.78 4  393 209 
 PRA  HZ I        1952 50.82       537.0 0.26                           393 209 
 PAL  HZ EP   1   1952  5.07                             107    0.69 4  406 239 
 VALL EZ EP   4   1951 58.30                             107   -6.38 0  409 358 
 YOT  HZ EP   1   1952 11.91                             104   -0.35 4  472 229 
 GUA  SZ EP   4   1952 12.14                             104   -0.34 0  475 173 
 SMAR HZ EP       1952 14.62                             103   -0.22 4  496 346 
 CAP2 HZ EP   4   1952 14.19                             103   -1.99 0  507 294 
 BET  SZ EP   4   1952 17.27                             102   -0.88 0  523 209 
 MARA HZ EP   4   1952 19.88                             102   -0.37 0  538 215 
 MAL  SZ EP   4   1952 23.86                             101    1.63 0  558 236 
 POP2 HZ EP       1952 28.77                             100   -0.44 3  613 220 
 PCON HZ EP   4   1952 29.78                             100    0.20 0  613 216 
 FLO2 HZ EP   1   1952 31.40                              99   -0.94 2  641 206 
 SOTA HZ EP       1952 33.98                              99    0.76 2  644 217 
 CRU  SZ EP   4   1952 43.21                              98    1.35 0  717 216 
                                                                                
