 2017  619 1629 56.0 L   6.781 -73.173157.0  RSN  4 0.4 1.3LRSN                1
 GAP=293        0.61       8.0     6.5  7.8 -0.6468E+01 -0.7865E+01  0.1947E+02E
 Epicentro: LOS SANTOS - SANTANDER                                             3
 ACTION:UPD 17-09-14 16:53 OP:jn   STATUS:               ID:20170619162956 L   I
 OLDACT:UP  17-06-20 02:01 OP:dani STATUS:               ID:20170619162733d    3
 OLDACT:DUP 17-06-20 01:58 OP:dani STATUS:               ID:20170619162733d    3
 2017-06-19-1628-00M.COL___332                                                 6
 STAT SP IPHASW D HRMM SECON CODA AMPLIT PERI AZIMU VELO AIN AR TRES W  DIS CAZ7
 BRR  HZ EP       1630 18.45                             155    0.2010 69.6 301 
 BRR  HE ES       1630 35.71                             155    0.0810 69.6 301 
 BRR  HZ I        1630 38.39         4.0 0.16            158           69.6 301 
 PTB  HZ EP       1630 23.43                             136   -0.14 9  144 259 
 PTB  HN ES       1630 44.89                             136   -0.22 9  144 259 
 PTB  HZ I        1630 46.14         1.7 0.14            139            144 259 
 ZAR  HN ES       1630 54.64                             125   -0.06 9  202 293 
 NOR  HN ES   3   1631  2.08                             122    2.01 2  231 234 
                                                                                
