 2011  419 1052 19.8 L   6.774 -73.116144.6  RSN 10 0.4 2.1LRSN                1
 GAP=164        0.77       6.2     6.6  8.7 -0.2241E+02  0.1047E+02  0.9244E+01E
 Epicentro: LOS SANTOS - SANTANDER                                             3
 ACTION:UP  11-06-22 15:31 OP:REBC STATUS:               ID:20110419105219 L   I
 2011-04-19-1049-55S.COL___139                                                 6
 STAT SP IPHASW D HRMM SECON CODA AMPLIT PERI AZIMU VELO SNR AR TRES W  DIS CAZ7
 BAR2 SZ EP   1   1052 39.06                             171    -0.2 7   21 200 
 BAR2 SZ I        1052 56.26        18.3 0.12                            21 200 
 BTL  SZ EP   1   1052 39.41                             171     0.2 7   23 314 
 GIR2 SZ EP       1052 39.43                             166     0.010   35 346 
 BRR  HZ EP   1   1052 41.17                             151     0.1 7   75 299 
 BRR  HN ES   2   1052 58.17                             151     0.5 5   75 299 
 BRR  HZ I        1052 59.47        54.7 0.14                            75 299 
 PAM  SZ EP   1   1052 42.09                             150     0.2 7   78  36 
 PAM  SN ES   1   1052 58.90                             150    -0.2 7   78  36 
 BRI  SZ EP   1   1052 43.70                             141     0.0 7  110  19 
 BRI  SZ I        1053  4.21        23.8 0.26                           110  19 
 GRA  SZ IP       1052 45.20                             136     0.110  128  16 
 GRA  SZ I        1053  5.79        25.0 0.37                           128  16 
 OCA  SZ EP   1   1052 48.02                             129    -0.3 7  164 352 
 OCA  SZ ES   1   1053 10.23                             129    -0.3 7  164 352 
 OCA  SZ I        1053 12.72        23.1 0.35                           164 352 
 NOR  SZ EP   1   1052 54.76                             118    -0.8 6  236 235 
 NOR  SN ES   2   1053 23.48                             118     0.0 4  236 235 
 NOR  SZ I        1053 25.05         2.1 0.22                           236 235 
 HEL  HZ EP   1   1053  1.05                             114     0.9 6  275 257 
 HEL  HN ES   2   1053 31.07                             114    -0.7 4  275 257 
 HEL  HZ I        1053 38.67         9.6 0.26                           275 257 
                                                                                
