 2010  719 1504  6.6 L   6.785 -73.050150.1  RSN 13 0.4 3.2LRSN                1
 GAP=170        0.95       3.8     6.8  6.2 -0.1118E+02  0.6549E+01  0.1027E+01E
 Epicentro: LOS SANTOS - SANTANDER                                             3
 ACTION:UPD 10-12-01 15:18 OP:pat  STATUS:               ID:20100719150406 L   I
 2010-07-19-1501-00S.COL___123                                                 6
 STAT SP IPHASW D HRMM SECON CODA AMPLIT PERI AZIMU VELO AIN AR TRES W  DIS CAZ7
 BAR2 SZ IP       15 4 26.91                             170     0.110   26 215 
 BAR2 SZ ES   1   15 4 41.85                             170    -0.7 7   26 215 
 BAR2 SZ I        15 4 43.70       235.6 0.32                            26 215 
 GIR2 SZ IP       15 4 27.03                             166     0.110   36 334 
 GIR2 SZ ES   1   15 4 43.46                             166     0.7 7   36 334 
 BRR  HZ IP     C 15 4 28.83                             150     0.010   81 296 
 BRR  HZ I        15 4 29.10       435.7 0.17                            81 296 
 BRR  HN ES   1   15 4 46.15                             150     0.0 7   81 296 
 RUS  HZ IP     C 15 4 30.75                             145     0.110   99 182 
 RUS  HE ES   1   15 4 49.45                             145     0.0 7   99 182 
 RUS  HZ I        15 4 50.80       125.8 0.45                            99 182 
 GUE  SZ IP       15 4 31.00                             140    -0.710  116   7 
 GUE  SZ I        15 4 54.95        59.2 0.26                           116   7 
 GRA  SZ IP       15 4 32.69                             138     0.510  125  13 
 GRA  SZ ES   1   15 4 52.40                             138     0.3 7  125  13 
 GRA  SZ I        15 4 53.39       188.9 0.28                           125  13 
 OCA  SZ EP       15 4 35.36                             130    -0.2 9  163 350 
 OCA  SZ ES   1   15 4 57.85                             130    -0.3 7  163 350 
 OCA  SZ I        15 5  3.19       185.7 0.30                           163 350 
 ROSC BE ES   2   15 5 15.82                             117     0.1 4  257 213 
 ROSC BZ I        15 5 24.10        81.6 0.34                           257 213 
 HEL  HZ EP   1   15 4 48.60                             115     0.4 6  282 257 
 HEL  HN ES   2   15 5 19.77                             115    -0.8 4  282 257 
 HEL  HZ I        15 5 24.31        49.8 0.23                           282 257 
 GUY  SZ EP   1   15 4 51.35                             112     0.0 5  309 236 
 GUY  SE ES   2   15 5 27.06                             112     0.9 4  309 236 
 GUY  SZ I        15 5 34.63       214.6 0.53                           309 236 
 RREF HZ EP   2   15 4 54.14                             111     0.4 3  329 231 
 RREF HE ES   2   15 5 30.76                             111     0.2 3  329 231 
 RREF HZ I        15 5 39.32        82.7 0.36                           329 231 
 ANIL HE ES   2   15 5 37.14                             109     0.3 3  364 226 
 ANIL HZ I        15 5 46.77       160.3 0.37                           364 226 
 PRA  HZ EP   1   15 5  0.39                             107    -0.4 4  396 211 
 PRA  HN ES   1   15 5 42.49                             107    -0.5 4  396 211 
 PRA  HZ I        15 5 46.67        64.9 0.32                           396 211 
                                                                                
