 2014 1019 1237 49.2 L   6.798 -73.152147.4  RSN  9 0.4 1.9LRSN                1
 GAP=136        0.99       3.3     4.2  5.7  0.2785E+00  0.4276E+01 -0.3673E+00E
 Epicentro: LOS SANTOS - SANTANDER                                             3
 ACTION:UPD 14-11-29 23:51 OP:nd   STATUS:               ID:20141019123749 L   I
 OLDACT:UP  14-10-20 00:59 OP:cam  STATUS:               ID:20141019123648     3
 OLDACT:REG 14-10-20 00:48 OP:cam  STATUS:               ID:20141019123648     3
 2014-10-19-1236-48M.COL___268                                                 6
 STAT SP IPHASW D HRMM SECON CODA AMPLIT PERI AZIMU VELO AIN AR TRES W  DIS CAZ7
 BAR2 SZ EP       1238  8.89                             171   -0.1310 23.0 188 
 BAR2 SZ ES       1238 24.25                             171   -0.2310 23.0 188 
 BAR2 SZ I        1238 25.59        12.0 0.36            169           23.0 188 
 BRR  HZ EP       1238 11.00                             153    0.5110 70.7 299 
 BRR  HN ES       1238 27.76                             153    0.6510 70.7 299 
 BRR  HN I        1238 30.99        25.4 0.20            152           70.7 299 
 PAM  SZ EP       1238 11.91                             151    0.2810 78.0  40 
 PAM  SN ES       1238 29.02                             151   -0.1010 78.0  40 
 RUS  HZ EP       1238 12.75                             144   -0.3510  100 176 
 RUS  HN ES       1238 31.80                             144    0.0610  100 176 
 RUS  HZ I        1238 32.91         5.0 0.30            145            100 176 
 PTB  HZ EP       1238 16.19                             133   -0.04 9  147 259 
 PTB  HN ES       1238 36.95                             133   -0.37 9  147 259 
 PTB  HZ I        1238 38.87         8.8 0.48            132            147 259 
 SPBC HZ EP       1238 18.11                             130    0.35 9  163 219 
 SPBC HN ES       1238 39.52                             130   -0.52 9  163 219 
 SPBC HZ I        1238 48.19         7.6 0.16            130            163 219 
 ZAR  HN ES       1238 47.40                             123    0.37 9  203 292 
 SML  HZ EP       1238 25.45                             118   -0.46 8  244 335 
 SML  HN ES       1238 53.81                             118   -0.73 8  244 335 
 SML  HN I        1238 57.74        13.0 0.10            119            244 335 
 CHI  HZ EP       1238 27.38                             117    0.44 8  248 195 
                                                                                
