 2016  219 1253 19.2 L   6.815 -73.175142.0  RSN 20 0.4 2.4LRSN                1
 GAP=132        0.98       2.5     3.1  4.6 -0.1595E+01  0.3947E+01  0.2590E+01E
 Epicentro: ZAPATOCA - SANTANDER                                               3
 ACTION:UPD 16-03-04 21:27 OP:rebc STATUS:               ID:20160219125319 L   I
 OLDACT:REG 16-02-19 21:19 OP:ak   STATUS:               ID:20160219124750     3
 2016-02-19-1247-50M.COL___309                                                 6
 STAT SP IPHASW D HRMM SECON CODA AMPLIT PERI AZIMU VELO AIN AR TRES W  DIS CAZ7
 BAR2 EZ EP       1253 38.19                             170   -0.1710 24.7 182 
 BAR2 EZ ES       1253 53.11                             170   -0.2310 24.7 182 
 BAR2 EZ I        1253 54.89        53.0 0.16            168           24.7 182 
 BRR  HZ EP       1253 39.94                             153    0.2510 67.5 299 
 BRR  HN ES       1253 56.67                             153    0.9710 67.5 299 
 BRR  HZ I        1254  1.04        34.2 0.35            150           67.5 299 
 PAM  EZ EP       1253 41.17                             150    0.1510 78.2  42 
 PAM  EN ES       1253 58.14                             150    0.0710 78.2  42 
 PAM  EZ I        1254  0.43        64.0 0.50            155           78.2  42 
 RUS  HZ EP       1253 42.42                             142   -0.2610  103 174 
 RUS  HN ES       1254  1.20                             142    0.1710  103 174 
 RUS  HZ I        1254  2.11        39.4 0.34            144            103 174 
 PTB  HZ EP       1253 44.89                             132   -0.66 9  145 258 
 PTB  HN ES       1254  5.71                             132   -0.44 9  145 258 
 PTB  HZ I        1254  9.62        25.6 0.18            131            145 258 
 OCA  HZ EP       1253 47.43                             129    0.45 9  158 354 
 OCA  HN ES       1254  8.29                             129   -0.39 9  158 354 
 OCA  HZ I        1254 13.82        42.2 0.13            131            158 354 
 SPBC HZ EP       1253 47.17                             128   -0.13 9  163 218 
 SPBC HN ES       1254  8.97                             128   -0.28 9  163 218 
 SPBC HZ I        1254 12.01        58.9 0.46            129            163 218 
 ZAR  HZ EP       1253 50.46                             122   -0.51 9  200 292 
 ZAR  HN ES       1254 15.36                             122   -0.44 9  200 292 
 ZAR  HZ I        1254 25.20        20.6 0.35            122            200 292 
 NOR  HZ EP       1253 54.51                             118    0.02 8  233 234 
 NOR  HN ES       1254 21.59                             118   -0.46 8  233 234 
 NOR  HZ I        1254 30.15        28.2 0.14            118            233 234 
 CHI  HZ EP       1253 56.39                             116   -0.34 8  249 194 
 CHI  HN ES       1254 26.02                             116   -0.03 8  249 194 
 CHI  HZ I        1254 29.42        12.5 0.29            118            249 194 
 ROSC BZ EP       1253 57.68                             116    0.63 8  253 210 
 ROSC BN ES       1254 26.81                             116    0.20 8  253 210 
 ROSC BZ I        1254 36.26        22.0 0.35            117            253 210 
 HEL  HZ EP       1253 59.75                             114    0.88 8  269 255 
 HEL  HN ES       1254 30.06                             114    0.21 8  269 255 
 HEL  HZ I        1254 38.34        14.4 0.30            115            269 255 
 URE  HZ EP   9   1253 58.15                             113   -1.48 0  280 292 
 URE  HE ES       1254 29.27                                   -0.45 7  280 292 
 GUY2CHZ EP   4   1254  3.87                             112    1.47 0  300 234 
 GUY2CHN ES       1254 35.86                             112   -0.27 7  300 234 
 GUY2CHZ I        1254 44.34        15.7 0.26                           300 234 
 SOCV BZ EP   4   1254  0.08                             111   -2.15 0  303  57 
 SOCV BN ES   4   1254 32.04                             111   -3.80 0  303  57 
 ELA  HZ EP   4   1254  7.98                             110    2.29 0  328 229 
 ELA  HN ES       1254 42.84                             110    0.85 7  328 229 
 ELA  HZ I        1254 57.49        10.6 0.34            111            328 229 
 CBOC HZ EP       1254  5.91                             109    0.29 7  331 252 
 CBOC HE ES       1254 42.15                             109    0.29 7  331 252 
 CBOC HZ I        1254 46.47         3.7 0.33            110            331 252 
 MON  HZ EP   9   1254  5.40                             108   -2.19 0  350 308 
 MON  HN ES       1254 42.78                                   -0.40 6  350 308 
 MON  HZ I        1254 45.48         4.3 0.19            109            350 308 
 ANIL HZ EP       1254  8.88                             108    0.19 6  356 224 
 ANIL HN ES       1254 47.56                             108    0.23 6  356 224 
 ANIL HZ I        1254 55.10        38.9 0.30            109            356 224 
 ORTC HZ EP       1254 12.10                             106   -0.78 6  395 216 
 ORTC HN ES       1254 54.72                             106   -0.07 6  395 216 
 ORTC HZ I        1255  2.15         8.8 0.30            107            395 216 
 SJC  HZ EP   4   1254 12.49                             105   -1.72 0  406 327 
 SJC  HN ES   4   1254 53.11                             105   -4.05 0  406 327 
 SJC  HZ I        1254 58.22         4.3 0.45            106            406 327 
                                                                                
