 2013  319 1546 11.8 L   6.780 -73.161153.5  RSN  7 0.3 1.9LRSN                1
 GAP=136        0.87       4.5     4.0  6.3  0.1679E+01  0.4266E+01  0.4188E+00E
 Epicentro: LOS SANTOS - SANTANDER                                             3
 ACTION:UPD 13-04-09 14:03 OP:ep   STATUS:               ID:20130319154611 L   I
 2013-03-19-1540-00M.COL___244                                                 6
 STAT SP IPHASW D HRMM SECON CODA AMPLIT PERI AZIMU VELO AIN AR TRES W  DIS CAZ7
 BAR2 SZ EP       1546 32.27                             172   -0.0910 20.9 186 
 BAR2 SZ ES       1546 48.90                             172    0.5410 20.9 186 
 BRR  HZ EP       1546 34.04                             154    0.2310 70.8 301 
 BRR  HE ES       1546 51.10                             154    0.1510 70.8 301 
 BRR  HE I        1546 54.63        19.5 0.16            153           70.8 301 
 PAM  SZ EP       1546 35.24                             151    0.1910 80.1  39 
 PAM  SE ES       1546 52.58                             151   -0.5610 80.1  39 
 PAM  SE I        1546 54.89        11.2 0.56            154           80.1  39 
 RUS  HZ EP       1546 36.29                             146    0.0710 98.5 175 
 RUS  HE ES       1546 55.14                             146   -0.1010 98.5 175 
 RUS  HE I        1546 55.98         8.7 0.18            149           98.5 175 
 PTB  HZ EP       1546 39.13                             134   -0.14 9  146 260 
 PTB  HN ES       1547  0.08                             134   -0.58 9  146 260 
 PTB  HN I        1547  5.24        11.6 0.22            135            146 260 
 ZAR  HN ES       1547 10.66                             124    0.28 9  203 293 
 FLO2 HZ E      D 1547 21.93                                            638 206 
                                                                                
