 2016  519 1837 37.5 L   6.674 -73.566104.0  RSN  8 0.5 2.0LRSN                1
 GAP= 58        1.37       4.0     4.2  8.9 -0.8825E+00  0.5456E+01 -0.7901E+01E
 Epicentro: EL CARMEN - SANTANDER                                              3
 ACTION:UPD 16-08-18 17:47 OP:cam  STATUS:               ID:20160519183737 L   I
 OLDACT:REG 16-05-19 20:39 OP:drio STATUS:               ID:20160519182743     3
 2016-05-19-1827-43M.COL___303                                                 6
 STAT SP IPHASW D HRMM SECON CODA AMPLIT PERI AZIMU VELO AIN AR TRES W  DIS CAZ7
 BAR2 EZ IP     D 1837 52.87                             156   -0.0710 43.4 102 
 BAR2 EZ ES       1838  5.24                             156    0.2710 43.4 102 
 BAR2 EZ I        1838  5.74        71.4 0.14            157           43.4 102 
 BRR  HZ EP       1837 52.92                             152   -0.0510 50.5 341 
 BRR  HN ES       1838  5.44                             152    0.4110 50.5 341 
 BRR  HZ I        1838  7.32        37.7 0.24            153           50.5 341 
 PTB  HZ EP       1837 55.85                             133   -0.8510 99.5 261 
 PTB  HE ES       1838 10.70                             133   -0.9610 99.5 261 
 PTB  HZ I        1838 12.26        15.5 0.22            133           99.5 261 
 RUS  HZ EP       1837 57.39                             132   -0.1410  102 148 
 RUS  HN ES       1838 13.71                             132    0.5610  102 148 
 RUS  HZ I        1838 15.25        14.8 0.50            133            102 148 
 PAM  EZ EP       1837 59.49                             127    0.1610  121  52 
 PAM  EN ES       1838 15.53                             127   -0.8110  121  52 
 PAM  EZ I        1838 18.83         8.6 0.18            128            121  52 
 SPBC HN ES       1838 16.53                             125    0.1910  126 206 
 SPBC HZ I        1838 24.58        19.7 0.24            125            126 206 
 ZAR  HZ EP       1838  4.52                             116    0.81 9  169 302 
 ZAR  HN ES       1838 24.87                             116    0.72 9  169 302 
 ZAR  HZ I        1838 27.67        10.9 0.42            117            169 302 
 OCA  HZ EP       1838  4.73                             116    0.15 9  175   9 
 OCA  HN ES       1838 25.59                             116   -0.11 9  175   9 
 OCA  HZ I        1838 30.69        32.0 0.32            117            175   9 
                                                                                
