 2016  319 1842  2.6 L   6.812 -73.180144.0  RSN  8 0.3 2.1LRSN                1
 GAP=132        0.71       2.4     3.0  4.6 -0.1836E+01  0.5540E+01 -0.1218E+01E
 Epicentro: ZAPATOCA - SANTANDER                                               3
 ACTION:UPD 16-05-13 21:25 OP:cam  STATUS:               ID:20160319184202 L   I
 OLDACT:REG 16-03-19 22:13 OP:cara STATUS:               ID:20160319183744     3
 2016-03-19-1837-44M.COL___298                                                 6
 STAT SP IPHASW D HRMM SECON CODA AMPLIT PERI AZIMU VELO AIN AR TRES W  DIS CAZ7
 BAR2 EZ EP       1842 21.92                             170   -0.1010 24.3 181 
 BAR2 EZ ES       1842 37.52                             170    0.3410 24.3 181 
 BAR2 EZ I        1842 39.02        18.2 0.20            172           24.3 181 
 PAM  EZ IP       1842 24.91                             150    0.2110 78.9  42 
 PAM  EZ I        1842 25.04        23.9 0.24            153           78.9  42 
 PAM  EN ES       1842 42.02                             150    0.0710 78.9  42 
 RUS  HZ EP       1842 26.03                             143   -0.2510  102 174 
 RUS  HN ES       1842 44.63                             143   -0.1310  102 174 
 RUS  HZ I        1842 45.79        11.3 0.28            148            102 174 
 PTB  HZ EP       1842 28.79                             132   -0.31 9  144 258 
 PTB  HN ES       1842 49.31                             132   -0.47 9  144 258 
 PTB  HZ I        1842 55.15        14.4 0.18            133            144 258 
 OCA  HZ EP       1842 30.48                             130   -0.12 9  159 354 
 OCA  HN ES       1842 52.19                             130   -0.26 9  159 354 
 OCA  HZ I        1842 57.93        38.7 0.22            131            159 354 
 SPBC HZ EP       1842 30.84                             129    0.01 9  162 218 
 SPBC HN ES       1842 53.10                             129    0.25 9  162 218 
 SPBC HZ I        1842 55.82        22.5 0.28            131            162 218 
 ZAR  HZ EP       1842 34.64                             123    0.13 9  200 292 
 ZAR  HN ES       1842 59.86                             123    0.45 9  200 292 
 ZAR  HZ I        1843  7.05        23.7 0.32            123            200 292 
 GUY2CHZ EP       1842 46.51                             112    0.66 7  299 234 
 GUY2CHN ES       1843 19.42                             112   -0.18 7  299 234 
 GUY2CHZ I        1843 29.93         4.9 0.46                           299 234 
                                                                                
