 2014  719 1358  9.6 L   6.827 -73.173138.7  RSN 21 0.6 2.6LRSN                1
 GAP= 69        1.32       2.9     3.2  5.5 -0.9302E+00  0.4633E+01  0.1472E+01E
 Epicentro: ZAPATOCA - SANTANDER                                               3
 ACTION:UPD 15-03-16 20:45 OP:nd   STATUS:               ID:20140719135809 L   I
 OLDACT:REG 14-07-19 21:09 OP:stll STATUS:               ID:20140719134813     3
 2014-07-19-1348-13M.COL___272                                                 6
 STAT SP IPHASW D HRMM SECON CODA AMPLIT PERI AZIMU VELO AIN AR TRES W  DIS CAZ7
 BAR2 SZ IP     D 1358 28.62                             169    0.2110 26.0 182 
 BAR2 SZ ES       1358 43.07                             169   -0.0410 26.0 182 
 BAR2 SZ I        1358 44.63       167.6 0.52            170           26.0 182 
 BRR  HZ IP     C 1358 30.44                             153    0.7110 67.1 298 
 BRR  HN ES       1358 45.81                             153    0.3710 67.1 298 
 BRR  HZ I        1358 51.25        62.8 0.12            151           67.1 298 
 PAM  SZ IP     C 1358 31.57                             150    0.5410 77.1  43 
 PAM  SZ I        1358 31.72       117.3 0.16            152           77.1  43 
 PAM  SN ES       1358 47.76                             150    0.0110 77.1  43 
 RUS  HZ EP       1358 32.99                             141    0.1110  104 174 
 RUS  HN ES       1358 50.39                             141   -0.6710  104 174 
 RUS  HZ I        1358 52.83        50.5 0.26            144            104 174 
 PTB  HZ IP     C 1358 35.11                             131   -0.64 9  145 257 
 PTB  HN ES       1358 56.11                             131   -0.06 9  145 257 
 PTB  HZ I        1358 59.44        45.0 0.48            131            145 257 
 OCA  HZ EP       1358 37.04                             129    0.02 9  157 354 
 OCA  HN ES       1358 58.02                             129   -0.41 9  157 354 
 OCA  HZ I        1359  3.49        33.2 0.28            130            157 354 
 TAM  HZ IP     D 1358 37.14                             128    0.08 9  159 106 
 TAM  HZ I        1358 37.29       108.5 0.36            132            159 106 
 TAM  HE ES       1358 58.42                             128   -0.08 9  159 106 
 SPBC HZ EP       1358 37.59                             127    0.00 9  164 217 
 SPBC HZ I        1358 38.08        45.9 0.12            129            164 217 
 SPBC HE ES       1359  0.25                             127    0.82 9  164 217 
 ZAR  HZ EP       1358 41.39                             121    0.24 9  200 292 
 ZAR  HN ES       1359  6.26                             121    0.48 9  200 292 
 ZAR  HZ I        1359 12.37        43.8 0.28            122            200 292 
 NOR  HZ EP       1358 44.74                             117   -0.09 8  234 233 
 NOR  HN ES       1359 11.99                             117   -0.33 8  234 233 
 NOR  HZ I        1359 18.47        34.2 0.20            118            234 233 
 SML  HZ EP       1358 44.81                             116   -0.56 8  240 336 
 SML  HE ES       1359 13.00                             116   -0.30 8  240 336 
 SML  HZ I        1359 23.62        30.5 0.10            117            240 336 
 CHI  HZ EP       1358 47.03                             115   -0.10 8  251 194 
 CHI  HE ES       1359 16.11                             115   -0.31 8  251 194 
 CHI  HZ I        1359 23.50         8.0 0.56            117            251 194 
 HEL  HZ IP     D 1358 50.99                             113    1.80 8  270 255 
 HEL  HN ES       1359 20.06                             113   -0.03 8  270 255 
 HEL  HZ I        1359 27.55        21.9 0.32            115            270 255 
 URE  HZ EP       1358 49.10                             112   -0.76 7  280 292 
 URE  HN ES       1359 20.26                             112   -1.03 7  280 292 
 URE  HZ I        1359 21.98        31.1 0.14            113            280 292 
 GUY2CHZ EP       1358 53.59                             111    0.81 7  300 234 
 GUY2CHN ES       1359 24.88                             111   -1.60 7  300 234 
 GUY2CHZ I        1359 34.95        17.9 0.62                           300 234 
 SOCV BZ EP       1358 51.59                             111   -0.82 7  302  58 
 SOCV BE ES   4   1359 22.62                             111   -3.21 0  302  58 
 CBOC HZ EP       1358 56.61                             109    0.63 7  332 251 
 CBOC HZ I        1358 59.61         6.3 0.22            110            332 251 
 CBOC HN ES       1359 31.97                             109   -0.20 7  332 251 
 DBB  SZ EP     C 1358 56.73                             108    0.33 7  336 274 
 TOL  SZ EP       1358 58.32                             108    0.76 7  344 224 
 PRA  HZ EP       1359  2.43                             105   -0.56 6  393 209 
 PRA  HN ES       1359 43.71                             105   -0.95 6  393 209 
 PRA  HZ I        1359 50.96        12.2 0.58            107            393 209 
 ORTC HZ EP       1359  3.42                             105    0.08 6  396 216 
 ORTC HN ES       1359 45.90                             105    0.63 6  396 216 
                                                                                
