 2017  919 1950 46.2 L   6.736 -73.120135.6  RSN  8 0.5 1.8LRSN                1
 GAP=116        1.31       4.9     4.9  7.8  0.4138E+01  0.1300E+02  0.1015E+02E
 Epicentro: JORDAN - SANTANDER                                                 3
 ACTION:UPD 17-10-05 19:14 OP:rebc STATUS:               ID:20170919195046 L   I
 OLDACT:REG 17-09-19 20:08 OP:lv   STATUS:               ID:20170919194743     3
 2017-09-19-1948-00M.COL___444                                                 6
 STAT SP IPHASW D HRMM SECON CODA AMPLIT PERI AZIMU VELO AIN AR TRES W  DIS CAZ7
 BAR2 EZ EP       1951  4.11                             172   -0.3810 17.3 204 
 BAR2 EZ ES       1951 18.73                             172   -0.0310 17.3 204 
 BAR2 EZ I        1951 20.38        17.1 0.17            172           17.3 204 
 BRR  HE ES       1951 23.44                             149    0.8710 77.3 302 
 PAM  EZ EP       1951  7.15                             148   -0.4410 81.3  35 
 PAM  EN ES       1951 24.12                             148   -0.1610 81.3  35 
 PAM  EZ I        1951 25.34        10.0 0.20            149           81.3  35 
 RUS  HZ EP       1951  8.16                             144   -0.2710 93.3 178 
 RUS  HN ES       1951 25.41                             144   -0.3610 93.3 178 
 RUS  HZ I        1951 27.20         8.4 0.22            145           93.3 178 
 YPLC HZ EP       1951 15.13                             126    0.62 9  169 151 
 YPLC HE ES       1951 37.23                             126    0.63 9  169 151 
 YPLC HZ I        1951 38.70         8.6 0.28            127            169 151 
 ZAR  HZ EP       1951 19.09                             119    0.52 8  209 294 
 ZAR  HE ES       1951 43.58                             119   -0.25 8  209 294 
 ZAR  HZ I        1951 48.48         8.0 0.24            120            209 294 
 NOR  HZ EP       1951 20.28                             116   -0.89 8  233 236 
 NOR  HN ES       1951 47.71                             116   -0.75 8  233 236 
 NOR  HZ I        1951 50.19         4.2 0.20            117            233 236 
 GUY2CHZ EP       1951 29.82                             110    0.66 7  300 236 
 GUY2CHN ES       1952  3.29                             110    0.61 7  300 236 
 GUY2CHZ I        1952  9.34         2.9 0.28                           300 236 
                                                                                
