 2017  819 1513 49.4 L   6.789 -73.115142.0  RSN 10 0.4 1.7LRSN                1
 GAP=115        0.72       3.1     3.2  4.7  0.5629E+00  0.2603E+01  0.3945E+01E
 Epicentro: LOS SANTOS - SANTANDER                                             3
 ACTION:UPD 17-09-04 20:22 OP:rebc STATUS:               ID:20170819151349 L   I
 OLDACT:UP  17-08-19 18:46 OP:and  STATUS:               ID:20170819150742d    3
 OLDACT:UP  17-08-19 18:45 OP:and  STATUS:               ID:20170819150742d    3
 OLDACT:UP  17-08-19 18:44 OP:and  STATUS:               ID:20170819150742d    3
 OLDACT:UP  17-08-19 18:43 OP:and  STATUS:               ID:20170819150742d    3
 OLDACT:UP  17-08-19 18:43 OP:and  STATUS:               ID:20170819150742d    3
 OLDACT:DUP 17-08-19 18:42 OP:and  STATUS:               ID:20170819150742d    3
 OLDACT:UP  17-08-19 18:36 OP:and  STATUS:               ID:20170819150741d    3
 OLDACT:DUP 17-08-19 18:35 OP:and  STATUS:               ID:20170819150741d    3
 OLDACT:REG 17-08-19 17:02 OP:and  STATUS:               ID:20170819150740     3
 2017-08-19-1508-00M.COL___408                                                 6
 STAT SP IPHASW D HRMM SECON CODA AMPLIT PERI AZIMU VELO AIN AR TRES W  DIS CAZ7
 BAR2 EZ IP     C 1514  8.40                             170   -0.1710 23.0 199 
 BAR2 EZ ES       1514 23.34                             170   -0.1810 23.0 199 
 BAR2 EZ I        1514 24.86        13.0 0.18            168           23.0 199 
 BRR  HZ EP       1514 10.12                             151   -0.2310 74.8 298 
 BRR  HN ES       1514 27.15                             151    0.4610 74.8 298 
 BRR  HZ I        1514 28.03         8.2 0.12            150           74.8 298 
 PAM  EZ IP     D 1514 11.37                             151    0.2210 76.2  37 
 PAM  EN ES       1514 28.11                             151   -0.0010 76.2  37 
 PAM  EZ I        1514 30.36         9.0 0.46            154           76.2  37 
 RUS  HZ EP       1514 12.43                             144   -0.2510 99.2 178 
 RUS  HN ES       1514 30.99                             144    0.1510 99.2 178 
 RUS  HZ I        1514 32.88         7.5 0.38            143           99.2 178 
 YPLC HZ EP       1514 18.88                             126    0.22 9  174 152 
 ZAR  HN ES       1514 47.24                             121   -0.15 8  208 292 
 ZAR  HZ I        1514 52.57         6.6 0.40            121            208 292 
 NOR  HZ EP       1514 24.54                             118   -0.60 8  237 235 
 NOR  HE ES       1514 53.30                             118    0.29 8  237 235 
 NOR  HZ I        1514 57.53         4.2 0.20            117            237 235 
 CHI  HZ EP   3   1514 28.41                             117    1.55 2  248 196 
 CHI  HN ES   2   1514 56.40                             117    0.32 4  248 196 
 CHI  HZ I        1515  1.89         2.7 0.16            117            248 196 
 GUY2CHZ EP   3   1514 35.01                             112    1.94 2  303 235 
 GUY2CHN ES   4   1515 10.88                             112    3.75 0  303 235 
 GUY2CHZ I        1515 15.01         2.7 0.60                           303 235 
 PTGC HZ EP   3   1514 31.65                             111   -1.17 2  306 159 
                                                                                
