 2017  819 1635 32.1 L   6.774 -73.133137.7  RSN  5 0.3 1.1LRSN                1
 GAP=139        0.46       3.6     5.5  7.0 -0.8840E+01  0.2002E+02 -0.1316E+02E
 Epicentro: LOS SANTOS - SANTANDER                                             3
 ACTION:UPD 17-09-04 20:22 OP:rebc STATUS:               ID:20170819163532 L   I
 OLDACT:UP  17-08-19 19:08 OP:and  STATUS:               ID:20170819162740     3
 OLDACT:REG 17-08-19 17:08 OP:and  STATUS:               ID:20170819162740     3
 2017-08-19-1628-00M.COL___407                                                 6
 STAT SP IPHASW D HRMM SECON CODA AMPLIT PERI AZIMU VELO AIN AR TRES W  DIS CAZ7
 BAR2 EZ EP       1635 50.61                             171   -0.0710 20.9 195 
 BAR2 EZ ES   2   1636  5.60                             171    0.40 5 20.9 195 
 BAR2 EZ I        1636  6.79         5.0 0.28            169           20.9 195 
 BRR  HZ EP       1635 52.51                             150   -0.0010 73.8 300 
 PAM  EZ IP     D 1635 53.63                             149    0.1110 78.7  37 
 PAM  EN ES   2   1636  9.87                             149   -0.38 5 78.7  37 
 PAM  EZ I        1636 17.46         1.1 0.31            152           78.7  37 
 RUS  HZ EP   2   1635 54.49                             143   -0.33 5 97.6 177 
 RUS  HN ES       1636 12.59                             143    0.0210 97.6 177 
 RUS  HZ I        1636 13.81         2.2 0.34            152           97.6 177 
 NOR  HZ EP   2   1636  7.87                             117    0.57 4  234 235 
 NOR  HN ES   2   1636 34.34                             117   -0.43 4  234 235 
 NOR  HZ I        1636 41.01         1.3 0.18            121            234 235 
                                                                                
