 2012  319 1643 16.9 L   6.721 -73.222155.3  RSN  4 0.2 1.4LRSN                1
 GAP=215        0.48       5.2     5.1  6.3  0.1332E+02 -0.4085E+01 -0.2519E+01E
 ACTION:UP  12-03-31 23:21 OP:EP   STATUS:               ID:20120319164316 L   I
 2012-03-19-1640-00M.COL___199                                                 6
 STAT SP IPHASW D HRMM SECON CODA AMPLIT PERI AZIMU VELO SNR AR TRES W  DIS CAZ7
 BAR2 SZ EP   1   1643 37.21                             174    -0.3 7   15 163 
 BAR2 SZ I        1643 54.31         8.9 0.71                            15 163 
 BRR  HZ EP   1   1643 39.13                             155     0.2 7   69 308 
 BRR  HN ES   1   1643 56.24                             155     0.1 7   69 308 
 BRR  HZ I        1643 59.01        11.1 0.38                            69 308 
 RUS  HZ EP   1   1643 41.29                             148     0.2 7   93 170 
 RUS  HE ES   1   1643 59.96                             148     0.0 7   93 170 
 RUS  HZ I        1644  0.99         1.7 0.23                            93 170 
 PTB  HZ EP   1   1643 43.76                             136    -0.1 7  138 262 
 PTB  HN ES   1   1644  4.78                             136     0.0 7  138 262 
 PTB  HZ I        1644  8.24         1.9 0.13                           138 262 
                                                                                
