 2012  519 1116 50.9 L   6.746 -73.156150.7  RSN  6 0.3 1.8LRSN                1
 GAP=232        0.70       5.6     5.2  7.4  0.1068E+02  0.9340E+01  0.3037E+01E
 Epicentro: JORDAN - SANTANDER                                                 3
 ACTION:UP  12-07-05 12:06 OP:pat  STATUS:               ID:20120519111650 L   I
 2012-05-19-1110-00M.COL___200                                                 6
 STAT SP IPHASW D HRMM SECON CODA AMPLIT PERI AZIMU VELO SNR AR TRES W  DIS CAZ7
 BAR2 SZ EP   1   1117 10.50                             173    -0.5 7   17 190 
 BAR2 SZ ES   1   1117 26.76                             173     0.0 7   17 190 
 BAR2 SZ I        1117 27.38        14.4 0.25                            17 190 
 BRR  HZ EP   1   1117 13.12                             153     0.4 7   73 303 
 BRR  HZ I        1117 13.29        10.6 0.07                            73 303 
 BRR  HN ES   1   1117 29.92                             153     0.2 7   73 303 
 RUS  HZ EP   1   1117 14.99                             146     0.2 7   95 175 
 RUS  HN ES   1   1117 33.33                             146     0.0 7   95 175 
 RUS  HZ I        1117 35.10         6.3 0.36                            95 175 
 PTB  HZ EP   1   1117 17.95                             134    -0.2 7  146 261 
 PTB  HN ES   1   1117 38.94                             134    -0.4 7  146 261 
 PTB  HZ I        1117 40.72         5.4 0.12                           146 261 
 ZAR  HE ES   1   1117 49.43                             123    -0.1 6  205 294 
 ZAR  HZ I        1117 54.60         8.4 0.37                           205 294 
 NOR  SN ES   1   1117 54.51                             120     0.3 6  230 236 
                                                                                
