 2012  319 1357 23.4 L   6.786 -73.148148.7  RSN  8 0.4 2.5LRSN                1
 GAP=137        1.06       4.9     5.4  8.1 -0.2948E+01  0.9036E+01 -0.5167E+00E
 ACTION:DUP 12-03-31 23:21 OP:EP   STATUS:               ID:20120319135723 L   I
 2012-03-19-1350-00M.COL___202                                                 6
 STAT SP IPHASW D HRMM SECON CODA AMPLIT PERI AZIMU VELO SNR AR TRES W  DIS CAZ7
 BAR2 SZ IP       1357 43.47                             171     0.210   22 190 
 BAR2 SZ ES   1   1357 58.85                             171     0.0 7   22 190 
 BAR2 SZ I        1358  0.25        85.2 0.18                            22 190 
 BRR  HZ EP       1357 45.34                             153     0.510   72 300 
 BRR  HE ES   1   1358  2.56                             153     0.9 7   72 300 
 BRR  HZ I        1358  5.27        93.3 0.18                            72 300 
 PAM  SZ EP       1357 46.33                             151     0.410   79  39 
 PAM  SN ES   1   1358  2.82                             151    -0.8 7   79  39 
 RUS  HZ EP       1357 47.27                             145     0.010   99 176 
 RUS  HE ES   1   1358  5.79                             145    -0.2 7   99 176 
 RUS  HZ I        1358  9.00        25.5 0.38                            99 176 
 PTB  HZ EP   1   1357 50.04                             133    -0.5 7  147 259 
 PTB  HN ES   1   1358 11.03                             133    -0.7 7  147 259 
 PTB  HZ I        1358 18.71        26.8 0.27                           147 259 
 OCA  SZ EP   1   1357 51.91                             130    -0.1 7  162 353 
 OCA  SZ E        1358 14.00                                            162 353 
 OCA  SZ ES   1   1358 14.00                             130    -0.4 7  162 353 
 ZAR  HZ EP   1   1357 55.58                                    -0.5 6  204 293 
 ZAR  HE ES   1   1358 21.63                                     0.1 6  204 293 
 ZAR  HZ I        1358 29.63        35.7 0.41                           204 293 
 NOR  SZ EP   1   1357 59.19                             119     0.0 6  234 235 
 NOR  SN ES   1   1358 27.03                             119     0.0 6  234 235 
                                                                                
