 2017  219 1039 35.5 L   5.926 -74.050  0.0  RSN  5 0.4 1.0LRSN                1
 GAP=167        1.02       2.6     3.8  6.5  0.2025E+01  0.2577E+01 -0.2515E+00E
 Epicentro: LA BELLEZA - SANTANDER                                             3
 ACTION:UPD 17-05-24 15:38 OP:jn   STATUS:               ID:20170219103935 L   I
 OLDACT:REG 17-02-19 20:44 OP:cog  STATUS:               ID:20170219103742     3
 2017-02-19-1038-00M.COL___343                                                 6
 STAT SP IPHASW D HRMM SECON CODA AMPLIT PERI AZIMU VELO AIN AR TRES W  DIS CAZ7
 RUS  HZ EP       1039 53.39                              47   -0.0610  107  92 
 RUS  HE ES       1040  7.82                              47    0.4010  107  92 
 RUS  HZ I        1040  9.28         1.1 0.26            146            107  92 
 BAR2 EZ EP       1039 54.57                              47   -0.7310  121  52 
 BAR2 EZ ES       1040 11.02                              47    0.3210  121  52 
 BAR2 EZ I        1040 11.83         5.3 0.46            138            121  52 
 BRR  HZ EP       1039 57.18                              47   -0.1210  136  16 
 BRR  HE ES       1040 13.95                              47   -0.3210  136  16 
 BRR  HZ I        1040 17.97         3.8 0.48            129            136  16 
 CHI  HE ES       1040 18.14                              47   -0.05 9  148 166 
 ZAR  HN ES       1040 30.13                              37    0.66 9  195 333 
                                                                                
