 2013  419 1005  6.4 L   6.178 -73.866  4.0  RSN  4 0.3 1.1LRSN                1
 GAP=192        0.84       3.2     2.1  5.6  0.3174E+01 -0.2777E+01 -0.5550E+01E
 Epicentro: LANDAZURI - SANTANDER                                              3
 ACTION:UPD 13-05-22 14:39 OP:EP   STATUS:               ID:20130419100506 L   I
 2013-04-19-0958-48M.COL___218                                                 6
 STAT SP IPHASW D HRMM SECON CODA AMPLIT PERI AZIMU VELO AIN AR TRES W  DIS CAZ7
 PTB  HZ IP       10 5 18.46                              47   -0.1710 76.5 301 
 PTB  HN ES       10 5 28.03                              47   -0.1210 76.5 301 
 PTB  HN I        10 5 28.62         8.9 0.10             94           76.5 301 
 BAR2 SZ EP       10 5 21.32                              47    0.6610 88.4  59 
 BAR2 SZ ES       10 5 31.34                              47   -0.4210 88.4  59 
 BAR2 SZ I        10 5 34.03         5.5 0.28             92           88.4  59 
 RUS  HZ EP       10 5 21.56                              47    0.0610 92.2 110 
 RUS  HN ES       10 5 33.06                              47   -0.2010 92.2 110 
 RUS  HZ I        10 5 34.83         5.7 0.32             92           92.2 110 
 BRR  HZ EP       10 5 23.05                              47    0.2610  104   9 
 BRR  HN ES       10 5 35.50                              47   -0.0610  104   9 
                                                                                
