 2014  819 1515 11.2 L   6.337 -73.574109.8  RSN 18 0.6 2.7LRSN                1
 GAP= 75        1.45       3.2     3.2  6.5 -0.2808E+01  0.5061E+01 -0.6473E-01E
 Epicentro: SANTA HELENA DEL OPON - SANTANDER                                  3
 ACTION:UPD 14-09-15 21:51 OP:nd   STATUS:               ID:20140819151511 L   I
 OLDACT:REG 14-08-19 20:53 OP:stll STATUS:               ID:20140819150820     3
 2014-08-19-1508-20M.COL___245                                                 6
 STAT SP IPHASW D HRMM SECON CODA AMPLIT PERI AZIMU VELO AIN AR TRES W  DIS CAZ7
 BAR2 SZ IP     C 1515 28.63                             153    0.9110 51.7  57 
 BAR2 SZ ES       1515 40.70                             153    0.1010 51.7  57 
 BAR2 SZ I        1515 43.09       485.1 0.46            156           51.7  57 
 RUS  HZ IP     D 1515 29.89                             144    0.4410 73.2 132 
 RUS  HN ES       1515 43.54                             144   -0.1410 73.2 132 
 RUS  HZ I        1515 45.47        45.2 0.16            146           73.2 132 
 BRR  HZ IP     D 1515 30.23                             139    0.4510 86.6 350 
 BRR  HZ I        1515 30.56        80.3 0.34            140           86.6 350 
 BRR  HN ES       1515 45.15                             139    0.8810 86.6 350 
 SPBC HZ EP       1515 30.79                             136    0.3010 93.7 216 
 SPBC HE ES       1515 45.52                             136   -0.0110 93.7 216 
 SPBC HZ I        1515 51.37        94.9 0.18            137           93.7 216 
 PTB  HZ IP     D 1515 30.45                             134   -0.5010  100 283 
 PTB  HN ES       1515 44.88                             134   -1.4610  100 283 
 PTB  HZ I        1515 47.71       115.9 0.40            134            100 283 
 PAM  SZ EP       1515 36.08                             123    0.01 9  147  41 
 PAM  SN ES       1515 55.58                             123    0.12 9  147  41 
 PAM  SZ I        1515 58.04        55.1 0.32            125            147  41 
 NOR  HZ EP       1515 37.20                             119   -0.39 9  167 239 
 NOR  HN ES       1515 57.88                             119   -0.29 9  167 239 
 NOR  HZ I        1515 59.95        68.3 0.46            119            167 239 
 ZAR  HZ EP       1515 40.30                             115    0.15 9  191 312 
 ZAR  HN ES       1516  3.19                             115    0.47 9  191 312 
 ZAR  HZ I        1516  5.78        80.2 0.32            116            191 312 
 TAM  HZ IP     C 1515 41.45                             114    0.54 9  197  87 
 TAM  HZ I        1515 41.61        98.7 0.34            116            197  87 
 TAM  HN ES       1516  2.45                             114   -1.63 9  197  87 
 OCA  HZ EP       1515 42.51                             112   -0.20 8  212   8 
 OCA  HN ES       1516  7.03                             112   -0.25 8  212   8 
 HEL  HZ EP       1515 43.93                             112    0.42 8  217 266 
 HEL  HN ES       1516  8.46                             112   -0.25 8  217 266 
 HEL  HZ I        1516 15.51        24.8 0.48            112            217 266 
 GUY2CHZ EP       1515 45.81                             110    0.28 8  233 238 
 GUY2CHN ES       1516 13.02                             110    0.73 8  233 238 
 GUY2CHZ I        1516 17.82        33.6 0.30                           233 238 
 CBOC HZ EP       1515 50.51                             106    0.55 8  275 259 
 SML  HZ EP       1515 49.48                             106   -0.62 7  278 349 
 SML  HE ES       1516 19.72                             106   -0.72 7  278 349 
 SML  HZ I        1516 30.09        31.8 0.24            107            278 349 
 DBB  SZ EP       1515 52.94                             104    0.02 7  301 285 
 PRA  HZ EP       1515 55.74                             103    0.09 7  324 207 
 PRA  HE ES       1516 29.35                             103   -0.96 7  324 207 
 PRA  HZ I        1516 37.11        20.7 0.22            104            324 207 
 ORTC HZ EP       1515 56.26                             103    0.40 7  326 215 
 ORTC HN ES       1516 30.72                             103    0.04 7  326 215 
 ORTC HZ I        1516 38.87        14.4 0.32            103            326 215 
 MON  HZ EP   9   1515 57.87                             101   -1.39 0  355 320 
 MON  HN ES       1516 34.49                                   -0.86 6  355 320 
                                                                                
