 2013  519 1248 29.2 L   6.812 -73.162141.3  RSN 10 0.4 1.9LRSN                1
 GAP=134        0.95       3.7     4.2  7.5 -0.7139E+00  0.7313E+01 -0.2514E+01E
 Epicentro: LOS SANTOS - SANTANDER                                             3
 ACTION:UPD 13-06-20 09:51 OP:ep   STATUS:               ID:20130519124829 L   I
 2013-05-19-1240-00M.COL___256                                                 6
 STAT SP IPHASW D HRMM SECON CODA AMPLIT PERI AZIMU VELO AIN AR TRES W  DIS CAZ7
 BAR2 SZ EP       1248 48.45                             170    0.1810 24.4 185 
 BAR2 SZ ES   1   1249  2.58                             170   -0.61 7 24.4 185 
 BAR2 SZ I        1249  7.15         9.6 0.16            170           24.4 185 
 GIR2 SZ EP   1   1248 48.50                             168    0.24 7 29.7 353 
 GIR2 SZ I        1249  6.40         7.7 0.22            167           29.7 353 
 BRR  HZ IP       1248 50.25                             152    0.5510 69.0 298 
 BRR  HN ES   1   1249  6.35                             152    0.63 7 69.0 298 
 BRR  HN I        1249  7.59        78.6 0.32            152           69.0 298 
 PAM  SZ EP       1248 51.13                             150    0.2210 77.5  41 
 PAM  SN ES   1   1249  8.00                             150    0.13 7 77.5  41 
 PAM  SZ I        1249  9.72        13.3 0.36            149           77.5  41 
 RUS  HZ EP   1   1248 52.11                             142   -0.47 7  102 175 
 RUS  HN ES   1   1249 10.85                             142   -0.00 7  102 175 
 RUS  HZ I        1249 12.76         6.5 0.50            142            102 175 
 PTB  HZ EP   1   1248 55.26                             131   -0.37 7  146 258 
 PTB  HN ES       1249 15.76                             131   -0.51 9  146 258 
 PTB  HZ I        1249 18.45         9.0 0.18            131            146 258 
 OCA  HN ES   1   1249 18.23                             129   -0.45 7  159 354 
 OCA  HZ I        1249 23.28        11.4 0.30            128            159 354 
 ZAR  HZ EP   2   1249  1.54                             122    0.45 4  202 292 
 ZAR  HN ES       1249 26.58                             122    0.58 9  202 292 
 ZAR  HZ I        1249 32.06        10.7 0.34            121            202 292 
 NOR  HZ EP   1   1249  4.66                             118    0.10 6  234 234 
 NOR  HN ES   1   1249 32.17                             118   -0.00 6  234 234 
 NOR  HZ I        1249 39.34         5.5 0.30            117            234 234 
 SML  HZ EP   2   1249  4.71                             117   -0.61 4  242 336 
 SML  HN ES       1249 32.72                             117   -0.81 8  242 336 
                                                                                
