 2016 1219 1341 12.4 L   6.800 -73.101153.9  RSN  7 0.4 1.5LRSN                1
 GAP=142        0.98       4.4     7.1  6.9 -0.5958E+01 -0.8537E+01  0.4757E+01E
 Epicentro: LOS SANTOS - SANTANDER                                             3
 ACTION:UPD 17-01-11 20:16 OP:rebc STATUS:               ID:20161219134112 L   I
 OLDACT:UP  16-12-20 00:27 OP:edw  STATUS:               ID:20161219133744     3
 OLDACT:UP  16-12-20 00:27 OP:edw  STATUS:               ID:20161219133744     3
 OLDACT:UP  16-12-20 00:27 OP:edw  STATUS:               ID:20161219133744     3
 OLDACT:REG 16-12-19 18:33 OP:edw  STATUS:               ID:20161219133744     3
 2016-12-19-1338-00M.COL___324                                                 6
 STAT SP IPHASW D HRMM SECON CODA AMPLIT PERI AZIMU VELO AIN AR TRES W  DIS CAZ7
 BAR2 EZ EP       1341 32.96                             170   -0.0510 24.7 201 
 BAR2 EZ ES       1341 48.62                             170   -0.4910 24.7 201 
 BAR2 EZ I        1341 49.28         8.8 0.64            170           24.7 201 
 PAM  EZ EP       1341 35.91                             153    0.6210 74.3  37 
 PAM  EN ES       1341 53.02                             153   -0.1510 74.3  37 
 PAM  EZ I        1341 55.07         3.7 0.58            153           74.3  37 
 BRR  HZ EP       1341 34.94                             152    0.2910 75.5 297 
 BRR  HN ES       1341 51.95                             152   -0.0710 75.5 297 
 RUS  HZ EP       1341 36.98                             145    0.0510  100 179 
 RUS  HN ES       1341 55.87                             145   -0.2010  100 179 
 RUS  HZ I        1341 57.19         4.3 0.50            145            100 179 
 PTB  HZ EP   9   1341 37.28                             133   -3.17 0  153 259 
 PTB  HN ES       1341 59.95                             134    0.78 9  153 259 
 PTB  HZ I        1342  2.69         3.0 0.14            133            153 259 
 ZAR  HZ EP   4   1341 47.65                             123    1.82 0  209 292 
 ZAR  HE ES   4   1342  9.67                             123   -2.25 0  209 292 
 CHI  HZ EP   4   1341 49.09                             119   -1.60 0  250 196 
 CHI  HE ES       1342 20.75                             119    0.18 8  250 196 
 CHI  HZ I        1342 22.44         2.1 0.36            119            250 196 
 GUY2CHZ EP   4   1341 53.46                             113   -3.37 0  305 235 
 GUY2CHN ES   4   1342 36.09                             113    4.59 0  305 235 
 SJC  HZ EP   2   1342  7.16                             107   -1.37 3  412 326 
 SJC  HN ES   4   1342 50.28                             107   -2.05 0  412 326 
                                                                                
