 2010  919 1556 18.7 L   6.811 -73.097143.7  RSN  6 0.2 1.7LRSN                1
 GAP=164        0.53       4.2     8.5  9.8  0.1631E+02 -0.5521E+02 -0.2540E+02E
 Epicentro: LOS SANTOS - SANTANDER                                             3
 ACTION:UP  11-02-18 11:04 OP:tino STATUS:               ID:20100919155618 L   I
 2010-09-19-1553-54S.COL___121                                                 6
 STAT SP IPHASW D HRMM SECON CODA AMPLIT PERI AZIMU VELO SNR AR TRES W  DIS CAZ7
 BAR2 SZ EP       1556 38.09                             169     0.010   26 201 
 BAR2 SZ I        1556 54.85        12.2 0.38                            26 201 
 BRR  HZ IP     C 1556 39.78                             151    -0.110   75 296 
 BRR  HE ES   1   1556 56.37                             151     0.0 7   75 296 
 BRR  HZ I        1556 58.75        15.1 0.12                            75 296 
 RUS  HZ EP   1   1556 42.25                             143     0.0 7  102 179 
 RUS  HE ES   1   1557  0.78                             143     0.1 7  102 179 
 RUS  HZ I        1557  2.41         1.8 0.23                           102 179 
 GUE  SZ EP   1   1556 42.59                             140    -0.4 7  114  10 
 GRA  SZ EP       1556 43.68                             137     0.210  123  15 
 GRA  SZ I        1557  4.16         7.4 0.29                           123  15 
 OCA  SZ EP   1   1556 47.01                             129     0.2 7  160 351 
 OCA  SZ I        1557 11.13        10.1 0.14                           160 351 
                                                                                
