 2014  519 1201 11.2 L   6.772 -73.085149.8  RSN 10 0.4 2.3LRSN                1
 GAP=163        0.78       4.8     5.1  7.1 -0.1250E+02 -0.1628E+01  0.2069E+02E
 Epicentro: LOS SANTOS - SANTANDER                                             3
 ACTION:UPD 15-03-16 16:59 OP:nd   STATUS:               ID:20140519120111 L   I
 OLDACT:REG 14-05-19 23:24 OP:cam  STATUS:               ID:20140519120000     3
 2014-05-19-1200-00M.COL___252                                                 6
 STAT SP IPHASW D HRMM SECON CODA AMPLIT PERI AZIMU VELO AIN AR TRES W  DIS CAZ7
 PAM  SZ EP       12 1 34.07                             152    0.2810 75.8  34 
 PAM  SN ES       12 1 51.36                             152   -0.0310 75.8  34 
 PAM  SZ I        12 1 53.31        29.7 0.20             47           75.8  34 
 BRR  HZ EP     C 12 1 33.17                             151   -0.0810 78.6 298 
 BRR  HN ES       12 1 50.51                             151    0.0910 78.6 298 
 BRR  HZ I        12 1 57.73        23.9 0.36             47           78.6 298 
 PTB  HZ EP   4   12 1 37.91                             132   -1.17 0  154 260 
 PTB  HN ES   4   12 1 59.41                             132   -1.39 0  154 260 
 PTB  HZ I        12 2  4.87        31.5 0.22             47            154 260 
 NOR  HZ EP       12 1 47.08                             119   -0.52 8  238 236 
 NOR  HN ES       12 2 15.43                             119   -0.54 8  238 236 
 NOR  HZ I        12 2 18.72        18.9 0.20             37            238 236 
 CHI  HZ EP   1   12 1 49.62                             118    0.58 6  248 197 
 CHI  HN ES       12 2 18.08                             118   -0.45 8  248 197 
 CHI  HZ I        12 2 26.30         6.5 0.34             37            248 197 
 HEL  HZ EP   1   12 1 52.39                             115    0.09 6  278 257 
 HEL  HZ I        12 2 29.55         9.6 0.38             37            278 257 
 GUY2CHZ EP   1   12 1 55.17                             113   -0.29 5  305 236 
 GUY2CHN ES       12 2 30.62                             113    0.67 7  305 236 
 GUY2CHZ I        12 2 37.81        17.9 0.76                           305 236 
 RREF HZ EP   4   12 1 59.32                             111    1.41 0  325 231 
 RREF HN ES   4   12 2 36.57                             111    2.24 0  325 231 
 RREF HZ I        12 2 56.19         4.4 0.32             36            325 231 
 PRA  HZ EP       12 2  4.66                             107   -0.32 6  393 211 
 PRA  HN ES       12 2 47.23                             107    0.33 6  393 211 
 PRA  HZ I        12 2 52.92         9.7 0.36             36            393 211 
 ORTC HZ EP       12 2  5.38                             107   -0.09 6  397 217 
 ORTC HE ES       12 2 48.49                             107    0.71 6  397 217 
 ORTC HZ I        12 2 55.82         6.3 0.64             36            397 217 
                                                                                
