 2011 1019 1233 38.2 L   6.770 -73.137146.1  RSN  6 0.3 1.7LRSN                1
 GAP=139        0.65       4.3     5.1  6.5 -0.4928E+01  0.6762E+01  0.1001E+01E
 Epicentro: LOS SANTOS - SANTANDER                                             3
 ACTION:UPD 12-07-13 16:04 OP:ep   STATUS:               ID:20111019123338 L   I
 2011-10-19-1231-00S.COL___167                                                 6
 STAT SP IPHASW D HRMM SECON CODA AMPLIT PERI AZIMU VELO AIN AR TRES W  DIS CAZ7
 BAR2 SZ EP   1   1233 57.94                             172    0.09 7 20.3 194 
 BAR2 SZ ES   1   1234 12.62                             172   -0.53 7 20.3 194 
 BAR2 SZ I        1234 14.56        15.3 0.14                          20.3 194 
 BRR  HZ EP   1   1233 59.78                             151    0.22 7 73.7 300 
 BRR  HZ I        1234  7.49        15.1 0.37                          73.7 300 
 BRR  HN ES   1   1234 16.71                             151    0.51 7 73.7 300 
 PAM  SZ EP   1   1234  0.72                             150    0.11 7 79.4  37 
 PAM  SN ES   1   1234 17.70                             150   -0.36 7 79.4  37 
 RUS  HZ EP   1   1234  1.77                             145   -0.01 7 97.2 176 
 RUS  HN ES   1   1234 20.45                             145    0.31 7 97.2 176 
 RUS  HZ I        1234 21.90         6.6 0.29                          97.2 176 
 ZAR  HZ EP   2   1234 10.47                             122   -0.46 4  206 293 
 ZAR  HZ I        1234 41.99         3.4 0.17                           206 293 
 NOR  SN ES   1   1234 41.37                             118   -0.28 6  234 235 
                                                                                
