 2013  519 1032 14.6 L   6.814 -73.165140.6  RSN 14 0.4 2.2LRSN                1
 GAP=124        0.78       2.5     3.9  4.7 -0.2544E+01  0.5270E+01  0.8333E+00E
 Epicentro: LOS SANTOS - SANTANDER                                             3
 ACTION:UPD 13-06-20 09:51 OP:ep   STATUS:               ID:20130519103214 L   I
 2013-05-19-1030-00M.COL___256                                                 6
 STAT SP IPHASW D HRMM SECON CODA AMPLIT PERI AZIMU VELO AIN AR TRES W  DIS CAZ7
 BAR2 SZ EP   1   1032 33.71                             170    0.09 8 24.5 185 
 BAR2 SZ ES   1   1032 48.26                             170   -0.21 8 24.5 185 
 BAR2 SZ I        1032 49.84        19.9 0.14            169           24.5 185 
 GIR2 SZ EP   1   1032 33.99                             168    0.40 8 29.5 354 
 GIR2 SZ ES   1   1032 48.42                             168   -0.00 8 29.5 354 
 GIR2 SZ I        1032 50.49        25.1 0.48            165           29.5 354 
 BRR  HZ EP   1   1032 35.78                             152    0.75 8 68.6 298 
 BRR  HN ES   1   1032 51.62                             152    0.64 8 68.6 298 
 BRR  HN I        1032 56.88        77.2 0.14            149           68.6 298 
 PAM  SZ EP   1   1032 37.06                             150    0.80 8 77.6  41 
 PAM  SN ES   1   1032 52.99                             150   -0.19 8 77.6  41 
 PAM  SZ I        1032 55.74        51.5 0.44            154           77.6  41 
 RUS  HZ EP   1   1032 37.85                             142   -0.10 8  102 175 
 RUS  HN ES   1   1032 55.81                             142   -0.37 8  102 175 
 RUS  HZ I        1032 57.53        15.9 0.30            145            102 175 
 PTB  HZ EP   1   1032 40.95                             131   -0.02 8  146 258 
 PTB  HE ES   1   1033  1.47                             131   -0.08 8  146 258 
 PTB  HZ I        1033  4.90        20.9 0.14            130            146 258 
 OCA  HZ EP   1   1032 42.25                             129   -0.08 7  159 354 
 OCA  HN ES       1033  3.48                             129   -0.5010  159 354 
 OCA  HZ I        1033  7.93        26.1 0.20            130            159 354 
 NOR  HN ES   1   1033 17.67                             117    0.17 7  234 234 
 NOR  HZ I        1033 19.87        11.7 0.14            118            234 234 
 SML  HZ EP       1032 50.36                             117   -0.32 9  241 336 
 SML  HN ES   1   1033 18.40                             117   -0.44 7  241 336 
 SML  HZ I        1033 24.70        21.2 0.26            117            241 336 
 CHI  HZ EP   1   1032 51.83                             116   -0.27 6  250 195 
 CHI  HN ES   1   1033 20.97                             116   -0.39 6  250 195 
 CHI  HZ I        1033 25.68         4.8 0.34            117            250 195 
 HEL  HZ EP   1   1032 54.47                             114    0.12 6  270 255 
 HEL  HE ES   1   1033 24.85                             114   -0.52 6  270 255 
 HEL  HZ I        1033 34.33         6.3 0.46            114            270 255 
 GUY2CHZ EP   1   1032 58.89                             111    1.03 6  300 234 
 GUY2CHN ES   1   1033 31.32                             111   -0.30 6  300 234 
 GUY2CHZ I        1033 41.27         7.2 0.42                           300 234 
 SDV  BZ EP   2   1033  3.85                             107   -0.66 3  361  51 
 PRA  HZ EP   1   1033  8.29                             106    0.33 5  392 209 
 PRA  HN ES   1   1033 49.24                             106   -0.36 5  392 209 
 PRA  HZ I        1033 56.53         4.7 0.72            107            392 209 
 SJC  HZ EP   4   1033  8.35                             105   -1.35 0  407 327 
 SJC  HN ES   4   1033 49.98                             105   -2.70 0  407 327 
                                                                                
