 2017  319 1223 11.0 L   6.914 -73.190 50.0  RSN  4 0.1 1.0LRSN                1
 GAP=155        0.34       4.1     3.5  7.3 -0.1306E+02  0.2216E+02 -0.2647E+02E
 Epicentro: BETULIA - SANTANDER                                                3
 ACTION:UPD 17-05-25 18:42 OP:jn   STATUS:               ID:20170319122311 L   I
 OLDACT:UP  17-03-19 23:34 OP:dnl  STATUS:               ID:20170319121746     3
 OLDACT:UP  17-03-19 23:34 OP:dnl  STATUS:               ID:20170319121746     3
 OLDACT:UP  17-03-19 23:34 OP:dnl  STATUS:               ID:20170319121746     3
 OLDACT:UP  17-03-19 23:34 OP:dnl  STATUS:               ID:20170319121746     3
 OLDACT:UP  17-03-19 23:33 OP:dnl  STATUS:               ID:20170319121746     3
 OLDACT:UP  17-03-19 23:33 OP:dnl  STATUS:               ID:20170319121746     3
 OLDACT:UP  17-03-19 23:33 OP:dnl  STATUS:               ID:20170319121746     3
 OLDACT:REG 17-03-19 22:55 OP:dnl  STATUS:               ID:20170319121746     3
 2017-03-19-1218-00M.COL___394                                                 6
 STAT SP IPHASW D HRMM SECON CODA AMPLIT PERI AZIMU VELO AIN AR TRES W  DIS CAZ7
 BAR2 EZ EP       1223 20.12                             141   -0.0810 35.6 179 
 BAR2 EZ ES       1223 27.44                             141    0.0510 35.6 179 
 BAR2 EZ I        1223 28.40         4.4 0.18            160           35.6 179 
 PAM  EZ EP       1223 24.08                             117   -0.0110 71.7  49 
 PAM  EE ES       1223 34.34                             117    0.0210 71.7  49 
 PAM  EZ I        1223 34.43         2.2 0.18            130           71.7  49 
 RUS  HZ EP   4   1223 30.15                             104    1.17 0  114 174 
 RUS  HN ES   4   1223 37.52                             104   -5.50 0  114 174 
 RUS  HZ I        1223 38.25         3.7 0.38            122            114 174 
 PTB  HZ EP   3   1223 32.99                              99    0.65 2  146 254 
 PTB  HN ES       1223 48.98                              99   -0.01 9  146 254 
 PTB  HZ I        1223 49.73         4.4 0.20            108            146 254 
                                                                                
