 2012  819 1105 29.0 L   6.816 -73.168150.0  RSN  4 0.1 1.7LRSN                1
 GAP=142        0.43       5.9     3.4  4.4 -0.4755E+01 -0.3057E+01 -0.8909E+00E
 Epicentro: LOS SANTOS - SANTANDER                                             3
 ACTION:UPD 12-09-10 11:57 OP:ep   STATUS:               ID:20120819110529 L   I
 2012-08-19-1100-00M.COL___217                                                 6
 STAT SP IPHASW D HRMM SECON CODA AMPLIT PERI AZIMU VELO AIN AR TRES W  DIS CAZ7
 BAR2 SZ EP   1   11 5 49.19                             170    0.04 7 24.8 184 
 BAR2 SZ ES   1   11 6  4.91                             170    0.02 7 24.8 184 
 BAR2 SZ I        11 6  7.97         6.1 0.23                          24.8 184 
 BRR  HZ EP       11 5 50.71                             154    0.2810 68.2 298 
 BRR  HZ I        11 5 52.28         9.8 0.14                          68.2 298 
 BRR  HE ES       11 6  7.09                             154   -0.0710 68.2 298 
 PAM  SZ EP       11 5 51.52                             151   -0.1510 77.6  42 
 PAM  SZ I        11 5 52.04        11.8 0.13                          77.6  42 
 PTB  HZ EP   1   11 5 55.98                             133   -0.14 7  146 258 
 PTB  HE ES   1   11 6 17.22                             133   -0.06 7  146 258 
 PTB  HZ I        11 6 26.19         6.3 0.63                           146 258 
                                                                                
