 2013  719 1532  9.8 L   6.705 -73.175141.4  RSN  6 0.5 1.7LRSN                1
 GAP=176        1.21       7.0     6.9  7.9  0.2046E+02  0.1649E+02  0.4647E+01E
 Epicentro: VILLANUEVA - SANTANDER                                             3
 ACTION:UPD 13-08-12 10:38 OP:ep   STATUS:               ID:20130719153209 L   I
 OLDACT:REG 13-07-19 15:38 OP:nd   STATUS:               ID:20130719152959     3
 2013-07-19-1529-59M.COL___267                                                 6
 STAT SP IPHASW D HRMM SECON CODA AMPLIT PERI AZIMU VELO AIN AR TRES W  DIS CAZ7
 BAR2 SZ EP       1532 28.58                             175   -0.1110 12.5 184 
 BAR2 SZ ES       1532 43.44                             175   -0.0210 12.5 184 
 BAR2 SZ I        1532 44.83        11.1 0.16            173           12.5 184 
 GIR2 SZ EP       1532 28.70                             163   -0.5410 41.4 357 
 GIR2 SZ ES       1532 44.06                             163   -0.3710 41.4 357 
 GIR2 SZ I        1532 45.01        15.7 0.10            164           41.4 357 
 BRR  HZ EP       1532 30.87                             151    0.2610 74.2 307 
 BRR  HN ES       1532 47.42                             151    0.5410 74.2 307 
 BRR  HZ I        1532 53.07         7.6 0.16            150           74.2 307 
 RUS  HZ EP       1532 32.31                             146   -0.0510 90.4 174 
 RUS  HN ES       1532 50.56                             146    0.5710 90.4 174 
 RUS  HZ I        1532 53.49         3.6 0.50            148           90.4 174 
 PTB  HZ EP       1532 35.39                             132   -0.54 9  143 263 
 PTB  HN ES       1532 55.62                             132   -0.73 9  143 263 
 PTB  HZ I        1532 57.40         6.6 0.10            133            143 263 
 ZAR  HZ EP       1532 42.88                             121    0.82 8  205 295 
 ZAR  HE ES       1533  7.58                             121    0.33 8  205 295 
 ZAR  HZ I        1533 12.87         6.8 0.34            123            205 295 
                                                                                
