 2014  419 1513 53.5 L   6.771 -73.159150.2  RSN  5 0.5 2.0LRSN                1
 GAP=199        1.10       5.9     7.7  9.4  0.2234E+02 -0.1244E+02 -0.2116E+02E
 Epicentro: LOS SANTOS - SANTANDER                                             3
 ACTION:UPD 14-05-13 23:09 OP:nd   STATUS:               ID:20140419151353 L   I
 OLDACT:DUP 14-04-19 22:57 OP:nd   STATUS:               ID:20140419151047d    3
 2014-04-19-1510-45M.COL___242                                                 6
 STAT SP IPHASW D HRMM SECON CODA AMPLIT PERI AZIMU VELO AIN AR TRES W  DIS CAZ7
 BRR  HZ EP       1514 15.70                             153    0.5210 71.5 301 
 BRR  HN ES       1514 32.52                             153    0.4510 71.5 301 
 BRR  HZ I        1514 35.92        15.7 0.20            151           71.5 301 
 RUS  HZ EP       1514 17.76                             146    0.2510 97.5 175 
 RUS  HN ES       1514 35.79                             146   -0.4110 97.5 175 
 PTB  HZ EP       1514 20.45                             134   -0.24 9  146 260 
 PTB  HN ES       1514 41.45                             134   -0.42 9  146 260 
 PTB  HZ I        1514 46.07         8.7 0.46            134            146 260 
 ZAR  HZ EP       1514 26.96                             123    0.70 9  204 293 
 ZAR  HN ES       1514 51.76                             123   -0.03 9  204 293 
 ZAR  HZ I        1514 57.22        11.7 0.32            124            204 293 
 SML  HZ EP       1514 29.98                             118   -0.68 8  246 336 
 SML  HN ES       1514 59.16                             118   -0.47 8  246 336 
 SML  HZ I        1515  4.70         9.0 0.26            119            246 336 
                                                                                
