 2017 1019 1921 34.0 L   6.766 -73.145136.9  RSN  5 0.4 1.4LRSN                1
 GAP=138        1.09       5.6     5.4  8.0 -0.2715E+01  0.6034E+01  0.1884E+01E
 Epicentro: LOS SANTOS - SANTANDER                                             3
 ACTION:UPD 17-11-07 19:33 OP:rebc STATUS:               ID:20171019192134 L   I
 OLDACT:REG 17-10-19 20:32 OP:edw  STATUS:               ID:20171019190807     3
 2017-10-19-1918-00M.COL___459                                                 6
 STAT SP IPHASW D HRMM SECON CODA AMPLIT PERI AZIMU VELO AIN AR TRES W  DIS CAZ7
 BAR2 EZ EP       1921 52.11                             171   -0.4010 19.7 192 
 BAR2 EZ ES       1922  7.10                             171    0.1710 19.7 192 
 BAR2 EZ I        1922  9.82         9.3 0.18            171           19.7 192 
 BRR  HZ EP       1921 54.74                             150    0.4110 73.1 301 
 BRR  HN ES       1922 10.78                             150    0.6110 73.1 301 
 BRR  HZ I        1922 13.00        11.0 0.50            152           73.1 301 
 PAM  EZ EP       1921 55.74                             148    0.2610 80.3  38 
 PAM  EN ES       1922 11.59                             148   -0.6310 80.3  38 
 PAM  EZ I        1922 14.57         4.1 0.50            152           80.3  38 
 RUS  HZ EP       1921 56.96                             143    0.3310 96.8 176 
 RUS  HN ES       1922 14.25                             143   -0.0110 96.8 176 
 RUS  HZ I        1922 17.50         3.0 0.32            145           96.8 176 
 PTB  HZ EP       1921 59.98                             130   -0.24 9  147 260 
 PTB  HE ES       1922 20.05                             130   -0.61 9  147 260 
 PTB  HZ I        1922 23.56         2.1 0.12            133            147 260 
                                                                                
