 2014  319 1806 48.4 L   6.487 -73.707 98.1  RSN  7 0.5 1.8LRSN                1
 GAP=127        1.12       4.6     3.9  8.8 -0.8459E+00  0.1275E+02 -0.1912E+01E
 Epicentro: SANTA HELENA DEL OPON - SANTANDER                                  3
 OLDACT:REG 14-03-19 16:10 OP:fm   STATUS:               ID:20140319175817     3
 ACTION:UPD 14-04-09 23:18 OP:nd   STATUS:               ID:20140319180648 L   I
 OLDACT:UP  14-03-19 20:09 OP:fm   STATUS:               ID:20140319175817     3
 2014-03-19-1758-17M.COL___253                                                 6
 STAT SP IPHASW D HRMM SECON CODA AMPLIT PERI AZIMU VELO AIN AR TRES W  DIS CAZ7
 BAR2 SZ EP       18 7  3.72                             147   -0.4310 59.2  79 
 BAR2 SZ ES       18 7 17.05                             147    0.6310 59.2  79 
 BAR2 SZ I        18 7 18.29        70.6 0.20            151           59.2  79 
 PTB  HZ EP       18 7  5.18                             137   -0.4910 83.1 274 
 PTB  HN ES       18 7 18.35                             137   -0.7710 83.1 274 
 PTB  SZ I        18 7 19.84        22.1 0.16            138           83.1 274 
 RUS  HZ EP   1   18 7  7.13                             133   -0.26 7 95.3 134 
 RUS  HE ES   1   18 7 21.74                             133   -0.45 7 95.3 134 
 RUS  SZ I        18 7 23.17         7.6 0.26            137           95.3 134 
 SPBC HZ EP   1   18 7  7.30                             131   -0.05 7  101 204 
 SPBC HE ES       18 7 22.70                             131    0.5910  101 204 
 SPBC SZ I        18 7 26.88        10.9 0.24            133            101 204 
 NOR  HZ EP       18 7 14.01                             117    0.15 9  164 232 
 NOR  HN ES       18 7 33.78                             117    0.09 9  164 232 
 NOR  SZ I        18 7 37.31         6.3 0.14            118            164 232 
 ZAR  HZ EP       18 7 14.72                             116    0.41 9  169 311 
 ZAR  HN ES   1   18 7 35.24                             116    0.73 7  169 311 
 ZAR  SZ I        18 7 39.62         7.5 0.20            117            169 311 
 GUY2CHZ EP   1   18 7 22.21                             109    0.25 6  231 233 
 GUY2CHN ES   2   18 7 47.80                             109   -0.32 4  231 233 
 GUY2CSZ I        18 7 56.19         3.3 0.76                           231 233 
                                                                                
