 2017  819 1650 13.0 L   6.806 -73.160144.0  RSN  4 0.2 1.0LRSN                1
 GAP=134        0.38       2.6     5.8  6.1 -0.7288E+01  0.2203E+02 -0.6521E+01E
 Epicentro: LOS SANTOS - SANTANDER                                             3
 ACTION:UPD 17-09-04 20:22 OP:rebc STATUS:               ID:20170819165013 L   I
 OLDACT:REG 17-08-19 17:10 OP:and  STATUS:               ID:20170819164738     3
 2017-08-19-1648-00M.COL___410                                                 6
 STAT SP IPHASW D HRMM SECON CODA AMPLIT PERI AZIMU VELO AIN AR TRES W  DIS CAZ7
 BAR2 EZ EP   2   1650 32.83                             170    0.45 5 23.8 186 
 BAR2 EZ ES   3   1650 47.96                             170    0.43 2 23.8 186 
 BRR  HZ EP       1650 33.75                             153   -0.0610 69.4 299 
 PAM  EZ EP       1650 35.01                             150   -0.0010 77.9  41 
 PAM  EN ES       1650 52.19                             150   -0.0310 77.9  41 
 PAM  EZ I        1650 54.22         2.9 0.36            151           77.9  41 
 RUS  HZ EP   2   1650 36.73                             143    0.14 5  101 175 
 RUS  HN ES       1650 54.95                             143   -0.0810  101 175 
 RUS  HZ I        1650 55.75         0.9 0.44            145            101 175 
                                                                                
