 2012  119 1506  7.0 L   7.381 -73.386116.4  RSN  6 0.2 1.6LRSN                1
 GAP=179        0.51       4.1     2.6  4.9  0.1958E+01  0.3035E+01 -0.6768E+00E
 Epicentro: SABANA DE TORRES - SANTANDER                                       3
 ACTION:UP  12-02-03 08:18 OP:REBC STATUS:               ID:20120119150607 L   I
 2012-01-19-1500-00M.COL___186                                                 6
 STAT SP IPHASW D HRMM SECON CODA AMPLIT PERI AZIMU VELO SNR AR TRES W  DIS CAZ7
 BRR  HZ EP   1   15 6 23.26                             156    -0.4 7   47 230 
 BRR  HE ES   1   15 6 36.69                             156     0.1 7   47 230 
 PAM  SZ EP   1   15 6 26.16                             145     0.1 7   76  93 
 PAM  SN ES   1   15 6 40.84                             145    -0.1 7   76  93 
 BAR2 SZ EP   1   15 6 26.59                             140    -0.2 7   90 166 
 BAR2 SZ ES   1   15 6 42.35                             140     0.2 7   90 166 
 BAR2 SZ I        15 6 42.60        19.0 0.16                            90 166 
 PTB  HZ EP   1   15 6 31.62                             124    -0.4 7  151 232 
 PTB  HN ES   2   15 6 51.36                             124    -0.2 5  151 232 
 ZAR  HZ EP   1   15 6 33.50                             121     0.2 7  163 274 
 ZAR  HZ I        15 6 33.64         8.3 0.25                           163 274 
 ZAR  HE ES   1   15 6 53.97                             121     0.2 7  163 274 
 RUS  HZ EP   1   15 6 34.76                             121     0.3 7  168 168 
 RUS  HZ I        15 6 35.61         1.9 0.16                           168 168 
 RUS  HE ES   2   15 6 55.77                             121    -0.1 5  168 168 
                                                                                
