 2012  519 1017  0.8 L   7.432 -73.136131.4  RSN  4 0.1 1.4LRSN                1
 GAP=271        0.39       6.4     4.8  6.0  0.1433E+02  0.3965E+01 -0.1447E+02E
 Epicentro: EL PLAYON - SANTANDER                                              3
 ACTION:UP  12-07-05 12:06 OP:pat  STATUS:               ID:20120519101700 L   I
 2012-05-19-1010-00M.COL___200                                                 6
 STAT SP IPHASW D HRMM SECON CODA AMPLIT PERI AZIMU VELO SNR AR TRES W  DIS CAZ7
 BRR  HZ EP   1   1017 20.67                             149     0.2 7   73 241 
 BRR  HZ I        1017 21.35         8.1 0.13                            73 241 
 BRR  HN ES   1   1017 35.82                             149    -0.1 7   73 241 
 BAR2 SZ ES       1017 38.88                             143     0.010   93 183 
 BAR2 SZ I        1017 40.32         6.2 0.11                            93 183 
 PTB  HZ EP   1   1017 29.22                             123    -0.2 7  176 236 
 PTB  HE ES   1   1017 51.85                             123     0.1 7  176 236 
 PTB  HZ I        1017 54.37         1.9 0.15                           176 236 
 ZAR  HE ES   2   1017 54.22                             121    -0.1 4  190 272 
                                                                                
