 2012  119 1804 40.4 L   6.746 -73.139156.5  RSN  5 0.3 1.3LRSN                1
 GAP=140        0.69       5.3     5.0  8.3  0.4951E+01  0.9253E+01  0.1268E+02E
 Epicentro: JORDAN - SANTANDER                                                 3
 ACTION:UP  12-02-03 08:18 OP:REBC STATUS:               ID:20120119180440 L   I
 2012-01-19-1800-00M.COL___187                                                 6
 STAT SP IPHASW D HRMM SECON CODA AMPLIT PERI AZIMU VELO SNR AR TRES W  DIS CAZ7
 BRR  HZ EP   1   18 5  3.09                             153     0.2 7   75 302 
 BRR  HN ES   1   18 5 21.03                             153     0.6 7   75 302 
 PAM  SN ES   1   18 5 21.99                             151    -0.4 7   82  36 
 RUS  HZ EP       18 5  4.84                             148     0.110   95 176 
 RUS  HN ES   1   18 5 23.88                             148     0.0 7   95 176 
 RUS  HZ I        18 5 24.93         3.2 0.30                            95 176 
 PTB  HZ EP   1   18 5  8.19                             134     0.0 7  147 261 
 PTB  HN ES   1   18 5 29.43                             134    -0.5 7  147 261 
 ZAR  HN ES   2   18 5 39.73                             124    -0.2 4  207 294 
                                                                                
