 2017 1119 1125 54.1 L   6.817 -73.208135.0  RSN  8 0.4 1.7LRSN                1
 GAP=147        0.96       5.4     5.3  6.4 -0.1670E+02  0.3572E+01  0.8509E+01E
 Epicentro: ZAPATOCA - SANTANDER                                               3
 ACTION:UPD 17-12-12 19:57 OP:rebc STATUS:               ID:20171119112554 L   I
 OLDACT:REG 17-11-19 20:16 OP:lv   STATUS:               ID:20171119111746     3
 2017-11-19-1118-00M.COL___468                                                 6
 STAT SP IPHASW D HRMM SECON CODA AMPLIT PERI AZIMU VELO AIN AR TRES W  DIS CAZ7
 BAR2 EZ IP     C 1126 12.33                             169   -0.1810 25.0 174 
 BAR2 EZ ES       1126 27.09                             169    0.2510 25.0 174 
 BAR2 EZ I        1126 29.26        12.3 0.18            165           25.0 174 
 PAM  EZ IP     C 1126 15.13                             148   -0.3010 80.6  44 
 PAM  EN ES       1126 32.21                             148    0.1810 80.6  44 
 PAM  EZ I        1126 35.12         8.1 0.68            151           80.6  44 
 PTB  HZ EP       1126 19.43                             131   -0.22 9  141 258 
 PTB  HN ES       1126 39.81                             131    0.25 9  141 258 
 PTB  HZ I        1126 42.38         5.0 0.12            133            141 258 
 SPBC HZ EP       1126 21.31                             127   -0.25 9  160 217 
 SPBC HN ES       1126 42.07                             127   -0.88 9  160 217 
 SPBC HZ I        1126 45.80         8.8 0.34            128            160 217 
 NOR  HZ EP       1126 28.85                             117    0.07 8  230 233 
 NOR  HN ES       1126 56.32                             117    0.53 8  230 233 
 NOR  HZ I        1126 58.14         3.6 0.22            118            230 233 
 CHI  HZ EP       1126 32.14                             115    0.87 8  249 194 
 CHI  HN ES       1127  0.30                             115    0.07 8  249 194 
 CHI  HZ I        1127  6.74         1.8 0.60            116            249 194 
 GUY2CHZ EP   9   1126 37.75                             111    1.00 0  297 234 
 GUY2CHN ES       1127 11.34                                    0.35 7  297 234 
 GUY2CHZ I        1127 20.01         2.2 0.70                           297 234 
 PRA  HZ EP       1126 47.08                             105   -0.02 6  390 209 
 PRA  HE ES   4   1127 29.85                             105    1.44 0  390 209 
 PRA  HZ I        1127 35.51         2.1 0.52            106            390 209 
 SJC  HZ EP   4   1126 47.14                             104   -1.60 0  404 328 
 SJC  HN ES   4   1127 27.28                             104   -4.05 0  404 328 
                                                                                
