 2017 1019 1849 36.9 L   6.808 -73.155138.2  RSN 22 0.6 2.8LRSN                1
 GAP=102        1.16       3.1     3.0  5.6 -0.4278E+00  0.5193E+01  0.1898E+01E
 Epicentro: LOS SANTOS - SANTANDER                                             3
 ACTION:UPD 17-11-07 19:33 OP:rebc STATUS:               ID:20171019184936 L   I
 OLDACT:REG 17-10-19 20:29 OP:edw  STATUS:               ID:20171019183748     3
 2017-10-19-1848-00M.COL___459                                                 6
 STAT SP IPHASW D HRMM SECON CODA AMPLIT PERI AZIMU VELO AIN AR TRES W  DIS CAZ7
 BAR2 EZ IP     C 1849 55.69                             170    0.0510 24.0 187 
 BAR2 EZ ES       1850  9.47                             170   -0.7810 24.0 187 
 BAR2 EZ I        1850 12.12       140.6 0.20            168           24.0 187 
 BRR  HZ IP     C 1849 57.50                             151    0.3410 69.8 298 
 BRR  HZ I        1850 17.90        57.0 0.12            149           69.8 298 
 PAM  EZ EP       1849 58.57                             149    0.2510 77.4  41 
 PAM  EN ES       1850 15.46                             149    0.4410 77.4  41 
 PAM  EZ I        1850 17.64        95.6 0.48            153           77.4  41 
 RUS  HZ IP     C 1849 59.69                             142   -0.3010  102 175 
 RUS  HN ES       1850 17.77                             142   -0.2310  102 175 
 RUS  HZ I        1850 20.14        47.7 0.40            143            102 175 
 PTB  HZ EP       1850  3.41                             130    0.23 9  147 258 
 PTB  HN ES       1850 23.51                             130   -0.17 9  147 258 
 PTB  HZ I        1850 30.04        33.9 0.18            129            147 258 
 TAM  HZ EP       1850  4.13                             128    0.02 9  156 105 
 TAM  HN ES       1850 25.92                             128    0.59 9  156 105 
 SPBC HZ EP       1850  4.94                             127    0.11 9  163 218 
 SPBC HN ES       1850 27.15                             127    0.53 9  163 218 
 SPBC HZ I        1850 31.51        90.3 0.40            127            163 218 
 YPLC HZ IP     C 1850  6.15                             125   -0.13 9  178 151 
 YPLC HN ES       1850 28.58                             125   -0.63 9  178 151 
 YPLC HZ I        1850 31.06        29.1 0.24            126            178 151 
 ZAR  HZ EP       1850  8.88                             121    0.16 9  203 292 
 ZAR  HN ES       1850 33.59                             121    0.04 9  203 292 
 ZAR  HZ I        1850 39.86        77.6 0.36            120            203 292 
 TABC EZ EP   4   1850 13.47                             117    1.24 0  230 210 
 TABC EZ ES       1850 39.29                             117   -0.50 8  230 210 
 TABC EZ I        1850 47.33        73.6 0.70            118            230 210 
 NOR  HZ EP       1850 12.11                             117   -0.05 8  234 234 
 NOR  HN ES       1850 40.01                             117    0.34 8  234 234 
 NOR  HZ I        1850 44.79        44.9 0.22            117            234 234 
 CHI  HN ES       1850 42.92                             115   -0.47 8  249 195 
 ROSC BZ EP   9   1850 16.54                             115    1.90 0  253 211 
 ROSC BN ES       1850 45.62                                   -0.36 8  253 211 
 ROSC BZ I        1850 49.91        70.4 0.75            115            253 211 
 GUY2CHZ EP       1850 20.18                             111    0.05 7  301 235 
 GUY2CHN ES       1850 55.55                             111    1.71 7  301 235 
 GUY2CHZ I        1851  2.30        31.7 0.56                           301 235 
 VIL  EZ EP       1850 19.49                             110   -0.57 7  304 191 
 VIL  EN ES       1850 54.23                             110    0.51 7  304 191 
 VIL  EZ I        1851  4.30        45.1 0.42            111            304 191 
 PTGC HZ EP   9   1850 18.85                             110   -1.72 0  310 159 
 PTGC HN ES       1850 52.95                                    0.04 7  310 159 
 RECRCHN ES   4   1851  0.22                             110    2.78 0  318 230 
 DBB  EZ EP       1850 23.24                             108   -0.71 7  338 274 
 DBB  EN ES       1850 59.17                             108   -1.47 7  338 274 
 DBB  EZ I        1851  1.52        14.6 0.22            108            338 274 
 ANIL HZ EP   9   1850 27.99                             107    1.58 0  357 224 
 ANIL HE ES       1851  7.05                                    0.44 6  357 224 
 ANIL HZ I        1851 15.83        69.2 0.44            107            357 224 
 PRA  HZ EP       1850 29.53                             105   -0.67 6  392 209 
 PRA  HN ES       1851 11.85                             105    0.08 6  392 209 
 PRA  HZ I        1851 17.84        40.9 0.28            106            392 209 
 ORTC HZ EP       1850 30.42                             105   -0.16 6  396 216 
 ORTC HN ES       1851 13.65                             105    1.20 6  396 216 
 ORTC HZ I        1851 20.04        19.8 0.66            105            396 216 
 PAL  HZ EP       1850 31.55                             104   -0.21 6  405 239 
 PAL  HN ES   4   1851 13.60                             104   -0.95 0  405 239 
 PAL  HZ I        1851 25.17         9.8 0.24            105            405 239 
 SJC  HZ EP   4   1850 29.74                             104   -2.32 0  408 327 
 SJC  HN ES   4   1851 10.45                             104   -4.64 0  408 327 
 SJC  HZ I        1851 15.43        10.7 0.52            105            408 327 
 YOT  HZ EP   4   1850 38.51                             102   -1.20 0  472 229 
 YOT  HN ES   4   1851 27.81                             102   -0.90 0  472 229 
                                                                                
