 2013  419 1328 28.2 L   6.762 -73.166143.5  RSN  7 0.4 1.8LRSN                1
 GAP=136        1.03       5.0     5.0  6.2 -0.5293E+01 -0.7167E-01  0.1822E+00E
 Epicentro: LOS SANTOS - SANTANDER                                             3
 ACTION:UPD 13-05-22 14:39 OP:EP   STATUS:               ID:20130419132828 L   I
 2013-04-19-1318-46M.COL___215                                                 6
 STAT SP IPHASW D HRMM SECON CODA AMPLIT PERI AZIMU VELO AIN AR TRES W  DIS CAZ7
 BAR2 SZ EP       1328 47.72                             172    0.2010 18.8 185 
 BAR2 SZ I        1328 47.86        13.9 0.40            171           18.8 185 
 BAR2 SZ ES       1329  2.93                             172    0.3810 18.8 185 
 GIR2 SZ EP       1328 47.88                             165    0.1210 35.2 355 
 GIR2 SZ I        1328 48.18         7.1 0.50            167           35.2 355 
 GIR2 SZ ES       1329  2.77                             165   -0.2110 35.2 355 
 BRR  HZ EP       1328 49.74                             152    0.5810 71.4 302 
 BRR  HN ES       1329  6.00                             152    0.5310 71.4 302 
 BRR  HN I        1329 10.67        22.1 0.20            152           71.4 302 
 PAM  SZ EP       1328 50.64                             149    0.1310 82.1  39 
 PAM  SN ES       1329  7.30                             149   -0.5710 82.1  39 
 PAM  SN I        1329  8.19        18.2 0.60            153           82.1  39 
 RUS  HZ EP       1328 51.71                             144    0.2310 96.5 175 
 RUS  HN ES       1329  9.36                             144   -0.2510 96.5 175 
 RUS  HN I        1329 13.36         4.1 0.58            146           96.5 175 
 PTB  HZ EP       1328 54.35                             132   -0.41 9  145 260 
 PTB  HN ES       1329 14.79                             132   -0.64 9  145 260 
 PTB  HN I        1329 18.41         9.7 0.16            133            145 260 
 CAPV BZ EP       1328 55.64                             130   -0.25 9  154  38 
                                                                                
