 2010 1019 1751 18.7 L   6.791 -73.053146.0  RSN 17 0.5 2.8LRSN                1
 GAP=169        1.09       4.6    11.6  8.8 -0.1123E+02  0.4324E+02 -0.8741E+00E
 Epicentro: LOS SANTOS - SANTANDER                                             3
 ACTION:UP  11-02-18 11:10 OP:tino STATUS:               ID:20101019175118 L   I
 2010-10-19-1747-56S.COL___126                                                 6
 STAT SP IPHASW D HRMM SECON CODA AMPLIT PERI AZIMU VELO SNR AR TRES W  DIS CAZ7
 BAR2 SZ IP       1751 38.37                             169     0.010   26 213 
 BAR2 SZ ES   1   1751 53.44                             169    -0.3 7   26 213 
 BAR2 SZ I        1751 55.25       207.7 0.58                            26 213 
 BTL  SZ EP       1751 38.83                             169     0.410   28 301 
 GIR2 SZ IP       1751 38.39                             166    -0.110   35 334 
 URB  SZ EP   1   1751 40.12                             157     0.8 7   58 328 
 BRR  HZ IP     C 1751 40.23                             149    -0.210   81 296 
 BRR  HZ I        1751 40.52       371.0 0.14                            81 296 
 RUS  HZ IP     D 1751 42.18                             144    -0.210   99 182 
 RUS  HZ ES   1   1752  0.90                             144     0.1 7   99 182 
 RUS  HZ I        1752  2.17        81.9 0.19                            99 182 
 GUE  SZ EP   1   1751 42.40                             140    -1.0 7  116   7 
 GUE  SZ I        1751 43.91        10.3 0.07                           116   7 
 GRA  SZ IP     C 1751 44.14                             137     0.310  124  13 
 GRA  SZ I        1751 47.72        67.8 0.41                           124  13 
 OCA  SZ EP   1   1751 46.69                             129    -0.6 7  163 350 
 OCA  SZ ES   1   1752  9.82                             129     0.3 7  163 350 
 OCA  SZ I        1752 15.21       104.8 0.35                           163 350 
 NOR  SZ EP   1   1751 54.68                             118    -0.6 6  243 236 
 CHI  HZ EP   1   1751 56.29                             117    -0.3 6  251 198 
 CHI  HZ I        1752 33.50        32.8 0.30                           251 198 
 ROSC BZ EP   1   1751 58.05                             116     0.8 6  257 213 
 ROSC BZ I        1752 36.43        51.4 0.23                           257 213 
 HEL  HZ EP   1   1752  0.28                             114     0.3 6  282 257 
 HEL  HZ I        1752 37.05        48.3 0.46                           282 257 
 VIL  SZ EP   1   1752  2.69                             112     0.7 5  303 192 
 DBB  SZ EP   1   1752  7.26                             109    -0.1 5  350 274 
 DBB  SZ I        1753  2.01         5.2 0.17                           350 274 
 TOL  SZ EP   1   1752  7.73                             109     0.0 5  350 226 
 PRA  HZ EP   1   1752 11.95                             106    -0.7 4  396 211 
 PRA  HZ I        1753  0.30        72.9 0.21                           396 211 
                                                                                
