 2015 1019 1911 56.5 L   6.810 -73.176141.1  RSN 14 0.3 2.3LRSN                1
 GAP=132        0.79       2.2     3.0  4.0 -0.7141E+00  0.4781E+01  0.9214E+00E
 Epicentro: LOS SANTOS - SANTANDER                                             3
 ACTION:UPD 15-12-22 20:41 OP:cam  STATUS:               ID:20151019191156 L   I
 OLDACT:UP  15-10-19 23:33 OP:drio STATUS:               ID:20151019190749     3
 OLDACT:REG 15-10-19 21:29 OP:drio STATUS:               ID:20151019190749     3
 2015-10-19-1907-49M.COL___331                                                 6
 STAT SP IPHASW D HRMM SECON CODA AMPLIT PERI AZIMU VELO AIN AR TRES W  DIS CAZ7
 BAR2 EZ EP       1912 15.59                             170    0.0310 24.1 182 
 BAR2 EZ ES       1912 29.97                             170   -0.4710 24.1 182 
 BAR2 EZ I        1912 32.61        45.4 0.28            169           24.1 182 
 BRR  HZ EP       1912 17.33                             153    0.4110 67.7 299 
 BRR  HN ES       1912 33.25                             153    0.3810 67.7 299 
 BRR  HZ I        1912 37.23        28.2 0.18            148           67.7 299 
 PAM  EZ EP       1912 18.41                             149    0.1410 78.7  42 
 PAM  EE ES       1912 35.63                             149    0.3610 78.7  42 
 PAM  EZ I        1912 37.73        43.7 0.46            154           78.7  42 
 RUS  HZ EP       1912 19.74                             142   -0.1310  102 174 
 RUS  HN ES       1912 38.14                             142    0.0210  102 174 
 RUS  HZ I        1912 39.27        30.8 0.22            146            102 174 
 SPBC HZ EP       1912 24.55                             128    0.04 9  162 218 
 SPBC HN ES       1912 45.97                             128   -0.40 9  162 218 
 SPBC HZ I        1912 47.85        36.9 0.10            129            162 218 
 ZAR  HZ EP       1912 28.15                             122   -0.10 9  201 292 
 ZAR  HN ES       1912 52.90                             122   -0.14 9  201 292 
 ZAR  HZ I        1913  4.04        18.9 0.26            121            201 292 
 NOR  HZ EP       1912 31.73                             118    0.01 8  233 234 
 NOR  HE ES       1912 58.62                             118   -0.59 8  233 234 
 NOR  HZ I        1913  7.40        22.3 0.14            119            233 234 
 SML  HZ EP       1912 31.78                             117   -0.80 8  241 336 
 SML  HE ES       1913  0.32                             117   -0.42 8  241 336 
 SML  HZ I        1913  3.91        35.9 0.28            117            241 336 
 CHI  HZ EP       1912 33.79                             116   -0.16 8  249 194 
 CHI  HE ES       1913  3.14                             116   -0.03 8  249 194 
 CHI  HZ I        1913  6.33        14.0 0.40            118            249 194 
 HEL  HZ EP       1912 36.37                             114    0.24 8  269 255 
 HEL  HN ES       1913  7.67                             114    0.62 8  269 255 
 HEL  HZ I        1913 13.70        11.2 0.32            115            269 255 
 GUY2CHZ EP       1912 39.89                             111    0.25 7  299 234 
 GUY2CHE ES       1913 13.44                             111    0.13 7  299 234 
 GUY2CHZ I        1913 25.73         9.3 0.50                           299 234 
 MON  HZ EP   4   1912 42.72                             108   -2.19 0  350 309 
 MON  HN ES   4   1913 21.04                             108   -1.65 0  350 309 
 MON  HZ I        1913 36.75         4.5 0.34            109            350 309 
 ANIL HN EP       1912 46.16                             108    0.23 6  356 224 
 ANIL HE ES       1913 24.66                             108    0.16 6  356 224 
 ORTC HZ EP       1912 50.57                             106    0.45 6  394 216 
 ORTC HN ES   4   1913 30.24                             106   -1.72 0  394 216 
 ORTC HZ I        1913 36.86         7.6 0.36            107            394 216 
                                                                                
