 2013  819 1033 13.2 L   6.789 -73.172155.8  RSN  6 0.4 1.4LRSN                1
 GAP=134        1.05       4.7     4.7  8.3 -0.1470E+01  0.4675E+01  0.5410E+01E
 Epicentro: LOS SANTOS - SANTANDER                                             3
 ACTION:UPD 14-01-14 09:04 OP:ep   STATUS:               ID:20130819103313 L   I
 OLDACT:UP  13-08-19 16:44 OP:stll STATUS:               ID:20130819102843     3
 OLDACT:REG 13-08-19 15:36 OP:stll STATUS:               ID:20130819102843     3
 2013-08-19-1028-43M.COL___201                                                 6
 STAT SP IPHASW D HRMM SECON CODA AMPLIT PERI AZIMU VELO AIN AR TRES W  DIS CAZ7
 BRR  HZ EP       1033 34.91                             155   -0.4310 69.2 301 
 BRR  HN ES       1033 53.47                             155    0.8610 69.2 301 
 PAM  SZ EP       1033 36.72                             152    0.0710 80.1  41 
 PAM  SN ES       1033 54.55                             152   -0.3910 80.1  41 
 PAM  SZ I        1033 56.04         3.4 0.50            157           80.1  41 
 RUS  HZ EP       1033 38.09                             146    0.2010 99.7 174 
 RUS  HN ES       1033 57.11                             146   -0.0310 99.7 174 
 RUS  HZ I        1033 59.10         2.7 0.50            147           99.7 174 
 PTB  HZ EP       1033 40.77                             135    0.04 9  145 259 
 PTB  HN ES       1034  1.55                             135   -0.66 9  145 259 
 PTB  HZ I        1034  9.36         4.1 0.40            135            145 259 
 SPBC HZ EP       1033 42.63                             132    0.39 9  160 218 
 SPBC HN ES       1034  4.76                             132   -0.13 9  160 218 
 SPBC HZ I        1034  9.80         4.5 0.22            133            160 218 
 ZAR  HN ES       1034 11.79                             125    0.04 9  202 293 
                                                                                
