 2014 1219 1915 51.2 L   6.757 -73.169144.0  RSN  4 0.4 1.5LRSN                1
 GAP=135        0.99       6.4     5.5  9.5 -0.4100E+01 -0.3645E+01  0.1222E+02E
 Epicentro: LOS SANTOS - SANTANDER                                             3
 ACTION:UPD 15-02-10 17:05 OP:nd   STATUS:               ID:20141219191551 L   I
 OLDACT:REG 14-12-19 21:31 OP:spq  STATUS:               ID:20141219190746     3
 2014-12-19-1907-46M.COL___293                                                 6
 STAT SP IPHASW D HRMM SECON CODA AMPLIT PERI AZIMU VELO AIN AR TRES W  DIS CAZ7
 BRR  HZ EP       1916 12.47                             152    0.3210 71.4 303 
 BRR  HN ES       1916 29.07                             152    0.5610 71.4 303 
 BRR  HZ I        1916 31.71        12.8 0.30            154           71.4 303 
 PAM  SZ EP       1916 13.45                             149   -0.0910 82.8  39 
 PAM  SE ES   1   1916 30.32                             149   -0.66 7 82.8  39 
 PAM  SZ I        1916 33.29         5.0 0.48            151           82.8  39 
 RUS  HZ EP       1916 14.78                             145    0.3410 96.0 174 
 RUS  HN ES   1   1916 32.50                             145   -0.07 7 96.0 174 
 RUS  HZ I        1916 34.02         2.4 0.30            148           96.0 174 
 PTB  HZ EP       1916 17.31                             132   -0.38 9  144 260 
 PTB  HN ES       1916 37.93                             132   -0.44 9  144 260 
 PTB  HZ I        1916 40.00         3.8 0.18            136            144 260 
                                                                                
