 2013  119 1025 31.1 L   6.694 -73.210148.4  RSN  4 0.3 1.4LRSN                1
 GAP=215        0.60       8.7    10.9  6.2  0.7774E+02  0.6434E+01 -0.3012E+01E
 Epicentro: VILLANUEVA - SANTANDER                                             3
 ACTION:UPD 13-02-15 09:15 OP:ep   STATUS:               ID:20130119102531 L   I
 2013-01-19-1020-00M.COL___241                                                 6
 STAT SP IPHASW D HRMM SECON CODA AMPLIT PERI AZIMU VELO AIN AR TRES W  DIS CAZ7
 BAR2 SZ EP       1025 50.68                             175   -0.1810 11.6 165 
 BAR2 SZ ES   1   1026  5.84                             175   -0.44 7 11.6 165 
 BAR2 SZ I        1026  7.74         7.3 0.26            163           11.6 165 
 BRR  HZ EP       1025 52.69                             153    0.1310 71.9 310 
 BRR  HN ES   1   1026  9.76                             153    0.45 7 71.9 310 
 RUS  HZ EP   1   1025 54.58                             147    0.23 7 89.7 171 
 RUS  HN ES   1   1026 12.66                             147    0.16 7 89.7 171 
 RUS  HZ I        1026 14.31         2.6 0.38            143           89.7 171 
 ZAR  HZ EP   1   1026  3.31                             123   -0.23 6  202 296 
 ZAR  HN ES   2   1026 28.47                             123   -0.38 4  202 296 
 ZAR  HZ I        1026 35.60         2.9 0.28            121            202 296 
                                                                                
