 2011  819 1258 29.5 L   6.758 -73.127146.1  RSN  4 0.2 1.9LRSN                1
 GAP=236        0.52       5.0     7.2  6.0  0.1729E+02  0.1217E+01 -0.9789E+00E
 Epicentro: LOS SANTOS - SANTANDER                                             3
 ACTION:UPD 12-07-13 15:52 OP:ep   STATUS:               ID:20110819125829 L   I
 2011-08-19-1256-02S.COL___149                                                 6
 STAT SP IPHASW D HRMM SECON CODA AMPLIT PERI AZIMU VELO AIN AR TRES W  DIS CAZ7
 BAR2 SZ EP   1   1258 49.01                             172   -0.11 7 19.4 198 
 BAR2 SZ ES   1   1259  4.00                             172   -0.41 7 19.4 198 
 BAR2 SZ I        1259  5.78        22.2 0.37                          19.4 198 
 BRR  HZ EP       1258 50.90                             151   -0.0410 75.3 301 
 BRR  HE ES   1   1259  7.96                             151    0.31 7 75.3 301 
 BRR  HZ I        1259 10.58        21.2 0.14                          75.3 301 
 RUS  HZ EP   1   1258 53.04                             145    0.07 7 95.9 177 
 RUS  HN ES   1   1259 11.56                             145    0.29 7 95.9 177 
 RUS  HZ I        1259 12.90         9.1 0.46                          95.9 177 
 NOR  SN ES   2   1259 32.75                             119   -0.23 4  234 236 
                                                                                
