 2017  919 1117 53.4 L   6.792 -73.127150.4  RSN  4 0.3 1.3LRSN                1
 GAP=139        0.90       5.0     5.9  8.3  0.1933E+01  0.1183E+02 -0.2910E+01E
 Epicentro: LOS SANTOS - SANTANDER                                             3
 ACTION:UPD 17-10-05 19:14 OP:rebc STATUS:               ID:20170919111753 L   I
 OLDACT:REG 17-09-19 19:18 OP:lv   STATUS:               ID:20170919110744     3
 2017-09-19-1108-00M.COL___434                                                 6
 STAT SP IPHASW D HRMM SECON CODA AMPLIT PERI AZIMU VELO AIN AR TRES W  DIS CAZ7
 BAR2 EZ EP       1118 13.76                             171    0.1410 22.9 195 
 BAR2 EZ ES       1118 29.34                             171   -0.0210 22.9 195 
 BAR2 EZ I        1118 30.32         4.9 0.18            171           22.9 195 
 PAM  EZ EP       1118 16.61                             152    0.4910 76.8  38 
 PAM  EE ES       1118 33.51                             152   -0.3010 76.8  38 
 PAM  EZ I        1118 35.84         4.0 0.52            154           76.8  38 
 RUS  HZ EP       1118 16.98                             145   -0.6010 99.6 177 
 RUS  HN ES       1118 36.71                             145    0.3010 99.6 177 
 RUS  HZ I        1118 38.08         1.7 0.35            147           99.6 177 
 ZAR  HZ EP   4   1118 28.96                             123    2.54 0  206 292 
 ZAR  HE ES       1118 52.12                             123   -0.02 8  206 292 
 ZAR  HZ I        1118 57.99         2.9 0.20            123            206 292 
                                                                                
