 2016 1119 1651 49.1 L   6.716 -73.178143.1  RSN  5 0.1 1.5LRSN                1
 GAP=144        0.43       3.8     2.2  3.7 -0.2860E+01  0.3494E+01 -0.3321E+01E
 Epicentro: VILLANUEVA - SANTANDER                                             3
 ACTION:UPD 17-10-26 21:09 OP:lp   STATUS:               ID:20161119165149 L   I
 OLDACT:UP  16-11-19 21:46 OP:edw  STATUS:               ID:20161119164747     3
 OLDACT:REG 16-11-19 20:03 OP:edw  STATUS:               ID:20161119164747     3
 2016-11-19-1648-00M.COL___337                                                 6
 STAT SP IPHASW D HRMM SECON CODA AMPLIT PERI AZIMU VELO AIN AR TRES W  DIS CAZ7
 BAR2 EZ EP       1652  8.50                             174    0.2310 13.7 182 
 BAR2 EZ ES       1652 23.21                             174    0.0010 13.7 182 
 BAR2 EZ I        1652 25.06         9.7 0.24            176           13.7 182 
 BRR  HZ EP       1652 10.25                             151    0.1510 73.1 306 
 PAM  EZ EP       1652 11.45                             147   -0.2110 86.9  37 
 PAM  EN ES       1652 29.21                             147   -0.0210 86.9  37 
 PAM  EZ I        1652 31.74         3.8 0.48            148           86.9  37 
 PTB  HZ EP       1652 15.23                             132   -0.18 9  143 262 
 PTB  HN ES       1652 35.81                             132   -0.11 9  143 262 
 PTB  HZ I        1652 38.85         3.0 0.16            134            143 262 
 ZAR  HZ EP       1652 21.54                             122    0.10 9  204 295 
 ZAR  HE ES       1652 46.68                             122    0.04 9  204 295 
 ZAR  HZ I        1652 51.69         3.6 0.28            123            204 295 
                                                                                
