 2011 1019 1654 49.4 L   6.778 -73.137143.3  RSN  6 0.2 1.8LRSN                1
 GAP=139        0.48       3.1     4.1  4.4 -0.8184E+00  0.4935E+01  0.2982E+00E
 Epicentro: LOS SANTOS - SANTANDER                                             3
 ACTION:UPD 12-07-13 16:04 OP:ep   STATUS:               ID:20111019165449 L   I
 2011-10-19-1640-00M.COL___171                                                 6
 STAT SP IPHASW D HRMM SECON CODA AMPLIT PERI AZIMU VELO AIN AR TRES W  DIS CAZ7
 BAR2 SZ EP       1655  8.89                             171    0.1510 21.1 194 
 BAR2 SZ I        1655  9.23        12.1 0.07                          21.1 194 
 BAR2 SZ ES   1   1655 23.73                             171   -0.06 7 21.1 194 
 GIR2 SZ EP   2   1655  8.82                             166   -0.08 5 33.9 349 
 BRR  HZ EP   1   1655 10.64                             151    0.19 7 73.3 300 
 BRR  HZ I        1655 11.06        21.0 0.14                          73.3 300 
 BRR  HN ES   1   1655 27.06                             151    0.23 7 73.3 300 
 PAM  SZ EP   1   1655 11.57                             150    0.09 7 78.7  38 
 PAM  SN ES       1655 28.51                             150   -0.1610 78.7  38 
 RUS  HZ EP   1   1655 12.95                             144    0.18 7 98.1 177 
 RUS  HN ES   1   1655 30.75                             144   -0.22 7 98.1 177 
 RUS  HZ I        1655 32.95         7.6 0.27                          98.1 177 
 ZAR  HZ EP   1   1655 21.42                             121   -0.50 6  206 293 
 ZAR  HZ I        1655 52.74         7.7 0.27                           206 293 
                                                                                
