 2014  619 1833 57.0 L   6.830 -73.186150.8  RSN  5 0.3 1.7LRSN                1
 GAP=198        0.61       4.1     5.4  5.7  0.6770E+01  0.3840E+01 -0.9171E+01E
 Epicentro: ZAPATOCA - SANTANDER                                               3
 ACTION:UPD 14-07-01 22:55 OP:nd   STATUS:               ID:20140619183357 L   I
 OLDACT:UP  14-06-20 01:48 OP:mh   STATUS:               ID:20140619182817     3
 OLDACT:REG 14-06-19 22:12 OP:spq  STATUS:               ID:20140619182817     3
 2014-06-19-1828-17M.COL___259                                                 6
 STAT SP IPHASW D HRMM SECON CODA AMPLIT PERI AZIMU VELO AIN AR TRES W  DIS CAZ7
 BAR2 SZ EP       1834 17.59                             170    0.2910 26.3 179 
 BAR2 SZ ES       1834 33.14                             170    0.0110 26.3 179 
 BAR2 SZ I        1834 35.47         7.5 0.16            164           26.3 179 
 RUS  HZ EP       1834 21.55                             144    0.0310  104 174 
 RUS  HN ES   1   1834 40.27                             144   -0.37 7  104 174 
 RUS  HZ I        1834 41.38         5.0 0.13            144            104 174 
 PTB  HZ EP       1834 23.74                             134   -0.32 9  144 257 
 PTB  HN ES   1   1834 45.46                             134    0.30 7  144 257 
 PTB  HZ I        1834 53.04         7.3 0.28            131            144 257 
 SML  HZ EP       1834 33.62                             119    0.22 8  239 336 
 SML  HN ES   1   1835  1.41                             119   -0.37 6  239 336 
 GUY2CHZ EP   4   1834 43.75                             113    3.09 0  300 234 
 GUY2CHN ES   4   1835 19.01                             113    4.30 0  300 234 
 GUY2CHZ I        1835 26.47         3.6 0.40                           300 234 
                                                                                
