 2011 1019 1144 49.5 L   6.639 -73.351148.0  RSN  4 0.1 1.5LRSN                1
 GAP=139        0.34       4.5     7.1  4.7  0.2388E+02 -0.5777E+01 -0.4353E+01E
 Epicentro: GALAN - SANTANDER                                                  3
 ACTION:UPD 12-07-13 16:04 OP:ep   STATUS:               ID:20111019114449 L   I
 2011-10-19-1141-22S.COL___168                                                 6
 STAT SP IPHASW D HRMM SECON CODA AMPLIT PERI AZIMU VELO AIN AR TRES W  DIS CAZ7
 BRR  HZ EP   1   1145 10.39                             155   -0.17 7 65.4 322 
 BRR  HN ES   1   1145 27.04                             155    0.04 7 65.4 322 
 BRR  HZ I        1145 36.02         9.3 0.28                          65.4 322 
 RUS  HZ EP   1   1145 12.52                             148   -0.05 7 87.7 160 
 RUS  HN ES   1   1145 30.64                             148    0.05 7 87.7 160 
 RUS  HZ I        1145 32.83         2.2 0.31                          87.7 160 
 PAM  SZ EP   2   1145 13.94                             143    0.12 5  106  43 
 ZAR  HZ EP   2   1145 21.02                             125    0.23 4  191 300 
 ZAR  HZ I        1145 52.03         3.8 0.44                           191 300 
                                                                                
