 2017  119 1358 42.3 L   6.772 -73.130148.8  RSN  4 0.4 1.1LRSN                1
 GAP=140        1.01       6.3     6.1  8.4 -0.1196E+02  0.1347E+02 -0.4743E+01E
 Epicentro: LOS SANTOS - SANTANDER                                             3
 ACTION:UPD 17-05-22 16:01 OP:jn   STATUS:               ID:20170119135842 L   I
 OLDACT:REG 17-01-19 21:51 OP:cog  STATUS:               ID:20170119135614     3
 2017-01-19-1358-00M.COL___331                                                 6
 STAT SP IPHASW D HRMM SECON CODA AMPLIT PERI AZIMU VELO AIN AR TRES W  DIS CAZ7
 BAR2 EZ EP       1359  2.33                             172    0.0910 20.7 196 
 BAR2 EZ ES       1359 17.24                             172   -0.5510 20.7 196 
 BAR2 EZ I        1359 20.45         2.3 0.28            171           20.7 196 
 PAM  EZ EP       1359  5.22                             151    0.3110 78.8  37 
 PAM  EN ES       1359 22.61                             151    0.0510 78.8  37 
 PAM  EZ I        1359 23.36         2.0 0.28            154           78.8  37 
 RUS  HZ EP       1359  6.11                             145   -0.0010 97.3 177 
 RUS  HN ES       1359 24.94                             145    0.2410 97.3 177 
 PTB  HZ EP       1359  8.91                             132   -0.70 9  149 260 
 PTB  HN ES       1359 31.46                             132    0.54 9  149 260 
 PTB  HZ I        1359 35.37         2.1 0.14            133            149 260 
                                                                                
