 2014  619 1331 34.6 L   6.806 -73.125139.5  RSN 10 0.5 2.3LRSN                1
 GAP=139        1.15       4.8     5.1  7.4 -0.3091E+01  0.1276E+02  0.6139E+01E
 Epicentro: LOS SANTOS - SANTANDER                                             3
 ACTION:UPD 14-07-01 22:55 OP:nd   STATUS:               ID:20140619133134 L   I
 OLDACT:REG 14-06-19 21:40 OP:spq  STATUS:               ID:20140619132818     3
 2014-06-19-1328-18M.COL___256                                                 6
 STAT SP IPHASW D HRMM SECON CODA AMPLIT PERI AZIMU VELO AIN AR TRES W  DIS CAZ7
 BAR2 SZ EP       1331 53.61                             170    0.1110 24.5 195 
 BAR2 SZ ES   1   1332  8.65                             170    0.41 7 24.5 195 
 BAR2 SZ I        1332 10.75        59.3 0.22            167           24.5 195 
 BRR  HZ IP     D 1331 55.25                             151    0.0810 72.9 297 
 BRR  HN ES   1   1332 11.99                             151    0.78 7 72.9 297 
 BRR  HZ I        1332 15.51        31.1 0.08            148           72.9 297 
 PAM  SZ EP       1331 56.06                             150    0.0310 75.4  39 
 PAM  SN ES   1   1332 13.06                             150    0.32 7 75.4  39 
 RUS  HZ EP       1331 57.80                             142    0.0210  101 177 
 RUS  HN ES       1332 15.22                             142   -0.6410  101 177 
 PTB  HZ EP       1332  0.32                             130   -0.96 9  150 259 
 PTB  HN ES       1332 21.68                             130   -0.41 9  150 259 
 PTB  HZ I        1332 23.76        23.4 0.17            129            150 259 
 ZAR  HZ EP       1332  6.13                             121   -0.70 8  206 292 
 ZAR  HN ES   1   1332 31.96                             121   -0.01 6  206 292 
 ZAR  HZ I        1332 38.70        15.5 0.11            121            206 292 
 NOR  HZ EP   4   1332 11.17                             117    0.96 0  237 235 
 NOR  HN ES   1   1332 37.60                             117   -0.39 6  237 235 
 SML  HZ EP   4   1332  9.23                             116   -1.68 0  244 335 
 SML  HN ES   4   1332 36.13                             116   -3.11 0  244 335 
 URE  HZ EP   4   1332 15.21                             112   -0.36 0  286 292 
 URE  HN ES   4   1332 42.19                             112   -5.35 0  286 292 
 GUY2CHZ EP       1332 19.00                             111    0.82 7  303 235 
 GUY2CHE ES       1332 52.95                             111    0.78 7  303 235 
 GUY2CHZ I        1333  1.97         6.1 0.45                           303 235 
 TOL  SZ EP       1332 23.82                             108    0.97 6  346 225 
 TOL  SN ES   1   1333  1.03                             108    0.55 5  346 225 
 TOL  SZ I        1333 11.01        14.4 0.73            109            346 225 
 PRA  HZ EP       1332 28.17                             105    0.06 6  394 210 
 PRA  HN ES       1333  9.79                             105   -0.06 6  394 210 
 PRA  HZ I        1333 17.19         5.3 0.37            106            394 210 
                                                                                
