 2010  119 1014 39.1 L   6.804 -73.024147.4  RSN  5 0.3 1.5LRSN                1
 GAP=195        0.63       3.5    16.8  6.1  0.1429E+02  0.2342E+02  0.8668E+00E
 Epicentro: CEPITA - SANTANDER                                                 3
 ACTION:UP  10-08-24 09:44 OP:vdl  STATUS:               ID:20100119101439 L   I
 2010-01-19-1013-55S.COL___096                                                 6
 STAT SP IPHASW D HRMM SECON CODA AMPLIT PERI AZIMU VELO SNR AR TRES W  DIS CAZ7
 BAR2 SZ EP   1   1014 58.60                             168    -0.4 8   29 217 
 BAR2 SZ ES   1   1015 14.68                             168     0.1 8   29 217 
 RUS  BZ IP       1015  3.22                             144     0.210  101 184 
 RUS  BE ES   1   1015 21.73                             144     0.0 7  101 184 
 RUS  BZ I        1015 22.42         3.5 0.28                           101 184 
 OCA  SZ EP   1   1015  7.99                             130     0.3 7  162 348 
 OCA  SZ ES   1   1015 29.80                             130    -0.2 7  162 348 
 OCA  SZ I        1015 32.54         7.4 0.15                           162 348 
 CHI  HZ IP       1015 17.10                             117    -0.2 8  253 198 
 CHI  HZ I        1015 48.61         1.3 0.48                           253 198 
 HEL  HZ EP   2   1015 21.24                             114     0.4 4  285 256 
 HEL  HZ I        1015 23.18         2.6 0.27                           285 256 
                                                                                
