 2010  119 1325 31.2 L   6.722 -72.885154.0  RSN  4 0.2 1.8LRSN                1
 GAP=325        0.37      11.3    11.7  6.1 -0.9498E+02  0.4622E+02 -0.3796E+02E
 Epicentro: MOLAGAVITA - SANTANDER                                             3
 ACTION:UP  10-08-24 09:44 OP:vdl  STATUS:               ID:20100119132531 L   I
 2010-01-19-1323-38S.COL___096                                                 6
 STAT SP IPHASW D HRMM SECON CODA AMPLIT PERI AZIMU VELO SNR AR TRES W  DIS CAZ7
 RUS  BZ EP   1   1325 55.32                             147     0.010   94 193 
 RUS  BE ES   1   1326 14.13                             147     0.010   94 193 
 RUS  BZ I        1326 15.00         5.3 0.49                            94 193 
 CHI  HZ IP       1326  9.39                             119    -0.110  250 202 
 CHI  HE ES   2   1326 39.55                             119     0.2 5  250 202 
 CHI  HZ I        1326 44.47         3.2 0.37                           250 202 
 TOL  SZ EP   2   1326 22.14                             110     0.6 4  359 229 
 TOL  SZ ES   2   1327  0.48                             110    -0.3 4  359 229 
 PRA  HZ IP       1326 25.79                             107    -0.1 7  400 214 
 PRA  HN ES   2   1327  8.51                             107    -0.1 4  400 214 
 PRA  HZ I        1327 12.91         4.2 0.28                           400 214 
                                                                                
