 2017 1019 1933 12.5 L   6.790 -73.156145.8  RSN  7 0.3 1.7LRSN                1
 GAP=111        0.69       3.4     2.9  4.6  0.1841E+01  0.1073E+01  0.2234E+01E
 Epicentro: LOS SANTOS - SANTANDER                                             3
 ACTION:UPD 17-11-07 19:33 OP:rebc STATUS:               ID:20171019193312 L   I
 OLDACT:DUP 17-10-20 00:42 OP:lv   STATUS:               ID:20171019192746d    3
 OLDACT:REG 17-10-19 20:33 OP:edw  STATUS:               ID:20171019192744     3
 2017-10-19-1928-00M.COL___459                                                 6
 STAT SP IPHASW D HRMM SECON CODA AMPLIT PERI AZIMU VELO AIN AR TRES W  DIS CAZ7
 BAR2 EZ EP       1933 32.26                             171    0.1610 22.1 188 
 BAR2 EZ ES       1933 47.51                             171    0.1110 22.1 188 
 BAR2 EZ I        1933 48.21        15.2 0.24            163           22.1 188 
 BRR  HZ EP       1933 33.81                             153    0.1910 70.7 300 
 BRR  HN ES       1933 50.30                             153    0.2010 70.7 300 
 BRR  HZ I        1933 55.39        11.5 0.14            152           70.7 300 
 PAM  EZ EP       1933 34.90                             150    0.1010 78.9  40 
 PAM  EN ES       1933 51.80                             150   -0.4010 78.9  40 
 PAM  EZ I        1933 52.10         6.2 0.42            145           78.9  40 
 RUS  HZ EP       1933 36.06                             144   -0.1210 99.6 175 
 RUS  HN ES       1933 54.86                             144    0.2110 99.6 175 
 RUS  HZ I        1933 56.63         4.6 0.24            133           99.6 175 
 PTB  HZ EP       1933 39.19                             132   -0.15 9  146 259 
 PTB  HN ES       1933 59.70                             132   -0.59 9  146 259 
 PTB  HZ I        1934  2.47         5.3 0.52            126            146 259 
 YPLC HZ EP       1933 42.21                             127   -0.04 9  176 151 
 YPLC HZ I        1934  9.01         5.2 0.28            117            176 151 
 ZAR  HN ES       1934 10.45                             122    0.32 9  203 293 
                                                                                
