 2011 1119 1713 27.2 L   6.767 -73.124138.0  RSN  5 0.3 1.9LRSN                1
 GAP=141        0.54       4.1     4.2  5.3  0.7421E+00  0.1274E+01  0.4021E-01E
 Epicentro: LOS SANTOS - SANTANDER                                             3
 ACTION:UPD 12-07-13 16:11 OP:ep   STATUS:               ID:20111119171327 L   I
 2011-11-19-1711-18S.COL___178                                                 6
 STAT SP IPHASW D HRMM SECON CODA AMPLIT PERI AZIMU VELO AIN AR TRES W  DIS CAZ7
 BAR2 SZ EP   1   1713 45.90                             171    0.03 7 20.3 198 
 BAR2 SZ ES   1   1713 59.93                             171   -0.48 7 20.3 198 
 BAR2 SZ I        1714  1.50        18.1 0.29                          20.3 198 
 BRR  HZ EP   1   1713 47.66                             150   -0.12 7 75.1 300 
 BRR  HZ I        1713 49.63        19.6 0.18                          75.1 300 
 BRR  HN ES   1   1714  4.29                             150    0.48 7 75.1 300 
 PAM  SZ EP       1713 48.76                             149    0.0410 78.8  37 
 PAM  SZ I        1713 48.99        17.1 0.17                          78.8  37 
 PAM  SE ES   1   1714  5.44                             149   -0.04 7 78.8  37 
 RUS  HZ EP   1   1713 50.16                             143    0.21 7 96.8 177 
 RUS  HN ES   2   1714  7.80                             143    0.14 5 96.8 177 
 RUS  HZ I        1714 10.02         6.9 0.23                          96.8 177 
 ZAR  HZ EP   2   1713 59.36                             120   -0.20 4  208 293 
 ZAR  HN ES   2   1714 24.30                             120   -0.48 4  208 293 
 ZAR  HZ I        1714 31.13         7.6 0.28                           208 293 
                                                                                
