 2014  619 1012 12.5 L   5.861 -73.887111.8  RSN 12 0.4 1.8LRSN                1
 GAP=129        0.82       2.8     3.3  5.9 -0.2323E+01  0.3010E+01 -0.1118E+00E
 Epicentro: SUCRE - SANTANDER                                                  3
 ACTION:UPD 14-07-01 22:55 OP:nd   STATUS:               ID:20140619101212 L   I
 OLDACT:UP  14-06-19 22:49 OP:mh   STATUS:               ID:20140619100820     3
 OLDACT:UP  14-06-19 22:45 OP:mh   STATUS:               ID:20140619100820     3
 OLDACT:REG 14-06-19 21:14 OP:spq  STATUS:               ID:20140619100820     3
 2014-06-19-1008-20M.COL___253                                                 6
 STAT SP IPHASW D HRMM SECON CODA AMPLIT PERI AZIMU VELO AIN AR TRES W  DIS CAZ7
 SPBC HZ EP     D 1012 28.17                             163    0.0610 30.8 222 
 SPBC HN ES   1   1012 40.45                             163    0.19 7 30.8 222 
 SPBC HZ I        1012 41.25        26.2 0.28            163           30.8 222 
 PTB  HZ EP       1012 31.75                             136   -0.5010 98.0 320 
 PTB  HN ES   1   1012 47.37                             136   -0.26 7 98.0 320 
 PTB  HZ I        1012 49.42        13.1 0.10            127           98.0 320 
 BAR2 SZ EP       1012 33.99                             131    0.1710  112  44 
 BAR2 SZ ES   1   1012 50.11                             131   -0.32 7  112  44 
 BAR2 SZ I        1012 51.32        14.8 0.16            126            112  44 
 NOR  HZ EP       1012 33.73                             131    0.0410  114 253 
 NOR  HN ES   1   1012 50.50                             131    0.30 7  114 253 
 NOR  HZ I        1012 52.61        15.7 0.40            127            114 253 
 CHI  HN ES   1   1012 55.35                             125    0.27 7  137 173 
 GUY2CHZ EP   1   1012 40.99                             118    0.21 7  178 247 
 GUY2CHN ES   4   1013  4.68                             118    1.86 0  178 247 
 GUY2CHZ I        1013  8.10         3.3 0.33                           178 247 
 HEL  HZ EP   1   1012 41.42                             117   -0.00 7  185 281 
 HEL  HN ES       1013  4.12                             117    0.17 9  185 281 
 HEL  HZ I        1013  5.44        10.8 0.32            112            185 281 
 RREF HZ EP   1   1012 41.85                             116   -0.80 7  194 237 
 RREF HE ES       1013  5.66                             116   -0.49 9  194 237 
 ZAR  HZ EP     D 1012 43.67                             113   -0.01 8  210 329 
 ZAR  HN ES   1   1013  8.89                             113    0.91 6  210 329 
 ZAR  HZ I        1013 14.63         5.7 0.36            108            210 329 
 TOL  SZ EP   1   1012 44.14                             113   -0.24 6  212 228 
 TOL  SN ES   1   1013  9.07                             113   -0.15 6  212 228 
 TOL  SZ I        1013 13.18        13.2 0.29            110            212 228 
 PRA  HN ES   4   1013 19.66                             108    1.01 0  262 205 
 ORTC HZ EP       1012 50.56                             108    0.74 8  263 215 
 ORTC HN ES   4   1013  7.52                             108   -11.4 0  263 215 
 ORTC HZ I        1013  8.94         8.5 0.24            105            263 215 
 URE  HZ EP   4   1012 50.19                             106   -1.22 0  277 319 
 URE  HZ I        1013 13.90         1.2 0.10            102            277 319 
 URE  HN ES   4   1013 20.11                             106   -1.63 0  277 319 
 MACC HN ES   4   1013 45.07                              99   -5.01 0  411 179 
                                                                                
