 2011  119 1452 47.8 L   6.746 -73.240139.1  RSN  7 0.4 1.9LRSN                1
 GAP=139        1.02       5.6    12.8  8.3 -0.3458E+02  0.3062E+02 -0.8516E+01E
 Epicentro: ZAPATOCA - SANTANDER                                               3
 ACTION:UP  11-02-08 08:41 OP:pat  STATUS:               ID:20110119145247 L   I
 2011-01-19-1449-55S.COL___138                                                 6
 STAT SP IPHASW D HRMM SECON CODA AMPLIT PERI AZIMU VELO SNR AR TRES W  DIS CAZ7
 BAR2 SZ EP       1453  6.54                             172     0.010   18 160 
 BAR2 SZ ES   1   1453 20.67                             172    -0.5 7   18 160 
 BAR2 SZ I        1453 22.57        15.5 0.11                            18 160 
 BTL  SZ EP       1453  6.69                             172     0.110   19 351 
 BTL  SZ ES   1   1453 21.78                             172     0.6 7   19 351 
 RUS  HZ EP   1   1453 10.54                             144     0.0 7   96 170 
 RUS  HE ES   1   1453 28.27                             144    -0.1 7   96 170 
 RUS  HZ I        1453 29.82        12.0 0.25                            96 170 
 GRA  SZ EP       1453 13.51                             133     0.210  135  21 
 GRA  SZ I        1453 35.13        10.7 0.30                           135  21 
 OCA  SZ EP   1   1453 15.22                             127    -0.9 7  165 357 
 OCA  SZ I        1453 40.42         9.9 0.26                           165 357 
 CHI  HZ EP   1   1453 24.94                             117     0.7 6  240 193 
 CHI  HN ES   1   1453 52.20                             117    -0.5 6  240 193 
 CHI  HZ I        1453 59.52         3.8 0.31                           240 193 
 RREF HN ES   1   1454  7.12                             110     0.1 5  310 229 
 RREF HZ I        1454 16.44         4.6 0.66                           310 229 
                                                                                
