 2013  119 1159 54.7 L   6.826 -73.193143.4  RSN  6 0.2 1.3LRSN                1
 GAP=129        0.47       3.1     3.3  4.9 -0.2551E+01  0.7981E+00  0.2755E+01E
 Epicentro: ZAPATOCA - SANTANDER                                               3
 ACTION:UPD 13-02-15 09:15 OP:ep   STATUS:               ID:20130119115954 L   I
 2013-01-19-1200-00M.COL___241                                                 6
 STAT SP IPHASW D HRMM SECON CODA AMPLIT PERI AZIMU VELO AIN AR TRES W  DIS CAZ7
 BAR2 SZ EP   1   12 0 13.74                             169   -0.31 7 25.9 177 
 BAR2 SZ ES   2   12 0 28.99                             169   -0.19 5 25.9 177 
 BAR2 SZ I        12 0 31.17         6.1 0.18            170           25.9 177 
 BRR  HN ES   2   12 0 31.70                             154    0.45 5 65.2 299 
 PAM  SZ EP       12 0 16.85                             150    0.1510 78.7  44 
 PAM  SN ES   1   12 0 33.83                             150   -0.06 7 78.7  44 
 PAM  SZ I        12 0 35.31         4.1 0.38            155           78.7  44 
 RUS  HZ EP       12 0 18.54                             142    0.1210  104 173 
 RUS  HN ES   1   12 0 36.82                             142   -0.13 7  104 173 
 RUS  HZ I        12 0 38.56         2.0 0.44            146            104 173 
 PTB  HZ EP   1   12 0 20.67                             132   -0.35 7  143 257 
 PTB  HN ES   1   12 0 41.64                             132    0.06 7  143 257 
 PTB  HZ I        12 0 46.65         2.9 0.36            133            143 257 
 CHI  HZ EP   2   12 0 32.41                             116    0.03 4  250 194 
 CHI  HN ES   2   12 1  2.37                             116    0.56 4  250 194 
                                                                                
