 2015 1119 1807 58.0 L   5.789 -73.907105.8  RSN 19 0.6 2.3LRSN                1
 GAP=121        1.34       3.6     3.5  8.6 -0.5822E+01  0.9872E+01 -0.6129E+01E
 Epicentro: ALBANIA - SANTANDER                                                3
 ACTION:UPD 15-12-28 16:12 OP:cam  STATUS:               ID:20151119180757 L   I
 OLDACT:UP  15-12-01 10:57 OP:ak   STATUS:               ID:20151119180757 L   3
 OLDACT:UP  15-11-20 01:25 OP:dnl  STATUS:               ID:20151119175750     3
 OLDACT:UP  15-11-20 01:24 OP:dnl  STATUS:               ID:20151119175750     3
 OLDACT:REG 15-11-19 20:49 OP:dnl  STATUS:               ID:20151119175750     3
 2015-11-19-1757-50M.COL___316                                                 6
 STAT SP IPHASW D HRMM SECON CODA AMPLIT PERI AZIMU VELO AIN AR TRES W  DIS CAZ7
 SPBC HZ EP     D 18 8 12.40                             166   -0.2310 23.7 230 
 SPBC HN ES   2   18 8 23.88                             166   -0.18 5 23.7 230 
 SPBC HZ I        18 8 25.10       138.8 0.23            167           23.7 230 
 RUS  HZ EP     D 18 8 17.09                             136   -0.2310 92.0  83 
 RUS  HN ES       18 8 31.56                             136   -0.8410 92.0  83 
 NOR  HZ EP       18 8 17.58                             130   -0.7110  109 257 
 NOR  HN ES   1   18 8 32.91                             130   -1.21 7  109 257 
 NOR  HZ I        18 8 35.67        59.5 0.20            130            109 257 
 ROSC BZ EP   2   18 8 19.34                             129    0.13 5  114 204 
 ROSC BN ES       18 8 36.56                             129    0.8010  114 204 
 BAR2 EZ EP       18 8 19.95                             128    0.4510  120  42 
 BAR2 EZ ES       18 8 36.97                             128    0.6810  120  42 
 BAR2 EZ I        18 8 38.38        91.8 0.30            127            120  42 
 BRR  HZ EP     C 18 8 22.30                             121    0.32 9  147   8 
 BRR  HE ES   4   18 8 42.11                             121    1.41 0  147   8 
 BRR  HZ I        18 8 44.41        36.4 0.06            120            147   8 
 GUY2CHZ EP       18 8 25.47                             117    0.11 9  173 249 
 GUY2CHN ES       18 8 47.30                             117    0.59 9  173 249 
 GUY2CHZ I        18 8 50.89        16.7 0.24                           173 249 
 HEL  HZ EP       18 8 27.48                             115    0.96 9  185 284 
 HEL  HE ES       18 8 49.03                             115    0.26 9  185 284 
 HEL  HZ I        18 8 50.24        14.8 0.44            114            185 284 
 ELA  HZ EP   4   18 8 29.53                             114    1.72 0  195 238 
 ELA  HN ES   2   18 8 50.30                             114   -0.77 4  195 238 
 ELA  HZ I        18 8 56.58         7.3 0.40            113            195 238 
 ZAR  HZ EP   4   18 8 28.48                             111   -1.04 0  216 331 
 ZAR  HN ES       18 8 54.13                             111    0.01 8  216 331 
 ZAR  HZ I        18 8 58.40        31.3 0.32            110            216 331 
 PAM  EZ EP       18 8 30.34                             111    0.03 8  217  38 
 PAM  EE ES       18 8 55.64                             111    0.12 8  217  38 
 PAM  EZ I        18 9  3.59        10.2 0.18            110            217  38 
 ANIL HZ EP   1   18 8 30.41                             110    0.12 6  219 229 
 ANIL HE ES       18 8 56.18                             110    0.69 8  219 229 
 ANIL HZ I        18 8 57.55        29.5 0.26            110            219 229 
 CBOC HZ EP       18 8 30.74                             109   -1.01 8  233 272 
 CBOC HE ES       18 8 58.12                             109    0.04 8  233 272 
 CBOC HZ I        18 9  0.32         7.9 0.36            108            233 272 
 PRA  HZ EP       18 8 33.02                             107   -0.95 8  254 205 
 PRA  HE ES       18 9  2.25                             107    0.22 8  254 205 
 PRA  HZ I        18 9  7.82        13.8 0.18            107            254 205 
 ORTC HZ EP       18 8 33.99                             107   -0.17 8  255 216 
 ORTC HE ES   4   18 9  3.50                             107    1.13 0  255 216 
 ORTC HZ I        18 9  6.16        15.9 0.42            106            255 216 
 URE  HZ EP   4   18 8 35.43                             104   -1.79 0  282 320 
 URE  HN ES   4   18 9  5.76                             104   -2.06 0  282 320 
 URE  HZ I        18 9  7.81        26.6 0.24            104            282 320 
 SML  HE ES   4   18 9 19.92                             101    1.17 0  334 357 
 SML  HZ I        18 9 23.53        12.3 0.22            101            334 357 
 MON  HZ EP   4   18 8 47.51                              99   -1.83 0  383 330 
 MON  HE ES       18 9 28.69                              99   -0.71 6  383 330 
 MON  HZ I        18 9 29.74         8.5 0.24             98            383 330 
 SJC  HZ EP   4   18 8 58.32                              95   -2.26 0  475 343 
 SJC  HE ES   4   18 9 45.49                              95   -3.90 0  475 343 
 SJC  HZ I        18 9 48.57         4.5 0.48                           475 343 
                                                                                
