 2015  219 1037 34.3 L   6.822 -73.185142.7  RSN 15 0.4 1.9LRSN                1
 GAP=131        1.03       2.4     3.8  5.0 -0.1665E+01  0.6416E+01  0.7604E+00E
 Epicentro: ZAPATOCA - SANTANDER                                               3
 ACTION:UPD 15-04-30 21:27 OP:nd   STATUS:               ID:20150219103734 L   I
 OLDACT:REG 15-02-19 20:55 OP:fm   STATUS:               ID:20150219102741     3
 2015-02-19-1027-41M.COL___293                                                 6
 STAT SP IPHASW D HRMM SECON CODA AMPLIT PERI AZIMU VELO AIN AR TRES W  DIS CAZ7
 BAR2 EZ EP       1037 53.82                             169    0.2610 25.4 179 
 BAR2 EZ ES       1038  8.88                             169    0.2610 25.4 179 
 BAR2 EZ I        1038 11.54        23.8 0.22            168           25.4 179 
 BRR  HZ EP       1037 55.62                             154    0.8210 66.2 298 
 BRR  HE ES       1038 11.32                             154    0.5110 66.2 298 
 BRR  HZ I        1038 18.46        12.3 0.40            152           66.2 298 
 PAM  SZ EP     C 1037 56.60                             150    0.3910 78.4  43 
 PAM  SE ES       1038 13.28                             150   -0.0510 78.4  43 
 PAM  SZ I        1038 15.93        16.2 0.52            157           78.4  43 
 RUS  HZ EP       1037 57.72                             142   -0.2010  103 174 
 RUS  HE ES       1038 15.42                             142   -0.9510  103 174 
 RUS  HZ I        1038 17.66         5.7 0.28            146            103 174 
 PTB  HZ EP       1038  0.88                             132    0.24 9  144 258 
 PTB  HN ES       1038 20.87                             132   -0.34 9  144 258 
 PTB  HZ I        1038 29.05        18.8 0.38            133            144 258 
 OCA  HZ EP       1038  1.29                             129   -0.77 9  157 355 
 OCA  HE ES       1038 23.45                             129   -0.29 9  157 355 
 OCA  HZ I        1038 28.76        14.2 0.30            133            157 355 
 SPBC HZ EP       1038  2.81                             128    0.36 9  162 217 
 SPBC HE ES       1038 24.14                             128   -0.30 9  162 217 
 SPBC HZ I        1038 28.85        12.5 0.32            130            162 217 
 NOR  HZ EP       1038  9.99                             118    0.40 8  233 233 
 NOR  HN ES       1038 37.19                             118    0.04 8  233 233 
 NOR  HZ I        1038 43.86         7.4 0.16            120            233 233 
 SML  HZ EP       1038 10.48                             117    0.20 8  240 336 
 SML  HE ES       1038 38.01                             117   -0.36 8  240 336 
 SML  HZ I        1038 40.85        11.6 0.14            120            240 336 
 CHI  HZ EP       1038 12.04                             116    0.11 8  250 194 
 CHI  HN ES       1038 41.14                             116   -0.17 8  250 194 
 CHI  HZ I        1038 50.90         2.8 0.34            119            250 194 
 URE  HN ES   1   1038 45.46                             113   -0.65 6  279 292 
 URE  HZ I        1038 53.37         5.2 0.18            115            279 292 
 GUY2CHZ EP       1038 17.88                             112    0.39 7  299 234 
 GUY2CHE ES       1038 51.27                             112    0.06 7  299 234 
 GUY2CHZ I        1038 59.04         4.6 0.48                           299 234 
 TOL  SZ EP       1038 22.57                             109    0.32 7  342 224 
 TOL  SE ES       1039  0.27                             109    0.59 7  342 224 
 TOL  SZ I        1039  8.63         3.1 0.60            111            342 224 
 MON  HZ EP   1   1038 21.99                             108   -0.58 5  349 308 
 MON  HN ES       1038 59.82                             108   -0.44 6  349 308 
 MON  HZ I        1039  1.37         1.8 0.22            111            349 308 
 PRA  HZ EP       1038 27.08                             106   -0.60 6  392 209 
 PRA  HE ES       1039  8.84                             106   -0.51 6  392 209 
 PRA  HZ I        1039 13.63         3.4 0.46            108            392 209 
                                                                                
