 2014  819 1041 55.8 L   6.785 -73.169138.0  RSN 17 0.5 2.4LRSN                1
 GAP= 70        0.99       2.6     2.6  4.6 -0.6974E+00  0.3468E+01  0.1588E+01E
 Epicentro: LOS SANTOS - SANTANDER                                             3
 ACTION:UPD 14-09-15 21:51 OP:nd   STATUS:               ID:20140819104155 L   I
 OLDACT:REG 14-08-19 20:39 OP:stll STATUS:               ID:20140819103819     3
 2014-08-19-1038-19M.COL___254                                                 6
 STAT SP IPHASW D HRMM SECON CODA AMPLIT PERI AZIMU VELO AIN AR TRES W  DIS CAZ7
 BAR2 SZ IP     C 1042 14.80                             171    0.3410 21.3 184 
 BAR2 SZ ES       1042 28.87                             171   -0.1410 21.3 184 
 BAR2 SZ I        1042 30.57        51.9 0.16            169           21.3 184 
 BRR  HZ IP     D 1042 16.67                             152    0.6410 69.7 301 
 BRR  HE ES       1042 32.11                             152    0.3010 69.7 301 
 BRR  HZ I        1042 34.31        34.9 0.22            146           69.7 301 
 PAM  SZ IP     D 1042 17.58                             148    0.2010 80.4  40 
 PAM  SZ I        1042 17.86        79.5 0.20            149           80.4  40 
 PAM  SN ES       1042 34.13                             148   -0.0910 80.4  40 
 RUS  HZ IP     D 1042 18.84                             143    0.1510 99.1 174 
 RUS  HN ES       1042 36.85                             143    0.3110 99.1 174 
 RUS  HZ I        1042 38.94        33.5 0.38            141           99.1 174 
 PTB  HZ EP       1042 21.80                             131   -0.08 9  145 259 
 PTB  HN ES       1042 41.91                             131   -0.31 9  145 259 
 PTB  HZ I        1042 47.69        30.7 0.30            126            145 259 
 TAM  HZ IP     D 1042 23.20                             128    0.12 9  157 104 
 TAM  HZ I        1042 23.42        46.9 0.36            129            157 104 
 TAM  HE ES       1042 43.72                             128   -0.63 9  157 104 
 SPBC HZ EP       1042 23.76                             128    0.33 9  160 219 
 SPBC HE ES       1042 45.09                             128    0.11 9  160 219 
 SPBC HZ I        1042 52.05        36.4 0.32            125            160 219 
 ZAR  HZ EP       1042 27.75                             121    0.19 9  202 293 
 ZAR  HN ES       1042 52.39                             121    0.05 9  202 293 
 ZAR  HZ I        1042 58.05        20.8 0.46            117            202 293 
 NOR  HZ EP       1042 30.72                             117   -0.03 8  232 234 
 NOR  HE ES       1042 58.15                             117    0.14 8  232 234 
 NOR  HZ I        1043  2.57        16.2 0.42            114            232 234 
 SML  HZ EP       1042 31.37                             116   -0.68 8  244 336 
 SML  HN ES       1042 59.50                             116   -0.83 8  244 336 
 SML  HZ I        1043  7.54        25.1 0.10            113            244 336 
 CHI  HZ EP       1042 32.98                             116    0.16 8  246 195 
 CHI  HN ES       1043  0.57                             116   -1.14 8  246 195 
 CHI  HZ I        1043  5.87         8.7 0.26            114            246 195 
 HEL  HZ EP   2   1042 35.85                             113    0.55 4  269 256 
 HEL  HN ES       1043  5.42                             113   -0.68 8  269 256 
 HEL  HZ I        1043 13.38        11.7 0.62            111            269 256 
 GUY2CHZ EP       1042 39.45                             111    0.75 7  298 235 
 GUY2CHN ES       1043 12.18                             111    0.01 7  298 235 
 GUY2CHZ I        1043 21.93         9.5 0.60                           298 235 
 RREF HZ EP   2   1042 39.77                             110   -1.49 3  319 229 
 RREF HE ES       1043 16.85                             110    0.13 7  319 229 
 RREF HZ I        1043 24.30        11.2 0.32            107            319 229 
 DBB  SZ EP       1042 42.99                             108    0.31 7  337 275 
 DBB  SZ I        1043 20.49        30.8 0.66            106            337 275 
 TOL  SZ EP   2   1042 43.96                             108    0.56 3  340 225 
 TOL  SN ES       1043 20.44                             108   -0.09 7  340 225 
 PRA  HZ EP       1042 49.30                             105    0.56 6  389 209 
 PRA  HN ES       1043 29.16                             105   -0.87 6  389 209 
 PRA  HZ I        1043 36.64         7.4 0.30            104            389 209 
                                                                                
