 2017  619 1002 33.8 L   6.810 -73.194152.9  RSN  5 0.4 1.6LRSN                1
 GAP=210        0.86       5.1     5.5  7.6  0.1737E+02 -0.3698E+01  0.6519E+01E
 Epicentro: ZAPATOCA - SANTANDER                                               3
 ACTION:UPD 17-09-14 16:53 OP:jn   STATUS:               ID:20170619100233 L   I
 OLDACT:UP  17-06-19 21:56 OP:dani STATUS:               ID:20170619095741     3
 OLDACT:REG 17-06-19 19:35 OP:dani STATUS:               ID:20170619095741     3
 2017-06-19-0958-00M.COL___337                                                 6
 STAT SP IPHASW D HRMM SECON CODA AMPLIT PERI AZIMU VELO AIN AR TRES W  DIS CAZ7
 BRR  HZ EP       10 2 55.53                             155    0.1310 66.0 300 
 BRR  HN ES       10 3 12.64                             155    0.3510 66.0 300 
 BRR  HZ I        10 3 16.46         8.2 0.37            154           66.0 300 
 PTB  HZ EP       10 3  0.47                             135   -0.40 9  143 258 
 PTB  HN ES       10 3 21.71                             135   -0.31 9  143 258 
 PTB  HZ I        10 3 26.56         2.8 0.10            133            143 258 
 YPLC HZ EP       10 3  4.10                             128   -0.32 9  180 150 
 YPLC HN ES       10 3 28.08                             128   -0.27 9  180 150 
 YPLC HZ I        10 3 29.04         7.9 0.26            130            180 150 
 ZAR  HZ EP       10 3  6.67                             125    0.54 9  199 292 
 ZAR  HE ES       10 3 31.03                             125   -0.35 9  199 292 
 ZAR  HZ I        10 3 36.67         2.7 0.62            126            199 292 
 CHI  HZ EP       10 3 12.13                             119    0.30 8  248 194 
 CHI  HN ES       10 3 42.00                             119    0.47 8  248 194 
 CHI  HZ I        10 3 51.25         1.9 0.45            119            248 194 
                                                                                
