 2013  319 1054 24.0 L   5.810 -74.016 92.0  RSN  7 0.4 1.8LRSN                1
 GAP=118        1.08       3.6     3.4 11.2  0.2675E+01  0.8355E+01 -0.3035E+01E
 Epicentro: FLORIAN - SANTANDER                                                3
 ACTION:UPD 13-04-09 14:03 OP:ep   STATUS:               ID:20130319105424 L   I
 2013-03-19-1050-00M.COL___244                                                 6
 STAT SP IPHASW D HRMM SECON CODA AMPLIT PERI AZIMU VELO AIN AR TRES W  DIS CAZ7
 PTB  HZ EP       1054 41.25                             131   -0.5110 94.2 329 
 PTB  HZ IP     C 1054 41.25                             131   -0.5110 94.2 329 
 PTB  HE ES       1054 55.26                             131   -0.3210 94.2 329 
 PTB  HE I        1054 57.99        10.5 0.18            133           94.2 329 
 RUS  HZ EP       1054 43.19                             128   -0.1110  104  85 
 RUS  HE ES       1054 57.79                             128   -0.5310  104  85 
 BAR2 SZ EP       1054 45.56                             122    0.2910  126  47 
 BAR2 SZ ES       1055  2.35                             122    0.5310  126  47 
 BAR2 SZ I        1055  4.01        23.1 0.58            126            126  47 
 CHI  HN ES       1055  4.15                             120    0.4410  134 166 
 BRR  HZ EP       1054 47.03                             117   -0.17 9  147  13 
 BRR  HN ES       1055  5.75                             117    0.50 9  147  13 
 BRR  HN I        1055  9.70        10.9 0.14            120            147  13 
 HEL  HZ EP   4   1054 51.54                             114    1.04 0  173 284 
 HEL  HE ES       1055 11.63                             114    0.49 9  173 284 
 HEL  HE I        1055 16.32         4.6 0.42            116            173 284 
 ZAR  HZ EP       1054 53.84                             109   -0.27 8  208 333 
 ZAR  HN ES       1055 18.00                             109    0.45 8  208 333 
 ZAR  HN I        1055 19.01         6.7 0.34            111            208 333 
                                                                                
