 2016  719 1912 53.3 L   6.793 -73.104142.8  RSN 19 0.4 2.8LRSN                1
 GAP=122        0.77       2.5     3.0  3.6 -0.1588E+01  0.3319E+01  0.1466E+01E
 Epicentro: LOS SANTOS - SANTANDER                                             3
 ACTION:UPD 17-03-29 16:53 OP:lp   STATUS:               ID:20160719191253 L   I
 OLDACT:UP  16-07-19 22:32 OP:dnl  STATUS:               ID:20160719190759     3
 OLDACT:REG 16-07-19 20:27 OP:lv   STATUS:               ID:20160719190759     3
 2016-07-19-1907-59S.COL___343                                                 6
 STAT SP IPHASW D HRMM SECON CODA AMPLIT PERI AZIMU VELO AIN AR TRES W  DIS CAZ7
 BAR2 EZ IP     D 1913 12.51                             170   -0.0410 23.9 201 
 BAR2 EZ ES       1913 27.57                             170   -0.0310 23.9 201 
 PAM  EZ EP       1913 15.35                             151    0.3210 75.1  36 
 PAM  EN ES       1913 31.95                             151   -0.0610 75.1  36 
 PAM  EZ I        1913 34.39       195.8 0.50            155           75.1  36 
 BRR  HZ EP       1913 14.55                             150    0.2010 75.6 297 
 BRR  HN ES       1913 31.17                             150    0.3710 75.6 297 
 BRR  HZ I        1913 35.48       112.0 0.10            146           75.6 297 
 RUS  HZ EP       1913 16.49                             143   -0.1710 99.6 179 
 RUS  HN ES       1913 34.96                             143    0.0510 99.6 179 
 RUS  HZ I        1913 36.67        78.4 0.40            145           99.6 179 
 SPBC HZ EP       1913 21.46                             128   -0.30 9  166 220 
 SPBC HE ES       1913 43.42                             128   -0.58 9  166 220 
 SPBC HZ I        1913 49.12        89.6 0.26            128            166 220 
 ZAR  HZ EP       1913 25.69                             121   -0.30 8  209 292 
 ZAR  HN ES       1913 51.36                             121   -0.16 8  209 292 
 ZAR  HZ I        1913 57.52        75.4 0.22            120            209 292 
 NOR  HZ EP       1913 29.13                             117   -0.05 8  238 235 
 NOR  HN ES   4   1913 55.65                             117   -1.55 0  238 235 
 NOR  HZ I        1914  3.89        55.2 0.16            117            238 235 
 CHI  HZ EP       1913 30.97                             116    0.11 8  249 196 
 CHI  HN ES       1913 59.87                             116   -0.31 8  249 196 
 CHI  HZ I        1914  3.28        22.6 0.28            118            249 196 
 HEL  HZ EP       1913 34.09                             114    0.29 7  276 256 
 HEL  HN ES   4   1914  3.82                             114   -1.61 0  276 256 
 HEL  HZ I        1914 11.86        24.9 0.34            114            276 256 
 URE  HZ EP   4   1913 32.98                             113   -1.72 0  288 292 
 URE  HN ES   4   1914  4.69                             113   -2.33 0  288 292 
 URE  HZ I        1914 17.49        30.2 0.20            113            288 292 
 SOCV BZ EP       1913 35.54                             112   -0.25 7  298  56 
 SOCV BN ES   4   1914  6.69                             112   -2.27 0  298  56 
 GUY2CHZ EP       1913 37.37                             111    0.25 7  305 235 
 GUY2CHN ES       1914 11.59                             111    0.27 7  305 235 
 GUY2CHZ I        1914 19.13        19.8 0.36                           305 235 
 PTGC HZ EP   4   1913 35.80                             111   -0.92 0  306 159 
 PTGC HN ES   4   1914  8.64                             111   -1.98 0  306 159 
 PTGC HZ I        1914 11.39        43.3 0.32            113            306 159 
 DBB  EZ EP       1913 40.60                             109   -0.56 7  344 274 
 DBB  EZ ES   4   1914 13.91                             109   -4.60 0  344 274 
 DBB  EZ I        1914 24.86        12.4 0.44            109            344 274 
 ANIL HZ EP       1913 44.10                             108    0.83 6  360 225 
 ANIL HN ES       1914 22.87                             108    0.59 6  360 225 
 ANIL HZ I        1914 31.81        50.2 0.42            108            360 225 
 PRA  HZ EP       1913 47.17                             106    0.29 6  394 210 
 PRA  HN ES       1914 29.33                             106    0.63 6  394 210 
 PRA  HZ I        1914 34.34        20.4 0.52            107            394 210 
 PAL  HZ EP       1913 48.55                             105   -0.20 6  409 239 
 PAL  HN ES       1914 31.04                             105   -0.98 6  409 239 
 PAL  HZ I        1914 37.42        14.2 0.26            106            409 239 
 SJC  HZ EP   4   1913 47.23                             105   -1.87 0  412 326 
 SJC  HN ES   4   1914 22.75                             105   -9.90 0  412 326 
 SJC  HZ I        1914 33.08        33.1 0.42            106            412 326 
 CRJC HZ EP   4   1913 53.22                             103   -2.52 0  468   3 
 CRJC HN ES   4   1914 39.78                             103   -4.68 0  468   3 
 CRJC HZ I        1914 49.67        15.8 0.18            104            468   3 
                                                                                
