 2011  119 1948 12.5 L   6.783 -73.140141.8  RSN  5 0.4 1.7LRSN                1
 GAP=159        0.78       5.3     9.3  8.7 -0.2800E+02  0.2779E+02 -0.9130E+01E
 Epicentro: LOS SANTOS - SANTANDER                                             3
 ACTION:UP  11-02-08 08:41 OP:pat  STATUS:               ID:20110119194812 L   I
 2011-01-19-1944-02S.COL___135                                                 6
 STAT SP IPHASW D HRMM SECON CODA AMPLIT PERI AZIMU VELO SNR AR TRES W  DIS CAZ7
 BAR2 SZ EP   1   1948 31.70                             171     0.1 7   22 193 
 BAR2 SZ ES   1   1948 46.79                             171     0.3 7   22 193 
 BAR2 SZ I        1948 47.85        21.2 0.21                            22 193 
 RUS  HZ EP   1   1948 35.60                             143    -0.1 7   99 176 
 RUS  HN ES   1   1948 53.56                             143    -0.2 7   99 176 
 RUS  HZ I        1948 55.64         6.8 0.33                            99 176 
 GRA  SZ EP   1   1948 38.08                             136     0.6 7  127  17 
 GRA  SZ ES   1   1948 56.48                             136    -0.5 7  127  17 
 GRA  SZ I        1949  0.69         7.9 0.29                           127  17 
 NOR  SZ EP   2   1948 47.24                             118    -0.7 4  234 235 
 NOR  SN ES   1   1949 15.66                             118     0.1 6  234 235 
 CHI  HZ EP   2   1948 49.89                             116     0.1 4  247 195 
 CHI  HZ I        1949 21.89         3.0 0.20                           247 195 
                                                                                
