 2011  819 1438 23.6 L   6.750 -73.129138.8  RSN  7 0.4 2.0LRSN                1
 GAP=158        0.81       4.3     6.2  6.8 -0.7781E+01  0.3778E+01  0.3095E+01E
 Epicentro: LOS SANTOS - SANTANDER                                             3
 ACTION:UPD 12-07-13 15:52 OP:ep   STATUS:               ID:20110819143823 L   I
 2011-08-19-1438-00S.MAN___141                                                 6
 STAT SP IPHASW D HRMM SECON CODA AMPLIT PERI AZIMU VELO AIN AR TRES W  DIS CAZ7
 BAR2 SZ EP       1438 42.38                             172    0.0910 18.4 198 
 BAR2 SZ ES   1   1438 56.31                             172   -0.56 7 18.4 198 
 BAR2 SZ I        1438 59.92        27.8 0.41                          18.4 198 
 BRR  HZ EP   1   1438 44.30                             150    0.05 7 75.5 302 
 BRR  HN ES   1   1439  0.55                             150    0.19 7 75.5 302 
 BRR  HZ I        1439  6.43        35.7 0.19                          75.5 302 
 RUS  HZ EP   1   1438 46.21                             144   -0.05 7 95.0 177 
 RUS  HN ES   1   1439  4.72                             144    0.79 7 95.0 177 
 RUS  HZ I        1439  6.49        14.3 0.24                          95.0 177 
 BRI  SZ EP       1438 47.02                             139   -0.1710  113  19 
 BRI  SZ I        1439  7.55         9.0 0.37                           113  19 
 NOR  SN ES   1   1439 26.29                             117    0.12 6  233 236 
 CHI  HZ EP   1   1439  0.37                             116   -0.02 6  244 196 
 CHI  HN ES   1   1439 28.35                             116   -0.74 6  244 196 
 CHI  HZ I        1439 33.83         4.8 0.34                           244 196 
 RREF HZ EP   1   1439 10.02                             110    0.82 5  320 230 
 RREF HN ES   1   1439 44.18                             110   -0.58 5  320 230 
 RREF HZ I        1439 54.33         8.4 0.29                           320 230 
                                                                                
