 2015  119 1715 12.8 L   6.776 -73.147144.6  RSN  7 0.4 1.6LRSN                1
 GAP=137        0.95       4.7     5.3  7.7  0.1092E+01  0.8218E-01  0.1010E+02E
 Epicentro: LOS SANTOS - SANTANDER                                             3
 ACTION:UPD 15-03-02 15:40 OP:nd   STATUS:               ID:20150119171512 L   I
 OLDACT:REG 15-01-19 20:29 OP:spq  STATUS:               ID:20150119170750     3
 2015-01-19-1707-50M.COL___256                                                 6
 STAT SP IPHASW D HRMM SECON CODA AMPLIT PERI AZIMU VELO AIN AR TRES W  DIS CAZ7
 BAR2 EZ EP       1715 32.02                             171   -0.1910 20.7 191 
 BAR2 EZ ES   1   1715 47.34                             171   -0.04 7 20.7 191 
 BRR  HZ EP       1715 34.04                             152    0.1810 72.4 300 
 BRR  HN ES       1715 50.99                             152    0.6710 72.4 300 
 BRR  HZ I        1715 54.17         9.4 0.44            149           72.4 300 
 PAM  SZ EP       1715 35.03                             150    0.0310 79.6  38 
 PAM  SN ES   1   1715 51.67                             150   -0.67 7 79.6  38 
 PAM  SZ I        1715 54.16         9.0 0.52            155           79.6  38 
 RUS  HZ EP   1   1715 36.21                             144   -0.01 7 97.9 176 
 RUS  HE ES   1   1715 54.71                             144    0.20 7 97.9 176 
 RUS  HZ I        1715 56.31         3.1 0.44            146           97.9 176 
 PTB  HN ES   1   1715 59.78                             132   -0.72 7  147 260 
 PTB  HZ I        1716  7.03         5.1 0.18            130            147 260 
 ZAR  HE ES   1   1716 10.08                             122   -0.47 6  205 293 
 ZAR  HZ I        1716 17.14         4.1 0.26            122            205 293 
 CHI  HZ EP       1715 50.68                             117    0.56 8  246 195 
 CHI  HE ES   1   1716 18.67                             117   -0.58 6  246 195 
 CHI  HZ I        1716 23.10         3.3 0.60            118            246 195 
                                                                                
