 2017 1019 1930 31.7 L   6.767 -73.107138.6  RSN  5 0.3 1.5LRSN                1
 GAP=143        0.85       4.3     4.7  7.1  0.3641E+01  0.2753E+01  0.4965E+00E
 Epicentro: LOS SANTOS - SANTANDER                                             3
 ACTION:UPD 17-11-07 19:33 OP:rebc STATUS:               ID:20171019193031 L   I
 OLDACT:REG 17-10-19 20:33 OP:edw  STATUS:               ID:20171019192744     3
 2017-10-19-1928-00M.COL___459                                                 6
 STAT SP IPHASW D HRMM SECON CODA AMPLIT PERI AZIMU VELO AIN AR TRES W  DIS CAZ7
 BAR2 EZ EP       1930 50.40                             171   -0.0710 21.0 203 
 BAR2 EZ ES       1931  4.97                             171   -0.1110 21.0 203 
 BAR2 EZ I        1931  6.39        11.3 0.20            172           21.0 203 
 BRR  HN ES       1931  9.22                             149    0.6010 76.7 299 
 PAM  EZ EP       1930 53.42                             149    0.1910 77.7  35 
 PAM  EN ES       1931  9.70                             149   -0.2810 77.7  35 
 PAM  EZ I        1931 12.31         7.8 0.44            150           77.7  35 
 RUS  HZ EP       1930 54.75                             143    0.2410 96.7 178 
 RUS  HN ES       1931 12.09                             143   -0.1810 96.7 178 
 RUS  HZ I        1931 13.87         4.2 0.40            145           96.7 178 
 ZAR  HN ES       1931 29.15                             120   -0.54 8  209 293 
                                                                                
