 2016  819 1228 48.1 L   6.692 -73.126142.1  RSN  4 0.2 1.4LRSN                1
 GAP=232        0.35       5.2     4.6  3.6  0.1305E+02  0.1199E+01  0.4316E+00E
 Epicentro: JORDAN - SANTANDER                                                 3
 ACTION:UPD 16-10-29 15:37 OP:rebc STATUS:               ID:20160819122848 L   I
 OLDACT:REG 16-08-19 20:29 OP:dnl  STATUS:               ID:20160819122731     3
 2016-08-19-1228-00M.COL___368                                                 6
 STAT SP IPHASW D HRMM SECON CODA AMPLIT PERI AZIMU VELO AIN AR TRES W  DIS CAZ7
 BAR2 EZ EP       1229  7.19                             175    0.0610 12.7 209 
 BAR2 EZ ES       1229 21.84                             175   -0.1210 12.7 209 
 BAR2 EZ I        1229 23.00         7.7 0.20                          12.7 209 
 BRR  HZ EP       1229  9.27                             149   -0.0910 79.3 305 
 BRR  HN ES       1229 26.03                             149    0.1110 79.3 305 
 BRR  HZ I        1229 30.02         4.6 0.06                          79.3 305 
 RUS  HZ EP   3   1229 10.85                             146    0.19 2 88.6 177 
 RUS  HE ES   3   1229 28.75                             146    0.51 2 88.6 177 
 RUS  HZ I        1229 32.90         2.9 0.34                          88.6 177 
 PTB  HZ EP   2   1229 15.00                             131    0.19 5  148 264 
 PTB  HE ES   2   1229 35.46                             131   -0.18 5  148 264 
 PTB  HZ I        1229 37.21         5.2 0.18                           148 264 
                                                                                
