 2011  719 1355 12.2 L   6.759 -72.963122.7  RSN  4 0.3 1.5LRSN                1
 GAP=178        0.58       3.2     7.2  7.9 -0.2299E+01 -0.2512E+02 -0.6373E+00E
 Epicentro: CEPITA - SANTANDER                                                 3
 ACTION:UPD 12-07-25 14:02 OP:epov STATUS:               ID:20110719135512 L   I
 2011-07-19-1352-58S.COL___142                                                 6
 STAT SP IPHASW D HRMM SECON CODA AMPLIT PERI AZIMU VELO AIN AR TRES W  DIS CAZ7
 BAR2 SZ EP   1   1355 29.26                             165   -0.05 7 30.4 233 
 BAR2 SZ ES   1   1355 43.06                             165    0.44 7 30.4 233 
 BAR2 SZ I        1355 46.51        11.6 0.24                          30.4 233 
 BRR  HN ES   1   1355 47.97                             141   -0.13 7 91.3 295 
 BRR  HZ I        1355 48.31        16.6 0.40                          91.3 295 
 RUS  HZ EP   1   1355 33.47                             140   -0.03 7 96.7 188 
 RUS  HZ I        1355 34.08         3.1 0.10                          96.7 188 
 RUS  HN ES   1   1355 49.81                             140   -0.26 7 96.7 188 
 BRI  SZ EP   1   1355 34.30                             136    0.35 7  108  10 
 BRI  SZ ES   1   1355 50.56                             136   -0.32 7  108  10 
 BRI  SZ I        1355 57.79         5.5 0.41                           108  10 
                                                                                
