 2016 1019 1814 17.4 L   6.756 -73.086  4.3  RSN  6 0.5 1.4LRSN                1
 GAP=146        1.35       2.7     3.5  6.9 -0.1813E+01  0.5044E+01  0.1483E+01E
 Epicentro: LOS SANTOS - SANTANDER                                             3
 ACTION:UPD 16-11-09 19:21 OP:rebc STATUS:               ID:20161019181417 L   I
 OLDACT:REG 16-10-19 22:22 OP:ar   STATUS:               ID:20161019180745     3
 2016-10-19-1808-00M.COL___341                                                 6
 STAT SP IPHASW D HRMM SECON CODA AMPLIT PERI AZIMU VELO AIN AR TRES W  DIS CAZ7
 BAR2 EZ IP     C 1814 20.87                              47   -0.5110 21.0 211 
 BAR2 EZ ES       1814 23.67                              47   -0.8510 21.0 211 
 BAR2 EZ I        1814 24.40        89.0 0.26             95           21.0 211 
 PAM  EZ EP       1814 30.39                              47    0.2010 77.4  33 
 PAM  EE ES       1814 39.99                              47   -0.2010 77.4  33 
 PAM  EZ I        1814 40.61        20.9 0.16             47           77.4  33 
 BRR  HZ EP       1814 30.06                              47    0.0810 79.4 299 
 BRR  HN ES       1814 39.35                              47   -0.4810 79.4 299 
 BRR  HZ I        1814 39.82        17.3 0.34             47           79.4 299 
 RUS  HZ EP       1814 33.59                              47    0.6610 95.4 180 
 RUS  HE ES       1814 45.22                              47    0.1610 95.4 180 
 RUS  HZ I        1814 47.04         4.1 0.22             47           95.4 180 
 PTB  HZ EP       1814 41.38                              47    0.16 9  153 261 
 PTB  HN ES       1815  0.77                              47    0.94 9  153 261 
 PTB  HZ I        1815  1.83         3.5 0.32             47            153 261 
 SPBC HZ EP   9   1814 46.45                              47    3.59 0  164 222 
 SPBC HE ES       1815  5.79                                   -0.55 9  164 222 
 SPBC HZ I        1815  8.72         6.7 0.10             47            164 222 
                                                                                
