 2012  819 1822 55.3 L   6.660 -73.624105.9  RSN  4 0.1 1.4LRSN                1
 GAP=117        0.35       2.6     2.2  4.6  0.1913E+01  0.9364E-01  0.3074E+01E
 Epicentro: EL CARMEN DE CHUCURI - SANTANDER                                   3
 ACTION:UPD 12-09-10 11:57 OP:ep   STATUS:               ID:20120819182255 L   I
 2012-08-19-1820-00M.COL___217                                                 6
 STAT SP IPHASW D HRMM SECON CODA AMPLIT PERI AZIMU VELO AIN AR TRES W  DIS CAZ7
 BAR2 SZ EP       1823 11.08                             153   -0.1610 49.4  99 
 BAR2 SZ I        1823 11.46        10.4 0.11                          49.4  99 
 BRR  HZ EP       1823 11.04                             152    0.0910 50.4 349 
 BRR  HZ I        1823 19.71        10.0 0.31                          50.4 349 
 BRR  HE ES   1   1823 23.20                             152    0.03 7 50.4 349 
 PTB  HZ EP       1823 14.13                             135    0.0610 93.1 262 
 PTB  HN ES   1   1823 28.61                             135   -0.11 7 93.1 262 
 RUS  HZ EP   1   1823 15.67                             132    0.00 7  104 145 
 RUS  HN ES   1   1823 31.67                             132    0.11 7  104 145 
 RUS  HZ I        1823 33.34         4.2 0.38                           104 145 
                                                                                
