 2012  219 1103 16.3 L   6.744 -73.175152.5  RSN  5 0.3 1.5LRSN                1
 GAP=135        0.54       4.8     4.6  7.2  0.5309E+01 -0.8461E+01 -0.6542E+01E
 ACTION:UP  12-03-07 16:32 OP:epov STATUS:               ID:20120219110316 L   I
 2012-02-19-1100-00M.COL___188                                                 6
 STAT SP IPHASW D HRMM SECON CODA AMPLIT PERI AZIMU VELO AIN AR TRES W  DIS CAZ7
 BAR2 SZ EP   1   11 3 36.44                             173   -0.14 7 16.8 183 
 BAR2 SZ I        11 3 53.13         6.0 0.31                          16.8 183 
 BRR  HZ EP   1   11 3 38.21                             153    0.05 7 71.7 304 
 BRR  HZ I        11 3 38.59        10.8 0.13                          71.7 304 
 BRR  HN ES   1   11 3 55.55                             153    0.31 7 71.7 304 
 PAM  SZ EP   1   11 3 39.30                             150   -0.29 7 84.2  39 
 RUS  HZ EP   1   11 3 40.69                             147    0.42 7 94.7 174 
 RUS  HN ES   1   11 3 58.86                             147   -0.13 7 94.7 174 
 RUS  HZ I        11 3 59.87         2.4 0.49                          94.7 174 
 PTB  HZ EP   1   11 3 43.47                             134    0.07 7  144 261 
 PTB  HN ES   1   11 4  4.27                             134   -0.31 7  144 261 
                                                                                
