 2016  219 1957 44.5 L   6.890 -73.306126.0  RSN 25 0.5 2.8LRSN                1
 GAP= 97        1.10       2.5     2.9  4.5 -0.1782E+01  0.3770E+01 -0.3166E+00E
 Epicentro: BETULIA - SANTANDER                                                3
 ACTION:UPD 16-03-04 21:27 OP:rebc STATUS:               ID:20160219195744 L   I
 OLDACT:REG 16-02-19 20:21 OP:ak   STATUS:               ID:20160219195250     3
 2016-02-19-1952-50M.COL___322                                                 6
 STAT SP IPHASW D HRMM SECON CODA AMPLIT PERI AZIMU VELO AIN AR TRES W  DIS CAZ7
 BAR2 EZ IP     D 1958  2.49                             163    0.3910 35.7 157 
 BAR2 EZ ES       1958 15.39                             163   -0.4510 35.7 157 
 BRR  HZ IP     C 1958  2.85                             157    0.4710 50.9 298 
 BRR  HN ES       1958 16.51                             157    0.1710 50.9 298 
 BRR  HZ I        1958 18.17       184.8 0.16            156           50.9 298 
 PAM  EZ EP       1958  5.64                             145    0.6010 83.4  53 
 PAM  EN ES       1958 21.88                             145    0.8010 83.4  53 
 PAM  EZ I        1958 24.26       122.4 0.20            147           83.4  53 
 RUS  HZ EP       1958  7.38                             136    0.0110  113 167 
 RUS  HN ES       1958 24.36                             136   -0.8610  113 167 
 RUS  HZ I        1958 26.14        55.5 0.24            135            113 167 
 PTB  HZ IP     C 1958  7.75                             130   -0.7510  133 253 
 PTB  HE ES       1958 27.42                             130    0.1810  133 253 
 PTB  HZ I        1958 29.58       157.6 0.40            129            133 253 
 OCA  HZ EP       1958 10.12                             127   -0.11 9  149 359 
 OCA  HN ES       1958 30.17                             127   -0.14 9  149 359 
 OCA  HZ I        1958 36.21       242.6 0.20            128            149 359 
 SPBC HZ EP       1958 11.23                             125   -0.09 9  161 212 
 SPBC HN ES       1958 31.87                             125   -0.39 9  161 212 
 SPBC HZ I        1958 37.64        82.1 0.18            124            161 212 
 ZAR  HZ EP       1958 14.09                             121    0.52 9  184 291 
 ZAR  HN ES       1958 36.88                             121    0.63 9  184 291 
 ZAR  HZ I        1958 39.39        97.3 0.15            120            184 291 
 NOR  HZ EP       1958 17.81                             115   -0.46 8  227 230 
 NOR  HN ES       1958 44.23                             115   -0.39 8  227 230 
 NOR  HZ I        1958 53.49        39.8 0.20            114            227 230 
 ROSC BZ EP   2   1958 21.83                             112    0.20 4  253 206 
 ROSC BN ES   4   1958 52.99                             112    2.39 0  253 206 
 ROSC BZ I        1958 59.44        19.5 0.30            112            253 206 
 CHI  HZ EP       1958 22.04                             112    0.23 8  254 191 
 CHI  HN ES       1958 50.85                             112   -0.08 8  254 191 
 CHI  HZ I        1958 58.43        14.8 0.26            112            254 191 
 HEL  HZ EP   4   1958 22.89                             112    0.76 0  258 253 
 HEL  HN ES   1   1958 51.57                             112    0.07 6  258 253 
 HEL  HZ I        1958 56.52        30.7 0.22            112            258 253 
 URE  HZ EP       1958 21.73                             111   -0.63 8  264 291 
 URE  HN ES   1   1958 51.01                             111   -0.89 6  264 291 
 URE  HZ I        1958 52.63        58.8 0.25            111            264 291 
 GUY2CHZ EP       1958 27.15                             109    0.84 7  293 231 
 GUY2CHN ES   2   1958 59.05                             109    0.11 4  293 231 
 GUY2CHZ I        1959  6.12        39.6 0.40                           293 231 
 SOCV BZ EP       1958 27.75                             107   -0.09 7  311  60 
 SOCV BN ES   4   1958 59.87                             107   -1.80 0  311  60 
 CRECREN ES   4   1959  1.15                             108   -1.71 0  311 227 
 CBOC HZ EP       1958 29.91                             107    0.83 7  320 249 
 CBOC HN ES       1959  3.37                             107   -0.49 7  320 249 
 CBOC HZ I        1959  7.10        20.6 0.26            107            320 249 
 DBB  SZ EP       1958 29.44                             107    0.36 7  321 273 
 DBB  SZ ES       1959  3.22                             107   -0.66 7  321 273 
 DBB  SZ I        1959  8.35        93.4 0.26            107            321 273 
 ELA  HZ EP   4   1958 31.89                             107    2.07 0  323 226 
 ELA  HE ES       1959  4.87                             107   -0.32 7  323 226 
 ELA  HZ I        1959 15.29        21.3 0.28            107            323 226 
 MON  HZ EP       1958 29.59                             106   -0.83 7  334 309 
 MON  HN ES   4   1959  4.47                             106   -1.79 0  334 309 
 MON  HZ I        1959  7.94        21.9 0.21            106            334 309 
 ANIL HZ EP   4   1958 34.27                             105    1.24 0  353 221 
 ANIL HN ES   1   1959 11.30                             105    0.39 5  353 221 
 ANIL HZ I        1959 20.05        36.3 0.72            105            353 221 
 SDV  BZ EP       1958 34.46                             104   -0.29 6  368  53 
 SDV  BN ES   4   1959 11.60                             104   -2.35 0  368  53 
 SJC  HZ EP   1   1958 36.74                             103   -0.58 4  391 328 
 SJC  HN ES   4   1959 16.62                             103   -1.92 0  391 328 
 SJC  HZ I        1959 21.54        12.5 0.30            103            391 328 
 ORTC HZ EP   1   1958 38.21                             103    0.64 4  394 213 
 ORTC HE ES       1959 19.56                             103    0.58 6  394 213 
 ORTC HZ I        1959 30.69         9.3 0.22            103            394 213 
 PAL  HZ EP       1958 38.35                             103    0.45 6  396 236 
 PAL  HE ES       1959 20.35                             103    0.78 6  396 236 
 PAL  HZ I        1959 21.73        16.1 0.22            103            396 236 
 CRJC HZ EP       1958 44.98                             100   -0.48 5  459   6 
 CRJC HN ES       1959 32.05                             100   -0.98 5  459   6 
 CRJC HZ I        1959 40.17        18.1 0.27            101            459   6 
                                                                                
