 2017  119 1430 29.4 L   6.807 -73.175147.3  RSN  5 0.4 1.5LRSN                1
 GAP=133        1.11       6.0     5.7  8.1 -0.3287E+01  0.5403E+01  0.2339E+01E
 Epicentro: LOS SANTOS - SANTANDER                                             3
 ACTION:UPD 17-05-22 16:01 OP:jn   STATUS:               ID:20170119143029 L   I
 OLDACT:REG 17-01-19 21:56 OP:cog  STATUS:               ID:20170119142131     3
 2017-01-19-1428-00M.COL___331                                                 6
 STAT SP IPHASW D HRMM SECON CODA AMPLIT PERI AZIMU VELO AIN AR TRES W  DIS CAZ7
 BAR2 EZ EP       1430 49.32                             170    0.0710 23.8 182 
 BAR2 EZ ES       1431  4.44                             170   -0.2810 23.8 182 
 BAR2 EZ I        1431  6.10         8.8 0.15            171           23.8 182 
 BRR  HZ EP       1430 51.04                             154    0.4710 68.0 299 
 BRR  HN ES       1431  7.81                             154    0.7510 68.0 299 
 BRR  HZ I        1431 12.05         6.3 0.21            153           68.0 299 
 PAM  EZ EP       1430 51.81                             151   -0.0910 78.9  42 
 PAM  EE ES       1431  8.97                             151   -0.4610 78.9  42 
 PAM  EZ I        1431 10.80         6.8 0.44            154           78.9  42 
 RUS  HZ EP       1430 53.77                             144    0.3610  102 174 
 RUS  HN ES       1431 12.22                             144    0.1110  102 174 
 RUS  HZ I        1431 14.10         2.9 0.28            147            102 174 
 PTB  HZ EP       1430 55.72                             133   -0.53 9  145 258 
 PTB  HN ES       1431 16.65                             133   -0.53 9  145 258 
 PTB  HZ I        1431 20.16         3.9 0.20            134            145 258 
                                                                                
