 2016  919 1317 21.0 L   6.813 -73.099148.7  RSN 21 0.4 2.7LRSN                1
 GAP=122        0.95       2.5     3.0  4.1 -0.2474E+01  0.1193E+01  0.7924E+00E
 Epicentro: LOS SANTOS - SANTANDER                                             3
 ACTION:UPD 17-08-17 21:14 OP:lp   STATUS:               ID:20160919131721 L   I
 OLDACT:UP  16-09-19 23:54 OP:edw  STATUS:               ID:20160919130738     3
 OLDACT:UP  16-09-19 23:53 OP:edw  STATUS:               ID:20160919130738     3
 OLDACT:UP  16-09-19 23:49 OP:edw  STATUS:               ID:20160919130738     3
 OLDACT:REG 16-09-19 20:49 OP:edw  STATUS:               ID:20160919130738     3
 2016-09-19-1308-00M.COL___360                                                 6
 STAT SP IPHASW D HRMM SECON CODA AMPLIT PERI AZIMU VELO AIN AR TRES W  DIS CAZ7
 BAR2 EZ IP     D 1317 41.22                             170    0.1410 26.0 201 
 BAR2 EZ ES       1317 56.60                             170   -0.1210 26.0 201 
 BAR2 EZ I        1317 58.29       118.3 0.30            168           26.0 201 
 PAM  EZ EP       1317 44.13                             153    0.8110 73.1  37 
 PAM  EN ES       1318  0.95                             153    0.2410 73.1  37 
 PAM  EZ I        1318  3.36       123.9 0.50            155           73.1  37 
 BRR  HZ EP       1317 43.03                             152    0.3010 75.1 296 
 BRR  HN ES       1318  0.18                             152    0.5310 75.1 296 
 BRR  HZ I        1318  4.17        74.1 0.14            150           75.1 296 
 RUS  HZ EP       1317 45.15                             144   -0.0110  102 179 
 RUS  HN ES       1318  3.98                             144   -0.0010  102 179 
 RUS  HZ I        1318  5.07        83.1 0.32            145            102 179 
 PTB  HZ EP   9   1317 47.72                             132   -1.01 0  153 259 
 PTB  HN ES       1318  9.11                             131   -0.21 9  153 259 
 PTB  HZ I        1318 11.59        38.5 0.18            131            153 259 
 OCA  HZ EP       1317 49.48                             130   -0.04 9  160 351 
 OCA  HN ES       1318 11.29                             130   -0.44 9  160 351 
 OCA  HZ I        1318 15.83        92.9 0.38            131            160 351 
 SPBC HZ EP       1317 50.04                             129   -0.13 9  168 220 
 SPBC HN ES       1318 12.22                             129   -0.68 9  168 220 
 SPBC HZ I        1318 13.92        95.4 0.16            129            168 220 
 ZAR  HZ EP       1317 53.67                             122   -0.44 8  208 291 
 ZAR  HN ES       1318 19.45                             122   -0.46 8  208 291 
 ZAR  HZ I        1318 21.67        24.1 0.18            122            208 291 
 NOR  HZ EP       1317 57.26                             119   -0.21 8  240 235 
 NOR  HN ES       1318 25.74                             119   -0.15 8  240 235 
 NOR  HZ I        1318 30.83        51.9 0.18            119            240 235 
 CHI  HZ EP       1317 59.39                             117    0.19 8  251 196 
 CHI  HN ES       1318 28.40                             117   -0.56 8  251 196 
 CHI  HZ I        1318 32.13        21.1 0.31            118            251 196 
 ROSC BZ EP   4   1318  1.39                             117    1.65 0  257 212 
 ROSC BN ES   4   1318 31.59                             117    1.66 0  257 212 
 HEL  HZ EP       1318  2.29                             115    0.30 7  277 256 
 HEL  HN ES   4   1318 32.81                             115   -1.12 0  277 256 
 HEL  HZ I        1318 40.01        28.2 0.36            115            277 256 
 SOCV BZ EP       1318  3.96                             113    0.31 7  296  57 
 SOCV BN ES       1318 36.04                             113   -0.85 7  296  57 
 VIL  EZ EP       1318  4.88                             112    0.02 7  306 192 
 VIL  EN ES       1318 38.93                             112   -0.12 7  306 192 
 VIL  EZ I        1318 41.59        29.7 0.46            113            306 192 
 GUY2CHZ EP   4   1318  6.86                             112    1.51 0  306 235 
 GUY2CHN ES       1318 40.74                             112    0.83 7  306 235 
 GUY2CHZ I        1318 46.43        25.5 0.28                           306 235 
 LL6C HZ EP       1318  6.50                             111   -0.24 7  324 357 
 LL6C HN ES   4   1318 40.41                             111   -1.97 0  324 357 
 LL6C HZ I        1318 44.36         9.6 0.40            112            324 357 
 ELA  HZ EP   4   1318 10.89                             110    2.33 0  334 230 
 ELA  HN ES   4   1318 47.65                             110    2.02 0  334 230 
 ELA  HZ I        1318 53.45        14.5 0.34            111            334 230 
 CBOC HZ EP       1318  9.24                             110    0.56 7  339 252 
 CBOC HN ES       1318 45.21                             110   -0.64 7  339 252 
 CBOC HZ I        1318 54.50         6.9 0.40            110            339 252 
 ANIL HZ EP   4   1318 12.64                             109    1.15 0  362 225 
 ANIL HN ES   4   1318 51.82                             109    0.98 0  362 225 
 ANIL HZ I        1318 58.07        54.8 0.36            109            362 225 
 SJC  HZ EP   4   1318 15.47                             106   -1.42 0  411 326 
 SJC  HN ES   4   1318 55.66                             106   -4.80 0  411 326 
 SJC  HN I        1319  2.26        24.2 0.36            106            411 326 
 PAL  HZ EP       1318 16.99                             106    0.09 6  411 239 
 PAL  HN ES       1319  1.01                             106    0.54 6  411 239 
 PAL  HZ I        1319  2.79         8.2 0.20            106            411 239 
 CRJC HZ EP   9   1318 21.60                             104   -1.82 0  466   3 
 CRJC HN ES       1319  9.57                             104   -0.69 5  466   3 
 CRJC HZ I        1319 12.42        11.4 0.14            104            466   3 
                                                                                
