 2016  419 1911 54.4 L   5.971 -73.392161.8  RSN  7 0.4 1.9LRSN                1
 GAP=145        0.93       7.1     4.0  6.8 -0.7432E+01  0.1045E+02  0.9751E+01E
 Epicentro: GAMBITA - SANTANDER                                                3
 ACTION:UPD 16-05-05 14:22 OP:rebc STATUS:               ID:20160419190750 L   I
 OLDACT:ARG 16-04-25 20:21 OP:Mher STATUS:               ID:20160419190750 L   3
 2016-04-19-1907-50M.COL___276                                                 6
 STAT SP IPHASW D HRMM SECON CODA AMPLIT PERI AZIMU VELO AIN AR TRES W  DIS CAZ7
 RUS  HZ EP       1912 16.21                             167   -0.3610 35.2 104 
 RUS  HN ES       1912 33.78                             167   -0.1010 35.2 104 
 RUS  HZ I        1912 35.31        11.3 0.16            171           35.2 104 
 BAR2 EZ EP       1912 18.10                             155    0.4210 72.5  19 
 BAR2 EZ ES       1912 35.89                             155    0.0310 72.5  19 
 BAR2 EZ I        1912 39.10         8.6 0.41            155           72.5  19 
 PTB  HZ EP       1912 21.28                             138   -0.2210  134 298 
 PTB  HN ES       1912 43.01                             138    0.3510  134 298 
 PTB  HZ I        1912 46.06         8.5 0.22            139            134 298 
 NOR  HZ EP       1912 24.80                             131    0.12 9  170 255 
 NOR  HN ES       1912 47.88                             131   -0.45 9  170 255 
 NOR  HZ I        1912 51.58        12.7 0.75            133            170 255 
 GUY2CHZ EP       1912 31.75                             122    0.23 8  234 249 
 GUY2CHN ES       1913  1.47                             122    0.97 8  234 249 
 GUY2CHZ I        1913  4.67         4.6 0.30                           234 249 
 HEL  HZ EP       1912 31.96                             121    0.15 8  238 276 
 HEL  HN ES       1913  0.52                             121   -0.50 8  238 276 
 HEL  HZ I        1913  3.24         6.4 0.26            123            238 276 
 CBOC HZ EP       1912 36.84                             116   -0.34 7  290 268 
 CBOC HN ES       1913 10.17                             116   -0.41 7  290 268 
 CBOC HZ I        1913 12.54         3.2 0.68            118            290 268 
                                                                                
