 2015 1219 1408 20.2 L   6.549 -73.119173.8  RSN  5 0.4 2.0LRSN                1
 GAP=224        1.03       8.8     8.0  7.5  0.4238E+02  0.6856E+01 -0.5893E+01E
 Epicentro: SAN GIL - SANTANDER                                                3
 ACTION:UPD 16-02-04 15:06 OP:cam  STATUS:               ID:20151219140820 L   I
 OLDACT:DUP 15-12-20 01:12 OP:ar   STATUS:               ID:20151219135748d    3
 2015-12-19-1357-47M.COL___328                                                 6
 STAT SP IPHASW D HRMM SECON CODA AMPLIT PERI AZIMU VELO AIN AR TRES W  DIS CAZ7
 BAR2 EZ EP       14 8 42.54                             177   -0.4910 8.51 304 
 BAR2 EZ ES       14 9  0.30                             177   -0.5410 8.51 304 
 BAR2 EZ I        14 9  2.35         7.4 0.38            173           8.51 304 
 RUS  HZ EP       14 8 45.32                             157    0.1010 72.7 177 
 RUS  HN ES       14 9  5.30                             157    0.5610 72.7 177 
 RUS  HZ I        14 9  6.02        16.2 0.28            163           72.7 177 
 BRR  HZ EP       14 8 45.45                             151    0.0110 90.1 313 
 BRR  HN ES       14 9  5.63                             151    0.5010 90.1 313 
 BRR  HZ I        14 9 11.39        12.9 0.46            150           90.1 313 
 PTB  HZ EP       14 8 49.35                             138   -0.24 9  148 270 
 PTB  HN ES       14 9 12.11                             138   -0.40 9  148 270 
 PTB  HZ I        14 9 13.29        10.4 0.12            139            148 270 
 ZAR  HZ EP       14 8 56.54                             126    0.51 8  219 299 
 ZAR  HN ES       14 9 24.07                             126    0.08 8  219 299 
 ZAR  HZ I        14 9 30.67         9.7 0.30            127            219 299 
                                                                                
