 2010  919 1705 28.2 L   6.802 -73.161140.8  RSN  5 0.3 1.5LRSN                1
 GAP=157        0.99       5.6    12.4 13.1 -0.5967E+01 -0.6853E+02 -0.1218E+02E
 Epicentro: LOS SANTOS - SANTANDER                                             3
 ACTION:UP  11-02-18 11:04 OP:tino STATUS:               ID:20100919170528 L   I
 2010-09-19-1701-30S.COL___121                                                 6
 STAT SP IPHASW D HRMM SECON CODA AMPLIT PERI AZIMU VELO SNR AR TRES W  DIS CAZ7
 BTL  SZ EP       17 5 47.78                             173     0.610   17 318 
 BRR  HZ EP   1   17 5 48.92                             152     0.2 7   70 299 
 BRR  HN ES   1   17 6  4.41                             152    -0.3 7   70 299 
 BRR  HZ I        17 6  7.54        10.6 0.19                            70 299 
 RUS  HZ EP   1   17 5 51.28                             143    -0.2 7  101 175 
 RUS  HE ES   1   17 6  9.50                             143    -0.2 7  101 175 
 RUS  HZ I        17 6 10.91         3.4 0.36                           101 175 
 GUE  SZ EP       17 5 52.05                             138    -0.410  117  13 
 GUE  SZ I        17 5 55.07         3.0 0.13                           117  13 
 GRA  SZ IP       17 5 52.98                             136    -0.110  126  18 
 GRA  SZ ES   1   17 6 12.60                             136     0.2 7  126  18 
 GRA  SZ I        17 6 13.42         7.7 0.81                           126  18 
                                                                                
