 2017  119 1636  8.6 L   6.764 -73.177140.5  RSN  6 0.4 1.3LRSN                1
 GAP=134        0.79       5.9     3.6  6.2 -0.3879E+01  0.5144E+01  0.1831E+00E
 Epicentro: LOS SANTOS - SANTANDER                                             3
 ACTION:UPD 17-05-22 16:01 OP:jn   STATUS:               ID:20170119163608 L   I
 OLDACT:UP  17-01-19 23:12 OP:edw  STATUS:               ID:20170119162747     3
 OLDACT:REG 17-01-19 22:13 OP:cog  STATUS:               ID:20170119162747     3
 2017-01-19-1628-00M.COL___331                                                 6
 STAT SP IPHASW D HRMM SECON CODA AMPLIT PERI AZIMU VELO AIN AR TRES W  DIS CAZ7
 BAR2 EZ IP     C 1636 27.64                             172    0.1710 19.0 182 
 BAR2 EZ ES       1636 42.17                             172   -0.0510 19.0 182 
 BAR2 EZ I        1636 43.67         6.7 0.26            169           19.0 182 
 BRR  HZ EP       1636 29.50                             152    0.4210 70.2 303 
 BRR  HE ES       1636 45.56                             152    0.4710 70.2 303 
 PAM  EZ IP     C 1636 30.49                             148   -0.0510 82.6  40 
 PAM  EN ES       1636 47.32                             148   -0.3710 82.6  40 
 PAM  EZ I        1636 48.54         2.8 0.24            151           82.6  40 
 RUS  HZ EP   3   1636 30.41                             144   -1.11 2 97.0 174 
 RUS  HN ES   3   1636 50.00                             144    0.56 2 97.0 174 
 RUS  HZ I        1636 51.30         3.7 0.30            143           97.0 174 
 PTB  HZ EP       1636 34.74                             132    0.02 9  144 260 
 PTB  HN ES       1636 54.68                             132   -0.44 9  144 260 
 PTB  HZ I        1636 58.75         3.4 0.16            132            144 260 
 ZAR  HE ES       1637  5.12                             121   -0.27 9  202 294 
                                                                                
