 2017  719 1137 56.1 L   6.887 -73.176145.6  RSN 30 0.5 3.3LRSN 3.7WRSN        1
 SPEC AVERAGE  MO 14.7 ST 87.4 OM  2.7 f0 2.22 R1.6384 AL 0.00 WI 30.0 MW  3.7 3
 SPEC SD       MO  0.4 ST228.2 OM  0.5 f0 2.40 R0.6556 AL      WI      MW  0.3 3
 GAP= 62        0.97       3.0     3.1  4.6 -0.2818E+01  0.3020E+01  0.3869E-01E
 Epicentro: BETULIA - SANTANDER                                                3
 SPEC YPLCHN Z MO 15.3 ST691.2 OM  3.2 f0 8.33 R0.2310 AL 0.00 WI 30.0 MW  4.1 3
 SPEC YPLCHN Z T113848 K 0.000 GD  236 VS 5.20 DE 3.50 Q0750.0 QA 1.50 VS 3.50 3
 SPEC ZAR HH Z MO 14.4 ST  6.3 OM  2.3 f0 3.43 R0.5609 AL 0.00 WI 30.0 MW  3.5 3
 SPEC ZAR HH Z T113851 K 0.000 GD  244 VS 5.20 DE 3.50 Q0750.0 QA 1.50 VS 3.50 3
 SPEC TABCEH Z MO 14.9 ST0.404 OM  2.7 f00.969 R1.9856 AL 0.00 WI 30.0 MW  3.8 3
 SPEC TABCEH Z T113860 K 0.000 GD  278 VS 5.20 DE 3.50 Q0750.0 QA 1.50 VS 3.50 3
 SPEC ROSCBH Z MO 14.8 ST0.412 OM  2.6 f0 1.03 R1.8680 AL 0.00 WI 30.0 MW  3.8 3
 SPEC ROSCBH Z T1139 3 K 0.000 GD  297 VS 5.20 DE 3.50 Q0750.0 QA 1.50 VS 3.50 3
 SPEC HEL HH Z MO 14.7 ST0.329 OM  2.5 f0 1.02 R1.8863 AL 0.00 WI 30.0 MW  3.7 3
 SPEC HEL HH Z T1139 7 K 0.000 GD  307 VS 5.20 DE 3.50 Q0750.0 QA 1.50 VS 3.50 3
 SPECGUY2CHH Z MO 14.8 ST0.293 OM  2.6 f00.882 R2.1814 AL 0.00 WI 30.0 MW  3.8 3
 SPECGUY2CHH Z T113914 K 0.000 GD  337 VS 5.20 DE 3.50 Q0750.0 QA 1.50 Q1 0.00 3
 SPEC SJC HH Z MO 14.5 ST0.285 OM  2.2 f0 1.10 R1.7491 AL 0.00 WI 30.0 MW  3.6 3
 SPEC SJC HH Z T113929 K 0.000 GD  424 VS 5.20 DE 3.50 Q0750.0 QA 1.50 VS 3.50 3
 SPEC MACCHH Z MO 14.4 ST0.305 OM  1.9 f0 1.30 R1.4800 AL 0.00 WI 30.0 MW  3.5 3
 SPEC MACCHH Z T113952 K 0.000 GD  549 VS 5.20 DE 3.50 Q0750.0 QA 1.50 VS 3.50 3
 SPEC FLO2HH Z MO 14.4 ST0.032 OM  1.9 f00.575 R3.3461 AL 0.00 WI 30.0 MW  3.6 3
 SPEC FLO2HH Z T114024 K 0.000 GD  664 VS 5.20 DE 3.50 Q0750.0 QA 1.50 VS 3.50 3
 OLDACT:REG 17-07-19 20:49 OP:lv   STATUS:               ID:20170719112744     3
 ACTION:UPD 17-08-30 15:34 OP:rebc STATUS:               ID:20170719113756 L   I
 2017-07-19-1128-00M.COL___371                                                 6
 STAT SP IPHASW D HRMM SECON CODA AMPLIT PERI AZIMU VELO AIN AR TRES W  DIS CAZ7
 BAR2 EZ IP     D 1138 16.00                             167    0.0810 32.6 181 
 BAR2 EZ ES       1138 31.10                             167   -0.2910 32.6 181 
 BAR2 EZ I        1138 32.37       638.1 0.22            168           32.6 181 
 PAM  EZ EP       1138 18.82                             152    0.8110 72.7  46 
 PAM  EN ES       1138 35.56                             152    0.4510 72.7  46 
 RUS  HZ EP       1138 19.94                             141   -0.6210  110 175 
 RUS  HN ES   4   1138 38.46                             141   -1.18 0  110 175 
 PTB  HZ EP       1138 22.43                             132   -0.51 9  147 255 
 PTB  HN ES       1138 43.85                             132   -0.03 9  147 255 
 TAM  HZ IP     D 1138 24.52                             129    0.21 9  161 108 
 TAM  HN ES   4   1138 44.61                             129   -1.71 0  161 108 
 TAM  HZ I        1138 45.58       181.6 0.28            133            161 108 
 SPBC HZ IP       1138 24.96                             128   -0.14 9  169 216 
 SPBC HN ES       1138 47.31                             128   -0.42 9  169 216 
 YPLC HZ IP     D 1138 26.50                             125   -0.37 9  187 152 
 YPLC HN ES   4   1138 49.69                             125   -1.18 0  187 152 
 YPLC HZ I        1138 51.59       140.4 0.09            127            187 152 
 ZAR  HZ EP       1138 28.37                             123    0.52 9  197 290 
 ZAR  HN ES       1138 52.62                             123    0.00 9  197 290 
 ZAR  HZ I        1139  0.15       276.1 0.25            123            197 290 
 TABC EZ EP   9   1138 33.68                             118    1.14 0  237 209 
 TABC EZ ES       1139  1.91                                   -0.20 8  237 209 
 TABC EZ I        1139  7.73       160.0 0.12            119            237 209 
 NOR  HZ EP       1138 32.18                             118    0.05 8  238 232 
 NOR  HN ES       1138 59.99                             118   -0.26 8  238 232 
 NOR  HZ I        1139  3.21       115.5 0.10            118            238 232 
 ROSC BZ EP       1138 35.86                             116    0.94 8  259 209 
 ROSC BE ES       1139  5.29                             116    0.08 8  259 209 
 HEL  HZ EP       1138 36.69                             115    0.48 8  271 254 
 HEL  HN ES   4   1139  8.93                             115    1.42 0  271 254 
 HEL  HZ I        1139 14.95       133.2 0.39            115            271 254 
 URE  HZ EP       1138 35.65                             114   -0.77 7  277 290 
 URE  HN ES   4   1139  5.74                             114   -2.13 0  277 290 
 GUY2CHZ EP       1138 40.22                             112    0.20 7  304 233 
 GUY2CHN ES   4   1139 15.91                             112    1.62 0  304 233 
 GUY2CHZ I        1139 24.40        85.9 0.33                           304 233 
 LL6C HZ EP   9   1138 41.26                             111    0.58 0  315 358 
 LL6C HN ES       1139 16.05                                    0.01 7  315 358 
 PTGC HZ IP   4 D 1138 39.20                             111   -1.90 0  319 159 
 PTGC HN ES   4   1139 12.59                             111   -3.61 0  319 159 
 PTGC HZ I        1139 14.05       114.7 0.14            112            319 159 
 NIZA HZ EP   4   1138 46.04                             110    3.92 0  325 232 
 NIZA HN ES       1139 18.35                             110    0.32 7  325 232 
 DBB  EZ EP       1138 43.54                             110    0.43 7  336 273 
 DBB  EN ES   4   1139 18.83                             110   -0.95 0  336 273 
 ARGC HZ EP   9   1138 46.25                             109    1.68 0  349 340 
 ARGC HN ES       1139 23.38                                   -0.68 6  349 340 
 SJC  HZ EP   4   1138 49.71                             106   -0.78 0  399 327 
 SJC  HN ES   4   1139 31.12                             106   -1.80 0  399 327 
 SJC  HZ I        1139 38.96        44.6 0.13            106            399 327 
 ORTC HZ EP       1138 50.32                             106   -0.37 6  401 215 
 ORTC HN ES       1139 33.97                             106    0.70 6  401 215 
 ORTC HZ I        1139 37.04        37.0 0.32            107            401 215 
 PAL  HZ EP       1138 51.60                             106    0.10 6  408 238 
 PAL  HN ES       1139 34.28                             106   -0.43 6  408 238 
 PAL  HZ I        1139 39.06        28.5 0.48            106            408 238 
 LCBC HZ EP   4   1138 49.96                             105   -2.15 0  414 302 
 LCBC HN ES   4   1139 34.14                             105   -1.67 0  414 302 
 LCBC HZ I        1139 41.91        42.7 0.18            106            414 302 
 CRJC HZ EP       1138 56.49                             104   -0.99 5  458   4 
 CRJC HN ES       1139 45.01                             104   -0.35 5  458   4 
 CRJC HZ I        1139 47.09        39.7 0.24            104            458   4 
 YOT  HZ EP       1138 59.15                             103   -0.44 5  476 228 
 YOT  HN ES   4   1139 45.53                             103   -3.58 0  476 228 
 GUA  EZ EP   4   1138 57.44                             103   -2.98 0  484 173 
 GUA  EN ES   4   1139 46.12                             103   -4.47 0  484 173 
 GUA  EZ I        1139 50.75        36.9 0.39            103            484 173 
 SMAR HZ EP       1139  0.79                             103    0.03 4  487 346 
 SMAR HN ES   4   1139 49.34                             103   -1.85 0  487 346 
 SMAR HZ I        1139 53.87        19.9 0.28            103            487 346 
 MACC HZ EP   4   1139  3.14                             101   -2.73 0  530 188 
 MACC HN ES   4   1139 54.39                             101   -5.91 0  530 188 
 MACC HZ I        1139 59.21        19.7 0.50            102            530 188 
 URI  HZ EP       1139  6.93                             101   -1.14 4  548  14 
 URI  HN ES   4   1140  0.18                             101   -4.03 0  548  14 
 GARC HZ EP   4   1139 10.20                             100   -1.98 0  580 206 
 GARC HN ES   4   1140  5.40                             100   -6.13 0  580 206 
 GARC HZ I        1140 12.06        40.5 0.09            101            580 206 
 FLO2 HZ EP   4   1139 19.14                              99   -0.94 0  648 205 
 FLO2 HN ES   4   1140 26.49                              99    0.91 0  648 205 
                                                                                
