 2013  419 1124 39.6 L   6.788 -73.149144.2  RSN  6 0.2 1.6LRSN                1
 GAP=137        0.60       3.2     3.1  4.5 -0.1227E+01  0.9881E+00  0.3289E+01E
 Epicentro: LOS SANTOS - SANTANDER                                             3
 ACTION:UPD 13-05-22 14:39 OP:EP   STATUS:               ID:20130419112439 L   I
 2013-04-19-1118-50M.COL___214                                                 6
 STAT SP IPHASW D HRMM SECON CODA AMPLIT PERI AZIMU VELO AIN AR TRES W  DIS CAZ7
 BAR2 SZ EP       1124 59.08                             171    0.1010 21.9 190 
 GIR2 SZ EP       1124 58.88                             167   -0.2110 32.6 351 
 GIR2 SZ ES       1125 14.30                             167   -0.0210 32.6 351 
 BRR  HZ EP       1125  0.95                             152    0.3910 71.5 300 
 BRR  HN ES       1125 17.17                             152    0.2310 71.5 300 
 BRR  HN I        1125 18.19        14.5 0.22            153           71.5 300 
 PAM  SZ EP       1125  1.68                             150   -0.0110 78.7  39 
 PAM  SN ES       1125 18.78                             150   -0.1810 78.7  39 
 PAM  SN I        1125 19.65         6.4 0.44            155           78.7  39 
 RUS  HZ EP       1125  3.30                             144    0.2310 99.2 176 
 RUS  HN ES       1125 21.33                             144   -0.0710 99.2 176 
 RUS  HN I        1125 25.45         2.7 0.50            144           99.2 176 
 PTB  HZ EP       1125  5.97                             132   -0.37 9  147 259 
 PTB  HN ES       1125 27.08                             132   -0.15 9  147 259 
 PTB  HN I        1125 32.30         9.4 0.32            133            147 259 
                                                                                
