 2015  819 1646 19.4 L   6.788 -73.145130.0  RSN  6 0.4 2.0LRSN                1
 GAP=137        0.87       5.8     5.2  7.9 -0.6972E+01  0.2385E+02 -0.9615E+01E
 Epicentro: LOS SANTOS - SANTANDER                                             3
 ACTION:UPD 15-09-15 23:03 OP:cam  STATUS:               ID:20150819164619 L   I
 OLDACT:REG 15-08-19 20:51 OP:ar   STATUS:               ID:20150819163750     3
 2015-08-19-1637-50M.COL___334                                                 6
 STAT SP IPHASW D HRMM SECON CODA AMPLIT PERI AZIMU VELO AIN AR TRES W  DIS CAZ7
 BAR2 EZ EP       1646 36.58                             170   -0.5410 22.1 191 
 BAR2 EZ ES       1646 50.93                             170   -0.0010 22.1 191 
 BAR2 EZ I        1646 53.83        26.1 0.28            168           22.1 191 
 PAM  EZ EP       1646 39.68                             147   -0.3610 78.3  39 
 PAM  EN ES       1646 56.41                             147    0.2910 78.3  39 
 PAM  EZ I        1646 58.35        17.1 0.58            153           78.3  39 
 RUS  HN ES   2   1646 59.52                             141    0.71 5 99.3 176 
 RUS  HZ I        1647  0.84        17.1 0.42            145           99.3 176 
 ZAR  HZ EP       1646 51.61                             119    0.67 9  205 292 
 ZAR  HN ES       1647 15.45                             119   -0.08 9  205 292 
 ZAR  HZ I        1647 22.87        11.6 0.44            120            205 292 
 HEL  HZ EP   2   1646 59.25                             111    0.41 4  272 256 
 HEL  HN ES   2   1647 28.77                             111   -0.82 4  272 256 
 HEL  HZ I        1647 35.38         5.9 0.38            114            272 256 
 URE  HN ES   4   1647 28.25                             110   -3.09 0  284 292 
 GUY2CHZ EP   2   1647  2.24                             109   -0.02 4  300 235 
 GUY2CHN ES   2   1647 36.17                             109    0.49 4  300 235 
 GUY2CHZ I        1647 42.98         3.5 0.54                           300 235 
                                                                                
