 2017  419 1307 43.3 L   6.710 -73.200150.6  RSN  5 0.4 1.3LRSN                1
 GAP=224        0.94       7.3     6.8  7.8  0.3158E+02  0.1547E+00 -0.8418E+01E
 Epicentro: VILLANUEVA - SANTANDER                                             3
 ACTION:UPD 17-05-30 21:14 OP:jn   STATUS:               ID:20170419130743 L   I
 OLDACT:REG 17-04-19 20:48 OP:lv   STATUS:               ID:20170419125743     3
 2017-04-19-1258-00M.COL___364                                                 6
 STAT SP IPHASW D HRMM SECON CODA AMPLIT PERI AZIMU VELO AIN AR TRES W  DIS CAZ7
 BAR2 EZ EP       13 8  2.95                             175   -0.4210 13.2 172 
 BAR2 EZ ES   2   13 8 18.24                             175   -0.78 5 13.2 172 
 BRR  HZ EP       13 8  5.00                             153   -0.0110 71.6 308 
 BRR  HN ES       13 8 22.19                             153    0.2510 71.6 308 
 RUS  HZ EP       13 8  7.08                             148    0.1610 91.3 172 
 RUS  HN ES       13 8 25.73                             148    0.4010 91.3 172 
 RUS  HZ I        13 8 26.57         1.7 0.28            148           91.3 172 
 PTB  HZ EP       13 8 10.02                             135   -0.00 9  140 262 
 PTB  HN ES       13 8 30.34                             135   -0.51 9  140 262 
 PTB  HZ I        13 8 33.20         3.1 0.11            133            140 262 
 ZAR  HZ EP       13 8 15.64                             124   -0.29 9  203 295 
 ZAR  HN ES       13 8 42.04                             124    0.67 9  203 295 
 ZAR  HZ I        13 8 48.10         3.1 0.13            123            203 295 
                                                                                
