 2016  919 1055 36.1 L   6.640 -73.145145.2  RSN  4 0.2 1.4LRSN                1
 GAP=268        0.49       4.8     3.8  4.4 -0.3981E+00  0.2734E+01  0.3948E+01E
 Epicentro: VILLANUEVA - SANTANDER                                             3
 ACTION:UPD 17-08-17 21:14 OP:lp   STATUS:               ID:20160919105536 L   I
 OLDACT:UP  16-09-19 22:44 OP:edw  STATUS:               ID:20160919104743     3
 OLDACT:UP  16-09-19 22:42 OP:edw  STATUS:               ID:20160919104743     3
 OLDACT:REG 16-09-19 19:52 OP:edw  STATUS:               ID:20160919104743     3
 2016-09-19-1048-00M.COL___354                                                 6
 STAT SP IPHASW D HRMM SECON CODA AMPLIT PERI AZIMU VELO AIN AR TRES W  DIS CAZ7
 BAR2 EZ EP       1055 55.81                             177    0.3410 6.70 217 
 BAR2 EZ ES       1056 10.37                             177   -0.1910 6.70 217 
 BRR  HZ EP       1055 57.69                             149   -0.1210 81.1 310 
 BRR  HN ES       1056 14.76                             149    0.0410 81.1 310 
 PTB  HZ EP       1056  2.73                             132   -0.10 9  145 266 
 PTB  HN ES       1056 23.74                             132    0.07 9  145 266 
 PTB  HZ I        1056 24.54         3.1 0.14            132            145 266 
 SPBC HZ EP   2   1056  2.99                             131   -0.35 5  150 223 
 SPBC HN ES   2   1056 24.68                             131    0.11 5  150 223 
 SPBC HZ I        1056 28.92         3.2 0.08            129            150 223 
                                                                                
