 2013  319 1012  7.7 L   6.010 -73.728114.5  RSN  4 0.2 1.6LRSN                1
 GAP=206        0.58       5.2     3.2  6.2  0.9553E+01  0.7127E+01  0.5128E+01E
 Epicentro: BOLIVAR - SANTANDER                                                3
 ACTION:UPD 13-04-09 14:03 OP:ep   STATUS:               ID:20130319101207 L   I
 2013-03-19-1010-00M.COL___244                                                 6
 STAT SP IPHASW D HRMM SECON CODA AMPLIT PERI AZIMU VELO AIN AR TRES W  DIS CAZ7
 RUS  HZ EP       1012 26.44                             146    0.0410 72.6 100 
 RUS  HN ES   1   1012 40.81                             146   -0.15 7 72.6 100 
 RUS  HN I        1012 42.29         4.9 0.30            147           72.6 100 
 BAR2 SZ EP       1012 27.57                             140    0.3710 88.2  43 
 BAR2 SZ ES       1012 42.22                             140   -0.1610 88.2  43 
 BAR2 SZ I        1012 43.74        23.5 0.40            141           88.2  43 
 PTB  HZ EP       1012 27.52                             136   -0.2910 99.5 306 
 PTB  HE ES       1012 43.70                             136    0.2210 99.5 306 
 PTB  HE I        1012 44.22         4.8 0.38            137           99.5 306 
 ZAR  HZ EP   1   1012 38.43                             114   -0.14 6  206 323 
 ZAR  HE ES       1013  2.57                             114   -0.06 8  206 323 
 ZAR  HE I        1013  3.99         7.7 0.22            116            206 323 
                                                                                
