 2017  219 1544  0.8 L   6.753 -73.134145.4  RSN  7 0.4 1.8LRSN                1
 GAP=140        1.04       5.0     4.7  7.0  0.1937E+01  0.6922E+01  0.4459E+01E
 Epicentro: LOS SANTOS - SANTANDER                                             3
 ACTION:UPD 17-05-24 15:38 OP:jn   STATUS:               ID:20170219154400 L   I
 OLDACT:REG 17-02-19 21:17 OP:cog  STATUS:               ID:20170219153743     3
 2017-02-19-1538-00M.COL___352                                                 6
 STAT SP IPHASW D HRMM SECON CODA AMPLIT PERI AZIMU VELO AIN AR TRES W  DIS CAZ7
 BAR2 EZ EP       1544 20.15                             172   -0.1310 18.6 197 
 BAR2 EZ ES       1544 35.44                             172   -0.0510 18.6 197 
 BAR2 EZ I        1544 36.10        22.3 0.36            172           18.6 197 
 BRR  HZ EP       1544 22.48                             151    0.3810 74.9 302 
 BRR  HE ES       1544 39.21                             151    0.4810 74.9 302 
 BRR  HZ I        1544 42.43        17.8 0.30            151           74.9 302 
 PAM  EZ EP       1544 23.28                             150    0.1210 80.7  36 
 PAM  EN ES       1544 40.14                             150   -0.4710 80.7  36 
 PAM  EZ I        1544 42.41        19.0 0.46            152           80.7  36 
 RUS  HZ EP       1544 24.12                             145   -0.0010 95.3 177 
 RUS  HN ES       1544 42.69                             145    0.3610 95.3 177 
 RUS  HZ I        1544 43.46         4.2 0.36            148           95.3 177 
 PTB  HZ EP       1544 27.16                             132   -0.59 9  148 261 
 PTB  HN ES       1544 47.97                             132   -0.81 9  148 261 
 PTB  HZ I        1544 53.08         7.2 0.34            133            148 261 
 ZAR  HE ES       1544 59.62                             122    0.54 8  207 293 
 PRA  HZ EP       1544 54.18                             107    0.35 6  388 210 
 PRA  HE ES   3   1545 36.02                             107    0.80 1  388 210 
                                                                                
