 2012  419 1936 45.5 L   6.748 -73.133141.2  RSN  6 0.3 1.8LRSN                1
 GAP=141        0.89       5.5     4.8  6.8  0.1873E+01  0.4653E+01 -0.8316E+00E
 Epicentro: LOS SANTOS - SANTANDER                                             3
 ACTION:UPD 12-07-05 11:54 OP:tino STATUS:               ID:20120419193645 L   I
 2012-04-19-1930-00M.COL___186                                                 6
 STAT SP IPHASW D HRMM SECON CODA AMPLIT PERI AZIMU VELO AIN AR TRES W  DIS CAZ7
 BAR2 SZ EP       1937  4.70                             173     0.210   18 198 
 BAR2 SZ ES       1937 19.31                             173     0.010   18 198 
 BAR2 SZ I        1937 21.79        10.1 0.32                            18 198 
 BRR  HZ EP       1937  6.75                             150     0.310   75 302 
 BRR  HN ES       1937 23.12                             150     0.410   75 302 
 BRR  HZ I        1937 24.67        19.5 0.53                            75 302 
 PAM  SZ EP       1937  7.48                             149     0.010   81  36 
 PAM  SE ES   1   1937 24.05                             149    -0.6 7   81  36 
 RUS  HZ EP   1   1937  8.72                             145     0.3 7   95 177 
 RUS  HE ES   1   1937 26.16                             145    -0.1 7   95 177 
 PTB  HZ EP       1937 11.61                             131    -0.6 9  148 261 
 PTB  HE ES   1   1937 32.45                             131    -0.5 7  148 261 
 ZAR  HN ES   1   1937 43.55                             121     0.1 6  208 293 
 ZAR  HZ I        1937 46.09         4.3 0.13                           208 293 
                                                                                
