 2012  319 1803 32.1 L   6.793 -73.203143.4  RSN  5 0.5 1.4LRSN                1
 GAP=130        1.24       8.8     8.3 12.1 -0.6639E+01  0.1194E+02  0.4998E+01E
 ACTION:UP  12-03-31 23:21 OP:EP   STATUS:               ID:20120319180332 L   I
 2012-03-19-1800-00M.COL___202                                                 6
 STAT SP IPHASW D HRMM SECON CODA AMPLIT PERI AZIMU VELO SNR AR TRES W  DIS CAZ7
 BAR2 SZ EP   1   18 3 51.33                             171    -0.1 7   22 174 
 BAR2 SZ ES   1   18 4  6.75                             171     0.2 7   22 174 
 BAR2 SZ I        18 4  7.59         6.4 0.19                            22 174 
 BRR  HZ EP   1   18 3 53.26                             154     0.5 7   66 302 
 BRR  HZ I        18 3 53.55         9.8 0.14                            66 302 
 BRR  HE ES   1   18 4  9.68                             154     0.9 7   66 302 
 PAM  SZ EP   1   18 3 54.20                             149    -0.2 7   82  43 
 PAM  SE ES   1   18 4 11.05                             149    -0.7 7   82  43 
 RUS  HZ EP   1   18 3 56.16                             143     0.5 7  100 172 
 RUS  HN ES   1   18 4 13.81                             143    -0.2 7  100 172 
 RUS  HZ I        18 4 17.56         3.3 0.26                           100 172 
 PTB  HZ EP   1   18 3 58.22                             133    -0.1 7  141 259 
 PTB  HN ES   1   18 4 17.78                             133    -1.0 7  141 259 
 PTB  HZ I        18 4 21.92         2.0 0.36                           141 259 
                                                                                
