 2012  119 1308 44.2 L   6.804 -73.203143.8  RSN  4 0.4 1.4LRSN                1
 GAP=145        0.73       6.7     7.2  8.7 -0.1178E+02  0.1863E+02 -0.1378E+02E
 Epicentro: ZAPATOCA - SANTANDER                                               3
 ACTION:UP  12-02-03 08:18 OP:REBC STATUS:               ID:20120119130844 L   I
 2012-01-19-1300-00M.COL___186                                                 6
 STAT SP IPHASW D HRMM SECON CODA AMPLIT PERI AZIMU VELO SNR AR TRES W  DIS CAZ7
 BAR2 SZ EP   1   13 9  3.52                             170    -0.1 7   24 174 
 BAR2 SZ I        13 9  3.85         7.5 0.10                            24 174 
 BAR2 SZ ES   1   13 9 19.21                             170     0.5 7   24 174 
 PAM  SZ EP   1   13 9  6.63                             149     0.2 7   81  43 
 PAM  SE ES   2   13 9 23.09                             149    -0.7 5   81  43 
 RUS  HZ EP   1   13 9  7.64                             143    -0.2 7  102 173 
 RUS  HE ES   1   13 9 26.07                             143    -0.2 7  102 173 
 RUS  HZ I        13 9 26.83         2.8 0.23                           102 173 
 PTB  HZ EP   1   13 9 10.78                             133     0.3 7  142 258 
 PTB  HN ES   2   13 9 30.36                             133    -0.6 5  142 258 
                                                                                
