 2016  219 1120 16.6 L   6.800 -73.171146.4  RSN  6 0.3 1.5LRSN                1
 GAP=133        0.88       4.5     3.9  6.3  0.1707E+01  0.5021E+01  0.6877E-01E
 Epicentro: LOS SANTOS - SANTANDER                                             3
 ACTION:UPD 16-03-04 21:27 OP:rebc STATUS:               ID:20160219112016 L   I
 OLDACT:REG 16-02-19 20:34 OP:ak   STATUS:               ID:20160219111748     3
 2016-02-19-1117-48M.COL___306                                                 6
 STAT SP IPHASW D HRMM SECON CODA AMPLIT PERI AZIMU VELO AIN AR TRES W  DIS CAZ7
 BAR2 EZ EP       1120 36.03                             171   -0.2510 23.0 183 
 BAR2 EZ ES       1120 51.28                             171   -0.3710 23.0 183 
 BAR2 EZ I        1120 52.61         5.8 0.16            173           23.0 183 
 BRR  HZ EP       1120 37.86                             153    0.2010 68.7 300 
 BRR  HN ES       1120 54.61                             153    0.5010 68.7 300 
 BRR  HZ I        1121  7.66        10.8 0.22            151           68.7 300 
 PAM  EZ EP       1120 39.23                             150    0.2610 79.2  41 
 PAM  EN ES       1120 56.11                             150   -0.3310 79.2  41 
 PAM  EZ I        1120 58.16         3.8 0.42            153           79.2  41 
 RUS  HZ EP       1120 40.64                             144    0.2210  101 174 
 RUS  HE ES       1120 59.37                             144    0.3710  101 174 
 RUS  HZ I        1120 59.84         3.2 0.34            152            101 174 
 PTB  HZ EP       1120 42.77                             133   -0.59 9  145 259 
 PTB  HN ES       1121  3.95                             133   -0.29 9  145 259 
 PTB  HZ I        1121  6.09         3.8 0.12            135            145 259 
 ZAR  HZ EP   2   1120 48.89                             123    0.09 4  201 292 
 ZAR  HE ES       1121 14.14                             123    0.21 9  201 292 
 ZAR  HZ I        1121 19.36         4.8 0.22            125            201 292 
                                                                                
