 2011  219 1408  1.4 L   6.730 -73.084151.2  RSN  4 0.3 1.4LRSN                1
 GAP=224        0.79       9.1    13.1 11.4 -0.1175E+02 -0.1645E+02  0.3472E+02E
 Epicentro: JORDAN - SANTANDER                                                 3
 ACTION:UP  11-03-28 15:09 OP:jfem STATUS:               ID:20110219140802 L   I
 2011-02-19-1405-04S.COL___137                                                 6
 STAT SP IPHASW D HRMM SECON CODA AMPLIT PERI AZIMU VELO SNR AR TRES W  DIS CAZ7
 BAR2 SZ EP       14 8 21.12                             173    -0.510   19 216 
 BAR2 SZ I        14 8 39.34         6.8 0.42                            19 216 
 BTL  SZ EP       14 8 22.19                             168     0.410   29 316 
 BTL  SZ ES   1   14 8 37.68                             168     0.0 7   29 316 
 RUS  HZ EP       14 8 25.25                             147     0.110   93 180 
 RUS  HN ES   2   14 8 43.77                             147     0.1 5   93 180 
 RUS  HZ I        14 8 45.65         3.5 0.24                            93 180 
 NOR  SN ES   2   14 9  5.81                             119     0.0 4  236 237 
                                                                                
