 2017  219 1458 47.4 L   6.763 -73.136141.8  RSN  6 0.2 1.6LRSN                1
 GAP=139        0.59       2.9     2.6  4.3  0.6289E+00  0.2337E+01  0.1106E+00E
 Epicentro: LOS SANTOS - SANTANDER                                             3
 ACTION:UPD 17-05-24 15:38 OP:jn   STATUS:               ID:20170219145847 L   I
 OLDACT:REG 17-02-19 21:12 OP:cog  STATUS:               ID:20170219144400     3
 2017-02-19-1448-00M.COL___352                                                 6
 STAT SP IPHASW D HRMM SECON CODA AMPLIT PERI AZIMU VELO AIN AR TRES W  DIS CAZ7
 BAR2 EZ EP       1459  6.51                             172    0.0610 19.6 195 
 BAR2 EZ ES       1459 21.13                             172   -0.2010 19.6 195 
 BAR2 EZ I        1459 22.58        19.1 0.14            173           19.6 195 
 BRR  HZ EP       1459  8.45                             151    0.1910 74.2 301 
 BRR  HN ES       1459 24.91                             151    0.3510 74.2 301 
 BRR  HZ I        1459 29.78        13.2 0.12            151           74.2 301 
 PAM  EZ EP       1459  9.40                             149    0.0810 79.9  37 
 PAM  EN ES       1459 26.18                             149   -0.2610 79.9  37 
 PAM  EZ I        1459 27.97         5.3 0.30            152           79.9  37 
 RUS  HZ EP       1459 10.49                             144    0.0610 96.4 177 
 RUS  HN ES       1459 28.59                             144    0.1710 96.4 177 
 RUS  HZ I        1459 29.75         4.3 0.30            148           96.4 177 
 PTB  HZ EP       1459 13.68                             131   -0.36 9  148 260 
 PTB  HN ES       1459 34.62                             131   -0.23 9  148 260 
 PTB  HZ I        1459 37.08         5.4 0.21            133            148 260 
 ZAR  HN ES       1459 45.23                             121    0.09 8  207 293 
                                                                                
