 2017  619 1821 33.0 L   6.830 -73.225146.6  RSN  4 0.3 1.4LRSN                1
 GAP=276        0.80       5.3     8.2  9.5 -0.7141E+00 -0.5301E+01  0.5947E+01E
 Epicentro: ZAPATOCA - SANTANDER                                               3
 ACTION:UPD 17-09-14 16:53 OP:jn   STATUS:               ID:20170619182133 L   I
 OLDACT:UP  17-06-20 00:01 OP:dnl  STATUS:               ID:20170619181740     3
 OLDACT:UP  17-06-20 00:01 OP:dnl  STATUS:               ID:20170619181740     3
 OLDACT:REG 17-06-19 20:56 OP:dani STATUS:               ID:20170619181740     3
 2017-06-19-1818-00M.COL___341                                                 6
 STAT SP IPHASW D HRMM SECON CODA AMPLIT PERI AZIMU VELO AIN AR TRES W  DIS CAZ7
 BRR  HZ EP       1821 53.34                             156   -0.4310 61.9 300 
 BRR  HE ES       1822 10.20                             156    0.2510 61.9 300 
 BRR  HZ I        1822 15.93         3.3 0.26            143           61.9 300 
 PTB  HZ EP       1821 59.82                             134    0.46 9  140 257 
 PTB  HE ES       1822 19.58                             134   -0.31 9  140 257 
 PTB  HZ I        1822 22.05         2.0 0.16            123            140 257 
 SPBC HZ EP   4   1821 59.36                             130   -1.98 0  160 216 
 SPBC HE ES       1822 23.45                             130    0.03 9  160 216 
 SPBC HZ I        1822 25.67         5.1 0.20            119            160 216 
 ZAR  HZ EP   4   1822  9.70                             124    5.13 0  195 292 
 ZAR  HZ I        1822 25.37         3.4 0.32            111            195 292 
 ZAR  HE ES       1822 29.19                             124    0.03 9  195 292 
                                                                                
