 2016  619 1435 46.0 L   6.816 -73.081150.7  RSN 13 0.3 2.0LRSN                1
 GAP=124        0.78       2.5     3.1  5.2 -0.2496E+01  0.2359E+01  0.1116E+01E
 Epicentro: LOS SANTOS - SANTANDER                                             3
 ACTION:UPD 16-07-21 22:20 OP:rebc STATUS:               ID:20160619143546 L   I
 OLDACT:UP  16-06-20 01:14 OP:dani STATUS:               ID:20160619142748d    3
 OLDACT:UP  16-06-20 01:13 OP:dani STATUS:               ID:20160619142748d    3
 OLDACT:UP  16-06-20 01:11 OP:dani STATUS:               ID:20160619142748d    3
 OLDACT:DUP 16-06-20 01:09 OP:dani STATUS:               ID:20160619142748d    3
 OLDACT:UP  16-06-20 01:01 OP:dani STATUS:               ID:20160619142746     3
 OLDACT:REG 16-06-19 19:49 OP:mh   STATUS:               ID:20160619142746     3
 2016-06-19-1427-46M.COL___349                                                 6
 STAT SP IPHASW D HRMM SECON CODA AMPLIT PERI AZIMU VELO AIN AR TRES W  DIS CAZ7
 BAR2 EZ EP       1436  6.20                             169   -0.0910 27.2 204 
 BAR2 EZ I        1436 21.89        25.2 0.26                          27.2 204 
 PAM  EE ES       1436 26.31                             153    0.4210 71.6  36 
 PAM  EZ I        1436 28.54        18.9 0.66                          71.6  36 
 BRR  HZ EP       1436  7.92                             152   -0.0610 76.7 295 
 BRR  HE ES       1436 24.75                             152   -0.3910 76.7 295 
 BRR  HZ I        1436 28.11        14.5 0.32                          76.7 295 
 RUS  HZ EP       1436 10.30                             144   -0.0310  102 180 
 RUS  HN ES       1436 29.24                             144   -0.0910  102 180 
 RUS  HZ I        1436 29.50         6.3 0.28                           102 180 
 PTB  HZ EP   4   1436 11.26                             132   -2.76 0  155 259 
 PTB  HN ES   4   1436 33.92                             132   -1.96 0  155 259 
 PTB  HZ I        1436 36.07         8.4 0.14                           155 259 
 OCA  HZ EP       1436 14.32                             131   -0.29 9  159 351 
 OCA  HN ES       1436 37.54                             131    0.60 9  159 351 
 OCA  HZ I        1436 39.38        24.0 0.18                           159 351 
 SPBC HE ES       1436 38.39                             129    0.01 9  169 220 
 ZAR  HZ EP       1436 19.59                             123    0.23 8  210 291 
 ZAR  HE ES       1436 44.98                             123   -0.42 8  210 291 
 ZAR  HZ I        1436 50.30        12.1 0.26                           210 291 
 NOR  HN ES       1436 51.30                             119   -0.10 8  242 235 
 SOCV BE ES       1437  1.12                             114   -0.52 7  294  56 
 GUY2CHN ES     C 1437  5.90                             113    0.51 7  308 235 
 PRA  HZ EP       1436 40.86                             107    0.59 6  397 210 
 PRA  HN ES       1437 22.56                             107   -0.06 6  397 210 
 PRA  HZ I        1437 25.68         3.2 0.26                           397 210 
 ORTC HN ES   4   1437 24.87                             107    1.43 0  401 217 
 ORTC HZ I        1437 29.12         1.9 0.30                           401 217 
                                                                                
