 2011  719 1712 59.2 L   6.824 -73.019148.9  RSN  7 0.3 2.3LRSN                1
 GAP=172        0.51       2.9     5.2  4.5 -0.4487E+01  0.2099E+01  0.1720E+01E
 Epicentro: CEPITA - SANTANDER                                                 3
 ACTION:UPD 12-07-25 14:02 OP:epov STATUS:               ID:20110719171259 L   I
 2011-07-19-1709-28S.COL___143                                                 6
 STAT SP IPHASW D HRMM SECON CODA AMPLIT PERI AZIMU VELO AIN AR TRES W  DIS CAZ7
 BAR2 SZ EP   1   1713 19.78                             167    0.34 7 31.4 215 
 BAR2 SZ ES   1   1713 35.04                             167   -0.15 7 31.4 215 
 BAR2 SZ I        1713 36.45        51.4 0.37                          31.4 215 
 BRR  HZ EP   1   1713 21.71                             149    0.30 7 82.7 292 
 BRR  HZ I        1713 22.33        39.4 0.42                          82.7 292 
 BRR  HE ES   1   1713 38.76                             149    0.05 7 82.7 292 
 RUS  HZ EP   1   1713 23.83                             144    0.33 7  103 184 
 RUS  HN ES   1   1713 42.38                             144   -0.04 7  103 184 
 RUS  HZ I        1713 43.83        35.5 0.32                           103 184 
 GRA  SZ EP   1   1713 24.02                             139   -0.26 7  120  11 
 GRA  SZ ES   1   1713 43.55                             139   -0.26 7  120  11 
 GRA  SZ I        1713 44.84        37.3 0.41                           120  11 
 NOR  SZ EP   1   1713 36.29                             118   -0.27 6  248 236 
 NOR  SZ I        1714 11.04         3.8 0.20                           248 236 
 RREF HN ES   2   1714 24.25                             110    0.10 3  334 231 
 PRA  HZ EP   1   1713 53.83                             106   -0.14 4  401 211 
 PRA  HN ES   2   1714 35.69                             106   -0.97 3  401 211 
                                                                                
