 2014  119 1938 12.9 L   6.784 -73.156144.1  RSN 10 0.4 2.0LRSN                1
 GAP=136        1.09       3.6     4.4  6.9 -0.2272E+01  0.8911E+01  0.2489E-01E
 Epicentro: LOS SANTOS - SANTANDER                                             3
 ACTION:UPD 14-03-13 09:56 OP:ep   STATUS:               ID:20140119193812 L   I
 OLDACT:REG 14-01-19 15:58 OP:carl STATUS:               ID:20140119193000     3
 2014-01-19-1930-00M.COL___285                                                 6
 STAT SP IPHASW D HRMM SECON CODA AMPLIT PERI AZIMU VELO AIN AR TRES W  DIS CAZ7
 BAR2 SZ IP     D 1938 32.39                             171    0.0610 21.4 188 
 BAR2 SZ ES       1938 47.35                             171   -0.1010 21.4 188 
 BAR2 SZ I        1938 48.46        24.5 0.44            172           21.4 188 
 BRR  HZ IP     C 1938 34.30                             152    0.4010 71.1 300 
 BRR  HN ES       1938 50.97                             152    0.7310 71.1 300 
 BRR  HZ I        1938 56.10        19.0 0.44            149           71.1 300 
 PAM  SZ EP       1938 35.43                             150    0.3310 79.5  39 
 PAM  SN ES       1938 52.36                             150   -0.0310 79.5  39 
 PAM  SZ I        1938 53.17        12.2 0.18            152           79.5  39 
 RUS  HZ EP       1938 36.23                             144   -0.1710 98.9 175 
 RUS  HN ES       1938 54.58                             144   -0.1210 98.9 175 
 RUS  HZ I        1938 56.05         9.7 0.26            148           98.9 175 
 PTB  HZ EP       1938 39.56                             132   -0.07 9  146 259 
 PTB  HN ES       1938 59.73                             132   -0.72 9  146 259 
 PTB  HZ I        1939  2.29        17.5 0.26            132            146 259 
 SPBC HZ EP       1938 41.61                             129    0.50 9  161 219 
 SPBC HE ES       1939  2.92                             129   -0.16 9  161 219 
 SPBC HZ I        1939  5.54        11.7 0.38            131            161 219 
 OCA  HN ES       1939  2.49                             129   -0.88 9  162 354 
 OCA  HZ I        1939  7.40        15.6 0.24            129            162 354 
 ZAR  HZ EP       1938 44.92                             122   -0.31 9  204 293 
 ZAR  HN ES       1939 11.13                             122    0.71 9  204 293 
 ZAR  HZ I        1939 19.37        13.8 0.24            122            204 293 
 NOR  HE ES       1939 15.73                             118   -0.25 8  233 235 
 NOR  HZ I        1939 18.29         6.0 0.14            120            233 235 
 SML  HE ES   2   1939 17.61                             117   -0.57 4  245 336 
 SML  HZ I        1939 22.36        13.6 0.24            118            245 336 
                                                                                
