 2013  819 1105 43.5 L   6.751 -73.135150.1  RSN  6 0.3 1.5LRSN                1
 GAP=140        0.86       4.2     5.5  5.9 -0.6723E+01  0.6453E+01  0.1718E+01E
 Epicentro: LOS SANTOS - SANTANDER                                             3
 ACTION:UPD 14-01-14 09:04 OP:ep   STATUS:               ID:20130819110543 L   I
 OLDACT:REG 13-08-19 15:37 OP:stll STATUS:               ID:20130819105848     3
 2013-08-19-1058-48M.COL___201                                                 6
 STAT SP IPHASW D HRMM SECON CODA AMPLIT PERI AZIMU VELO AIN AR TRES W  DIS CAZ7
 BAR2 SZ EP       11 6  3.62                             173    0.0910 18.3 197 
 BAR2 SZ ES       11 6 19.17                             173   -0.0210 18.3 197 
 BAR2 SZ I        11 6 20.21         6.2 0.32            164           18.3 197 
 BRR  HZ EP       11 6  5.40                             152    0.1010 75.0 302 
 BRR  HN ES       11 6 22.76                             152    0.4310 75.0 302 
 BRR  HZ I        11 6 26.11         8.8 0.36            140           75.0 302 
 PAM  SZ EP       11 6  6.60                             150    0.2410 80.9  36 
 PAM  SZ I        11 6  6.85         4.5 0.28            149           80.9  36 
 PAM  SN ES       11 6 23.71                             150   -0.5010 80.9  36 
 RUS  HZ EP       11 6  7.27                             146    0.0010 95.1 177 
 RUS  HN ES       11 6 26.02                             146    0.1910 95.1 177 
 RUS  HZ I        11 6 27.32         3.9 0.34            143           95.1 177 
 PTB  HZ EP       11 6 10.25                             133   -0.57 9  148 261 
 PTB  HZ I        11 6 33.88         4.6 0.26            123            148 261 
 SPBC HZ EP       11 6 12.38                             131    0.39 9  160 221 
 SPBC HZ I        11 6 12.67         5.7 0.26            123            160 221 
 SPBC HN ES       11 6 33.81                             131   -0.42 9  160 221 
                                                                                
