 2013  719 1722 51.7 L   6.793 -73.124139.6  RSN  9 0.5 2.1LRSN                1
 GAP=191        1.05       4.6     5.2  6.1  0.3600E+01  0.1321E+02  0.7409E+01E
 Epicentro: LOS SANTOS - SANTANDER                                             3
 ACTION:UPD 13-08-12 10:38 OP:ep   STATUS:               ID:20130719172251 L   I
 OLDACT:REG 13-07-19 15:45 OP:nd   STATUS:               ID:20130719171959     3
 2013-07-19-1719-59M.COL___267                                                 6
 STAT SP IPHASW D HRMM SECON CODA AMPLIT PERI AZIMU VELO AIN AR TRES W  DIS CAZ7
 BAR2 SZ EP     D 1723 10.73                             170    0.1510 23.1 196 
 BAR2 SZ ES       1723 25.16                             170   -0.1510 23.1 196 
 BAR2 SZ I        1723 27.05        48.4 0.20            165           23.1 196 
 GIR2 SZ EP       1723 10.66                             166   -0.0210 32.6 346 
 GIR2 SZ ES       1723 24.91                             166   -0.5610 32.6 346 
 GIR2 SZ I        1723 26.68        24.4 0.10            167           32.6 346 
 BRR  HZ IP     C 1723 12.55                             150    0.2110 73.7 298 
 BRR  HN ES       1723 29.24                             150    0.8110 73.7 298 
 BRR  HZ I        1723 31.16        20.9 0.14            149           73.7 298 
 RUS  HZ EP     C 1723 14.66                             143   -0.1210 99.6 177 
 RUS  HN ES       1723 33.04                             143    0.2610 99.6 177 
 RUS  HZ I        1723 34.39        10.7 0.24            143           99.6 177 
 PTB  HZ EP   1   1723 17.27                             130   -1.11 7  150 259 
 PTB  HN ES   1   1723 38.45                             130   -0.74 7  150 259 
 PTB  HZ I        1723 41.64        18.8 0.14            129            150 259 
 SPBC HZ IP     C 1723 19.69                             127   -0.13 9  164 220 
 SPBC HN ES   2   1723 42.37                             127    0.62 5  164 220 
 SPBC HZ I        1723 48.79        17.2 0.32            127            164 220 
 ZAR  HZ EP       1723 23.91                             121   -0.11 8  207 292 
 ZAR  HE ES       1723 49.36                             121    0.13 8  207 292 
 ZAR  HZ I        1723 54.66        14.3 0.54            121            207 292 
 NOR  HZ EP       1723 27.20                             117   -0.05 8  236 235 
 NOR  HN ES       1723 54.81                             117   -0.16 8  236 235 
 NOR  HZ I        1723 59.95        12.4 0.18            118            236 235 
 GUY2CHZ EP       1723 36.21                             111    1.00 7  303 235 
 GUY2CHN ES       1724  8.96                             111   -0.18 7  303 235 
 GUY2CHZ I        1724 17.12         8.4 0.30                           303 235 
                                                                                
