 2017 1019 1143  0.4 L   6.668 -74.081  2.5  RSN  4 0.3 1.0LRSN                1
 GAP=149        0.85       3.2     1.9  7.2 -0.9907E+00 -0.3355E+01 -0.4039E+01E
 Epicentro: PUERTO PARRA - SANTANDER                                           3
 ACTION:UPD 17-11-07 19:33 OP:rebc STATUS:               ID:20171019114300 L   I
 OLDACT:REG 17-10-19 19:45 OP:edw  STATUS:               ID:20171019112507     3
 2017-10-19-1138-00M.COL___429                                                 6
 STAT SP IPHASW D HRMM SECON CODA AMPLIT PERI AZIMU VELO AIN AR TRES W  DIS CAZ7
 PTB  HZ IP     D 1143  7.76                              47   -0.0910 43.8 251 
 PTB  HN ES       1143 13.63                              47   -0.0510 43.8 251 
 PTB  HZ I        1143 13.75         8.7 0.14             47           43.8 251 
 BRR  HN ES       1143 19.18                              47    0.2510 63.4  40 
 BAR2 EZ ES       1143 28.56                              47   -0.6010 99.7  95 
 RUS  HZ EP       1143 22.98                              47    0.10 9  140 128 
 RUS  HN ES       1143 40.88                              47    0.44 9  140 128 
 RUS  HZ I        1143 42.73         3.1 0.18             47            140 128 
                                                                                
