 2010  319 1916 45.1 L   6.813 -72.993147.6  RSN 10 0.4 2.3LRSN                1
 GAP=198        0.59       3.1     6.3  4.6  0.2665E+01  0.4388E+01  0.1662E+01E
 Epicentro: CEPITA - SANTANDER                                                 3
 ACTION:UP  10-08-24 09:54 OP:vdl  STATUS:               ID:20100319191645 L   I
 2010-03-19-1913-22S.COL___097                                                 6
 STAT SP IPHASW D HRMM SECON CODA AMPLIT PERI AZIMU VELO SNR AR TRES W  DIS CAZ7
 BAR2 SZ IP       1917  5.35                             167     0.210   32 221 
 BAR2 SZ ES   1   1917 20.66                             167    -0.1 7   32 221 
 BRR  HZ IP       1917  7.28                             148     0.010   86 292 
 BRR  HZ I        1917  7.54        66.8 0.16                            86 292 
 BRR  HE ES   1   1917 24.46                             148    -0.2 7   86 292 
 RUS  HZ IP       1917  9.23                             143     0.110  102 186 
 RUS  HE ES   1   1917 27.98                             143     0.1 7  102 186 
 OCA  SZ EP   1   1917 13.56                             130    -0.1 7  162 347 
 OCA  SZ ES   2   1917 35.69                             130    -0.3 5  162 347 
 OCA  SZ I        1917 40.07        27.4 0.30                           162 347 
 CHI  HZ EP   1   1917 23.39                             117    -0.2 6  255 199 
 CHI  HE ES   2   1917 52.83                             117    -0.7 4  255 199 
 CHI  HZ I        1918  2.23         8.4 0.48                           255 199 
 HEL  HZ EP   2   1917 26.69                             114    -0.5 4  289 256 
 HEL  HZ I        1918  3.88         5.8 0.40                           289 256 
 RREF BZ EP   1   1917 33.51                             110     0.6 5  336 231 
 RREF BN ES   2   1918 11.04                             110     0.9 3  336 231 
 RREF BZ I        1918 17.86        10.0 0.30                           336 231 
 DBB  SZ EP   2   1917 34.75                             109     0.2 3  356 274 
 TOL  SZ EP   2   1917 35.14                             109     0.2 3  357 226 
 PRA  HZ EP   2   1917 38.97                             106    -0.8 3  402 212 
 PRA  HE ES   2   1918 21.75                             106    -0.7 3  402 212 
 PRA  HZ I        1918 27.26         7.5 0.25                           402 212 
                                                                                
