 2012  319 1942 44.0 L   6.777 -73.125145.6  RSN  5 0.3 1.5LRSN                1
 GAP=140        0.76       5.4     5.1  8.9 -0.5065E+01  0.5712E+01  0.7458E+01E
 ACTION:UP  12-03-31 23:21 OP:EP   STATUS:               ID:20120319194244 L   I
 2012-03-19-1940-00M.COL___202                                                 6
 STAT SP IPHASW D HRMM SECON CODA AMPLIT PERI AZIMU VELO SNR AR TRES W  DIS CAZ7
 BRR  HZ EP   1   1943  5.51                             151     0.2 7   74 299 
 BRR  HZ I        1943  7.06        10.1 0.07                            74 299 
 BRR  HN ES   1   1943 22.23                             151     0.3 7   74 299 
 PAM  SZ EP   1   1943  6.51                             151     0.3 7   78  37 
 PAM  SN ES   1   1943 23.04                             151    -0.5 7   78  37 
 RUS  HZ EP   1   1943  7.72                             144     0.2 7   98 177 
 RUS  HN ES   1   1943 25.84                             144     0.0 7   98 177 
 RUS  HZ I        1943 27.93         4.1 0.25                            98 177 
 PTB  HZ EP   1   1943 10.43                             132    -0.6 7  150 260 
 PTB  HN ES   1   1943 32.19                             132     0.0 7  150 260 
 PTB  HZ I        1943 33.43         2.5 0.16                           150 260 
 NOR  SN ES   2   1943 47.58                             118     0.0 4  235 235 
                                                                                
