 2010  919 1208 31.8 L   6.120 -73.816 97.9  RSN  5 0.2 1.1LRSN                1
 GAP=189        0.52       4.5    14.4 18.7  0.2403E+02  0.2374E+03  0.2658E+02E
 Epicentro: EL PEON - SANTANDER                                                3
 ACTION:UP  11-02-18 11:03 OP:tino STATUS:               ID:20100919120831 L   I
 2010-09-19-1206-04S.COL___121                                                 6
 STAT SP IPHASW D HRMM SECON CODA AMPLIT PERI AZIMU VELO SNR AR TRES W  DIS CAZ7
 RUS  HZ EP       12 8 49.76                             134    -0.110   85 107 
 RUS  HN ES   2   12 9  3.99                             134     0.0 5   85 107 
 RUS  HZ I        12 9  5.12         1.5 0.15                            85 107 
 BAR2 SZ EP   1   12 8 49.73                             133     0.0 7   87  53 
 BAR2 SZ ES   1   12 9  3.65                             133     0.0 7   87  53 
 BAR2 SZ I        12 9  4.75         7.9 0.35                            87  53 
 BTL  SZ EP       12 8 51.82                             127     0.310  107  34 
 BRR  HZ EP   1   12 8 51.17                             126    -0.3 7  110   6 
 BRR  HZ I        12 8 52.87         6.5 0.36                           110   6 
 CHI  HZ EP   3   12 8 58.39                             115     0.6 2  165 177 
 CHI  HE ES   3   12 9 18.28                             115     0.2 2  165 177 
 CHI  HZ I        12 9 23.15         0.9 0.34                           165 177 
                                                                                
