 2010  919 1257 53.3 L   6.751 -73.059142.0  RSN  9 0.4 1.9LRSN                1
 GAP=169        0.94       5.6     9.1  9.0 -0.1004E+01  0.7209E+01  0.1355E+01E
 Epicentro: LOS SANTOS - SANTANDER                                             3
 ACTION:UP  11-02-18 11:03 OP:tino STATUS:               ID:20100919125753 L   I
 2010-09-19-1255-23S.COL___121                                                 6
 STAT SP IPHASW D HRMM SECON CODA AMPLIT PERI AZIMU VELO SNR AR TRES W  DIS CAZ7
 BAR2 SZ EP       1258 12.21                             171    -0.210   22 218 
 BAR2 SZ I        1258 28.33        18.8 0.32                            22 218 
 BRR  HZ IP     D 1258 14.31                             148    -0.410   82 299 
 BRR  HZ I        1258 16.01        25.2 0.10                            82 299 
 BRR  HN ES   1   1258 31.51                             148     0.1 7   82 299 
 RUS  HZ EP   1   1258 16.05                             145    -0.2 7   95 182 
 RUS  HN ES   1   1258 34.50                             145     0.3 7   95 182 
 RUS  HZ I        1258 36.25        11.4 0.40                            95 182 
 GUE  SZ EP   1   1258 18.56                             138     0.6 7  120   7 
 GRA  SZ EP   1   1258 18.30                             136    -0.1 7  128  13 
 GRA  SZ I        1258 19.72         6.9 0.33                           128  13 
 NOR  HZ EP   1   1258 29.09                             117    -0.2 6  240 237 
 CHI  HZ EP   1   1258 30.14                             117    -0.3 6  246 198 
 CHI  HZ I        1259  2.63         3.3 0.39                           246 198 
 HEL  HZ EP   1   1258 34.33                             113     0.2 6  280 257 
 HEL  HZ I        1259 12.34         4.6 0.56                           280 257 
 RREF HZ EP   1   1258 40.67                             110     1.0 5  326 231 
 RREF HZ I        1259 19.72         5.4 0.28                           326 231 
                                                                                
