 2017  119 1349 53.2 L   6.783 -73.087144.6  RSN  8 0.5 2.0LRSN                1
 GAP=145        1.04       4.4     5.6  8.0  0.3154E+01  0.1834E+02  0.1167E+02E
 Epicentro: LOS SANTOS - SANTANDER                                             3
 ACTION:UPD 17-05-22 16:01 OP:jn   STATUS:               ID:20170119134953 L   I
 OLDACT:UP  17-01-20 00:31 OP:cog  STATUS:               ID:20170119134746     3
 OLDACT:REG 17-01-19 21:50 OP:cog  STATUS:               ID:20170119134746     3
 2017-01-19-1348-00M.COL___328                                                 6
 STAT SP IPHASW D HRMM SECON CODA AMPLIT PERI AZIMU VELO AIN AR TRES W  DIS CAZ7
 BAR2 EZ EP       1350 11.57                             170   -1.1510 23.6 207 
 BAR2 EZ ES       1350 27.50                             170   -0.4310 23.6 207 
 BAR2 EZ I        1350 30.13        19.8 0.26            168           23.6 207 
 PAM  EZ EP   3   1350 15.77                             152    0.60 2 75.0  35 
 PAM  EN ES       1350 32.66                             152    0.3610 75.0  35 
 PAM  EZ I        1350 34.62        29.3 0.50            156           75.0  35 
 BRR  HZ EP       1350 14.82                             150    0.1810 77.8 297 
 BRR  HN ES       1350 31.62                             150    0.2810 77.8 297 
 BRR  HZ I        1350 35.32        21.8 0.36            151           77.8 297 
 RUS  HZ EP       1350 16.96                             144    0.2510 98.4 180 
 RUS  HE ES       1350 35.38                             144    0.3510 98.4 180 
 RUS  HZ I        1350 37.09        13.9 0.28            145           98.4 180 
 PTB  HZ EP   4   1350 19.58                             131   -1.07 0  154 260 
 PTB  HN ES   3   1350 41.52                             131   -0.53 2  154 260 
 PTB  HZ I        1350 43.76        10.9 0.16            132            154 260 
 ZAR  HN ES       1350 52.05                             121   -0.04 8  211 292 
 NOR  HZ EP       1350 29.25                             118   -0.09 8  239 236 
 NOR  HE ES       1350 57.64                             118    0.13 8  239 236 
 NOR  HZ I        1351  1.53         8.7 0.14            119            239 236 
 CHI  HZ EP   3   1350 31.43                             117    0.58 2  249 197 
 CHI  HN ES       1351  0.41                             117    0.21 8  249 197 
 CHI  HZ I        1351  6.09         2.8 0.29            119            249 197 
 GUY2CHZ EP   4   1350 38.62                             112    1.36 0  305 236 
 GUY2CHN ES   4   1351  8.15                             112   -3.46 0  305 236 
                                                                                
