 2013  119 1105 58.9 L   6.749 -73.141145.1  RSN  5 0.3 1.4LRSN                1
 GAP=158        0.52       5.9     3.9  5.7 -0.1078E+02  0.3792E+01  0.1316E+01E
 Epicentro: LOS SANTOS - SANTANDER                                             3
 ACTION:UPD 13-02-15 09:15 OP:ep   STATUS:               ID:20130119110558 L   I
 2013-01-19-1100-00M.COL___241                                                 6
 STAT SP IPHASW D HRMM SECON CODA AMPLIT PERI AZIMU VELO AIN AR TRES W  DIS CAZ7
 BAR2 SZ EP   1   11 6 18.18                             173   -0.15 7 17.9 195 
 BAR2 SZ ES   1   11 6 33.78                             173    0.28 7 17.9 195 
 BAR2 SZ I        11 6 34.92         9.3 0.28            170           17.9 195 
 PAM  SZ EP       11 6 21.25                             149   -0.0210 81.5  37 
 PAM  SN ES   1   11 6 38.62                             149   -0.12 7 81.5  37 
 PAM  SZ I        11 6 40.50         3.5 0.52            152           81.5  37 
 PTB  HZ EP   1   11 6 26.00                             132    0.26 7  147 261 
 PTB  HN ES   1   11 6 46.25                             132   -0.45 7  147 261 
 PTB  HZ I        11 6 53.59         3.0 0.48            131            147 261 
 ZAR  HN ES   2   11 6 57.53                             122    0.49 4  207 294 
 CHI  HZ EP   2   11 6 36.06                             117    0.11 4  243 196 
                                                                                
