 2014 1219 1615 12.2 L   6.781 -73.182145.4  RSN  4 0.2 1.1LRSN                1
 GAP=141        0.46       3.6     2.9  4.6 -0.3497E+01  0.3133E+01 -0.2735E+01E
 Epicentro: LOS SANTOS - SANTANDER                                             3
 ACTION:UPD 15-02-10 17:05 OP:nd   STATUS:               ID:20141219161512 L   I
 OLDACT:DUP 14-12-20 00:16 OP:spq  STATUS:               ID:20141219160749d    3
 2014-12-19-1607-48M.COL___299                                                 6
 STAT SP IPHASW D HRMM SECON CODA AMPLIT PERI AZIMU VELO AIN AR TRES W  DIS CAZ7
 BAR2 EZ EP   1   1615 31.73                             171   -0.03 7 20.9 180 
 BAR2 EZ ES   1   1615 46.94                             171   -0.06 7 20.9 180 
 BAR2 EZ I        1615 47.70         3.7 0.30            170           20.9 180 
 PAM  SZ EP       1615 34.51                             149   -0.1410 81.6  41 
 PAM  SN ES   1   1615 52.33                             149    0.18 7 81.6  41 
 PAM  SZ I        1615 53.43         2.0 0.60            151           81.6  41 
 RUS  HZ EP   1   1615 36.22                             144    0.41 7 98.9 174 
 RUS  HN ES   1   1615 54.02                             144   -0.19 7 98.9 174 
 RUS  HZ I        1615 57.01         1.1 0.41            144           98.9 174 
 PTB  HZ EP       1615 38.65                             133   -0.11 9  143 259 
 PTB  HN ES       1615 59.54                             133    0.08 9  143 259 
 PTB  HZ I        1616  0.63         1.9 0.16            134            143 259 
                                                                                
