 2011  219 1450 16.2 L   6.808 -73.133140.0  RSN 12 0.4 2.4LRSN                1
 GAP=104        0.84       3.5     4.7  6.0 -0.4994E+01  0.8474E+01 -0.8784E+00E
 Epicentro: LOS SANTOS - SANTANDER                                             3
 ACTION:UP  11-03-28 15:09 OP:jfem STATUS:               ID:20110219145016 L   I
 2011-02-19-1449-11S.COL___137                                                 6
 STAT SP IPHASW D HRMM SECON CODA AMPLIT PERI AZIMU VELO SNR AR TRES W  DIS CAZ7
 BTL  SZ EP   2   1450 36.22                             172     1.2 5   19 309 
 BTL  SZ ES   3   1450 51.12                             172     1.4 2   19 309 
 BAR2 SZ IP       1450 35.22                             169     0.110   25 193 
 BAR2 SZ I        1450 35.75        68.3 0.40                            25 193 
 BAR2 SZ ES   1   1450 49.33                             169    -0.6 7   25 193 
 GIR2 SZ EP       1450 35.09                             167     0.010   31 347 
 RUS  HZ IP     C 1450 39.34                             142    -0.110  101 177 
 RUS  HZ I        1450 40.03        23.7 0.40                           101 177 
 RUS  HN ES   1   1450 57.55                             142     0.0 7  101 177 
 GRA  SZ EP       1450 40.86                             136     0.110  125  17 
 GRA  SZ ES   1   1450 59.75                             136    -0.3 7  125  17 
 GRA  SZ I        1451  4.44        25.4 0.48                           125  17 
 OCA  SZ EP   1   1450 44.30                             128     0.3 7  160 353 
 OCA  SZ I        1451  9.87        52.9 0.21                           160 353 
 YOP  SZ IP       1450 46.08                             125     0.3 9  179 154 
 YOP  SZ I        1450 47.08        20.8 0.09                           179 154 
 NOR  SZ IP       1450 51.81                             117     0.0 8  237 235 
 NOR  SN ES   1   1451 18.81                             117    -0.7 6  237 235 
 CHI  HZ EP       1450 53.67                             115     0.0 8  250 195 
 CHI  HN ES   2   1451 23.15                             115     0.2 4  250 195 
 CHI  HZ I        1451 31.08        12.7 0.39                           250 195 
 HEL  HZ EP       1450 56.51                             113     0.2 8  274 256 
 HEL  HN ES   1   1451 27.77                             113     0.2 6  274 256 
 HEL  HZ I        1451 34.85        23.8 0.48                           274 256 
 DBB  SZ IP       1451  3.37                             108    -0.2 7  341 274 
 SDV  BZ EP   1   1451  4.85                             107    -1.0 5  359  50 
                                                                                
