 2010  219 1246 15.6 L   6.795 -73.007141.8  RSN 10 0.5 2.8LRSN                1
 GAP=197        0.78       4.3    11.2  7.4 -0.2157E+02  0.3378E+02  0.1218E+01E
 Epicentro: CEPITA - SANTANDER                                                 3
 ACTION:UP  10-08-24 09:49 OP:vdl  STATUS:               ID:20100219124615 L   I
 2010-02-19-1244-35S.COL___094                                                 6
 STAT SP IPHASW D HRMM SECON CODA AMPLIT PERI AZIMU VELO SNR AR TRES W  DIS CAZ7
 BAR2 SZ IP       1246 34.99                             168     0.110   30 221 
 BAR2 SZ ES   2   1246 49.23                             168    -0.7 5   30 221 
 GIR2 SZ IP       1246 35.09                             164     0.110   38 327 
 GIR2 SZ ES   2   1246 50.57                             164     0.5 5   38 327 
 RUS  BZ EP   1   1246 38.91                             143     0.0 7  100 185 
 RUS  BN ES   2   1246 57.33                             143     0.2 5  100 185 
 RUS  BZ I        1246 58.92        95.2 0.38                           100 185 
 OCA  SZ IP       1246 43.74                             128    -0.1 9  163 348 
 OCA  SZ ES   2   1247  5.15                             128    -0.8 5  163 348 
 CHI  HZ EP   1   1246 53.12                             116    -0.3 6  253 199 
 CHI  HN ES   2   1247 22.33                             116    -0.7 4  253 199 
 CHI  HZ I        1247 25.91        29.1 0.59                           253 199 
 ROSC BZ EP   1   1246 55.15                             115     0.8 6  261 214 
 ROSC BN ES   2   1247 24.09                             115    -0.5 4  261 214 
 ROSC BZ I        1247 32.44        31.2 0.29                           261 214 
 RREF BZ EP   1   1247  3.51                             109     0.7 5  333 231 
 RREF BN ES   2   1247 40.41                             109     0.7 3  333 231 
 RREF BZ I        1247 42.78        24.1 0.45                           333 231 
 TOL  SZ EP   1   1247  4.80                             108    -0.1 5  354 226 
 ANIL BZ EP   1   1247  6.29                             107    -0.1 5  368 226 
 ANIL BN ES   2   1247 45.95                             107    -0.2 3  368 226 
 ANIL BZ I        1247 50.78        48.1 0.79                           368 226 
 PRA  HZ EP   1   1247  8.82                             105    -1.0 4  399 212 
 PRA  HZ I        1247 11.43        20.0 0.28                           399 212 
 PRA  HE ES   2   1247 51.38                             105    -0.7 3  399 212 
                                                                                
