 2014  419 1914 52.8 L   6.799 -73.132151.7  RSN  8 0.5 2.0LRSN                1
 GAP=138        1.21       4.2     5.2  8.2 -0.2300E+01  0.1008E+02 -0.2652E+01E
 Epicentro: LOS SANTOS - SANTANDER                                             3
 ACTION:UPD 14-05-13 23:09 OP:nd   STATUS:               ID:20140419191452 L   I
 OLDACT:REG 14-04-19 21:05 OP:nd   STATUS:               ID:20140419191037     3
 2014-04-19-1910-37M.COL___242                                                 6
 STAT SP IPHASW D HRMM SECON CODA AMPLIT PERI AZIMU VELO AIN AR TRES W  DIS CAZ7
 BRR  HZ EP       1915 15.18                             153    0.5310 72.6 298 
 BRR  HN ES       1915 32.42                             153    0.7110 72.6 298 
 BRR  HZ I        1915 36.80        13.2 0.14            153           72.6 298 
 PAM  SZ EP       1915 15.89                             152    0.3110 76.5  39 
 PAM  SN ES       1915 33.32                             152   -0.0510 76.5  39 
 PAM  SZ I        1915 35.59        12.5 0.66            156           76.5  39 
 RUS  HZ EP       1915 17.08                             145   -0.0210  100 177 
 RUS  HN ES       1915 35.78                             145   -0.2910  100 177 
 RUS  HZ I        1915 38.58         9.7 0.28            149            100 177 
 PTB  HZ EP       1915 20.04                             133   -0.33 9  149 259 
 PTB  HN ES       1915 41.00                             133   -0.89 9  149 259 
 PTB  HZ I        1915 44.02        13.1 0.18            135            149 259 
 SPBC HZ EP       1915 21.94                             130    0.12 9  164 219 
 SPBC HN ES       1915 44.12                             130   -0.35 9  164 219 
 SPBC HZ I        1915 49.73        21.2 0.44            133            164 219 
 ZAR  HZ EP       1915 25.63                             123   -0.14 8  206 292 
 ZAR  HN ES       1915 52.09                             123    0.59 8  206 292 
 ZAR  HZ I        1915 57.46         9.5 0.32            126            206 292 
 SML  HZ EP       1915 29.80                             119   -0.03 8  244 335 
 SML  HN ES       1915 57.74                             119   -0.98 8  244 335 
 SML  HZ I        1916  1.93        15.2 0.10            121            244 335 
 GUY2CHZ EP   4   1915 39.09                             113    2.29 0  302 235 
 GUY2CHN ES       1916 11.83                             113    0.70 7  302 235 
 GUY2CHZ I        1916 19.50         5.1 0.34                           302 235 
                                                                                
