 2013  419 1040  0.2 L   6.781 -73.176141.6  RSN  6 0.5 1.7LRSN                1
 GAP=134        1.19       6.2     6.0  8.9 -0.4696E+01  0.3829E+01  0.1295E+02E
 Epicentro: LOS SANTOS - SANTANDER                                             3
 ACTION:UPD 13-05-22 14:39 OP:EP   STATUS:               ID:20130419104000 L   I
 2013-04-19-1038-50M.COL___217                                                 6
 STAT SP IPHASW D HRMM SECON CODA AMPLIT PERI AZIMU VELO AIN AR TRES W  DIS CAZ7
 BAR2 SZ EP       1040 19.21                             171   -0.0510 20.9 182 
 BAR2 SZ I        1040 37.33         6.7 0.26            167           20.9 182 
 GIR2 SZ EP       1040 19.39                             166   -0.0110 33.0 357 
 GIR2 SZ ES       1040 34.15                             166   -0.2510 33.0 357 
 GIR2 SZ I        1040 35.59         4.7 0.22            169           33.0 357 
 BRR  HZ EP       1040 21.20                             152    0.4310 69.3 301 
 BRR  HN ES       1040 37.79                             152    0.9610 69.3 301 
 BRR  HN I        1040 38.44        25.1 0.22            152           69.3 301 
 PAM  SZ EP       1040 22.19                             149    0.0110 81.2  40 
 PAM  SZ I        1040 22.45        14.0 0.24            150           81.2  40 
 PAM  SN ES       1040 38.84                             149   -0.5110 81.2  40 
 RUS  HZ EP       1040 23.59                             143    0.2010 98.8 174 
 RUS  HN ES       1040 41.63                             143    0.1310 98.8 174 
 RUS  HN I        1040 43.34         4.9 0.28            139           98.8 174 
 PTB  HZ EP       1040 26.26                             132   -0.20 9  144 259 
 PTB  HN ES       1040 46.12                             132   -0.85 9  144 259 
 PTB  HN I        1040 52.27         7.1 0.44            129            144 259 
                                                                                
