 2015  719 1208 18.9 L   6.885 -73.139126.9  RSN  5 0.3 1.5LRSN                1
 GAP=214        0.71       3.8     6.1  7.2  0.2783E+01  0.2637E+02 -0.2639E+01E
 Epicentro: LOS SANTOS - SANTANDER                                             3
 ACTION:UPD 15-09-08 21:49 OP:cam  STATUS:               ID:20150719120818 L   I
 OLDACT:UP  15-07-20 00:34 OP:ak   STATUS:               ID:20150719115748     3
 OLDACT:REG 15-07-19 21:11 OP:ak   STATUS:               ID:20150719115748     3
 2015-07-19-1157-48M.COL___340                                                 6
 STAT SP IPHASW D HRMM SECON CODA AMPLIT PERI AZIMU VELO AIN AR TRES W  DIS CAZ7
 BAR2 EZ EP       12 8 36.09                             165   -0.4310 32.7 188 
 BAR2 EZ ES       12 8 50.53                             165    0.2610 32.7 188 
 BAR2 EZ I        12 8 52.33        10.5 0.22            164           32.7 188 
 ZAR  HZ EP       12 8 50.34                             118    0.45 9  201 290 
 ZAR  HE ES       12 9 14.05                             118   -0.03 9  201 290 
 ZAR  HZ I        12 9 21.01         3.0 0.31            120            201 290 
 SML  HE ES       12 9 20.51                             114   -0.19 8  235 334 
 HEL  HZ EP   1   12 8 58.83                             110    0.26 6  275 254 
 GUY2CHZ EP   1   12 9  2.68                             108    0.27 5  307 233 
 GUY2CHE ES       12 9 36.00                             108   -0.35 7  307 233 
 GUY2CHZ I        12 9 42.05         1.2 0.34                           307 233 
                                                                                
