 2016  919 1923 43.5 L   6.775 -73.140146.5  RSN  9 0.3 1.8LRSN                1
 GAP=138        0.65       2.5     2.9  4.5 -0.5415E+00  0.4001E+01  0.3214E+00E
 Epicentro: LOS SANTOS - SANTANDER                                             3
 ACTION:UPD 17-08-17 21:14 OP:lp   STATUS:               ID:20160919192343 L   I
 OLDACT:UP  16-09-20 01:20 OP:edw  STATUS:               ID:20160919191739     3
 OLDACT:UP  16-09-20 01:19 OP:edw  STATUS:               ID:20160919191739     3
 OLDACT:REG 16-09-19 21:36 OP:edw  STATUS:               ID:20160919191739     3
 2016-09-19-1918-00M.COL___357                                                 6
 STAT SP IPHASW D HRMM SECON CODA AMPLIT PERI AZIMU VELO AIN AR TRES W  DIS CAZ7
 BAR2 EZ IP     C 1924  2.86                             172   -0.2910 20.7 193 
 BAR2 EZ ES       1924 18.70                             172    0.2210 20.7 193 
 BAR2 EZ I        1924 21.34        13.3 0.24            171           20.7 193 
 PAM  EZ EP       1924  5.79                             150   -0.0910 79.2  38 
 PAM  EE ES       1924 23.29                             150   -0.0610 79.2  38 
 PAM  EZ I        1924 24.99        21.8 0.56            153           79.2  38 
 RUS  HZ EP       1924  7.39                             145    0.2910 97.8 176 
 RUS  HN ES       1924 25.53                             145    0.0110 97.8 176 
 RUS  HZ I        1924 28.39         5.9 0.26            146           97.8 176 
 PTB  HZ EP       1924  9.96                             132   -0.55 9  148 260 
 PTB  HE ES       1924 31.51                             132   -0.09 9  148 260 
 PTB  HZ I        1924 33.29         4.8 0.16            132            148 260 
 SPBC HN ES       1924 33.93                             130   -0.08 9  161 220 
 ZAR  HZ EP       1924 16.48                             122    0.34 8  206 293 
 ZAR  HN ES       1924 41.86                             122    0.25 8  206 293 
 ZAR  HZ I        1924 47.95         6.5 0.30            123            206 293 
 CHI  HZ EP       1924 21.28                             118    0.33 8  246 195 
 CHI  HN ES       1924 50.04                             118   -0.13 8  246 195 
 CHI  HZ I        1924 56.03         2.0 0.08            119            246 195 
 GUY2CHZ EP   4   1924 28.83                             113    1.83 0  300 235 
 GUY2CHN ES   4   1925  5.84                             113    4.90 0  300 235 
 GUY2CHZ I        1925  8.32         3.2 0.32                           300 235 
 SOCV BN ES   4   1924 57.49                             112   -2.88 0  302  56 
 SJC  HZ EP   4   1924 37.19                             106   -2.19 0  412 327 
 SJC  HN ES   4   1925 18.28                             106   -4.70 0  412 327 
 SJC  HZ I        1925 27.31         3.3 0.22            107            412 327 
 CRJC HZ EP   4   1924 42.36                             103   -3.97 0  470   3 
 CRJC HN ES   4   1925 33.16                             103   -2.19 0  470   3 
                                                                                
