 2015  519 1535 10.6 L   6.816 -73.126146.0  RSN 14 0.5 2.7LRSN                1
 GAP=138        1.04       3.0     4.3  5.5 -0.3329E+01  0.9385E+01 -0.4822E+00E
 Epicentro: LOS SANTOS - SANTANDER                                             3
 ACTION:UPD 15-09-10 22:05 OP:cam  STATUS:               ID:20150519153510 L   I
 OLDACT:UP  15-05-22 15:05 OP:cam  STATUS:               ID:20150519153510 L   3
 OLDACT:UP  15-05-22 15:04 OP:cam  STATUS:               ID:20150519153510 L   3
 OLDACT:UP  15-05-22 07:05 OP:DRIO STATUS:               ID:20150519153510 L   3
 OLDACT:REG 15-05-19 20:53 OP:ar   STATUS:               ID:20150519152748     3
 2015-05-19-1527-48M.COL___283                                                 6
 STAT SP IPHASW D HRMM SECON CODA AMPLIT PERI AZIMU VELO AIN AR TRES W  DIS CAZ7
 BAR2 EZ EP       1535 30.13                             170   -0.2010 25.5 194 
 BAR2 EZ ES       1535 45.17                             170   -0.5310 25.5 194 
 BAR2 EZ I        1535 46.09       211.5 0.20            169           25.5 194 
 BRR  HZ EP     D 1535 32.05                             152    0.1910 72.3 296 
 BRR  HN ES       1535 49.11                             152    0.6910 72.3 296 
 BRR  HZ I        1535 52.10       125.7 0.28            149           72.3 296 
 PAM  SZ EP       1535 33.08                             152    0.3810 74.7  39 
 PAM  SE ES       1535 50.17                             152    0.2510 74.7  39 
 PAM  SZ I        1535 52.35        89.7 0.68            155           74.7  39 
 RUS  HZ EP       1535 34.23                             143   -0.2810  102 177 
 RUS  HE ES       1535 53.30                             143    0.1510  102 177 
 RUS  HZ I        1535 53.61        64.3 0.26            146            102 177 
 OCA  HZ EP       1535 38.53                             130   -0.28 9  159 352 
 OCA  HN ES       1536  0.28                             130   -0.52 9  159 352 
 OCA  HZ I        1536  3.48       116.1 0.22            131            159 352 
 SPBC HZ EP       1535 39.01                             129   -0.39 9  166 219 
 SPBC HE ES       1536  2.29                             129    0.45 9  166 219 
 SPBC HZ I        1536  6.00        95.3 0.20            130            166 219 
 ZAR  HZ EP       1535 43.24                             122    0.02 8  205 291 
 ZAR  HN ES       1536  8.56                             122   -0.09 8  205 291 
 ZAR  HZ I        1536 14.05        77.2 0.32            122            205 291 
 NOR  HZ EP       1535 46.54                             118   -0.12 8  237 234 
 NOR  HN ES       1536 13.62                             118   -1.15 8  237 234 
 NOR  HZ I        1536 15.99        43.7 0.16            119            237 234 
 SML  HZ EP       1535 47.71                             118    0.53 8  243 335 
 SML  HN ES   1   1536 14.92                             118   -0.79 6  243 335 
 SML  HZ I        1536 22.67        57.3 0.10            118            243 335 
 HEL  HZ EP       1535 51.82                             115    0.70 8  275 256 
 HEL  HE ES   1   1536 22.94                             115    0.22 6  275 256 
 HEL  HZ I        1536 29.69        23.1 0.40            115            275 256 
 GUY2CHZ EP       1535 55.00                             112    0.45 7  304 235 
 GUY2CHN ES       1536 28.84                             112    0.02 7  304 235 
 GUY2CHZ I        1536 34.62        21.8 0.36                           304 235 
 RREF HZ EP       1535 56.98                             111   -0.11 7  325 229 
 RREF HE ES   1   1536 33.87                             111    0.53 5  325 229 
 RREF HZ I        1536 40.74         8.1 0.28            112            325 229 
 MON  HZ EP   4   1535 57.60                             109   -2.10 0  354 308 
 MON  HN ES   4   1536 36.31                             109   -1.67 0  354 308 
 MON  HZ I        1536 40.14         7.7 0.16            109            354 308 
 SJC  HZ EP   4   1536  4.60                             106   -1.56 0  409 327 
 SJC  HN ES   4   1536 46.21                             106   -3.26 0  409 327 
 SJC  HZ I        1536 49.94         7.3 0.38            107            409 327 
                                                                                
