 2017  619 1121 56.8 L   6.770 -73.135152.6  RSN  4 0.4 1.6LRSN                1
 GAP=280        0.86       5.9     9.9  9.0 -0.2618E+00 -0.1113E+02 -0.1833E+01E
 Epicentro: LOS SANTOS - SANTANDER                                             3
 ACTION:UPD 17-09-14 16:53 OP:jn   STATUS:               ID:20170619112156 L   I
 OLDACT:UP  17-06-19 22:13 OP:dani STATUS:               ID:20170619111740     3
 OLDACT:UP  17-06-19 22:12 OP:dani STATUS:               ID:20170619111740     3
 OLDACT:UP  17-06-19 22:12 OP:dani STATUS:               ID:20170619111740     3
 OLDACT:REG 17-06-19 19:39 OP:dani STATUS:               ID:20170619111740     3
 2017-06-19-1118-00M.COL___337                                                 6
 STAT SP IPHASW D HRMM SECON CODA AMPLIT PERI AZIMU VELO AIN AR TRES W  DIS CAZ7
 BRR  HZ EP       1122 18.86                             153    0.0310 73.8 300 
 BRR  HN ES       1122 36.02                             153    0.0110 73.8 300 
 BRR  HZ I        1122 37.53         8.5 0.22            147           73.8 300 
 PTB  HZ EP       1122 23.95                             133   -0.42 9  148 260 
 PTB  HE ES   1   1122 45.08                             133   -0.80 7  148 260 
 PTB  HZ I        1122 47.15         2.5 0.17            130            148 260 
 SPBC HN ES       1122 48.56                             131    0.39 9  161 220 
 ZAR  HZ EP       1122 30.11                             124    0.18 8  206 293 
 ZAR  HN ES       1122 56.14                             124    0.37 8  206 293 
 ZAR  HZ I        1123  1.04         4.7 0.29            121            206 293 
                                                                                
