 2012  719 1753  7.8 L   6.734 -73.583 97.8  RSN  4 0.5 1.4LRSN                1
 GAP=115        0.72       5.4     3.7 13.1  0.1876E+01 -0.8280E+01 -0.1832E+02E
 Epicentro: EL CARMEN DE CHUCURI - SANTANDER                                   3
 ACTION:UPD 12-08-14 11:45 OP:ep   STATUS:               ID:20120719175307 L   I
 2012-07-19-1750-00M.COL___201                                                 6
 STAT SP IPHASW D HRMM SECON CODA AMPLIT PERI AZIMU VELO AIN AR TRES W  DIS CAZ7
 PTB  HZ IP     D 1753 26.40                             131     0.010   99 258 
 PTB  HZ I        1753 26.50         5.1 0.16            139             99 258 
 PTB  HN ES   1   1753 40.72                             131    -0.2 7   99 258 
 RUS  HZ EP       1753 27.99                             129     0.110  108 149 
 RUS  HN ES   1   1753 43.72                             129     0.1 7  108 149 
 RUS  HZ I        1753 45.01        12.7 0.24            135            108 149 
 PAM  SZ EP   1   1753 28.74                             126    -0.2 7  118  55 
 PAM  SN ES   2   1753 45.40                             126     0.0 5  118  55 
 PAM  SZ I        1753 49.43         3.3 0.32            129            118  55 
 ZAR  HN ES   3   1753 55.21                             116     2.4 2  164 301 
