 2012  919 1645 19.5 L   7.358 -73.401114.7  RSN  6 0.2 2.3LRSN                1
 GAP=176        0.46       2.9     2.2  4.1  0.9381E+00  0.2131E+01 -0.6967E+00E
 Epicentro: SABANA DE TORRES - SANTANDER                                       3
 ACTION:UPD 12-10-22 14:19 OP:ep   STATUS:               ID:20120919164519 L   I
 2012-09-19-1640-00M.COL___226                                                 6
 STAT SP IPHASW D HRMM SECON CODA AMPLIT PERI AZIMU VELO AIN AR TRES W  DIS CAZ7
 GIR2 SZ EP       1645 35.71                             160   -0.0910 38.5 143 
 BRR  HZ EP   1   1645 35.63                             157   -0.21 7 44.1 231 
 BRR  HN ES   1   1645 48.62                             157    0.06 7 44.1 231 
 BRR  HZ I        1645 49.84        52.0 0.19                          44.1 231 
 PAM  SZ IP     D 1645 38.57                             144    0.0210 77.5  91 
 PAM  SZ I        1645 38.74        42.9 0.18                          77.5  91 
 PAM  SN ES       1645 53.31                             144   -0.0810 77.5  91 
 BAR2 SZ IP       1645 39.34                             140    0.3510 88.1 164 
 BAR2 SZ ES       1645 54.29                             140    0.1110 88.1 164 
 BAR2 SZ I        1645 55.88        75.6 0.17                          88.1 164 
 ZAR  HZ EP   1   1645 45.74                             121    0.18 7  161 275 
 ZAR  HE ES   1   1646  5.69                             121   -0.18 7  161 275 
 ZAR  HZ I        1646  9.24        22.0 0.24                           161 275 
 RUS  HZ EP   1   1645 46.37                             121   -0.27 7  166 168 
 RUS  HE ES   1   1646  7.61                             121   -0.19 7  166 168 
                                                                                
