 2013  419 1524 42.7 L   6.798 -73.166149.4  RSN  6 0.4 1.9LRSN                1
 GAP=134        0.95       5.0     4.9  6.2 -0.2925E+01  0.3321E+01  0.3605E+01E
 Epicentro: LOS SANTOS - SANTANDER                                             3
 ACTION:UPD 13-05-22 14:39 OP:EP   STATUS:               ID:20130419152442 L   I
 2013-04-19-1518-46M.COL___218                                                 6
 STAT SP IPHASW D HRMM SECON CODA AMPLIT PERI AZIMU VELO AIN AR TRES W  DIS CAZ7
 BAR2 SZ EP       1525  2.81                             171    0.0310 22.9 185 
 BAR2 SZ I        1525  3.14        11.7 0.10            168           22.9 185 
 BAR2 SZ ES       1525 18.27                             171   -0.1510 22.9 185 
 GIR2 SZ EP       1525  2.76                             168   -0.0610 31.2 354 
 GIR2 SZ ES       1525 18.36                             168   -0.1410 31.2 354 
 BRR  HZ EP       1525  4.57                             154    0.4110 69.3 300 
 BRR  HN ES       1525 21.57                             154    0.6910 69.3 300 
 BRR  HN I        1525 22.62        32.9 0.24            153           69.3 300 
 PAM  SZ EP       1525  5.70                             151    0.2910 78.9  41 
 PAM  SZ I        1525  5.90         9.6 0.22            155           78.9  41 
 PAM  SN ES       1525 22.57                             151   -0.5410 78.9  41 
 RUS  HZ EP       1525  6.75                             144   -0.0810  101 175 
 RUS  HN ES       1525 25.92                             144    0.2910  101 175 
 RUS  HN I        1525 28.51         4.6 0.20            144            101 175 
 PTB  HZ EP       1525  9.43                             133   -0.36 9  146 259 
 PTB  HN ES       1525 30.42                             133   -0.48 9  146 259 
 PTB  HN I        1525 35.80        22.6 0.36            132            146 259 
                                                                                
