 2017  819 1941 11.6 L   6.589 -73.528111.9  RSN  8 0.4 1.6LRSN                1
 GAP= 71        0.71       2.8     3.3  5.7 -0.2494E+01  0.2760E+01  0.5645E+00E
 Epicentro: EL CARMEN - SANTANDER                                              3
 ACTION:UPD 17-09-04 20:22 OP:rebc STATUS:               ID:20170819194111 L   I
 OLDACT:UP  17-08-19 21:57 OP:and  STATUS:               ID:20170819193738d    3
 OLDACT:UP  17-08-19 21:56 OP:and  STATUS:               ID:20170819193738d    3
 OLDACT:UP  17-08-19 21:56 OP:and  STATUS:               ID:20170819193738d    3
 OLDACT:UP  17-08-19 21:56 OP:and  STATUS:               ID:20170819193738d    3
 OLDACT:UP  17-08-19 21:54 OP:and  STATUS:               ID:20170819193738d    3
 OLDACT:DUP 17-08-19 21:53 OP:and  STATUS:               ID:20170819193738d    3
 2017-08-19-1938-00M.COL___411                                                 6
 STAT SP IPHASW D HRMM SECON CODA AMPLIT PERI AZIMU VELO AIN AR TRES W  DIS CAZ7
 BAR2 EZ EP       1941 27.87                             160    0.2110 38.2  89 
 BAR2 EZ ES       1941 40.06                             160   -0.1410 38.2  89 
 BAR2 EZ I        1941 41.24        24.5 0.34            162           38.2  89 
 BRR  HZ IP     C 1941 28.42                             149   -0.0710 60.8 340 
 BRR  HN ES       1941 41.86                             149    0.1710 60.8 340 
 RUS  HZ EP       1941 31.64                             138    0.2410 91.4 147 
 RUS  HE ES       1941 46.82                             138   -0.0510 91.4 147 
 RUS  HZ I        1941 48.88        12.1 0.30            138           91.4 147 
 SPBC HN ES       1941 50.59                             129    0.2310  120 210 
 PAM  EZ EP       1941 34.18                             129   -0.0710  124  48 
 PAM  EN ES   2   1941 51.44                             129   -0.50 5  124  48 
 PAM  EZ I        1941 52.48         7.5 0.38            130            124  48 
 ZAR  HN ES   3   1942  2.06                             118    1.37 2  178 304 
 NOR  HE ES       1942  1.90                             116   -0.66 9  187 233 
 NOR  HZ I        1942  7.71         2.0 0.20            116            187 233 
 GUY2CHN ES   3   1942 18.39                             109    1.52 2  253 234 
                                                                                
