 2017  919 1028  8.3 L   6.770 -73.128150.0  RSN  7 0.3 1.4LRSN                1
 GAP=140        0.75       3.1     3.6  4.8 -0.3353E+00  0.6264E+01  0.2911E+01E
 Epicentro: LOS SANTOS - SANTANDER                                             3
 ACTION:UPD 17-10-05 19:14 OP:rebc STATUS:               ID:20170919102808 L   I
 OLDACT:REG 17-09-19 19:14 OP:lv   STATUS:               ID:20170919101739     3
 2017-09-19-1018-00M.COL___431                                                 6
 STAT SP IPHASW D HRMM SECON CODA AMPLIT PERI AZIMU VELO AIN AR TRES W  DIS CAZ7
 BAR2 EZ EP       1028 28.28                             172   -0.0810 20.6 197 
 BAR2 EZ ES       1028 44.09                             172    0.0610 20.6 197 
 BRR  HZ EP       1028 30.13                             152    0.0610 74.5 300 
 BRR  HN ES       1028 47.15                             152    0.0910 74.5 300 
 BRR  HZ I        1028 50.50         4.3 0.15            149           74.5 300 
 PAM  EZ EP       1028 31.13                             151    0.1110 78.8  37 
 PAM  EN ES       1028 48.56                             151   -0.2110 78.8  37 
 PAM  EZ I        1028 50.62         4.9 0.36            154           78.8  37 
 RUS  HZ EP       1028 32.30                             146    0.0910 97.2 177 
 RUS  HN ES       1028 50.95                             146    0.0810 97.2 177 
 RUS  HZ I        1028 51.30         1.9 0.26            148           97.2 177 
 ZAR  HZ EP       1028 41.34                             123    0.03 8  207 293 
 ZAR  HE ES       1029  7.29                             123    0.21 8  207 293 
 ZAR  HZ I        1029 13.14         4.1 0.19            123            207 293 
 NOR  HZ EP       1028 43.24                             119   -0.98 8  234 235 
 NOR  HN ES       1029 12.14                             119   -0.12 8  234 235 
 NOR  HZ I        1029 19.62         1.8 0.27            120            234 235 
 PRA  HZ EP       1029  2.62                             107    0.90 6  390 210 
 PRA  HE ES       1029 43.49                             107    0.08 6  390 210 
 SJC  HZ EP   4   1029  2.94                             106   -1.48 0  413 327 
 SJC  HN ES   4   1029 42.91                             106   -5.31 0  413 327 
                                                                                
