 2016 1019 1800  7.0 L   7.147 -73.163136.4  RSN  5 0.4 1.3LRSN                1
 GAP=162        0.99       5.8     5.0  7.3 -0.3961E+01  0.5444E+01  0.4521E+01E
 Epicentro: BUCARAMANGA - SANTANDER                                            3
 ACTION:UPD 16-11-09 19:21 OP:rebc STATUS:               ID:20161019180007 L   I
 OLDACT:DUP 16-10-19 23:37 OP:ar   STATUS:               ID:20161019175745d    3
 2016-10-19-1758-00M.COL___347                                                 6
 STAT SP IPHASW D HRMM SECON CODA AMPLIT PERI AZIMU VELO AIN AR TRES W  DIS CAZ7
 PAM  EZ EP       18 0 27.59                             157    0.5310 55.4  67 
 PAM  EE ES       18 0 42.01                             157   -0.6510 55.4  67 
 PAM  EZ I        18 0 45.45         4.1 0.50            157           55.4  67 
 BRR  HZ EP       18 0 26.86                             155    0.2510 60.8 266 
 BRR  HE ES       18 0 42.31                             155    0.4410 60.8 266 
 BAR2 EZ EP       18 0 26.99                             154   -0.0010 61.4 182 
 BAR2 EZ ES       18 0 42.61                             154    0.0610 61.4 182 
 BAR2 EZ I        18 0 43.56        10.6 0.50            148           61.4 182 
 RUS  HZ EP       18 0 33.16                             132    0.05 9  139 176 
 RUS  HE ES       18 0 53.51                             132    0.08 9  139 176 
 RUS  HZ I        18 1  5.23         1.1 0.52            129            139 176 
 PTB  HZ EP       18 0 33.62                             128   -0.62 9  158 245 
 PTB  HN ES       18 0 55.19                             128   -0.26 9  158 245 
 PTB  HZ I        18 0 58.59         2.6 0.48            128            158 245 
                                                                                
