 2013  319 1958 57.5 L   6.760 -73.117155.0  RSN  6 0.4 2.5LRSN                1
 GAP=142        0.97       5.1     4.5  6.5  0.2368E+01  0.6946E+01 -0.1576E+01E
 Epicentro: LOS SANTOS - SANTANDER                                             3
 ACTION:UPD 13-04-09 14:03 OP:ep   STATUS:               ID:20130319195857 L   I
 2013-03-19-1957-39M.COL___211                                                 6
 STAT SP IPHASW D HRMM SECON CODA AMPLIT PERI AZIMU VELO AIN AR TRES W  DIS CAZ7
 BAR2 SZ EP       1959 18.28                             172    0.0910 19.9 201 
 BAR2 SZ ES       1959 34.12                             172   -0.2010 19.9 201 
 BAR2 SZ I        1959 34.85        30.8 0.14            170           19.9 201 
 BRR  HZ EP       1959 20.29                             152    0.3510 76.1 300 
 BRR  HN ES       1959 37.71                             152    0.2810 76.1 300 
 BRR  HN I        1959 38.79        63.6 0.18            151           76.1 300 
 PAM  SZ EP       1959 21.16                             152    0.3510 79.0  36 
 PAM  SN ES       1959 38.51                             152   -0.4710 79.0  36 
 PAM  SN I        1959 39.40        31.3 0.74            155           79.0  36 
 RUS  HZ IP     D 1959 22.17                             147    0.3010 96.0 178 
 RUS  HN ES       1959 40.95                             147    0.0910 96.0 178 
 RUS  HN I        1959 42.47        27.9 0.38            148           96.0 178 
 PTB  HZ EP       1959 24.91                             133   -0.54 9  150 261 
 PTB  HN ES       1959 46.96                             133   -0.28 9  150 261 
 PTB  HN I        1959 51.66        62.6 0.46            133            150 261 
 ZAR  HZ EP       1959 30.38                             124   -0.66 8  209 293 
 ZAR  HE ES       1959 57.74                             124    0.55 8  209 293 
 ZAR  HE I        20 0  2.59        67.6 0.48            123            209 293 
                                                                                
