 2013  519 1819 19.5 L   6.809 -73.136152.2  RSN 16 0.4 2.5LRSN                1
 GAP= 71        0.89       2.7     2.8  4.6 -0.1150E+01  0.3004E+01  0.6781E+00E
 Epicentro: LOS SANTOS - SANTANDER                                             3
 ACTION:UPD 13-06-20 09:51 OP:ep   STATUS:               ID:20130519181919 L   I
 2013-05-19-1817-50M.COL___219                                                 6
 STAT SP IPHASW D HRMM SECON CODA AMPLIT PERI AZIMU VELO AIN AR TRES W  DIS CAZ7
 BAR2 SZ IP     C 1819 39.89                             170   -0.0810 24.5 192 
 BAR2 SZ ES   1   1819 55.74                             170   -0.17 7 24.5 192 
 BAR2 SZ I        1819 58.40        56.5 0.20            172           24.5 192 
 GIR2 SZ IP     D 1819 39.99                             168    0.0310 30.5 348 
 GIR2 SZ ES   1   1819 55.44                             168   -0.45 7 30.5 348 
 GIR2 SZ I        1819 58.42        45.4 0.22            165           30.5 348 
 BRR  HZ IP     C 1819 41.82                             153    0.4010 71.7 297 
 BRR  HE ES   1   1819 59.18                             153    0.70 7 71.7 297 
 BRR  HZ I        1820  0.93        43.2 0.32            151           71.7 297 
 PAM  SZ EP     D 1819 42.68                             152    0.3210 75.9  39 
 PAM  SZ IP       1819 42.68                             152    0.3210 75.9  39 
 PAM  SN ES   1   1820  0.24                             152    0.08 7 75.9  39 
 PAM  SZ I        1820  2.18        65.2 0.50            153           75.9  39 
 RUS  HZ IP     D 1819 43.73                             145   -0.2710  102 177 
 RUS  HN ES   1   1820  2.83                             145   -0.24 7  102 177 
 RUS  HZ I        1820  4.20        30.0 0.40            148            102 177 
 PTB  HZ EP       1819 46.72                             133   -0.44 9  149 259 
 PTB  HN ES   1   1820  8.13                             133   -0.57 7  149 259 
 PTB  HZ I        1820  9.92        63.4 0.18            133            149 259 
 TAM  HZ IP     D 1819 48.04                             132    0.37 9  154 105 
 TAM  HN ES   1   1820  9.86                             132    0.26 7  154 105 
 TAM  HZ I        1820 10.68        14.1 0.50            136            154 105 
 OCA  HZ EP   1   1819 48.56                             131    0.28 7  159 353 
 OCA  HE ES       1820 10.34                             131   -0.36 9  159 353 
 OCA  HZ I        1820 15.51        49.4 0.52            131            159 353 
 NOR  HZ EP       1819 55.85                             120    0.04 8  236 234 
 NOR  HN ES       1820 24.06                             120   -0.04 8  236 234 
 NOR  HZ I        1820 29.35        25.8 0.14            120            236 234 
 SML  HZ EP   1   1819 56.34                             119   -0.15 6  243 335 
 SML  HN ES   1   1820 24.91                             119   -0.40 6  243 335 
 SML  HZ I        1820 32.17        70.1 0.10            119            243 335 
 HEL  HZ EP       1820  0.96                             116    0.72 8  273 256 
 HEL  HN ES   1   1820 32.24                             116    0.26 6  273 256 
 HEL  HZ I        1820 39.56        24.6 0.28            116            273 256 
 URE  HZ EP       1820  0.47                             115   -0.54 7  284 292 
 URE  HE ES       1820 34.29                             115    0.94 7  284 292 
 URE  HZ I        1820 41.77        35.0 0.26            115            284 292 
 GUY2CHZ EP   1   1820  4.04                             113    0.42 5  303 235 
 GUY2CHN ES   1   1820 38.13                             113    0.12 5  303 235 
 GUY2CHZ I        1820 46.05        16.0 0.22                           303 235 
 COD  HZ EP   1   1820  7.59                             110   -0.49 5  347 354 
 COD  HN ES   1   1820 44.79                             110   -1.15 5  347 354 
 COD  HZ I        1820 55.00         6.9 0.66            111            347 354 
 SDV  BZ EP   1   1820  9.01                             109   -0.65 5  359  50 
 SDV  BN ES   4   1820 46.49                             109   -2.27 0  359  50 
 PRA  HZ EP       1820 12.91                             107   -0.55 6  393 210 
 PRA  HN ES       1820 54.88                             107   -0.63 6  393 210 
 PRA  HZ I        1820 59.79         8.5 0.22            108            393 210 
 SJC  HZ EP   4   1820 14.07                             107   -1.23 0  409 327 
 SJC  HN ES   4   1820 54.69                             107   -4.10 0  409 327 
                                                                                
