 2014  319 1306 31.9 L   6.864 -73.152146.3  RSN  5 0.3 1.8LRSN                1
 GAP=280        0.65       7.7     4.5  7.6  0.1119E+01  0.8924E+01 -0.9852E+01E
 Epicentro: LOS SANTOS - SANTANDER                                             3
 OLDACT:REG 14-03-19 15:45 OP:fm   STATUS:               ID:20140319125806     3
 ACTION:UPD 14-04-09 23:18 OP:nd   STATUS:               ID:20140319130631 L   I
 OLDACT:UP  14-03-19 19:21 OP:fm   STATUS:               ID:20140319125806     3
 2014-03-19-1258-06M.COL___238                                                 6
 STAT SP IPHASW D HRMM SECON CODA AMPLIT PERI AZIMU VELO AIN AR TRES W  DIS CAZ7
 BAR2 SZ EP       13 6 51.92                             168    0.1210 30.2 186 
 BAR2 SZ ES   1   13 7  7.68                             168    0.40 7 30.2 186 
 BAR2 SZ I        13 7  9.50        19.5 0.94            170           30.2 186 
 RUS  HZ EP   1   13 6 56.32                             142    0.05 7  108 176 
 RUS  HN ES   1   13 7 14.75                             142   -0.49 7  108 176 
 RUS  SZ I        13 7 15.36         5.4 0.26            148            108 176 
 PTB  HZ EP       13 6 58.91                             132   -0.12 9  149 256 
 PTB  HN ES       13 7 19.88                             132   -0.28 9  149 256 
 PTB  SZ I        13 7 26.72         7.3 2.26            133            149 256 
 NOR  HN ES   1   13 7 36.79                             118    0.50 6  238 233 
 GUY2CHE ES   2   13 7 50.79                             112    0.46 4  305 234 
                                                                                
