 2014  919 1136 59.6 L   6.861 -73.146150.2  RSN 25 0.4 2.7LRSN                1
 GAP= 64        0.91       2.3     2.8  4.2  0.3553E+00  0.2638E+01  0.1981E+01E
 Epicentro: LOS SANTOS - SANTANDER                                             3
 ACTION:UPD 14-10-03 23:06 OP:nd   STATUS:               ID:20140919113659 L   I
 OLDACT:REG 14-09-19 16:51 OP:spq  STATUS:               ID:20140919112818     3
 2014-09-19-1128-18M.COL___281                                                 6
 STAT SP IPHASW D HRMM SECON CODA AMPLIT PERI AZIMU VELO AIN AR TRES W  DIS CAZ7
 BAR2 SZ IP     D 1137 19.72                             168   -0.1510 30.0 188 
 BAR2 SZ ES   1   1137 35.18                             168   -0.53 7 30.0 188 
 BAR2 SZ I        1137 36.05        97.7 0.22            164           30.0 188 
 BRR  HZ IP     C 1137 21.29                             154    0.2610 68.2 294 
 BRR  HE ES       1137 38.06                             154    0.2910 68.2 294 
 BRR  HZ I        1137 41.41        63.2 0.16            150           68.2 294 
 PAM  SZ EP       1137 22.44                             153    0.4810 72.3  43 
 PAM  SN ES       1137 39.07                             153   -0.3610 72.3  43 
 PAM  SZ I        1137 41.18        74.5 0.36            159           72.3  43 
 RUS  HZ EP       1137 23.88                             143   -0.3610  107 176 
 RUS  HN ES   1   1137 43.00                             143   -0.48 7  107 176 
 PTB  HZ EP       1137 26.33                             133   -0.69 9  149 256 
 PTB  HE ES   1   1137 48.89                             133    0.45 7  149 256 
 PTB  HZ I        1137 52.95        64.2 0.14            130            149 256 
 OCA  HZ EP       1137 27.46                             132   -0.14 9  154 353 
 OCA  HN ES       1137 49.65                             132    0.18 9  154 353 
 OCA  HZ I        1137 53.45        78.9 0.16            134            154 353 
 TAM  HZ IP     C 1137 28.25                             131    0.48 9  157 107 
 TAM  HN ES       1137 50.06                             131    0.29 9  157 107 
 TAM  HZ I        1137 50.68        33.1 0.70            136            157 107 
 SPBC HZ EP       1137 29.01                             129    0.11 9  168 218 
 SPBC HN ES       1137 51.73                             129   -0.05 9  168 218 
 SPBC HZ I        1137 57.25        69.1 0.22            128            168 218 
 ZAR  HZ EP       1137 32.37                             124    0.32 9  202 290 
 ZAR  HN ES       1137 57.64                             124    0.26 9  202 290 
 ZAR  HZ I        1138  3.47        66.9 0.20            123            202 290 
 SML  HZ EP       1137 35.42                             119   -0.36 8  238 335 
 SML  HE ES   1   1138  4.08                             119    0.05 6  238 335 
 SML  HZ I        1138  7.64        68.2 0.11            120            238 335 
 CHI  HZ EP       1137 38.45                             117    0.24 8  255 195 
 CHI  HN ES       1138  8.83                             117    0.47 8  255 195 
 CHI  HZ I        1138 15.50        21.1 0.62            118            255 195 
 ROSC BZ EP   4   1137 40.46                             117    1.90 0  259 210 
 ROSC BE ES   4   1138 12.53                             117    3.56 0  259 210 
 ROSC BZ I        1138 16.63        40.6 0.35            117            259 210 
 URE  HZ EP   1   1137 39.68                             115   -0.89 6  281 291 
 URE  HN ES   4   1138  9.97                             115   -2.59 0  281 291 
 URE  HZ I        1138 20.49        48.5 0.19            115            281 291 
 GUY2CHZ EP       1137 44.45                             113    0.63 7  305 234 
 GUY2CHN ES   4   1138 23.16                             113    4.82 0  305 234 
 GUY2CHZ I        1138 27.55        37.4 0.38                           305 234 
 VIL  SZ EP   1   1137 44.03                             112    0.10 5  310 191 
 VIL  SE ES   1   1138 18.01                             112   -0.53 5  310 191 
 VIL  SZ I        1138 25.16        29.4 0.32            113            310 191 
 PTGC HZ EP       1137 43.56                             112   -0.77 7  315 159 
 PTGC HN ES   4   1138 16.30                             112   -2.95 0  315 159 
 PTGC HZ I        1138 19.58        20.3 0.36            113            315 159 
 CBOC HZ EP   1   1137 47.65                             110    0.75 5  336 251 
 CBOC HE ES   1   1138 23.06                             110   -0.77 5  336 251 
 CBOC HZ I        1138 34.60        11.5 0.54            110            336 251 
 DBB  SZ EP   1   1137 46.85                             110   -0.32 5  339 273 
 DBB  SZ ES   4   1138 23.18                             110   -1.12 0  339 273 
 DBB  SZ I        1138 36.60        58.2 0.46            110            339 273 
 TOL  SZ EP   1   1137 48.64                             110    0.09 5  348 224 
 TOL  SN ES   4   1138 31.36                             110    4.60 0  348 224 
 TOL  SZ I        1138 35.18        47.8 0.52            110            348 224 
 MON  HZ EP   4   1137 46.72                             110   -1.54 0  349 308 
 MON  HE ES   4   1138 24.79                             110   -1.45 0  349 308 
 MON  HZ I        1138 32.11        11.7 0.20            110            349 308 
 ANIL HZ EP   1   1137 50.36                             109    0.26 5  362 224 
 ANIL HE ES   4   1138 31.99                             109    2.48 0  362 224 
 ANIL HZ I        1138 34.57         5.9 0.34            109            362 224 
 PRA  HZ EP       1137 53.74                             107   -0.18 6  398 209 
 PRA  HN ES   4   1138 37.92                             107    1.59 0  398 209 
 PRA  HZ I        1138 42.01        26.3 0.41            107            398 209 
 ORTC HZ EP       1137 54.95                             107    0.68 6  401 216 
 ORTC HN ES   4   1138 39.51                             107    2.56 0  401 216 
 ORTC HZ I        1138 41.80        11.3 0.32            107            401 216 
 SJC  HZ EP       1137 53.68                             107   -0.93 6  404 326 
 SJC  HE ES   4   1138 34.30                             107   -3.25 0  404 326 
 SJC  HZ I        1138 38.43         9.8 0.58            107            404 326 
 MACC HZ EP   4   1138  7.53                             102   -1.65 0  527 189 
 MACC HN ES   4   1138 59.26                             102   -4.22 0  527 189 
 MACC HZ I        1139  6.07         6.3 0.46            103            527 189 
                                                                                
