 2017 1019 1034  7.6 L   6.382 -73.693103.1  RSN  6 0.3 0.9LRSN                1
 GAP= 79        0.78       2.9     2.9  7.0  0.1975E+01  0.5413E+01  0.2436E+01E
 Epicentro: SANTA HELENA DEL OPON - SANTANDER                                  3
 OLDACT:UP  17-10-19 21:15 OP:edw  STATUS:               ID:20171019102151d    3
 OLDACT:UP  17-10-19 21:14 OP:edw  STATUS:               ID:20171019102151d    3
 OLDACT:DUP 17-10-19 21:12 OP:edw  STATUS:               ID:20171019102151d    3
 OLDACT:UP  17-10-19 21:11 OP:edw  STATUS:               ID:20171019102150     3
 OLDACT:UP  17-10-19 21:10 OP:edw  STATUS:               ID:20171019102150     3
 OLDACT:REG 17-10-19 19:38 OP:edw  STATUS:               ID:20171019102150     3
 ACTION:UPD 17-11-07 19:33 OP:rebc STATUS:               ID:20171019103407 L   I
 OLDACT:UP  17-10-19 21:24 OP:edw  STATUS:               ID:20171019102152d    3
 OLDACT:UP  17-10-19 21:21 OP:edw  STATUS:               ID:20171019102152d    3
 OLDACT:DUP 17-10-19 21:18 OP:edw  STATUS:               ID:20171019102152d    3
 OLDACT:UP  17-10-19 21:17 OP:edw  STATUS:               ID:20171019102151d    3
 OLDACT:UP  17-10-19 21:16 OP:edw  STATUS:               ID:20171019102151d    3
 2017-10-19-1028-00M.COL___435                                                 6
 STAT SP IPHASW D HRMM SECON CODA AMPLIT PERI AZIMU VELO AIN AR TRES W  DIS CAZ7
 BAR2 EZ EP       1034 24.03                             147    0.0910 61.1  68 
 BAR2 EZ ES       1034 36.86                             147    0.1510 61.1  68 
 BRR  HN ES       1034 38.77                             139    0.1610 80.3 359 
 PTB  HZ EP       1034 25.28                             137   -0.2410 86.2 282 
 PTB  HN ES       1034 39.01                             137   -0.5110 86.2 282 
 PTB  HZ I        1034 42.25         1.7 0.30            140           86.2 282 
 RUS  HZ EP       1034 25.97                             137   -0.2310 86.5 129 
 RUS  HN ES       1034 40.45                             137   -0.2910 86.5 129 
 RUS  HZ I        1034 43.51         1.9 0.38            141           86.5 129 
 SPBC HZ EP       1034 26.25                             135    0.2310 90.9 208 
 SPBC HN ES       1034 40.86                             135    0.4410 90.9 208 
 SPBC HZ I        1034 44.67         2.6 0.32            137           90.9 208 
 ZAR  HN ES       1034 56.13                             115    0.25 9  178 314 
                                                                                
