 2013  219 1333 41.3 L   6.639 -73.310131.0  RSN  7 0.6 1.7LRSN                1
 GAP=138        1.37       9.1     5.9 11.0  0.2504E+02  0.1383E+02  0.2510E+02E
 Epicentro: GALAN - SANTANDER                                                  3
 ACTION:UPD 13-03-12 09:34 OP:ep   STATUS:               ID:20130219133341 L   I
 2013-02-19-1330-00M.COL___241                                                 6
 STAT SP IPHASW D HRMM SECON CODA AMPLIT PERI AZIMU VELO AIN AR TRES W  DIS CAZ7
 BAR2 SZ ES       1334 11.99                             173   -0.8410 15.0 110 
 BRR  HZ EP   4   1333 59.11                             151   -1.60 0 68.2 319 
 BRR  HN ES       1334 15.83                             151    0.0010 68.2 319 
 BRR  HN I        1334 18.45        17.8 0.58            151           68.2 319 
 BRR  HZ I        1334 28.11        12.9 0.33                          68.2 319 
 RUS  HZ EP   1   1334  1.67                             145   -0.92 7 86.3 163 
 RUS  HN ES       1334 19.61                             145    0.4310 86.3 163 
 RUS  HN I        1334 20.65         3.3 0.22            146           86.3 163 
 PTB  HZ EP       1334  4.86                             133   -0.3610  127 265 
 PTB  HN ES       1334 24.58                             133    0.7110  127 265 
 PTB  HN I        1334 26.96         7.5 0.16            134            127 265 
 TAM  HN ES       1334 31.84                             124    0.73 9  169  98 
 TAM  HZ I        1334 32.10        10.5 0.18            126            169  98 
 ZAR  HN ES   1   1334 36.07                             120    0.28 6  195 299 
 CHI  HZ EP   1   1334 15.59                             116   -0.27 6  227 192 
                                                                                
