 2017 1119 1652  1.8 L   6.826 -73.159139.0  RSN 22 0.6 2.5LRSN                1
 GAP= 64        1.27       3.0     3.3  5.9 -0.8591E+00  0.6718E+01  0.6491E+00E
 Epicentro: LOS SANTOS - SANTANDER                                             3
 ACTION:UPD 17-12-12 19:57 OP:rebc STATUS:               ID:20171119165201 L   I
 OLDACT:UP  17-11-19 23:03 OP:lv   STATUS:               ID:20171119164740     3
 OLDACT:REG 17-11-19 20:37 OP:lv   STATUS:               ID:20171119164740     3
 2017-11-19-1648-00M.COL___477                                                 6
 STAT SP IPHASW D HRMM SECON CODA AMPLIT PERI AZIMU VELO AIN AR TRES W  DIS CAZ7
 BAR2 EZ IP     C 1652 20.70                             169   -0.0110 26.0 186 
 BAR2 EZ ES       1652 35.57                             169    0.1410 26.0 186 
 BAR2 EZ I        1652 36.90       109.3 0.16            167           26.0 186 
 PAM  EZ IP     D 1652 23.50                             150    0.2410 76.2  42 
 PAM  EN ES       1652 40.46                             150    0.4910 76.2  42 
 PAM  EZ I        1652 42.11        39.6 0.22            155           76.2  42 
 RUS  HZ IP     C 1652 24.69                             141   -0.4610  104 175 
 RUS  HN ES       1652 43.06                             141   -0.2810  104 175 
 RUS  HZ I        1652 44.31        20.9 0.20            142            104 175 
 PTB  HZ EP       1652 27.72                             130   -0.46 9  147 258 
 PTB  HN ES       1652 47.89                             130   -0.84 9  147 258 
 PTB  HZ I        1652 51.13        24.6 0.18            130            147 258 
 TAM  HZ IP     D 1652 29.04                             128   -0.15 9  157 106 
 TAM  HN ES       1652 50.03                             128   -0.50 9  157 106 
 TAM  HZ I        1652 51.13        24.2 0.26            132            157 106 
 SPBC HZ EP       1652 29.66                             127   -0.29 9  165 218 
 SPBC HN ES       1652 51.56                             127   -0.32 9  165 218 
 SPBC HZ I        1652 56.53        51.5 0.26            127            165 218 
 YPLC HZ EP       1652 31.14                             124   -0.33 9  180 151 
 YPLC HN ES       1652 55.01                             124    0.43 9  180 151 
 YPLC HZ I        1652 55.80        38.3 0.30            126            180 151 
 ZAR  HZ EP       1652 33.78                             121    0.18 9  202 292 
 ZAR  HN ES       1652 58.79                             121    0.42 9  202 292 
 ZAR  HZ I        1653  5.45        45.0 0.38            122            202 292 
 TABC EZ EP   4   1652 38.50                             117    1.12 0  232 210 
 TABC EZ ES   4   1653  7.86                             117    2.76 0  232 210 
 TABC EZ I        1653 12.46        34.0 0.40            118            232 210 
 NOR  HZ EP       1652 36.80                             117   -0.44 8  235 234 
 NOR  HN ES       1653  4.99                             117    0.14 8  235 234 
 NOR  HZ I        1653  6.73        31.2 0.20            117            235 234 
 CHI  HZ EP       1652 39.15                             115   -0.28 8  251 195 
 CHI  HN ES       1653  8.11                             115   -0.64 8  251 195 
 CHI  HZ I        1653 14.32        13.8 0.26            116            251 195 
 ROSC BZ EP       1652 40.91                             115    1.12 8  254 210 
 ROSC BN ES       1653 11.42                             115    2.04 8  254 210 
 ROSC BZ I        1653 18.37        32.8 0.40            116            254 210 
 URE  HZ EP       1652 41.77                             112   -0.54 7  281 291 
 URE  HN ES   4   1653 12.01                             112   -1.87 0  281 291 
 URE  HZ I        1653 18.35        18.1 0.14            113            281 291 
 DRL03HZ EP       1652 43.21                             112    0.42 7  286 353 
 DRL03HN ES       1653 15.09                             112    0.36 7  286 353 
 GUY2CHZ EP       1652 45.33                             111    0.14 7  302 234 
 GUY2CHN ES       1653 18.26                             111   -0.75 7  302 234 
 GUY2CHZ I        1653 27.60        16.1 0.62                           302 234 
 VIL  EZ EP       1652 44.88                             110   -0.36 7  306 191 
 VIL  EN ES       1653 19.85                             110    0.75 7  306 191 
 VIL  EZ I        1653 24.31        18.0 0.44            112            306 191 
 PTGC HZ EP   9   1652 43.97                             110   -1.79 0  312 159 
 PTGC HN ES       1653 17.18                                   -1.05 7  312 159 
 PTGC HZ I        1653 19.83        14.5 0.26            111            312 159 
 CBOC HZ EP       1652 49.06                             108    0.64 7  333 252 
 CBOC HN ES   4   1653 23.24                             108   -1.52 0  333 252 
 CBOC HZ I        1653 31.79         4.5 0.24            109            333 252 
 DBB  EZ EP   1   1652 48.04                             108   -0.81 5  338 274 
 DBB  EN ES   4   1653 22.93                             108   -2.60 0  338 274 
 PRA  HZ EP       1652 55.25                             105   -0.09 6  394 209 
 PRA  HN ES       1653 36.93                             105   -0.14 6  394 209 
 PRA  HZ I        1653 43.59        20.0 0.24            106            394 209 
 ORTC HZ EP       1652 55.96                             105    0.26 6  397 216 
 ORTC HN ES       1653 38.62                             105    0.90 6  397 216 
 ORTC HZ I        1653 43.27        11.9 0.34            106            397 216 
 SJC  HZ EP   4   1652 55.38                             105   -1.43 0  406 327 
 SJC  HN ES   4   1653 36.32                             105   -3.36 0  406 327 
 PAL  HZ EP       1652 56.82                             105    0.01 6  406 239 
 PAL  HN ES       1653 39.65                             105   -0.03 6  406 239 
 PAL  HZ I        1653 43.92         6.2 0.36            106            406 239 
                                                                                
