 2014  719 1044 26.4 L   6.806 -73.169140.0  RSN 15 0.5 2.3LRSN                1
 GAP=133        1.05       2.6     3.7  5.5 -0.1884E+01  0.9080E+01  0.5288E+00E
 Epicentro: LOS SANTOS - SANTANDER                                             3
 ACTION:UPD 15-03-16 20:45 OP:nd   STATUS:               ID:20140719104426 L   I
 OLDACT:REG 14-07-19 20:59 OP:stll STATUS:               ID:20140719103819     3
 2014-07-19-1038-19M.COL___269                                                 6
 STAT SP IPHASW D HRMM SECON CODA AMPLIT PERI AZIMU VELO AIN AR TRES W  DIS CAZ7
 BAR2 SZ IP     D 1044 45.64                             170    0.2610 23.7 183 
 BAR2 SZ ES       1045  0.27                             170    0.1110 23.7 183 
 BAR2 SZ I        1045  1.97       123.2 0.20            167           23.7 183 
 PAM  SZ IP     D 1044 48.51                             149    0.4010 78.6  41 
 PAM  SZ I        1044 48.72        49.5 0.24            151           78.6  41 
 PAM  SN ES       1045  5.32                             149    0.3010 78.6  41 
 RUS  HZ EP       1044 49.33                             142   -0.3610  101 175 
 RUS  HZ I        1044 50.64        15.5 0.16            141            101 175 
 RUS  HE ES       1045  7.77                             142   -0.0610  101 175 
 PTB  HZ EP       1044 52.14                             131   -0.57 9  145 258 
 PTB  HN ES       1045 12.97                             131   -0.24 9  145 258 
 PTB  HZ I        1045 15.29        15.8 0.20            126            145 258 
 OCA  HZ EP       1044 53.89                             128   -0.32 9  159 354 
 OCA  HN ES       1045 15.91                             128    0.04 9  159 354 
 OCA  HZ I        1045 18.81        23.0 0.22            126            159 354 
 ZAR  HZ EP       1044 58.47                             121    0.24 9  201 292 
 ZAR  HN ES       1045 23.11                             121    0.08 9  201 292 
 ZAR  HZ I        1045 30.05        13.3 0.62            117            201 292 
 NOR  HZ IP     D 1045  2.10                             117    0.45 8  233 234 
 NOR  HN ES       1045 29.14                             117    0.03 8  233 234 
 NOR  HZ I        1045 36.61        14.2 0.22            114            233 234 
 SML  HZ EP       1045  1.69                             116   -0.87 8  242 336 
 SML  HN ES       1045 30.20                             116   -0.53 8  242 336 
 SML  HZ I        1045 32.76        16.5 0.10            114            242 336 
 CHI  HZ EP       1045  3.81                             116   -0.01 8  249 195 
 CHI  HN ES       1045 31.93                             116   -1.05 8  249 195 
 CHI  HZ I        1045 39.94         9.1 0.46            114            249 195 
 HEL  HZ EP       1045  6.96                             114    0.87 8  270 256 
 HEL  HN ES       1045 37.68                             114    0.65 8  270 256 
 HEL  HZ I        1045 45.52         8.0 0.20            110            270 256 
 GUY2CHZ EP       1045 10.10                             111    0.52 7  299 234 
 GUY2CHE ES       1045 43.44                             111    0.20 7  299 234 
 GUY2CHZ I        1045 52.06        15.7 0.34                           299 234 
 CBOC HZ EP       1045 13.40                             109    0.55 7  331 252 
 CBOC HN ES       1045 48.27                             109   -0.79 7  331 252 
 CBOC HZ I        1046  8.43         2.8 0.40            106            331 252 
 DBB  SZ EP       1045 13.09                             109   -0.28 7  337 274 
 DBB  SZ I        1045 53.61        16.5 0.44            106            337 274 
 TOL  SZ EP       1045 15.15                             108    0.84 7  342 224 
 TOL  SN ES       1045 52.06                             108    0.41 7  342 224 
 PRA  HZ EP       1045 19.40                             106   -0.28 6  391 209 
 PRA  HN ES       1046  0.67                             106   -0.54 6  391 209 
 PRA  HZ I        1046  8.03        12.2 0.48            104            391 209 
                                                                                
