 2011 1019 1404 56.0 L   6.756 -73.103140.0  RSN  5 0.1 1.4LRSN                1
 GAP=144        0.35       3.0     3.4  4.8 -0.1056E+01  0.2018E+00  0.5947E+01E
 Epicentro: LOS SANTOS - SANTANDER                                             3
 ACTION:UPD 12-07-13 16:04 OP:ep   STATUS:               ID:20111019140457dL   I
 2011-10-19-1400-00M.COL___171                                                 6
 STAT SP IPHASW D HRMM SECON CODA AMPLIT PERI AZIMU VELO AIN AR TRES W  DIS CAZ7
 BAR2 SZ EP       14 5 14.89                             171   -0.0110 20.1 206 
 BAR2 SZ I        14 5 24.09         6.6 0.62                          20.1 206 
 BRR  HZ EP   1   14 5 16.71                             149   -0.23 7 77.7 300 
 BRR  HZ I        14 5 23.85         9.6 0.33                          77.7 300 
 BRR  HN ES   1   14 5 33.37                             149    0.11 7 77.7 300 
 PAM  SZ EP   1   14 5 17.68                             149   -0.01 7 78.4  35 
 PAM  SN ES   1   14 5 34.64                             149    0.04 7 78.4  35 
 RUS  HZ EP   1   14 5 19.00                             144    0.15 7 95.5 179 
 RUS  HZ I        14 5 19.60         2.3 0.12                          95.5 179 
 RUS  HN ES   2   14 5 36.44                             144   -0.20 5 95.5 179 
 NOR  SZ EP   2   14 5 31.71                             117    0.16 4  236 236 
                                                                                
