 2014 1219 1920 51.4 L   6.757 -73.162143.4  RSN  5 0.2 1.3LRSN                1
 GAP=136        0.54       4.0     3.3  5.4 -0.4004E+01  0.4804E+01 -0.4702E+01E
 Epicentro: LOS SANTOS - SANTANDER                                             3
 ACTION:UPD 15-02-10 17:05 OP:nd   STATUS:               ID:20141219192051 L   I
 OLDACT:DUP 14-12-20 01:52 OP:spq  STATUS:               ID:20141219191748d    3
 2014-12-19-1917-47M.COL___293                                                 6
 STAT SP IPHASW D HRMM SECON CODA AMPLIT PERI AZIMU VELO AIN AR TRES W  DIS CAZ7
 BAR2 EZ EP       1921 10.72                             172    0.0510 18.3 187 
 BAR2 EZ ES   1   1921 25.32                             172   -0.37 7 18.3 187 
 BAR2 EZ I        1921 26.91         5.1 0.34            173           18.3 187 
 BRR  HZ EP       1921 12.68                             152    0.3210 72.1 303 
 PAM  SZ EP       1921 13.60                             149   -0.0810 82.2  38 
 PAM  SE ES   1   1921 31.08                             149    0.04 7 82.2  38 
 PAM  SZ I        1921 33.00         5.6 0.56            152           82.2  38 
 RUS  HZ EP   1   1921 14.49                             145   -0.11 7 96.0 175 
 RUS  HN ES   1   1921 32.96                             145    0.27 7 96.0 175 
 RUS  HZ I        1921 34.43         2.3 0.41            148           96.0 175 
 PTB  HZ EP       1921 17.66                             132   -0.29 9  145 261 
 PTB  HN ES       1921 38.70                             132    0.05 9  145 261 
 PTB  HZ I        1921 42.19         3.1 0.03            134            145 261 
                                                                                
