 2015 1119 1646 23.4 L   6.815 -73.114147.6  RSN  8 0.5 2.1LRSN                1
 GAP=140        1.04       3.6     4.9  7.3 -0.2991E+01  0.1019E+02 -0.1399E+01E
 Epicentro: LOS SANTOS - SANTANDER                                             3
 ACTION:UPD 15-12-28 16:12 OP:cam  STATUS:               ID:20151119164623 L   I
 OLDACT:UP  15-11-19 23:20 OP:dnl  STATUS:               ID:20151119163750     3
 OLDACT:REG 15-11-19 20:44 OP:dnl  STATUS:               ID:20151119163750     3
 2015-11-19-1637-50M.COL___310                                                 6
 STAT SP IPHASW D HRMM SECON CODA AMPLIT PERI AZIMU VELO AIN AR TRES W  DIS CAZ7
 BRR  HZ EP       1646 45.40                             152    0.4910 73.5 296 
 BRR  HE ES   1   1647  0.94                             152   -0.72 7 73.5 296 
 BRR  HN ES       1647  2.02                             152    0.3610 73.5 296 
 PAM  EZ EP     D 1646 46.12                             152    0.4810 73.9  38 
 PAM  EN ES       1647  3.02                             152    0.0610 73.9  38 
 PAM  EZ I        1647  5.22        27.7 0.56            155           73.9  38 
 RUS  HZ EP   2   1646 47.07                             144   -0.40 5  102 178 
 RUS  HE ES       1647  5.87                             144   -0.3610  102 178 
 RUS  HZ I        1647  6.82         9.8 0.28            145            102 178 
 SPBC HZ EP   4   1646 48.42                             129   -3.98 0  167 220 
 SPBC HE ES       1647 14.89                             129   -0.11 9  167 220 
 SPBC HZ I        1647 18.32        13.0 0.23            129            167 220 
 ZAR  HZ EP   4   1646 58.38                             122    2.12 0  207 291 
 ZAR  HE ES       1647 22.50                             122    0.63 8  207 291 
 ZAR  HZ I        1647 28.36        13.2 0.35            123            207 291 
 NOR  HZ EP       1646 59.89                             118    0.22 8  239 235 
 NOR  HN ES       1647 27.92                             118   -0.03 8  239 235 
 NOR  HZ I        1647 31.04         8.4 0.23            119            239 235 
 SML  HZ EP       1646 59.67                             118   -0.48 8  244 334 
 SML  HE ES       1647 27.83                             118   -0.97 8  244 334 
 SOCV BE ES   4   1647 37.03                             113   -2.41 0  297  57 
 GUY2CHZ EP   2   1647  7.47                             112   -0.08 4  305 235 
 GUY2CHE ES   2   1647 41.33                             112   -0.64 4  305 235 
 GUY2CHZ I        1647 48.31         5.6 0.30                           305 235 
 MON  HE ES   4   1647 45.52                             109   -5.60 0  355 308 
 PRA  HZ EP   4   1647 17.99                             107    0.60 0  395 210 
 PRA  HE ES   4   1647 56.60                             107   -2.87 0  395 210 
                                                                                
