 2016  419 1019 10.9 L   6.814 -73.156144.1  RSN  4 0.4 1.5LRSN                1
 GAP=244        0.91       9.2     6.9  8.6  0.4208E+02  0.4365E+01 -0.1772E+02E
 Epicentro: LOS SANTOS - SANTANDER                                             3
 ACTION:UPD 16-05-05 14:22 OP:rebc STATUS:               ID:20160419100748 L   I
 OLDACT:UP  16-04-28 19:30 OP:nlst STATUS:               ID:20160419100748 L   3
 OLDACT:ARG 16-04-25 20:21 OP:Mher STATUS:               ID:20160419100748 L   3
 2016-04-19-1007-48M.COL___306                                                 6
 STAT SP IPHASW D HRMM SECON CODA AMPLIT PERI AZIMU VELO AIN AR TRES W  DIS CAZ7
 BAR2 EZ EP       1019 30.28                             170   -0.0910 24.7 187 
 BAR2 EZ ES       1019 45.25                             170   -0.3010 24.7 187 
 BAR2 EZ I        1019 47.76         9.5 0.24            175           24.7 187 
 RUS  HZ EP       1019 34.82                             143    0.2010  102 176 
 RUS  HN ES       1019 53.53                             143    0.4210  102 176 
 RUS  HZ I        1019 53.93         5.1 0.28            149            102 176 
 PTB  HZ EP       1019 37.14                             132   -0.54 9  147 258 
 PTB  HN ES       1019 58.27                             132   -0.28 9  147 258 
 PTB  HZ I        1019 59.86         3.7 0.42            134            147 258 
 ZAR  HZ EP   2   1019 43.37                             122    0.28 4  202 292 
 ZAR  HE ES       1020  8.79                             122    0.61 9  202 292 
 ZAR  HZ I        1020 16.53         2.9 0.18            123            202 292 
                                                                                
