 2011  119 1805 34.1 L   6.795 -73.116145.7  RSN 14 0.5 2.7LRSN                1
 GAP=104        1.01       3.9     5.2  9.6 -0.4410E+01  0.1515E+02 -0.5371E+01E
 Epicentro: LOS SANTOS - SANTANDER                                             3
 ACTION:UP  11-02-08 08:41 OP:pat  STATUS:               ID:20110119180534 L   I
 2011-01-19-1803-38S.COL___135                                                 6
 STAT SP IPHASW D HRMM SECON CODA AMPLIT PERI AZIMU VELO SNR AR TRES W  DIS CAZ7
 BAR2 SZ IP       18 5 53.74                             170     0.110   24 198 
 BAR2 SZ I        18 6 11.34       108.8 0.32                            24 198 
 RUS  HZ IP     D 18 5 57.64                             144    -0.110  100 178 
 RUS  HN ES   1   18 6 16.22                             144     0.0 7  100 178 
 RUS  HZ I        18 6 19.48        35.1 0.33                           100 178 
 GRA  SZ EP   1   18 5 59.45                             137     0.2 7  125  16 
 GRA  SZ I        18 6 24.72        45.6 0.26                           125  16 
 OCA  SZ EP   1   18 6  2.05                             129    -0.4 7  161 352 
 OCA  SZ ES   1   18 6 25.19                             129     0.6 7  161 352 
 OCA  SZ I        18 6 28.95        85.8 0.27                           161 352 
 YOP  SZ EP   1   18 6  4.22                             127     0.3 7  177 154 
 YOP  SN ES   1   18 6 26.73                             127    -0.5 7  177 154 
 YOP  SZ I        18 6 30.85        31.4 0.19                           177 154 
 NOR  SZ EP   1   18 6  9.58                             118    -0.5 6  237 235 
 NOR  SN ES   1   18 6 37.69                             118    -0.4 6  237 235 
 CHI  HZ EP   1   18 6 11.76                             117     0.0 6  249 196 
 CHI  HN ES   1   18 6 42.03                             117     0.8 6  249 196 
 CHI  HZ I        18 6 50.93        19.9 0.18                           249 196 
 ROSC BZ EP   1   18 6 12.57                             116     0.3 6  254 212 
 ROSC BZ I        18 6 51.72        90.8 0.36                           254 212 
 HEL  HZ EP   1   18 6 15.20                             114     0.6 6  275 256 
 HEL  HN ES   1   18 6 45.61                             114    -0.6 6  275 256 
 HEL  HZ I        18 6 52.67        51.1 0.30                           275 256 
 GUY  SZ EP   1   18 6 18.25                             112     0.3 5  304 235 
 RREF HZ EP   1   18 6 21.42                             111     1.0 5  324 230 
 RREF HN ES   1   18 6 55.83                             111    -0.8 5  324 230 
 RREF HZ I        18 7  5.57        43.0 0.23                           324 230 
 DBB  SZ EP   1   18 6 21.45                             109    -0.5 5  343 274 
 TOL  SZ EP   1   18 6 23.33                             109     0.8 5  345 225 
 SDV  BZ EP       18 6 23.07                             108    -0.8 6  358  50 
 SDV  BZ I        18 6 23.89        11.4 0.20                           358  50 
                                                                                
