 2010  719 1249  3.9 L   6.772 -73.079146.9  RSN  6 0.3 1.8LRSN                1
 GAP=166        0.59       4.4     7.1  6.5 -0.5627E+01  0.8171E+00  0.4206E+01E
 Epicentro: LOS SANTOS - SANTANDER                                             3
 ACTION:UPD 10-12-01 15:18 OP:pat  STATUS:               ID:20100719124903 L   I
 2010-07-19-1244-50S.COL___122                                                 6
 STAT SP IPHASW D HRMM SECON CODA AMPLIT PERI AZIMU VELO AIN AR TRES W  DIS CAZ7
 BAR2 SZ EP   1   1249 23.58                             171    -0.1 7   23 210 
 BAR2 SZ ES   1   1249 38.75                             171    -0.4 7   23 210 
 BAR2 SZ I        1249 41.13        10.6 0.33                            23 210 
 BRR  HZ EP   1   1249 25.40                             150    -0.3 7   79 298 
 BRR  HN ES   1   1249 42.88                             150     0.2 7   79 298 
 BRR  HZ I        1249 45.77        14.0 0.22                            79 298 
 RUS  HZ EP   2   1249 27.66                             145     0.1 5   97 180 
 RUS  HE ES   2   1249 46.58                             145     0.6 5   97 180 
 RUS  HZ I        1249 47.94         6.4 0.47                            97 180 
 GRA  SZ EP   2   1249 29.35                             137     0.0 5  127  14 
 GRA  SZ ES   2   1249 49.68                             137     0.5 5  127  14 
 GRA  SZ I        1249 52.25         7.9 0.31                           127  14 
 RREF HE ES   2   1250 27.01                             111     0.1 3  325 231 
 RREF HZ I        1250 33.40         3.7 0.28                           325 231 
 PRA  HZ EP   2   1249 57.85                             107     0.2 3  393 211 
 PRA  HZ I        1249 59.63         2.2 0.11                           393 211 
 PRA  HN ES   2   1250 39.65                             107     0.2 3  393 211 
                                                                                
