 2015 1119 1146  4.8 L   6.798 -73.071148.0  RSN  5 0.6 1.3LRSN                1
 GAP=146        1.27       6.2     9.9  9.0  0.6669E+01  0.4571E+01 -0.1037E+02E
 Epicentro: LOS SANTOS - SANTANDER                                             3
 ACTION:UPD 15-12-28 16:12 OP:cam  STATUS:               ID:20151119114604 L   I
 OLDACT:REG 15-11-19 20:19 OP:dnl  STATUS:               ID:20151119113750     3
 2015-11-19-1137-50M.COL___313                                                 6
 STAT SP IPHASW D HRMM SECON CODA AMPLIT PERI AZIMU VELO AIN AR TRES W  DIS CAZ7
 BAR2 EZ EP       1146 24.82                             170    0.0810 25.9 208 
 BAR2 EZ ES       1146 39.69                             170   -0.6110 25.9 208 
 BAR2 EZ I        1146 41.46         3.8 0.13            172           25.9 208 
 PAM  EZ EP       1146 27.67                             152    0.7110 72.6  34 
 PAM  EE ES       1146 44.25                             152   -0.0110 72.6  34 
 PAM  EZ I        1146 46.86         3.8 0.29            152           72.6  34 
 BRR  HZ EP       1146 27.09                             150    0.4810 78.6 296 
 BRR  HE ES       1146 44.15                             150    0.5310 78.6 296 
 RUS  HZ EP       1146 28.28                             145   -0.4510  100 181 
 RUS  HE ES       1146 47.32                             145   -0.0810  100 181 
 RUS  HZ I        1146 48.79         3.9 0.44            146            100 181 
 SML  HZ EP       1146 41.32                             117   -0.62 8  247 334 
 SML  HN ES   2   1147  9.21                             117   -1.71 4  247 334 
                                                                                
