 2016  219 1327 27.8 L   6.792 -73.126146.3  RSN 21 0.5 2.4LRSN                1
 GAP=139        1.14       2.9     4.0  5.3 -0.2987E+01  0.5728E+01  0.2207E+01E
 Epicentro: LOS SANTOS - SANTANDER                                             3
 ACTION:UPD 16-03-04 21:27 OP:rebc STATUS:               ID:20160219132727 L   I
 OLDACT:REG 16-02-19 21:20 OP:ak   STATUS:               ID:20160219131749     3
 2016-02-19-1317-49M.COL___315                                                 6
 STAT SP IPHASW D HRMM SECON CODA AMPLIT PERI AZIMU VELO AIN AR TRES W  DIS CAZ7
 BAR2 EZ EP       1327 47.46                             171   -0.0410 23.0 196 
 BAR2 EZ ES       1328  3.09                             171    0.2310 23.0 196 
 BAR2 EZ I        1328  5.76        29.9 0.19            168           23.0 196 
 BRR  HZ EP     C 1327 49.47                             152    0.3210 73.6 298 
 BRR  HN ES       1328  6.31                             152    0.5110 73.6 298 
 BRR  HZ I        1328 11.31        30.9 0.11            147           73.6 298 
 PAM  EZ EP       1327 50.29                             151    0.2510 76.7  38 
 PAM  EN ES       1328  7.58                             151    0.2010 76.7  38 
 PAM  EZ I        1328 10.32        18.6 0.51            153           76.7  38 
 RUS  HZ EP       1327 51.33                             144   -0.2110 99.6 177 
 RUS  HN ES       1328  9.78                             144   -0.2710 99.6 177 
 RUS  HZ I        1328 12.83        17.0 0.14            143           99.6 177 
 PTB  HZ EP       1327 54.07                             132   -0.93 9  150 259 
 PTB  HN ES       1328 15.51                             132   -0.70 9  150 259 
 PTB  HZ I        1328 17.57        40.7 0.13            128            150 259 
 OCA  HZ EP       1327 56.82                             130    0.56 9  161 352 
 OCA  HE ES       1328 17.95                             130   -0.51 9  161 352 
 OCA  HZ I        1328 22.51        60.3 0.24            128            161 352 
 SPBC HZ EP       1327 56.45                             129    0.03 9  164 220 
 SPBC HN ES       1328 19.04                             129    0.31 9  164 220 
 SPBC HZ I        1328 22.73        47.7 0.13            126            164 220 
 ZAR  HZ EP   2   1327 59.91                             122   -0.62 4  206 292 
 ZAR  HE ES       1328 26.10                             122    0.04 8  206 292 
 ZAR  HZ I        1328 32.59        33.7 0.26            119            206 292 
 NOR  HZ EP       1328  3.18                             118   -0.53 8  236 235 
 NOR  HN ES       1328 31.40                             118   -0.31 8  236 235 
 NOR  HZ I        1328 35.20        30.4 0.18            116            236 235 
 CHI  HZ EP       1328  5.36                             117   -0.15 8  248 196 
 CHI  HN ES       1328 34.04                             117   -0.88 8  248 196 
 CHI  HZ I        1328 42.91        10.3 0.32            116            248 196 
 ROSC BZ EP   2   1328  5.71                             117   -0.29 4  253 212 
 ROSC BN ES   4   1328 37.69                             117    1.90 0  253 212 
 HEL  HZ EP       1328  9.03                             115    0.77 8  274 256 
 HEL  HN ES       1328 39.79                             115   -0.03 8  274 256 
 HEL  HZ I        1328 45.78        16.5 0.34            112            274 256 
 URE  HZ EP   4   1328  7.96                             113   -1.21 0  286 292 
 URE  HN ES   4   1328 38.49                             113   -2.94 0  286 292 
 URE  HZ I        1328 51.93        15.9 0.16            111            286 292 
 SOCV BZ EP   4   1328  9.13                             112   -1.59 0  300  56 
 SOCV BN ES   4   1328 40.63                             112   -3.56 0  300  56 
 GUY2CHZ EP       1328 12.32                             112    0.73 7  303 235 
 GUY2CHN ES       1328 45.47                             112   -0.27 7  303 235 
 GUY2CHZ I        1328 53.33        13.4 0.48                           303 235 
 LL6C HE ES       1328 48.76                             110   -0.63 7  326 357 
 ELA  HZ EP   4   1328 16.46                             110    1.65 0  330 230 
 ELA  HE ES       1328 52.45                             110    0.98 7  330 230 
 ELA  HZ I        1328 59.90         9.2 0.38            109            330 230 
 CBOC HZ EP       1328 15.11                             110    0.16 7  335 252 
 CBOC HZ I        1328 56.88         5.1 0.34            108            335 252 
 MON  HZ EP   9   1328 14.80                             108   -2.29 0  356 308 
 MON  HN ES       1328 53.31                                    0.07 6  356 308 
 MON  HZ I        1328 55.71         2.9 0.12            107            356 308 
 ANIL HZ EP       1328 18.42                             108    0.68 6  358 225 
 ANIL HN ES   4   1328 58.75                             108    2.06 0  358 225 
 ANIL HZ I        1329  7.65        25.1 0.22            107            358 225 
 SDV  BE ES   4   1328 52.25                             108   -4.43 0  359  50 
 ORTC HZ EP       1328 22.06                             106    0.24 6  396 217 
 ORTC HN ES       1329  5.38                             106    1.43 6  396 217 
 ORTC HZ I        1329 11.17         5.8 0.51            105            396 217 
 PAL  HZ EP       1328 22.22                             106   -0.94 6  407 239 
 PAL  HE ES   4   1329  2.44                             106   -3.89 0  407 239 
 PAL  HZ I        1329 11.23         6.7 0.06            104            407 239 
                                                                                
