 2017 1019 1408 35.8 L   6.833 -73.175145.0  RSN  6 0.3 1.3LRSN                1
 GAP=131        0.78       4.2     3.8  6.1  0.3774E+01  0.7714E+01  0.4142E+01E
 Epicentro: ZAPATOCA - SANTANDER                                               3
 ACTION:UPD 17-11-07 19:33 OP:rebc STATUS:               ID:20171019140835 L   I
 OLDACT:UP  17-10-19 22:43 OP:edw  STATUS:               ID:20171019140521     3
 OLDACT:REG 17-10-19 19:58 OP:edw  STATUS:               ID:20171019140521     3
 2017-10-19-1408-00M.COL___438                                                 6
 STAT SP IPHASW D HRMM SECON CODA AMPLIT PERI AZIMU VELO AIN AR TRES W  DIS CAZ7
 BAR2 EZ EP       14 8 55.30                             169   -0.0710 26.6 182 
 BAR2 EZ ES       14 9 10.47                             169   -0.1910 26.6 182 
 BAR2 EZ I        14 9 11.41         8.8 0.22            170           26.6 182 
 BRR  HZ EP       14 8 56.95                             154    0.3810 66.7 297 
 BRR  HN ES       14 9 13.33                             154    0.5210 66.7 297 
 PAM  EN ES       14 9 14.81                             151   -0.2810 76.8  43 
 PAM  EZ I        14 9 17.36         4.1 0.46            151           76.8  43 
 RUS  HZ EP       14 9  0.02                             143    0.3010  104 174 
 RUS  HN ES       14 9 18.36                             143   -0.0510  104 174 
 RUS  HZ I        14 9 18.97         2.8 0.24            144            104 174 
 PTB  HZ EP       14 9  2.10                             132   -0.35 9  145 257 
 PTB  HN ES       14 9 23.16                             132   -0.10 9  145 257 
 PTB  HZ I        14 9 24.84         1.8 0.40            133            145 257 
 ZAR  HN ES       14 9 32.33                             123   -0.30 9  200 292 
                                                                                
