 2010  419 1216 30.5 L   6.761 -73.036148.9  RSN 10 0.4 2.4LRSN                1
 GAP=209        0.66       3.0     7.0  5.7 -0.5181E+01  0.6742E+01  0.4882E+01E
 Epicentro: CEPITA - SANTANDER                                                 3
 ACTION:UPD 10-08-24 09:59 OP:vdl  STATUS:               ID:20100419121639 L   I
 2010-04-19-1213-04S.COL___100                                                 6
 STAT SP IPHASW D HRMM SECON CODA AMPLIT PERI AZIMU VELO AIN AR TRES W  DIS CAZ7
 BAR2 SZ IP       1216 50.71                             170     0.210   25 221 
 BAR2 SZ ES   1   1217  5.95                             170    -0.2 7   25 221 
 BRR  HZ IP     C 1216 53.06                             149     0.310   84 297 
 BRR  HN ES   1   1217 10.00                             149    -0.1 7   84 297 
 BRR  HZ I        1217 12.66        34.8 0.18                            84 297 
 OCA  SZ EP   1   1216 59.02                             129    -0.6 7  166 349 
 OCA  SZ ES   1   1217 22.32                             129     0.0 7  166 349 
 OCA  SZ I        1217 27.29        39.7 0.28                           166 349 
 CHI  HZ EP   2   1217  8.17                             118    -0.1 4  248 198 
 CHI  HE ES       1217 37.72                             118     0.0 8  248 198 
 CHI  HZ I        1217 43.65        11.7 0.34                           248 198 
 ROSC BZ EP   2   1217  8.84                             117    -0.2 4  256 214 
 ROSC BZ I        1217 48.45        17.5 0.39                           256 214 
 HEL  HZ EP   2   1217 12.13                             114     0.1 4  283 257 
 HEL  HE ES   2   1217 44.76                             114     0.3 4  283 257 
 HEL  HZ I        1217 51.81         7.9 0.28                           283 257 
 RREF BZ EP   1   1217 18.09                             111     0.6 5  328 231 
 RREF BE ES   2   1217 53.82                             111    -0.4 3  328 231 
 RREF BZ I        1218  1.13         9.9 0.35                           328 231 
 TOL  SZ EP   2   1217 20.20                             110     0.7 3  349 227 
 DBB  SZ EP   2   1217 18.48                             109    -1.0 3  352 275 
 PRA  HZ EP   1   1217 24.26                             107    -0.1 4  394 211 
 PRA  HN ES       1218  6.08                             107    -0.4 6  394 211 
 PRA  HZ I        1218 13.09        10.7 0.29                           394 211 
                                                                                
