 2012  719 1707 46.9 L   6.772 -73.144141.7  RSN 11 0.5 2.4LRSN                1
 GAP= 72        1.02       6.1     4.8  9.1  0.1377E+01  0.1130E+02  0.2452E+02E
 Epicentro: LOS SANTOS - SANTANDER                                             3
 ACTION:UPD 12-08-14 11:45 OP:ep   STATUS:               ID:20120719170746 L   I
 2012-07-19-1700-00M.COL___201                                                 6
 STAT SP IPHASW D HRMM SECON CODA AMPLIT PERI AZIMU VELO AIN AR TRES W  DIS CAZ7
 BRR  HZ IP     D 17 8  7.82                             151     0.110   73 301 
 BRR  HN ES   1   17 8 24.51                             151     0.6 7   73 301 
 BRR  HZ I        17 8 29.06        79.4 0.14             37             73 301 
 PAM  SZ IP       17 8  8.98                             149     0.210   80  38 
 PAM  SZ I        17 8  9.15        58.8 0.24             37             80  38 
 PAM  SN ES   1   17 8 25.69                             149    -0.2 7   80  38 
 RUS  HZ EP       17 8  9.94                             144    -0.110   97 176 
 RUS  HN ES   2   17 8 27.77                             144    -0.3 5   97 176 
 RUS  HZ I        17 8 29.46        50.6 0.28             96             97 176 
 PTB  HZ EP       17 8 12.55                             131    -1.0 9  147 260 
 PTB  HN ES   3   17 8 33.35                             131    -0.9 2  147 260 
 PTB  HZ I        17 8 38.64        24.9 0.36             37            147 260 
 TAM  HZ EP       17 8 14.28                             130     0.1 9  154 104 
 TAM  HZ I        17 8 14.45        53.0 0.22             37            154 104 
 TAM  HN ES   3   17 8 35.06                             130    -0.4 2  154 104 
 OCA  HZ EP   3   17 8 14.43                             128    -0.8 2  163 353 
 OCA  HZ I        17 8 46.78        57.7 0.48             37            163 353 
 ZAR  HZ EP   3   17 8 19.99                             121     0.8 2  205 293 
 ZAR  HE ES   2   17 8 44.31                             121    -0.1 4  205 293 
 NOR  SZ EP       17 8 22.21                             118     0.0 8  233 235 
 NOR  SZ I        17 8 55.55         1.9 0.38             37            233 235 
 CHI  HZ EP       17 8 24.31                             117     0.3 8  246 195 
 CHI  HN ES   2   17 8 53.05                             117     0.0 4  246 195 
 CHI  HZ I        17 9  1.49        11.0 0.62             37            246 195 
 HEL  HZ EP       17 8 27.76                             114     0.9 8  272 256 
 HEL  HE ES   2   17 8 58.33                             114     0.3 4  272 256 
 HEL  HZ I        17 9  4.48        19.5 0.24             37            272 256 
 DBB  SZ EP       17 8 33.87                             109    -0.4 7  340 275 
