 2015  719 1830 15.1 L   6.817 -73.160128.5  RSN 16 0.5 2.2LRSN                1
 GAP=134        1.14       2.7     4.0  6.5 -0.1247E+01  0.1462E+02  0.4113E+00E
 Epicentro: LOS SANTOS - SANTANDER                                             3
 ACTION:UPD 15-09-08 21:49 OP:cam  STATUS:               ID:20150719183015 L   I
 OLDACT:UP  15-07-20 00:14 OP:ak   STATUS:               ID:20150719182750     3
 OLDACT:REG 15-07-19 21:38 OP:ak   STATUS:               ID:20150719182750     3
 2015-07-19-1827-50M.COL___343                                                 6
 STAT SP IPHASW D HRMM SECON CODA AMPLIT PERI AZIMU VELO AIN AR TRES W  DIS CAZ7
 BAR2 EZ IP     C 1830 33.19                             168    0.5210 24.9 186 
 BAR2 EZ ES       1830 45.81                             168   -0.5910 24.9 186 
 BAR2 EZ I        1830 49.05        48.3 0.19            169           24.9 186 
 PAM  EZ EP     D 1830 36.16                             147    0.7010 77.0  41 
 PAM  EN ES       1830 52.27                             147    0.9110 77.0  41 
 PAM  EZ I        1830 55.91        36.1 0.63            151           77.0  41 
 RUS  HZ EP       1830 37.12                             139   -0.2110  103 175 
 RUS  HN ES       1830 54.40                             139   -0.2810  103 175 
 RUS  HZ I        1830 56.39        18.2 0.22            142            103 175 
 OCA  HZ EP       1830 41.12                             126   -0.79 9  158 354 
 OCA  HN ES       1831  2.19                             126   -0.64 9  158 354 
 OCA  HZ I        1831  5.48        41.4 0.13            128            158 354 
 ZAR  HZ EP       1830 46.75                             119    0.52 9  202 292 
 ZAR  HN ES       1831 11.45                             119    0.92 9  202 292 
 ZAR  HZ I        1831 14.75        16.2 0.06            120            202 292 
 NOR  HZ EP       1830 49.14                             115   -0.70 8  234 234 
 NOR  HE ES       1831 16.91                             115   -0.05 8  234 234 
 NOR  HZ I        1831 19.13        17.7 0.10            116            234 234 
 SML  HZ EP       1830 50.24                             114   -0.29 8  241 335 
 SML  HN ES       1831 17.49                             114   -0.70 8  241 335 
 SML  HZ I        1831 28.20        25.1 0.05            116            241 335 
 CHI  HZ EP       1830 51.93                             113   -0.10 8  250 195 
 CHI  HN ES       1831 20.52                             113   -0.34 8  250 195 
 CHI  HZ I        1831 28.18         4.4 0.38            115            250 195 
 HEL  HZ EP   1   1830 54.78                             111    0.43 6  271 255 
 HEL  HN ES       1831 24.60                             111   -0.38 8  271 255 
 HEL  HZ I        1831 32.19        14.7 0.26            113            271 255 
 URE  HZ EP   4   1830 57.88                             110    2.76 0  282 292 
 URE  HN ES       1831 26.20                             110   -0.15 7  282 292 
 URE  HZ I        1831 27.13        13.8 0.36            112            282 292 
 GUY2CHZ EP       1830 57.88                             109   -0.04 7  301 234 
 GUY2CHN ES       1831 31.43                             109    0.09 7  301 234 
 GUY2CHZ I        1831 38.66         8.8 0.26                           301 234 
 CBOC HZ EP       1831  1.75                             107    0.52 7  333 252 
 CBOC HN ES       1831 37.47                             107    0.25 7  333 252 
 CBOC HZ I        1831 40.99         5.0 0.26            108            333 252 
 DBB  SZ EP       1831  1.64                             106   -0.07 7  338 274 
 DBB  SZ ES       1831 37.83                             106   -0.25 7  338 274 
 TOL  SZ EP       1831  3.06                             106    0.34 7  344 224 
 TOL  SN ES       1831 40.33                             106    0.45 7  344 224 
 TOL  SZ I        1831 49.41         5.2 0.63            108            344 224 
 MON  HZ EP   1   1831  3.70                             105    0.51 5  351 308 
 MON  HN ES   4   1831 38.53                             105   -2.18 0  351 308 
 MON  HZ I        1831 40.50         5.0 0.22            107            351 308 
 ORTC HZ EP       1831  8.18                             103   -0.35 6  396 216 
 ORTC HN ES       1831 50.51                             103    0.29 6  396 216 
 ORTC HZ I        1831 56.59         3.7 0.27            105            396 216 
                                                                                
