 2011  119 1316 26.8 L   6.810 -73.081138.8  RSN  5 0.5 1.5LRSN                1
 GAP=240        1.13      11.2    13.6 12.1 -0.1920E+02  0.2740E+02  0.3656E+02E
 Epicentro: LOS SANTOS - SANTANDER                                             3
 ACTION:UP  11-02-08 08:41 OP:pat  STATUS:               ID:20110119131626 L   I
 2011-01-19-1313-38S.COL___137                                                 6
 STAT SP IPHASW D HRMM SECON CODA AMPLIT PERI AZIMU VELO SNR AR TRES W  DIS CAZ7
 BTL  SZ EP   1   1316 46.15                             170     0.5 7   24 300 
 BTL  SZ ES   1   1316 59.46                             170    -0.8 7   24 300 
 BAR2 SZ EP   1   1316 46.03                             168     0.4 7   27 205 
 BAR2 SZ ES   1   1317  0.86                             168     0.5 7   27 205 
 BAR2 SZ I        1317  2.30        10.8 0.13                            27 205 
 RUS  HZ EP   1   1316 49.21                             142    -0.7 7  102 180 
 RUS  HN ES   1   1317  8.16                             142     0.2 7  102 180 
 RUS  HZ I        1317  9.73         3.0 0.21                           102 180 
 NOR  SN ES   1   1317 31.05                             116     0.1 6  241 235 
 CHI  HZ EP   2   1317  4.30                             115    -0.2 4  252 197 
 CHI  HZ I        1317 40.64         2.0 0.35                           252 197 
                                                                                
