 2010  419 1414  4.5 L   6.797 -73.027149.3  RSN 11 0.4 2.8LRSN                1
 GAP=149        0.71       3.9     6.5  5.5 -0.1185E+02  0.1860E+01  0.5522E+01E
 Epicentro: CEPITA - SANTANDER                                                 3
 ACTION:UPD 10-08-24 09:59 OP:vdl  STATUS:               ID:20100419141413 L   I
 2010-04-19-1411-31S.COL___100                                                 6
 STAT SP IPHASW D HRMM SECON CODA AMPLIT PERI AZIMU VELO AIN AR TRES W  DIS CAZ7
 BAR2 SZ IP       1414 24.67                             169     0.010   29 217 
 BAR2 SZ ES   1   1414 39.94                             169    -0.4 7   29 217 
 BRR  HZ IP     C 1414 26.96                             150     0.310   83 294 
 BRR  HZ I        1414 27.26       197.0 0.18                            83 294 
 BRR  HE ES   1   1414 44.34                             150     0.3 7   83 294 
 OCA  SZ IP       1414 33.05                             130    -0.2 9  163 349 
 OCA  SZ ES   1   1414 55.91                             130     0.2 7  163 349 
 OCA  SZ I        1415  3.95        83.5 0.34                           163 349 
 CHI  HZ EP   2   1414 42.61                             117    -0.1 4  252 198 
 CHI  HZ I        1415 21.54        20.7 0.39                           252 198 
 HEL  HN ES   2   1415 18.22                             114    -0.7 4  285 257 
 HEL  HZ I        1415 23.31        28.3 0.42                           285 257 
 RREF BZ IP     D 1414 51.65                             111    -0.2 7  332 231 
 RREF BE ES   1   1415 28.68                             111    -0.2 5  332 231 
 RREF BZ I        1415 37.22        17.4 0.34                           332 231 
 SDV  BZ EP   2   1414 54.26                             109     0.7 3  351  49 
 TOL  SZ EP   1   1414 54.16                             109     0.2 5  353 226 
 DBB  SZ EP   1   1414 52.83                             109    -0.8 5  353 274 
 ANIL BZ EP   2   1414 55.91                             108     0.4 3  366 226 
 ANIL BE ES   1   1415 36.08                             108     0.8 5  366 226 
 ANIL BZ I        1415 48.97        30.5 0.53                           366 226 
 PRA  HZ EP   1   1414 58.66                             107    -0.2 4  398 211 
 PRA  HE ES   1   1415 41.64                             107     0.4 4  398 211 
 PRA  HZ I        1415 44.61        20.5 0.47                           398 211 
                                                                                
