 2014  919 1923 38.3 L   6.769 -73.117145.7  RSN 11 0.4 1.8LRSN                1
 GAP=142        0.86       3.1     3.9  5.7  0.2805E+00  0.3110E+01 -0.2651E+00E
 Epicentro: LOS SANTOS - SANTANDER                                             3
 ACTION:UPD 14-10-03 23:06 OP:nd   STATUS:               ID:20140919192338 L   I
 OLDACT:REG 14-09-19 21:33 OP:spq  STATUS:               ID:20140919191818     3
 2014-09-19-1918-18M.COL___284                                                 6
 STAT SP IPHASW D HRMM SECON CODA AMPLIT PERI AZIMU VELO AIN AR TRES W  DIS CAZ7
 BAR2 SZ EP     C 1923 57.82                             172   -0.0110 20.9 200 
 BAR2 SZ ES   1   1924 12.85                             172   -0.25 7 20.9 200 
 BAR2 SZ I        1924 13.85        20.0 0.11            169           20.9 200 
 BRR  HZ EP       1923 59.64                             151   -0.0210 75.6 300 
 BRR  HE ES       1924 16.72                             151    0.3710 75.6 300 
 BRR  HZ I        1924 19.72        22.9 0.28            149           75.6 300 
 PAM  SZ EP     D 1924  0.59                             150    0.0810 78.1  36 
 PAM  SN ES   1   1924 17.61                             150   -0.26 7 78.1  36 
 PAM  SZ I        1924 18.37         6.1 0.20            153           78.1  36 
 RUS  HZ EP       1924  1.67                             145   -0.0810 97.0 178 
 RUS  HE ES       1924 20.48                             145    0.4110 97.0 178 
 RUS  HZ I        1924 21.54         6.4 0.30            144           97.0 178 
 PTB  HZ EP       1924  4.72                             132   -0.73 9  150 260 
 PTB  HE ES       1924 25.98                             132   -0.68 9  150 260 
 PTB  HZ I        1924 27.87        10.1 0.16            130            150 260 
 SPBC HZ EP       1924  6.87                             129    0.17 9  163 221 
 SPBC HN ES       1924 28.77                             129   -0.11 9  163 221 
 SPBC HZ I        1924 34.68         9.9 0.20            128            163 221 
 ZAR  HN ES       1924 37.29                             122    0.51 8  208 293 
 ZAR  HZ I        1924 41.81        12.2 0.36            121            208 293 
 CHI  HN ES   1   1924 45.08                             117    0.19 6  246 196 
 CHI  HZ I        1924 53.38         2.6 0.34            117            246 196 
 SML  HZ EP   1   1924 15.22                             117   -0.14 6  248 335 
 SML  HN ES   1   1924 44.66                             117    0.36 6  248 335 
 SML  HZ I        1924 51.31        10.6 0.10            117            248 335 
 GUY2CHZ EP   1   1924 22.62                             112    0.68 5  302 236 
 GUY2CHE ES   4   1924 59.48                             112    3.47 0  302 236 
 GUY2CHZ I        1925  2.45         2.6 0.24                           302 236 
 MON  HZ EP   4   1924 25.36                             108   -2.43 0  358 308 
 MON  HN ES   4   1925  4.11                             108   -2.32 0  358 308 
 MON  HZ I        1925  7.06         1.5 0.26            108            358 308 
                                                                                
