 2017  419 1241 28.1 L   6.746 -73.158150.1  RSN  5 0.3 1.3LRSN                1
 GAP=241        0.67       5.1     3.9  6.3  0.7415E+01  0.7382E+01 -0.1710E+01E
 Epicentro: LOS SANTOS - SANTANDER                                             3
 ACTION:UPD 17-05-30 21:14 OP:jn   STATUS:               ID:20170419124128 L   I
 OLDACT:REG 17-04-19 20:46 OP:lv   STATUS:               ID:20170419122940     3
 2017-04-19-1238-00M.COL___364                                                 6
 STAT SP IPHASW D HRMM SECON CODA AMPLIT PERI AZIMU VELO AIN AR TRES W  DIS CAZ7
 BAR2 EZ EP       1241 47.91                             173   -0.2610 17.2 189 
 BAR2 EZ ES       1242  3.80                             173   -0.0110 17.2 189 
 BAR2 EZ I        1242  5.49         3.7 0.24            175           17.2 189 
 RUS  HZ EP       1241 51.91                             146    0.0110 94.7 175 
 RUS  HN ES       1242 10.69                             146    0.2510 94.7 175 
 RUS  HZ I        1242 11.28         2.4 0.21            149           94.7 175 
 PTB  HZ EP       1241 55.29                             133    0.06 9  145 261 
 PTB  HN ES       1242 15.90                             133   -0.48 9  145 261 
 PTB  HZ I        1242 17.37         2.8 0.32            135            145 261 
 ZAR  HN ES       1242 26.99                             123    0.41 9  205 294 
 ZAR  HZ I        1242 28.47         2.1 0.17            124            205 294 
 NOR  HE ES       1242 31.42                             120    0.11 8  230 235 
                                                                                
