 2012  619 1217 23.1 L   6.779 -73.135146.9  RSN 10 0.3 2.4LRSN                1
 GAP=139        0.55       2.7     2.9  4.4 -0.5279E+00  0.4907E+01  0.2127E+01E
 Epicentro: LOS SANTOS - SANTANDER                                             3
 ACTION:UP  12-08-06 17:50 OP:ep   STATUS:               ID:20120619121723 L   I
 2012-06-19-1210-00M.COL___199                                                 6
 STAT SP IPHASW D HRMM SECON CODA AMPLIT PERI AZIMU VELO AIN AR TRES W  DIS CAZ7
 BAR2 SZ IP       1217 42.92                             171    0.0810 21.2 194 
 BAR2 SZ ES   1   1217 58.31                             171    0.08 7 21.2 194 
 BAR2 SZ I        1217 59.82        60.1 0.18                          21.2 194 
 PAM  SZ EP   1   1217 45.34                             151   -0.18 7 78.5  38 
 PAM  SE ES   1   1218  3.17                             151    0.18 7 78.5  38 
 RUS  HZ EP   1   1217 46.75                             145   -0.05 7 98.1 177 
 RUS  HN ES   1   1218  5.23                             145   -0.05 7 98.1 177 
 RUS  HZ I        1218  6.41        25.2 0.32                          98.1 177 
 PTB  HZ EP   1   1217 49.55                             132   -0.69 7  148 260 
 PTB  HN ES   1   1218 10.89                             132   -0.50 7  148 260 
 PTB  HZ I        1218 16.75        28.1 0.19                           148 260 
 ZAR  HZ EP   1   1217 55.69                             122   -0.14 6  206 293 
 ZAR  HE ES   1   1218 21.78                             122    0.42 6  206 293 
 ZAR  HZ I        1218 26.87        39.3 0.43                           206 293 
 NOR  SZ EP   1   1217 59.09                             119    0.23 6  234 235 
 NOR  SN ES   1   1218 27.18                             119    0.44 6  234 235 
 CHI  HZ EP   1   1218  0.60                             118   -0.06 6  247 196 
 CHI  HN ES   1   1218 29.66                             118   -0.29 6  247 196 
 CHI  HZ I        1218 36.83         7.7 0.27                           247 196 
 ROSC BZ EP   1   1218  1.77                             117    0.63 6  251 212 
 ROSC BN ES   2   1218 30.77                             117   -0.03 4  251 212 
 HEL  HZ EP   1   1218  3.46                             115    0.02 6  273 256 
 HEL  HE ES   1   1218 34.96                             115    0.06 6  273 256 
 HEL  HZ I        1218 42.17        15.4 0.28                           273 256 
 PRA  HZ EP   1   1218 16.50                             107    0.00 4  391 210 
 PRA  HN ES   2   1218 58.54                             107    0.40 3  391 210 
                                                                                
