 2013 1219 1228 51.3 L   6.757 -73.161141.6  RSN  6 0.4 1.9LRSN                1
 GAP=137        1.07       5.2     4.7  7.2  0.2450E+01  0.8737E+01 -0.1827E+01E
 Epicentro: LOS SANTOS - SANTANDER                                             3
 ACTION:UPD 14-01-13 10:19 OP:ep   STATUS:               ID:20131219122851 L   I
 OLDACT:REG 13-12-19 14:30 OP:nd   STATUS:               ID:20131219122000     3
 2013-12-19-1220-00M.COL___285                                                 6
 STAT SP IPHASW D HRMM SECON CODA AMPLIT PERI AZIMU VELO AIN AR TRES W  DIS CAZ7
 BAR2 SZ EP       1229 10.45                             172    0.1310 18.4 187 
 BAR2 SZ ES       1229 25.27                             172    0.1010 18.4 187 
 BAR2 SZ I        1229 26.54        58.4 0.22            172           18.4 187 
 BRR  HZ IP     C 1229 12.36                             151    0.3210 72.2 302 
 BRR  HN ES       1229 28.58                             151    0.3410 72.2 302 
 BRR  HZ I        1229 30.44        21.1 0.20            144           72.2 302 
 PAM  SZ IP     C 1229 13.39                             148    0.0310 82.1  38 
 PAM  SN ES       1229 30.05                             148   -0.5210 82.1  38 
 PAM  SZ I        1229 32.20        14.2 0.74            143           82.1  38 
 RUS  HZ EP       1229 14.37                             144    0.0810 96.0 175 
 RUS  HN ES       1229 32.46                             144    0.2210 96.0 175 
 RUS  HZ I        1229 33.88         9.3 0.20            140           96.0 175 
 PTB  HZ EP       1229 16.75                             132   -0.94 9  145 261 
 PTB  HN ES       1229 37.77                             132   -0.51 9  145 261 
 PTB  HZ I        1229 41.47        11.4 0.22            125            145 261 
 ZAR  HZ EP       1229 24.11                             121    0.61 9  204 294 
 ZAR  HZ I        1229 45.84         2.9 0.28            115            204 294 
 ZAR  HN ES       1229 48.81                             121    0.19 9  204 294 
                                                                                
