 2013 1019 1845 53.9 L   6.650 -73.694 91.8  RSN 19 0.6 2.8LRSN                1
 GAP= 50        1.23       2.3     2.8  7.1 -0.9179E+00  0.4901E+01  0.1460E+01E
 Epicentro: EL CARMEN DE CHUCURI - SANTANDER                                   3
 ACTION:UPD 13-11-25 09:22 OP:ep   STATUS:               ID:20131019184553 L   I
 OLDACT:UP  13-10-19 19:55 OP:mh   STATUS:               ID:20131019183849     3
 OLDACT:UP  13-10-19 19:47 OP:mh   STATUS:               ID:20131019183849     3
 OLDACT:REG 13-10-19 16:37 OP:mh   STATUS:               ID:20131019183849     3
 2013-10-19-1838-49M.COL___214                                                 6
 STAT SP IPHASW D HRMM SECON CODA AMPLIT PERI AZIMU VELO AIN AR TRES W  DIS CAZ7
 BRR  HZ EP       1846  8.09                             149    0.0410 50.6 358 
 BRR  HN ES   1   1846 19.11                             149    0.01 7 50.6 358 
 BRR  HZ I        1846 28.29        92.4 0.31            148           50.6 358 
 BAR2 SZ EP   1   1846  9.06                             146    0.25 7 56.9  96 
 BAR2 SZ ES   1   1846 20.91                             146    0.46 7 56.9  96 
 BAR2 SZ I        1846 21.89       662.4 0.08            149           56.9  96 
 PTB  HZ EP   4   1846  9.41                             134   -1.36 0 85.2 262 
 PTB  HN ES   4   1846 21.95                             134   -1.98 0 85.2 262 
 PTB  HZ I        1846 22.93       251.2 0.12            135           85.2 262 
 RUS  HZ EP       1846 13.08                             127   -0.4310  108 141 
 RUS  HN ES       1846 28.45                             127   -0.3610  108 141 
 SPBC HZ EP       1846 13.18                             124   -0.8510  118 201 
 SPBC HN ES       1846 28.83                             124   -0.9110  118 201 
 PAM  SZ EP       1846 16.10                             120   -0.0910  134  55 
 PAM  SN ES       1846 33.91                             120    0.3210  134  55 
 PAM  SZ I        1846 38.81       120.2 0.26            123            134  55 
 ZAR  HZ EP       1846 18.30                             115   -0.02 9  159 306 
 ZAR  HE ES   1   1846 38.21                             115    0.84 7  159 306 
 NOR  HZ EP   1   1846 19.42                             113   -1.01 7  177 227 
 NOR  HN ES       1846 41.37                             113    0.24 9  177 227 
 NOR  HZ I        1846 42.77        87.4 0.12            115            177 227 
 OCA  HZ EP       1846 20.39                             112   -0.56 9  181  13 
 OCA  HN ES       1846 42.00                             112   -0.06 9  181  13 
 OCA  HZ I        1846 51.15        69.3 0.27            114            181  13 
 YOP  SZ EP       1846 23.46                             110    0.21 9  201 135 
 YOP  SN ES       1846 47.15                             110    1.01 9  201 135 
 YOP  SZ I        1846 48.42        67.1 0.27            112            201 135 
 HEL  HZ EP       1846 24.26                             109   -0.28 8  209 256 
 HEL  HN ES   2   1846 48.24                             109   -0.20 4  209 256 
 TAM  HZ EP       1846 24.64                             109    0.22 8  212  96 
 TAM  HN ES       1846 47.82                             109   -0.41 8  212  96 
 CHI  HZ EP       1846 26.62                             108    0.37 8  223 181 
 CHI  HN ES   1   1846 50.88                             108   -0.61 6  223 181 
 SML  HZ EP       1846 26.83                             106   -1.04 8  242 350 
 SML  HE ES       1846 55.34                             106    0.97 8  242 350 
 SML  HZ I        1847  1.68        91.9 0.07            107            242 350 
 GUY2CHZ EP   1   1846 29.19                             106    0.54 6  243 230 
 GUY2CHE ES   1   1846 56.65                             106    0.89 6  243 230 
 RREF HZ EP   1   1846 32.20                             105    0.59 6  266 224 
 RREF HN ES       1847  1.32                             105    0.28 8  266 224 
 RREF HZ I        1847  7.31        31.7 0.33            106            266 224 
 VIL  SZ EP   1   1846 32.62                             104   -0.08 6  281 180 
 VIL  SE ES       1847  4.27                             104    1.30 7  281 180 
 PTGC HZ EP   4   1846 35.20                             102   -2.26 0  321 147 
 PTGC HN ES   4   1847  7.22                             102   -4.22 0  321 147 
 ORTC HZ EP   1   1846 40.59                             101   -0.19 5  348 210 
 ORTC HN ES   1   1847 17.48                             101    0.13 5  348 210 
 ORTC HZ I        1847 30.49         9.9 0.46            102            348 210 
 PRA  HZ EP   1   1846 41.20                             101    0.17 5  351 202 
 PRA  HN ES       1847 17.96                             101    0.16 6  351 202 
 PRA  HZ I        1847 23.27        11.0 0.24            102            351 202 
 SJC  HZ EP   4   1846 43.22                              99   -3.20 0  395 336 
 SJC  HN ES   4   1847 25.71                              99   -1.68 0  395 336 
                                                                                
