 2013 1019 1759 48.2 L   6.805 -73.141147.0  RSN 10 0.5 1.6LRSN                1
 GAP=137        1.03       3.4     5.0  7.2 -0.1642E+00  0.1062E+02  0.4117E+01E
 Epicentro: LOS SANTOS - SANTANDER                                             3
 ACTION:UPD 13-11-25 09:22 OP:ep   STATUS:               ID:20131019175948 L   I
 OLDACT:REG 13-10-19 16:00 OP:mh   STATUS:               ID:20131019175849     3
 2013-10-19-1758-49M.COL___211                                                 6
 STAT SP IPHASW D HRMM SECON CODA AMPLIT PERI AZIMU VELO AIN AR TRES W  DIS CAZ7
 BAR2 SZ EP       18 0  8.21                             170    0.2610 23.9 191 
 BRR  HZ EP       18 0  9.92                             153    0.4710 71.4 298 
 BRR  HN ES       18 0 26.78                             153    0.7210 71.4 298 
 BRR  HZ I        18 0 30.29        13.1 0.17            154           71.4 298 
 PAM  SZ EP   1   18 0 10.19                             151   -0.27 7 76.6  39 
 PAM  SN ES       18 0 27.92                             151    0.0610 76.6  39 
 RUS  HZ EP   1   18 0 12.30                             144    0.24 7  101 176 
 RUS  HN ES       18 0 29.86                             144   -0.8510  101 176 
 RUS  HZ I        18 0 32.42         4.3 0.39            145            101 176 
 PTB  HN ES   1   18 0 35.76                             132   -0.68 7  148 259 
 ZAR  HZ EP   1   18 0 20.35                             123   -0.36 6  204 292 
 ZAR  HN ES   1   18 0 46.30                             123    0.20 6  204 292 
 NOR  HZ EP       18 0 24.23                             119    0.20 8  235 234 
 NOR  HN ES       18 0 51.80                             119   -0.22 8  235 234 
 SML  HZ EP   1   18 0 24.23                             118   -0.59 6  243 335 
 SML  HN ES       18 0 52.81                             118   -0.61 8  243 335 
 CHI  HZ EP   1   18 0 26.07                             117    0.08 6  249 195 
 CHI  HN ES       18 0 55.98                             117    0.48 8  249 195 
 CHI  HZ I        18 1  1.21         2.8 0.22            119            249 195 
 PRA  HZ EP   1   18 0 42.38                             107    0.58 4  393 210 
 PRA  HN ES   1   18 1 23.35                             107   -0.29 4  393 210 
                                                                                
