 2010  919 1030 51.8 L   6.851 -73.116144.6  RSN  4 0.1 1.3LRSN                1
 GAP=244        0.36       8.5    14.2  9.1  0.1051E+03 -0.9701E+02 -0.4870E+02E
 Epicentro: LOS SANTOS - SANTANDER                                             3
 ACTION:UP  11-02-18 11:03 OP:tino STATUS:               ID:20100919103051 L   I
 2010-09-19-1029-52S.COL___121                                                 6
 STAT SP IPHASW D HRMM SECON CODA AMPLIT PERI AZIMU VELO SNR AR TRES W  DIS CAZ7
 BTL  SZ EP   1   1031 11.36                             172     0.1 7   18 294 
 BAR2 SZ EP   1   1031 11.29                             168    -0.2 7   30 195 
 BAR2 SZ I        1031 28.13         5.3 0.37                            30 195 
 BRR  HZ IP       1031 12.90                             152     0.010   72 293 
 BRR  HN ES   1   1031 29.26                             152     0.0 7   72 293 
 BRR  HZ I        1031 31.98         6.6 0.08                            72 293 
 RUS  HZ EP   2   1031 15.86                             142     0.0 5  106 178 
 RUS  HE ES   2   1031 34.67                             142     0.1 5  106 178 
 RUS  HZ I        1031 35.50         1.8 0.61                           106 178 
                                                                                
