 2017 1219 1449 10.9 L   6.845 -73.110144.9  RSN 14 0.7 2.4LRSN                1
 GAP=103        1.28       4.3     4.5  6.7 -0.6620E+01  0.3871E+01  0.3456E+01E
 Epicentro: LOS SANTOS - SANTANDER                                             3
 ACTION:UPD 18-01-04 13:22 OP:rebc STATUS:               ID:20171219144910 L   I
 OLDACT:UP  17-12-19 22:18 OP:dani STATUS:               ID:20171219144623     3
 OLDACT:REG 17-12-19 20:32 OP:dani STATUS:               ID:20171219144623     3
 2017-12-19-1448-00M.COL___460                                                 6
 STAT SP IPHASW D HRMM SECON CODA AMPLIT PERI AZIMU VELO AIN AR TRES W  DIS CAZ7
 BAR2 EZ IP     C 1449 30.35                             168   -0.2110 29.1 196 
 BAR2 EZ ES       1449 45.36                             168   -0.5310 29.1 196 
 BAR2 EZ I        1449 46.65       122.3 0.14            165           29.1 196 
 PAM  EZ EP     D 1449 33.14                             153    0.4910 71.0  40 
 PAM  EN ES       1449 50.09                             153    0.4710 71.0  40 
 PAM  EZ I        1449 52.40        24.0 0.52            152           71.0  40 
 PTB  HZ EP   9   1449 36.97                             131   -1.27 0  153 257 
 PTB  HN ES       1449 57.98                             131   -0.32 9  153 257 
 PTB  HZ I        1450  1.80        17.4 0.42            125            153 257 
 SPBC HZ EP       1449 39.30                             128   -0.64 9  170 219 
 SPBC HN ES       1450  1.54                             128   -1.06 9  170 219 
 SPBC HZ I        1450  7.52        45.1 0.20            123            170 219 
 YPLC HZ EP       1449 40.76                             126   -0.13 9  179 153 
 YPLC HE ES       1450  4.83                             126    0.55 9  179 153 
 YPLC HZ I        1450  7.07        21.0 0.30            123            179 153 
 ZAR  HZ EP       1449 43.98                             122    0.50 8  206 290 
 ZAR  HE ES       1450  8.93                             122    0.04 8  206 290 
 ZAR  HZ I        1450 14.15        29.7 0.54            117            206 290 
 ROSC BZ EP       1449 50.39                             116    0.73 8  259 211 
 ROSC BN ES       1450 21.02                             116    1.12 8  259 211 
 ROSC BZ I        1450 24.28        16.9 0.50            112            259 211 
 DRL03HZ EP   3   1449 53.75                             113    1.78 2  284 352 
 DRL03HE ES   3   1450 26.08                             113    2.08 2  284 352 
 URE  HN ES   3   1450 22.42                             113   -1.87 2  286 291 
 GUY2CHZ EP       1449 54.95                             112   -0.21 7  307 234 
 GUY2CHN ES       1450 30.39                             112    0.71 7  307 234 
 GUY2CHZ I        1450 36.93        19.4 0.34                           307 234 
 SDV  BZ EP       1450  0.02                             108   -0.16 6  354  50 
 SDV  B2 ES       1450 37.52                             108   -1.10 6  354  50 
 PRA  HZ EP       1450  4.27                             106   -0.86 6  398 210 
 PRA  HE ES       1450 46.93                             106   -0.50 6  398 210 
 PRA  HZ I        1450 53.48        16.7 0.24            103            398 210 
 ORTC HZ EP       1450  5.18                             106   -0.36 6  402 216 
 ORTC HN ES       1450 49.03                             106    0.88 6  402 216 
 ORTC HZ I        1450 54.68         7.7 0.34            103            402 216 
 PAL  HZ EP       1450  6.12                             105   -0.61 6  412 239 
 PAL  HZ I        1451  2.31         3.2 0.30            102            412 239 
                                                                                
