 2010 1119 1141 51.3 L   6.510 -73.495108.6  RSN  4 0.5 1.9LRSN                1
 GAP=111        1.23      10.1    13.4 16.2  0.7810E+02  0.9605E+02  0.9279E+02E
 Epicentro: SIMACOTA - SANTANDER                                               3
 ACTION:UP  10-12-17 16:53 OP:REBC STATUS:               ID:20101119114151 L   I
 2010-11-19-1141-00S.COL___128                                                 6
 STAT SP IPHASW D HRMM SECON CODA AMPLIT PERI AZIMU VELO SNR AR TRES W  DIS CAZ7
 BAR2 SZ EP       1142  7.18                             160     0.310   36  75 
 BAR2 SZ ES   1   1142 19.50                             160     0.5 7   36  75 
 BAR2 SZ I        1142 21.31       113.9 0.42                            36  75 
 BRR  HZ EP       1142  8.12                             144    -0.310   70 340 
 BRR  HZ I        1142 16.07        22.4 0.32                            70 340 
 BRR  HN ES       1142 21.79                             144    -0.110   70 340 
 RUS  HZ EP       1142 10.16                             140     0.110   82 146 
 RUS  HN ES   2   1142 23.21                             140    -1.5 5   82 146 
 RUS  HZ I        1142 27.23         5.3 0.75                            82 146 
 RREF HN ES   2   1143  1.06                             106     0.6 4  272 229 
 RREF HZ I        1143  6.39         2.7 0.16                           272 229 
                                                                                
