 2017  119 1010 26.4 L   6.785 -73.153150.9  RSN  6 0.4 1.4LRSN                1
 GAP=136        1.04       5.4     4.7  7.6  0.2314E+01  0.6407E+01  0.6389E+00E
 Epicentro: LOS SANTOS - SANTANDER                                             3
 ACTION:UPD 17-05-22 16:01 OP:jn   STATUS:               ID:20170119101026 L   I
 OLDACT:REG 17-01-19 21:27 OP:cog  STATUS:               ID:20170119100744     3
 2017-01-19-1008-00M.COL___327                                                 6
 STAT SP IPHASW D HRMM SECON CODA AMPLIT PERI AZIMU VELO AIN AR TRES W  DIS CAZ7
 BAR2 EZ EP       1010 46.46                             171   -0.1510 21.5 189 
 BAR2 EZ ES       1011  1.91                             171   -0.4710 21.5 189 
 BAR2 EZ I        1011  2.64         6.8 0.24            171           21.5 189 
 BRR  HZ EP       1010 48.79                             153    0.6910 71.3 300 
 BRR  HN ES       1011  5.60                             153    0.5610 71.3 300 
 PAM  EZ EP       1010 49.42                             151    0.1510 79.2  39 
 PAM  EE ES       1011  6.74                             151   -0.3710 79.2  39 
 PAM  EZ I        1011  8.60         7.0 0.50            154           79.2  39 
 RUS  HZ EP       1010 50.35                             145   -0.1910 99.0 175 
 RUS  HN ES       1011  9.84                             145    0.4610 99.0 175 
 RUS  HZ I        1011 10.32         3.4 0.30            146           99.0 175 
 PTB  HZ EP       1010 53.32                             133   -0.36 9  147 259 
 PTB  HN ES       1011 14.71                             133   -0.26 9  147 259 
 PTB  HZ I        1011 20.90         2.3 0.58            133            147 259 
 ZAR  HN ES       1011 24.52                             123   -0.20 9  204 293 
                                                                                
