 2017  119 1048 37.0 L   6.839 -73.368117.1  RSN  9 0.2 1.9LRSN                1
 GAP=105        0.81       3.2     3.0  4.8  0.1385E+01  0.5243E+01  0.3495E+01E
 Epicentro: SAN VICENTE DE CHUCURI - SANTANDER                                 3
 ACTION:UPD 17-05-22 16:01 OP:jn   STATUS:               ID:20170119104837 L   I
 OLDACT:UP  17-01-19 23:31 OP:cog  STATUS:               ID:20170119104739     3
 OLDACT:REG 17-01-19 21:34 OP:cog  STATUS:               ID:20170119104739     3
 2017-01-19-1048-00M.COL___327                                                 6
 STAT SP IPHASW D HRMM SECON CODA AMPLIT PERI AZIMU VELO AIN AR TRES W  DIS CAZ7
 BAR2 EZ EP       1048 53.46                             162   -0.0510 34.2 143 
 BAR2 EZ ES       1049  6.08                             162   -0.3210 34.2 143 
 BAR2 EZ I        1049  7.39        30.4 0.26            163           34.2 143 
 BRR  HZ EP       1048 53.40                             156   -0.3610 48.2 308 
 BRR  HN ES       1049  6.94                             156    0.0910 48.2 308 
 BRR  HZ I        1049  7.78        17.5 0.14            155           48.2 308 
 PAM  EZ EP   3   1048 57.48                             138    0.13 2 92.2  53 
 PAM  EE ES       1049 13.41                             138    0.1710 92.2  53 
 PAM  EZ I        1049 14.73        14.8 0.18            140           92.2  53 
 RUS  HZ EP       1048 58.50                             133   -0.2910  109 163 
 RUS  HN ES       1049 16.09                             133    0.3010  109 163 
 RUS  HZ I        1049 17.17         6.6 0.22            134            109 163 
 PTB  HZ EP   9   1048 58.10                             129   -1.45 0  125 255 
 PTB  HN ES       1049 14.91                                   -0.7910  125 255 
 PTB  HZ I        1049 17.53        12.7 0.10            129            125 255 
 ZAR  HZ EP       1049  5.27                             118    0.17 9  180 294 
 ZAR  HE ES       1049 27.26                             118    0.24 9  180 294 
 ZAR  HZ I        1049 30.01        16.5 0.38            118            180 294 
 NOR  HZ EP       1049  9.36                             113    0.02 8  218 230 
 NOR  HN ES       1049 34.54                             113   -0.05 8  218 230 
 NOR  HZ I        1049 40.30         8.1 0.18            113            218 230 
 URE  HZ EP   9   1049 12.43                             109   -1.58 0  259 293 
 URE  HN ES       1049 40.69                             109   -0.62 8  259 293 
 GUY2CHZ EP       1049 17.77                             107    0.32 7  284 231 
 GUY2CHN ES   3   1049 48.65                             107   -0.37 2  284 231 
 GUY2CHZ  IAML    1049 57.22         3.3 0.48                           284 231 
                                                                                
