 2010  119 1343 27.5 L   6.502 -72.987 28.2  RSN  4 0.1 1.4LRSN                1
 GAP=209        0.41       1.9     7.8  4.3  0.4266E+01 -0.2501E+02  0.5178E+00E
 Epicentro: MOGOTES - SANTANDER                                                3
 ACTION:UP  10-08-24 09:44 OP:vdl  STATUS:               ID:20100119134327 L   I
 2010-01-19-1338-27S.COL___096                                                 6
 STAT SP IPHASW D HRMM SECON CODA AMPLIT PERI AZIMU VELO SNR AR TRES W  DIS CAZ7
 BAR2 SZ IP       1343 33.49                             137    -0.210   24 295 
 BAR2 SZ ES   1   1343 38.64                             137     0.1 7   24 295 
 RUS  BZ IP       1343 39.63                             104     0.110   68 189 
 RUS  BN ES   2   1343 48.88                             104    -0.1 5   68 189 
 RUS  BZ I        1343 50.85        10.3 0.25                            68 189 
 GIR2 SZ IP       1343 39.16                             103     0.110   68 340 
 CHI  HZ IP       1343 59.09                              61     0.0 8  223 202 
 CHI  HZ I        1344 33.42         3.1 0.52                           223 202 
                                                                                
