 2015  619 1304 57.3 L   6.968 -73.072132.0  RSN  4 0.3 1.8LRSN                1
 GAP=225        0.84       7.2     8.2  8.1  0.3328E+02 -0.1545E+01 -0.2483E+02E
 Epicentro: PIEDECUESTA - SANTANDER                                            3
 ACTION:UPD 15-09-10 22:13 OP:cam  STATUS:               ID:20150619130457 L   I
 OLDACT:REG 15-06-19 20:25 OP:stll STATUS:               ID:20150619125747     3
 2015-06-19-1257-47M.COL___307                                                 6
 STAT SP IPHASW D HRMM SECON CODA AMPLIT PERI AZIMU VELO AIN AR TRES W  DIS CAZ7
 BAR2 EZ EP       13 5 15.52                             161   -0.3810 43.3 196 
 BAR2 EZ ES       13 5 30.30                             161   -0.1110 43.3 196 
 BAR2 EZ I        13 5 31.91        10.1 0.22            169           43.3 196 
 BRR  HZ EP       13 5 17.46                             149    0.4110 72.4 282 
 BRR  HN ES       13 5 32.75                             149    0.3010 72.4 282 
 BRR  HZ I        13 5 34.81        11.0 0.30            148           72.4 282 
 ZAR  HZ EP       13 5 29.40                             119    0.35 8  206 287 
 ZAR  HE ES       13 5 53.34                             119   -0.48 8  206 287 
 ZAR  HZ I        13 5 59.22         4.1 0.22            120            206 287 
 SML  HN ES       13 5 58.45                             116   -0.19 8  231 332 
 SML  HZ I        13 6  7.20         9.6 0.10            116            231 332 
                                                                                
