 2015  519 1150 11.4 L   6.806 -73.123147.1  RSN  7 0.4 2.2LRSN                1
 GAP=157        1.00       4.7     9.1  7.9 -0.1709E+02 -0.1284E+02  0.4238E+00E
 Epicentro: LOS SANTOS - SANTANDER                                             3
 ACTION:UPD 15-09-10 22:05 OP:cam  STATUS:               ID:20150519115011 L   I
 OLDACT:REG 15-05-19 20:25 OP:ar   STATUS:               ID:20150519114750     3
 2015-05-19-1147-50M.COL___279                                                 6
 STAT SP IPHASW D HRMM SECON CODA AMPLIT PERI AZIMU VELO AIN AR TRES W  DIS CAZ7
 BAR2 EZ EP       1150 31.25                             170    0.0110 24.5 195 
 BAR2 EZ ES       1150 46.41                             170   -0.2910 24.5 195 
 BAR2 EZ I        1150 46.91        28.8 0.16            168           24.5 195 
 BRR  HZ EP     D 1150 33.15                             152    0.3210 73.1 297 
 BRR  HE ES       1150 50.11                             152    0.5910 73.1 297 
 BRR  HZ I        1150 54.10        22.1 0.12            146           73.1 297 
 PAM  SZ EP       1150 34.11                             152    0.4410 75.3  38 
 OCA  HZ EP       1150 39.63                             130   -0.18 9  160 352 
 OCA  HN ES       1151  1.27                             130   -0.68 9  160 352 
 OCA  HZ I        1151  2.98        26.4 0.42            129            160 352 
 SPBC HZ EP       1150 40.18                             129   -0.05 9  165 220 
 SPBC HE ES       1151  2.31                             129   -0.38 9  165 220 
 SPBC HZ I        1151  4.62        13.0 0.38            128            165 220 
 ZAR  HZ EP   4   1150 44.74                             122    0.57 0  206 292 
 ZAR  HE ES   4   1151 10.71                             122    1.00 0  206 292 
 ZAR  HZ I        1151 12.80                             120            206 292 
 SML  HZ EP   4 D 1150 47.59                             118   -0.59 0  244 335 
 SML  HN ES   4   1151 20.65                             118    3.81 0  244 335 
 SML  HZ I        1151 21.35        13.2 1.17            117            244 335 
                                                                                
