 2012  519 1251 42.5 L   6.635 -73.190133.7  RSN  5 0.3 1.4LRSN                1
 GAP=217        0.74       9.2     6.8  8.6  0.3483E+02  0.1698E+02  0.2321E+02E
 Epicentro: BARICHARA - SANTANDER                                              3
 ACTION:UP  12-07-05 12:06 OP:pat  STATUS:               ID:20120519125142 L   I
 2012-05-19-1250-00M.COL___200                                                 6
 STAT SP IPHASW D HRMM SECON CODA AMPLIT PERI AZIMU VELO SNR AR TRES W  DIS CAZ7
 BAR2 SZ EP   1   1252  0.50                             178     0.0 7    5 169 
 BAR2 SZ ES   1   1252 14.28                             178    -0.2 7    5 169 
 BAR2 SZ I        1252 16.75         7.4 0.17                             5 169 
 BRR  HZ EP   1   1252  2.51                             148    -0.3 7   78 312 
 BRR  HN ES   1   1252 18.73                             148     0.1 7   78 312 
 RUS  HZ EP   1   1252  4.34                             147     0.5 7   83 172 
 RUS  HZ I        1252 25.22         5.1 0.30                            83 172 
 PTB  HZ EP   1   1252  7.33                             131    -0.5 7  140 266 
 PTB  HN ES   1   1252 27.57                             131     0.0 7  140 266 
 PTB  HZ I        1252 31.59         4.2 0.18                           140 266 
 ZAR  HE ES   1   1252 39.96                             119     0.4 6  207 297 
                                                                                
