 2016  619 1153 46.8 L   6.807 -73.116150.0  RSN  6 0.3 1.6LRSN                1
 GAP=241        0.61       3.4     4.1  5.2  0.1856E+01 -0.7397E+00  0.3090E+01E
 Epicentro: LOS SANTOS - SANTANDER                                             3
 ACTION:UPD 16-07-21 22:20 OP:rebc STATUS:               ID:20160619115346 L   I
 OLDACT:REG 16-06-19 19:17 OP:dani STATUS:               ID:20160619114743     3
 2016-06-19-1147-43M.COL___337                                                 6
 STAT SP IPHASW D HRMM SECON CODA AMPLIT PERI AZIMU VELO AIN AR TRES W  DIS CAZ7
 BAR2 EZ EP       1154  6.70                             170   -0.2410 24.8 197 
 BAR2 EZ I        1154 23.38         9.1 0.20                          24.8 197 
 BRR  HZ EP       1154  8.74                             153    0.2210 73.7 297 
 BRR  HE ES       1154 25.75                             153    0.2710 73.7 297 
 BRR  HZ I        1154 27.15         9.9 0.33                          73.7 297 
 RUS  HZ EP       1154 10.78                             145   -0.2010  101 178 
 RUS  HN ES       1154 30.01                             145    0.1410  101 178 
 RUS  HZ I        1154 30.43         2.8 0.28                           101 178 
 PTB  HZ EP       1154 14.25                             132   -0.13 9  151 259 
 PTB  HN ES       1154 35.66                             132   -0.26 9  151 259 
 PTB  HZ I        1154 40.58         2.6 0.28                           151 259 
 SPBC HN ES       1154 38.39                             130   -0.13 9  166 220 
 SPBC HZ I        1154 45.45         5.7 0.48                           166 220 
 PRA  HZ EP       1154 40.86                             107    0.16 6  394 210 
 PRA  HE ES       1155 23.38                             107    0.61 6  394 210 
 PRA  HZ I        1155 27.88         1.6 0.34                           394 210 
                                                                                
