 2014 1219 1650 57.3 L   6.808 -73.161146.0  RSN 23 0.5 2.6LRSN                1
 GAP= 70        1.07       2.8     3.0  5.1 -0.8385E+00  0.3404E+01  0.1200E+01E
 Epicentro: LOS SANTOS - SANTANDER                                             3
 ACTION:UPD 15-02-10 17:05 OP:nd   STATUS:               ID:20141219165057 L   I
 OLDACT:UP  14-12-19 23:59 OP:spq  STATUS:               ID:20141219164745     3
 OLDACT:REG 14-12-19 21:06 OP:spq  STATUS:               ID:20141219164745     3
 2014-12-19-1647-45M.COL___299                                                 6
 STAT SP IPHASW D HRMM SECON CODA AMPLIT PERI AZIMU VELO AIN AR TRES W  DIS CAZ7
 BAR2 EZ EP       1651 16.94                             170   -0.0510 23.9 186 
 BAR2 EZ ES   1   1651 31.88                             170   -0.45 7 23.9 186 
 BAR2 EZ I        1651 33.18       101.6 0.24            170           23.9 186 
 BRR  HZ EP       1651 18.93                             153    0.5410 69.3 299 
 BRR  HE ES       1651 35.91                             153    1.0910 69.3 299 
 BRR  HZ I        1651 39.99        68.0 0.16            151           69.3 299 
 PAM  SZ EP       1651 19.88                             151    0.2910 77.8  41 
 PAM  SN ES       1651 36.81                             151   -0.1410 77.8  41 
 PAM  SZ I        1651 39.13       129.1 0.48            150           77.8  41 
 RUS  HZ EP       1651 20.91                             144   -0.2510  102 175 
 RUS  HE ES       1651 39.87                             144    0.1110  102 175 
 RUS  HZ I        1651 40.73        58.7 0.24            143            102 175 
 PTB  HZ EP       1651 23.68                             132   -0.49 9  146 258 
 PTB  HN ES       1651 44.80                             132   -0.31 9  146 258 
 PTB  HZ I        1651 52.05        44.1 0.36            130            146 258 
 TAM  HZ EP       1651 25.39                             130    0.20 9  157 105 
 TAM  HZ I        1651 46.58        16.6 0.44            129            157 105 
 TAM  HE ES   1   1651 47.13                             130    0.21 7  157 105 
 OCA  HZ EP       1651 24.93                             130   -0.62 9  159 354 
 OCA  HN ES       1651 46.94                             130   -0.63 9  159 354 
 OCA  HZ I        1651 51.56        49.6 0.38            128            159 354 
 SPBC HZ EP       1651 25.82                             129    0.02 9  163 218 
 SPBC HN ES       1651 47.44                             129   -0.57 9  163 218 
 SPBC HZ I        1651 50.55        90.8 0.38            127            163 218 
 ZAR  HZ EP       1651 29.54                             123   -0.05 9  202 292 
 ZAR  HN ES       1651 54.77                             123    0.02 9  202 292 
 ZAR  HZ I        1652  4.01        32.4 0.34            121            202 292 
 NOR  HZ EP       1651 33.13                             119    0.16 8  234 234 
 NOR  HE ES       1652  0.68                             119   -0.09 8  234 234 
 NOR  HZ I        1652  6.91        41.7 0.20            117            234 234 
 SML  HZ EP       1651 33.39                             118   -0.41 8  242 336 
 SML  HN ES   1   1652  3.02                             118    0.77 6  242 336 
 SML  HZ I        1652  5.34        65.4 0.24            116            242 336 
 CHI  HZ EP       1651 35.11                             117    0.04 8  249 195 
 CHI  HE ES   1   1652  4.04                             117   -0.48 6  249 195 
 CHI  HZ I        1652  8.00        32.9 0.46            116            249 195 
 ROSC BZ EP   1   1651 36.35                             117    0.91 6  253 211 
 ROSC BN ES   4   1652  7.40                             117    2.23 0  253 211 
 ROSC BZ I        1652 11.44        44.1 0.50            115            253 211 
 HEL  HZ EP   4   1651 38.92                             115    1.53 0  271 256 
 HEL  HN ES       1652  9.44                             115    0.80 8  271 256 
 HEL  HZ I        1652 15.03        24.7 0.26            113            271 256 
 PTGC HZ EP   4   1651 40.13                             112   -1.21 0  310 158 
 PTGC HN ES   4   1652 13.20                             112   -2.48 0  310 158 
 PTGC HZ I        1652 16.01        47.6 0.38            110            310 158 
 CBOC HZ EP   4   1651 45.49                             110    1.40 0  332 252 
 CBOC HN ES       1652 19.89                             110   -0.68 7  332 252 
 CBOC HZ I        1652 26.72         5.7 0.29            109            332 252 
 DBB  SZ EP       1651 44.57                             110   -0.03 7  338 274 
 DBB  SZ ES   1   1652 21.16                             110   -0.33 5  338 274 
 DBB  SZ I        1652 24.71        46.1 0.52            108            338 274 
 TOL  SZ EP       1651 46.48                             109    0.96 7  343 224 
 TOL  SN ES   4   1652 24.75                             109    1.64 0  343 224 
 MON  HZ EP   4   1651 44.00                             109   -2.12 0  352 308 
 MON  HN ES   4   1652 22.36                             109   -1.82 0  352 308 
 MON  HZ I        1652 36.64         7.1 0.50            107            352 308 
 ANIL HZ EP   4   1651 48.57                             109    1.50 0  357 224 
 ANIL HE ES   4   1652 28.06                             109    2.19 0  357 224 
 ANIL HZ I        1652 31.59         5.9 0.40            107            357 224 
 ORTC HZ EP       1651 51.04                             106   -0.17 6  395 216 
 ORTC HN ES   4   1652 34.59                             106    1.35 0  395 216 
 ORTC HZ I        1652 38.37        16.6 0.30            105            395 216 
 SJC  HZ EP   4 C 1651 51.17                             106   -1.53 0  408 327 
 SJC  HN ES   4   1652 32.26                             106   -3.63 0  408 327 
 SJC  HZ I        1652 38.73         7.9 0.49            104            408 327 
 SMAR HZ EP   1   1652  2.87                             102   -0.18 3  496 346 
 SMAR HE ES   4   1652 50.11                             102   -4.21 0  496 346 
                                                                                
