 2012  719 1804 23.3 L   6.729 -73.160145.6  RSN  4 0.2 1.3LRSN                1
 GAP=138        0.38       7.9     5.3 14.3 -0.7769E+01 -0.1537E+02 -0.3987E+02E
 Epicentro: VILLANUEVA - SANTANDER                                             3
 ACTION:UPD 12-08-14 11:45 OP:ep   STATUS:               ID:20120719180423 L   I
 2012-07-19-1800-00M.COL___201                                                 6
 STAT SP IPHASW D HRMM SECON CODA AMPLIT PERI AZIMU VELO AIN AR TRES W  DIS CAZ7
 BRR  HZ EP       18 4 44.69                             151     0.110   74 304 
 BRR  HZ I        18 4 44.91        12.3 0.14             47             74 304 
 BRR  HN ES   3   18 5  0.88                             151    -0.3 2   74 304 
 PAM  SZ EP       18 4 45.89                             149    -0.110   85  37 
 RUS  HZ EP   3   18 4 46.76                             145     0.2 2   93 175 
 RUS  HN ES   3   18 5  4.64                             145     0.0 2   93 175 
 RUS  HZ I        18 5  7.51         1.4 0.26             47             93 175 
 PTB  HZ EP   3   18 4 49.29                             132    -0.7 2  145 262 
 PTB  HZ I        18 5  4.39         1.7 0.46             47            145 262 
 PTB  HE ES   3   18 5 11.01                             132     0.2 2  145 262 
