 2014  819 1324  4.6 L   6.787 -73.171136.9  RSN  6 0.4 1.7LRSN                1
 GAP=134        0.89       4.5     3.9  6.7  0.3191E+00  0.7243E+01 -0.3075E+01E
 Epicentro: LOS SANTOS - SANTANDER                                             3
 ACTION:UPD 14-09-15 21:51 OP:nd   STATUS:               ID:20140819132404 L   I
 OLDACT:REG 14-08-19 20:50 OP:stll STATUS:               ID:20140819131820     3
 2014-08-19-1318-20M.COL___263                                                 6
 STAT SP IPHASW D HRMM SECON CODA AMPLIT PERI AZIMU VELO AIN AR TRES W  DIS CAZ7
 BAR2 SZ EP       1324 23.41                             171    0.2910 21.6 183 
 BAR2 SZ ES       1324 37.91                             171    0.3410 21.6 183 
 BAR2 SZ I        1324 39.19         8.7 0.26            169           21.6 183 
 BRR  HZ EP       1324 25.13                             151    0.4510 69.4 301 
 BRR  HN ES       1324 40.28                             151   -0.0810 69.4 301 
 PAM  SZ EP       1324 26.26                             148    0.2110 80.3  40 
 PAM  SZ I        1324 26.38        21.1 0.16            151           80.3  40 
 PAM  SN ES       1324 42.36                             148   -0.4310 80.3  40 
 RUS  HZ EP   2   1324 27.15                             142   -0.24 5 99.4 174 
 RUS  HN ES       1324 44.97                             142   -0.2110 99.4 174 
 RUS  HZ I        1324 47.82         4.6 0.30            142           99.4 174 
 PTB  HZ EP       1324 29.84                             131   -0.73 9  145 259 
 PTB  HE ES       1324 50.97                             131    0.14 9  145 259 
 PTB  HZ I        1324 53.74         7.3 0.18            130            145 259 
 ZAR  HZ EP   2   1324 36.90                             121    0.65 4  202 293 
 ZAR  HE ES       1325  0.81                             121   -0.14 9  202 293 
 ZAR  HZ I        1325  6.94         9.5 0.24            121            202 293 
                                                                                
