 2011 1219 1758 38.1 L   6.746 -73.102137.3  RSN  6 0.3 1.7LRSN                1
 GAP=145        0.63       4.3     7.3  8.0  0.5661E+00 -0.2716E+01 -0.4474E+01E
 Epicentro: JORDAN - SANTANDER                                                 3
 ACTION:UPD 12-07-13 16:17 OP:ep   STATUS:               ID:20111219175838 L   I
 2011-12-19-1750-00M.COL___192                                                 6
 STAT SP IPHASW D HRMM SECON CODA AMPLIT PERI AZIMU VELO AIN AR TRES W  DIS CAZ7
 BAR2 SZ EP       1758 56.53                             172   -0.0910 19.2 208 
 BAR2 SZ ES   2   1759 11.05                             172   -0.02 5 19.2 208 
 BAR2 SZ I        1759 12.57        18.2 0.24                          19.2 208 
 GIR2 SZ EP       1758 56.65                             164   -0.3210 38.1 345 
 BRR  HZ EP       1758 58.57                             148   -0.1910 78.3 301 
 BRR  HE ES   2   1759 15.23                             148    0.34 5 78.3 301 
 PAM  SZ EP       1758 59.43                             149   -0.0910 79.2  34 
 PAM  SN ES   2   1759 16.37                             149    0.13 5 79.2  34 
 RUS  HZ EP   1   1759  1.02                             144    0.46 7 94.4 179 
 RUS  HN ES   2   1759 18.22                             144    0.13 5 94.4 179 
 RUS  HZ I        1759 22.03         4.3 0.41                          94.4 179 
 OCA  SZ EP   2   1759  7.36                             126    0.97 5  167 352 
 OCA  SZ ES   2   1759 28.91                             126    0.45 5  167 352 
 OCA  SZ I        1759 33.49        11.6 0.15                           167 352 
                                                                                
