 2011 1219 1947 22.5 L   6.784 -73.098140.7  RSN 12 0.3 2.5LRSN                1
 GAP=143        0.53       2.4     3.8  3.5 -0.2769E+01  0.2658E+01  0.1354E+01E
 Epicentro: LOS SANTOS - SANTANDER                                             3
 ACTION:UPD 12-07-13 16:17 OP:ep   STATUS:               ID:20111219194722 L   I
 2011-12-19-1940-00M.COL___192                                                 6
 STAT SP IPHASW D HRMM SECON CODA AMPLIT PERI AZIMU VELO AIN AR TRES W  DIS CAZ7
 BAR2 SZ EP   1   1947 41.24                             170   -0.29 7 23.1 204 
 BAR2 SZ ES   1   1947 55.69                             170   -0.67 7 23.1 204 
 BAR2 SZ I        1947 57.03        97.9 0.21                          23.1 204 
 GIR2 SZ IP       1947 41.49                             166   -0.1810 34.3 342 
 GIR2 SZ ES   1   1947 57.21                             166    0.60 7 34.3 342 
 PAM  SZ EP       1947 44.24                             150    0.1510 75.6  36 
 PAM  SN ES   1   1948  1.03                             150    0.12 7 75.6  36 
 BRR  HZ IP     C 1947 43.27                             150   -0.1810 76.7 298 
 BRR  HZ I        1947 43.65       106.4 0.12                          76.7 298 
 BRR  HE ES   1   1947 59.93                             150    0.16 7 76.7 298 
 RUS  HZ EP   1   1947 45.84                             143    0.22 7 98.5 179 
 RUS  HN ES   2   1948  3.88                             143    0.24 5 98.5 179 
 OCA  SZ EP       1947 50.69                             128    0.01 9  163 351 
 OCA  SZ ES   2   1948 12.48                             128   -0.16 5  163 351 
 OCA  SZ I        1948 17.48        57.3 0.31                           163 351 
 NOR  SZ EP   1   1947 58.71                             117    0.40 6  238 236 
 NOR  SE ES   2   1948 26.31                             117    0.08 4  238 236 
 CHI  HZ EP   1   1947 59.84                             116   -0.07 6  248 196 
 CHI  HE ES   2   1948 29.01                             116   -0.06 4  248 196 
 CHI  HZ I        1948 35.66         8.7 0.46                           248 196 
 HEL  HZ EP   2   1948  2.96                             113   -0.04 4  277 256 
 HEL  HN ES   2   1948 34.45                             113   -0.13 4  277 256 
 HEL  HZ I        1948 40.41        15.5 0.47                           277 256 
 GUY  SZ EP   2   1948  6.91                             111    0.37 4  307 236 
 GUY  SZ I        1948 51.70        10.7 0.44                           307 236 
 COD  HE ES   2   1948 48.31                             108   -0.45 3  351 354 
 COD  HZ I        1948 52.49        22.6 0.90                           351 354 
 PRA  HZ EP   1   1948 15.96                             106   -0.03 4  393 210 
 PRA  HN ES   2   1948 57.74                             106    0.04 3  393 210 
                                                                                
