 2013 1219 1046 58.5 L   6.812 -73.163144.9  RSN 44 0.5 4.1LRSN 4.1WRSN        1
 SPEC AVERAGE  MO 15.2 ST169.3 OM  3.7 f0 4.31 R1.8938 AL 0.00 WI 20.0 MW  4.1 3
 SPEC SD       MO  0.9 ST272.3 OM  0.9 f0 3.12 R4.6063 AL      WI      MW  0.6 3
 GAP= 70        0.98       2.6     3.7  6.2 -0.1844E+01  0.6602E+01  0.1496E+01E
      21.0      88.0      -2.0  2.0  5.0 14.0  0.2  0.2           RSN FPFIT    F
 ACTION:UPD 14-01-13 10:19 OP:ep   STATUS:               ID:20131219104658 L   I
 Epicentro: LOS SANTOS - SANTANDER                                             3
 SPEC BAR2SH Z MO 15.6 ST 51.3 OM  4.0 f0 2.29 R0.6786 AL-0.00 WI 20.0 MW  4.3 3
 SPEC BAR2SH Z T104731 K 0.000 GD  146 VS 4.20 DE 3.20 Q0300.0 QA 0.60 VS 4.20 3
 SPEC BRR HH Z MO 14.6 ST 90.2 OM  3.0 f0 5.78 R0.2689 AL-0.00 WI 20.0 MW  3.7 3
 SPEC BRR HH Z T104734 K 0.000 GD  160 VS 4.20 DE 3.20 Q0300.0 QA 0.60 VS 4.20 3
 SPEC PAM SH Z MO 14.9 ST 13.4 OM  3.3 f0 2.41 R0.6448 AL-0.00 WI 20.0 MW  3.9 3
 SPEC PAM SH Z T104736 K 0.000 GD  164 VS 4.20 DE 3.20 Q0300.0 QA 0.60 VS 4.20 3
 SPEC RUS HH Z MO 14.9 ST  9.8 OM  3.3 f0 2.12 R0.7330 AL-0.00 WI 20.0 MW  3.9 3
 SPEC RUS HH Z T104739 K 0.000 GD  177 VS 4.20 DE 3.20 Q0300.0 QA 0.60 VS 4.20 3
 SPEC PTB HH Z MO 14.9 ST302.4 OM  3.2 f0 6.83 R0.2275 AL-0.00 WI 20.0 MW  3.9 3
 SPEC PTB HH Z T104744 K 0.000 GD  205 VS 4.20 DE 3.20 Q0300.0 QA 0.60 VS 4.20 3
 SPEC TAM HH Z MO 15.3 ST  7.4 OM  3.6 f0 1.44 R1.0792 AL-0.00 WI 20.0 MW  4.2 3
 SPEC TAM HH Z T104746 K 0.000 GD  213 VS 4.20 DE 3.20 Q0300.0 QA 0.60 VS 4.20 3
 SPEC OCA HH Z MO 15.0 ST 39.1 OM  3.3 f0 3.15 R0.4933 AL-0.00 WI 20.0 MW  4.0 3
 SPEC OCA HH Z T104746 K 0.000 GD  215 VS 4.20 DE 3.20 Q0300.0 QA 0.60 VS 4.20 3
 SPEC SPBCHH Z MO 15.0 ST210.7 OM  3.3 f0 5.50 R0.2825 AL-0.00 WI 20.0 MW  4.0 3
 SPEC SPBCHH Z T104748 K 0.000 GD  218 VS 4.20 DE 3.20 Q0300.0 QA 0.60 VS 4.20 3
 SPEC ZAR HH Z MO 14.7 ST293.2 OM  2.9 f0 7.99 R0.1945 AL-0.00 WI 20.0 MW  3.7 3
 SPEC ZAR HH Z T104754 K 0.000 GD  248 VS 4.20 DE 3.20 Q0300.0 QA 0.60 VS 4.20 3
 SPEC CTAUSH Z MO 17.9 ST0.689 OM  6.1 f00.091 R 17.08 AL-0.00 WI 20.0 MW  5.9 3
 SPEC CTAUSH Z T104756 K 0.000 GD  249 VS 4.20 DE 3.20 Q0300.0 QA 0.60 VS 4.20 3
 SPEC NOR HH Z MO 15.1 ST 55.9 OM  3.3 f0 3.27 R0.4752 AL-0.00 WI 20.0 MW  4.0 3
 SPEC NOR HH Z T1048 1 K 0.000 GD  275 VS 4.20 DE 3.20 Q0300.0 QA 0.60 VS 4.20 3
 SPEC SML HH Z MO 14.9 ST999.9 OM  3.1 f0 11.8 R0.1317 AL-0.00 WI 20.0 MW  3.9 3
 SPEC SML HH Z T1048 3 K 0.000 GD  282 VS 4.20 DE 3.20 Q0300.0 QA 0.60 VS 4.20 3
 SPEC CHI HH Z MO 15.5 ST  9.0 OM  3.6 f0 1.39 R1.1180 AL-0.00 WI 20.0 MW  4.2 3
 SPEC CHI HH Z T1048 3 K 0.000 GD  288 VS 4.20 DE 3.20 Q0300.0 QA 0.60 VS 4.20 3
 STAT SP IPHASW D HRMM SECON CODA AMPLIT PERI AZIMU VELO AIN AR TRES W  DIS CAZ7
 BRR  HZ I        1047 40.61      2596.3 0.28                          68.9 298 
 PAM  SZ IP     C 1047 21.40                             150    0.7210 77.6  41 
 PAM  SN ES       1047 37.91                             150   -0.0410 77.6  41 
 PAM  SZ I        1047 41.10      2156.5 0.44            137           77.6  41 
 RUS  HZ IP     D 1047 22.43                             143    0.1110  102 175 
 RUS  HN ES       1047 40.51                             143   -0.3510  102 175 
 RUS  HZ I        1047 42.29      1452.8 0.22            130            102 175 
 RUS  HZ I        1047 42.32      2100.8 0.72                           102 175 
 RUS  HN  Sn      1047 45.32                                            102 175 
 PTB  HZ IP     C 1047 24.96                             132   -0.34 9  146 258 
 PTB  HN ES       1047 45.73                             132   -0.44 9  146 258 
 PTB  SZ I        1047 53.43      1691.3 0.24            120            146 258 
 PTB  HZ I        1047 53.71      1879.3 0.54                           146 258 
 TAM  HZ IP   2 C 1047 26.98                             130    0.62 5  157 105 
 TAM  HZ I        1047 47.93      1237.0 0.36            116            157 105 
 TAM  HN ES   2   1047 48.16                             130    0.11 5  157 105 
 TAM  SZ I        1047 58.26      1227.2 1.12            116            157 105 
 OCA  HZ IP     C 1047 26.55                             130   -0.10 9  159 354 
 OCA  HN ES       1047 48.16                             130   -0.41 9  159 354 
 OCA  SZ I        1047 56.82      2202.1 0.44            116            159 354 
 OCA  HZ I        1047 57.10      2116.2 0.24                           159 354 
 SPBC HZ IP     C 1047 27.30                             129    0.34 9  163 218 
 SPBC HN ES       1047 49.57                             129    0.44 9  163 218 
 SPBC HZ I        1047 53.91      2534.2 0.42            116            163 218 
 SPBC SZ I        1047 54.25      2639.1 0.34                           163 218 
 ZAR  HZ EP   1   1047 30.93                             122    0.23 6  202 292 
 ZAR  HN ES   2   1047 55.67                             122   -0.12 4  202 292 
 ZAR  SZ I        1048  1.74      1929.8 0.34            111            202 292 
 ZAR  HZ I        1048  1.92      1828.5 0.50            111            202 292 
 CTAU SZ IP   4 C 1047 33.36                             123    1.88 0  203 209 
 CTAU SZ ES   4   1047 57.81                             123    0.64 0  203 209 
 CTAU SZ I        1048 12.20      2246.9 2.30            111            203 209 
 NOR  HZ IP     C 1047 34.34                             118    0.20 8  234 234 
 NOR  HN ES       1048  2.78                             118    0.87 8  234 234 
 NOR  SZ I        1048 11.77      1242.4 0.30            108            234 234 
 NOR  HZ I        1048 12.20      1340.0 0.46                           234 234 
 SML  HZ IP   2 D 1047 34.55                             117   -0.36 4  242 336 
 SML  HN ES   2   1048  4.54                             117    1.27 4  242 336 
 SML  SZ I        1048  5.48      1422.6 0.26            107            242 336 
 SML  HZ I        1048  7.86      1171.2 0.30                           242 336 
 CHI  HZ IP     D 1047 36.43                             117    0.15 8  249 195 
 CHI  HN ES       1048  4.99                             117   -0.72 8  249 195 
 CHI  SZ I        1048 11.26      1180.0 0.32            107            249 195 
 CHI  HZ I        1048 11.47      1101.3 0.32                           249 195 
 HEL  HZ EP   1   1047 38.42                             115   -0.13 6  271 255 
 HEL  HN ES   1   1048 10.47                             115    0.72 6  271 255 
 HEL  SZ I        1048 16.81      1255.9 0.46            105            271 255 
 HEL  HZ I        1048 17.07      1057.6 0.38                           271 255 
 CVER SZ IP   4 D 1047 39.97                             114    1.06 0  273 202 
 CVER SZ ES   4   1048  9.29                             114   -1.12 0  273 202 
 CVER SZ I        1048 17.87     15186.7 0.34            105            273 202 
 URE  HZ EP       1047 38.34                             113   -0.98 7  282 292 
 URE  HE ES   4   1048  8.56                             113   -2.57 0  282 292 
 URE  SZ I        1048 17.71      1117.6 0.18            105            282 292 
 URE  HZ I        1048 17.79      1018.7 0.18                           282 292 
 GUY2CHZ EP   4   1047 42.51                             112    0.49 0  300 234 
 GUY2CHN ES   4   1048 18.71                             112    2.77 0  300 234 
 GUY2CSZ I        1048 24.64      1418.7 0.40                           300 234 
 GUY2CHZ I        1048 25.05      1326.2 0.60                           300 234 
 VIL  SZ EP       1047 41.68                             112   -0.34 7  304 191 
 VIL  SN ES       1048 15.62                             112   -0.32 7  304 191 
 VIL  SZ I        1048 26.14      1815.9 0.44            103            304 191 
 PTGC HZ IP   4 D 1047 41.73                             111   -0.85 0  311 158 
 PTGC HN ES   4   1048 14.40                             111   -2.53 0  311 158 
 PTGC SZ I        1048 17.72       492.0 0.28            103            311 158 
 PTGC HZ I        1048 17.91       549.8 0.30                           311 158 
 RREF HZ EP   4   1047 44.43                             111   -0.15 0  321 229 
 RREF HN ES   4   1048 22.04                             111    1.55 0  321 229 
 RREF SZ I        1048 29.96      1409.6 0.62            103            321 229 
 RREF HZ I        1048 30.47      1335.7 0.38                           321 229 
 CBOC HZ IP   4 C 1047 45.65                             110    0.39 0  332 252 
 CBOC HN ES   4   1048 23.79                             110    2.09 0  332 252 
 CBOC HZ I        1048 28.50       304.5 0.32            102            332 252 
 CBOC SZ I        1048 34.02       368.8 0.60                           332 252 
 DBB  SZ IP   4 C 1047 45.96                             109    0.20 0  337 274 
 DBB  SZ ES   4   1048 19.31                             109   -3.27 0  337 274 
 DBB  SZ I        1048 24.16      1172.3 0.76            102            337 274 
 TOL  SZ EP   4   1047 47.01                             109    0.29 0  343 224 
 TOL  SZ ES   4   1048 25.85                             109    1.55 0  343 224 
 TOL  SZ I        1048 32.97       510.5 0.35            102            343 224 
 COD  HZ IP   4 C 1047 45.74                             109   -0.97 0  347 355 
 COD  HN ES   4   1048 22.43                             109   -1.86 0  347 355 
 COD  SZ I        1048 34.71       471.7 0.60            101            347 355 
 COD  HZ I        1048 35.18       376.3 0.48                           347 355 
 ARGC HZ IP   4 D 1047 48.52                             108    0.57 0  357 341 
 ANIL HZ I        1048 38.74      3116.8 0.30                           357 224 
 ARGC SZ I        1048 37.90       353.1 0.32                           357 341 
 ANIL HZ EP   4   1047 48.67                             108    0.40 0  357 224 
 ANIL HN ES   4   1048 28.25                             108    1.19 0  357 224 
 ANIL SZ I        1048 38.69      3065.7 0.30            101            357 224 
 ANIL HZ I        1048 38.74      3116.8 0.30                           357 224 
 ARGC HZ IP   4 D 1047 48.52                             108    0.57 0  357 341 
 ARGC HN ES   4   1048 26.89                             108    0.40 0  357 341 
 ARGC HN ES   4   1048 26.89                             108    0.40 0  357 341 
 ARGC HZ I        1048 34.37       404.4 0.30            101            357 341 
 ARGC HZ I        1048 34.37       404.4 0.30            101            357 341 
 ARGC SZ I        1048 37.90       353.1 0.32                           357 341 
 SDV  BZ IP   4 C 1047 47.91                             108   -0.71 0  361  51 
 SDV  BZ IP   4 C 1047 47.91                             108   -0.71 0  361  51 
 SDV  BN ES   4   1048 24.66                             108   -3.02 0  361  51 
 SDV  BN ES   4   1048 24.66                             108   -3.02 0  361  51 
 SDV  SZ I        1048 28.69       234.7 0.35            101            361  51 
 SDV  SZ I        1048 28.69       234.7 0.35            101            361  51 
 ORTC HZ IP     C 1047 52.36                             106   -0.07 6  395 216 
 ORTC HZ IP     C 1047 52.36                             106            395 216 
 ORTC HN ES   2   1048 34.46                             106    0.00 3  395 216 
 ORTC HN ES   2   1048 34.46                             106            395 216 
 ORTC SZ I        1048 39.85       571.7 0.26            100            395 216 
 ORTC SZ I        1048 39.85       571.7 0.26            100            395 216 
 ORTC HZ I        1048 40.03       593.5 0.24                           395 216 
 ORTC HZ I        1048 40.03       593.5 0.24                           395 216 
 PAL  HZ IP   4 C 1047 53.99                             106    0.43 0  405 239 
 PAL  HZ IP   4 C 1047 53.99                             106    0.43 0  405 239 
 PAL  HN ES   4   1048 36.52                             106    0.04 0  405 239 
 PAL  HN ES   4   1048 36.52                             106    0.04 0  405 239 
 PAL  SZ I        1048 43.84       264.0 0.16            100            405 239 
 PAL  SZ I        1048 43.84       264.0 0.16            100            405 239 
 PAL  HZ I        1048 47.69       271.0 0.18                           405 239 
 PAL  HZ I        1048 47.69       271.0 0.18                           405 239 
 SJC  HZ IP   4 D 1047 52.11                             106   -1.72 0  407 327 
 SJC  HZ IP   4 D 1047 52.11                             106   -1.72 0  407 327 
 SJC  HN ES   4   1048 32.90                             106   -4.05 0  407 327 
 SJC  HN ES   4   1048 32.90                             106   -4.05 0  407 327 
 SJC  SZ I        1048 47.70       310.5 0.58             99            407 327 
 SJC  SZ I        1048 47.70       310.5 0.58             99            407 327 
 SJC  HZ I        1048 48.53       316.1 0.40                           407 327 
 SJC  HZ I        1048 48.53       316.1 0.40                           407 327 
 LCBC HZ EP   4   1047 54.25                             105   -0.96 0  420 303 
 LCBC HZ EP   4   1047 54.25                             105   -0.96 0  420 303 
 LCBC HN ES   4   1048 37.78                             105   -1.63 0  420 303 
 LCBC HN ES   4   1048 37.78                             105   -1.63 0  420 303 
 YOT  HZ EP   4   1048  0.40                             103   -1.10 0  471 229 
 YOT  HZ EP   4   1048  0.40                             103   -1.10 0  471 229 
 YOT  HN ES   4   1048 53.22                             103    2.62 0  471 229 
 YOT  HN ES   4   1048 53.22                             103    2.62 0  471 229 
 YOT  HZ I        1049  0.13        47.0 0.46             98            471 229 
 YOT  HZ I        1049  0.13        47.0 0.46             98            471 229 
 YOT  SZ I        1049  3.74        76.1 0.72                           471 229 
 YOT  SZ I        1049  3.74        76.1 0.72                           471 229 
 SOL  SZ EP   4   1048  1.54                             103   -0.11 0  474 262 
 SOL  SZ EP   4   1048  1.54                             103   -0.11 0  474 262 
 SOL  SE ES   4   1048 51.83                             103    0.96 0  474 262 
 SOL  SE ES   4   1048 51.83                             103    0.96 0  474 262 
 SOL  SZ I        1048 53.60        71.3 0.44             98            474 262 
 SOL  SZ I        1048 53.60        71.3 0.44             98            474 262 
 GUA  SZ EP   4   1048  0.47                             103   -1.38 0  476 173 
 GUA  SZ EP   4   1048  0.47                             103   -1.38 0  476 173 
 GUA  SN ES   4   1048 49.46                             103   -1.78 0  476 173 
 GUA  SN ES   4   1048 49.46                             103   -1.78 0  476 173 
 GUA  SZ I        1048 52.77       335.5 0.48             98            476 173 
 GUA  SZ I        1048 52.77       335.5 0.48             98            476 173 
 SMAR HZ EP   4   1048  3.19                             102   -1.00 0  495 346 
 SMAR HZ EP   4   1048  3.19                             102   -1.00 0  495 346 
 SMAR HN ES   4   1048 50.72                             102   -4.67 0  495 346 
 SMAR HN ES   4   1048 50.72                             102   -4.67 0  495 346 
 SMAR HZ I        1048 54.31       196.3 0.46             98            495 346 
 SMAR HZ I        1048 54.31       196.3 0.46             98            495 346 
 SMAR SZ I        1048 55.63       232.6 0.50                           495 346 
 SMAR SZ I        1048 55.63       232.6 0.50                           495 346 
 BET  SZ EP   4   1048  6.44                             101   -0.44 0  517 209 
 BET  SZ EP   4   1048  6.44                             101   -0.44 0  517 209 
 BET  SZ ES   4   1048 52.81                             101   -7.38 0  517 209 
 BET  SZ ES   4   1048 52.81                             101   -7.38 0  517 209 
 BET  SZ I        1049  3.68        31.7 0.75             97            517 209 
 BET  SZ I        1049  3.68        31.7 0.75             97            517 209 
 MACC HZ IP   4 D 1048  5.54                             101   -1.81 0  522 188 
 MACC HZ IP   4 D 1048  5.54                             101   -1.81 0  522 188 
 MACC HN ES   4   1048 56.14                             101   -4.88 0  522 188 
 MACC HN ES   4   1048 56.14                             101   -4.88 0  522 188 
 MACC SZ I        1049  0.39       257.0 0.88             97            522 188 
 MACC SZ I        1049  0.39       257.0 0.88             97            522 188 
 MACC HZ I        1049  2.99       199.7 0.72             97            522 188 
 MACC HZ I        1049  2.99       199.7 0.72             97            522 188 
 MAL  SZ IP   4 D 1048 12.62                             100    1.14 0  556 236 
 URI  HZ EP   4   1048  8.85                             100   -2.58 0  556  13 
 URI  HN ES   4   1049  0.83                             100   -7.44 0  556  13 
 URI  SZ I        1049  9.51        86.8 0.50             97            556  13 
 URI  HZ I        1049 11.61        80.7 0.42             97            556  13 
 MAL  SZ IP   4 D 1048 12.62                             100    1.14 0  556 236 
 MAL  SN ES   4   1049 11.81                             100    3.43 0  556 236 
 MAL  SZ I        1049 23.69        99.2 1.32             97            556 236 
 URI  HZ EP   4   1048  8.85                             100   -2.58 0  556  13 
 URI  HN ES   4   1049  0.83                             100   -7.44 0  556  13 
 URI  SZ I        1049  9.51        86.8 0.50             97            556  13 
 URI  HZ I        1049 11.61        80.7 0.42             97            556  13 
 MAL  SN ES   4   1049 11.81                             100    3.43 0  556 236 
 MAL  SZ I        1049 23.69        99.2 1.32             97            556 236 
 PCON HZ EP   4   1048 18.97                              99    0.08 0  612 216 
 PCON HZ EP   4   1048 18.97                              99    0.08 0  612 216 
 PCON HN ES   4   1049 15.25                              99   -6.31 0  612 216 
 PCON HN ES   4   1049 15.25                              99   -6.31 0  612 216 
 PCON HZ I        1049 27.77        62.7 0.50             96            612 216 
 PCON HZ I        1049 27.77        62.7 0.50             96            612 216 
 PCON SZ I        1049 58.22        91.2 0.74                           612 216 
 PCON SZ I        1049 58.22        91.2 0.74                           612 216 
 FLO2 HZ IP   4 C 1048 20.95                              99   -0.74 0  641 206 
 FLO2 HZ IP   4 C 1048 20.95                              99   -0.74 0  641 206 
 FLO2 HN ES   4   1049 23.62                              99   -2.93 0  641 206 
 FLO2 HN ES   4   1049 23.62                              99   -2.93 0  641 206 
 FLO2 HZ I        1049 31.49        73.8 0.34             96            641 206 
 FLO2 HZ I        1049 31.49        73.8 0.34             96            641 206 
 FLO2 SZ I        1049 32.99       109.3 1.32                           641 206 
 FLO2 SZ I        1049 32.99       109.3 1.32                           641 206 
 SOTA HZ IP   4 C 1048 22.72                              99    0.18 0  643 217 
 SOTA HZ IP   4 C 1048 22.72                              99    0.18 0  643 217 
 SOTA HN ES   4   1049 22.30                              99   -5.76 0  643 217 
 SOTA HN ES   4   1049 22.30                              99   -5.76 0  643 217 
 SOTA SZ I        1049 39.73        67.2 0.62             96            643 217 
 SOTA SZ I        1049 39.73        67.2 0.62             96            643 217 
 SOTA HZ I        1049 40.22        42.1 0.48                           643 217 
 SOTA HZ I        1049 40.22        42.1 0.48                           643 217 
 BBAC HZ EP   4   1048 29.12                              98    0.39 0  697 221 
