 2015 1119 1633 27.5 L   6.806 -73.185146.7  RSN 10 0.5 2.1LRSN                1
 GAP=137        0.92       3.7     4.6  6.4 -0.7825E+01  0.1142E+02 -0.4965E+01E
 Epicentro: ZAPATOCA - SANTANDER                                               3
 ACTION:UPD 15-12-28 16:12 OP:cam  STATUS:               ID:20151119163327 L   I
 OLDACT:UP  15-12-01 10:57 OP:ak   STATUS:               ID:20151119163327 L   3
 OLDACT:REG 15-11-19 20:43 OP:dnl  STATUS:               ID:20151119162750     3
 2015-11-19-1627-50M.COL___310                                                 6
 STAT SP IPHASW D HRMM SECON CODA AMPLIT PERI AZIMU VELO AIN AR TRES W  DIS CAZ7
 BAR2 EZ EP       1633 47.19                             170   -0.0510 23.7 179 
 BAR2 EZ ES       1634  2.63                             170   -0.0110 23.7 179 
 BAR2 EZ I        1634  5.00        18.2 0.18            169           23.7 179 
 BRR  HZ EP       1633 49.32                             154    0.8110 67.0 300 
 BRR  HE ES   1   1634  4.48                             154   -0.42 7 67.0 300 
 PAM  EZ EP       1633 49.95                             150    0.0110 79.7  42 
 PAM  EE ES       1634  7.36                             150   -0.1010 79.7  42 
 PAM  EZ I        1634  9.88        15.5 0.48            155           79.7  42 
 OCA  HZ EP   2   1633 55.05                             130   -0.72 5  159 355 
 OCA  HE ES   2   1634 18.03                             130    0.21 5  159 355 
 SPBC HZ EP       1633 56.25                             129    0.40 9  161 218 
 SPBC HE ES       1634 17.97                             129   -0.00 9  161 218 
 SPBC HZ I        1634 25.94        12.8 0.16            130            161 218 
 ZAR  HZ EP   2   1633 59.67                             123    0.12 4  200 292 
 ZAR  HN ES   2   1634 25.98                             123    1.42 4  200 292 
 ZAR  HZ I        1634 31.53        12.6 0.18            123            200 292 
 NOR  HZ EP   2   1634  3.02                             119    0.08 4  232 234 
 NOR  HN ES       1634 29.90                             119   -0.68 8  232 234 
 NOR  HZ I        1634 37.44         7.5 0.18            120            232 234 
 SML  HZ EP       1634  3.22                             118   -0.69 8  241 336 
 SML  HE ES       1634 32.23                             118   -0.08 8  241 336 
 SML  HZ I        1634 39.66        12.8 0.10            119            241 336 
 HEL  HN ES       1634 38.33                             115   -0.02 8  268 255 
 HEL  HZ I        1634 46.45         7.8 0.40            116            268 255 
 GUY2CHZ EP   9   1634 12.50                             113    1.72 0  298 234 
 GUY2CHE ES       1634 46.12                             113   -0.15 7  298 234 
 GUY2CHZ I        1634 52.76         4.4 0.30                           298 234 
                                                                                
