 2014  719 1707 40.3 L   6.792 -73.126153.7  RSN  7 0.3 2.1LRSN                1
 GAP=202        0.85       3.5     4.9  5.5  0.5363E+01  0.1444E+01 -0.4831E+01E
 Epicentro: LOS SANTOS - SANTANDER                                             3
 ACTION:UPD 15-03-16 20:45 OP:nd   STATUS:               ID:20140719170740 L   I
 OLDACT:REG 14-07-19 21:18 OP:stll STATUS:               ID:20140719165820     3
 2014-07-19-1658-20M.COL___266                                                 6
 STAT SP IPHASW D HRMM SECON CODA AMPLIT PERI AZIMU VELO AIN AR TRES W  DIS CAZ7
 BAR2 SZ EP       17 8  1.21                             171    0.3010 22.9 196 
 BAR2 SZ ES       17 8 16.68                             171   -0.2810 22.9 196 
 BAR2 SZ I        17 8 17.61        39.7 0.14            168           22.9 196 
 BRR  HZ EP       17 8  2.78                             153    0.3110 73.6 298 
 BRR  HZ I        17 8  4.71        15.1 0.24            150           73.6 298 
 BRR  HN ES       17 8 20.31                             153    0.5710 73.6 298 
 RUS  HZ EP       17 8  4.68                             146   -0.1210 99.5 177 
 RUS  HN ES       17 8 23.63                             146   -0.2510 99.5 177 
 RUS  HZ I        17 8 24.82        11.0 0.28            144           99.5 177 
 PTB  HZ EP       17 8  7.80                             133   -0.33 9  150 259 
 PTB  HN ES       17 8 29.28                             133   -0.53 9  150 259 
 PTB  HZ I        17 8 31.01        13.9 0.40            131            150 259 
 SPBC HZ EP       17 8  9.96                             131    0.45 9  164 220 
 SPBC HE ES       17 8 32.46                             131    0.19 9  164 220 
 SPBC HZ I        17 8 38.31        16.0 0.20            129            164 220 
 ZAR  HZ EP       17 8 13.38                             124   -0.17 8  206 292 
 ZAR  HN ES       17 8 39.66                             124    0.21 8  206 292 
 ZAR  HZ I        17 8 45.15        11.1 0.24            123            206 292 
 SML  HZ EP       17 8 17.44                             119   -0.16 8  245 335 
 SML  HN ES       17 8 46.30                             119   -0.37 8  245 335 
                                                                                
