 2010 1019 1052  3.1 L   6.786 -73.103142.7  RSN  6 0.4 1.7LRSN                1
 GAP=164        0.92       7.1    14.8 11.6 -0.3950E+01 -0.3976E+02 -0.1337E+02E
 Epicentro: LOS SANTOS - SANTANDER                                             3
 ACTION:UP  11-02-18 11:10 OP:tino STATUS:               ID:20101019105203 L   I
 2010-10-19-1049-15S.COL___123                                                 6
 STAT SP IPHASW D HRMM SECON CODA AMPLIT PERI AZIMU VELO SNR AR TRES W  DIS CAZ7
 BAR2 SZ EP   1   1052 22.31                             170    -0.1 7   23 202 
 BAR2 SZ ES   2   1052 37.26                             170    -0.2 5   23 202 
 BAR2 SZ I        1052 38.56        12.0 0.18                            23 202 
 BRR  HZ EP   1   1052 23.98                             150    -0.3 7   76 298 
 BRR  HE ES   2   1052 41.03                             150     0.3 5   76 298 
 BRR  HZ I        1052 41.75        10.4 0.39                            76 298 
 RUS  HZ EP   1   1052 26.32                             144    -0.1 7   99 179 
 RUS  HN ES   2   1052 44.92                             144     0.3 5   99 179 
 RUS  HZ I        1052 46.32         6.1 0.24                            99 179 
 GUE  SZ EP   1   1052 26.99                             138    -0.6 7  117  10 
 GRA  SZ EP   1   1052 28.99                             136     0.9 7  126  15 
 GRA  SZ I        1052 35.44         5.9 0.18                           126  15 
 PRA  HZ EP   1   1052 57.02                             106     0.3 4  393 210 
                                                                                
