 2017  419 1924 41.9 L   6.801 -73.123143.8  RSN  6 0.3 1.4LRSN                1
 GAP=139        0.75       3.6     3.6  6.7 -0.6660E-01  0.7580E+01  0.4298E+01E
 Epicentro: LOS SANTOS - SANTANDER                                             3
 ACTION:UPD 17-05-30 21:14 OP:jn   STATUS:               ID:20170419192441 L   I
 OLDACT:REG 17-04-19 21:16 OP:lv   STATUS:               ID:20170419191708     3
 2017-04-19-1918-00M.COL___371                                                 6
 STAT SP IPHASW D HRMM SECON CODA AMPLIT PERI AZIMU VELO AIN AR TRES W  DIS CAZ7
 BRR  HZ EP       1925  2.67                             151   -0.2910 73.4 298 
 BRR  HN ES       1925 19.64                             151    0.2510 73.4 298 
 BRR  HZ I        1925 25.15        15.5 0.19            153           73.4 298 
 PAM  EZ EP       1925  3.97                             151    0.1710 75.7  38 
 PAM  EN ES       1925 20.97                             151    0.0810 75.7  38 
 PAM  EZ I        1925 22.93         5.0 0.40            155           75.7  38 
 RUS  HZ EP       1925  5.69                             143    0.2410  101 177 
 RUS  HN ES       1925 23.42                             143   -0.4010  101 177 
 RUS  HZ I        1925 25.38         1.2 0.26            148            101 177 
 PTB  HZ EP       1925  8.76                             131   -0.18 9  150 259 
 PTB  HN ES   4   1925 28.48                             131   -1.54 0  150 259 
 PTB  HZ I        1925 32.17         3.4 0.23            134            150 259 
 ZAR  HN ES       1925 39.54                             122   -0.31 8  206 292 
 NOR  HN ES       1925 46.21                             118    0.51 8  237 235 
                                                                                
