 2016 1219 1110 31.1 L   6.865 -73.343120.2  RSN  6 0.3 1.1LRSN                1
 GAP=110        0.87       3.6     5.2  5.7 -0.3982E+01 -0.3827E+01  0.6585E+01E
 Epicentro: SAN VICENTE DE CHUCURI - SANTANDER                                 3
 ACTION:UPD 17-01-11 20:16 OP:rebc STATUS:               ID:20161219111031 L   I
 OLDACT:UP  16-12-19 23:07 OP:edw  STATUS:               ID:20161219110742     3
 OLDACT:UP  16-12-19 23:06 OP:edw  STATUS:               ID:20161219110742     3
 OLDACT:REG 16-12-19 18:03 OP:edw  STATUS:               ID:20161219110742     3
 2016-12-19-1108-00M.COL___321                                                 6
 STAT SP IPHASW D HRMM SECON CODA AMPLIT PERI AZIMU VELO AIN AR TRES W  DIS CAZ7
 BAR2 EZ IP     D 1110 48.09                             163    0.0610 35.0 149 
 BAR2 EZ ES       1111  1.19                             163   -0.0410 35.0 149 
 BAR2 EZ I        1111  2.47         3.9 0.13            166           35.0 149 
 BRR  HZ EP       1110 47.94                             156   -0.3310 48.8 303 
 BRR  HN ES       1111  1.91                             156    0.2610 48.8 303 
 PAM  EZ EP       1110 51.66                             142    0.1810 88.4  54 
 PAM  EN ES       1111  7.53                             142    0.1710 88.4  54 
 PAM  EZ I        1111 10.33         3.0 0.28            143           88.4  54 
 RUS  HZ EP       1110 52.97                             135   -0.3810  111 165 
 RUS  HN ES       1111 10.40                             135   -0.3010  111 165 
 RUS  HZ I        1111 11.67         3.4 0.20            137            111 165 
 PTB  HZ EP   9 D 1110 53.44                             130   -0.80 0  128 254 
 PTB  HN ES       1111 10.73                             131   -0.7510  128 254 
 PTB  HZ I        1111 16.42         1.9 0.16            130            128 254 
 CHI  HZ EP       1111  7.97                             111    0.18 8  251 190 
 CHI  HN ES       1111 36.81                             111    0.42 8  251 190 
                                                                                
