 2016  519 1556 14.9 L   6.587 -73.408122.0  RSN 16 0.4 2.5LRSN                1
 GAP= 60        0.96       2.3     2.3  4.5 -0.6065E+00  0.2688E+01  0.1239E+01E
 Epicentro: HATO - SANTANDER                                                   3
 ACTION:UPD 16-08-18 17:47 OP:cam  STATUS:               ID:20160519155614 L   I
 OLDACT:REG 16-05-19 20:29 OP:drio STATUS:               ID:20160519154747     3
 2016-05-19-1547-47M.COL___303                                                 6
 STAT SP IPHASW D HRMM SECON CODA AMPLIT PERI AZIMU VELO AIN AR TRES W  DIS CAZ7
 BAR2 EZ EP       1556 31.56                             168   -0.1110 25.0  89 
 BAR2 EZ ES       1556 44.74                             168   -0.0410 25.0  89 
 BAR2 EZ I        1556 46.07       122.8 0.40            163           25.0  89 
 BRR  HZ EP       1556 33.04                             149   -0.1510 66.6 330 
 BRR  HN ES       1556 47.60                             149    0.1110 66.6 330 
 BRR  HZ I        1556 50.38        40.0 0.16            147           66.6 330 
 RUS  HZ EP       1556 34.97                             143   -0.1510 84.8 155 
 RUS  HN ES       1556 50.92                             143   -0.0110 84.8 155 
 PAM  EN ES       1556 55.53                             134    0.3710  114  43 
 PAM  EZ I        1556 59.29        41.0 0.50            129            114  43 
 PTB  HZ EP   4   1556 35.41                             133   -1.59 0  116 267 
 PTB  HE ES       1556 54.15                             133   -0.1310  116 267 
 PTB  HZ I        1556 55.83        72.3 0.18            131            116 267 
 SPBC HZ EP       1556 37.54                             131   -0.5410  127 215 
 SPBC HE ES       1556 55.38                             131   -0.8210  127 215 
 SPBC HZ I        1556 59.20        40.8 0.26            128            127 215 
 TAM  HZ EP       1556 43.37                             120    0.08 9  180  95 
 TAM  HZ I        1557  4.55        31.2 0.36            116            180  95 
 TAM  HN ES       1557  6.12                             120    0.65 9  180  95 
 OCA  HZ EP       1556 43.34                             120   -0.45 9  183   3 
 OCA  HN ES       1557  6.29                             120   -0.07 9  183   3 
 OCA  HZ I        1557 13.48        74.3 0.40            116            183   3 
 ZAR  HZ EP       1556 44.19                             119   -0.04 9  189 302 
 ZAR  HN ES       1557  7.58                             119    0.44 9  189 302 
 ZAR  HZ I        1557 11.85        41.9 0.26            116            189 302 
 NOR  HZ EP       1556 45.15                             117   -0.05 9  197 235 
 NOR  HN ES       1557  8.88                             117    0.01 9  197 235 
 NOR  HZ I        1557 12.54        26.9 0.18            115            197 235 
 CHI  HZ EP       1556 47.69                             115   -0.38 8  219 189 
 CHI  HN ES       1557 14.52                             115    0.55 8  219 189 
 CHI  HZ I        1557 17.62        10.3 0.34            112            219 189 
 HEL  HZ EP       1556 50.19                             113    0.03 8  239 260 
 HEL  HN ES       1557 18.06                             113    0.36 8  239 260 
 HEL  HZ I        1557 22.39        17.4 0.24            110            239 260 
 URE  HZ EP       1556 52.20                             110   -0.82 8  268 299 
 URE  HN ES   4   1557 20.47                             110   -2.32 0  268 299 
 URE  HZ I        1557 21.76        27.6 0.22            107            268 299 
 VIL  SZ EP       1556 54.12                             109    0.06 7  275 187 
 CBOC HZ EP       1556 57.64                             107    0.80 7  299 255 
 CBOC HN ES       1557 30.34                             107    0.75 7  299 255 
 ANIL HN ES       1557 34.73                             106    0.46 7  320 224 
 ANIL HZ I        1557 44.00        17.8 0.46            103            320 224 
                                                                                
