 2011  919 1114 32.2 L   6.768 -73.029140.0  RSN  4 0.2 1.0LRSN                1
 GAP=154        0.42       3.0     4.1  5.9  0.1014E+00  0.6507E+01  0.6741E+00E
 Epicentro: CEPITA - SANTANDER                                                 3
 ACTION:UPD 12-07-13 15:58 OP:ep   STATUS:               ID:20110919111432 L   I
 2011-09-19-1112-46S.COL___169                                                 6
 STAT SP IPHASW D HRMM SECON CODA AMPLIT PERI AZIMU VELO AIN AR TRES W  DIS CAZ7
 PAM  SZ EP   1   1114 53.46                             151   -0.07 7 72.9  30 
 PAM  SZ I        1114 54.54         1.4 0.16                          72.9  30 
 PAM  SE ES   1   1115 10.29                             151    0.12 7 72.9  30 
 BRR  HZ I        1114 52.40         1.9 0.05                          84.2 296 
 BRR  HE ES   2   1115  9.73                             147   -0.45 5 84.2 296 
 RUS  HZ EP   1   1114 55.00                             144   -0.12 7 97.0 184 
 RUS  HZ I        1114 56.83         1.9 0.30                          97.0 184 
 RUS  HE ES   1   1115 13.12                             144    0.12 7 97.0 184 
 ZAR  HZ EP   2   1115  5.68                             119    0.02 4  217 292 
 ZAR  HE ES   2   1115 32.22                             119    0.45 4  217 292 
                                                                                
