 2016  919 1041 35.0 L   6.755 -73.160150.2  RSN  6 0.3 1.5LRSN                1
 GAP=232        0.74       4.1     4.7  5.3  0.6367E+01  0.6656E+01 -0.1451E+01E
 Epicentro: LOS SANTOS - SANTANDER                                             3
 ACTION:UPD 17-08-17 21:14 OP:lp   STATUS:               ID:20160919104135 L   I
 OLDACT:UP  16-09-19 22:11 OP:edw  STATUS:               ID:20160919103735     3
 OLDACT:REG 16-09-19 19:50 OP:edw  STATUS:               ID:20160919103735     3
 2016-09-19-1038-00M.COL___354                                                 6
 STAT SP IPHASW D HRMM SECON CODA AMPLIT PERI AZIMU VELO AIN AR TRES W  DIS CAZ7
 BAR2 EZ EP       1041 55.10                             173   -0.0010 18.1 188 
 BAR2 EZ ES       1042 10.16                             173   -0.6010 18.1 188 
 BAR2 EZ I        1042 12.90         7.6 0.32            174           18.1 188 
 BRR  HZ EP       1041 57.01                             153    0.2910 72.4 303 
 BRR  HN ES       1042 14.11                             153    0.4610 72.4 303 
 BRR  HZ I        1042 17.15         6.9 0.26            154           72.4 303 
 RUS  HN ES       1042 17.72                             146    0.2310 95.7 175 
 RUS  HZ I        1042 19.15         3.2 0.30            149           95.7 175 
 PTB  HZ EP       1042  2.02                             133   -0.12 9  145 261 
 PTB  HE ES       1042 23.29                             133   -0.00 9  145 261 
 PTB  HZ I        1042 25.43         2.6 0.08            136            145 261 
 SPBC HZ EP       1042  3.44                             131    0.02 9  158 220 
 SPBC HN ES       1042 25.58                             131    0.02 9  158 220 
 SPBC HZ I        1042 26.11         4.7 0.38            134            158 220 
 ZAR  HZ EP       1042  7.60                             123   -0.21 9  205 294 
 ZAR  HN ES       1042 33.17                             123   -0.22 9  205 294 
                                                                                
