 2015  819 1009 41.1 L   6.819 -73.104144.0  RSN 17 0.5 2.3LRSN                1
 GAP=187        1.03       2.6     4.7  5.3 -0.1059E+01  0.4432E+01  0.2537E+01E
 Epicentro: LOS SANTOS - SANTANDER                                             3
 ACTION:UPD 15-09-15 23:03 OP:cam  STATUS:               ID:20150819100941 L   I
 OLDACT:REG 15-08-19 20:07 OP:ar   STATUS:               ID:20150819100750     3
 2015-08-19-1007-50M.COL___337                                                 6
 STAT SP IPHASW D HRMM SECON CODA AMPLIT PERI AZIMU VELO AIN AR TRES W  DIS CAZ7
 BAR2 EZ EP       1010  0.57                             169    0.0410 26.5 199 
 BAR2 EZ ES       1010 15.26                             169   -0.4710 26.5 199 
 BAR2 EZ I        1010 18.25        30.1 0.26            166           26.5 199 
 BRR  HZ EP       1010  2.41                             151    0.2210 74.3 295 
 BRR  HN ES       1010 19.42                             151    0.7510 74.3 295 
 BRR  HZ I        1010 23.39        27.7 0.28            148           74.3 295 
 RUS  HZ EP   2   1010  4.61                             143   -0.15 5  102 179 
 RUS  HN ES   2   1010 22.97                             143   -0.29 5  102 179 
 RUS  HZ I        1010 24.47        13.8 0.36            144            102 179 
 OCA  HZ EP       1010  8.94                             129   -0.15 9  159 351 
 OCA  HN ES       1010 31.26                             129    0.31 9  159 351 
 OCA  HZ I        1010 38.90        44.1 0.24            131            159 351 
 SPBC HZ EP       1010  9.52                             128   -0.32 9  168 220 
 SPBC HN ES       1010 31.89                             128   -0.41 9  168 220 
 SPBC HZ I        1010 36.25        30.2 0.40            128            168 220 
 ZAR  HZ EP       1010 13.58                             121   -0.16 8  208 291 
 ZAR  HN ES       1010 38.52                             121   -0.72 8  208 291 
 ZAR  HZ I        1010 43.44        21.4 0.64            121            208 291 
 NOR  HZ EP       1010 17.51                             118    0.30 8  240 235 
 NOR  HN ES       1010 45.18                             118   -0.23 8  240 235 
 NOR  HZ I        1010 49.91        13.2 0.24            118            240 235 
 SML  HZ EP       1010 16.69                             117   -0.90 8  244 334 
 SML  HN ES       1010 46.65                             117    0.57 8  244 334 
 SML  HZ I        1010 51.66        24.2 0.10            118            244 334 
 CHI  HZ EP       1010 19.30                             116    0.30 8  252 196 
 CHI  HE ES       1010 49.13                             116    0.53 8  252 196 
 CHI  HZ I        1010 53.06        12.9 0.40            118            252 196 
 ROSC BN ES   4   1010 50.37                             116    0.83 0  257 212 
 ROSC BZ I        1010 55.04        29.8 0.40            117            257 212 
 HEL  HZ EP       1010 22.23                             114    0.51 7  277 256 
 HEL  HE ES       1010 52.47                             114   -0.98 7  277 256 
 HEL  HZ I        1010 59.02        10.7 0.24            114            277 256 
 URE  HZ EP   4   1010 21.10                             113   -1.33 0  287 291 
 URE  HN ES   4   1010 52.03                             113   -2.67 0  287 291 
 URE  HZ I        1011  2.53        12.6 0.18            113            287 291 
 VIL  SZ EP       1010 24.14                             111   -0.58 7  306 192 
 VIL  SE ES       1010 58.93                             111    0.14 7  306 192 
 VIL  SZ I        1011  8.45        16.6 0.46            113            306 192 
 GUY2CHZ EP       1010 25.23                             112    0.09 7  306 235 
 GUY2CHN ES   4   1011  3.08                             112    3.56 0  306 235 
 GUY2CHZ I        1011  6.84        11.6 0.58                           306 235 
 CBOC HZ EP   2   1010 28.37                             109   -0.10 3  339 252 
 CBOC HN ES       1011  6.40                             109    0.95 7  339 252 
 CBOC HZ I        1011 16.91         2.6 0.38            110            339 252 
 TOL  SZ EP       1010 29.64                             109   -0.14 6  348 225 
 TOL  SN ES       1011  8.18                             109    0.40 6  348 225 
 TOL  SZ I        1011 16.88         9.4 0.30            109            348 225 
 ORTC HZ EP       1010 35.93                             106    0.51 6  400 217 
 ORTC HN ES       1011 18.12                             106    0.29 6  400 217 
 ORTC HZ I        1011 22.75         5.6 0.32            107            400 217 
                                                                                
