 2012  619 1816 43.9 L   6.757 -73.168153.3  RSN  5 0.5 1.5LRSN                1
 GAP=136        0.76       6.9     6.0 10.0  0.4619E+01  0.1618E+02 -0.1274E+02E
 Epicentro: LOS SANTOS - SANTANDER                                             3
 ACTION:UPD 12-08-06 17:50 OP:ep   STATUS:               ID:20120619181643 L   I
 2012-06-19-1810-00M.COL___199                                                 6
 STAT SP IPHASW D HRMM SECON CODA AMPLIT PERI AZIMU VELO AIN AR TRES W  DIS CAZ7
 BAR2 SZ ES   2   1817 20.35                             173    0.07 5 18.3 185 
 BAR2 SZ I        1817 22.01         6.0 0.26                          18.3 185 
 PAM  SZ EP   2   1817  8.09                             150    0.88 5 82.6  39 
 PAM  SN ES   2   1817 24.74                             150   -0.67 5 82.6  39 
 RUS  HZ EP   1   1817  8.37                             146    0.30 7 96.0 174 
 RUS  HN ES   1   1817 26.89                             146   -0.05 7 96.0 174 
 RUS  HZ I        1817 28.71         2.5 0.59                          96.0 174 
 PTB  HZ EP   1   1817 10.45                             134   -0.74 7  144 260 
 PTB  HN ES   1   1817 32.66                             134    0.18 7  144 260 
 PTB  HZ I        1817 38.34         2.8 0.28                           144 260 
 ZAR  HZ EP   2   1817 16.65                             124   -0.14 4  204 294 
 ZAR  HN ES   2   1817 42.96                             124    0.51 4  204 294 
 ZAR  HZ I        1817 48.88         5.1 0.40                           204 294 
                                                                                
