 2014  719 1933 44.1 L   6.852 -73.162143.4  RSN 10 0.4 1.9LRSN                1
 GAP= 68        1.13       3.5     4.1  6.6  0.5023E+00  0.2767E+01 -0.3117E+01E
 Epicentro: ZAPATOCA - SANTANDER                                               3
 ACTION:UPD 15-03-16 20:45 OP:nd   STATUS:               ID:20140719193344 L   I
 OLDACT:REG 14-07-19 21:22 OP:stll STATUS:               ID:20140719192817     3
 2014-07-19-1928-17M.COL___266                                                 6
 STAT SP IPHASW D HRMM SECON CODA AMPLIT PERI AZIMU VELO AIN AR TRES W  DIS CAZ7
 BAR2 SZ EP       1934  3.52                             168   -0.0310 28.8 184 
 BAR2 SZ ES       1934 18.36                             168   -0.3810 28.8 184 
 BAR2 SZ I        1934 20.33        18.2 0.24            167           28.8 184 
 BRR  HZ EP       1934  5.14                             154    0.4110 66.9 295 
 BRR  HN ES       1934 20.89                             154    0.0510 66.9 295 
 BRR  HZ I        1934 26.44        13.0 0.36            152           66.9 295 
 PAM  SZ EP       1934  6.34                             151    0.4810 74.3  43 
 PAM  SN ES       1934 22.91                             151    0.0710 74.3  43 
 PAM  SZ I        1934 25.11        22.8 0.50            156           74.3  43 
 RUS  HZ EP       1934  7.52                             142   -0.5210  106 175 
 RUS  HN ES       1934 26.42                             142   -0.3010  106 175 
 RUS  HZ I        1934 28.01         5.0 0.26            143            106 175 
 PTB  HZ EP       1934 10.30                             132   -0.50 9  147 256 
 PTB  HE ES       1934 31.29                             132   -0.35 9  147 256 
 PTB  HZ I        1934 36.82         8.2 0.38            132            147 256 
 OCA  HN ES       1934 33.57                             130    0.42 9  154 354 
 TAM  HZ EP       1934 11.91                             129    0.03 9  158 107 
 TAM  HZ I        1934 12.13        16.9 0.36            134            158 107 
 SPBC HN ES       1934 36.26                             128    1.20 9  167 217 
 SPBC HZ I        1934 42.43         7.4 0.24            129            167 217 
 ZAR  HZ EP       1934 16.34                             122    0.37 9  200 291 
 ZAR  HN ES       1934 40.69                             122   -0.16 9  200 291 
 ZAR  HZ I        1934 47.10         9.9 0.24            123            200 291 
 SML  HZ EP       1934 19.48                             118   -0.44 8  238 335 
 SML  HN ES       1934 47.44                             118   -0.43 8  238 335 
                                                                                
