 2015  319 1720 55.6 L   6.833 -73.169133.8  RSN 12 0.4 2.2LRSN                1
 GAP=132        0.99       3.5     4.4  6.1 -0.4342E+01  0.1422E+02 -0.1567E+01E
 Epicentro: ZAPATOCA - SANTANDER                                               3
 ACTION:UPD 15-04-30 16:27 OP:nd   STATUS:               ID:20150319172055 L   I
 OLDACT:UP  15-03-19 22:46 OP:cam  STATUS:               ID:20150319171750     3
 OLDACT:UP  15-03-19 22:46 OP:cam  STATUS:               ID:20150319171750     3
 OLDACT:REG 15-03-19 20:53 OP:cam  STATUS:               ID:20150319171750     3
 2015-03-19-1717-50M.COL___281                                                 6
 STAT SP IPHASW D HRMM SECON CODA AMPLIT PERI AZIMU VELO AIN AR TRES W  DIS CAZ7
 BAR2 EZ EP       1721 14.08                             168    0.2210 26.6 183 
 BAR2 EZ ES       1721 27.72                             168   -0.3810 26.6 183 
 BAR2 EZ I        1721 31.90        24.4 0.38            166           26.6 183 
 PAM  SZ EP       1721 16.82                             149    0.3410 76.4  43 
 PAM  SN ES       1721 33.04                             149    0.2710 76.4  43 
 RUS  HZ EP       1721 17.97                             140   -0.5110  104 175 
 RUS  HN ES       1721 36.71                             140    0.3810  104 175 
 RUS  HZ I        1721 39.49        11.6 0.24            146            104 175 
 PTB  HZ EP       1721 21.01                             129   -0.43 9  146 257 
 PTB  HN ES       1721 41.80                             129    0.21 9  146 257 
 PTB  HZ I        1721 49.35        25.4 0.42            130            146 257 
 SPBC HZ EP       1721 23.00                             126   -0.32 9  164 217 
 SPBC HN ES       1721 44.45                             126   -0.49 9  164 217 
 SPBC HZ I        1721 50.34        30.1 0.22            129            164 217 
 ZAR  HZ EP       1721 26.15                             120   -0.73 9  200 291 
 ZAR  HE ES   4   1721 52.71                             120    1.42 0  200 291 
 ZAR  HZ I        1722  2.33        11.0 0.34            122            200 291 
 NOR  HZ EP       1721 30.42                             116   -0.23 8  235 233 
 NOR  HN ES   4   1721 56.82                             116   -1.18 0  235 233 
 NOR  HZ I        1722  3.38        13.7 0.28            119            235 233 
 SML  HZ EP   4   1721 29.62                             115   -1.47 0  239 335 
 SML  HN ES       1721 58.72                             115   -0.05 8  239 335 
 SML  HZ I        1722  2.75        21.0 0.10            119            239 335 
 HEL  HZ EP       1721 34.98                             112   -0.06 8  270 255 
 HEL  HN ES       1722  6.67                             112    0.87 8  270 255 
 HEL  HZ I        1722 14.39         9.6 0.32            115            270 255 
 GUY2CHZ EP       1721 39.10                             110    0.43 7  301 234 
 GUY2CHN ES       1722 12.07                             110   -0.20 7  301 234 
 GUY2CHZ I        1722 20.24         9.2 0.54                           301 234 
 RREF HZ EP       1721 41.93                             108    0.64 7  322 229 
 TOL  SZ EP       1721 44.03                             107    0.55 7  344 224 
 TOL  SN ES       1722 21.17                             107    0.34 7  344 224 
 TOL  SZ I        1722 26.08         6.3 0.32            111            344 224 
 PRA  HZ EP   4   1721 46.26                             104   -2.69 0  394 209 
                                                                                
