 2017  419 1908 12.8 L   6.731 -73.147147.2  RSN  6 0.3 1.5LRSN                1
 GAP=139        0.82       4.2     3.7  6.0  0.1313E+01  0.4246E+01  0.2518E-01E
 Epicentro: JORDAN - SANTANDER                                                 3
 ACTION:UPD 17-05-30 21:14 OP:jn   STATUS:               ID:20170419190812 L   I
 OLDACT:REG 17-04-19 21:15 OP:lv   STATUS:               ID:20170419185738     3
 2017-04-19-1858-00M.COL___371                                                 6
 STAT SP IPHASW D HRMM SECON CODA AMPLIT PERI AZIMU VELO AIN AR TRES W  DIS CAZ7
 BAR2 EZ EP       19 8 32.52                             174    0.0410 15.9 194 
 BAR2 EZ ES       19 8 47.75                             174   -0.0810 15.9 194 
 BAR2 EZ I        19 8 48.57         8.4 0.07            173           15.9 194 
 BRR  HZ EP       19 8 34.36                             151    0.0310 75.0 304 
 BRR  HE ES       19 8 51.86                             151    0.7410 75.0 304 
 PAM  EZ EP       19 8 35.62                             149    0.0810 83.4  36 
 PAM  EN ES       19 8 52.85                             149   -0.4310 83.4  36 
 PAM  EZ I        19 8 55.15         5.7 0.18            151           83.4  36 
 RUS  HZ EP       19 8 36.40                             146    0.2310 93.0 176 
 RUS  HN ES       19 8 54.33                             146   -0.0710 93.0 176 
 RUS  HZ I        19 8 55.72         3.7 0.19            147           93.0 176 
 PTB  HZ EP       19 8 39.76                             133   -0.01 9  146 262 
 PTB  HN ES       19 9  0.38                             133   -0.41 9  146 262 
 PTB  HZ I        19 9  3.77         3.2 0.09            133            146 262 
 ZAR  HN ES       19 9 11.01                             122   -0.24 8  207 294 
                                                                                
