 2017  219 1624 33.4 L   6.768 -73.147146.2  RSN  5 0.3 1.6LRSN                1
 GAP=138        0.80       4.2     4.5  6.4  0.4131E+01  0.3299E+01 -0.3955E+00E
 Epicentro: LOS SANTOS - SANTANDER                                             3
 ACTION:UPD 17-05-24 15:38 OP:jn   STATUS:               ID:20170219162433 L   I
 OLDACT:REG 17-02-19 21:23 OP:cog  STATUS:               ID:20170219161729     3
 2017-02-19-1618-00M.COL___352                                                 6
 STAT SP IPHASW D HRMM SECON CODA AMPLIT PERI AZIMU VELO AIN AR TRES W  DIS CAZ7
 BAR2 EZ EP       1624 52.97                             172   -0.0710 19.8 191 
 BAR2 EZ ES       1625  8.15                             172   -0.1910 19.8 191 
 BAR2 EZ I        1625  8.96        10.8 0.32            175           19.8 191 
 BRR  HZ EP       1624 54.73                             152    0.0210 72.8 301 
 BRR  HE ES       1625 11.95                             152    0.6310 72.8 301 
 BRR  HZ I        1625 14.59        11.4 0.36            153           72.8 301 
 PAM  EZ EP       1624 55.95                             150    0.1010 80.2  38 
 PAM  EE ES       1625 13.14                             150   -0.2110 80.2  38 
 PAM  EZ I        1625 16.67         3.6 0.46            150           80.2  38 
 RUS  HZ EP       1624 57.20                             145    0.2410 97.1 176 
 RUS  HN ES       1625 15.19                             145   -0.1410 97.1 176 
 ZAR  HN ES       1625 30.92                             122   -0.53 8  205 293 
                                                                                
