 2010 1119 1749 47.4 L   6.743 -73.085149.5  RSN  5 0.4 2.1LRSN                1
 GAP=240        0.82       5.8     8.2  8.7  0.1119E+02 -0.2067E+01  0.1408E+02E
 Epicentro: JORDAN - SANTANDER                                                 3
 ACTION:UP  10-12-17 16:53 OP:REBC STATUS:               ID:20101119174947 L   I
 2010-11-19-1747-07S.COL___131                                                 6
 STAT SP IPHASW D HRMM SECON CODA AMPLIT PERI AZIMU VELO SNR AR TRES W  DIS CAZ7
 BAR2 SZ EP       1750  7.48                             172     0.110   20 213 
 BAR2 SZ ES   2   1750 22.74                             172    -0.3 5   20 213 
 BAR2 SZ I        1750 23.72        25.8 0.47                            20 213 
 BRR  HZ EP       1750  9.34                             150    -0.110   80 300 
 BRR  HZ I        1750  9.63        59.1 0.23                            80 300 
 BRR  HN ES       1750 26.80                             150     0.110   80 300 
 RUS  HZ EP   1   1750 10.43                             146    -0.6 7   94 180 
 RUS  HN ES   1   1750 29.77                             146     0.3 7   94 180 
 RUS  HZ I        1750 31.33        10.4 0.23                            94 180 
 NOR  SN ES   1   1750 51.51                             119    -0.3 6  237 237 
 CHI  HZ EP   1   1750 25.64                             118     0.8 6  244 197 
 CHI  HN ES   2   1750 53.79                             118    -0.2 4  244 197 
 CHI  HZ I        1751  2.56         4.2 0.79                           244 197 
                                                                                
