 2013  119 1124  4.3 L   6.774 -73.334123.9  RSN  5 0.4 1.6LRSN                1
 GAP=118        0.72       7.9     5.1  7.6  0.2934E+01  0.1071E+02 -0.7241E-01E
 Epicentro: ZAPATOCA - SANTANDER                                               3
 ACTION:UPD 13-02-15 09:15 OP:ep   STATUS:               ID:20130119112404 L   I
 2013-01-19-1120-00M.COL___241                                                 6
 STAT SP IPHASW D HRMM SECON CODA AMPLIT PERI AZIMU VELO AIN AR TRES W  DIS CAZ7
 BAR2 SZ EP       1124 21.72                             167    0.3410 26.2 140 
 BAR2 SZ ES   1   1124 34.85                             167    0.15 7 26.2 140 
 BAR2 SZ I        1124 36.01        26.3 0.30            170           26.2 140 
 BRR  HZ EP       1124 22.01                             154   -0.2010 55.7 311 
 BRR  HN ES   1   1124 36.22                             154    0.03 7 55.7 311 
 PAM  SZ EP   2   1124 25.25                             141   -0.19 5 94.0  48 
 PAM  SN ES   2   1124 41.40                             141   -0.53 5 94.0  48 
 PAM  SZ I        1124 43.43         4.8 0.28            145           94.0  48 
 PTB  HZ EP   1   1124 27.26                             131   -0.32 7  127 258 
 PTB  HN ES   2   1124 44.96                             131   -0.78 5  127 258 
 PTB  HZ I        1124 49.87         3.8 0.34            132            127 258 
 ZAR  HZ EP   2   1124 33.99                             120    0.49 4  186 295 
 ZAR  HN ES   2   1124 57.23                             120    0.96 4  186 295 
                                                                                
