 2017  319 1204 20.2 L   6.758 -73.153138.0  RSN  4 0.3 1.2LRSN                1
 GAP=137        0.54       3.0     3.4  5.4 -0.1802E+00  0.6491E+01 -0.4424E+01E
 Epicentro: LOS SANTOS - SANTANDER                                             3
 ACTION:UPD 17-05-25 18:42 OP:jn   STATUS:               ID:20170319120420 L   I
 OLDACT:REG 17-03-19 22:55 OP:dnl  STATUS:               ID:20170319115745     3
 2017-03-19-1158-00M.COL___388                                                 6
 STAT SP IPHASW D HRMM SECON CODA AMPLIT PERI AZIMU VELO AIN AR TRES W  DIS CAZ7
 BAR2 EZ EP       12 4 38.69                             172   -0.0910 18.6 190 
 BAR2 EZ ES       12 4 53.39                             172    0.1010 18.6 190 
 BAR2 EZ I        12 4 54.60         4.1 0.26            171           18.6 190 
 PAM  EZ EP     C 12 4 41.64                             148   -0.1910 81.5  38 
 PAM  EN ES       12 4 58.83                             148    0.1110 81.5  38 
 PAM  EZ I        12 5  0.97         3.0 0.60            151           81.5  38 
 RUS  HZ EP   2   12 4 42.70                             144   -0.13 5 96.1 175 
 RUS  HN ES       12 5  0.52                             144    0.0110 96.1 175 
 RUS  HZ I        12 5  2.04         1.5 0.24            147           96.1 175 
 ZAR  HZ EP   2   12 4 53.24                             121    1.01 4  205 293 
 ZAR  HE ES       12 5 17.09                             121   -0.14 9  205 293 
 ZAR  HZ I        12 5 25.60         3.1 0.34            120            205 293 
                                                                                
