 2011 1219 1132 17.8 L   6.793 -73.146145.6  RSN  5 0.3 1.3LRSN                1
 GAP=137        0.52       4.0     7.7  5.9 -0.8477E+01 -0.7289E+01  0.3232E+01E
 Epicentro: LOS SANTOS - SANTANDER                                             3
 ACTION:UPD 12-07-13 16:17 OP:ep   STATUS:               ID:20111219113217 L   I
 2011-12-19-1130-00M.COL___187                                                 6
 STAT SP IPHASW D HRMM SECON CODA AMPLIT PERI AZIMU VELO AIN AR TRES W  DIS CAZ7
 BAR2 SZ EP   1   1132 37.41                             171   -0.01 7 22.5 190 
 BAR2 SZ ES   1   1132 52.29                             171   -0.40 7 22.5 190 
 GIR2 SZ EP   2   1132 36.97                             167   -0.53 5 32.1 351 
 GIR2 SZ ES   2   1132 52.76                             167   -0.08 5 32.1 351 
 BRR  HE ES   2   1132 55.84                             152    0.37 5 71.6 299 
 PAM  SZ EP   1   1132 40.29                             150    0.23 7 78.0  39 
 PAM  SZ I        1132 40.52         3.6 0.17                          78.0  39 
 PAM  SN ES   1   1132 57.46                             150    0.06 7 78.0  39 
 RUS  HZ EP   1   1132 41.42                             144   -0.08 7 99.8 176 
 RUS  HN ES   1   1133  0.26                             144    0.30 7 99.8 176 
 RUS  HZ I        1133  1.14         3.9 0.29                          99.8 176 
                                                                                
