 2013  519 1855 57.3 L   6.826 -73.114148.9  RSN 15 0.5 2.7LRSN                1
 GAP= 72        1.00       2.8     3.3  5.7  0.2962E+00  0.5920E+01  0.1667E+01E
 Epicentro: LOS SANTOS - SANTANDER                                             3
 ACTION:UPD 13-06-20 09:51 OP:ep   STATUS:               ID:20130519185557 L   I
 2013-05-19-1850-00M.COL___256                                                 6
 STAT SP IPHASW D HRMM SECON CODA AMPLIT PERI AZIMU VELO AIN AR TRES W  DIS CAZ7
 BAR2 SZ IP     D 1856 17.35                             169   -0.0610 26.9 196 
 BAR2 SZ I        1856 33.82       140.0 0.22            168           26.9 196 
 GIR2 SZ EP       1856 17.37                             168    0.0510 29.3 343 
 GIR2 SZ ES   1   1856 32.84                             168   -0.08 7 29.3 343 
 GIR2 SZ I        1856 34.24        79.0 0.34            168           29.3 343 
 PAM  SZ EP       1856 20.17                             153    0.5510 72.9  39 
 PAM  SN ES       1856 36.99                             153   -0.0210 72.9  39 
 PAM  SZ I        1856 39.59        52.6 0.28            154           72.9  39 
 BRR  HZ IP     C 1856 19.18                             152    0.2610 73.0 295 
 BRR  HN ES   1   1856 35.92                             152    0.16 7 73.0 295 
 RUS  HZ IP     C 1856 21.34                             144   -0.2410  103 178 
 RUS  HN ES       1856 40.24                             144   -0.2610  103 178 
 RUS  HZ I        1856 41.43        36.2 0.24            144            103 178 
 PTB  HZ EP       1856 24.21                             132   -0.70 9  152 258 
 TAM  HN EP       1856 25.71                             132    0.69 9  153 106 
 TAM  HE ES       1856 46.52                             132   -0.10 9  153 106 
 TAM  HN I        1856 48.20       118.6 0.34            133            153 106 
 OCA  HZ EP   1   1856 24.92                             131   -0.74 7  158 352 
 ZAR  HZ EP   1   1856 30.08                             123   -0.12 6  206 291 
 ZAR  HN ES       1856 55.62                             123   -0.22 8  206 291 
 ZAR  HZ I        1857  0.95        44.5 0.30            122            206 291 
 NOR  HZ EP       1856 33.40                             119   -0.33 8  239 234 
 NOR  HN ES   1   1857  1.71                             119   -0.40 6  239 234 
 NOR  HZ I        1857  6.78        52.1 0.52            118            239 234 
 SML  HZ EP   1   1856 33.46                             118   -0.55 6  243 334 
 SML  HN ES       1857  2.42                             118   -0.20 8  243 334 
 SML  HZ I        1857  6.63        60.4 0.10            118            243 334 
 CHI  HZ EP       1856 35.70                             117    0.09 8  252 196 
 CHI  HN ES   1   1857  4.89                             117   -0.57 6  252 196 
 CHI  HZ I        1857 11.81        27.4 0.54            117            252 196 
 HEL  HZ EP   1   1856 38.72                             115    0.56 6  276 255 
 HEL  HN ES       1857 11.49                             115    1.49 7  276 255 
 HEL  HZ I        1857 18.14        22.1 0.24            115            276 255 
 COD  HZ EP   1   1856 44.99                             109   -0.55 5  346 354 
 COD  HN ES       1857 23.48                             109    0.34 6  346 354 
 COD  HZ I        1857 32.00         7.7 0.52            110            346 354 
 PRA  HZ EP       1856 51.45                             107   -0.01 6  396 210 
 PRA  HN ES       1857 34.10                             107    0.43 6  396 210 
 PRA  HZ I        1857 37.98        30.4 0.30            107            396 210 
 SJC  HZ EP   4   1856 51.23                             106   -1.71 0  409 326 
 SJC  HN ES   4   1857 32.77                             106   -3.54 0  409 326 
                                                                                
