 2012 1019 1237 52.9 L   6.787 -73.110143.5  RSN  7 0.3 2.5LRSN                1
 GAP=142        0.68       3.3     3.6  4.8  0.1890E+01  0.2986E+01 -0.2547E+01E
 Epicentro: LOS SANTOS - SANTANDER                                             3
 ACTION:UPD 12-11-22 17:04 OP:ep   STATUS:               ID:20121019123752 L   I
 2012-10-19-1230-00M.COL___234                                                 6
 STAT SP IPHASW D HRMM SECON CODA AMPLIT PERI AZIMU VELO AIN AR TRES W  DIS CAZ7
 BAR2 SZ EP       1238 12.36                             171    0.1210 22.9 200 
 BAR2 SZ ES   1   1238 26.93                             171   -0.41 7 22.9 200 
 BAR2 SZ I        1238 28.00       122.8 0.29                          22.9 200 
 GIR2 SZ EP       1238 12.31                             166   -0.0510 33.6 344 
 BRR  HZ IP     C 1238 14.25                             151    0.2110 75.4 298 
 BRR  HZ I        1238 14.69        97.4 0.11                          75.4 298 
 BRR  HN ES       1238 30.87                             151    0.3310 75.4 298 
 PAM  SZ EP       1238 15.15                             151    0.3610 76.1  37 
 PAM  SN ES       1238 31.84                             151   -0.0310 76.1  37 
 PAM  SZ I        1238 34.52        87.0 0.57                          76.1  37 
 RUS  HZ EP       1238 16.35                             144    0.0510 98.9 178 
 RUS  HN ES       1238 34.40                             144   -0.1610 98.9 178 
 RUS  HZ I        1238 35.69        21.5 0.19                          98.9 178 
 OCA  HZ EP       1238 20.64                             129   -0.57 9  162 352 
 OCA  HZ I        1238 47.88        27.3 0.17                           162 352 
 ZAR  HZ EP       1238 25.59                             121   -0.04 8  208 292 
 ZAR  HE ES       1238 51.03                             121   -0.13 8  208 292 
 ZAR  HZ I        1238 59.42        25.5 0.51                           208 292 
                                                                                
