 2012  519 1223 57.9 L   6.705 -73.154150.4  RSN  5 0.4 1.5LRSN                1
 GAP=181        0.82       7.7    10.2  9.8  0.1510E+02  0.2245E+02 -0.4439E+01E
 Epicentro: VILLANUEVA - SANTANDER                                             3
 ACTION:UP  12-07-05 12:06 OP:pat  STATUS:               ID:20120519122357 L   I
 2012-05-19-1220-00M.COL___200                                                 6
 STAT SP IPHASW D HRMM SECON CODA AMPLIT PERI AZIMU VELO SNR AR TRES W  DIS CAZ7
 BAR2 SZ EP   1   1224 18.11                             175     0.2 7   13 194 
 BAR2 SZ ES   1   1224 32.98                             175    -0.6 7   13 194 
 BAR2 SZ I        1224 34.73        11.1 0.29                            13 194 
 BRR  HZ EP   1   1224 20.03                             151     0.2 7   76 306 
 BRR  HN ES   1   1224 37.45                             151     0.5 7   76 306 
 BRR  HZ I        1224 39.83         8.2 0.30                            76 306 
 RUS  HN ES   2   1224 39.92                             148     0.2 5   90 175 
 RUS  HZ I        1224 41.41         3.1 0.34                            90 175 
 PTB  HZ EP   1   1224 24.83                             133    -0.2 7  145 263 
 PTB  HN ES   2   1224 45.80                             133    -0.4 5  145 263 
 PTB  HZ I        1224 52.18         3.6 0.36                           145 263 
 OCA  HN ES   2   1224 50.17                             128    -0.5 4  171 354 
                                                                                
