 2012  919 1934 35.3 L   6.762 -73.112142.6  RSN  5 0.1 1.7LRSN                1
 GAP=143        0.33       2.1     3.1  3.4 -0.3726E+00 -0.2356E+00  0.6584E+00E
 Epicentro: LOS SANTOS - SANTANDER                                             3
 ACTION:UPD 12-10-22 14:19 OP:ep   STATUS:               ID:20120919193435 L   I
 2012-09-19-1930-00M.COL___225                                                 6
 STAT SP IPHASW D HRMM SECON CODA AMPLIT PERI AZIMU VELO AIN AR TRES W  DIS CAZ7
 BAR2 SZ EP       1934 54.56                             171    0.0410 20.3 203 
 BAR2 SZ ES   2   1935  9.85                             171    0.36 5 20.3 203 
 BAR2 SZ I        1935 12.15        13.1 0.41                          20.3 203 
 BRR  HZ EP       1934 56.41                             150   -0.0510 76.6 300 
 BRR  HZ I        1934 56.68        23.1 0.31                          76.6 300 
 BRR  HE ES   1   1935 12.90                             150   -0.03 7 76.6 300 
 PAM  SZ EP       1934 57.32                             150    0.0410 78.5  35 
 PAM  SZ I        1934 57.78        14.4 0.23                          78.5  35 
 PAM  SE ES   1   1935 14.30                             150   -0.09 7 78.5  35 
 RUS  HZ EP   1   1934 58.51                             144    0.06 7 96.1 178 
 RUS  HE ES   1   1935 16.32                             144   -0.17 7 96.1 178 
 RUS  HZ I        1935 18.38         4.0 0.18                          96.1 178 
 CHI  HZ EP   2   1935 12.59                             117    0.07 4  246 196 
 CHI  HZ I        1935 15.10         1.7 0.35                           246 196 
                                                                                
