 2012  119 1903 32.1 L   6.778 -73.059148.6  RSN 10 0.4 2.2LRSN                1
 GAP=149        0.72       3.6     4.0  5.6 -0.9435E+00  0.5964E+01  0.4858E+01E
 Epicentro: LOS SANTOS - SANTANDER                                             3
 ACTION:UP  12-02-03 08:18 OP:REBC STATUS:               ID:20120119190332 L   I
 2012-01-19-1900-00M.COL___187                                                 6
 STAT SP IPHASW D HRMM SECON CODA AMPLIT PERI AZIMU VELO SNR AR TRES W  DIS CAZ7
 BAR2 SZ EP   1   19 3 51.76                             170    -0.3 7   25 214 
 BAR2 SZ ES   1   19 4  7.37                             170    -0.3 7   25 214 
 BAR2 SZ I        19 4  9.68        31.3 0.25                            25 214 
 PAM  SZ EP       19 3 54.76                             152     0.410   74  33 
 PAM  SN ES   1   19 4 11.76                             152     0.0 7   74  33 
 BRR  HZ EP   1   19 3 53.80                             150    -0.3 7   81 297 
 BRR  HE ES   1   19 4 11.54                             150     0.3 7   81 297 
 BRR  HZ I        19 4 13.33        42.0 0.12                            81 297 
 RUS  HZ EP       19 3 55.61                             145    -0.310   98 182 
 RUS  HN ES   1   19 4 14.76                             145     0.3 7   98 182 
 RUS  HZ I        19 4 15.32         8.0 0.30                            98 182 
 PTB  HN ES   2   19 4 21.26                             131    -0.7 5  157 260 
 ZAR  HZ EP   2   19 4  4.74                             122    -1.0 4  214 292 
 ZAR  HN ES   1   19 4 31.80                             122    -0.1 6  214 292 
 ZAR  HZ I        19 4 36.42        23.1 0.43                           214 292 
 NOR  SZ EP   2   19 4  8.46                             118    -0.2 4  241 236 
 NOR  SN ES   2   19 4 37.69                             118     0.5 4  241 236 
 CHI  HZ EP   1   19 4  9.85                             118    -0.1 6  249 197 
 CHI  HN ES   1   19 4 39.48                             118     0.0 6  249 197 
 CHI  HZ I        19 4 47.61         5.9 0.36                           249 197 
 HEL  HZ EP   1   19 4 13.92                             114     0.5 6  281 257 
 HEL  HN ES   2   19 4 45.86                             114     0.3 4  281 257 
 HEL  HZ I        19 4 52.51         7.4 0.32                           281 257 
 RREF HZ EP   1   19 4 19.35                             111     0.4 5  328 231 
 RREF HN ES   1   19 4 55.85                             111     0.3 5  328 231 
 RREF HZ I        19 5  4.20         9.5 0.52                           328 231 
                                                                                
