 2017 1119 1736 34.1 L   6.791 -73.100142.1  RSN  4 0.4 1.2LRSN                1
 GAP=161        1.01       6.9     9.1  8.5 -0.3988E+02  0.3485E+02 -0.9103E+01E
 Epicentro: LOS SANTOS - SANTANDER                                             3
 ACTION:UPD 17-12-12 19:57 OP:rebc STATUS:               ID:20171119173634 L   I
 OLDACT:DUP 17-11-19 23:13 OP:lv   STATUS:               ID:20171119172745d    3
 2017-11-19-1728-00M.COL___477                                                 6
 STAT SP IPHASW D HRMM SECON CODA AMPLIT PERI AZIMU VELO AIN AR TRES W  DIS CAZ7
 BAR2 EZ EP       1736 53.09                             170   -0.2310 23.8 202 
 BAR2 EZ ES       1737  7.84                             170   -0.4510 23.8 202 
 BAR2 EZ I        1737  9.72         4.3 0.21            170           23.8 202 
 PAM  EZ EP       1736 56.32                             151    0.5210 75.1  36 
 PAM  EN ES       1737 12.78                             151    0.0610 75.1  36 
 PAM  EZ I        1737 15.70         2.2 0.42            153           75.1  36 
 RUS  HZ EP       1736 57.08                             143   -0.3410 99.4 179 
 RUS  HN ES       1737 16.01                             143    0.4110 99.4 179 
 RUS  HZ I        1737 16.63         1.9 0.26            147           99.4 179 
 ZAR  HN ES   4   1737 29.72                             121   -2.65 0  209 292 
 NOR  HZ EP       1737  9.54                             117   -0.48 8  238 235 
 NOR  HN ES       1737 38.56                             117    0.54 8  238 235 
 NOR  HZ I        1737 41.69         1.7 0.22            118            238 235 
                                                                                
