 2012  819 1335 37.0 L   6.722 -73.154140.5  RSN  5 0.2 1.6LRSN                1
 GAP=156        0.38       4.6     2.6  4.2 -0.4098E+01  0.3129E+01 -0.1593E+01E
 Epicentro: VILLANUEVA - SANTANDER                                             3
 ACTION:UPD 12-09-10 11:57 OP:ep   STATUS:               ID:20120819133537 L   I
 2012-08-19-1330-00M.COL___217                                                 6
 STAT SP IPHASW D HRMM SECON CODA AMPLIT PERI AZIMU VELO AIN AR TRES W  DIS CAZ7
 BAR2 SZ ES   1   1336 10.74                             174    0.17 7 14.7 192 
 BAR2 SZ I        1336 11.98        11.8 0.19                          14.7 192 
 BRR  HZ EP   1   1335 58.04                             150    0.22 7 74.9 305 
 BRR  HN ES   1   1336 13.88                             150   -0.17 7 74.9 305 
 BRR  HZ I        1336 16.17         7.4 0.23                          74.9 305 
 PAM  SZ EP   1   1335 59.01                             147   -0.14 7 84.8  36 
 PAM  SZ I        1335 59.37         7.6 0.19                          84.8  36 
 PAM  SN ES   1   1336 16.39                             147   -0.02 7 84.8  36 
 PTB  HZ EP   1   1336  3.29                             131   -0.06 7  145 262 
 PTB  HN ES   1   1336 23.72                             131   -0.16 7  145 262 
 ZAR  HN ES   1   1336 34.84                             121    0.19 6  207 294 
 ZAR  HZ I        1336 41.98         2.8 0.25                           207 294 
                                                                                
