 2013  419 1514 41.5 L   6.804 -73.152141.8  RSN  9 0.4 2.4LRSN                1
 GAP=135        1.10       4.9     4.6  6.4 -0.1226E+02  0.5483E+01  0.1658E+01E
 Epicentro: LOS SANTOS - SANTANDER                                             3
 ACTION:UPD 13-05-22 14:39 OP:EP   STATUS:               ID:20130419151441 L   I
 2013-04-19-1508-45M.COL___218                                                 6
 STAT SP IPHASW D HRMM SECON CODA AMPLIT PERI AZIMU VELO AIN AR TRES W  DIS CAZ7
 BAR2 SZ EP       1515  0.63                             170   -0.0410 23.7 188 
 BAR2 SZ ES       1515 15.09                             170   -0.5310 23.7 188 
 BAR2 SZ I        1515 16.78        38.8 0.24            165           23.7 188 
 BRR  HZ EP       1515  2.38                             152    0.2010 70.3 298 
 BRR  HN ES       1515 18.84                             152    0.5410 70.3 298 
 BRR  HN I        1515 20.22       128.2 0.24            140           70.3 298 
 PAM  SZ EP       1515  3.46                             150    0.1510 77.5  40 
 PAM  SN ES       1515 20.18                             150   -0.1410 77.5  40 
 PAM  SZ I        1515 22.71        31.5 0.42            146           77.5  40 
 RUS  HZ EP       1515  4.70                             143   -0.2110  101 176 
 RUS  HN ES       1515 23.52                             143    0.3510  101 176 
 RUS  HN I        1515 24.86        48.3 0.40            136            101 176 
 PTB  HZ EP       1515  7.22                             131   -0.88 9  147 259 
 PTB  HN ES       1515 28.30                             131   -0.54 9  147 259 
 PTB  HN I        1515 33.42        50.9 0.52            120            147 259 
 CAPV BZ EP       1515  8.46                             131   -0.13 9  149  38 
 CAPV BZ ES       1515 30.09                             131    0.37 9  149  38 
 NOR  HZ EP       1515 16.68                             118   -0.30 8  234 234 
 NOR  HN ES       1515 44.90                             118    0.26 8  234 234 
 NOR  HN I        1515 54.61        38.7 0.16            109            234 234 
 HEL  HZ EP   4   1515 23.47                             114    2.01 0  271 256 
 HEL  HN I        1516  1.53         8.7 0.28            106            271 256 
 GUY  HZ EP       1515 25.58                             111    0.42 7  303 235 
 GUY  HN ES       1516  0.24                             111    1.03 7  303 235 
 GUY  HN I        1516  8.99         8.9 0.60            104            303 235 
                                                                                
