 2011 1019 1138 52.0 L   6.768 -73.144146.7  RSN  6 0.3 1.7LRSN                1
 GAP=138        0.53       3.6     4.1  6.3  0.2440E+01  0.1164E+02  0.2719E+01E
 Epicentro: LOS SANTOS - SANTANDER                                             3
 ACTION:UPD 12-07-13 16:04 OP:ep   STATUS:               ID:20111019113852 L   I
 2011-10-19-1135-14S.COL___168                                                 6
 STAT SP IPHASW D HRMM SECON CODA AMPLIT PERI AZIMU VELO AIN AR TRES W  DIS CAZ7
 BAR2 SZ EP   1   1139 11.69                             172   -0.01 7 19.9 192 
 BAR2 SZ I        1139 27.91         9.1 0.18                          19.9 192 
 BRR  HZ EP   1   1139 13.64                             152    0.26 7 73.1 301 
 BRR  HZ I        1139 14.06        16.2 0.10                          73.1 301 
 BRR  HN ES   2   1139 30.24                             152    0.20 5 73.1 301 
 PAM  SZ EP   1   1139 14.63                             150    0.14 7 80.0  38 
 PAM  SN ES   1   1139 31.65                             150   -0.37 7 80.0  38 
 RUS  HZ EP   1   1139 15.63                             145    0.01 7 97.1 176 
 RUS  HN ES   1   1139 34.15                             145    0.13 7 97.1 176 
 RUS  HZ I        1139 35.04         3.2 0.28                          97.1 176 
 ZAR  HZ EP   1   1139 25.03                             122    0.34 6  206 293 
 ZAR  HN ES   1   1139 49.97                             122   -0.19 6  206 293 
 ZAR  HZ I        1139 55.80         5.5 0.35                           206 293 
 NOR  SZ EP   1   1139 27.05                             119   -0.56 6  233 235 
                                                                                
