 2011  119 1440 24.7 L   6.822 -73.025144.9  RSN  7 0.3 2.1LRSN                1
 GAP=172        0.85       5.1    10.3  7.1 -0.2017E+02  0.2199E+02 -0.7116E+01E
 Epicentro: CEPITA - SANTANDER                                                 3
 ACTION:UP  11-02-08 08:41 OP:pat  STATUS:               ID:20110119144024 L   I
 2011-01-19-1439-24S.COL___138                                                 6
 STAT SP IPHASW D HRMM SECON CODA AMPLIT PERI AZIMU VELO SNR AR TRES W  DIS CAZ7
 BTL  SZ EP       1440 44.67                             168     0.310   29 292 
 BTL  SZ ES   1   1440 59.85                             168     0.2 7   29 292 
 BAR2 SZ EP       1440 44.69                             167     0.310   31 215 
 BAR2 SZ ES   1   1440 59.26                             167    -0.5 7   31 215 
 BAR2 SZ I        1441  0.42        30.9 0.29                            31 215 
 RUS  HZ EP   1   1440 48.81                             143     0.3 7  103 184 
 RUS  HN ES   1   1441  7.01                             143    -0.1 7  103 184 
 RUS  HZ I        1441  9.64         9.4 0.19                           103 184 
 GRA  SZ EP   1   1440 48.75                             138    -0.6 7  120  12 
 GRA  SZ I        1441  9.13        21.2 0.47                           120  12 
 OCA  SZ EP   1   1440 53.03                             129     0.1 7  160 348 
 OCA  SZ ES   2   1441 15.12                             129     0.2 5  160 348 
 OCA  SZ I        1441 17.76        21.0 0.23                           160 348 
 NOR  SZ EP       1441  1.32                             117    -0.4 8  247 236 
 RREF HE ES   1   1441 49.28                             110     0.1 5  334 231 
 RREF HZ I        1441 54.93         4.1 0.34                           334 231 
                                                                                
