 2017  419 1608  1.4 L   6.787 -73.127143.5  RSN  4 0.1 1.1LRSN                1
 GAP=245        0.31       3.2     2.4  3.0  0.5092E+01  0.7630E+00 -0.1668E+01E
 Epicentro: LOS SANTOS - SANTANDER                                             3
 ACTION:UPD 17-05-30 21:14 OP:jn   STATUS:               ID:20170419160801 L   I
 OLDACT:UP  17-04-19 23:33 OP:lv   STATUS:               ID:20170419155658d    3
 OLDACT:UP  17-04-19 23:32 OP:lv   STATUS:               ID:20170419155658d    3
 OLDACT:UP  17-04-19 23:32 OP:lv   STATUS:               ID:20170419155658d    3
 OLDACT:DUP 17-04-19 23:20 OP:lv   STATUS:               ID:20170419155658d    3
 2017-04-19-1558-00M.COL___371                                                 6
 STAT SP IPHASW D HRMM SECON CODA AMPLIT PERI AZIMU VELO AIN AR TRES W  DIS CAZ7
 BAR2 EZ EP       16 8 20.75                             171   -0.0210 22.4 196 
 BAR2 EZ ES       16 8 35.89                             171    0.0310 22.4 196 
 RUS  HZ EP       16 8 24.94                             144    0.0910 99.1 177 
 RUS  HN ES       16 8 43.03                             144   -0.0910 99.1 177 
 RUS  HZ I        16 8 44.66         2.3 0.28            142           99.1 177 
 PTB  HZ EP       16 8 28.33                             131   -0.05 9  150 260 
 PTB  HN ES       16 8 49.46                             131    0.07 9  150 260 
 ZAR  HN ES       16 8 59.32                             121   -0.05 8  206 292 
                                                                                
