 2015  619 1739 24.7 L   6.207 -73.608109.4  RSN  4 0.2 1.8LRSN                1
 GAP=195        0.51       4.2     5.5  6.6  0.1853E+02  0.2801E+02  0.1452E+02E
 Epicentro: LA PAZ - SANTANDER                                                 3
 ACTION:UPD 15-09-10 22:13 OP:cam  STATUS:               ID:20150619173924 L   I
 OLDACT:REG 15-06-19 20:59 OP:stll STATUS:               ID:20150619173748     3
 2015-06-19-1737-48M.COL___310                                                 6
 STAT SP IPHASW D HRMM SECON CODA AMPLIT PERI AZIMU VELO AIN AR TRES W  DIS CAZ7
 BAR2 EZ EP     C 1739 42.08                             148    0.1610 63.4  48 
 BAR2 EZ ES       1739 55.33                             148    0.0210 63.4  48 
 BAR2 EZ I        1739 56.69        30.5 0.40            170           63.4  48 
 RUS  HZ EP       1739 42.80                             146    0.2410 67.7 121 
 RUS  HE ES       1739 56.29                             146   -0.1710 67.7 121 
 RUS  HZ I        1740  0.97         6.9 0.34            155           67.7 121 
 BRR  HZ EP       1739 44.15                             134   -0.2710  100 353 
 BRR  HE ES       1739 59.80                             134    0.0410  100 353 
 BRR  HZ I        1740  0.27        13.1 0.40            144            100 353 
 ZAR  HZ EP       1739 54.28                             114   -0.18 9  198 316 
 ZAR  HN ES       1740 17.80                             114    0.16 9  198 316 
 ZAR  HZ I        1740 25.26        10.9 0.48            119            198 316 
                                                                                
