 2012  419 1332 54.5 L   6.747 -73.075143.2  RSN  8 0.4 2.4LRSN                1
 GAP=148        0.87       4.6     6.4  6.3 -0.1164E+01  0.7007E+01  0.9492E+01E
 Epicentro: LOS SANTOS - SANTANDER                                             3
 ACTION:UPD 12-07-05 11:54 OP:tino STATUS:               ID:20120419133254 L   I
 2012-04-19-1330-00M.COL___186                                                 6
 STAT SP IPHASW D HRMM SECON CODA AMPLIT PERI AZIMU VELO AIN AR TRES W  DIS CAZ7
 BAR2 SZ EP       1333 13.75                             171    -0.110   21 215 
 BAR2 SZ ES   1   1333 27.99                             171    -0.8 7   21 215 
 BAR2 SZ I        1333 30.53        63.8 0.26                            21 215 
 PAM  SZ EP       1333 16.54                             150     0.110   78  32 
 PAM  SN ES   1   1333 34.02                             150     0.4 7   78  32 
 BRR  HZ EP       1333 15.65                             149    -0.310   81 300 
 BRR  HZ I        1333 15.91        89.4 0.14                            81 300 
 BRR  HN ES       1333 32.98                             149     0.310   81 300 
 RUS  HZ EP       1333 17.59                             145     0.010   95 181 
 RUS  HN ES   1   1333 35.96                             145     0.4 7   95 181 
 RUS  HZ I        1333 37.22        16.9 0.46                            95 181 
 ZAR  HZ EP   1   1333 27.74                             120    -0.1 6  213 293 
 ZAR  HZ I        1333 58.78        19.7 0.42                           213 293 
 CHI  HZ EP   1   1333 31.50                             117    -0.2 6  245 197 
 TOL  SZ EP       1333 43.30                             109     0.4 7  345 226 
 PRA  HZ EP   1   1333 47.24                             106    -0.6 4  391 211 
 PRA  HE ES   1   1334 29.99                             106     0.6 4  391 211 
                                                                                
