 2017  119 1041 22.3 L   6.843 -73.346116.6  RSN  8 0.5 1.4LRSN                1
 GAP=107        1.26       5.4     5.3  8.4  0.4425E+01  0.1751E+02  0.1040E+02E
 Epicentro: SAN VICENTE DE CHUCURI - SANTANDER                                 3
 ACTION:UPD 17-05-22 16:01 OP:jn   STATUS:               ID:20170119104122 L   I
 OLDACT:REG 17-01-19 21:33 OP:cog  STATUS:               ID:20170119103741     3
 2017-01-19-1038-00M.COL___327                                                 6
 STAT SP IPHASW D HRMM SECON CODA AMPLIT PERI AZIMU VELO AIN AR TRES W  DIS CAZ7
 BAR2 EZ EP       1041 38.81                             163    0.0910 33.1 147 
 BAR2 EZ ES       1041 51.46                             163   -0.0710 33.1 147 
 BAR2 EZ I        1041 55.35         8.7 0.22            156           33.1 147 
 BRR  HZ EP       1041 38.80                             155   -0.2910 49.9 306 
 BRR  HN ES       1041 52.46                             155    0.2610 49.9 306 
 PAM  EZ EP       1041 42.96                             140    0.5210 90.0  52 
 PAM  EZ I        1042  0.11         5.3 0.18            127           90.0  52 
 RUS  HZ EP       1041 44.03                             134    0.0110  109 165 
 RUS  HE ES       1042  0.81                             134   -0.1710  109 165 
 RUS  HZ I        1042  2.54         2.3 0.24            129            109 165 
 PTB  HZ EP       1041 43.56                             129   -1.4910  127 255 
 PTB  HN ES   4   1042  0.27                             129   -2.53 0  127 255 
 PTB  HZ I        1042  2.86         5.5 0.12            127            127 255 
 ZAR  HN ES       1042 12.86                             118    0.19 9  182 293 
 NOR  HZ EP       1041 55.24                             113    0.38 8  220 230 
 NOR  HE ES       1042 20.55                             113    0.28 8  220 230 
 NOR  HZ I        1042 25.65         3.2 0.66            111            220 230 
 GUY2CHZ EP       1042  3.37                             107    0.38 7  286 231 
 GUY2CHN ES       1042 35.13                             107    0.39 7  286 231 
                                                                                
