 2017 1119 1048 58.4 L   7.186 -73.730 89.6  RSN  4 0.2 1.4LRSN                1
 GAP=156        0.60       4.8     2.1  7.9  0.3397E+01 -0.1133E+01 -0.1969E+02E
 Epicentro: BARRANCABERMEJA - SANTANDER                                        3
 ACTION:UPD 17-12-12 19:57 OP:rebc STATUS:               ID:20171119104858 L   I
 OLDACT:REG 17-11-19 20:04 OP:lv   STATUS:               ID:20171119104742     3
 2017-11-19-1048-00M.COL___467                                                 6
 STAT SP IPHASW D HRMM SECON CODA AMPLIT PERI AZIMU VELO AIN AR TRES W  DIS CAZ7
 BAR2 EZ EP       1049 16.06                             131    0.3010 89.3 137 
 BAR2 EZ ES       1049 29.12                             131   -0.1810 89.3 137 
 BAR2 EZ I        1049 31.49        11.3 0.34            139           89.3 137 
 PTB  HZ IP   9 C 1049 16.11                             125   -1.11 0  108 228 
 PTB  HE ES       1049 30.56                                   -0.2310  108 228 
 PTB  HZ I        1049 31.58         3.6 0.18            131            108 228 
 PAM  EZ EP       1049 18.59                             124   -0.0110  115  81 
 PAM  EN ES       1049 34.33                             124   -0.0310  115  81 
 PAM  EZ I        1049 35.42         6.6 0.40            129            115  81 
 ZAR  HZ EP       1049 19.13                             120   -0.3210  129 285 
 ZAR  HN ES       1049 36.09                             120    0.2210  129 285 
 ZAR  HZ I        1049 40.57         6.8 0.36            124            129 285 
 SJC  HZ EP   4   1049 42.17                             100   -2.02 0  340 332 
 SJC  HN ES   4   1050 15.38                             100   -4.53 0  340 332 
                                                                                
