 2012 1019 1114 16.9 L   6.754 -73.139143.8  RSN  5 0.1 1.7LRSN                1
 GAP=140        0.32       2.1     2.7  4.0 -0.4165E+00  0.3303E+01  0.6522E+00E
 Epicentro: LOS SANTOS - SANTANDER                                             3
 ACTION:UPD 12-11-22 17:04 OP:ep   STATUS:               ID:20121019111416 L   I
 2012-10-19-1110-00M.COL___234                                                 6
 STAT SP IPHASW D HRMM SECON CODA AMPLIT PERI AZIMU VELO AIN AR TRES W  DIS CAZ7
 BAR2 SZ EP       1114 36.27                             172    0.0310 18.5 195 
 BAR2 SZ I        1114 52.55         8.8 0.33                          18.5 195 
 BRR  HZ EP       1114 38.17                             151    0.1110 74.4 302 
 BRR  HZ I        1114 38.51        13.4 0.51                          74.4 302 
 BRR  HE ES   2   1114 54.70                             151    0.16 5 74.4 302 
 PAM  SZ EP       1114 39.14                             149   -0.0210 80.9  37 
 PAM  SZ I        1114 39.39         6.6 0.23                          80.9  37 
 PAM  SN ES       1114 56.41                             149   -0.0810 80.9  37 
 RUS  HZ EP   1   1114 40.11                             145   -0.02 7 95.4 176 
 RUS  HN ES   1   1114 58.18                             145   -0.03 7 95.4 176 
 RUS  HN I        1115  0.89         5.4 0.26                          95.4 176 
 ZAR  HN ES   2   1115 14.68                             121   -0.28 4  207 293 
 ZAR  HZ I        1115 20.80         5.2 0.24                           207 293 
                                                                                
