 2010  319 1108 29.0 L   7.490 -73.175108.0  RSN  7 0.3 2.2LRSN                1
 GAP=188        0.58       3.0     7.4  6.3 -0.3840E+01 -0.9025E+01  0.2731E+01E
 Epicentro: EL PLAYON - SANTANDER                                              3
 ACTION:UP  10-08-24 09:54 OP:vdl  STATUS:               ID:20100319110829 L   I
 2010-03-19-1107-41S.COL___098                                                 6
 STAT SP IPHASW D HRMM SECON CODA AMPLIT PERI AZIMU VELO SNR AR TRES W  DIS CAZ7
 BRR  HZ IP       11 8 46.02                             144    -0.410   73 235 
 BRR  HE ES   1   11 9  0.07                             144     0.2 7   73 235 
 BRR  HZ I        11 9  0.95        58.3 0.10                            73 235 
 OCA  SZ IP       11 8 47.70                             140     0.210   84 349 
 OCA  SZ ES   2   11 9  1.79                             140    -0.1 5   84 349 
 OCA  SZ I        11 9  5.08        50.9 0.17                            84 349 
 BAR2 SZ EP   1   11 8 48.58                             135    -0.3 7   99 181 
 BAR2 SZ ES   1   11 9  4.61                             135     0.3 7   99 181 
 RUS  HZ EP   2   11 8 56.48                             117    -0.5 4  177 177 
 CHI  HZ EP   2   11 9 13.60                             103     0.0 3  322 191 
 CHI  HZ I        11 9 14.90         3.3 0.54                           322 191 
 CHI  HE ES   2   11 9 48.94                             103     0.5 3  322 191 
 RREF BZ EP   2   11 9 20.11                             100     0.0 3  374 220 
 RREF BE ES   2   1110  0.12                             100     0.2 3  374 220 
 RREF BZ I        1110  6.64         7.2 0.69                           374 220 
 PRA  HZ EP   2   11 9 30.03                              97     0.5 2  459 205 
 PRA  HN ES   2   1110 16.88                              97     0.1 2  459 205 
 PRA  HZ I        1110 26.59         3.1 0.78                           459 205 
                                                                                
