 2011  919 1932 49.8 L   6.785 -73.131138.4  RSN  7 0.2 2.1LRSN                1
 GAP=139        0.44       2.2     3.1  3.7  0.9552E+00 -0.5170E+00 -0.1170E+01E
 Epicentro: LOS SANTOS - SANTANDER                                             3
 ACTION:UPD 12-07-13 15:58 OP:ep   STATUS:               ID:20110919193249 L   I
 2011-09-19-1931-37S.COL___165                                                 6
 STAT SP IPHASW D HRMM SECON CODA AMPLIT PERI AZIMU VELO AIN AR TRES W  DIS CAZ7
 BTL  SZ EP       1933  8.50                             171    0.0410 21.1 314 
 BAR2 SZ EP       1933  8.41                             170   -0.0610 22.1 195 
 BAR2 SZ ES   1   1933 22.94                             170   -0.13 7 22.1 195 
 BAR2 SZ I        1933 24.11        35.1 0.27                          22.1 195 
 BRR  HZ EP       1933 10.35                             150    0.1010 73.4 299 
 BRR  HZ I        1933 10.73        43.8 0.09                          73.4 299 
 BRR  HN ES       1933 26.45                             150    0.2310 73.4 299 
 PAM  SZ EP       1933 11.46                             149    0.2510 77.7  38 
 PAM  SN ES   1   1933 27.91                             149   -0.03 7 77.7  38 
 RUS  HZ EP   1   1933 12.64                             143   -0.02 7 98.8 177 
 RUS  HN ES   1   1933 30.33                             143   -0.19 7 98.8 177 
 RUS  HZ I        1933 31.61        10.2 0.20                          98.8 177 
 OCA  SZ EP   1   1933 17.50                             127   -0.18 7  162 353 
 OCA  SZ ES   1   1933 39.08                             127   -0.38 7  162 353 
 OCA  SZ I        1933 42.86        13.6 0.16                           162 353 
 ZAR  HZ EP   2   1933 21.88                             120   -0.08 4  206 292 
 ZAR  HN ES   2   1933 46.68                             120   -0.39 4  206 292 
 ZAR  HZ I        1933 48.76         8.2 0.05                           206 292 
                                                                                
