 2013 1019 1852 22.7 L   6.760 -73.131140.9  RSN  7 0.4 1.8LRSN                1
 GAP=140        0.99       4.9     4.6  7.9 -0.2767E+01  0.8248E+01  0.5565E+01E
 Epicentro: LOS SANTOS - SANTANDER                                             3
 ACTION:UPD 13-11-25 09:22 OP:ep   STATUS:               ID:20131019185222 L   I
 OLDACT:UP  13-10-19 19:58 OP:mh   STATUS:               ID:20131019184842     3
 OLDACT:REG 13-10-19 16:38 OP:mh   STATUS:               ID:20131019184842     3
 2013-10-19-1848-42M.COL___214                                                 6
 STAT SP IPHASW D HRMM SECON CODA AMPLIT PERI AZIMU VELO AIN AR TRES W  DIS CAZ7
 BAR2 SZ EP   1   1852 41.76                             172    0.07 7 19.4 197 
 BRR  HZ EP   1   1852 43.65                             150    0.09 7 74.8 301 
 BRR  HN ES       1853  0.35                             150    0.5410 74.8 301 
 BRR  HZ I        1853  0.77        14.0 0.30            148           74.8 301 
 PAM  SZ EP       1852 44.63                             149    0.0610 79.8  37 
 PAM  SN ES       1853  1.17                             149   -0.4510 79.8  37 
 RUS  HZ EP       1852 45.72                             144    0.0510 96.1 177 
 RUS  HN ES       1853  3.81                             144    0.2410 96.1 177 
 RUS  HZ I        1853  6.02         6.1 0.32            144           96.1 177 
 PTB  HZ EP       1852 48.60                             131   -0.78 9  149 261 
 PTB  HN ES       1853  9.78                             131   -0.38 9  149 261 
 PTB  HZ I        1853 12.24         7.8 0.16            129            149 261 
 ZAR  HZ EP   1   1852 56.33                             121    1.14 6  207 293 
 ZAR  HN ES   2   1853 20.36                             121   -0.16 4  207 293 
 ZAR  HZ I        1853 26.52         5.8 0.12            120            207 293 
 NOR  HZ EP   1   1852 58.16                             118    0.11 6  234 236 
 NOR  HE ES   1   1853 25.65                             118    0.05 6  234 236 
 NOR  HZ I        1853 31.32         5.1 0.24            117            234 236 
                                                                                
