 2012 1119 1130 44.0 L   7.303 -74.016 22.0  RSN  7 0.5 1.2LRSN                1
 GAP=166        0.97       4.5     2.6  4.0  0.2202E+01 -0.3314E+01 -0.4123E+00E
 Epicentro: PUERTO WILCHES - SANTANDER                                         3
 ACTION:UPD 12-12-05 15:34 OP:}ep  STATUS:               ID:20121119113044 L   I
 2012-11-19-1130-00M.COL___234                                                 6
 STAT SP IPHASW D HRMM SECON CODA AMPLIT PERI AZIMU VELO AIN AR TRES W  DIS CAZ7
 BRR  HZ EPg    D 1130 50.96                             116   -0.3110 40.0 123 
 BRR  HZ EP       1130 51.75                             116    0.4810 40.0 123 
 BRR  HE ES   1   1130 57.03                             116    0.07 7 40.0 123 
 BRR  HZ I        1130 57.90        19.4 0.10                          40.0 123 
 GIR2 SZ EP   1   1130 58.94                             101   -0.32 7 94.2 105 
 ZAR  HZ EP   1   1130 59.43                             101    0.16 7 95.2 283 
 ZAR  HE ES   1   1131 11.11                             101   -0.09 7 95.2 283 
 ZAR  HZ I        1131 12.56         5.9 0.11                          95.2 283 
 PTB  HZ EP   1   1130 59.28                             101   -0.33 7 97.5 210 
 PTB  HN ES   1   1131 11.56                             101   -0.25 7 97.5 210 
 PTB  HZ I        1131 12.20         3.3 0.30                          97.5 210 
 BAR2 SZ EP   1   1131  3.03                              56   -0.09 7  121 130 
 BAR2 SZ ES   1   1131 17.28                              56   -0.77 7  121 130 
 BAR2 SZ I        1131 18.43         6.4 0.16                           121 130 
 PAM  SZ EP   1   1131  6.63                              56    0.17 7  145  88 
 PAM  SE ES   1   1131 23.61                              56   -0.39 7  145  88 
 PAM  SZ I        1131 25.04         5.6 0.22                           145  88 
 RUS  HZ EP   1   1131 12.92                              56    1.26 7  187 146 
 RUS  HN ES   1   1131 33.88                              56    0.62 7  187 146 
 RUS  HZ I        1131 36.12         2.4 0.52                           187 146 
                                                                                
