 2011  219 1824 12.9 L   6.440 -73.696 89.1  RSN  5 0.5 1.2LRSN                1
 GAP=165        0.84      12.9    12.4 22.6 -0.1173E+03  0.1751E+03 -0.9413E+02E
 Epicentro: SANTA HELENA DEL OPON - SANTANDER                                  3
 ACTION:UP  11-03-28 15:09 OP:jfem STATUS:               ID:20110219182411 L   I
 2011-02-19-1822-41S.COL___137                                                 6
 STAT SP IPHASW D HRMM SECON CODA AMPLIT PERI AZIMU VELO SNR AR TRES W  DIS CAZ7
 BAR2 SZ EP       1824 27.22                             144    -0.510   59  74 
 BAR2 SZ ES   2   1824 39.32                             144     0.0 5   59  74 
 BAR2 SZ I        1824 41.12        19.3 0.47                            59  74 
 BTL  SZ EP       1824 29.21                             139     0.510   71  42 
 GIR2 SZ EP   3   1824 29.79                             131    -0.4 2   90  38 
 GIR2 SZ ES   3   1824 43.12                             131    -0.5 2   90  38 
 RUS  HZ EP   3   1824 30.98                             131     0.2 2   91 132 
 RUS  HZ I        1824 43.21         1.6 0.10                            91 132 
 RUS  HN ES   3   1824 45.38                             131     0.7 2   91 132 
 NOR  SZ EP   2   1824 37.24                             114    -0.4 5  162 233 
 NOR  SE ES   2   1824 57.35                             114     0.4 5  162 233 
                                                                                
