 2011  719 1305 35.0 L   6.733 -73.081142.1  RSN  4 0.3 1.5LRSN                1
 GAP=164        0.60       5.6     8.2  8.0  0.3868E+01 -0.1824E+02 -0.1497E+02E
 Epicentro: JORDAN - SANTANDER                                                 3
 ACTION:UPD 12-07-25 14:01 OP:epov STATUS:               ID:20110719130535 L   I
 2011-07-19-1302-12S.COL___143                                                 6
 STAT SP IPHASW D HRMM SECON CODA AMPLIT PERI AZIMU VELO AIN AR TRES W  DIS CAZ7
 BAR2 SZ EP   1   13 5 54.02                             172   -0.10 7 19.2 216 
 BAR2 SZ ES   1   13 6  8.89                             172   -0.14 7 19.2 216 
 BAR2 SZ I        13 6 10.46         4.6 0.15                          19.2 216 
 BRR  HZ EP   1   13 5 55.94                             149   -0.43 7 81.1 301 
 BRR  HZ I        13 6  4.39        14.6 0.38                          81.1 301 
 BRR  HN ES   1   13 6 13.28                             149    0.26 7 81.1 301 
 RUS  HN ES   2   13 6 15.89                             145    0.21 5 93.0 180 
 RUS  HZ I        13 6 19.01         3.3 0.46                          93.0 180 
 BRI  SZ EP   1   13 5 59.39                             139    0.46 7  113  16 
 BRI  SZ I        13 6 13.90         4.0 0.58                           113  16 
 BRI  SZ ES   2   13 6 17.26                             139   -0.32 5  113  16 
                                                                                
