 2017  319 1455 38.3 L   6.981 -73.684 91.8  RSN  4 0.3 1.1LRSN                1
 GAP=190        0.55       6.0     2.9  9.9 -0.1121E+02  0.9033E+01 -0.2139E+02E
 Epicentro: BARRANCABERMEJA - SANTANDER                                        3
 ACTION:UPD 17-05-25 18:42 OP:jn   STATUS:               ID:20170319145538 L   I
 OLDACT:UP  17-03-20 00:23 OP:dnl  STATUS:               ID:20170319144745d    3
 OLDACT:DUP 17-03-20 00:19 OP:dnl  STATUS:               ID:20170319144745d    3
 OLDACT:UP  17-03-20 00:18 OP:dnl  STATUS:               ID:20170319144744     3
 OLDACT:REG 17-03-19 22:57 OP:dnl  STATUS:               ID:20170319144744     3
 2017-03-19-1448-00M.COL___391                                                 6
 STAT SP IPHASW D HRMM SECON CODA AMPLIT PERI AZIMU VELO AIN AR TRES W  DIS CAZ7
 BAR2 EZ EP   2   1455 53.38                             140   -0.81 5 70.2 128 
 BAR2 EZ ES       1456  6.65                             140    0.0410 70.2 128 
 BAR2 EZ I        1456  8.07        13.3 0.38            145           70.2 128 
 PTB  HZ EP   2   1455 56.61                             129    0.25 5 98.3 240 
 PTB  HN ES       1456 10.46                             129   -0.0210 98.3 240 
 PTB  HZ I        1456 11.58         4.3 0.32            133           98.3 240 
 PAM  EZ EP   4   1456  1.12                             125    2.41 0  116  70 
 PAM  EN ES       1456 14.70                             125    0.0410  116  70 
 PAM  EZ I        1456 16.75         1.7 0.16            127            116  70 
 RUS  HZ EP   2   1456  1.33                             120    0.34 5  138 151 
 RUS  HN ES   4   1456 17.38                             120   -1.33 0  138 151 
 RUS  HZ I        1456 18.14         1.2 0.34            124            138 151 
                                                                                
