 2011 1219 1904 52.2 L   6.792 -73.045142.9  RSN  5 0.2 1.6LRSN                1
 GAP=150        0.39       4.0     6.4  5.4  0.3148E+01  0.4520E+01  0.2278E+01E
 Epicentro: LOS SANTOS - SANTANDER                                             3
 ACTION:UPD 12-07-13 16:17 OP:ep   STATUS:               ID:20111219190452 L   I
 2011-12-19-1900-00M.COL___192                                                 6
 STAT SP IPHASW D HRMM SECON CODA AMPLIT PERI AZIMU VELO AIN AR TRES W  DIS CAZ7
 BAR2 SZ EP   2   19 5 11.23                             169   -0.29 5 26.8 214 
 BAR2 SZ ES   2   19 5 26.34                             169   -0.29 5 26.8 214 
 BAR2 SZ I        19 5 28.86        11.4 0.13                          26.8 214 
 GIR2 SZ EP   1   19 5 11.69                             165    0.07 7 35.7 333 
 GIR2 SZ ES   2   19 5 26.55                             165   -0.25 5 35.7 333 
 PAM  SN ES   2   19 5 30.76                             152    0.20 5 71.6  32 
 BRR  HZ EP   1   19 5 13.52                             149   -0.10 7 81.5 295 
 BRR  HE ES   2   19 5 30.73                             149    0.37 5 81.5 295 
 RUS  HZ EP   2   19 5 15.69                             143    0.14 5 99.5 182 
 RUS  HE ES   2   19 5 34.01                             143    0.20 5 99.5 182 
 RUS  HZ I        19 5 36.44         4.3 0.29                          99.5 182 
                                                                                
