 2010  719 1128 21.7 L   6.757 -73.093143.8  RSN 11 0.5 2.3LRSN                1
 GAP=130        1.21       5.4    10.2  8.0 -0.1734E+02 -0.1403E+02  0.1394E+01E
 Epicentro: LOS SANTOS - SANTANDER                                             3
 ACTION:UPD 10-12-01 15:18 OP:pat  STATUS:               ID:20100719112821 L   I
 2010-07-19-1128-22S.COL___123                                                 6
 STAT SP IPHASW D HRMM SECON CODA AMPLIT PERI AZIMU VELO AIN AR TRES W  DIS CAZ7
 BAR2 SZ IP       1128 40.97                             171     0.010   21 209 
 BAR2 SZ ES   1   1128 55.66                             171    -0.4 7   21 209 
 BAR2 SZ I        1128 57.20        59.2 0.30                            21 209 
 GIR2 SZ IP       1128 41.09                             165    -0.210   37 343 
 GIR2 SZ ES   1   1128 56.56                             165     0.0 7   37 343 
 BRR  HZ IP     C 1128 42.92                             150    -0.110   79 300 
 BRR  HN ES   1   1128 59.68                             150     0.0 7   79 300 
 BRR  HZ I        1129  3.90        48.5 0.15                            79 300 
 RUS  HZ IP     C 1128 45.02                             145     0.110   96 179 
 RUS  HE ES   1   1129  3.30                             145     0.3 7   96 179 
 RUS  HZ I        1129  4.51        23.3 0.37                            96 179 
 GUE  SZ EP   1   1128 46.00                             138    -0.5 7  120   9 
 GUE  SZ ES   1   1129  5.20                             138    -0.6 7  120   9 
 GUE  SZ I        1129  6.76        12.1 0.08                           120   9 
 GRA  SZ IP       1128 47.96                             136     1.010  129  14 
 GRA  SZ ES   1   1129  7.61                             136     0.9 7  129  14 
 GRA  SZ I        1129  8.24        32.8 0.25                           129  14 
 OCA  SZ EP   1   1128 49.82                             128    -0.5 7  166 351 
 OCA  SZ I        1129 14.92        25.7 0.39                           166 351 
 HEL  HZ EP   2   1129  2.98                             114     0.7 4  277 257 
 HEL  HZ I        1129 40.35         8.2 0.49                           277 257 
 RREF HZ EP   2   1129  8.07                             110     0.2 3  323 231 
 RREF HZ I        1129 54.02         7.4 0.55                           323 231 
 SDV  BZ IP     D 1129 10.80                             108    -0.7 6  359  49 
 SDV  BZ I        1129 11.67         6.9 0.36                           359  49 
 PRA  HZ EP   2   1129 14.73                             106    -0.3 3  391 211 
 PRA  HE ES   2   1129 56.32                             106    -0.3 3  391 211 
 PRA  HZ I        1130  4.06         6.6 0.45                           391 211 
                                                                                
