 2016  619 1650 41.8 L   6.762 -73.089154.0  RSN  7 0.5 1.9LRSN                1
 GAP=218        1.04       5.0     7.6 10.4 -0.1478E+02 -0.2097E+02  0.1711E+02E
 Epicentro: LOS SANTOS - SANTANDER                                             3
 ACTION:UPD 16-07-21 22:20 OP:rebc STATUS:               ID:20160619165041 L   I
 OLDACT:UP  16-06-19 20:54 OP:mh   STATUS:               ID:20160619164742     3
 OLDACT:REG 16-06-19 19:55 OP:mh   STATUS:               ID:20160619164742     3
 2016-06-19-1647-42M.COL___349                                                 6
 STAT SP IPHASW D HRMM SECON CODA AMPLIT PERI AZIMU VELO AIN AR TRES W  DIS CAZ7
 BAR2 EZ EP       1651  1.90                             172   -0.5010 21.4 209 
 BAR2 EZ I        1651 19.79         5.4 0.21                          21.4 209 
 BRR  HZ I        1651 20.94         9.7 0.42                          78.7 299 
 BRR  HN ES       1651 22.54                             152    0.7410 78.7 299 
 PTB  HZ EP       1651  9.96                             133    0.01 9  153 261 
 PTB  HN ES       1651 31.33                             133   -0.56 9  153 261 
 PTB  HZ I        1651 33.37        10.5 0.05                           153 261 
 SPBC HZ EP   1   1651 11.80                             131    0.77 7  164 222 
 SPBC HN ES       1651 33.68                             131   -0.14 9  164 222 
 SPBC HZ I        1651 40.44         8.7 0.17                           164 222 
 OCA  HZ EP   1   1651 11.73                             131    0.49 7  165 351 
 OCA  HN ES       1651 33.86                             131   -0.34 9  165 351 
 OCA  HZ I        1651 38.03        27.1 0.30                           165 351 
 ZAR  HN ES       1651 41.75                             123   -0.14 8  211 293 
 ZAR  HZ I        1651 46.88                                            211 293 
 NOR  HZ EP       1651 18.30                             120   -0.02 8  237 236 
 NOR  HN ES   1   1651 47.23                             120    0.43 6  237 236 
 NOR  HZ I        1651 52.14         4.8 0.16                           237 236 
                                                                                
