 2014  719 1607 14.3 L   6.803 -73.137144.8  RSN 10 0.5 2.3LRSN                1
 GAP=202        1.17       4.0     5.5  6.4  0.5387E+01  0.9235E+01  0.1366E+01E
 Epicentro: LOS SANTOS - SANTANDER                                             3
 ACTION:UPD 15-03-16 20:45 OP:nd   STATUS:               ID:20140719160714 L   I
 OLDACT:REG 14-07-19 21:16 OP:stll STATUS:               ID:20140719155818     3
 2014-07-19-1558-18M.COL___266                                                 6
 STAT SP IPHASW D HRMM SECON CODA AMPLIT PERI AZIMU VELO AIN AR TRES W  DIS CAZ7
 BAR2 SZ IP     C 16 7 34.11                             170    0.2810 23.9 192 
 BAR2 SZ ES       16 7 49.44                             170    0.3810 23.9 192 
 BAR2 SZ I        16 7 50.73        38.9 0.30            166           23.9 192 
 BRR  HZ IP     C 16 7 36.01                             152    0.6310 71.9 298 
 BRR  HZ I        16 7 36.19        32.7 0.14            149           71.9 298 
 BRR  HN ES       16 7 52.04                             152    0.2110 71.9 298 
 RUS  HZ EP       16 7 37.87                             144   -0.1110  101 177 
 RUS  HZ I        16 7 38.63        12.1 0.20            144            101 177 
 RUS  HN ES       16 7 56.30                             144   -0.1510  101 177 
 PTB  HZ EP       16 7 40.94                             132   -0.34 9  149 259 
 PTB  HN ES       16 8  1.25                             132   -1.08 9  149 259 
 PTB  HZ I        16 8  9.47        32.1 0.40            130            149 259 
 ZAR  HZ EP       16 7 46.65                             122   -0.11 9  205 292 
 ZAR  HE ES       16 8 12.46                             122    0.37 9  205 292 
 ZAR  HZ I        16 8 18.55        22.3 0.40            121            205 292 
 SML  HZ EP       16 7 50.19                             117   -0.69 8  244 335 
 SML  HN ES       16 8 18.91                             117   -0.50 8  244 335 
 SML  HZ I        16 8 23.86        29.8 0.10            118            244 335 
 CHI  HZ EP       16 7 51.84                             117   -0.17 8  249 195 
 CHI  HN ES       16 8 20.76                             117   -0.66 8  249 195 
 CHI  HZ I        16 8 29.17         5.7 0.26            117            249 195 
 HEL  HZ EP       16 7 54.75                             115    0.17 8  273 256 
 HEL  HE ES       16 8 26.62                             115    0.62 8  273 256 
 HEL  HZ I        16 8 33.72         9.4 0.32            114            273 256 
 GUY2CHZ EP       16 7 58.71                             112    0.73 7  302 235 
 GUY2CHN ES       16 8 31.84                             112   -0.21 7  302 235 
 GUY2CHZ I        16 8 41.08        10.1 0.34                           302 235 
 RREF HZ EP       16 8  1.28                             111    0.77 7  323 229 
                                                                                
