 2016  419 1411 56.4 L   7.478 -73.442126.0  RSN  4 0.1 1.7LRSN                1
 GAP=253        0.37       5.0     2.7  7.1  0.8680E+01 -0.5914E+01 -0.2351E+02E
 Epicentro: SABANA DE TORRES - SANTANDER                                       3
 ACTION:UPD 16-05-05 14:22 OP:rebc STATUS:               ID:20160419141156 L   I
 OLDACT:ARG 16-04-19 21:08 OP:ar   STATUS:               ID:20160419140746     3
 2016-04-19-1407-46M.COL___309                                                 6
 STAT SP IPHASW D HRMM SECON CODA AMPLIT PERI AZIMU VELO AIN AR TRES W  DIS CAZ7
 BAR2 EZ EP       1412 18.02                             138   -0.0210  102 164 
 BAR2 EZ ES       1412 34.91                             138   -0.0010  102 164 
 BAR2 EZ I        1412 36.66         8.3 0.16            146            102 164 
 PTB  HZ EP   2   1412 22.02                             126   -0.32 5  153 227 
 PTB  HN ES       1412 42.62                             126    0.06 9  153 227 
 PTB  HZ I        1412 45.96         3.2 0.16            131            153 227 
 ZAR  HZ EP       1412 22.82                             125    0.14 9  156 271 
 ZAR  HN ES       1412 43.07                             125   -0.10 9  156 271 
 ZAR  HZ I        1412 47.99         6.9 0.16            129            156 271 
 URE  HN ES   4   1413  0.98                             114    3.35 0  233 278 
 URE  HZ I        1413  2.55         7.5 0.18            118            233 278 
                                                                                
