 2016  619 1745 18.6 L   6.781 -73.115151.8  RSN 10 0.5 2.2LRSN                1
 GAP=261        1.12       6.2     6.4  7.0 -0.1243E+01  0.1063E+02  0.5909E+01E
 Epicentro: LOS SANTOS - SANTANDER                                             3
 ACTION:UPD 16-07-21 22:20 OP:rebc STATUS:               ID:20160619174518 L   I
 OLDACT:UP  16-06-19 21:23 OP:mh   STATUS:               ID:20160619173742d    3
 OLDACT:UP  16-06-19 21:22 OP:mh   STATUS:               ID:20160619173742d    3
 OLDACT:DUP 16-06-19 21:22 OP:mh   STATUS:               ID:20160619173742d    3
 OLDACT:UP  16-06-19 21:18 OP:mh   STATUS:               ID:20160619173741     3
 OLDACT:REG 16-06-19 19:57 OP:mh   STATUS:               ID:20160619173741     3
 2016-06-19-1737-41M.COL___346                                                 6
 STAT SP IPHASW D HRMM SECON CODA AMPLIT PERI AZIMU VELO AIN AR TRES W  DIS CAZ7
 BAR2 EZ EP       1745 39.01                             171    0.0210 22.2 200 
 BAR2 EZ ES       1745 54.53                             171   -0.3210 22.2 200 
 BAR2 EZ I        1745 55.66        17.9 0.28                          22.2 200 
 BRR  HZ EP       1745 40.88                             152    0.2010 75.2 299 
 BRR  HN ES       1745 58.60                             152    0.7410 75.2 299 
 BRR  HZ I        1746  3.26        21.2 0.14                          75.2 299 
 PTB  HZ EP       1745 45.66                             133   -0.72 9  151 260 
 PTB  HN ES       1746  7.04                             133   -0.97 9  151 260 
 OCA  HE ES   4   1746  4.83                             130   -5.47 0  163 352 
 OCA  HZ I        1746 13.62        46.9 0.72                           163 352 
 SPBC HZ EP       1745 47.68                             130    0.01 9  164 220 
 SPBC HN ES       1746 10.54                             130    0.23 9  164 220 
 ZAR  HZ EP       1745 51.60                             123   -0.29 8  208 292 
 ZAR  HN ES       1746 17.81                             123   -0.02 8  208 292 
 ZAR  HZ I        1746 23.92        22.5 0.53                           208 292 
 NOR  HZ EP       1745 54.95                             120    0.05 8  236 235 
 NOR  HN ES       1746 23.56                             120    0.38 8  236 235 
 NOR  HZ I        1746 30.28        12.8 0.30                           236 235 
 HEL  HZ EP       1746  0.29                             116    0.81 8  275 256 
 HEL  HN ES       1746 31.52                             116    0.19 8  275 256 
 HEL  HZ I        1746 37.82         7.2 0.30                           275 256 
 GUY2CHZ EP   4   1746  4.42                             113    1.70 0  303 235 
 GUY2CHN ES   4   1746 41.25                             113    4.15 0  303 235 
 GUY2CHZ I        1746 45.93         8.4 0.42                           303 235 
 PAL  HZ EP       1746 14.20                             107   -0.03 6  408 240 
                                                                                
