 2013  819 1709 56.5 L   6.736 -73.175136.9  RSN  5 0.3 1.5LRSN                1
 GAP=136        0.94       4.7     4.6  6.9 -0.1860E+01  0.4239E+01  0.1055E+01E
 Epicentro: VILLANUEVA - SANTANDER                                             3
 ACTION:UPD 14-01-14 09:04 OP:ep   STATUS:               ID:20130819170956 L   I
 OLDACT:REG 13-08-19 15:47 OP:stll STATUS:               ID:20130819170840     3
 2013-08-19-1708-40M.COL___204                                                 6
 STAT SP IPHASW D HRMM SECON CODA AMPLIT PERI AZIMU VELO AIN AR TRES W  DIS CAZ7
 BAR2 SZ EP       1710 15.27                             173    0.3110 15.9 183 
 BAR2 SZ ES       1710 28.94                             173   -0.3910 15.9 183 
 BAR2 SZ I        1710 30.90         7.8 0.26            173           15.9 183 
 BRR  HZ EP       1710 17.11                             150    0.3310 72.1 305 
 BRR  HZ I        1710 17.33        11.3 0.26            152           72.1 305 
 BRR  HN ES       1710 32.89                             150    0.3110 72.1 305 
 PAM  SZ EP       1710 18.55                             147    0.2510 85.0  38 
 PAM  SN ES       1710 34.94                             147   -0.3410 85.0  38 
 PAM  SZ I        1710 37.34         8.2 0.54            149           85.0  38 
 RUS  HZ EP       1710 18.44                             144   -0.4810 93.8 174 
 RUS  HN ES       1710 36.85                             144    0.4610 93.8 174 
 RUS  HZ I        1710 38.31         1.5 0.24            145           93.8 174 
 PTB  HZ EP       1710 22.07                             131   -0.31 9  143 261 
 PTB  HN ES       1710 42.33                             131   -0.20 9  143 261 
 PTB  HZ I        1710 45.13         6.1 0.18            132            143 261 
                                                                                
