 2010  819 1827  7.7 L   6.796 -73.087143.7  RSN  6 0.1 1.9LRSN                1
 GAP=165        0.38       1.8     3.9  3.6  0.6634E+00 -0.5858E+01 -0.1817E+01E
 Epicentro: LOS SANTOS - SANTANDER                                             3
 ACTION:UP  10-09-07 10:56 OP:vdl  STATUS:               ID:20100819182707 L   I
 2010-08-19-1825-19S.COL___115                                                 6
 STAT SP IPHASW D HRMM SECON CODA AMPLIT PERI AZIMU VELO SNR AR TRES W  DIS CAZ7
 BAR2 SZ EP       1827 27.15                             170     0.010   25 205 
 BAR2 SZ I        1827 27.47        20.1 0.10                            25 205 
 BAR2 SZ ES   1   1827 42.10                             170    -0.2 7   25 205 
 GIR2 SZ EP   1   1827 27.14                             166    -0.1 7   33 339 
 BRR  HZ IP     C 1827 28.92                             150    -0.110   77 297 
 BRR  HZ I        1827 29.16        32.0 0.14                            77 297 
 BRR  HE ES       1827 45.71                             150     0.110   77 297 
 RUS  HZ EP       1827 31.26                             144     0.010  100 180 
 RUS  HN ES       1827 49.63                             144     0.110  100 180 
 RUS  HZ I        1827 51.42         9.0 0.29                           100 180 
 GUE  SZ EP       1827 32.06                             139    -0.110  116   9 
 GRA  SZ EP       1827 32.86                             137     0.210  124  15 
 GRA  SZ ES   1   1827 52.16                             137     0.0 7  124  15 
 GRA  SZ I        1827 53.53        10.4 0.23                           124  15 
                                                                                
