 2013  119 1214 16.1 L   6.795 -73.140142.6  RSN 13 0.5 2.4LRSN                1
 GAP= 72        1.00       3.5     3.7  6.3 -0.9191E+00  0.5858E+01  0.5810E+01E
 Epicentro: LOS SANTOS - SANTANDER                                             3
 ACTION:UPD 13-02-15 09:15 OP:ep   STATUS:               ID:20130119121416 L   I
 2013-01-19-1210-00M.COL___241                                                 6
 STAT SP IPHASW D HRMM SECON CODA AMPLIT PERI AZIMU VELO AIN AR TRES W  DIS CAZ7
 BAR2 SZ IP       1214 35.24                             170   -0.1210 22.9 192 
 BAR2 SZ ES   1   1214 49.92                             170   -0.45 7 22.9 192 
 BAR2 SZ I        1214 52.98        92.0 0.30            168           22.9 192 
 BRR  HZ EP     C 1214 37.16                             152    0.1910 72.0 299 
 BRR  HE ES   1   1214 53.70                             152    0.47 7 72.0 299 
 BRR  HZ I        1215  2.05        32.7 0.12            152           72.0 299 
 PAM  SZ EP       1214 38.04                             150    0.0410 77.4  39 
 PAM  SN ES   1   1214 55.32                             150    0.26 7 77.4  39 
 PAM  SZ I        1214 57.10        18.5 0.48            152           77.4  39 
 RUS  HZ EP     D 1214 39.08                             143   -0.4410  100 176 
 RUS  HN ES   1   1214 58.12                             143    0.35 7  100 176 
 RUS  HZ I        1215  0.96        21.1 0.18            142            100 176 
 PTB  HZ EP       1214 41.95                             131   -0.92 9  148 259 
 PTB  HN ES   1   1215  2.79                             131   -0.95 7  148 259 
 PTB  HZ I        1215 10.63        52.2 0.50            131            148 259 
 TAM  HZ EP   1   1214 43.45                             130   -0.03 7  154 105 
 TAM  HZ I        1215  4.08        29.0 0.34            130            154 105 
 TAM  HN ES   1   1215  5.23                             130    0.41 7  154 105 
 OCA  HZ EP   1   1214 43.99                             129   -0.25 7  161 353 
 OCA  HN ES   1   1215  6.32                             129    0.15 7  161 353 
 OCA  HZ I        1215 10.14        36.1 0.44            130            161 353 
 ZAR  HZ EP   1   1214 47.90                             122   -0.54 6  205 292 
 ZAR  HE ES   1   1215 14.14                             122    0.49 6  205 292 
 ZAR  HZ I        1215 19.67        37.4 0.32            122            205 292 
 CHI  HZ EP       1214 53.19                             116   -0.41 8  248 195 
 CHI  HN ES   1   1215 22.37                             116   -0.47 6  248 195 
 CHI  HZ I        1215 32.32         9.8 0.24            116            248 195 
 ROSC BZ EP       1214 55.00                             116    0.95 8  253 211 
 ROSC BE ES   1   1215 24.18                             116    0.54 6  253 211 
 ROSC BZ I        1215 33.13        33.9 0.45            115            253 211 
 HEL  HZ EP   1   1214 56.93                             114    0.71 6  273 256 
 HEL  HN ES   1   1215 28.39                             114    0.89 6  273 256 
 HEL  HZ I        1215 34.27        27.4 0.40            114            273 256 
 URE  HZ EP   4   1214 55.85                             113   -1.27 0  285 292 
 URE  HN ES   4   1215 27.22                             113   -1.88 0  285 292 
 RREF HZ EP       1215  2.25                             110    0.11 7  322 230 
 RREF HN ES   1   1215 38.11                             110    0.08 5  322 230 
 RREF HZ I        1215 47.84        16.9 0.24            110            322 230 
 ANIL HZ EP   1   1215  6.14                             108    0.33 5  357 225 
 ANIL HN ES   1   1215 45.04                             108    0.48 5  357 225 
 ANIL HZ I        1215 51.36        13.5 0.40            108            357 225 
 SJC  HN ES   4   1215 50.79                             105   -4.21 0  410 327 
                                                                                
