 2016 1219 1906 27.5 L   6.770 -73.152147.5  RSN  5 0.5 1.3LRSN                1
 GAP=137        1.22       6.6     6.3  8.9 -0.3894E+01  0.6728E+01  0.2293E+01E
 Epicentro: LOS SANTOS - SANTANDER                                             3
 ACTION:UPD 17-01-11 20:16 OP:rebc STATUS:               ID:20161219190627 L   I
 OLDACT:REG 16-12-19 19:45 OP:edw  STATUS:               ID:20161219185744     3
 2016-12-19-1858-00M.COL___378                                                 6
 STAT SP IPHASW D HRMM SECON CODA AMPLIT PERI AZIMU VELO AIN AR TRES W  DIS CAZ7
 BAR2 EZ EP       19 6 47.35                             172    0.0610 20.0 190 
 BAR2 EZ ES       19 7  3.14                             172    0.4210 20.0 190 
 BAR2 EZ I        19 7  3.87         7.4 0.26            171           20.0 190 
 BRR  HZ EP       19 6 49.15                             152    0.2510 72.2 301 
 BRR  HN ES       19 7  6.20                             152    0.6110 72.2 301 
 PAM  EZ EP       19 6 50.26                             150    0.1710 80.4  38 
 PAM  EN ES       19 7  6.94                             150   -0.7710 80.4  38 
 PAM  EZ I        19 7 10.00         3.7 0.30            154           80.4  38 
 RUS  HZ EP       19 6 51.73                             145    0.5210 97.4 175 
 RUS  HN ES       19 7  9.28                             145   -0.4110 97.4 175 
 RUS  HZ I        19 7 12.01         1.6 0.30            147           97.4 175 
 PTB  HZ EP       19 6 54.02                             133   -0.48 9  146 260 
 PTB  HN ES       19 7 15.06                             133   -0.49 9  146 260 
 PTB  HZ I        19 7 22.06         2.8 0.42            133            146 260 
                                                                                
