 2011  419 1212 52.0 L   6.743 -73.102147.4  RSN  9 0.4 2.2LRSN                1
 GAP=174        0.68       6.4     6.7  5.6 -0.3006E+02  0.3473E+01  0.7826E+01E
 Epicentro: JORDAN - SANTANDER                                                 3
 ACTION:UP  11-06-22 15:31 OP:REBC STATUS:               ID:20110419121252 L   I
 2011-04-19-1211-19S.COL___139                                                 6
 STAT SP IPHASW D HRMM SECON CODA AMPLIT PERI AZIMU VELO SNR AR TRES W  DIS CAZ7
 BAR2 SZ IP       1213 11.88                             172     0.110   19 208 
 BAR2 SZ ES   2   1213 26.55                             172    -0.6 5   19 208 
 BAR2 SZ I        1213 29.87        39.9 0.32                            19 208 
 BTL  SZ EP   1   1213 11.99                             170     0.1 7   27 317 
 BTL  SZ ES   1   1213 27.66                                     0.2 7   27 317 
 GIR2 SZ EP   1   1213 12.05                             165     0.0 7   38 345 
 GIR2 SZ ES   2   1213 28.01                                     0.3 5   38 345 
 BRR  HZ EP   1   1213 13.67                             150    -0.1 7   79 301 
 BRR  HN ES   2   1213 30.70                             150     0.0 5   79 301 
 BRR  HZ I        1213 33.46        28.7 0.34                            79 301 
 PAM  SZ EP   1   1213 14.60                             150     0.1 7   80  34 
 PAM  SN ES   1   1213 32.11                             150     0.0 7   80  34 
 BRI  SZ EP   1   1213 16.47                             140     0.1 7  113  17 
 BRI  SZ ES   1   1213 35.81                             140     0.4 7  113  17 
 GRA  SZ EP   2   1213 17.62                             136    -0.2 5  130  15 
 GRA  SZ ES   1   1213 37.02                             136    -0.9 7  130  15 
 GRA  SZ I        1213 38.50        16.9 0.33                           130  15 
 NOR  SZ EP   1   1213 27.82                             118     0.0 6  235 236 
 NOR  SN ES   2   1213 55.01                             118    -0.8 4  235 236 
 HEL  HZ EP   1   1213 32.56                             115    -0.1 6  275 257 
 HEL  HN ES   2   1214  5.14                             115     0.8 4  275 257 
 HEL  HZ I        1214 10.27         6.8 0.29                           275 257 
                                                                                
