 2010 1119 1700 38.5 L   6.788 -73.018142.8  RSN  4 0.0 1.6LRSN                1
 GAP=173        0.32       2.7     4.6  4.9  0.4300E+01 -0.2980E+01 -0.3134E+01E
 Epicentro: CEPITA - SANTANDER                                                 3
 ACTION:UP  10-12-17 16:53 OP:REBC STATUS:               ID:20101119170038 L   I
 2010-11-19-1655-30S.COL___130                                                 6
 STAT SP IPHASW D HRMM SECON CODA AMPLIT PERI AZIMU VELO SNR AR TRES W  DIS CAZ7
 BAR2 SZ ES   2   17 1 12.86                             168    -0.1 5   28 220 
 BRR  HZ EP       17 1  0.09                             148     0.010   85 295 
 BRR  HN ES       17 1 17.00                             148     0.010   85 295 
 BRR  HZ I        17 1 20.08        15.8 0.25                            85 295 
 RUS  HN ES   1   17 1 20.07                             144     0.0 7   99 184 
 RUS  HZ I        17 1 21.79         4.3 0.25                            99 184 
 GRA  SZ ES   2   17 1 22.63                             137     0.0 5  124  11 
 GRA  SZ I        17 1 25.59         5.3 0.07                           124  11 
                                                                                
