 2013  619 1830 55.0 L   6.757 -73.208145.2  RSN  4 0.5 1.6LRSN                1
 GAP=226        1.02       8.3     8.6 10.1  0.3692E+02  0.1117E+02  0.2354E+01E
 Epicentro: VILLANUEVA - SANTANDER                                             3
 ACTION:UPD 14-01-08 09:55 OP:ep   STATUS:               ID:20130619183055 L   I
 OLDACT:REG 13-06-19 16:23 OP:cam  STATUS:               ID:20130619182959     3
 2013-06-19-1829-59M.COL___261                                                 6
 STAT SP IPHASW D HRMM SECON CODA AMPLIT PERI AZIMU VELO AIN AR TRES W  DIS CAZ7
 BAR2 SZ ES   1   1831 28.74                             172   -0.95 7 18.5 171 
 BRR  HZ EP       1831 15.77                             154   -0.1610 67.8 305 
 BRR  HN ES       1831 32.74                             154    0.5110 67.8 305 
 BRR  HZ I        1831 33.18         8.3 0.34            152           67.8 305 
 RUS  HZ EP   1   1831 18.83                             145    0.39 7 96.6 172 
 RUS  HN ES       1831 36.93                             145    0.2310 96.6 172 
 PTB  HZ EP   1   1831 20.80                             134   -0.46 7  140 260 
 PTB  HN ES       1831 41.67                             134   -0.06 9  140 260 
 PTB  HZ I        1831 44.82         5.7 0.12            132            140 260 
                                                                                
