 2012  519 1016 24.6 L   6.498 -73.613102.7  RSN  4 0.1 1.2LRSN                1
 GAP=134        0.33       4.4     2.2  5.3  0.8445E+00  0.3791E+01 -0.5323E+01E
 Epicentro: SANTA HELENA DEL OPON - SANTANDER                                  3
 ACTION:UP  12-07-05 12:06 OP:pat  STATUS:               ID:20120519101624 L   I
 2012-05-19-1010-00M.COL___200                                                 6
 STAT SP IPHASW D HRMM SECON CODA AMPLIT PERI AZIMU VELO SNR AR TRES W  DIS CAZ7
 BAR2 SZ EP   1   1016 40.27                             153     0.1 7   49  78 
 BAR2 SZ ES   1   1016 52.25                             153     0.0 7   49  78 
 BRR  HZ EP   1   1016 40.96                             144    -0.1 7   68 351 
 BRR  HZ I        1016 41.49         5.0 0.12                            68 351 
 RUS  HN ES   2   1016 57.95                             136    -0.1 5   89 139 
 PTB  HZ EP   1   1016 43.06                             134     0.0 7   93 273 
 PTB  HN ES   1   1016 57.58                             134     0.0 7   93 273 
 PTB  HZ I        1016 59.49         2.9 0.07                            93 273 
                                                                                
