 2011  619 1409 50.1 L   6.770 -73.077147.8  RSN  9 0.3 1.9LRSN                1
 GAP=164        0.64       3.0     5.8  4.8 -0.6828E+01  0.2359E+01  0.1324E+01E
 Epicentro: LOS SANTOS - SANTANDER                                             3
 ACTION:UP  11-07-14 19:06 OP:ep   STATUS:               ID:20110619140950 L   I
 2011-06-19-1406-28S.COL___140                                                 6
 STAT SP IPHASW D HRMM SECON CODA AMPLIT PERI AZIMU VELO SNR AR TRES W  DIS CAZ7
 BAR2 SZ EP       1410  9.83                             171    -0.110   23 211 
 BAR2 SZ ES   1   1410 25.26                             171    -0.2 7   23 211 
 BAR2 SZ I        1410 26.56        18.0 0.21                            23 211 
 BRR  HZ EP       1410 11.73                             151    -0.210   79 298 
 BRR  HE ES   1   1410 29.10                             151     0.1 7   79 298 
 BRR  HZ I        1410 31.60        24.2 0.23                            79 298 
 RUS  HZ EP   1   1410 13.68                             145    -0.1 7   97 180 
 RUS  HN ES   1   1410 32.53                             145     0.3 7   97 180 
 RUS  HZ I        1410 34.18        10.6 0.32                            97 180 
 BRI  SZ EP       1410 14.39                             142     0.210  109  16 
 BRI  SZ ES   1   1410 33.36                             142     0.3 7  109  16 
 BRI  SZ I        1410 35.96         6.8 0.18                           109  16 
 GRA  SZ EP       1410 15.67                             137     0.110  127  14 
 GRA  SZ ES   1   1410 35.04                             137    -0.5 7  127  14 
 GRA  SZ I        1410 36.38        11.6 0.38                           127  14 
 NOR  SZ EP   2   1410 25.65                             119    -0.7 4  239 236 
 CHI  HZ EP   1   1410 27.72                             118     0.0 6  248 197 
 CHI  HN ES   2   1410 57.10                             118    -0.1 4  248 197 
 CHI  HZ I        1411  1.29         5.5 0.33                           248 197 
 HEL  HZ EP   1   1410 31.73                             115     0.6 6  279 257 
 HEL  HZ I        1411  8.75         5.0 0.37                           279 257 
 PRA  HZ EP   1   1410 43.79                             107     0.0 4  393 211 
                                                                                
