 2017  219 1214 49.1 L   6.097 -73.759101.9  RSN  4 0.3 1.3LRSN                1
 GAP=124        0.41       7.1     7.5  4.7  0.3826E+02 -0.6775E+01 -0.6046E+01E
 Epicentro: EL PENON - SANTANDER                                               3
 ACTION:UPD 17-05-24 15:38 OP:jn   STATUS:               ID:20170219121449 L   I
 OLDACT:UP  17-02-19 23:22 OP:cog  STATUS:               ID:20170219120742     3
 OLDACT:UP  17-02-19 23:22 OP:cog  STATUS:               ID:20170219120742     3
 OLDACT:UP  17-02-19 23:21 OP:cog  STATUS:               ID:20170219120742     3
 OLDACT:REG 17-02-19 20:54 OP:cog  STATUS:               ID:20170219120742     3
 2017-02-19-1208-00M.COL___343                                                 6
 STAT SP IPHASW D HRMM SECON CODA AMPLIT PERI AZIMU VELO AIN AR TRES W  DIS CAZ7
 RUS  HZ EP   3   1215  6.24                             139   -0.74 2 78.2 107 
 RUS  HN ES       1215 20.86                             139   -0.0410 78.2 107 
 BAR2 EZ EP       1215  7.13                             137    0.0310 84.1  49 
 BAR2 EZ ES   3   1215 21.69                             137    0.57 2 84.1  49 
 BAR2 EZ I        1215 22.66         9.6 0.23            137           84.1  49 
 PTB  HZ EP   9   1215  5.85                             134   -1.56 0 91.3 302 
 PTB  HN ES       1215 20.02                                   -0.0910 91.3 302 
 PTB  HZ I        1215 21.44         6.3 0.10            136           91.3 302 
 CHI  HZ EP   3   1215 15.52                             117    0.51 2  162 179 
 CHI  HE ES   4   1215 33.01                             117   -2.19 0  162 179 
 CHI  HZ I        1215 36.28         1.3 0.20            117            162 179 
                                                                                
