 2011  519 1258 50.6 L   6.634 -73.089192.0  RSN  6 0.5 1.8LRSN                1
 GAP=151        1.18      10.4    19.1 17.1  0.5061E+02 -0.1818E+03 -0.8546E+02E
 Epicentro: CURITI - SANTANDER                                                 3
 ACTION:UP  11-06-29 08:54 OP:tino STATUS:               ID:20110519125850 L   I
 2011-05-19-1255-48S.COL___139                                                 6
 STAT SP IPHASW D HRMM SECON CODA AMPLIT PERI AZIMU VELO SNR AR TRES W  DIS CAZ7
 BAR2 SZ EP   2   1259 15.78                             177     0.1 5   11 246 
 BAR2 SZ ES   3   1259 34.22                             177    -1.0 2   11 246 
 RUS  HZ EP       1259 18.56                             157     0.510   82 180 
 RUS  HN ES   1   1259 39.27                             157    -0.3 7   82 180 
 RUS  HZ I        1259 40.16         5.3 0.32                            82 180 
 BRR  HZ EP       1259 16.83                             155    -0.810   86 307 
 BRR  HZ I        1259 38.26         9.4 0.43                            86 307 
 BRR  HN ES   1   1259 39.47                             155     0.8 7   86 307 
 PAM  SZ EP       1259 18.29                             154    -0.210   89  29 
 BRI  SZ EP       1259 20.33                             146     0.210  124  15 
 GRA  SZ EP       1259 21.45                             142     0.1 9  142  13 
 GRA  SZ I        1259 22.76         5.4 0.21                           142  13 
                                                                                
