 2016 1219 1805 46.5 L   6.782 -73.173144.4  RSN  9 0.4 1.9LRSN                1
 GAP=134        1.07       4.0     4.2  6.2 -0.4039E+00  0.6358E+01  0.4236E+01E
 Epicentro: LOS SANTOS - SANTANDER                                             3
 ACTION:UPD 17-01-11 20:16 OP:rebc STATUS:               ID:20161219180546 L   I
 OLDACT:REG 16-12-19 19:20 OP:edw  STATUS:               ID:20161219175747     3
 2016-12-19-1758-00M.COL___377                                                 6
 STAT SP IPHASW D HRMM SECON CODA AMPLIT PERI AZIMU VELO AIN AR TRES W  DIS CAZ7
 BAR2 EZ EP       18 6  5.93                             171   -0.0010 21.0 183 
 BAR2 EZ ES       18 6 20.48                             171   -0.6010 21.0 183 
 BAR2 EZ I        18 6 23.65        18.3 0.38            170           21.0 183 
 BRR  HZ EP       18 6  7.64                             153    0.2210 69.6 301 
 BRR  HN ES       18 6 24.66                             153    0.9310 69.6 301 
 BRR  HZ I        18 6 28.90        21.7 0.22            152           69.6 301 
 PAM  EZ EP       18 6  8.82                             149    0.0310 80.8  40 
 PAM  EE ES       18 6 25.91                             149   -0.2610 80.8  40 
 PAM  EZ I        18 6 28.26        14.8 0.66            154           80.8  40 
 RUS  HZ EP       18 6 10.16                             144    0.1510 98.9 174 
 RUS  HN ES       18 6 28.49                             144    0.1610 98.9 174 
 RUS  HZ I        18 6 29.75         7.8 0.20            146           98.9 174 
 PTB  HZ EP       18 6 13.11                             132    0.04 9  144 259 
 PTB  HN ES       18 6 33.12                             132   -0.66 9  144 259 
 PTB  HZ I        18 6 36.20         9.8 0.16            133            144 259 
 ZAR  HZ EP       18 6 18.30                             122   -0.36 9  202 293 
 ZAR  HN ES       18 6 43.76                             122    0.03 9  202 293 
 ZAR  HZ I        18 6 49.15        10.7 0.60            124            202 293 
 NOR  HZ EP       18 6 21.91                             119    0.13 8  231 234 
 NOR  HN ES       18 6 49.20                             119   -0.08 8  231 234 
 NOR  HZ I        18 6 55.09         7.2 0.58            120            231 234 
 CHI  HZ EP       18 6 23.64                             117   -0.20 8  246 195 
 CHI  HN ES       18 6 53.35                             117    0.39 8  246 195 
 CHI  HZ I        18 6 59.36         4.6 0.44            119            246 195 
 GUY2CHZ EP   9   18 6 32.29                             112    2.64 0  298 235 
 GUY2CHE ES       18 7  7.03                                    1.09 7  298 235 
 GUY2CHZ I        18 7 12.03         5.4 0.40                           298 235 
 SJC  HZ EP   4   18 6 40.10                             105   -1.93 0  409 327 
 SJC  HN ES   4   18 7 20.66                             105   -4.67 0  409 327 
                                                                                
