 2017  919 1557 50.9 L   6.796 -73.144144.7  RSN  6 0.2 1.7LRSN                1
 GAP=137        0.48       2.0     2.5  3.6 -0.6345E+00  0.3522E+01  0.1374E+01E
 Epicentro: LOS SANTOS - SANTANDER                                             3
 ACTION:UPD 17-10-05 19:14 OP:rebc STATUS:               ID:20170919155750 L   I
 OLDACT:REG 17-09-19 19:43 OP:lv   STATUS:               ID:20170919154739     3
 2017-09-19-1548-00M.COL___426                                                 6
 STAT SP IPHASW D HRMM SECON CODA AMPLIT PERI AZIMU VELO AIN AR TRES W  DIS CAZ7
 BAR2 EZ IP     D 1558 10.32                             171   -0.1010 22.9 191 
 BAR2 EZ ES       1558 25.50                             171   -0.1310 22.9 191 
 BAR2 EZ I        1558 26.88        18.1 0.18            169           22.9 191 
 PAM  EZ EP       1558 13.18                             151    0.1410 77.6  39 
 PAM  EN ES       1558 30.37                             151    0.0710 77.6  39 
 PAM  EZ I        1558 32.56        11.5 0.48            153           77.6  39 
 RUS  HZ EP       1558 14.33                             144   -0.2110  100 176 
 RUS  HN ES       1558 32.98                             144    0.0310  100 176 
 RUS  HZ I        1558 34.18         8.6 0.34            143            100 176 
 ZAR  HE ES       1558 48.77                             122    0.15 9  204 292 
 NOR  HZ EP       1558 26.42                             118   -0.16 8  235 235 
 NOR  HN ES       1558 54.25                             118   -0.14 8  235 235 
 NOR  HZ I        1558 57.77         3.2 0.16            119            235 235 
 CHI  HZ EP       1558 28.49                             117   -0.03 8  248 195 
 CHI  HE ES       1558 58.32                             117    0.48 8  248 195 
 CHI  HZ I        1559  3.34         2.4 0.38            117            248 195 
                                                                                
