 2013  919 1415 34.2 L   6.768 -73.132145.6  RSN  6 0.4 2.2LRSN                1
 GAP=236        1.05       6.4     8.3  9.0  0.1336E+02  0.3659E+02 -0.3156E+01E
 Epicentro: LOS SANTOS - SANTANDER                                             3
 ACTION:UPD 13-10-22 09:23 OP:ep   STATUS:               ID:20130919141534 L   I
 OLDACT:REG 13-09-19 17:15 OP:carl STATUS:               ID:20130919140960d    3
 2013-09-19-1409-59M.COL___269                                                 6
 STAT SP IPHASW D HRMM SECON CODA AMPLIT PERI AZIMU VELO AIN AR TRES W  DIS CAZ7
 BAR2 SZ ES       1416  8.38                             172   -0.6610 20.2 196 
 BAR2 SZ I        1416 10.34        29.7 0.40            167           20.2 196 
 BRR  HZ EP       1415 55.78                             151    0.2410 74.2 300 
 BRR  HN ES       1416 12.74                             151    0.5910 74.2 300 
 BRR  HN I        1416 13.26        66.3 0.28            149           74.2 300 
 RUS  HE ES       1416 16.37                             145    0.3410 97.0 177 
 RUS  HZ I        1416 17.23        12.6 0.22            145           97.0 177 
 PTB  HZ EP       1416  0.75                             132   -0.52 9  149 260 
 PTB  HN ES   1   1416 21.78                             132   -0.57 7  149 260 
 PTB  HZ I        1416 24.89        13.5 0.16            130            149 260 
 ZAR  HZ EP       1416  7.01                             122    0.06 8  207 293 
 ZAR  HN ES   1   1416 32.40                             122   -0.07 6  207 293 
 ZAR  HZ I        1416 38.22        13.2 0.34            122            207 293 
 NOR  HE ES       1416 37.98                             119    0.31 8  234 235 
 NOR  HZ I        1416 42.10        10.5 0.20            118            234 235 
                                                                                
