 2013  919 1326 42.2 L   6.793 -73.151150.1  RSN  8 0.4 2.2LRSN                1
 GAP=196        1.06       4.5     6.6  6.9 -0.2723E+01  0.9439E+01  0.7201E+01E
 Epicentro: LOS SANTOS - SANTANDER                                             3
 ACTION:UPD 13-10-22 09:23 OP:ep   STATUS:               ID:20130919132642 L   I
 OLDACT:REG 13-09-19 17:14 OP:carl STATUS:               ID:20130919131960d    3
 2013-09-19-1319-59M.COL___269                                                 6
 STAT SP IPHASW D HRMM SECON CODA AMPLIT PERI AZIMU VELO AIN AR TRES W  DIS CAZ7
 BAR2 SZ EP       1327  2.31                             171   -0.0610 22.5 189 
 BAR2 SZ ES       1327 17.56                             171   -0.5210 22.5 189 
 BAR2 SZ I        1327 19.04        22.8 0.44            165           22.5 189 
 BRR  HZ EP       1327  4.29                             153    0.4410 71.1 299 
 BRR  HN ES       1327 21.73                             153    1.0210 71.1 299 
 BRR  HZ I        1327 23.82        17.7 0.20            150           71.1 299 
 PTB  HZ EP       1327  8.95                             133   -0.55 9  147 259 
 PTB  HN ES   1   1327 30.47                             133   -0.29 7  147 259 
 PTB  HZ I        1327 33.59        16.3 0.18            131            147 259 
 OCA  HN ES   1   1327 32.80                             130   -0.55 7  161 353 
 SPBC HZ EP       1327 11.06                             130    0.08 9  162 219 
 SPBC HE ES       1327 33.35                             130   -0.05 9  162 219 
 SPBC HZ I        1327 40.33        22.5 0.36            129            162 219 
 ZAR  HZ EP       1327 15.06                             123    0.12 9  204 292 
 ZAR  HN ES       1327 40.00                             123   -0.46 9  204 292 
 ZAR  HZ I        1327 45.80        18.0 0.44            123            204 292 
 NOR  HZ EP       1327 18.40                             119    0.28 8  234 235 
 NOR  HN ES       1327 45.90                             119   -0.22 8  234 235 
 NOR  HZ I        1327 53.52        12.6 0.24            119            234 235 
 PRA  HZ EP       1327 35.90                             107    0.11 6  391 210 
 PRA  HN ES       1328 17.97                             107    0.40 6  391 210 
 PRA  HZ I        1328 23.93         7.3 0.38            108            391 210 
                                                                                
