 2011  519 1810  1.5 L   6.728 -73.080145.4  RSN  4 0.2 1.5LRSN                1
 GAP=148        0.46       4.5     6.6  7.3  0.4853E+01 -0.1678E+02 -0.1997E+01E
 Epicentro: JORDAN - SANTANDER                                                 3
 ACTION:UP  11-06-29 08:54 OP:tino STATUS:               ID:20110519181001 L   I
 2011-05-19-1807-42S.COL___138                                                 6
 STAT SP IPHASW D HRMM SECON CODA AMPLIT PERI AZIMU VELO SNR AR TRES W  DIS CAZ7
 BAR2 SZ EP       1810 21.05                             172     0.110   19 217 
 BAR2 SZ ES   2   1810 35.79                             172    -0.4 5   19 217 
 BAR2 SZ I        1810 39.05         7.1 0.69                            19 217 
 PAM  SZ EP       1810 23.85                             150     0.110   80  32 
 BRR  HZ EP       1810 23.14                             149    -0.110   81 301 
 BRR  HZ I        1810 30.77        14.4 0.36                            81 301 
 BRR  HN ES   2   1810 40.27                             149     0.1 5   81 301 
 RUS  HZ EP       1810 24.57                             146     0.010   92 180 
 RUS  HN ES   3   1810 43.50                             146     0.8 2   92 180 
 RUS  HZ I        1810 45.35         2.4 0.38                            92 180 
                                                                                
