 2013  619 1306 22.1 L   7.419 -73.218119.6  RSN  8 0.5 2.2LRSN                1
 GAP=207        1.09       5.0     6.9  7.1  0.1957E+02  0.6563E+01 -0.4968E+01E
 Epicentro: EL PLAYON - SANTANDER                                              3
 ACTION:UPD 14-01-08 09:55 OP:ep   STATUS:               ID:20130619130622 L   I
 OLDACT:REG 13-06-19 15:47 OP:cam  STATUS:               ID:20130619125959     3
 2013-06-19-1259-59M.COL___261                                                 6
 STAT SP IPHASW D HRMM SECON CODA AMPLIT PERI AZIMU VELO AIN AR TRES W  DIS CAZ7
 GIR2 SZ EP       13 6 39.23                             161    0.3610 37.7 176 
 GIR2 SZ I        13 6 39.69        36.3 0.18            157           37.7 176 
 GIR2 SZ ES       13 6 52.27                             161    0.3010 37.7 176 
 BRR  HZ EP     C 13 6 40.07                             150    0.0410 64.5 238 
 BRR  HN ES       13 6 54.04                             150    0.0110 64.5 238 
 BRR  HZ I        13 6 54.57        96.1 0.12            145           64.5 238 
 BAR2 SZ IP     C 13 6 42.60                             140    0.3410 91.5 178 
 BAR2 SZ ES       13 6 57.55                             140   -0.4610 91.5 178 
 BAR2 SZ I        13 6 59.37        95.4 0.39            135           91.5 178 
 PTB  HZ EP       13 6 48.14                             121   -0.95 9  168 235 
 PTB  HN ES   4   13 7  8.23                             121   -1.94 0  168 235 
 PTB  HZ I        13 7 13.57        15.9 0.14            118            168 235 
 RUS  HZ EP   1   13 6 49.98                             122    0.11 7  169 175 
 RUS  HN ES       13 7 11.34                             122   -0.21 9  169 175 
 RUS  HZ I        13 7 25.62         2.8 0.22            118            169 175 
 SML  HZ EP   1   13 6 50.76                             120    0.48 7  180 328 
 SML  HN ES       13 7 11.49                             120   -0.81 9  180 328 
 SML  HZ I        13 7 18.10        34.0 0.10            117            180 328 
 ZAR  HZ EP       13 6 50.92                             119    0.43 9  181 273 
 ZAR  HN ES       13 7 13.16                             119    0.50 9  181 273 
 ZAR  HZ I        13 7 16.69        34.0 0.24            116            181 273 
 NOR  HZ EP   1   13 7  0.97                             109   -0.02 6  275 222 
 HEL  HZ EP   4   13 7  4.79                             108    1.71 0  289 242 
                                                                                
