 2015  119 1307 10.7 L   6.784 -73.133146.0  RSN 11 0.4 2.0LRSN                1
 GAP=139        0.79       3.3     3.9  5.5 -0.2109E+01  0.7536E+00  0.6047E+01E
 Epicentro: LOS SANTOS - SANTANDER                                             3
 ACTION:UPD 15-03-02 15:40 OP:nd   STATUS:               ID:20150119130710 L   I
 OLDACT:REG 15-01-19 20:00 OP:spq  STATUS:               ID:20150119125745     3
 2015-01-19-1257-45M.COL___262                                                 6
 STAT SP IPHASW D HRMM SECON CODA AMPLIT PERI AZIMU VELO AIN AR TRES W  DIS CAZ7
 BAR2 EZ EP       13 7 30.06                             171   -0.2310 21.9 195 
 BAR2 EZ ES   1   13 7 45.32                             171   -0.28 7 21.9 195 
 BAR2 EZ I        13 7 46.90        22.6 0.16            167           21.9 195 
 BRR  HZ EP       13 7 31.95                             152   -0.0010 73.3 299 
 BRR  HN ES       13 7 49.17                             152    0.6110 73.3 299 
 BRR  HZ I        13 7 52.46        19.7 0.28            149           73.3 299 
 PAM  SZ EP       13 7 33.08                             151    0.1510 77.9  38 
 PAM  SN ES   1   13 7 50.20                             151   -0.10 7 77.9  38 
 PAM  SZ I        13 7 52.34        18.6 0.52            157           77.9  38 
 RUS  HZ EP       13 7 34.07                             145   -0.2310 98.7 177 
 RUS  HN ES   1   13 7 52.99                             145    0.25 7 98.7 177 
 RUS  HZ I        13 7 54.44        11.8 0.24            145           98.7 177 
 PTB  HN ES   1   13 7 58.07                             132   -0.80 7  149 260 
 PTB  HZ I        13 8  3.99         7.2 0.62            131            149 260 
 SPBC HZ EP       13 7 39.06                             129   -0.07 9  163 220 
 SPBC HN ES       13 8  1.78                             129    0.44 9  163 220 
 SPBC HZ I        13 8  5.69        23.2 0.42            129            163 220 
 ZAR  HN ES   1   13 8  8.30                             122   -0.50 6  206 292 
 ZAR  HZ I        13 8 14.55        10.6 0.76            122            206 292 
 NOR  HZ EP   1   13 7 46.13                             119   -0.29 6  235 235 
 NOR  HE ES   1   13 8 14.45                             119    0.14 6  235 235 
 NOR  HZ I        13 8 20.19         4.9 0.16            119            235 235 
 CHI  HZ EP       13 7 48.30                             117    0.08 8  247 196 
 CHI  HN ES       13 8 17.31                             117   -0.21 8  247 196 
 CHI  HZ I        13 8 21.85         5.1 0.80            119            247 196 
 RREF HZ EP   1   13 7 57.55                             111    0.75 5  322 230 
 RREF HE ES   4   13 8 35.62                             111    2.83 0  322 230 
 RREF HZ I        13 8 41.89         6.0 0.70            112            322 230 
 SJC  HZ EP   4   13 8  4.24                             106   -2.26 0  412 327 
 SJC  HE ES   4   13 8 44.93                             106   -5.12 0  412 327 
 SJC  HZ I        13 8 49.11         4.0 0.86            107            412 327 
                                                                                
