 2014 1019 1227  2.7 L   6.827 -73.153150.0  RSN 18 0.5 2.8LRSN                1
 GAP= 70        1.12       2.7     3.3  5.1 -0.2109E+00  0.2263E+01 -0.2248E+00E
 Epicentro: LOS SANTOS - SANTANDER                                             3
 ACTION:UPD 14-11-29 23:51 OP:nd   STATUS:               ID:20141019122702 L   I
 OLDACT:UP  14-10-20 00:55 OP:cam  STATUS:               ID:20141019122644     3
 OLDACT:REG 14-10-20 00:47 OP:cam  STATUS:               ID:20141019122644     3
 2014-10-19-1226-44M.COL___268                                                 6
 STAT SP IPHASW D HRMM SECON CODA AMPLIT PERI AZIMU VELO AIN AR TRES W  DIS CAZ7
 BAR2 SZ IP     C 1227 23.02                             170    0.1210 26.2 187 
 BAR2 SZ ES       1227 37.94                             170   -0.7210 26.2 187 
 BAR2 SZ I        1227 39.45       148.2 0.40            166           26.2 187 
 BRR  HZ EP       1227 24.69                             154    0.4910 69.1 297 
 BRR  HN ES       1227 42.13                             154    1.1610 69.1 297 
 BRR  HZ I        1227 45.33        61.3 0.18            147           69.1 297 
 PAM  SZ EP     C 1227 25.76                             152    0.4910 75.6  41 
 PAM  SN ES       1227 42.98                             152    0.1110 75.6  41 
 PAM  SZ I        1227 45.15       101.5 0.56            153           75.6  41 
 RUS  HZ EP       1227 26.89                             144   -0.2010  104 176 
 RUS  HN ES       1227 45.81                             144   -0.3010  104 176 
 RUS  HZ I        1227 46.82        58.5 0.32            141            104 176 
 PTB  HZ EP       1227 29.64                             133   -0.37 9  148 258 
 PTB  HN ES       1227 50.90                             133   -0.40 9  148 258 
 PTB  HZ I        1227 52.67        76.0 0.48            127            148 258 
 OCA  HZ EP       1227 31.19                             131    0.13 9  157 353 
 OCA  HN ES       1227 52.79                             131   -0.40 9  157 353 
 OCA  HZ I        1227 58.59        92.7 0.30            128            157 353 
 TAM  HZ IP     C 1227 31.29                             131    0.43 9  157 106 
 TAM  HE ES       1227 52.72                             131   -0.10 9  157 106 
 TAM  HZ I        1227 53.51        52.6 0.68            131            157 106 
 SPBC HZ EP       1227 31.86                             130    0.16 9  165 218 
 SPBC HN ES       1227 53.84                             130   -0.48 9  165 218 
 SPBC HZ I        1228  1.16        74.4 0.30            125            165 218 
 ZAR  HZ EP       1227 35.56                             124    0.32 9  202 291 
 ZAR  HN ES       1228  1.00                             124    0.38 9  202 291 
 ZAR  HZ I        1228  6.92        60.5 0.44            119            202 291 
 SML  HZ EP       1227 39.37                             119    0.13 8  241 335 
 SML  HN ES       1228  7.27                             119   -0.48 8  241 335 
 SML  HZ I        1228 11.18        62.9 0.24            115            241 335 
 CHI  HZ EP       1227 41.07                             118    0.14 8  251 195 
 CHI  HN ES       1228 10.65                             118   -0.09 8  251 195 
 CHI  HZ I        1228 17.65        25.9 0.50            114            251 195 
 ROSC BZ EP   4   1227 42.68                             117    1.39 0  255 211 
 ROSC BN ES       1228 11.81                             117    0.42 8  255 211 
 ROSC BZ I        1228 21.57        47.0 0.40            114            255 211 
 HEL  HZ EP   4   1227 44.24                             116    1.11 0  272 255 
 HEL  HZ I        1228 22.92        35.9 0.42            112            272 255 
 URE  HZ EP       1227 42.73                             115   -1.05 7  282 291 
 URE  HN ES   4   1228 14.18                             115   -1.64 0  282 291 
 URE  HZ I        1228 25.83        31.3 0.24            111            282 291 
 PTGC HZ EP   4   1227 45.82                             112   -1.27 0  312 159 
 RREF HZ EP   4   1227 46.62                             112   -2.57 0  323 229 
 MON  HZ EP   4   1227 50.25                             109   -1.34 0  351 308 
 SDV  BZ EP       1227 52.25                             109   -0.50 6  359  51 
 PRA  HZ EP       1227 56.67                             107    0.04 6  394 209 
 ORTC HZ EP       1227 57.39                             107    0.39 6  397 216 
 SJC  HZ EP       1227 57.36                             106   -0.70 6  406 327 
                                                                                
