 2010  919 1037 22.1 L   6.820 -73.075144.8  RSN 19 0.4 3.4LRSN                1
 GAP=131        1.04       3.6     5.4  6.2 -0.8161E+01  0.5553E+01  0.2290E+01E
 Epicentro: LOS SANTOS - SANTANDER                                             3
 ACTION:UP  11-02-18 11:03 OP:tino STATUS:               ID:20100919103722 L   I
 2010-09-19-1035-48S.COL___121                                                 6
 STAT SP IPHASW D HRMM SECON CODA AMPLIT PERI AZIMU VELO SNR AR TRES W  DIS CAZ7
 BTL  SZ EP       1037 41.83                             170     0.210   24 297 
 BAR2 SZ IP       1037 41.75                             169     0.010   28 206 
 BAR2 SZ ES   1   1037 56.60                             169    -0.4 7   28 206 
 BAR2 SZ I        1037 58.13       580.6 0.21                            28 206 
 GIR2 SZ EP       1037 41.76                             167     0.110   31 335 
 BRR  HZ IP     C 1037 43.56                             150     0.010   77 294 
 BRR  HN ES   1   1038  0.46                             150     0.3 7   77 294 
 BRR  HZ I        1038  2.16       321.0 0.07                            77 294 
 RUS  HZ IP     C 1037 45.73                             143    -0.210  103 181 
 RUS  HN ES   1   1038  4.39                             143    -0.1 7  103 181 
 RUS  HZ I        1038  5.91       218.6 0.14                           103 181 
 GUE  SZ EP       1037 46.81                             140     0.410  113   8 
 GRA  SZ IP       1037 47.57                             138     0.710  121  14 
 GRA  SZ ES   1   1038  6.21                             138    -0.1 7  121  14 
 GRA  SZ I        1038  8.20       238.6 0.32                           121  14 
 OCA  SZ EP       1037 50.12                             129    -0.1 9  159 350 
 OCA  SZ ES   1   1038 11.45                             129    -0.7 7  159 350 
 OCA  SZ I        1038 15.27       359.1 0.19                           159 350 
 NOR  HZ EP       1037 57.72                             117    -0.9 8  243 235 
 CHI  HZ EP   1   1037 59.76                             116    -0.5 6  253 197 
 CHI  HE ES   1   1038 29.37                             116    -0.6 6  253 197 
 CHI  HZ I        1038 36.72       128.0 0.81                           253 197 
 ROSC BZ EP   1   1038  1.59                             116     0.8 6  259 212 
 ROSC BN ES   1   1038 31.61                             116     0.6 6  259 212 
 ROSC BZ I        1038 38.60       139.8 0.29                           259 212 
 CVER SZ EP   1   1038  3.23                             114     0.2 6  277 204 
 CVER SZ I        1038 45.63       189.0 0.66                           277 204 
 HEL  HZ EP       1038  2.67                             114    -0.5 7  280 256 
 HEL  HN ES       1038 35.89                             114     0.7 7  280 256 
 HEL  HZ I        1038 42.52       124.4 0.19                           280 256 
 GUY  SZ EP   1   1038  6.46                             112    -0.1 5  309 235 
 GUY  SZ I        1038 50.73       390.7 0.68                           309 235 
 RREF HZ EP   1   1038  8.56                             110    -0.5 5  329 230 
 RREF HZ I        1038 55.89       167.0 0.29                           329 230 
 DBB  SZ EP   1   1038  9.69                             109    -0.7 5  347 274 
 TOL  SZ EP   1   1038 11.12                             109     0.0 5  351 225 
 SDV  BZ EP       1038 11.38                             108     0.1 6  353  50 
 SDV  BZ I        1038 12.20        66.8 0.53                           353  50 
 ANIL HZ EP   1   1038 12.86                             108     0.2 5  364 225 
 ANIL HN ES   1   1038 52.64                             108     0.5 5  364 225 
 ANIL HZ I        1038 56.71       285.3 0.33                           364 225 
                                                                                
