 2010 1219 1517 28.1 L   6.810 -73.082139.7  RSN  6 0.3 1.8LRSN                1
 GAP=189        0.61       3.0     8.3  6.3 -0.4955E+01  0.2499E+02 -0.1550E+01E
 Epicentro: LOS SANTOS - SANTANDER                                             3
 ACTION:UP  11-01-14 15:26 OP:pat  STATUS:               ID:20101219151728 L   I
 2010-12-19-1514-42S.COL___133                                                 6
 STAT SP IPHASW D HRMM SECON CODA AMPLIT PERI AZIMU VELO SNR AR TRES W  DIS CAZ7
 BAR2 SZ EP   2   1517 47.12                             169     0.1 5   27 205 
 BAR2 SZ ES   1   1518  1.96                             169     0.1 7   27 205 
 BAR2 SZ I        1518  3.63        18.6 0.09                            27 205 
 RUS  HZ EP   1   1517 51.19                             142    -0.1 7  101 180 
 RUS  HN ES   1   1518  9.12                             142    -0.3 7  101 180 
 RUS  HZ I        1518 11.74         7.4 0.33                           101 180 
 OCA  SZ EP   1   1517 56.17                             128     0.3 7  160 351 
 OCA  SZ ES   1   1518 17.47                             128    -0.1 7  160 351 
 OCA  SZ I        1518 22.00         7.2 0.17                           160 351 
 CHI  HZ EP   1   1518  5.96                             115     0.2 6  252 197 
 CHI  HZ I        1518  6.69         2.5 0.14                           252 197 
 CHI  HN ES   2   1518 35.84                             115     0.7 4  252 197 
 HEL  HZ EP   2   1518  8.73                             113     0.0 4  279 256 
 HEL  HZ I        1518 46.83         4.6 0.48                           279 256 
 RREF HZ EP   1   1518 13.93                             109    -0.7 5  328 230 
 RREF HE ES   1   1518 51.17                             109     0.2 5  328 230 
 RREF HZ I        1518 59.58         4.0 0.18                           328 230 
                                                                                
