 2014  519 1533 44.3 L   6.789 -73.151146.8  RSN  5 0.5 1.9LRSN                1
 GAP=190        1.25      19.4    11.8 15.6 -0.1925E+03 -0.1020E+03  0.2306E+03E
 Epicentro: LOS SANTOS - SANTANDER                                             3
 ACTION:UPD 15-03-16 16:59 OP:nd   STATUS:               ID:20140519153344 L   I
 OLDACT:REG 14-05-19 23:25 OP:cam  STATUS:               ID:20140519153000     3
 2014-05-19-1530-00M.COL___252                                                 6
 STAT SP IPHASW D HRMM SECON CODA AMPLIT PERI AZIMU VELO AIN AR TRES W  DIS CAZ7
 BRR  HZ EP       1534  5.99                             152    0.4710 71.3 300 
 BRR  HN ES       1534 22.60                             152    0.4910 71.3 300 
 BRR  HZ I        1534 24.23        17.2 0.52            156           71.3 300 
 PAM  SZ EP     C 1534  7.02                             150    0.3610 78.7  39 
 PAM  SN ES       1534 23.66                             150   -0.4810 78.7  39 
 PAM  SZ I        1534 26.10        13.1 0.58            155           78.7  39 
 PTB  HZ EP       1534 10.61                             132   -0.62 9  147 259 
 PTB  HN ES       1534 31.60                             132   -0.68 9  147 259 
 PTB  HZ I        1534 34.43        12.8 0.14            135            147 259 
 NOR  HZ EP   1   1534 20.26                             119    0.35 6  233 235 
 NOR  HN ES       1534 48.36                             119    0.63 8  233 235 
 NOR  HZ I        1534 49.78         6.0 0.14            121            233 235 
 GUY2CHZ EP   4   1534 29.57                             113    1.80 0  300 235 
 RREF HZ IP     C 1534 29.75                             111   -0.55 7  321 229 
                                                                                
