 2010  319 1042  7.9 L   6.843 -73.039142.0  RSN 11 0.4 2.8LRSN                1
 GAP=133        0.92       4.1     6.7  6.3 -0.5217E+01 -0.2709E+00 -0.1073E+01E
 Epicentro: CEPITA - SANTANDER                                                 3
 ACTION:UP  10-08-24 09:54 OP:vdl  STATUS:               ID:20100319104207 L   I
 2010-03-19-1038-22S.COL___098                                                 6
 STAT SP IPHASW D HRMM SECON CODA AMPLIT PERI AZIMU VELO SNR AR TRES W  DIS CAZ7
 BAR2 SZ IP       1042 27.49                             167     0.210   32 210 
 BAR2 SZ ES   1   1042 41.92                             167    -0.5 7   32 210 
 BRR  HZ IP       1042 29.30                             149     0.110   80 292 
 BRR  HZ I        1042 29.96       116.8 0.13                            80 292 
 BRR  HN ES   1   1042 46.30                             149     0.5 7   80 292 
 RUS  HZ EP   1   1042 31.59                             142     0.0 7  105 183 
 RUS  HN ES   1   1042 49.85                             142    -0.3 7  105 183 
 RUS  HZ I        1042 52.03        44.9 0.18                           105 183 
 OCA  SZ IP       1042 35.38                             129    -0.3 9  157 349 
 OCA  SZ ES   2   1042 57.45                             129     0.1 5  157 349 
 OCA  SZ I        1043  5.84        93.6 0.25                           157 349 
 CHI  HZ IP       1042 46.00                             116    -0.3 8  256 197 
 CHI  HE ES   2   1043 16.45                             116     0.3 4  256 197 
 CHI  HZ I        1043 18.37        17.1 0.42                           256 197 
 ROSC BE ES   2   1043 17.97                             115     0.6 4  263 213 
 ROSC BZ I        1043 22.89        32.4 0.28                           263 213 
 RREF BZ EP   1   1042 55.63                             109     0.4 5  334 230 
 RREF BN ES   1   1043 33.00                             109     0.8 5  334 230 
 RREF BZ I        1043 39.07        22.1 0.18                           334 230 
 SDV  BZ IP       1042 57.02                             108     0.6 6  348  50 
 SDV  BZ I        1042 58.08        31.7 0.11                           348  50 
 DBB  SZ IP       1042 55.63                             108    -0.9 6  351 273 
 TOL  SZ EP   2   1042 56.86                             108    -0.5 3  355 225 
 ANIL BZ EP   2   1042 58.76                             107    -0.2 3  369 225 
 ANIL BZ I        1043 45.01        39.5 0.39                           369 225 
                                                                                
