 2017 1119 1024 40.4 L   6.459 -73.507110.8  RSN  4 0.3 1.2LRSN                1
 GAP=169        0.96       6.4     4.8  8.6 -0.2930E+01  0.1844E+02 -0.5002E+01E
 Epicentro: SANTA HELENA DEL OPON - SANTANDER                                  3
 ACTION:UPD 17-12-12 19:57 OP:rebc STATUS:               ID:20171119102440 L   I
 OLDACT:DUP 17-11-19 20:59 OP:lv   STATUS:               ID:20171119101740d    3
 OLDACT:REG 17-11-19 20:02 OP:lv   STATUS:               ID:20171119101739     3
 2017-11-19-1018-00M.COL___465                                                 6
 STAT SP IPHASW D HRMM SECON CODA AMPLIT PERI AZIMU VELO AIN AR TRES W  DIS CAZ7
 BAR2 EZ EP       1024 56.85                             158    0.4310 38.8  68 
 BAR2 EZ ES       1025  8.61                             158   -0.2710 38.8  68 
 BAR2 EZ I        1025 10.75        11.2 0.48            160           38.8  68 
 PTB  HZ EP   9   1024 59.55                             132   -1.16 0  105 275 
 PTB  HN ES       1025 14.72                             131   -0.6410  105 275 
 PTB  HZ I        1025 18.09         1.2 0.16            134            105 275 
 NOR  HN ES       1025 30.05                             115   -0.02 9  180 237 
 ZAR  HZ EP       1025  8.72                             114   -0.37 9  188 308 
 ZAR  HE ES       1025 31.63                             114    0.19 9  188 308 
 ZAR  HZ I        1025 33.33         1.8 0.30            116            188 308 
                                                                                
