 2017 1019 1650 21.4 L   6.755 -73.197136.0  RSN  5 0.2 1.0LRSN                1
 GAP=132        0.68       3.5     3.1  5.7 -0.3373E+00  0.5642E+01 -0.2111E+01E
 Epicentro: VILLANUEVA - SANTANDER                                             3
 ACTION:UPD 17-11-07 19:33 OP:rebc STATUS:               ID:20171019165021 L   I
 OLDACT:UP  17-10-20 00:48 OP:edw  STATUS:               ID:20171019164736     3
 OLDACT:REG 17-10-19 20:14 OP:edw  STATUS:               ID:20171019164736     3
 2017-10-19-1648-00M.COL___446                                                 6
 STAT SP IPHASW D HRMM SECON CODA AMPLIT PERI AZIMU VELO AIN AR TRES W  DIS CAZ7
 BAR2 EZ EP       1650 39.78                             172    0.0410 18.1 175 
 BAR2 EZ ES       1650 54.29                             172    0.2410 18.1 175 
 BAR2 EZ I        1650 55.54         2.8 0.48            172           18.1 175 
 PAM  EZ EP       1650 42.70                             146   -0.3510 84.8  40 
 PAM  EN ES       1651  0.01                             146    0.0610 84.8  40 
 PAM  EZ I        1651  0.41         1.6 0.24            151           84.8  40 
 RUS  HZ EP       1650 44.31                             143    0.4510 96.2 172 
 RUS  HE ES       1651  1.03                             143   -0.3610 96.2 172 
 PTB  HZ EP       1650 46.98                             131    0.01 9  141 260 
 PTB  HN ES       1651  6.79                             131   -0.14 9  141 260 
 PTB  HZ I        1651 13.47         1.8 0.24            131            141 260 
 ZAR  HN ES       1651 17.48                             121    0.06 9  201 294 
                                                                                
