 2010 1019 1222 11.4 L   6.763 -73.122137.3  RSN  8 0.5 2.1LRSN                1
 GAP=162        1.10       4.9    11.3  8.6 -0.9616E+01 -0.4333E+01  0.1791E+01E
 Epicentro: LOS SANTOS - SANTANDER                                             3
 ACTION:UP  11-02-18 11:10 OP:tino STATUS:               ID:20101019122211 L   I
 2010-10-19-1220-18S.COL___123                                                 6
 STAT SP IPHASW D HRMM SECON CODA AMPLIT PERI AZIMU VELO SNR AR TRES W  DIS CAZ7
 BAR2 SZ EP   1   1222 29.71                             171    -0.3 7   20 200 
 BAR2 SZ ES   1   1222 44.02                             171    -0.4 7   20 200 
 BAR2 SZ I        1222 46.01        31.9 0.42                            20 200 
 BRR  HZ IP     D 1222 31.58                             150    -0.410   76 300 
 BRR  HZ I        1222 31.78        52.5 0.19                            76 300 
 BRR  HE ES   1   1222 48.57                             150     0.6 7   76 300 
 RUS  HZ EP       1222 34.30                             143     0.210   96 177 
 RUS  HN ES   1   1222 51.66                             143     0.0 7   96 177 
 RUS  HZ I        1222 53.90         9.6 0.29                            96 177 
 GRA  SZ IP     C 1222 36.68                             134     0.510  129  16 
 GRA  SZ ES   1   1222 55.80                             134     0.3 7  129  16 
 GRA  SZ I        1222 59.14        11.5 0.38                           129  16 
 OCA  SZ EP   1   1222 38.50                             127    -1.0 7  165 352 
 OCA  SZ I        1223  4.94        15.1 0.24                           165 352 
 CHI  HZ EP   1   1222 48.16                             116    -0.2 6  245 196 
 CHI  HN ES   2   1223 17.56                             116     0.5 4  245 196 
 CHI  HZ I        1223 28.40         4.5 0.30                           245 196 
 TOL  SZ EP   2   1222 59.94                             108     0.7 3  342 225 
 PRA  HZ EP   1   1223  4.63                             105     0.2 4  390 210 
 PRA  HZ I        1223  5.41        10.1 0.03                           390 210 
                                                                                
