 2012  219 1029  9.4 L   6.769 -73.163142.9  RSN  9 0.3 1.9LRSN                1
 GAP=136        0.47       3.5     3.5  4.7 -0.1146E+01  0.4369E+01 -0.9893E+00E
 ACTION:UP  12-03-07 16:32 OP:epov STATUS:               ID:20120219102909 L   I
 2012-02-19-1026-00S.MAN___184                                                 6
 STAT SP IPHASW D HRMM SECON CODA AMPLIT PERI AZIMU VELO AIN AR TRES W  DIS CAZ7
 BAR2 SZ EP   1   1029 28.62                             172   -0.02 7 19.6 186 
 BAR2 SZ ES   1   1029 43.79                             172    0.16 7 19.6 186 
 BAR2 SZ I        1029 44.80        36.8 0.19                          19.6 186 
 BRR  HZ EP   1   1029 30.52                             152    0.26 7 71.2 302 
 PAM  SZ EP   1   1029 31.42                             149   -0.15 7 81.3  39 
 RUS  HZ EP   1   1029 32.49                             144   -0.17 7 97.3 175 
 RUS  HN ES   1   1029 50.77                             144   -0.01 7 97.3 175 
 RUS  HZ I        1029 52.37         8.9 0.35                          97.3 175 
 PTB  HE ES   2   1029 55.79                             132   -0.81 5  145 260 
 ZAR  HN ES   2   1030  7.07                             122    0.31 4  204 293 
 ZAR  HZ I        1030 13.22         6.4 0.35                           204 293 
 NOR  SZ EP   1   1029 44.40                             118   -0.20 6  231 235 
 NOR  SN ES   1   1030 12.29                             118    0.25 6  231 235 
 CHI  HZ EP   2   1029 46.48                             117   -0.06 4  245 195 
 CHI  HZ I        1030 22.06         3.0 0.38                           245 195 
 PRA  HZ EP   1   1030  2.74                             106    0.36 4  388 210 
                                                                                
