 2011 1119 1641 11.5 L   6.766 -73.100146.9  RSN  4 0.3 1.2LRSN                1
 GAP=144        0.54       4.5     5.8  6.0 -0.1877E+01 -0.3095E+01  0.3797E+01E
 Epicentro: LOS SANTOS - SANTANDER                                             3
 ACTION:UPD 12-07-13 16:11 OP:ep   STATUS:               ID:20111119164111 L   I
 2011-11-19-1638-20S.COL___178                                                 6
 STAT SP IPHASW D HRMM SECON CODA AMPLIT PERI AZIMU VELO AIN AR TRES W  DIS CAZ7
 BAR2 SZ EP   1   1641 31.15                             171   -0.12 7 21.2 205 
 BAR2 SZ ES   1   1641 46.23                             171   -0.43 7 21.2 205 
 BAR2 SZ I        1641 47.68        10.4 0.16                          21.2 205 
 PAM  SZ EP   1   1641 34.04                             151    0.16 7 77.3  35 
 PAM  SZ I        1641 34.21         1.7 0.15                          77.3  35 
 PAM  SN ES   1   1641 51.32                             151    0.02 7 77.3  35 
 BRR  HZ EP   1   1641 33.12                             151   -0.06 7 77.5 299 
 BRR  HN ES   1   1641 50.24                             151    0.19 7 77.5 299 
 RUS  HZ EP   1   1641 35.05                             145   -0.07 7 96.6 179 
 RUS  HN ES   2   1641 54.20                             145    0.68 5 96.6 179 
 RUS  HZ I        1641 54.97         2.1 0.28                          96.6 179 
                                                                                
