 2015  419 1203 51.2 L   6.818 -73.116140.8  RSN  8 0.6 2.0LRSN                1
 GAP=186        1.41       4.8     7.5  9.5  0.5464E+01  0.9683E+01 -0.1172E+02E
 Epicentro: LOS SANTOS - SANTANDER                                             3
 ACTION:UPD 15-06-03 16:56 OP:cam  STATUS:               ID:20150419120351 L   I
 OLDACT:REG 15-04-20 00:34 OP:carl STATUS:               ID:20150419115748     3
 2015-04-19-1157-48M.COL___271                                                 6
 STAT SP IPHASW D HRMM SECON CODA AMPLIT PERI AZIMU VELO AIN AR TRES W  DIS CAZ7
 BAR2 EZ IP     C 12 4 10.79                             169    0.5410 26.0 196 
 BAR2 EZ ES       12 4 25.42                             169    0.2810 26.0 196 
 BAR2 EZ I        12 4 27.05        17.6 0.22            165           26.0 196 
 BRR  HZ IP     C 12 4 12.53                             151    0.6410 73.2 296 
 BRR  HN ES       12 4 28.35                             151    0.3010 73.2 296 
 BRR  HZ I        12 4 33.24        14.3 0.42            147           73.2 296 
 RUS  HZ EP       12 4 14.82                             142    0.2610  102 178 
 RUS  HN ES       12 4 32.00                             142   -0.8110  102 178 
 RUS  HZ I        12 4 34.81        10.5 0.26            144            102 178 
 PTB  HZ EP       12 4 17.42                             130   -0.64 9  151 258 
 PTB  HN ES       12 4 38.44                             130   -0.60 9  151 258 
 PTB  HZ I        12 4 45.55         8.1 0.18            129            151 258 
 OCA  HN ES       12 4 40.44                             129   -0.16 9  159 352 
 OCA  HZ I        12 4 44.93        25.8 0.16            131            159 352 
 SPBC HN ES       12 4 41.68                             127   -0.16 9  167 219 
 SPBC HZ I        12 4 52.37        21.6 0.20            127            167 219 
 ZAR  HZ EP       12 4 24.34                             121    0.82 8  206 291 
 ZAR  HN ES       12 4 49.41                             121    0.64 8  206 291 
 ZAR  HZ I        12 4 55.74         8.8 0.20            121            206 291 
 SML  HZ EP       12 4 26.95                             116   -0.51 8  243 334 
 SML  HN ES       12 4 54.82                             116   -0.96 8  243 334 
 SML  HZ I        12 5  0.52        11.5 0.38            118            243 334 
                                                                                
