 2014 1219 1439  2.7 L   6.811 -73.175139.5  RSN  4 0.3 1.0LRSN                1
 GAP=144        0.70       5.1     4.3  7.0 -0.6392E+01  0.6224E+01 -0.2730E+01E
 Epicentro: LOS SANTOS - SANTANDER                                             3
 ACTION:UPD 15-02-10 17:05 OP:nd   STATUS:               ID:20141219143902 L   I
 OLDACT:DUP 14-12-19 23:20 OP:spq  STATUS:               ID:20141219142746d    3
 OLDACT:REG 14-12-19 20:54 OP:spq  STATUS:               ID:20141219142745     3
 2014-12-19-1427-45M.COL___296                                                 6
 STAT SP IPHASW D HRMM SECON CODA AMPLIT PERI AZIMU VELO AIN AR TRES W  DIS CAZ7
 BAR2 EZ ES   1   1439 35.77                             170   -0.52 7 24.2 182 
 BAR2 EZ I        1439 38.14         3.2 0.26            169           24.2 182 
 PAM  SZ EP       1439 24.48                             149    0.1910 78.6  42 
 PAM  SE ES   1   1439 41.26                             149    0.10 7 78.6  42 
 PAM  SZ I        1439 42.19         1.9 0.48            153           78.6  42 
 RUS  HZ EP       1439 25.77                             142   -0.1410  102 174 
 RUS  HN ES   1   1439 44.44                             142    0.40 7  102 174 
 RUS  HZ I        1439 46.22         1.0 0.50            144            102 174 
 PTB  HZ EP       1439 28.53                             131   -0.32 9  145 258 
 PTB  HN ES       1439 49.55                             131    0.27 9  145 258 
 PTB  HZ I        1439 51.86         1.9 0.40            133            145 258 
                                                                                
