 2014  419 1621 31.5 L   6.828 -73.169139.3  RSN  7 0.5 1.8LRSN                1
 GAP=132        1.16       4.0     4.9  8.6 -0.9896E+00  0.1132E+02 -0.4831E+01E
 Epicentro: LOS SANTOS - SANTANDER                                             3
 ACTION:UPD 14-05-13 23:09 OP:nd   STATUS:               ID:20140419162131 L   I
 OLDACT:REG 14-04-19 20:51 OP:nd   STATUS:               ID:20140419162045     3
 2014-04-19-1620-45M.COL___242                                                 6
 STAT SP IPHASW D HRMM SECON CODA AMPLIT PERI AZIMU VELO AIN AR TRES W  DIS CAZ7
 BRR  HZ EP       1621 52.13                             153    0.4110 67.5 297 
 BRR  HN ES   1   1622  7.87                             153    0.36 7 67.5 297 
 BRR  HZ I        1622 13.53         7.7 0.42            152           67.5 297 
 PAM  SZ EP       1621 53.14                             150    0.1710 76.7  42 
 PAM  SN ES       1622  9.79                             150    0.0610 76.7  42 
 PAM  SZ I        1622 12.12        17.0 0.50            156           76.7  42 
 RUS  HZ EP       1621 54.82                             141   -0.0210  104 175 
 RUS  HN ES       1622 12.80                             141   -0.2710  104 175 
 RUS  HZ I        1622 14.81         7.3 0.32            146            104 175 
 PTB  HZ EP       1621 57.66                             131   -0.09 9  146 257 
 PTB  HN ES       1622 17.61                             131   -0.64 9  146 257 
 PTB  HZ I        1622 20.57         8.5 0.40            133            146 257 
 SPBC HZ EP       1621 59.72                             127    0.15 9  164 218 
 SPBC HN ES       1622 21.40                             127   -0.08 9  164 218 
 SPBC HZ I        1622 28.53         7.6 0.28            131            164 218 
 ZAR  HZ EP       1622  4.20                             121    1.06 9  201 292 
 ZAR  HN ES       1622 28.21                             121    0.37 9  201 292 
 ZAR  HZ I        1622 34.87         5.4 0.22            124            201 292 
 SML  HZ EP       1622  6.33                             116   -0.99 8  240 336 
 SML  HN ES       1622 34.65                             116   -0.63 8  240 336 
 SML  HZ I        1622 37.46         9.7 0.10            120            240 336 
                                                                                
