 2017 1219 1016 19.2 L   7.383 -73.182129.9  RSN  5 0.2 1.4LRSN                1
 GAP=104        0.63       2.7     3.1  5.9 -0.7839E+00  0.7881E+01  0.3373E+00E
 Epicentro: EL PLAYON - SANTANDER                                              3
 ACTION:UPD 18-01-04 13:22 OP:rebc STATUS:               ID:20171219101619 L   I
 OLDACT:REG 17-12-19 20:06 OP:dani STATUS:               ID:20171219100721     3
 2017-12-19-1008-00M.COL___461                                                 6
 STAT SP IPHASW D HRMM SECON CODA AMPLIT PERI AZIMU VELO AIN AR TRES W  DIS CAZ7
 PAM  EZ EP       1016 38.55                             157    0.1610 53.4  95 
 PAM  EN ES       1016 53.61                             157    0.2610 53.4  95 
 PAM  EZ I        1016 55.37         3.7 0.24            161           53.4  95 
 BAR2 EZ EP       1016 40.07                             144   -0.0210 87.4 180 
 BAR2 EZ ES       1016 56.23                             144   -0.1510 87.4 180 
 BAR2 EZ I        1016 57.78         8.3 0.12            149           87.4 180 
 OCA  HZ EP       1016 40.57                             141   -0.0310 95.9 351 
 OCA  HE ES       1016 56.96                             141   -0.3210 95.9 351 
 OCA  HZ I        1017  2.15         9.3 0.30            143           95.9 351 
 PTB  HZ EP       1016 46.87                             124   -0.14 9  169 237 
 PTB  HE ES       1017  8.50                             124   -0.21 9  169 237 
 PTB  HZ I        1017 11.47         2.0 0.15            128            169 237 
 ZAR  HE ES       1017 12.19                             121    0.48 9  185 274 
                                                                                
