 2017  519 1204 46.8 L   6.805 -73.174144.2  RSN 16 0.4 2.6LRSN                1
 GAP=109        0.78       2.4     2.8  5.0 -0.1275E+01  0.4408E+00  0.3530E+01E
 Epicentro: LOS SANTOS - SANTANDER                                             3
 ACTION:UPD 17-06-16 13:37 OP:jn   STATUS:               ID:20170519120446 L   I
 OLDACT:REG 17-05-19 20:49 OP:lv   STATUS:               ID:20170519115741     3
 2017-05-19-1158-00M.COL___359                                                 6
 STAT SP IPHASW D HRMM SECON CODA AMPLIT PERI AZIMU VELO AIN AR TRES W  DIS CAZ7
 BRR  HZ EP       12 5  7.99                             153    0.4010 68.2 299 
 BRR  HN ES       12 5 24.07                             153    0.2410 68.2 299 
 BRR  HZ I        12 5 28.52        87.1 0.28            157           68.2 299 
 PAM  EZ EP       12 5  8.93                             150    0.0010 79.0  42 
 PAM  EN ES       12 5 26.03                             150   -0.1710 79.0  42 
 PAM  EZ I        12 5 28.55       104.0 0.48            150           79.0  42 
 PTB  HZ EP       12 5 12.93                             132   -0.42 9  145 258 
 PTB  HN ES       12 5 33.64                             132   -0.44 9  145 258 
 PTB  HZ I        12 5 35.96        49.3 0.44            132            145 258 
 SPBC HZ EP       12 5 15.06                             129    0.04 9  162 218 
 SPBC HN ES       12 5 36.99                             129   -0.05 9  162 218 
 SPBC HZ I        12 5 39.97        82.5 0.30            127            162 218 
 YPLC HZ EP       12 5 16.55                             126   -0.11 9  179 151 
 YPLC HZ I        12 5 41.37        35.0 0.21            123            179 151 
 ZAR  HZ EP       12 5 18.87                             123    0.07 9  201 292 
 ZAR  HN ES       12 5 43.64                             123   -0.14 9  201 292 
 ZAR  HZ I        12 5 50.06        46.2 0.08            123            201 292 
 TABC EZ EP   4   12 5 23.63                             119    1.31 0  229 210 
 TABC EZ ES       12 5 50.83                             119    0.79 8  229 210 
 TABC EZ I        12 5 57.29        35.2 0.32            117            229 210 
 NOR  HZ EP       12 5 22.14                             118   -0.04 8  232 234 
 NOR  HN ES   4   12 5 48.74                             118   -1.05 0  232 234 
 CHI  HZ EP       12 5 24.29                             117   -0.07 8  248 194 
 CHI  HE ES       12 5 53.67                             117   -0.01 8  248 194 
 CHI  HZ I        12 6  3.18        30.1 0.54            115            248 194 
 HEL  HZ EP   4   12 5 28.52                             115    1.93 0  269 256 
 HEL  HE ES       12 5 57.92                             115    0.27 8  269 256 
 HEL  HZ I        12 6  5.20        23.9 0.08            114            269 256 
 VIL  EZ EP       12 5 29.73                             112   -0.39 7  303 191 
 VIL  EN ES   4   12 6  2.10                             112   -1.82 0  303 191 
 VIL  EZ I        12 6  6.62        25.8 0.18            110            303 191 
 LL1C HZ EP   4   12 5 31.92                             112    1.73 0  306 352 
 LL1C HN ES       12 6  3.92                             112   -0.13 7  306 352 
 ELA  HZ EP   4   12 5 35.09                             110    1.76 0  327 229 
 ELA  HN ES       12 6 10.12                             110    0.47 7  327 229 
 ELA  HZ I        12 6 17.61        24.7 0.27            109            327 229 
 CBOC HZ EP   4   12 5 34.88                             110    1.57 0  331 252 
 CBOC HE ES       12 6  8.84                             110   -0.76 7  331 252 
 CBOC HZ I        12 6 16.48         5.9 0.23            109            331 252 
 DBB  EZ EP   2   12 5 33.76                             109   -0.07 3  336 274 
 DBB  EN ES   4   12 6  5.69                             109   -4.84 0  336 274 
 DBB  EZ I        12 6 11.93        10.9 0.42            109            336 274 
 ARGC HZ EP   2   12 5 37.89                             108    1.70 3  358 341 
 ARGC HN ES   2   12 6 15.19                             108    0.46 3  358 341 
                                                                                
