 2016 1219 1458 51.6 L   6.397 -73.614109.6  RSN  6 0.5 1.3LRSN                1
 GAP=146        1.36       6.2     5.2 11.1  0.7736E+01  0.1972E+02 -0.2229E+01E
 Epicentro: SANTA HELENA DEL OPON - SANTANDER                                  3
 ACTION:UPD 17-01-11 20:16 OP:rebc STATUS:               ID:20161219145851 L   I
 OLDACT:REG 16-12-19 18:41 OP:edw  STATUS:               ID:20161219145745     3
 2016-12-19-1458-00M.COL___323                                                 6
 STAT SP IPHASW D HRMM SECON CODA AMPLIT PERI AZIMU VELO AIN AR TRES W  DIS CAZ7
 BAR2 EZ ES       1459 21.76                             153    0.6910 52.4  66 
 BRR  HZ EP       1459  9.75                             141    0.1310 79.2 352 
 BRR  HN ES       1459 23.80                             141    0.1610 79.2 352 
 BRR  HZ I        1459 29.40         9.7 0.36            145           79.2 352 
 RUS  HZ EP       1459 10.92                             141    0.4710 81.0 133 
 RUS  HN ES       1459 24.96                             141   -0.1510 81.0 133 
 RUS  HZ I        1459 29.16         2.1 0.58            146           81.0 133 
 PTB  HZ EP       1459 10.22                             136   -0.6510 94.5 280 
 PTB  HE ES       1459 25.29                             136   -0.5810 94.5 280 
 PTB  HZ I        1459 26.97         4.0 0.06            141           94.5 280 
 PAM  EN ES       1459 34.61                             123   -0.92 9  145  44 
 ZAR  HZ EP       1459 20.08                             116    0.37 9  183 311 
 ZAR  HE ES       1459 42.16                             116    0.56 9  183 311 
                                                                                
