 2015  119 1531 26.9 L   6.763 -73.125144.0  RSN  7 0.2 1.5LRSN                1
 GAP=141        0.50       2.5     3.0  3.8 -0.1596E+01 -0.1684E+00  0.2969E+01E
 Epicentro: LOS SANTOS - SANTANDER                                             3
 ACTION:UPD 15-03-02 15:40 OP:nd   STATUS:               ID:20150119153126 L   I
 OLDACT:REG 15-01-19 20:23 OP:spq  STATUS:               ID:20150119152746     3
 2015-01-19-1527-46M.COL___256                                                 6
 STAT SP IPHASW D HRMM SECON CODA AMPLIT PERI AZIMU VELO AIN AR TRES W  DIS CAZ7
 BAR2 EZ EP   1   1531 46.16                             172   -0.14 7 19.9 199 
 BAR2 EZ ES   1   1532  1.43                             172    0.04 7 19.9 199 
 BAR2 EZ I        1532  2.60         6.8 0.26            171           19.9 199 
 BRR  HZ EP       1531 48.03                             151   -0.1110 75.2 300 
 BRR  HN ES       1532  4.97                             151    0.3110 75.2 300 
 BRR  HZ I        1532  6.97        11.8 0.32            152           75.2 300 
 PAM  SZ EP       1531 49.07                             150   -0.0110 79.2  36 
 PAM  SN ES   1   1532  6.14                             150   -0.20 7 79.2  36 
 PAM  SZ I        1532  8.22         5.1 0.46            152           79.2  36 
 RUS  HZ EP   1   1531 50.55                             145    0.33 7 96.4 177 
 RUS  HE ES   1   1532  8.20                             145   -0.17 7 96.4 177 
 RUS  HZ I        1532  9.94         3.6 0.36            146           96.4 177 
 PTB  HZ EP   1   1531 53.53                             131   -0.38 7  149 261 
 PTB  HE ES   1   1532 14.64                             131   -0.30 7  149 261 
 PTB  HZ I        1532 16.39         3.1 0.16            133            149 261 
 SPBC HZ EP       1531 55.35                             129    0.20 9  162 221 
 SPBC HN ES   1   1532 17.17                             129    0.02 7  162 221 
 SPBC HZ I        1532 18.72         5.8 0.32            130            162 221 
 CHI  HZ EP       1532  4.39                             117    0.20 8  245 196 
 CHI  HN ES   1   1532 32.97                             117   -0.26 6  245 196 
 CHI  HZ I        1532 36.29         1.1 0.70            119            245 196 
                                                                                
