 2014  219 1056 30.3 L   6.401 -73.647104.4  RSN  8 0.4 1.4LRSN                1
 GAP= 78        1.13       3.2     3.7  7.3  0.8660E+00  0.7397E+01 -0.3734E+01E
 Epicentro: SANTA HELENA DEL OPON - SANTANDER                                  3
 ACTION:UPD 14-03-10 08:11 OP:ep   STATUS:               ID:20140219105630 L   I
 OLDACT:DUP 14-02-19 16:20 OP:carl STATUS:               ID:20140219105001d    3
 2014-02-19-1050-00M.COL___212                                                 6
 STAT SP IPHASW D HRMM SECON CODA AMPLIT PERI AZIMU VELO AIN AR TRES W  DIS CAZ7
 BAR2 SZ EP       1056 46.31                             150   -0.1110 55.6  68 
 BAR2 SZ ES       1056 59.81                             150    0.7910 55.6  68 
 BAR2 SZ I        1057  0.54        26.9 0.14            153           55.6  68 
 RUS  HZ EP       1056 48.60                             138   -0.2210 84.0 132 
 RUS  HE ES       1057  2.80                             138   -0.4810 84.0 132 
 RUS  HZ I        1057 11.40         1.4 0.46            142           84.0 132 
 PTB  HZ EP       1056 47.85                             136   -0.8810 90.8 280 
 PTB  HE ES       1057  2.73                             136   -0.4010 90.8 280 
 PTB  HZ I        1057  4.44         7.1 0.22            139           90.8 280 
 SPBC HN ES       1057  3.96                             134   -0.0310 95.2 210 
 SPBC HN I        1057  9.90        14.6 0.46            138           95.2 210 
 NOR  HZ EP       1056 56.25                             117    0.23 9  164 236 
 NOR  HN ES       1057 16.90                             117    0.80 9  164 236 
 NOR  HZ I        1057 19.72         2.6 0.24            121            164 236 
 ZAR  HZ EP       1056 57.96                             115    0.22 9  180 312 
 ZAR  HN ES       1057 19.12                             115   -0.04 9  180 312 
 ZAR  HZ I        1057 25.82         2.4 0.14            118            180 312 
 CHI  HZ EP       1057  0.12                             113    0.09 9  196 183 
 CHI  HN ES       1057 23.39                             113    0.15 9  196 183 
 CHI  HZ I        1057 25.87         1.2 0.40            116            196 183 
 SML  HZ EP       1057  7.88                             105   -0.11 8  270 350 
 SML  HN ES       1057 37.80                             105    0.40 8  270 350 
 SML  HZ I        1057 43.88         2.7 0.60            108            270 350 
                                                                                
