 2013  819 1157 35.4 L   6.803 -73.141149.1  RSN  9 0.5 1.4LRSN                1
 GAP=137        1.26       4.4     5.9  9.1 -0.4629E+00 -0.1796E+01 -0.2345E+01E
 Epicentro: LOS SANTOS - SANTANDER                                             3
 ACTION:UPD 14-01-14 09:04 OP:ep   STATUS:               ID:20130819115735 L   I
 OLDACT:REG 13-08-19 15:39 OP:stll STATUS:               ID:20130819114850     3
 2013-08-19-1148-50M.COL___201                                                 6
 STAT SP IPHASW D HRMM SECON CODA AMPLIT PERI AZIMU VELO AIN AR TRES W  DIS CAZ7
 BAR2 SZ EP       1157 55.46                             171    0.0310 23.8 191 
 BAR2 SZ I        1158 12.39         5.1 0.16            168           23.8 191 
 BRR  HZ EP       1157 57.38                             153    0.4710 71.5 298 
 BRR  HN ES       1158 14.50                             153    0.8010 71.5 298 
 PAM  SZ EP       1157 58.30                             152    0.3810 76.8  39 
 PAM  SZ I        1158 17.85         1.7 0.28            142           76.8  39 
 RUS  HZ EP       1157 59.25                             144   -0.2410  101 176 
 RUS  HN ES       1158 18.13                             144   -0.1510  101 176 
 PTB  HZ EP       1158  2.40                             133   -0.28 9  148 259 
 PTB  HN ES       1158 24.00                             133    0.04 9  148 259 
 OCA  HZ EP       1158  4.40                             130    0.47 9  160 353 
 OCA  HN ES       1158 25.09                             130   -1.10 9  160 353 
 OCA  HZ I        1158 32.79         4.3 0.58            127            160 353 
 SPBC HZ EP       1158  3.69                             130   -0.51 9  164 219 
 SPBC HN ES       1158 26.34                             130   -0.33 9  164 219 
 ZAR  HZ EP       1158  7.90                             123   -0.19 9  204 292 
 ZAR  HN ES       1158 33.30                             123   -0.29 9  204 292 
 ZAR  HZ I        1158 38.40         5.4 0.24            125            204 292 
 GUY2CHZ EP       1158 20.20                             113    0.98 7  302 235 
                                                                                
