 2017 1119 1701  2.8 L   6.843 -73.170147.6  RSN  4 0.5 1.0LRSN                1
 GAP=147        1.37       8.6     8.2 11.6 -0.2223E+02  0.2604E+02 -0.8608E+01E
 Epicentro: ZAPATOCA - SANTANDER                                               3
 ACTION:UPD 17-12-12 19:57 OP:rebc STATUS:               ID:20171119170102 L   I
 OLDACT:REG 17-11-19 20:38 OP:lv   STATUS:               ID:20171119165623     3
 2017-11-19-1658-00M.COL___468                                                 6
 STAT SP IPHASW D HRMM SECON CODA AMPLIT PERI AZIMU VELO AIN AR TRES W  DIS CAZ7
 BAR2 EZ EP       17 1 22.34                             169   -0.3810 27.8 183 
 BAR2 EZ ES       17 1 39.20                             169    0.9210 27.8 183 
 PAM  EZ EP       17 1 25.80                             152    0.7210 75.6  43 
 PAM  EN ES       17 1 41.76                             152   -0.7210 75.6  43 
 PAM  EZ I        17 1 44.19         1.7 0.18            154           75.6  43 
 RUS  HZ EP       17 1 27.03                             143   -0.0410  106 175 
 RUS  HN ES       17 1 45.68                             143   -0.3410  106 175 
 RUS  HZ I        17 1 49.07         1.3 0.32            144            106 175 
 PTB  HZ EP       17 1 29.81                             133    0.06 9  146 257 
 PTB  HN ES       17 1 50.54                             133   -0.24 9  146 257 
 PTB  HZ I        17 1 53.41         1.6 0.15            134            146 257 
                                                                                
