 2013  619 1330 22.7 L   6.818 -73.141147.5  RSN 10 0.3 1.9LRSN                1
 GAP=188        0.66       2.6     3.6  4.5  0.2697E+01  0.3965E+01  0.4989E+00E
 Epicentro: LOS SANTOS - SANTANDER                                             3
 ACTION:UPD 14-01-08 09:55 OP:ep   STATUS:               ID:20130619133022 L   I
 OLDACT:UP  13-06-19 17:43 OP:cam  STATUS:               ID:20130619132959     3
 OLDACT:REG 13-06-19 15:51 OP:cam  STATUS:               ID:20130619132959     3
 2013-06-19-1329-59M.COL___261                                                 6
 STAT SP IPHASW D HRMM SECON CODA AMPLIT PERI AZIMU VELO AIN AR TRES W  DIS CAZ7
 BAR2 SZ EP       1330 42.52                             170   -0.0610 25.4 190 
 BAR2 SZ ES       1330 58.48                             170    0.3910 25.4 190 
 BAR2 SZ I        1331  0.61        12.4 0.21            165           25.4 190 
 GIR2 SZ EP       1330 42.77                             168    0.2410 29.4 349 
 BRR  HZ EP   1   1330 44.37                             153    0.36 7 70.7 297 
 RUS  HZ EP       1330 46.52                             144   -0.2510  103 176 
 RUS  HZ I        1330 49.01         4.6 0.18            144            103 176 
 RUS  HN ES       1331  5.13                             144   -0.4010  103 176 
 PTB  HZ EP   1   1330 49.63                             132   -0.26 7  149 258 
 PTB  HN ES       1331 10.80                             132   -0.30 9  149 258 
 PTB  HZ I        1331 18.07        12.0 0.44            130            149 258 
 ZAR  HZ EP   1   1330 55.21                             123   -0.02 6  204 292 
 ZAR  HE ES       1331 20.82                             123    0.22 9  204 292 
 ZAR  HZ I        1331 27.06        13.6 0.46            123            204 292 
 NOR  HZ EP       1330 58.55                             119   -0.15 8  236 234 
 NOR  HN ES   1   1331 26.74                             119   -0.04 6  236 234 
 NOR  HZ I        1331 33.79         8.9 0.16            119            236 234 
 SML  HN ES       1331 27.47                             118   -0.28 8  242 335 
 CHI  HZ EP       1331  0.74                             117    0.02 8  251 195 
 CHI  HN ES   1   1331 30.84                             117    0.46 6  251 195 
 RREF HZ EP   4   1331 10.65                             111    1.53 0  323 229 
 RREF HN ES   4   1331 47.21                             111    1.89 0  323 229 
 PRA  HZ EP       1331 17.04                             107    0.52 6  394 209 
 PRA  HN ES   2   1331 59.27                             107    0.77 3  394 209 
                                                                                
