 2015  319 1232 42.4 L   6.818 -73.625101.7  RSN  9 0.4 1.7LRSN                1
 GAP= 75        1.04       3.2     3.5  6.8  0.1356E+01  0.1004E+02  0.2938E+01E
 Epicentro: EL CARMEN - SANTANDER                                              3
 ACTION:UPD 15-04-30 16:27 OP:nd   STATUS:               ID:20150319123242 L   I
 OLDACT:UP  15-03-19 22:04 OP:cam  STATUS:               ID:20150319122748     3
 OLDACT:REG 15-03-19 20:32 OP:cam  STATUS:               ID:20150319122748     3
 2015-03-19-1227-48M.COL___287                                                 6
 STAT SP IPHASW D HRMM SECON CODA AMPLIT PERI AZIMU VELO AIN AR TRES W  DIS CAZ7
 BRR  HZ EP       1232 56.70                             160   -0.0610 33.4 343 
 BRR  HN ES       1233  8.30                             160    0.3410 33.4 343 
 BRR  HZ I        1233  9.13        21.3 0.12            161           33.4 343 
 BAR2 EZ EP   1   1232 57.49                             149   -0.74 7 55.0 117 
 BAR2 EZ ES       1233 10.77                             149    0.1910 55.0 117 
 BAR2 EZ I        1233 12.02        20.1 0.26            152           55.0 117 
 PTB  HZ IP   4 C 1232 59.91                             133   -1.25 0 96.9 252 
 PTB  HN ES   4   1233 13.41                             133   -2.39 0 96.9 252 
 PTB  HZ I        1233 18.46        10.4 0.10            134           96.9 252 
 PAM  SZ EP       1233  4.30                             127    0.5810  117  61 
 PAM  SE ES       1233 20.11                             127   -0.2410  117  61 
 PAM  SZ I        1233 25.81         3.3 0.48            129            117  61 
 RUS  HZ EP       1233  4.08                             127    0.2410  119 150 
 RUS  HN ES       1233 20.18                             127   -0.3910  119 150 
 RUS  HZ I        1233 22.45        10.8 0.28            129            119 150 
 ZAR  HZ EP       1233  7.22                             118    0.23 9  155 299 
 ZAR  HN ES       1233 25.73                             118   -0.44 9  155 299 
 ZAR  HZ I        1233 29.24        18.4 0.42            120            155 299 
 NOR  HZ EP       1233 10.73                             112   -0.76 9  195 225 
 NOR  HN ES       1233 34.45                             112    0.26 9  195 225 
 NOR  HZ I        1233 37.54         6.7 0.16            114            195 225 
 SML  HE ES       1233 39.86                             108   -0.18 8  225 347 
 GUY2CHZ EP       1233 20.34                             105    0.72 8  261 228 
 GUY2CHN ES   4   1233 49.26                             105    0.60 0  261 228 
 GUY2CHZ I        1233 55.18         1.7 0.78                           261 228 
                                                                                
