 2015  619 1014  9.4 L   6.782 -73.105132.6  RSN  5 0.6 1.7LRSN                1
 GAP=187        1.49       7.4    10.7 12.1  0.2452E+02  0.1142E+02 -0.3632E+02E
 Epicentro: LOS SANTOS - SANTANDER                                             3
 ACTION:UPD 15-09-10 22:13 OP:cam  STATUS:               ID:20150619101409 L   I
 OLDACT:DUP 15-06-19 21:23 OP:stll STATUS:               ID:20150619100752d    3
 2015-06-19-1007-50M.COL___307                                                 6
 STAT SP IPHASW D HRMM SECON CODA AMPLIT PERI AZIMU VELO AIN AR TRES W  DIS CAZ7
 BAR2 EZ EP       1014 27.86                             170    0.4310 22.6 202 
 BAR2 EZ ES       1014 41.73                             170    0.2310 22.6 202 
 BAR2 EZ I        1014 43.67        10.1 0.16            171           22.6 202 
 BRR  HZ EP       1014 29.99                             148    0.5510 76.1 298 
 BRR  HN ES       1014 45.68                             148    0.6010 76.1 298 
 RUS  HN ES       1014 48.31                             142   -0.8010 98.4 179 
 OCA  HZ EP       1014 36.63                             126   -0.34 9  163 352 
 OCA  HN ES       1014 57.94                             126   -0.54 9  163 352 
 OCA  HZ I        1015  2.36         6.8 0.44            127            163 352 
 ZAR  HZ EP       1014 42.17                             119    0.63 8  209 292 
 ZAR  HN ES       1015  5.60                             119   -1.01 8  209 292 
 ZAR  HZ I        1015 11.86         5.8 0.32            119            209 292 
                                                                                
