 2013 1119 1834 38.4 L   6.791 -73.160146.1  RSN  9 0.5 1.9LRSN                1
 GAP=135        1.19       3.8     5.0  7.3  0.6516E+00  0.7060E+01  0.3808E+01E
 Epicentro: LOS SANTOS - SANTANDER                                             3
 ACTION:UPD 14-01-09 16:29 OP:ep   STATUS:               ID:20131119183438 L   I
 OLDACT:REG 13-11-19 16:35 OP:carl STATUS:               ID:20131119182849     3
 2013-11-19-1828-49M.COL___238                                                 6
 STAT SP IPHASW D HRMM SECON CODA AMPLIT PERI AZIMU VELO AIN AR TRES W  DIS CAZ7
 BAR2 SZ EP       1834 57.95                             171   -0.0610 22.1 187 
 BAR2 SZ ES       1835 12.77                             171   -0.5610 22.1 187 
 BAR2 SZ I        1835 14.35        26.8 0.12            169           22.1 187 
 BRR  HZ EP       1834 59.89                             153    0.3910 70.3 300 
 BRR  HE ES       1835 17.04                             153    1.0510 70.3 300 
 BRR  HN I        1835 19.33        21.8 0.18            154           70.3 300 
 PAM  SZ EP       1835  0.94                             150    0.2210 79.1  40 
 PAM  SN ES       1835 17.73                             150   -0.4310 79.1  40 
 PAM  SZ I        1835 20.17        11.6 0.56            153           79.1  40 
 RUS  HZ EP       1835  2.35                             144    0.2610 99.7 175 
 RUS  HN ES       1835 20.86                             144    0.2710 99.7 175 
 RUS  HZ I        1835 21.87         8.2 0.32            144           99.7 175 
 PTB  HZ EP       1835  5.09                             132   -0.12 9  146 259 
 PTB  HN ES       1835 25.98                             132   -0.16 9  146 259 
 PTB  HZ I        1835 27.89         9.6 0.16            133            146 259 
 SPBC HZ EP       1835  7.10                             129    0.37 9  161 219 
 SPBC HN ES       1835 28.71                             129   -0.14 9  161 219 
 SPBC HZ I        1835 31.82        18.4 0.20            129            161 219 
 ZAR  HN ES       1835 35.70                             122   -0.26 9  203 293 
 SML  HE ES       1835 42.89                             117   -0.75 8  244 336 
 CHI  HZ EP       1835 16.17                             117    0.23 8  247 195 
 CHI  HN ES       1835 44.36                             117   -0.88 8  247 195 
 CHI  HZ I        1835 55.28         2.7 0.50            118            247 195 
                                                                                
