 2017  719 1749  7.1 L   6.672 -73.185150.6  RSN  5 0.2 1.7LRSN                1
 GAP=223        0.64       4.9     4.5  5.1  0.1352E+02  0.3777E+01  0.3479E+00E
 Epicentro: VILLANUEVA - SANTANDER                                             3
 ACTION:UPD 17-08-30 15:34 OP:rebc STATUS:               ID:20170719174907 L   I
 OLDACT:REG 17-07-19 21:47 OP:lv   STATUS:               ID:20170719174739     3
 2017-07-19-1748-00M.COL___395                                                 6
 STAT SP IPHASW D HRMM SECON CODA AMPLIT PERI AZIMU VELO AIN AR TRES W  DIS CAZ7
 BAR2 EZ EP       1749 27.08                             176   -0.0710 8.82 178 
 BAR2 EZ ES       1749 42.44                             176   -0.3210 8.82 178 
 BAR2 EZ I        1749 43.33        16.4 0.05            177           8.82 178 
 BRR  HZ EP       1749 29.07                             152    0.0210 75.6 310 
 BRR  HE ES       1749 46.54                             152    0.3910 75.6 310 
 RUS  HZ EP       1749 30.31                             149   -0.1410 86.9 173 
 RUS  HN ES       1749 48.82                             149    0.1910 86.9 173 
 PTB  HZ EP       1749 34.21                             134    0.28 9  141 264 
 PTB  HN ES       1749 54.73                             134   -0.11 9  141 264 
 ZAR  HN ES       1750  5.48                             123   -0.31 8  206 296 
 ZAR  HZ I        1750 11.95         3.3 0.19            122            206 296 
                                                                                
