 2014 1219 1604 57.3 L   6.799 -73.159148.9  RSN  5 0.3 1.4LRSN                1
 GAP=135        0.83       5.2     4.5  6.9 -0.4079E+01  0.2487E+00  0.6354E+01E
 Epicentro: LOS SANTOS - SANTANDER                                             3
 ACTION:UPD 15-02-10 17:05 OP:nd   STATUS:               ID:20141219160457 L   I
 OLDACT:REG 14-12-19 21:02 OP:spq  STATUS:               ID:20141219155746     3
 2014-12-19-1557-46M.COL___296                                                 6
 STAT SP IPHASW D HRMM SECON CODA AMPLIT PERI AZIMU VELO AIN AR TRES W  DIS CAZ7
 BAR2 EZ EP   1   16 5 17.37                             171    0.06 7 23.0 186 
 BAR2 EZ ES   1   16 5 32.80                             171   -0.10 7 23.0 186 
 BAR2 EZ I        16 5 33.92         4.5 0.22            170           23.0 186 
 BRR  HZ EP       16 5 18.98                             153    0.2510 69.9 299 
 BRR  HN ES       16 5 36.01                             153    0.5810 69.9 299 
 BRR  HZ I        16 5 36.30         8.9 0.44            155           69.9 299 
 PAM  SZ EP       16 5 19.97                             151    0.0510 78.5  40 
 PAM  SN ES       16 5 37.11                             151   -0.4510 78.5  40 
 PAM  SZ I        16 5 38.50         3.6 0.38            153           78.5  40 
 RUS  HZ EP       16 5 21.44                             144    0.0810  101 175 
 RUS  HN ES   1   16 5 40.32                             144    0.19 7  101 175 
 RUS  HZ I        16 5 41.85         2.8 0.30            145            101 175 
 PTB  HZ EP   1   16 5 24.15                             133   -0.25 7  146 259 
 PTB  HN ES       16 5 44.98                             133   -0.55 9  146 259 
 PTB  HZ I        16 5 46.94         3.6 0.16            134            146 259 
                                                                                
