 2015  219 1253 51.7 L   6.885 -73.232138.7  RSN  4 0.2 1.4LRSN                1
 GAP=121        0.50       5.7     3.8  5.3 -0.1501E+02  0.1014E+02 -0.1203E+02E
 Epicentro: BETULIA - SANTANDER                                                3
 ACTION:UPD 15-04-30 21:27 OP:nd   STATUS:               ID:20150219125351 L   I
 OLDACT:DUP 15-02-19 22:12 OP:fm   STATUS:               ID:20150219124748d    3
 2015-02-19-1247-47M.COL___296                                                 6
 STAT SP IPHASW D HRMM SECON CODA AMPLIT PERI AZIMU VELO AIN AR TRES W  DIS CAZ7
 BAR2 EZ EP       1254 10.46                             166   -0.2210 32.8 170 
 BAR2 EZ ES   1   1254 25.84                             166    0.32 7 32.8 170 
 BAR2 EZ I        1254 28.21         4.6 0.34            168           32.8 170 
 PAM  SZ EP     C 1254 13.34                             149    0.2110 77.4  49 
 PAM  SE ES       1254 29.69                             149   -0.1810 77.4  49 
 PAM  SZ I        1254 31.58         4.0 0.48            154           77.4  49 
 PTB  HZ EP       1254 17.38                             132   -0.03 9  141 254 
 PTB  HN ES       1254 37.46                             132   -0.03 9  141 254 
 PTB  HZ I        1254 40.85         4.4 0.10            134            141 254 
 SML  HZ EP   1   1254 26.69                             117    0.15 6  231 336 
                                                                                
