 2015  219 1140  0.5 L   6.801 -73.217138.1  RSN  6 0.5 1.5LRSN                1
 GAP=127        1.18       4.9     6.5  8.6  0.4374E+01  0.3802E+01 -0.8854E+01E
 Epicentro: ZAPATOCA - SANTANDER                                               3
 ACTION:UPD 15-04-30 21:27 OP:nd   STATUS:               ID:20150219114000 L   I
 OLDACT:REG 15-02-19 20:58 OP:fm   STATUS:               ID:20150219113746     3
 2015-02-19-1137-46M.COL___293                                                 6
 STAT SP IPHASW D HRMM SECON CODA AMPLIT PERI AZIMU VELO AIN AR TRES W  DIS CAZ7
 BAR2 EZ EP       1140 19.44                             170    0.2010 23.5 170 
 BAR2 EZ ES       1140 34.31                             170    0.4710 23.5 170 
 BAR2 EZ I        1140 35.67         7.6 0.18            169           23.5 170 
 BRR  HZ IP     C 1140 21.02                             153    0.5610 64.2 302 
 BRR  HN ES       1140 35.87                             153   -0.1410 64.2 302 
 BRR  HZ I        1140 45.76        10.4 0.42            149           64.2 302 
 PAM  SZ EP     D 1140 22.21                             148   -0.0510 82.5  44 
 PAM  SE ES       1140 38.55                             148   -0.6610 82.5  44 
 PAM  SZ I        1140 41.13         5.1 0.48            154           82.5  44 
 RUS  HZ EP       1140 23.44                             142   -0.1710  102 172 
 RUS  HE ES       1140 41.66                             142    0.0510  102 172 
 RUS  HZ I        1140 43.37         3.5 0.24            147            102 172 
 PTB  HN ES   1   1140 45.18                             132   -0.99 7  140 258 
 PTB  HZ I        1140 54.06         3.9 0.20            131            140 258 
 SML  HZ EP   1   1140 35.65                             116   -0.72 6  240 337 
 SML  HN ES       1141  5.08                             116    0.76 8  240 337 
 SML  HZ I        1141  9.24         4.6 0.10            118            240 337 
                                                                                
