 2013  519 1636 39.0 L   6.801 -73.100150.0  RSN 12 0.5 2.3LRSN                1
 GAP=188        1.09       3.5     6.3  7.1 -0.1357E+01  0.1532E+02  0.2980E+01E
 Epicentro: LOS SANTOS - SANTANDER                                             3
 ACTION:UPD 13-06-20 09:51 OP:ep   STATUS:               ID:20130519163639 L   I
 2013-05-19-1630-00M.COL___256                                                 6
 STAT SP IPHASW D HRMM SECON CODA AMPLIT PERI AZIMU VELO AIN AR TRES W  DIS CAZ7
 BAR2 SZ EP       1636 59.07                             170   -0.0910 24.8 201 
 BAR2 SZ ES   1   1637 14.85                             170   -0.04 7 24.8 201 
 BAR2 SZ I        1637 15.67        38.8 0.26            166           24.8 201 
 GIR2 SZ EP   1   1636 59.80                             167    0.60 7 32.4 341 
 GIR2 SZ ES   1   1637 14.86                             167   -0.10 7 32.4 341 
 GIR2 SZ I        1637 16.49        21.8 0.14            163           32.4 341 
 BRR  HZ IP     C 1637  0.89                             152    0.0410 75.6 297 
 BRR  HN ES   1   1637 18.44                             152    0.55 7 75.6 297 
 BRR  HZ I        1637 20.78        38.4 0.16            147           75.6 297 
 RUS  HZ EP       1637  3.28                             145    0.1310  100 179 
 RUS  HN ES   1   1637 21.51                             145   -0.49 7  100 179 
 RUS  HZ I        1637 22.62        25.0 0.32            146            100 179 
 PTB  HZ EP       1637  6.04                             132   -0.71 9  153 259 
 PTB  HE ES   4   1637 27.34                             132   -1.06 0  153 259 
 PTB  HZ I        1637 34.47        37.3 0.44            130            153 259 
 OCA  HZ EP   1   1637  8.16                             130    0.47 7  161 351 
 OCA  HE ES       1637 30.51                             130    0.44 9  161 351 
 OCA  HZ I        1637 34.23        19.4 0.28            131            161 351 
 ZAR  HN ES   1   1637 37.37                             123   -0.71 6  209 292 
 ZAR  HZ I        1637 43.23        34.3 0.32            121            209 292 
 NOR  HZ EP       1637 14.74                             119   -0.67 8  239 235 
 NOR  HE ES       1637 44.07                             119    0.25 8  239 235 
 NOR  HZ I        1637 50.86        16.7 0.34            119            239 235 
 SML  HZ EP   1   1637 15.61                             118   -0.47 6  246 334 
 SML  HN ES       1637 44.20                             118   -0.80 8  246 334 
 SML  HZ I        1637 51.73        19.4 0.26            118            246 334 
 CHI  HZ EP   1   1637 16.68                             118   -0.41 6  250 196 
 CHI  HN ES   1   1637 46.55                             118   -0.25 6  250 196 
 CHI  HZ I        1637 52.30        12.8 0.30            119            250 196 
 HEL  HZ EP       1637 21.12                             115    1.16 7  277 256 
 HEL  HE ES   4   1637 52.16                             115    0.24 0  277 256 
 HEL  HZ I        1637 57.26        12.5 0.32            115            277 256 
 GUY2CHZ EP   1   1637 23.94                             113    0.67 5  305 235 
 GUY2CHN ES       1637 58.32                             113    0.52 7  305 235 
 GUY2CHZ I        1638  5.50        11.5 0.28                           305 235 
                                                                                
