 2017 1019 1005 33.0 L   6.796 -73.158149.4  RSN 12 0.4 1.7LRSN                1
 GAP=111        1.04       3.6     3.8  5.5  0.2791E+01  0.2464E+01  0.5044E+01E
 Epicentro: LOS SANTOS - SANTANDER                                             3
 ACTION:UPD 17-11-07 19:33 OP:rebc STATUS:               ID:20171019100533 L   I
 OLDACT:UP  17-10-19 20:56 OP:edw  STATUS:               ID:20171019095430d    3
 OLDACT:UP  17-10-19 20:56 OP:edw  STATUS:               ID:20171019095430d    3
 OLDACT:UP  17-10-19 20:54 OP:edw  STATUS:               ID:20171019095430d    3
 OLDACT:UP  17-10-19 20:49 OP:edw  STATUS:               ID:20171019095430d    3
 OLDACT:DUP 17-10-19 20:45 OP:edw  STATUS:               ID:20171019095430d    3
 OLDACT:REG 17-10-19 19:35 OP:edw  STATUS:               ID:20171019095429     3
 2017-10-19-0958-00M.COL___435                                                 6
 STAT SP IPHASW D HRMM SECON CODA AMPLIT PERI AZIMU VELO AIN AR TRES W  DIS CAZ7
 BAR2 EZ EP       10 5 52.76                             171   -0.2510 22.6 187 
 BAR2 EZ ES       10 6  8.42                             171   -0.2310 22.6 187 
 BAR2 EZ I        10 6  9.33         8.9 0.16            169           22.6 187 
 BRR  HZ EP       10 5 54.53                             153    0.0910 70.2 299 
 BRR  HN ES       10 6 11.77                             153    0.5710 70.2 299 
 PAM  EZ EP       10 5 55.79                             151    0.1610 78.7  40 
 PAM  EN ES       10 6 12.73                             151   -0.5910 78.7  40 
 PAM  EZ I        10 6 15.40         4.0 0.50            153           78.7  40 
 RUS  HZ EP       10 5 57.23                             145    0.1910  100 175 
 RUS  HN ES       10 6 15.92                             145    0.1010  100 175 
 RUS  HZ I        10 6 17.49         5.6 0.34            144            100 175 
 PTB  HZ EP       10 5 59.61                             133   -0.48 9  146 259 
 PTB  HN ES       10 6 20.78                             133   -0.47 9  146 259 
 PTB  HZ I        10 6 21.58         4.0 0.14            133            146 259 
 SPBC HZ EP       10 6  1.77                             130    0.15 9  162 219 
 SPBC HN ES       10 6 24.12                             130    0.15 9  162 219 
 SPBC HZ I        10 6 26.40        10.5 0.30            130            162 219 
 YPLC HZ EP       10 6  3.25                             127    0.21 9  177 151 
 YPLC HN ES       10 6 27.32                             127    0.82 9  177 151 
 YPLC HZ I        10 6 28.18         6.0 0.26            128            177 151 
 ZAR  HZ EP       10 6  6.23                             123    0.71 9  203 292 
 ZAR  HN ES       10 6 30.97                             123    0.04 9  203 292 
 ZAR  HZ I        10 6 35.63         4.6 0.50            124            203 292 
 CHI  HZ EP       10 6 10.29                             118   -0.48 8  248 195 
 CHI  HN ES       10 6 39.93                             118   -0.33 8  248 195 
 CHI  HZ I        10 6 46.58         2.4 0.36            118            248 195 
 GUY2CHZ EP   4   10 6 19.67                             113    3.10 0  300 235 
 GUY2CHN ES   4   10 6 55.09                             113    4.50 0  300 235 
 GUY2CHZ I        10 7  3.08         2.6 0.46                           300 235 
 PTGC HZ EP       10 6 16.06                             112   -0.92 7  309 158 
 PTGC HE ES   4   10 6 49.43                             112   -1.89 0  309 158 
 PRA  HZ EP       10 6 26.85                             107    0.38 6  391 209 
 PRA  HE ES   4   10 7  7.16                             107   -1.05 0  391 209 
 PRA  HZ I        10 7 12.96         2.2 0.34            107            391 209 
 SJC  HZ EP   4   10 6 25.23                             106   -3.37 0  409 327 
 SJC  HN ES   4   10 7  8.25                             106   -3.75 0  409 327 
                                                                                
