 2012  919 1414  0.8 L   7.245 -73.335110.8  RSN  7 0.2 1.9LRSN                1
 GAP=162        0.42       4.0     3.0  4.2  0.1864E+01 -0.7304E+00  0.3050E+00E
 Epicentro: LEBRIJA - SANTANDER                                                3
 ACTION:UPD 12-10-22 14:19 OP:ep   STATUS:               ID:20120919141400 L   I
 2012-09-19-1410-00M.COL___226                                                 6
 STAT SP IPHASW D HRMM SECON CODA AMPLIT PERI AZIMU VELO AIN AR TRES W  DIS CAZ7
 GIR2 SZ EP   1   1414 16.10                             167   -0.04 7 24.1 140 
 GIR2 SZ ES   1   1414 28.08                             167   -0.01 7 24.1 140 
 BRR  HZ EP       1414 16.54                             156   -0.1710 44.3 250 
 BRR  HN ES   1   1414 29.23                             156    0.13 7 44.3 250 
 BRR  HZ I        1414 30.37        18.0 0.15                          44.3 250 
 PAM  SZ EP   1   1414 18.89                             146   -0.11 7 70.9  82 
 BAR2 SZ ES   2   1414 33.28                             144    0.33 5 74.2 167 
 BAR2 SZ I        1414 35.21        27.3 0.34                          74.2 167 
 PTB  HE ES   2   1414 43.57                             123   -0.40 5  146 238 
 RUS  HZ EP   1   1414 26.54                             122    0.27 7  152 169 
 RUS  HN ES   2   1414 46.00                             122   -0.12 5  152 169 
 ZAR  HN ES   2   1414 48.85                             118    0.43 4  170 279 
                                                                                
