 2015 1119 1545 37.1 L   6.836 -73.159140.0  RSN 13 0.4 2.1LRSN                1
 GAP=133        0.79       2.5     3.8  5.1 -0.8497E+00  0.1025E+02 -0.1408E+01E
 Epicentro: LOS SANTOS - SANTANDER                                             3
 ACTION:UPD 15-12-28 16:12 OP:cam  STATUS:               ID:20151119154537 L   I
 OLDACT:REG 15-11-19 20:41 OP:dnl  STATUS:               ID:20151119153748     3
 2015-11-19-1537-48M.COL___316                                                 6
 STAT SP IPHASW D HRMM SECON CODA AMPLIT PERI AZIMU VELO AIN AR TRES W  DIS CAZ7
 BAR2 EZ EP       1545 56.06                             169   -0.0710 27.1 185 
 BAR2 EZ ES       1546 10.87                             169   -0.0910 27.1 185 
 BAR2 EZ I        1546 12.50        19.1 0.10            166           27.1 185 
 BRR  HE ES   4   1546 14.84                             153    1.52 0 68.0 296 
 BRR  HZ I        1546 18.53        25.4 0.29            149           68.0 296 
 PAM  EZ EP   1   1545 58.96                             151    0.38 7 75.3  42 
 PAM  EN ES       1546 15.73                             151    0.3910 75.3  42 
 PAM  EZ I        1546 17.94        48.6 0.48            157           75.3  42 
 RUS  HZ EP       1546  0.14                             142   -0.4610  105 175 
 RUS  HE ES       1546 18.87                             142   -0.0610  105 175 
 RUS  HZ I        1546 20.19        12.1 0.24            145            105 175 
 SPBC HZ EP   1   1546  5.61                             128    0.23 7  165 218 
 SPBC HN ES       1546 27.34                             128   -0.10 9  165 218 
 SPBC HZ I        1546 32.42        16.2 0.06            129            165 218 
 ZAR  HZ EP       1546  9.00                             122    0.12 9  201 291 
 ZAR  HN ES       1546 34.19                             122    0.53 9  201 291 
 ZAR  HZ I        1546 40.45        19.6 0.20            122            201 291 
 NOR  HZ EP   2   1546 12.66                             117    0.03 4  236 233 
 NOR  HE ES       1546 40.36                             117    0.02 8  236 233 
 NOR  HZ I        1546 45.00         5.4 0.14            119            236 233 
 SML  HZ EP       1546 12.51                             117   -0.43 8  239 335 
 SML  HE ES       1546 40.72                             117   -0.18 8  239 335 
 URE  HZ EP       1546 16.69                             113   -0.88 7  281 291 
 URE  HN ES   2   1546 48.97                             113   -0.17 4  281 291 
 URE  HZ I        1546 57.28        10.3 0.20            114            281 291 
 GUY2CHZ EP   4   1546 23.81                             111    3.23 0  302 234 
 GUY2CHN ES   4   1546 56.06                             111    1.57 0  302 234 
 GUY2CHZ I        1547  0.93         3.9 0.44                           302 234 
 MON  HZ EP   4   1546 28.37                             108    2.91 0  350 308 
 MON  HE ES   4   1547  1.24                             108   -1.93 0  350 308 
 MON  HZ I        1547  4.08         2.4 0.13            110            350 308 
 PRA  HZ EP       1546 31.38                             106    0.62 6  395 209 
 PRA  HE ES   2   1547 12.01                             106   -0.59 3  395 209 
 PRA  HZ I        1547 19.82         9.3 0.38            108            395 209 
 ORTC HZ EP       1546 31.50                             105    0.39 6  398 216 
 ORTC HE ES   1   1547 14.04                             105    0.81 4  398 216 
 ORTC HZ I        1547 18.64         4.6 0.46            107            398 216 
                                                                                
