 2014  919 1509 35.4 L   6.837 -73.147144.5  RSN  5 0.3 1.4LRSN                1
 GAP=144        0.75       4.7     4.5  6.4 -0.1055E+02  0.6506E+01  0.1651E+01E
 Epicentro: LOS SANTOS - SANTANDER                                             3
 ACTION:UPD 14-10-03 23:06 OP:nd   STATUS:               ID:20140919150935 L   I
 OLDACT:REG 14-09-19 17:09 OP:spq  STATUS:               ID:20140919150818     3
 2014-09-19-1508-18M.COL___284                                                 6
 STAT SP IPHASW D HRMM SECON CODA AMPLIT PERI AZIMU VELO AIN AR TRES W  DIS CAZ7
 BAR2 SZ EP       15 9 54.96                             169   -0.0510 27.3 188 
 BAR2 SZ ES   1   1510 10.09                             169   -0.18 7 27.3 188 
 BAR2 SZ I        1510 10.98         4.9 0.30            168           27.3 188 
 PAM  SZ EP       15 9 57.75                             152    0.4010 74.4  42 
 PAM  SN ES       1510 14.20                             152   -0.2310 74.4  42 
 PAM  SZ I        1510 16.68         5.2 0.48            155           74.4  42 
 RUS  HZ EP       15 9 59.53                             142    0.1610  105 176 
 RUS  HN ES   1   1510 18.19                             142    0.16 7  105 176 
 RUS  HZ I        1510 19.45         2.9 0.28            144            105 176 
 PTB  HZ EP       1510  1.82                             132   -0.55 9  148 257 
 PTB  HN ES       1510 23.83                             132    0.46 9  148 257 
 PTB  HZ I        1510 25.80         2.3 0.12            133            148 257 
 SPBC HZ EP       1510  4.08                             128   -0.06 9  166 218 
 SPBC HE ES       1510 26.35                             128   -0.17 9  166 218 
 SPBC HZ I        1510 32.42         3.4 0.18            129            166 218 
                                                                                
