 2011  419 1956 11.1 L   6.820 -73.086142.7  RSN  6 0.5 1.7LRSN                1
 GAP=166        0.88       7.2     9.1 12.2 -0.3932E+02 -0.4437E+00  0.2681E+02E
 Epicentro: LOS SANTOS - SANTANDER                                             3
 ACTION:UP  11-06-22 15:31 OP:REBC STATUS:               ID:20110419195611 L   I
 2011-04-19-1954-47S.COL___126                                                 6
 STAT SP IPHASW D HRMM SECON CODA AMPLIT PERI AZIMU VELO SNR AR TRES W  DIS CAZ7
 BAR2 SZ EP   1   1956 30.41                             168     0.0 7   27 203 
 PAM  SZ EP   1   1956 33.17                             152     0.6 7   72  37 
 PAM  SN ES   2   1956 48.59                             152    -0.8 5   72  37 
 BRR  HZ EP   1   1956 32.45                             151     0.3 7   76 295 
 BRR  HZ I        1956 36.59        16.0 0.35                            76 295 
 BRR  HN ES   2   1956 49.03                             151     0.4 5   76 295 
 GRA  SZ EP   1   1956 36.12                             137     0.4 7  122  15 
 GRA  SZ ES   2   1956 54.56                             137    -0.4 5  122  15 
 GRA  SZ I        1956 58.63         4.9 0.44                           122  15 
 OCA  SZ EP   1   1956 38.64                             129    -0.4 7  159 351 
 OCA  SZ ES   1   1957  0.68                             129    -0.1 7  159 351 
 OCA  SZ I        1957  8.18         7.0 0.48                           159 351 
 NOR  SZ EP   1   1956 46.49                             117    -0.9 6  241 235 
 NOR  SN ES   1   1957 15.86                             117     0.2 6  241 235 
                                                                                
