 2012 1019 1521 38.9 L   6.743 -73.075142.5  RSN  5 0.2 2.3LRSN                1
 GAP=148        0.62       2.7     4.8  4.6 -0.2300E+01 -0.1314E+00  0.3174E+01E
 Epicentro: JORDAN - SANTANDER                                                 3
 ACTION:UPD 12-11-22 17:04 OP:ep   STATUS:               ID:20121019152138 L   I
 2012-10-19-1520-00M.COL___234                                                 6
 STAT SP IPHASW D HRMM SECON CODA AMPLIT PERI AZIMU VELO AIN AR TRES W  DIS CAZ7
 BAR2 SZ EP       1521 57.98                             171   -0.0710 20.4 215 
 BAR2 SZ ES       1522 12.80                             171   -0.2110 20.4 215 
 BAR2 SZ I        1522 15.63        59.6 0.22                          20.4 215 
 PAM  SZ EP       1522  0.77                             150    0.0010 77.9  32 
 PAM  SZ I        1522  0.99        39.1 0.22                          77.9  32 
 PAM  SN ES       1522 18.14                             150    0.2910 77.9  32 
 BRR  HZ EP       1521 59.98                             149   -0.2810 81.0 300 
 BRR  HN ES       1522 17.13                             149    0.1910 81.0 300 
 BRR  HZ I        1522 20.74        32.9 0.18                          81.0 300 
 RUS  HZ EP       1522  1.84                             145    0.0110 94.1 181 
 RUS  HN ES       1522 19.52                             145   -0.2210 94.1 181 
 RUS  HN I        1522 22.49        35.2 0.32                          94.1 181 
 CHI  HZ EP   1   1522 15.87                             117   -0.10 6  245 197 
 CHI  HZ I        1522 18.65         8.3 0.35                           245 197 
 CHI  HN ES       1522 45.44                             117    0.54 8  245 197 
                                                                                
