 2011  519 1257 43.0 L   6.798 -73.100142.6  RSN  4 0.1 1.7LRSN                1
 GAP=143        0.37       3.2     4.9  6.9  0.1861E+01 -0.9779E+01 -0.9066E+00E
 Epicentro: LOS SANTOS - SANTANDER                                             3
 ACTION:UP  11-06-29 08:54 OP:tino STATUS:               ID:20110519125743 L   I
 2011-05-19-1255-48S.COL___139                                                 6
 STAT SP IPHASW D HRMM SECON CODA AMPLIT PERI AZIMU VELO SNR AR TRES W  DIS CAZ7
 BAR2 SZ EP       1258  2.20                             170    -0.110   24 202 
 BAR2 SZ I        1258 17.69        11.5 0.62                            24 202 
 PAM  SZ EP       1258  4.85                             151     0.210   74  36 
 PAM  SN ES   3   1258 21.30                             151    -0.3 2   74  36 
 BRR  HZ EP       1258  3.96                             151    -0.110   76 297 
 BRR  HZ I        1258  4.01         9.9 0.16                            76 297 
 BRR  HN ES   2   1258 20.62                             151     0.1 5   76 297 
 RUS  HZ EP       1258  6.38                             144     0.010  100 179 
 RUS  HN ES   2   1258 24.74                             144     0.1 5  100 179 
                                                                                
