 2014  419 1040 34.4 L   6.822 -73.156138.7  RSN 10 0.5 2.1LRSN                1
 GAP=134        1.11       3.4     4.4  7.6 -0.2751E+01  0.1363E+02 -0.3858E-01E
 Epicentro: LOS SANTOS - SANTANDER                                             3
 ACTION:UPD 14-05-13 23:09 OP:nd   STATUS:               ID:20140419104034 L   I
 OLDACT:REG 14-04-19 21:56 OP:nd   STATUS:               ID:20140419103744     3
 2014-04-19-1037-44M.COL___230                                                 6
 STAT SP IPHASW D HRMM SECON CODA AMPLIT PERI AZIMU VELO AIN AR TRES W  DIS CAZ7
 PAM  SZ EP       1040 56.05                             150    0.2210 76.3  41 
 PAM  SN ES       1041 12.99                             150    0.4710 76.3  41 
 PAM  SZ I        1041 15.23        17.3 0.50            153           76.3  41 
 RUS  HZ EP       1040 57.49                             141   -0.2010  103 175 
 RUS  HN ES       1041 15.91                             141    0.0910  103 175 
 RUS  HZ I        1041 16.94        18.0 0.34            145            103 175 
 PTB  HZ EP       1041  0.28                             130   -0.49 9  147 258 
 PTB  HN ES       1041 20.49                             130   -0.82 9  147 258 
 PTB  HZ I        1041 23.37        15.9 0.28            131            147 258 
 SPBC HZ EP       1041  2.16                             127   -0.35 9  164 218 
 SPBC HN ES       1041 23.87                             127   -0.55 9  164 218 
 SPBC HZ I        1041 26.82        21.5 0.18            129            164 218 
 ZAR  HZ EP       1041  6.13                             121   -0.09 9  202 292 
 ZAR  HN ES       1041 31.79                             121    0.79 9  202 292 
 ZAR  HZ I        1041 37.39        10.7 0.34            122            202 292 
 SML  HZ EP       1041  9.74                             116   -0.63 8  241 335 
 SML  HN ES       1041 38.11                             116   -0.29 8  241 335 
 SML  HZ I        1041 43.60        14.0 0.26            118            241 335 
 HEL  HZ EP       1041 14.74                             113    0.50 8  272 255 
 HEL  HN ES       1041 45.36                             113    0.08 8  272 255 
 HEL  HZ I        1041 51.85         6.4 0.30            115            272 255 
 GUY2CHZ EP       1041 18.69                             111    0.91 7  302 234 
 GUY2CHN ES       1041 52.43                             111    0.84 7  302 234 
 GUY2CHZ I        1041 57.49         3.6 0.48                           302 234 
 RREF HZ EP       1041 20.33                             109   -0.03 7  322 229 
 RREF HN ES       1041 56.46                             109    0.28 7  322 229 
 RREF HZ I        1042  0.51         4.6 0.28            111            322 229 
 PRA  HZ EP       1041 27.66                             105   -0.24 6  394 209 
 PRA  HN ES       1042  9.97                             105    0.36 6  394 209 
 PRA  HZ I        1042 14.72         3.8 0.24            107            394 209 
                                                                                
