 2010  319 1255  9.5 L   6.815 -73.061145.9  RSN 12 0.4 3.2LRSN                1
 GAP=132        0.77       3.1     5.5  5.2 -0.5327E+01  0.1498E+01  0.1824E+01E
 Epicentro: LOS SANTOS - SANTANDER                                             3
 ACTION:UP  10-08-24 09:54 OP:vdl  STATUS:               ID:20100319125509 L   I
 2010-03-19-1252-05S.COL___098                                                 6
 STAT SP IPHASW D HRMM SECON CODA AMPLIT PERI AZIMU VELO SNR AR TRES W  DIS CAZ7
 BAR2 SZ IP       1255 29.41                             169     0.110   28 209 
 BAR2 SZ ES   1   1255 44.33                             169    -0.4 7   28 209 
 BRR  HZ IP       1255 31.18                             150     0.010   79 294 
 BRR  HZ I        1255 31.46       589.9 0.15                            79 294 
 BRR  HN ES   1   1255 48.34                             150     0.3 7   79 294 
 RUS  HZ EP   1   1255 33.38                             143     0.0 7  102 181 
 RUS  HE ES   1   1255 52.14                             143     0.1 7  102 181 
 RUS  HZ I        1255 54.50       106.8 0.39                           102 181 
 OCA  SZ EP   1   1255 37.52                             130    -0.3 7  160 350 
 OCA  SZ ES   1   1255 59.73                             130    -0.2 7  160 350 
 OCA  SZ I        1256  7.93       289.4 0.49                           160 350 
 CHI  HZ EP   1   1255 47.66                             117     0.0 6  253 197 
 CHI  HE ES   1   1256 17.11                             117    -0.4 6  253 197 
 CHI  HZ I        1256 19.49        68.4 0.30                           253 197 
 ROSC BN ES   2   1256 18.36                             116    -0.3 4  259 213 
 RREF BZ EP   1   1255 57.23                             110     0.6 5  330 230 
 RREF BE ES   1   1256 33.99                             110     0.6 5  330 230 
 RREF BZ I        1256 39.40        46.9 0.35                           330 230 
 DBB  SZ EP   1   1255 56.93                             109    -1.1 5  349 274 
 TOL  SZ EP   1   1255 59.13                             109     0.4 5  351 226 
 SDV  BZ IP       1255 59.02                             109     0.4 6  352  49 
 ANIL BZ EP   2   1256  0.46                             108     0.2 3  365 225 
 ANIL BE ES   1   1256 40.39                             108     0.6 5  365 225 
 ANIL BZ I        1256 41.74        99.6 0.36                           365 225 
 PRA  HZ EP   1   1256  3.27                             106    -0.5 4  398 211 
 PRA  HN ES   1   1256 45.25                             106    -0.8 4  398 211 
 PRA  HZ I        1256 50.30        74.4 0.53                           398 211 
                                                                                
