 2010  819 1645 25.6 L   6.807 -73.030148.4  RSN  5 0.2 1.9LRSN                1
 GAP=214        0.47       4.5     8.5  5.0  0.1992E+02 -0.7460E+01  0.2695E+01E
 Epicentro: CEPITA - SANTANDER                                                 3
 ACTION:UP  10-09-07 10:56 OP:vdl  STATUS:               ID:20100819164525 L   I
 2010-08-19-1643-49S.COL___115                                                 6
 STAT SP IPHASW D HRMM SECON CODA AMPLIT PERI AZIMU VELO SNR AR TRES W  DIS CAZ7
 BAR2 SZ EP       1645 45.76                             168     0.010   29 216 
 BAR2 SZ ES   1   1646  1.06                             168    -0.3 7   29 216 
 BAR2 SZ I        1646  2.51        29.8 0.16                            29 216 
 GIR2 SZ EP   2   1645 46.00                             166     0.3 5   35 329 
 BRR  HZ EP       1645 47.73                             149     0.010   82 294 
 BRR  HN ES   1   1646  5.01                             149     0.1 7   82 294 
 BRR  HZ I        1646  6.77        16.0 0.14                            82 294 
 RUS  HZ EP       1645 49.68                             144     0.010  101 183 
 RUS  HE ES   2   1646  8.89                             144     0.4 5  101 183 
 RUS  HZ I        1646 10.01         8.3 0.21                           101 183 
 CHI  HZ EP   1   1646  3.68                             117    -0.3 6  253 198 
 CHI  HN ES   2   1646 34.00                             117     0.2 4  253 198 
 CHI  HZ I        1646 38.58         4.3 0.50                           253 198 
                                                                                
