 2012 1019 1402 14.4 L   6.766 -73.132138.7  RSN  4 0.1 1.7LRSN                1
 GAP=140        0.31       2.7     4.6  5.8 -0.3412E+01  0.1369E+02 -0.2361E+00E
 Epicentro: LOS SANTOS - SANTANDER                                             3
 ACTION:UPD 12-11-22 17:04 OP:ep   STATUS:               ID:20121019140214 L   I
 2012-10-19-1400-00M.COL___234                                                 6
 STAT SP IPHASW D HRMM SECON CODA AMPLIT PERI AZIMU VELO AIN AR TRES W  DIS CAZ7
 BAR2 SZ EP   1   14 2 33.07                             171    0.00 7 20.0 196 
 BAR2 SZ I        14 2 51.13        17.2 0.36                          20.0 196 
 BRR  HZ EP       14 2 34.94                             150    0.0010 74.4 301 
 BRR  HZ I        14 2 35.40        10.7 0.27                          74.4 301 
 PAM  SZ EP       14 2 36.01                             149    0.0610 79.4  37 
 PAM  SZ I        14 2 36.42         8.3 0.20                          79.4  37 
 PAM  SN ES   1   14 2 52.73                             149   -0.06 7 79.4  37 
 RUS  HZ EP   1   14 2 37.05                             143   -0.09 7 96.7 177 
 RUS  HN ES   2   14 2 54.99                             143    0.09 5 96.7 177 
 RUS  HN I        14 2 57.58         5.1 0.18                          96.7 177 
                                                                                
