 2013  419 1822  3.8 L   6.710 -73.162144.7  RSN  6 0.4 1.9LRSN                1
 GAP=138        0.97       4.9     4.9  6.4 -0.2650E+01  0.3590E+01  0.3202E+01E
 Epicentro: VILLANUEVA - SANTANDER                                             3
 ACTION:UPD 13-05-22 14:39 OP:EP   STATUS:               ID:20130419182203 L   I
 2013-04-19-1818-37M.COL___214                                                 6
 STAT SP IPHASW D HRMM SECON CODA AMPLIT PERI AZIMU VELO AIN AR TRES W  DIS CAZ7
 BAR2 SZ EP       1822 23.30                             175    0.1610 13.2 190 
 BAR2 SZ ES       1822 38.09                             175   -0.1310 13.2 190 
 BAR2 SZ I        1822 39.29        10.1 0.22            173           13.2 190 
 GIR2 SZ EP       1822 23.70                             163    0.0510 40.9 355 
 GIR2 SZ ES       1822 39.11                             163   -0.0110 40.9 355 
 BRR  HZ EP       1822 25.36                             151    0.3110 75.0 306 
 BRR  HN ES       1822 42.39                             151    0.7610 75.0 306 
 BRR  HN I        1822 43.22        23.0 0.22            152           75.0 306 
 PAM  SZ EP       1822 26.41                             148   -0.0610 86.4  36 
 PAM  SZ I        1822 26.63        17.8 0.18            151           86.4  36 
 PAM  SN ES       1822 43.59                             148   -0.5510 86.4  36 
 RUS  HZ EP       1822 27.02                             146    0.2510 90.8 174 
 RUS  HN ES       1822 44.71                             146    0.0410 90.8 174 
 RUS  HN I        1822 47.17        15.8 0.22            146           90.8 174 
 PTB  HZ EP       1822 30.05                             132   -0.32 9  144 263 
 PTB  HN ES       1822 50.48                             132   -0.62 9  144 263 
 PTB  HN I        1822 53.61         9.4 0.26            133            144 263 
                                                                                
