 2011  719 1611 22.2 L   6.800 -73.142140.8  RSN 14 0.3 2.9LRSN                1
 GAP=137        0.55       2.3     4.0  3.3 -0.4993E+01  0.3312E+01  0.5589E+00E
 Epicentro: LOS SANTOS - SANTANDER                                             3
 ACTION:UPD 12-07-25 14:02 OP:epov STATUS:               ID:20110719161122 L   I
 2011-07-19-1609-47S.COL___143                                                 6
 STAT SP IPHASW D HRMM SECON CODA AMPLIT PERI AZIMU VELO AIN AR TRES W  DIS CAZ7
 BTL  SZ EP   1   1611 41.50                             172    0.39 7 19.1 313 
 BTL  SZ ES   1   1611 56.06                             172    0.17 7 19.1 313 
 BAR2 SZ EP   1   1611 41.13                             170   -0.06 7 23.4 191 
 BAR2 SZ ES   1   1611 55.76                             170   -0.27 7 23.4 191 
 BAR2 SZ I        1611 57.07       202.0 0.28                          23.4 191 
 GIR2 SZ EP   1   1611 41.08                             167   -0.16 7 31.4 350 
 GIR2 SZ ES   1   1611 55.74                             167   -0.38 7 31.4 350 
 BRR  HZ IP     C 1611 42.87                             151    0.0810 71.6 298 
 BRR  HE ES   2   1611 59.66                             151    0.77 5 71.6 298 
 BRR  HZ I        1612  0.87       310.7 0.13                          71.6 298 
 PAM  SZ EP   1   1611 43.97                             150    0.14 7 77.1  39 
 PAM  SN ES   1   1612  1.02                             150    0.29 7 77.1  39 
 RUS  HZ EP   1   1611 45.27                             143   -0.14 7  101 176 
 RUS  HN ES   1   1612  3.38                             143   -0.18 7  101 176 
 RUS  HZ I        1612  5.63        63.4 0.25                           101 176 
 BRI  SZ EP   1   1611 45.55                             140   -0.02 7  108  21 
 BRI  SZ ES   1   1612  4.23                             140    0.41 7  108  21 
 BRI  SZ I        1612  8.93       192.6 0.42                           108  21 
 GRA  SZ IP       1611 46.79                             136   -0.1610  126  17 
 GRA  SZ ES   1   1612  6.05                             136   -0.24 7  126  17 
 GRA  SZ I        1612  7.36       154.2 0.35                           126  17 
 OCA  SZ EP   1   1611 49.53                             128   -0.56 7  160 353 
 OCA  SZ ES   2   1612 11.83                             128   -0.05 5  160 353 
 OCA  SZ I        1612 14.53       123.3 0.17                           160 353 
 NOR  SZ EP   1   1611 57.57                             117   -0.07 6  235 235 
 NOR  SN ES   1   1612 24.95                             117   -0.36 6  235 235 
 CHI  HZ EP   1   1611 59.93                             116    0.34 6  249 195 
 CHI  HE ES   2   1612 29.28                             116    0.49 4  249 195 
 CHI  HZ I        1612 34.47        29.9 0.49                           249 195 
 HEL  HZ EP   2   1612  2.27                             114    0.11 4  272 256 
 RREF HZ EP   1   1612  8.54                             110    0.42 5  322 229 
 PRA  HZ EP   1   1612 15.77                             106    0.24 4  392 210 
 PRA  HN ES   1   1612 56.96                             106   -0.20 4  392 210 
                                                                                
