 2010  719 1525 34.7 L   6.810 -73.043146.8  RSN 11 0.4 2.4LRSN                1
 GAP=170        0.65       3.0     6.6  5.8 -0.3575E+01  0.1170E+02  0.2002E+01E
 Epicentro: LOS SANTOS - SANTANDER                                             3
 ACTION:UPD 10-12-01 15:18 OP:pat  STATUS:               ID:20100719152534 L   I
 2010-07-19-1522-03S.COL___123                                                 6
 STAT SP IPHASW D HRMM SECON CODA AMPLIT PERI AZIMU VELO AIN AR TRES W  DIS CAZ7
 BAR2 SZ IP       1525 54.50                             168    -0.110   29 213 
 BAR2 SZ ES   2   1526  9.80                             168    -0.3 5   29 213 
 BAR2 SZ I        1526 12.18        49.6 0.32                            29 213 
 GIR2 SZ EP   2   1525 54.85                             166     0.2 5   34 331 
 GIR2 SZ ES   2   1526 10.45                             166     0.3 5   34 331 
 BRR  HZ EP   1   1525 56.28                             150    -0.3 7   81 294 
 BRR  HN ES   2   1526 13.61                             150     0.0 5   81 294 
 BRR  HZ I        1526 17.81        46.7 0.23                            81 294 
 RUS  HZ EP       1525 58.49                             144    -0.210  102 183 
 RUS  HE ES   1   1526 17.65                             144     0.3 7  102 183 
 RUS  HZ I        1526 19.01        28.1 0.40                           102 183 
 GUE  SZ EP   2   1525 59.41                             140     0.1 5  114   7 
 GUE  SZ I        1526 21.29         7.5 0.15                           114   7 
 GRA  SZ ES   2   1526 19.51                             138     0.2 5  122  13 
 GRA  SZ I        1526 20.64        24.4 0.33                           122  13 
 OCA  SZ EP   1   1526  3.65                             130     0.4 7  161 349 
 OCA  SZ ES   1   1526 25.06                             130    -0.3 7  161 349 
 OCA  SZ I        1526 28.60        26.8 0.16                           161 349 
 HEL  HZ EP   2   1526 16.36                             114     0.1 4  283 256 
 HEL  HZ I        1526 55.30        18.7 0.47                           283 256 
 GUY  SZ EP   2   1526 20.48                             112     0.9 3  311 236 
 GUY  SE ES   2   1526 54.67                             112     0.2 3  311 236 
 GUY  SZ I        1527  1.04        51.3 0.46                           311 236 
 RREF HZ EP   1   1526 22.45                             110     0.5 5  331 231 
 RREF HN ES   2   1526 58.72                             110    -0.1 3  331 231 
 RREF HZ I        1527  4.18        13.7 0.19                           331 231 
 PRA  HZ EP   1   1526 28.29                             106    -0.8 4  399 211 
 PRA  HN ES   2   1527 11.23                             106    -0.2 3  399 211 
 PRA  HZ I        1527 17.27        16.6 0.32                           399 211 
                                                                                
