 2017 1219 1557  1.3 L   6.833 -73.159145.1  RSN  4 0.2 1.3LRSN                1
 GAP=143        0.53       4.7     2.8  5.1 -0.4121E+01  0.5391E+01 -0.3573E+01E
 Epicentro: LOS SANTOS - SANTANDER                                             3
 ACTION:UPD 18-01-04 13:22 OP:rebc STATUS:               ID:20171219155701 L   I
 OLDACT:REG 17-12-19 20:37 OP:dani STATUS:               ID:20171219154747     3
 2017-12-19-1548-00M.COL___452                                                 6
 STAT SP IPHASW D HRMM SECON CODA AMPLIT PERI AZIMU VELO AIN AR TRES W  DIS CAZ7
 BAR2 EZ EP       1557 20.94                             169    0.0210 26.7 185 
 BAR2 EZ ES       1557 36.24                             169    0.0210 26.7 185 
 BAR2 EZ I        1557 36.96         6.3 0.22            169           26.7 185 
 PAM  EZ EP       1557 23.63                             151    0.2910 75.7  42 
 PAM  EE ES       1557 40.35                             151   -0.1810 75.7  42 
 PAM  EZ I        1557 40.86         3.5 0.42            153           75.7  42 
 PTB  HZ EP       1557 27.83                             132   -0.32 9  147 257 
 PTB  HN ES       1557 49.22                             132    0.14 9  147 257 
 PTB  HZ I        1557 51.20         2.3 0.54            132            147 257 
 ZAR  HN ES       1557 58.50                             123    0.03 9  201 291 
                                                                                
