 2017  919 1314 29.8 L   6.745 -73.132139.7  RSN  6 0.4 1.5LRSN                1
 GAP=141        1.12       5.0     5.3  8.0 -0.8760E+00  0.1320E+02  0.5136E+01E
 Epicentro: LOS SANTOS - SANTANDER                                             3
 ACTION:UPD 17-10-05 19:14 OP:rebc STATUS:               ID:20170919131429 L   I
 OLDACT:REG 17-09-19 19:32 OP:lv   STATUS:               ID:20170919130737     3
 2017-09-19-1308-00M.COL___446                                                 6
 STAT SP IPHASW D HRMM SECON CODA AMPLIT PERI AZIMU VELO AIN AR TRES W  DIS CAZ7
 BAR2 EZ EP       1314 48.61                             172    0.0110 17.8 198 
 BAR2 EZ ES       1315  2.29                             172   -0.9810 17.8 198 
 BAR2 EZ I        1315  5.33        12.1 0.16            170           17.8 198 
 BRR  HZ EP       1314 50.36                             150   -0.2010 75.6 302 
 BRR  HN ES       1315  7.55                             150    0.8010 75.6 302 
 PAM  EZ EP       1314 51.60                             148   -0.0210 81.2  36 
 PAM  EE ES       1315  8.73                             148    0.1010 81.2  36 
 PAM  EZ I        1315 10.85         7.8 0.56            152           81.2  36 
 RUS  HZ EP       1314 52.66                             144    0.1410 94.4 177 
 RUS  HN ES       1315 10.68                             144    0.4510 94.4 177 
 RUS  HZ I        1315 12.92         2.8 0.21            144           94.4 177 
 ZAR  HE ES       1315 27.30                             120   -0.27 8  208 294 
 NOR  HZ EP       1315  4.85                             117   -0.10 8  233 236 
 NOR  HN ES       1315 32.32                             117   -0.05 8  233 236 
 NOR  HZ I        1315 38.61         1.8 0.23            118            233 236 
                                                                                
