 2012  819 1817  6.1 L   6.759 -73.057141.1  RSN  5 0.2 1.8LRSN                1
 GAP=150        0.46       4.0     4.6  4.3  0.1132E+02 -0.4767E+01 -0.4130E+01E
 Epicentro: LOS SANTOS - SANTANDER                                             3
 ACTION:UPD 12-09-10 11:57 OP:ep   STATUS:               ID:20120819181706 L   I
 2012-08-19-1810-00M.COL___217                                                 6
 STAT SP IPHASW D HRMM SECON CODA AMPLIT PERI AZIMU VELO AIN AR TRES W  DIS CAZ7
 BAR2 SZ EP       1817 25.25                             170    0.0510 23.1 217 
 BAR2 SZ I        1817 25.66        19.6 0.12                          23.1 217 
 BAR2 SZ ES       1817 40.02                             170   -0.0510 23.1 217 
 PAM  SZ EP   1   1817 27.91                             151    0.17 7 75.3  32 
 PAM  SZ I        1817 28.50         9.9 0.21                          75.3  32 
 BRR  HZ EP       1817 27.10                             148   -0.3410 82.0 298 
 BRR  HZ I        1817 27.58        15.5 0.15                          82.0 298 
 BRR  HN ES       1817 44.14                             148    0.0810 82.0 298 
 RUS  HZ EP       1817 29.22                             144    0.1310 95.9 182 
 RUS  HN ES   1   1817 46.95                             144   -0.05 7 95.9 182 
 ZAR  HE ES   1   1818  5.56                             120    0.19 6  215 292 
 ZAR  HZ I        1818  9.24         5.4 0.27                           215 292 
                                                                                
