 2014  719 1057 51.2 L   6.845 -73.161143.4  RSN  5 0.4 1.6LRSN                1
 GAP=210        0.90       4.3     6.1  7.9  0.3095E+01  0.1252E+02 -0.7433E+01E
 Epicentro: LOS SANTOS - SANTANDER                                             3
 ACTION:UPD 15-03-16 20:45 OP:nd   STATUS:               ID:20140719105751 L   I
 OLDACT:REG 14-07-19 21:00 OP:stll STATUS:               ID:20140719104816     3
 2014-07-19-1048-16M.COL___269                                                 6
 STAT SP IPHASW D HRMM SECON CODA AMPLIT PERI AZIMU VELO AIN AR TRES W  DIS CAZ7
 BAR2 SZ EP       1058 10.82                             168    0.1510 28.1 185 
 BAR2 SZ ES       1058 25.91                             168    0.0610 28.1 185 
 BAR2 SZ I        1058 27.89         7.9 0.24            170           28.1 185 
 PTB  HZ EP       1058 17.30                             132   -0.64 9  147 257 
 PTB  HZ I        1058 20.34         5.2 0.10            131            147 257 
 PTB  HN ES       1058 38.46                             132   -0.33 9  147 257 
 SPBC HZ EP       1058 19.78                             128   -0.04 9  166 217 
 SPBC HE ES       1058 42.27                             128    0.15 9  166 217 
 SPBC HZ I        1058 44.47         6.0 0.18            129            166 217 
 ZAR  HZ EP       1058 23.80                             122    0.64 9  201 291 
 ZAR  HN ES       1058 48.48                             122    0.41 9  201 291 
 ZAR  HZ I        1058 55.95         3.3 0.14            122            201 291 
 SML  HN ES       1058 54.82                             117   -0.34 8  238 335 
 SML  HZ I        1058 58.96         3.8 0.10            118            238 335 
                                                                                
