 2010 1219 1924  4.4 L   6.769 -73.112144.0  RSN  8 0.5 2.5LRSN                1
 GAP=163        0.97       4.3     8.5  8.5 -0.1968E+02  0.2867E+02 -0.3902E+01E
 Epicentro: LOS SANTOS - SANTANDER                                             3
 ACTION:UP  11-01-14 15:26 OP:pat  STATUS:               ID:20101219192404 L   I
 2010-12-19-1922-02S.COL___132                                                 6
 STAT SP IPHASW D HRMM SECON CODA AMPLIT PERI AZIMU VELO SNR AR TRES W  DIS CAZ7
 BAR2 SZ IP       1924 23.75                             171    -0.110   21 202 
 BAR2 SZ ES   1   1924 38.79                             171    -0.1 7   21 202 
 BAR2 SZ I        1924 40.64        55.3 0.33                            21 202 
 RUS  HZ EP   1   1924 27.51                             145    -0.3 7   97 178 
 RUS  HN ES   1   1924 46.39                             145     0.4 7   97 178 
 RUS  HZ I        1924 47.81        37.9 0.55                            97 178 
 GRA  SZ IP       1924 29.59                             136    -0.110  128  15 
 GRA  SZ ES   1   1924 49.16                             136    -0.3 7  128  15 
 GRA  SZ I        1924 50.20        32.7 0.33                           128  15 
 OCA  SZ EP   1   1924 32.55                             129    -0.4 7  164 352 
 OCA  SZ ES   1   1924 56.23                             129     1.0 7  164 352 
 OCA  SZ I        1924 59.11        40.6 0.30                           164 352 
 NOR  SZ EP   1   1924 39.66                             118    -0.5 6  236 236 
 NOR  SN ES   1   1925  7.29                             118    -0.8 6  236 236 
 VIL  SZ EP   2   1924 48.16                             112     0.9 4  299 191 
 VIL  SE ES   2   1925 20.82                             112     0.1 4  299 191 
 VIL  SZ I        1925 26.99        10.5 0.33                           299 191 
 GUY  SZ EP   1   1924 48.91                             112     0.8 5  302 236 
 GUY  SN ES   1   1925 22.56                             112     0.4 5  302 236 
 GUY  SZ I        1925 29.90        32.9 0.47                           302 236 
 PRA  HZ EP   1   1924 57.67                             106    -0.1 4  391 210 
 PRA  HN ES   1   1925 39.79                             106     0.4 4  391 210 
                                                                                
