 2016  319 1047 15.0 L   6.803 -73.172148.3  RSN  5 0.2 1.8LRSN                1
 GAP=276        0.65       5.4     4.0  5.4 -0.1862E+00  0.3074E+01 -0.6005E+01E
 Epicentro: LOS SANTOS - SANTANDER                                             3
 ACTION:UPD 16-05-13 21:25 OP:cam  STATUS:               ID:20160319104715 L   I
 OLDACT:DUP 16-03-19 23:16 OP:cara STATUS:               ID:20160319103745d    3
 2016-03-19-1037-44M.COL___313                                                 6
 STAT SP IPHASW D HRMM SECON CODA AMPLIT PERI AZIMU VELO AIN AR TRES W  DIS CAZ7
 BAR2 EZ IP       1047 35.02                             171    0.0910 23.3 183 
 BAR2 EZ ES       1047 50.24                             171   -0.2310 23.3 183 
 BAR2 EZ I        1047 51.22        13.5 0.20            169           23.3 183 
 RUS  HZ EP       1047 39.37                             144    0.3410  101 174 
 RUS  HN ES       1047 57.76                             144   -0.0210  101 174 
 RUS  HZ I        1047 58.56         6.9 0.28            143            101 174 
 PTB  HZ EP       1047 41.88                             133   -0.05 9  145 259 
 PTB  HN ES       1048  3.09                             133    0.16 9  145 259 
 PTB  HZ I        1048  4.28         6.6 0.26            133            145 259 
 SPBC HZ EP       1047 43.05                             130   -0.49 9  162 218 
 SPBC HN ES       1048  5.97                             130    0.16 9  162 218 
 SPBC HZ I        1048  8.66        13.6 0.18            129            162 218 
 GUY2CHZ EP   9   1048  1.04                             113    2.56 0  299 234 
 GUY2CHE ES       1048 34.63                                   -0.32 7  299 234 
 GUY2CHZ I        1048 41.34         2.8 0.26                           299 234 
                                                                                
