 2017  519 1029 11.0 L   6.797 -73.176148.2  RSN  5 0.3 1.5LRSN                1
 GAP=177        0.70       4.3     3.6  6.3 -0.5772E+01  0.4682E+00  0.8443E+01E
 Epicentro: LOS SANTOS - SANTANDER                                             3
 ACTION:UPD 17-06-16 13:37 OP:jn   STATUS:               ID:20170519102911 L   I
 OLDACT:REG 17-05-19 20:38 OP:lv   STATUS:               ID:20170519102740     3
 2017-05-19-1028-00M.COL___350                                                 6
 STAT SP IPHASW D HRMM SECON CODA AMPLIT PERI AZIMU VELO AIN AR TRES W  DIS CAZ7
 BRR  HZ EP       1029 32.41                             154    0.1410 68.5 300 
 BRR  HN ES       1029 49.13                             154    0.2810 68.5 300 
 BRR  HZ I        1029 52.89         8.5 0.28            151           68.5 300 
 PAM  EZ EP       1029 33.63                             150    0.0110 79.7  41 
 PAM  EN ES       1029 51.07                             150   -0.1910 79.7  41 
 PAM  EZ I        1029 51.45         3.1 0.21            152           79.7  41 
 PTB  HZ EP       1029 37.40                             133   -0.48 9  144 259 
 PTB  HN ES       1029 58.50                             133   -0.34 9  144 259 
 PTB  HZ I        1029 59.80         2.4 0.44            133            144 259 
 SPBC HZ EP       1029 39.94                             130    0.46 9  161 218 
 SPBC HN ES       1030  1.66                             130   -0.02 9  161 218 
 SPBC HZ I        1030  3.47         5.2 0.07            131            161 218 
 ZAR  HZ EP   2   1029 43.12                             123   -0.19 4  201 293 
 ZAR  HE ES       1030  8.69                             123    0.19 9  201 293 
 ZAR  HZ I        1030 14.35         3.5 0.32            123            201 293 
                                                                                
