 2017  919 1015 21.8 L   6.799 -73.095141.7  RSN  5 0.4 1.3LRSN                1
 GAP=143        0.93       4.8     5.1  6.7  0.5319E+01  0.8202E+01 -0.1434E+01E
 Epicentro: LOS SANTOS - SANTANDER                                             3
 ACTION:UPD 17-10-05 19:14 OP:rebc STATUS:               ID:20170919101521 L   I
 OLDACT:DUP 17-09-19 20:08 OP:lv   STATUS:               ID:20170919100746d    3
 2017-09-19-1008-00M.COL___434                                                 6
 STAT SP IPHASW D HRMM SECON CODA AMPLIT PERI AZIMU VELO AIN AR TRES W  DIS CAZ7
 BAR2 EZ EP       1015 41.00                             170   -0.0010 24.9 203 
 BAR2 EZ ES       1015 55.95                             170   -0.0110 24.9 203 
 BAR2 EZ I        1015 58.47         4.1 0.16            171           24.9 203 
 PAM  EZ EP       1015 43.72                             151    0.3110 74.0  36 
 PAM  EN ES       1015 59.84                             151   -0.4010 74.0  36 
 PAM  EZ I        1016  3.35         4.8 0.60            153           74.0  36 
 BRR  HZ EP       1015 42.79                             150   -0.0410 76.2 297 
 BRR  HN ES       1015 59.87                             150    0.6510 76.2 297 
 RUS  HZ EP       1015 45.03                             143   -0.1310  100 179 
 RUS  HN ES       1016  3.28                             143   -0.0810  100 179 
 RUS  HZ I        1016  4.46         2.1 0.31            146            100 179 
 ZAR  HZ EP       1015 54.88                             121    0.33 8  209 292 
 ZAR  HE ES       1016 19.32                             121   -0.76 8  209 292 
 ZAR  HZ I        1016 24.48         3.3 0.24            122            209 292 
 SJC  HZ EP   4   1016 15.32                             105   -2.30 0  412 326 
 SJC  HN ES   4   1016 56.21                             105   -4.94 0  412 326 
                                                                                
