 2012 1019 1956  2.1 L   6.785 -73.104149.8  RSN  4 0.1 1.8LRSN                1
 GAP=143        0.38       2.6     3.5  4.3 -0.1316E+01  0.1433E+01  0.1938E+01E
 Epicentro: LOS SANTOS - SANTANDER                                             3
 ACTION:UPD 12-11-22 17:04 OP:ep   STATUS:               ID:20121019195602 L   I
 2012-10-19-1950-00M.COL___233                                                 6
 STAT SP IPHASW D HRMM SECON CODA AMPLIT PERI AZIMU VELO AIN AR TRES W  DIS CAZ7
 BAR2 SZ EP       1956 22.02                             171   -0.1510 23.0 202 
 BAR2 SZ I        1956 40.61        11.4 0.20                          23.0 202 
 PAM  SZ EP       1956 24.80                             152    0.1810 75.9  36 
 PAM  SN ES       1956 42.15                             152   -0.0710 75.9  36 
 BRR  HZ EP       1956 23.84                             152   -0.0810 76.0 298 
 BRR  HZ I        1956 24.35        13.2 0.36                          76.0 298 
 BRR  HN ES   1   1956 41.09                             152    0.12 7 76.0 298 
 RUS  HZ EP   1   1956 26.14                             145    0.06 7 98.7 179 
 RUS  HN ES   1   1956 44.86                             145    0.04 7 98.7 179 
 RUS  HZ I        1956 58.71        12.4 0.81                          98.7 179 
                                                                                
