 2012  419 1356 40.4 L   6.750 -73.082149.1  RSN  4 0.2 1.6LRSN                1
 GAP=147        0.60       3.9     5.4  5.7  0.1547E+01 -0.5748E+01  0.1356E+01E
 Epicentro: LOS SANTOS - SANTANDER                                             3
 ACTION:UPD 12-07-05 11:54 OP:tino STATUS:               ID:20120419135640 L   I
 2012-04-19-1350-00M.COL___186                                                 6
 STAT SP IPHASW D HRMM SECON CODA AMPLIT PERI AZIMU VELO AIN AR TRES W  DIS CAZ7
 BAR2 SZ EP   1   1357  0.11                             172    -0.2 7   21 213 
 BAR2 SZ ES   1   1357 16.18                             172     0.3 7   21 213 
 BAR2 SZ I        1357 17.03        14.2 0.17                            21 213 
 PAM  SZ EP       1357  3.20                             151     0.310   78  33 
 PAM  SN ES   1   1357 20.29                             151    -0.3 7   78  33 
 BRR  HZ EP       1357  2.14                             150    -0.210   80 300 
 BRR  HN ES       1357 19.63                             150     0.110   80 300 
 RUS  HZ EP       1357  4.18                             146     0.110   95 180 
 RUS  HE ES   1   1357 22.29                             146    -0.2 7   95 180 
 RUS  HZ I        1357 24.20         3.8 0.40                            95 180 
                                                                                
