 2017 1219 1425 39.0 L   6.749 -73.152143.9  RSN  4 0.2 1.3LRSN                1
 GAP=154        0.59       5.3     3.1  5.6 -0.5651E+01  0.6491E+01 -0.4254E+01E
 Epicentro: LOS SANTOS - SANTANDER                                             3
 ACTION:UPD 18-01-04 13:22 OP:rebc STATUS:               ID:20171219142539 L   I
 OLDACT:DUP 17-12-19 22:11 OP:dani STATUS:               ID:20171219141509d    3
 OLDACT:REG 17-12-19 20:31 OP:dani STATUS:               ID:20171219141508     3
 2017-12-19-1418-00M.COL___461                                                 6
 STAT SP IPHASW D HRMM SECON CODA AMPLIT PERI AZIMU VELO AIN AR TRES W  DIS CAZ7
 BAR2 EZ EP       1425 58.53                             173    0.2510 17.6 191 
 BAR2 EZ ES       1426 13.50                             173    0.1610 17.6 191 
 BAR2 EZ I        1426 21.93         4.5 0.52            167           17.6 191 
 PAM  EZ EP       1426  1.35                             149    0.0610 82.2  37 
 PAM  EN ES       1426 18.47                             149   -0.2310 82.2  37 
 PTB  HZ EP       1426  5.40                             132   -0.25 9  146 261 
 PTB  HN ES       1426 26.21                             132   -0.24 9  146 261 
 PTB  HZ I        1426 28.92         2.6 0.42            137            146 261 
 ZAR  HE ES       1426 37.09                             122    0.28 8  206 294 
                                                                                
