 2010  319 1855 28.8 L   6.808 -73.046155.7  RSN  4 0.3 1.5LRSN                1
 GAP=248        0.47       5.9    12.8  7.3  0.3438E+02 -0.2901E+01  0.9306E+01E
 Epicentro: LOS SANTOS - SANTANDER                                             3
 ACTION:UP  10-08-24 09:54 OP:vdl  STATUS:               ID:20100319185528 L   I
 2010-03-19-1852-15S.COL___098                                                 6
 STAT SP IPHASW D HRMM SECON CODA AMPLIT PERI AZIMU VELO SNR AR TRES W  DIS CAZ7
 BAR2 SZ EP   2   1855 49.76                             169     0.0 5   28 212 
 BAR2 SZ ES   2   1856  6.03                             169    -0.1 5   28 212 
 BRR  HZ EP   2   1855 52.10                             151     0.5 5   81 294 
 BRR  HZ I        1856  8.52        13.8 0.48                            81 294 
 BRR  HE ES   2   1856  9.12                             151    -0.2 5   81 294 
 RUS  HZ EP   2   1855 53.51                             146    -0.1 5  101 182 
 RUS  HZ I        1855 55.01         2.6 0.18                           101 182 
 RUS  HE ES   2   1856 13.10                             146     0.1 5  101 182 
 CHI  HZ EP   2   1856  7.02                             119    -0.5 4  253 198 
 CHI  HZ I        1856 12.81         1.8 0.67                           253 198 
 CHI  HN ES   2   1856 37.93                             119     0.2 4  253 198 
                                                                                
