 2015  219 1121 34.3 L   6.638 -73.441124.8  RSN  5 0.4 1.6LRSN                1
 GAP=116        0.95       4.4     5.3  6.7  0.8500E+01  0.3990E+01 -0.6660E+01E
 Epicentro: EL CARMEN - SANTANDER                                              3
 ACTION:UPD 15-04-30 21:27 OP:nd   STATUS:               ID:20150219112134 L   I
 OLDACT:DUP 15-02-19 21:51 OP:fm   STATUS:               ID:20150219111748d    3
 2015-02-19-1117-47M.COL___293                                                 6
 STAT SP IPHASW D HRMM SECON CODA AMPLIT PERI AZIMU VELO AIN AR TRES W  DIS CAZ7
 BAR2 EZ EP     C 1121 51.71                             166    0.1110 29.1 100 
 BAR2 EZ ES       1122  4.80                             166   -0.2710 29.1 100 
 BAR2 EZ I        1122  5.48        14.1 0.22            170           29.1 100 
 BRR  HZ EP       1121 53.09                             152    0.5110 59.9 330 
 BRR  HN ES       1122  7.33                             152    0.5210 59.9 330 
 BRR  HZ I        1122  8.99         7.7 0.46            152           59.9 330 
 RUS  HZ EP       1121 55.66                             142    0.2810 91.5 154 
 RUS  HE ES       1122 11.36                             142   -0.4310 91.5 154 
 RUS  HZ I        1122 12.79         4.9 0.22            144           91.5 154 
 PTB  HZ EP       1121 56.37                             135   -0.0810  113 265 
 PTB  HN ES       1122 13.46                             135   -0.2410  113 265 
 PTB  HZ I        1122 17.35         4.3 0.10            135            113 265 
 SML  HZ EP       1122 10.49                             112    0.01 8  249 344 
 SML  HN ES       1122 37.99                             112   -0.69 8  249 344 
 SML  HZ I        1122 41.82         5.2 0.10            113            249 344 
                                                                                
