 2017  119 1226 31.7 L   6.116 -73.826 98.1  RSN  4 0.2 1.1LRSN                1
 GAP=136        0.47       2.9     1.6  5.7 -0.3251E+00  0.6984E+00  0.2421E+01E
 Epicentro: EL PENON - SANTANDER                                               3
 ACTION:UPD 17-05-22 16:01 OP:jn   STATUS:               ID:20170119122631 L   I
 OLDACT:REG 17-01-19 21:42 OP:cog  STATUS:               ID:20170119121741     3
 2017-01-19-1218-00M.COL___336                                                 6
 STAT SP IPHASW D HRMM SECON CODA AMPLIT PERI AZIMU VELO AIN AR TRES W  DIS CAZ7
 PTB  HZ EP       1226 48.87                             136   -0.1410 84.0 304 
 PTB  HN ES       1227  2.68                             136    0.1710 84.0 304 
 PTB  HZ I        1227  3.00         4.4 0.36            143           84.0 304 
 RUS  HZ EP       1226 49.80                             136   -0.0210 85.9 107 
 RUS  HN ES       1227  4.07                             136    0.1010 85.9 107 
 RUS  HZ I        1227  7.29         1.5 0.40            139           85.9 107 
 BAR2 EZ EP       1226 49.92                             135    0.2110 88.6  53 
 BAR2 EZ ES       1227  3.53                             135   -0.2410 88.6  53 
 BAR2 EZ I        1227  5.76         7.0 0.15            142           88.6  53 
 NOR  HZ EP   4   1226 55.26                             123    1.75 0  131 242 
 NOR  HN ES       1227 10.45                             123   -0.0910  131 242 
 NOR  HZ I        1227 16.76         2.3 0.14            125            131 242 
                                                                                
