 2017  119 1541  9.3 L   6.838 -73.135146.0  RSN  8 0.4 1.7LRSN                1
 GAP=136        1.04       4.2     4.7  6.3 -0.1071E+01  0.3845E+01  0.6948E+01E
 Epicentro: LOS SANTOS - SANTANDER                                             3
 ACTION:UPD 17-05-22 16:01 OP:jn   STATUS:               ID:20170119154109 L   I
 OLDACT:UP  17-01-19 23:05 OP:edw  STATUS:               ID:20170119153744     3
 OLDACT:UP  17-01-19 23:04 OP:edw  STATUS:               ID:20170119153744     3
 OLDACT:REG 17-01-19 22:04 OP:cog  STATUS:               ID:20170119153744     3
 2017-01-19-1538-00M.COL___337                                                 6
 STAT SP IPHASW D HRMM SECON CODA AMPLIT PERI AZIMU VELO AIN AR TRES W  DIS CAZ7
 BAR2 EZ EP       1541 29.01                             169   -0.0410 27.6 191 
 BAR2 EZ ES       1541 44.84                             169    0.3810 27.6 191 
 BAR2 EZ I        1541 45.74         7.1 0.14            167           27.6 191 
 BRR  HZ EP       1541 30.50                             153    0.0710 70.4 295 
 BRR  HN ES       1541 47.55                             153    0.6410 70.4 295 
 PAM  EZ EP       1541 31.32                             152    0.0110 73.5  41 
 PAM  EN ES       1541 48.13                             152   -0.3510 73.5  41 
 PAM  EZ I        1541 48.84         6.9 0.20            155           73.5  41 
 RUS  HZ EP       1541 33.48                             143    0.1110  105 177 
 RUS  HN ES       1541 51.73                             143   -0.4210  105 177 
 RUS  HZ I        1541 53.43         8.1 0.34            142            105 177 
 PTB  HZ EP   9   1541 35.70                             132   -0.77 0  150 257 
 PTB  HN ES       1541 57.23                             131    0.34 9  150 257 
 PTB  HZ I        1541 59.31         5.8 0.11            130            150 257 
 ZAR  HZ EP   4   1541 43.02                             123    1.30 0  204 291 
 ZAR  HN ES       1542  6.16                             123   -0.84 9  204 291 
 ZAR  HZ I        1542 12.26        11.0 0.32            122            204 291 
 NOR  HZ EP       1541 46.17                             118    0.76 8  238 234 
 NOR  HE ES       1542 13.10                             118   -0.47 8  238 234 
 CHI  HZ EP       1541 47.73                             117    0.25 8  253 195 
 CHI  HN ES       1542 17.05                             117   -0.21 8  253 195 
 CHI  HZ I        1542 24.11         2.4 0.54            116            253 195 
 GUY2CHZ EP   4   1541 55.46                             112    2.16 0  305 234 
 GUY2CHN ES   4   1542 31.61                             112    3.99 0  305 234 
                                                                                
