 2010  919 1533  7.1 L   6.776 -73.107140.9  RSN  9 0.3 2.0LRSN                1
 GAP=163        0.79       3.7     6.1  6.1 -0.7784E+01  0.6055E+01 -0.6723E+00E
 Epicentro: LOS SANTOS - SANTANDER                                             3
 ACTION:UP  11-02-18 11:04 OP:tino STATUS:               ID:20100919153307 L   I
 2010-09-19-1529-57S.COL___121                                                 6
 STAT SP IPHASW D HRMM SECON CODA AMPLIT PERI AZIMU VELO SNR AR TRES W  DIS CAZ7
 BAR2 SZ EP       1533 26.20                             171     0.010   22 202 
 BAR2 SZ ES   1   1533 40.64                             171    -0.4 7   22 202 
 BAR2 SZ I        1533 43.28        33.8 0.23                            22 202 
 GIR2 SZ EP   1   1533 26.27                             165    -0.1 7   35 344 
 BRR  HZ IP     D 1533 28.08                             150     0.010   76 299 
 BRR  HE ES   1   1533 44.88                             150     0.5 7   76 299 
 BRR  HZ I        1533 46.44        42.9 0.18                            76 299 
 RUS  HZ EP   1   1533 30.57                             144     0.4 7   98 178 
 RUS  HE ES   1   1533 48.61                             144     0.4 7   98 178 
 RUS  HZ I        1533 50.50        13.0 0.51                            98 178 
 GRA  SZ EP       1533 32.05                             136     0.010  127  15 
 GRA  SZ ES   1   1533 51.07                             136    -0.4 7  127  15 
 GRA  SZ I        1533 52.62        13.2 0.32                           127  15 
 OCA  SZ EP   1   1533 35.45                             128     0.1 7  163 352 
 OCA  SZ I        1534  0.10        13.8 0.39                           163 352 
 NOR  HZ EP   1   1533 42.57                             117    -0.3 6  237 236 
 NOR  HN ES   1   1534 10.04                             117    -0.6 6  237 236 
 CHI  HZ EP   1   1533 44.29                             116    -0.1 6  247 196 
 CHI  HN ES   2   1534 12.76                             116    -0.7 4  247 196 
 CHI  HZ I        1534 19.67         4.1 0.40                           247 196 
 HEL  HZ EP   1   1533 48.07                             113     0.6 6  276 257 
 HEL  HZ I        1534 26.25         5.0 0.23                           276 257 
                                                                                
