 2011  219 1130 51.3 L   6.761 -72.883137.1  RSN  5 0.4 1.4LRSN                1
 GAP=189        0.92       6.3    24.7 12.8 -0.7722E+02 -0.1934E+03  0.1199E+02E
 Epicentro: SAN ANDRES - SANTANDER                                             3
 ACTION:UP  11-03-28 15:09 OP:jfem STATUS:               ID:20110219113051 L   I
 2011-02-19-1127-06S.COL___137                                                 6
 STAT SP IPHASW D HRMM SECON CODA AMPLIT PERI AZIMU VELO SNR AR TRES W  DIS CAZ7
 BAR2 SZ EP       1131  9.67                             163    -0.610   38 241 
 BAR2 SZ ES   2   1131 24.75                             163    -0.3 5   38 241 
 BAR2 SZ I        1131 25.80         5.8 0.22                            38 241 
 BTL  SZ EP       1131 11.09                             160     0.510   46 292 
 BTL  SZ ES   1   1131 25.60                             160     0.0 7   46 292 
 GIR2 SZ ES   3   1131 25.18                             159    -0.4 2   49 316 
 RUS  HZ EP   2   1131 13.73                             142    -0.3 5   99 193 
 RUS  HN ES   1   1131 32.16                             142     0.4 7   99 193 
 RUS  HZ I        1131 33.18         2.8 0.34                            99 193 
 GRA  SZ EP       1131 15.72                             135     0.110  125   4 
 GRA  SZ ES   1   1131 34.63                             135     0.0 7  125   4 
 GRA  SZ I        1131 36.25         4.4 0.19                           125   4 
                                                                                
