 2017 1019 1059 35.7 L   6.763 -73.139142.6  RSN  5 0.4 1.2LRSN                1
 GAP=235        1.14       6.6     7.2  8.4  0.1109E+02  0.8307E+01  0.5400E+01E
 Epicentro: LOS SANTOS - SANTANDER                                             3
 ACTION:UPD 17-11-07 19:33 OP:rebc STATUS:               ID:20171019105935 L   I
 OLDACT:UP  17-10-19 21:34 OP:edw  STATUS:               ID:20171019105606     3
 OLDACT:REG 17-10-19 19:42 OP:edw  STATUS:               ID:20171019105606     3
 2017-10-19-1058-00M.COL___435                                                 6
 STAT SP IPHASW D HRMM SECON CODA AMPLIT PERI AZIMU VELO AIN AR TRES W  DIS CAZ7
 BAR2 EZ EP       1059 54.91                             172    0.0310 19.5 194 
 BAR2 EZ ES       11 0  9.35                             172   -0.4910 19.5 194 
 BAR2 EZ I        11 0 11.23         5.4 0.20            163           19.5 194 
 BRR  HZ EP       1059 56.85                             151    0.1910 73.8 301 
 BRR  HN ES       11 0 13.65                             151    0.6410 73.8 301 
 RUS  HZ EP       1059 59.03                             144    0.1810 96.5 176 
 RUS  HN ES       11 0 16.75                             144   -0.1510 96.5 176 
 RUS  HZ I        11 0 20.87         1.4 0.32            141           96.5 176 
 PTB  HZ EP       11 0  1.91                             131   -0.50 9  148 260 
 PTB  HN ES       11 0 22.58                             131   -0.66 9  148 260 
 PTB  HZ I        11 0 28.20         1.3 0.18            129            148 260 
 SPBC HZ EP       11 0  3.68                             129   -0.02 9  160 220 
 SPBC HN ES       11 0 26.30                             129    0.75 9  160 220 
 SPBC HZ I        11 0 32.67         4.8 0.10            126            160 220 
                                                                                
