 2012  819 1909 31.9 L   6.691 -73.213153.5  RSN  5 0.2 1.9LRSN                1
 GAP=213        0.52       5.2     4.8  5.4  0.1462E+02  0.2678E+01 -0.1558E+01E
 Epicentro: VILLANUEVA - SANTANDER                                             3
 ACTION:UPD 12-09-10 11:57 OP:ep   STATUS:               ID:20120819190931 L   I
 2012-08-19-1904-40M.COL___213                                                 6
 STAT SP IPHASW D HRMM SECON CODA AMPLIT PERI AZIMU VELO AIN AR TRES W  DIS CAZ7
 BAR2 SZ EP   1   19 9 52.06                             176   -0.24 7 11.5 163 
 BAR2 SZ ES   1   1910  8.14                             176   -0.07 7 11.5 163 
 BAR2 SZ I        1910 10.05        14.2 0.14                          11.5 163 
 BRR  HZ EP       19 9 53.88                             154   -0.0510 71.8 310 
 BRR  HN ES   1   1910 11.46                             154    0.35 7 71.8 310 
 BRR  HZ I        1910 13.19                                           71.8 310 
 RUS  HZ EP   1   19 9 55.65                             148   -0.04 7 89.5 171 
 RUS  HN ES   1   1910 14.27                             148    0.03 7 89.5 171 
 PTB  HZ EP   1   19 9 59.21                             136    0.49 7  138 263 
 PTB  HN ES   1   1910 19.49                             136   -0.13 7  138 263 
 PTB  HZ I        1910 25.38         6.5 0.48                           138 263 
 ZAR  HE ES   1   1910 29.90                             124   -0.34 6  202 296 
 ZAR  HZ I        1910 36.54         9.2 0.33                           202 296 
                                                                                
