 2010  719 1719 56.4 L   6.790 -73.073141.9  RSN 10 0.3 2.9LRSN                1
 GAP=167        0.71       2.8     5.5  4.6 -0.3982E+01 -0.2163E+01  0.7041E+00E
 Epicentro: LOS SANTOS - SANTANDER                                             3
 ACTION:UPD 10-12-01 15:18 OP:pat  STATUS:               ID:20100719171956 L   I
 2010-07-19-1717-14S.COL___123                                                 6
 STAT SP IPHASW D HRMM SECON CODA AMPLIT PERI AZIMU VELO AIN AR TRES W  DIS CAZ7
 BAR2 SZ IP       1720 15.68                             170     0.110   25 209 
 BAR2 SZ ES   1   1720 29.90                             170    -0.7 7   25 209 
 BAR2 SZ I        1720 31.60       285.2 0.34                            25 209 
 GIR2 SZ EP   1   1720 15.70                             166     0.0 7   35 337 
 GIR2 SZ ES   1   1720 31.04                             166     0.3 7   35 337 
 BRR  HZ IP     D 1720 17.49                             149    -0.110   79 296 
 BRR  HZ I        1720 17.68       145.7 0.22                            79 296 
 BRR  HE ES       1720 34.24                             149     0.110   79 296 
 RUS  HZ IP     C 1720 19.75                             143     0.110   99 181 
 RUS  HN ES   1   1720 37.81                             143     0.0 7   99 181 
 RUS  HZ I        1720 40.11        69.5 0.31                            99 181 
 GUE  SZ IP       1720 20.63                             139    -0.110  116   8 
 GRA  SZ IP       1720 21.46                             136     0.310  125  14 
 GRA  SZ ES   1   1720 40.82                             136     0.3 7  125  14 
 GRA  SZ I        1720 41.77       132.5 0.40                           125  14 
 OCA  SZ IP       1720 24.04                             128    -0.6 9  163 350 
 OCA  SZ ES   1   1720 46.45                             128    -0.2 7  163 350 
 OCA  SZ I        1720 49.92        74.5 0.33                           163 350 
 HEL  HZ EP   2   1720 37.12                             113    -0.1 4  280 256 
 HEL  HZ I        1721 14.23        32.7 0.31                           280 256 
 GUY  SZ EP   2   1720 40.47                             111     0.0 4  307 236 
 GUY  SE ES   2   1721 15.38                             111     0.5 4  307 236 
 GUY  SZ I        1721 22.67        80.9 0.39                           307 236 
 PRA  HZ EP   1   1720 50.52                             106     0.4 4  395 211 
 PRA  HE ES   1   1721 31.70                             106    -0.3 4  395 211 
 PRA  HZ I        1721 38.43        35.0 0.35                           395 211 
                                                                                
