 2012  519 1101 50.7 L   6.779 -73.129143.3  RSN  9 0.4 2.0LRSN                1
 GAP=184        0.89       4.7     5.6  7.6  0.3066E+01  0.1389E+02  0.2457E+01E
 Epicentro: LOS SANTOS - SANTANDER                                             3
 ACTION:UP  12-07-05 12:06 OP:pat  STATUS:               ID:20120519110150 L   I
 2012-05-19-1100-00M.COL___200                                                 6
 STAT SP IPHASW D HRMM SECON CODA AMPLIT PERI AZIMU VELO SNR AR TRES W  DIS CAZ7
 BAR2 SZ EP   1   11 2  9.99                             171     0.0 7   21 196 
 BAR2 SZ ES   1   11 2 25.53                             171     0.5 7   21 196 
 BAR2 SZ I        11 2 26.25        20.5 0.17                            21 196 
 BRR  HZ EP   1   11 2 11.77                             151     0.1 7   74 299 
 BRR  HZ I        11 2 12.11        26.7 0.15                            74 299 
 BRR  HE ES   1   11 2 28.40                             151     0.3 7   74 299 
 RUS  HZ EP   1   11 2 14.01                             144     0.0 7   98 177 
 RUS  HZ I        11 2 15.21         9.4 0.16                            98 177 
 RUS  HN ES   1   11 2 31.85                             144    -0.4 7   98 177 
 PTB  HZ EP   1   11 2 16.84                             131    -0.7 7  149 260 
 PTB  HN ES   1   11 2 38.17                             131    -0.4 7  149 260 
 PTB  HZ I        11 2 39.51         7.4 0.14                           149 260 
 OCA  HN ES   1   11 2 41.18                             129     0.0 7  163 353 
 ZAR  HZ EP   1   11 2 22.75                             122    -0.5 6  207 293 
 ZAR  HN ES   1   11 2 48.31                             122    -0.3 6  207 293 
 ZAR  HZ I        11 2 54.56        14.2 0.34                           207 293 
 NOR  SN ES   1   11 2 53.96                             118    -0.1 6  235 235 
 HEL  HZ EP   1   11 2 31.59                             114     0.7 6  273 256 
 HEL  HN ES   1   11 3  2.99                             114     0.7 6  273 256 
 HEL  HZ I        11 3  8.38         8.6 0.40                           273 256 
 PRA  HZ EP   1   11 2 44.71                             106     0.7 4  391 210 
                                                                                
