 2012 1119 1105 17.5 L   6.811 -73.177144.1  RSN 12 0.4 1.8LRSN                1
 GAP=132        0.74       2.7     4.0  5.0 -0.3047E-02  0.4268E+01  0.2050E+01E
 Epicentro: LOS SANTOS - SANTANDER                                             3
 ACTION:UPD 12-12-05 15:34 OP:}ep  STATUS:               ID:20121119110517 L   I
 2012-11-19-1100-00M.COL___234                                                 6
 STAT SP IPHASW D HRMM SECON CODA AMPLIT PERI AZIMU VELO AIN AR TRES W  DIS CAZ7
 BAR2 SZ EP   1   11 5 37.03                             170    0.06 7 24.2 182 
 BAR2 SZ ES   1   11 5 51.49                             170   -0.64 7 24.2 182 
 GIR2 SZ EP   1   11 5 37.09                             168    0.14 7 29.7 356 
 GIR2 SZ ES   1   11 5 51.58                             168   -0.52 7 29.7 356 
 BRR  HZ EP   1   11 5 38.68                             153    0.39 7 67.6 299 
 BRR  HE ES   1   11 5 55.32                             153    0.83 7 67.6 299 
 BRR  HZ I        11 5 59.97        13.2 0.24                          67.6 299 
 PAM  SZ EP       11 5 39.97                             150    0.3310 78.7  42 
 PAM  SN ES   1   11 5 57.11                             150    0.22 7 78.7  42 
 PAM  SZ I        11 5 59.62         6.5 0.46                          78.7  42 
 RUS  HZ EP   1   11 5 41.00                             143   -0.22 7  102 174 
 RUS  HN ES   1   11 5 59.91                             143    0.21 7  102 174 
 RUS  HZ I        11 6  0.94         5.2 0.22                           102 174 
 PTB  HZ EP   1   11 5 43.65                             132   -0.42 7  145 258 
 PTB  HN ES   1   11 6  4.85                             132    0.07 7  145 258 
 PTB  HZ I        11 6  7.99         6.6 0.10                           145 258 
 OCA  HN ES   1   11 6  6.88                             129   -0.54 7  159 354 
 ZAR  HN ES   1   11 6 14.44                             122    0.02 6  200 292 
 ZAR  HZ I        11 6 21.08         8.3 0.34                           200 292 
 SML  HZ EP   1   11 5 54.00                             117    0.22 6  241 336 
 SML  HE ES   1   11 6 21.61                             117   -0.45 6  241 336 
 CHI  HZ EP   1   11 5 55.21                             117    0.05 6  249 194 
 CHI  HN ES   1   11 6 24.29                             117   -0.23 6  249 194 
 CHI  HZ I        11 6 28.96         3.9 0.68                           249 194 
 RREF HZ EP   4   11 6  5.81                             111    2.42 0  320 229 
 RREF HE ES   4   11 6 43.40                             111    4.24 0  320 229 
 RREF HZ I        11 6 44.15         4.2 0.30                           320 229 
 MON  HN ES   4   11 6 42.29                             108   -1.63 0  350 309 
 PRA  HZ EP   1   11 6 10.58                             106   -0.34 4  391 209 
 PRA  HN ES   1   11 6 52.71                             106    0.15 4  391 209 
 PRA  HZ I        11 6 59.19         4.3 0.34                           391 209 
 SJC  HN ES   4   11 6 54.29                             105   -1.43 0  406 327 
                                                                                
