 2015  919 1142 29.9 L   6.333 -73.593107.6  RSN 16 0.4 2.1LRSN                1
 GAP= 54        1.02       2.2     2.5  4.8 -0.1556E+01  0.2663E+01  0.1268E+01E
 Epicentro: SANTA HELENA DEL OPON - SANTANDER                                  3
 ACTION:UPD 15-10-28 16:27 OP:cam  STATUS:               ID:20150919114229 L   I
 OLDACT:REG 15-09-19 20:19 OP:dri  STATUS:               ID:20150919113750     3
 2015-09-19-1137-50M.COL___358                                                 6
 STAT SP IPHASW D HRMM SECON CODA AMPLIT PERI AZIMU VELO AIN AR TRES W  DIS CAZ7
 BAR2 EZ IP     C 1142 46.59                             152    0.3510 53.7  58 
 BAR2 EZ ES       1142 59.52                             152    0.5010 53.7  58 
 BAR2 EZ I        1143  0.72        55.9 0.10            151           53.7  58 
 RUS  HZ EP       1142 47.98                             143   -0.0010 74.5 131 
 RUS  HE ES       1143  1.72                             143   -0.3910 74.5 131 
 RUS  HZ I        1143  4.70        21.3 0.24            142           74.5 131 
 BRR  HZ EP       1142 48.25                             138    0.0210 86.6 351 
 BRR  HN ES       1143  3.08                             138    0.5210 86.6 351 
 BRR  HZ I        1143  4.90        26.6 0.12            136           86.6 351 
 SPBC HZ EP       1142 48.74                             136   -0.0710 92.1 215 
 SPBC HE ES       1143  3.66                             136    0.0710 92.1 215 
 SPBC HZ I        1143  7.83        33.8 0.34            134           92.1 215 
 PTB  HZ EP     D 1142 48.36                             134   -0.8710 98.2 283 
 PTB  HN ES       1143  4.23                             134   -0.1210 98.2 283 
 PTB  HZ I        1143  5.70        62.3 0.34            132           98.2 283 
 PAM  EZ EP       1142 54.65                             122   -0.10 9  149  42 
 PAM  EN ES       1143 14.21                             122    0.04 9  149  42 
 PAM  EZ I        1143 15.78        12.0 0.44            120            149  42 
 NOR  HZ EP       1142 56.01                             118    0.12 9  165 239 
 NOR  HE ES       1143 15.64                             118   -0.56 9  165 239 
 NOR  HZ I        1143 18.28        22.5 0.28            116            165 239 
 CHI  HZ EP       1142 58.79                             115   -0.19 9  189 185 
 CHI  HN ES       1143 21.28                             115   -0.41 9  189 185 
 CHI  HZ I        1143 26.10         7.1 0.36            113            189 185 
 ZAR  HZ EP       1142 58.40                             114   -0.14 9  190 313 
 ZAR  HN ES       1143 20.89                             114   -0.02 9  190 313 
 ZAR  HZ I        1143 24.53        21.2 0.44            113            190 313 
 TAM  HZ EP       1142 59.42                             113   -0.28 9  200  87 
 TAM  HE ES   4   1143 21.36                             113   -1.61 0  200  87 
 OCA  HZ EP       1143  0.81                             111   -0.52 8  213   8 
 OCA  HZ I        1143 17.69        10.4 0.18            110            213   8 
 OCA  HE ES       1143 25.90                             111    0.01 8  213   8 
 HEL  HZ EP       1143  2.50                             111    0.68 8  215 266 
 HEL  HN ES       1143 25.87                             111   -0.88 8  215 266 
 HEL  HZ I        1143 31.94         8.9 0.36            110            215 266 
 GUY2CHZ EP       1143  4.90                             110    1.05 8  231 238 
 GUY2CHN ES       1143 30.70                             110    0.34 8  231 238 
 GUY2CHZ I        1143 38.43        10.0 0.32                           231 238 
 ELA  HZ EP       1143  7.41                             107    0.40 8  258 231 
 ELA  HE ES       1143 36.24                             107    0.26 8  258 231 
 ELA  HZ I        1143 45.53         7.4 0.28            105            258 231 
 DBB  SZ ES   4   1143 40.83                             104   -2.74 0  299 285 
 PRA  HZ EP       1143 13.97                             102   -0.11 7  323 206 
 PRA  HN ES       1143 49.05                             102    0.47 7  323 206 
 PRA  HZ I        1143 54.56         7.2 0.28            101            323 206 
 ORTC HZ EP       1143 14.48                             102    0.22 7  325 214 
 ORTC HE ES       1143 49.18                             102    0.28 7  325 214 
 ORTC HZ I        1143 56.71         4.7 0.28            101            325 214 
                                                                                
