 2016  819 1322 51.3 L   6.781 -73.162146.0  RSN 10 0.4 2.0LRSN                1
 GAP=234        0.86       4.0     4.4  5.5  0.4739E+01  0.5951E+01  0.4074E+01E
 Epicentro: LOS SANTOS - SANTANDER                                             3
 ACTION:UPD 16-10-29 15:37 OP:rebc STATUS:               ID:20160819132251 L   I
 OLDACT:REG 16-08-19 20:30 OP:dnl  STATUS:               ID:20160819131734     3
 2016-08-19-1318-00M.COL___371                                                 6
 STAT SP IPHASW D HRMM SECON CODA AMPLIT PERI AZIMU VELO AIN AR TRES W  DIS CAZ7
 BAR2 EZ EP       1323 10.73                             171   -0.1910 21.0 186 
 BAR2 EZ ES       1323 25.70                             171   -0.5210 21.0 186 
 BAR2 EZ I        1323 27.00        24.0 0.26                          21.0 186 
 BRR  HZ EP       1323 12.60                             153    0.1510 70.7 301 
 BRR  HN ES       1323 29.74                             153    0.7910 70.7 301 
 BRR  HZ I        1323 32.90        13.4 0.15                          70.7 301 
 RUS  HZ EP       1323 14.70                             145   -0.2510 98.7 175 
 RUS  HE ES       1323 33.81                             145    0.4310 98.7 175 
 RUS  HZ I        1323 34.52        10.3 0.28                          98.7 175 
 PTB  HZ EP       1323 17.46                             133   -0.64 9  146 259 
 PTB  HE ES       1323 39.06                             133    0.06 9  146 259 
 PTB  HZ I        1323 40.47        14.0 0.42                           146 259 
 SPBC HZ EP       1323 19.81                             130    0.24 9  160 219 
 SPBC HE ES       1323 41.56                             130   -0.05 9  160 219 
 SPBC HZ I        1323 46.17        21.6 0.20                           160 219 
 ZAR  HZ EP   2   1323 23.81                             123    0.13 4  203 293 
 ZAR  HN ES       1323 48.60                             123   -0.33 9  203 293 
 ZAR  HZ I        1323 53.95        11.9 0.30                           203 293 
 NOR  HZ EP       1323 26.93                             119    0.16 8  232 235 
 NOR  HN ES       1323 54.25                             119   -0.18 8  232 235 
 NOR  HZ I        1324  4.10         6.3 0.14                           232 235 
 CHI  HZ EP   2   1323 29.01                             118    0.26 4  246 195 
 CHI  HN ES   2   1323 58.04                             118    0.08 4  246 195 
 CHI  HZ I        1324  3.35         6.6 0.46                           246 195 
 GUY2CHZ EP   2   1323 35.39                             113    0.76 4  299 235 
 GUY2CHN ES   4   1324 11.90                             113    3.48 0  299 235 
 GUY2CHZ I        1324 17.00         5.3 0.32                           299 235 
 PRA  HZ EP   2   1323 44.81                             107    0.28 3  389 209 
 PRA  HE ES   2   1324 26.13                             107    0.10 3  389 209 
 PRA  HZ I        1324 30.99         5.8 0.48                           389 209 
                                                                                
