 2011  219 1146  1.4 L   6.809 -73.170142.0  RSN 10 0.3 2.5LRSN                1
 GAP=156        0.76       2.9     5.9  5.2 -0.6038E+01  0.1410E+02 -0.7312E+00E
 Epicentro: LOS SANTOS - SANTANDER                                             3
 ACTION:UP  11-03-28 15:09 OP:jfem STATUS:               ID:20110219114601 L   I
 2011-02-19-1144-57S.COL___137                                                 6
 STAT SP IPHASW D HRMM SECON CODA AMPLIT PERI AZIMU VELO SNR AR TRES W  DIS CAZ7
 BTL  SZ ES   2   1146 35.55                             173     0.2 5   16 318 
 BAR2 SZ IP       1146 20.57                             170     0.010   24 184 
 BAR2 SZ ES   1   1146 34.91                             170    -0.7 7   24 184 
 BAR2 SZ I        1146 36.65        66.4 0.24                            24 184 
 GIR2 SZ EP       1146 20.50                             167    -0.110   30 355 
 GIR2 SZ ES   1   1146 36.10                             167     0.5 7   30 355 
 RUS  HZ EP       1146 24.68                             143    -0.210  102 175 
 RUS  HN ES   1   1146 43.69                             143     0.5 7  102 175 
 RUS  HZ I        1146 45.25        42.8 0.35                           102 175 
 GRA  SZ IP       1146 26.21                             136    -0.110  126  19 
 GRA  SZ ES   1   1146 45.88                             136     0.1 7  126  19 
 GRA  SZ I        1146 46.87        37.5 0.38                           126  19 
 OCA  SZ EP       1146 29.18                             129    -0.1 9  159 354 
 OCA  SZ ES   1   1146 51.01                             129    -0.1 7  159 354 
 OCA  SZ I        1146 55.72        42.2 0.31                           159 354 
 NOR  SZ EP       1146 36.82                             118     0.0 8  233 234 
 NOR  SN ES   1   1147  3.81                             118    -0.5 6  233 234 
 CHI  HZ EP       1146 39.03                             116     0.1 8  249 195 
 CHI  HN ES   1   1147  8.29                             116     0.1 6  249 195 
 CHI  HZ I        1147 16.21        19.6 0.31                           249 195 
 HEL  HZ EP       1146 41.74                             114     0.6 8  270 255 
 HEL  HZ I        1147 20.55        21.6 0.26                           270 255 
 DBB  SZ EP       1146 48.53                             109     0.1 7  337 274 
                                                                                
