 2011  919 1236 49.5 L   6.769 -73.110151.6  RSN  6 0.2 1.5LRSN                1
 GAP=143        0.42       3.1     5.0  3.8  0.2879E+01 -0.1905E+01 -0.1968E+00E
 Epicentro: LOS SANTOS - SANTANDER                                             3
 ACTION:UPD 12-07-13 15:58 OP:ep   STATUS:               ID:20110919123649 L   I
 2011-09-19-1235-17S.COL___171                                                 6
 STAT SP IPHASW D HRMM SECON CODA AMPLIT PERI AZIMU VELO AIN AR TRES W  DIS CAZ7
 BAR2 SZ EP       1237  9.77                             172   -0.0610 21.1 202 
 BAR2 SZ ES   1   1237 25.52                             172   -0.14 7 21.1 202 
 BAR2 SZ I        1237 27.36         5.4 0.28                          21.1 202 
 BTL  SZ EP   1   1237 10.09                             171    0.21 7 24.0 313 
 GIR2 SZ EP   1   1237 10.01                             166   -0.01 7 35.5 345 
 GIR2 SZ ES   1   1237 26.43                             166    0.43 7 35.5 345 
 BRR  HZ EP       1237 11.54                             152   -0.0610 76.3 299 
 BRR  HZ I        1237 26.36        15.3 0.32                          76.3 299 
 BRR  HN ES   1   1237 28.65                             152   -0.17 7 76.3 299 
 PAM  SZ EP   1   1237 12.30                             152   -0.09 7 77.7  36 
 PAM  SE ES   2   1237 29.98                             152   -0.24 5 77.7  36 
 RUS  HZ EP   1   1237 13.76                             146    0.14 7 97.0 178 
 RUS  HZ I        1237 14.38         1.8 0.24                          97.0 178 
 RUS  HN ES   1   1237 32.35                             146   -0.05 7 97.0 178 
                                                                                
