 2017  819 1509 12.4 L   6.793 -73.116144.2  RSN  5 0.4 1.5LRSN                1
 GAP=141        0.96       5.0     5.4  7.7  0.5581E+01  0.4982E+01 -0.3100E+00E
 Epicentro: LOS SANTOS - SANTANDER                                             3
 ACTION:UPD 17-09-04 20:22 OP:rebc STATUS:               ID:20170819150912 L   I
 OLDACT:UP  17-08-19 18:36 OP:and  STATUS:               ID:20170819150741d    3
 OLDACT:DUP 17-08-19 18:35 OP:and  STATUS:               ID:20170819150741d    3
 OLDACT:REG 17-08-19 17:02 OP:and  STATUS:               ID:20170819150740     3
 2017-08-19-1508-00M.COL___408                                                 6
 STAT SP IPHASW D HRMM SECON CODA AMPLIT PERI AZIMU VELO AIN AR TRES W  DIS CAZ7
 BAR2 EZ EP       15 9 31.74                             170   -0.1210 23.4 198 
 BAR2 EZ ES       15 9 46.42                             170   -0.6010 23.4 198 
 BAR2 EZ I        15 9 49.16         7.1 0.26            172           23.4 198 
 BRR  HZ EP       15 9 33.65                             151    0.0610 74.5 298 
 BRR  HN ES       15 9 50.68                             151    0.5810 74.5 298 
 BRR  HZ I        15 9 54.81         9.7 0.32            152           74.5 298 
 PAM  EZ IP     C 15 9 34.68                             151    0.3010 76.0  37 
 PAM  EN ES       15 9 51.37                             151   -0.1410 76.0  37 
 PAM  EZ I        15 9 54.02         6.3 0.58            153           76.0  37 
 RUS  HZ EP       15 9 35.71                             144   -0.2310 99.6 178 
 RUS  HN ES       15 9 54.71                             144    0.4210 99.6 178 
 RUS  HZ I        15 9 55.34         2.8 0.26            148           99.6 178 
 ZAR  HZ EP   4   15 9 42.96                             122   -2.15 0  207 292 
 ZAR  HN ES       1510 10.23                             122   -0.38 8  207 292 
                                                                                
