 2011 1119 1220 31.4 L   6.785 -73.152147.2  RSN  8 0.4 2.0LRSN                1
 GAP=136        0.72       3.4     4.4  6.0 -0.4553E+00  0.6801E+01 -0.9981E+00E
 Epicentro: LOS SANTOS - SANTANDER                                             3
 ACTION:UPD 12-07-13 16:11 OP:ep   STATUS:               ID:20111119122031 L   I
 2011-11-19-1217-53S.COL___178                                                 6
 STAT SP IPHASW D HRMM SECON CODA AMPLIT PERI AZIMU VELO AIN AR TRES W  DIS CAZ7
 BAR2 SZ EP       1220 51.13                             171   -0.0210 21.6 189 
 BAR2 SZ ES   1   1221  6.41                             171   -0.17 7 21.6 189 
 BAR2 SZ I        1221  7.65        61.2 0.14                          21.6 189 
 BRR  HZ IP     C 1220 52.98                             153    0.2810 71.4 300 
 BRR  HZ I        1220 53.23        53.9 0.14                          71.4 300 
 BRR  HE ES   1   1221 10.20                             153    0.87 7 71.4 300 
 PAM  SZ EP   1   1220 54.11                             151    0.26 7 79.0  39 
 PAM  SZ I        1220 55.30         3.1 0.20                          79.0  39 
 PAM  SN ES   1   1221 10.80                             151   -0.58 7 79.0  39 
 RUS  HZ EP   1   1220 55.07                             145   -0.09 7 99.0 176 
 RUS  HN ES   1   1221 13.72                             145    0.00 7 99.0 176 
 RUS  HZ I        1221 15.02        10.8 0.22                          99.0 176 
 OCA  SZ EP   1   1220 59.92                             130   -0.03 7  162 353 
 OCA  SZ ES   1   1221 22.10                             130   -0.13 7  162 353 
 OCA  SZ I        1221 25.45        12.2 0.24                           162 353 
 ZAR  HZ EP   1   1221  3.85                             123   -0.07 6  204 293 
 ZAR  HN ES   1   1221 28.79                             123   -0.52 6  204 293 
 ZAR  HZ I        1221 35.47        13.0 0.25                           204 293 
 NOR  SN ES   1   1221 34.48                             119   -0.37 6  233 235 
 CHI  HZ EP   2   1221  9.17                             118    0.20 4  247 195 
 CHI  HZ I        1221  9.59         5.1 0.15                           247 195 
                                                                                
