 2017 1219 1456 18.6 L   6.798 -73.147135.8  RSN  6 0.5 1.8LRSN                1
 GAP=150        1.07       5.3     5.6  8.1 -0.7784E+01  0.1490E+02 -0.1192E+02E
 Epicentro: LOS SANTOS - SANTANDER                                             3
 ACTION:UPD 18-01-04 13:22 OP:rebc STATUS:               ID:20171219145618 L   I
 OLDACT:DUP 17-12-19 22:18 OP:dani STATUS:               ID:20171219144624d    3
 OLDACT:UP  17-12-19 22:18 OP:dani STATUS:               ID:20171219144623     3
 OLDACT:REG 17-12-19 20:32 OP:dani STATUS:               ID:20171219144623     3
 2017-12-19-1448-00M.COL___460                                                 6
 STAT SP IPHASW D HRMM SECON CODA AMPLIT PERI AZIMU VELO AIN AR TRES W  DIS CAZ7
 BAR2 EZ EP       1456 36.66                             170   -0.3110 23.1 190 
 BAR2 EZ ES       1456 51.48                             170    0.1410 23.1 190 
 BAR2 EZ I        1456 53.18        25.4 0.20            168           23.1 190 
 PAM  EZ EP       1456 39.52                             149   -0.2110 77.7  40 
 PAM  EN ES       1456 56.51                             149    0.2610 77.7  40 
 PAM  EZ I        1456 58.77        16.5 0.50            153           77.7  40 
 PTB  HZ EP   9   1456 44.21                             130   -0.49 0  148 259 
 PTB  HN ES       1457  4.10                             131   -0.51 9  148 259 
 PTB  HZ I        1457 10.30         4.0 0.22            130            148 259 
 SPBC HZ EP   1   1456 45.55                             127   -0.72 7  163 219 
 SPBC HN ES   1   1457  8.52                             127    0.63 7  163 219 
 SPBC HZ I        1457 12.22        12.1 0.29            128            163 219 
 ZAR  HZ EP       1456 51.20                             120    0.85 9  204 292 
 ZAR  HE ES       1457 14.64                             120   -0.52 9  204 292 
 ZAR  HZ I        1457 20.60         5.8 0.14            121            204 292 
 DRL03HE ES       1457 31.70                             111   -0.14 7  289 353 
                                                                                
