 2016  419 1358 33.0 L   6.827 -73.137142.5  RSN 10 0.5 2.1LRSN                1
 GAP=140        1.04       4.6     3.8  6.1 -0.8409E+01  0.3365E+01  0.2770E+01E
 Epicentro: LOS SANTOS - SANTANDER                                             3
 ACTION:UPD 16-05-05 14:22 OP:rebc STATUS:               ID:20160419135833 L   I
 OLDACT:ARG 16-04-19 21:08 OP:ar   STATUS:               ID:20160419134750     3
 2016-04-19-1347-50M.COL___306                                                 6
 STAT SP IPHASW D HRMM SECON CODA AMPLIT PERI AZIMU VELO AIN AR TRES W  DIS CAZ7
 BAR2 EZ EP       1358 52.56                             169    0.2310 26.4 191 
 BAR2 EZ ES       1359  7.81                             169    0.4210 26.4 191 
 BAR2 EZ I        1359  8.80        30.3 0.24            169           26.4 191 
 PAM  EZ EP       1358 55.62                             151    0.9010 74.5  40 
 PAM  EE ES       1359 11.28                             151   -0.3710 74.5  40 
 PAM  EZ I        1359 15.83        19.6 0.50            153           74.5  40 
 PTB  HZ EP       1358 59.53                             131   -0.33 9  149 258 
 PTB  HN ES       1359 20.26                             131   -0.54 9  149 258 
 PTB  HZ I        1359 23.30        32.5 0.05            131            149 258 
 ZAR  HZ EP   1   1359  5.60                             122    0.37 6  204 291 
 ZAR  HN ES       1359 30.09                             122   -0.27 9  204 291 
 ZAR  HZ I        1359 35.73        17.8 0.38            122            204 291 
 NOR  HZ EP       1359  8.73                             117   -0.10 8  237 234 
 NOR  HE ES       1359 36.50                             117   -0.26 8  237 234 
 NOR  HZ I        1359 46.10         8.7 0.45            118            237 234 
 CHI  HZ EP       1359 10.66                             116   -0.22 8  252 195 
 CHI  HN ES       1359 40.02                             116   -0.39 8  252 195 
 CHI  HZ I        1359 45.41        10.2 0.32            117            252 195 
 HEL  HZ EP       1359 14.09                             114    0.84 8  274 255 
 HEL  HE ES       1359 44.70                             114    0.07 8  274 255 
 HEL  HZ I        1359 50.60         8.4 0.30            115            274 255 
 GUY2CHZ EP       1359 16.97                             111    0.21 7  304 234 
 GUY2CHN ES       1359 51.07                             111    0.19 7  304 234 
 GUY2CHZ I        1359 58.97         9.7 0.58                           304 234 
 SDV  BZ EP       1359 22.24                             108   -0.39 6  358  50 
 SDV  BE ES       14 0  0.47                             108   -0.86 6  358  50 
 SDV  BZ I        14 0  2.59         1.8 0.50            109            358  50 
 SJC  HZ EP   4   1359 26.77                             105   -1.47 0  407 327 
 SJC  HN ES   4   14 0  8.75                             105   -2.57 0  407 327 
 SJC  HZ I        14 0 14.85         2.7 0.36            106            407 327 
                                                                                
