 2015  419 1433 15.3 L   6.769 -73.144147.7  RSN  6 0.4 2.0LRSN                1
 GAP=154        0.99       6.6     4.7  7.2 -0.1100E+02  0.9951E+01  0.4430E-01E
 Epicentro: LOS SANTOS - SANTANDER                                             3
 ACTION:UPD 15-06-03 16:56 OP:cam  STATUS:               ID:20150419143315 L   I
 OLDACT:DUP 15-04-20 00:48 OP:carl STATUS:               ID:20150419142749d    3
 2015-04-19-1427-48M.COL___271                                                 6
 STAT SP IPHASW D HRMM SECON CODA AMPLIT PERI AZIMU VELO AIN AR TRES W  DIS CAZ7
 BAR2 EZ IP     C 1433 35.26                             172    0.1310 20.0 192 
 BAR2 EZ ES       1433 50.59                             172    0.0210 20.0 192 
 BAR2 EZ I        1433 51.43        10.6 0.20            173           20.0 192 
 BRR  HZ IP       1433 37.05                             152    0.2610 73.0 301 
 BRR  HN ES       1433 54.01                             152    0.4910 73.0 301 
 BRR  HZ I        1433 58.32        17.2 0.16            150           73.0 301 
 PAM  SZ EP       1433 38.16                             150    0.2610 79.9  38 
 PAM  SN ES       1433 55.06                             150   -0.4410 79.9  38 
 PAM  SZ I        1433 57.36        13.4 0.50            152           79.9  38 
 PTB  HZ EP       1433 41.67                             132   -0.74 9  147 260 
 PTB  HN ES       1434  3.00                             132   -0.54 9  147 260 
 PTB  HZ I        1434  6.22        13.1 0.52            133            147 260 
 ZAR  HZ EP       1433 48.22                             123    0.17 8  205 293 
 ZAR  HN ES       1434 13.55                             123   -0.02 8  205 293 
 ZAR  HZ I        1434 18.78        15.3 0.36            123            205 293 
 NOR  HN ES       1434 19.22                             119    0.44 8  233 235 
 NOR  HZ I        1434 21.26         7.7 0.22            121            233 235 
                                                                                
