 2012  619 1408 22.9 L   6.802 -73.177146.1  RSN  5 0.3 1.7LRSN                1
 GAP=132        0.57       4.7     3.9  6.6 -0.2118E+01  0.3874E+01 -0.8279E+01E
 Epicentro: LOS SANTOS - SANTANDER                                             3
 ACTION:UPD 12-08-06 17:50 OP:ep   STATUS:               ID:20120619140822 L   I
 2012-06-19-1400-00M.COL___199                                                 6
 STAT SP IPHASW D HRMM SECON CODA AMPLIT PERI AZIMU VELO AIN AR TRES W  DIS CAZ7
 BAR2 SZ EP   1   14 8 42.69                             171    0.13 7 23.2 181 
 BAR2 SZ ES   1   14 8 58.16                             171    0.26 7 23.2 181 
 BAR2 SZ I        14 8 59.01        12.8 0.20                          23.2 181 
 PAM  SZ EP       14 8 45.32                             150    0.0610 79.5  42 
 PAM  SN ES   2   14 9  2.08                             150   -0.64 5 79.5  42 
 RUS  HZ EP   1   14 8 46.81                             144    0.10 7  101 174 
 RUS  HE ES   1   14 9  5.23                             144   -0.06 7  101 174 
 RUS  HZ I        14 9  7.14         6.6 0.35                           101 174 
 PTB  HZ EP   1   14 8 49.29                             133   -0.28 7  144 258 
 PTB  HN ES   1   14 9 10.10                             133   -0.29 7  144 258 
 PTB  HZ I        14 9 15.65         4.8 0.55                           144 258 
 ZAR  HN ES   2   14 9 20.86                             123    0.79 4  201 292 
 ZAR  HZ I        14 9 26.25         8.0 0.40                           201 292 
                                                                                
