 2012 1119 1443 35.0 L   6.803 -73.144152.2  RSN  7 0.3 1.8LRSN                1
 GAP=186        0.54       3.6     4.2  5.6  0.5075E+01  0.2191E+01 -0.7026E+01E
 Epicentro: LOS SANTOS - SANTANDER                                             3
 ACTION:UPD 12-12-05 15:34 OP:}ep  STATUS:               ID:20121119144335 L   I
 2012-11-19-1440-00M.COL___233                                                 6
 STAT SP IPHASW D HRMM SECON CODA AMPLIT PERI AZIMU VELO AIN AR TRES W  DIS CAZ7
 BAR2 SZ EP   1   1443 55.53                             171    0.08 7 23.7 190 
 BAR2 SZ ES   1   1444 11.54                             171    0.17 7 23.7 190 
 BAR2 SZ I        1444 12.09        18.3 0.20                          23.7 190 
 GIR2 SZ EP   1   1443 55.04                             168   -0.43 7 31.0 350 
 GIR2 SZ ES   2   1444 11.44                             168    0.03 5 31.0 350 
 BRR  HZ EP   1   1443 57.50                             154    0.61 7 71.2 298 
 BRR  HZ I        1444 15.71        15.6 0.20                          71.2 298 
 RUS  HZ EP   1   1443 59.35                             145   -0.10 7  101 176 
 RUS  HN ES   1   1444 18.39                             145   -0.10 7  101 176 
 PTB  HZ EP   1   1444  2.62                             133    0.06 7  148 259 
 PTB  HN ES   1   1444 23.76                             133   -0.26 7  148 259 
 PTB  HZ I        1444 30.78         4.5 0.42                           148 259 
 ZAR  HE ES   1   1444 33.65                             124    0.10 6  204 292 
 SML  HZ EP   1   1444 12.06                             119    0.05 6  243 335 
 SML  HN ES   1   1444 40.57                             119   -0.27 6  243 335 
 SML  HZ I        1444 43.19         5.8 0.10                           243 335 
                                                                                
