 2010 1219 1547  1.4 L   6.778 -73.147148.0  RSN  8 0.4 2.2LRSN                1
 GAP=159        0.95       3.9    10.8  8.6 -0.1932E+02  0.4160E+02 -0.3814E+01E
 Epicentro: LOS SANTOS - SANTANDER                                             3
 ACTION:UP  11-01-14 15:26 OP:pat  STATUS:               ID:20101219154701 L   I
 2010-12-19-1542-42S.COL___133                                                 6
 STAT SP IPHASW D HRMM SECON CODA AMPLIT PERI AZIMU VELO SNR AR TRES W  DIS CAZ7
 BAR2 SZ IP       1547 20.99                             172    -0.210   21 191 
 BAR2 SZ I        1547 21.35        38.7 0.08                            21 191 
 BAR2 SZ ES   1   1547 37.12                             172     0.4 7   21 191 
 RUS  HZ IP     D 1547 24.85                             145    -0.310   98 176 
 RUS  HN ES   1   1547 43.45                             145    -0.3 7   98 176 
 RUS  HZ I        1547 46.57        11.3 0.40                            98 176 
 GRA  SZ EP   1   1547 27.78                             137     0.8 7  128  17 
 GRA  SZ ES   1   1547 47.43                             137     0.4 7  128  17 
 GRA  SZ I        1547 48.64        35.1 0.49                           128  17 
 OCA  SZ EP       1547 29.55                             130    -0.5 9  163 353 
 OCA  SZ ES   1   1547 52.38                             130    -0.1 7  163 353 
 OCA  SZ I        1547 56.14        31.4 0.50                           163 353 
 NOR  SZ EP   1   1547 36.86                             119    -0.2 6  233 235 
 NOR  SE ES   2   1548  4.49                             119    -0.4 4  233 235 
 CHI  HZ EP   1   1547 38.89                             118     0.0 6  246 195 
 CHI  HN ES   1   1548  8.61                             118     0.4 6  246 195 
 CHI  HZ I        1548 11.88         9.5 0.62                           246 195 
 HEL  HZ EP   2   1547 42.27                             115     0.7 4  271 256 
 HEL  HZ I        1548 18.98         7.6 0.22                           271 256 
 PRA  HZ EP   1   1547 55.15                             107     0.4 4  390 210 
 PRA  HN ES   1   1548 37.19                             107     0.9 4  390 210 
                                                                                
