 2017  919 1013 33.8 L   6.636 -73.509107.2  RSN  6 0.3 0.7LRSN                1
 GAP= 93        0.72       2.5     2.9  5.8  0.3615E+00  0.2371E+01 -0.5968E+00E
 Epicentro: EL CARMEN - SANTANDER                                              3
 ACTION:UPD 17-10-05 19:14 OP:rebc STATUS:               ID:20170919101333 L   I
 OLDACT:DUP 17-09-19 20:08 OP:lv   STATUS:               ID:20170919100745d    3
 2017-09-19-1008-00M.COL___434                                                 6
 STAT SP IPHASW D HRMM SECON CODA AMPLIT PERI AZIMU VELO AIN AR TRES W  DIS CAZ7
 BAR2 EZ EP       1013 49.74                             160    0.4910 36.4  98 
 BAR2 EZ ES       1014  1.20                             160   -0.1210 36.4  98 
 BRR  HZ EP       1013 49.95                             150   -0.0010 56.7 337 
 BRR  HN ES       1014  2.90                             150    0.3310 56.7 337 
 RUS  HZ EP       1013 53.65                             136    0.1810 94.7 150 
 RUS  HN ES       1014  8.81                             136   -0.0210 94.7 150 
 RUS  HZ I        1014 10.71         1.2 0.34            135           94.7 150 
 PAM  EZ EP       1013 55.58                             129   -0.0410  119  49 
 PAM  EN ES       1014 12.23                             129   -0.4310  119  49 
 SPBC HN ES       1014 12.58                             126   -0.3110  125 210 
 ZAR  HN ES       1014 22.04                             116   -0.18 9  177 303 
                                                                                
