 2015  119 1033  2.2 L   6.739 -73.135157.0  RSN  5 0.4 1.2LRSN                1
 GAP=201        0.76       5.7     7.0  9.9  0.1017E+02 -0.1304E+02 -0.2755E+02E
 Epicentro: LOS SANTOS - SANTANDER                                             3
 ACTION:UPD 15-03-02 15:40 OP:nd   STATUS:               ID:20150119103302 L   I
 OLDACT:REG 15-01-19 19:39 OP:spq  STATUS:               ID:20150119102740     3
 2015-01-19-1027-40M.COL___262                                                 6
 STAT SP IPHASW D HRMM SECON CODA AMPLIT PERI AZIMU VELO AIN AR TRES W  DIS CAZ7
 BAR2 EZ EP   1   1033 23.16                             174    0.12 7 17.1 198 
 BRR  HZ EP       1033 25.18                             153    0.4110 75.7 303 
 BRR  HE ES   1   1033 42.76                             153    0.34 7 75.7 303 
 BRR  HZ I        1033 45.71         5.3 0.34            152           75.7 303 
 RUS  HN ES   1   1033 45.18                             148   -0.44 7 93.8 177 
 RUS  HZ I        1033 47.01         1.0 0.22            151           93.8 177 
 PTB  HZ EP   1   1033 30.33                             134    0.26 7  148 261 
 PTB  HN ES       1033 51.59                             134   -0.25 9  148 261 
 PTB  HZ I        1033 56.92         1.4 0.55            135            148 261 
 SML  HZ EP   1   1033 39.82                             119   -0.32 6  250 336 
 SML  HE ES   1   1034  9.14                             119   -0.63 6  250 336 
 SML  HZ I        1034 11.32         1.2 0.10            121            250 336 
                                                                                
