 2017  119 1243 11.1 L   6.809 -73.172139.3  RSN  8 0.4 2.0LRSN                1
 GAP=133        0.92       3.9     4.2  6.1 -0.3044E+01  0.5849E+01  0.5305E+01E
 Epicentro: LOS SANTOS - SANTANDER                                             3
 ACTION:UPD 17-05-22 16:01 OP:jn   STATUS:               ID:20170119124311 L   I
 OLDACT:REG 17-01-19 21:44 OP:cog  STATUS:               ID:20170119123746     3
 2017-01-19-1238-00M.COL___336                                                 6
 STAT SP IPHASW D HRMM SECON CODA AMPLIT PERI AZIMU VELO AIN AR TRES W  DIS CAZ7
 BAR2 EZ EP       1243 29.88                             170   -0.0810 24.0 183 
 BAR2 EZ ES       1243 44.94                             170    0.2610 24.0 183 
 BAR2 EZ I        1243 45.74        27.4 0.26            168           24.0 183 
 BRR  HZ EP       1243 31.57                             152    0.2010 68.2 299 
 BRR  HN ES       1243 47.19                             152   -0.0010 68.2 299 
 BRR  HZ I        1243 52.64        21.2 0.34            150           68.2 299 
 PAM  EZ EP       1243 32.52                             149   -0.1710 78.5  42 
 PAM  EN ES       1243 49.60                             149    0.0610 78.5  42 
 PAM  EZ I        1243 51.26        13.8 0.18            153           78.5  42 
 RUS  HZ EP       1243 34.12                             142   -0.1810  102 174 
 RUS  HN ES       1243 52.39                             142   -0.0210  102 174 
 RUS  HZ I        1243 54.07        11.4 0.30            143            102 174 
 PTB  HZ EP       1243 36.57                             131   -0.72 9  145 258 
 PTB  HN ES       1243 57.67                             131   -0.06 9  145 258 
 PTB  HZ I        1243 59.58        12.3 0.24            130            145 258 
 ZAR  HZ EP   4   1243 44.92                             121    2.12 0  201 292 
 ZAR  HN ES   3   1244  6.97                             121   -0.57 2  201 292 
 ZAR  HZ I        1244 13.71        19.9 0.28            121            201 292 
 NOR  HZ EP       1243 47.50                             117    1.24 8  233 234 
 NOR  HN ES       1244 13.61                             117   -0.08 8  233 234 
 NOR  HZ I        1244 19.83         7.3 0.32            118            233 234 
 CHI  HZ EP   3   1243 48.62                             116    0.16 2  249 194 
 CHI  HE ES       1244 17.41                             116   -0.20 8  249 194 
 CHI  HN I        1244 25.09         9.9 0.50            117            249 194 
 CHI  HZ I        1244 25.35         4.2 0.42                           249 194 
 GUY2CHZ EP   4   1243 55.63                             111    1.43 0  299 234 
 GUY2CHE ES   4   1244 30.75                             111    2.92 0  299 234 
 GUY2CHZ  IAML4   1244 38.18         5.6 0.52                           299 234 
                                                                                
