 2017 1019 1000 42.6 L   6.660 -74.080  9.5  RSN  6 0.2 0.8LRSN                1
 GAP= 94        0.66       1.8     1.2  5.2  0.6008E-01  0.1128E+01  0.3500E+01E
 Epicentro: PUERTO PARRA - SANTANDER                                           3
 ACTION:UPD 17-11-07 19:33 OP:rebc STATUS:               ID:20171019100042 L   I
 OLDACT:REG 17-10-19 19:35 OP:edw  STATUS:               ID:20171019095429     3
 2017-10-19-0958-00M.COL___435                                                 6
 STAT SP IPHASW D HRMM SECON CODA AMPLIT PERI AZIMU VELO AIN AR TRES W  DIS CAZ7
 PTB  HZ IP     D 10 0 49.75                              98   -0.1410 43.6 252 
 PTB  HE ES       10 0 55.62                              98    0.0510 43.6 252 
 PTB  HZ I        10 0 55.76         3.7 0.18             47           43.6 252 
 BRR  HZ EP       10 0 52.84                              95   -0.1110 64.1  39 
 BRR  HN ES       10 1  1.31                              95    0.3010 64.1  39 
 BRR  HZ I        10 1  3.70         7.3 0.44             47           64.1  39 
 BAR2 EZ EP       10 0 58.16                              93   -0.4010 99.6  94 
 BAR2 EZ ES       10 1 10.80                              93   -0.2010 99.6  94 
 ZAR  HE ES       10 1 17.77                              93    0.0910  126 317 
 RUS  HZ EP       10 1  4.74                              92   -0.07 9  139 127 
 RUS  HN ES       10 1 22.64                              92    0.50 9  139 127 
 RUS  HZ I        10 1 24.63         2.0 0.20             47            139 127 
 GUY2CHN ES       10 1 39.60                              56    0.04 8  213 222 
                                                                                
