 2011  519 1319 23.2 L   6.774 -73.060140.2  RSN  4 0.4 1.5LRSN                1
 GAP=149        0.96       7.6    11.3 12.4 -0.2927E+01 -0.9758E+01  0.3703E+01E
 Epicentro: LOS SANTOS - SANTANDER                                             3
 ACTION:UP  11-06-29 08:54 OP:tino STATUS:               ID:20110519131923 L   I
 2011-05-19-1316-32S.COL___139                                                 6
 STAT SP IPHASW D HRMM SECON CODA AMPLIT PERI AZIMU VELO SNR AR TRES W  DIS CAZ7
 BAR2 SZ EP       1319 41.57                             170    -0.610   24 214 
 BAR2 SZ ES   2   1319 56.97                             170     0.0 5   24 214 
 BAR2 SZ I        1319 58.65         7.6 0.18                            24 214 
 PAM  SZ EP       1319 44.92                             151     0.310   74  32 
 PAM  SN ES   2   1320  1.04                             151    -0.3 5   74  32 
 BRR  HZ EP       1319 44.70                             148     0.310   81 297 
 BRR  HZ I        1319 55.76        16.3 0.39                            81 297 
 BRR  HN ES   2   1320  0.76                             148    -0.1 5   81 297 
 RUS  HZ EP       1319 46.13                             143    -0.110   98 182 
 RUS  HN ES   2   1320  4.87                             143     0.7 5   98 182 
 RUS  HZ I        1320  6.23         2.6 0.37                            98 182 
                                                                                
