 2013  819 1957 45.0 L   6.317 -73.558112.4  RSN  8 0.5 1.8LRSN                1
 GAP=107        1.31       5.2     4.4  8.1  0.6441E+00  0.1003E+02  0.2914E+00E
 Epicentro: CONTRATACION - SANTANDER                                           3
 ACTION:UPD 14-01-14 09:04 OP:ep   STATUS:               ID:20130819195745 L   I
 OLDACT:REG 13-08-19 15:51 OP:stll STATUS:               ID:20130819194841     3
 2013-08-19-1948-41M.COL___201                                                 6
 STAT SP IPHASW D HRMM SECON CODA AMPLIT PERI AZIMU VELO AIN AR TRES W  DIS CAZ7
 BAR2 SZ EP       1958  2.10                             154    0.2910 51.5  54 
 BAR2 SZ ES       1958 14.98                             154    0.0810 51.5  54 
 BAR2 SZ I        1958 15.99        47.7 0.28            156           51.5  54 
 RUS  HZ EP       1958  3.74                             146    0.4010 70.5 132 
 RUS  HN ES       1958 17.61                             146   -0.0110 70.5 132 
 RUS  HZ I        1958 19.13         7.7 0.20            154           70.5 132 
 BRR  HZ EP       1958  3.91                             139   -0.1210 89.0 349 
 BRR  HN ES       1958 18.85                             139    0.0010 89.0 349 
 BRR  HZ I        1958 25.38        15.2 0.14            139           89.0 349 
 PTB  HZ EP       1958  4.90                             134   -0.2710  102 284 
 PTB  HN ES       1958 20.76                             134   -0.1210  102 284 
 PTB  HZ I        1958 25.80         9.1 0.16            135            102 284 
 PAM  SZ EP       1958  9.53                             123   -0.59 9  148  40 
 PAM  SZ I        1958 11.65         8.5 0.30            127            148  40 
 ZAR  HZ EP       1958 14.72                             115    0.32 9  194 312 
 ZAR  HN ES       1958 37.76                             115    0.45 9  194 312 
 ZAR  HZ I        1958 44.42        12.3 0.24            117            194 312 
 CAPV BZ EP       1958 16.99                             112   -0.57 8  220  39 
 GUY2CHZ EP       1958 20.83                             111    1.34 8  234 239 
 GUY2CHN ES       1958 45.12                             111   -1.24 8  234 239 
 GUY2CHZ I        1958 56.04         3.7 0.46                           234 239 
                                                                                
