 2014  819 1109 27.0 L   6.813 -73.132141.6  RSN  9 0.5 2.0LRSN                1
 GAP= 71        1.26       4.3     5.1  7.4  0.1277E+00  0.8272E+01 -0.4360E+01E
 Epicentro: LOS SANTOS - SANTANDER                                             3
 ACTION:UPD 14-09-15 21:51 OP:nd   STATUS:               ID:20140819110927 L   I
 OLDACT:REG 14-08-19 20:44 OP:stll STATUS:               ID:20140819110817     3
 2014-08-19-1108-17M.COL___254                                                 6
 STAT SP IPHASW D HRMM SECON CODA AMPLIT PERI AZIMU VELO AIN AR TRES W  DIS CAZ7
 BAR2 SZ EP       11 9 46.34                             169    0.1910 25.1 193 
 BAR2 SZ ES       1110  0.34                             169   -0.7610 25.1 193 
 BAR2 SZ I        1110  2.46        19.0 0.18            169           25.1 193 
 BRR  HZ EP       11 9 48.22                             151    0.5010 71.8 297 
 BRR  HN ES       1110  5.01                             151    1.1210 71.8 297 
 BRR  HZ I        1110  9.93        16.9 0.16            151           71.8 297 
 PAM  SZ EP       11 9 49.02                             151    0.3910 75.3  39 
 PAM  SZ I        11 9 49.38        22.6 0.22            153           75.3  39 
 PAM  SN ES       1110  5.29                             151   -0.2310 75.3  39 
 RUS  HZ EP       11 9 50.53                             142    0.1010  102 177 
 RUS  HN ES       1110  8.57                             142   -0.1510  102 177 
 RUS  HZ I        1110 10.45         7.3 0.26            145            102 177 
 PTB  HZ EP       11 9 53.63                             131   -0.14 9  149 258 
 PTB  HE ES       1110 14.78                             131    0.11 9  149 258 
 PTB  HZ I        1110 16.86        12.5 0.38            131            149 258 
 TAM  HZ EP   2   11 9 54.69                             130    0.45 5  154 106 
 TAM  HZ I        11 9 54.98        24.9 0.36            133            154 106 
 SPBC HZ EP       11 9 55.72                             128    0.35 9  165 219 
 SPBC HN ES       1110 16.83                             128   -0.67 9  165 219 
 SPBC HZ I        1110 24.20         9.6 0.26            129            165 219 
 ZAR  HZ EP       11 9 59.27                             121    0.02 9  205 292 
 ZAR  HE ES       1110 24.34                             121   -0.07 9  205 292 
 ZAR  HZ I        1110 26.90         9.2 0.12            122            205 292 
 SML  HZ EP       1110  2.80                             117   -0.50 8  243 335 
 SML  HE ES       1110 30.66                             117   -0.97 8  243 335 
 SML  HZ I        1110 37.12        11.0 0.22            118            243 335 
                                                                                
