 2013  319 1247  6.1 L   6.770 -73.140145.8  RSN  6 0.4 2.0LRSN                1
 GAP=139        1.00       5.0     4.5  6.7  0.2254E+01  0.7610E+01 -0.1548E+01E
 Epicentro: LOS SANTOS - SANTANDER                                             3
 ACTION:UPD 13-04-09 14:03 OP:ep   STATUS:               ID:20130319124706 L   I
 2013-03-19-1240-00M.COL___244                                                 6
 STAT SP IPHASW D HRMM SECON CODA AMPLIT PERI AZIMU VELO AIN AR TRES W  DIS CAZ7
 BAR2 SZ EP       1247 25.69                             172   -0.0310 20.2 193 
 BAR2 SZ ES       1247 41.31                             172    0.3210 20.2 193 
 BRR  HZ EP       1247 27.47                             152    0.0510 73.4 301 
 BRR  HN ES       1247 43.95                             152   -0.0710 73.4 301 
 BRR  HN I        1247 47.96        24.6 0.18            150           73.4 301 
 PAM  SZ EP       1247 28.59                             150    0.1010 79.5  38 
 PAM  SN ES       1247 45.55                             150   -0.3810 79.5  38 
 PAM  SN I        1247 46.37        15.6 0.46            154           79.5  38 
 RUS  HZ EP       1247 29.52                             145   -0.1410 97.3 176 
 RUS  HN ES       1247 48.37                             145    0.3610 97.3 176 
 RUS  HN I        1247 49.44         9.2 0.18            147           97.3 176 
 PTB  HZ EP       1247 32.55                             132   -0.57 9  148 260 
 PTB  HN ES       1247 53.49                             132   -0.67 9  148 260 
 PTB  HN I        1247 58.64        18.2 0.24            132            148 260 
 ZAR  HZ EP       1247 39.39                             122    0.60 8  206 293 
 ZAR  HN ES       1248  4.87                             122    0.62 8  206 293 
 ZAR  HN I        1248  9.09        10.8 0.32            123            206 293 
                                                                                
