 2013  619 1611 21.3 L   6.312 -73.774 82.2  RSN  5 0.4 0.9LRSN                1
 GAP=224        0.69       8.1     3.3 11.2  0.2372E+01  0.4538E+01 -0.4638E+01E
 Epicentro: LANDAZURI - SANTANDER                                              3
 ACTION:UPD 14-01-08 09:55 OP:ep   STATUS:               ID:20130619161121 L   I
 OLDACT:UP  13-06-20 00:11 OP:Mher STATUS:               ID:20130619161121 L   3
 OLDACT:REG 13-06-19 16:03 OP:cam  STATUS:               ID:20130619160959     3
 2013-06-19-1609-59M.COL___261                                                 6
 STAT SP IPHASW D HRMM SECON CODA AMPLIT PERI AZIMU VELO AIN AR TRES W  DIS CAZ7
 BAR2 SZ EP   1   1611 36.32                             136   -0.21 7 72.4  65 
 BAR2 SZ ES   1   1611 48.75                             136    0.34 7 72.4  65 
 BAR2 SZ I        1611 50.05         3.0 0.11            100           72.4  65 
 PTB  HZ EP   1   1611 36.63                             132   -0.24 7 79.6 289 
 PTB  HN ES       1611 49.07                             132    0.0610 79.6 289 
 PTB  HZ I        1611 49.99         2.7 0.28            100           79.6 289 
 BRR  HN ES   2   1611 49.62                             129   -0.80 5 88.2   4 
 RUS  HZ EP   4   1611 40.20                             130    1.76 0 89.4 121 
 RUS  HZ I        1611 57.17         1.9 0.60             96           89.4 121 
 ZAR  HN ES   1   1612  8.17                             110    0.45 7  177 318 
                                                                                
