 2011 1119 1506 44.4 L   7.482 -73.149142.6  RSN  5 0.2 1.6LRSN                1
 GAP=197        0.33       4.3     3.1  4.1 -0.2384E+01  0.2551E+01 -0.4268E+01E
 Epicentro: EL PLAYON - SANTANDER                                              3
 ACTION:UPD 12-07-13 16:11 OP:ep   STATUS:               ID:20111119150644 L   I
 2011-11-19-1505-03S.COL___178                                                 6
 STAT SP IPHASW D HRMM SECON CODA AMPLIT PERI AZIMU VELO AIN AR TRES W  DIS CAZ7
 PAM  SZ EP   1   15 7  4.97                             159    0.04 7 52.0 108 
 PAM  SZ I        15 7  5.13         2.7 0.18                          52.0 108 
 PAM  SE ES   1   15 7 20.85                             159   -0.11 7 52.0 108 
 BRR  HZ IP     D 15 7  5.44                             151    0.0510 74.7 236 
 BRR  HZ I        15 7  5.60        22.0 0.15                          74.7 236 
 BRR  HN ES   1   15 7 21.84                             151    0.06 7 74.7 236 
 BAR2 SZ EP   1   15 7  7.30                             143   -0.01 7 98.5 182 
 BAR2 SZ ES   1   15 7 25.23                             143    0.04 7 98.5 182 
 BAR2 SZ I        15 7 26.96         6.7 0.42                          98.5 182 
 RUS  HN ES   3   15 7 37.21                             126   -0.62 2  176 178 
 ZAR  HE ES   3   15 7 38.36                             124   -0.59 2  189 270 
                                                                                
