 2016  519 1038 30.9 L   6.847 -73.144147.2  RSN 26 0.5 2.8LRSN                1
 GAP= 70        1.14       2.6     3.0  4.6 -0.1958E+01  0.3205E+01  0.3706E+00E
 Epicentro: LOS SANTOS - SANTANDER                                             3
 ACTION:UPD 16-08-18 17:47 OP:cam  STATUS:               ID:20160519103830 L   I
 OLDACT:UP  16-05-19 21:54 OP:drio STATUS:               ID:20160519103744     3
 OLDACT:UP  16-05-19 21:52 OP:drio STATUS:               ID:20160519103744     3
 OLDACT:UP  16-05-19 21:51 OP:drio STATUS:               ID:20160519103744     3
 OLDACT:REG 16-05-19 20:18 OP:drio STATUS:               ID:20160519103744     3
 2016-05-19-1037-44M.COL___294                                                 6
 STAT SP IPHASW D HRMM SECON CODA AMPLIT PERI AZIMU VELO AIN AR TRES W  DIS CAZ7
 BAR2 EZ IP     D 1038 50.86                             169    0.0210 28.4 189 
 BAR2 EZ ES       1039  5.92                             169   -0.4510 28.4 189 
 BAR2 EZ I        1039  7.27       187.0 0.28            169           28.4 189 
 BRR  HZ EP     C 1038 52.62                             153    0.5110 69.1 295 
 BRR  HN ES       1039  9.35                             153    0.7210 69.1 295 
 BRR  HZ I        1039 12.12        96.5 0.32            152           69.1 295 
 PAM  EZ EP       1038 53.74                             152    0.6810 73.3  42 
 PAM  EN ES       1039 10.27                             152   -0.0510 73.3  42 
 PAM  EZ I        1039 12.94        97.0 0.56            151           73.3  42 
 RUS  HZ EP       1038 54.83                             143   -0.3610  106 176 
 RUS  HN ES       1039 13.76                             143   -0.3510  106 176 
 RUS  HZ I        1039 14.43        42.9 0.20            142            106 176 
 PTB  HZ EP       1038 57.44                             132   -0.68 9  149 257 
 PTB  HN ES       1039 18.93                             132   -0.41 9  149 257 
 PTB  HZ I        1039 25.28        54.5 0.26            130            149 257 
 OCA  HZ EP       1038 58.79                             131   -0.08 9  155 353 
 OCA  HN ES       1039 20.81                             131    0.14 9  155 353 
 OCA  HZ I        1039 24.02       131.9 0.28            129            155 353 
 TAM  HZ IP     D 1038 59.26                             131    0.44 9  156 107 
 TAM  HZ I        1039 20.24        39.0 0.32            129            156 107 
 TAM  HN ES       1039 21.02                             131    0.43 9  156 107 
 SPBC HZ EP       1038 59.80                             129   -0.12 9  167 218 
 SPBC HN ES       1039 22.22                             129   -0.33 9  167 218 
 SPBC HZ I        1039 26.63       127.1 0.22            127            167 218 
 ZAR  HZ EP       1039  3.44                             123    0.16 9  202 291 
 ZAR  HN ES       1039 28.70                             123    0.17 9  202 291 
 NOR  HZ EP       1039  6.98                             118   -0.09 8  238 233 
 NOR  HE ES       1039 34.48                             118   -0.80 8  238 233 
 NOR  HZ I        1039 37.35        33.2 0.40            117            238 233 
 CHI  HZ EP       1039  9.48                             117    0.24 8  254 195 
 CHI  HN ES       1039 38.61                             117   -0.53 8  254 195 
 CHI  HZ I        1039 41.74        44.9 0.60            116            254 195 
 ROSC BZ EP   9   1039 10.89                             116    1.28 0  257 210 
 ROSC BN ES       1039 41.28                             117    0.21 8  257 210 
 ROSC BZ I        1039 45.42        88.6 0.40            115            257 210 
 HEL  HZ EP       1039 12.31                             115    0.94 8  274 255 
 HEL  HN ES       1039 43.31                             115    0.39 8  274 255 
 HEL  HZ I        1039 48.84        32.9 0.28            113            274 255 
 URE  HZ EP       1039 11.05                             114   -0.82 7  282 291 
 URE  HN ES   4   1039 41.33                             114   -2.48 0  282 291 
 URE  HZ I        1039 49.08        31.9 0.14            112            282 291 
 PTGC HZ EP   4   1039 13.93                             111   -1.45 0  313 159 
 PTGC HN ES   4   1039 47.68                             111   -2.37 0  313 159 
 PTGC HZ I        1039 50.21        30.9 0.44            110            313 159 
 LL6C HZ EP       1039 15.35                             111   -0.75 7  320 358 
 LL6C HN ES       1039 51.09                             111   -0.24 7  320 358 
 LL6C HZ I        1039 57.91        18.7 0.36            110            320 358 
 ELA  HZ EP   4   1039 20.30                             110    2.07 0  333 229 
 ELA  HN ES       1039 54.56                             110   -0.58 7  333 229 
 ELA  HZ I        1040  7.26        27.5 0.44            109            333 229 
 CBOC HZ EP       1039 18.74                             110    0.64 7  335 251 
 CBOC HN ES   4   1039 50.45                             110   -4.45 0  335 251 
 CBOC HZ I        1040  0.33         9.0 0.44            109            335 251 
 SDV  BZ EP       1039 20.43                             109   -0.19 6  357  51 
 SDV  BN ES   4   1039 57.28                             109   -2.10 0  357  51 
 SDV  BZ I        1040  0.93         9.3 0.30            107            357  51 
 ANIL HZ EP       1039 22.12                             108    0.90 6  361 224 
 ANIL HN ES       1040  1.09                             108    0.63 6  361 224 
 PRA  HZ EP       1039 24.56                             106   -0.46 6  397 209 
 PRA  HN ES       1040  6.29                             106   -0.94 6  397 209 
 PRA  HZ I        1040 12.79        47.0 0.72            105            397 209 
 ORTC HZ EP       1039 25.16                             106   -0.23 6  400 216 
 ORTC HN ES       1040  8.64                             106    0.76 6  400 216 
 ORTC HZ I        1040 12.11        19.5 0.28            105            400 216 
 SJC  HZ EP       1039 25.02                             106   -1.02 6  405 327 
 SJC  HN ES   4   1040  6.24                             106   -2.79 0  405 327 
 SJC  HZ I        1040 20.50         9.7 0.60            105            405 327 
 PAL  HZ EP       1039 26.39                             106   -0.07 6  409 238 
 PAL  HN ES       1040 10.73                             106    0.95 6  409 238 
 PAL  HZ I        1040 15.08         7.3 0.20            105            409 238 
 CRJC HZ EP   4   1039 31.25                             104   -1.60 0  462   4 
 CRJC HN ES   4   1040 18.69                             104   -2.46 0  462   4 
 CRJC HZ I        1040 25.80        20.0 0.40            103            462   4 
 YOT  HZ EP   4   1039 33.29                             103   -1.13 0  475 228 
 YOT  HE ES       1040 25.17                             103    1.21 5  475 228 
 MACC HZ EP   4   1039 48.93                             102    8.65 0  526 189 
 MACC HE ES   4   1040 28.80                             102   -5.57 0  526 189 
                                                                                
