 2014  719 1119 19.6 L   6.838 -73.157140.6  RSN 24 0.5 2.7LRSN                1
 GAP=118        1.12       2.4     3.4  4.9 -0.1962E+01  0.3844E+01  0.3982E+00E
 Epicentro: LOS SANTOS - SANTANDER                                             3
 ACTION:UPD 15-03-16 20:45 OP:nd   STATUS:               ID:20140719111919 L   I
 OLDACT:UP  14-07-29 06:38 OP:FM   STATUS:               ID:20140719111919 L   3
 OLDACT:REG 14-07-19 21:01 OP:stll STATUS:               ID:20140719111819     3
 2014-07-19-1118-19M.COL___269                                                 6
 STAT SP IPHASW D HRMM SECON CODA AMPLIT PERI AZIMU VELO AIN AR TRES W  DIS CAZ7
 BAR2 SZ IP     D 1119 39.25                             168    0.5510 27.3 186 
 BAR2 SZ ES       1119 53.66                             168    0.0710 27.3 186 
 BAR2 SZ I        1119 55.94       186.8 0.32            168           27.3 186 
 PAM  SN ES       1119 57.87                             150   -0.0410 75.0  42 
 RUS  HZ EP       1119 43.24                             141    0.0710  105 176 
 RUS  HN ES       1120  1.27                             141   -0.2810  105 176 
 RUS  HZ I        1120  2.82        50.5 0.28            144            105 176 
 PTB  HZ EP       1119 45.63                             131   -0.49 9  147 257 
 PTB  HN ES       1120  6.40                             131   -0.40 9  147 257 
 PTB  HZ I        1120 13.90        44.5 0.44            131            147 257 
 OCA  HZ EP       1119 47.87                             129    0.77 9  156 353 
 OCA  HN ES       1120  8.86                             129    0.31 9  156 353 
 OCA  HZ I        1120 16.26        46.9 0.50            131            156 353 
 SPBC HZ EP       1119 47.96                             127    0.01 9  166 218 
 SPBC HN ES       1120 10.32                             127    0.26 9  166 218 
 SPBC HZ I        1120 14.04        53.2 0.16            128            166 218 
 ZAR  HZ EP       1119 51.63                             121    0.20 9  201 291 
 ZAR  HN ES       1120 16.21                             121   -0.04 9  201 291 
 ZAR  HZ I        1120 22.88        53.6 0.30            122            201 291 
 NOR  HZ EP       1119 55.15                             117   -0.04 8  236 233 
 NOR  HN ES       1120 22.25                             117   -0.70 8  236 233 
 NOR  HZ I        1120 29.14        28.8 0.18            118            236 233 
 SML  HZ EP       1119 55.53                             117    0.07 8  239 335 
 SML  HN ES       1120 22.97                             117   -0.47 8  239 335 
 SML  HZ I        1120 28.40        53.2 0.28            118            239 335 
 CHI  HZ EP     C 1119 57.52                             115    0.09 8  252 195 
 CHI  HZ I        1119 57.86        20.3 0.14            117            252 195 
 CHI  HE ES       1120 26.87                             115   -0.06 8  252 195 
 ROSC BZ IP   9 D 1119 59.43                             115    1.66 0  256 210 
 ROSC BN ES       1120 28.32                             115   -0.88 8  256 210 
 ROSC BZ I        1120 33.86        59.3 0.45            117            256 210 
 HEL  HZ IP     C 1120  0.51                             114    0.97 8  272 255 
 HEL  HN ES       1120 30.85                             114    0.17 8  272 255 
 HEL  HZ I        1120 39.48        22.7 0.24            115            272 255 
 URE  HZ EP   4   1119 59.03                             113   -1.09 0  281 291 
 URE  HN ES   1   1120 30.42                             113   -1.30 6  281 291 
 URE  HZ I        1120 31.90        32.3 0.12            114            281 291 
 SOCV BZ EP       1120  1.83                             111   -0.45 7  300  58 
 GUY2CHZ EP       1120  3.81                             111    0.67 7  303 234 
 GUY2CHE ES       1120 37.40                             111    0.31 7  303 234 
 GUY2CHZ I        1120 47.47        21.0 0.46                           303 234 
 VIL  SZ EP       1120  2.59                             111   -0.64 7  307 191 
 VIL  SN ES       1120 37.12                             111   -0.14 7  307 191 
 VIL  SZ I        1120 42.93        20.2 0.42            113            307 191 
 RREF HZ EP   1   1120  6.62                             110    0.89 5  324 229 
 RREF HN ES       1120 41.95                             110    0.24 7  324 229 
 RREF HZ I        1120 47.81        32.0 0.34            111            324 229 
 DBB  SZ EP       1120  6.53                             108   -0.16 7  338 274 
 DBB  SZ ES   4   1120 42.60                             108   -0.82 0  338 274 
 DBB  SZ I        1120 46.91        52.3 0.54            110            338 274 
 TOL  SZ EP       1120  8.80                             108    0.90 6  346 224 
 TOL  SE ES       1120 45.28                             108   -0.29 6  346 224 
 ANIL HZ EP       1120 10.18                             107    0.72 6  359 224 
 ANIL HN ES       1120 49.25                             107    0.90 6  359 224 
 ANIL HZ I        1120 57.17        44.8 0.32            109            359 224 
 SDV  BZ EP       1120  8.82                             107   -0.43 6  359  51 
 PRA  HZ IP     D 1120 12.92                             105   -0.39 6  395 209 
 PRA  HE ES       1120 54.86                             105   -0.33 6  395 209 
 PRA  HZ I        1121  0.78        19.2 0.38            107            395 209 
 ORTC HZ EP       1120 12.07                             105   -1.59 6  398 216 
 ORTC HN ES       1120 55.55                             105   -0.28 6  398 216 
 ORTC HZ I        1121  0.97        13.1 0.24            107            398 216 
 SJC  HZ EP       1120 13.24                             105   -1.26 6  405 327 
 SJC  HN ES   4   1120 53.80                             105   -3.52 0  405 327 
                                                                                
