 2011  219 1457  3.9 L   6.856 -73.273124.0  RSN 16 0.4 3.2LRSN                1
 GAP= 98        0.98       3.2     5.5  5.1 -0.4735E+01  0.6742E+01  0.1261E+01E
 Epicentro: ZAPATOCA - SANTANDER                                               3
 ACTION:UP  11-03-28 15:09 OP:jfem STATUS:               ID:20110219145703 L   I
 2011-02-19-1455-30S.COL___137                                                 6
 STAT SP IPHASW D HRMM SECON CODA AMPLIT PERI AZIMU VELO SNR AR TRES W  DIS CAZ7
 BTL  SZ IP   3   1457 21.88                             177     1.2 2    7   5 
 BTL  SZ ES   1   1457 34.79                             177     1.0 7    7   5 
 GIR2 SZ IP       1457 20.85                             167     0.010   26  20 
 GIR2 SZ ES   1   1457 33.84                             167    -0.3 7   26  20 
 BAR2 SZ IP       1457 21.28                             165     0.110   31 161 
 BAR2 SZ ES   1   1457 33.83                             165    -0.8 7   31 161 
 RUS  HZ EP       1457 25.98                             136    -0.310  109 169 
 RUS  HN ES   1   1457 43.68                             136     0.0 7  109 169 
 GUE  SZ EP       1457 26.26                             135    -0.310  114  20 
 GRA  SZ IP       1457 27.48                             132     0.210  125  24 
 GRA  SZ ES   1   1457 45.79                             132     0.3 7  125  24 
 GRA  SZ I        1457 48.56       295.0 0.53                           125  24 
 OCA  SZ EP       1457 29.78                             125    -0.2 9  153 358 
 OCA  SZ ES   1   1457 49.67                             125    -0.5 7  153 358 
 OCA  SZ I        1457 50.87       645.7 0.31                           153 358 
 YOP  SZ EP       1457 34.33                             119     0.5 9  191 150 
 YOP  SZ I        1458  2.64       107.5 0.23                           191 150 
 NOR  SZ EP   1   1457 37.47                             114    -0.2 6  227 231 
 NOR  SN ES   1   1458  3.56                             114    -0.4 6  227 231 
 CHI  HZ EP       1457 40.98                             112     0.1 8  251 192 
 CHI  HZ I        1457 43.46        75.4 0.38                           251 192 
 HEL  HZ EP       1457 42.55                             111     0.8 8  260 254 
 HEL  HZ I        1458 15.34        80.4 0.77                           260 254 
 VIL  SZ EP       1457 46.55                             107    -0.2 7  306 187 
 VIL  SZ I        1458 27.70        64.9 0.21                           306 187 
 DBB  SZ EP       1457 48.86                             106    -0.1 7  325 273 
 SDV  BZ EP       1457 53.90                             104    -0.2 6  367  52 
 SDV  BZ I        1458 35.75        40.8 0.35                           367  52 
 GUA  SZ EP   1   1458  6.73                              99    -0.8 3  482 171 
 HORQ SZ EP   3   1458 14.20                              98     1.0 1  526 225 
                                                                                
