 2011  919 1607  7.6 L   6.781 -73.082144.6  RSN  5 0.3 1.5LRSN                1
 GAP=146        0.67       4.7     7.0  6.5 -0.9666E+00 -0.1208E+01 -0.7844E+01E
 Epicentro: LOS SANTOS - SANTANDER                                             3
 ACTION:UPD 12-07-13 15:58 OP:ep   STATUS:               ID:20110919160707 L   I
 2011-09-19-1603-33S.COL___171                                                 6
 STAT SP IPHASW D HRMM SECON CODA AMPLIT PERI AZIMU VELO AIN AR TRES W  DIS CAZ7
 BAR2 SZ EP   1   16 7 27.17                             170    0.11 8 23.6 208 
 BAR2 SZ ES   1   16 7 42.57                             170    0.30 8 23.6 208 
 BAR2 SZ I        16 7 45.22         8.3 0.33                          23.6 208 
 PAM  SZ EP   1   16 7 30.13                             151    0.62 8 74.8  34 
 PAM  SZ I        16 7 30.55         3.9 0.20                          74.8  34 
 PAM  SE ES   1   16 7 46.18                             151   -0.44 8 74.8  34 
 BRR  HZ EP   1   16 7 29.14                             150    0.12 8 78.4 297 
 BRR  HN ES   1   16 7 45.57                             150   -0.18 8 78.4 297 
 BRR  HZ I        16 7 52.01         8.9 0.21                          78.4 297 
 RUS  HZ EP   2   16 7 30.57                             144   -0.46 5 98.2 180 
 RUS  HE ES   2   16 7 49.07                             144   -0.27 5 98.2 180 
 RUS  HZ I        16 7 50.65         2.6 0.50                          98.2 180 
 OCA  SZ EP       16 7 35.83                             129   -0.2510  163 351 
 OCA  SZ ES   2   16 7 58.73                             129    0.41 5  163 351 
 OCA  SZ I        16 8  2.97         8.9 0.50                           163 351 
                                                                                
