 2012  119 1601 56.2 L   6.804 -73.062151.4  RSN 16 0.3 3.0LRSN                1
 GAP=147        0.67       2.2     3.6  4.2 -0.1393E+01  0.4678E+01  0.1819E+01E
 Epicentro: LOS SANTOS - SANTANDER                                             3
 ACTION:UP  12-02-03 08:18 OP:REBC STATUS:               ID:20120119160156 L   I
 2012-01-19-1600-00M.COL___186                                                 6
 STAT SP IPHASW D HRMM SECON CODA AMPLIT PERI AZIMU VELO SNR AR TRES W  DIS CAZ7
 BAR2 SZ IP       16 2 16.54                             170    -0.110   27 210 
 BAR2 SZ ES   1   16 2 31.95                             170    -0.6 7   27 210 
 BAR2 SZ I        16 2 34.35       267.5 0.39                            27 210 
 PAM  SZ EP   1   16 2 19.39                             153     0.7 7   71  34 
 PAM  SN ES   1   16 2 36.89                             153     0.6 7   71  34 
 BRR  HZ IP     C 16 2 18.41                             151     0.010   79 295 
 BRR  HZ I        16 2 18.78       206.5 0.12                            79 295 
 BRR  HE ES   1   16 2 35.72                             151    -0.1 7   79 295 
 RUS  HZ EP       16 2 20.38                             145    -0.210  101 181 
 RUS  HN ES   1   16 2 39.46                             145    -0.1 7  101 181 
 RUS  HZ I        16 2 40.86        88.2 0.36                           101 181 
 OCA  SZ EP   1   16 2 25.14                             131     0.1 7  161 350 
 OCA  SZ ES   1   16 2 47.50                             131    -0.1 7  161 350 
 OCA  SZ I        16 2 50.70        57.6 0.26                           161 350 
 ZAR  HZ EP   1   16 2 29.47                             122    -0.4 6  213 291 
 ZAR  HN ES   1   16 2 55.99                             122    -0.2 6  213 291 
 ZAR  HZ I        16 3  1.62       116.5 0.38                           213 291 
 NOR  SZ EP   1   16 2 32.82                             119    -0.3 6  243 236 
 NOR  SE ES   2   16 3  2.04                             119     0.1 4  243 236 
 CHI  HZ EP   1   16 2 34.61                             118     0.0 6  252 197 
 CHI  HE ES   1   16 3  4.53                             118     0.1 6  252 197 
 CHI  HZ I        16 3 13.84        32.8 0.72                           252 197 
 ROSC BZ EP   1   16 2 35.79                             117     0.6 6  258 213 
 ROSC BN ES   1   16 3  5.66                             117     0.0 6  258 213 
 ROSC BZ I        16 3 12.29        88.3 0.40                           258 213 
 HEL  HZ EP   1   16 2 37.87                             115     0.1 6  281 256 
 HEL  HE ES   2   16 3 10.81                             115     0.7 4  281 256 
 HEL  HZ I        16 3 15.55        50.9 0.22                           281 256 
 VIL  SZ EP   1   16 2 39.53                             113    -0.7 5  306 193 
 VIL  SN ES   1   16 3 14.52                             113     0.1 5  306 193 
 VIL  SZ I        16 3 24.33        22.5 0.35                           306 193 
 GUY  SZ EP   1   16 2 41.49                             112     0.2 5  311 236 
 GUY  SN ES   1   16 3 16.46                             112     0.1 5  311 236 
 GUY  SZ I        16 3 22.80        86.8 0.32                           311 236 
 RREF HZ EP   1   16 2 43.65                             111     0.2 5  329 230 
 RREF HN ES   1   16 3 20.64                             111     0.3 5  329 230 
 RREF HZ I        16 3 28.93        45.8 0.42                           329 230 
 COD  HZ EP   1   16 2 44.58                             110    -0.3 5  349 353 
 COD  HN ES   2   16 3 22.21                             110    -0.7 3  349 353 
 COD  HZ I        16 3 29.91        27.9 0.68                           349 353 
 TOL  SZ EP   1   16 2 45.98                             110     0.5 5  350 226 
 TOL  SZ ES   2   16 3 23.89                             110    -0.1 3  350 226 
 PRA  HZ EP   1   16 2 50.17                             107    -0.4 4  397 211 
 PRA  HN ES   1   16 3 32.92                             107     0.0 4  397 211 
                                                                                
