 2010  519 1250 59.6 L   6.715 -72.991132.9  RSN  7 0.4 2.0LRSN                1
 GAP=202        0.86       8.5    10.5 11.9 -0.6934E+02 -0.6166E+02  0.6589E+02E
 Epicentro: ARATOCA - SANTANDER                                                3
 ACTION:UP  10-08-24 10:05 OP:vdl  STATUS:               ID:20100519125059 L   I
 2010-05-19-1248-34S.COL___108                                                 6
 STAT SP IPHASW D HRMM SECON CODA AMPLIT PERI AZIMU VELO SNR AR TRES W  DIS CAZ7
 BAR2 SZ IP       1251 17.85                             168     0.110   25 237 
 BRR  HZ EP       1251 20.42                             143    -0.310   91 299 
 BRR  HN ES   1   1251 37.08                             143    -0.1 7   91 299 
 BRI  SZ EP       1251 23.29                             137     0.610  113  11 
 BRI  SZ ES   2   1251 40.78                             137     0.1 5  113  11 
 GUE  SZ EP       1251 23.92                             134     0.110  124   3 
 GUE  SZ ES   2   1251 42.70                             134     0.1 5  124   3 
 GRA  SZ EP       1251 23.62                             132    -0.610  131   9 
 GRA  SZ ES   1   1251 43.17                             132    -0.2 7  131   9 
 RREF BZ EP       1251 46.62                             107     0.5 7  329 233 
 RREF BE ES   2   1252 23.00                             107     0.6 3  329 233 
 RREF BZ I        1252 28.10         4.3 0.32                           329 233 
 PRA  HZ EP   2   1251 51.90                             104    -0.9 3  393 212 
 PRA  HN ES   2   1252 33.69                             104    -0.6 3  393 212 
 PRA  HZ I        1252 37.30         2.7 0.53                           393 212 
                                                                                
