 2010 1219 1008 12.0 L   6.792 -73.102149.1  RSN  5 0.1 1.6LRSN                1
 GAP=164        0.41       2.4    11.7  4.2 -0.1421E+02  0.7962E+01 -0.1264E+01E
 Epicentro: LOS SANTOS - SANTANDER                                             3
 ACTION:UP  11-01-14 15:25 OP:pat  STATUS:               ID:20101219100812 L   I
 2010-12-19-1005-02S.COL___133                                                 6
 STAT SP IPHASW D HRMM SECON CODA AMPLIT PERI AZIMU VELO SNR AR TRES W  DIS CAZ7
 BAR2 SZ EP   1   10 8 32.01                             170     0.0 7   24 202 
 BAR2 SZ ES   1   10 8 47.80                             170     0.1 7   24 202 
 BAR2 SZ I        10 8 48.81         9.1 0.40                            24 202 
 RUS  HZ EP   1   10 8 35.90                             145    -0.1 7  100 179 
 RUS  HN ES   1   10 8 54.71                             145     0.0 7  100 179 
 RUS  HZ I        10 8 55.93         3.9 0.26                           100 179 
 GRA  SZ EP   1   10 8 37.81                             138     0.3 7  125  15 
 GRA  SZ ES   1   10 8 57.22                             138    -0.2 7  125  15 
 GRA  SZ I        10 8 58.54         8.2 0.37                           125  15 
 OCA  SZ EP   2   10 8 40.50                             130    -0.2 5  162 351 
 OCA  SZ ES   2   10 9  3.12                             130     0.0 5  162 351 
 OCA  SZ I        10 9  8.30         7.8 0.27                           162 351 
 CHI  HZ EP   1   10 8 49.97                             118     0.0 6  249 196 
 CHI  HZ I        10 8 52.74         1.4 0.30                           249 196 
                                                                                
