 2012  919 1442 22.8 L   6.756 -73.126144.3  RSN 10 0.3 2.6LRSN                1
 GAP= 95        0.63       2.9     2.3  4.3 -0.5472E-01  0.1465E+01  0.3706E+01E
 Epicentro: LOS SANTOS - SANTANDER                                             3
 ACTION:UPD 12-10-22 14:19 OP:ep   STATUS:               ID:20120919144222 L   I
 2012-09-19-1440-00M.COL___226                                                 6
 STAT SP IPHASW D HRMM SECON CODA AMPLIT PERI AZIMU VELO AIN AR TRES W  DIS CAZ7
 BAR2 SZ EP       1442 42.21                             172    0.0610 19.1 199 
 BAR2 SZ ES   1   1442 57.06                             172   -0.20 7 19.1 199 
 BAR2 SZ I        1443  0.17       116.7 0.43                          19.1 199 
 BRR  HZ IP     C 1442 44.09                             151    0.0810 75.5 301 
 BRR  HZ I        1442 46.04        62.4 0.11                          75.5 301 
 BRR  HN ES       1443  1.10                             151    0.5210 75.5 301 
 PAM  SZ IP     D 1442 44.99                             150    0.0010 79.9  36 
 PAM  SZ I        1442 45.24        94.1 0.23                          79.9  36 
 PAM  SN ES       1443  2.05                             150   -0.2610 79.9  36 
 RUS  HZ EP       1442 46.05                             145    0.0210 95.6 177 
 RUS  HN ES   1   1443  3.81                             145   -0.35 7 95.6 177 
 RUS  HZ I        1443  7.50        37.9 0.44                          95.6 177 
 TAM  HZ EP       1442 50.35                             131    0.31 9  152 103 
 TAM  HZ I        1442 50.70        64.6 0.26                           152 103 
 TAM  HN ES   1   1443 11.21                             131   -0.09 7  152 103 
 ZAR  HN ES   1   1443 20.50                             121   -0.56 6  208 293 
 ZAR  HZ I        1443 26.71        35.1 0.43                           208 293 
 NOR  SN ES   1   1443 26.25                             118    0.23 6  234 236 
 CHI  HZ EP   1   1443  0.03                             117    0.09 6  245 196 
 CHI  HZ I        1443  2.37        16.9 0.19                           245 196 
 CHI  HN ES   1   1443 28.88                             117   -0.05 6  245 196 
 HEL  HZ EP   1   1443  3.07                             114    0.06 6  273 257 
 HEL  HN ES   1   1443 34.30                             114   -0.10 6  273 257 
 HEL  HZ I        1443 40.55        17.6 0.25                           273 257 
 DBB  SZ EP   1   1443  9.68                             109   -0.80 5  342 275 
                                                                                
