 2015 1219 1450 18.0 L   6.837 -73.185144.1  RSN  6 0.3 1.9LRSN                1
 GAP=198        0.80       4.2     5.0  5.8  0.5022E+01  0.3299E+01  0.1281E+01E
 Epicentro: ZAPATOCA - SANTANDER                                               3
 ACTION:UPD 16-02-04 15:06 OP:cam  STATUS:               ID:20151219145018 L   I
 OLDACT:REG 15-12-19 22:11 OP:ar   STATUS:               ID:20151219144747     3
 2015-12-19-1447-47M.COL___325                                                 6
 STAT SP IPHASW D HRMM SECON CODA AMPLIT PERI AZIMU VELO AIN AR TRES W  DIS CAZ7
 BAR2 EZ EP       1450 37.49                             169   -0.0310 27.1 179 
 BAR2 EZ ES       1450 53.06                             169    0.3210 27.1 179 
 BAR2 EZ I        1450 54.15        20.9 0.14            165           27.1 179 
 BRR  HZ EP       1450 39.06                             154    0.4010 65.4 297 
 BRR  HN ES       1450 54.24                             154   -0.5310 65.4 297 
 BRR  HZ I        1450 54.78        15.4 0.42            154           65.4 297 
 RUS  HZ EP       1450 41.38                             142   -0.5510  105 174 
 RUS  HN ES       1451  0.68                             142    0.1010  105 174 
 RUS  HZ I        1451  1.75         8.8 0.26            141            105 174 
 PTB  HZ EP       1450 44.47                             132   -0.06 9  144 257 
 PTB  HN ES       1451  5.26                             132    0.04 9  144 257 
 PTB  HZ I        1451  7.30         9.4 0.36            131            144 257 
 SPBC HZ EP       1450 46.66                             128    0.23 9  164 217 
 SPBC HN ES       1451  8.64                             128    0.04 9  164 217 
 SPBC HZ I        1451 13.22        13.0 0.10            127            164 217 
 SML  HN ES   2   1451 22.42                             118    0.45 4  238 336 
                                                                                
