 2017  419 1659 46.3 L   6.796 -73.148143.6  RSN  7 0.4 1.2LRSN                1
 GAP=136        1.06       4.9     4.4  7.7 -0.1152E+01  0.8731E+01  0.2579E+01E
 Epicentro: LOS SANTOS - SANTANDER                                             3
 ACTION:UPD 17-05-30 21:14 OP:jn   STATUS:               ID:20170419165946 L   I
 OLDACT:REG 17-04-19 21:05 OP:lv   STATUS:               ID:20170419165741     3
 2017-04-19-1658-00M.COL___371                                                 6
 STAT SP IPHASW D HRMM SECON CODA AMPLIT PERI AZIMU VELO AIN AR TRES W  DIS CAZ7
 BAR2 EZ EP       17 0  5.57                             171   -0.0810 22.8 189 
 BAR2 EZ ES       17 0 20.82                             171    0.0710 22.8 189 
 BAR2 EZ I        17 0 22.01         8.3 0.12            171           22.8 189 
 BRR  HZ EP       17 0  7.41                             152    0.2110 71.2 299 
 BRR  HE ES       17 0 23.14                             152   -0.3710 71.2 299 
 PAM  EZ EP       17 0  8.39                             150    0.0810 77.9  39 
 PAM  EN ES       17 0 25.71                             150    0.2310 77.9  39 
 PAM  EZ I        17 0 27.79         2.9 0.46            151           77.9  39 
 RUS  HZ EP       17 0  9.84                             143    0.0410  100 176 
 RUS  HN ES       17 0 28.10                             143   -0.0310  100 176 
 RUS  HZ I        17 0 29.09         1.6 0.06            145            100 176 
 PTB  HZ EP       17 0 12.19                             132   -0.86 9  147 259 
 PTB  HN ES       17 0 33.44                             132   -0.48 9  147 259 
 PTB  HZ I        17 0 34.83         2.2 0.18            133            147 259 
 ZAR  HN ES       17 0 44.36                             122    0.59 9  204 292 
 NOR  HN ES       17 0 50.46                             118    0.89 8  234 235 
                                                                                
