 2016  619 1205 50.6 L   6.845 -73.141146.1  RSN 19 0.5 2.1LRSN                1
 GAP= 70        1.10       3.2     3.4  5.2 -0.8280E+00  0.4260E+01  0.2337E+01E
 Epicentro: LOS SANTOS - SANTANDER                                             3
 ACTION:UPD 16-07-21 22:20 OP:rebc STATUS:               ID:20160619120550 L   I
 OLDACT:UP  16-06-19 23:48 OP:dani STATUS:               ID:20160619115743d    3
 OLDACT:UP  16-06-19 23:47 OP:dani STATUS:               ID:20160619115743d    3
 OLDACT:UP  16-06-19 23:47 OP:dani STATUS:               ID:20160619115743d    3
 OLDACT:UP  16-06-19 23:46 OP:dani STATUS:               ID:20160619115743d    3
 OLDACT:UP  16-06-19 23:40 OP:dani STATUS:               ID:20160619115743d    3
 OLDACT:UP  16-06-19 23:40 OP:dani STATUS:               ID:20160619115743d    3
 OLDACT:UP  16-06-19 23:40 OP:dani STATUS:               ID:20160619115743d    3
 OLDACT:UP  16-06-19 23:40 OP:dani STATUS:               ID:20160619115743d    3
 OLDACT:UP  16-06-19 23:39 OP:dani STATUS:               ID:20160619115743d    3
 OLDACT:DUP 16-06-19 23:28 OP:dani STATUS:               ID:20160619115743d    3
 2016-06-19-1157-42M.COL___343                                                 6
 STAT SP IPHASW D HRMM SECON CODA AMPLIT PERI AZIMU VELO AIN AR TRES W  DIS CAZ7
 BAR2 EZ EP     C 12 6 10.25                             169   -0.1110 28.3 189 
 BAR2 EZ ES       12 6 25.26                             169   -0.5310 28.3 189 
 BAR2 EZ I        12 6 26.66        24.2 0.18                          28.3 189 
 BRR  HZ EP     C 12 6 12.02                             153    0.3510 69.5 295 
 BRR  HN ES       12 6 28.96                             153    0.8510 69.5 295 
 BRR  HZ I        12 6 29.79        23.7 0.26                          69.5 295 
 PAM  EN ES       12 6 30.17                             152    0.4210 73.2  42 
 RUS  HZ EP       12 6 14.31                             142   -0.4110  106 177 
 RUS  HE ES       12 6 33.05                             142   -0.5010  106 177 
 RUS  HZ I        12 6 34.26         9.4 0.30                           106 177 
 PTB  HZ EP       12 6 17.12                             132   -0.60 9  149 257 
 PTB  HE ES   4   12 6 37.54                             132   -1.35 0  149 257 
 PTB  HZ I        12 6 45.40        16.8 0.28                           149 257 
 OCA  HN ES       12 6 39.83                             131   -0.38 9  155 353 
 TAM  HZ EP       12 6 18.69                             130    0.33 9  156 107 
 TAM  HE ES       12 6 40.32                             130    0.29 9  156 107 
 TAM  HZ I        12 6 40.89        11.9 0.26                           156 107 
 SPBC HZ EP       12 6 19.47                             128   -0.04 9  167 218 
 SPBC HE ES       12 6 41.68                             128   -0.39 9  167 218 
 SPBC HZ I        12 6 47.44        24.3 0.30                           167 218 
 ZAR  HZ EP       12 6 22.19                             123   -0.72 9  203 291 
 ZAR  HN ES       12 6 48.07                             123   -0.06 9  203 291 
 ZAR  HZ I        12 6 54.03        22.5 0.54                           203 291 
 NOR  HZ EP       12 6 26.73                             118    0.04 8  238 234 
 NOR  HN ES       12 6 55.48                             118    0.62 8  238 234 
 NOR  HZ I        12 7  1.73        10.9 0.18                           238 234 
 CHI  HZ EP   4   12 6 27.78                             117   -1.06 0  254 195 
 CHI  HN ES       12 6 58.53                             117   -0.14 8  254 195 
 CHI  HZ I        12 7  2.52         6.4 0.34                           254 195 
 ROSC BZ EP   4   12 6 30.89                             116    1.67 0  257 211 
 ROSC BN ES   4   12 7  2.69                             116    3.34 0  257 211 
 ROSC BZ I        12 7  4.30        13.9 0.40                           257 211 
 HEL  HZ EP       12 6 31.50                             115    0.49 8  274 255 
 HEL  HE ES   4   12 7  3.97                             115    1.43 0  274 255 
 HEL  HZ I        12 7  9.34         7.9 0.50                           274 255 
 URE  HE ES   4   12 7  1.03                             114   -2.42 0  283 291 
 SOCV BZ EP       12 6 33.21                             112   -0.08 7  298  58 
 GUY2CHZ EP       12 6 35.47                             112    0.89 7  305 234 
 GUY2CHE ES   4   12 7 12.81                             112    3.91 0  305 234 
 GUY2CHZ I        12 7 18.11         6.7 0.68                           305 234 
 ELA  HZ EP   4 D 12 6 40.11                             110    2.24 0  333 229 
 ELA  HE ES   4   12 7 19.90                             110    5.15 0  333 229 
 ELA  HZ I        12 7 22.06         6.2 0.62                           333 229 
 ANIL HN ES   4   12 7 22.36                             108    2.29 0  361 224 
 PRA  HZ EP       12 6 44.91                             106    0.26 6  397 209 
 PRA  HE ES   4   12 7 28.61                             106    1.78 0  397 209 
 PRA  HZ I        12 7 31.67         5.8 0.56                           397 209 
 ORTC HZ EP       12 6 45.40                             106    0.38 6  400 216 
 ORTC HN ES       12 7 28.02                             106    0.54 6  400 216 
 ORTC HZ I        12 7 34.55         5.2 0.26                           400 216 
 SJC  HZ EP       12 6 44.94                             106   -0.76 6  405 327 
 SJC  HN ES   4   12 7 26.27                             106   -2.42 0  405 327 
 SJC  HZ I        12 7 27.51         1.7 0.54                           405 327 
                                                                                
