 2017  919 1749  7.6 L   6.922 -73.041144.0  RSN  5 0.2 1.4LRSN                1
 GAP=143        0.60       3.8     4.0  5.3  0.3628E+01  0.4542E+01  0.5321E+01E
 Epicentro: PIEDECUESTA - SANTANDER                                            3
 ACTION:UPD 17-10-05 19:14 OP:rebc STATUS:               ID:20170919174907 L   I
 OLDACT:REG 17-09-19 19:51 OP:lv   STATUS:               ID:20170919174744     3
 2017-09-19-1748-00M.COL___450                                                 6
 STAT SP IPHASW D HRMM SECON CODA AMPLIT PERI AZIMU VELO AIN AR TRES W  DIS CAZ7
 BAR2 EZ EP       1749 27.79                             164    0.3510 39.7 203 
 BAR2 EZ I        1749 45.19        11.2 0.38            166           39.7 203 
 PAM  EZ EP   4   1749 30.86                             157    2.23 0 59.6  39 
 PAM  EE ES       1749 45.02                             157   -0.0410 59.6  39 
 PAM  EZ I        1749 50.93         3.5 0.36            138           59.6  39 
 BRR  HZ EP   9   1749 29.87                             151    1.00 0 76.9 285 
 BRR  HN ES       1749 46.76                                    0.2810 76.9 285 
 RUS  HZ EP       1749 31.95                             140   -0.2110  114 182 
 RUS  HN ES       1749 51.34                             140   -0.0010  114 182 
 RUS  HZ I        1749 51.82         3.5 0.28            132            114 182 
 ZAR  HN ES       1750  6.14                             121   -0.15 8  210 288 
                                                                                
