 2015  119 1053 43.5 L   6.717 -73.216141.8  RSN  4 0.2 1.2LRSN                1
 GAP=217        0.49       4.2     3.8  4.5  0.6546E+01  0.2192E+01  0.1944E+01E
 Epicentro: VILLANUEVA - SANTANDER                                             3
 ACTION:UPD 15-03-02 15:40 OP:nd   STATUS:               ID:20150119105343 L   I
 OLDACT:REG 15-01-19 19:41 OP:spq  STATUS:               ID:20150119104744     3
 2015-01-19-1047-44M.COL___262                                                 6
 STAT SP IPHASW D HRMM SECON CODA AMPLIT PERI AZIMU VELO AIN AR TRES W  DIS CAZ7
 BAR2 EZ EP   1   1054  2.19                             174   -0.33 7 14.3 165 
 BAR2 EZ ES   1   1054 17.58                             174    0.24 7 14.3 165 
 BAR2 EZ I        1054 20.55         3.8 0.34            173           14.3 165 
 BRR  HZ EP       1054  4.21                             152    0.0610 69.7 308 
 BRR  HN ES       1054 20.19                             152   -0.0610 69.7 308 
 BRR  HZ I        1054 22.34         7.5 0.48            155           69.7 308 
 RUS  HZ EP   1   1054  6.65                             145    0.36 7 92.4 171 
 RUS  HE ES   1   1054 23.82                             145   -0.24 7 92.4 171 
 RUS  HZ I        1054 26.32         1.0 0.28            147           92.4 171 
 PTB  HZ EP       1054  9.26                             133   -0.07 9  139 262 
 PTB  HN ES       1054 29.51                             133    0.05 9  139 262 
 PTB  HZ I        1054 32.39         1.9 0.12            135            139 262 
                                                                                
