 2013  519 1350 49.4 L   6.809 -73.150152.0  RSN 18 0.5 2.5LRSN                1
 GAP= 71        0.98       2.9     3.0  5.0 -0.1048E+01  0.1860E+01  0.1988E+01E
 Epicentro: LOS SANTOS - SANTANDER                                             3
 ACTION:UPD 13-06-20 09:51 OP:ep   STATUS:               ID:20130519135049 L   I
 2013-05-19-1350-00M.COL___256                                                 6
 STAT SP IPHASW D HRMM SECON CODA AMPLIT PERI AZIMU VELO AIN AR TRES W  DIS CAZ7
 BAR2 SZ IP     C 1351  9.70                             171   -0.0810 24.2 188 
 BAR2 SZ ES   1   1351 25.28                             171   -0.40 7 24.2 188 
 BAR2 SZ I        1351 28.01        52.2 0.38            171           24.2 188 
 GIR2 SZ EP   1   1351  9.81                             168    0.04 7 30.2 351 
 GIR2 SZ ES   1   1351 25.56                             168   -0.11 7 30.2 351 
 GIR2 SZ I        1351 27.93        30.4 0.16            167           30.2 351 
 BRR  HZ IP       1351 11.71                             154    0.5510 70.3 298 
 BRR  HN ES   1   1351 29.17                             154    1.03 7 70.3 298 
 BRR  HZ I        1351 33.19        38.8 0.28            153           70.3 298 
 PAM  SZ EP       1351 12.54                             152    0.3010 77.0  40 
 PAM  SN ES   1   1351 30.05                             152   -0.01 7 77.0  40 
 PAM  SZ I        1351 31.99        26.7 0.52            150           77.0  40 
 RUS  HZ EP       1351 13.55                             145   -0.2710  102 176 
 RUS  HN ES   1   1351 32.84                             145   -0.04 7  102 176 
 RUS  HZ I        1351 34.98        33.0 0.48            144            102 176 
 PTB  HZ EP       1351 16.31                             133   -0.52 9  147 258 
 PTB  HN ES       1351 37.70                             133   -0.55 9  147 258 
 PTB  HZ I        1351 39.81        65.3 0.60            132            147 258 
 TAM  HZ IP     C 1351 17.86                             132    0.24 9  156 105 
 TAM  HZ I        1351 38.70        24.0 0.34            130            156 105 
 TAM  HN ES   1   1351 40.05                             132    0.40 7  156 105 
 OCA  HZ EP   1   1351 18.17                             131    0.08 7  159 353 
 OCA  HN ES       1351 40.04                             131   -0.44 9  159 353 
 OCA  HZ I        1351 44.67        42.7 0.28            129            159 353 
 ZAR  HZ EP   1   1351 22.25                             124    0.10 6  203 292 
 ZAR  HN ES       1351 48.40                             124    0.68 9  203 292 
 ZAR  HZ I        1351 54.79        44.0 0.32            122            203 292 
 NOR  HZ EP       1351 25.42                             120   -0.07 8  235 234 
 NOR  HE ES   1   1351 53.43                             120   -0.23 6  235 234 
 NOR  HZ I        1351 57.42        45.4 0.16            118            235 234 
 SML  HZ EP       1351 25.99                             119   -0.26 8  243 335 
 SML  HN ES   1   1351 54.58                             119   -0.42 6  243 335 
 SML  HZ I        1352  0.13        66.6 0.10            117            243 335 
 CHI  HZ EP       1351 27.79                             118    0.27 8  249 195 
 CHI  HN ES   1   1351 56.69                             118   -0.57 6  249 195 
 CHI  HZ I        1352  4.90        15.7 0.52            117            249 195 
 HEL  HZ EP   1   1351 30.95                             116    1.06 6  272 256 
 HEL  HE ES   1   1352  0.78                             116   -0.71 6  272 256 
 HEL  HZ I        1352  7.89        22.9 0.30            115            272 256 
 URE  HZ EP   4   1351 29.45                             115   -1.22 0  283 292 
 URE  HN ES   4   1352  0.92                             115   -1.95 0  283 292 
 URE  HZ I        1352 14.79        22.4 0.20            113            283 292 
 GUY2CHZ EP   1   1351 34.46                             113    1.16 5  301 235 
 GUY2CHE ES       1352  7.71                             113    0.16 7  301 235 
 GUY2CHZ I        1352 15.52        21.5 0.54                           301 235 
 SDV  BZ EP       1351 38.84                             109   -0.80 6  360  50 
 SDV  BN ES   4   1352 15.17                             109   -3.67 0  360  50 
 PRA  HZ EP   1   1351 43.74                             107    0.55 4  393 209 
 PRA  HN ES       1352 24.77                             107   -0.39 6  393 209 
 PRA  HZ I        1352 30.77        13.7 0.28            106            393 209 
 SJC  HZ EP   1   1351 44.01                             107   -1.02 4  408 327 
 SJC  HN ES   4   1352 24.91                             107   -3.52 0  408 327 
 SJC  HZ I        1352 33.10         7.7 0.50            106            408 327 
                                                                                
