 2017  319 1123 54.2 L   6.810 -73.144149.9  RSN 10 0.5 1.8LRSN                1
 GAP=136        1.27       5.2     6.1  8.3 -0.5535E+01  0.7281E+01  0.8616E+01E
 Epicentro: LOS SANTOS - SANTANDER                                             3
 ACTION:UPD 17-05-25 18:42 OP:jn   STATUS:               ID:20170319112354 L   I
 OLDACT:UP  17-03-19 23:27 OP:dnl  STATUS:               ID:20170319111747     3
 OLDACT:REG 17-03-19 22:54 OP:dnl  STATUS:               ID:20170319111747     3
 2017-03-19-1118-00M.COL___385                                                 6
 STAT SP IPHASW D HRMM SECON CODA AMPLIT PERI AZIMU VELO AIN AR TRES W  DIS CAZ7
 BAR2 EZ EP       1124 14.18                             170   -0.1510 24.5 190 
 BAR2 EZ ES       1124 29.84                             170   -0.2110 24.5 190 
 BAR2 EZ I        1124 30.83        23.2 0.14            169           24.5 190 
 BRR  HZ EP       1124 15.87                             153    0.1110 70.8 298 
 BRR  HE ES       1124 33.12                             153    0.5310 70.8 298 
 BRR  HZ I        1124 33.47        17.5 0.34            150           70.8 298 
 PAM  EZ EP       1124 17.14                             152    0.3610 76.4  40 
 PAM  EN ES       1124 34.34                             152   -0.0610 76.4  40 
 PAM  EZ I        1124 36.36        19.6 0.52            155           76.4  40 
 RUS  HZ EP       1124 18.18                             144   -0.2410  102 176 
 RUS  HN ES       1124 37.15                             144   -0.1810  102 176 
 RUS  HZ I        1124 37.93         4.0 0.30            145            102 176 
 PTB  HZ EP       1124 21.26                             133   -0.27 9  148 258 
 PTB  HN ES       1124 41.78                             133   -1.08 9  148 258 
 PTB  HZ I        1124 49.16         5.2 0.48            131            148 258 
 SPBC HZ EP       1124 23.13                             130    0.03 9  164 219 
 SPBC HE ES       1124 47.04                             130    1.39 9  164 219 
 SPBC HZ I        1124 50.00        11.4 0.22            129            164 219 
 ZAR  HZ EP   4   1124 29.43                             123    2.55 0  204 292 
 ZAR  HE ES   2   1124 52.13                             123   -0.25 4  204 292 
 ZAR  HZ I        1124 58.84         9.7 0.24            122            204 292 
 CHI  HZ EP   2   1124 31.81                             118   -0.43 4  250 195 
 CHI  HN ES       1125  1.63                             118   -0.29 8  250 195 
 CHI  HZ I        1125  5.18         4.7 0.50            118            250 195 
 GUY2CHZ EP   2   1124 39.16                             113    1.08 4  302 235 
 GUY2CHE ES   4   1125 14.53                             113    2.21 0  302 235 
 GUY2CHZ  IAML    1125 21.40         1.9 0.30                           302 235 
 SJC  HZ EP   4   1124 48.53                             106   -1.25 0  408 327 
 SJC  HN ES   4   1125 29.33                             106   -3.82 0  408 327 
 SJC  HZ I        1125 33.90         1.9 0.62            107            408 327 
                                                                                
