 2016 1219 1615  4.9 L   6.752 -73.145141.6  RSN  7 0.4 1.7LRSN                1
 GAP=139        1.02       4.5     4.2  6.8 -0.9501E+00  0.8918E+01 -0.5624E+00E
 Epicentro: LOS SANTOS - SANTANDER                                             3
 ACTION:UPD 17-01-11 20:16 OP:rebc STATUS:               ID:20161219161504 L   I
 OLDACT:DUP 16-12-20 02:38 OP:ar   STATUS:               ID:20161219160752d    3
 2016-12-19-1608-00M.COL___368                                                 6
 STAT SP IPHASW D HRMM SECON CODA AMPLIT PERI AZIMU VELO AIN AR TRES W  DIS CAZ7
 BAR2 EZ EP       1615 23.77                             172   -0.1210 18.1 193 
 BAR2 EZ ES       1615 38.65                             172   -0.0910 18.1 193 
 BAR2 EZ I        1615 39.74        14.6 0.40            172           18.1 193 
 BRR  HZ EP       1615 25.80                             151    0.0810 73.9 302 
 BRR  HN ES       1615 42.59                             151    0.6010 73.9 302 
 PAM  EZ EP       1615 26.74                             149   -0.1510 81.5  37 
 PAM  EE ES       1615 43.68                             149   -0.4010 81.5  37 
 PAM  EZ I        1615 45.74         7.2 0.48            151           81.5  37 
 RUS  HZ EP       1615 28.24                             144    0.4210 95.3 176 
 RUS  HN ES       1615 45.98                             144    0.2510 95.3 176 
 RUS  HZ I        1615 47.35         4.0 0.32            145           95.3 176 
 PTB  HZ EP       1615 30.74                             131   -0.67 9  147 261 
 PTB  HN ES       1615 51.47                             131   -0.65 9  147 261 
 PTB  HZ I        1615 53.78         6.5 0.14            131            147 261 
 ZAR  HZ EP       1615 37.78                             121    0.53 8  206 294 
 ZAR  HN ES       1616  2.82                             121    0.30 8  206 294 
 ZAR  HZ I        1616  7.11         6.6 0.34            121            206 294 
 NOR  HE ES       1616  7.39                             118   -0.06 8  232 236 
 NOR  HZ I        1616 11.68         4.0 0.38            118            232 236 
                                                                                
