 2011  119 1221  2.1 L   6.766 -73.199149.9  RSN  7 0.3 1.6LRSN                1
 GAP=153        0.74       4.5     8.3  6.6 -0.1857E+02  0.1197E+02 -0.5575E+01E
 Epicentro: VILLANUEVA - SANTANDER                                             3
 ACTION:UP  11-02-08 08:41 OP:pat  STATUS:               ID:20110119122102 L   I
 2011-01-19-1218-17S.COL___137                                                 6
 STAT SP IPHASW D HRMM SECON CODA AMPLIT PERI AZIMU VELO SNR AR TRES W  DIS CAZ7
 BTL  SZ ES   1   1221 37.95                                     0.1 7   19 336 
 BAR2 SZ ES   1   1221 37.92                             172     0.1 7   19 175 
 BAR2 SZ I        1221 40.01         9.7 0.25                            19 175 
 BTL  SZ EP   1   1221 22.39                             173     0.2 7   19 336 
 BAR2 SZ EP       1221 21.98                             172    -0.210   19 175 
 RUS  HZ EP   1   1221 25.92                             146    -0.2 7   97 172 
 RUS  HN ES   1   1221 44.55                             146    -0.2 7   97 172 
 RUS  HZ I        1221 45.64         2.8 0.27                            97 172 
 GRA  SZ EP   1   1221 28.77                             137     0.6 7  131  19 
 GRA  SZ ES   1   1221 48.56                             137     0.0 7  131  19 
 GRA  SZ I        1221 50.72         9.2 0.26                           131  19 
 OCA  SZ EP   1   1221 30.46                             130    -0.6 7  163 355 
 OCA  SZ I        1221 56.85         6.3 0.29                           163 355 
 NOR  SN ES   1   1222  4.98                             120     0.1 6  228 234 
 CHI  HZ EP   2   1221 40.22                             118     0.7 4  243 194 
 CHI  HZ I        1222 17.24         2.9 0.39                           243 194 
                                                                                
