 2017 1019 1250 59.3 L   6.769 -73.141143.6  RSN  7 0.1 1.5LRSN                1
 GAP=138        0.40       1.7     1.8  2.9  0.1955E+00  0.1109E+01  0.6655E+00E
 Epicentro: LOS SANTOS - SANTANDER                                             3
 ACTION:UPD 17-11-07 19:33 OP:rebc STATUS:               ID:20171019125059 L   I
 OLDACT:UP  17-10-19 22:27 OP:edw  STATUS:               ID:20171019124741     3
 OLDACT:REG 17-10-19 19:52 OP:edw  STATUS:               ID:20171019124741     3
 2017-10-19-1248-00M.COL___438                                                 6
 STAT SP IPHASW D HRMM SECON CODA AMPLIT PERI AZIMU VELO AIN AR TRES W  DIS CAZ7
 BAR2 EZ EP       1251 18.61                             172   -0.0210 20.1 193 
 BAR2 EZ ES       1251 33.54                             172   -0.1510 20.1 193 
 BAR2 EZ I        1251 34.61        10.5 0.22            171           20.1 193 
 BRR  HZ EP       1251 20.49                             151    0.1310 73.3 301 
 BRR  HN ES       1251 37.01                             151    0.2410 73.3 301 
 PAM  EZ EP       1251 21.51                             150    0.0510 79.7  38 
 PAM  EN ES       1251 38.67                             150   -0.0410 79.7  38 
 PAM  EZ I        1251 40.44         9.8 0.38            152           79.7  38 
 RUS  HZ EP       1251 22.48                             144   -0.1410 97.2 176 
 RUS  HN ES       1251 40.83                             144    0.0510 97.2 176 
 RUS  HZ I        1251 42.54         3.2 0.42            145           97.2 176 
 PTB  HZ EP       1251 25.99                             131   -0.11 9  148 260 
 PTB  HN ES       1251 46.82                             131   -0.17 9  148 260 
 PTB  HZ I        1251 50.03         2.6 0.14            133            148 260 
 ZAR  HN ES       1251 57.12                             122   -0.03 8  206 293 
 CHI  HN ES       1252  5.85                             117    0.25 8  245 195 
                                                                                
