 2017  419 1818  7.5 L   6.786 -73.106147.6  RSN  8 0.5 1.9LRSN                1
 GAP=123        1.16       4.5     6.7  7.1  0.3510E+00  0.5216E+01  0.1393E+02E
 Epicentro: LOS SANTOS - SANTANDER                                             3
 ACTION:UPD 17-05-30 21:14 OP:jn   STATUS:               ID:20170419181807 L   I
 OLDACT:REG 17-04-19 21:10 OP:lv   STATUS:               ID:20170419180741     3
 2017-04-19-1808-00M.COL___371                                                 6
 STAT SP IPHASW D HRMM SECON CODA AMPLIT PERI AZIMU VELO AIN AR TRES W  DIS CAZ7
 BAR2 EZ EP       1818 27.29                             171   -0.0210 23.0 201 
 BAR2 EZ ES       1818 41.98                             171   -0.8210 23.0 201 
 BAR2 EZ I        1818 43.55        17.2 0.30            160           23.0 201 
 BRR  HZ EP       1818 28.97                             151   -0.1110 75.8 298 
 BRR  HE ES       1818 46.29                             151    0.3510 75.8 298 
 PAM  EZ EP       1818 30.16                             152    0.3610 76.0  36 
 PAM  EN ES       1818 47.41                             152    0.1910 76.0  36 
 PAM  EZ I        1818 49.54        16.8 0.17            146           76.0  36 
 RUS  HZ EP       1818 31.36                             145    0.0910 98.8 179 
 RUS  HN ES       1818 50.31                             145    0.4710 98.8 179 
 PTB  HZ EP       1818 34.04                             132   -0.91 9  152 260 
 PTB  HZ I        1819  2.12         7.3 0.17            120            152 260 
 ZAR  HZ EP   4   1818 41.97                             122    1.46 0  209 292 
 ZAR  HN ES   4   1819  5.04                             122   -1.24 0  209 292 
 CHI  HZ EP       1818 45.94                             117    0.71 8  248 196 
 CHI  HN ES       1819 15.04                             117    0.36 8  248 196 
 CHI  HZ I        1819 18.38         4.8 0.34            112            248 196 
 PTGC HZ EP       1818 50.57                             112   -0.49 7  306 159 
 PTGC HN ES       1819 24.33                             112   -0.74 7  306 159 
 PRA  HZ EP       1819  1.45                             107    0.31 6  393 210 
 PRA  HN ES       1819 43.34                             107    0.33 6  393 210 
 PRA  HZ I        1819 47.41         4.0 0.34            102            393 210 
                                                                                
