 2011 1219 1451 31.7 L   6.754 -73.069147.0  RSN  5 0.3 1.6LRSN                1
 GAP=149        0.66       5.3     6.6  5.9  0.5825E+01 -0.1130E+02 -0.2186E+01E
 Epicentro: LOS SANTOS - SANTANDER                                             3
 ACTION:UPD 12-07-13 16:17 OP:ep   STATUS:               ID:20111219145131 L   I
 2011-12-19-1450-00M.COL___187                                                 6
 STAT SP IPHASW D HRMM SECON CODA AMPLIT PERI AZIMU VELO AIN AR TRES W  DIS CAZ7
 BAR2 SZ EP       1451 51.03                             171   -0.4210 21.8 215 
 BAR2 SZ ES       1452  6.78                             171   -0.0710 21.8 215 
 BAR2 SZ I        1452  8.66        11.3 0.79                          21.8 215 
 GIR2 SZ EP   1   1451 51.64                             165   -0.09 7 38.5 339 
 GIR2 SZ ES   2   1452  6.70                             165   -0.66 5 38.5 339 
 PAM  SZ EP       1451 54.28                             151    0.2810 76.5  32 
 PAM  SN ES   2   1452 11.53                             151    0.14 5 76.5  32 
 BRR  HZ EP       1451 53.49                             150   -0.0710 81.1 299 
 BRR  HZ I        1452  3.52        11.6 0.33                          81.1 299 
 BRR  HN ES       1452 10.85                             150    0.2310 81.1 299 
 RUS  HZ EP   1   1451 55.31                             146    0.11 7 95.3 181 
 RUS  HN ES   2   1452 14.19                             146    0.66 5 95.3 181 
 RUS  HZ I        1452 15.91         4.0 0.49                          95.3 181 
                                                                                
