 2011  919 1029 52.9 L   6.779 -73.133136.5  RSN  7 0.2 1.5LRSN                1
 GAP=139        0.39       2.6     3.1  3.8  0.1070E+01  0.1789E+01 -0.6994E+00E
 Epicentro: LOS SANTOS - SANTANDER                                             3
 ACTION:UPD 12-07-13 15:58 OP:ep   STATUS:               ID:20110919102952 L   I
 2011-09-19-1025-08S.COL___170                                                 6
 STAT SP IPHASW D HRMM SECON CODA AMPLIT PERI AZIMU VELO AIN AR TRES W  DIS CAZ7
 BAR2 SZ EP   1   1030 11.30                             171   -0.05 7 21.3 195 
 BAR2 SZ ES   1   1030 25.81                             171    0.06 7 21.3 195 
 BAR2 SZ I        1030 27.11         7.8 0.44                          21.3 195 
 BTL  SZ EP   1   1030 11.44                             170    0.09 7 21.4 316 
 GIR2 SZ EP   1   1030 11.49                             165   -0.03 7 33.8 349 
 BRR  HZ IP     C 1030 13.20                             150    0.0310 73.5 300 
 BRR  HZ I        1030 13.55         8.4 0.11                          73.5 300 
 BRR  HE ES   1   1030 29.29                             150    0.30 7 73.5 300 
 PAM  SZ EP   1   1030 14.25                             149    0.08 7 78.3  38 
 PAM  SE ES   1   1030 30.61                             149   -0.17 7 78.3  38 
 RUS  HZ EP   1   1030 15.53                             143   -0.01 7 98.2 177 
 RUS  HE ES   1   1030 33.08                             143   -0.14 7 98.2 177 
 RUS  HZ I        1030 36.29         2.9 0.37                          98.2 177 
 ZAR  HZ EP   2   1030 25.11                             120    0.15 4  206 293 
 ZAR  HE ES   2   1030 49.28                             120   -0.71 4  206 293 
 ZAR  HZ I        1030 55.90         4.0 0.28                           206 293 
                                                                                
