 2014  919 1144 38.8 L   6.839 -73.147146.0  RSN 23 0.5 2.8LRSN                1
 GAP= 70        1.01       2.4     3.0  4.9 -0.6963E+00  0.3007E+01  0.1731E+01E
 Epicentro: LOS SANTOS - SANTANDER                                             3
 ACTION:UPD 14-10-03 23:06 OP:nd   STATUS:               ID:20140919114438 L   I
 OLDACT:REG 14-09-19 16:52 OP:spq  STATUS:               ID:20140919113818     3
 2014-09-19-1138-18M.COL___281                                                 6
 STAT SP IPHASW D HRMM SECON CODA AMPLIT PERI AZIMU VELO AIN AR TRES W  DIS CAZ7
 BAR2 SZ IP     D 1144 58.43                             169   -0.1610 27.6 188 
 BAR2 SZ ES   1   1145 14.03                             169    0.03 7 27.6 188 
 BAR2 SZ I        1145 15.46       106.8 0.32            168           27.6 188 
 BRR  HZ IP     C 1145  0.20                             153    0.3010 69.1 295 
 BRR  HN ES       1145 17.08                             153    0.7610 69.1 295 
 BRR  HZ I        1145 20.90       160.5 0.16            148           69.1 295 
 PAM  SZ EP     C 1145  1.17                             152    0.2810 74.1  42 
 PAM  SN ES       1145 18.09                             152    0.0010 74.1  42 
 PAM  SZ I        1145 20.32       151.0 0.38            154           74.1  42 
 RUS  HZ EP       1145  2.52                             143   -0.4110  105 176 
 RUS  HN ES   1   1145 21.07                             143   -0.65 7  105 176 
 RUS  HZ I        1145 22.57       100.9 0.24            144            105 176 
 PTB  HZ EP     C 1145  4.94                             132   -0.96 9  149 257 
 PTB  HN ES       1145 26.94                             132   -0.07 9  149 257 
 PTB  HZ I        1145 34.11        56.5 0.22            129            149 257 
 OCA  HZ EP       1145  6.58                             131   -0.18 9  156 353 
 OCA  HN ES       1145 28.06                             131   -0.48 9  156 353 
 OCA  HZ I        1145 31.97        67.3 0.30            130            156 353 
 TAM  HZ IP     C 1145  6.90                             130    0.25 9  156 107 
 TAM  HN ES       1145 28.87                             130    0.52 9  156 107 
 TAM  HZ I        1145 30.60        37.7 0.30            134            156 107 
 SPBC HZ EP   1   1145  7.68                             129    0.01 7  167 218 
 SPBC HN ES       1145 29.54                             129   -0.63 9  167 218 
 SPBC HZ I        1145 33.19        81.0 0.26            128            167 218 
 ZAR  HZ EP       1145 11.25                             123    0.12 9  202 291 
 ZAR  HE ES       1145 36.76                             123    0.45 9  202 291 
 ZAR  HZ I        1145 42.66       118.9 0.40            121            202 291 
 SML  HZ EP       1145 14.30                             118   -0.75 8  240 335 
 SML  HN ES   1   1145 43.23                             118   -0.06 6  240 335 
 SML  HZ I        1145 49.15        69.3 0.10            117            240 335 
 CHI  HZ EP       1145 16.86                             117   -0.15 8  253 195 
 CHI  HE ES       1145 46.80                             117    0.03 8  253 195 
 CHI  HZ I        1145 51.46        24.2 0.34            117            253 195 
 ROSC BZ EP   4   1145 19.77                             116    2.39 0  256 211 
 ROSC BN ES       1145 47.52                             116    0.09 8  256 211 
 ROSC BZ I        1145 51.90        68.3 0.40            116            256 211 
 URE  HZ EP   4   1145 22.31                             114    2.58 0  282 291 
 URE  HE ES   4   1145 56.09                             114    4.46 0  282 291 
 URE  HZ I        1146  2.23        67.0 0.14            113            282 291 
 GUY2CHZ EP   1   1145 22.34                             112   -0.40 5  304 234 
 GUY2CHE ES   4   1145 59.66                             112    2.69 0  304 234 
 GUY2CHZ I        1146  6.44        35.2 0.78                           304 234 
 PTGC HZ EP   4   1145 21.89                             111   -1.28 0  313 159 
 PTGC HE ES   4   1145 55.21                             111   -2.54 0  313 159 
 PTGC HZ I        1145 57.76        44.7 0.36            112            313 159 
 DBB  SZ EP   1   1145 27.03                             110    0.75 5  339 274 
 DBB  SZ ES   4   1146  1.95                             110   -1.33 0  339 274 
 DBB  SZ I        1146 13.84        57.1 0.36            109            339 274 
 TOL  SZ EP   1   1145 28.11                             109    0.65 5  347 224 
 TOL  SN ES       1146  6.14                             109    0.77 6  347 224 
 TOL  SZ I        1146  9.45        57.3 0.28            109            347 224 
 MON  HZ EP   4   1145 25.71                             109   -1.82 0  351 308 
 MON  HN ES   4   1146  4.21                             109   -1.30 0  351 308 
 MON  HZ I        1146 18.60        24.7 0.54            108            351 308 
 ARGC HZ EP   1   1145 28.53                             109    0.50 5  355 340 
 ARGC HE ES   1   1146  6.59                             109    0.20 5  355 340 
 ARGC HZ I        1146 16.91        13.0 0.16            108            355 340 
 ANIL HE ES   4   1146  9.65                             108    1.52 0  360 224 
 ANIL HZ I        1146 16.82         7.8 0.34            108            360 224 
 PRA  HZ EP       1145 32.10                             106   -0.71 6  396 209 
 PRA  HN ES       1146 15.42                             106    0.52 6  396 209 
 PRA  HZ I        1146 22.27        28.7 0.32            106            396 209 
 ORTC HZ EP       1145 33.71                             106    0.54 6  399 216 
 ORTC HE ES       1146 16.07                             106    0.52 6  399 216 
 ORTC HZ I        1146 19.34        22.0 0.38            106            399 216 
 SJC  HZ IP   4 C 1145 32.80                             106   -1.17 0  406 327 
 SJC  HN ES   4   1146 13.79                             106   -3.19 0  406 327 
 SJC  HZ I        1146 20.33        11.0 0.34            106            406 327 
                                                                                
