 2011  819 1717 37.0 L   6.875 -72.926134.2  RSN  4 0.2 1.6LRSN                1
 GAP=242        0.54       8.3    14.5  8.6  0.1004E+03 -0.7846E+02 -0.4372E+02E
 Epicentro: GUACA - SANTANDER                                                  3
 ACTION:UPD 12-07-13 15:52 OP:ep   STATUS:               ID:20110819171737 L   I
 2011-08-19-1700-00M.COL___155                                                 6
 STAT SP IPHASW D HRMM SECON CODA AMPLIT PERI AZIMU VELO AIN AR TRES W  DIS CAZ7
 GIR2 SZ EP   2   1717 55.76                             164    0.25 5 37.2 307 
 BAR2 SZ EP   1   1717 56.19                             161    0.35 7 42.2 222 
 BAR2 SZ ES   1   1718 10.18                             161   -0.33 7 42.2 222 
 BAR2 SZ I        1718 12.89        11.0 0.16                          42.2 222 
 BRR  HZ EP       1717 58.08                             144   -0.1410 90.6 287 
 BRR  HZ I        1718  0.60         7.7 0.10                          90.6 287 
 BRR  HN ES   1   1718 14.91                             144    0.15 7 90.6 287 
 RUS  HZ EP   1   1718  0.15                             138   -0.24 7  110 189 
 RUS  HE ES   1   1718 18.83                             138    0.21 7  110 189 
 RUS  HZ I        1718 20.54         7.5 0.41                           110 189 
                                                                                
