 2011  219 1633 59.1 L   6.715 -72.953146.1  RSN  5 0.4 1.6LRSN                1
 GAP=223        0.91       9.7    43.1 11.2  0.4786E+02 -0.2069E+03  0.1891E+02E
 Epicentro: CEPITA - SANTANDER                                                 3
 ACTION:UP  11-03-28 15:09 OP:jfem STATUS:               ID:20110219163359 L   I
 2011-02-19-1630-41S.COL___137                                                 6
 STAT SP IPHASW D HRMM SECON CODA AMPLIT PERI AZIMU VELO SNR AR TRES W  DIS CAZ7
 BAR2 SZ EP       1634 18.45                             167    -0.510   29 242 
 BAR2 SZ ES   1   1634 33.80                             167    -0.5 7   29 242 
 BAR2 SZ I        1634 35.30        13.9 0.25                            29 242 
 BTL  SZ EP       1634 19.79                             162     0.510   41 303 
 BTL  SZ ES   2   1634 35.36                             162     0.4 5   41 303 
 GIR2 SZ EP   3   1634 18.78                             160    -0.6 2   48 327 
 RUS  HZ EP   1   1634 22.43                             146     0.1 7   92 189 
 RUS  HN ES   2   1634 40.92                             146     0.5 5   92 189 
 RUS  HZ I        1634 42.10         3.9 0.24                            92 189 
 CHI  HZ EP   1   1634 36.49                             117    -0.1 6  246 201 
 CHI  HN ES   3   1635  5.89                             117     0.1 2  246 201 
 CHI  HZ I        1635 13.67         3.3 0.44                           246 201 
                                                                                
