 2017  219 1849  7.1 L   6.846 -73.467100.5  RSN  5 0.2 1.1LRSN                1
 GAP=137        0.55       3.0     2.4  5.5  0.1615E+01  0.1157E+00  0.3523E+01E
 Epicentro: SAN VICENTE DE CHUCURI - SANTANDER                                 3
 ACTION:UPD 17-05-24 15:38 OP:jn   STATUS:               ID:20170219184907 L   I
 OLDACT:UP  17-02-20 00:54 OP:dani STATUS:               ID:20170219184748d    3
 OLDACT:DUP 17-02-20 00:52 OP:dani STATUS:               ID:20170219184748d    3
 OLDACT:REG 17-02-19 21:33 OP:cog  STATUS:               ID:20170219184747     3
 2017-02-19-1848-00M.COL___352                                                 6
 STAT SP IPHASW D HRMM SECON CODA AMPLIT PERI AZIMU VELO AIN AR TRES W  DIS CAZ7
 BRR  HZ EP       1849 21.65                             157    0.0410 39.6 317 
 BRR  HN ES       1849 33.14                             157    0.2210 39.6 317 
 BRR  HZ I        1849 34.41        13.1 0.32            159           39.6 317 
 BAR2 EZ EP       1849 22.25                             156    0.1610 42.2 132 
 PAM  EZ EP       1849 26.91                             132    0.1410  101  57 
 PAM  EN ES       1849 41.86                             132   -0.2410  101  57 
 PAM  EZ I        1849 44.94         2.1 0.22            133            101  57 
 RUS  HZ EP   1   1849 28.17                             128    0.18 7  114 158 
 RUS  HN ES   1   1849 43.94                             128   -0.33 7  114 158 
 RUS  HZ I        1849 45.22         1.4 0.12            131            114 158 
 ZAR  HN ES       1849 53.26                             115   -0.27 9  169 295 
                                                                                
