 2015  919 1827 18.2 L   6.801 -73.186144.4  RSN 10 0.5 1.9LRSN                1
 GAP=197        1.10       3.4     5.0  6.0  0.2415E+01  0.6110E+01  0.3200E+00E
 Epicentro: ZAPATOCA - SANTANDER                                               3
 ACTION:UPD 15-10-28 16:27 OP:cam  STATUS:               ID:20150919182718 L   I
 OLDACT:DUP 15-09-20 00:14 OP:drio STATUS:               ID:20150919181749d    3
 2015-09-19-1817-48M.COL___358                                                 6
 STAT SP IPHASW D HRMM SECON CODA AMPLIT PERI AZIMU VELO AIN AR TRES W  DIS CAZ7
 BAR2 EZ EP       1827 37.68                             170    0.0210 23.1 179 
 BAR2 EZ ES       1827 52.95                             170    0.1210 23.1 179 
 BAR2 EZ I        1827 54.53        12.3 0.44            169           23.1 179 
 BRR  HZ EP       1827 39.58                             154    0.6010 67.3 300 
 BRR  HN ES       1827 55.75                             154    0.5610 67.3 300 
 RUS  HZ EP       1827 42.05                             143    0.2010  101 174 
 RUS  HE ES       1828  0.34                             143    0.0410  101 174 
 RUS  HZ I        1828  1.26         5.8 0.26            145            101 174 
 PTB  HZ EP       1827 44.27                             133   -0.39 9  143 258 
 PTB  HN ES       1828  4.97                             133   -0.33 9  143 258 
 PTB  HZ I        1828  9.13         8.4 0.10            132            143 258 
 SPBC HZ EP       1827 46.02                             129   -0.31 9  160 218 
 SPBC HN ES       1828  7.43                             129   -0.85 9  160 218 
 SPBC HZ I        1828 15.81        14.9 0.20            129            160 218 
 ZAR  HZ EP       1827 50.25                             123    0.13 9  200 293 
 ZAR  HE ES       1828 15.12                             123    0.09 9  200 293 
 ZAR  HZ I        1828 21.48         9.7 0.74            123            200 293 
 NOR  HZ EP       1827 53.88                             119    0.42 8  231 234 
 NOR  HE ES       1828 20.76                             119   -0.21 8  231 234 
 NOR  HZ I        1828 25.06         5.6 0.14            119            231 234 
 SML  HZ EP       1827 54.47                             117   -0.07 8  242 336 
 SML  HN ES       1828 21.90                             117   -0.98 8  242 336 
 SML  HZ I        1828 27.41        15.5 0.10            119            242 336 
 CHI  HZ EP       1827 55.42                             117   -0.28 8  248 194 
 CHI  HE ES       1828 24.61                             117   -0.35 8  248 194 
 CHI  HZ I        1828 29.11         3.2 0.32            118            248 194 
 GUY2CHZ EP       1828  2.00                             112    0.66 7  298 234 
 GUY2CHN ES       1828 35.90                             112    0.91 7  298 234 
 GUY2CHZ I        1828 44.72         3.2 0.46                           298 234 
                                                                                
