 2010  219 1801 18.8 L   6.802 -73.135139.7  RSN 10 0.5 3.0LRSN                1
 GAP=184        0.77       4.4     9.8  9.1 -0.1514E+02  0.5213E+02 -0.2725E+01E
 Epicentro: LOS SANTOS - SANTANDER                                             3
 ACTION:UP  10-08-24 09:49 OP:vdl  STATUS:               ID:20100219180118 L   I
 2010-02-19-1759-36S.COL___094                                                 6
 STAT SP IPHASW D HRMM SECON CODA AMPLIT PERI AZIMU VELO SNR AR TRES W  DIS CAZ7
 BAR2 SZ IP       18 1 37.71                             170     0.010   24 193 
 BAR2 SZ ES   2   18 1 52.56                             170     0.1 5   24 193 
 RUS  BZ EP   1   18 1 41.68                             143    -0.3 7  101 177 
 RUS  BE ES   2   18 2  0.14                             143     0.1 5  101 177 
 RUS  BZ I        18 2  1.21        75.7 0.24                           101 177 
 OCA  SZ EP   1   18 1 46.17                             128    -0.5 7  160 353 
 OCA  SZ ES   2   18 2  8.94                             128     0.6 5  160 353 
 CHI  HZ EP   1   18 1 55.88                             116    -0.3 6  249 195 
 CHI  HE ES   2   18 2 25.01                             116    -0.4 4  249 195 
 CHI  HZ I        18 2 31.30        39.3 0.34                           249 195 
 ROSC BZ EP   1   18 1 57.77                             115     1.1 6  254 211 
 ROSC BE ES   2   18 2 26.66                             115     0.4 4  254 211 
 ROSC BZ I        18 2 31.52        60.7 0.39                           254 211 
 RREF BZ EP   1   18 2  5.25                             110     0.5 5  323 229 
 RREF BE ES   2   18 2 40.44                             110    -0.2 3  323 229 
 RREF BZ I        18 2 46.09        38.3 0.30                           323 229 
 DBB  SZ EP   1   18 2  5.93                             108    -0.2 5  341 274 
 TOL  SZ EP   1   18 2  6.95                             108     0.0 5  345 225 
 TOL  SZ ES   2   18 2 43.70                             108    -0.8 3  345 225 
 ANIL BZ EP   1   18 2  9.17                             107     0.7 5  358 225 
 ANIL BE ES   2   18 2 46.55                             107    -0.7 3  358 225 
 ANIL BZ I        18 2 54.52        81.5 0.23                           358 225 
 PRA  HZ EP   1   18 2 11.49                             106    -0.7 4  393 210 
 PRA  HN ES   2   18 2 53.73                             106    -0.1 3  393 210 
 PRA  HZ I        18 2 58.86        65.0 0.66                           393 210 
                                                                                
