 2011  719 1347 50.7 L   6.986 -73.062130.4  RSN  4 0.3 1.6LRSN                1
 GAP=165        0.66       5.0     8.0  8.2 -0.1387E+02 -0.2102E+02  0.4597E+01E
 Epicentro: PIEDECUESTA - SANTANDER                                            3
 ACTION:UPD 12-07-25 14:02 OP:epov STATUS:               ID:20110719134750 L   I
 2011-07-19-1344-00S.COL___138                                                 6
 STAT SP IPHASW D HRMM SECON CODA AMPLIT PERI AZIMU VELO AIN AR TRES W  DIS CAZ7
 BAR2 SZ I        1348 10.30         3.4 0.12                          45.5 197 
 BAR2 SZ ES   1   1348 23.91                             160    0.23 7 45.5 197 
 BRR  HZ EP   1   1348 10.91                             149    0.55 7 73.1 281 
 BRR  HZ I        1348 21.14        12.3 0.29                          73.1 281 
 BRR  HN ES   1   1348 25.29                             149   -0.38 7 73.1 281 
 GRA  SZ EP   1   1348 12.64                             139   -0.12 7  103  16 
 GRA  SZ ES   1   1348 29.94                             139    0.00 7  103  16 
 GRA  SZ I        1348 30.95        10.5 0.26                           103  16 
 RUS  HZ EP   1   1348 14.36                             135   -0.32 7  121 181 
                                                                                
