 2011  719 1031 35.7 L   6.755 -73.138150.5  RSN  5 0.2 1.7LRSN                1
 GAP=186        0.51       3.8     5.0  5.1  0.8457E+00  0.5308E+01  0.4541E+01E
 Epicentro: LOS SANTOS - SANTANDER                                             3
 ACTION:UPD 12-07-25 14:01 OP:epov STATUS:               ID:20110719103135 L   I
 2011-07-19-1030-36S.COL___142                                                 6
 STAT SP IPHASW D HRMM SECON CODA AMPLIT PERI AZIMU VELO AIN AR TRES W  DIS CAZ7
 BAR2 SZ EP   1   1031 55.62                             173   -0.18 7 18.7 195 
 BAR2 SZ ES   1   1032 11.13                             173   -0.37 7 18.7 195 
 BAR2 SZ I        1032 12.31        11.0 0.34                          18.7 195 
 GIR2 SZ EP   1   1031 55.76                             166   -0.30 7 36.3 350 
 GIR2 SZ ES   1   1032 12.25                             166    0.29 7 36.3 350 
 BRR  HZ EP   1   1031 57.52                             152   -0.01 7 74.4 302 
 BRR  HZ I        1032  0.21        14.2 0.33                          74.4 302 
 BRR  HE ES   1   1032 14.73                             152    0.17 7 74.4 302 
 RUS  HZ EP   1   1031 59.86                             146    0.30 7 95.6 176 
 RUS  HN ES   1   1032 18.31                             146    0.13 7 95.6 176 
 RUS  HZ I        1032 19.94         4.9 0.24                          95.6 176 
 NOR  SZ EP   2   1032 11.80                             120    0.33 4  233 236 
 NOR  SN ES   1   1032 39.18                             120   -0.20 6  233 236 
                                                                                
