 2016  719 1933 41.8 L   6.800 -73.137145.9  RSN 20 0.4 2.8LRSN                1
 GAP=120        0.90       3.0     3.3  4.7 -0.1543E+01  0.5651E+01  0.3087E+01E
 Epicentro: LOS SANTOS - SANTANDER                                             3
 ACTION:UPD 17-03-29 16:53 OP:lp   STATUS:               ID:20160719193341 L   I
 OLDACT:REG 16-07-19 21:14 OP:lv   STATUS:               ID:20160719192759     3
 2016-07-19-1927-59S.COL___343                                                 6
 STAT SP IPHASW D HRMM SECON CODA AMPLIT PERI AZIMU VELO AIN AR TRES W  DIS CAZ7
 BAR2 EZ EP       1934  1.43                             170   -0.0010 23.5 192 
 BAR2 EZ ES       1934 16.61                             170   -0.1410 23.5 192 
 BRR  HZ IP     C 1934  3.23                             152    0.2410 72.0 298 
 BRR  HN ES       1934 20.24                             152    0.7110 72.0 298 
 BRR  HZ I        1934 21.47        91.5 0.34            149           72.0 298 
 PAM  EZ EP     C 1934  4.21                             151    0.2410 76.8  39 
 PAM  EN ES       1934 21.05                             151   -0.2310 76.8  39 
 PAM  EZ I        1934 23.63        78.0 0.52            155           76.8  39 
 RUS  HZ EP     D 1934  5.36                             144   -0.1810  101 177 
 RUS  HN ES       1934 24.13                             144    0.0610  101 177 
 RUS  HZ I        1934 25.52        55.3 0.24            144            101 177 
 SPBC HZ EP       1934 10.30                             129   -0.05 9  164 219 
 SPBC HN ES       1934 32.57                             129   -0.06 9  164 219 
 SPBC HZ I        1934 37.29       128.2 0.22            127            164 219 
 ZAR  HZ EP       1934 14.01                             122   -0.32 9  205 292 
 ZAR  HN ES       1934 39.17                             122   -0.54 9  205 292 
 ZAR  HZ I        1934 44.83        83.2 0.40            121            205 292 
 NOR  HZ EP       1934 17.54                             118   -0.06 8  235 235 
 NOR  HN ES       1934 45.03                             118   -0.51 8  235 235 
 NOR  HZ I        1934 53.24        42.6 0.14            117            235 235 
 CHI  HZ EP       1934 19.66                             117    0.15 8  249 195 
 CHI  HN ES       1934 48.65                             117   -0.29 8  249 195 
 CHI  HZ I        1934 52.42        42.3 0.66            117            249 195 
 HEL  HZ EP       1934 23.05                             115    0.95 8  273 256 
 HEL  HN ES       1934 52.46                             115   -1.09 8  273 256 
 HEL  HZ I        1935  0.39        25.5 0.50            114            273 256 
 URE  HZ EP   4   1934 21.30                             113   -1.66 0  285 292 
 URE  HN ES   4   1934 51.89                             113   -3.18 0  285 292 
 URE  HZ I        1935  2.77        31.3 0.20            113            285 292 
 SOCV BZ EP   2   1934 24.24                             112   -0.50 4  300  57 
 SOCV BN ES   4   1934 54.20                             112   -4.05 0  300  57 
 GUY2CHZ EP       1934 25.57                             112    0.09 7  302 235 
 GUY2CHE ES       1935  0.18                             112    0.61 7  302 235 
 GUY2CHZ I        1935  7.67        34.4 0.34                           302 235 
 PTGC HZ EP   4   1934 24.55                             112   -1.05 0  308 159 
 PTGC HN ES   4   1934 58.13                             112   -1.65 0  308 159 
 PTGC HZ I        1935  1.80        20.6 0.38            112            308 159 
 ELA  HZ EP   2   1934 29.60                             110    0.88 3  330 230 
 ELA  HN ES   4   1935  0.94                             110   -4.39 0  330 230 
 ELA  HZ I        1935 18.00        26.1 0.46            110            330 230 
 CBOC HZ EP   2   1934 27.91                             110   -0.89 3  335 252 
 CBOC HN ES       1935  5.90                             110    0.42 7  335 252 
 CBOC HZ I        1935 11.03        10.1 0.40            109            335 252 
 ANIL HZ EP   3   1934 31.58                             108   -0.09 2  358 225 
 ANIL HE ES       1935 11.16                             108    0.58 6  358 225 
 ANIL HZ I        1935 21.50        87.2 0.36            108            358 225 
 PRA  HZ EP       1934 35.17                             106   -0.19 6  392 210 
 PRA  HN ES       1935 17.09                             106   -0.06 6  392 210 
 PRA  HZ I        1935 23.63        43.7 0.32            106            392 210 
 PAL  HZ EP   2   1934 36.37                             106   -0.67 3  406 239 
 PAL  HE ES   4   1935 15.94                             106   -4.20 0  406 239 
 PAL  HZ I        1935 21.03        26.3 0.12            106            406 239 
 SJC  HZ EP   4   1934 35.09                             106   -2.32 0  410 327 
 SJC  HN ES   4   1935 16.71                             106   -4.09 0  410 327 
 SJC  HZ I        1935 24.79         8.9 0.64            106            410 327 
 CRJC HZ EP   4   1934 41.67                             103   -2.61 0  468   3 
 CRJC HE ES   4   1935 29.54                             103   -3.49 0  468   3 
 CRJC HZ I        1935 36.58        22.6 0.40            104            468   3 
                                                                                
