 2011  219 1419 56.3 L   6.769 -73.137138.2  RSN  5 0.4 1.9LRSN                1
 GAP=184        1.03       6.9    11.6 12.1 -0.1762E+02  0.4628E+02 -0.1644E+02E
 Epicentro: LOS SANTOS - SANTANDER                                             3
 ACTION:UP  11-03-28 15:09 OP:jfem STATUS:               ID:20110219141956 L   I
 2011-02-19-1416-50S.COL___137                                                 6
 STAT SP IPHASW D HRMM SECON CODA AMPLIT PERI AZIMU VELO SNR AR TRES W  DIS CAZ7
 BAR2 SZ IP       1420 14.52                             172    -0.410   20 195 
 BAR2 SZ ES   1   1420 29.40                             172    -0.1 7   20 195 
 BAR2 SZ I        1420 30.70        15.8 0.14                            20 195 
 BTL  SZ IP       1420 15.81                             170     0.810   22 319 
 RUS  HZ EP       1420 19.02                             143     0.010   97 176 
 RUS  HN ES   1   1420 36.45                             143    -0.3 7   97 176 
 RUS  HZ I        1420 37.79         9.7 0.42                            97 176 
 OCA  SZ EP   2   1420 23.86                             127    -0.5 5  164 353 
 OCA  SZ ES   2   1420 45.99                             127    -0.3 5  164 353 
 OCA  SZ I        1420 49.74        18.8 0.34                           164 353 
 NOR  SZ EP   2   1420 31.35                             117    -0.1 4  234 235 
 NOR  SN ES   1   1420 58.91                             117     0.0 6  234 235 
                                                                                
