 2012  819 1643 31.0 L   6.773 -73.139146.3  RSN 11 0.3 2.4LRSN                1
 GAP= 72        0.68       3.1     3.2  4.6 -0.3473E+00  0.2905E+01  0.2183E+01E
 Epicentro: LOS SANTOS - SANTANDER                                             3
 ACTION:UPD 12-09-10 11:57 OP:ep   STATUS:               ID:20120819164331 L   I
 2012-08-19-1640-00M.COL___216                                                 6
 STAT SP IPHASW D HRMM SECON CODA AMPLIT PERI AZIMU VELO AIN AR TRES W  DIS CAZ7
 BAR2 SZ EP       1643 50.68                             172    0.0810 20.5 194 
 BAR2 SZ ES   1   1644  5.61                             172   -0.31 7 20.5 194 
 BAR2 SZ I        1644  8.88        94.0 0.32                          20.5 194 
 BRR  HZ EP       1643 52.59                             152    0.3010 73.3 300 
 BRR  HE ES   1   1644  9.75                             152    0.83 7 73.3 300 
 BRR  HZ I        1644 14.64        53.2 0.14                          73.3 300 
 PAM  SZ EP       1643 53.48                             150    0.1410 79.3  38 
 PAM  SZ I        1643 53.86        59.3 0.23                          79.3  38 
 PAM  SN ES       1644 10.67                             150   -0.1410 79.3  38 
 RUS  HZ EP       1643 54.52                             145   -0.0210 97.5 176 
 RUS  HE ES   1   1644 12.97                             145    0.03 7 97.5 176 
 PTB  HZ EP   1   1643 57.57                             132   -0.42 7  148 260 
 PTB  HN ES   1   1644 18.44                             132   -0.63 7  148 260 
 PTB  HZ I        1644 26.53        18.4 0.31                           148 260 
 TAM  HZ EP   1   1643 58.33                             131   -0.21 7  154 104 
 TAM  HZ I        1643 59.12        28.7 0.24                           154 104 
 OCA  HZ EP   1   1643 59.15                             129   -0.45 7  163 353 
 ZAR  HZ EP   1   1644  3.71                             122    0.08 6  206 293 
 ZAR  HE ES   1   1644 28.82                             122   -0.29 6  206 293 
 ZAR  HZ I        1644 35.00        28.8 0.33                           206 293 
 NOR  SZ EP   1   1644  6.58                             119   -0.02 6  234 235 
 CHI  HZ EP   1   1644  8.60                             117    0.21 6  246 196 
 CHI  HN ES   1   1644 37.70                             117    0.11 6  246 196 
 CHI  HZ I        1644 41.98        11.2 0.38                           246 196 
 HEL  HZ EP   1   1644 11.62                             115    0.42 6  272 256 
 HEL  HZ I        1644 52.14        10.3 0.32                           272 256 
                                                                                
