 2015  919 1844 33.2 L   6.444 -73.695101.0  RSN 14 0.4 2.3LRSN                1
 GAP= 58        0.99       2.2     2.6  5.3 -0.1599E+01  0.2912E+01 -0.7494E-01E
 Epicentro: SANTA HELENA DEL OPON - SANTANDER                                  3
 ACTION:UPD 15-10-28 16:27 OP:cam  STATUS:               ID:20150919184433 L   I
 OLDACT:REG 15-09-19 20:33 OP:dri  STATUS:               ID:20150919183748     3
 2015-09-19-1837-48M.COL___355                                                 6
 STAT SP IPHASW D HRMM SECON CODA AMPLIT PERI AZIMU VELO AIN AR TRES W  DIS CAZ7
 BAR2 EZ EP       1844 49.65                             147    0.4410 59.0  74 
 BAR2 EZ ES       1845  2.11                             147    0.4010 59.0  74 
 BAR2 EZ I        1845  4.58       102.8 0.32            149           59.0  74 
 BRR  HZ EP       1844 50.46                             141    0.5610 73.4 359 
 BRR  HE ES       1845  2.91                             141   -0.0310 73.4 359 
 PTB  HZ EP       1844 50.45                             136   -0.4010 84.9 277 
 PTB  HN ES       1845  4.86                             136    0.2310 84.9 277 
 PTB  HZ I        1845  5.59        35.7 0.22            135           84.9 277 
 RUS  HZ EP       1844 51.77                             135   -0.2610 91.1 132 
 RUS  HE ES   4   1845  5.50                             135   -1.23 0 91.1 132 
 SPBC HZ EP       1844 51.79                             132   -0.2210 97.0 206 
 SPBC HN ES       1845  6.40                             132   -0.2810 97.0 206 
 SPBC HZ I        1845  9.29        39.0 0.26            134           97.0 206 
 PAM  EZ EP       1844 57.85                             120    0.26 9  148  48 
 PAM  EN ES       1845 16.08                             120   -0.55 9  148  48 
 PAM  EZ I        1845 18.34        26.2 0.56            120            148  48 
 NOR  HZ EP       1844 58.32                             117   -0.26 9  162 233 
 NOR  HE ES       1845 17.92                             117   -0.46 9  162 233 
 NOR  HZ I        1845 23.85        34.6 0.12            117            162 233 
 ZAR  HZ EP       1845  0.14                             115    0.44 9  173 312 
 ZAR  HE ES       1845 20.31                             115   -0.07 9  173 312 
 ZAR  HZ I        1845 25.42        23.9 0.34            114            173 312 
 CHI  HZ EP       1845  3.49                             111    0.18 9  201 181 
 CHI  HN ES       1845 26.93                             111    0.14 9  201 181 
 OCA  HN ES       1845 25.93                             111   -0.73 9  203  12 
 OCA  HZ I        1845 31.49        33.3 0.22            111            203  12 
 HEL  HZ EP       1845  4.39                             111    0.66 9  205 262 
 HEL  HN ES       1845 28.07                             111    0.52 9  205 262 
 HEL  HZ I        1845 31.21        31.6 0.30            111            205 262 
 GUY2CHZ EP       1845  7.04                             108    0.41 8  229 234 
 GUY2CHN ES       1845 32.13                             108   -0.59 8  229 234 
 GUY2CHZ I        1845 37.55        10.0 0.32                           229 234 
 URE  HZ EP       1845  7.98                             106   -0.46 8  249 306 
 SML  HZ EP       1845 10.24                             104    0.09 8  264 351 
 SML  HN ES       1845 38.83                             104   -0.15 8  264 351 
 SML  HZ I        1845 54.51        15.9 0.10            104            264 351 
                                                                                
