 2016 1219 1218 32.4 L   6.808 -73.162148.4  RSN 11 0.4 1.9LRSN                1
 GAP=117        0.99       3.9     4.4  5.7 -0.2065E+01  0.4901E+01  0.4056E+01E
 Epicentro: LOS SANTOS - SANTANDER                                             3
 ACTION:UPD 17-01-11 20:16 OP:rebc STATUS:               ID:20161219121832 L   I
 OLDACT:UP  16-12-19 23:57 OP:edw  STATUS:               ID:20161219121743     3
 OLDACT:UP  16-12-19 23:54 OP:edw  STATUS:               ID:20161219121743     3
 OLDACT:REG 16-12-19 18:21 OP:edw  STATUS:               ID:20161219121743     3
 2016-12-19-1218-00M.COL___324                                                 6
 STAT SP IPHASW D HRMM SECON CODA AMPLIT PERI AZIMU VELO AIN AR TRES W  DIS CAZ7
 BAR2 EZ IP     D 1218 52.40                             170    0.0810 23.9 185 
 BAR2 EZ ES       1219  7.79                             170   -0.1010 23.9 185 
 BAR2 EZ I        1219 10.81         7.0 0.16            169           23.9 185 
 BRR  HZ IP     D 1218 54.16                             154    0.4710 69.2 299 
 BRR  HE ES       1219 10.48                             154    0.1610 69.2 299 
 BRR  HZ I        1219 15.15        13.6 0.16            152           69.2 299 
 PAM  EZ EP     D 1218 55.37                             151    0.4810 77.9  41 
 PAM  EN ES       1219 12.45                             151   -0.0110 77.9  41 
 PAM  EZ I        1219 14.60        23.0 0.54            156           77.9  41 
 RUS  HZ EP       1218 56.44                             144   -0.0010  102 175 
 RUS  HN ES       1219 14.58                             144   -0.6510  102 175 
 RUS  HZ I        1219 16.29        12.9 0.38            146            102 175 
 PTB  HZ EP     D 1218 58.99                             133   -0.41 9  146 258 
 PTB  HN ES       1219 20.28                             133   -0.21 9  146 258 
 PTB  HZ I        1219 25.77         8.8 0.34            133            146 258 
 ZAR  HZ EP   4   1219  6.26                             123    1.48 0  202 292 
 ZAR  HN ES   2   1219 29.39                             123   -0.66 4  202 292 
 NOR  HZ EP   4   1219  6.60                             119   -1.54 0  234 234 
 NOR  HN ES       1219 36.81                             119    0.76 8  234 234 
 NOR  HZ I        1219 43.94         7.5 0.22            120            234 234 
 CHI  HZ EP       1219 10.65                             118    0.40 8  249 195 
 CHI  HN ES       1219 39.99                             118    0.20 8  249 195 
 CHI  HZ I        1219 42.44         5.8 0.30            120            249 195 
 GUY2CHZ EP       1219 15.51                             113   -0.47 7  300 234 
 GUY2CHN ES   4   1219 53.73                             113    3.73 0  300 234 
 GUY2CHZ I        1219 58.03         4.1 0.56                           300 234 
 PTGC HZ EP   2   1219 15.96                             112   -0.55 4  310 158 
 PTGC HN ES   4   1219 49.13                             112   -1.80 0  310 158 
 SJC  HZ EP       1219 26.72                             106   -1.09 6  408 327 
 SJC  HN ES   4   1220  7.90                             106   -3.16 0  408 327 
                                                                                
