 2010  319 1448 13.9 L   6.831 -73.011144.4  RSN  6 0.2 2.0LRSN                1
 GAP=197        0.40       3.1     5.8  4.3  0.3765E+01 -0.1321E+01  0.3823E+01E
 Epicentro: CEPITA - SANTANDER                                                 3
 ACTION:UP  10-08-24 09:54 OP:vdl  STATUS:               ID:20100319144813 L   I
 2010-03-19-1445-18S.COL___098                                                 6
 STAT SP IPHASW D HRMM SECON CODA AMPLIT PERI AZIMU VELO SNR AR TRES W  DIS CAZ7
 BAR2 SZ IP       1448 33.67                             167     0.110   33 216 
 BAR2 SZ ES   2   1448 48.83                             167    -0.1 5   33 216 
 BRR  HZ IP       1448 35.54                             149    -0.110   83 292 
 BRR  HZ I        1448 35.86        17.9 0.13                            83 292 
 BRR  HE ES   1   1448 52.50                             149    -0.1 7   83 292 
 RUS  HZ EP   1   1448 37.73                             143     0.0 7  104 184 
 RUS  HN ES   2   1448 56.46                             143     0.1 5  104 184 
 RUS  HZ I        1448 57.84         5.5 0.38                           104 184 
 OCA  SZ EP   2   1448 42.28                             130     0.3 5  159 348 
 OCA  SZ I        1448 49.27        34.8 0.39                           159 348 
 CHI  HZ EP   2   1448 52.13                             116    -0.2 4  256 198 
 CHI  HZ I        1448 54.68         3.2 0.40                           256 198 
 PRA  HZ IP       1449  8.28                             106    -0.3 6  402 211 
 PRA  HN ES   1   1449 51.67                             106     0.4 4  402 211 
 PRA  HZ I        1449 55.33         3.6 0.51                           402 211 
                                                                                
