 2016  119 1213 43.3 L   6.822 -73.198139.8  RSN  5 0.2 1.5LRSN                1
 GAP=129        0.61       2.6     3.3  5.2 -0.9945E+00  0.6213E+01 -0.4210E+01E
 Epicentro: ZAPATOCA - SANTANDER                                               3
 ACTION:UPD 16-03-09 23:26 OP:cam  STATUS:               ID:20160119121343 L   I
 OLDACT:REG 16-01-19 21:17 OP:mh   STATUS:               ID:20160119120748     3
 2016-01-19-1207-48M.COL___326                                                 6
 STAT SP IPHASW D HRMM SECON CODA AMPLIT PERI AZIMU VELO AIN AR TRES W  DIS CAZ7
 BAR2 EZ EP   1   1214  2.05                             169   -0.20 7 25.4 176 
 BAR2 EZ ES   1   1214 16.88                             169   -0.16 7 25.4 176 
 BAR2 EZ I        1214 18.47         8.9 0.19            171           25.4 176 
 PAM  EZ EP       1214  5.23                             149    0.2210 79.5  44 
 PAM  EN ES       1214 22.14                             149    0.2010 79.5  44 
 PAM  EZ I        1214 24.39         6.8 0.60            152           79.5  44 
 RUS  HZ EP       1214  6.44                             142   -0.2510  104 173 
 RUS  HN ES       1214 24.81                             142   -0.1210  104 173 
 RUS  HZ I        1214 25.60         4.0 0.50            145            104 173 
 PTB  HZ EP       1214  9.72                             132    0.42 9  143 257 
 PTB  HN ES       1214 29.68                             132    0.09 9  143 257 
 PTB  HZ I        1214 32.99         4.6 0.28            133            143 257 
 SML  HZ EP       1214 19.01                             117   -0.08 8  239 336 
 SML  HN ES       1214 46.61                             117   -0.40 8  239 336 
                                                                                
