 2013 1219 1813  3.2 L   6.813 -73.160141.1  RSN 11 0.4 1.9LRSN                1
 GAP=134        0.95       3.4     3.8  5.8 -0.1783E+01  0.7710E+01  0.2084E+01E
 Epicentro: LOS SANTOS - SANTANDER                                             3
 ACTION:UPD 14-01-13 10:19 OP:ep   STATUS:               ID:20131219181303 L   I
 OLDACT:REG 13-12-19 14:51 OP:nd   STATUS:               ID:20131219181000     3
 2013-12-19-1810-00M.COL___285                                                 6
 STAT SP IPHASW D HRMM SECON CODA AMPLIT PERI AZIMU VELO AIN AR TRES W  DIS CAZ7
 BAR2 SZ IP     D 1813 22.53                             170    0.1910 24.6 186 
 BAR2 SZ ES       1813 37.82                             170    0.5810 24.6 186 
 BAR2 SZ I        1813 38.70        37.7 0.26            169           24.6 186 
 BRR  HZ IP     C 1813 24.37                             152    0.5910 69.1 298 
 BRR  HN ES   2   1813 40.22                             152    0.43 5 69.1 298 
 BRR  HZ I        1813 45.51        15.7 0.14            152           69.1 298 
 PAM  SZ EP       1813 25.19                             150    0.2310 77.3  41 
 PAM  SZ ES       1813 41.18                             150   -0.7210 77.3  41 
 PAM  SN ES       1813 42.55                             150           77.3  41 
 PAM  SZ I        1813 44.18         7.2 0.18            155           77.3  41 
 RUS  HZ EP       1813 26.53                             142   -0.1310  102 175 
 RUS  HN ES       1813 44.77                             142   -0.1510  102 175 
 RUS  HZ I        1813 46.41         8.8 0.24            145            102 175 
 PTB  HZ EP       1813 29.10                             131   -0.63 9  147 258 
 PTB  HN ES       1813 49.75                             131   -0.63 9  147 258 
 PTB  HZ I        1813 52.10        11.8 0.46            132            147 258 
 SPBC HZ EP       1813 31.45                             128    0.04 9  163 218 
 SPBC HN ES       1813 53.23                             128   -0.14 9  163 218 
 SPBC HZ I        1813 59.29        16.2 0.32            130            163 218 
 ZAR  HZ EP       1813 35.10                             122   -0.09 9  202 292 
 ZAR  HN ES       1814  0.47                             122    0.37 9  202 292 
 ZAR  HZ I        1814  4.31         9.3 0.30            123            202 292 
 NOR  HZ EP       1813 39.05                             117    0.38 8  234 234 
 NOR  HN ES       1814  6.25                             117   -0.04 8  234 234 
 NOR  HZ I        1814 10.33         8.1 0.18            119            234 234 
 CHI  HZ EP       1813 40.60                             116   -0.20 8  250 195 
 CHI  HN ES       1814 10.43                             116    0.34 8  250 195 
 CHI  HZ I        1814 15.58         2.8 0.28            118            250 195 
 GUY2CHZ EP   2   1813 46.70                             111    0.10 4  301 234 
 GUY2CHN ES       1814 20.28                             111   -0.13 7  301 234 
 GUY2CHZ I        1814 30.41         4.8 0.26                           301 234 
 SJC  HZ EP   4   1813 56.79                             105   -1.63 0  407 327 
 SJC  HN ES   4   1814 36.97                             105   -4.48 0  407 327 
 SJC  HZ I        1814 43.42         3.0 0.80            107            407 327 
                                                                                
