 2014  219 1253 54.7 L   6.892 -73.261126.9  RSN  8 0.5 1.8LRSN                1
 GAP=114        1.21       3.7     4.8  9.0 -0.1526E+01  0.2107E+02 -0.2634E+01E
 Epicentro: BETULIA - SANTANDER                                                3
 ACTION:UPD 14-03-10 08:11 OP:ep   STATUS:               ID:20140219125354 L   I
 OLDACT:REG 14-02-19 15:49 OP:carl STATUS:               ID:20140219125000     3
 2014-02-19-1250-00M.COL___212                                                 6
 STAT SP IPHASW D HRMM SECON CODA AMPLIT PERI AZIMU VELO AIN AR TRES W  DIS CAZ7
 BAR2 SZ EP     C 1254 12.76                             164    0.4310 34.2 165 
 BAR2 SZ ES       1254 26.09                             164   -0.0210 34.2 165 
 BAR2 SZ I        1254 27.20        64.9 0.28            165           34.2 165 
 PAM  SZ EP       1254 15.02                             146   -0.0110 79.4  51 
 PAM  SE ES       1254 31.20                             146    0.2710 79.4  51 
 PAM  SZ I        1254 34.54         8.6 0.58            149           79.4  51 
 RUS  HZ EP       1254 17.45                             136   -0.1010  112 170 
 RUS  HN ES       1254 35.22                             136   -0.1910  112 170 
 RUS  HZ I        1254 37.96         4.1 0.80            139            112 170 
 PTB  HZ EP       1254 18.13                             129   -1.06 9  138 254 
 PTB  HN ES       1254 38.38                             129    0.05 9  138 254 
 PTB  HZ I        1254 40.27        14.8 0.18            132            138 254 
 OCA  HN ES       1254 40.39                             127   -0.21 9  149 358 
 ZAR  HZ EP       1254 25.07                             120    0.79 9  188 291 
 ZAR  HN ES       1254 47.96                             120    0.57 9  188 291 
 ZAR  HZ I        1254 50.33        10.6 0.26            122            188 291 
 SML  HE ES       1254 54.50                             115   -0.73 8  229 337 
 NOR  HZ EP       1254 29.53                             115    0.61 8  231 231 
 NOR  HN ES       1254 55.28                             115   -0.37 8  231 231 
 NOR  HZ I        1254 57.48         3.7 0.18            117            231 231 
                                                                                
