 2013  819 1911 50.1 L   6.813 -73.158141.7  RSN 12 0.5 2.0LRSN                1
 GAP=134        1.26       4.2     4.5  6.6 -0.1568E+01  0.9573E+01  0.6639E+01E
 Epicentro: LOS SANTOS - SANTANDER                                             3
 ACTION:UPD 14-01-14 09:04 OP:ep   STATUS:               ID:20130819191150 L   I
 OLDACT:UP  13-08-19 20:21 OP:stll STATUS:               ID:20130819190849     3
 OLDACT:REG 13-08-19 15:50 OP:stll STATUS:               ID:20130819190849     3
 2013-08-19-1908-49M.COL___201                                                 6
 STAT SP IPHASW D HRMM SECON CODA AMPLIT PERI AZIMU VELO AIN AR TRES W  DIS CAZ7
 BAR2 SZ EP       1912  9.06                             170   -0.1610 24.5 186 
 BAR2 SZ ES       1912 24.24                             170    0.0710 24.5 186 
 BAR2 SZ I        1912 26.95        14.8 0.16            168           24.5 186 
 BRR  HZ EP       1912 10.81                             152    0.1510 69.4 298 
 BRR  HE ES       1912 27.51                             152    0.7810 69.4 298 
 BRR  HZ I        1912 32.83        15.3 0.16            151           69.4 298 
 PAM  SZ EP       1912 11.91                             150    0.0810 77.2  41 
 PAM  SZ I        1912 12.05         9.6 0.20            156           77.2  41 
 PAM  SN ES       1912 28.83                             150    0.0310 77.2  41 
 RUS  HZ EP       1912 13.17                             142   -0.3510  102 175 
 RUS  HN ES       1912 31.74                             142   -0.0810  102 175 
 RUS  HZ I        1912 33.43         7.0 0.22            145            102 175 
 PTB  HZ EP       1912 15.73                             131   -0.87 9  147 258 
 PTB  HN ES       1912 36.19                             131   -1.11 9  147 258 
 PTB  HZ I        1912 39.14        19.5 0.10            131            147 258 
 SPBC HZ EP       1912 18.30                             128    0.03 9  163 218 
 SPBC HN ES       1912 40.30                             128    0.03 9  163 218 
 SPBC HZ I        1912 47.13        17.3 0.30            129            163 218 
 ZAR  HZ EP       1912 21.86                             122   -0.20 9  202 292 
 ZAR  HN ES       1912 47.11                             122    0.10 9  202 292 
 ZAR  HZ I        1912 53.37        12.7 0.24            123            202 292 
 NOR  HZ EP       1912 25.50                             118   -0.02 8  234 234 
 NOR  HN ES       1912 52.70                             118   -0.48 8  234 234 
 NOR  HZ I        1913  0.04        13.7 0.12            119            234 234 
 CHI  HZ EP       1912 26.92                             116   -0.72 8  250 195 
 CHI  HN ES       1912 57.38                             116    0.42 8  250 195 
 HEL  HZ EP       1912 30.51                             114    0.55 8  271 255 
 HEL  HN ES       1913  0.92                             114   -0.16 8  271 255 
 HEL  HZ I        1913  9.40         7.8 0.56            115            271 255 
 GUY2CHZ EP       1912 34.82                             111    1.37 7  301 234 
 GUY2CHN ES       1913  8.39                             111    1.10 7  301 234 
 GUY2CHZ I        1913 13.37         5.6 0.26                           301 234 
 PRA  HZ EP       1912 43.61                             106    0.10 6  393 209 
 PRA  HN ES       1913 25.82                             106    0.63 6  393 209 
 PRA  HZ I        1913 30.88         4.7 0.26            108            393 209 
                                                                                
