 2013  519 1131 20.4 L   6.826 -73.160132.9  RSN  7 0.5 1.6LRSN                1
 GAP=183        1.17       5.8     8.9  8.3  0.2556E+02  0.2330E+02 -0.2540E+01E
 Epicentro: LOS SANTOS - SANTANDER                                             3
 ACTION:UPD 13-06-20 09:51 OP:ep   STATUS:               ID:20130519113120 L   I
 2013-05-19-1130-00M.COL___256                                                 6
 STAT SP IPHASW D HRMM SECON CODA AMPLIT PERI AZIMU VELO AIN AR TRES W  DIS CAZ7
 BAR2 SZ EP   1   1131 38.53                             168   -0.03 7 26.0 186 
 BAR2 SZ ES   1   1131 52.33                             168   -0.38 7 26.0 186 
 BAR2 SZ I        1131 54.63         9.0 0.16            172           26.0 186 
 GIR2 SZ ES       1131 53.24                             167    0.6910 28.2 352 
 GIR2 SZ I        1131 57.19         4.2 0.42            163           28.2 352 
 BRR  HZ EP   1   1131 40.47                             151    0.45 7 68.5 297 
 BRR  HE ES       1131 54.68                             151   -0.6410 68.5 297 
 BRR  HZ I        1132  1.91         8.3 0.14            149           68.5 297 
 RUS  HZ EP   1   1131 42.72                             140   -0.43 7  104 175 
 RUS  HN ES       1132  0.92                             140    0.0310  104 175 
 RUS  HZ I        1132  2.32         2.7 0.34            147            104 175 
 ZAR  HZ EP       1131 52.70                             120    0.91 9  202 292 
 ZAR  HN ES       1132 16.48                             120    0.22 9  202 292 
 ZAR  HZ I        1132 22.80         6.4 0.24            121            202 292 
 NOR  HN ES   2   1132 22.15                             115   -0.67 4  235 234 
 SML  HZ EP   1   1131 55.13                             115   -0.86 6  240 335 
 SML  HE ES       1132 23.30                             115   -0.44 8  240 335 
 SML  HZ I        1132 32.96         7.1 0.10            117            240 335 
                                                                                
