 2013  519 1445 51.7 L   6.806 -73.129146.1  RSN 11 0.5 2.1LRSN                1
 GAP=138        1.00       3.6     5.3  6.5 -0.2211E+01  0.1185E+02  0.6655E+00E
 Epicentro: LOS SANTOS - SANTANDER                                             3
 ACTION:UPD 13-06-20 09:51 OP:ep   STATUS:               ID:20130519144551 L   I
 2013-05-19-1440-00M.COL___256                                                 6
 STAT SP IPHASW D HRMM SECON CODA AMPLIT PERI AZIMU VELO AIN AR TRES W  DIS CAZ7
 BAR2 SZ EP       1446 11.19                             170   -0.1510 24.3 194 
 BAR2 SZ ES   1   1446 26.21                             170   -0.49 7 24.3 194 
 BAR2 SZ I        1446 28.26        18.5 0.18            168           24.3 194 
 GIR2 SZ EP   1   1446 11.44                             167    0.08 7 31.0 347 
 GIR2 SZ ES   1   1446 26.80                             167    0.08 7 31.0 347 
 GIR2 SZ I        1446 28.85        28.2 0.38            165           31.0 347 
 BRR  HZ EP   1   1446 13.24                             152    0.33 7 72.5 297 
 BRR  HN ES   1   1446 30.09                             152    0.60 7 72.5 297 
 BRR  HZ I        1446 34.07        29.6 0.14            150           72.5 297 
 PAM  SZ EP   1   1446 14.41                             151    0.60 7 75.8  39 
 PAM  SN ES   1   1446 31.59                             151    0.50 7 75.8  39 
 PAM  SZ I        1446 33.98        21.5 0.68            156           75.8  39 
 RUS  HZ EP   1   1446 14.93                             144   -0.54 7  101 177 
 RUS  HN ES   1   1446 33.85                             144   -0.20 7  101 177 
 RUS  HZ I        1446 36.24         9.7 0.46            147            101 177 
 PTB  HZ EP   1   1446 18.26                             132   -0.56 7  150 259 
 PTB  HN ES   1   1446 39.19                             132   -0.81 7  150 259 
 PTB  HZ I        1446 44.94        17.5 0.28            132            150 259 
 OCA  HZ EP   1   1446 19.53                             130   -0.42 7  160 352 
 OCA  HE ES       1446 42.02                             130   -0.00 9  160 352 
 OCA  HZ I        1446 44.98        16.6 0.22            132            160 352 
 ZAR  HZ EP   2   1446 22.99                             122   -1.27 4  205 292 
 ZAR  HN ES   1   1446 49.97                             122    0.27 6  205 292 
 ZAR  HZ I        1446 55.05        17.7 0.26            123            205 292 
 NOR  HZ EP       1446 27.51                             118   -0.08 8  237 235 
 NOR  HE ES   2   1446 55.65                             118    0.02 4  237 235 
 NOR  HZ I        1447  2.81         8.4 0.22            120            237 235 
 SML  HZ EP   1   1446 28.14                             117   -0.17 6  244 335 
 SML  HN ES       1446 56.61                             117   -0.30 8  244 335 
 SML  HZ I        1447  1.92        22.8 0.10            119            244 335 
 GUY2CHZ EP       1446 36.69                             112    1.21 7  303 235 
 GUY2CHE ES   1   1447 10.66                             112    0.99 5  303 235 
 GUY2CHZ I        1447 17.39         6.8 0.32                           303 235 
                                                                                
