 2016  219 1724 53.3 L   6.837 -73.188145.6  RSN 19 0.5 2.5LRSN                1
 GAP=130        1.06       2.5     3.3  5.0 -0.4543E+00  0.6080E+01  0.1864E+01E
 Epicentro: ZAPATOCA - SANTANDER                                               3
 ACTION:UPD 16-03-04 21:27 OP:rebc STATUS:               ID:20160219172453 L   I
 OLDACT:REG 16-02-19 21:33 OP:ak   STATUS:               ID:20160219171750     3
 2016-02-19-1717-50M.COL___331                                                 6
 STAT SP IPHASW D HRMM SECON CODA AMPLIT PERI AZIMU VELO AIN AR TRES W  DIS CAZ7
 BAR2 EZ EP     D 1725 12.90                             169   -0.0910 27.1 179 
 BAR2 EZ ES       1725 28.21                             169   -0.1510 27.1 179 
 BAR2 EZ I        1725 29.47        84.0 0.28            169           27.1 179 
 BRR  HZ IP     C 1725 14.72                             154    0.6210 65.2 297 
 BRR  HN ES       1725 30.91                             154    0.5810 65.2 297 
 BRR  HZ I        1725 35.91        47.2 0.24            152           65.2 297 
 PAM  EZ EP     C 1725 15.67                             151    0.1710 77.4  44 
 PAM  EN ES       1725 32.80                             151   -0.0110 77.4  44 
 PAM  EZ I        1725 35.04        34.9 0.52            155           77.4  44 
 RUS  HZ EP       1725 16.82                             142   -0.5410  105 174 
 RUS  HN ES       1725 35.52                             142   -0.6210  105 174 
 RUS  HZ I        1725 37.00        21.8 0.25            146            105 174 
 PTB  HZ EP       1725 20.02                             133    0.10 9  144 257 
 PTB  HN ES       1725 40.31                             133   -0.38 9  144 257 
 PTB  HZ I        1725 43.69        23.3 0.14            132            144 257 
 OCA  HZ EP       1725 21.04                             130   -0.13 9  156 355 
 OCA  HN ES       1725 42.99                             130    0.09 9  156 355 
 OCA  HZ I        1725 46.19        57.9 0.28            132            156 355 
 SPBC HZ EP       1725 21.94                             129    0.12 9  164 217 
 SPBC HN ES       1725 44.19                             129    0.12 9  164 217 
 SPBC HZ I        1725 48.79        43.2 0.22            130            164 217 
 ZAR  HZ EP       1725 25.84                             123    0.71 9  198 292 
 ZAR  HN ES       1725 49.59                             123   -0.38 9  198 292 
 ZAR  HZ I        1725 56.32        30.7 0.34            124            198 292 
 NOR  HZ EP       1725 28.99                             118    0.11 8  233 233 
 NOR  HN ES       1725 56.29                             118   -0.34 8  233 233 
 NOR  HZ I        1726  2.50        15.6 0.16            120            233 233 
 CHI  HZ EP       1725 31.02                             117   -0.27 8  251 194 
 CHI  HN ES       1726  0.73                             117   -0.20 8  251 194 
 CHI  HZ I        1726  3.91        19.1 0.64            119            251 194 
 ROSC BZ EP   1   1725 31.75                             116    0.21 6  254 210 
 ROSC BN ES       1726  1.82                             116    0.45 8  254 210 
 ROSC BZ I        1726  7.60        41.9 0.40            118            254 210 
 HEL  HZ EP       1725 33.64                             115    0.52 8  269 255 
 HEL  HN ES       1726  5.13                             115    0.94 8  269 255 
 HEL  HZ I        1726 10.83        13.1 0.34            116            269 255 
 URE  HZ EP       1725 32.86                             114   -0.85 7  278 291 
 URE  HE ES       1726  4.53                             114   -0.70 7  278 291 
 URE  HZ I        1726 16.83        16.6 0.16            115            278 291 
 GUY2CHZ EP       1725 37.48                             112    0.73 7  300 234 
 GUY2CHE ES       1726 11.47                             112    0.83 7  300 234 
 GUY2CHZ I        1726 19.16        16.7 0.34                           300 234 
 SOCV BZ EP   4   1725 34.72                             112   -1.81 0  303  58 
 SOCV BN ES   4   1726  6.47                             112   -3.78 0  303  58 
 DBB  SZ EP   2   1725 39.25                             110   -0.95 3  335 274 
 DBB  SZ ES       1726 15.93                             110   -0.86 7  335 274 
 DBB  SZ I        1726 20.77        33.1 0.28            111            335 274 
 MON  HZ EP   4   1725 40.12                             109   -1.46 0  347 308 
 MON  HN ES       1726 18.67                             109   -0.56 6  347 308 
 MON  HZ I        1726 20.75         3.7 0.23            110            347 308 
 ANIL HZ EP       1725 43.77                             108    0.71 6  357 224 
 ANIL HE ES       1726 21.76                             108   -0.13 6  357 224 
 ORTC HZ EP       1725 46.80                             106   -0.49 6  396 215 
 ORTC HN ES       1726 28.92                             106   -0.48 6  396 215 
 ORTC HZ I        1726 34.31        10.3 0.26            108            396 215 
 SJC  HZ EP   9   1725 46.70                             106   -1.45 0  403 327 
 SJC  HN ES       1726 29.50                                    0.01 6  403 327 
 SJC  HZ I        1726 35.99         6.5 0.55            107            403 327 
                                                                                
