 2014  919 1854 32.8 L   6.789 -73.150151.9  RSN 10 0.4 1.8LRSN                1
 GAP=137        0.87       3.1     4.3  6.2 -0.1706E+01  0.2003E+01  0.3207E+00E
 Epicentro: LOS SANTOS - SANTANDER                                             3
 ACTION:UPD 14-10-03 23:06 OP:nd   STATUS:               ID:20140919185432 L   I
 OLDACT:DUP 14-09-20 01:22 OP:spq  STATUS:               ID:20140919184819d    3
 2014-09-19-1848-18M.COL___281                                                 6
 STAT SP IPHASW D HRMM SECON CODA AMPLIT PERI AZIMU VELO AIN AR TRES W  DIS CAZ7
 BAR2 SZ ES   1   1855  8.93                             171   -0.06 7 22.0 189 
 BAR2 SZ I        1855 10.64        17.8 0.26            172           22.0 189 
 BRR  HN ES       1855 12.28                             153    0.6510 71.4 300 
 BRR  HZ I        1855 14.57        17.4 0.36            152           71.4 300 
 PAM  SZ EP       1854 55.67                             151   -0.0510 78.6  39 
 PAM  SN ES   1   1855 12.98                             151   -0.64 7 78.6  39 
 PAM  SZ I        1855 15.18        10.1 0.64            154           78.6  39 
 RUS  HZ EP       1854 57.41                             145    0.3610 99.4 176 
 RUS  HN ES   1   1855 15.64                             145   -0.34 7 99.4 176 
 RUS  HZ I        1855 18.22         4.7 0.42            148           99.4 176 
 PTB  HZ EP       1855  0.05                             133   -0.14 9  147 259 
 PTB  HE ES       1855 21.52                             133   -0.05 9  147 259 
 PTB  HZ I        1855 25.36         6.1 0.14            134            147 259 
 OCA  HN ES       1855 24.54                             131    0.32 9  161 353 
 OCA  HZ I        1855 29.28        12.0 0.24            132            161 353 
 SPBC HZ EP       1855  1.94                             131    0.31 9  162 219 
 SPBC HE ES       1855 23.84                             131   -0.30 9  162 219 
 SPBC HZ I        1855 30.27         8.4 0.24            132            162 219 
 ZAR  HN ES   1   1855 30.76                             124   -0.50 6  204 293 
 ZAR  HZ I        1855 34.39         3.6 0.15            124            204 293 
 SML  HZ EP   1   1855  9.80                             119   -0.05 6  245 336 
 SML  HN ES   1   1855 38.06                             119   -0.72 6  245 336 
 SML  HZ I        1855 42.31        10.3 0.26            120            245 336 
 GUY2CHZ EP   4   1855 18.11                             114    1.56 0  300 235 
 GUY2CHN ES   4   1855 55.25                             114    4.55 0  300 235 
 GUY2CHZ I        1855 59.36         2.6 0.36                           300 235 
                                                                                
