 2012 1019 1820 51.6 L   6.759 -73.139136.5  RSN  6 0.2 2.2LRSN                1
 GAP=139        0.59       3.3     3.6  4.6  0.9203E+00  0.4024E+01 -0.5699E+00E
 Epicentro: LOS SANTOS - SANTANDER                                             3
 ACTION:UPD 12-11-22 17:04 OP:ep   STATUS:               ID:20121019182051 L   I
 2012-10-19-1820-00M.COL___233                                                 6
 STAT SP IPHASW D HRMM SECON CODA AMPLIT PERI AZIMU VELO AIN AR TRES W  DIS CAZ7
 BAR2 SZ EP       1821 10.16                             172    0.0910 19.1 195 
 BAR2 SZ ES       1821 24.04                             172   -0.4110 19.1 195 
 BAR2 SZ I        1821 25.88        52.7 0.27                          19.1 195 
 GIR2 SZ EP       1821 10.23                             164   -0.1210 35.9 350 
 BRR  HZ EP       1821 12.02                             150    0.0510 74.1 301 
 BRR  HN ES   1   1821 28.42                             150    0.59 7 74.1 301 
 BRR  HZ I        1821 32.75        40.2 0.10                          74.1 301 
 PAM  SZ EP       1821 13.10                             148    0.0310 80.4  37 
 PAM  SE ES       1821 29.80                             148    0.0110 80.4  37 
 PAM  SZ I        1821 32.21        35.4 0.46                          80.4  37 
 RUS  HZ EP       1821 14.33                             143    0.1810 96.0 176 
 RUS  HN ES   1   1821 31.78                             143    0.07 7 96.0 176 
 RUS  HN I        1821 34.33        15.8 0.32                          96.0 176 
 ZAR  HZ EP   1   1821 23.53                             120   -0.22 6  207 293 
 ZAR  HN ES   1   1821 48.53                             120   -0.28 6  207 293 
 ZAR  HZ I        1821 54.01        17.3 0.28                           207 293 
                                                                                
