 2017 1019 1558 33.3 L   7.510 -73.159130.2  RSN 12 0.7 2.3LRSN                1
 GAP=106        1.64       5.5     6.5  9.4 -0.3323E+01  0.1491E+02 -0.1136E+02E
 Epicentro: EL PLAYON - SANTANDER                                              3
 ACTION:UPD 17-11-07 19:33 OP:rebc STATUS:               ID:20171019155833 L   I
 OLDACT:UP  17-10-20 00:34 OP:edw  STATUS:               ID:20171019155740     3
 OLDACT:UP  17-10-20 00:33 OP:edw  STATUS:               ID:20171019155740     3
 OLDACT:REG 17-10-19 20:10 OP:edw  STATUS:               ID:20171019155740     3
 2017-10-19-1558-00M.COL___441                                                 6
 STAT SP IPHASW D HRMM SECON CODA AMPLIT PERI AZIMU VELO AIN AR TRES W  DIS CAZ7
 PAM  EZ EP     C 1558 53.61                             156    1.0510 54.1 110 
 PAM  EN ES       1559  8.36                             156    0.7810 54.1 110 
 PAM  EZ I        1559 10.35        24.2 0.40            156           54.1 110 
 BRR  HZ EP       1558 53.29                             148    0.2110 75.6 234 
 BRR  HN ES       1559  8.61                             148    0.1110 75.6 234 
 BRR  HZ I        1559  9.26        49.2 0.12            145           75.6 234 
 BAR2 EZ EP       1558 55.03                             140   -0.2610  102 181 
 BAR2 EZ ES       1559 11.65                             140   -0.7810  102 181 
 BAR2 EZ I        1559 12.77        27.9 0.56            137            102 181 
 RUS  HZ EP       1559  2.33                             123   -0.47 9  179 177 
 RUS  HN ES       1559 24.55                             123   -1.25 9  179 177 
 PTB  HZ EP       1559  2.07                             123   -0.11 9  179 233 
 PTB  HN ES       1559 23.86                             123   -0.84 9  179 233 
 PTB  HZ I        1559 26.74        14.7 0.14            120            179 233 
 ZAR  HZ EP       1559  3.31                             121    0.26 9  188 270 
 ZAR  HN ES       1559 26.86                             121    0.62 9  188 270 
 ZAR  HZ I        1559 29.62        24.2 0.34            119            188 270 
 NOR  HZ EP       1559 13.79                             110   -0.24 7  287 221 
 NOR  HN ES       1559 45.80                             110    0.00 7  287 221 
 NOR  HZ I        1559 51.42        10.9 0.50            108            287 221 
 CHI  HZ EP       1559 20.18                             108    1.28 7  325 191 
 CHI  HE ES       1559 55.28                             108    0.82 7  325 191 
 CHI  HZ I        16 0  4.14         3.6 0.60            106            325 191 
 SJC  HZ EP       1559 21.01                             106    0.18 7  345 320 
 SJC  HN ES   4   1559 56.42                             106   -1.48 0  345 320 
 GUY2CHZ EP   4   1559 23.94                             106    1.86 0  351 224 
 GUY2CHN ES   4   1559 57.77                             106   -2.36 0  351 224 
 GUY2CHZ I        16 0  7.92         7.8 0.28                           351 224 
 ELA  HZ EP   4   1559 28.17                             104    2.19 0  384 220 
 ELA  HE ES   4   16 0  9.73                             104    2.67 0  384 220 
 ELA  HZ I        16 0 19.12         8.1 0.42            103            384 220 
 CRJC HZ EP       1559 26.02                             104   -0.06 6  389   4 
 CRJC HE ES       16 0  5.54                             104   -1.71 6  389   4 
 CRJC HZ I        16 0 13.16        10.4 0.72            103            389   4 
                                                                                
