 2010  619 1546 44.3 L   6.771 -73.077140.7  RSN  7 0.3 1.9LRSN                1
 GAP=164        0.52       3.0     7.5  5.9 -0.9905E+01 -0.7910E+01  0.2611E+01E
 Epicentro: LOS SANTOS - SANTANDER                                             3
 ACTION:UP  10-08-24 10:11 OP:vdl  STATUS:               ID:20100619154644 L   I
 2010-06-19-1543-37S.COL___118                                                 6
 STAT SP IPHASW D HRMM SECON CODA AMPLIT PERI AZIMU VELO SNR AR TRES W  DIS CAZ7
 BAR2 SZ EP   1   1547  3.14                             170    -0.2 7   23 211 
 BAR2 SZ ES   2   1547 17.99                             170    -0.2 5   23 211 
 BRR  HZ EP   1   1547  5.08                             149    -0.3 7   80 298 
 BRR  HZ I        1547  5.38        24.3 0.39                            80 298 
 BRR  HE ES   2   1547 22.17                             149     0.3 5   80 298 
 RUS  HZ EP   1   1547  7.10                             144    -0.2 7   97 180 
 RUS  HN ES   2   1547 25.24                             144     0.0 5   97 180 
 RUS  HZ I        1547 26.64        13.9 0.30                            97 180 
 BRI  SZ EP   1   1547  7.82                             140     0.1 7  109  16 
 BRI  SZ ES   2   1547 26.01                             140    -0.1 5  109  16 
 GUE  SZ EP   1   1547  8.84                             138     0.1 7  118   8 
 GRA  SZ EP   1   1547  9.28                             136     0.1 7  127  14 
 GRA  SZ ES   2   1547 28.93                             136     0.3 5  127  14 
 CHI  HZ EP   1   1547 21.64                             116     0.0 6  248 197 
 CHI  HZ I        1547 23.88         4.7 0.38                           248 197 
 CHI  HE ES   2   1547 51.77                             116     1.0 4  248 197 
                                                                                
