 2012 1019 1120 55.5 L   6.780 -73.131144.3  RSN  4 0.2 1.6LRSN                1
 GAP=139        0.47       3.7     4.6  4.8 -0.1388E+01 -0.1525E+01  0.8282E+00E
 Epicentro: LOS SANTOS - SANTANDER                                             3
 ACTION:UPD 12-11-22 17:04 OP:ep   STATUS:               ID:20121019112055 L   I
 2012-10-19-1120-00M.COL___234                                                 6
 STAT SP IPHASW D HRMM SECON CODA AMPLIT PERI AZIMU VELO AIN AR TRES W  DIS CAZ7
 BAR2 SZ EP   1   1121 14.55                             171   -0.37 7 21.6 195 
 BAR2 SZ ES   1   1121 30.11                             171    0.04 7 21.6 195 
 BAR2 SZ I        1121 37.35        11.4 0.52                          21.6 195 
 BRR  HZ EP       1121 16.69                             151    0.0510 73.7 299 
 BRR  HZ I        1121 32.32        18.6 0.36                          73.7 299 
 BRR  HN ES   1   1121 33.11                             151   -0.01 7 73.7 299 
 PAM  SZ EP       1121 17.84                             150    0.2410 78.1  38 
 PAM  SZ I        1121 18.14         5.2 0.17                          78.1  38 
 PAM  SE ES   1   1121 34.63                             150   -0.21 7 78.1  38 
 RUS  HZ EP   1   1121 18.85                             144   -0.10 7 98.3 177 
 RUS  HN ES   2   1121 37.51                             144    0.28 5 98.3 177 
 RUS  HN I        1121 39.17         3.8 0.27                          98.3 177 
                                                                                
