 2017  819 1739 48.7 L   7.001 -73.346114.5  RSN  7 0.5 1.4LRSN                1
 GAP=134        0.76       4.8     5.5  5.8  0.9620E+01  0.6903E+01  0.8051E+01E
 Epicentro: BETULIA - SANTANDER                                                3
 ACTION:UPD 17-09-04 20:22 OP:rebc STATUS:               ID:20170819173948 L   I
 OLDACT:UP  17-08-19 20:20 OP:and  STATUS:               ID:20170819173741     3
 OLDACT:UP  17-08-19 20:19 OP:and  STATUS:               ID:20170819173741     3
 OLDACT:UP  17-08-19 20:19 OP:and  STATUS:               ID:20170819173741     3
 OLDACT:UP  17-08-19 20:19 OP:and  STATUS:               ID:20170819173741     3
 OLDACT:UP  17-08-19 20:18 OP:and  STATUS:               ID:20170819173741     3
 OLDACT:UP  17-08-19 20:18 OP:and  STATUS:               ID:20170819173741     3
 OLDACT:REG 17-08-19 19:29 OP:and  STATUS:               ID:20170819173741     3
 2017-08-19-1738-00M.COL___407                                                 6
 STAT SP IPHASW D HRMM SECON CODA AMPLIT PERI AZIMU VELO AIN AR TRES W  DIS CAZ7
 BRR  HZ IP     D 1740  4.48                             159   -0.3710 42.1 286 
 BRR  HN ES       1740 17.33                             159   -0.1510 42.1 286 
 BRR  HZ I        1740 18.17        18.4 0.12            154           42.1 286 
 BAR2 EZ EP       1740  5.80                             156    0.2810 48.7 158 
 BAR2 EZ ES       1740 18.85                             156    0.1710 48.7 158 
 BAR2 EZ I        1740 20.06        10.5 0.26            154           48.7 158 
 PAM  EZ EP   2   1740  7.93                             142    0.04 5 80.6  62 
 PAM  EN ES   2   1740 23.62                             142    0.73 5 80.6  62 
 RUS  HZ EP       1740 11.85                             129    0.0810  126 167 
 RUS  HN ES       1740 29.40                             129   -0.4010  126 167 
 RUS  HZ I        1740 31.50         1.7 0.14            128            126 167 
 ZAR  HN ES   3   1740 38.86                             119    1.23 2  176 288 
 ZAR  HZ I        1740 40.43         3.2 0.30            118            176 288 
 NOR  HZ EP       1740 22.42                             111   -0.02 8  232 227 
 NOR  HN ES   3   1740 50.52                             111    1.72 2  232 227 
 NOR  HZ I        1740 53.05         2.4 0.22            110            232 227 
 GUY2CHZ EP   3   1740 32.75                             106    2.15 2  298 229 
 GUY2CHN ES   4   1741  5.76                             106    2.45 0  298 229 
 GUY2CHZ I        1741  9.87         1.0 0.32                           298 229 
                                                                                
