 2016  819 1558 57.2 L   6.775 -73.156142.4  RSN  5 0.2 1.7LRSN                1
 GAP=136        0.46       2.9     2.8  4.6 -0.2937E+01  0.3106E+01 -0.2767E+01E
 Epicentro: LOS SANTOS - SANTANDER                                             3
 ACTION:UPD 16-10-29 15:37 OP:rebc STATUS:               ID:20160819155857 L   I
 OLDACT:REG 16-08-19 20:34 OP:dnl  STATUS:               ID:20160819155737     3
 2016-08-19-1558-00M.COL___371                                                 6
 STAT SP IPHASW D HRMM SECON CODA AMPLIT PERI AZIMU VELO AIN AR TRES W  DIS CAZ7
 BAR2 EZ EP       1559 16.44                             172    0.0310 20.4 188 
 BAR2 EZ ES       1559 31.28                             172   -0.0810 20.4 188 
 BAR2 EZ I        1559 33.28        13.4 0.38                          20.4 188 
 PAM  EZ EP       1559 19.30                             149    0.0210 80.2  39 
 PAM  EN ES       1559 36.48                             149    0.0210 80.2  39 
 PAM  EZ I        1559 39.70         5.0 0.70                          80.2  39 
 RUS  HZ EP   2   1559 20.87                             144    0.40 5 97.9 175 
 RUS  HN ES       1559 38.52                             144   -0.0710 97.9 175 
 RUS  HZ I        1559 40.38         5.1 0.28                          97.9 175 
 PTB  HZ EP   2   1559 23.05                             131   -0.74 5  146 260 
 PTB  HN ES       1559 44.66                             131    0.16 9  146 260 
 PTB  HZ I        1559 46.16         6.7 0.16                           146 260 
 ZAR  HN ES   3   1559 54.80                             121    0.18 2  204 293 
 ZAR  HZ I        16 0  1.62        14.1 0.26                           204 293 
                                                                                
