 2014  219 1815 27.5 L   6.796 -73.129149.9  RSN 11 0.5 1.9LRSN                1
 GAP=139        1.23       3.8     5.1  6.7 -0.2207E+00  0.9770E+01  0.5234E+01E
 Epicentro: LOS SANTOS - SANTANDER                                             3
 ACTION:UPD 14-03-10 08:11 OP:ep   STATUS:               ID:20140219181527 L   I
 OLDACT:REG 14-02-19 15:56 OP:carl STATUS:               ID:20140219181000     3
 2014-02-19-1810-00M.COL___212                                                 6
 STAT SP IPHASW D HRMM SECON CODA AMPLIT PERI AZIMU VELO AIN AR TRES W  DIS CAZ7
 BAR2 SZ EP       1815 46.69                             171   -0.9110 23.3 195 
 BAR2 SZ ES       1816  3.16                             171   -0.1410 23.3 195 
 BAR2 SZ I        1816  5.56        20.5 0.50            168           23.3 195 
 BRR  HN ES       1816  7.28                             153    1.1810 73.0 298 
 PAM  SZ EP       1815 50.49                             152    0.4010 76.5  38 
 PAM  SN ES       1816  7.83                             152    0.1110 76.5  38 
 PAM  SZ I        1816  9.87        10.3 0.20            156           76.5  38 
 RUS  HZ EP       1815 51.60                             145    0.0010  100 177 
 RUS  HN ES       1816 10.01                             145   -0.4010  100 177 
 RUS  HZ I        1816 11.52         5.6 0.42            145            100 177 
 PTB  HZ EP       1815 54.60                             133   -0.34 9  150 259 
 PTB  HN ES       1816 15.72                             133   -0.64 9  150 259 
 PTB  HZ I        1816 21.56         9.0 0.22            132            150 259 
 SPBC HZ EP       1815 56.59                             130    0.21 9  164 220 
 SPBC HN ES       1816 19.21                             130    0.29 9  164 220 
 SPBC HZ I        1816 23.77        14.4 0.40            130            164 220 
 ZAR  HZ EP       1816  0.86                             123    0.47 8  206 292 
 ZAR  HE ES       1816 25.99                             123   -0.07 8  206 292 
 ZAR  HZ I        1816 31.82         8.6 0.30            124            206 292 
 SML  HE ES       1816 32.46                             118   -0.85 8  245 335 
 CHI  HZ EP       1816  5.79                             118    0.37 8  249 196 
 CHI  HE ES       1816 34.90                             118   -0.11 8  249 196 
 CHI  HZ I        1816 41.05         2.7 0.34            119            249 196 
 GUY2CHZ EP       1816 11.72                             113    0.30 7  302 235 
 GUY2CHE ES       1816 45.40                             113   -0.30 7  302 235 
 PRA  HZ EP       1816 21.49                             107    0.28 6  393 210 
 PRA  HN ES       1817  3.66                             107    0.54 6  393 210 
 PRA  HZ I        1817  9.49         3.9 0.34            108            393 210 
                                                                                
