 2011  519 1748 46.7 L   6.255 -73.303144.1  RSN 18 0.5 3.2LRSN                1
 GAP=120        1.03       3.9     5.3  6.7 -0.1237E+02  0.8241E+01  0.3255E+01E
 Epicentro: OIBA - SANTANDER                                                   3
 ACTION:UP  11-06-29 08:54 OP:tino STATUS:               ID:20110519174846 L   I
 2011-05-19-1747-05S.COL___138                                                 6
 STAT SP IPHASW D HRMM SECON CODA AMPLIT PERI AZIMU VELO SNR AR TRES W  DIS CAZ7
 BAR2 SZ IP       1749  6.49                             164    -0.110   40  20 
 BAR2 SZ ES   1   1749 21.81                             164    -0.3 7   40  20 
 BAR2 SZ I        1749 23.39       278.3 0.24                            40  20 
 RUS  HZ IP     D 1749  7.44                             161     0.210   47 149 
 RUS  HN ES   2   1749 23.18                             161    -0.1 5   47 149 
 RUS  HZ I        1749 26.49       175.9 0.38                            47 149 
 BRR  HZ IP     C 1749 10.05                             142     0.110  105 334 
 BRR  HN ES   1   1749 28.76                             142     0.7 7  105 334 
 BRR  HZ I        1749 30.10       371.9 0.16                           105 334 
 PAM  SZ IP       1749 13.69                             134     0.4 9  137  29 
 PAM  SN ES   1   1749 33.63                             134    -0.3 7  137  29 
 BRI  SZ EP       1749 16.19                             127     0.2 9  171  19 
 BRI  SZ ES   2   1749 39.37                             127     0.6 4  171  19 
 GRA  SZ EP       1749 17.66                             124     0.0 9  188  17 
 GRA  SZ ES   1   1749 41.07                             124    -0.7 7  188  17 
 GRA  SZ I        1749 44.54       120.4 0.38                           188  17 
 NOR  SZ EP       1749 17.42                             124    -0.2 9  190 246 
 NOR  SN ES   1   1749 41.22                             124    -0.6 7  190 246 
 ROSC BZ EP   3   1749 18.65                             124     0.2 2  193 216 
 ROSC BN ES   2   1749 44.69                             124     1.5 4  193 216 
 ROSC BZ I        1749 47.98       125.2 0.74                           193 216 
 OCA  SZ EP       1749 20.71                             120    -0.2 8  219 360 
 OCA  SZ ES   1   1749 47.37                             120    -0.1 6  219 360 
 OCA  SZ I        1749 50.70       239.3 0.26                           219 360 
 VIL  SZ EP       1749 22.38                             118    -0.8 8  241 190 
 HEL  HZ EP       1749 24.33                             117     0.3 8  246 268 
 HEL  HN ES   3   1749 52.02                             117    -1.1 2  246 268 
 HEL  HZ I        1749 59.77        80.6 0.40                           246 268 
 GUY  SZ EP       1749 26.05                             116     0.6 8  258 244 
 GUY  SN ES   1   1749 54.59                             116    -1.0 6  258 244 
 GUY  SZ I        1750  2.60       105.2 0.36                           258 244 
 RREF HZ EP       1749 26.93                             115    -0.2 8  272 237 
 RREF HN ES   2   1749 59.01                             115     0.3 4  272 237 
 RREF HZ I        1750  5.59       106.5 0.33                           272 237 
 TOL  SZ EP       1749 29.05                             113     0.2 7  290 231 
 ANIL HZ EP   2   1749 30.40                             112     0.1 4  304 230 
 PRA  HZ EP       1749 33.02                             110    -0.1 7  331 212 
 PRA  HN ES   1   1750 10.16                             110     0.8 5  331 212 
 PRA  HZ I        1750 13.34       153.8 0.29                           331 212 
 DBB  SZ EP       1749 33.02                             110    -0.3 7  332 285 
 MON  HZ EP   4   1749 36.47                             107    -2.5 0  382 317 
 MON  HZ I        1750 19.15        31.4 0.20                           382 317 
                                                                                
