 2011 1219 1801 40.2 L   6.782 -73.035149.3  RSN  6 0.5 1.8LRSN                1
 GAP=152        0.71       6.1     7.3  7.9 -0.6008E+01 -0.3211E+01  0.1458E+02E
 Epicentro: CEPITA - SANTANDER                                                 3
 ACTION:UPD 12-07-13 16:17 OP:ep   STATUS:               ID:20111219180140 L   I
 2011-12-19-1800-00M.COL___192                                                 6
 STAT SP IPHASW D HRMM SECON CODA AMPLIT PERI AZIMU VELO AIN AR TRES W  DIS CAZ7
 BAR2 SZ EP   1   18 2  0.09                             169   -0.26 7 26.6 218 
 BAR2 SZ ES   2   18 2 15.49                             169   -0.56 5 26.6 218 
 BAR2 SZ I        18 2 18.63        15.9 0.67                          26.6 218 
 GIR2 SZ EP   2   18 2  0.22                             165   -0.27 5 37.2 332 
 GIR2 SZ ES   2   18 2 16.39                             165    0.10 5 37.2 332 
 PAM  SZ EP   1   18 2  2.64                             153    0.13 7 71.9  31 
 PAM  SE ES   2   18 2 20.78                             153    0.89 5 71.9  31 
 BRR  HZ EP   1   18 2  2.11                             149   -0.34 7 83.0 296 
 BRR  HE ES   1   18 2 19.80                             149    0.01 7 83.0 296 
 RUS  HZ EP   1   18 2  4.35                             145    0.17 7 98.5 183 
 RUS  HE ES   2   18 2 22.71                             145   -0.16 5 98.5 183 
 RUS  HZ I        18 2 24.31         8.1 0.29                          98.5 183 
 RREF HZ EP   2   18 2 27.12                             111   -0.33 3  330 231 
 RREF HN ES   2   18 3  6.00                             111    1.71 3  330 231 
 RREF HZ I        18 3 11.90         3.0 0.58                           330 231 
                                                                                
