 2010  119 1314  1.1 L   6.802 -73.052148.3  RSN  5 0.2 2.0LRSN                1
 GAP=268        0.43       3.7     6.7  4.5  0.8437E-01  0.1620E+02  0.2661E+01E
 Epicentro: LOS SANTOS - SANTANDER                                             3
 ACTION:UP  10-08-24 09:44 OP:vdl  STATUS:               ID:20100119131401 L   I
 2010-01-19-1300-00S.COL___098                                                 6
 STAT SP IPHASW D HRMM SECON CODA AMPLIT PERI AZIMU VELO SNR AR TRES W  DIS CAZ7
 BAR2 SZ IP       1314 21.25                             169     0.110   27 212 
 BAR2 SZ ES   1   1314 36.72                             169    -0.1 7   27 212 
 RUS  BZ IP       1314 25.15                             144     0.010  101 182 
 RUS  BE ES   2   1314 44.16                             144     0.3 5  101 182 
 RUS  BZ I        1314 45.17         8.2 0.29                           101 182 
 CHI  HZ IP       1314 39.20                             117    -0.1 8  252 197 
 CHI  HE ES   1   1315  8.73                             117    -0.4 6  252 197 
 CHI  HZ I        1315 14.58         5.4 0.43                           252 197 
 DBB  SZ IP       1314 49.83                             109    -0.1 6  350 274 
 PRA  HZ IP       1314 55.60                             107     0.2 6  397 211 
 PRA  HE ES   1   1315 38.03                             107     0.3 4  397 211 
 PRA  HZ I        1315 42.53         7.5 0.37                           397 211 
                                                                                
