 2011  519 1147  5.8 L   6.784 -73.108146.3  RSN  7 0.4 1.9LRSN                1
 GAP=142        1.08       5.1     9.6  8.2 -0.1416E+02 -0.1878E+00 -0.4724E+01E
 Epicentro: LOS SANTOS - SANTANDER                                             3
 ACTION:UP  11-06-29 08:54 OP:tino STATUS:               ID:20110519114705 L   I
 2011-05-19-1144-19S.COL___139                                                 6
 STAT SP IPHASW D HRMM SECON CODA AMPLIT PERI AZIMU VELO SNR AR TRES W  DIS CAZ7
 BAR2 SZ EP       1147 25.34                             171    -0.110   23 201 
 BAR2 SZ ES   1   1147 40.45                             171    -0.4 7   23 201 
 BAR2 SZ I        1147 42.72        14.6 0.28                            23 201 
 BRR  HZ IP     C 1147 27.31                             151     0.110   76 298 
 BRR  HZ I        1147 27.58        29.7 0.17                            76 298 
 BRR  HN ES   1   1147 44.27                             151     0.3 7   76 298 
 PAM  SZ EP       1147 28.29                             151     0.310   76  36 
 PAM  SN ES   1   1147 45.58                             151     0.3 7   76  36 
 RUS  HZ EP       1147 29.21                             144    -0.210   99 178 
 RUS  HN ES   1   1147 48.18                             144     0.3 7   99 178 
 RUS  HZ I        1147 49.26         4.0 0.20                            99 178 
 BRI  SZ EP       1147 29.98                             141     0.210  109  18 
 BRI  SZ ES   1   1147 47.29                             141    -1.1 7  109  18 
 GRA  SZ EP       1147 31.17                             137     0.110  126  15 
 GRA  SZ ES   1   1147 51.46                             137     0.6 7  126  15 
 GRA  SZ I        1147 53.12        13.1 0.25                           126  15 
 OCA  SZ EP       1147 34.02                             129    -0.3 9  163 352 
 OCA  SZ I        1148  2.02        10.8 0.39                           163 352 
 SJC  HZ EP   4   1147 59.54                             106    -2.3 0  413 327 
                                                                                
