 2016  619 1139 13.9 L   6.818 -73.139153.6  RSN 40 0.4 3.6LRSN                1
 GAP= 53        0.86       1.9     2.1  3.5 -0.1280E+01  0.3712E+00  0.4677E+00E
 Epicentro: LOS SANTOS - SANTANDER                                             3
 ACTION:UPD 16-07-21 22:20 OP:rebc STATUS:               ID:20160619113913 L   I
 OLDACT:UP  16-06-19 23:17 OP:dani STATUS:               ID:20160619113742     3
 OLDACT:UP  16-06-19 23:16 OP:dani STATUS:               ID:20160619113742     3
 OLDACT:REG 16-06-19 19:14 OP:dani STATUS:               ID:20160619113742     3
 2016-06-19-1137-42M.COL___337                                                 6
 STAT SP IPHASW D HRMM SECON CODA AMPLIT PERI AZIMU VELO AIN AR TRES W  DIS CAZ7
 BAR2 EZ IP     D 1139 34.47                             170   -0.0410 25.4 191 
 BAR2 EZ I        1139 51.08      1704.9 0.24                          25.4 191 
 BRR  HZ IP     C 1139 36.31                             154    0.4310 71.0 297 
 BRR  HN ES       1139 53.47                             154    0.4410 71.0 297 
 BRR  HZ I        1139 57.36      1066.9 0.26                          71.0 297 
 PAM  EZ IP     C 1139 37.29                             153    0.4610 75.4  40 
 PAM  EE ES       1139 54.53                             153   -0.2010 75.4  40 
 PAM  EZ I        1139 57.75       551.4 0.50                          75.4  40 
 RUS  HZ IP     D 1139 38.45                             145   -0.1010  102 177 
 RUS  HN ES       1139 57.17                             145   -0.6210  102 177 
 RUS  HZ I        1139 58.58       473.2 0.30                           102 177 
 PTB  HZ EP       1139 40.81                             133   -0.80 9  149 258 
 PTB  HE ES       1140  3.08                             133   -0.15 9  149 258 
 PTB  HZ I        1140  8.86       546.2 0.34                           149 258 
 TAM  HZ IP     C 1139 42.88                             132    0.70 9  155 106 
 TAM  HZ I        1140  3.79       311.4 0.34                           155 106 
 TAM  HE ES       1140  4.47                             132    0.23 9  155 106 
 OCA  HZ EP     C 1139 42.54                             132   -0.12 9  158 353 
 OCA  HN ES       1140  5.58                             132    0.49 9  158 353 
 OCA  HZ I        1140  8.12      1005.3 0.16                           158 353 
 SPBC HZ EP       1139 43.38                             130    0.19 9  165 219 
 SPBC HN ES       1140  5.84                             130   -0.20 9  165 219 
 SPBC HZ I        1140 10.31       933.5 0.14                           165 219 
 ZAR  HZ EP       1139 46.73                             124   -0.13 9  204 292 
 ZAR  HE ES       1140 12.54                             124   -0.03 9  204 292 
 ZAR  HZ I        1140 17.70       695.1 0.34                           204 292 
 NOR  HZ EP       1139 50.60                             120    0.32 8  236 234 
 NOR  HE ES       1140 18.17                             120   -0.48 8  236 234 
 NOR  HZ I        1140 24.03       320.4 0.28                           236 234 
 CHI  HZ EP       1139 52.38                             118    0.12 8  251 195 
 CHI  HN ES       1140 21.98                             118   -0.20 8  251 195 
 CHI  HZ I        1140 25.79       316.2 0.50                           251 195 
 ROSC BZ EP   9   1139 54.29                             118    1.62 0  255 211 
 ROSC BE ES       1140 24.60                             118    0.06 8  255 211 
 HEL  HZ EP       1139 54.89                             116    0.24 8  273 255 
 HEL  HN ES       1140 26.82                             116    0.38 8  273 255 
 HEL  HZ I        1140 32.53       243.6 0.28                           273 255 
 URE  HZ EP   4   1139 54.29                             115   -1.07 0  284 291 
 URE  HN ES   4   1140 25.16                             115   -2.54 0  284 291 
 URE  HZ I        1140 32.90       262.2 0.16                           284 291 
 SOCV BZ EP       1139 57.14                             114    0.02 7  300  57 
 GUY2CHZ EP       1139 58.38                             114    0.31 7  303 235 
 GUY2CHN ES       1140 31.97                             114   -0.56 7  303 235 
 GUY2CHZ I        1140 40.74       399.6 0.32                           303 235 
 LL1C HZ EP   4   1139 59.33                             113    1.68 0  305 351 
 LL1C HN ES   4   1140 34.98                             113    3.20 0  305 351 
 PTGC HZ EP     D 1139 57.56                             113   -0.72 7  310 159 
 PTGC HN ES   4   1140 31.19                             113   -1.71 0  310 159 
 PTGC HZ I        1140 33.77       128.2 0.28                           310 159 
 LL6C HZ EP     C 1139 59.02                             112   -0.70 7  323 357 
 LL6C HE ES       1140 35.00                             112   -0.47 7  323 357 
 LL6C HZ I        1140 40.53       128.6 0.40                           323 357 
 ELA  HZ EP       1140  2.05                             112    0.75 7  331 229 
 ELA  HN ES   4   1140 39.93                             112    1.66 0  331 229 
 ELA  HZ I        1140 47.19       275.6 0.54                           331 229 
 CBOC HZ EP       1140  2.10                             111    0.80 7  335 252 
 CBOC HE ES   4   1140 39.73                             111    1.46 0  335 252 
 CBOC HZ I        1140 49.14        74.6 0.50                           335 252 
 ANIL HZ EP       1140  4.91                             110    0.68 6  359 224 
 ANIL HE ES   4   1140 46.13                             110    2.63 0  359 224 
 SDV  BZ EP       1140  3.90                             110   -0.13 6  359  50 
 SDV  BN ES       1140 42.97                             110   -0.17 6  359  50 
 PRA  HZ EP       1140  7.93                             108   -0.01 6  394 210 
 PRA  HE ES       1140 49.73                             108   -0.36 6  394 210 
 ORTC HZ EP       1140  8.74                             107    0.41 6  397 216 
 ORTC HE ES   4   1140 52.08                             107    1.30 0  397 216 
 ORTC HZ I        1140 58.22       151.5 0.66                           397 216 
 PAL  HZ EP       1140  9.92                             107    0.40 6  407 239 
 PAL  HN ES       1140 52.40                             107   -0.50 6  407 239 
 PAL  HZ I        1140 56.30        59.5 0.20                           407 239 
 SJC  HZ EP     C 1140  8.69                             107   -0.89 6  408 327 
 SJC  HN ES   4   1140 49.80                             107   -3.22 0  408 327 
 SJC  HZ I        1141  4.09       112.0 0.76                           408 327 
 LCBC HE ES   4   1140 57.32                             106    1.65 0  422 303 
 CRJC HZ EP   4   1140 14.72                             104   -1.67 0  466   3 
 CRJC HN ES   4   1141  2.49                             104   -2.64 0  466   3 
 CRJC HZ I        1141  9.98       152.0 0.18                           466   3 
 YOT  HZ EP     D 1140 16.98                             104   -0.40 5  474 229 
 GUA  SZ EP       1140 17.24                             104   -0.25 5  476 173 
 GUA  SN ES   4   1141  3.47                             104   -3.62 0  476 173 
 GUA  SZ I        1141 13.20       123.6 0.26                           476 173 
 SMAR HZ EP       1140 19.16                             103   -0.62 4  495 346 
 SMAR HN ES   4   1141  8.14                             103   -3.02 0  495 346 
 SMAR HZ I        1141 14.34        54.0 0.30                           495 346 
 CAP2 HE ES   4   1141 11.28                             103   -2.52 0  508 294 
 CAP2 HZ I        1141 14.22        45.7 0.14                           508 294 
 MACC HZ EP   4   1140 21.47                             103   -1.58 0  523 189 
 MACC HE ES   4   1141 12.52                             103   -4.46 0  523 189 
 MACC HZ I        1141 18.72       123.3 0.86                           523 189 
 DABV BZ EP       1140 23.44                             102   -0.56 4  531  31 
 DABV BE ES       1141 18.68                             102   -0.01 4  531  31 
 MARA HZ EP       1140 26.16                             102    0.81 4  539 216 
 MARA HE ES   4   1141 19.88                             102   -1.21 0  539 216 
 URI  HZ EP   9   1140 24.62                             102   -2.21 0  555  13 
 URI  HE ES       1141 20.72                             102   -0.79 4  555  13 
 URI  HZ I        1141 23.52        20.3 0.50                           555  13 
 MAL  SZ EP   4   1140 28.53                             102    1.18 0  559 237 
 GARC HZ EP   4   1140 28.54                             101   -1.03 0  575 207 
 GARC HN ES   4   1141 26.07                             101   -2.53 0  575 207 
 GARC HZ I        1141 31.03        70.3 0.50                           575 207 
 PCON HZ EP   4   1140 35.66                             100    0.99 0  614 216 
 PCON HZ I        1142 14.77        23.2 0.46                           614 216 
 POP2 HZ EP       1140 34.23                             100   -0.08 3  615 220 
 FLO2 HZ EP       1140 37.00                             100   -0.42 2  643 206 
 FLO2 HN ES       1141 42.49                             100   -0.08 2  643 206 
 FLO2 HZ I        1141 48.46        21.7 0.42                           643 206 
 BBAC HZ EP       1140 44.87                              99    0.39 1  699 221 
 BBAC HE ES       1141 54.76                              99   -0.38 1  699 221 
 BBAC HZ I        1141 58.17         7.5 0.34                           699 221 
 PRV  HE ES   4   1143 27.27                              94   -6.11 0 1157 309 
                                                                                
