 2012  919 1035 37.5 L   5.873 -73.678116.4  RSN  4 0.2 1.6LRSN                1
 GAP=222        0.44       5.3     3.4  7.3  0.6798E+01  0.7658E+01  0.1217E+02E
 Epicentro: PUENTE NACIONAL - SANTANDER                                        3
 ACTION:UPD 12-10-22 14:19 OP:ep   STATUS:               ID:20120919103537 L   I
 2012-09-19-1030-00M.COL___226                                                 6
 STAT SP IPHASW D HRMM SECON CODA AMPLIT PERI AZIMU VELO AIN AR TRES W  DIS CAZ7
 RUS  HZ EP   1   1035 55.75                             149   -0.17 7 65.9  88 
 RUS  HN ES   2   1036 10.62                             149    0.33 5 65.9  88 
 BAR2 SZ EP   1   1035 57.59                             138   -0.22 7 96.6  35 
 BAR2 SZ ES   1   1036 13.66                             138    0.00 7 96.6  35 
 BAR2 SZ I        1036 15.82        12.1 0.39                          96.6  35 
 PTB  HZ EP   1   1035 59.23                             132    0.28 7  113 311 
 PTB  HN ES   1   1036 15.50                             132   -0.18 7  113 311 
 BRR  HZ EP   2   1036  1.42                             127    0.31 5  136 358 
 BRR  HZ I        1036 14.03         4.9 0.68                           136 358 
 BRR  HE ES   2   1036 19.60                             127    0.08 5  136 358 
                                                                                
