 2012  619 1112 11.1 L   6.011 -73.840108.7  RSN  4 0.4 1.5LRSN                1
 GAP=148        0.84       6.1     4.5 11.9  0.6380E+01  0.1057E+02 -0.5646E+01E
 Epicentro: EL PEON - SANTANDER                                                3
 ACTION:UPD 12-08-06 17:50 OP:ep   STATUS:               ID:20120619111211 L   I
 2012-06-19-1110-00M.COL___199                                                 6
 STAT SP IPHASW D HRMM SECON CODA AMPLIT PERI AZIMU VELO AIN AR TRES W  DIS CAZ7
 RUS  HZ EP   1   1112 30.15                             140    0.05 7 84.9  99 
 RUS  HZ I        1112 30.89        12.4 0.19                          84.9  99 
 RUS  HN ES   1   1112 44.97                             140    0.04 7 84.9  99 
 PTB  HZ EP   1   1112 28.92                             137   -0.91 7 89.7 311 
 PTB  HN ES   1   1112 44.69                             137    0.23 7 89.7 311 
 PTB  HZ I        1112 46.75         3.8 0.10                          89.7 311 
 NOR  SZ EP   1   1112 33.64                             127    0.63 7  124 247 
 NOR  SE ES   1   1112 49.87                             127   -0.24 7  124 247 
 ZAR  HZ EP   2   1112 40.80                             114   -0.02 4  199 326 
 ZAR  HN ES   1   1113  4.32                             114    0.30 6  199 326 
 ZAR  HZ I        1113  6.29         4.8 0.16                           199 326 
                                                                                
