 2015  919 1811 58.4 L   6.802 -73.177134.6  RSN 10 0.4 2.1LRSN                1
 GAP=133        1.01       3.5     3.7  5.8 -0.4089E+00  0.6873E+01  0.4125E+01E
 Epicentro: LOS SANTOS - SANTANDER                                             3
 ACTION:UPD 15-10-28 16:27 OP:cam  STATUS:               ID:20150919181158 L   I
 OLDACT:UP  15-09-20 00:11 OP:drio STATUS:               ID:20150919180750     3
 OLDACT:UP  15-09-20 00:11 OP:drio STATUS:               ID:20150919180750     3
 OLDACT:REG 15-09-19 20:31 OP:dri  STATUS:               ID:20150919180750     3
 2015-09-19-1807-50M.COL___358                                                 6
 STAT SP IPHASW D HRMM SECON CODA AMPLIT PERI AZIMU VELO AIN AR TRES W  DIS CAZ7
 BAR2 EZ EP       1812 17.09                             170    0.4510 23.2 181 
 BAR2 EZ ES       1812 30.42                             170   -0.4810 23.2 181 
 BAR2 EZ I        1812 33.85        22.2 0.34            168           23.2 181 
 BRR  HZ EP       1812 18.40                             152    0.2810 68.1 300 
 BRR  HE ES       1812 34.27                             152    0.7310 68.1 300 
 PAM  EZ EP       1812 19.82                             148    0.2910 79.5  42 
 PAM  EN ES       1812 35.36                             148   -0.6810 79.5  42 
 PAM  EZ I        1812 41.52        10.6 0.76            155           79.5  42 
 RUS  HZ EP       1812 21.11                             141    0.0510  101 174 
 RUS  HE ES       1812 39.01                             141    0.2410  101 174 
 RUS  HZ I        1812 42.21        15.6 0.52            144            101 174 
 PTB  HZ EP       1812 23.60                             130   -0.52 9  144 258 
 PTB  HN ES       1812 43.83                             130   -0.38 9  144 258 
 PTB  HZ I        1812 52.49        23.8 0.42            132            144 258 
 SPBC HZ EP       1812 25.88                             127    0.06 9  161 218 
 SPBC HN ES       1812 47.28                             127    0.03 9  161 218 
 SPBC HZ I        1812 54.79        22.9 0.38            129            161 218 
 ZAR  HZ EP       1812 29.45                             120   -0.30 9  201 292 
 ZAR  HE ES       1812 54.60                             120    0.36 9  201 292 
 ZAR  HZ I        1813  0.76        19.4 0.66            123            201 292 
 CHI  HZ EP       1812 34.95                             115   -0.43 8  248 194 
 CHI  HN ES       1813  4.63                             115    0.37 8  248 194 
 CHI  HZ I        1813 10.29         7.2 0.24            118            248 194 
 HEL  HZ EP   4   1812 38.77                             113    1.12 0  269 256 
 HEL  HN ES       1813  7.93                             113   -0.37 8  269 256 
 HEL  HZ I        1813 15.41         8.0 0.30            115            269 256 
 GUY2CHZ EP       1812 41.55                             110    0.39 7  298 234 
 GUY2CHN ES       1813 14.26                             110   -0.29 7  298 234 
 GUY2CHZ I        1813 22.29         7.0 0.58                           298 234 
 SJC  HZ EP   4   1812 50.16                             104   -3.17 0  407 327 
 SJC  HE ES   4   1813 33.36                             104   -2.85 0  407 327 
                                                                                
