 2012  219 1443 50.3 L   6.768 -73.159147.9  RSN  8 0.4 1.8LRSN                1
 GAP=136        0.83       4.9     4.6  6.9 -0.5926E+00  0.7436E+01  0.6993E+01E
 ACTION:UP  12-03-07 16:32 OP:epov STATUS:               ID:20120219144350 L   I
 2012-02-19-1440-00S.MAN___184                                                 6
 STAT SP IPHASW D HRMM SECON CODA AMPLIT PERI AZIMU VELO AIN AR TRES W  DIS CAZ7
 BAR2 SZ EP   1   1444 10.02                             172   -0.09 7 19.6 187 
 BAR2 SZ ES   1   1444 25.64                             172    0.07 7 19.6 187 
 BAR2 SZ I        1444 26.82        16.2 0.17                          19.6 187 
 BRR  HZ IP     D 1444 12.02                             153    0.3310 71.6 302 
 BRR  HN ES   1   1444 29.13                             153    0.74 7 71.6 302 
 BRR  HZ I        1444 33.88        16.2 0.08                          71.6 302 
 PAM  SZ EP   1   1444 13.33                             150    0.38 7 81.0  39 
 PAM  SN ES   1   1444 30.14                             150   -0.49 7 81.0  39 
 RUS  HZ EP   1   1444 13.89                             145   -0.12 7 97.2 175 
 RUS  HN ES   1   1444 32.31                             145   -0.21 7 97.2 175 
 RUS  HZ I        1444 33.89         5.0 0.23                          97.2 175 
 PTB  HZ EP   1   1444 16.59                             133   -0.65 7  146 260 
 PTB  HN ES   1   1444 37.77                             133   -0.49 7  146 260 
 ZAR  HN ES   1   1444 47.70                             123   -0.58 6  204 293 
 ZAR  HZ I        1444 54.40        11.0 0.35                           204 293 
 NOR  SZ EP   1   1444 26.08                             119    0.28 6  231 235 
 NOR  SE ES   1   1444 54.06                             119    0.57 6  231 235 
 CHI  HZ EP   1   1444 27.73                             118    0.03 6  245 195 
 CHI  HZ I        1445  3.30         3.2 0.40                           245 195 
                                                                                
