 2010 1219 1148 21.2 L   5.926 -73.785107.1  RSN  6 0.2 1.4LRSN                1
 GAP=123        0.43       2.4     2.5  6.3 -0.1823E+01  0.8714E+01 -0.9031E+00E
 Epicentro: GUAVATA - SANTANDER                                                3
 ACTION:UP  11-01-14 15:25 OP:pat  STATUS:               ID:20101219114821 L   I
 2010-12-19-1143-02S.COL___133                                                 6
 STAT SP IPHASW D HRMM SECON CODA AMPLIT PERI AZIMU VELO SNR AR TRES W  DIS CAZ7
 RUS  HZ EP   1   1148 39.50                             142    -0.1 7   78  93 
 RUS  HE ES   1   1148 53.89                             142     0.1 7   78  93 
 RUS  HZ I        1148 55.94         5.3 0.28                            78  93 
 BAR2 SZ IP       1148 41.04                             134     0.110   99  42 
 BAR2 SZ ES   1   1148 56.29                             134    -0.1 7   99  42 
 BAR2 SZ I        1148 58.32        18.2 0.20                            99  42 
 NOR  SZ EP   1   1148 43.07                             126    -0.2 7  127 252 
 NOR  SN ES   2   1149  0.53                             126     0.0 5  127 252 
 CHI  HZ EP   1   1148 45.30                             123    -0.2 7  144 178 
 CHI  HE ES   1   1149  4.40                             123     0.1 7  144 178 
 CHI  HZ I        1149  6.82         2.5 0.15                           144 178 
 HEL  HZ EP   1   1148 51.27                             114     0.3 6  195 279 
 HEL  HZ I        1148 52.34         2.6 0.64                           195 279 
 HEL  HE ES   2   1149 13.83                             114    -0.3 4  195 279 
 RREF HN ES   2   1149 17.55                             112     0.4 4  207 237 
 RREF HZ I        1149 24.56         2.3 0.21                           207 237 
                                                                                
