 2011  919 1835 20.9 L   6.779 -73.115141.1  RSN  7 0.1 1.6LRSN                1
 GAP=142        0.29       2.7     2.9  3.2  0.2553E+01  0.1113E+00 -0.7489E+00E
 Epicentro: LOS SANTOS - SANTANDER                                             3
 ACTION:UPD 12-07-13 15:58 OP:ep   STATUS:               ID:20110919183520 L   I
 2011-09-19-1829-47S.COL___171                                                 6
 STAT SP IPHASW D HRMM SECON CODA AMPLIT PERI AZIMU VELO AIN AR TRES W  DIS CAZ7
 BAR2 SZ EP       1835 39.96                             171    0.0610 22.0 200 
 BAR2 SZ ES   1   1835 54.58                             171   -0.17 7 22.0 200 
 BAR2 SZ I        1835 57.26        11.5 0.30                          22.0 200 
 BTL  SZ EP   2   1835 39.98                             170    0.06 5 22.9 312 
 GIR2 SZ EP   2   1835 40.03                             166   -0.04 5 34.3 345 
 BRR  HZ EP       1835 41.76                             150    0.0110 75.3 299 
 BRR  HE ES   1   1835 58.18                             150    0.13 7 75.3 299 
 BRR  HZ I        1836  0.33        13.1 0.20                          75.3 299 
 PAM  SZ EP   2   1835 42.40                             150   -0.17 5 77.1  36 
 PAM  SZ I        1835 43.17         3.5 0.14                          77.1  36 
 PAM  SN ES   2   1835 59.55                             150    0.06 5 77.1  36 
 RUS  HZ EP   2   1835 44.01                             143    0.04 5 98.1 178 
 RUS  HN ES   2   1836  2.06                             143    0.06 5 98.1 178 
 RUS  HZ I        1836  4.11         5.3 0.23                          98.1 178 
 ZAR  HN ES   2   1836 18.60                             121   -0.24 4  208 292 
                                                                                
