 2015  119 1143 50.2 L   6.804 -73.143150.0  RSN 13 0.4 2.0LRSN                1
 GAP=137        0.84       2.6     3.3  5.2 -0.1108E+01  0.3440E+01  0.2016E+01E
 Epicentro: LOS SANTOS - SANTANDER                                             3
 ACTION:UPD 15-03-02 15:40 OP:nd   STATUS:               ID:20150119114350 L   I
 OLDACT:REG 15-01-19 19:46 OP:spq  STATUS:               ID:20150119113745     3
 2015-01-19-1137-45M.COL___262                                                 6
 STAT SP IPHASW D HRMM SECON CODA AMPLIT PERI AZIMU VELO AIN AR TRES W  DIS CAZ7
 BAR2 EZ EP       1144 10.35                             171   -0.0310 23.8 191 
 BAR2 EZ ES   1   1144 25.67                             171   -0.42 7 23.8 191 
 BAR2 EZ I        1144 26.69        31.7 0.16            168           23.8 191 
 BRR  HZ EP       1144 12.20                             153    0.3610 71.3 298 
 BRR  HN ES       1144 29.24                             153    0.5410 71.3 298 
 BRR  HZ I        1144 30.87        13.3 0.42            148           71.3 298 
 PAM  SZ EP       1144 13.16                             152    0.3010 76.8  40 
 PAM  SN ES       1144 30.29                             152   -0.2310 76.8  40 
 PAM  SZ I        1144 32.34        13.4 0.50            155           76.8  40 
 RUS  HZ EP       1144 14.22                             144   -0.2110  101 176 
 RUS  HN ES       1144 33.25                             144   -0.0510  101 176 
 RUS  HZ I        1144 34.00        10.8 0.18            144            101 176 
 PTB  HZ EP   1   1144 16.88                             133   -0.70 7  148 259 
 PTB  HN ES       1144 38.22                             133   -0.69 9  148 259 
 PTB  HZ I        1144 42.23        10.8 0.36            130            148 259 
 OCA  HE ES   1   1144 41.38                             131    0.23 7  160 353 
 OCA  HZ I        1144 43.46        10.5 0.26            130            160 353 
 SPBC HZ EP       1144 19.29                             130    0.19 9  164 219 
 SPBC HN ES       1144 42.04                             130    0.41 9  164 219 
 SPBC HZ I        1144 47.10        15.4 0.48            128            164 219 
 ZAR  HE ES       1144 48.77                             123    0.27 9  204 292 
 ZAR  HZ I        1144 55.15         7.2 0.38            121            204 292 
 NOR  HZ EP   1   1144 26.23                             119   -0.03 6  235 234 
 NOR  HE ES       1144 54.18                             119   -0.19 8  235 234 
 NOR  HZ I        1145  1.03         9.7 0.16            118            235 234 
 SML  HZ EP   1   1144 26.80                             118   -0.27 6  243 335 
 SML  HN ES   1   1144 54.94                             118   -0.86 6  243 335 
 SML  HZ I        1145  1.54         7.9 0.24            117            243 335 
 CHI  HZ EP       1144 28.50                             118    0.28 8  249 195 
 CHI  HN ES   1   1144 57.65                             118   -0.20 6  249 195 
 CHI  HZ I        1145  3.89         3.0 0.64            117            249 195 
 HEL  HN ES   1   1145  2.66                             115    0.38 6  272 256 
 HEL  HZ I        1145 10.77         4.3 0.30            114            272 256 
 RREF HZ EP   4   1144 38.07                             111    1.45 0  322 229 
 RREF HE ES   1   1145 12.80                             111    0.00 5  322 229 
 RREF HZ I        1145 22.51         3.8 0.22            110            322 229 
                                                                                
