 2012  619 1801 55.5 L   6.800 -73.172150.9  RSN  5 0.3 1.6LRSN                1
 GAP=133        0.57       4.6     4.2  6.9 -0.1302E+01  0.1056E+02 -0.5150E-01E
 Epicentro: LOS SANTOS - SANTANDER                                             3
 ACTION:UPD 12-08-06 17:50 OP:ep   STATUS:               ID:20120619180155 L   I
 2012-06-19-1800-00M.COL___199                                                 6
 STAT SP IPHASW D HRMM SECON CODA AMPLIT PERI AZIMU VELO AIN AR TRES W  DIS CAZ7
 BAR2 SZ ES   1   18 2 31.42                             171   -0.06 7 23.0 183 
 BAR2 SZ I        18 2 32.99         9.0 0.40                          23.0 183 
 PAM  SZ EP   2   18 2 18.73                             151    0.40 5 79.3  41 
 PAM  SN ES   1   18 2 36.07                             151   -0.10 7 79.3  41 
 RUS  HZ EP   1   18 2 20.00                             145    0.27 7  101 174 
 RUS  HN ES   1   18 2 38.58                             145   -0.08 7  101 174 
 RUS  HZ I        18 2 39.69         3.9 0.34                           101 174 
 PTB  HZ EP   1   18 2 22.00                             134   -0.59 7  145 259 
 PTB  HN ES   1   18 2 44.04                             134    0.28 7  145 259 
 PTB  HZ I        18 2 46.17         5.3 0.43                           145 259 
 ZAR  HE ES   2   18 2 53.53                             124    0.20 4  201 292 
                                                                                
