 2016 1019 1100 49.7 L   6.798 -73.166148.1  RSN  8 0.2 1.6LRSN                1
 GAP=235        0.56       2.7     3.2  4.2  0.9637E+00  0.5511E+00  0.2925E+01E
 Epicentro: LOS SANTOS - SANTANDER                                             3
 ACTION:UPD 16-11-09 19:20 OP:rebc STATUS:               ID:20161019110049 L   I
 OLDACT:UP  16-10-19 23:16 OP:edw  STATUS:               ID:20161019105741     3
 OLDACT:UP  16-10-19 23:14 OP:edw  STATUS:               ID:20161019105741     3
 OLDACT:UP  16-10-19 23:13 OP:edw  STATUS:               ID:20161019105741     3
 OLDACT:UP  16-10-19 23:11 OP:edw  STATUS:               ID:20161019105741     3
 OLDACT:REG 16-10-19 20:28 OP:ar   STATUS:               ID:20161019105741     3
 2016-10-19-1058-00M.COL___329                                                 6
 STAT SP IPHASW D HRMM SECON CODA AMPLIT PERI AZIMU VELO AIN AR TRES W  DIS CAZ7
 BRR  HZ EP       11 1 11.15                             154    0.1510 69.4 300 
 BRR  HN ES       11 1 27.81                             154    0.1910 69.4 300 
 BRR  HZ I        11 1 29.29         6.4 0.13            153           69.4 300 
 RUS  HZ EP       11 1 13.59                             144   -0.0910  101 175 
 RUS  HN ES       11 1 32.26                             144   -0.1210  101 175 
 RUS  HZ I        11 1 33.09         5.5 0.24            143            101 175 
 PTB  HZ EP       11 1 16.08                             133   -0.58 9  146 259 
 PTB  HN ES       11 1 37.45                             133   -0.24 9  146 259 
 PTB  HZ I        11 1 38.87         3.8 0.07            132            146 259 
 SPBC HZ EP       11 1 18.28                             130    0.05 9  162 218 
 SPBC HN ES       11 1 40.66                             130    0.18 9  162 218 
 NOR  HZ EP       11 1 25.60                             119    0.25 8  233 234 
 NOR  HN ES       11 1 53.38                             119    0.21 8  233 234 
 NOR  HZ I        11 1 56.31         3.7 0.18            119            233 234 
 CHI  HZ EP       11 1 27.64                             118    0.20 8  248 195 
 CHI  HE ES       11 1 56.89                             118    0.01 8  248 195 
 CHI  HZ I        11 2  0.08         2.5 0.34            118            248 195 
 GUY2CHZ EP   4   11 1 35.29                             113    2.10 0  299 235 
 GUY2CHN ES       11 2  7.09                             113   -0.03 7  299 235 
 GUY2CHZ I        11 2 15.49         2.6 0.30                           299 235 
 PRA  HZ EP   2   11 1 43.26                             107    0.12 3  391 209 
 PRA  HN ES   2   11 2 24.25                             107   -0.59 3  391 209 
 PRA  HZ I        11 2 31.40         1.6 0.22            107            391 209 
                                                                                
