 2017 1019 1244  0.4 L   6.717 -73.259150.8  RSN  4 0.3 1.3LRSN                1
 GAP=197        0.83       9.2    10.3  7.5  0.7917E+02  0.1035E+02  0.4499E+01E
 Epicentro: GALAN - SANTANDER                                                  3
 ACTION:UPD 17-11-07 19:33 OP:rebc STATUS:               ID:20171019124400 L   I
 OLDACT:UP  17-10-19 22:24 OP:edw  STATUS:               ID:20171019123737d    3
 OLDACT:DUP 17-10-19 22:22 OP:edw  STATUS:               ID:20171019123737d    3
 OLDACT:UP  17-10-19 22:21 OP:edw  STATUS:               ID:20171019123736     3
 OLDACT:REG 17-10-19 19:51 OP:edw  STATUS:               ID:20171019123736     3
 2017-10-19-1238-00M.COL___438                                                 6
 STAT SP IPHASW D HRMM SECON CODA AMPLIT PERI AZIMU VELO AIN AR TRES W  DIS CAZ7
 BAR2 EZ EP       1244 20.33                             174   -0.1810 16.2 148 
 BAR2 EZ ES       1244 35.73                             174   -0.4710 16.2 148 
 BAR2 EZ I        1244 38.52         3.8 0.22            175           16.2 148 
 BRR  HZ EP       1244 21.95                             155    0.1310 66.1 311 
 BRR  HN ES       1244 39.04                             155    0.5110 66.1 311 
 BRR  HZ I        1244 42.24         9.4 0.38            157           66.1 311 
 RUS  HZ EP       1244 24.25                             147    0.1110 93.2 168 
 RUS  HN ES       1244 42.82                             147    0.1610 93.2 168 
 RUS  HZ I        1244 44.22         1.4 0.44            150           93.2 168 
 ZAR  HN ES       1244 57.00                             125   -0.35 9  196 296 
                                                                                
