 2015  619 1412 19.3 L   6.925 -73.029139.5  RSN  4 0.4 1.9LRSN                1
 GAP=234        0.87       4.5     8.4  6.5 -0.2643E+00  0.1272E+02 -0.4989E+01E
 Epicentro: PIEDECUESTA - SANTANDER                                            3
 ACTION:UPD 15-09-10 22:13 OP:cam  STATUS:               ID:20150619141219 L   I
 OLDACT:UP  15-06-23 20:44 OP:cam  STATUS:               ID:20150619141219 L   3
 OLDACT:UP  15-06-23 20:44 OP:cam  STATUS:               ID:20150619141219 L   3
 OLDACT:UP  15-06-23 06:13 OP:STLL STATUS:               ID:20150619141219 L   3
 OLDACT:REG 15-06-19 20:34 OP:stll STATUS:               ID:20150619140750     3
 2015-06-19-1407-50M.COL___310                                                 6
 STAT SP IPHASW D HRMM SECON CODA AMPLIT PERI AZIMU VELO AIN AR TRES W  DIS CAZ7
 BAR2 EZ EP       1412 38.68                             163    0.0310 40.5 205 
 BAR2 EZ ES       1412 53.33                             163   -0.4210 40.5 205 
 BAR2 EZ I        1412 55.35         9.0 0.24            165           40.5 205 
 BRR  HZ EP       1412 40.73                             149    0.5510 78.1 285 
 BRR  HN ES       1412 56.82                             149    0.3510 78.1 285 
 SML  HZ EP       1412 54.79                             117   -0.06 8  237 331 
 SML  HN ES       1413 22.09                             117   -0.50 8  237 331 
 SML  HZ I        1413 26.46        10.5 0.10            117            237 331 
 GUY2CHZ EP       1413  4.77                             110    0.04 7  320 234 
 GUY2CHN ES       1413 39.83                             110   -0.35 7  320 234 
 GUY2CHZ I        1413 45.51         4.1 0.68                           320 234 
                                                                                
