 2014 1219 1043 53.2 L   6.600 -73.128140.8  RSN  4 0.3 1.1LRSN                1
 GAP=311        0.68       9.3     7.3  6.7  0.2154E+02  0.1733E+02  0.2434E+01E
 Epicentro: SAN GIL - SANTANDER                                                3
 ACTION:UPD 15-02-10 17:05 OP:nd   STATUS:               ID:20141219104353 L   I
 OLDACT:DUP 14-12-19 22:24 OP:spq  STATUS:               ID:20141219103745d    3
 2014-12-19-1037-44M.COL___290                                                 6
 STAT SP IPHASW D HRMM SECON CODA AMPLIT PERI AZIMU VELO AIN AR TRES W  DIS CAZ7
 BAR2 EZ ES   1   1044 26.58                             177   -0.13 8 6.13 262 
 BAR2 EZ I        1044 28.95         3.5 0.19            173           6.13 262 
 BRR  HZ EP   1   1044 14.42                             147   -0.33 8 85.5 311 
 BRR  HN ES   1   1044 31.89                             147    0.37 8 85.5 311 
 PTB  HZ EP       1044 19.66                             131   -0.0910  147 267 
 PTB  HE ES   1   1044 40.58                             131    0.16 7  147 267 
 PTB  HZ I        1044 43.14         0.9 0.28            131            147 267 
 ZAR  HZ EP       1044 27.00                             120    0.47 9  215 297 
 ZAR  HE ES       1044 52.11                             120   -0.39 9  215 297 
 ZAR  HZ I        1044 57.37         1.7 0.39            121            215 297 
                                                                                
