 2015 1119 1826 39.7 L   6.821 -73.076153.0  RSN 13 0.5 2.2LRSN                1
 GAP=124        1.13       4.0     4.2  6.7 -0.6078E+01 -0.6053E+00  0.4287E+01E
 Epicentro: LOS SANTOS - SANTANDER                                             3
 ACTION:UPD 15-12-28 16:12 OP:cam  STATUS:               ID:20151119182639 L   I
 OLDACT:UP  15-11-19 21:37 OP:dnl  STATUS:               ID:20151119181750     3
 OLDACT:REG 15-11-19 20:50 OP:dnl  STATUS:               ID:20151119181750     3
 2015-11-19-1817-50M.COL___315                                                 6
 STAT SP IPHASW D HRMM SECON CODA AMPLIT PERI AZIMU VELO AIN AR TRES W  DIS CAZ7
 BAR2 EZ EP       1827  0.23                             169   -0.0310 27.9 205 
 BAR2 EZ ES   2   1827 15.67                             169   -0.66 5 27.9 205 
 BAR2 EZ I        1827 17.95        17.6 0.26            166           27.9 205 
 PAM  EZ EP       1827  3.09                             154    0.7910 70.8  36 
 PAM  EN ES       1827 20.39                             154    0.4410 70.8  36 
 PAM  EZ I        1827 22.43        19.0 0.50            159           70.8  36 
 BRR  HZ EP       1827  2.20                             152    0.2710 77.1 294 
 BRR  HE ES       1827 19.61                             152    0.3110 77.1 294 
 RUS  HZ EP       1827  4.25                             145   -0.0310  103 180 
 RUS  HE ES   2   1827 23.44                             145   -0.04 5  103 180 
 SPBC HZ EP       1827  9.14                             130   -0.22 9  170 221 
 SPBC HN ES       1827 32.24                             130   -0.28 9  170 221 
 SPBC HZ I        1827 38.29        21.5 0.27            129            170 221 
 ZAR  HE ES       1827 38.71                             123   -0.71 8  210 291 
 ZAR  HZ I        1827 44.70        12.1 0.13            123            210 291 
 NOR  HZ EP       1827 16.41                             119   -0.22 8  242 235 
 NOR  HN ES       1827 44.89                             119   -0.58 8  242 235 
 NOR  HZ I        1827 51.43         8.3 0.24            119            242 235 
 SML  HZ EP       1827 17.39                             119    0.55 8  245 333 
 SML  HE ES       1827 45.29                             119   -0.55 8  245 333 
 SOCV BZ EP       1827 21.68                             114   -0.51 7  294  56 
 SOCV BE ES       1827 54.26                             114   -1.11 7  294  56 
 GUY2CHZ EP       1827 25.50                             113    1.03 7  309 235 
 GUY2CHE ES   4   1828  1.05                             113    1.63 0  309 235 
 GUY2CHZ I        1828  6.92         7.4 0.38                           309 235 
 ELA  HN ES   2   1828  5.42                             111    0.31 3  337 230 
 ELA  HZ I        1828 12.09         5.4 0.36            111            337 230 
 ANIL HE ES   4   1828 13.41                             109    3.13 0  364 225 
 ANIL HZ I        1828 18.49        13.8 0.38            110            364 225 
 PRA  HZ EP       1827 34.56                             107    0.44 6  398 210 
 PRA  HE ES   1   1828 16.62                             107    0.02 4  398 210 
 PRA  HZ I        1828 22.05         6.1 0.32            108            398 210 
                                                                                
