 2015  919 1428 58.0 L   6.830 -73.153141.8  RSN 15 0.4 2.3LRSN                1
 GAP=134        1.02       2.5     3.7  4.9 -0.1233E+01  0.5435E+01  0.1359E+01E
 Epicentro: LOS SANTOS - SANTANDER                                             3
 ACTION:UPD 15-10-28 16:27 OP:cam  STATUS:               ID:20150919142858 L   I
 OLDACT:REG 15-09-19 20:24 OP:dri  STATUS:               ID:20150919142750     3
 2015-09-19-1427-50M.COL___358                                                 6
 STAT SP IPHASW D HRMM SECON CODA AMPLIT PERI AZIMU VELO AIN AR TRES W  DIS CAZ7
 BAR2 EZ IP     D 1429 17.41                             169    0.1510 26.5 187 
 BAR2 EZ ES       1429 31.99                             169   -0.2710 26.5 187 
 BAR2 EZ I        1429 40.70        15.3 0.22            169           26.5 187 
 BRR  HZ EP       1429 19.29                             153    0.6610 68.9 296 
 BRR  HE ES       1429 35.01                             153    0.3210 68.9 296 
 BRR  HZ I        1429 37.95        38.1 0.14            149           68.9 296 
 PAM  EZ EP       1429 20.04                             151    0.3310 75.4  42 
 PAM  EE ES       1429 37.20                             151    0.5810 75.4  42 
 PAM  EZ I        1429 39.04        95.4 0.48            148           75.4  42 
 RUS  HZ EP       1429 21.51                             142   -0.1410  104 176 
 RUS  HN ES       1429 39.90                             142   -0.1710  104 176 
 RUS  HZ I        1429 42.07        19.5 0.32            140            104 176 
 PTB  HZ EP       1429 24.09                             131   -0.58 9  148 257 
 PTB  HN ES       1429 45.25                             131   -0.19 9  148 257 
 PTB  HZ I        1429 47.74        19.2 0.38            128            148 257 
 OCA  HZ EP       1429 25.12                             129   -0.60 9  157 353 
 OCA  HE ES       1429 46.93                             129   -0.38 9  157 353 
 OCA  HZ I        1429 51.46        49.0 0.22            126            157 353 
 SPBC HZ EP       1429 26.55                             128    0.11 9  165 218 
 SPBC HE ES       1429 47.82                             128   -0.77 9  165 218 
 SPBC HZ I        1429 54.93        31.9 0.32            125            165 218 
 ZAR  HZ EP       1429 30.10                             122    0.08 9  202 291 
 ZAR  HN ES       1429 55.38                             122    0.42 9  202 291 
 ZAR  HZ I        1430  1.11        27.8 0.50            118            202 291 
 SML  HZ EP       1429 33.24                             117   -0.83 8  240 335 
 SML  HE ES       1430  1.96                             117   -0.22 8  240 335 
 SML  HZ I        1430  5.03        25.2 0.10            114            240 335 
 CHI  HZ EP       1429 35.95                             116    0.10 8  252 195 
 CHI  HN ES       1430  5.08                             116   -0.26 8  252 195 
 CHI  HZ I        1430 12.99         8.5 0.40            114            252 195 
 HEL  HZ EP       1429 38.42                             114    0.37 8  272 255 
 HEL  HN ES       1430  9.10                             114   -0.16 8  272 255 
 HEL  HZ I        1430 17.31        11.3 0.32            111            272 255 
 GUY2CHZ EP       1429 42.03                             111    0.42 7  302 234 
 GUY2CHE ES       1430 16.09                             111    0.50 7  302 234 
 GUY2CHZ I        1430 25.41        10.4 0.36                           302 234 
 PRA  HZ EP       1429 52.15                             106    0.43 6  395 209 
 PRA  HN ES       1430 33.04                             106   -0.55 6  395 209 
 PRA  HZ I        1430 40.97         9.4 0.32            104            395 209 
 ORTC HZ EP       1429 52.43                             106    0.35 6  398 216 
 ORTC HE ES       1430 35.18                             106    0.94 6  398 216 
 ORTC HZ I        1430 40.06         7.3 0.36            103            398 216 
 SJC  HZ EP   4   1429 51.13                             105   -1.96 0  406 327 
 SJC  HZ I        1430 36.68         5.6 0.50            103            406 327 
                                                                                
