 2016  619 1431 54.5 L   7.435 -73.178123.0  RSN  7 0.5 1.8LRSN                1
 GAP=158        1.15       6.3     4.5  9.8 -0.7473E+01  0.1949E+01 -0.1680E+02E
 Epicentro: EL PLAYON - SANTANDER                                              3
 ACTION:UPD 16-07-21 22:20 OP:rebc STATUS:               ID:20160619143154 L   I
 OLDACT:UP  16-06-20 01:01 OP:dani STATUS:               ID:20160619142746     3
 OLDACT:REG 16-06-19 19:49 OP:mh   STATUS:               ID:20160619142746     3
 2016-06-19-1427-46M.COL___349                                                 6
 STAT SP IPHASW D HRMM SECON CODA AMPLIT PERI AZIMU VELO AIN AR TRES W  DIS CAZ7
 BRR  HZ EP     C 1432 13.09                             149   -0.0410 69.2 238 
 BRR  HN ES       1432 28.15                             149    0.5010 69.2 238 
 BRR  HZ I        1432 32.29        12.5 0.56                          69.2 238 
 BAR2 EZ EP       1432 15.19                             141    0.0210 93.2 180 
 BAR2 EZ ES       1432 30.49                             141   -0.7810 93.2 180 
 BAR2 EZ I        1432 32.44        13.6 0.28                          93.2 180 
 PTB  HZ EP       1432 21.60                             122   -0.64 9  173 235 
 PTB  HE ES       1432 43.98                             122    0.11 9  173 235 
 PTB  HZ I        1432 44.86         5.2 0.18                           173 235 
 ZAR  HZ EP       1432 23.12                             120   -0.49 9  186 272 
 ZAR  HE ES       1432 46.36                             120    0.07 9  186 272 
 ZAR  HZ I        1432 49.74         7.6 0.26                           186 272 
 SPBC HN ES       1432 53.86                             115    0.62 8  221 207 
 SOCV BN ES       1433  4.19                             110    0.61 8  273  70 
 NOR  HE ES       1433  5.43                             109    0.50 7  279 222 
                                                                                
