 2012 1119 1347 42.3 L   6.820 -73.197145.5  RSN  6 0.4 1.4LRSN                1
 GAP=129        0.59       3.6     4.6  7.4  0.2111E+01  0.3129E+01 -0.7695E+01E
 Epicentro: ZAPATOCA - SANTANDER                                               3
 ACTION:UPD 12-12-05 15:34 OP:}ep  STATUS:               ID:20121119134742 L   I
 2012-11-19-1340-00M.COL___233                                                 6
 STAT SP IPHASW D HRMM SECON CODA AMPLIT PERI AZIMU VELO AIN AR TRES W  DIS CAZ7
 BAR2 SZ EP   2   1348  2.13                             170    0.18 5 25.2 176 
 BAR2 SZ I        1348 25.63         8.2 0.60                          25.2 176 
 BRR  HZ EP   2   1348  3.86                             154    0.76 5 65.2 299 
 BRR  HE ES   2   1348 19.97                             154    0.65 5 65.2 299 
 BRR  HZ I        1348 23.97        10.2 0.38                          65.2 299 
 PAM  SZ EP   2   1348  5.08                             150    0.46 5 79.5  44 
 PAM  SN ES   2   1348 21.70                             150   -0.33 5 79.5  44 
 PAM  SZ I        1348 23.85         5.8 0.44                          79.5  44 
 RUS  HZ EP   1   1348  6.16                             143   -0.07 7  103 173 
 RUS  HN ES   1   1348 24.65                             143   -0.23 7  103 173 
 RUS  HZ I        1348 26.30         1.9 0.32                           103 173 
 PTB  HZ EP   1   1348  8.82                             133    0.02 7  143 258 
 PTB  HN ES   1   1348 29.28                             133   -0.18 7  143 258 
 PTB  HZ I        1348 32.63         2.2 0.17                           143 258 
 SML  HZ EP   1   1348 18.45                             118   -0.01 6  239 336 
 SML  HE ES   1   1348 46.15                             118   -0.50 6  239 336 
                                                                                
