 2012  819 1155 38.2 L   6.762 -73.153143.5  RSN  6 0.2 2.2LRSN                1
 GAP=137        0.53       3.4     3.1  4.3  0.1055E+01  0.3700E+01 -0.1580E+01E
 Epicentro: LOS SANTOS - SANTANDER                                             3
 ACTION:UPD 12-09-10 11:57 OP:ep   STATUS:               ID:20120819115538 L   I
 2012-08-19-1150-00M.COL___217                                                 6
 STAT SP IPHASW D HRMM SECON CODA AMPLIT PERI AZIMU VELO AIN AR TRES W  DIS CAZ7
 BAR2 SZ EP   1   1155 57.42                             172   -0.02 7 19.1 190 
 BAR2 SZ ES       1156 12.35                             172   -0.1310 19.1 190 
 BAR2 SZ I        1156 13.93        80.1 0.21                          19.1 190 
 BRR  HZ EP       1155 59.34                             152    0.1910 72.6 302 
 BRR  HZ I        1155 59.63        30.2 0.25                          72.6 302 
 BRR  HN ES   1   1156 16.05                             152    0.54 7 72.6 302 
 PAM  SZ EP   1   1156  0.38                             149    0.01 7 81.1  38 
 PAM  SE ES   1   1156 17.36                             149   -0.33 7 81.1  38 
 PAM  SZ I        1156 19.77        38.5 0.48                          81.1  38 
 RUS  HZ EP   1   1156  1.44                             144    0.04 7 96.5 175 
 RUS  HE ES   1   1156 19.67                             144    0.15 7 96.5 175 
 RUS  HZ I        1156 21.10        12.5 0.29                          96.5 175 
 PTB  HZ EP   1   1156  4.56                             132   -0.25 7  146 260 
 PTB  HE ES   1   1156 25.29                             132   -0.30 7  146 260 
 PTB  HZ I        1156 27.56        10.2 0.10                           146 260 
 ZAR  HZ EP   1   1156 10.73                             122    0.17 6  205 293 
 ZAR  HE ES   1   1156 35.60                             122   -0.22 6  205 293 
 ZAR  HZ I        1156 42.04        28.7 0.39                           205 293 
                                                                                
