 2017 1119 1207  7.6 L   7.291 -73.461 99.2  RSN  9 0.4 2.0LRSN                1
 GAP=164        0.88       3.8     3.6  8.9 -0.3078E+01  0.2083E+02 -0.7860E+01E
 Epicentro: SABANA DE TORRES - SANTANDER                                       3
 ACTION:UPD 17-12-12 19:57 OP:rebc STATUS:               ID:20171119120707 L   I
 OLDACT:REG 17-11-19 20:20 OP:lv   STATUS:               ID:20171119115741     3
 2017-11-19-1158-00M.COL___474                                                 6
 STAT SP IPHASW D HRMM SECON CODA AMPLIT PERI AZIMU VELO AIN AR TRES W  DIS CAZ7
 BAR2 EZ EP       12 7 25.30                             137    0.0310 83.1 158 
 BAR2 EZ ES       12 7 38.80                             137   -0.2410 83.1 158 
 BAR2 EZ I        12 7 40.58        44.2 0.44            137           83.1 158 
 PAM  EZ EP       12 7 25.52                             137   -0.1910 84.3  86 
 PAM  HN ES       12 7 40.12                             137    0.2910 84.3  86 
 PAM  EZ I        12 7 41.86        17.6 0.18            142           84.3  86 
 PTB  HZ IP     D 12 7 29.48                             122   -0.73 9  138 233 
 PTB  HN ES       12 7 47.85                             122    0.01 9  138 233 
 PTB  HZ I        12 7 52.27        12.9 0.22            121            138 233 
 ZAR  HZ EP       12 7 32.73                             118    0.60 9  156 278 
 ZAR  HN ES   4   12 7 53.08                             118    1.84 0  156 278 
 ZAR  HZ I        12 7 54.72        18.6 0.26            119            156 278 
 SPBC HZ EP       12 7 36.81                             113    0.40 9  193 200 
 SPBC HN ES       12 7 58.82                             113   -0.05 9  193 200 
 SPBC HZ I        12 8  5.45        13.4 0.18            112            193 200 
 URE  HZ EP       12 7 40.60                             109   -0.44 8  234 283 
 URE  HN ES       12 8  7.10                             109   -0.01 8  234 283 
 URE  HZ I        12 8  8.04         8.8 0.14            108            234 283 
 NOR  HZ EP       12 7 42.51                             108   -0.01 8  246 219 
 NOR  HN ES       12 8 10.20                             108    0.46 8  246 219 
 NOR  HZ I        12 8 15.64         7.6 0.50            107            246 219 
 SJC  HZ EP   4   12 7 53.01                             102   -1.25 0  345 327 
 SJC  HN ES   4   12 8 28.59                             102   -2.06 0  345 327 
 SJC  HZ I        12 8 31.42         3.1 0.52            101            345 327 
 PRA  HZ EP   4   12 8  1.44                             100   -2.63 0  426 202 
 PRA  HE ES   4   12 8 51.37                             100    3.26 0  426 202 
 PRA  HZ I        12 8 58.01         2.0 0.34             97            426 202 
                                                                                
