 2011  119 1234  7.1 L   6.815 -73.121139.7  RSN 17 0.4 2.8LRSN                1
 GAP=104        1.00       3.1     4.5  5.4 -0.3868E+01  0.5607E+01  0.2296E+01E
 Epicentro: LOS SANTOS - SANTANDER                                             3
 ACTION:UP  11-02-08 08:41 OP:pat  STATUS:               ID:20110119123407 L   I
 2011-01-19-1232-24S.COL___137                                                 6
 STAT SP IPHASW D HRMM SECON CODA AMPLIT PERI AZIMU VELO SNR AR TRES W  DIS CAZ7
 BTL  SZ IP     C 1234 26.33                             172     0.310   20 305 
 BTL  SZ ES   1   1234 40.52                             172    -0.2 7   20 305 
 BAR2 SZ IP       1234 26.27                             169     0.210   26 196 
 BAR2 SZ ES   1   1234 39.87                             169    -1.0 7   26 196 
 BAR2 SZ I        1234 44.68       145.5 0.53                            26 196 
 GIR2 SZ IP       1234 26.30                             167     0.210   30 345 
 GIR2 SZ ES   1   1234 41.24                             167     0.4 7   30 345 
 RUS  HZ EP   1   1234 30.24                             142    -0.2 7  102 178 
 RUS  HN ES   1   1234 48.46                             142    -0.1 7  102 178 
 RUS  HZ I        1234 50.69       136.4 0.28                           102 178 
 GRA  SZ IP       1234 32.08                             136     0.410  123  16 
 GRA  SZ ES   1   1234 51.24                             136     0.5 7  123  16 
 GRA  SZ I        1234 52.74       125.8 0.29                           123  16 
 OCA  SZ EP   1   1234 34.62                             128    -0.2 7  159 352 
 OCA  SZ ES   1   1234 55.55                             128    -0.9 7  159 352 
 OCA  SZ I        1234 59.65        82.5 0.42                           159 352 
 YOP  SZ EP       1234 37.13                             125     0.3 9  179 154 
 YOP  SN ES   1   1234 59.84                             125    -0.1 7  179 154 
 YOP  SZ I        1235  3.81        48.6 0.47                           179 154 
 NOR  SZ EP   1   1234 42.73                             117    -0.2 6  238 235 
 NOR  SE ES   1   1235 10.69                             117    -0.1 6  238 235 
 CHI  HZ EP   1   1234 44.64                             115    -0.1 6  251 196 
 CHI  HN ES   1   1235 13.63                             115    -0.5 6  251 196 
 CHI  HZ I        1235 18.45        32.7 0.44                           251 196 
 ROSC BN ES   1   1235 15.25                             115     0.3 6  256 211 
 ROSC BZ I        1235 20.21        70.4 0.38                           256 211 
 HEL  HZ EP   1   1234 46.62                             113    -0.8 6  275 256 
 HEL  HE ES   1   1235 19.21                             113     0.4 6  275 256 
 HEL  HZ I        1235 24.60        38.9 0.27                           275 256 
 VIL  SN ES   1   1235 24.11                             111     0.1 5  304 190 
 VIL  SZ I        1235 33.23        29.6 0.35                           304 190 
 GUY  SZ EP   1   1234 51.00                             111     0.1 5  305 235 
 GUY  SN ES   1   1235 25.85                             111     0.9 5  305 235 
 RREF HZ EP   1   1234 52.99                             109    -0.4 5  325 229 
 RREF HN ES   1   1235 28.88                             109    -0.6 5  325 229 
 RREF HZ I        1235 37.94        49.1 0.18                           325 229 
 DBB  SZ EP       1234 54.41                             108    -0.3 7  342 274 
 TOL  SZ EP       1234 55.99                             108     0.5 6  347 225 
 SDV  BZ EP       1234 55.95                             107    -0.6 6  357  50 
 SDV  BZ I        1235 38.22        22.9 0.58                           357  50 
                                                                                
