 2012  119 1122 36.0 L   6.782 -73.099150.9  RSN 12 0.4 2.6LRSN                1
 GAP=143        0.75       3.1     4.1  5.2 -0.1129E+01  0.6681E+01  0.2943E+01E
 Epicentro: LOS SANTOS - SANTANDER                                             3
 ACTION:UP  12-02-03 08:18 OP:REBC STATUS:               ID:20120119112236 L   I
 2012-01-19-1120-00M.COL___186                                                 6
 STAT SP IPHASW D HRMM SECON CODA AMPLIT PERI AZIMU VELO SNR AR TRES W  DIS CAZ7
 BAR2 SZ IP       1122 56.25                             171     0.010   23 204 
 BAR2 SZ ES   1   1123 11.51                             171    -0.5 7   23 204 
 BAR2 SZ I        1123 14.13        76.2 0.31                            23 204 
 PAM  SZ EP   1   1122 59.08                             152     0.4 7   76  36 
 PAM  SE ES   1   1123 16.65                             152     0.3 7   76  36 
 BRR  HZ IP     C 1122 58.13                             152     0.110   77 298 
 BRR  HZ I        1122 58.62        75.2 0.11                            77 298 
 BRR  HE ES   1   1123 15.78                             152     0.6 7   77 298 
 RUS  HZ EP       1123  0.07                             145    -0.110   98 179 
 RUS  HN ES   1   1123 19.04                             145     0.1 7   98 179 
 ZAR  HZ EP   1   1123  8.87                             123    -0.5 6  210 292 
 ZAR  HE ES   1   1123 34.61                             123    -0.8 6  210 292 
 ZAR  HZ I        1123 40.54        43.7 0.28                           210 292 
 NOR  SZ EP   1   1123 12.48                             119     0.1 6  238 236 
 NOR  SN ES   2   1123 41.00                             119     0.2 4  238 236 
 CHI  HZ EP       1123 14.18                             118     0.2 8  248 196 
 CHI  HN ES   1   1123 42.64                             118    -0.9 6  248 196 
 CHI  HZ I        1123 52.05        13.9 0.36                           248 196 
 HEL  HZ EP   2   1123 17.66                             115     0.7 4  277 256 
 HEL  HE ES   1   1123 49.24                             115     0.3 6  277 256 
 RREF HZ EP   2   1123 23.08                             112     0.4 3  324 230 
 RREF HN ES   1   1123 59.38                             112     0.3 5  324 230 
 RREF HZ I        1124  8.65        17.7 0.48                           324 230 
 TOL  SZ EP   2   1123 25.21                             110     0.5 3  346 225 
 TOL  SZ ES   2   1124  2.85                             110     0.1 3  346 225 
 COD  HZ EP   1   1123 24.29                             110    -0.6 5  351 354 
 COD  HN ES   2   1124  2.83                             110    -0.2 3  351 354 
 COD  HZ I        1124 10.00        25.9 0.77                           351 354 
 PRA  HZ EP   1   1123 29.88                             107     0.0 4  393 210 
 PRA  HN ES   1   1124 11.89                             107     0.1 4  393 210 
                                                                                
