 2013  219 1827 47.5 L   6.771 -73.151154.6  RSN  6 0.3 2.4LRSN                1
 GAP=137        0.84       3.9     4.4  6.7  0.2332E+01  0.6675E+01 -0.2151E+01E
 Epicentro: LOS SANTOS - SANTANDER                                             3
 ACTION:UPD 13-03-12 09:34 OP:ep   STATUS:               ID:20130219182747 L   I
 2013-02-19-1820-00M.COL___241                                                 6
 STAT SP IPHASW D HRMM SECON CODA AMPLIT PERI AZIMU VELO AIN AR TRES W  DIS CAZ7
 BRR  HZ IP     D 1828 10.06                             154    0.3910 72.2 301 
 BRR  HN ES       1828 27.62                             154    0.6610 72.2 301 
 BRR  HN I        1828 31.58        50.2 0.20            154           72.2 301 
 PAM  SN ES       1828 28.63                             151   -0.3910 80.2  38 
 RUS  HZ EP       1828 11.99                             146    0.0710 97.5 176 
 RUS  HN ES       1828 30.82                             146   -0.1410 97.5 176 
 RUS  HN I        1828 31.34        20.0 0.30            150           97.5 176 
 PTB  HZ EP       1828 15.00                             134   -0.10 9  147 260 
 PTB  HN ES       1828 36.37                             134   -0.25 9  147 260 
 PTB  HN I        1828 36.56        19.9 0.22            136            147 260 
 ZAR  HN ES       1828 46.07                             124   -0.35 9  205 293 
 ZAR  HN I        1828 48.44        21.9 0.12            126            205 293 
 SML  HZ EP       1828 25.02                             119    0.10 8  246 336 
 SML  HN ES   1   1828 53.85                             119   -0.25 6  246 336 
 SML  HN I        1828 55.65        27.7 0.28            120            246 336 
                                                                                
