 2012  919 1800  4.4 L   7.095 -73.278116.8  RSN  5 0.2 1.9LRSN                1
 GAP=143        0.43       5.0     3.6  6.2  0.3267E+01  0.3128E+01 -0.8265E+01E
 Epicentro: LEBRIJA - SANTANDER                                                3
 ACTION:UPD 12-10-22 14:19 OP:ep   STATUS:               ID:20120919180004 L   I
 2012-09-19-1800-00M.COL___226                                                 6
 STAT SP IPHASW D HRMM SECON CODA AMPLIT PERI AZIMU VELO AIN AR TRES W  DIS CAZ7
 GIR2 SZ EP       18 0 20.08                             175   -0.0710 9.54 100 
 BRR  HZ EP       18 0 21.09                             156   -0.0310 47.9 272 
 BRR  HZ I        18 0 23.36        16.7 0.43                          47.9 272 
 BRR  HN ES   2   18 0 33.90                             156   -0.26 5 47.9 272 
 BAR2 SZ EP       18 0 22.06                             152    0.1410 56.5 169 
 BAR2 SZ ES   1   18 0 35.54                             152   -0.06 7 56.5 169 
 BAR2 SZ I        18 0 37.67        30.0 0.43                          56.5 169 
 PAM  SZ EP   2   18 0 22.66                             147   -0.41 5 69.4  67 
 PAM  SN ES   2   18 0 38.02                             147    0.38 5 69.4  67 
 ZAR  HE ES   2   18 0 54.72                             118    0.30 4  180 284 
                                                                                
