 2012  219 1432 41.1 L   6.772 -73.161139.0  RSN 10 0.5 2.1LRSN                1
 GAP=136        0.94       5.2     4.6  7.0 -0.1213E+00  0.1092E+02  0.7678E+01E
 ACTION:UP  12-03-07 16:32 OP:epov STATUS:               ID:20120219143241 L   I
 2012-02-19-1430-00S.MAN___184                                                 6
 STAT SP IPHASW D HRMM SECON CODA AMPLIT PERI AZIMU VELO AIN AR TRES W  DIS CAZ7
 BAR2 SZ EP       1432 59.81                             171   -0.0710 20.0 187 
 BAR2 SZ ES   1   1433 14.21                             171   -0.30 7 20.0 187 
 BAR2 SZ I        1433 16.83        48.3 0.24                          20.0 187 
 BRR  HZ EP   1   1433  1.76                             151    0.20 7 71.3 301 
 BRR  HE ES   1   1433 18.44                             151    0.95 7 71.3 301 
 BRR  HZ I        1433 19.76        61.5 0.13                          71.3 301 
 PAM  SZ EP   1   1433  2.72                             148   -0.13 7 80.9  39 
 PAM  SN ES   1   1433 19.50                             148   -0.29 7 80.9  39 
 RUS  HZ EP   1   1433  4.15                             143    0.15 7 97.6 175 
 RUS  HN ES   1   1433 22.17                             143    0.33 7 97.6 175 
 PTB  HZ EP   1   1433  6.47                             131   -0.88 7  146 260 
 PTB  HN ES   1   1433 26.76                             131   -1.04 7  146 260 
 ZAR  HZ EP   1   1433 12.75                             121   -0.36 6  204 293 
 ZAR  HN ES   1   1433 38.62                             121    0.57 6  204 293 
 ZAR  HZ I        1433 44.72        18.5 0.25                           204 293 
 NOR  SZ EP   1   1433 16.39                             117    0.26 6  232 235 
 NOR  SN ES   1   1433 43.64                             117    0.21 6  232 235 
 CHI  HZ EP   1   1433 18.06                             116   -0.02 6  245 195 
 CHI  HZ I        1433 54.01         2.7 0.26                           245 195 
 HEL  HZ EP   1   1433 21.52                             114    0.78 6  270 256 
 HEL  HN ES   1   1433 51.33                             114   -0.31 6  270 256 
 HEL  HZ I        1433 56.91         6.7 0.30                           270 256 
 PRA  HZ EP   1   1433 34.51                             105    0.50 4  388 210 
                                                                                
