 2012 1119 1343 23.5 L   6.785 -73.153148.0  RSN  8 0.4 1.5LRSN                1
 GAP=136        0.74       4.5     5.1  6.4  0.7232E+01  0.1629E+00 -0.7326E+01E
 Epicentro: LOS SANTOS - SANTANDER                                             3
 ACTION:UPD 12-12-05 15:34 OP:}ep  STATUS:               ID:20121119134323 L   I
 2012-11-19-1340-00M.COL___233                                                 6
 STAT SP IPHASW D HRMM SECON CODA AMPLIT PERI AZIMU VELO AIN AR TRES W  DIS CAZ7
 BAR2 SZ EP   1   1343 43.43                             171    0.02 7 21.5 189 
 BAR2 SZ ES   1   1343 58.32                             171   -0.59 7 21.5 189 
 BAR2 SZ I        1344  1.10        13.2 0.40                          21.5 189 
 GIR2 SZ ES   1   1343 59.78                             167    0.67 7 32.8 352 
 BRR  HZ EP   1   1343 45.26                             153    0.32 7 71.3 300 
 BRR  HN ES   1   1344  1.53                             153   -0.11 7 71.3 300 
 PAM  SZ EP   1   1343 46.19                             151    0.08 7 79.2  39 
 RUS  HZ EP   1   1343 47.42                             145    0.02 7 98.9 176 
 RUS  HN ES   1   1344  6.02                             145    0.01 7 98.9 176 
 RUS  HZ I        1344  8.84         2.0 0.44                          98.9 176 
 PTB  HZ EP   2   1343 51.23                             133    0.63 5  147 259 
 PTB  HN ES   1   1344 11.30                             133   -0.40 7  147 259 
 PTB  HZ I        1344 17.09         4.2 0.34                           147 259 
 ZAR  HE ES   1   1344 21.95                             123    0.41 6  204 293 
 ZAR  HZ I        1344 27.86         3.3 0.42                           204 293 
 SML  HZ EP   1   1343 59.77                             118   -0.66 6  245 336 
 SML  HN ES   1   1344 28.88                             118   -0.32 6  245 336 
                                                                                
