 2012  719 1838  4.7 L   6.778 -73.154151.5  RSN  5 0.4 1.7LRSN                1
 GAP=136        0.94       7.6     6.3 10.8 -0.2036E+01  0.6665E+01  0.2651E+02E
 Epicentro: LOS SANTOS - SANTANDER                                             3
 ACTION:UPD 12-08-14 11:45 OP:ep   STATUS:               ID:20120719183804 L   I
 2012-07-19-1830-00M.COL___201                                                 6
 STAT SP IPHASW D HRMM SECON CODA AMPLIT PERI AZIMU VELO AIN AR TRES W  DIS CAZ7
 BRR  HZ EP       1838 26.71                             153     0.310   72 301 
 BRR  HZ I        1838 26.89        20.6 0.16            153             72 301 
 BRR  HN ES   1   1838 44.04                             153     0.6 7   72 301 
 PAM  SZ EP       1838 27.70                             151     0.110   80  39 
 PAM  SZ I        1838 27.79         4.6 0.22            153             80  39 
 PAM  SN ES   1   1838 44.97                             151    -0.6 7   80  39 
 RUS  HZ EP       1838 29.04                             146     0.210   98 175 
 RUS  HN ES   2   1838 47.30                             146    -0.3 5   98 175 
 RUS  HZ I        1838 48.42         5.5 0.42            146             98 175 
 PTB  HZ EP       1838 31.58                             134    -0.4 9  146 260 
 PTB  HE ES   2   1838 53.03                             134    -0.3 5  146 260 
 PTB  HZ I        1838 54.85         6.4 0.38            134            146 260 
 ZAR  HN ES   2   1839  2.44                             124    -0.7 4  204 293 
