 2015  619 1901 24.0 L   7.409 -73.191128.8  RSN 11 0.5 2.3LRSN                1
 GAP=107        1.12       3.3     5.0  7.8  0.2607E+01  0.2088E+02  0.5853E+01E
 Epicentro: EL PLAYON - SANTANDER                                              3
 ACTION:UPD 15-09-10 22:13 OP:cam  STATUS:               ID:20150619190124 L   I
 OLDACT:UP  15-06-23 20:54 OP:cam  STATUS:               ID:20150619190124 L   3
 OLDACT:UP  15-06-23 06:13 OP:STLL STATUS:               ID:20150619190124 L   3
 OLDACT:REG 15-06-19 21:02 OP:stll STATUS:               ID:20150619185750     3
 2015-06-19-1857-50M.COL___316                                                 6
 STAT SP IPHASW D HRMM SECON CODA AMPLIT PERI AZIMU VELO AIN AR TRES W  DIS CAZ7
 PAM  SZ EP       19 1 43.53                             155    0.3610 54.8  98 
 PAM  SZ I        19 1 43.89        54.7 0.18            159           54.8  98 
 PAM  SN ES       19 1 58.58                             155    0.4910 54.8  98 
 BRR  HZ EP       19 1 43.35                             151    0.2510 66.5 240 
 BRR  HZ I        19 1 59.11        71.7 0.10            143           66.5 240 
 BAR2 EZ EP       19 1 45.21                             143    0.1810 90.3 179 
 BAR2 EZ ES       19 2  1.28                             143   -0.1210 90.3 179 
 OCA  HZ EP       19 1 45.41                             142    0.3110 92.8 351 
 OCA  HN ES       19 2  1.24                             142   -0.2810 92.8 351 
 OCA  HZ I        19 2  8.53        45.5 0.42            135           92.8 351 
 RUS  HZ EP       19 1 51.71                             124   -0.62 9  168 176 
 RUS  HE ES       19 2 13.66                             124   -0.73 9  168 176 
 RUS  HZ I        19 2 15.37        15.3 0.34            120            168 176 
 SML  HZ EP       19 1 52.59                             121   -0.50 9  182 328 
 SML  HE ES   1   19 2 14.71                             121   -1.04 7  182 328 
 SML  HZ I        19 2 19.28        21.2 0.24            115            182 328 
 ZAR  HZ EP       19 1 53.34                             121   -0.01 9  184 273 
 ZAR  HN ES       19 2 16.87                             121    0.67 9  184 273 
 ZAR  HZ I        19 2 21.06        27.7 0.26            114            184 273 
 NOR  HZ EP       19 2  3.83                             111    0.34 7  276 222 
 NOR  HZ I        19 2  3.98        12.9 0.28            106            276 222 
 NOR  HE ES       19 2 33.64                             111   -0.61 7  276 222 
 HEL  HZ EP       19 2  5.92                             109    0.26 7  291 243 
 HEL  HZ I        19 2 49.77         6.5 0.26            105            291 243 
 MON  HZ EP   9   19 2  6.16                             108   -1.40 0  312 299 
 MON  HN ES       19 2 39.17                                   -0.93 7  312 299 
 GUY2CHZ EP       19 2 11.84                             106    0.29 7  341 225 
 GUY2CHN ES       19 2 48.89                             106    0.29 7  341 225 
 GUY2CHZ I        19 2 57.77         8.4 0.42                           341 225 
                                                                                
