 2013  419 1044 35.7 L   6.662 -73.268146.3  RSN  5 0.6 1.6LRSN                1
 GAP=119        1.62      11.3    11.2 16.0  0.4889E+02 -0.2336E+02 -0.1958E+02E
 Epicentro: GALAN - SANTANDER                                                  3
 ACTION:UPD 13-05-22 14:39 OP:EP   STATUS:               ID:20130419104435 L   I
 2013-04-19-1038-50M.COL___217                                                 6
 STAT SP IPHASW D HRMM SECON CODA AMPLIT PERI AZIMU VELO AIN AR TRES W  DIS CAZ7
 BAR2 SZ EP   1   1044 55.14                             175   -0.07 7 12.2 129 
 BAR2 SZ I        1045  7.83         4.6 0.38            168           12.2 129 
 GIR2 SZ EP       1044 57.24                             161    1.3010 46.8  10 
 BRR  HZ EP       1044 56.14                             153   -0.6610 69.5 315 
 BRR  HN ES       1045 12.72                             153   -0.5510 69.5 315 
 BRR  HN I        1045 14.08        12.0 0.22            153           69.5 315 
 RUS  HZ EP       1044 57.95                             148   -0.6410 87.5 166 
 RUS  HN ES       1045 16.63                             148    0.1710 87.5 166 
 PTB  HZ EP       1045  1.30                             135   -0.0310  132 264 
 PTB  HN ES       1045 21.81                             135    0.4910  132 264 
                                                                                
