 2012 1119 1334 17.1 L   6.791 -73.157148.1  RSN  6 0.3 1.5LRSN                1
 GAP=135        0.67       3.5     4.1  7.7  0.2291E+01  0.6321E+01 -0.3246E+01E
 Epicentro: LOS SANTOS - SANTANDER                                             3
 ACTION:UPD 12-12-05 15:34 OP:}ep  STATUS:               ID:20121119133417 L   I
 2012-11-19-1330-00M.COL___233                                                 6
 STAT SP IPHASW D HRMM SECON CODA AMPLIT PERI AZIMU VELO AIN AR TRES W  DIS CAZ7
 BRR  HE ES   1   1334 55.58                             153    0.42 7 70.6 300 
 PAM  SZ EP   1   1334 40.07                             151    0.39 7 79.0  40 
 PAM  SE ES   1   1334 56.94                             151   -0.34 7 79.0  40 
 PAM  SZ I        1334 58.49         4.7 0.38                          79.0  40 
 RUS  HZ EP   1   1334 41.30                             144    0.26 7 99.7 175 
 RUS  HN ES       1334 59.62                             144   -0.0810 99.7 175 
 PTB  HZ EP   1   1334 43.79                             133   -0.37 7  146 259 
 PTB  HN ES   1   1335  4.89                             133   -0.35 7  146 259 
 PTB  HZ I        1335 10.02         3.1 0.19                           146 259 
 ZAR  HN ES   1   1335 15.38                             123    0.38 6  203 293 
 ZAR  HZ I        1335 18.22         3.4 0.10                           203 293 
 SML  HN ES   1   1335 22.24                             118   -0.39 6  244 336 
                                                                                
