 2014 1219 1005 11.6 L   7.457 -73.194133.1  RSN  7 0.4 1.5LRSN                1
 GAP=113        0.93       3.6     4.2  6.9 -0.1465E+01  0.1157E+02 -0.3685E+01E
 Epicentro: EL PLAYON - SANTANDER                                              3
 ACTION:UPD 15-02-10 17:05 OP:nd   STATUS:               ID:20141219100511 L   I
 OLDACT:REG 14-12-19 20:32 OP:spq  STATUS:               ID:20141219095748     3
 2014-12-19-0957-48M.COL___290                                                 6
 STAT SP IPHASW D HRMM SECON CODA AMPLIT PERI AZIMU VELO AIN AR TRES W  DIS CAZ7
 PAM  SZ EP       10 5 31.56                             156    0.2410 56.1 103 
 PAM  SN ES       10 5 46.63                             156   -0.0310 56.1 103 
 PAM  SZ I        10 5 48.41         5.0 0.38            160           56.1 103 
 BRR  HZ EP   1   10 5 31.47                             151    0.15 7 69.1 236 
 BRR  HE ES       10 5 46.85                             151    0.1910 69.1 236 
 BRR  HZ I        10 5 48.35         7.3 0.22            151           69.1 236 
 OCA  HZ EP   1   10 5 33.12                             145    0.38 7 87.5 351 
 OCA  HN ES       10 5 49.50                             145    0.3110 87.5 351 
 OCA  HZ I        10 5 52.26         4.9 0.14            146           87.5 351 
 BAR2 EZ ES   1   10 5 49.72                             142   -0.73 7 95.7 179 
 BAR2 EZ I        10 5 50.65         4.7 0.10            145           95.7 179 
 PTB  HZ EP       10 5 40.03                             124   -0.01 9  173 234 
 PTB  HN ES       10 6  1.89                             124   -0.30 9  173 234 
 PTB  HZ I        10 6  5.43         2.7 0.16            126            173 234 
 SML  HZ EP       10 5 40.10                             123   -0.40 9  177 327 
 SML  HN ES       10 6  2.21                             123   -0.79 9  177 327 
 SML  HZ I        10 6  3.45        11.3 0.22            125            177 327 
 ZAR  HZ EP       10 5 41.48                             122    0.30 9  184 271 
 ZAR  HN ES       10 6  4.67                             122    0.46 9  184 271 
 ZAR  HZ I        10 6  7.89         4.5 0.34            124            184 271 
                                                                                
