 2012  119 1524 38.0 L   6.742 -73.326127.8  RSN  5 0.3 1.4LRSN                1
 GAP=183        0.65       7.3     6.9  6.7  0.3240E+02  0.1694E+02  0.1060E+02E
 Epicentro: ZAPATOCA - SANTANDER                                               3
 ACTION:UP  12-02-03 08:18 OP:REBC STATUS:               ID:20120119152438 L   I
 2012-01-19-1520-00M.COL___186                                                 6
 STAT SP IPHASW D HRMM SECON CODA AMPLIT PERI AZIMU VELO SNR AR TRES W  DIS CAZ7
 BAR2 SZ EP   1   1524 55.74                             169     0.3 7   23 136 
 BAR2 SZ ES   1   1525  9.09                             169     0.0 7   23 136 
 BAR2 SZ I        1525  9.85        11.7 0.29                            23 136 
 BRR  HZ EP   1   1524 56.43                             154    -0.1 7   59 313 
 BRR  HE ES   1   1525 10.77                             154    -0.2 7   59 313 
 RUS  HZ EP   1   1524 59.90                             141     0.1 7   98 164 
 RUS  HZ I        1525  0.73         2.5 0.11                            98 164 
 RUS  HN ES   2   1525 16.78                             141     0.0 5   98 164 
 PTB  HZ EP   1   1525  0.93                             132    -0.7 7  127 260 
 PTB  HE ES   2   1525 20.43                             132     0.4 5  127 260 
 ZAR  HZ EP   1   1525  8.06                             120     0.4 7  189 296 
 ZAR  HN ES   2   1525 31.04                             120     0.2 4  189 296 
 ZAR  HZ I        1525 34.44         3.6 0.12                           189 296 
                                                                                
