 2017  519 1052 45.0 L   6.653 -73.490106.2  RSN  9 0.4 1.9LRSN                1
 GAP=138        1.19       4.6     4.9  9.3 -0.8297E+01 -0.1785E+01  0.6329E+01E
 Epicentro: EL CARMEN - SANTANDER                                              3
 ACTION:UPD 17-06-16 13:37 OP:jn   STATUS:               ID:20170519105245 L   I
 OLDACT:REG 17-05-19 20:41 OP:lv   STATUS:               ID:20170519104743     3
 2017-05-19-1048-00M.COL___350                                                 6
 STAT SP IPHASW D HRMM SECON CODA AMPLIT PERI AZIMU VELO AIN AR TRES W  DIS CAZ7
 BRR  HZ EP       1053  0.57                             149   -0.4210 55.9 334 
 BRR  HN ES       1053 13.47                             149   -0.0110 55.9 334 
 BRR  HZ I        1053 16.82        24.0 0.07            154           55.9 334 
 PTB  HZ IP   9 D 1053  3.82                             130   -1.25 0  108 263 
 PTB  HN ES       1053 18.41                                   -1.0910  108 263 
 PTB  HZ I        1053 20.40        16.3 0.40            130            108 263 
 PAM  EZ EP       1053  6.23                             127   -0.2410  116  49 
 PAM  EN ES       1053 23.30                             127    0.0510  116  49 
 PAM  EZ I        1053 26.26        18.4 0.12            129            116  49 
 SPBC HZ EP       1053  7.87                             124    0.7410  128 210 
 SPBC HN ES       1053 24.44                             124    0.0210  128 210 
 SPBC HZ I        1053 28.67        20.6 0.07            122            128 210 
 ZAR  HZ EP       1053 12.31                             114    0.10 9  177 302 
 ZAR  HN ES       1053 33.64                             114    0.18 9  177 302 
 ZAR  HZ I        1053 34.64        16.6 0.27            116            177 302 
 NOR  HN ES   1   1053 36.18                             112   -0.75 6  194 232 
 NOR  HZ I        1053 39.97        12.7 0.13            111            194 232 
 CHI  HZ EP   9   1053 21.21                             108    3.09 0  225 187 
 CHI  HN ES       1053 47.16                                    0.09 8  225 187 
 CHI  HZ I        1053 52.41         5.6 0.24            107            225 187 
 HEL  HZ EP   9   1053 20.32                             108            231 257 
 HEL  HN ES       1053 46.09                                            231 257 
 HEL  HZ I        1053 50.66         4.3 0.15            108            231 257 
 ORTC HN ES   4   1054 14.85                              98    3.29 0  360 213 
 ORTC HZ I        1054 20.26         3.1 0.27             98            360 213 
 SJC  HZ EP   4   1053 36.77                              96   -2.14 0  404 333 
 SJC  HN ES   4   1054 11.45                              96   -9.54 0  404 333 
                                                                                
