 2017  819 1136 42.3 L   6.788 -73.146145.9  RSN 12 0.3 1.8LRSN                1
 GAP= 99        0.68       2.7     2.3  4.7  0.1064E+01  0.9989E+00  0.2455E+01E
 Epicentro: LOS SANTOS - SANTANDER                                             3
 ACTION:UPD 17-09-04 20:22 OP:rebc STATUS:               ID:20170819113642 L   I
 OLDACT:UP  17-08-19 15:51 OP:and  STATUS:               ID:20170819112741     3
 OLDACT:UP  17-08-19 15:51 OP:and  STATUS:               ID:20170819112741     3
 OLDACT:UP  17-08-19 15:50 OP:and  STATUS:               ID:20170819112741     3
 OLDACT:UP  17-08-19 15:50 OP:and  STATUS:               ID:20170819112741     3
 OLDACT:UP  17-08-19 15:50 OP:and  STATUS:               ID:20170819112741     3
 OLDACT:UP  17-08-19 15:49 OP:and  STATUS:               ID:20170819112741     3
 OLDACT:UP  17-08-19 15:49 OP:and  STATUS:               ID:20170819112741     3
 OLDACT:UP  17-08-19 15:48 OP:and  STATUS:               ID:20170819112741     3
 OLDACT:REG 17-08-19 15:09 OP:and  STATUS:               ID:20170819112741     3
 2017-08-19-1128-00M.COL___408                                                 6
 STAT SP IPHASW D HRMM SECON CODA AMPLIT PERI AZIMU VELO AIN AR TRES W  DIS CAZ7
 BAR2 EZ IP     D 1137  1.61                             171   -0.2810 22.0 191 
 BRR  HZ IP     D 1137  3.49                             152    0.0210 71.8 299 
 BRR  HE ES       1137 20.47                             152    0.4710 71.8 299 
 BRR  HZ I        1137 23.68        12.5 0.26            151           71.8 299 
 PAM  EZ IP     D 1137  4.64                             151    0.0810 78.4  39 
 PAM  EN ES       1137 21.68                             151   -0.2610 78.4  39 
 PAM  EZ I        1137 25.09         8.1 0.59            154           78.4  39 
 RUS  HZ EP       1137  5.55                             144   -0.3910 99.2 176 
 RUS  HN ES       1137 24.08                             144   -0.3110 99.2 176 
 RUS  HZ I        1137 26.34         4.6 0.20            146           99.2 176 
 TAM  HZ IP     C 1137 10.05                             131    0.13 9  155 105 
 TAM  HE ES       1137 31.54                             131    0.05 9  155 105 
 YPLC HZ EP       1137 12.07                             127    0.11 9  176 151 
 YPLC HN ES       1137 35.67                             127    0.56 9  176 151 
 YPLC HZ I        1137 36.98         9.6 0.24            130            176 151 
 ZAR  HZ EP   2   1137 15.04                             122    0.27 4  205 292 
 ZAR  HN ES       1137 40.06                             122   -0.07 9  205 292 
 ZAR  HZ I        1137 44.63         6.0 0.23            123            205 292 
 NOR  HZ EP       1137 18.12                             119    0.20 8  234 235 
 NOR  HN ES       1137 45.56                             119   -0.17 8  234 235 
 NOR  HZ I        1137 50.82         6.1 0.34            120            234 235 
 ROSC BZ EP   9   1137 21.78                             117    1.51 0  252 211 
 ROSC BN ES       1137 51.62                             117    0.20 8  252 211 
 HEL  HN ES   4   1137 56.84                             115    3.05 0  272 256 
 HEL  HZ I        1138  0.39         5.1 0.46            116            272 256 
 GUY2CHZ EP   4   1137 27.88                             112    2.08 0  300 235 
 GUY2CHN ES   4   1138  3.83                             112    4.09 0  300 235 
 GUY2CHZ I        1138  9.97         3.2 0.32                           300 235 
 PTGC HZ EP   3   1137 24.84                             112   -1.15 2  307 159 
                                                                                
