 2016 1219 1121  2.2 L   6.723 -73.230145.4  RSN  5 0.4 1.2LRSN                1
 GAP=211        1.00       7.7     7.1  8.0  0.2873E+02  0.8480E+01  0.3343E+01E
 Epicentro: VILLANUEVA - SANTANDER                                             3
 ACTION:UPD 17-01-11 20:16 OP:rebc STATUS:               ID:20161219112102 L   I
 OLDACT:REG 16-12-19 18:04 OP:edw  STATUS:               ID:20161219111743     3
 2016-12-19-1118-00M.COL___321                                                 6
 STAT SP IPHASW D HRMM SECON CODA AMPLIT PERI AZIMU VELO AIN AR TRES W  DIS CAZ7
 BAR2 EZ EP       1121 21.42                             174   -0.2210 15.4 160 
 BAR2 EZ ES       1121 36.74                             174   -0.0710 15.4 160 
 BAR2 EZ I        1121 37.93         4.9 0.15            171           15.4 160 
 BRR  HZ EP       1121 23.29                             153    0.1610 68.1 309 
 BRR  HN ES       1121 39.47                             153    0.0210 68.1 309 
 RUS  HZ EP       1121 26.08                             146    0.6910 93.2 170 
 RUS  HN ES       1121 43.25                             146   -0.2310 93.2 170 
 RUS  HZ I        1121 45.36         3.8 0.40            145           93.2 170 
 PTB  HZ EP       1121 27.40                             134   -0.77 9  137 262 
 PTB  HE ES       1121 48.72                             134    0.28 9  137 262 
 PTB  HZ I        1121 51.15         1.0 0.16            134            137 262 
 ZAR  HE ES   2   1121 59.38                             123    0.42 4  199 295 
                                                                                
