 2012  719 1754 44.3 L   7.217 -74.097  6.0  RSN  6 0.4 1.6LRSN                1
 GAP=107        1.06       3.7     2.6  9.6 -0.8526E+00 -0.4830E+01  0.1289E+02E
 Epicentro: PUERTO WILCHES - SANTANDER                                         3
 ACTION:UPD 12-08-14 11:45 OP:ep   STATUS:               ID:20120719175444 L   I
 2012-07-19-1750-00M.COL___201                                                 6
 STAT SP IPHASW D HRMM SECON CODA AMPLIT PERI AZIMU VELO AIN AR TRES W  DIS CAZ7
 BRR  HZ IP     D 1754 51.49                              93    -0.110   44 106 
 BRR  HZ I        1754 51.70        45.9 0.12             47             44 106 
 BRR  HE ES   1   1754 57.26                              93     0.0 7   44 106 
 PTB  HZ IP     D 1754 57.72                              91     0.010   85 208 
 PTB  HN ES   1   1755  7.75                              91    -0.5 7   85 208 
 PTB  HZ I        1755  8.74        12.3 0.12             47             85 208 
 ZAR  HZ EP       1754 58.62                              91     0.210   89 290 
 ZAR  HN ES   1   1755  9.24                              91    -0.2 7   89 290 
 ZAR  HZ I        1755 10.00        21.2 0.28             47             89 290 
 OCA  HN ES   1   1755 23.25                              91    -0.6 7  142  37 
 PAM  SZ EP       1755  9.28                              91     0.5 9  155  85 
 PAM  SN ES   2   1755 27.62                              91    -0.4 5  155  85 
 PAM  SZ I        1755 30.74         6.8 0.44             47            155  85 
 RUS  HZ IP     D 1755 13.68                              56     0.7 9  184 143 
 RUS  HE ES   1   1755 34.68                              56    -0.7 7  184 143 
 RUS  HZ I        1755 37.35         6.9 0.36             37            184 143 
