 2017 1219 1122 44.9 L   6.781 -73.176144.7  RSN  4 0.0 1.5LRSN                1
 GAP=142        0.28       2.5     1.5  2.7 -0.1233E+01  0.1492E+01 -0.1038E+01E
 Epicentro: LOS SANTOS - SANTANDER                                             3
 ACTION:UPD 18-01-04 13:22 OP:rebc STATUS:               ID:20171219112244 L   I
 OLDACT:UP  17-12-19 21:20 OP:dani STATUS:               ID:20171219111741     3
 OLDACT:REG 17-12-19 20:13 OP:dani STATUS:               ID:20171219111741     3
 2017-12-19-1118-00M.COL___461                                                 6
 STAT SP IPHASW D HRMM SECON CODA AMPLIT PERI AZIMU VELO AIN AR TRES W  DIS CAZ7
 BAR2 EZ EP       1123  4.36                             171    0.0310 20.9 182 
 BAR2 EZ ES       1123 19.51                             171    0.0110 20.9 182 
 BAR2 EZ I        1123 21.02         8.7 0.44            172           20.9 182 
 PAM  EZ EP       1123  7.23                             149    0.0310 81.1  40 
 PAM  EN ES       1123 24.57                             149   -0.0410 81.1  40 
 PAM  EZ I        1123 26.60         8.3 0.50            151           81.1  40 
 PTB  HZ EP       1123 11.36                             132   -0.06 9  144 259 
 PTB  HN ES       1123 32.12                             132   -0.01 9  144 259 
 PTB  HZ I        1123 33.97         1.8 0.28            134            144 259 
 ZAR  HE ES       1123 42.11                             122    0.03 9  202 293 
                                                                                
