 2010 1219 1838 58.5 L   6.844 -73.381120.2  RSN  5 0.3 1.7LRSN                1
 GAP=113        0.70       3.2     7.1  8.7 -0.6387E+01  0.2991E+02 -0.9811E+01E
 Epicentro: SAN VICENTE DE CHUCURI - SANTANDER                                 3
 ACTION:UP  11-01-14 15:26 OP:pat  STATUS:               ID:20101219183858 L   I
 2010-12-19-1835-39S.COL___133                                                 6
 STAT SP IPHASW D HRMM SECON CODA AMPLIT PERI AZIMU VELO SNR AR TRES W  DIS CAZ7
 BAR2 SZ IP       1839 15.55                             162     0.110   35 142 
 BAR2 SZ ES   1   1839 28.63                             162     0.0 7   35 142 
 RUS  HZ EP   1   1839 20.60                             134    -0.1 7  110 163 
 RUS  HE ES   1   1839 37.75                             134    -0.2 7  110 163 
 RUS  HZ I        1839 38.86         5.6 0.14                           110 163 
 GRA  SZ EP   1   1839 22.53                             129     0.4 7  132  29 
 GRA  SZ ES   1   1839 40.84                             129     0.3 7  132  29 
 GRA  SZ I        1839 46.55         6.2 0.32                           132  29 
 OCA  SZ EP   1   1839 24.26                             124    -0.1 7  154   3 
 OCA  SZ ES   1   1839 43.97                             124    -0.6 7  154   3 
 OCA  SZ I        1839 50.91        11.7 0.34                           154   3 
 HEL  HZ EP   2   1839 34.27                             111    -0.6 4  248 253 
 HEL  HN ES   2   1840  3.91                             111     0.8 4  248 253 
 HEL  HZ I        1840  8.33         5.7 0.38                           248 253 
                                                                                
