 2013  519 1856 10.6 L   6.713 -73.081146.0  RSN  5 0.4 2.6LRSN                1
 GAP=149        0.89       5.5     5.3  9.0 -0.7183E+01  0.7435E+01 -0.1050E+02E
 Epicentro: JORDAN - SANTANDER                                                 3
 ACTION:UPD 13-06-20 09:51 OP:ep   STATUS:               ID:20130519185610 L   I
 2013-05-19-1850-00M.COL___256                                                 6
 STAT SP IPHASW D HRMM SECON CODA AMPLIT PERI AZIMU VELO AIN AR TRES W  DIS CAZ7
 BAR2 SZ EP       1856 30.13                             173    0.0110 17.5 220 
 BAR2 SZ ES   1   1856 45.09                             173   -0.28 7 17.5 220 
 BAR2 SZ I        1856 46.04       113.4 0.36            173           17.5 220 
 PAM  SZ EP       1856 33.38                             150    0.3610 81.1  31 
 PAM  SN ES       1856 50.20                             150   -0.3410 81.1  31 
 PAM  SZ I        1856 52.16        90.8 0.50            152           81.1  31 
 BRR  HZ EP       1856 32.13                             149   -0.2610 82.2 302 
 BRR  HN ES   1   1856 50.31                             149    0.89 7 82.2 302 
 BRR  HZ I        1856 53.73        60.3 0.24            149           82.2 302 
 RUS  HE ES       1856 51.79                             147    0.1310 90.7 180 
 RUS  HZ I        1856 53.50        44.0 0.20            150           90.7 180 
 PTB  HE ES       1856 59.22                             131   -0.28 9  153 263 
 PTB  HZ I        1857  0.49        51.7 0.24            133            153 263 
                                                                                
