 2014 1219 1030 23.2 L   6.803 -73.136148.0  RSN  7 0.3 1.5LRSN                1
 GAP=153        0.76       5.7     4.2  5.7 -0.3804E+01  0.5284E+01 -0.7583E+01E
 Epicentro: LOS SANTOS - SANTANDER                                             3
 ACTION:UPD 15-02-10 17:05 OP:nd   STATUS:               ID:20141219103023 L   I
 OLDACT:REG 14-12-19 20:34 OP:spq  STATUS:               ID:20141219102746     3
 2014-12-19-1027-46M.COL___290                                                 6
 STAT SP IPHASW D HRMM SECON CODA AMPLIT PERI AZIMU VELO AIN AR TRES W  DIS CAZ7
 BAR2 EZ ES   1   1030 58.50         4.1 0.22            170   -0.17 7 23.9 192 
 BAR2 EZ I        1031  0.24         3.7 0.35            173           23.9 192 
 BRR  HZ EP       1030 44.85                             153    0.1810 72.0 298 
 BRR  HE ES       1031  1.75                             153    0.3710 72.0 298 
 BRR  HZ I        1031  5.92         7.0 0.14            148           72.0 298 
 PAM  SZ EP       1030 45.93                             152    0.3010 76.4  39 
 PAM  SN ES   1   1031  2.76                             152   -0.34 7 76.4  39 
 PAM  SZ I        1031  4.72         5.2 0.36            150           76.4  39 
 PTB  HZ EP       1030 50.11                             132   -0.37 9  149 259 
 PTB  HE ES   1   1031 11.36                             132   -0.38 7  149 259 
 PTB  HZ I        1031 13.48         3.2 0.16            133            149 259 
 ZAR  HZ EP       1030 56.31                             123    0.40 9  205 292 
 ZAR  HN ES       1031 21.50                             123    0.10 9  205 292 
 ZAR  HZ I        1031 27.41         3.5 0.26            123            205 292 
 SML  HZ EP       1030 59.56                             118   -0.44 8  244 335 
 SML  HE ES   1   1031 28.28                             118   -0.39 6  244 335 
 SML  HZ I        1031 37.70         3.9 0.10            118            244 335 
 SJC  HZ EP   4   1031 17.53                             106   -1.37 0  409 327 
 SJC  HN ES   4   1031 59.74                             106   -2.58 0  409 327 
 SJC  HZ I        1032  6.19         2.0 0.80            107            409 327 
                                                                                
