 2016 1119 1513 45.2 L   6.736 -73.119152.9  RSN  5 0.4 1.6LRSN                1
 GAP=169        0.99       8.5     4.9  7.2 -0.8652E+01  0.9297E+01 -0.1272E+01E
 Epicentro: JORDAN - SANTANDER                                                 3
 ACTION:UPD 17-10-26 21:09 OP:lp   STATUS:               ID:20161119151345 L   I
 OLDACT:REG 16-11-19 19:48 OP:edw  STATUS:               ID:20161119150749     3
 2016-11-19-1508-00M.COL___340                                                 6
 STAT SP IPHASW D HRMM SECON CODA AMPLIT PERI AZIMU VELO AIN AR TRES W  DIS CAZ7
 BAR2 EZ EP       1514  5.88                             173    0.3210 17.4 204 
 BAR2 EZ ES       1514 21.58                             173    0.1210 17.4 204 
 BAR2 EZ I        1514 22.57        10.1 0.50            176           17.4 204 
 BRR  HZ EP       1514  7.85                             152    0.4210 77.3 302 
 BRR  HN ES       1514 25.24                             152    0.4410 77.3 302 
 BRR  HZ I        1514 26.28        11.2 0.42            149           77.3 302 
 PAM  EZ EP       1514  8.45                             151    0.0810 81.2  35 
 PAM  EN ES       1514 25.86                             151   -0.6010 81.2  35 
 PAM  EZ I        1514 30.26         3.4 0.34            148           81.2  35 
 PTB  HZ EP       1514 12.69                             133   -0.19 9  149 262 
 PTB  HN ES       1514 33.86                             133   -0.63 9  149 262 
 PTB  HZ I        1514 34.54         3.3 0.50            134            149 262 
 ZAR  HZ EP       1514 18.30                             123   -0.34 8  210 294 
 ZAR  HE ES       1514 45.00                             123    0.24 8  210 294 
 ZAR  HZ I        1514 50.41         6.0 0.32            123            210 294 
                                                                                
