 2013  319 1144 33.7 L   6.764 -73.151147.5  RSN  9 0.5 2.6LRSN                1
 GAP=137        1.19       3.8     5.2  6.8  0.9446E+00  0.9042E+01  0.1625E+01E
 Epicentro: LOS SANTOS - SANTANDER                                             3
 ACTION:UPD 13-04-09 14:03 OP:ep   STATUS:               ID:20130319114433 L   I
 2013-03-19-1140-00M.COL___244                                                 6
 STAT SP IPHASW D HRMM SECON CODA AMPLIT PERI AZIMU VELO AIN AR TRES W  DIS CAZ7
 BAR2 SZ EP       1144 53.53                             172    0.0510 19.4 190 
 BAR2 SZ ES       1145  8.58                             172   -0.3210 19.4 190 
 BAR2 SZ I        1145 12.26        41.5 0.42            170           19.4 190 
 BRR  HZ EP       1144 55.64                             152    0.5110 72.7 301 
 BRR  HN ES       1145 12.82                             152    0.9810 72.7 301 
 BRR  HN I        1145 13.32        98.8 0.20            143           72.7 301 
 PAM  SZ IP     C 1144 56.74                             150    0.4210 80.8  38 
 PAM  SE ES       1145 13.66                             150   -0.3010 80.8  38 
 PAM  SE I        1145 16.67        55.4 0.50            146           80.8  38 
 RUS  HZ IP     D 1144 57.25                             145   -0.1110 96.7 176 
 RUS  HE ES       1145 15.73                             145   -0.0810 96.7 176 
 RUS  HE I        1145 16.68        23.3 0.42            141           96.7 176 
 PTB  HZ EP       1145  0.17                             133   -0.54 9  146 260 
 PTB  HN ES       1145 21.00                             133   -0.77 9  146 260 
 PTB  HN I        1145 26.25        48.5 0.36            124            146 260 
 OCA  HN EP   1   1145  2.69                             129    0.17 7  164 354 
 OCA  HN ES       1145 24.41                             129   -0.58 9  164 354 
 OCA  HN I        1145 27.20        84.7 0.26            122            164 354 
 ZAR  HZ EP       1145  6.74                             123    0.37 9  205 293 
 ZAR  HE ES       1145 32.20                             123    0.35 9  205 293 
 ZAR  HE I        1145 37.30        83.3 0.48            115            205 293 
 CHI  HZ EP       1145 11.01                             118   -0.07 8  245 195 
 CHI  HN ES       1145 40.70                             118    0.47 8  245 195 
 CHI  HN I        1145 45.85        19.2 0.48            112            245 195 
 HEL  HZ IP   4 C 1145 15.15                             115    1.30 0  271 257 
 HEL  HE ES   4   1145 48.81                             115    3.65 0  271 257 
 HEL  HE I   L4   1145 52.27        18.5 0.52            115    7.11 0  271 257 
 URE  HZ EP       1145 14.29                             114   -0.68 7  285 293 
 URE  HN I        1145 58.55        28.6 0.28            107            285 293 
                                                                                
