 2017  219 1008 54.7 L   6.810 -73.101150.6  RSN  4 0.3 1.0LRSN                1
 GAP=243        0.80       6.7     6.7  7.5  0.2248E+02 -0.6007E+01 -0.4053E+01E
 Epicentro: LOS SANTOS - SANTANDER                                             3
 ACTION:UPD 17-05-24 15:38 OP:jn   STATUS:               ID:20170219100854 L   I
 OLDACT:REG 17-02-19 20:42 OP:cog  STATUS:               ID:20170219100741     3
 2017-02-19-1008-00M.COL___343                                                 6
 STAT SP IPHASW D HRMM SECON CODA AMPLIT PERI AZIMU VELO AIN AR TRES W  DIS CAZ7
 BAR2 EZ EP       10 9 14.37                             170   -0.5610 25.7 200 
 BAR2 EZ ES       10 9 30.53                             170   -0.2010 25.7 200 
 BRR  HZ EP       10 9 16.77                             152    0.2110 75.0 296 
 BRR  HN ES       10 9 33.91                             152    0.2810 75.0 296 
 BRR  HZ I        1010  0.48         3.8 0.46            148           75.0 296 
 RUS  HZ EP       10 9 19.22                             144    0.2610  102 179 
 RUS  HN ES       10 9 38.10                             144    0.1910  102 179 
 RUS  HZ I        10 9 38.54         0.9 0.32            172            102 179 
 PTB  HN ES       10 9 43.97                             132   -0.21 9  153 259 
 PTB  HZ I        10 9 47.20         0.8 0.50            142            153 259 
                                                                                
