 2013  319 1547 10.8 L   6.769 -73.146150.9  RSN  5 0.4 2.1LRSN                1
 GAP=138        1.03       5.7     5.5  7.6 -0.2957E+01  0.4731E+01  0.1615E+01E
 Epicentro: LOS SANTOS - SANTANDER                                             3
 ACTION:UPD 13-04-09 14:03 OP:ep   STATUS:               ID:20130319154710 L   I
 2013-03-19-1540-00M.COL___244                                                 6
 STAT SP IPHASW D HRMM SECON CODA AMPLIT PERI AZIMU VELO AIN AR TRES W  DIS CAZ7
 BAR2 SZ EP       1547 30.90                             172   -0.0410 19.9 192 
 BAR2 SZ ES       1547 46.32                             172   -0.3710 19.9 192 
 BAR2 SZ I        1547 48.61        27.0 0.44            171           19.9 192 
 BRR  HZ IP     C 1547 32.75                             153    0.2010 72.9 301 
 BRR  HE ES       1547 50.39                             153    0.8410 72.9 301 
 BRR  HE I        1547 50.75        35.8 0.42            152           72.9 301 
 PAM  SZ EP       1547 33.65                             151   -0.0310 80.1  38 
 PAM  SE ES       1547 51.19                             151   -0.3710 80.1  38 
 PAM  SE I        1547 52.38         8.1 0.42            154           80.1  38 
 RUS  HZ EP       1547 34.95                             146    0.1710 97.1 176 
 RUS  HE ES       1547 53.77                             146    0.2610 97.1 176 
 RUS  HE I        1547 54.47        19.3 0.46            147           97.1 176 
 PTB  HZ EP       1547 37.99                             133   -0.10 9  147 260 
 PTB  HN ES       1547 58.75                             133   -0.65 9  147 260 
 PTB  HN I        1548  4.46        36.3 0.34            133            147 260 
                                                                                
