 2014  719 1147 26.3 L   6.846 -73.097138.3  RSN  5 0.4 1.7LRSN                1
 GAP=225        1.02       4.8     6.8  8.9  0.5350E+00  0.1096E+02 -0.1379E+02E
 Epicentro: LOS SANTOS - SANTANDER                                             3
 ACTION:UPD 15-03-16 20:45 OP:nd   STATUS:               ID:20140719114726 L   I
 OLDACT:REG 14-07-19 21:02 OP:stll STATUS:               ID:20140719113818     3
 2014-07-19-1138-18M.COL___269                                                 6
 STAT SP IPHASW D HRMM SECON CODA AMPLIT PERI AZIMU VELO AIN AR TRES W  DIS CAZ7
 BAR2 SZ EP       1147 45.57                             167    0.3510 29.6 199 
 BAR2 SZ ES       1147 59.78                             167   -0.1710 29.6 199 
 BAR2 SZ I        1148  2.63        10.9 0.40            167           29.6 199 
 PTB  HZ EP       1147 52.66                             129   -0.64 9  154 257 
 PTB  HN ES       1148 13.98                             129   -0.36 9  154 257 
 PTB  HZ I        1148 16.84         5.4 0.28            129            154 257 
 SPBC HZ EP       1147 54.69                             126   -0.30 9  171 219 
 SPBC HE ES       1148 17.89                             126    0.54 9  171 219 
 SPBC HZ I        1148 24.15         5.0 0.24            128            171 219 
 ZAR  HN ES       1148 24.37                             120    0.53 8  207 290 
 ZAR  HZ I        1148 30.91         4.5 0.36            121            207 290 
 SML  HZ EP       1148  2.77                             116    0.46 8  241 334 
 SML  HN ES       1148 30.06                             116   -0.30 8  241 334 
 SML  HZ I        1148 37.82         4.0 0.10            117            241 334 
                                                                                
