 2013  919 1241 47.0 L   6.769 -73.141142.8  RSN  6 0.5 2.0LRSN                1
 GAP=201        1.08       6.0     7.7  8.1  0.1886E+02  0.7851E+01 -0.1848E+02E
 Epicentro: LOS SANTOS - SANTANDER                                             3
 ACTION:UPD 13-10-22 09:23 OP:ep   STATUS:               ID:20130919124147 L   I
 OLDACT:REG 13-09-19 17:11 OP:carl STATUS:               ID:20130919123959     3
 2013-09-19-1239-59M.COL___269                                                 6
 STAT SP IPHASW D HRMM SECON CODA AMPLIT PERI AZIMU VELO AIN AR TRES W  DIS CAZ7
 BAR2 SZ EP       1242  6.31                             172    0.1110 20.1 193 
 BAR2 SZ ES       1242 20.82                             172   -0.3610 20.1 193 
 BAR2 SZ I        1242 22.33        17.6 0.22            173           20.1 193 
 BRR  HZ EP       1242  8.51                             151    0.5710 73.3 301 
 BRR  HN ES       1242 24.53                             151    0.2510 73.3 301 
 BRR  HZ I        1242 26.34        12.3 0.22            149           73.3 301 
 RUS  HN ES       1242 28.44                             144    0.1410 97.2 176 
 RUS  HN I        1242 30.26        26.2 0.32            148           97.2 176 
 PTB  HZ EP       1242 13.21                             131   -0.49 9  148 260 
 PTB  HN ES   1   1242 33.67                             131   -0.87 7  148 260 
 PTB  HZ I        1242 34.54         8.5 0.28            132            148 260 
 ZAR  HZ EP       1242 19.86                             121    0.44 8  206 293 
 ZAR  HN ES       1242 45.29                             121    0.56 8  206 293 
 ZAR  HZ I        1242 54.18         9.4 0.24            122            206 293 
 SML  HZ EP       1242 23.33                             116   -0.47 8  247 336 
 SML  HN ES       1242 52.07                             116   -0.45 8  247 336 
 SML  HZ I        1242 58.97        14.1 0.26            117            247 336 
                                                                                
