 2012  519 1621  8.2 L   6.808 -73.182136.3  RSN  6 0.4 1.6LRSN                1
 GAP=132        0.96       4.5     5.8 10.8 -0.1481E+01  0.2069E+02 -0.4496E+01E
 Epicentro: LOS SANTOS - SANTANDER                                             3
 ACTION:UP  12-07-05 12:06 OP:pat  STATUS:               ID:20120519162108 L   I
 2012-05-19-1620-00M.COL___200                                                 6
 STAT SP IPHASW D HRMM SECON CODA AMPLIT PERI AZIMU VELO SNR AR TRES W  DIS CAZ7
 BAR2 SZ EP   1   1621 26.66                             169    -0.1 8   24 180 
 BAR2 SZ ES   1   1621 40.87                             169    -0.3 8   24 180 
 BAR2 SZ I        1621 43.22        11.5 0.28                            24 180 
 PAM  SZ EP   1   1621 30.00                             148     0.5 8   79  42 
 PAM  SN ES   1   1621 46.83                             148     0.6 8   79  42 
 RUS  HZ EP   1   1621 31.06                             141    -0.1 8  102 174 
 RUS  HN ES   1   1621 48.95                             141    -0.1 8  102 174 
 RUS  HZ I        1621 50.38         5.0 0.45                           102 174 
 PTB  HZ EP   1   1621 33.80                             131    -0.3 8  144 258 
 PTB  HN ES   1   1621 54.44                             131     0.2 8  144 258 
 PTB  HZ I        1621 57.06         5.5 0.16                           144 258 
 OCA  HN ES       1621 56.42                             128    -0.710  159 355 
 ZAR  HE ES   1   1622  4.72                             121     0.6 7  200 292 
                                                                                
