 2010  919 1511 22.7 L   6.745 -73.097143.5  RSN 15 0.4 2.8LRSN                1
 GAP=162        0.88       3.0     5.2  5.1 -0.5890E+01  0.7822E+01  0.1670E+01E
 Epicentro: JORDAN - SANTANDER                                                 3
 ACTION:UP  11-02-18 11:03 OP:tino STATUS:               ID:20100919151122 L   I
 2010-09-19-1509-11S.COL___121                                                 6
 STAT SP IPHASW D HRMM SECON CODA AMPLIT PERI AZIMU VELO SNR AR TRES W  DIS CAZ7
 BAR2 SZ IP     C 1511 42.04                             172     0.010   19 209 
 BAR2 SZ I        1511 42.30       109.2 0.19                            19 209 
 BAR2 SZ ES   1   1511 56.91                             172    -0.1 7   19 209 
 GIR2 SZ IP       1511 42.32                             164     0.010   38 344 
 GIR2 SZ ES   1   1511 57.20                             164    -0.4 7   38 344 
 BRR  HZ IP     D 1511 44.09                             150     0.010   79 301 
 BRR  HZ I        1511 44.52       178.3 0.13                            79 301 
 BRR  HN ES   1   1512  1.34                             150     0.6 7   79 301 
 RUS  HZ IP     D 1511 45.76                             145     0.010   94 179 
 RUS  HN ES   1   1512  3.68                             145    -0.1 7   94 179 
 RUS  HZ I        1512  5.59       121.1 0.37                            94 179 
 BRI  SZ EP       1511 46.99                             140     0.310  112  17 
 GRA  SZ IP       1511 48.30                             135     0.210  130  14 
 GRA  SZ ES   1   1512  8.53                             135     0.6 7  130  14 
 GRA  SZ I        1512 15.13        60.3 0.31                           130  14 
 OCA  SZ EP       1511 51.04                             128    -0.4 9  167 352 
 OCA  SZ ES   1   1512 13.11                             128    -0.8 7  167 352 
 OCA  SZ I        1512 17.44        90.1 0.60                           167 352 
 NOR  HZ EP   1   1511 57.66                             118    -0.8 6  236 237 
 CHI  HZ EP       1511 59.84                             117     0.0 8  244 197 
 CHI  HN ES   1   1512 28.73                             117     0.0 6  244 197 
 CHI  HZ I        1512 31.96        19.4 0.33                           244 197 
 ROSC BZ EP   1   1512  0.44                             116     0.0 6  250 213 
 ROSC BE ES   1   1512 29.54                             116    -0.4 6  250 213 
 ROSC BZ I        1512 36.84        26.4 0.42                           250 213 
 HEL  HZ EP       1512  3.56                             114     0.3 7  276 257 
 HEL  HN ES   1   1512 35.38                             114     0.5 6  276 257 
 HEL  HZ I        1512 41.32        36.0 0.47                           276 257 
 GUY  SZ EP       1512  6.71                             112     0.4 7  302 236 
 RREF HZ EP       1512  9.05                             110     0.3 7  322 231 
 RREF HN ES   1   1512 44.34                             110    -0.4 5  322 231 
 RREF HZ I        1512 51.39        46.1 0.26                           322 231 
 TOL  SZ EP       1512 11.10                             109     0.3 7  343 226 
 DBB  SZ EP       1512 10.09                             109    -0.7 7  345 275 
                                                                                
