 2012  519 1854 35.8 L   6.782 -73.147151.6  RSN 10 0.4 2.2LRSN                1
 GAP=137        0.94       5.4     5.5  7.5 -0.3888E+00  0.9369E+01 -0.1787E+01E
 Epicentro: LOS SANTOS - SANTANDER                                             3
 ACTION:UP  12-07-05 12:06 OP:pat  STATUS:               ID:20120519185435 L   I
 2012-05-19-1850-00M.COL___200                                                 6
 STAT SP IPHASW D HRMM SECON CODA AMPLIT PERI AZIMU VELO SNR AR TRES W  DIS CAZ7
 BAR2 SZ EP   1   1854 56.22                             172     0.1 7   21 191 
 BAR2 SZ ES   1   1855 11.64                             172    -0.3 7   21 191 
 BAR2 SZ I        1855 12.99        35.8 0.30                            21 191 
 BRR  HZ EP   1   1854 58.07                             153     0.5 7   72 300 
 BRR  HZ I        1854 58.49        47.3 0.12                            72 300 
 BRR  HN ES   1   1855 15.54                             153     0.9 7   72 300 
 PAM  SZ EP   1   1854 58.97                             151     0.2 7   79  39 
 PAM  SN ES   1   1855 16.22                             151    -0.4 7   79  39 
 RUS  HZ EP   1   1855  0.10                             145     0.1 7   99 176 
 RUS  HN ES   1   1855 18.72                             145    -0.1 7   99 176 
 RUS  HZ I        1855 20.14        15.2 0.41                            99 176 
 PTB  HZ EP   1   1855  2.69                             133    -0.5 7  147 260 
 PTB  HN ES   1   1855 24.27                             133    -0.3 7  147 260 
 PTB  HZ I        1855 26.23        14.4 0.15                           147 260 
 OCA  HE ES   2   1855 26.68                             130    -0.6 5  162 353 
 OCA  HZ I        1855 29.50        23.2 0.21                           162 353 
 ZAR  HN ES   1   1855 33.96                             123    -0.4 6  205 293 
 HEL  HZ EP   1   1855 16.67                             116     0.4 6  271 256 
 HEL  HZ I        1855 53.63         8.8 0.28                           271 256 
 RREF HZ EP   2   1855 21.63                             112    -0.4 3  320 230 
 RREF HZ I        1856  8.66        12.6 0.37                           320 230 
 COD  HZ EP   1   1855 24.58                             110     0.0 5  350 355 
 COD  HZ I        1855 25.32         2.6 0.33                           350 355 
                                                                                
