 2016  619 1928 25.5 L   6.800 -73.158141.6  RSN  8 0.4 1.8LRSN                1
 GAP=135        0.97       3.7     4.5  6.4 -0.3282E+01  0.5093E+01 -0.2245E+01E
 Epicentro: LOS SANTOS - SANTANDER                                             3
 ACTION:UPD 16-07-21 22:20 OP:rebc STATUS:               ID:20160619192825 L   I
 OLDACT:REG 16-06-19 20:23 OP:mh   STATUS:               ID:20160619192749     3
 2016-06-19-1927-49M.COL___349                                                 6
 STAT SP IPHASW D HRMM SECON CODA AMPLIT PERI AZIMU VELO AIN AR TRES W  DIS CAZ7
 BAR2 EZ EP       1928 44.67                             170   -0.0010 23.1 187 
 BAR2 EZ ES       1928 59.27                             170   -0.3210 23.1 187 
 BAR2 EZ I        1929  1.10        13.9 0.37                          23.1 187 
 BRR  HZ EP       1928 46.63                             152    0.4510 70.0 299 
 BRR  HN ES       1929  2.67                             152    0.4010 70.0 299 
 BRR  HZ I        1929  6.86        12.2 0.64                          70.0 299 
 PAM  EZ EP       1928 47.67                             150    0.2910 78.3  40 
 PAM  EN ES       1929  4.62                             150    0.2210 78.3  40 
 PAM  EZ I        1929  6.78        18.4 0.48                          78.3  40 
 RUS  HZ EP   1   1928 48.02                             143   -0.88 7  101 175 
 RUS  HN ES   1   1929  7.48                             143    0.37 7  101 175 
 RUS  HZ I        1929  8.48         7.6 0.30                           101 175 
 PTB  HZ EP   1   1928 51.81                             131   -0.24 7  146 259 
 PTB  HN ES       1929 12.09                             131   -0.64 9  146 259 
 PTB  HZ I        1929 15.24         4.6 0.16                           146 259 
 OCA  HZ EP       1928 53.24                             129   -0.28 9  160 354 
 OCA  HE ES       1929 14.82                             129   -0.53 9  160 354 
 OCA  HZ I        1929 18.13        14.1 0.18                           160 354 
 SPBC HZ EP   1   1928 54.04                             128    0.39 7  162 219 
 SPBC HN ES   1   1929 15.75                             128    0.19 7  162 219 
 SPBC HZ I        1929 19.29        10.6 0.11                           162 219 
 ZAR  HZ EP   1   1928 58.07                             122    0.48 6  203 292 
 ZAR  HN ES   1   1929 22.93                             122    0.34 6  203 292 
 ZAR  HZ I        1929 29.74         6.2 0.30                           203 292 
                                                                                
