 2014 1119 1415 48.5 L   5.941 -73.736106.7  RSN  4 0.5 1.2LRSN                1
 GAP=135        1.25       9.1     5.9 15.2  0.1397E+02  0.3270E+02  0.3035E+02E
 Epicentro: GUAVATA - SANTANDER                                                3
 ACTION:UPD 14-12-19 15:44 OP:nd   STATUS:               ID:20141119141548 L   I
 OLDACT:ARG 14-11-19 20:27 OP:stll STATUS:               ID:20141119140745     3
 2014-11-19-1407-45M.COL___286                                                 6
 STAT SP IPHASW D HRMM SECON CODA AMPLIT PERI AZIMU VELO AIN AR TRES W  DIS CAZ7
 SPBC HZ EP       1416  3.74                             153   -0.6110 49.0 229 
 RUS  HZ EP       1416  7.32                             144    0.8910 72.5  94 
 RUS  HN ES       1416 20.37                             144   -0.0110 72.5  94 
 RUS  HZ I        1416 23.02         1.7 0.24            148           72.5  94 
 BAR2 SZ EP       1416  7.69                             135   -0.1410 94.6  40 
 BAR2 SZ ES       1416 22.50                             135   -0.3810 94.6  40 
 BAR2 SZ I        1416 24.05         9.0 0.22            140           94.6  40 
 PTB  HZ EP       1416  8.08                             132   -0.2410  104 310 
 PTB  HN ES       1416 24.24                             132    0.4910  104 310 
 PTB  HZ I        1416 25.40         3.2 0.12            137            104 310 
                                                                                
