 2012  719 1858 56.9 L   7.194 -74.094  4.0  RSN  4 0.2 1.5LRSN                1
 GAP=235        0.60      10.3     5.8  9.6 -0.5570E+02 -0.4710E+02  0.8721E+02E
 Epicentro: PUERTO WILCHES - SANTANDER                                         3
 ACTION:UPD 12-08-14 11:45 OP:ep   STATUS:               ID:20120719185856 L   I
 2012-07-19-1850-00M.COL___201                                                 6
 STAT SP IPHASW D HRMM SECON CODA AMPLIT PERI AZIMU VELO AIN AR TRES W  DIS CAZ7
 BRR  HZ IP     D 1859  3.80                              47    -0.210   43 103 
 BRR  HZ I        1859  4.04        48.3 0.12             47             43 103 
 BRR  HE ES   1   1859  9.49                              47    -0.1 7   43 103 
 PTB  HZ EP       1859 10.01                              47     0.010   83 209 
 PTB  HN ES   1   1859 20.08                              47    -0.2 7   83 209 
 PTB  HZ I        1859 21.13        11.1 0.12             47             83 209 
 PAM  SZ EP       1859 21.58                              47     0.1 9  155  84 
 PAM  SN ES   2   1859 40.32                              47    -0.3 5  155  84 
 PAM  SZ I        1859 42.87         6.1 0.48             47            155  84 
 RUS  HZ EP       1859 25.89                              37     0.4 9  182 142 
 RUS  HZ I        1859 26.23         5.2 0.26             47            182 142 
 RUS  HN ES   1   1859 47.95                              37     0.1 7  182 142 
