 2013 1219 1652 16.4 L   6.791 -73.211132.2  RSN  9 0.5 1.8LRSN                1
 GAP=129        1.25       5.5     5.3  9.2 -0.4059E+01  0.2213E+02 -0.5072E+01E
 Epicentro: ZAPATOCA - SANTANDER                                               3
 ACTION:UPD 14-01-13 10:19 OP:ep   STATUS:               ID:20131219165216 L   I
 OLDACT:REG 13-12-19 14:47 OP:nd   STATUS:               ID:20131219165000     3
 2013-12-19-1650-00M.COL___285                                                 6
 STAT SP IPHASW D HRMM SECON CODA AMPLIT PERI AZIMU VELO AIN AR TRES W  DIS CAZ7
 BAR2 SZ EP       1652 34.57                             170    0.1810 22.2 172 
 BAR2 SZ ES       1652 49.38                             170    0.9710 22.2 172 
 BAR2 SZ I        1652 50.55        26.8 0.30            171           22.2 172 
 BRR  HZ EP       1652 36.29                             152    0.5210 65.5 302 
 BRR  HN ES   4   1652 52.91                             152    2.03 0 65.5 302 
 BRR  HZ I        1652 56.69        15.9 0.38            153           65.5 302 
 PAM  SZ EP       1652 37.55                             146   -0.0210 82.9  43 
 PAM  SN ES       1652 53.63                             146   -0.4410 82.9  43 
 PAM  SZ I        1652 56.47         9.1 0.54            152           82.9  43 
 RUS  HZ EP       1652 38.71                             141   -0.1310  100 172 
 RUS  HN ES       1652 55.60                             141   -0.7310  100 172 
 RUS  HZ I        1652 59.22         5.5 0.18            146            100 172 
 PTB  HZ EP       1652 41.22                             130   -0.41 9  141 259 
 PTB  HN ES       1653  1.10                             130   -0.19 9  141 259 
 PTB  HZ I        1653  3.27         7.6 0.46            134            141 259 
 ZAR  HZ EP       1652 47.90                             120    0.55 9  198 293 
 ZAR  HN ES       1653 10.77                             120   -0.71 9  198 293 
 ZAR  HZ I        1653 14.73         9.2 0.24            124            198 293 
 NOR  HZ EP       1652 50.87                             116    0.18 8  228 234 
 NOR  HN ES       1653 17.68                             116    0.26 8  228 234 
 NOR  HZ I        1653 20.77         4.0 0.42            120            228 234 
 GUY2CHZ EP   4   1653  0.49                             110    1.80 0  295 234 
 GUY2CHN ES   4   1653 32.68                             110    1.01 0  295 234 
 GUY2CHZ I        1653 42.85         2.1 0.48                           295 234 
 SJC  HZ EP   4   1653  8.94                             104   -2.26 0  406 328 
 SJC  HN ES   4   1653 48.85                             104   -5.08 0  406 328 
 SJC  HZ I        1653 50.32         1.6 0.76            107            406 328 
                                                                                
