 2016  619 1424 56.7 L   6.634 -73.617 98.8  RSN  7 0.5 1.5LRSN                1
 GAP=107        1.10       5.0     5.4  8.6 -0.7909E+01  0.1383E+02  0.7221E+01E
 Epicentro: EL CARMEN - SANTANDER                                              3
 ACTION:UPD 16-07-21 22:20 OP:rebc STATUS:               ID:20160619142456 L   I
 OLDACT:UP  16-06-20 00:39 OP:dani STATUS:               ID:20160619141740     3
 OLDACT:UP  16-06-20 00:33 OP:dani STATUS:               ID:20160619141740     3
 OLDACT:UP  16-06-20 00:32 OP:dani STATUS:               ID:20160619141740     3
 OLDACT:REG 16-06-19 19:49 OP:mh   STATUS:               ID:20160619141740     3
 2016-06-19-1417-40M.COL___349                                                 6
 STAT SP IPHASW D HRMM SECON CODA AMPLIT PERI AZIMU VELO AIN AR TRES W  DIS CAZ7
 BAR2 EZ EP       1425 11.74                             152   -0.0910 48.2  95 
 BAR2 EZ ES       1425 24.23                             152    0.6110 48.2  95 
 BAR2 EZ I        1425 26.12        31.0 0.32                          48.2  95 
 BRR  HZ EP       1425 11.12                             149   -0.6710 53.4 349 
 BRR  HZ I        1425 22.82         6.7 0.36                          53.4 349 
 BRR  HN ES       1425 23.69                             149    0.1310 53.4 349 
 PTB  HZ EP   9   1425 13.36                             133   -1.56 0 93.4 264 
 PTB  HE ES       1425 27.18                             133   -0.3810 93.4 264 
 PTB  HZ I        1425 33.59         5.0 0.26                          93.4 264 
 RUS  HE ES   2   1425 30.96                             131   -0.54 5  101 144 
 SPBC HN ES       1425 33.39                             126   -0.3610  120 205 
 NOR  HE ES       1425 45.64                             114    0.02 9  182 230 
 HEL  HZ EP       1425 29.26                             110    0.69 8  217 257 
 HEL  HE ES   4   1425 55.13                             110    1.72 0  217 257 
 HEL  HZ I        1425 57.96         3.5 0.48                           217 257 
                                                                                
