 2013  219 1934 58.3 L   6.766 -73.160146.3  RSN  6 0.4 1.8LRSN                1
 GAP=136        0.85       4.0     4.1  7.9  0.2262E+00  0.7105E+01 -0.1273E+01E
 Epicentro: LOS SANTOS - SANTANDER                                             3
 ACTION:UPD 13-03-12 09:34 OP:ep   STATUS:               ID:20130219193458 L   I
 2013-02-19-1930-00M.COL___241                                                 6
 STAT SP IPHASW D HRMM SECON CODA AMPLIT PERI AZIMU VELO AIN AR TRES W  DIS CAZ7
 BRR  HZ EP       1935 19.59                             153    0.0910 71.7 302 
 BRR  HN ES   1   1935 36.72                             153    0.66 7 71.7 302 
 BRR  HN I        1935 40.31        23.1 0.18            153           71.7 302 
 PAM  SZ EP       1935 20.70                             150   -0.0810 81.3  39 
 PAM  SN ES       1935 37.99                             150   -0.3410 81.3  39 
 PAM  SN I        1935 38.49        10.8 0.48            155           81.3  39 
 RUS  HZ EP       1935 22.17                             145    0.3610 96.9 175 
 RUS  HN ES       1935 40.34                             145    0.1610 96.9 175 
 RUS  HN I        1935 41.91         6.2 0.32            148           96.9 175 
 PTB  HZ EP       1935 24.80                             133   -0.27 9  145 260 
 PTB  HN ES       1935 45.37                             133   -0.61 9  145 260 
 PTB  HN I        1935 50.49         9.0 0.18            134            145 260 
 ZAR  HN ES   1   1935 56.36                             122    0.29 6  204 293 
 SML  HN ES   1   1936  4.31                             117    0.26 6  246 336 
                                                                                
