 2012  719 1855 18.5 L   6.742 -73.169149.3  RSN  5 0.5 1.7LRSN                1
 GAP=136        1.04       7.3     6.9 11.4  0.7006E+00 -0.2964E+01 -0.1500E+00E
 Epicentro: VILLANUEVA - SANTANDER                                             3
 ACTION:UPD 12-08-14 11:45 OP:ep   STATUS:               ID:20120719185518 L   I
 2012-07-19-1850-00M.COL___201                                                 6
 STAT SP IPHASW D HRMM SECON CODA AMPLIT PERI AZIMU VELO AIN AR TRES W  DIS CAZ7
 BRR  HZ IP     C 1855 40.25                             152     0.210   72 304 
 BRR  HZ I        1855 40.50        25.9 0.32            150             72 304 
 BRR  HE ES   1   1855 57.54                             152     0.6 7   72 304 
 PAM  SZ EP       1855 41.24                             149    -0.210   84  38 
 PAM  SZ I        1855 41.53         7.9 0.42            155             84  38 
 PAM  SN ES   2   1855 58.91                             149    -0.5 5   84  38 
 RUS  HZ EP       1855 42.61                             146     0.410   94 174 
 RUS  HN ES   1   1856  0.11                             146    -0.5 7   94 174 
 RUS  HZ I        1856  1.93         5.6 0.36            147             94 174 
 PTB  HZ EP       1855 45.25                             133    -0.2 9  144 261 
 PTB  HN ES   1   1856  6.36                             133    -0.1 7  144 261 
 PTB  HZ I        1856 13.77         2.7 0.20            132            144 261 
 ZAR  HN ES   3   1856 14.58                             123    -2.1 2  204 294 
