 2011 1019 1945 52.4 L   6.793 -73.156138.6  RSN  7 0.2 1.8LRSN                1
 GAP=136        0.43       2.6     2.7  3.8  0.4546E+00  0.2844E+01 -0.6930E-01E
 Epicentro: LOS SANTOS - SANTANDER                                             3
 ACTION:UPD 12-07-13 16:04 OP:ep   STATUS:               ID:20111019194552 L   I
 2011-10-19-1943-37S.COL___168                                                 6
 STAT SP IPHASW D HRMM SECON CODA AMPLIT PERI AZIMU VELO AIN AR TRES W  DIS CAZ7
 BAR2 SZ EP   1   1946 11.00                             170   -0.11 7 22.4 187 
 BAR2 SZ ES   1   1946 25.88                             170    0.15 7 22.4 187 
 BAR2 SZ I        1946 27.34        26.6 0.15                          22.4 187 
 BRR  HZ EP   1   1946 12.91                             151    0.21 7 70.5 300 
 BRR  HZ I        1946 13.43        17.2 0.10                          70.5 300 
 BRR  HN ES   1   1946 28.22                             151   -0.34 7 70.5 300 
 PAM  SZ EP       1946 14.02                             149    0.1210 78.7  40 
 PAM  SN ES   1   1946 30.62                             149   -0.08 7 78.7  40 
 PAM  SZ I        1946 32.50         4.0 0.17                          78.7  40 
 RUS  HZ EP   1   1946 15.04                             142   -0.32 7 99.9 175 
 RUS  HN ES   1   1946 33.47                             142    0.17 7 99.9 175 
 RUS  HZ I        1946 34.44         6.0 0.20                          99.9 175 
 ZAR  HZ EP   1   1946 24.13                             121   -0.13 6  203 292 
 ZAR  HN ES   1   1946 49.39                             121    0.24 6  203 292 
 ZAR  HZ I        1946 55.14        11.9 0.25                           203 292 
 NOR  SZ EP   2   1946 27.68                             117    0.15 4  233 234 
 RREF HN ES   2   1947 13.53                             109   -0.14 3  320 229 
 RREF HZ I        1947 23.27         6.1 0.34                           320 229 
                                                                                
