 2016  719 1254  5.7 L   6.796 -73.093144.8  RSN 10 0.4 1.9LRSN                1
 GAP=243        0.98       4.2     5.7  6.3  0.7459E+01  0.1287E+02  0.8335E+01E
 Epicentro: LOS SANTOS - SANTANDER                                             3
 ACTION:UPD 17-03-29 16:52 OP:lp   STATUS:               ID:20160719125405 L   I
 OLDACT:REG 16-07-19 20:04 OP:lv   STATUS:               ID:20160719124759     3
 2016-07-19-1247-59S.COL___339                                                 6
 STAT SP IPHASW D HRMM SECON CODA AMPLIT PERI AZIMU VELO AIN AR TRES W  DIS CAZ7
 BAR2 EZ EP       1254 25.08                             170   -0.1810 24.6 204 
 BAR2 EZ ES       1254 40.25                             170   -0.2510 24.6 204 
 BRR  HZ EP       1254 26.85                             151   -0.2310 76.6 297 
 BRR  HE ES       1254 44.33                             151    0.5910 76.6 297 
 BRR  HZ I        1254 48.25        18.3 0.44            147           76.6 297 
 RUS  HZ EP       1254 28.98                             144   -0.3510 99.9 179 
 RUS  HE ES       1254 47.93                             144    0.1910 99.9 179 
 RUS  HZ I        1254 48.99         8.1 0.21            145           99.9 179 
 SPBC HZ EP   2   1254 34.15                             128   -0.32 5  167 221 
 SPBC HN ES   4   1254 56.07                             128   -0.82 0  167 221 
 SPBC HZ I        1254 57.48        11.2 0.13            128            167 221 
 ZAR  HZ EP       1254 39.68                             121    0.99 8  210 292 
 ZAR  HN ES       1255  3.83                             121   -0.56 8  210 292 
 ZAR  HZ I        1255  9.30         5.3 0.18            121            210 292 
 NOR  HZ EP       1254 41.66                             118   -0.22 8  239 235 
 NOR  HE ES       1255  9.86                             118   -0.23 8  239 235 
 NOR  HZ I        1255 12.56         5.5 0.17            118            239 235 
 CHI  HZ EP       1254 43.48                             117   -0.02 8  250 196 
 CHI  HN ES       1255 13.37                             117    0.42 8  250 196 
 CHI  HZ I        1255 15.07         2.8 0.35            118            250 196 
 URE  HZ EP   4   1254 50.12                             113    2.74 0  289 292 
 URE  HE ES   4   1255 15.79                             113   -4.07 0  289 292 
 URE  HZ I        1255 25.80         3.5 0.21            113            289 292 
 GUY2CHZ EP   4   1254 51.70                             112    1.90 0  306 235 
 GUY2CHE ES       1255 23.69                             112   -0.49 7  306 235 
 GUY2CHZ I        1255 29.36         2.9 0.31                           306 235 
 PRA  HZ EP       1254 59.67                             106    0.16 6  395 210 
 PRA  HN ES       1255 42.13                             106    0.67 6  395 210 
 PRA  HZ I        1255 47.09         4.6 0.40            107            395 210 
                                                                                
