 2014  819 1715 12.4 L   6.690 -73.622 93.4  RSN  4 0.2 1.2LRSN                1
 GAP=115        0.62       5.1     2.8  6.5  0.6493E+01  0.5465E+01  0.1088E+02E
 Epicentro: EL CARMEN - SANTANDER                                              3
 ACTION:UPD 14-09-15 21:51 OP:nd   STATUS:               ID:20140819171512 L   I
 OLDACT:DUP 14-08-20 01:30 OP:stll STATUS:               ID:20140819170817d    3
 2014-08-19-1708-16M.COL___266                                                 6
 STAT SP IPHASW D HRMM SECON CODA AMPLIT PERI AZIMU VELO AIN AR TRES W  DIS CAZ7
 BRR  HE ES   2   1715 37.09                             151   -0.47 5 47.2 348 
 BAR2 SZ EP       1715 26.99                             150   -0.0510 49.8 103 
 BAR2 SZ I        1715 27.10        16.9 0.18            151           49.8 103 
 BAR2 SZ ES       1715 38.69                             150    0.2410 49.8 103 
 PTB  HZ EP       1715 30.08                             131   -0.1310 93.8 260 
 PTB  HN ES       1715 44.17                             131    0.0810 93.8 260 
 PTB  HZ I        1715 45.58         2.8 0.14            130           93.8 260 
 RUS  HZ EP       1715 32.35                             128    0.3010  106 146 
 RUS  HZ I        1715 33.07         2.4 0.34            128            106 146 
 RUS  HN ES       1715 47.03                             128   -0.3310  106 146 
                                                                                
