 2011 1119 1312 28.7 L   6.767 -73.130144.3  RSN  5 0.2 1.6LRSN                1
 GAP=140        0.40       2.8     3.0  4.6  0.1827E+01  0.1574E+01  0.6350E+00E
 Epicentro: LOS SANTOS - SANTANDER                                             3
 ACTION:UPD 12-07-13 16:11 OP:ep   STATUS:               ID:20111119131228 L   I
 2011-11-19-1309-31S.COL___177                                                 6
 STAT SP IPHASW D HRMM SECON CODA AMPLIT PERI AZIMU VELO AIN AR TRES W  DIS CAZ7
 BAR2 SZ EP       1312 47.97                             172   -0.1210 20.2 197 
 BAR2 SZ I        1312 48.31         9.0 0.09                          20.2 197 
 BAR2 SZ ES   2   1313  3.46                             172    0.24 5 20.2 197 
 BRR  HZ EP   1   1312 49.91                             151    0.04 7 74.5 300 
 BRR  HZ I        1312 50.38        11.3 0.13                          74.5 300 
 BRR  HN ES   1   1313  6.61                             151    0.21 7 74.5 300 
 PAM  SZ EP   1   1312 51.03                             150    0.17 7 79.2  37 
 PAM  SZ I        1312 51.15         4.6 0.20                          79.2  37 
 PAM  SE ES   1   1313  7.98                             150   -0.18 7 79.2  37 
 RUS  HZ EP   1   1312 52.19                             145    0.16 7 96.8 177 
 RUS  HN ES   1   1313 10.10                             145   -0.14 7 96.8 177 
 RUS  HZ I        1313 10.25         3.6 0.75                          96.8 177 
 ZAR  HN ES   1   1313 26.60                             122   -0.22 6  207 293 
 ZAR  HZ I        1313 35.48         4.2 0.28                           207 293 
                                                                                
