 2017 1019 1131 20.8 L   6.813 -73.138150.1  RSN  9 0.4 1.8LRSN                1
 GAP=137        1.01       3.9     4.2  6.1  0.2453E+00  0.6999E+01  0.4711E+01E
 Epicentro: LOS SANTOS - SANTANDER                                             3
 ACTION:UPD 17-11-07 19:33 OP:rebc STATUS:               ID:20171019113120 L   I
 OLDACT:UP  17-10-19 22:06 OP:edw  STATUS:               ID:20171019112444     3
 OLDACT:UP  17-10-19 22:06 OP:edw  STATUS:               ID:20171019112444     3
 OLDACT:REG 17-10-19 19:45 OP:edw  STATUS:               ID:20171019112444     3
 2017-10-19-1128-00M.COL___429                                                 6
 STAT SP IPHASW D HRMM SECON CODA AMPLIT PERI AZIMU VELO AIN AR TRES W  DIS CAZ7
 BAR2 EZ IP     D 1131 40.79                             170   -0.2310 24.9 191 
 BAR2 EZ ES       1131 56.57                             170   -0.1910 24.9 191 
 BAR2 EZ I        1131 57.44        12.6 0.38            166           24.9 191 
 BRR  HZ EP       1131 42.66                             153    0.2010 71.3 297 
 BRR  HN ES       1132  0.04                             153    0.7110 71.3 297 
 PAM  EZ EP       1131 43.68                             152    0.2610 75.7  40 
 PAM  EN ES       1132  1.03                             152   -0.0010 75.7  40 
 RUS  HZ EP       1131 44.96                             144   -0.1510  102 177 
 RUS  HN ES       1132  3.71                             144   -0.3410  102 177 
 RUS  HZ I        1132  5.07         5.9 0.38            143            102 177 
 PTB  HZ EP       1131 47.67                             133   -0.59 9  149 258 
 PTB  HN ES       1132  8.90                             133   -0.75 9  149 258 
 PTB  HZ I        1132 14.69         7.3 0.54            130            149 258 
 ZAR  HZ EP       1131 53.31                             123   -0.28 9  204 292 
 ZAR  HN ES       1132 19.32                             123    0.17 9  204 292 
 ZAR  HZ I        1132 25.25         9.2 0.26            123            204 292 
 NOR  HZ EP       1131 57.16                             119    0.18 8  236 234 
 NOR  HN ES       1132 25.53                             119    0.35 8  236 234 
 NOR  HZ I        1132 30.05         5.1 0.28            118            236 234 
 CHI  HZ EP       1131 59.24                             118    0.29 8  250 195 
 CHI  HN ES       1132 29.41                             118    0.73 8  250 195 
 CHI  HZ I        1132 37.96         3.1 0.28            117            250 195 
 GUY2CHZ EP   4   1132  6.97                             113    2.15 0  303 235 
 GUY2CHN ES   4   1132 41.50                             113    2.37 0  303 235 
 GUY2CHZ I        1132 47.67         3.3 0.60                           303 235 
 SJC  HZ EP   4   1132 14.16                             106   -2.30 0  409 327 
 SJC  HN ES   4   1132 57.28                             106   -2.56 0  409 327 
                                                                                
