 2015 1119 1406 52.0 L   6.839 -73.097139.0  RSN  7 0.4 1.5LRSN                1
 GAP=205        0.65       3.1     4.5  5.6  0.3834E+01  0.6404E+01 -0.5479E+01E
 Epicentro: LOS SANTOS - SANTANDER                                             3
 ACTION:UPD 15-12-28 16:12 OP:cam  STATUS:               ID:20151119140652 L   I
 OLDACT:UP  15-12-03 21:19 OP:cam  STATUS:               ID:20151119140652 L   3
 OLDACT:UP  15-12-01 10:57 OP:ak   STATUS:               ID:20151119140652 L   3
 OLDACT:REG 15-11-19 20:37 OP:dnl  STATUS:               ID:20151119135748     3
 2015-11-19-1357-48M.COL___316                                                 6
 STAT SP IPHASW D HRMM SECON CODA AMPLIT PERI AZIMU VELO AIN AR TRES W  DIS CAZ7
 BAR2 EZ EP       14 7 11.15                             168    0.1710 28.9 199 
 BAR2 EZ ES       14 7 25.78                             168    0.0310 28.9 199 
 BAR2 EZ I        14 7 27.05        10.5 0.08            166           28.9 199 
 BRR  HZ EP   1   14 7 12.81                             150    0.19 7 74.1 294 
 BRR  HE ES   1   14 7 28.88                             150    0.20 7 74.1 294 
 RUS  HE ES       14 7 33.47                             141   -0.2110  105 179 
 RUS  HZ I        14 7 34.35         4.4 0.23            142            105 179 
 ZAR  HZ EP   2   14 7 25.82                             120    1.42 4  207 290 
 ZAR  HE ES       14 7 49.64                             120   -0.01 8  207 290 
 ZAR  HZ I        14 7 55.97         3.3 0.15            120            207 290 
 SML  HZ EP       14 7 27.86                             116   -0.25 8  242 334 
 SML  HE ES       14 7 55.97                             116   -0.28 8  242 334 
 GUY2CHZ EP   4   14 7 38.16                             110    2.04 0  308 235 
 GUY2CHN ES       14 8 10.26                             110   -0.25 7  308 235 
 GUY2CHZ I        14 8 16.34         1.2 0.24                           308 235 
 MON  HZ EP   9   14 7 38.74                             107   -2.22 0  355 307 
 MON  HE ES       14 8 16.81                             107   -0.09 6  355 307 
                                                                                
