 2016 1119 1723 47.1 L   6.761 -73.177141.8  RSN  6 0.3 1.5LRSN                1
 GAP=142        0.69       5.1     3.6  5.3 -0.6013E+01  0.3157E+01  0.2343E+01E
 Epicentro: LOS SANTOS - SANTANDER                                             3
 ACTION:UPD 17-10-26 21:09 OP:lp   STATUS:               ID:20161119172347 L   I
 OLDACT:UP  16-11-19 21:32 OP:edw  STATUS:               ID:20161119171746     3
 OLDACT:UP  16-11-19 21:30 OP:edw  STATUS:               ID:20161119171746     3
 OLDACT:UP  16-11-19 21:30 OP:edw  STATUS:               ID:20161119171746     3
 OLDACT:REG 16-11-19 20:06 OP:edw  STATUS:               ID:20161119171746     3
 2016-11-19-1718-00M.COL___337                                                 6
 STAT SP IPHASW D HRMM SECON CODA AMPLIT PERI AZIMU VELO AIN AR TRES W  DIS CAZ7
 BAR2 EZ EP       1724  6.17                             172    0.0310 18.7 182 
 BAR2 EZ ES       1724 21.13                             172    0.1110 18.7 182 
 BAR2 EZ I        1724 22.12         9.4 0.42            172           18.7 182 
 BRR  HZ EP       1724  8.07                             152    0.3210 70.4 303 
 BRR  HN ES       1724 24.27                             152    0.3910 70.4 303 
 PAM  EZ EP       1724  9.15                             148   -0.0710 82.9  39 
 PAM  EN ES       1724 26.15                             148   -0.3410 82.9  39 
 PAM  EZ I        1724 28.38         5.9 0.38            150           82.9  39 
 PTB  HZ EP       1724 13.34                             132    0.00 9  144 260 
 PTB  HN ES       1724 33.27                             132   -0.56 9  144 260 
 PTB  HZ I        1724 40.96         2.5 0.22            131            144 260 
 ZAR  HZ EP   2   1724 19.11                             122    0.00 4  203 294 
 ZAR  HN ES   2   1724 44.10                             122    0.01 4  203 294 
 ZAR  HZ I        1724 49.36         2.4 0.14            121            203 294 
 CHI  HE ES   2   1724 53.08                             117    0.27 4  244 195 
                                                                                
