 2010  119 1017 55.3 L   6.789 -73.079148.6  RSN  8 0.3 2.0LRSN                1
 GAP=190        0.69       3.0    12.0  5.5 -0.5154E+01  0.3045E+02  0.1742E+01E
 Epicentro: LOS SANTOS - SANTANDER                                             3
 ACTION:UP  10-08-24 09:44 OP:vdl  STATUS:               ID:20100119101755 L   I
 2010-01-19-1013-55S.COL___096                                                 6
 STAT SP IPHASW D HRMM SECON CODA AMPLIT PERI AZIMU VELO SNR AR TRES W  DIS CAZ7
 BAR2 SZ IP       1018 15.38                             170     0.110   25 208 
 BAR2 SZ ES   1   1018 30.96                             170     0.0 7   25 208 
 GIR2 SZ ES   1   1018 30.49                             167    -0.6 7   34 338 
 RUS  BZ IP       1018 19.27                             145     0.010   99 180 
 RUS  BN ES   1   1018 38.20                             145     0.3 7   99 180 
 RUS  BZ I        1018 39.28         7.1 0.29                            99 180 
 OCA  SZ IP       1018 24.08                             130     0.0 9  163 351 
 OCA  SZ ES   1   1018 46.86                             130     0.4 7  163 351 
 OCA  SZ I        1018 51.81        21.6 0.17                           163 351 
 CHI  HZ IP       1018 33.38                             118     0.1 8  249 197 
 CHI  HE ES   1   1019  2.88                             118     0.0 6  249 197 
 CHI  HZ I        1019  8.71         4.4 0.29                           249 197 
 HEL  HZ EP   2   1018 37.02                             115     0.6 4  279 256 
 HEL  HZ I        1019 13.81         4.3 0.68                           279 256 
 TOL  SZ EP   1   1018 43.59                             109    -0.6 5  348 226 
 PRA  HZ IP       1018 48.73                             107    -0.5 6  395 211 
 PRA  HE ES   2   1019 31.90                             107     0.6 3  395 211 
 PRA  HZ I        1019 36.67         6.7 0.30                           395 211 
                                                                                
