 2012  419 1411 11.3 L   6.729 -73.139142.0  RSN  4 0.3 1.8LRSN                1
 GAP=233        0.69       9.1    11.0  7.8  0.8414E+02 -0.1342E+02 -0.7346E+01E
 Epicentro: JORDAN - SANTANDER                                                 3
 ACTION:UPD 12-07-05 11:54 OP:tino STATUS:               ID:20120419141111 L   I
 2012-04-19-1410-00M.COL___186                                                 6
 STAT SP IPHASW D HRMM SECON CODA AMPLIT PERI AZIMU VELO AIN AR TRES W  DIS CAZ7
 BAR2 SZ EP       1411 30.29                             173    -0.110   16 197 
 BAR2 SZ ES   2   1411 44.66                             173    -0.6 5   16 197 
 BAR2 SZ I        1411 48.53        11.7 0.47                            16 197 
 BRR  HZ EP       1411 32.29                             150    -0.110   76 303 
 BRR  HZ I        1411 32.57        19.6 0.31                            76 303 
 BRR  HN ES       1411 49.09                             150     0.310   76 303 
 RUS  HZ EP       1411 34.23                             145     0.110   93 176 
 RUS  HE ES   1   1411 52.06                             145     0.1 7   93 176 
 RUS  HZ I        1411 54.39         4.5 0.33                            93 176 
 ZAR  HN ES   1   1412  9.00                             121    -0.4 6  208 294 
 ZAR  HZ I        1412 14.83         7.0 0.43                           208 294 
                                                                                
