 2016  619 1228 44.7 L   6.058 -73.614128.6  RSN  6 0.5 1.3LRSN                1
 GAP=121        1.20       6.3     7.4 13.1  0.1042E+01  0.3348E+02 -0.2999E+02E
 Epicentro: CHIPATA - SANTANDER                                                3
 ACTION:UPD 16-07-21 22:20 OP:rebc STATUS:               ID:20160619122844 L   I
 OLDACT:UP  16-06-19 23:58 OP:dani STATUS:               ID:20160619122743     3
 OLDACT:UP  16-06-19 23:57 OP:dani STATUS:               ID:20160619122743     3
 OLDACT:UP  16-06-19 23:56 OP:dani STATUS:               ID:20160619122743     3
 OLDACT:UP  16-06-19 23:56 OP:dani STATUS:               ID:20160619122743     3
 OLDACT:UP  16-06-19 23:56 OP:dani STATUS:               ID:20160619122743     3
 OLDACT:REG 16-06-19 19:33 OP:dani STATUS:               ID:20160619122743     3
 2016-06-19-1227-43M.COL___337                                                 6
 STAT SP IPHASW D HRMM SECON CODA AMPLIT PERI AZIMU VELO AIN AR TRES W  DIS CAZ7
 RUS  HE ES       1229 18.93                             153   -0.3910 61.5 107 
 RUS  HZ I        1229 20.21         3.7 0.36                          61.5 107 
 SPBC HZ EP       1229  4.16                             150    0.2510 67.7 229 
 SPBC HE ES       1229 19.18                             150    0.2710 67.7 229 
 SPBC HZ I        1229 22.84         4.7 0.24                          67.7 229 
 BAR2 EZ EP       1229  5.26                             148    0.6210 76.0  39 
 BAR2 EZ I        1229 21.78         9.4 0.24                          76.0  39 
 PTB  HZ EP       1229  5.76                             137   -0.9010  107 300 
 PTB  HN ES   4   1229 21.30                             137   -2.51 0  107 300 
 PTB  HZ I        1229 23.95         3.2 0.28                           107 300 
 BRR  HN ES       1229 25.15                             135   -0.0010  117 355 
 ZAR  HN ES       1229 41.88                             117    0.20 8  210 319 
 ZAR  HZ I        1229 42.76         1.6 0.12                           210 319 
                                                                                
