 2010  219 1430 17.7 L   6.798 -72.969151.3  RSN  8 0.4 2.5LRSN                1
 GAP=201        0.67       4.2    10.3  6.9 -0.1492E+02  0.2356E+02  0.3850E+01E
 Epicentro: CEPITA - SANTANDER                                                 3
 ACTION:UP  10-08-24 09:49 OP:vdl  STATUS:               ID:20100219143017 L   I
 2010-02-19-1428-16S.COL___094                                                 6
 STAT SP IPHASW D HRMM SECON CODA AMPLIT PERI AZIMU VELO SNR AR TRES W  DIS CAZ7
 BAR2 SZ IP       1430 38.33                             167     0.110   33 226 
 BAR2 SZ ES   2   1430 53.36                             167    -0.8 5   33 226 
 GIR2 SZ EP   1   1430 38.41                             165     0.2 7   40 321 
 GIR2 SZ ES   2   1430 54.57                             165     0.3 5   40 321 
 RUS  BZ EP   1   1430 42.03                             145     0.0 7  101 187 
 RUS  BE ES   2   1431  0.81                             145    -0.1 5  101 187 
 RUS  BZ I        1431  1.79        35.9 0.32                           101 187 
 OCA  SZ EP   1   1430 46.32                             130    -0.4 7  164 346 
 OCA  SZ ES   2   1431  9.79                             130     0.4 5  164 346 
 CHI  HZ EP   1   1430 56.24                             118     0.0 6  254 199 
 CHI  HZ I        1430 57.37        14.6 0.52                           254 199 
 CHI  HN ES   2   1431 27.34                             118     0.9 4  254 199 
 RREF BZ EP   1   1431  6.30                             111     0.6 5  337 232 
 RREF BN ES   2   1431 43.40                             111     0.1 3  337 232 
 RREF BZ I        1431 49.91        16.7 0.69                           337 232 
 TOL  SZ EP   1   1431  7.71                             109     0.0 5  357 227 
 TOL  SZ ES   2   1431 46.24                             109    -0.6 3  357 227 
 PRA  HZ EP   1   1431 11.65                             107    -0.9 4  402 212 
 PRA  HE ES   2   1431 55.03                             107    -0.3 3  402 212 
 PRA  HZ I        1431 59.53        10.3 0.24                           402 212 
                                                                                
