 2012 1119 1440 20.2 L   6.797 -73.123146.5  RSN  6 0.3 1.4LRSN                1
 GAP=140        0.64       4.3     4.8  6.0  0.4378E+01  0.3357E+01 -0.4337E+01E
 Epicentro: LOS SANTOS - SANTANDER                                             3
 ACTION:UPD 12-12-05 15:34 OP:}ep  STATUS:               ID:20121119144020 L   I
 2012-11-19-1440-00M.COL___233                                                 6
 STAT SP IPHASW D HRMM SECON CODA AMPLIT PERI AZIMU VELO AIN AR TRES W  DIS CAZ7
 BAR2 SZ EP   1   1440 39.83                             171   -0.14 7 23.5 196 
 BAR2 SZ ES   1   1440 55.66                             171    0.31 7 23.5 196 
 BAR2 SZ I        1440 56.96         6.6 0.19                          23.5 196 
 BRR  HZ EP   1   1440 41.84                             152    0.23 7 73.6 298 
 BRR  HE ES   1   1440 57.70                             152   -0.57 7 73.6 298 
 PAM  SZ EP   1   1440 42.80                             151    0.34 7 76.1  38 
 PAM  SN ES   1   1440 59.82                             151    0.02 7 76.1  38 
 PAM  SZ I        1441  2.26         2.2 0.35                          76.1  38 
 RUS  HZ EP   1   1440 43.87                             144   -0.16 7  100 177 
 RUS  HE ES   1   1441  2.51                             144   -0.08 7  100 177 
 ZAR  HN ES   1   1441 18.99                             122    0.46 6  206 292 
 ZAR  HZ I        1441 23.78         2.8 0.28                           206 292 
 SML  HZ EP   1   1440 56.61                             117   -0.45 6  245 335 
                                                                                
