 2010  619 1133  3.1 L   6.777 -73.086140.3  RSN  6 0.3 1.8LRSN                1
 GAP=163        0.50       3.2     7.2  6.1 -0.7494E+01 -0.9301E+01 -0.2384E+00E
 Epicentro: LOS SANTOS - SANTANDER                                             3
 ACTION:UP  10-08-24 10:11 OP:vdl  STATUS:               ID:20100619113303 L   I
 2010-06-19-1130-47S.COL___118                                                 6
 STAT SP IPHASW D HRMM SECON CODA AMPLIT PERI AZIMU VELO SNR AR TRES W  DIS CAZ7
 BAR2 SZ EP   1   1133 22.05                             170     0.0 7   23 208 
 BAR2 SZ ES   2   1133 36.37                             170    -0.5 5   23 208 
 BRR  HZ EP   1   1133 23.91                             149    -0.2 7   78 298 
 BRR  HZ I        1133 24.27        26.8 0.10                            78 298 
 BRR  HN ES   2   1133 40.82                             149     0.4 5   78 298 
 RUS  HZ EP   1   1133 26.15                             143     0.1 7   98 180 
 RUS  HE ES   2   1133 44.24                             143     0.2 5   98 180 
 RUS  HZ I        1133 45.90         4.7 0.55                            98 180 
 BRI  SZ EP   1   1133 26.74                             140     0.3 7  109  17 
 BRI  SZ ES   2   1133 45.11                             140     0.4 5  109  17 
 GUE  SZ EP   1   1133 27.02                             138    -0.4 7  118   9 
 GUE  SZ ES   2   1133 46.12                             138    -0.2 5  118   9 
 GRA  SZ EP   1   1133 28.03                             136     0.1 7  126  14 
 GRA  SZ ES   2   1133 47.10                             136    -0.1 5  126  14 
                                                                                
