 2013  319 1016 31.1 L   6.740 -73.210151.5  RSN  4 0.2 1.6LRSN                1
 GAP=235        0.48       5.7     4.5  4.9  0.1930E+02 -0.1681E+01 -0.1016E+02E
 Epicentro: VILLANUEVA - SANTANDER                                             3
 ACTION:UPD 13-04-09 14:03 OP:ep   STATUS:               ID:20130319101631 L   I
 2013-03-19-1010-00M.COL___244                                                 6
 STAT SP IPHASW D HRMM SECON CODA AMPLIT PERI AZIMU VELO AIN AR TRES W  DIS CAZ7
 BAR2 SZ ES   1   1017  7.13                             173    0.00 7 16.6 169 
 RUS  HZ EP       1016 54.88                             147   -0.1910 94.7 171 
 RUS  HN ES       1017 13.84                             147    0.1110 94.7 171 
 RUS  HN I        1017 15.20         4.1 0.40            146           94.7 171 
 PTB  HZ EP       1016 57.80                             135   -0.07 9  140 261 
 PTB  HE ES       1017 18.76                             135    0.04 9  140 261 
 PTB  HE I        1017 26.13         4.5 0.46            132            140 261 
 ZAR  HZ EP       1017  3.93                             124    0.35 9  200 295 
 ZAR  HE ES       1017 28.68                             124   -0.19 9  200 295 
 ZAR  HE I        1017 35.38         4.6 0.14            124            200 295 
                                                                                
