 2011  419 1410  2.5 L   6.071 -74.014 86.1  RSN 11 0.4 2.2LRSN                1
 GAP=111        0.75       4.9     4.1  9.8 -0.1571E+02  0.1050E+01 -0.1984E+01E
 Epicentro: EL PEON - SANTANDER                                                3
 ACTION:UP  11-06-22 15:31 OP:REBC STATUS:               ID:20110419141002 L   I
 2011-04-19-1407-57S.COL___139                                                 6
 STAT SP IPHASW D HRMM SECON CODA AMPLIT PERI AZIMU VELO SNR AR TRES W  DIS CAZ7
 BAR2 SZ EP   1   1410 21.71                             123     0.2 8  109  58 
 BAR2 SZ ES   1   1410 36.37                             123     0.1 8  109  58 
 BAR2 SZ I        1410 37.89        42.8 0.16                           109  58 
 NOR  SZ EP       1410 21.25                             123    -0.110  110 239 
 NOR  SN ES   1   1410 35.97                             123    -0.2 7  110 239 
 BRR  HZ EP       1410 22.13                             120    -0.210  119  16 
 BRR  HN ES   2   1410 37.77                             120     0.0 5  119  16 
 BRR  HZ I        1410 38.68        38.8 0.13                           119  16 
 BTL  SZ EP   1   1410 23.21                             119     0.0 7  125  41 
 CHI  HN ES   3   1410 48.25                             112     1.2 2  162 169 
 HEL  HZ EP   1   1410 28.03                             112    -0.1 7  168 275 
 HEL  HN ES   1   1410 48.73                             112     0.6 7  168 275 
 HEL  HZ I        1410 50.88        17.8 0.21                           168 275 
 GUY  SZ EP   2   1410 29.33                             110    -0.2 5  179 239 
 GUY  SZ I        1410 55.31        34.2 0.36                           179 239 
 RREF HZ EP       1410 31.45                             108    -0.3 9  196 229 
 RREF HN ES   2   1410 54.95                             108     0.4 4  196 229 
 RREF HZ I        1411  0.38        18.2 0.27                           196 229 
 PAM  SZ EP   3   1410 33.04                             107     0.8 2  202  46 
 PAM  SN ES   2   1410 54.86                             107    -0.6 4  202  46 
 BRI  SZ EP   2   1410 35.56                             105     0.8 4  226  36 
 GRA  SZ EP       1410 36.96                             104     0.5 8  241  34 
 GRA  SZ ES   1   1411  2.17                             104    -0.7 6  241  34 
 GRA  SZ I        1411  8.37        15.5 0.31                           241  34 
                                                                                
