 2017 1119 1510 38.4 L   6.797 -73.193143.2  RSN  5 0.1 1.1LRSN                1
 GAP=131        0.39       2.1     1.8  3.3 -0.5773E-01  0.1789E+01 -0.5673E+00E
 Epicentro: ZAPATOCA - SANTANDER                                               3
 ACTION:UPD 17-12-12 19:57 OP:rebc STATUS:               ID:20171119151038 L   I
 OLDACT:REG 17-11-19 20:33 OP:lv   STATUS:               ID:20171119150738     3
 2017-11-19-1508-00M.COL___477                                                 6
 STAT SP IPHASW D HRMM SECON CODA AMPLIT PERI AZIMU VELO AIN AR TRES W  DIS CAZ7
 BAR2 EZ EP       1510 57.82                             171    0.0710 22.7 177 
 BAR2 EZ ES       1511 13.02                             171    0.2110 22.7 177 
 BAR2 EZ I        1511 13.53         3.5 0.20            171           22.7 177 
 PAM  EZ EP       1511  0.57                             149   -0.0410 81.0  42 
 PAM  HN ES       1511 17.80                             149   -0.1010 81.0  42 
 PAM  EZ I        1511 19.41         3.0 0.70            151           81.0  42 
 RUS  HZ EP       1511  2.09                             143    0.1310  101 173 
 RUS  HN ES       1511 20.09                             143   -0.2110  101 173 
 RUS  HZ I        1511 21.32         1.8 0.32            145            101 173 
 PTB  HZ EP       1511  4.70                             132   -0.03 9  143 259 
 PTB  HN ES       1511 25.17                             132   -0.06 9  143 259 
 PTB  HZ I        1511 27.85         1.8 0.20            133            143 259 
 ZAR  HE ES       1511 35.02                             122   -0.00 9  199 293 
                                                                                
