 2015  119 1756  9.4 L   6.811 -73.140149.9  RSN 21 0.4 2.4LRSN                1
 GAP= 71        0.86       2.5     2.4  4.2 -0.3916E+00  0.2654E+01  0.1588E+01E
 Epicentro: LOS SANTOS - SANTANDER                                             3
 ACTION:UPD 15-03-02 15:40 OP:nd   STATUS:               ID:20150119175609 L   I
 OLDACT:UP  15-01-20 01:32 OP:spq  STATUS:               ID:20150119174745     3
 OLDACT:REG 15-01-19 20:31 OP:spq  STATUS:               ID:20150119174745     3
 2015-01-19-1747-45M.COL___256                                                 6
 STAT SP IPHASW D HRMM SECON CODA AMPLIT PERI AZIMU VELO AIN AR TRES W  DIS CAZ7
 BAR2 EZ EP       1756 29.31                             170   -0.2510 24.6 191 
 BAR2 EZ ES   1   1756 44.67                             170   -0.61 7 24.6 191 
 BAR2 EZ I        1756 46.16        41.8 0.28            170           24.6 191 
 BRR  HZ EP       1756 31.37                             153    0.3710 71.2 297 
 BRR  HE ES       1756 48.73                             153    0.8810 71.2 297 
 BRR  HZ I        1756 53.20        30.6 0.18            151           71.2 297 
 PAM  SZ EP       1756 32.10                             152    0.1210 76.0  40 
 PAM  SN ES       1756 49.47                             152   -0.1210 76.0  40 
 PAM  SZ I        1756 51.60        40.6 0.20            155           76.0  40 
 RUS  HZ EP       1756 33.27                             144   -0.3810  102 176 
 RUS  HN ES   1   1756 52.22                             144   -0.33 7  102 176 
 RUS  HZ I        1756 53.26        18.2 0.40            147            102 176 
 PTB  HZ EP       1756 36.01                             133   -0.78 9  149 258 
 PTB  HE ES       1756 57.94                             133   -0.21 9  149 258 
 PTB  HZ I        1757  3.41        44.3 0.40            133            149 258 
 TAM  HZ EP       1756 37.56                             132    0.18 9  155 105 
 TAM  HN ES       1756 59.33                             132    0.12 9  155 105 
 TAM  HZ I        1756 59.97        20.0 0.24            137            155 105 
 OCA  HZ EP   1   1756 38.42                             131    0.49 7  159 353 
 OCA  HN ES   1   1756 59.71                             131   -0.48 7  159 353 
 OCA  HZ I        1757  8.02        27.0 0.50            132            159 353 
 SPBC HZ EP       1756 38.40                             130    0.05 9  165 219 
 SPBC HE ES       1757  1.37                             130    0.44 9  165 219 
 SPBC HZ I        1757  7.59        68.5 0.38            131            165 219 
 ZAR  HZ EP       1756 42.06                             123   -0.08 9  204 292 
 ZAR  HE ES       1757  7.57                             123   -0.10 9  204 292 
 ZAR  HZ I        1757 13.85        37.2 0.26            124            204 292 
 NOR  HZ EP       1756 45.37                             119   -0.14 8  236 234 
 NOR  HE ES       1757 14.01                             119    0.34 8  236 234 
 NOR  HZ I        1757 17.26        26.5 0.22            121            236 234 
 SML  HZ EP       1756 46.32                             118    0.14 8  243 335 
 SML  HE ES   1   1757 14.58                             118   -0.28 6  243 335 
 SML  HZ I        1757 19.17        41.0 0.10            120            243 335 
 CHI  HZ EP       1756 47.36                             118   -0.12 8  250 195 
 CHI  HE ES   1   1757 17.06                             118   -0.12 6  250 195 
 CHI  HZ I        1757 21.11        11.3 0.47            120            250 195 
 HEL  HZ EP       1756 49.99                             115    0.06 8  273 256 
 HEL  HE ES   1   1757 20.98                             115   -0.56 6  273 256 
 HEL  HZ I        1757 28.12        17.3 0.38            117            273 256 
 PTGC HZ EP   4   1756 52.21                             112   -1.34 0  310 159 
 RREF HZ EP       1756 56.19                             111    0.32 7  323 229 
 RREF HN ES   4   1757 34.73                             111    2.61 0  323 229 
 RREF HZ I        1757 38.08        17.5 0.26            113            323 229 
 CBOC HZ EP       1756 57.27                             111    0.67 7  335 252 
 CBOC HE ES   1   1757 32.84                             111   -0.58 5  335 252 
 CBOC HZ I        1757 40.14         4.7 0.20            112            335 252 
 DBB  SZ EP       1756 56.87                             110   -0.24 7  340 274 
 DBB  SZ ES   1   1757 33.88                             110   -0.45 5  340 274 
 TOL  SZ EP       1756 58.55                             110    0.57 7  345 225 
 TOL  SE ES   4   1757 37.05                             110    1.18 0  345 225 
 MON  HZ EP   4   1756 56.69                             109   -1.85 0  353 308 
 MON  HN ES   4   1757 35.18                             109   -1.68 0  353 308 
 MON  HZ I        1757 37.83         6.7 0.42            110            353 308 
 ANIL HZ EP   4   1757  0.67                             109    1.15 0  359 224 
 ANIL HE ES   4   1757 40.87                             109    2.26 0  359 224 
 ANIL HZ I        1757 43.50         4.6 0.32            111            359 224 
 ORTC HZ EP   1   1757  3.20                             107   -0.43 4  397 216 
 ORTC HE ES   1   1757 46.49                             107    0.57 4  397 216 
 SJC  HZ EP   4   1757  3.67                             106   -1.36 0  409 327 
 SJC  HN ES   4   1757 44.49                             106   -3.92 0  409 327 
 SJC  HZ I        1757 57.51         3.7 0.59            108            409 327 
                                                                                
