 2012  619 1710 24.7 L   6.772 -73.174140.0  RSN  5 0.4 1.3LRSN                1
 GAP=134        0.64       5.3     5.3  8.9 -0.9910E+00  0.1384E+02 -0.9845E+01E
 Epicentro: LOS SANTOS - SANTANDER                                             3
 ACTION:UPD 12-08-06 17:50 OP:ep   STATUS:               ID:20120619171024 L   I
 2012-06-19-1710-00M.COL___199                                                 6
 STAT SP IPHASW D HRMM SECON CODA AMPLIT PERI AZIMU VELO AIN AR TRES W  DIS CAZ7
 BAR2 SZ ES   2   1710 57.60                             172   -0.72 5 19.8 183 
 BAR2 SZ I        1711  2.11         7.3 0.40                          19.8 183 
 PAM  SZ EP   1   1710 46.91                             148    0.29 7 81.8  40 
 PAM  SN ES   2   1711  3.61                             148   -0.07 5 81.8  40 
 RUS  HZ EP   1   1710 47.58                             143   -0.13 7 97.7 174 
 RUS  HN ES   1   1711  5.92                             143    0.29 7 97.7 174 
 RUS  HZ I        1711  9.35         2.3 0.55                          97.7 174 
 PTB  HZ EP   1   1710 50.44                             131   -0.45 7  144 260 
 PTB  HE ES   2   1711 11.87                             131    0.57 5  144 260 
 PTB  HZ I        1711 13.63         2.1 0.24                           144 260 
 ZAR  HN ES   2   1711 21.75                             121    0.24 4  202 293 
                                                                                
