 2014  919 1512 29.8 L   6.769 -73.183135.0  RSN  4 0.2 1.3LRSN                1
 GAP=140        0.52       3.4     3.1  5.2 -0.3942E+01  0.2991E+01  0.4525E+00E
 Epicentro: LOS SANTOS - SANTANDER                                             3
 ACTION:UPD 14-10-03 23:06 OP:nd   STATUS:               ID:20140919151229 L   I
 OLDACT:DUP 14-09-19 23:47 OP:spq  STATUS:               ID:20140919150819d    3
 2014-09-19-1508-18M.COL___284                                                 6
 STAT SP IPHASW D HRMM SECON CODA AMPLIT PERI AZIMU VELO AIN AR TRES W  DIS CAZ7
 BAR2 SZ ES   1   1513  2.12                             171   -0.18 7 19.6 180 
 BAR2 SZ I        1513  4.50         7.0 0.24            173           19.6 180 
 PAM  SZ IP     C 1512 50.89                             147   -0.3210 82.6  40 
 PAM  SN ES       1513  8.15                             147    0.2310 82.6  40 
 PAM  SZ I        1513 10.81         3.0 0.48            150           82.6  40 
 RUS  HZ EP       1512 52.39                             142    0.1210 97.6 173 
 RUS  HN ES   1   1513  9.83                             142    0.02 7 97.6 173 
 RUS  HZ I        1513 10.83         2.7 0.26            147           97.6 173 
 PTB  HZ EP   1   1512 55.68                             130    0.22 7  143 260 
 PTB  HN ES       1513 15.44                             130   -0.05 9  143 260 
 PTB  HZ I        1513 19.47         3.0 0.14            132            143 260 
                                                                                
