 2016 1119 1732 29.0 L   6.795 -73.149146.6  RSN 12 0.4 2.1LRSN                1
 GAP=150        0.87       3.7     3.7  5.1 -0.2433E+01  0.3352E+01  0.7268E+01E
 Epicentro: LOS SANTOS - SANTANDER                                             3
 ACTION:UPD 17-10-26 21:09 OP:lp   STATUS:               ID:20161119173229 L   I
 OLDACT:UP  16-11-19 21:23 OP:edw  STATUS:               ID:20161119172748     3
 OLDACT:UP  16-11-19 21:22 OP:edw  STATUS:               ID:20161119172748     3
 OLDACT:REG 16-11-19 20:07 OP:edw  STATUS:               ID:20161119172748     3
 2016-11-19-1728-00M.COL___337                                                 6
 STAT SP IPHASW D HRMM SECON CODA AMPLIT PERI AZIMU VELO AIN AR TRES W  DIS CAZ7
 BAR2 EZ EP       1732 48.61                             171   -0.1210 22.7 189 
 BAR2 EZ ES       1733  3.67                             171   -0.4410 22.7 189 
 BAR2 EZ I        1733  4.81        40.0 0.22            168           22.7 189 
 BRR  HZ EP       1732 50.40                             153    0.1510 71.1 299 
 BRR  HN ES       1733  7.53                             153    0.7210 71.1 299 
 PAM  EZ EP       1732 51.60                             151    0.2410 78.0  40 
 PAM  EN ES       1733  8.49                             151   -0.2910 78.0  40 
 PAM  EZ I        1733 10.76        29.6 0.44            153           78.0  40 
 PTB  HZ EP   9   1732 55.34                             132   -0.67 0  147 259 
 PTB  HN ES       1733 16.04                             132   -0.35 9  147 259 
 PTB  HZ I        1733 19.27        13.2 0.15            129            147 259 
 ZAR  HZ EP       1733  1.03                             122   -0.47 9  204 292 
 ZAR  HN ES       1733 26.74                             122   -0.09 9  204 292 
 ZAR  HZ I        1733 32.13         9.5 0.11            120            204 292 
 NOR  HZ EP       1733  4.80                             119    0.07 8  234 235 
 NOR  HN ES       1733 33.06                             119    0.48 8  234 235 
 NOR  HZ I        1733 37.26        12.2 0.26            117            234 235 
 CHI  HZ EP       1733  6.90                             117    0.21 8  248 195 
 CHI  HN ES       1733 36.19                             117    0.11 8  248 195 
 CHI  HZ I        1733 39.34         8.6 0.38            117            248 195 
 URE  HZ EP   4   1733  8.60                             114   -1.51 0  284 292 
 URE  HN ES   4   1733 40.20                             114   -1.96 0  284 292 
 URE  HZ I        1733 51.29         8.1 0.20            112            284 292 
 ELA  HZ EP   4   1733 17.60                             110    1.77 0  328 229 
 ELA  HN ES   4   1733 57.49                             110    5.15 0  328 229 
 ELA  HZ I        1734  3.76         5.2 0.74            109            328 229 
 CBOC HZ EP   4   1733 17.13                             110    1.22 0  333 252 
 CBOC HN ES       1733 51.73                             110   -0.75 7  333 252 
 CBOC HZ I        1733 58.15         2.5 0.42            109            333 252 
 PRA  HZ EP       1733 22.65                             107    0.16 6  391 210 
 PRA  HN ES       1734  3.69                             107   -0.51 6  391 210 
 PRA  HZ I        1734  9.07         7.4 0.78            106            391 210 
 ORTC HZ EP       1733 23.03                             106    0.14 6  395 216 
 ORTC HN ES   4   1734  6.33                             106    1.42 0  395 216 
 ORTC HZ I        1734  9.94         4.0 0.28            106            395 216 
 SJC  HN EP   4   1734  3.58                             106   38.94 0  409 327 
                                                                                
