 2017 1019 1449 39.4 L   6.819 -73.187145.5  RSN  5 0.4 1.1LRSN                1
 GAP=131        0.98       7.1     5.1  8.8  0.1208E+02  0.1845E+01 -0.2694E+02E
 Epicentro: ZAPATOCA - SANTANDER                                               3
 ACTION:UPD 17-11-07 19:33 OP:rebc STATUS:               ID:20171019144939 L   I
 OLDACT:REG 17-10-19 20:02 OP:edw  STATUS:               ID:20171019144217     3
 2017-10-19-1448-00M.COL___438                                                 6
 STAT SP IPHASW D HRMM SECON CODA AMPLIT PERI AZIMU VELO AIN AR TRES W  DIS CAZ7
 BAR2 EZ EP       1449 59.20                             170    0.1510 25.1 179 
 BAR2 EZ ES       1450 14.47                             170    0.1110 25.1 179 
 PAM  EZ EP       1450  1.76                             150    0.0710 78.8  43 
 RUS  HZ EP       1450  3.77                             143    0.4510  103 174 
 RUS  HN ES       1450 21.35                             143   -0.6210  103 174 
 RUS  HZ I        1450 40.70         1.5 0.42            133            103 174 
 PTB  HZ EP       1450  6.22                             133    0.22 9  144 258 
 PTB  HN ES       1450 27.03                             133    0.30 9  144 258 
 PTB  HZ I        1450 28.73         1.8 0.38            130            144 258 
 ZAR  HZ EP       1450 10.55                             123   -0.78 9  199 292 
 ZAR  HN ES       1450 36.15                             123   -0.07 9  199 292 
                                                                                
