 2016 1119 1550 40.6 L   6.748 -73.153136.0  RSN  5 0.3 1.8LRSN                1
 GAP=153        0.84       6.7     3.9  6.1 -0.5877E+01  0.7435E+01 -0.2720E+01E
 Epicentro: LOS SANTOS - SANTANDER                                             3
 ACTION:UPD 17-10-26 21:09 OP:lp   STATUS:               ID:20161119155040 L   I
 OLDACT:REG 16-11-19 19:52 OP:edw  STATUS:               ID:20161119154747     3
 2016-11-19-1548-00M.COL___334                                                 6
 STAT SP IPHASW D HRMM SECON CODA AMPLIT PERI AZIMU VELO AIN AR TRES W  DIS CAZ7
 BAR2 EZ EP       1550 58.81                             172   -0.0910 17.6 190 
 BAR2 EZ ES       1551 13.47                             172    0.2610 17.6 190 
 BAR2 EZ I        1551 14.76        22.2 0.70            172           17.6 190 
 BRR  HZ IP     D 1551  0.54                             150   -0.2510 73.4 303 
 BRR  HN ES       1551 16.78                             150    0.2110 73.4 303 
 BRR  HZ I        1551 20.34        11.6 0.28            147           73.4 303 
 PAM  EZ EP       1551  1.71                             147   -0.3510 82.4  37 
 PAM  EE ES       1551 18.86                             147    0.0210 82.4  37 
 PAM  EZ I        1551 20.62        11.2 0.50            149           82.4  37 
 PTB  HZ EP       1551  6.87                             130    0.30 9  146 261 
 PTB  HN ES       1551 26.38                             130   -0.48 9  146 261 
 PTB  HZ I        1551 31.90         5.7 0.44            130            146 261 
 ZAR  HZ EP       1551 13.23                             120    0.69 8  205 294 
 ZAR  HE ES       1551 37.29                             120   -0.19 8  205 294 
 ZAR  HZ I        1551 44.33         4.2 0.32            120            205 294 
                                                                                
