 2011  719 1027 17.1 L   6.760 -73.118142.4  RSN  7 0.3 1.7LRSN                1
 GAP=159        0.53       2.7     4.8  4.5 -0.1381E+01 -0.4666E+00 -0.1489E+01E
 Epicentro: LOS SANTOS - SANTANDER                                             3
 ACTION:UPD 12-07-25 14:01 OP:epov STATUS:               ID:20110719102717 L   I
 2011-07-19-1027-25S.COL___142                                                 6
 STAT SP IPHASW D HRMM SECON CODA AMPLIT PERI AZIMU VELO AIN AR TRES W  DIS CAZ7
 BAR2 SZ EP   1   1027 36.01                             172   -0.25 7 19.9 201 
 BAR2 SZ ES   1   1027 51.25                             172    0.04 7 19.9 201 
 BAR2 SZ I        1027 51.75        11.9 0.18                          19.9 201 
 GIR2 SZ EP   1   1027 36.46                             165   -0.06 7 36.2 347 
 GIR2 SZ ES   1   1027 51.50                             165   -0.16 7 36.2 347 
 BRR  HZ EP   1   1027 38.19                             150    0.01 7 76.1 300 
 BRR  HE ES   1   1027 54.99                             150    0.38 7 76.1 300 
 BRR  HZ I        1027 59.75        11.8 0.14                          76.1 300 
 RUS  HZ EP   1   1027 40.16                             144   -0.04 7 96.0 178 
 RUS  HN ES   1   1027 58.17                             144   -0.04 7 96.0 178 
 RUS  HZ I        1027 59.07         5.1 0.25                          96.0 178 
 BRI  SZ EP   1   1027 41.48                             140    0.57 7  111  18 
 OCA  SZ EP   1   1027 45.58                             128   -0.03 7  165 352 
 OCA  SZ ES   1   1028  7.41                             128   -0.43 7  165 352 
 OCA  SZ I        1028 10.39         8.9 0.36                           165 352 
 NOR  SN ES   1   1028 20.28                             118   -0.09 6  235 236 
                                                                                
