 2010  719 1708 36.0 L   6.762 -73.067146.5  RSN 11 0.3 2.7LRSN                1
 GAP=168        0.83       3.3     6.6  5.6 -0.6038E+01 -0.3325E+01  0.1598E+01E
 Epicentro: LOS SANTOS - SANTANDER                                             3
 ACTION:UPD 10-12-01 15:18 OP:pat  STATUS:               ID:20100719170836 L   I
 2010-07-19-1704-28S.COL___123                                                 6
 STAT SP IPHASW D HRMM SECON CODA AMPLIT PERI AZIMU VELO AIN AR TRES W  DIS CAZ7
 BAR2 SZ IP       17 8 55.82                             171     0.110   23 215 
 BAR2 SZ ES   1   17 9 10.13                             171    -0.9 7   23 215 
 BAR2 SZ I        17 9 12.62       199.0 0.27                            23 215 
 GIR2 SZ EP   1   17 8 55.92                             165     0.0 7   38 338 
 GIR2 SZ ES   2   17 9 11.80                             165     0.3 5   38 338 
 BRR  HZ IP     C 17 8 57.72                             150     0.010   81 298 
 BRR  HZ I        17 8 57.96       220.6 0.15                            81 298 
 BRR  HN ES       17 9 14.98                             150     0.210   81 298 
 RUS  HZ IP     D 17 8 59.72                             145     0.310   96 181 
 RUS  HN ES   1   17 9 18.03                             145     0.2 7   96 181 
 RUS  HZ I        17 9 19.75        63.1 0.40                            96 181 
 GUE  SZ EP       17 9  0.81                             139    -0.110  119   8 
 GUE  SZ I        17 9  2.19        24.1 0.08                           119   8 
 GRA  SZ IP       17 9  1.61                             137     0.210  128  13 
 GRA  SZ I        17 9  2.78        59.4 0.34                           128  13 
 GRA  SZ ES   1   17 9 21.60                             137     0.3 7  128  13 
 OCA  SZ IP       17 9  4.39                             129    -0.5 9  166 350 
 OCA  SZ ES   1   17 9 27.35                             129     0.0 7  166 350 
 OCA  SZ I        17 9 32.99        48.4 0.34                           166 350 
 ROSC BZ EP   2   17 9 14.07                             117    -0.2 4  254 213 
 ROSC BZ I        17 9 53.47        35.3 0.26                           254 213 
 HEL  HZ EP   2   17 9 17.65                             114     0.6 4  280 257 
 HEL  HZ I        17 9 54.41        13.4 0.34                           280 257 
 GUY  SN ES   2   17 9 54.45                             112    -0.2 4  306 236 
 GUY  SZ I        1710  6.66        62.0 0.38                           306 236 
 PRA  HZ EP       17 9 29.19                             107    -0.4 6  393 211 
 PRA  HN ES   1   1710 11.57                             107     0.1 4  393 211 
 PRA  HZ I        1710 17.55        22.9 0.38                           393 211 
                                                                                
