 2017  919 1735 34.7 L   6.735 -73.103142.1  RSN  4 0.3 1.0LRSN                1
 GAP=237        0.74       8.0     9.4  6.6  0.6225E+02 -0.1586E+00 -0.4772E+01E
 Epicentro: JORDAN - SANTANDER                                                 3
 ACTION:UPD 17-10-05 19:14 OP:rebc STATUS:               ID:20170919173534 L   I
 OLDACT:REG 17-09-19 19:48 OP:lv   STATUS:               ID:20170919172738     3
 2017-09-19-1728-00M.COL___450                                                 6
 STAT SP IPHASW D HRMM SECON CODA AMPLIT PERI AZIMU VELO AIN AR TRES W  DIS CAZ7
 BAR2 EZ EP       1735 53.58                             172   -0.1910 18.0 209 
 BAR2 EZ ES       1736  8.30                             172   -0.3710 18.0 209 
 BAR2 EZ I        1736  9.76         4.3 0.24            170           18.0 209 
 BRR  HZ EP       1735 55.94                             149    0.0410 78.9 301 
 BRR  HN ES       1736 12.92                             149    0.4710 78.9 301 
 RUS  HZ EP       1735 57.72                             145    0.1810 93.2 179 
 RUS  HN ES       1736 15.47                             145    0.0910 93.2 179 
 RUS  HZ I        1736 16.95         1.1 0.18            145           93.2 179 
 ZAR  HE ES       1736 33.02                             121   -0.32 8  211 293 
                                                                                
