 2011  319 1145 48.7 L   6.320 -73.185178.2  RSN 10 0.3 2.4LRSN                1
 GAP=128        0.54       2.7     4.3  4.6 -0.4642E+01  0.3956E+01  0.1997E+01E
 Epicentro: CHARALA - SANTANDER                                                3
 ACTION:UP  11-06-16 14:34 OP:jfem STATUS:               ID:20110319114548 L   I
 2011-03-19-1143-21S.COL___135                                                 6
 STAT SP IPHASW D HRMM SECON CODA AMPLIT PERI AZIMU VELO SNR AR TRES W  DIS CAZ7
 BAR2 SZ EP   1   1146 12.22                             170    -0.2 9   30   0 
 BAR2 SZ ES   1   1146 30.70                             170    -0.1 9   30   0 
 RUS  HZ EP   1   1146 13.27                             164     0.0 9   49 167 
 RUS  HE ES   2   1146 32.82                             164     0.4 6   49 167 
 RUS  HZ I        1146 35.40        82.0 0.41                            49 167 
 BTL  SZ EP   1   1146 13.87                             159     0.3 9   67 352 
 BTL  SZ ES   2   1146 32.98                             159     0.0 6   67 352 
 YOP  SZ EP   2   1146 17.41                             141    -0.3 5  136 142 
 YOP  SZ I        1146 17.82        23.5 0.42                           136 142 
 GRA  SZ EP   1   1146 20.95                             133    -0.3 8  178  14 
 GRA  SZ ES   1   1146 46.74                             133     0.1 8  178  14 
 GRA  SZ I        1146 52.00        21.2 0.36                           178  14 
 CHI  HZ EP       1146 23.69                             130     0.410  196 198 
 NOR  SZ EP   1   1146 23.87                             129     0.3 7  205 246 
 NOR  SE ES   1   1146 50.38                             129    -0.4 7  205 246 
 OCA  SZ EP   1   1146 24.50                             128     0.0 7  213 356 
 OCA  SZ ES   1   1146 52.31                             128    -0.1 7  213 356 
 OCA  SZ I        1146 57.47        32.5 0.32                           213 356 
 DBB  SZ EP   1   1146 38.46                             115     0.4 6  343 283 
 DBB  SZ I        1146 38.92         4.1 0.27                           343 283 
 DBB  SZ ES   2   1147 16.73                             115     0.1 4  343 283 
 PRA  HZ EP   1   1146 37.67                             114    -0.5 6  344 213 
 PRA  HE ES   1   1147 16.47                             114    -0.3 6  344 213 
                                                                                
