 2016 1119 1140 36.1 L   6.808 -73.140151.2  RSN 13 0.5 2.4LRSN                1
 GAP= 73        1.09       4.9     3.3  6.0 -0.1113E+00  0.2727E+01  0.1075E+02E
 Epicentro: LOS SANTOS - SANTANDER                                             3
 ACTION:UPD 17-10-26 21:09 OP:lp   STATUS:               ID:20161119114036 L   I
 OLDACT:UP  16-11-19 20:44 OP:ar   STATUS:               ID:20161119113748     3
 OLDACT:REG 16-11-19 18:59 OP:edw  STATUS:               ID:20161119113748     3
 2016-11-19-1138-00M.COL___325                                                 6
 STAT SP IPHASW D HRMM SECON CODA AMPLIT PERI AZIMU VELO AIN AR TRES W  DIS CAZ7
 BAR2 EZ EP       1140 56.31                             170   -0.0710 24.3 191 
 BAR2 EZ ES       1141 11.56                             170   -0.6610 24.3 191 
 BAR2 EZ I        1141 12.81        87.5 0.26            166           24.3 191 
 BRR  HZ IP     C 1140 58.12                             153    0.3010 71.3 298 
 BRR  HN ES       1141 15.28                             153    0.5010 71.3 298 
 BRR  HZ I        1141 16.53        35.3 0.12            153           71.3 298 
 PAM  EZ IP     C 1140 59.11                             152    0.3010 76.3  40 
 PAM  EE ES       1141 16.38                             152   -0.1710 76.3  40 
 PAM  EZ I        1141 18.51        45.6 0.52            151           76.3  40 
 PTB  HZ EP       1141  3.49                             133   -0.07 9  149 259 
 PTB  HN ES       1141 24.57                             133   -0.43 9  149 259 
 PTB  HZ I        1141 30.75        24.3 0.34            130            149 259 
 TAM  HZ EP       1141  4.76                             132    0.60 9  155 105 
 TAM  HZ I        1141 25.65        21.0 0.28            127            155 105 
 TAM  HN ES       1141 25.97                             132   -0.09 9  155 105 
 ZAR  HZ EP       1141  9.36                             123    0.46 9  204 292 
 ZAR  HN ES       1141 34.10                             123   -0.41 9  204 292 
 ZAR  HZ I        1141 39.63        29.4 0.38            121            204 292 
 NOR  HZ EP       1141 12.39                             119    0.16 8  236 234 
 NOR  HN ES       1141 41.01                             119    0.58 8  236 234 
 NOR  HZ I        1141 49.78        14.5 0.42            116            236 234 
 CHI  HZ EP       1141 14.71                             118    0.52 8  250 195 
 CHI  HE ES   4   1141 43.49                             118   -0.43 0  250 195 
 CHI  HZ I        1141 47.30        18.2 0.64            114            250 195 
 URE  HZ EP   4   1141 15.23                             114   -2.21 0  284 292 
 URE  HN ES   4   1141 44.73                             114   -4.97 0  284 292 
 PTGC HZ EP       1141 19.50                             112   -0.75 7  309 159 
 PTGC HN ES   4   1141 53.19                             112   -1.52 0  309 159 
 PTGC HZ I        1142  1.08        12.9 0.36            109            309 159 
 LL6C HZ EP   4   1141  1.47                             111   -20.4 0  324 357 
 LL6C HN ES   4   1141 38.99                             111   -18.7 0  324 357 
 ELA  HE ES   4   1142  3.64                             111    3.54 0  330 229 
 ELA  HZ I        1142 12.80        11.5 0.44            108            330 229 
 CBOC HZ EP   4   1141 24.72                             111    1.40 0  334 252 
 ORTC HZ EP       1141 29.53                             107   -0.78 6  397 216 
 ORTC HN ES       1142 12.60                             107   -0.01 6  397 216 
 ORTC HZ I        1142 17.53         8.6 0.22            104            397 216 
 SJC  HZ EP       1141 30.53                             106   -1.24 6  409 327 
 SJC  HN ES   4   1142 12.39                             106   -2.82 0  409 327 
 SJC  HZ I        1142 19.43         5.3 0.42            104            409 327 
 CRJC HZ EP   4   1141 36.69                             104   -1.93 0  467   3 
 CRJC HN ES   4   1142 24.40                             104   -3.01 0  467   3 
 CRJC HZ I        1142 29.17         6.3 0.18            102            467   3 
                                                                                
