 2013  319 1717 11.4 L   6.801 -73.156147.2  RSN 15 0.4 3.4LRSN 3.7WRSN        1
 SPEC AVERAGE  MO 14.6 ST 28.5 OM  2.6 f0 3.54 R0.6272 AL 3.21 WI 27.1 MW  3.7 3
 SPEC SD       MO  0.2 ST 31.3 OM  0.4 f0 1.61 R0.2560 AL      WI      MW  0.1 3
 GAP= 70        0.92       2.3     2.9  4.3  0.2688E+00  0.2446E+01  0.8458E+00E
 Epicentro: LOS SANTOS - SANTANDER                                             3
 SPEC ZAR HH N MO 14.6 ST 60.1 OM  2.5 f0 6.04 R0.3013 AL 3.84 WI 19.0 MW  3.7 3
 SPEC ZAR HH N T1718 7 K 0.050 GD  250 VS 5.20 DE 3.20 Q0750.0 QA 1.50 VS 5.20 3
 SPEC OCA HH N MO 14.9 ST 60.5 OM  2.9 f0 4.67 R0.3897 AL 4.58 WI 23.8 MW  3.9 3
 SPEC OCA HH N T1718 0 K 0.050 GD  217 VS 5.20 DE 3.20 Q0750.0 QA 1.50 VS 5.20 3
 SPEC PAM SH N MO 14.5 ST  2.7 OM  2.6 f0 2.29 R0.7948 AL 3.11 WI 12.4 MW  3.6 3
 SPEC PAM SH N T171749 K 0.050 GD  166 VS 5.20 DE 3.20 Q0750.0 QA 1.50 VS 5.20 3
 SPEC PAM SH Z MO 14.8 ST 81.8 OM  2.2 f0 5.84 R0.3116 AL 5.55 WI 16.4 MW  3.8 3
 SPEC PAM SH Z T171733 K 0.050 GD  166 VP 8.60 DE 3.20 Q0750.0 QA 1.50 VS 5.20 3
 SPEC COD HH E MO 14.4 ST  1.1 OM  2.1 f0 1.89 R0.9630 AL 2.47 WI 35.9 MW  3.5 3
 SPEC COD HH E T171832 K 0.050 GD  377 VS 5.20 DE 3.20 Q0750.0 QA 1.50 VS 5.20 3
 SPEC DBB SH Z MO 14.6 ST  2.0 OM  1.7 f0 1.92 R0.9479 AL 1.98 WI 35.7 MW  3.7 3
 SPEC DBB SH Z T171758 K 0.050 GD  368 VP 8.60 DE 3.20 Q0750.0 QA 1.50 VS 5.20 3
 SPEC HEL HH N MO 14.5 ST  6.1 OM  2.3 f0 3.06 R0.5948 AL 2.81 WI 34.1 MW  3.6 3
 SPEC HEL HH N T171821 K 0.050 GD  308 VS 5.20 DE 3.20 Q0750.0 QA 1.50 VS 5.20 3
 SPEC CHI HH N MO 14.7 ST  3.7 OM  2.6 f0 2.11 R0.8626 AL 2.36 WI 29.2 MW  3.8 3
 SPEC CHI HH N T171815 K 0.050 GD  288 VS 5.20 DE 3.20 Q0750.0 QA 1.50 VS 5.20 3
 SPEC CHI HH Z MO 14.7 ST  5.0 OM  1.9 f0 2.41 R0.7552 AL 1.73 WI 29.7 MW  3.7 3
 SPEC CHI HH Z T171746 K 0.050 GD  288 VP 8.60 DE 3.20 Q0750.0 QA 1.50 VS 5.20 3
 SPEC BRR HH N MO 14.8 ST 62.3 OM  2.9 f0 5.19 R0.3507 AL 3.68 WI 34.8 MW  3.8 3
 SPEC BRR HH N T171748 K 0.050 GD  163 VS 5.20 DE 3.20 Q0750.0 QA 1.50 VS 5.20 3
 ACTION:UPD 13-04-09 14:03 OP:ep   STATUS:               ID:20130319171711 L   I
 2013-03-19-1710-00M.COL___244                                                 6
 STAT SP IPHASW D HRMM SECON CODA AMPLIT PERI AZIMU VELO AIN AR TRES W  DIS CAZ7
 BAR2 SZ EP       1717 31.29                             171    0.0610 23.2 187 
 BAR2 SZ ES       1717 46.45                             171   -0.2310 23.2 187 
 BAR2 SZ I        1717 47.56       745.0 0.22            167           23.2 187 
 BRR  HZ EP       1717 33.11                             153    0.4310 70.1 299 
 BRR  HN ES       1717 49.83                             153    0.5810 70.1 299 
 BRR  HN I        1717 50.56       599.5 0.34            141           70.1 299 
 PAM  SZ IP     D 1717 34.05                             151    0.2110 78.1  40 
 PAM  SN ES       1717 51.30                             151   -0.0210 78.1  40 
 PAM  SN I        1717 53.26       509.7 0.52            146           78.1  40 
 RUS  HZ IP     C 1717 35.16                             144   -0.1810  101 175 
 RUS  HN ES       1717 53.37                             144   -0.6110  101 175 
 RUS  HN I        1717 55.62       233.3 0.36            138            101 175 
 PTB  HZ EP       1717 37.88                             132   -0.54 9  147 259 
 PTB  HN ES       1717 58.99                             132   -0.47 9  147 259 
 PTB  HN I        1718  4.49       320.6 0.22            122            147 259 
 TAM  HZ EP       1717 39.56                             131    0.23 9  156 105 
 TAM  HN ES       1718  1.17                             131    0.08 9  156 105 
 TAM  HN I        1718  1.92       394.3 0.42            126            156 105 
 OCA  HZ EP       1717 40.22                             130    0.39 9  160 354 
 OCA  HN ES       1718  1.86                             130   -0.13 9  160 354 
 OCA  HN I        1718  8.09       700.1 0.30            121            160 354 
 ZAR  HZ EP       1717 44.07                             123    0.21 9  203 292 
 ZAR  HE ES       1718  9.54                             123    0.39 9  203 292 
 ZAR  HE I        1718 14.98       305.0 0.20            113            203 292 
 CHI  HZ EP       1717 49.51                             117    0.32 8  248 195 
 CHI  HN ES       1718 18.41                             117   -0.22 8  248 195 
 CHI  HN I        1718 24.70       215.1 0.44            110            248 195 
 HEL  HZ EP   4   1717 53.15                             115    1.55 0  271 256 
 HEL  HN ES   4   1718 24.31                             115    1.39 0  271 256 
 HEL  HN I        1718 30.92        71.5 0.54            107            271 256 
 URE  HZ EP       1717 51.91                             114   -0.54 7  283 292 
 URE  HN I        1718 32.10       179.8 0.26            106            283 292 
 VIL  SZ EP       1717 54.57                             112   -0.33 7  303 191 
 VIL  SN ES       1718 29.35                             112    0.55 7  303 191 
 VIL  SN I        1718 36.33       272.9 0.46            106            303 191 
 DBB  SZ EP       1717 58.91                             110    0.08 7  338 274 
 DBB  SZ I        1718 39.29        54.1 0.40            103            338 274 
 COD  HZ EP       1717 59.31                             109   -0.53 6  348 355 
 COD  HE ES       1718 36.96                             109   -0.64 6  348 355 
 COD  HE I        1718 42.17        41.8 0.42            103            348 355 
 PRA  HZ EP       1718  4.81                             107   -0.13 6  392 209 
 PRA  HE ES       1718 47.66                             107    0.98 6  392 209 
 PRA  HE I        1718 53.47        87.8 0.36            101            392 209 
                                                                                
