 2012  219 1126 19.5 L   6.768 -73.126143.1  RSN 10 0.4 2.0LRSN                1
 GAP=140        0.75       3.9     3.1  5.6 -0.1023E+01  0.4524E+01  0.2296E+01E
 ACTION:UP  12-03-07 16:32 OP:epov STATUS:               ID:20120219112619 L   I
 2012-02-19-1120-00M.COL___187                                                 6
 STAT SP IPHASW D HRMM SECON CODA AMPLIT PERI AZIMU VELO AIN AR TRES W  DIS CAZ7
 BAR2 SZ EP       1126 38.75                             171   -0.0510 20.3 198 
 BAR2 SZ ES   1   1126 53.67                             171   -0.15 7 20.3 198 
 BAR2 SZ I        1126 55.89        32.5 0.23                          20.3 198 
 GIR2 SZ EP   1   1126 38.89                             166   -0.13 7 35.2 348 
 BRR  HZ IP     C 1126 40.72                             151    0.1010 74.8 300 
 BRR  HE ES   1   1126 57.69                             151    0.63 7 74.8 300 
 BRR  HZ I        1126 59.41        22.6 0.24                          74.8 300 
 PAM  SZ EP       1126 41.68                             150    0.1110 78.9  37 
 PAM  SN ES   1   1126 58.51                             150   -0.24 7 78.9  37 
 RUS  HZ EP   1   1126 42.68                             144   -0.09 7 96.9 177 
 RUS  HN ES   1   1127  0.88                             144    0.00 7 96.9 177 
 PTB  HZ EP   1   1126 45.37                             131   -1.06 7  149 260 
 PTB  HN ES       1127  7.50                             131    0.10 9  149 260 
 ZAR  HZ EP   1   1126 52.17                             121    0.01 6  207 293 
 ZAR  HN ES       1127 17.55                             121   -0.06 8  207 293 
 ZAR  HZ I        1127 18.86         8.5 0.16                           207 293 
 NOR  SZ EP   1   1126 54.84                             118   -0.25 6  234 235 
 NOR  SN ES   1   1127 22.75                             118   -0.06 6  234 235 
 CHI  HZ EP   1   1126 57.66                             117    0.88 6  246 196 
 HEL  HZ EP   2   1127  0.76                             114    1.00 4  273 257 
 HEL  HN ES       1127 31.03                             114   -0.09 8  273 257 
 HEL  HZ I        1127 37.82         5.5 0.28                           273 257 
                                                                                
