 2014 1219 1009 14.8 L   6.756 -73.168151.2  RSN  6 0.3 1.2LRSN                1
 GAP=136        0.73       5.4     4.1  6.6  0.6801E+01 -0.1662E+01 -0.4016E+01E
 Epicentro: LOS SANTOS - SANTANDER                                             3
 ACTION:UPD 15-02-10 17:05 OP:nd   STATUS:               ID:20141219100914 L   I
 OLDACT:REG 14-12-19 20:32 OP:spq  STATUS:               ID:20141219100743     3
 2014-12-19-1007-43M.COL___290                                                 6
 STAT SP IPHASW D HRMM SECON CODA AMPLIT PERI AZIMU VELO AIN AR TRES W  DIS CAZ7
 BAR2 EZ EP   1   10 9 34.61                             173   -0.40 7 18.1 185 
 BAR2 EZ ES   1   10 9 50.27                             173   -0.49 7 18.1 185 
 BAR2 EZ I        10 9 51.39         4.5 0.20            169           18.1 185 
 BRR  HN ES       10 9 53.96                             153    0.4110 71.6 303 
 BRR  HZ I        10 9 56.07         3.7 0.70            151           71.6 303 
 PAM  SZ EP       10 9 37.88                             150   -0.0510 82.7  39 
 RUS  HZ EP   1   10 9 39.34                             146    0.56 7 95.9 174 
 RUS  HE ES   1   10 9 57.66                             146    0.19 7 95.9 174 
 RUS  HZ I        10 9 58.38         1.0 0.46            146           95.9 174 
 PTB  HZ EP       10 9 41.87                             134   -0.07 9  144 261 
 PTB  HN ES       1010  2.89                             134   -0.21 9  144 261 
 PTB  HZ I        1010 10.10         1.4 0.52            132            144 261 
 ZAR  HN ES       1010 13.11                             124   -0.04 9  204 294 
 ZAR  HZ I        1010 15.35         1.8 0.46            123            204 294 
                                                                                
