 2016 1119 1954 25.2 L   6.800 -73.171141.8  RSN 10 0.3 1.9LRSN                1
 GAP=142        0.72       3.1     3.2  4.6 -0.2047E+01  0.1032E+01  0.6532E+01E
 Epicentro: LOS SANTOS - SANTANDER                                             3
 ACTION:UPD 17-10-26 21:09 OP:lp   STATUS:               ID:20161119195425 L   I
 OLDACT:UP  16-11-19 20:29 OP:edw  STATUS:               ID:20161119194744     3
 OLDACT:UP  16-11-19 20:28 OP:edw  STATUS:               ID:20161119194744     3
 OLDACT:UP  16-11-19 20:27 OP:edw  STATUS:               ID:20161119194744     3
 OLDACT:UP  16-11-19 20:26 OP:edw  STATUS:               ID:20161119194744     3
 OLDACT:REG 16-11-19 20:21 OP:edw  STATUS:               ID:20161119194744     3
 2016-11-19-1948-00M.COL___337                                                 6
 STAT SP IPHASW D HRMM SECON CODA AMPLIT PERI AZIMU VELO AIN AR TRES W  DIS CAZ7
 BAR2 EZ EP       1954 44.39                             170    0.0610 23.0 183 
 BAR2 EZ ES       1954 59.06                             170   -0.2010 23.0 183 
 BAR2 EZ I        1955  0.32        22.0 0.30            170           23.0 183 
 BRR  HZ EP       1954 45.96                             153    0.2010 68.7 300 
 BRR  HN ES       1955  2.13                             153    0.3210 68.7 300 
 PAM  EZ EP       1954 47.19                             149    0.1010 79.2  41 
 PAM  EN ES       1955  4.09                             149   -0.0810 79.2  41 
 PAM  EZ I        1955  6.39        10.9 0.50            151           79.2  41 
 PTB  HZ EP   9   1954 51.09                             132   -0.49 0  145 259 
 PTB  HN ES       1955 11.90                             133    0.23 9  145 259 
 PTB  HZ I        1955 13.94         9.8 0.40            131            145 259 
 ZAR  HZ EP   4   1954 58.37                             122    1.27 0  201 292 
 ZAR  HN ES       1955 21.31                             122   -0.68 9  201 292 
 ZAR  HZ I        1955 27.41         9.3 0.38            121            201 292 
 NOR  HZ EP       1955  1.09                             118    0.65 8  232 234 
 NOR  HN ES       1955 28.00                             118    0.06 8  232 234 
 NOR  HZ I        1955 32.93         4.5 0.20            118            232 234 
 CHI  HZ EP       1955  2.22                             116   -0.37 8  248 195 
 CHI  HN ES       1955 31.53                             116   -0.23 8  248 195 
 CHI  HZ I        1955 33.94         6.7 0.34            117            248 195 
 URE  HZ EP   4   1955  3.87                             113   -1.90 0  281 292 
 URE  HN ES   4   1955 35.31                             113   -2.11 0  281 292 
 URE  HZ I        1955 38.12         4.2 0.14            113            281 292 
 PRA  HZ EP       1955 18.34                             106   -0.07 6  391 209 
 PRA  HE ES       1956  0.05                             106    0.13 6  391 209 
 PRA  HZ I        1956  3.89         5.5 0.54            106            391 209 
 SJC  HZ EP   9   1955 17.55                             105   -2.89 0  408 327 
 SJC  HE ES       1956  0.60                             106   -0.04 6  408 327 
                                                                                
