 2017  119 1150 49.5 L   6.845 -73.213147.9  RSN  9 0.5 2.2LRSN                1
 GAP=126        1.05       4.3     4.2  6.8 -0.1579E+01  0.7385E+01  0.4976E+01E
 Epicentro: ZAPATOCA - SANTANDER                                               3
 ACTION:UPD 17-05-22 16:01 OP:jn   STATUS:               ID:20170119115049 L   I
 OLDACT:UP  17-01-19 23:42 OP:cog  STATUS:               ID:20170119114743     3
 OLDACT:REG 17-01-19 21:40 OP:cog  STATUS:               ID:20170119114743     3
 2017-01-19-1148-00M.COL___336                                                 6
 STAT SP IPHASW D HRMM SECON CODA AMPLIT PERI AZIMU VELO AIN AR TRES W  DIS CAZ7
 BAR2 EZ EP       1151  9.53                             169    0.0010 28.2 173 
 BAR2 HN ES       1151 25.10                             169   -0.0210 28.2 173 
 BAR2 EZ I        1151 25.79        36.9 0.24            171           28.2 173 
 BRR  HZ EP   3   1151 11.49                             156    1.05 2 62.3 298 
 BRR  HN ES   2   1151 27.68                             156    0.93 5 62.3 298 
 BRR  HZ I        1151 29.69        20.0 0.14            153           62.3 298 
 PAM  EZ EP       1151 12.48                             151    0.4210 78.7  46 
 PAM  EE ES       1151 29.60                             151   -0.0210 78.7  46 
 PAM  EZ I        1151 31.72        48.0 0.50            153           78.7  46 
 RUS  HZ EP       1151 13.56                             143   -0.3510  106 172 
 RUS  HN ES       1151 32.93                             143    0.0010  106 172 
 RUS  HZ I        1151 33.31        20.9 0.24            145            106 172 
 PTB  HZ EP       1151 15.99                             134   -0.14 9  142 256 
 PTB  HN ES       1151 36.91                             134    0.04 9  142 256 
 PTB  HZ I        1151 40.22        12.2 0.18            133            142 256 
 ZAR  HZ EP   2   1151 21.11                             124   -0.12 4  195 292 
 ZAR  HE ES       1151 44.94                             124   -1.01 9  195 292 
 ZAR  HZ I        1151 53.76        11.8 0.32            124            195 292 
 NOR  HZ EP       1151 25.75                             119    0.68 8  232 232 
 NOR  HE ES       1151 53.59                             119    0.80 8  232 232 
 NOR  HZ I        1151 56.06         9.1 0.20            120            232 232 
 CHI  HZ EP       1151 27.72                             117    0.04 8  252 193 
 CHI  HN ES       1151 56.65                             117   -0.78 8  252 193 
 CHI  HZ I        1152  0.55        10.4 0.52            119            252 193 
 GUY2CHZ EP   9   1151 34.17                             113    1.27 0  298 233 
 GUY2CHE ES       1152  8.27                             113    0.28 7  298 233 
 GUY2CHZ  IAML    1152 15.69         7.9 0.26                           298 233 
 CBOC HE ES   4   1152 12.67                             111    0.58 0  328 251 
                                                                                
