 2016 1219 1820 44.6 L   6.791 -73.178145.9  RSN  4 0.5 1.2LRSN                1
 GAP=133        1.28       7.1     6.9 12.4 -0.5816E+01 -0.2503E+01  0.1225E+02E
 Epicentro: LOS SANTOS - SANTANDER                                             3
 ACTION:UPD 17-01-11 20:16 OP:rebc STATUS:               ID:20161219182044 L   I
 OLDACT:REG 16-12-19 19:26 OP:edw  STATUS:               ID:20161219181430     3
 2016-12-19-1818-00M.COL___378                                                 6
 STAT SP IPHASW D HRMM SECON CODA AMPLIT PERI AZIMU VELO AIN AR TRES W  DIS CAZ7
 BRR  HZ EP       1821  5.98                             153    0.4010 68.6 301 
 BRR  HN ES       1821 22.76                             153    0.7910 68.6 301 
 PAM  EZ EP       1821  6.88                             150   -0.1010 80.4  41 
 PAM  EE ES       1821 23.91                             150   -0.5410 80.4  41 
 PAM  EZ I        1821 24.44         3.9 0.24            151           80.4  41 
 RUS  HZ EP       1821  8.33                             144    0.0510 99.9 174 
 RUS  HN ES       1821 26.94                             144    0.1710 99.9 174 
 RUS  HZ I        1821 28.87         2.2 0.30            143           99.9 174 
 PTB  HZ EP   2   1821 11.51                             133    0.30 5  144 259 
 PTB  HN ES       1821 31.05                             133   -0.94 9  144 259 
                                                                                
