 2013  719 1950 22.0 L   6.784 -73.142138.8  RSN  9 0.5 2.0LRSN                1
 GAP=186        1.35       6.0     6.7  7.9  0.8775E+01  0.2035E+02  0.1369E+02E
 Epicentro: LOS SANTOS - SANTANDER                                             3
 ACTION:UPD 13-08-12 10:38 OP:ep   STATUS:               ID:20130719195022 L   I
 OLDACT:REG 13-07-19 16:13 OP:nd   STATUS:               ID:20130719194959     3
 2013-07-19-1949-59M.COL___266                                                 6
 STAT SP IPHASW D HRMM SECON CODA AMPLIT PERI AZIMU VELO AIN AR TRES W  DIS CAZ7
 BAR2 SZ EP       1950 40.69                             171   -0.0310 21.7 192 
 BAR2 SZ ES       1950 55.33                             171   -0.0210 21.7 192 
 BAR2 SZ I        1950 56.67        35.4 0.24            165           21.7 192 
 GIR2 SZ EP       1950 40.81                             166   -0.0510 33.1 350 
 GIR2 SZ ES       1950 54.68                             166   -0.9110 33.1 350 
 GIR2 SZ I        1950 56.98        17.8 0.10            164           33.1 350 
 BRR  HZ IP     C 1950 42.58                             151    0.1510 72.4 300 
 BRR  HN ES       1950 59.36                             151    0.9610 72.4 300 
 BRR  HZ I        1951  2.70        18.3 0.32            147           72.4 300 
 RUS  HZ EP       1950 44.74                             143   -0.1610 98.8 176 
 RUS  HN ES       1951  3.46                             143    0.6710 98.8 176 
 RUS  HZ I        1951  4.23        15.3 0.24            143           98.8 176 
 PTB  HZ EP       1950 47.40                             130   -0.97 9  148 260 
 PTB  HN ES       1951  8.37                             130   -0.61 9  148 260 
 PTB  HZ I        1951 14.66         9.6 0.32            128            148 260 
 ZAR  HZ EP       1950 54.92                             121    0.85 9  205 293 
 ZAR  HE ES       1951 19.34                             121    0.23 9  205 293 
 ZAR  HZ I        1951 27.35         9.2 0.32            120            205 293 
 NOR  HZ EP       1950 57.15                             117   -0.07 8  234 235 
 NOR  HN ES       1951 24.63                             117   -0.09 8  234 235 
 NOR  HZ I        1951 29.69         7.1 0.28            117            234 235 
 GUY2CHZ EP   4   1951  6.11                             111    0.93 0  301 235 
 GUY2CHN ES   4   1951 39.66                             111    0.77 0  301 235 
 GUY2CHZ I        1951 45.79         4.0 0.28                           301 235 
 PRA  HZ EP       1951 15.36                             105    0.27 6  391 210 
 PRA  HN ES       1951 56.50                             105   -0.03 6  391 210 
 PRA  HZ I        1952  5.64         3.2 0.38            106            391 210 
                                                                                
