 2010 1219 1638 37.8 L   6.042 -73.706110.1  RSN 12 0.5 2.5LRSN                1
 GAP= 95        1.03       3.2     4.4  8.7 -0.5654E+01  0.1290E+02 -0.1698E+01E
 Epicentro: BOLIVAR - SANTANDER                                                3
 ACTION:UP  11-01-14 15:26 OP:pat  STATUS:               ID:20101219163837 L   I
 2010-12-19-1637-02S.COL___133                                                 6
 STAT SP IPHASW D HRMM SECON CODA AMPLIT PERI AZIMU VELO SNR AR TRES W  DIS CAZ7
 RUS  HZ IP     D 1638 55.83                             145    -0.110   71 103 
 RUS  HZ I        1638 56.32        56.4 0.25                            71 103 
 RUS  HN ES   1   1639  9.76                             145    -0.3 7   71 103 
 BAR2 SZ IP       1638 56.57                             140     0.010   84  44 
 BAR2 SZ ES   1   1639 10.86                             140    -0.3 7   84  44 
 BAR2 SZ I        1639 12.12       135.6 0.13                            84  44 
 NOR  SZ EP   1   1639  1.07                             124    -0.3 7  140 248 
 NOR  SE ES   1   1639 19.57                             124    -0.1 7  140 248 
 ROSC BZ EP   1   1639  3.44                             122     0.6 7  149 207 
 ROSC BE ES   1   1639 22.97                             122     0.7 7  149 207 
 ROSC BZ I        1639 27.57        24.1 0.67                           149 207 
 CHI  HZ IP     C 1639  3.25                             121    -0.3 9  156 181 
 CHI  HZ I        1639  3.92        23.4 0.20                           156 181 
 CHI  HN ES   1   1639 24.03                             121     0.4 7  156 181 
 HEL  HZ EP   1   1639  8.62                             114     0.1 6  202 275 
 HEL  HE ES   1   1639 31.77                             114    -0.7 6  202 275 
 HEL  HZ I        1639 35.98        16.2 0.36                           202 275 
 GUY  SZ EP   2   1639  9.56                             113     0.6 4  205 244 
 GUY  SZ I        1639 37.38        54.7 0.61                           205 244 
 VIL  SZ EP   2   1639  8.65                             112    -0.8 4  214 177 
 VIL  SN ES   2   1639 33.34                             112    -0.8 4  214 177 
 VIL  SZ I        1639 41.22        16.8 0.21                           214 177 
 GRA  SZ EP   1   1639 11.17                             111     0.2 6  227  26 
 GRA  SZ ES   1   1639 37.41                             111     0.6 6  227  26 
 GRA  SZ I        1639 38.77        26.0 0.51                           227  26 
 OCA  SZ EP   1   1639 13.17                             109    -0.1 6  247  10 
 OCA  SZ ES   1   1639 41.45                             109     0.5 6  247  10 
 OCA  SZ I        1639 50.29        31.6 0.28                           247  10 
 PRA  HZ EP   1   1639 17.13                             105    -0.9 5  289 207 
 PRA  HZ I        1639 20.29        62.7 0.29                           289 207 
 PRA  HN ES   1   1639 50.24                             105     0.8 5  289 207 
 SJA  SZ EP   1   1639 19.55                             104    -0.8 5  307 185 
 SJA  SZ I        1639 21.36        50.9 0.19                           307 185 
 SJA  SZ ES   1   1639 54.12                             104     0.6 5  307 185 
                                                                                
