 2012 1119 1757 52.8 L   6.779 -73.138143.6  RSN  5 0.3 1.7LRSN                1
 GAP=138        0.59       4.1     4.4  6.3  0.3851E+01  0.3329E+01 -0.3156E+00E
 Epicentro: LOS SANTOS - SANTANDER                                             3
 ACTION:UPD 12-12-05 15:34 OP:}ep  STATUS:               ID:20121119175752 L   I
 2012-11-19-1750-00M.COL___233                                                 6
 STAT SP IPHASW D HRMM SECON CODA AMPLIT PERI AZIMU VELO AIN AR TRES W  DIS CAZ7
 BAR2 SZ EP   1   1758 12.34                             171    0.16 7 21.2 193 
 BAR2 SZ ES   1   1758 26.87                             171   -0.38 7 21.2 193 
 BAR2 SZ I        1758 27.79        12.1 0.30                          21.2 193 
 BRR  HZ EP   1   1758 13.71                             151   -0.16 7 73.1 300 
 BRR  HE ES   1   1758 30.87                             151    0.60 7 73.1 300 
 BRR  HZ I        1758 34.02        12.1 0.38                          73.1 300 
 PAM  SZ EP   1   1758 14.96                             150    0.05 7 78.7  38 
 PAM  SN ES   1   1758 32.02                             150   -0.10 7 78.7  38 
 PAM  SZ I        1758 33.94         7.1 0.46                          78.7  38 
 RUS  HZ EP   1   1758 16.33                             144    0.12 7 98.2 176 
 RUS  HN ES   1   1758 34.44                             144    0.00 7 98.2 176 
 ZAR  HE ES   1   1758 50.27                             122   -0.39 6  206 293 
                                                                                
