 2010 1019 1902 22.3 L   6.792 -73.127140.2  RSN 10 0.4 2.3LRSN                1
 GAP=166        0.80       5.0     8.2  8.0 -0.9460E+01  0.1623E+02  0.7516E+01E
 Epicentro: LOS SANTOS - SANTANDER                                             3
 ACTION:UP  11-02-18 11:10 OP:tino STATUS:               ID:20101019190222 L   I
 2010-10-19-1859-25S.COL___125                                                 6
 STAT SP IPHASW D HRMM SECON CODA AMPLIT PERI AZIMU VELO SNR AR TRES W  DIS CAZ7
 BTL  SZ EP   1   19 2 41.26                             171     0.1 7   21 312 
 BAR2 SZ EP   1   19 2 40.85                             170    -0.4 7   23 196 
 BAR2 SZ ES   2   19 2 55.62                             170    -0.4 5   23 196 
 BAR2 SZ I        19 2 56.94        40.5 0.27                            23 196 
 BRR  HZ EP   1   19 2 42.62                             151    -0.3 7   74 298 
 BRR  HE ES   2   19 2 59.60                             151     0.5 5   74 298 
 BRR  HZ I        19 3  1.91        46.6 0.12                            74 298 
 RUS  HZ EP   1   19 2 45.07                             143    -0.3 7  100 177 
 RUS  HE ES   2   19 3  3.97                             143     0.5 5  100 177 
 RUS  HZ I        19 3  5.43        20.6 0.25                           100 177 
 GUE  SZ EP   1   19 2 46.97                             138     0.5 7  117  11 
 NOR  SZ EP   1   19 2 57.33                             117    -0.5 6  236 235 
 NOR  SN ES   2   19 3 24.79                             117    -0.8 4  236 235 
 CHI  HZ EP   1   19 2 59.66                             116     0.0 6  248 196 
 CHI  HE ES   2   19 3 29.26                             116     0.5 4  248 196 
 CHI  HZ I        19 3 33.04        12.7 0.49                           248 196 
 ROSC BZ EP   1   19 3  0.78                             115     0.7 6  253 212 
 ROSC BN ES   2   19 3 30.00                             115     0.3 4  253 212 
 ROSC BZ I        19 3 35.82        14.5 0.37                           253 212 
 HEL  HZ EP   1   19 3  2.89                             113     0.5 6  274 256 
 HEL  HZ I        19 3 40.12         9.2 0.42                           274 256 
 PRA  HZ EP   1   19 3 15.04                             105    -0.6 4  392 210 
 PRA  HN ES   2   19 3 57.71                             105     0.5 3  392 210 
                                                                                
