 2013 1019 1355  1.6 L   6.802 -73.138149.9  RSN 11 0.4 2.3LRSN                1
 GAP=137        0.88       2.5     3.7  6.1 -0.3468E+00  0.6461E+01  0.2724E+01E
 Epicentro: LOS SANTOS - SANTANDER                                             3
 ACTION:UPD 13-11-25 09:22 OP:ep   STATUS:               ID:20131019135501 L   I
 OLDACT:UP  13-10-19 18:13 OP:mh   STATUS:               ID:20131019134848     3
 OLDACT:REG 13-10-19 15:47 OP:mh   STATUS:               ID:20131019134848     3
 2013-10-19-1348-48M.COL___217                                                 6
 STAT SP IPHASW D HRMM SECON CODA AMPLIT PERI AZIMU VELO AIN AR TRES W  DIS CAZ7
 BAR2 SZ EP       1355 21.80                             171    0.0910 23.7 192 
 BAR2 SZ I        1355 38.35        89.4 0.24            168           23.7 192 
 BRR  HZ EP   1   1355 23.39                             153    0.19 7 71.8 298 
 BRR  HN ES   1   1355 40.94                             153    0.86 7 71.8 298 
 PAM  SZ EP       1355 24.66                             152    0.4710 76.7  39 
 PAM  SN ES       1355 41.58                             152   -0.2510 76.7  39 
 RUS  HZ EP       1355 25.65                             145   -0.0910  101 177 
 RUS  HN ES       1355 44.18                             145   -0.4210  101 177 
 RUS  HZ I        1355 45.69        14.2 0.20            142            101 177 
 PTB  HZ EP       1355 28.55                             133   -0.41 9  149 259 
 PTB  HN ES       1355 49.82                             133   -0.50 9  149 259 
 OCA  HN ES       1355 52.81                             130    0.29 9  160 353 
 ZAR  HZ EP       1355 34.23                             123   -0.13 9  205 292 
 ZAR  HN ES       1356  0.17                             123    0.23 9  205 292 
 ZAR  HZ I        1356  6.24        16.3 0.38            123            205 292 
 NOR  HZ EP   1   1355 37.88                             119    0.25 6  236 235 
 NOR  HN ES       1356  5.95                             119    0.19 8  236 235 
 NOR  HZ I        1356  9.45        15.2 0.21            118            236 235 
 SML  HZ EP   1   1355 38.66                             118    0.21 6  244 335 
 SML  HN ES       1356  6.51                             118   -0.70 8  244 335 
 CHI  HZ EP   1   1355 38.99                             118   -0.56 6  249 195 
 CHI  HN ES       1356  9.58                             118    0.41 8  249 195 
 CHI  HZ I        1356 17.73         6.3 0.38            116            249 195 
 PRA  HZ EP       1355 55.36                             107    0.05 6  393 210 
 PRA  HN ES       1356 37.69                             107    0.47 6  393 210 
 PRA  HZ I        1356 46.08         7.0 0.32            106            393 210 
 SJC  HZ EP   4   1355 33.24                             106   -24.1 0  409 327 
 SJC  HN ES   4   1356 36.68                             106   -4.09 0  409 327 
                                                                                
