 2010  119 1516 24.8 L   7.405 -73.231126.0  RSN  6 0.3 2.2LRSN                1
 GAP=180        0.56       3.1     8.6  7.2  0.1070E+02  0.3674E+02  0.9011E+01E
 Epicentro: EL PLAYON - SANTANDER                                              3
 ACTION:UP  10-08-24 09:44 OP:vdl  STATUS:               ID:20100119151624 L   I
 2010-01-19-1512-28S.COL___096                                                 6
 STAT SP IPHASW D HRMM SECON CODA AMPLIT PERI AZIMU VELO SNR AR TRES W  DIS CAZ7
 BAR2 SZ EP   1   1516 45.36                             142    -0.2 8   90 177 
 BAR2 SZ ES   1   1517  1.66                             142     0.0 8   90 177 
 OCA  SZ EP   1   1516 45.55                             142    -0.1 8   93 354 
 OCA  SZ ES   1   1517  2.04                             142     0.2 8   93 354 
 OCA  SZ I        1517  4.42        97.6 0.24                            93 354 
 RUS  BZ IP       1516 52.83                             124    -0.110  168 174 
 RUS  BE ES   2   1517 14.79                             124     0.0 5  168 174 
 RUS  BZ I        1517 20.98         7.8 0.37                           168 174 
 HEL  HZ EP   2   1517  5.91                             109     0.0 4  287 242 
 HEL  HZ I        1517 46.09        10.2 0.27                           287 242 
 CHI  HZ EP   2   1517  9.70                             108     0.9 4  312 190 
 CHI  HE ES   2   1517 43.93                             108     0.9 4  312 190 
 CHI  HZ I        1517 51.33         3.9 0.41                           312 190 
 DBB  SZ IP       1517 10.51                             106    -0.2 7  332 263 
                                                                                
