 2016  719 1323  0.7 L   6.971 -73.625104.7  RSN  8 0.4 1.9LRSN                1
 GAP= 96        0.96       4.0     3.2  5.9  0.4901E+01  0.7456E+01  0.1741E+01E
 Epicentro: SAN VICENTE DE CHUCURI - SANTANDER                                 3
 ACTION:UPD 17-03-29 16:53 OP:lp   STATUS:               ID:20160719132300 L   I
 OLDACT:REG 16-07-19 20:08 OP:lv   STATUS:               ID:20160719131759     3
 2016-07-19-1317-59S.COL___340                                                 6
 STAT SP IPHASW D HRMM SECON CODA AMPLIT PERI AZIMU VELO AIN AR TRES W  DIS CAZ7
 BRR  HZ EP       1323 14.94                             170   -0.0310 17.8 328 
 BRR  HE ES       1323 25.98                             170   -0.0910 17.8 328 
 BRR  HZ I        1323 27.13        54.8 0.26            170           17.8 328 
 BAR2 EZ EP       1323 17.83                             146    0.3210 64.5 131 
 BAR2 EZ ES       1323 30.58                             146   -0.0010 64.5 131 
 PAM  EZ EP       1323 21.66                             130    0.0610  110  68 
 PAM  EN ES       1323 37.66                             130   -0.2010  110  68 
 PAM  EZ I        1323 42.19        11.8 0.28            131            110  68 
 RUS  HZ EP       1323 23.91                             124    0.0210  134 153 
 RUS  HE ES       1323 41.68                             124   -0.2510  134 153 
 RUS  HZ I        1323 43.68         9.2 0.22            125            134 153 
 ZAR  HZ EP       1323 25.25                             121    0.52 9  148 293 
 ZAR  HE ES       1323 44.22                             121    0.78 9  148 293 
 ZAR  HZ I        1323 46.53        24.6 0.21            122            148 293 
 NOR  HZ EP       1323 31.56                             111    0.18 8  208 222 
 NOR  HN ES   2   1323 54.61                             111   -0.67 4  208 222 
 NOR  HZ I        1323 58.77         5.2 0.16            112            208 222 
 URE  HZ EP       1323 33.31                             109   -0.29 8  228 292 
 URE  HN ES       1323 58.23                             109   -1.00 8  228 292 
 URE  HZ I        1324  0.14         7.8 0.16            110            228 292 
 SJC  HZ EP       1323 49.72                              99   -0.34 6  366 332 
 SJC  HE ES   4   1324 26.42                              99   -2.11 0  366 332 
 SJC  HZ I        1324 29.46         1.5 0.41            100            366 332 
                                                                                
