 2013  719 1944 54.7 L   6.705 -73.176139.7  RSN  5 0.4 1.7LRSN                1
 GAP=227        0.91       6.7     6.3  7.1  0.2587E+02  0.8369E+01  0.2245E+00E
 Epicentro: VILLANUEVA - SANTANDER                                             3
 ACTION:UPD 13-08-12 10:38 OP:ep   STATUS:               ID:20130719194454 L   I
 OLDACT:REG 13-07-19 16:12 OP:nd   STATUS:               ID:20130719193959     3
 2013-07-19-1939-59M.COL___266                                                 6
 STAT SP IPHASW D HRMM SECON CODA AMPLIT PERI AZIMU VELO AIN AR TRES W  DIS CAZ7
 BAR2 SZ EP       1945 13.22                             175   -0.2110 12.5 183 
 BAR2 SZ ES       1945 27.49                             175   -0.5510 12.5 183 
 BAR2 SZ I        1945 29.14        10.2 0.16            173           12.5 183 
 BRR  HZ EP       1945 15.33                             150   -0.0410 74.0 307 
 BRR  HZ I        1945 31.92        12.5 0.80            143           74.0 307 
 BRR  HN ES       1945 32.04                             150    0.5510 74.0 307 
 RUS  HZ EP       1945 17.04                             146   -0.1010 90.5 173 
 RUS  HN ES       1945 35.17                             146    0.5310 90.5 173 
 RUS  HZ I        1945 36.53         4.4 0.36            146           90.5 173 
 PTB  HZ EP       1945 20.84                             132    0.11 9  143 263 
 PTB  HN ES       1945 40.62                             132   -0.40 9  143 263 
 PTB  HZ I        1945 43.29         5.9 0.26            128            143 263 
 ZAR  HZ EP   2   1945 27.26                             121    0.37 4  205 295 
 ZAR  HE ES       1945 52.00                             121    0.02 9  205 295 
 ZAR  HZ I        1945 57.77         5.9 0.40            115            205 295 
                                                                                
