 2013  419 1832 37.7 L   6.780 -73.163142.3  RSN  5 0.5 2.1LRSN                1
 GAP=135        1.23       6.5     6.2  9.0 -0.3685E+01  0.7099E+01  0.2560E+01E
 Epicentro: LOS SANTOS - SANTANDER                                             3
 ACTION:UPD 13-05-22 14:39 OP:EP   STATUS:               ID:20130419183237 L   I
 2013-04-19-1828-50M.COL___212                                                 6
 STAT SP IPHASW D HRMM SECON CODA AMPLIT PERI AZIMU VELO AIN AR TRES W  DIS CAZ7
 BAR2 SZ EP       1832 56.84                             171    0.0110 20.9 186 
 BAR2 SZ ES       1833 11.47                             171   -0.3110 20.9 186 
 BAR2 SZ I        1833 12.86        14.8 0.20            171           20.9 186 
 BRR  HZ EP       1832 58.65                             152    0.2410 70.6 301 
 BRR  HE ES       1833 15.51                             152    0.9210 70.6 301 
 BRR  HE I        1833 16.00        36.6 0.26            153           70.6 301 
 PAM  SZ EP       1832 59.79                             149    0.1010 80.3  40 
 PAM  SN ES       1833 16.31                             149   -0.5610 80.3  40 
 PAM  SN I        1833 17.65        42.5 0.48            151           80.3  40 
 RUS  HZ EP       1833  0.85                             144   -0.0810 98.5 175 
 RUS  HN ES       1833 19.44                             144    0.3710 98.5 175 
 RUS  HN I        1833 20.88         9.3 0.44            144           98.5 175 
 PTB  HZ EP       1833  4.20                             132    0.06 9  145 260 
 PTB  HN ES       1833 23.93                             132   -0.86 9  145 260 
 PTB  HN I        1833 26.68        16.1 0.26            132            145 260 
                                                                                
