 2010  419 1154 38.7 L   6.735 -72.985139.6  RSN  6 0.2 2.1LRSN                1
 GAP=225        0.53       6.3     7.6  5.2 -0.1146E+02  0.3317E+01 -0.2978E+01E
 Epicentro: CEPITA - SANTANDER                                                 3
 ACTION:UPD 10-08-24 09:59 OP:vdl  STATUS:               ID:20100419115454 L   I
 2010-04-19-1150-11S.COL___100                                                 6
 STAT SP IPHASW D HRMM SECON CODA AMPLIT PERI AZIMU VELO AIN AR TRES W  DIS CAZ7
 BAR2 SZ ES   1   1155 12.32                             169    -0.1 7   27 234 
 BRR  HZ IP     C 1155  0.67                             146     0.310   90 297 
 BRR  HZ I        1155  1.02        35.6 0.12                            90 297 
 BRR  HE ES   1   1155 17.19                             146    -0.1 7   90 297 
 OCA  SZ EP   1   1155  7.24                             126    -0.2 7  170 348 
 OCA  SZ I        1155 34.38        36.2 0.29                           170 348 
 HEL  HZ EP   2   1155 20.34                             112     0.0 4  288 258 
 HEL  HZ I        1155 32.66         4.4 0.44                           288 258 
 HEL  HE ES   2   1155 52.71                             112    -0.1 4  288 258 
 RREF BZ EP   2   1155 25.13                             109    -0.5 3  331 232 
 RREF BZ I        1156 15.03         2.4 0.23                           331 232 
 PRA  HZ EP   2   1155 32.48                             105     0.2 3  395 212 
 PRA  HZ I        1155 37.85         2.8 0.34                           395 212 
                                                                                
