 2014 1019 1805 46.4 L   6.734 -73.182148.1  RSN  4 0.3 1.7LRSN                1
 GAP=228        0.81       6.6     6.6  6.7  0.2323E+02  0.8559E+01  0.4056E+01E
 Epicentro: VILLANUEVA - SANTANDER                                             3
 ACTION:UPD 14-11-29 23:51 OP:nd   STATUS:               ID:20141019180546 L   I
 OLDACT:UP  14-10-19 23:41 OP:cam  STATUS:               ID:20141019175814d    3
 OLDACT:UP  14-10-19 23:41 OP:cam  STATUS:               ID:20141019175814d    3
 OLDACT:DUP 14-10-19 23:38 OP:cam  STATUS:               ID:20141019175814d    3
 2014-10-19-1758-13M.COL___267                                                 6
 STAT SP IPHASW D HRMM SECON CODA AMPLIT PERI AZIMU VELO AIN AR TRES W  DIS CAZ7
 BAR2 SZ ES       18 6 21.14                             174   -0.4610 15.7 180 
 BRR  HZ EP       18 6  7.71                             153   -0.1110 71.6 305 
 BRR  HE ES       18 6 24.95                             153    0.4210 71.6 305 
 BRR  HE I        18 6 28.52        15.5 0.20            150           71.6 305 
 RUS  HZ EP       18 6 10.22                             146    0.3310 93.7 173 
 RUS  HN ES       18 6 28.33                             146    0.1110 93.7 173 
 RUS  HN I        18 6 30.04         6.6 0.26            146           93.7 173 
 PTB  HZ EP       18 6 12.75                             134   -0.34 9  143 261 
 PTB  HN ES       18 6 33.91                             134    0.00 9  143 261 
 PTB  HN I        18 6 40.38         4.3 0.20            131            143 261 
                                                                                
