 2015  519 1011 10.7 L   6.812 -73.291120.1  RSN  6 0.3 1.6LRSN                1
 GAP=106        0.81       3.5     3.7  7.1  0.4778E+00  0.5713E+01 -0.3068E+01E
 Epicentro: ZAPATOCA - SANTANDER                                               3
 ACTION:UPD 15-09-10 22:05 OP:cam  STATUS:               ID:20150519101112dL   I
 OLDACT:DUP 15-05-22 07:05 OP:DRIO STATUS:               ID:20150519101112dL   3
 OLDACT:REG 15-05-19 20:13 OP:ar   STATUS:               ID:20150519100748     3
 2015-05-19-1007-48M.COL___276                                                 6
 STAT SP IPHASW D HRMM SECON CODA AMPLIT PERI AZIMU VELO AIN AR TRES W  DIS CAZ7
 BAR2 EZ EP       1011 27.57                             167    0.2310 27.1 154 
 BAR2 EZ ES       1011 40.45                             167    0.1210 27.1 154 
 BAR2 EZ I        1011 41.92        20.1 0.28            168           27.1 154 
 BRR  HZ EP       1011 27.81                             153   -0.4410 56.8 305 
 BRR  HN ES       1011 42.04                             153    0.0910 56.8 305 
 BRR  HZ I        1011 42.89         9.5 0.35            155           56.8 305 
 PAM  SZ EP       1011 31.28                             142    0.3010 87.6  48 
 PAM  SN ES       1011 46.82                             142    0.0110 87.6  48 
 PAM  SZ I        1011 50.92         5.5 0.30            141           87.6  48 
 RUS  HN ES       1011 48.68                             137   -0.5010  104 167 
 SPBC HN ES   1   1011 57.20                             124    0.59 7  155 214 
 ZAR  HE ES       1012  2.63                             118   -0.13 9  189 294 
                                                                                
