 2010  919 1403 26.6 L   6.796 -73.102142.5  RSN  7 0.5 1.5LRSN                1
 GAP=164        1.05       7.1    15.0 22.2 -0.3961E+02  0.1448E+03 -0.6102E+02E
 Epicentro: LOS SANTOS - SANTANDER                                             3
 ACTION:UP  11-02-18 11:03 OP:tino STATUS:               ID:20100919140326 L   I
 2010-09-19-1401-25S.COL___121                                                 6
 STAT SP IPHASW D HRMM SECON CODA AMPLIT PERI AZIMU VELO SNR AR TRES W  DIS CAZ7
 BAR2 SZ EP       14 3 45.77                             170    -0.110   24 202 
 BAR2 SZ I        14 3 46.21         7.6 0.17                            24 202 
 BRR  HZ EP       14 3 47.61                             150    -0.110   76 297 
 BRR  HZ I        14 3 57.86        12.4 0.29                            76 297 
 RUS  HZ EP   1   14 3 49.79                             143    -0.2 7  100 179 
 RUS  HN ES   1   14 4  8.67                             143     0.4 7  100 179 
 RUS  HZ I        14 4 10.03         3.7 0.21                           100 179 
 GUE  SZ EP   1   14 3 51.71                             139     0.7 7  116  10 
 GUE  SZ I        14 4 15.06         1.8 0.06                           116  10 
 GRA  SZ ES   2   14 4 10.06                             136    -0.8 5  125  15 
 GRA  SZ I        14 4 11.89         9.7 0.30                           125  15 
 NOR  HN ES   2   14 4 31.06                             117     0.4 4  239 235 
 CHI  HN ES   2   14 4 32.75                             116    -0.9 4  250 196 
 CHI  HZ I        14 4 37.31         2.1 0.34                           250 196 
                                                                                
