 2011  519 1222 32.2 L   6.774 -73.107146.0  RSN 25 0.5 3.8LRSN                1
 GAP=129        1.04       4.1     6.0  6.0 -0.1277E+02  0.1219E+02  0.2115E+01E
 Epicentro: LOS SANTOS - SANTANDER                                             3
 ACTION:UP  11-06-29 08:54 OP:tino STATUS:               ID:20110519122232 L   I
 2011-05-19-1221-04S.COL___139                                                 6
 STAT SP IPHASW D HRMM SECON CODA AMPLIT PERI AZIMU VELO SNR AR TRES W  DIS CAZ7
 BAR2 SZ IP     C 1222 51.81                             171     0.010   22 203 
 BAR2 SZ ES   1   1223  6.50                             171    -0.6 7   22 203 
 BRR  HZ IP     D 1222 53.77                             151     0.110   76 299 
 BRR  HZ I        1222 54.27       750.6 0.11                            76 299 
 BRR  HN ES   1   1223 11.10                             151     0.7 7   76 299 
 PAM  SZ IP       1222 54.62                             151     0.210   77  36 
 PAM  SN ES   1   1223 11.95                             151     0.2 7   77  36 
 RUS  HZ IP     D 1222 55.68                             145    -0.110   97 178 
 RUS  HN ES   1   1223 14.13                             145     0.0 7   97 178 
 BRI  SZ EP       1222 56.45                             141     0.210  110  18 
 BRI  SZ ES   1   1223 14.54                             141    -0.4 7  110  18 
 GUE  SZ EP       1222 57.13                             139     0.010  119  10 
 GRA  SZ IP       1222 57.62                             137     0.010  127  15 
 GRA  SZ ES   1   1223 17.26                             137    -0.2 7  127  15 
 GRA  SZ I        1223 18.64       814.0 0.38                           127  15 
 OCA  SZ EP       1223  0.44                             129    -0.4 9  164 352 
 OCA  SZ I        1223 27.21       618.8 0.31                           164 352 
 NOR  SZ EP       1223  7.77                             118    -0.4 8  237 236 
 NOR  SN ES   2   1223 35.60                             118    -0.6 4  237 236 
 ROSC BZ EP       1223 11.30                             117     1.0 8  253 212 
 ROSC BZ I        1223 45.77       430.0 0.50                           253 212 
 HEL  HZ EP       1223 12.87                             114     0.1 7  276 257 
 HEL  HN ES   2   1223 43.58                             114    -0.9 4  276 257 
 VIL  SZ EP   3   1223 15.42                             112     0.0 2  301 192 
 VIL  SN ES   2   1223 48.47                             112    -0.6 4  301 192 
 GUY  SZ EP   3   1223 16.12                             112    -0.2 2  305 236 
 GUY  SN ES   1   1223 51.24                             112     0.5 5  305 236 
 GUY  SZ I        1223 58.34       474.2 0.43                           305 236 
 RREF HZ EP       1223 18.94                             111     0.4 7  323 230 
 RREF HZ I        1224  3.31       353.5 0.43                           323 230 
 DBB  SZ EP       1223 19.51                             109    -0.7 7  344 275 
 TOL  SZ EP       1223 21.26                             109     0.7 7  345 225 
 ANIL HZ EP       1223 22.88                             108     0.7 6  358 225 
 MON  HZ EP   4   1223 18.89                             108    -2.9 0  359 308 
 SDV  BZ EP   2   1223 21.21                             108    -0.9 3  359  49 
 PRA  HZ EP       1223 24.43                             106    -1.3 6  392 210 
 PRA  HZ I        1224 10.31       277.3 0.27                           392 210 
 SJA  SZ EP   4   1223 24.53                             106    -2.0 0  398 194 
 SJA  SZ I        1224 16.37       269.4 0.40                           398 194 
 SJC  HZ EP   4   1223 25.86                             105    -2.5 0  414 327 
 SJC  HZ I        1224 11.52       112.1 0.41                           414 327 
 CAP2 HZ EP   4   1223 36.24                             102    -3.7 0  513 294 
 MARA HZ EP   2   1223 41.59                             101    -1.7 2  537 216 
 URI  HZ EP   4   1223 41.96                             101    -3.5 0  559  13 
 PCON HZ EP       1223 52.06                              99    -0.5 3  612 217 
 POP2 HZ EP   2   1223 52.48                              99     0.2 1  613 220 
 SOTA HZ EP       1223 56.39                              99     0.1 2  643 217 
                                                                                
