 2016  919 2221 59.6 L   6.747 -73.159138.0  RSN  6 0.5 1.4LRSN                1
 GAP=137        1.16       6.0     5.3  9.2 -0.4302E+00  0.1399E+02 -0.6726E+01E
 Epicentro: LOS SANTOS - SANTANDER                                             3
 ACTION:UPD 17-08-17 21:14 OP:lp   STATUS:               ID:20160919222159 L   I
 OLDACT:REG 16-09-20 05:21 OP:dnl  STATUS:               ID:20160919221734     3
 2016-09-19-2218-00M.COL___357                                                 6
 STAT SP IPHASW D HRMM SECON CODA AMPLIT PERI AZIMU VELO AIN AR TRES W  DIS CAZ7
 BAR2 EZ EP   2   2222 18.28                             172    0.07 5 17.3 189 
 BAR2 EZ ES       2222 32.37                             172   -0.3410 17.3 189 
 BAR2 EZ I        2222 33.85         8.9 0.30            173           17.3 189 
 BRR  HZ EP       2222 20.31                             150    0.2710 72.9 303 
 BRR  HN ES       2222 36.46                             150    0.4910 72.9 303 
 BRR  HZ I        2222 42.04         5.0 0.26            151           72.9 303 
 PAM  EZ EP       2222 21.51                             148    0.1410 82.9  38 
 PAM  EE ES       2222 37.89                             148   -0.4410 82.9  38 
 PAM  EZ I        2222 40.49         7.9 0.30            151           82.9  38 
 RUS  HZ EP   2   2222 22.04                             144   -0.16 5 94.9 175 
 RUS  HN ES       2222 40.40                             144    0.5910 94.9 175 
 RUS  HZ I        2222 42.60         2.4 0.34            148           94.9 175 
 PTB  HZ EP       2222 25.24                             131   -0.50 9  145 261 
 PTB  HN ES       2222 45.31                             131   -0.80 9  145 261 
 PTB  HZ I        2222 49.90         2.5 0.12            133            145 261 
 ZAR  HE ES       2222 57.30                             120    0.63 9  205 294 
 ZAR  HZ I        2222 59.16         3.9 0.28            123            205 294 
                                                                                
