 2016  619 2237 39.9 L   6.830 -73.078143.1  RSN 14 0.6 2.1LRSN                1
 GAP=124        1.29       3.6     4.3  6.0 -0.5532E+01  0.1475E+01  0.2198E+01E
 Epicentro: LOS SANTOS - SANTANDER                                             3
 ACTION:UPD 16-07-21 22:20 OP:rebc STATUS:               ID:20160619223739 L   I
 OLDACT:UP  16-06-20 06:22 OP:edw  STATUS:               ID:20160619222750     3
 OLDACT:REG 16-06-20 02:48 OP:edw  STATUS:               ID:20160619222750     3
 2016-06-19-2227-50M.COL___352                                                 6
 STAT SP IPHASW D HRMM SECON CODA AMPLIT PERI AZIMU VELO AIN AR TRES W  DIS CAZ7
 BAR2 EZ EP     D 2237 59.30                             168   -0.0710 28.7 204 
 BAR2 EZ ES       2238 14.67                             168    0.1410 28.7 204 
 BAR2 EZ I        2238 16.95        24.3 0.24                          28.7 204 
 PAM  EZ EP       2238  2.00                             153    0.5610 70.1  37 
 PAM  EN ES       2238 18.64                             153    0.4210 70.1  37 
 PAM  EZ I        2238 21.66         9.9 0.62                          70.1  37 
 BRR  HZ EP     D 2238  1.13                             150    0.0210 76.5 294 
 BRR  HN ES       2238 18.47                             150    0.8510 76.5 294 
 BRR  HZ I        2238 22.64        13.9 0.10                          76.5 294 
 RUS  HZ EP       2238  3.87                             142    0.2210  104 180 
 RUS  HN ES       2238 21.71                             142   -0.4410  104 180 
 RUS  HZ I        2238 23.14        11.9 0.30                           104 180 
 PTB  HZ EP   9   2238  6.14                             130   -1.29 0  156 258 
 PTB  HN ES       2238 27.11                             130   -0.48 9  156 258 
 PTB  HZ I        2238 34.48        13.9 0.60                           156 258 
 OCA  HZ EP       2238  7.52                             129   -0.31 9  158 350 
 OCA  HN ES       2238 28.72                             129   -0.86 9  158 350 
 OCA  HZ I        2238 33.71        39.6 0.46                           158 350 
 SPBC HZ EP   4   2237 21.47                             127   -47.5 0  171 220 
 SPBC HN ES       2238 30.85                             127   -0.71 9  171 220 
 ZAR  HZ EP       2238 12.82                             121    0.01 8  210 291 
 ZAR  HN ES       2238 37.84                             121   -0.61 8  210 291 
 ZAR  HZ I        2238 43.79        13.3 0.38                           210 291 
 NOR  HZ EP       2238 15.90                             117   -0.48 8  243 235 
 NOR  HN ES       2238 44.18                             117   -0.63 8  243 235 
 NOR  HZ I        2238 47.87         8.6 0.20                           243 235 
 CHI  HZ EP       2238 17.85                             116   -0.21 8  254 197 
 CHI  HN ES       2238 48.24                             116    0.44 8  254 197 
 ROSC BZ EP   4   2238 19.33                             115    0.68 0  260 212 
 ROSC BN ES   4   2238 51.50                             115    2.65 0  260 212 
 HEL  HZ EP       2238 22.60                             114    1.69 7  280 256 
 HEL  HN ES   4   2238 54.17                             114    1.29 0  280 256 
 SOCV BZ EP       2238 21.95                             112    0.01 7  293  57 
 SOCV BN ES       2238 54.32                             112   -0.39 7  293  57 
 GUY2CHE ES       2238 59.28                             111    0.31 7  309 235 
 GUY2CHZ I        2239  7.24         6.1 0.68                           309 235 
 PTGC HZ EP   4   2238 22.22                             111   -1.51 0  309 160 
 PTGC HE ES   4   2238 38.13                             111   -19.8 0  309 160 
 GUY2CHZ EP       2238 24.84                             111    0.51 7  309 235 
 PRA  HZ EP       2238 33.48                             106   -0.66 6  399 210 
 PRA  HN ES       2239 16.21                             106   -0.21 6  399 210 
 PRA  HZ I        2239 21.67         4.3 0.24                           399 210 
                                                                                
