 2016  319 2007 25.4 L   6.805 -73.176136.7  RSN  6 0.3 1.9LRSN                1
 GAP=133        0.87       3.4     4.7  6.5 -0.3649E+01  0.1176E+02 -0.6002E+01E
 Epicentro: LOS SANTOS - SANTANDER                                             3
 ACTION:UPD 16-05-13 21:25 OP:cam  STATUS:               ID:20160319200725 L   I
 OLDACT:REG 16-03-20 02:49 OP:drio STATUS:               ID:20160319195746     3
 2016-03-19-1957-46M.COL___305                                                 6
 STAT SP IPHASW D HRMM SECON CODA AMPLIT PERI AZIMU VELO AIN AR TRES W  DIS CAZ7
 BAR2 EZ EP       20 7 44.07                             170    0.1110 23.5 182 
 BAR2 EZ ES       20 7 58.45                             170    0.0310 23.5 182 
 BAR2 EZ I        20 8  1.22        10.2 0.28            170           23.5 182 
 PAM  EZ EP       20 7 47.13                             148    0.3410 79.1  42 
 PAM  EN ES       20 8  3.69                             148    0.2410 79.1  42 
 PAM  EZ I        20 8  5.88        30.2 0.52            153           79.1  42 
 RUS  HZ EP       20 7 48.15                             142   -0.2010  101 174 
 RUS  HE ES       20 8  6.10                             142   -0.1310  101 174 
 RUS  HZ I        20 8  8.15        11.9 0.26            146            101 174 
 PTB  HZ EP       20 7 51.03                             130   -0.34 9  145 258 
 PTB  HN ES       20 8 11.63                             130    0.02 9  145 258 
 PTB  HZ I        20 8 15.32         6.2 0.14            132            145 258 
 OCA  HZ EP       20 7 52.54                             128   -0.42 9  159 354 
 OCA  HN ES       20 8 14.01                             128   -0.42 9  159 354 
 OCA  HZ I        20 8 16.16        23.4 0.24            130            159 354 
 ZAR  HZ EP       20 7 57.75                             121    0.80 9  201 292 
 ZAR  HN ES   4   20 8 22.99                             121    1.45 0  201 292 
 ZAR  HZ I        20 8 28.74         8.5 0.30            122            201 292 
                                                                                
