 2014  919 2234  9.5 L   6.848 -73.102147.4  RSN  8 0.5 2.0LRSN                1
 GAP=140        1.13       4.6     6.8  7.6  0.8150E+00  0.1640E+02 -0.6452E+01E
 Epicentro: LOS SANTOS - SANTANDER                                             3
 ACTION:UPD 14-10-03 23:06 OP:nd   STATUS:               ID:20140919223409 L   I
 OLDACT:REG 14-09-20 02:58 OP:mh   STATUS:               ID:20140919222818     3
 2014-09-19-2228-18M.COL___296                                                 6
 STAT SP IPHASW D HRMM SECON CODA AMPLIT PERI AZIMU VELO AIN AR TRES W  DIS CAZ7
 BAR2 SZ EP   1   2234 29.48                             168    0.00 7 29.6 197 
 BAR2 SZ ES       2234 45.13                             168    0.0810 29.6 197 
 BAR2 SZ I        2234 46.16        51.7 0.05            170           29.6 197 
 PAM  SZ EP       2234 32.23                             153    0.7410 70.2  39 
 PAM  SN ES   1   2234 48.93                             153    0.29 7 70.2  39 
 PAM  SZ I        2234 50.65         7.7 0.16            153           70.2  39 
 BRR  HZ EP   1   2234 31.27                             152    0.32 7 73.2 293 
 BRR  HN ES       2234 47.78                             152    0.1110 73.2 293 
 BRR  HZ I        2234 48.37        16.7 0.28            150           73.2 293 
 RUS  HZ EP       2234 33.58                             143   -0.2110  106 179 
 RUS  HN ES       2234 52.11                             143   -0.6210  106 179 
 RUS  HZ I        2234 54.46         5.2 0.32            146            106 179 
 PTB  HZ EP   1   2234 36.27                             131   -0.87 7  154 257 
 PTB  HN ES   4   2234 56.98                             131   -1.70 0  154 257 
 PTB  HZ I        2234 59.88        19.6 0.05            131            154 257 
 ZAR  HZ EP       2234 42.71                             122    0.39 8  207 290 
 ZAR  HN ES   4   2235 10.15                             122    2.23 0  207 290 
 ZAR  HZ I        2235 13.37         9.9 0.40            122            207 290 
 SML  HZ EP       2234 45.33                             118   -0.60 8  241 334 
 SML  HN ES       2235 13.84                             118   -0.50 8  241 334 
 SML  HZ I        2235 23.02         9.7 0.26            118            241 334 
 GUY2CHZ EP   4   2234 55.86                             112    1.88 0  308 234 
 GUY2CHN ES       2235 29.45                             112    0.78 7  308 234 
 GUY2CHZ I        2235 37.48         3.9 0.72                           308 234 
                                                                                
