 2016  219 2352  6.2 L   6.800 -73.158133.2  RSN  6 0.3 1.4LRSN                1
 GAP=135        0.55       4.3     3.1  6.0 -0.4952E+01  0.4945E+01 -0.7033E+00E
 Epicentro: LOS SANTOS - SANTANDER                                             3
 ACTION:UPD 16-03-04 21:27 OP:rebc STATUS:               ID:20160219235206 L   I
 OLDACT:REG 16-02-20 03:52 OP:dnl  STATUS:               ID:20160219234751     3
 2016-02-19-2347-51M.COL___328                                                 6
 STAT SP IPHASW D HRMM SECON CODA AMPLIT PERI AZIMU VELO AIN AR TRES W  DIS CAZ7
 BAR2 EZ EP   2   2352 24.16                             169   -0.13 5 23.1 187 
 BAR2 EZ ES   2   2352 38.40                             169   -0.02 5 23.1 187 
 BAR2 EZ I        2352 40.62         7.4 0.10            171           23.1 187 
 BRR  HZ EP       2352 26.27                             150    0.3710 70.0 299 
 BRR  HN ES   2   2352 41.79                             150    0.49 5 70.0 299 
 BRR  HZ I        2352 43.86         5.1 0.14            149           70.0 299 
 PAM  EZ EP       2352 27.20                             148    0.0810 78.2  40 
 PAM  EN ES       2352 43.16                             148   -0.3010 78.2  40 
 PAM  EZ I        2352 46.94         3.9 0.38            152           78.2  40 
 RUS  HZ EP   2   2352 28.64                             141   -0.08 5  101 175 
 RUS  HN ES   2   2352 46.57                             141    0.27 5  101 175 
 RUS  HZ I        2352 48.05         2.4 0.26            146            101 175 
 PTB  HZ EP   2   2352 31.43                             129   -0.59 5  146 259 
 PTB  HN ES       2352 51.98                             129   -0.20 9  146 259 
 PTB  HZ I        2352 57.43         4.0 0.20            131            146 259 
 ZAR  HZ EP   2   2352 37.90                             119    0.20 4  203 292 
 ZAR  HE ES   2   2353  2.22                             119   -0.07 4  203 292 
 ZAR  HZ I        2353  8.48         3.4 0.18            121            203 292 
                                                                                
