 2015  819 2146 36.8 L   6.827 -73.131142.0  RSN  9 0.4 2.1LRSN                1
 GAP=137        0.85       3.1     4.0  6.6 -0.1576E+01  0.1374E+02 -0.2279E+01E
 Epicentro: LOS SANTOS - SANTANDER                                             3
 ACTION:UPD 15-09-15 23:03 OP:cam  STATUS:               ID:20150819214636 L   I
 OLDACT:UP  15-08-20 06:23 OP:mh   STATUS:               ID:20150819213749     3
 OLDACT:REG 15-08-20 03:45 OP:mh   STATUS:               ID:20150819213749     3
 2015-08-19-2137-49M.COL___334                                                 6
 STAT SP IPHASW D HRMM SECON CODA AMPLIT PERI AZIMU VELO AIN AR TRES W  DIS CAZ7
 BAR2 EZ EP       2146 55.72                             169   -0.3610 26.6 192 
 BAR2 EZ ES       2147 11.41                             169    0.3110 26.6 192 
 BAR2 EZ I        2147 13.05        21.0 0.44            169           26.6 192 
 PAM  EZ EP       2146 58.65                             151    0.2110 74.0  40 
 PAM  EN ES       2147 15.19                             151   -0.1110 74.0  40 
 PAM  EZ I        2147 17.67        15.9 0.48            155           74.0  40 
 RUS  HZ EP       2147  0.47                             142    0.0410  104 177 
 RUS  HN ES       2147 18.83                             142   -0.0110  104 177 
 RUS  HZ I        2147 20.42         7.5 0.18            145            104 177 
 SPBC HZ EP       2147  5.17                             127   -0.20 9  167 219 
 SPBC HN ES   1   2147 27.14                             127   -0.49 7  167 219 
 SPBC HZ I        2147 28.73        14.0 0.16            129            167 219 
 ZAR  HZ EP       2147 10.04                             121    0.96 9  204 291 
 ZAR  HE EP       2147 10.47                                            204 291 
 ZAR  HN ES       2147 34.25                             121    0.02 9  204 291 
 ZAR  HE ES       2147 34.44                             121            204 291 
 ZAR  HE I        2147 39.48        35.6 0.08            123            204 291 
 ZAR  HZ I        2147 39.68        12.4 0.40                           204 291 
 NOR  HE ES       2147 40.74                             117    0.10 8  238 234 
 NOR  HZ I        2147 46.51         5.1 0.32            119            238 234 
 SML  HZ EP   4   2147 11.77                             117   -1.25 0  242 335 
 SML  HN ES       2147 40.70                             117   -0.56 8  242 335 
 SML  HZ I        2147 43.04        16.5 0.24            119            242 335 
 HEL  HN ES       2147 48.49                             114   -0.05 8  274 255 
 URE  HZ EP   4   2147 19.10                             113    1.33 0  284 291 
 GUY2CHZ EP   2   2147 20.03                             111   -0.59 4  304 234 
 GUY2CHN ES   4   2147 56.17                             111    1.40 0  304 234 
                                                                                
