 2017  319 2300 51.9 L   6.819 -73.132150.9  RSN 23 0.6 2.9LRSN                1
 GAP=119        1.30       3.6     4.4  5.5 -0.7552E+00  0.7372E+01  0.4819E+00E
 Epicentro: LOS SANTOS - SANTANDER                                             3
 ACTION:UPD 17-05-25 18:42 OP:jn   STATUS:               ID:20170319230051 L   I
 OLDACT:UP  17-03-20 05:01 OP:ar   STATUS:               ID:20170319225742     3
 OLDACT:UP  17-03-20 04:56 OP:ar   STATUS:               ID:20170319225742     3
 OLDACT:REG 17-03-20 04:27 OP:ar   STATUS:               ID:20170319225742     3
 2017-03-19-2258-00M.COL___388                                                 6
 STAT SP IPHASW D HRMM SECON CODA AMPLIT PERI AZIMU VELO AIN AR TRES W  DIS CAZ7
 BAR2 EZ EP       23 1 12.17                             170   -0.0610 25.7 193 
 BAR2 EZ ES       23 1 28.22                             170    0.1610 25.7 193 
 BAR2 EZ I        23 1 31.04       137.5 0.38            167           25.7 193 
 BRR  HZ EP       23 1 14.14                             153    0.4810 71.6 296 
 BRR  HN ES       23 1 31.54                             153    0.9310 71.6 296 
 BRR  HZ I        23 1 32.94        98.3 0.14            151           71.6 296 
 PAM  EZ IP     D 23 1 15.04                             152    0.4910 74.8  40 
 PAM  EN ES       23 1 32.44                             152    0.2510 74.8  40 
 PAM  EZ I        23 1 34.63       168.6 0.62            157           74.8  40 
 RUS  HZ EP       23 1 16.02                             145   -0.3110  103 177 
 RUS  HE ES       23 1 34.58                             145   -0.7810  103 177 
 RUS  HZ I        23 1 35.82        60.2 0.38            144            103 177 
 PTB  HZ EP       23 1 18.98                             133   -0.52 9  150 258 
 PTB  HN ES       23 1 40.37                             133   -0.62 9  150 258 
 PTB  HZ I        23 1 46.16        64.6 0.58            131            150 258 
 SPBC HZ EP       23 1 21.05                             130   -0.02 9  166 219 
 SPBC HE ES       23 1 43.52                             130   -0.28 9  166 219 
 SPBC HZ I        23 1 50.10       159.9 0.14            129            166 219 
 ZAR  HZ EP       23 1 24.80                             123    0.01 9  205 291 
 ZAR  HN ES       23 1 50.94                             123    0.53 9  205 291 
 ZAR  HZ I        23 1 57.17        93.8 0.32            123            205 291 
 NOR  HZ EP       23 1 28.23                             119    0.00 8  237 234 
 NOR  HN ES       23 1 56.64                             119    0.10 8  237 234 
 NOR  HZ I        23 1 59.49        64.2 0.32            119            237 234 
 CHI  HZ EP       23 1 30.11                             118   -0.07 8  251 195 
 CHI  HN ES       23 1 59.82                             118   -0.19 8  251 195 
 CHI  HZ I        23 2  5.13        28.9 0.54            118            251 195 
 ROSC BZ EP       23 1 31.83                             118    1.21 8  255 211 
 ROSC BN ES   4   23 2  4.52                             118    3.73 0  255 211 
 ROSC BZ I        23 2  7.71        77.3 0.40            117            255 211 
 URE  HZ EP       23 1 32.88                             115   -0.45 7  284 291 
 URE  HE ES   4   23 2  3.74                             115   -1.88 0  284 291 
 URE  HZ I        23 2  7.31        56.5 0.14            115            284 291 
 GUY2CHZ EP       23 1 37.17                             113    1.11 7  304 235 
 GUY2CHN ES   4   23 2 14.04                             113    3.56 0  304 235 
 GUY2CHZ  IAML    23 2 18.88        59.4 0.78                           304 235 
 LL1C HZ EP   4   23 1 37.57                             113    2.01 0  305 351 
 LL1C HE ES   4   23 2 14.40                             113    4.81 0  305 351 
 VIL  EZ EP       23 1 35.60                             113   -0.25 7  306 192 
 VIL  EE ES   4   23 2 11.99                             113    1.88 0  306 192 
 VIL  EZ I        23 2 19.18        55.8 0.46            113            306 192 
 PTGC HZ IP   9 C 23 1 35.06                             112   -1.12 0  310 159 
 PTGC HN ES       23 2  8.39                             112   -1.18 7  310 159 
 PTGC HZ I        23 2 13.12        28.9 0.46            113            310 159 
 ELA  HZ EP   4   23 1 41.49                             111    2.20 0  332 229 
 ELA  HN ES   4   23 2 20.14                             111    3.91 0  332 229 
 ELA  HZ I        23 2 23.46        39.2 0.32            111            332 229 
 CBOC HZ EP       23 1 40.27                             111    0.96 7  336 252 
 CBOC HN ES       23 2 16.03                             111   -0.23 7  336 252 
 CBOC HZ I        23 2 30.07        17.5 0.66            111            336 252 
 DBB  EZ EP       23 1 39.77                             110   -0.01 7  341 274 
 DBB  EN ES       23 2 15.56                             110   -1.54 7  341 274 
 DBB  EZ I        23 2 18.80        21.7 0.50            110            341 274 
 ANIL HZ EP   9   23 1 44.50                             109    2.26 0  360 224 
 ANIL HN ES       23 2 23.05                             109   -0.68 6  360 224 
 ANIL HZ I        23 2 33.40        78.7 0.44            109            360 224 
 PRA  HZ EP       23 1 45.71                             107   -0.23 6  395 210 
 PRA  HE ES       23 2 28.31                             107    0.26 6  395 210 
 PRA  HZ I        23 2 33.77        36.0 0.38            107            395 210 
 ORTC HZ EP       23 1 46.87                             107    0.53 6  398 216 
 ORTC HE ES   4   23 2 30.88                             107    2.11 0  398 216 
 APAC HZ EP       23 1 46.28                             107   -0.12 6  399 288 
 APAC HN ES       23 2 28.47                             107   -0.41 6  399 288 
 APAC HZ I        23 2 33.95        17.9 0.40            107            399 288 
 SJC  HZ EP       23 1 46.42                             107   -1.15 6  408 327 
 SJC  HN ES   4   23 2 27.59                             107   -3.37 0  408 327 
 SJC  HZ I        23 2 32.06        17.4 0.42            107            408 327 
 CRJC HZ EP       23 1 53.15                             104   -1.18 5  465   3 
 CRJC HE ES       23 2 42.24                             104   -0.75 5  465   3 
 CRJC HZ I        23 2 53.19        14.8 0.22            105            465   3 
 YOT  HZ EP   4   23 1 57.20                             104    1.78 0  474 229 
 YOT  HE ES   4   23 2 48.60                             104    3.66 0  474 229 
 MACC HZ EP   4   23 1 58.90                             102   -2.15 0  523 189 
 MACC HN ES   4   23 2 51.26                             102   -3.69 0  523 189 
                                                                                
