 2012  519 2213 36.0 L   6.666 -73.169145.5  RSN  4 0.3 1.7LRSN                1
 GAP=241        0.73      10.6     7.1  7.9  0.2685E+02  0.1679E+02  0.9735E+01E
 Epicentro: VILLANUEVA - SANTANDER                                             3
 ACTION:UP  12-07-05 12:06 OP:pat  STATUS:               ID:20120519221336 L   I
 2012-05-19-2210-00M.COL___200                                                 6
 STAT SP IPHASW D HRMM SECON CODA AMPLIT PERI AZIMU VELO SNR AR TRES W  DIS CAZ7
 BAR2 SZ EP   1   2213 55.75                             177     0.3 8    8 191 
 BAR2 SZ ES   1   2214 10.14                             177    -0.4 8    8 191 
 BRR  HZ EP   1   2213 57.49                             150     0.0 8   77 309 
 BRR  HE ES   1   2214 14.62                             150     0.4 8   77 309 
 BRR  HZ I        2214 16.11        12.8 0.16                            77 309 
 PTB  HZ EP       2214  2.38                             133    -0.210  143 264 
 PTB  HN ES   1   2214 23.59                             133     0.3 7  143 264 
 PTB  HZ I        2214 25.67         3.6 0.20                           143 264 
 ZAR  HZ EP   2   2214  9.08                             122     0.2 5  208 296 
 ZAR  HN ES   1   2214 33.97                             122    -0.5 7  208 296 
 ZAR  HZ I        2214 39.28         6.6 0.24                           208 296 
                                                                                
