 2016 1019 2239 27.3 L   6.803 -73.176146.5  RSN  7 0.3 1.6LRSN                1
 GAP=133        0.76       3.3     3.9  5.1 -0.1356E+01  0.1987E+01  0.4430E+01E
 Epicentro: LOS SANTOS - SANTANDER                                             3
 ACTION:UPD 16-11-09 19:21 OP:rebc STATUS:               ID:20161019223927 L   I
 OLDACT:REG 16-10-20 03:13 OP:lv   STATUS:               ID:20161019223746     3
 2016-10-19-2238-00M.COL___347                                                 6
 STAT SP IPHASW D HRMM SECON CODA AMPLIT PERI AZIMU VELO AIN AR TRES W  DIS CAZ7
 BAR2 EZ EP       2239 46.90                             171   -0.1410 23.3 182 
 BAR2 EZ ES       2240  2.26                             171   -0.1610 23.3 182 
 BAR2 EZ I        2240  4.67        15.2 0.23            169           23.3 182 
 BRR  HZ EP       2239 48.84                             154    0.4610 68.1 300 
 BRR  HN ES       2240  5.26                             154    0.4610 68.1 300 
 PAM  EZ EP       2239 49.78                             150    0.0510 79.3  42 
 PAM  EN ES       2240  6.86                             150   -0.3510 79.3  42 
 PAM  EZ I        2240 10.05         4.7 0.27            152           79.3  42 
 RUS  HZ EP       2239 51.37                             144    0.1810  101 174 
 RUS  HN ES       2240  9.92                             144    0.1210  101 174 
 RUS  HZ I        2240 10.73         5.5 0.32            144            101 174 
 PTB  HZ EP       2239 53.63                             133   -0.43 9  145 258 
 PTB  HN ES       2240 14.57                             133   -0.34 9  145 258 
 PTB  HZ I        2240 17.26         4.7 0.14            134            145 258 
 CHI  HZ EP       2240  5.00                             117   -0.00 8  248 194 
 CHI  HN ES       2240 34.45                             117    0.06 8  248 194 
 CHI  HZ I        2240 39.79         2.7 0.30            118            248 194 
 GUY2CHN ES   4   2240 47.89                             113    3.40 0  299 234 
 GUY2CHZ I        2240 53.22         3.0 0.40                           299 234 
                                                                                
