 2012 1219 2008 32.2 L   6.759 -73.138147.3  RSN  7 0.4 1.9LRSN                1
 GAP=139        1.11       5.4     5.0  7.3  0.1488E+01  0.7030E+01  0.3274E+01E
 Epicentro: LOS SANTOS - SANTANDER                                             3
 ACTION:UPD 13-01-04 14:29 OP:ep   STATUS:               ID:20121219200832 L   I
 2012-12-19-2000-00M.COL___242                                                 6
 STAT SP IPHASW D HRMM SECON CODA AMPLIT PERI AZIMU VELO AIN AR TRES W  DIS CAZ7
 BAR2 SZ EP       20 8 51.79                             172   -0.1710 19.1 195 
 BAR2 SZ ES       20 9  7.47                             172    0.1210 19.1 195 
 BAR2 SZ I        20 9  8.31        14.7 0.14                          19.1 195 
 GIR2 SZ EP       20 8 52.35                             166    0.1410 35.9 350 
 GIR2 SZ ES       20 9  7.80                             166    0.0110 35.9 350 
 GIR2 SZ I        20 9 11.13         7.1 0.58                          35.9 350 
 BRR  HZ EP       20 8 54.09                             152    0.3810 74.2 301 
 BRR  HN ES       20 9 11.07                             152    0.6110 74.2 301 
 BRR  HN I        20 9 11.61        24.0 0.24                          74.2 301 
 PAM  SZ EP       20 8 55.13                             150    0.3510 80.4  37 
 PAM  SN ES       20 9 11.55                             150   -0.8210 80.4  37 
 RUS  HZ EP       20 8 55.68                             145   -0.1210 96.0 176 
 RUS  HN ES       20 9 14.49                             145    0.3010 96.0 176 
 RUS  HN I        20 9 16.20         8.0 0.24                          96.0 176 
 PTB  HZ EP       20 8 59.06                             132   -0.26 9  148 261 
 PTB  HN ES       20 9 19.60                             132   -0.85 9  148 261 
 PTB  HN I        20 9 25.45         8.7 0.36                           148 261 
 ZAR  HE ES       20 9 30.82                             122    0.20 8  207 293 
 ZAR  HE I        20 9 33.70        11.0 0.16                           207 293 
                                                                                
