 2014  819 2206  2.0 L   6.735 -73.171150.0  RSN  5 0.2 1.4LRSN                1
 GAP=229        0.52       3.1     3.9  5.2  0.4560E+01 -0.8218E+00  0.1562E+00E
 Epicentro: VILLANUEVA - SANTANDER                                             3
 ACTION:UPD 14-09-15 21:51 OP:nd   STATUS:               ID:20140819220602 L   I
 OLDACT:REG 14-08-20 05:03 OP:spq  STATUS:               ID:20140819215818     3
 2014-08-19-2158-18M.COL___266                                                 6
 STAT SP IPHASW D HRMM SECON CODA AMPLIT PERI AZIMU VELO AIN AR TRES W  DIS CAZ7
 BRR  HZ EP       22 6 23.59                             153   -0.1010 72.5 305 
 BRR  HN ES       22 6 40.58                             153   -0.0210 72.5 305 
 BRR  HZ I        22 6 42.13         7.6 0.27            150           72.5 305 
 RUS  HZ EP   1   22 6 25.91                             147    0.21 7 93.6 174 
 RUS  HE ES   1   22 6 44.22                             147    0.04 7 93.6 174 
 RUS  HZ I        22 6 46.80         1.6 0.28            147           93.6 174 
 PTB  HZ EP       22 6 28.63                             134   -0.33 9  144 261 
 PTB  HE ES       22 6 49.83                             134   -0.16 9  144 261 
 PTB  HZ I        22 6 56.59         3.2 0.18            132            144 261 
 SPBC HZ EP   1   22 6 30.37                             131    0.22 7  156 220 
 SPBC HN ES       22 6 52.15                             131    0.05 9  156 220 
 SPBC HZ I        22 6 55.69         3.4 0.10            130            156 220 
 ZAR  HE ES       22 7  0.67                             123    0.37 9  204 294 
 ZAR  HZ I        22 7  6.40         2.7 0.28            123            204 294 
                                                                                
