 2010  919 2218  4.3 L   6.800 -73.119145.5  RSN 14 0.5 3.3LRSN                1
 GAP=162        0.97       4.4     8.0  7.3 -0.1726E+02  0.1147E+02  0.4227E+01E
 Epicentro: LOS SANTOS - SANTANDER                                             3
 ACTION:UP  11-02-18 11:04 OP:tino STATUS:               ID:20100919221804 L   I
 2010-09-19-2214-40S.COL___121                                                 6
 STAT SP IPHASW D HRMM SECON CODA AMPLIT PERI AZIMU VELO SNR AR TRES W  DIS CAZ7
 BTL  SZ EP   1   2218 24.07                             171     0.2 7   21 309 
 BTL  SZ ES   2   2218 39.93                             171     0.8 5   21 309 
 BAR2 SZ IP     D 2218 23.83                             170    -0.110   24 197 
 BAR2 SZ ES   2   2218 38.82                             170    -0.4 5   24 197 
 BAR2 SZ I        2218 40.07       351.3 0.07                            24 197 
 GIR2 SZ IP     D 2218 23.82                             167    -0.110   32 345 
 GIR2 SZ ES   2   2218 39.59                             167     0.3 5   32 345 
 BRR  HZ IP     C 2218 25.61                             152     0.110   74 297 
 BRR  HZ I        2218 26.00       621.6 0.12                            74 297 
 BRR  HE ES   2   2218 42.72                             152     0.6 5   74 297 
 RUS  HZ IP     C 2218 27.83                             144    -0.210  100 178 
 RUS  HE ES   2   2218 46.26                             144    -0.2 5  100 178 
 RUS  HZ I        2218 48.36       148.7 0.38                           100 178 
 GUE  SZ EP   1   2218 29.59                             139     0.7 7  116  11 
 GRA  SZ IP     C 2218 29.44                             137     0.010  125  16 
 GRA  SZ ES   2   2218 48.97                             137    -0.1 5  125  16 
 GRA  SZ I        2218 50.23       463.0 0.39                           125  16 
 OCA  SZ EP   1   2218 31.92                             129    -0.7 7  161 352 
 OCA  SZ ES   2   2218 53.22                             129    -1.5 5  161 352 
 OCA  SZ I        2218 58.80       248.2 0.42                           161 352 
 NOR  HZ EP   1   2218 39.84                             118    -0.4 6  237 235 
 NOR  HE ES   2   2219  7.55                             118    -0.8 4  237 235 
 CHI  HZ EP   1   2218 42.01                             117     0.0 6  249 196 
 CHI  HE ES   2   2219 11.30                             117    -0.2 4  249 196 
 CHI  HZ I        2219 17.53        70.1 0.63                           249 196 
 ROSC BZ EP   1   2218 43.47                             116     0.9 6  254 212 
 ROSC BE ES   1   2219 11.60                             116    -0.8 6  254 212 
 ROSC BZ I        2219 20.12       137.8 0.62                           254 212 
 HEL  HZ EP   1   2218 45.26                             114     0.5 6  275 256 
 HEL  HZ I        2219 23.06       110.3 0.48                           275 256 
 RREF HZ EP   1   2218 50.86                             111     0.2 5  324 230 
 RREF HN ES   2   2219 26.02                             111    -0.8 3  324 230 
 RREF HZ I        2219 36.14        72.4 0.62                           324 230 
 TOL  SZ EP   1   2218 53.12                             109     0.4 5  346 225 
 TOL  SZ ES   2   2219 31.98                             109     1.4 3  346 225 
                                                                                
