 2010 1019 2347 31.0 L   6.809 -73.087144.0  RSN  5 0.2 1.6LRSN                1
 GAP=165        0.44       3.0     5.9  6.4  0.4995E+01 -0.1879E+02 -0.6325E+01E
 Epicentro: LOS SANTOS - SANTANDER                                             3
 ACTION:UP  11-02-18 11:10 OP:tino STATUS:               ID:20101019234731 L   I
 2010-10-19-2343-47S.COL___126                                                 6
 STAT SP IPHASW D HRMM SECON CODA AMPLIT PERI AZIMU VELO SNR AR TRES W  DIS CAZ7
 BAR2 SZ EP       2347 50.43                             170    -0.110   26 204 
 BAR2 SZ ES   3   2348  5.27                             170    -0.4 2   26 204 
 BRR  HZ EP       2347 52.21                             151    -0.110   77 296 
 BRR  HZ I        2348  2.87        11.4 0.39                            77 296 
 BRR  HN ES   1   2348  9.06                             151     0.2 7   77 296 
 RUS  HZ EP       2347 54.52                             144    -0.110  101 180 
 RUS  HN ES   1   2348 13.37                             144     0.3 7  101 180 
 RUS  HZ I        2348 15.28         4.3 0.27                           101 180 
 GRA  SZ EP       2347 56.00                             138     0.110  123  15 
 GRA  SZ ES   3   2348 14.71                             138    -0.6 2  123  15 
 NOR  SN ES   3   2348 35.19                             118    -0.4 2  241 235 
                                                                                
