 2010  919 2358  3.9 L   6.798 -73.085143.8  RSN  7 0.3 1.5LRSN                1
 GAP=201        0.64       5.4     8.0  7.9  0.1842E+01  0.1115E+02  0.1196E+02E
 Epicentro: LOS SANTOS - SANTANDER                                             3
 ACTION:UP  11-02-18 11:04 OP:tino STATUS:               ID:20100919235803 L   I
 2010-09-19-2355-14S.COL___118                                                 6
 STAT SP IPHASW D HRMM SECON CODA AMPLIT PERI AZIMU VELO SNR AR TRES W  DIS CAZ7
 BTL  SZ EP   1   2358 23.68                             170     0.4 7   24 303 
 BAR2 SZ IP     C 2358 23.26                             170     0.010   25 206 
 BAR2 SZ ES   2   2358 37.68                             170    -0.8 5   25 206 
 BAR2 SZ I        2358 40.94         7.5 0.08                            25 206 
 GIR2 SZ EP   2   2358 23.14                             166    -0.2 5   33 339 
 BRR  HZ EP   1   2358 25.04                             150    -0.1 7   77 296 
 BRR  HE ES   2   2358 42.32                             150     0.6 5   77 296 
 BRR  HZ I        2358 45.98        13.6 0.52                            77 296 
 RUS  HZ EP   1   2358 27.38                             144     0.0 7  100 180 
 RUS  HN ES   2   2358 45.97                             144     0.2 5  100 180 
 RUS  HZ I        2358 47.94         2.9 0.49                           100 180 
 NOR  HZ EP   1   2358 39.56                             117    -0.5 6  240 236 
 NOR  HN ES   2   2359  8.27                             117     0.0 4  240 236 
 CHI  HZ EP   1   2358 41.78                             117     0.2 6  250 197 
 CHI  HE ES   2   2359 11.43                             117     0.3 4  250 197 
 CHI  HZ I        2359 16.86         1.6 0.64                           250 197 
                                                                                
