 2014  619 2029 54.4 L   6.754 -73.149141.7  RSN 10 0.4 1.9LRSN                1
 GAP=138        1.09       3.5     4.4  6.5 -0.1674E+01  0.8597E+01 -0.1514E+01E
 Epicentro: LOS SANTOS - SANTANDER                                             3
 ACTION:UPD 14-07-01 22:55 OP:nd   STATUS:               ID:20140619202954 L   I
 OLDACT:REG 14-06-20 05:25 OP:fm   STATUS:               ID:20140619202819     3
 2014-06-19-2028-19M.COL___265                                                 6
 STAT SP IPHASW D HRMM SECON CODA AMPLIT PERI AZIMU VELO AIN AR TRES W  DIS CAZ7
 BAR2 SZ EP     C 2030 13.52                             172    0.1010 18.3 192 
 BAR2 SZ ES   1   2030 27.99                             172   -0.28 7 18.3 192 
 BAR2 SZ I        2030 29.74        17.9 0.18            171           18.3 192 
 BRR  HZ EP       2030 15.81                             151    0.6010 73.4 302 
 BRR  HN ES       2030 32.14                             151    0.6810 73.4 302 
 BRR  HZ I        2030 37.45        20.4 0.16            149           73.4 302 
 PAM  SZ EP       2030 16.72                             149    0.3110 81.6  37 
 PAM  SN ES       2030 33.67                             149    0.0710 81.6  37 
 PAM  SZ I        2030 35.78        11.1 0.68            153           81.6  37 
 RUS  HZ EP       2030 17.27                             144   -0.0910 95.6 176 
 RUS  HN ES       2030 34.85                             144   -0.4410 95.6 176 
 RUS  HZ I        2030 37.22         7.6 0.36            148           95.6 176 
 PTB  HZ EP       2030 20.20                             131   -0.69 9  147 261 
 PTB  HN ES       2030 40.91                             131   -0.67 9  147 261 
 PTB  HZ I        2030 47.12         8.1 0.20            132            147 261 
 SPBC HZ EP       2030 22.27                             129    0.11 9  159 220 
 SPBC HN ES       2030 43.91                             129    0.07 9  159 220 
 SPBC HZ I        2030 46.29        12.7 0.50            131            159 220 
 ZAR  HZ EP       2030 26.63                             121   -0.09 8  206 293 
 ZAR  HE ES       2030 52.13                             121    0.17 8  206 293 
 ZAR  HZ I        2030 58.31        12.9 0.60            122            206 293 
 SML  HZ EP       2030 30.67                             116   -0.59 8  248 336 
 SML  HN ES       2030 59.49                             116   -0.54 8  248 336 
 SML  HZ I        2031  4.57         8.2 0.10            118            248 336 
 GUY2CHZ EP       2030 38.27                             112    0.84 7  298 236 
 GUY2CHN ES       2031 11.37                             112    0.35 7  298 236 
 GUY2CHZ I        2031 19.91         5.5 0.40                           298 236 
 RREF HZ EP   4   2030 42.27                             110    2.34 0  318 230 
 RREF HN ES   4   2031 18.91                             110    3.44 0  318 230 
 RREF HZ I        2031 22.88         4.9 0.50            112            318 230 
 SJC  HZ EP   4   2030 48.41                             105   -1.87 0  413 327 
                                                                                
