 2016  819 2010 17.5 L   6.773 -73.129143.7  RSN 13 0.4 2.4LRSN                1
 GAP=140        0.98       3.4     3.7  5.3 -0.7131E+00  0.5341E+01  0.4339E+01E
 Epicentro: LOS SANTOS - SANTANDER                                             3
 ACTION:UPD 16-10-29 15:37 OP:rebc STATUS:               ID:20160819201017 L   I
 OLDACT:UP  16-08-20 03:18 OP:dani STATUS:               ID:20160819200759     3
 OLDACT:REG 16-08-20 02:46 OP:dani STATUS:               ID:20160819200759     3
 2016-08-19-2007-59S.COL___349                                                 6
 STAT SP IPHASW D HRMM SECON CODA AMPLIT PERI AZIMU VELO AIN AR TRES W  DIS CAZ7
 BAR2 EZ EP       2010 36.50                             171   -0.3210 20.8 196 
 BAR2 EZ ES       2010 52.07                             171    0.1710 20.8 196 
 BAR2 EZ I        2010 54.24        64.0 0.28                          20.8 196 
 BRR  HZ EP       2010 38.60                             151    0.0110 74.3 300 
 BRR  HN ES       2010 55.50                             151    0.4510 74.3 300 
 BRR  HZ I        2010 58.07        32.5 0.28                          74.3 300 
 PAM  EZ EP       2010 39.48                             150   -0.0710 78.6  37 
 PAM  EE ES       2010 56.62                             150   -0.1510 78.6  37 
 PAM  EZ I        2010 58.29        41.2 0.68                          78.6  37 
 RUS  HZ EP       2010 40.86                             144    0.0510 97.5 177 
 RUS  HE ES       2010 59.24                             144    0.2410 97.5 177 
 RUS  HZ I        2011  1.25        42.7 0.40                          97.5 177 
 PTB  HZ EP       2010 43.75                             131   -0.65 9  149 260 
 PTB  HE ES       2011  5.44                             131    0.04 9  149 260 
 PTB  HZ I        2011 11.73        22.3 0.16                           149 260 
 SPBC HZ EP       2010 45.70                             129   -0.02 9  162 220 
 SPBC HN ES       2011  6.89                             129   -0.85 9  162 220 
 SPBC HZ I        2011 12.98        52.6 0.19                           162 220 
 ZAR  HZ EP       2010 50.78                             121    0.69 8  207 293 
 ZAR  HE ES       2011 15.03                             121   -0.50 8  207 293 
 ZAR  HZ I        2011 24.01        26.0 0.26                           207 293 
 NOR  HZ EP       2010 52.94                             118   -0.13 8  234 235 
 NOR  HE ES       2011 21.22                             118    0.39 8  234 235 
 NOR  HZ I        2011 29.07        17.5 0.40                           234 235 
 CHI  HZ EP       2010 54.47                             117   -0.34 8  246 196 
 CHI  HN ES       2011 23.96                             117    0.04 8  246 196 
 CHI  HZ I        2011 30.23         9.8 0.26                           246 196 
 ROSC BZ EP       2010 56.26                             116    0.94 8  251 212 
 ROSC BZ I        2011 31.77        21.8 0.36                           251 212 
 URE  HZ EP   4   2010 56.64                             113   -2.13 0  287 292 
 URE  HZ I        2011 39.34        16.0 0.19                           287 292 
 CBOC HZ EP   4   2011  5.47                             109    1.06 0  334 253 
 CBOC HN ES       2011 41.22                             109    0.20 7  334 253 
 CBOC HZ I        2011 48.15         3.6 0.44                           334 253 
 ANIL HN ES   4   2011 49.90                             108    4.07 0  357 225 
 PRA  HZ EP       2011 10.99                             106    0.25 6  390 210 
 PRA  HN ES   4   2011 53.85                             106    1.58 0  390 210 
 PRA  HZ I        2011 59.86        11.1 0.30                           390 210 
                                                                                
