 2012 1119 2307 21.5 L   6.830 -73.183141.6  RSN  4 0.4 1.3LRSN                1
 GAP=198        0.95       5.1     7.7  9.6  0.1880E+02 -0.1118E+02 -0.1062E+02E
 Epicentro: ZAPATOCA - SANTANDER                                               3
 ACTION:UPD 12-12-05 15:34 OP:}ep  STATUS:               ID:20121119230721 L   I
 2012-11-19-2300-00M.COL___233                                                 6
 STAT SP IPHASW D HRMM SECON CODA AMPLIT PERI AZIMU VELO AIN AR TRES W  DIS CAZ7
 BRR  HZ EP       23 7 42.70                             154    0.8010 66.0 298 
 BRR  HN ES       23 7 57.89                             154    0.0710 66.0 298 
 RUS  HZ EP       23 7 45.00                             142   -0.1110  104 174 
 RUS  HZ I        23 7 45.96         1.6 0.12                           104 174 
 RUS  HN ES       23 8  3.32                             142   -0.2110  104 174 
 PTB  HZ EP       23 7 47.66                             132   -0.16 9  144 257 
 PTB  HN ES       23 8  8.25                             132   -0.10 9  144 257 
 PTB  HN I        23 8 13.72         4.7 0.36                           144 257 
 SML  HN ES       23 8 24.84                             117   -0.52 8  239 336 
                                                                                
