 2012  419 2330 39.9 L   6.668 -73.327136.6  RSN  5 0.3 1.1LRSN                1
 GAP=159        0.79       7.7     7.2 10.6  0.3099E+02 -0.2994E+00  0.1451E+00E
 Epicentro: GALAN - SANTANDER                                                  3
 ACTION:UPD 12-07-05 11:54 OP:tino STATUS:               ID:20120419233039 L   I
 2012-04-19-2330-00M.COL___187                                                 6
 STAT SP IPHASW D HRMM SECON CODA AMPLIT PERI AZIMU VELO AIN AR TRES W  DIS CAZ7
 BAR2 SZ EP   1   2330 57.92                             172    -0.4 7   18 117 
 BAR2 SZ I        2331 11.82         5.4 0.27                            18 117 
 BRR  HZ EP   1   2330 59.62                             153    -0.1 7   65 319 
 BRR  HE ES   1   2331 15.32                             153     0.2 7   65 319 
 RUS  HZ EP   1   2331  2.70                             145     0.7 7   90 162 
 RUS  HN ES   1   2331 19.03                             145    -0.2 7   90 162 
 RUS  HZ I        2331 20.56         1.3 0.17                            90 162 
 PTB  HZ EP   1   2331  3.81                             135    -0.3 7  126 264 
 PTB  HN ES   1   2331 23.07                             135     0.0 7  126 264 
 PTB  HZ I        2331 25.78         2.4 0.10                           126 264 
 ZAR  HN ES   2   2331 34.68                             122     0.3 4  192 298 
                                                                                
