 2016  419 2257  5.0 L   6.814 -73.178138.0  RSN 12 0.4 2.1LRSN                1
 GAP=132        0.86       3.5     3.6  5.4 -0.1656E+01  0.7863E+01  0.3035E+01E
 Epicentro: ZAPATOCA - SANTANDER                                               3
 ACTION:UPD 16-05-05 14:22 OP:rebc STATUS:               ID:20160419225705 L   I
 OLDACT:UP  16-04-20 08:19 OP:mh   STATUS:               ID:20160419224748d    3
 OLDACT:DUP 16-04-20 08:19 OP:mh   STATUS:               ID:20160419224748d    3
 2016-04-19-2247-47M.COL___310                                                 6
 STAT SP IPHASW D HRMM SECON CODA AMPLIT PERI AZIMU VELO AIN AR TRES W  DIS CAZ7
 BAR2 EZ EP       2257 23.67                             169   -0.0710 24.5 181 
 BAR2 EZ ES       2257 37.98                             169   -0.3610 24.5 181 
 BAR2 EZ I        2257 40.67        35.1 0.06            170           24.5 181 
 PAM  EZ EP       2257 26.66                             149    0.1810 78.5  42 
 PAM  EN ES       2257 43.50                             149    0.2710 78.5  42 
 PAM  EZ I        2257 46.09        28.7 0.47            152           78.5  42 
 RUS  HZ EP       2257 27.56                             142   -0.5910  102 174 
 RUS  HN ES       2257 46.71                             142    0.5210  102 174 
 RUS  HZ I        2257 47.91        10.5 0.44            144            102 174 
 PTB  HZ EP       2257 30.55                             131   -0.52 9  145 258 
 PTB  HN ES       2257 51.38                             131   -0.01 9  145 258 
 PTB  HZ I        2257 54.23        11.3 0.16            131            145 258 
 ZAR  HZ EP   1   2257 36.32                             121   -0.24 6  200 292 
 ZAR  HN ES   1   2258  1.44                             121    0.27 6  200 292 
 ZAR  HZ I        2258  8.31        10.6 0.40            121            200 292 
 NOR  HZ EP   1   2257 40.03                             117   -0.06 6  233 234 
 NOR  HN ES       2258  7.58                             117    0.13 8  233 234 
 NOR  HZ I        2258 10.31         6.9 0.16            118            233 234 
 CHI  HZ EP       2257 42.04                             115   -0.32 8  249 194 
 CHI  HN ES       2258 11.51                             115    0.02 8  249 194 
 CHI  HZ I        2258 14.67         8.0 0.58            117            249 194 
 ROSC BZ EP   1   2257 43.09                             115    0.42 6  252 210 
 ROSC BN ES   4   2258 15.13                             115    3.09 0  252 210 
 ROSC BZ I        2258 15.78        15.7 0.45            116            252 210 
 HEL  HZ EP   1   2257 45.31                             113    0.81 6  269 255 
 HEL  HE ES   1   2258 15.12                             113   -0.18 6  269 255 
 HEL  HZ I        2258 21.67         6.8 0.30            114            269 255 
 GUY2CHZ EP   1   2257 49.06                             111    1.01 5  299 234 
 GUY2CHZ I        2258 29.94         7.1 0.42                           299 234 
 ORTC HZ EP   1   2257 57.98                             105   -0.60 4  395 216 
 ORTC HN ES   1   2258 40.95                             105    0.59 4  395 216 
 ORTC HZ I        2258 45.44         3.2 0.19            106            395 216 
 CRJC HZ EP   4   2258  3.57                             102   -3.58 0  466   4 
 CRJC HN ES   4   2258 51.63                             102   -3.99 0  466   4 
 CRJC HZ I        2258 58.51         4.6 0.20            103            466   4 
                                                                                
