 2012  819 2343 15.5 L   6.752 -73.145153.6  RSN  4 0.4 1.2LRSN                1
 GAP=139        0.72       6.5     7.6  9.5  0.1448E+02  0.1487E+02  0.1060E+02E
 Epicentro: LOS SANTOS - SANTANDER                                             3
 ACTION:UPD 12-09-10 11:57 OP:ep   STATUS:               ID:20120819234315 L   I
 2012-08-19-2340-00M.COL___217                                                 6
 STAT SP IPHASW D HRMM SECON CODA AMPLIT PERI AZIMU VELO AIN AR TRES W  DIS CAZ7
 BRR  HZ EP   1   2343 37.67                             153    0.01 7 73.9 302 
 BRR  HN ES   1   2343 55.40                             153    0.47 7 73.9 302 
 BRR  HZ I        2343 58.72         3.5 0.21                          73.9 302 
 PAM  SN ES   2   2343 56.39                             151   -0.58 5 81.5  37 
 PAM  SZ I        2344  0.22         3.0 0.35                          81.5  37 
 RUS  HZ EP   1   2343 40.17                             147    0.49 7 95.3 176 
 RUS  HN ES   1   2343 58.33                             147   -0.20 7 95.3 176 
 RUS  HZ I        2344  0.39         1.6 0.30                          95.3 176 
 PTB  HZ EP   1   2343 42.70                             134   -0.35 7  147 261 
 PTB  HN ES   2   2344  4.02                             134   -0.51 5  147 261 
 PTB  HZ I        2344  7.10         1.5 0.14                           147 261 
                                                                                
