 2017  419 2125  4.4 L   6.787 -73.148146.6  RSN 20 0.5 2.7LRSN                1
 GAP=112        1.13       3.4     3.4  5.3  0.8858E+00  0.5539E+01  0.3033E+01E
 Epicentro: LOS SANTOS - SANTANDER                                             3
 ACTION:UPD 17-05-30 21:14 OP:jn   STATUS:               ID:20170419212504 L   I
 OLDACT:UP  17-04-20 03:54 OP:edw  STATUS:               ID:20170419211737     3
 OLDACT:UP  17-04-20 03:53 OP:edw  STATUS:               ID:20170419211737     3
 OLDACT:REG 17-04-20 03:21 OP:edw  STATUS:               ID:20170419211737     3
 2017-04-19-2118-00M.COL___371                                                 6
 STAT SP IPHASW D HRMM SECON CODA AMPLIT PERI AZIMU VELO AIN AR TRES W  DIS CAZ7
 BAR2 EZ IP     C 2125 24.08                             171    0.0010 21.8 190 
 BAR2 EZ ES       2125 38.92                             171   -0.5210 21.8 190 
 BAR2 EZ I        2125 39.91       170.3 0.24            167           21.8 190 
 BRR  HZ IP     C 2125 25.99                             152    0.3510 71.7 300 
 BRR  HN ES       2125 42.69                             152    0.4610 71.7 300 
 BRR  HZ I        2125 47.02       120.7 0.10            151           71.7 300 
 PAM  EZ EP     D 2125 27.06                             150    0.3010 78.7  39 
 PAM  EN ES       2125 43.81                             150   -0.4010 78.7  39 
 PAM  EZ I        2125 45.95        72.2 0.60            155           78.7  39 
 RUS  HZ EP       2125 28.18                             144    0.0810 99.1 176 
 RUS  HN ES       2125 46.25                             144   -0.3610 99.1 176 
 RUS  HZ I        2125 47.35       137.6 0.24            143           99.1 176 
 PTB  HZ EP   9   2125 30.61                             132   -0.75 0  147 259 
 PTB  HN ES       2125 51.11                             132   -0.55 9  147 259 
 PTB  HZ I        2125 55.29        50.2 0.48            131            147 259 
 SPBC HZ EP       2125 33.12                             129    0.30 9  162 219 
 SPBC HN ES       2125 54.65                             129   -0.35 9  162 219 
 SPBC HZ I        2125 56.08        73.2 0.26            128            162 219 
 YPLC HZ IP     D 2125 34.50                             126    0.38 9  176 151 
 YPLC HN ES       2125 57.54                             126    0.23 9  176 151 
 YPLC HZ I        2126  0.83        61.1 0.24            128            176 151 
 ZAR  HZ EP       2125 37.25                             122    0.34 9  204 293 
 ZAR  HN ES       2126  2.97                             122    0.69 9  204 293 
 ZAR  HZ I        2126  8.17        58.8 0.44            122            204 293 
 NOR  HZ EP       2125 40.13                             118    0.09 8  234 235 
 NOR  HN ES       2126  7.55                             118   -0.31 8  234 235 
 NOR  HZ I        2126 12.91        24.9 0.16            118            234 235 
 CHI  HZ EP       2125 42.47                             117    0.51 8  247 195 
 CHI  HN ES   2   2126 10.89                             117   -0.38 4  247 195 
 CHI  HZ I        2126 14.66        13.6 0.46            117            247 195 
 ROSC BZ EP   4   2125 44.53                             117    2.14 0  251 211 
 ROSC BN ES   4   2126 13.35                             117    1.31 0  251 211 
 ROSC BZ I        2126 22.69        25.8 0.40            116            251 211 
 HEL  HZ EP   4   2125 46.36                             115    1.79 0  271 256 
 HEL  HN ES       2126 16.08                             115    0.17 8  271 256 
 HEL  HZ I        2126 23.50        18.3 0.32            114            271 256 
 PTGC HZ EP   9 C 2125 47.34                             111   -0.79 0  307 159 
 PTGC HE ES       2126 20.34                             112   -1.12 7  307 159 
 PTGC HZ I        2126 23.73        22.5 0.36            112            307 159 
 ELA  HZ EP       2125 50.48                             110   -0.65 7  328 230 
 ELA  HN ES   4   2126 31.02                             110    3.42 0  328 230 
 ELA  HZ I        2126 37.54        15.8 0.40            110            328 230 
 CBOC HZ EP   4   2125 52.36                             110    1.11 0  333 252 
 CBOC HN ES       2126 27.30                             110   -0.50 7  333 252 
 DBB  EZ EP       2125 50.86                             109   -1.01 7  339 274 
 DBB  EN ES       2126 28.22                             109   -0.70 7  339 274 
 DBB  EZ I        2126 31.46        14.4 0.26            110            339 274 
 ANIL HZ EP   4   2125 56.17                             108    2.10 0  356 225 
 ANIL HN ES   4   2126 36.96                             108    4.13 0  356 225 
 ANIL HZ I        2126 38.74        40.0 0.36            108            356 225 
 PRA  HZ EP       2125 58.26                             106    0.50 6  391 210 
 PRA  HN ES       2126 39.93                             106    0.53 6  391 210 
 PRA  HZ I        2126 45.69        10.8 0.42            107            391 210 
 ORTC HZ EP   4   2125 59.35                             106    1.18 0  394 216 
 ORTC HN ES       2126 40.39                             106    0.26 6  394 216 
 ORTC HZ I        2126 45.74        12.3 0.38            106            394 216 
 APAC HZ EP   4   2125 50.32                             106   -8.30 0  398 288 
 APAC HN ES   4   2126 41.97                             106    1.04 0  398 288 
 SJC  HZ EP       2125 58.48                             105   -1.62 6  410 327 
 SJC  HN ES   4   2126 39.87                             105   -3.68 0  410 327 
 SJC  HZ I        2126 44.44        15.0 0.48            106            410 327 
                                                                                
