 2013  719 2003 16.1 L   6.660 -73.534108.3  RSN  5 0.5 1.6LRSN                1
 GAP=113        1.39       7.1     6.3 11.8  0.1021E+02  0.2272E+02  0.2842E+02E
 Epicentro: EL CARMEN DE CHUCURI - SANTANDER                                   3
 ACTION:UPD 13-08-12 10:38 OP:ep   STATUS:               ID:20130719200316 L   I
 OLDACT:UP  13-07-25 11:38 OP:ep   STATUS:               ID:20130719200316 L   3
 OLDACT:DUP 13-07-20 00:19 OP:stll STATUS:               ID:20130719195851d    3
 2013-07-19-1958-50M.COL___231                                                 6
 STAT SP IPHASW D HRMM SECON CODA AMPLIT PERI AZIMU VELO AIN AR TRES W  DIS CAZ7
 BAR2 SZ ES       20 3 44.63                             159    0.5410 39.6 101 
 BAR2 SZ I        20 3 45.52         6.2 0.28            161           39.6 101 
 BRR  HZ EP   1   20 3 32.00                             152   -0.18 7 53.3 338 
 BRR  HN ES       20 3 45.39                             152    0.6710 53.3 338 
 BRR  HN I        20 3 46.51        23.9 0.14            153           53.3 338 
 GIR2 SZ EP       20 3 32.48                             149   -0.2910 59.7  39 
 GIR2 SZ ES       20 3 45.09                             149   -0.6910 59.7  39 
 RUS  HZ EP       20 3 37.05                             135    0.8610 98.4 150 
 RUS  HN ES       20 3 51.26                             135   -0.6110 98.4 150 
 PTB  HZ EP       20 3 35.83                             133   -0.1110  103 263 
 PTB  HN ES       20 3 51.15                             133   -0.2710  103 263 
 PTB  HN I        20 3 52.83         9.8 0.26            134            103 263 
                                                                                
