 2010  319 2139  0.7 L   6.781 -73.876 16.0  RSN 14 0.5 3.7LRSN                1
 GAP= 62        1.33       3.3     5.8  9.3  0.4563E+01  0.4296E+02  0.1003E+02E
 Epicentro: PUERTO PARRA - SANTANDER                                           3
 ACTION:UP  10-08-24 09:54 OP:vdl  STATUS:               ID:20100319213900 L   I
 2010-03-19-2136-42S.COL___098                                                 6
 STAT SP IPHASW D HRMM SECON CODA AMPLIT PERI AZIMU VELO SNR AR TRES W  DIS CAZ7
 BRR  HZ IP       2139  7.66                             109     0.010   40  27 
 BRR  HN ES       2139 13.41                             109     0.310   40  27 
 BRR  HZ I        2139 13.42      9902.3 0.04                            40  27 
 BAR2 SZ EP       2139 13.77                             100     0.110   79 105 
 BAR2 SZ ES   2   2139 24.06                             100     0.2 5   79 105 
 RUS  HZ IP     D 2139 21.79                              96     0.010  132 138 
 RUS  HN ES       2139 38.01                              96    -0.310  132 138 
 OCA  SZ EP       2139 25.93                              56    -0.7 9  173  21 
 OCA  SZ ES   2   2139 47.38                              56     0.4 4  173  21 
 OCA  SZ I        2140  1.73      2011.9 0.79                           173  21 
 HEL  HZ EP       2139 28.24                              56    -1.4 9  194 250 
 HEL  HZ I        2139 50.83       899.8 0.46                           194 250 
 ROSC BZ EP       2139 33.22                              56     0.3 8  220 193 
 ROSC BZ I        2140 20.78       219.5 0.37                           220 193 
 CHI  HZ EP       2139 35.37                              56     0.1 8  238 176 
 CHI  HZ I        2140 20.51       268.4 0.50                           238 176 
 DBB  SZ EP       2139 37.81                              56     0.4 8  259 276 
 DBB  SZ ES   1   2140  6.23                              56     0.1 6  259 276 
 RREF BZ EP       2139 38.61                              56    -0.1 8  264 218 
 RREF BZ I        2140 26.26       475.0 0.14                           264 218 
 TOL  SZ EP       2139 42.11                              55     0.5 7  291 213 
 MON  HZ EP       2139 42.17                              55     0.3 7  295 318 
 MON  HZ I        2140 30.80       302.7 0.36                           295 318 
 ANIL BZ EP   1   2139 44.39                              55     1.1 5  305 214 
 ANIL BZ I        2140 24.25       384.9 0.14                           305 214 
 PRA  HZ EP       2139 50.19                              55     0.7 6  357 198 
 PRA  HZ I        2140 50.00       245.8 0.50                           357 198 
 SDV  BZ EP       2139 58.29                              55     0.0 5  427  57 
 SDV  BZ I        2141  1.66       149.2 0.73                           427  57 
                                                                                
