 2016 1119 2215  5.5 L   6.721 -73.130149.4  RSN  6 0.4 1.7LRSN                1
 GAP=167        0.89       7.3     4.4  6.8 -0.6916E+01  0.6399E+01  0.3971E+01E
 Epicentro: JORDAN - SANTANDER                                                 3
 ACTION:UPD 17-10-26 21:09 OP:lp   STATUS:               ID:20161119221505 L   I
 OLDACT:REG 16-11-20 09:37 OP:dnl  STATUS:               ID:20161119220744     3
 2016-11-19-2208-00M.COL___334                                                 6
 STAT SP IPHASW D HRMM SECON CODA AMPLIT PERI AZIMU VELO AIN AR TRES W  DIS CAZ7
 BAR2 EZ EP       2215 25.74                             174    0.3310 15.4 202 
 BAR2 EZ ES       2215 41.19                             174    0.2210 15.4 202 
 BAR2 EZ I        2215 44.00         8.4 0.40            168           15.4 202 
 BRR  HZ EP       2215 27.66                             151    0.3010 77.2 304 
 BRR  HN ES       2215 44.64                             151    0.2110 77.2 304 
 BRR  HZ I        2215 45.10        15.1 0.32            151           77.2 304 
 PAM  EZ EP       2215 28.69                             150    0.2610 83.2  35 
 PAM  EN ES       2215 45.67                             150   -0.6610 83.2  35 
 PAM  EZ I        2215 47.33         4.6 0.16            155           83.2  35 
 PTB  HZ EP       2215 32.53                             133   -0.24 9  148 262 
 PTB  HN ES       2215 53.57                             133   -0.49 9  148 262 
 PTB  HZ I        2215 55.99        11.2 0.12            131            148 262 
 ZAR  HZ EP   2   2215 38.56                             122   -0.11 4  209 294 
 ZAR  HN ES       2216  4.73                             122    0.16 8  209 294 
 ZAR  HZ I        2216 10.07         6.9 0.44            123            209 294 
 NOR  HZ EP   2   2215 40.28                             119   -0.77 4  231 236 
 NOR  HE ES   4   2216 10.71                             119    1.91 0  231 236 
 NOR  HZ I        2216 17.95         3.3 0.26            119            231 236 
                                                                                
