 2010  919 2258 44.1 L   6.766 -73.113148.2  RSN  5 0.3 1.5LRSN                1
 GAP=223        0.58       5.5    12.6  7.7  0.2640E+02  0.7254E+00  0.9751E+01E
 Epicentro: LOS SANTOS - SANTANDER                                             3
 ACTION:UP  11-02-18 11:04 OP:tino STATUS:               ID:20100919225844 L   I
 2010-09-19-2255-23S.COL___121                                                 6
 STAT SP IPHASW D HRMM SECON CODA AMPLIT PERI AZIMU VELO SNR AR TRES W  DIS CAZ7
 BAR2 SZ EP   1   2259  3.82                             172    -0.2 7   21 202 
 BAR2 SZ ES   2   2259 18.95                             172    -0.6 5   21 202 
 BAR2 SZ I        2259 20.49        13.4 0.74                            21 202 
 BTL  SZ EP   1   2259  4.36                             170     0.3 7   24 315 
 BRR  HZ EP   1   2259  5.69                             151    -0.2 7   76 300 
 BRR  HN ES   2   2259 23.07                             151     0.3 5   76 300 
 BRR  HZ I        2259 26.34         7.6 0.38                            76 300 
 RUS  HZ EP   1   2259  7.88                             145     0.0 7   97 178 
 RUS  HE ES   2   2259 26.85                             145     0.5 5   97 178 
 RUS  HZ I        2259 28.19         3.5 0.45                            97 178 
 CHI  HZ EP   1   2259 21.72                             118     0.0 6  246 196 
 CHI  HE ES   2   2259 50.74                             118    -0.2 4  246 196 
 CHI  HZ I        2259 55.03         1.7 0.88                           246 196 
                                                                                
