 2010 1219 2049  7.9 L   6.748 -73.168142.6  RSN  8 0.4 2.5LRSN                1
 GAP=157        0.83       4.8     8.9  9.7 -0.2045E+02  0.4345E+02 -0.5616E+01E
 Epicentro: VILLANUEVA - SANTANDER                                             3
 ACTION:UP  11-01-14 15:26 OP:pat  STATUS:               ID:20101219204907 L   I
 2010-12-19-2044-30S.COL___133                                                 6
 STAT SP IPHASW D HRMM SECON CODA AMPLIT PERI AZIMU VELO SNR AR TRES W  DIS CAZ7
 BAR2 SZ IP     C 2049 26.87                             173    -0.210   17 186 
 BAR2 SZ ES   2   2049 42.05                             173     0.1 5   17 186 
 BAR2 SZ I        2049 43.03        74.0 0.26                            17 186 
 RUS  HZ EP   1   2049 30.68                             145    -0.3 7   95 174 
 RUS  HE ES   2   2049 48.88                             145     0.0 5   95 174 
 RUS  HZ I        2049 50.91        38.5 0.33                            95 174 
 GRA  SZ EP   1   2049 33.98                             135     0.6 7  132  18 
 GRA  SZ ES   2   2049 54.20                             135     0.9 5  132  18 
 GRA  SZ I        2049 55.66        30.4 0.46                           132  18 
 OCA  SZ EP   1   2049 35.64                             128    -0.8 7  166 354 
 OCA  SZ ES   2   2049 58.49                             128    -0.3 5  166 354 
 OCA  SZ I        2050  2.64        34.5 0.29                           166 354 
 ROSC BZ EP   1   2049 44.86                             117    -0.3 6  247 211 
 ROSC BN ES   2   2050 14.18                             117    -0.1 4  247 211 
 ROSC BZ I        2050 25.11        16.6 0.46                           247 211 
 HEL  HZ EP   1   2049 47.85                             114     0.3 6  268 257 
 HEL  HE ES   2   2050 18.22                             114    -0.2 4  268 257 
 HEL  HZ I        2050 27.13        16.2 0.25                           268 257 
 RREF HZ EP   1   2049 53.54                             111     0.3 5  316 230 
 RREF HN ES   2   2050 29.06                             111     0.4 3  316 230 
 RREF HZ I        2050 34.34        14.9 0.36                           316 230 
 PRA  HZ EP   1   2050  1.01                             106     0.4 4  386 210 
 PRA  HN ES   2   2050 42.28                             106     0.6 3  386 210 
 PRA  HZ I        2050 45.87        25.0 0.39                           386 210 
                                                                                
