 2017  219 2358 42.0 L   6.788 -73.105153.5  RSN  6 0.4 1.4LRSN                1
 GAP=142        0.67       3.7     4.6  6.0  0.7830E+00  0.2028E+01  0.1869E+01E
 Epicentro: LOS SANTOS - SANTANDER                                             3
 ACTION:UPD 17-05-24 15:38 OP:jn   STATUS:               ID:20170219235842 L   I
 OLDACT:UP  17-02-20 04:41 OP:and  STATUS:               ID:20170219234746d    3
 OLDACT:DUP 17-02-20 04:38 OP:and  STATUS:               ID:20170219234746d    3
 OLDACT:UP  17-02-20 04:36 OP:and  STATUS:               ID:20170219234744d    3
 OLDACT:UP  17-02-20 04:36 OP:and  STATUS:               ID:20170219234744d    3
 OLDACT:UP  17-02-20 04:34 OP:and  STATUS:               ID:20170219234744d    3
 OLDACT:UP  17-02-20 04:34 OP:and  STATUS:               ID:20170219234744d    3
 OLDACT:UP  17-02-20 04:34 OP:and  STATUS:               ID:20170219234744d    3
 OLDACT:UP  17-02-20 04:33 OP:and  STATUS:               ID:20170219234744d    3
 OLDACT:UP  17-02-20 04:33 OP:and  STATUS:               ID:20170219234744d    3
 OLDACT:DUP 17-02-20 04:31 OP:and  STATUS:               ID:20170219234744d    3
 OLDACT:UP  17-02-20 04:29 OP:and  STATUS:               ID:20170219234743     3
 OLDACT:REG 17-02-20 02:51 OP:and  STATUS:               ID:20170219234743     3
 2017-02-19-2348-00M.COL___352                                                 6
 STAT SP IPHASW D HRMM SECON CODA AMPLIT PERI AZIMU VELO AIN AR TRES W  DIS CAZ7
 BAR2 EZ ES   2   2359 18.28                             171   -0.30 5 23.2 202 
 BAR2 EZ I        2359 18.80         9.7 0.08            169           23.2 202 
 PAM  EZ EP       2359  5.14                             153    0.2110 75.7  36 
 PAM  EN ES       2359 22.53                             153   -0.3010 75.7  36 
 PAM  EZ I        2359 22.99         2.6 0.24            154           75.7  36 
 BRR  HZ EP       2359  4.29                             152    0.0710 75.8 298 
 BRR  HE ES       2359 21.95                             152    0.3710 75.8 298 
 RUS  HZ EP       2359  6.30                             146   -0.0910 99.0 179 
 RUS  HN ES       2359 25.54                             146    0.1110 99.0 179 
 RUS  HZ I        2359 26.27         2.2 0.32            146           99.0 179 
 PTB  HZ EP   2   2359  9.59                             133   -0.37 5  152 260 
 PTB  HN ES   3   2359 30.40                             133   -1.38 2  152 260 
 PTB  HZ I        2359 33.28         2.5 0.13            130            152 260 
 ZAR  HN ES   2   2359 40.68                             123   -0.81 4  209 292 
 ZAR  HZ I        2359 48.77         2.7 0.20            121            209 292 
                                                                                
