 2014  619 2055 53.5 L   7.413 -73.187128.0  RSN  8 0.4 2.1LRSN                1
 GAP=131        0.99       4.9     4.3  6.7 -0.2880E+01  0.1035E+02 -0.4573E+01E
 Epicentro: EL PLAYON - SANTANDER                                              3
 ACTION:UPD 14-07-01 22:55 OP:nd   STATUS:               ID:20140619205553 L   I
 OLDACT:REG 14-06-20 05:26 OP:fm   STATUS:               ID:20140619204817     3
 2014-06-19-2048-17M.COL___265                                                 6
 STAT SP IPHASW D HRMM SECON CODA AMPLIT PERI AZIMU VELO AIN AR TRES W  DIS CAZ7
 PAM  SZ EP       2056 12.65                             156    0.1010 54.4  99 
 PAM  SN ES       2056 27.63                             156    0.2510 54.4  99 
 PAM  SZ I        2056 29.06        25.0 0.40            159           54.4  99 
 BRR  HZ EP       2056 12.54                             151   -0.0010 67.1 240 
 BRR  HN ES       2056 27.61                             151    0.2410 67.1 240 
 BRR  HZ I        2056 28.38        36.8 0.14            148           67.1 240 
 BAR2 SZ EP     C 2056 14.31                             143   -0.1610 90.7 180 
 BAR2 SZ ES   1   2056 30.27                             143   -0.54 7 90.7 180 
 BAR2 SZ I        2056 31.83        25.0 0.38            141           90.7 180 
 PTB  HZ EP       2056 20.85                             124   -0.51 9  170 236 
 PTB  HN ES       2056 43.33                             124    0.27 9  170 236 
 PTB  HZ I        2056 46.37        18.2 0.42            123            170 236 
 SML  HZ EP       2056 22.12                             122   -0.40 9  182 328 
 SML  HN ES   4   2056 42.33                             122   -2.80 0  182 328 
 SML  HZ I        2056 45.25        25.3 0.10            123            182 328 
 ZAR  HZ EP       2056 22.51                             121   -0.32 9  185 273 
 ZAR  HN ES       2056 45.92                             121    0.24 9  185 273 
 ZAR  HZ I        2056 50.65        10.9 0.26            121            185 273 
 SPBC HZ EP       2056 27.39                             117    0.89 8  218 207 
 SPBC HN ES       2056 51.62                             117   -0.59 8  218 207 
 SPBC HZ I        2057  0.80        10.0 0.24            116            218 207 
 GUY2CHZ EP   1   2056 42.04                             106    0.96 5  342 225 
 GUY2CHN ES   4   2057 15.92                             106   -2.24 0  342 225 
 GUY2CHZ I        2057 29.85         6.0 0.66                           342 225 
                                                                                
