 2014  219 2138 50.1 L   6.556 -73.558100.4  RSN  5 0.5 1.7LRSN                1
 GAP=125        1.05       5.2     3.8 10.4  0.1838E+01  0.1023E+02 -0.1452E+02E
 Epicentro: EL CARMEN DE CHUCURI - SANTANDER                                   3
 ACTION:UPD 14-03-10 08:11 OP:ep   STATUS:               ID:20140219213850 L   I
 OLDACT:REG 14-02-20 00:39 OP:mh   STATUS:               ID:20140219213753     3
 2014-02-19-2137-53M.COL___175                                                 6
 STAT SP IPHASW D HRMM SECON CODA AMPLIT PERI AZIMU VELO AIN AR TRES W  DIS CAZ7
 BAR2 SZ EP       2139  5.45                             156    0.3910 41.8  85 
 BAR2 SZ ES   1   2139 17.34                             156    0.63 7 41.8  85 
 BAR2 SZ I        2139 19.17        68.0 0.50            158           41.8  85 
 RUS  HZ EP       2139  8.76                             135   -0.0710 90.3 144 
 RUS  HN ES       2139 23.47                             135    0.0410 90.3 144 
 RUS  HZ I        2139 24.51         4.1 0.14            141           90.3 144 
 PTB  HZ EP   1   2139  8.30                             132   -0.69 7 99.3 269 
 PTB  HN ES       2139 23.26                             132   -0.4510 99.3 269 
 PTB  HZ I        2139 24.52        13.7 0.10            134           99.3 269 
 PAM  SZ EP   2   2139 12.33                             125   -0.11 5  128  48 
 PAM  SN ES       2139 29.28                             125   -0.5810  128  48 
 PAM  SZ I        2139 31.84         4.8 0.32            126            128  48 
 ZAR  HZ EP       2139 17.55                             115    0.53 9  177 306 
 ZAR  HN ES   1   2139 38.60                             115    0.59 7  177 306 
 ZAR  HZ I        2139 44.09         5.7 0.14            116            177 306 
                                                                                
