 2012  219 2248 14.8 L   6.775 -73.184145.8  RSN 10 0.4 1.7LRSN                1
 GAP=133        0.84       4.3     4.5  7.1 -0.3649E+01  0.6556E+01  0.6523E+01E
 ACTION:UP  12-03-07 16:32 OP:epov STATUS:               ID:20120219224814 L   I
 2012-02-19-2246-49S.COL___167                                                 6
 STAT SP IPHASW D HRMM SECON CODA AMPLIT PERI AZIMU VELO AIN AR TRES W  DIS CAZ7
 GIR2 SZ EP   1   2248 34.65                             166    0.1010 33.6 358 
 BRR  HZ EP   1   2248 36.62                             153    0.7910 68.9 302 
 BRR  HZ I        2248 37.00        16.4 0.11                          68.9 302 
 BRR  HN ES   1   2248 52.76                             153    0.5310 68.9 302 
 PAM  SZ EP   1   2248 36.95                             149   -0.3710 82.3  41 
 PAM  SE ES   1   2248 54.26                             149   -0.6310 82.3  41 
 PAM  SZ I        2248 56.92         4.0 0.22                          82.3  41 
 RUS  HZ EP   1   2248 38.58                             145    0.1910 98.2 173 
 RUS  HN ES   1   2248 56.74                             145   -0.0410 98.2 173 
 RUS  HZ I        2248 58.30        11.2 0.32                          98.2 173 
 PTB  HZ EP   1   2248 41.39                             133    0.04 9  143 260 
 PTB  HN ES   1   2249  1.99                             133   -0.06 9  143 260 
 OCA  SZ EP   1   2248 43.52                             129    0.18 9  163 355 
 NOR  SZ EP   1   2248 50.59                             119    0.60 8  230 234 
 CHI  HZ EP   1   2248 51.98                             118   -0.11 8  245 194 
 CHI  HN ES   1   2249 21.17                             118   -0.01 8  245 194 
 HEL  HZ EP   1   2248 53.54                             115   -0.94 7  267 256 
 HEL  HN ES       2249 24.85                             115   -0.5810  267 256 
 PRA  HZ EP   1   2249  8.12                             107    0.33 6  387 209 
                                                                                
