 2016 1219 2206 46.4 L   6.782 -73.144140.9  RSN  6 0.4 1.9LRSN                1
 GAP=138        0.97       4.1     4.9  6.5 -0.1996E+01  0.3556E+01  0.7159E+01E
 Epicentro: LOS SANTOS - SANTANDER                                             3
 ACTION:UPD 17-01-11 20:16 OP:rebc STATUS:               ID:20161219220646 L   I
 OLDACT:UP  16-12-20 10:00 OP:ar   STATUS:               ID:20161219215745d    3
 OLDACT:DUP 16-12-20 09:59 OP:ar   STATUS:               ID:20161219215745d    3
 OLDACT:DUP 16-12-20 09:52 OP:ar   STATUS:               ID:20161219215744d    3
 2016-12-19-2158-00M.COL___375                                                 6
 STAT SP IPHASW D HRMM SECON CODA AMPLIT PERI AZIMU VELO AIN AR TRES W  DIS CAZ7
 BAR2 EZ EP       22 7  5.29                             171   -0.1610 21.4 192 
 BAR2 EZ ES       22 7 19.92                             171   -0.3610 21.4 192 
 BAR2 EZ I        22 7 21.34        26.3 0.32            170           21.4 192 
 BRR  HZ EP       22 7  7.34                             151    0.2010 72.4 300 
 BRR  HN ES       22 7 24.11                             151    0.8310 72.4 300 
 BRR  HZ I        22 7 27.93        21.3 0.10            152           72.4 300 
 PAM  EZ EP       22 7  8.36                             149    0.1310 78.8  38 
 PAM  EN ES       22 7 24.96                             149   -0.2610 78.8  38 
 PAM  EZ I        22 7 27.45        15.0 0.44            153           78.8  38 
 RUS  HZ EP       22 7  9.50                             143   -0.0710 98.6 176 
 RUS  HE ES       22 7 27.76                             143    0.1510 98.6 176 
 RUS  HZ I        22 7 29.97         7.0 0.26            145           98.6 176 
 PTB  HZ EP       22 7 12.80                             131   -0.20 9  148 260 
 PTB  HN ES       22 7 33.06                             131   -0.66 9  148 260 
 PTB  HZ I        22 7 35.91         9.4 0.22            132            148 260 
 CHI  HZ EP       22 7 23.68                             116    0.01 8  247 195 
 CHI  HN ES       22 7 53.15                             116    0.44 8  247 195 
 CHI  HZ I        22 7 57.50         3.3 0.24            118            247 195 
                                                                                
