 2016  919 2054 10.3 L   6.799 -73.124148.5  RSN 11 0.3 2.4LRSN                1
 GAP=139        0.62       2.3     2.9  4.0 -0.7219E+00  0.3231E+01  0.1797E+01E
 Epicentro: LOS SANTOS - SANTANDER                                             3
 ACTION:UPD 17-08-17 21:14 OP:lp   STATUS:               ID:20160919205410 L   I
 OLDACT:UP  16-09-20 05:45 OP:dnl  STATUS:               ID:20160919204739     3
 OLDACT:REG 16-09-20 05:17 OP:dnl  STATUS:               ID:20160919204739     3
 2016-09-19-2048-00M.COL___363                                                 6
 STAT SP IPHASW D HRMM SECON CODA AMPLIT PERI AZIMU VELO AIN AR TRES W  DIS CAZ7
 BAR2 EZ EP       2054 30.22                             170   -0.0810 23.8 196 
 BAR2 EZ ES       2054 45.50                             170   -0.3810 23.8 196 
 BAR2 EZ I        2054 46.98        83.8 0.16            167           23.8 196 
 BRR  HZ EP       2054 31.87                             152   -0.0310 73.4 298 
 BRR  HN ES       2054 49.23                             152    0.5110 73.4 298 
 BRR  HZ I        2054 49.80        44.4 0.12            149           73.4 298 
 PAM  EZ EP       2054 33.01                             152    0.2610 75.9  38 
 PAM  EN ES       2054 50.18                             152   -0.0610 75.9  38 
 PAM  EZ I        2054 52.52        59.0 0.52            156           75.9  38 
 RUS  HZ EP       2054 34.28                             144   -0.0510  100 177 
 RUS  HE ES       2054 53.15                             144    0.0910  100 177 
 RUS  HZ I        2054 54.10        12.6 0.28            144            100 177 
 PTB  HZ EP       2054 37.38                             132   -0.35 9  150 259 
 PTB  HE ES   4   2054 58.10                             132   -1.01 0  150 259 
 PTB  HZ I        2055  3.65        14.3 0.28            130            150 259 
 SPBC HZ EP       2054 39.26                             129    0.09 9  165 220 
 SPBC HN ES       2055  1.94                             129    0.26 9  165 220 
 SPBC HZ I        2055  6.16        45.4 0.24            128            165 220 
 ZAR  HZ EP   4   2054 44.93                             123    1.74 0  206 292 
 ZAR  HN ES       2055  8.45                             123   -0.37 8  206 292 
 ZAR  HZ I        2055 15.13        28.8 0.40            122            206 292 
 NOR  HZ EP   2   2054 46.59                             119    0.17 4  237 235 
 NOR  HN ES       2055 14.63                             119    0.05 8  237 235 
 NOR  HZ I        2055 20.22        13.2 0.36            118            237 235 
 CHI  HZ EP   2   2054 48.63                             118    0.39 4  249 196 
 CHI  HN ES       2055 17.61                             118   -0.20 8  249 196 
 CHI  HZ I        2055 22.59        11.9 0.40            117            249 196 
 GUY2CHZ EP   2   2054 54.45                             113    0.17 4  303 235 
 GUY2CHN ES   4   2055 31.39                             113    2.83 0  303 235 
 GUY2CHZ I        2055 36.61         7.9 0.34                           303 235 
 ANIL HN ES   4   2055 38.55                             109   -0.95 0  359 225 
 ANIL HZ I        2055 50.37        29.4 0.42            109            359 225 
                                                                                
