 2013 1119 2211 14.7 L   6.793 -73.132145.0  RSN 18 0.6 2.3LRSN 2.8WRSN        1
 SPEC AVERAGE  MO 13.3 ST131.3 OM  1.6 f0 14.8 R0.2788 AL 0.00 WI 20.0 MW  2.8 3
 SPEC SD       MO  0.3 ST257.7 OM  0.4 f0 11.3 R0.2765 AL      WI      MW  0.2 3
 GAP= 72        1.40       3.5     4.3  6.0 -0.6082E+01  0.3746E+01  0.1874E+01E
 Epicentro: LOS SANTOS - SANTANDER                                             3
 SPEC BAR2SH Z MO 13.7 ST 29.1 OM  1.9 f0 9.50 R0.2025 AL-0.00 WI 20.0 MW  3.1 3
 SPEC BAR2SH Z T221146 K 0.050 GD  146 VS 5.20 DE 3.20 Q0750.0 QA 1.50 VS 5.20 3
 SPEC BRR HH Z MO 13.4 ST 12.3 OM  1.5 f0 9.37 R0.2053 AL-0.00 WI 20.0 MW  2.9 3
 SPEC BRR HH Z T221151 K 0.050 GD  162 VS 5.20 DE 3.20 Q0750.0 QA 1.50 VS 5.20 3
 SPEC PAM SH Z MO 12.8 ST  5.6 OM  0.9 f0 11.4 R0.1688 AL-0.00 WI 20.0 MW  2.5 3
 SPEC PAM SH Z T221152 K 0.050 GD  164 VS 5.20 DE 3.20 Q0750.0 QA 1.50 VS 5.20 3
 SPEC RUS HH Z MO 12.9 ST  9.3 OM  1.0 f0 12.2 R0.1577 AL-0.00 WI 20.0 MW  2.6 3
 SPEC RUS HH Z T221154 K 0.050 GD  175 VS 5.20 DE 3.20 Q0750.0 QA 1.50 VS 5.20 3
 SPEC PTB HH Z MO 13.4 ST0.157 OM  1.4 f0 2.18 R0.8826 AL-0.00 WI 20.0 MW  2.9 3
 SPEC PTB HH Z T221159 K 0.050 GD  207 VS 5.20 DE 3.20 Q0750.0 QA 1.50 VS 5.20 3
 SPEC SPBCHH Z MO 13.4 ST189.7 OM  1.4 f0 22.8 R0.0844 AL-0.00 WI 20.0 MW  2.9 3
 SPEC SPBCHH Z T2212 3 K 0.050 GD  218 VS 5.20 DE 3.20 Q0750.0 QA 1.50 VS 5.20 3
 SPEC NOR HH Z MO 13.1 ST 94.3 OM  1.0 f0 22.7 R0.0848 AL-0.00 WI 20.0 MW  2.7 3
 SPEC NOR HH Z T221216 K 0.050 GD  276 VS 5.20 DE 3.20 Q0750.0 QA 1.50 VS 5.20 3
 SPEC SML HH Z MO 13.3 ST840.6 OM  1.2 f0 40.0 R0.0481 AL-0.00 WI 20.0 MW  2.8 3
 SPEC SML HH Z T221218 K 0.050 GD  284 VS 5.20 DE 3.20 Q0750.0 QA 1.50 VS 5.20 3
 SPEC CHI HH Z MO 13.2 ST0.244 OM  1.1 f0 2.85 R0.6751 AL-0.00 WI 20.0 MW  2.8 3
 SPEC CHI HH Z T221219 K 0.050 GD  287 VS 5.20 DE 3.20 Q0750.0 QA 1.50 VS 5.20 3
 SPECGUY2CHH Z MO 13.3 ST  0.4 OM  1.1 f0 3.14 R 0.613 AL-0.00 WI 20.0 MW  2.8 3
 SPECGUY2CHH Z T221231 K 0.050 GD335.0 VS 5.20 DE 3.20 Q0750.0 QA 1.50 VS 5.20 3
 OLDACT:REG 13-11-19 23:32 OP:stll STATUS:               ID:20131119220814     3
 ACTION:UPD 14-01-09 16:29 OP:ep   STATUS:               ID:20131119221114 L   I
 OLDACT:UP  13-11-20 01:39 OP:stll STATUS:               ID:20131119220814     3
 2013-11-19-2208-14M.COL___238                                                 6
 STAT SP IPHASW D HRMM SECON CODA AMPLIT PERI AZIMU VELO AIN AR TRES W  DIS CAZ7
 BAR2 SZ EP       2211 34.34                             171    0.1510 22.9 194 
 BAR2 SZ ES       2211 48.38                             171   -1.0510 22.9 194 
 BAR2 SZ I        2211 50.89       181.1 0.20            170           22.9 194 
 BRR  HZ IP     C 2211 36.19                             152    0.3610 72.9 298 
 BRR  HN ES       2211 53.23                             152    0.8910 72.9 298 
 BRR  SZ I        2211 57.02        23.0 0.50            150           72.9 298 
 PAM  SZ IP     C 2211 37.10                             151    0.3210 77.0  38 
 PAM  SN ES       2211 54.36                             151    0.3310 77.0  38 
 PAM  SZ I        2211 55.88         8.5 0.34            153           77.0  38 
 RUS  HZ IP     D 2211 38.25                             144   -0.0310 99.7 177 
 RUS  HN ES       2211 56.28                             144   -0.4210 99.7 177 
 RUS  SZ I        2211 57.98        26.5 0.36            145           99.7 177 
 PTB  HZ EP   9   2211 40.95                             131   -0.75 0  149 259 
 PTB  HN ES       2212  1.20                                   -0.83 9  149 259 
 PTB  SZ I        2212  7.83        18.8 0.42            131            149 259 
 CAPV BZ EP     C 2211 42.24                             131    0.27 9  149  37 
 CAPV BZ ES       2212  3.73                             131    0.46 9  149  37 
 TAM  HN ES       2212  4.22                             130    0.68 9  153 105 
 OCA  HN ES       2212  4.31                             129   -0.81 9  161 353 
 SPBC HZ EP       2211 43.27                             129    0.13 9  164 220 
 SPBC HN ES       2212  4.92                             129   -0.43 9  164 220 
 SPBC SZ I        2212  7.99        37.0 0.26            129            164 220 
 NOR  HZ EP       2211 50.21                             118   -0.23 8  236 235 
 NOR  HE ES       2212 18.11                             118   -0.23 8  236 235 
 NOR  SZ I        2212 22.34        15.7 0.16            119            236 235 
 SML  HZ EP       2211 50.18                             117   -1.22 8  245 335 
 SML  HN ES       2212 20.19                             117    0.14 8  245 335 
 SML  SZ I        2212 28.05        29.1 0.08            118            245 335 
 CHI  HZ EP       2211 52.15                             117   -0.13 8  248 196 
 CHI  HN ES       2212 21.33                             117   -0.29 8  248 196 
 CHI  SZ I        2212 31.00         8.8 0.66            118            248 196 
 SOCV BZ EP       2211 56.36                             112   -1.22 7  300  57 
 GUY2CHZ EP       2211 59.16                             112    0.83 7  302 235 
 GUY2CHN ES       2212 32.99                             112    0.60 7  302 235 
 GUY2CSZ I        2212 43.44         8.6 0.74                           302 235 
 RREF HZ EP       2212  1.90                             110    1.05 7  322 230 
 RREF HN ES       2212 36.74                             110   -0.13 7  322 230 
 RREF SZ I        2212 39.10        23.9 0.94            111            322 230 
 TOL  SZ EP       2212  3.51                             109    0.56 7  344 225 
 SDV  BZ EP       2212  3.70                             108   -0.90 6  360  50 
 ORTC HZ EP       2212  8.88                             106    0.29 6  396 216 
 ORTC HN ES       2212 50.27                             106   -0.38 6  396 216 
 ORTC SZ I        2212 56.63         8.0 0.54            107            396 216 
                                                                                
