 2017 1019 2213 54.7 L   6.774 -73.129139.1  RSN  4 0.2 1.4LRSN                1
 GAP=140        0.51       2.6     3.9  4.2 -0.1556E+00 -0.1094E+01  0.3928E+00E
 Epicentro: LOS SANTOS - SANTANDER                                             3
 ACTION:UPD 17-11-07 19:33 OP:rebc STATUS:               ID:20171019221354 L   I
 OLDACT:UP  17-10-20 04:32 OP:mg   STATUS:               ID:20171019220745     3
 OLDACT:UP  17-10-20 04:31 OP:mg   STATUS:               ID:20171019220745     3
 OLDACT:UP  17-10-20 04:30 OP:mg   STATUS:               ID:20171019220745     3
 OLDACT:UP  17-10-20 04:30 OP:mg   STATUS:               ID:20171019220745     3
 OLDACT:REG 17-10-20 03:24 OP:mg   STATUS:               ID:20171019220745     3
 2017-10-19-2208-00M.COL___459                                                 6
 STAT SP IPHASW D HRMM SECON CODA AMPLIT PERI AZIMU VELO AIN AR TRES W  DIS CAZ7
 BAR2 EZ EP       2214 13.16                             171   -0.3210 20.9 196 
 BAR2 EZ ES       2214 27.94                             171   -0.1910 20.9 196 
 BAR2 EZ I        2214 30.33         4.5 0.15            172           20.9 196 
 BRR  HZ EP       2214 15.33                             150    0.0210 74.2 300 
 BRR  HE ES       2214 31.50                             150    0.1110 74.2 300 
 BRR  HZ I        2214 33.90        12.5 0.60            152           74.2 300 
 PAM  EZ EP       2214 16.20                             149   -0.0810 78.5  37 
 PAM  EN ES       2214 33.26                             149    0.1410 78.5  37 
 PAM  EZ I        2214 35.04         2.9 0.41            151           78.5  37 
 RUS  HZ EP       2214 17.80                             143    0.2210 97.6 177 
 RUS  HN ES       2214 35.51                             143    0.0910 97.6 177 
 RUS  HZ I        2214 36.60         4.3 0.32            146           97.6 177 
 GRGR BZ EP   4   2214 12.64                              92   -99.9 0 1392  64 
 GRGR BZ ES   4   2214 26.51                              92   -99.9 0 1392  64 
                                                                                
