 2010  819 2218 43.9 L   6.771 -73.083142.0  RSN  8 0.4 1.9LRSN                1
 GAP=166        0.82       4.2     9.3  7.6 -0.2129E+01 -0.2258E+02 -0.2464E+01E
 Epicentro: LOS SANTOS - SANTANDER                                             3
 ACTION:UP  10-09-07 10:56 OP:vdl  STATUS:               ID:20100819221843 L   I
 2010-08-19-2216-20S.COL___117                                                 6
 STAT SP IPHASW D HRMM SECON CODA AMPLIT PERI AZIMU VELO SNR AR TRES W  DIS CAZ7
 BAR2 SZ EP       2219  3.14                             171     0.110   23 209 
 BAR2 SZ ES   2   2219 18.46                             171     0.4 5   23 209 
 BAR2 SZ I        2219 19.28        21.3 0.14                            23 209 
 BTL  SZ EP       2219  2.42                             169    -0.710   26 309 
 BTL  SZ ES   2   2219 17.49                             169    -0.7 5   26 309 
 GIR2 SZ EP   2   2219  3.32                             165     0.0 5   36 340 
 GIR2 SZ ES   2   2219 18.18                             165    -0.2 5   36 340 
 BRR  HZ EP       2219  5.21                             150     0.110   79 298 
 BRR  HN ES   1   2219 22.00                             150     0.3 7   79 298 
 BRR  HZ I        2219 23.56        25.0 0.09                            79 298 
 RUS  HZ EP       2219  6.91                             144    -0.110   97 180 
 RUS  HE ES   1   2219 25.55                             144     0.5 7   97 180 
 RUS  HZ I        2219 27.13         9.4 0.36                            97 180 
 GUE  SZ EP   1   2219  8.43                             138     0.0 7  118   8 
 GRA  SZ EP       2219  9.18                             136     0.310  127  14 
 GRA  SZ I        2219 10.61         7.9 0.76                           127  14 
 GRA  SZ ES   1   2219 28.58                             136     0.1 7  127  14 
 OCA  SZ EP   3   2219 13.17                             128     0.8 2  164 351 
 OCA  SZ ES   3   2219 34.24                             128    -0.3 2  164 351 
                                                                                
