 2010 1019 2212 14.3 L   6.788 -73.097143.3  RSN  5 0.2 1.6LRSN                1
 GAP=164        0.46       3.6     7.4  5.8  0.5992E+01 -0.1802E+02 -0.5846E+01E
 Epicentro: LOS SANTOS - SANTANDER                                             3
 ACTION:UP  11-02-18 11:10 OP:tino STATUS:               ID:20101019221214 L   I
 2010-10-19-2209-42S.COL___126                                                 6
 STAT SP IPHASW D HRMM SECON CODA AMPLIT PERI AZIMU VELO SNR AR TRES W  DIS CAZ7
 BTL  SZ EP   1   2212 34.01                             170     0.4 7   24 307 
 BAR2 SZ I        2212 50.07         6.2 0.32                            24 204 
 BTL  SZ ES   2   2212 48.76                             170     0.0 5   24 307 
 BAR2 SZ ES   2   2212 48.58                             170    -0.2 5   24 204 
 BRR  HZ EP       2212 35.34                             150    -0.210   77 297 
 BRR  HZ I        2212 35.51        13.0 0.17                            77 297 
 BRR  HE ES   2   2212 52.25                             150     0.2 5   77 297 
 RUS  HZ EP       2212 37.77                             144     0.110   99 179 
 RUS  HN ES   2   2212 55.72                             144    -0.2 5   99 179 
 GRA  SZ EP       2212 39.26                             136    -0.110  126  15 
                                                                                
