 2010  819 2129 13.2 L   6.801 -73.089142.1  RSN  8 0.3 1.8LRSN                1
 GAP=165        0.80       4.2     9.3  7.5 -0.2900E+01 -0.2043E+02 -0.5380E+01E
 Epicentro: LOS SANTOS - SANTANDER                                             3
 ACTION:UP  10-09-07 10:56 OP:vdl  STATUS:               ID:20100819212913 L   I
 2010-08-19-2127-24S.COL___116                                                 6
 STAT SP IPHASW D HRMM SECON CODA AMPLIT PERI AZIMU VELO SNR AR TRES W  DIS CAZ7
 BTL  SZ IP       2129 31.68                             170    -0.710   24 304 
 BAR2 SZ EP   1   2129 32.46                             169     0.1 7   25 204 
 BAR2 SZ ES   1   2129 47.23                             169    -0.2 7   25 204 
 BAR2 SZ I        2129 48.61        17.1 0.33                            25 204 
 BRR  HZ EP       2129 34.32                             150     0.110   77 296 
 BRR  HE ES   1   2129 50.95                             150     0.3 7   77 296 
 BRR  HZ I        2129 52.42        17.1 0.14                            77 296 
 RUS  HZ EP   1   2129 36.85                             143     0.3 7  100 180 
 RUS  HN ES   1   2129 54.95                             143     0.2 7  100 180 
 RUS  HZ I        2129 57.45         9.9 0.22                           100 180 
 GUE  SZ EP       2129 37.40                             139     0.010  115   9 
 GRA  SZ EP       2129 38.25                             136     0.310  124  15 
 GRA  SZ ES   2   2129 57.09                             136    -0.1 5  124  15 
 GRA  SZ I        2129 58.91         5.1 0.23                           124  15 
 OCA  SZ EP   3   2129 40.75                             128    -0.5 2  161 351 
 OCA  SZ I        2130  8.79        11.5 0.28                           161 351 
 CHI  HZ EP   1   2129 50.91                             116     0.1 6  250 197 
 CHI  HE ES   3   2130 19.13                             116    -1.1 2  250 197 
 CHI  HZ I        2130 23.68         3.4 0.33                           250 197 
                                                                                
