 2011  819 2225 49.7 L   6.793 -73.114144.7  RSN  4 0.2 1.7LRSN                1
 GAP=159        0.41       2.9     5.5  4.7  0.5104E+01 -0.1089E+02 -0.4502E+01E
 Epicentro: LOS SANTOS - SANTANDER                                             3
 ACTION:UPD 12-07-13 15:52 OP:ep   STATUS:               ID:20110819222549 L   I
 2011-08-19-2221-20S.COL___149                                                 6
 STAT SP IPHASW D HRMM SECON CODA AMPLIT PERI AZIMU VELO AIN AR TRES W  DIS CAZ7
 BAR2 SZ EP       2226  9.33                             170    0.1710 23.4 199 
 BAR2 SZ ES   1   2226 24.05                             170   -0.32 7 23.4 199 
 BAR2 SZ I        2226 25.55        13.3 0.20                          23.4 199 
 BRR  HZ EP       2226 10.84                             151   -0.0510 74.7 298 
 BRR  HZ I        2226 18.11        15.0 0.40                          74.7 298 
 BRR  HE ES   1   2226 27.58                             151    0.13 7 74.7 298 
 RUS  HZ EP       2226 13.23                             144    0.0010 99.6 178 
 RUS  HZ I        2226 14.27         3.4 0.20                          99.6 178 
 RUS  HE ES   1   2226 31.69                             144    0.07 7 99.6 178 
 BRI  SZ EP       2226 13.32                             141   -0.0910  108  19 
 BRI  SZ ES   3   2226 32.43                             141    0.49 2  108  19 
                                                                                
