 2017  419 2329 24.1 L   6.711 -73.156135.7  RSN  5 0.4 1.7LRSN                1
 GAP=229        0.86       6.2     6.2  6.2  0.2114E+02  0.6883E+01 -0.2031E+01E
 Epicentro: VILLANUEVA - SANTANDER                                             3
 ACTION:UPD 17-05-30 21:14 OP:jn   STATUS:               ID:20170419232924 L   I
 OLDACT:REG 17-04-20 03:29 OP:edw  STATUS:               ID:20170419232740     3
 2017-04-19-2328-00M.COL___365                                                 6
 STAT SP IPHASW D HRMM SECON CODA AMPLIT PERI AZIMU VELO AIN AR TRES W  DIS CAZ7
 BAR2 EZ EP       2329 42.25                             174   -0.1210 13.5 193 
 BAR2 EZ ES       2329 56.90                             174    0.3010 13.5 193 
 BAR2 EZ  AMP     2329 59.31       146.8 0.14                          13.5 193 
 BRR  HZ EP       2329 44.02                             149   -0.4310 75.5 306 
 BRR  HN ES       2330  0.27                             149   -0.0410 75.5 306 
 RUS  HZ EP       2329 46.80                             145    0.6210 90.9 175 
 RUS  HN ES       2330  3.05                             145   -0.3410 90.9 175 
 PTB  HZ EP       2329 49.74                             130   -0.29 9  145 263 
 PTB  HN ES       2330 10.22                             130   -0.02 9  145 263 
 PTB  HZ I        2330 12.35         1.5 0.36            128            145 263 
 ZAR  HZ EP       2329 56.41                             120    0.18 8  207 295 
 ZAR  HN ES   2   2330 22.06                             120    0.78 4  207 295 
 ZAR  HZ I        2330 26.13         2.1 0.28            118            207 295 
                                                                                
