 2012  819 2347 15.6 L   6.632 -73.121137.6  RSN  4 0.3 1.1LRSN                1
 GAP=146        0.59       4.9     4.9  8.0  0.6296E+01 -0.7065E+01 -0.9320E+01E
 Epicentro: CURITI - SANTANDER                                                 3
 ACTION:UPD 12-09-10 11:57 OP:ep   STATUS:               ID:20120819234715 L   I
 2012-08-19-2340-00M.COL___217                                                 6
 STAT SP IPHASW D HRMM SECON CODA AMPLIT PERI AZIMU VELO AIN AR TRES W  DIS CAZ7
 RUS  HZ EP   1   2347 37.75                             148    0.52 7 81.9 177 
 RUS  HN ES   1   2347 53.87                             148   -0.24 7 81.9 177 
 RUS  HZ I        2347 58.62         0.9 0.52                          81.9 177 
 BRR  HZ EP   1   2347 36.63                             147   -0.02 7 83.8 309 
 BRR  HZ I        2347 36.82         4.6 0.18                          83.8 309 
 BRR  HN ES   1   2347 53.35                             147    0.27 7 83.8 309 
 PAM  SZ EP   1   2347 37.56                             145   -0.29 7 91.0  31 
 PAM  SZ I        2347 37.93         3.6 0.23                          91.0  31 
 PTB  HZ EP   1   2347 41.81                             130   -0.11 7  148 266 
 PTB  HZ I        2347 44.04         1.0 0.20                           148 266 
 PTB  HN ES   1   2348  2.29                             130   -0.17 7  148 266 
                                                                                
