 2013  519 2132 51.3 L   6.779 -73.166152.0  RSN  4 0.3 1.5LRSN                1
 GAP=180        0.70       5.0     6.4  7.7  0.1014E+02  0.8070E+01  0.7247E+01E
 Epicentro: LOS SANTOS - SANTANDER                                             3
 ACTION:UPD 13-06-20 09:52 OP:ep   STATUS:               ID:20130519213251 L   I
 2013-05-19-2130-00M.COL___256                                                 6
 STAT SP IPHASW D HRMM SECON CODA AMPLIT PERI AZIMU VELO AIN AR TRES W  DIS CAZ7
 GIR2 SZ EP   1   2133 11.70                             167   -0.04 7 33.3 355 
 GIR2 SZ ES       2133 27.32                             167   -0.3910 33.3 355 
 BRR  HZ EP   1   2133 13.42                             154    0.36 7 70.5 301 
 BRR  HN ES       2133 30.40                             154    0.3510 70.5 301 
 BRR  HN I        2133 30.81        17.1 0.22            151           70.5 301 
 RUS  HZ EP   2   2133 15.09                             145   -0.40 5 98.4 175 
 RUS  HN ES       2133 34.56                             145    0.1710 98.4 175 
 RUS  HZ I        2133 35.00         2.4 0.28            144           98.4 175 
 PTB  HZ EP   2   2133 18.59                             134    0.06 5  145 260 
 PTB  HN ES   1   2133 39.34                             134   -0.45 7  145 260 
 PTB  HZ I        2133 43.56         2.1 0.12            131            145 260 
                                                                                
