 2014  919 2319 30.5 L   6.818 -73.145143.5  RSN 13 0.5 2.4LRSN                1
 GAP= 70        1.06       2.8     3.6  5.7 -0.8310E+00  0.3920E+01  0.1899E+01E
 Epicentro: LOS SANTOS - SANTANDER                                             3
 ACTION:UPD 14-10-03 23:06 OP:nd   STATUS:               ID:20140919231930 L   I
 OLDACT:REG 14-09-20 02:59 OP:mh   STATUS:               ID:20140919231818     3
 2014-09-19-2318-18M.COL___293                                                 6
 STAT SP IPHASW D HRMM SECON CODA AMPLIT PERI AZIMU VELO AIN AR TRES W  DIS CAZ7
 BAR2 SZ EP     D 2319 50.05                             170    0.1310 25.3 189 
 BAR2 SZ ES   1   2320  4.80                             170   -0.25 7 25.3 189 
 BAR2 SZ I        2320  6.24       104.5 0.18            168           25.3 189 
 BRR  HZ IP     C 2319 51.86                             152    0.4810 70.3 297 
 BRR  HN ES       2320  8.41                             152    0.7710 70.3 297 
 BRR  HZ I        2320 12.19        45.6 0.14            153           70.3 297 
 PAM  SZ EP     C 2319 52.98                             151    0.5810 75.8  40 
 PAM  SN ES       2320  9.64                             151    0.1710 75.8  40 
 PAM  SZ I        2320 12.14        41.0 0.50            149           75.8  40 
 RUS  HZ EP     C 2319 54.11                             143   -0.0910  103 176 
 RUS  HN ES       2320 12.53                             143   -0.1310  103 176 
 RUS  HZ I        2320 15.96        14.4 0.16            140            103 176 
 PTB  HZ EP       2319 56.60                             131   -0.75 9  148 258 
 PTB  HN ES   1   2320 17.60                             131   -0.67 7  148 258 
 PTB  HZ I        2320 23.53        35.3 0.54            130            148 258 
 TAM  HZ EP       2319 57.89                             130   -0.17 9  156 106 
 TAM  HZ I        2320 18.80        24.5 0.34            127            156 106 
 TAM  HN ES       2320 19.22                             130   -0.32 9  156 106 
 OCA  HZ EP   1   2319 59.34                             130    0.87 7  158 353 
 OCA  HN ES       2320 19.38                             130   -0.89 9  158 353 
 OCA  HZ I        2320 24.58        23.5 0.18            129            158 353 
 SPBC HZ EP   1   2319 58.88                             128   -0.12 7  165 219 
 SPBC HN ES       2320 21.34                             128    0.12 9  165 219 
 SPBC HZ I        2320 27.02        41.9 0.22            127            165 219 
 SML  HZ EP       2320  6.46                             117   -0.37 8  242 335 
 SML  HN ES       2320 34.88                             117   -0.27 8  242 335 
 SML  HZ I        2320 37.72        28.7 0.10            116            242 335 
 CHI  HZ EP   1   2320  8.43                             116    0.12 6  251 195 
 CHI  HN ES       2320 37.42                             116   -0.36 8  251 195 
 CHI  HZ I        2320 42.83        10.6 0.30            115            251 195 
 GUY2CHZ EP   1   2320 14.56                             112    0.40 5  302 234 
 GUY2CHN ES   4   2320 49.30                             112    1.10 0  302 234 
 GUY2CHZ I        2320 56.14        12.9 0.44                           302 234 
 TOL  SZ EP       2320 19.51                             109    0.65 7  345 224 
 TOL  SN ES       2320 56.72                             109    0.16 7  345 224 
 TOL  SZ I        2321  4.23        27.2 0.32            108            345 224 
 MON  HZ EP   4   2320 17.27                             108   -2.03 0  353 308 
 MON  HN ES   4   2320 55.96                             108   -1.39 0  353 308 
 PRA  HZ EP       2320 24.26                             106    0.09 6  394 209 
 PRA  HN ES   4   2321  7.36                             106    1.34 0  394 209 
 PRA  HZ I        2321 12.38        15.3 0.28            105            394 209 
 SJC  HZ EP   4   2320 24.25                             105   -1.57 0  408 327 
 SJC  HN ES   4   2321  4.12                             105   -4.83 0  408 327 
                                                                                
