 2013  619 2240 23.2 L   6.935 -72.877142.7  RSN  4 0.2 1.9LRSN                1
 GAP=224        0.55       7.1    15.1 10.4  0.9616E+02 -0.1201E+03 -0.5698E+02E
 Epicentro: GUACA - SANTANDER                                                  3
 ACTION:UPD 14-01-08 09:55 OP:ep   STATUS:               ID:20130619224023 L   I
 OLDACT:REG 13-06-19 22:29 OP:mh   STATUS:               ID:20130619223959     3
 2013-06-19-2239-59M.COL___261                                                 6
 STAT SP IPHASW D HRMM SECON CODA AMPLIT PERI AZIMU VELO AIN AR TRES W  DIS CAZ7
 BAR2 SZ EP   1   2240 43.61                             159    0.25 7 50.8 222 
 BAR2 SZ ES   1   2240 59.19                             159    0.13 7 50.8 222 
 BAR2 SZ I        2241  0.37        13.4 0.22            159           50.8 222 
 BRR  HZ EP   1   2240 45.86                             145    0.35 7 94.2 282 
 BRR  HN ES       2241  2.93                             145    0.0310 94.2 282 
 BRR  HN I        2241  6.96        18.1 0.26            142           94.2 282 
 RUS  HZ EP   1   2240 47.86                             139   -0.11 7  118 191 
 RUS  HN ES   1   2241  6.90                             139   -0.38 7  118 191 
 RUS  HN I        2241  8.00         4.9 0.18            141            118 191 
 SML  HE ES       2241 28.04                             117   -0.28 8  245 328 
 SML  HE I        2241 33.53         8.6 0.10            117            245 328 
                                                                                
