 2016  919 2153  0.2 L   6.813 -73.214134.6  RSN  6 0.5 1.8LRSN                1
 GAP=128        0.99       5.0     4.5  8.8 -0.4437E+00  0.1227E+02 -0.5538E+01E
 Epicentro: ZAPATOCA - SANTANDER                                               3
 ACTION:UPD 17-08-17 21:14 OP:lp   STATUS:               ID:20160919215300 L   I
 OLDACT:REG 16-09-20 05:19 OP:dnl  STATUS:               ID:20160919214730     3
 2016-09-19-2148-00M.COL___363                                                 6
 STAT SP IPHASW D HRMM SECON CODA AMPLIT PERI AZIMU VELO AIN AR TRES W  DIS CAZ7
 BAR2 EZ EP   3   2153 18.65                             169    0.13 2 24.7 172 
 BAR2 EZ ES       2153 32.72                             169   -0.0910 24.7 172 
 BAR2 EZ I        2153 34.39        24.2 0.30            156           24.7 172 
 PAM  EZ IP     D 2153 21.40                             147   -0.1010 81.3  44 
 PAM  EN ES       2153 37.98                             147   -0.1310 81.3  44 
 PAM  EZ I        2153 41.06         5.8 0.52            132           81.3  44 
 RUS  HZ EP       2153 22.90                             141   -0.1510  103 172 
 RUS  HN ES       2153 41.44                             141    0.5810  103 172 
 RUS  HZ I        2153 42.69         6.0 0.58            121            103 172 
 PTB  HZ EP   2   2153 24.68                             131   -0.94 5  141 258 
 PTB  HN ES       2153 44.81                             131   -0.63 9  141 258 
 PTB  HZ I        2153 49.28         8.5 0.38            113            141 258 
 ZAR  HZ EP   2   2153 32.22                             121    1.07 4  196 293 
 ZAR  HN ES       2153 55.93                             121    0.64 9  196 293 
 ZAR  HZ I        2154  2.02        10.1 0.26            106            196 293 
 NOR  HZ EP   3   2153 34.20                             117   -0.54 2  229 233 
 NOR  HZ I        2154  7.55         4.9 0.18            103            229 233 
                                                                                
