 2017 1019 2319 27.4 L   6.755 -73.141147.7  RSN  5 0.3 1.4LRSN                1
 GAP=139        0.86       4.6     4.5  6.7 -0.2005E+01  0.3026E+01  0.2174E+01E
 Epicentro: LOS SANTOS - SANTANDER                                             3
 ACTION:UPD 17-11-07 19:34 OP:rebc STATUS:               ID:20171019231927 L   I
 OLDACT:UP  17-10-20 05:08 OP:mg   STATUS:               ID:20171019231741     3
 OLDACT:REG 17-10-20 03:31 OP:mg   STATUS:               ID:20171019231741     3
 2017-10-19-2318-00M.COL___462                                                 6
 STAT SP IPHASW D HRMM SECON CODA AMPLIT PERI AZIMU VELO AIN AR TRES W  DIS CAZ7
 BAR2 EZ EP       2319 47.03                             172   -0.1610 18.6 194 
 BAR2 EZ ES   1   2320  2.65                             172    0.03 7 18.6 194 
 BAR2 EZ I        2320  3.63         5.9 0.18            171           18.6 194 
 BRR  HZ EP       2319 49.20                             152    0.2610 74.2 302 
 BRR  HN ES       2320  6.32                             152    0.5910 74.2 302 
 BRR  HZ I        2320  9.29         8.0 0.27            151           74.2 302 
 PAM  EZ EP       2319 50.07                             150    0.0210 81.0  37 
 PAM  EN ES       2320  7.30                             150   -0.4110 81.0  37 
 PAM  EZ I        2320  8.68         3.3 0.15            154           81.0  37 
 RUS  HZ EP       2319 51.34                             146    0.3410 95.6 176 
 RUS  HN ES       2320  9.39                             146   -0.0110 95.6 176 
 RUS  HZ I        2320 11.83         4.0 0.30            147           95.6 176 
 PTB  HZ EP       2319 54.30                             132   -0.21 9  147 261 
 PTB  HN ES       2320 15.12                             132   -0.52 9  147 261 
 PTB  HZ I        2320 20.36         2.2 0.24            133            147 261 
                                                                                
