 2015  319 2328 32.0 L   6.775 -73.151141.6  RSN 12 0.4 1.9LRSN                1
 GAP=137        0.88       3.3     3.9  5.9 -0.2618E+00  0.6912E+01 -0.1439E+01E
 Epicentro: LOS SANTOS - SANTANDER                                             3
 ACTION:UPD 15-04-30 16:27 OP:nd   STATUS:               ID:20150319232832 L   I
 OLDACT:REG 15-03-20 04:06 OP:spq  STATUS:               ID:20150319231749     3
 2015-03-19-2317-49M.COL___278                                                 6
 STAT SP IPHASW D HRMM SECON CODA AMPLIT PERI AZIMU VELO AIN AR TRES W  DIS CAZ7
 BAR2 EZ EP   1   2328 51.15                             171    0.04 7 20.5 190 
 BAR2 EZ ES   1   2329  5.74                             171   -0.24 7 20.5 190 
 BAR2 EZ I        2329  6.83        22.6 0.30            171           20.5 190 
 BRR  HZ EP     C 2328 53.04                             151    0.2510 72.1 301 
 BRR  HN ES       2329  9.58                             151    0.6110 72.1 301 
 BRR  HZ I        2329 12.88        11.6 0.34            149           72.1 301 
 PAM  SZ EP       2328 54.17                             149    0.2010 79.9  39 
 PAM  SN ES       2329 10.78                             149   -0.2910 79.9  39 
 PAM  SZ I        2329 13.28         7.0 0.48            153           79.9  39 
 RUS  HZ EP       2328 55.13                             144   -0.0510 97.8 176 
 RUS  HN ES       2329 13.37                             144    0.1510 97.8 176 
 RUS  HZ I        2329 14.32         7.8 0.26            146           97.8 176 
 PTB  HZ EP   1   2328 58.22                             131   -0.35 7  147 260 
 PTB  HN ES   1   2329 18.42                             131   -0.84 7  147 260 
 PTB  HZ I        2329 21.58         7.9 0.10            131            147 260 
 SPBC HZ EP   1   2329  0.35                             129    0.37 7  161 219 
 SPBC HN ES   1   2329 20.90                             129   -0.87 7  161 219 
 SPBC HZ I        2329 25.90        13.3 0.20            129            161 219 
 OCA  HE ES   4   2329 20.97                             128   -1.35 0  163 353 
 OCA  HZ I        2329 26.31        19.2 0.23            129            163 353 
 ZAR  HZ EP       2329  4.15                             121   -0.12 9  205 293 
 ZAR  HE ES       2329 29.63                             121    0.22 9  205 293 
 ZAR  HZ I        2329 32.64         5.7 0.30            122            205 293 
 SML  HZ EP   1   2329  8.36                             116   -0.33 6  246 336 
 SML  HN ES   1   2329 36.91                             116   -0.36 6  246 336 
 SML  HZ I        2329 39.14        13.9 0.28            117            246 336 
 HEL  HZ EP   4   2329 13.56                             114    1.65 0  271 256 
 HEL  HE ES   4   2329 44.39                             114    1.39 0  271 256 
 HEL  HZ I        2329 52.48         4.7 0.30            115            271 256 
 GUY2CHZ EP   4   2329 17.14                             112    1.92 0  299 235 
 GUY2CHE ES   1   2329 49.69                             112    0.79 5  299 235 
 GUY2CHZ I        2329 56.52         3.0 0.24                           299 235 
 SJC  HZ EP   4   2329 26.18                             105   -1.53 0  411 327 
 SJC  HN ES   4   2330  6.09                             105   -5.04 0  411 327 
 SJC  HZ I        2330 11.43         1.8 0.56            106            411 327 
                                                                                
