 2010  619 2210 27.8 L   6.761 -73.122145.2  RSN  4 0.2 1.9LRSN                1
 GAP=159        0.41       3.0     5.6  5.2  0.5115E+01 -0.5054E+01 -0.2117E+01E
 Epicentro: LOS SANTOS - SANTANDER                                             3
 ACTION:UP  10-08-24 10:11 OP:vdl  STATUS:               ID:20100619221027 L   I
 2010-06-19-2208-40S.COL___118                                                 6
 STAT SP IPHASW D HRMM SECON CODA AMPLIT PERI AZIMU VELO SNR AR TRES W  DIS CAZ7
 BAR2 SZ EP   2   2210 46.81                             172    -0.5 5   20 200 
 BAR2 SZ ES   2   2211  2.29                             172    -0.2 5   20 200 
 BRR  HZ IP     C 2210 49.16                             151     0.010   76 300 
 BRR  HZ I        2211  3.39        15.4 0.41                            76 300 
 BRR  HN ES   1   2211  5.82                             151     0.0 7   76 300 
 RUS  HZ EP   1   2210 51.11                             145    -0.1 7   96 177 
 RUS  HN ES   1   2211  9.57                             145     0.2 7   96 177 
 BRI  SZ EP   2   2210 52.15                             140     0.3 5  112  19 
 BRI  SZ ES   2   2211 10.64                             140     0.0 5  112  19 
                                                                                
