 2017 1219 2150 27.9 L   6.784 -73.136141.6  RSN 10 0.4 2.0LRSN                1
 GAP= 89        0.89       2.8     3.4  5.2 -0.3307E+01  0.3234E+01 -0.2873E+00E
 Epicentro: LOS SANTOS - SANTANDER                                             3
 ACTION:UPD 18-01-04 13:22 OP:rebc STATUS:               ID:20171219215027 L   I
 OLDACT:REG 17-12-20 03:18 OP:leo  STATUS:               ID:20171219214742     3
 2017-12-19-2148-00M.COL___460                                                 6
 STAT SP IPHASW D HRMM SECON CODA AMPLIT PERI AZIMU VELO AIN AR TRES W  DIS CAZ7
 BAR2 EZ EP       2150 46.53                             171   -0.5010 21.8 193 
 BAR2 EZ ES       2151  1.68                             171   -0.2410 21.8 193 
 BAR2 EZ I        2151  5.34        14.0 0.60            166           21.8 193 
 PAM  EZ EP       2150 49.91                             150    0.1610 78.1  38 
 PAM  EN ES       2151  7.21                             150    0.4510 78.1  38 
 PAM  EZ I        2151  9.31        13.4 0.66            151           78.1  38 
 PTB  HZ EP       2150 54.19                             131   -0.43 9  148 260 
 PTB  HE ES       2151 15.10                             131   -0.34 9  148 260 
 PTB  HZ I        2151 17.03         9.6 0.12            128            148 260 
 TAM  HZ EP       2150 55.07                             130   -0.08 9  154 104 
 SPBC HZ EP       2150 55.58                             128   -0.46 9  162 220 
 SPBC HN ES       2151 18.67                             128    0.70 9  162 220 
 SPBC HZ I        2151 20.90         9.7 0.20            125            162 220 
 OCA  HZ EP       2150 56.48                             128    0.38 9  162 353 
 OCA  HN ES       2151 17.91                             128   -0.15 9  162 353 
 OCA  HZ I        2151 20.84        25.5 0.58            128            162 353 
 ZAR  HZ EP       2151  0.43                             121    0.16 8  206 292 
 ZAR  HN ES       2151 25.72                             121    0.22 8  206 292 
 ZAR  HZ I        2151 31.52        12.9 0.56            119            206 292 
 DRL03HZ EP       2151  9.91                             112    0.36 7  291 353 
 DRL03HN ES       2151 41.56                             112   -0.46 7  291 353 
 GUY2CHN ES       2151 45.54                             111    0.36 7  301 235 
 PRA  HZ EP       2151 21.55                             106    0.36 6  391 210 
 PRA  HE ES       2152  2.58                             106   -0.15 6  391 210 
 PRA  HZ I        2152  9.85         3.0 0.52            104            391 210 
                                                                                
