 2011  419 2312 16.1 L   6.745 -73.106150.0  RSN 10 0.3 2.3LRSN                1
 GAP=119        0.68       3.7     5.4  8.2 -0.6736E+01  0.5106E+01  0.1191E+02E
 Epicentro: JORDAN - SANTANDER                                                 3
 ACTION:UP  11-06-22 15:31 OP:REBC STATUS:               ID:20110419231216 L   I
 2011-04-19-2310-43S.COL___139                                                 6
 STAT SP IPHASW D HRMM SECON CODA AMPLIT PERI AZIMU VELO SNR AR TRES W  DIS CAZ7
 BTL  SZ EP       2312 36.75                             170     0.510   26 317 
 GIR2 SZ EP   1   2312 36.59                             165     0.1 7   38 345 
 BRR  HZ EP   1   2312 38.30                             151     0.2 7   78 301 
 BRR  HZ I        2312 39.85        61.6 0.19                            78 301 
 BRR  HE ES   2   2312 55.23                             151     0.0 5   78 301 
 PAM  SZ EP   1   2312 39.26                             151     0.4 7   80  34 
 PAM  SE ES   2   2312 55.98                             151    -0.7 5   80  34 
 GRA  SZ EP   1   2312 42.07                             137     0.0 7  130  15 
 GRA  SZ ES   1   2313  2.24                             137    -0.2 7  130  15 
 GRA  SZ I        2313  3.79        18.6 0.30                           130  15 
 OCA  SZ EP   1   2312 44.91                             129    -0.4 7  167 352 
 OCA  SZ ES   2   2313  7.88                             129    -0.3 5  167 352 
 OCA  SZ I        2313 10.50        26.3 0.24                           167 352 
 YOP  SZ EP   2   2312 46.10                             129     0.4 4  171 154 
 YOP  SN ES   2   2313  8.73                             129    -0.1 4  171 154 
 YOP  SZ I        2313 20.87        13.2 0.56                           171 154 
 NOR  SZ EP   1   2312 51.79                             119    -0.3 6  235 236 
 NOR  SN ES   1   2313 20.31                             119     0.2 6  235 236 
 CHI  HZ EP   1   2312 53.06                             119    -0.5 6  244 197 
 CHI  HZ I        2312 54.98        15.9 0.05                           244 197 
 CHI  HN ES   2   2313 22.12                             119    -0.6 4  244 197 
 TOL  SZ EP   1   2313  4.23                             110    -0.2 5  342 226 
                                                                                
