 2015 1219 2254  1.6 L   6.805 -73.163145.9  RSN  8 0.4 1.9LRSN                1
 GAP=199        0.95       3.5     5.0  7.3  0.3569E+01 -0.1632E+00 -0.3558E+01E
 Epicentro: LOS SANTOS - SANTANDER                                             3
 ACTION:UPD 16-02-04 15:06 OP:cam  STATUS:               ID:20151219225401 L   I
 OLDACT:UP  15-12-20 05:41 OP:mh   STATUS:               ID:20151219224745     3
 OLDACT:UP  15-12-20 05:41 OP:mh   STATUS:               ID:20151219224745     3
 OLDACT:UP  15-12-20 05:41 OP:mh   STATUS:               ID:20151219224745     3
 OLDACT:REG 15-12-20 03:11 OP:mh   STATUS:               ID:20151219224745     3
 2015-12-19-2247-45M.COL___328                                                 6
 STAT SP IPHASW D HRMM SECON CODA AMPLIT PERI AZIMU VELO AIN AR TRES W  DIS CAZ7
 BAR2 EZ EP       2254 21.25                             170    0.0110 23.6 185 
 BAR2 EZ I        2254 37.96         9.0 0.14            172           23.6 185 
 BRR  HZ EP       2254 22.96                             153    0.3210 69.2 299 
 BRR  HN ES       2254 39.46                             153    0.4010 69.2 299 
 BRR  HZ I        2254 43.85        10.1 0.10            154           69.2 299 
 RUS  HZ EP     D 2254 25.42                             144    0.0110  101 175 
 RUS  HE ES       2254 44.05                             144    0.0710  101 175 
 RUS  HZ I        2254 45.33         5.5 0.22            146            101 175 
 PTB  HZ EP       2254 28.15                             133   -0.26 9  146 258 
 PTB  HN ES       2254 48.74                             133   -0.58 9  146 258 
 PTB  HZ I        2254 53.60        10.8 0.12            134            146 258 
 SPBC HZ EP       2254 30.11                             129    0.08 9  162 218 
 SPBC HN ES       2254 51.64                             129   -0.57 9  162 218 
 SPBC HZ I        2254 59.24        11.5 0.20            132            162 218 
 ZAR  HZ EP   1   2254 34.39                             123    0.55 6  202 292 
 ZAR  HN ES       2254 59.56                             123    0.57 9  202 292 
 ZAR  HZ I        2255  4.75         6.9 0.26            124            202 292 
 NOR  HZ EP   1   2254 37.66                             119    0.47 6  233 234 
 NOR  HN ES       2255  5.16                             119    0.20 8  233 234 
 NOR  HZ I        2255 12.48         6.9 0.19            120            233 234 
 SML  HZ EP   1   2254 37.86                             118   -0.22 6  242 336 
 SML  HE ES       2255  5.71                             118   -0.83 8  242 336 
 SML  HZ I        2255 14.77        11.4 0.26            119            242 336 
                                                                                
