 2011 1019 2011 47.3 L   6.790 -73.138150.0  RSN  6 0.3 2.0LRSN                1
 GAP=138        0.70       4.8     5.3  6.7  0.4904E+01  0.4449E+01  0.1083E+01E
 Epicentro: LOS SANTOS - SANTANDER                                             3
 ACTION:UPD 12-07-13 16:04 OP:ep   STATUS:               ID:20111019201147 L   I
 2011-10-19-2000-00M.COL___171                                                 6
 STAT SP IPHASW D HRMM SECON CODA AMPLIT PERI AZIMU VELO AIN AR TRES W  DIS CAZ7
 BAR2 SZ ES   1   2012 22.61                             171   -0.55 7 22.4 193 
 BAR2 SZ I        2012 23.89        48.2 0.11                          22.4 193 
 GIR2 SZ EP   1   2012  7.54                             167   -0.02 7 32.5 349 
 GIR2 SZ ES   1   2012 23.61                             167    0.29 7 32.5 349 
 BRR  HZ EP   1   2012  9.27                             153    0.25 7 72.5 299 
 BRR  HE ES   1   2012 26.45                             153    0.52 7 72.5 299 
 BRR  HZ I        2012 27.89        16.2 0.14                          72.5 299 
 PAM  SZ EP   1   2012 10.22                             151    0.18 7 77.8  39 
 PAM  SZ I        2012 10.52        11.8 0.17                          77.8  39 
 PAM  SN ES   1   2012 27.37                             151   -0.37 7 77.8  39 
 RUS  HZ EP   1   2012 11.34                             145   -0.09 7 99.4 176 
 RUS  HE ES   1   2012 30.39                             145    0.17 7 99.4 176 
 RUS  HZ I        2012 31.68        12.1 0.23                          99.4 176 
 ZAR  HN ES   1   2012 45.29                             123   -0.52 6  205 292 
 ZAR  HZ I        2012 49.56         6.1 0.11                           205 292 
                                                                                
