 2017  419 2119  2.8 L   6.029 -73.767105.3  RSN  5 0.1 1.5LRSN                1
 GAP=205        0.33       2.7     2.7  5.0  0.3987E+01  0.9910E+01  0.2392E+01E
 Epicentro: BOLIVAR - SANTANDER                                                3
 ACTION:UPD 17-05-30 21:14 OP:jn   STATUS:               ID:20170419211902 L   I
 OLDACT:UP  17-04-20 04:00 OP:edw  STATUS:               ID:20170419211738d    3
 OLDACT:UP  17-04-20 03:59 OP:edw  STATUS:               ID:20170419211738d    3
 OLDACT:DUP 17-04-20 03:55 OP:edw  STATUS:               ID:20170419211738d    3
 OLDACT:UP  17-04-20 03:54 OP:edw  STATUS:               ID:20170419211737     3
 OLDACT:UP  17-04-20 03:53 OP:edw  STATUS:               ID:20170419211737     3
 OLDACT:REG 17-04-20 03:21 OP:edw  STATUS:               ID:20170419211737     3
 2017-04-19-2118-00M.COL___371                                                 6
 STAT SP IPHASW D HRMM SECON CODA AMPLIT PERI AZIMU VELO AIN AR TRES W  DIS CAZ7
 RUS  HZ EP       2119 20.94                             141    0.0110 77.2 101 
 RUS  HN ES       2119 35.13                             141    0.0810 77.2 101 
 RUS  HZ I        2119 36.99         5.3 0.26            149           77.2 101 
 BAR2 EZ EP       2119 21.64                             136    0.0510 89.7  46 
 BAR2 EZ ES       2119 36.12                             136   -0.0910 89.7  46 
 BAR2 EZ I        2119 37.55        17.2 0.38            144           89.7  46 
 PTB  HZ EP       2119 21.58                             134   -0.1410 94.9 307 
 PTB  HN ES   4   2119 38.13                             134    1.68 0 94.9 307 
 PTB  HZ I        2119 39.01         4.1 0.30            138           94.9 307 
 BRR  HZ EP       2119 23.93                             127   -0.0310  119   3 
 BRR  HN ES   4   2119 35.50                             127   -4.93 0  119   3 
 CHI  HN ES   4   2119 48.80                             120    0.96 0  155 179 
 ZAR  HZ EP       2119 32.77                             112    0.01 9  202 323 
 ZAR  HN ES       2119 56.24                             112    0.14 9  202 323 
 ZAR  HZ I        2119 58.56         4.2 0.26            117            202 323 
                                                                                
