 2017  919 2006 23.1 L   6.791 -73.112144.6  RSN 10 0.3 1.9LRSN                1
 GAP=115        0.72       3.3     4.7  4.9  0.3738E+01 -0.4260E+00  0.3739E+01E
 Epicentro: LOS SANTOS - SANTANDER                                             3
 ACTION:UPD 17-10-05 19:14 OP:rebc STATUS:               ID:20170919200624dL   I
 OLDACT:UP  17-09-20 04:00 OP:dnl  STATUS:               ID:20170919195531     3
 OLDACT:UP  17-09-20 04:00 OP:dnl  STATUS:               ID:20170919195531     3
 OLDACT:UP  17-09-20 03:57 OP:dnl  STATUS:               ID:20170919195531     3
 OLDACT:REG 17-09-20 03:27 OP:dnl  STATUS:               ID:20170919195531     3
 2017-09-19-1958-00M.COL___450                                                 6
 STAT SP IPHASW D HRMM SECON CODA AMPLIT PERI AZIMU VELO AIN AR TRES W  DIS CAZ7
 BAR2 EZ EP       20 6 42.31                             170   -0.2610 23.3 200 
 BAR2 EZ ES       20 6 57.40                             170   -0.3710 23.3 200 
 BAR2 EZ I        20 7  0.17        17.7 0.22            165           23.3 200 
 BRR  HZ EP       20 6 44.06                             151   -0.2710 75.0 298 
 BRR  HN ES       20 7  1.12                             151    0.2310 75.0 298 
 BRR  HZ I        20 7  4.38        19.4 0.24            147           75.0 298 
 PAM  EZ IP     D 20 6 45.31                             151    0.2210 75.9  37 
 PAM  EN ES       20 7  2.33                             151    0.0910 75.9  37 
 PAM  EZ I        20 7  5.24        10.5 0.56            156           75.9  37 
 RUS  HZ EP       20 6 46.30                             144   -0.3310 99.4 178 
 RUS  HN ES       20 7  5.49                             144    0.4910 99.4 178 
 RUS  HZ I        20 7  7.37         6.6 0.38            144           99.4 178 
 YPLC HZ EP       20 6 52.80                             127    0.27 9  174 152 
 YPLC HE ES       20 7 15.42                             127   -0.08 9  174 152 
 YPLC HZ I        20 7 17.84         9.4 0.24            129            174 152 
 ZAR  HZ EP   4   20 6 54.07                             122   -1.78 0  208 292 
 ZAR  HE ES   4   20 7 18.31                             122   -3.10 0  208 292 
 ZAR  HZ I        20 7 28.34        11.4 0.50            120            208 292 
 NOR  HZ EP   2   20 6 58.79                             118   -0.22 4  237 235 
 NOR  HE ES   4   20 7 26.10                             118   -0.94 0  237 235 
 NOR  HZ I        20 7 34.24         6.0 0.14            117            237 235 
 CHI  HZ EP   2   20 7  0.69                             117   -0.03 4  249 196 
 CHI  HE ES   4   20 7 28.69                             117   -1.39 0  249 196 
 CHI  HZ I        20 7 32.94         3.2 0.30            117            249 196 
 HEL  HE ES   4   20 7 36.78                             114    1.55 0  275 256 
 HEL  HZ I        20 7 40.83         5.9 0.42            113            275 256 
 GUY2CHZ EP   2   20 7  7.67                             112    0.75 4  304 235 
 GUY2CHN ES   4   20 7 43.52                             112    2.41 0  304 235 
 GUY2CHZ I        20 7 47.56         4.6 0.52                           304 235 
                                                                                
