 2017 1119 2042 43.8 L   6.770 -73.154141.4  RSN 13 0.5 2.1LRSN                1
 GAP= 65        1.21       3.8     3.4  7.3 -0.3541E+00  0.3651E+01 -0.6312E-01E
 Epicentro: LOS SANTOS - SANTANDER                                             3
 ACTION:UPD 17-12-12 19:57 OP:rebc STATUS:               ID:20171119204243 L   I
 OLDACT:UP  17-11-20 06:07 OP:mg   STATUS:               ID:20171119203740     3
 OLDACT:REG 17-11-20 05:01 OP:mg   STATUS:               ID:20171119203740     3
 2017-11-19-2038-00M.COL___474                                                 6
 STAT SP IPHASW D HRMM SECON CODA AMPLIT PERI AZIMU VELO AIN AR TRES W  DIS CAZ7
 BAR2 EZ EP       2043  3.06                             172    0.2310 19.9 189 
 BAR2 EZ ES   2   2043 18.17                             172    0.49 5 19.9 189 
 BAR2 EZ I        2043 19.06        37.9 0.20            172           19.9 189 
 PAM  EZ IP     C 2043  5.89                             149    0.1510 80.5  39 
 PAM  EN ES       2043 22.78                             149   -0.0810 80.5  39 
 PAM  EZ I        2043 27.72        10.4 0.18            151           80.5  39 
 RUS  HZ EP       2043  6.97                             144    0.0810 97.4 175 
 RUS  HN ES       2043 24.77                             144   -0.1310 97.4 175 
 RUS  HZ I        2043 26.73        19.0 0.24            146           97.4 175 
 PTB  HZ EP       2043  9.96                             131   -0.31 9  146 260 
 PTB  HN ES       2043 30.41                             131   -0.51 9  146 260 
 PTB  HZ I        2043 32.99        17.7 0.30            133            146 260 
 TAM  HZ EP       2043 11.50                             129    0.36 9  155 104 
 TAM  HN ES       2043 32.10                             129   -0.36 9  155 104 
 TAM  HZ I        2043 33.52        18.3 0.22            133            155 104 
 SPBC HZ EP       2043 11.88                             129    0.22 9  160 219 
 SPBC HN ES       2043 32.97                             129   -0.43 9  160 219 
 SPBC HZ I        2043 36.54        15.5 0.20            131            160 219 
 YPLC HZ EP       2043 13.79                             126    0.75 9  174 151 
 YPLC HN ES   2   2043 36.92                             126    1.08 4  174 151 
 YPLC HZ I        2043 39.68        16.3 0.32            129            174 151 
 ZAR  HZ EP       2043 16.25                             121    0.25 9  204 293 
 ZAR  HN ES       2043 41.94                             121    0.82 9  204 293 
 ZAR  HZ I        2043 50.05        18.6 0.27            123            204 293 
 NOR  HZ EP       2043 17.98                             118   -1.01 8  232 235 
 NOR  HN ES       2043 46.23                             118   -0.21 8  232 235 
 NOR  HZ I        2043 48.51         8.0 0.16            120            232 235 
 DRL03HZ EP       2043 25.55                             112   -0.00 7  292 353 
 DRL03HN ES   2   2043 56.90                             112   -1.22 4  292 353 
 GUY2CHZ EP   9   2043 28.83                             112    1.92 0  299 235 
 GUY2CHE ES       2044  3.82                             112    1.36 7  299 235 
 GUY2CHZ I        2044 10.72         5.3 0.52                           299 235 
 PTGC HE ES       2044  0.10                             111   -0.87 7  306 158 
 PRA  HZ EP       2043 37.32                             106    0.54 6  389 210 
 PRA  HN ES   2   2044 19.72                             106    1.61 3  389 210 
 PRA  HZ I        2044 25.69         3.5 0.32            108            389 210 
                                                                                
