 2014 1019 2115 22.3 L   6.816 -73.188153.6  RSN  6 0.6 1.3LRSN                1
 GAP=131        1.44       5.7     7.2 12.2 -0.5296E+01  0.1009E+02 -0.3341E+01E
 Epicentro: ZAPATOCA - SANTANDER                                               3
 ACTION:UPD 14-11-29 23:51 OP:nd   STATUS:               ID:20141019211522 L   I
 OLDACT:REG 14-10-20 05:17 OP:stll STATUS:               ID:20141019210743     3
 2014-10-19-2107-43M.COL___267                                                 6
 STAT SP IPHASW D HRMM SECON CODA AMPLIT PERI AZIMU VELO AIN AR TRES W  DIS CAZ7
 BRR  HZ EP       2115 44.85                             155    0.7810 66.3 299 
 BRR  HN ES       2116  1.90                             155    0.8710 66.3 299 
 PAM  SZ EP       2115 45.92                             152    0.4410 79.1  43 
 PAM  SZ I        2115 46.21         4.1 0.36            151           79.1  43 
 PAM  SE ES       2116  2.94                             152   -0.6010 79.1  43 
 RUS  HZ EP       2115 46.62                             145   -0.3910  103 174 
 RUS  HZ I        2115 47.45         1.8 0.20            144            103 174 
 RUS  HN ES       2116  6.17                             145   -0.0910  103 174 
 PTB  HZ EP       2115 49.67                             135    0.09 9  144 258 
 PTB  HZ I        2115 51.76         3.7 0.28            133            144 258 
 PTB  HN ES       2116 10.07                             135   -0.77 9  144 258 
 SPBC HN ES       2116 13.98                             131    0.08 9  162 217 
 SML  HN ES       2116 26.91                             119   -0.75 8  240 336 
                                                                                
