 2016  519 2015  7.5 L   6.799 -73.153147.4  RSN  7 0.3 2.0LRSN                1
 GAP=237        0.86       4.6     4.9  5.5  0.1085E+02  0.5084E+01 -0.2699E+01E
 Epicentro: LOS SANTOS - SANTANDER                                             3
 ACTION:UPD 16-08-18 17:47 OP:cam  STATUS:               ID:20160519201507 L   I
 OLDACT:UP  16-05-24 15:33 OP:dnl  STATUS:               ID:20160519201507 L   3
 OLDACT:REG 16-05-20 04:27 OP:edw  STATUS:               ID:20160519200744     3
 2016-05-19-2007-44M.COL___307                                                 6
 STAT SP IPHASW D HRMM SECON CODA AMPLIT PERI AZIMU VELO AIN AR TRES W  DIS CAZ7
 BAR2 EZ EP       2015 27.34                             171   -0.0310 23.1 188 
 BAR2 EZ ES       2015 42.52                             171   -0.3210 23.1 188 
 BAR2 EZ I        2015 44.76        19.7 0.22            169           23.1 188 
 BRR  HZ EP       2015 29.40                             153    0.5610 70.5 299 
 BRR  HE ES       2015 45.89                             153    0.4410 70.5 299 
 RUS  HZ EP       2015 31.30                             144   -0.1610  101 176 
 RUS  HN ES       2015 49.77                             144   -0.3410  101 176 
 RUS  HZ I        2015 51.01         6.9 0.26            145            101 176 
 PTB  HZ EP       2015 34.33                             132   -0.24 9  147 259 
 PTB  HN ES       2015 55.47                             132   -0.18 9  147 259 
 PTB  HZ I        2015 57.19        12.1 0.44            132            147 259 
 SPBC HZ EP       2015 36.38                             129    0.27 9  163 219 
 SPBC HN ES       2015 58.90                             129    0.50 9  163 219 
 SPBC HZ I        2016  2.53        15.9 0.22            129            163 219 
 ZAR  HZ EP       2015 39.88                             123   -0.15 9  203 292 
 ZAR  HN ES       2016  5.33                             123   -0.03 9  203 292 
 ZAR  HZ I        2016 12.52         9.3 0.34            123            203 292 
 URE  HZ EP       2015 48.73                             114    0.11 7  283 292 
 URE  HN ES       2016 19.98                             114   -0.67 7  283 292 
 URE  HZ I        2016 22.39         7.0 0.14            114            283 292 
                                                                                
