 2014  619 2325 57.8 L   6.883 -73.106124.0  RSN  5 0.4 1.5LRSN                1
 GAP=249        0.98       7.3     6.6 12.3  0.2434E+02  0.2184E+02 -0.3491E+01E
 Epicentro: LOS SANTOS - SANTANDER                                             3
 ACTION:UPD 14-07-01 22:55 OP:nd   STATUS:               ID:20140619232557 L   I
 OLDACT:REG 14-06-20 05:32 OP:fm   STATUS:               ID:20140619231817     3
 2014-06-19-2318-17M.COL___262                                                 6
 STAT SP IPHASW D HRMM SECON CODA AMPLIT PERI AZIMU VELO AIN AR TRES W  DIS CAZ7
 RUS  HZ EP       2326 20.40                             136    0.1810  110 179 
 RUS  HN ES       2326 37.81                             136    0.1010  110 179 
 RUS  HZ I        2326 39.46         3.4 0.32            137            110 179 
 PTB  HZ EP       2326 22.89                             125   -0.82 9  154 256 
 PTB  HN ES       2326 43.65                             125   -0.27 9  154 256 
 PTB  HZ I        2326 45.84         4.7 0.50            124            154 256 
 ZAR  HN ES       2326 53.93                             117    0.55 9  205 289 
 ZAR  HZ I        2327  2.57         3.6 0.40            116            205 289 
 GUY2CHZ EP   1   2326 42.01                             107    0.47 5  310 234 
 GUY2CHN ES       2327 16.08                             107    0.44 7  310 234 
 GUY2CHZ I        2327 22.45         2.1 0.30                           310 234 
 RREF HN ES       2327 20.17                             106   -0.19 7  331 229 
 RREF HZ I        2327 29.96         1.9 0.26            106            331 229 
 SJC  HZ EP   4   2326 50.03                             102   -2.09 0  404 326 
 SJC  HN ES   4   2327 30.75                             102   -3.73 0  404 326 
                                                                                
