 2013 1119 2309  6.0 L   7.081 -73.392  0.0  RSN  4 0.3 1.0LRSN                1
 GAP=187        0.79       2.3     3.3  5.3  0.2336E+01  0.1278E+00 -0.5161E+00E
 Epicentro: LEBRIJA - SANTANDER                                                3
 ACTION:UPD 14-01-09 16:29 OP:ep   STATUS:               ID:20131119230906 L   I
 OLDACT:REG 13-11-19 23:35 OP:stll STATUS:               ID:20131119230814     3
 2013-11-19-2308-14M.COL___238                                                 6
 STAT SP IPHASW D HRMM SECON CODA AMPLIT PERI AZIMU VELO AIN AR TRES W  DIS CAZ7
 BRR  HZ EP       23 9 12.13                              47   -0.3910 35.4 275 
 BRR  HZ I        23 9 16.59        20.3 0.20            114           35.4 275 
 PTB  HZ EP       23 9 27.30                              47    0.1410  132 243 
 PTB  HZ I        23 9 28.47         3.0 0.18             56            132 243 
 PTB  HN ES       23 9 43.81                              47    0.1310  132 243 
 RUS  HZ EP       23 9 28.57                              47    0.35 9  136 165 
 RUS  HZ I        23 9 30.08         2.0 0.20             56            136 165 
 RUS  HN ES       23 9 45.37                              47   -0.20 9  136 165 
 SML  HZ EP       23 9 37.03                              37   -0.42 9  204 339 
 SML  HN ES       2310  2.43                              37    0.43 9  204 339 
                                                                                
