 2012  819 2231 40.6 L   6.778 -73.220145.5  RSN  5 0.4 1.5LRSN                1
 GAP=126        0.76       6.6     6.6  9.1  0.1119E+02 -0.1345E+02 -0.1160E+02E
 Epicentro: ZAPATOCA - SANTANDER                                               3
 ACTION:UPD 12-09-10 11:57 OP:ep   STATUS:               ID:20120819223140 L   I
 2012-08-19-2230-00M.COL___217                                                 6
 STAT SP IPHASW D HRMM SECON CODA AMPLIT PERI AZIMU VELO AIN AR TRES W  DIS CAZ7
 BAR2 SZ ES   1   2232 15.90                             171    0.52 7 20.9 168 
 BAR2 SZ I        2232 16.59         9.9 0.22                          20.9 168 
 BRR  HZ EP   1   2232  1.96                             154    0.57 7 65.4 304 
 BRR  HN ES   1   2232 17.20                             154   -0.41 7 65.4 304 
 PAM  SZ EP   1   2232  2.87                             148   -0.35 7 84.7  43 
 RUS  HZ EP   1   2232  4.21                             144    0.02 7 99.0 171 
 RUS  HN ES   1   2232 22.32                             144   -0.29 7 99.0 171 
 RUS  HZ I        2232 24.07         3.3 0.28                          99.0 171 
 PTB  HN ES   1   2232 27.10                             134   -0.08 7  139 259 
                                                                                
