 2011 1119 2307 37.8 L   6.771 -73.123137.5  RSN 11 0.3 2.4LRSN                1
 GAP=141        0.68       2.7     3.7  4.3 -0.1863E+00  0.5931E+01 -0.2315E+00E
 Epicentro: LOS SANTOS - SANTANDER                                             3
 ACTION:UPD 12-07-13 16:11 OP:ep   STATUS:               ID:20111119230737 L   I
 2011-11-19-2302-47S.COL___178                                                 6
 STAT SP IPHASW D HRMM SECON CODA AMPLIT PERI AZIMU VELO AIN AR TRES W  DIS CAZ7
 BAR2 SZ EP       23 7 56.47                             171    0.0810 20.9 198 
 BAR2 SZ ES       23 8 10.64                             171   -0.2510 20.9 198 
 BAR2 SZ I        23 8 12.32        70.7 0.23                          20.9 198 
 BRR  HZ IP     C 23 7 58.44                             150    0.1510 74.9 300 
 BRR  HN ES   1   23 8 15.14                             150    0.87 7 74.9 300 
 BRR  HZ I        23 8 19.89        60.5 0.42                          74.9 300 
 PAM  SZ EP       23 7 59.42                             149    0.2210 78.3  37 
 PAM  SN ES   1   23 8 15.85                             149   -0.05 7 78.3  37 
 RUS  HZ EP       23 8  0.53                             143    0.0310 97.3 177 
 RUS  HE ES       23 8 17.98                             143   -0.2310 97.3 177 
 RUS  HZ I        23 8 20.68        36.8 0.33                          97.3 177 
 OCA  SZ EP       23 8  5.34                             127   -0.48 9  164 352 
 OCA  SZ ES   1   23 8 27.63                             127   -0.04 7  164 352 
 OCA  SZ I        23 8 29.22        29.3 0.57                           164 352 
 ZAR  HZ EP   1   23 8  9.82                             120   -0.27 6  208 293 
 ZAR  HN ES   1   23 8 35.08                             120   -0.20 6  208 293 
 ZAR  HZ I        23 8 42.56        31.1 0.14                           208 293 
 NOR  SZ EP   1   23 8 13.27                             117    0.18 6  235 235 
 CHI  HZ EP   1   23 8 15.34                             116    0.55 6  246 196 
 CHI  HZ I        23 8 47.25         9.7 0.32                           246 196 
 HEL  HZ EP       23 8 17.74                             113   -0.05 8  274 257 
 HEL  HN ES   1   23 8 48.50                             113   -0.49 6  274 257 
 HEL  HZ I        23 8 55.97        16.4 0.35                           274 257 
 GUY  SZ EP   2   23 8 21.68                             110    0.34 4  304 236 
 GUY  SZ I        23 9  1.68        15.4 0.33                           304 236 
 RREF HZ EP   1   23 8 23.74                             109    0.16 5  322 230 
 RREF HZ I        23 9  4.65        11.3 0.24                           322 230 
                                                                                
