 2011 1119 2051 31.4 L   7.523 -73.232132.9  RSN  6 0.2 1.8LRSN                1
 GAP=116        0.42       2.5     2.6  4.1  0.4513E+00  0.8352E+00  0.1271E+01E
 Epicentro: EL PLAYON - SANTANDER                                              3
 ACTION:UPD 12-07-13 16:11 OP:ep   STATUS:               ID:20111119205131 L   I
 2011-11-19-2049-50S.COL___178                                                 6
 STAT SP IPHASW D HRMM SECON CODA AMPLIT PERI AZIMU VELO AIN AR TRES W  DIS CAZ7
 PAM  SZ EP       2051 51.24                             154   -0.0810 62.2 109 
 PAM  SN ES   1   2052  6.83                             154   -0.06 7 62.2 109 
 BRR  HZ IP     C 2051 51.12                             150    0.0610 70.1 229 
 BRR  HN ES   1   2052  6.74                             150    0.31 7 70.1 229 
 OCA  SZ EP   1   2051 52.04                             147    0.14 7 79.8 353 
 OCA  SZ ES   1   2052  7.91                             147   -0.01 7 79.8 353 
 OCA  SZ I        2052  9.38        20.3 0.47                          79.8 353 
 BAR2 SZ EP   1   2051 53.54                             140   -0.16 7  103 177 
 BAR2 SZ ES   1   2052 10.95                             140   -0.18 7  103 177 
 BAR2 SZ I        2052 13.01        23.5 0.38                           103 177 
 ZAR  HN ES   1   2052 22.83                             123   -0.28 7  179 269 
 ZAR  HZ I        2052 29.94         9.6 0.27                           179 269 
 RUS  HZ EP   1   2052  1.51                             123    0.28 7  181 175 
 RUS  HZ I        2052 28.85         2.2 0.26                           181 175 
                                                                                
