 2010  719 2110 28.4 L   6.729 -73.091140.8  RSN  4 0.4 1.3LRSN                1
 GAP=166        1.14       9.8    20.2 22.2  0.7303E+02 -0.3552E+03 -0.8409E+02E
 Epicentro: JORDAN - SANTANDER                                                 3
 ACTION:UPD 10-12-01 15:18 OP:pat  STATUS:               ID:20100719211028 L   I
 2010-07-19-2109-08S.COL___122                                                 6
 STAT SP IPHASW D HRMM SECON CODA AMPLIT PERI AZIMU VELO AIN AR TRES W  DIS CAZ7
 BRR  HZ EP       2110 49.28                             149    -0.310   80 301 
 BRR  HN ES       2111  6.19                             149     0.110   80 301 
 BRR  HZ I        2111  7.82         9.2 0.15                            80 301 
 RUS  HZ EP   1   2110 51.41                             146     0.3 7   93 179 
 RUS  HZ I        2110 52.23         1.9 0.13                            93 179 
 RUS  HN ES   2   2111  8.36                             146    -0.4 5   93 179 
 GUE  SZ EP   1   2110 52.44                             137    -0.7 7  123   9 
 GUE  SZ I        2110 59.21         1.8 0.58                           123   9 
 GRA  SZ EP       2110 54.18                             135     0.510  132  14 
 GRA  SZ I        2111 14.94         3.8 0.56                           132  14 
                                                                                
