 2014  119 2337 54.0 L   5.935 -74.068 83.3  RSN  4 0.2 1.0LRSN                1
 GAP=149        0.52       2.6     1.9  7.2 -0.2685E+01  0.1752E+01 -0.3543E+01E
 Epicentro: LA BELLEZA - SANTANDER                                             3
 ACTION:UPD 14-03-13 09:56 OP:ep   STATUS:               ID:20140119233754 L   I
 OLDACT:REG 14-01-19 21:13 OP:jn   STATUS:               ID:20140119233000     3
 2014-01-19-2330-00M.COL___285                                                 6
 STAT SP IPHASW D HRMM SECON CODA AMPLIT PERI AZIMU VELO AIN AR TRES W  DIS CAZ7
 NOR  HZ EP       2338 11.13                             126   -0.2710 97.8 245 
 NOR  HE ES       2338 24.93                             126   -0.0810 97.8 245 
 RUS  HZ EP       2338 13.32                             123    0.1910  109  92 
 RUS  HN ES       2338 28.01                             123   -0.0710  109  92 
 RUS  HZ I        2338 29.68         0.8 0.40             61            109  92 
 BRR  HZ EP       2338 15.20                             116   -0.12 9  135  17 
 BRR  HZ I        2338 31.97         4.7 0.48             61            135  17 
 BRR  HN ES       2338 32.09                             116    0.11 9  135  17 
 GUY2CHZ EP   1   2338 19.03                             112   -0.08 7  164 241 
 GUY2CHE ES       2338 39.07                             112    0.34 9  164 241 
 GUY2CHZ I        2338 44.21         2.4 0.34                           164 241 
                                                                                
