 2010  519 2222 22.5 L   6.794 -72.996143.1  RSN 10 0.4 2.5LRSN                1
 GAP=189        0.73       4.3     8.2  7.4 -0.2127E+02 -0.1613E+01  0.8933E+01E
 Epicentro: CEPITA - SANTANDER                                                 3
 ACTION:UP  10-08-24 10:05 OP:vdl  STATUS:               ID:20100519222222 L   I
 2010-05-19-2218-30S.COL___108                                                 6
 STAT SP IPHASW D HRMM SECON CODA AMPLIT PERI AZIMU VELO SNR AR TRES W  DIS CAZ7
 BAR2 SZ IP     D 2222 41.88                             167    -0.110   30 223 
 BAR2 SZ ES   2   2222 56.48                             167    -0.7 5   30 223 
 BRR  HZ IP     D 2222 44.39                             147     0.110   86 294 
 BRR  HN ES   2   2223  1.46                             147     0.2 5   86 294 
 BRR  HZ I        2223  2.06       105.7 0.12                            86 294 
 GUE  SZ IP     D 2222 46.78                             139     0.010  115   4 
 GRA  SZ IP     D 2222 47.57                             137     0.410  123  10 
 GRA  SZ ES   2   2223  7.00                             137     0.5 5  123  10 
 OCA  SZ EP   1   2222 50.30                             128    -0.6 7  164 347 
 OCA  SZ ES   2   2223 12.86                             128    -0.2 5  164 347 
 OCA  SZ I        2223 15.08        41.3 0.25                           164 347 
 CHI  HZ EP   1   2223  0.29                             116    -0.2 6  253 199 
 CHI  HE ES   2   2223 29.92                             116    -0.2 4  253 199 
 CHI  HZ I        2223 33.55         8.1 0.64                           253 199 
 ROSC BZ EP   1   2223  1.71                             115     0.3 6  261 214 
 ROSC BN ES   2   2223 32.51                             115     0.8 4  261 214 
 ROSC BZ I        2223 36.23        11.7 0.23                           261 214 
 HEL  HZ EP   1   2223  3.70                             113    -0.6 5  288 257 
 RREF BZ EP   1   2223 10.23                             110     0.3 5  334 231 
 RREF BE ES   2   2223 47.80                             110     0.9 3  334 231 
 RREF BZ I        2223 58.25         9.3 0.44                           334 231 
 PRA  HZ EP   1   2223 16.55                             106    -0.3 4  400 212 
 PRA  HN ES   2   2223 58.51                             106    -0.7 3  400 212 
 PRA  HZ I        2224  3.36        13.3 0.63                           400 212 
                                                                                
