 2013  819 2234 38.0 L   6.792 -73.153150.0  RSN  7 0.3 1.7LRSN                1
 GAP=136        0.78       3.9     3.7  6.3 -0.1852E+01  0.3479E+01  0.5222E+00E
 Epicentro: LOS SANTOS - SANTANDER                                             3
 ACTION:UPD 14-01-14 09:04 OP:ep   STATUS:               ID:20130819223438 L   I
 OLDACT:REG 13-08-19 21:40 OP:jn   STATUS:               ID:20130819222959     3
 2013-08-19-2229-59M.COL___269                                                 6
 STAT SP IPHASW D HRMM SECON CODA AMPLIT PERI AZIMU VELO AIN AR TRES W  DIS CAZ7
 BAR2 SZ EP       2234 58.18                             171    0.1010 22.4 188 
 BAR2 SZ ES       2235 13.51                             171   -0.2610 22.4 188 
 BAR2 SZ I        2235 14.98         7.6 0.28            170           22.4 188 
 BRR  HE ES   1   2235 17.28                             153    0.89 7 70.9 299 
 BRR  HZ I        2235 21.29         6.8 0.14            150           70.9 299 
 PAM  SZ EP       2235  1.00                             151    0.3110 78.5  40 
 PAM  SN ES       2235 18.03                             151   -0.4010 78.5  40 
 PAM  SZ I        2235 20.39        11.8 0.56            154           78.5  40 
 RUS  HZ EP       2235  2.11                             145    0.0410 99.8 176 
 RUS  HE ES       2235 21.00                             145    0.1210 99.8 176 
 RUS  HZ I        2235 23.65         5.3 0.40            147           99.8 176 
 PTB  HZ EP   1   2235  4.96                             133   -0.23 7  147 259 
 PTB  HN ES       2235 26.19                             133   -0.24 9  147 259 
 PTB  HZ I        2235 28.44         5.8 0.14            132            147 259 
 SPBC HN ES   1   2235 29.06                             130   -0.02 7  162 219 
 SPBC HZ I        2235 34.12         8.8 0.34            131            162 219 
 ZAR  HN ES   1   2235 35.96                             123   -0.17 6  204 292 
 ZAR  HZ I        2235 43.79         5.1 0.50            123            204 292 
                                                                                
