 2014  419 2204 57.0 L   6.825 -73.155139.3  RSN 20 0.5 2.9LRSN 3.3WRSN        1
 SPEC AVERAGE  MO 14.1 ST0.613 OM  2.2 f0 1.79 R1.3245 AL 0.00 WI 70.0 MW  3.3 3
 SPEC SD       MO  0.3 ST0.802 OM  0.3 f0 1.02 R0.5820 AL      WI      MW  0.2 3
 GAP= 70        1.09       2.6     3.6  7.4 -0.1064E+01  0.1385E+02  0.7554E+00E
 Epicentro: LOS SANTOS - SANTANDER                                             3
 SPEC BRR HH Z MO 13.9 ST  1.4 OM  2.0 f0 3.07 R0.6267 AL-0.00 WI 70.0 MW  3.2 3
 SPEC BRR HH Z T22 533 K 0.000 GD  155 VS 5.20 DE 3.50 Q0750.0 QA 1.50 VS 5.20 3
 SPEC PAM SH Z MO 14.5 ST0.432 OM  2.6 f0 1.29 R1.4915 AL-0.00 WI 70.0 MW  3.6 3
 SPEC PAM SH Z T22 534 K 0.000 GD  158 VS 5.20 DE 3.50 Q0750.0 QA 1.50 VS 5.20 3
 SPEC RUS HH Z MO 13.9 ST0.179 OM  1.9 f0 1.60 R1.2025 AL-0.00 WI 70.0 MW  3.2 3
 SPEC RUS HH Z T22 536 K 0.000 GD  173 VS 5.20 DE 3.50 Q0750.0 QA 1.50 VS 5.20 3
 SPEC OCA HH Z MO 14.0 ST0.890 OM  2.0 f0 2.37 R0.8118 AL-0.00 WI 70.0 MW  3.3 3
 SPEC OCA HH Z T22 544 K 0.000 GD  209 VS 5.20 DE 3.50 Q0750.0 QA 1.50 VS 5.20 3
 SPEC ZAR HH Z MO 13.9 ST  2.8 OM  1.8 f0 3.86 R0.4984 AL-0.00 WI 70.0 MW  3.2 3
 SPEC ZAR HH Z T22 553 K 0.000 GD  245 VS 5.20 DE 3.50 Q0750.0 QA 1.50 VS 5.20 3
 SPEC NOR HH Z MO 13.8 ST0.359 OM  1.7 f0 2.02 R0.9525 AL-0.00 WI 70.0 MW  3.2 3
 SPEC NOR HH Z T22 558 K 0.000 GD  273 VS 5.20 DE 3.50 Q0750.0 QA 1.50 VS 5.20 3
 SPEC HEL HH Z MO 14.3 ST0.093 OM  2.1 f00.912 R2.1096 AL-0.00 WI 70.0 MW  3.5 3
 SPEC HEL HH Z T22 6 5 K 0.000 GD  305 VS 5.20 DE 3.50 Q0750.0 QA 1.50 VS 5.20 3
 SPECGUY2CHH Z MO 14.3 ST  0.1 OM  2.0 f00.852 R  2.26 AL-0.00 WI 70.0 MW  3.4 3
 SPECGUY2CHH Z T22 614 K       GD332.6 VS 5.20 DE 3.50 Q0750.0 QA 1.50 VS 5.20 3
 SPEC RREFHH Z MO 14.1 ST0.066 OM  1.8 f00.976 R1.9713 AL-0.00 WI 70.0 MW  3.3 3
 SPEC RREFHH Z T22 618 K 0.000 GD  351 VS 5.20 DE 3.50 Q0750.0 QA 1.50 VS 5.20 3
 SPEC CBOCHH Z MO 14.2 ST0.103 OM  1.9 f0 1.04 R1.8500 AL-0.00 WI 70.0 MW  3.4 3
 SPEC CBOCHH Z T22 619 K 0.000 GD  360 VS 5.20 DE 3.50 Q0750.0 QA 1.50 VS 5.20 3
 SPEC ORTCHH Z MO 14.0 ST0.128 OM  1.7 f0 1.24 R1.5516 AL-0.00 WI 70.0 MW  3.3 3
 SPEC ORTCHH Z T22 632 K 0.000 GD  420 VS 5.20 DE 3.50 Q0750.0 QA 1.50 VS 5.20 3
 SPEC SJC HH Z MO 14.2 ST0.228 OM  1.9 f0 1.28 R1.5031 AL-0.00 WI 70.0 MW  3.4 3
 SPEC SJC HH Z T22 630 K 0.000 GD  429 VS 5.20 DE 3.50 Q0750.0 QA 1.50 VS 5.20 3
 OLDACT:REG 14-04-20 02:32 OP:cam  STATUS:               ID:20140419215818     3
 ACTION:UPD 14-05-13 23:09 OP:nd   STATUS:               ID:20140419220457 L   I
 OLDACT:UP  14-04-20 04:10 OP:cam  STATUS:               ID:20140419215818     3
 OLDACT:UP  14-04-20 04:10 OP:cam  STATUS:               ID:20140419215818     3
 2014-04-19-2158-18M.COL___239                                                 6
 STAT SP IPHASW D HRMM SECON CODA AMPLIT PERI AZIMU VELO AIN AR TRES W  DIS CAZ7
 BRR  HZ IP     C 22 5 17.76                             152    0.4610 69.0 297 
 BRR  HE ES   4   22 5 34.79                             152    1.64 0 69.0 297 
 BRR  HZ I        22 5 38.90       138.3 0.12            143           69.0 297 
 PAM  SZ IP     D 22 5 18.97                             150    0.5510 76.0  41 
 PAM  SN ES       22 5 35.72                             150    0.5810 76.0  41 
 RUS  HZ EP       22 5 19.89                             142   -0.4210  103 176 
 RUS  HN ES       22 5 38.21                             142   -0.2910  103 176 
 PTB  HZ EP   1   22 5 22.76                             131   -0.61 7  147 258 
 PTB  HN ES   4   22 5 42.74                             131   -1.23 0  147 258 
 PTB  HZ I        22 5 46.26       139.7 0.18            127            147 258 
 OCA  HZ EP     C 22 5 24.23                             129   -0.28 9  157 353 
 OCA  HN ES       22 5 46.17                             129    0.18 9  157 353 
 OCA  HZ I        22 5 51.01       161.4 0.18            129            157 353 
 TAM  HZ IP     D 22 5 24.21                             129   -0.10 9  157 106 
 TAM  HZ I        22 5 24.37       163.0 0.20            140            157 106 
 TAM  HE ES   1   22 5 45.40                             129   -0.24 7  157 106 
 SPBC HZ EP       22 5 24.87                             127   -0.26 9  165 218 
 SPBC HN ES   4   22 5 45.98                             127   -1.11 0  165 218 
 SPBC HZ I        22 5 51.11        48.3 0.22            126            165 218 
 ZAR  HZ EP       22 5 28.92                             121    0.13 9  202 292 
 ZAR  HN ES   4   22 5 54.75                             121    1.14 0  202 292 
 ZAR  HZ I        22 5 58.08        93.6 0.34            119            202 292 
 NOR  HZ EP     C 22 5 32.60                             117    0.18 8  235 234 
 NOR  HE ES       22 5 59.97                             117   -0.09 8  235 234 
 NOR  HZ I        22 6  6.15        34.8 0.20            116            235 234 
 SML  HZ EP       22 5 32.21                             116   -0.71 8  241 335 
 SML  HN ES       22 6  0.46                             116   -0.50 8  241 335 
 CHI  HZ EP   1   22 5 34.48                             115   -0.10 6  251 195 
 CHI  HN ES       22 6  3.08                             115   -0.84 8  251 195 
 HEL  HZ EP   1   22 5 37.42                             113    0.59 6  272 255 
 HEL  HN ES       22 6  7.40                             113   -0.51 8  272 255 
 HEL  HZ I        22 6 14.68        45.7 0.32            113            272 255 
 URE  HZ EP       22 5 37.31                             112   -0.20 7  282 291 
 URE  HE ES       22 6  8.21                             112   -0.91 7  282 291 
 URE  HZ I        22 6 19.45        51.3 0.18            112            282 291 
 GUY2CHZ EP       22 5 40.99                             111    0.62 7  302 234 
 GUY2CHN ES   4   22 6 15.69                             111    1.47 0  302 234 
 GUY2CHZ I        22 6 23.51        30.6 0.48                           302 234 
 RREF HZ EP   4   22 5 44.09                             110    1.13 0  323 229 
 RREF HN ES       22 6 19.56                             110    0.74 7  323 229 
 RREF HZ I        22 6 30.09        23.7 0.26            110            323 229 
 CBOC HZ EP       22 5 44.07                             109    0.46 7  333 252 
 CBOC HN ES       22 6 20.70                             109    0.72 7  333 252 
 CBOC HZ I        22 6 24.46        11.7 0.28            109            333 252 
 ARGC HZ EP   1   22 5 47.42                             107    1.38 5  356 340 
 ARGC HN ES   2   22 6 24.93                             107    0.61 3  356 340 
 ARGC HZ I        22 6 28.18        19.6 0.32            108            356 340 
 PRA  HZ EP       22 5 50.68                             105    0.18 6  394 209 
 PRA  HE ES   2   22 6 32.40                             105    0.15 3  394 209 
 PRA  HZ I        22 6 36.53        28.5 0.28            106            394 209 
 ORTC HZ EP   4   22 5 52.54                             105    1.67 0  397 216 
 ORTC HN ES       22 6 33.97                             105    1.07 6  397 216 
 ORTC HZ I        22 6 39.19        14.7 0.48            106            397 216 
 SJC  HZ EP   1   22 5 50.97                             105   -1.02 4  406 327 
 SJC  HN ES   4   22 6 31.61                             105   -3.29 0  406 327 
 SJC  HZ I        22 6 36.23        31.5 0.60            105            406 327 
                                                                                
