 2013  419 2038 53.3 L   6.796 -73.171140.8  RSN  4 0.1 1.1LRSN                1
 GAP=142        0.44       2.6     2.6  3.7 -0.2103E+01  0.2660E+01 -0.9354E+00E
 Epicentro: LOS SANTOS - SANTANDER                                             3
 ACTION:UPD 13-05-22 14:39 OP:EP   STATUS:               ID:20130419203853 L   I
 2013-04-19-2037-48M.COL___221                                                 6
 STAT SP IPHASW D HRMM SECON CODA AMPLIT PERI AZIMU VELO AIN AR TRES W  DIS CAZ7
 BAR2 SZ EP       2039 12.43                             170    0.1210 22.6 183 
 BAR2 SZ ES       2039 27.28                             170    0.1310 22.6 183 
 BAR2 SZ I        2039 28.57         3.8 0.40            155           22.6 183 
 PAM  SZ EP       2039 15.33                             149    0.2210 79.5  41 
 PAM  SN ES       2039 31.92                             149   -0.2210 79.5  41 
 PAM  SZ I        2039 32.81         2.4 0.16            140           79.5  41 
 RUS  HZ EP       2039 16.45                             143   -0.0910  100 174 
 RUS  HZ I        2039 32.86         1.6 0.52            127            100 174 
 RUS  HN ES       2039 34.63                             143   -0.0510  100 174 
 PTB  HZ EP       2039 19.46                             131   -0.14 9  145 259 
 PTB  HE ES       2039 40.15                             131    0.02 9  145 259 
                                                                                
