 2016  719 2111 24.2 L   6.789 -73.103145.5  RSN  9 0.2 2.4LRSN                1
 GAP=142        0.57       2.0     2.5  3.4 -0.6024E+00  0.2733E+01  0.1358E+01E
 Epicentro: LOS SANTOS - SANTANDER                                             3
 ACTION:UPD 17-03-29 16:53 OP:lp   STATUS:               ID:20160719211124 L   I
 OLDACT:REG 16-07-20 03:51 OP:cara STATUS:               ID:20160719210759     3
 2016-07-19-2107-59S.COL___343                                                 6
 STAT SP IPHASW D HRMM SECON CODA AMPLIT PERI AZIMU VELO AIN AR TRES W  DIS CAZ7
 BAR2 EZ IP     D 2111 43.88                             170    0.0510 23.4 202 
 BAR2 EZ ES       2111 59.15                             170    0.0410 23.4 202 
 PAM  EZ EP     D 2111 46.35                             151    0.0410 75.5  36 
 PAM  EE ES       2112  3.54                             151    0.0210 75.5  36 
 PAM  EZ I        2112  5.52        56.3 0.58            155           75.5  36 
 BRR  HZ IP     D 2111 45.59                             151   -0.0310 75.9 298 
 BRR  HN ES       2112  2.45                             151    0.1510 75.9 298 
 BRR  HZ I        2112  6.56        35.3 0.12            150           75.9 298 
 RUS  HZ EP     C 2111 47.84                             144   -0.0110 99.1 179 
 RUS  HE ES       2112  6.32                             144    0.0510 99.1 179 
 RUS  HZ I        2112  7.56        28.5 0.54            145           99.1 179 
 SPBC HZ EP       2111 52.71                             129   -0.19 9  165 221 
 SPBC HE ES       2112 14.79                             129   -0.47 9  165 221 
 SPBC HZ I        2112 17.42        49.4 0.14            129            165 221 
 ZAR  HZ EP       2111 57.27                             122    0.12 8  209 292 
 ZAR  HN ES       2112 22.40                             122   -0.43 8  209 292 
 ZAR  HZ I        2112 27.67        50.2 0.40            123            209 292 
 NOR  HZ EP       2112  0.24                             118   -0.04 8  238 235 
 NOR  HE ES       2112 28.75                             118    0.36 8  238 235 
 NOR  HZ I        2112 33.60        20.3 0.34            119            238 235 
 CHI  HZ EP       2112  2.06                             117    0.14 8  249 196 
 CHI  HN ES       2112 31.07                             117   -0.24 8  249 196 
 CHI  HZ I        2112 39.75         8.1 0.60            118            249 196 
 GUY2CHZ EP   4   2112  9.31                             112    1.13 0  304 235 
 GUY2CHE ES       2112 43.05                             112    0.60 7  304 235 
 GUY2CHZ I        2112 50.57        10.0 0.34                           304 235 
                                                                                
