 2013  419 2013 15.0 L   6.853 -73.137147.2  RSN  6 0.5 1.4LRSN                1
 GAP=135        1.26       6.0     7.0  9.9  0.1890E+01  0.9476E+01 -0.7913E+01E
 Epicentro: LOS SANTOS - SANTANDER                                             3
 ACTION:UPD 13-05-22 14:39 OP:EP   STATUS:               ID:20130419201315 L   I
 2013-04-19-2010-00M.COL___250                                                 6
 STAT SP IPHASW D HRMM SECON CODA AMPLIT PERI AZIMU VELO AIN AR TRES W  DIS CAZ7
 BAR2 SZ EP       2013 35.16                             168    0.2710 29.3 190 
 BAR2 SZ ES       2013 50.30                             168   -0.1410 29.3 190 
 BAR2 SZ I        2013 51.95         6.8 0.50            170           29.3 190 
 BRR  HZ EP       2013 37.07                             153    0.9110 69.5 294 
 BRR  HN ES   1   2013 53.76                             153    1.05 7 69.5 294 
 PAM  SZ EP       2013 36.82                             153   -0.2110 72.3  42 
 PAM  SE ES   1   2013 53.95                             153   -0.30 7 72.3  42 
 PAM  SZ I        2013 57.33         3.7 0.56            153           72.3  42 
 RUS  HZ EP       2013 39.42                             142    0.1510  106 177 
 RUS  HE ES   1   2013 57.66                             142   -0.57 7  106 177 
 RUS  HZ I        2013 58.95         2.9 0.48            145            106 177 
 PTB  HZ EP       2013 42.06                             132   -0.18 9  150 257 
 PTB  HN ES       2014  2.94                             132   -0.58 9  150 257 
 PTB  HZ I        2014  4.51         6.0 0.48            134            150 257 
 SML  HE ES       2014 18.67                             118   -0.68 8  239 334 
                                                                                
