 2012  119 2147  1.6 L   6.776 -73.154147.7  RSN  4 0.3 1.6LRSN                1
 GAP=137        0.73       5.6     5.2  8.8 -0.4849E+01  0.6195E+01  0.2363E+01E
 Epicentro: LOS SANTOS - SANTANDER                                             3
 ACTION:UP  12-02-03 08:18 OP:REBC STATUS:               ID:20120119214701 L   I
 2012-01-19-2140-00M.COL___187                                                 6
 STAT SP IPHASW D HRMM SECON CODA AMPLIT PERI AZIMU VELO SNR AR TRES W  DIS CAZ7
 BRR  HZ EP   1   2147 23.07                             153     0.1 7   72 301 
 BRR  HN ES   1   2147 40.27                             153     0.6 7   72 301 
 BRR  HZ I        2147 44.64        15.4 0.18                            72 301 
 PAM  SZ EP   1   2147 24.41                             150     0.2 7   80  39 
 PAM  SN ES   1   2147 41.35                             150    -0.5 7   80  39 
 RUS  HZ EP   2   2147 25.67                             145     0.3 5   98 175 
 RUS  HE ES   1   2147 43.94                             145     0.0 7   98 175 
 RUS  HZ I        2147 45.23         3.2 0.37                            98 175 
 PTB  HZ EP   1   2147 28.49                             133    -0.1 7  146 260 
 PTB  HE ES   1   2147 49.27                             133    -0.4 7  146 260 
                                                                                
