 2015  319 2200  6.8 L   6.801 -73.141151.0  RSN 10 0.4 1.8LRSN                1
 GAP=137        0.84       3.3     3.7  6.0 -0.7441E+00  0.6142E+01  0.4067E+00E
 Epicentro: LOS SANTOS - SANTANDER                                             3
 ACTION:UPD 15-04-30 16:27 OP:nd   STATUS:               ID:20150319220006 L   I
 OLDACT:REG 15-03-20 03:58 OP:spq  STATUS:               ID:20150319215749     3
 2015-03-19-2157-49M.COL___281                                                 6
 STAT SP IPHASW D HRMM SECON CODA AMPLIT PERI AZIMU VELO AIN AR TRES W  DIS CAZ7
 BAR2 EZ EP       22 0 26.95                             171   -0.0710 23.5 191 
 BAR2 EZ ES   1   22 0 43.06                             171    0.24 7 23.5 191 
 BAR2 EZ I        22 0 43.28        15.3 0.10            171           23.5 191 
 BRR  HZ EP   1   22 0 28.70                             153    0.20 7 71.6 298 
 BRR  HN ES       22 0 45.87                             153    0.4210 71.6 298 
 BRR  HZ I        22 0 48.16        12.5 0.59            151           71.6 298 
 PAM  SZ EP       22 0 29.75                             152    0.2410 77.0  39 
 PAM  SN ES       22 0 46.98                             152   -0.2710 77.0  39 
 PAM  SZ I        22 0 49.34         4.9 0.60            153           77.0  39 
 RUS  HZ EP       22 0 30.79                             145   -0.2510  101 176 
 RUS  HN ES       22 0 50.05                             145    0.0810  101 176 
 RUS  HZ I        22 0 51.13         5.1 0.24            147            101 176 
 PTB  HZ EP   1   22 0 33.81                             133   -0.40 7  148 259 
 PTB  HN ES   1   22 0 54.82                             133   -0.79 7  148 259 
 PTB  HZ I        22 0 57.21         5.5 0.18            133            148 259 
 SPBC HN ES   1   22 0 57.60                             130   -0.68 7  164 219 
 SPBC HZ I        22 1  0.56        12.7 0.30            131            164 219 
 ZAR  HZ EP   1   22 0 39.44                             123   -0.15 6  204 292 
 ZAR  HE ES       22 1  5.42                             123    0.22 9  204 292 
 ZAR  HZ I        22 1 11.12         4.3 0.14            123            204 292 
 NOR  HZ EP   1   22 0 43.47                             120    0.62 6  235 235 
 NOR  HN ES       22 1 11.52                             120    0.52 8  235 235 
 NOR  HZ I        22 1 14.39         4.8 0.32            120            235 235 
 SML  HE ES   1   22 1 12.01                             119   -0.49 6  244 335 
 SML  HZ I        22 1 16.69         4.5 0.10            119            244 335 
 GUY2CHZ EP   4   22 0 52.93                             113    2.26 0  302 235 
 GUY2CHE ES   4   22 1 28.57                             113    3.65 0  302 235 
 GUY2CHZ I        22 1 33.57         3.3 0.76                           302 235 
                                                                                
