 2013  419 2259  0.2 L   6.721 -73.218147.2  RSN  4 0.4 0.9LRSN                1
 GAP=167        0.77       6.9     6.1  9.3  0.1557E+02 -0.8765E+01 -0.3266E+01E
 Epicentro: VILLANUEVA - SANTANDER                                             3
 ACTION:UPD 13-05-22 14:39 OP:EP   STATUS:               ID:20130419225900 L   I
 2013-04-19-2257-47M.COL___220                                                 6
 STAT SP IPHASW D HRMM SECON CODA AMPLIT PERI AZIMU VELO AIN AR TRES W  DIS CAZ7
 GIR2 SZ EP   1   2259 19.54                             164   -0.75 7 39.6   4 
 BRR  HZ EP   1   2259 21.81                             153    0.41 7 69.3 308 
 BRR  HE ES   1   2259 38.23                             153    0.30 7 69.3 308 
 RUS  HZ EP       2259 23.75                             146    0.2010 92.8 171 
 RUS  HN ES   1   2259 41.70                             146   -0.06 7 92.8 171 
 RUS  HZ I        2259 43.48         1.0 0.36            145           92.8 171 
 PTB  HZ EP       2259 26.54                             134    0.09 9  138 262 
 PTB  HN ES       2259 46.68                             134   -0.25 9  138 262 
 PTB  HZ I        2259 52.18         1.4 0.13            132            138 262 
                                                                                
