 2012 1019 2055 18.4 L   6.489 -73.495  9.8  RSN  6 0.4 1.3LRSN                1
 GAP=161        0.76       3.4     4.6 20.0  0.6382E+01  0.5604E+02  0.1553E+02E
 Epicentro: SIMACOTA - SANTANDER                                               3
 ACTION:UPD 12-11-22 17:04 OP:ep   STATUS:               ID:20121019205518 L   I
 2012-10-19-2050-00M.COL___233                                                 6
 STAT SP IPHASW D HRMM SECON CODA AMPLIT PERI AZIMU VELO AIN AR TRES W  DIS CAZ7
 BAR2 SZ EP       2055 24.78                             101   -0.0210 36.5  72 
 BAR2 SZ ES   1   2055 29.21                             101   -0.62 7 36.5  72 
 BAR2 SZ I        2055 33.85        18.6 0.46                          36.5  72 
 BRR  HZ EP       2055 29.85                              95   -0.1110 72.4 341 
 BRR  HN ES   2   2055 38.52                              95   -0.49 5 72.4 341 
 GIR2 SZ EP       2055 30.34                              95    0.1010 73.3  27 
 RUS  HZ EP       2055 31.58                              95   -0.0610 80.2 145 
 RUS  HN I        2055 43.32         8.2 0.18                          80.2 145 
 PAM  SZ EP       2055 39.62                              93    0.6310  129  43 
 PAM  SE ES   3   2055 55.15                              93    0.07 2  129  43 
 PAM  SE I        2055 56.76        13.3 0.18                           129  43 
 ZAR  HE ES   3   2056  7.84                              56   -0.62 2  187 306 
                                                                                
