 2012 1119 2235 15.9 L   6.767 -73.139146.0  RSN  7 0.2 1.9LRSN                1
 GAP=139        0.66       3.1     3.4  3.9 -0.1023E+01  0.2063E+01 -0.6182E+00E
 Epicentro: LOS SANTOS - SANTANDER                                             3
 ACTION:UPD 12-12-05 15:34 OP:}ep  STATUS:               ID:20121119223515 L   I
 2012-11-19-2230-00M.COL___233                                                 6
 STAT SP IPHASW D HRMM SECON CODA AMPLIT PERI AZIMU VELO AIN AR TRES W  DIS CAZ7
 BAR2 SZ EP       2235 35.49                             172    0.0110 19.9 194 
 BAR2 SZ ES       2235 50.81                             172    0.0510 19.9 194 
 BAR2 SZ I        2235 51.75        13.3 0.28                          19.9 194 
 GIR2 SZ EP       2235 35.79                             166    0.1010 35.0 350 
 GIR2 SZ ES       2235 51.32                             166    0.1810 35.0 350 
 BRR  HZ EP       2235 37.43                             152    0.2310 73.7 301 
 BRR  HN ES       2235 53.99                             152    0.1710 73.7 301 
 BRR  HN I        2235 58.97        21.7 0.42                          73.7 301 
 PAM  SZ EP       2235 38.49                             150    0.2210 79.8  37 
 PAM  SN ES       2235 55.23                             150   -0.5010 79.8  37 
 RUS  HZ EP       2235 39.62                             145    0.2310 96.9 176 
 RUS  HN ES       2235 57.59                             145   -0.1410 96.9 176 
 RUS  HN I        2235 59.76         6.2 0.32                          96.9 176 
 PTB  HZ EP       2235 42.38                             132   -0.50 9  148 260 
 PTB  HE ES       2236  3.86                             132   -0.07 9  148 260 
 PTB  HN I        2236  8.44        14.4 0.30                           148 260 
 ZAR  HN ES   4   2236 15.37                             122    1.32 0  206 293 
 SML  HZ EP       2235 52.83                             117   -0.08 8  247 335 
 SML  HN ES   4   2236 19.43                             117   -2.37 0  247 335 
                                                                                
