 2010  819 2101  6.7 L   6.792 -73.113141.8  RSN 20 0.5 3.1LRSN                1
 GAP=159        0.96       3.1     6.0  4.9 -0.7362E+01  0.7427E+01  0.2814E+01E
 Epicentro: LOS SANTOS - SANTANDER                                             3
 ACTION:UP  10-09-07 10:56 OP:vdl  STATUS:               ID:20100819210106 L   I
 2010-08-19-2058-09S.COL___117                                                 6
 STAT SP IPHASW D HRMM SECON CODA AMPLIT PERI AZIMU VELO SNR AR TRES W  DIS CAZ7
 BTL  SZ IP       21 1 25.17                             171    -0.610   22 309 
 BTL  SZ ES   1   21 1 40.18                             171    -0.6 7   22 309 
 BAR2 SZ IP       21 1 25.98                             170     0.110   23 199 
 BAR2 SZ ES   1   21 1 40.94                             170     0.2 7   23 199 
 BAR2 SZ I        21 1 42.36       289.7 0.06                            23 199 
 GIR2 SZ IP       21 1 26.17                             166     0.210   33 344 
 GIR2 SZ ES   1   21 1 40.91                             166     0.0 7   33 344 
 BRR  HZ IP     D 21 1 27.90                             151     0.310   75 298 
 BRR  HE ES   1   21 1 44.52                             151     0.6 7   75 298 
 BRR  HZ I        21 1 46.61       193.1 0.16                            75 298 
 RUS  HZ IP     C 21 1 29.82                             143    -0.210   99 178 
 RUS  HN ES   1   21 1 47.73                             143    -0.4 7   99 178 
 BRI  SZ EP   1   21 1 30.66                             141     0.5 7  108  19 
 BRI  SZ ES   2   21 1 48.60                             141     0.1 5  108  19 
 GUE  SZ IP       21 1 30.98                             138    -0.110  117  10 
 GUE  SZ ES   2   21 1 50.32                             138     0.3 5  117  10 
 GRA  SZ IP       21 1 31.86                             136     0.310  126  16 
 GRA  SZ ES   1   21 1 51.28                             136     0.3 7  126  16 
 OCA  SZ EP       21 1 34.29                             128    -0.5 9  162 352 
 OCA  SZ ES   1   21 1 56.52                             128    -0.2 7  162 352 
 OCA  SZ I        21 1 59.92       143.5 0.23                           162 352 
 CHI  HZ EP       21 1 43.91                             116    -0.3 8  249 196 
 CHI  HE ES   1   21 2 13.59                             116     0.2 6  249 196 
 CHI  HZ I        21 2 21.16        41.1 0.66                           249 196 
 ROSC BZ EP       21 1 45.57                             116     0.9 8  254 212 
 ROSC BE ES   2   21 2 14.04                             116    -0.3 4  254 212 
 ROSC BZ I        21 2 24.62        44.2 0.20                           254 212 
 CVER SZ EP       21 1 47.22                             114     0.3 8  273 203 
 CVER SZ I        21 1 48.96        79.9 0.37                           273 203 
 HEL  HZ EP       21 1 46.63                             114    -0.4 7  275 256 
 HEL  HE ES   3   21 2 18.31                             114    -0.2 2  275 256 
 HEL  HZ I        21 2 24.87        56.9 0.46                           275 256 
 GUY  SZ EP   1   21 1 50.46                             111     0.1 5  304 235 
 GUY  SE ES   2   21 2 25.02                             111     0.5 4  304 235 
 RREF HZ EP   2   21 1 54.27                             110     1.4 3  324 230 
 RREF HN ES   2   21 2 28.84                             110    -0.1 3  324 230 
 RREF HZ I        21 2 38.34        67.5 0.11                           324 230 
 DBB  SZ EP       21 1 53.97                             108    -0.5 7  343 274 
 TOL  SZ EP       21 1 55.28                             108     0.3 6  345 225 
 MON  HN ES   3   21 2 32.29                             108    -2.0 2  356 308 
 MON  HZ I        21 2 36.55        19.1 0.75                           356 308 
 ANIL HZ EP   2   21 1 56.38                             108    -0.2 3  359 225 
 ANIL HE ES   2   21 2 36.89                             108     1.4 3  359 225 
 ANIL HZ I        21 2 42.57        99.5 0.49                           359 225 
 PRA  HZ EP       21 1 59.30                             106    -0.9 6  393 210 
 PRA  HE ES   2   21 2 41.04                             106    -0.9 3  393 210 
 PRA  HZ I        21 2 48.33        56.7 0.30                           393 210 
                                                                                
