 2012 1119 2149 57.2 L   6.786 -73.165144.8  RSN  9 0.4 2.0LRSN                1
 GAP=135        1.07       4.0     4.6  5.9  0.1991E+01  0.6579E+01  0.6953E+01E
 Epicentro: LOS SANTOS - SANTANDER                                             3
 ACTION:UPD 12-12-05 15:34 OP:}ep  STATUS:               ID:20121119214957 L   I
 2012-11-19-2148-19M.COL___206                                                 6
 STAT SP IPHASW D HRMM SECON CODA AMPLIT PERI AZIMU VELO AIN AR TRES W  DIS CAZ7
 BAR2 SZ EP       2150 16.79                             171    0.1010 21.5 185 
 BAR2 SZ ES       2150 31.72                             171   -0.1610 21.5 185 
 BAR2 SZ I        2150 32.71        18.1 0.18                          21.5 185 
 GIR2 SZ EP       2150 16.59                             167   -0.2110 32.5 354 
 GIR2 SZ ES       2150 32.17                             167    0.0910 32.5 354 
 BRR  HZ EP       2150 18.50                             153    0.3110 70.1 300 
 BRR  HN ES       2150 35.52                             153    0.9610 70.1 300 
 BRR  HN I        2150 42.21        27.6 0.22                          70.1 300 
 PAM  SZ EP       2150 19.30                             150   -0.1810 79.9  40 
 PAM  SZ I        2150 19.56        14.2 0.22                          79.9  40 
 PAM  SN ES       2150 36.56                             150   -0.2810 79.9  40 
 RUS  HZ EP       2150 20.56                             144   -0.2110 99.2 175 
 RUS  HN ES       2150 39.16                             144    0.0210 99.2 175 
 RUS  HN I        2150 40.69        10.3 0.18                          99.2 175 
 PTB  HZ EP       2150 23.32                             132   -0.56 9  145 259 
 PTB  HE ES       2150 43.90                             132   -0.79 9  145 259 
 PTB  HE I        2150 50.06        20.7 0.42                           145 259 
 ZAR  HZ EP       2150 30.01                             122    0.56 9  203 293 
 ZAR  HE ES       2150 54.40                             122   -0.20 9  203 293 
 ZAR  HN I        2151  2.13         9.9 0.12                           203 293 
 CHI  HZ EP       2150 34.59                             117   -0.04 8  247 195 
 CHI  HN ES       2151  4.09                             117    0.27 8  247 195 
 CHI  HN I        2151  6.32         5.5 0.28                           247 195 
 VIL  SZ EP       2150 41.05                             112    0.69 7  301 191 
                                                                                
