 2016  919 2041 34.1 L   7.202 -74.121  4.0  RSN  6 0.3 1.8LRSN                1
 GAP=153        0.90       2.9     1.7  4.9  0.4229E+00 -0.2682E+00  0.2607E+01E
 Epicentro: PUERTO WILCHES - SANTANDER                                         3
 ACTION:UPD 17-08-17 21:14 OP:lp   STATUS:               ID:20160919204134 L   I
 OLDACT:REG 16-09-20 05:17 OP:dnl  STATUS:               ID:20160919203732     3
 2016-09-19-2038-00M.COL___363                                                 6
 STAT SP IPHASW D HRMM SECON CODA AMPLIT PERI AZIMU VELO AIN AR TRES W  DIS CAZ7
 BRR  HZ IP     D 2041 41.18                              47   -0.5410 46.3 103 
 BRR  HN ES       2041 47.07                              47   -0.5910 46.3 103 
 BRR  HZ I        2041 48.84        39.8 0.16             47           46.3 103 
 PTB  HZ IP     D 2041 47.13                              47   -0.0410 82.2 207 
 PTB  HE ES       2041 57.15                              47   -0.2010 82.2 207 
 PTB  HZ I        2041 57.65        30.9 0.16             47           82.2 207 
 ZAR  HZ EP       2041 48.02                              47    0.0510 87.5 292 
 ZAR  HE ES       2041 58.74                              47   -0.0410 87.5 292 
 ZAR  HZ I        2041 59.40        32.6 0.44             47           87.5 292 
 BAR2 EZ EP       2041 54.18                              47    0.4910  124 123 
 BAR2 EZ ES   4   2042  7.45                              47   -1.52 0  124 123 
 BAR2 EZ I        2042 11.82         7.3 0.18             47            124 123 
 PAM  EZ EP       2041 59.15                              47    0.06 9  158  84 
 PAM  EE ES       2042 18.94                              47    0.36 9  158  84 
 PAM  EZ I        2042 21.34        21.5 0.20             47            158  84 
 RUS  HZ EP       2042  3.44                              37    0.39 9  185 142 
 RUS  HE ES       2042 25.96                              37    0.33 9  185 142 
 RUS  HZ I        2042 27.54        21.1 0.30             37            185 142 
                                                                                
