 2012 1019 2105 21.1 L   6.778 -73.034143.6  RSN  6 0.4 2.0LRSN                1
 GAP=152        0.74       5.8     7.2  9.5 -0.3216E+01 -0.5347E+01  0.2058E+02E
 Epicentro: CEPITA - SANTANDER                                                 3
 ACTION:UPD 12-11-22 17:04 OP:ep   STATUS:               ID:20121019210521 L   I
 2012-10-19-2100-00M.COL___232                                                 6
 STAT SP IPHASW D HRMM SECON CODA AMPLIT PERI AZIMU VELO AIN AR TRES W  DIS CAZ7
 BAR2 SZ EP       21 5 40.08                             169   -0.5010 26.3 219 
 BAR2 SZ I        21 5 56.82        17.9 0.20                          26.3 219 
 GIR2 SZ ES   3   21 5 55.09                             164   -0.96 2 37.7 332 
 PAM  SZ EP       21 5 42.81                             152   -0.0210 72.3  31 
 PAM  SN ES   1   21 5 59.98                             152    0.23 7 72.3  31 
 PAM  SN I        21 6  1.47        19.3 0.42                          72.3  31 
 BRR  HZ EP       21 5 43.25                             148    0.4510 83.3 296 
 BRR  HN ES   1   21 5 59.47                             148   -0.22 7 83.3 296 
 BRR  HN I        21 6  3.65        36.5 0.18                          83.3 296 
 RUS  HZ EP       21 5 44.51                             144    0.0110 98.0 183 
 RUS  HE ES   2   21 6  3.28                             144    0.56 5 98.0 183 
 RUS  HN I        21 6  4.62        10.4 0.34                          98.0 183 
 CHI  HZ EP   3   21 5 58.50                             116   -0.35 2  250 198 
 CHI  HN I        21 6 30.61         7.1 0.44                           250 198 
                                                                                
