 2010 1019 2136 38.7 L   6.790 -73.119141.3  RSN 12 0.4 2.4LRSN                1
 GAP=162        0.82       3.6     7.9  6.4 -0.1204E+02  0.4635E+01  0.1905E+01E
 Epicentro: LOS SANTOS - SANTANDER                                             3
 ACTION:UP  11-02-18 11:10 OP:tino STATUS:               ID:20101019213638 L   I
 2010-10-19-2134-35S.COL___126                                                 6
 STAT SP IPHASW D HRMM SECON CODA AMPLIT PERI AZIMU VELO SNR AR TRES W  DIS CAZ7
 BTL  SZ EP       2136 57.88                             171     0.110   22 311 
 BAR2 SZ EP       2136 57.83                             170     0.010   23 198 
 BAR2 SZ ES   1   2137 12.36                             170    -0.4 7   23 198 
 BAR2 SZ I        2137 13.89        71.9 0.28                            23 198 
 GIR2 SZ EP       2136 57.83                             166    -0.110   33 346 
 BRR  HZ IP       2136 59.63                             151     0.010   74 298 
 BRR  HE ES   2   2137 16.55                             151     0.7 5   74 298 
 BRR  HZ I        2137 20.67        76.6 0.25                            74 298 
 RUS  HZ EP       2137  2.09                             143     0.110   99 178 
 RUS  HN ES   2   2137 19.69                             143    -0.4 5   99 178 
 RUS  HZ I        2137 21.43        27.3 0.25                            99 178 
 GUE  SZ EP       2137  3.82                             138     0.710  117  11 
 GRA  SZ IP     D 2137  3.58                             136     0.010  126  16 
 GRA  SZ I        2137  4.87        26.5 0.30                           126  16 
 GRA  SZ ES   1   2137 22.92                             136    -0.1 7  126  16 
 OCA  SZ EP       2137  6.17                             128    -0.7 9  162 352 
 OCA  SZ ES   2   2137 28.25                             128    -0.5 5  162 352 
 OCA  SZ I        2137 31.15        45.5 0.19                           162 352 
 NOR  SZ EP   2   2137 13.80                             117    -0.6 4  237 235 
 NOR  SE ES   2   2137 42.37                             117     0.1 4  237 235 
 CHI  HZ EP       2137 16.40                             116     0.2 8  248 196 
 CHI  HE ES   3   2137 44.98                             116    -0.4 2  248 196 
 CHI  HZ I        2137 49.44         9.7 0.52                           248 196 
 ANIL HN ES   3   2138  7.70                             107     0.3 2  359 225 
 PRA  HZ EP       2137 31.92                             106    -0.2 6  392 210 
 PRA  HN ES   2   2138 14.25                             106     0.4 3  392 210 
                                                                                
