 2014  419 2009 49.0 L   6.784 -73.200151.2  RSN  4 0.3 1.4LRSN                1
 GAP=196        0.78       4.3     6.5  7.8  0.1338E+02 -0.7043E+01 -0.7516E+01E
 Epicentro: ZAPATOCA - SANTANDER                                               3
 ACTION:UPD 14-05-13 23:09 OP:nd   STATUS:               ID:20140419200949 L   I
 OLDACT:UP  14-04-20 03:28 OP:cam  STATUS:               ID:20140419200820     3
 OLDACT:REG 14-04-20 02:28 OP:cam  STATUS:               ID:20140419200820     3
 2014-04-19-2008-20M.COL___242                                                 6
 STAT SP IPHASW D HRMM SECON CODA AMPLIT PERI AZIMU VELO AIN AR TRES W  DIS CAZ7
 BRR  HZ EP       2010 10.85                             155    0.3110 66.9 302 
 BRR  HN ES       2010 27.67                             155    0.3610 66.9 302 
 RUS  HZ EP       2010 13.27                             145    0.0410 99.4 173 
 RUS  HE ES       2010 31.76                             145   -0.3510 99.4 173 
 RUS  HZ I        2010 33.11         3.2 0.24            145           99.4 173 
 PTB  HZ EP       2010 16.08                             134    0.19 9  142 259 
 PTB  HN ES       2010 36.62                             134   -0.23 9  142 259 
 PTB  HZ I        2010 39.03         3.2 0.42            134            142 259 
 SML  HE ES       2010 54.12                             119   -0.49 8  243 337 
                                                                                
