 2017  919 2306 33.3 L   6.868 -73.222137.5  RSN  4 0.4 1.2LRSN                1
 GAP=176        0.91       6.9     9.0  9.8 -0.4258E+02  0.4636E+02 -0.2075E+02E
 Epicentro: BETULIA - SANTANDER                                                3
 ACTION:UPD 17-10-05 19:14 OP:rebc STATUS:               ID:20170919230633 L   I
 OLDACT:DUP 17-09-20 04:44 OP:dnl  STATUS:               ID:20170919225744d    3
 OLDACT:REG 17-09-20 03:38 OP:dnl  STATUS:               ID:20170919225742     3
 2017-09-19-2258-00M.COL___450                                                 6
 STAT SP IPHASW D HRMM SECON CODA AMPLIT PERI AZIMU VELO AIN AR TRES W  DIS CAZ7
 BAR2 EZ EP       23 6 52.43                             167    0.2910 30.8 172 
 BAR2 EZ ES       23 7  7.18                             167    0.3610 30.8 172 
 BAR2 EZ I        23 7  8.27         5.0 0.38            169           30.8 172 
 PAM  EZ EP       23 6 55.10                             149    0.4210 77.8  48 
 PAM  EN ES       23 7 10.72                             149   -0.6310 77.8  48 
 PAM  EZ I        23 7 14.58         2.7 0.74            152           77.8  48 
 RUS  HZ EP   2   23 6 56.31                             139   -0.60 5  109 172 
 RUS  HE ES       23 7 15.15                             139   -0.1610  109 172 
 RUS  HZ I        23 7 16.46         2.2 0.46            144            109 172 
 NOR  HZ EP   2   23 7  8.05                             117   -0.28 4  232 232 
 NOR  HE ES       23 7 35.49                             117   -0.15 8  232 232 
 NOR  HZ I        23 7 41.27         1.5 0.32            118            232 232 
                                                                                
