 2010  119 2358 23.4 L   6.471 -73.176132.8  RSN  6 0.4 1.6LRSN                1
 GAP=173        0.70       4.0    10.7  8.1 -0.1305E+02  0.4044E+02 -0.2937E+00E
 Epicentro: VALLE DE SAN JOSE - SANTANDER                                      3
 ACTION:UP  10-08-24 09:44 OP:vdl  STATUS:               ID:20100119235823 L   I
 2010-01-19-2340-00S.COL___099                                                 6
 STAT SP IPHASW D HRMM SECON CODA AMPLIT PERI AZIMU VELO SNR AR TRES W  DIS CAZ7
 BAR2 SZ EP   1   2358 42.09                             174     0.8 7   13 356 
 BAR2 SZ ES   2   2358 54.61                             174    -0.6 5   13 356 
 RUS  BZ IP       2358 43.45                             153     0.010   65 171 
 RUS  BN ES   2   2358 59.44                             153     0.3 5   65 171 
 RUS  BZ I        2359  0.81         6.4 0.17                            65 171 
 GIR2 SZ EP   1   2358 43.03                             152    -0.1 7   67 358 
 GIR2 SZ ES   2   2358 58.40                             152    -0.1 5   67 358 
 OCA  SZ EP   1   2358 54.25                             121    -0.1 6  196 355 
 OCA  SZ ES   2   2359 18.25                             121    -0.3 4  196 355 
 CHI  HZ EP   1   2358 56.12                             118    -0.3 6  213 197 
 CHI  HN ES   2   2359 21.99                             118    -0.3 4  213 197 
 CHI  HZ I        2359 28.81         2.8 0.55                           213 197 
 RREF BZ EP   1   2359  5.92                             110    -0.2 5  297 234 
 RREF BE ES   2   2359 39.79                             110     0.4 4  297 234 
 RREF BZ I        2359 43.16         3.9 0.18                           297 234 
                                                                                
