 2013 1019 2357 26.4 L   6.694 -73.137141.9  RSN  6 0.4 1.9LRSN                1
 GAP=170        0.90       6.6     4.3  6.8 -0.5921E+01  0.7334E+01 -0.3880E+01E
 Epicentro: VILLANUEVA - SANTANDER                                             3
 ACTION:UPD 13-11-25 09:22 OP:ep   STATUS:               ID:20131019235726 L   I
 OLDACT:REG 13-10-20 03:15 OP:nd   STATUS:               ID:20131019234850     3
 2013-10-19-2348-50M.COL___214                                                 6
 STAT SP IPHASW D HRMM SECON CODA AMPLIT PERI AZIMU VELO AIN AR TRES W  DIS CAZ7
 BAR2 SZ EP     D 2357 45.79                             175    0.4110 12.3 204 
 BAR2 SZ ES       2358  0.04                             175   -0.1510 12.3 204 
 BAR2 SZ I        2358  2.58        26.5 0.22            175           12.3 204 
 BRR  HZ IP     C 2357 47.80                             149    0.2510 78.3 306 
 BRR  HN ES       2358  4.57                             149    0.5210 78.3 306 
 BRR  HZ I        2358  9.39         8.5 0.18            150           78.3 306 
 PAM  SZ EP       2357 48.90                             147    0.1410 86.2  34 
 PAM  SN ES       2358  5.77                             147   -0.4310 86.2  34 
 PAM  SZ I        2358  7.90        11.3 0.52            150           86.2  34 
 PTB  HZ EP       2357 52.68                             131   -0.29 9  147 263 
 PTB  HN ES       2358 13.15                             131   -0.55 9  147 263 
 PTB  HZ I        2358 16.50         9.2 0.12            134            147 263 
 ZAR  HZ EP   2   2357 59.20                             121    0.02 4  210 295 
 ZAR  HN ES       2358 25.04                             121    0.30 8  210 295 
 ZAR  HZ I        2358 26.20         6.3 0.14            123            210 295 
 SML  HZ EP   2   2358  3.64                             115   -0.39 4  255 336 
 SML  HN ES   2   2358 32.33                             115   -1.04 4  255 336 
 SML  HZ I        2358 34.54        10.4 0.10            118            255 336 
                                                                                
