 2015  919 2350  3.6 L   6.793 -73.145138.7  RSN 15 0.6 2.2LRSN                1
 GAP= 71        1.37       3.6     4.3  6.5 -0.2971E+01  0.5685E+01  0.4965E+01E
 Epicentro: LOS SANTOS - SANTANDER                                             3
 ACTION:UPD 15-10-28 16:27 OP:cam  STATUS:               ID:20150919235003 L   I
 OLDACT:REG 15-09-20 04:01 OP:stll STATUS:               ID:20150919234748     3
 2015-09-19-2347-48M.COL___355                                                 6
 STAT SP IPHASW D HRMM SECON CODA AMPLIT PERI AZIMU VELO AIN AR TRES W  DIS CAZ7
 BAR2 EZ IP     C 2350 22.54                             170    0.2010 22.5 191 
 BAR2 EZ ES       2350 37.12                             170    0.1410 22.5 191 
 BAR2 EZ I        2350 38.39        49.6 0.44            170           22.5 191 
 BRR  HZ IP     C 2350 24.49                             151    0.4910 71.6 299 
 BRR  HZ I        2350 24.70        33.4 0.26            149           71.6 299 
 BRR  HN ES       2350 41.12                             151    1.2010 71.6 299 
 PAM  EZ EP     C 2350 25.40                             149    0.3110 78.0  39 
 PAM  EZ I        2350 25.71        71.2 0.26            151           78.0  39 
 PAM  EN ES       2350 42.04                             149    0.1910 78.0  39 
 RUS  HZ EP       2350 26.48                             142   -0.1010 99.8 176 
 RUS  HN ES       2350 44.25                             142   -0.2710 99.8 176 
 RUS  HZ I        2350 45.99        24.0 0.34            144           99.8 176 
 PTB  HZ EP       2350 29.25                             130   -0.72 9  148 259 
 PTB  HE ES       2350 49.13                             130   -1.42 9  148 259 
 PTB  HZ I        2350 53.76        14.6 0.18            130            148 259 
 TAM  HZ IP     C 2350 30.88                             129    0.20 9  155 105 
 TAM  HZ I        2350 31.02        30.7 0.20            132            155 105 
 OCA  HZ EP       2350 30.84                             128   -0.59 9  161 353 
 OCA  HN ES       2350 52.08                             128   -1.07 9  161 353 
 OCA  HZ I        2350 54.62        38.1 0.40            128            161 353 
 SPBC HZ EP       2350 31.60                             127    0.11 9  163 219 
 SPBC HN ES       2350 53.05                             127   -0.20 9  163 219 
 SPBC HZ I        2350 56.69        27.0 0.10            128            163 219 
 ZAR  HZ EP       2350 35.63                             121    0.01 9  204 292 
 ZAR  HE ES       2351  0.81                             121    0.21 9  204 292 
 ZAR  HZ I        2351  9.21        14.6 0.50            120            204 292 
 NOR  HZ EP       2350 38.64                             117   -0.23 8  234 235 
 NOR  HE ES       2351  5.96                             117   -0.42 8  234 235 
 NOR  HZ I        2351 10.03         8.2 0.18            117            234 235 
 CHI  HZ EP       2350 40.72                             116   -0.09 8  248 195 
 CHI  HZ I        2350 43.30         5.2 0.22            116            248 195 
 CHI  HN ES       2351  9.45                             116   -0.40 8  248 195 
 HEL  HZ EP       2350 44.62                             113    1.19 8  272 256 
 HEL  HN ES       2351 14.85                             113    0.34 8  272 256 
 HEL  HZ I        2351 19.64         5.3 0.30            113            272 256 
 GUY2CHZ EP       2350 47.24                             111    0.41 7  301 235 
 GUY2CHN ES       2351 21.33                             111    0.78 7  301 235 
 GUY2CHZ I        2351 27.52         7.3 0.26                           301 235 
 PRA  HZ EP       2350 56.49                             105   -0.30 6  391 210 
 PRA  HN ES       2351 38.64                             105    0.35 6  391 210 
 ORTC HZ EP       2350 57.46                             105    0.26 6  395 216 
 ORTC HZ I        2350 59.50         3.9 0.26            106            395 216 
 ORTC HE ES       2351 38.94                             105   -0.07 6  395 216 
                                                                                
