 2012  519 2156  9.2 L   6.763 -73.119151.1  RSN  4 0.3 1.3LRSN                1
 GAP=142        0.60       5.7     4.5  9.3 -0.5047E+01 -0.1241E+02  0.1153E+02E
 Epicentro: LOS SANTOS - SANTANDER                                             3
 ACTION:UP  12-07-05 12:06 OP:pat  STATUS:               ID:20120519215609 L   I
 2012-05-19-2150-00M.COL___200                                                 6
 STAT SP IPHASW D HRMM SECON CODA AMPLIT PERI AZIMU VELO SNR AR TRES W  DIS CAZ7
 BRR  HZ EP   1   2156 31.40                             152     0.2 8   76 300 
 BRR  HZ I        2156 31.63         5.3 0.18                            76 300 
 BRR  HN ES   1   2156 48.59                             152     0.3 8   76 300 
 PAM  SZ EP   1   2156 32.17                             151     0.1 8   79  36 
 PAM  SN ES   2   2156 49.32                             151    -0.6 5   79  36 
 RUS  HZ EP   1   2156 33.09                             146    -0.1 8   96 178 
 RUS  HZ I        2156 34.10         2.5 0.18                            96 178 
 RUS  HN ES   2   2156 52.23                             146     0.3 5   96 178 
 PTB  HE ES       2156 58.09                             133    -0.210  150 261 
                                                                                
