 2012  219 2315 28.0 L   6.734 -73.070143.6  RSN  6 0.4 1.2LRSN                1
 GAP=150        0.85       4.8     7.1  9.3 -0.1867E+01  0.2291E+01  0.1229E+02E
 ACTION:DUP 12-03-07 16:32 OP:epov STATUS:               ID:20120219231529dL   I
 2012-02-19-2310-00M.COL___191                                                 6
 STAT SP IPHASW D HRMM SECON CODA AMPLIT PERI AZIMU VELO AIN AR TRES W  DIS CAZ7
 GIR2 SZ EP   1   2315 47.84                             163    0.09 7 40.5 340 
 PAM  SZ EP   1   2315 50.44                             150    0.34 7 78.5  31 
 PAM  SZ I        2315 50.96         3.0 0.21                          78.5  31 
 PAM  SN ES   1   2316  6.90                             150   -0.40 7 78.5  31 
 BRR  HZ EP   1   2315 49.65                             148    0.03 7 82.1 300 
 BRR  HN ES       2316  6.75                             148    0.3010 82.1 300 
 RUS  HZ EP   1   2315 51.48                             146    0.43 7 93.0 181 
 RUS  HN ES   1   2316  8.60                             146   -0.39 7 93.0 181 
 RUS  HZ I        2316 11.85         2.7 0.22                          93.0 181 
 PTB  HZ EP   1   2315 54.55                             130   -0.94 7  155 262 
 CHI  HN ES   1   2316 34.29                             117    0.26 6  244 198 
 CHI  HZ I        2316 38.22         1.1 0.26                           244 198 
                                                                                
