 2015  319 2332  3.4 L   6.773 -73.143149.3  RSN  7 0.3 1.4LRSN                1
 GAP=138        0.78       4.0     4.1  6.6 -0.1689E+01  0.5079E+00  0.1250E+01E
 Epicentro: LOS SANTOS - SANTANDER                                             3
 ACTION:UPD 15-04-30 16:27 OP:nd   STATUS:               ID:20150319233203 L   I
 OLDACT:DUP 15-03-20 08:23 OP:spq  STATUS:               ID:20150319232747d    3
 2015-03-19-2327-46M.COL___278                                                 6
 STAT SP IPHASW D HRMM SECON CODA AMPLIT PERI AZIMU VELO AIN AR TRES W  DIS CAZ7
 BAR2 EZ EP   1   2332 23.34                             172   -0.11 7 20.5 192 
 BAR2 EZ ES   1   2332 38.61                             172   -0.44 7 20.5 192 
 BAR2 EZ I        2332 41.54         5.5 0.44            170           20.5 192 
 BRR  HZ EP       2332 25.19                             153    0.1210 72.9 300 
 BRR  HN ES       2332 42.47                             153    0.5310 72.9 300 
 BRR  HZ I        2332 46.76         5.5 0.64            150           72.9 300 
 PAM  SZ EP       2332 26.16                             151   -0.0110 79.5  38 
 PAM  SN ES   1   2332 43.60                             151   -0.28 7 79.5  38 
 PAM  SZ I        2332 45.16         3.1 0.60            155           79.5  38 
 RUS  HZ EP       2332 27.67                             145    0.3310 97.6 176 
 RUS  HE ES   1   2332 45.84                             145   -0.13 7 97.6 176 
 RUS  HZ I        2332 47.62         2.5 0.20            149           97.6 176 
 PTB  HZ EP   1   2332 30.06                             133   -0.62 7  147 260 
 PTB  HN ES   1   2332 51.35                             133   -0.57 7  147 260 
 PTB  HZ I        2332 58.79         4.2 0.32            133            147 260 
 SPBC HN ES       2332 54.53                             130    0.22 9  161 220 
 SPBC HZ I        2332 57.05         5.2 0.24            132            161 220 
 ZAR  HE ES   1   2333  1.79                             123   -0.08 6  205 293 
 ZAR  HZ I        2333  7.75         3.2 0.52            124            205 293 
                                                                                
