 2016  519 2217 32.7 L   6.755 -73.136144.2  RSN  8 0.3 2.0LRSN                1
 GAP=140        0.70       2.8     2.9  4.2 -0.1047E+01  0.3646E+01  0.6532E+00E
 Epicentro: LOS SANTOS - SANTANDER                                             3
 ACTION:UPD 16-08-18 17:47 OP:cam  STATUS:               ID:20160519221732 L   I
 OLDACT:UP  16-05-20 06:53 OP:cara STATUS:               ID:20160519220743     3
 OLDACT:REG 16-05-20 05:10 OP:edw  STATUS:               ID:20160519220743     3
 2016-05-19-2207-43M.COL___313                                                 6
 STAT SP IPHASW D HRMM SECON CODA AMPLIT PERI AZIMU VELO AIN AR TRES W  DIS CAZ7
 BAR2 EZ IP       2217 52.15                             172    0.0610 18.8 196 
 BAR2 EZ ES       2218  6.91                             172   -0.2810 18.8 196 
 BAR2 EZ I        2218  8.27        29.9 0.26            172           18.8 196 
 BRR  HZ EP       2217 54.13                             151    0.2210 74.6 301 
 BRR  HN ES       2218 10.86                             151    0.4310 74.6 301 
 BRR  HZ I        2218 13.92        13.9 0.12            150           74.6 301 
 PAM  EZ IP       2217 55.09                             149    0.1110 80.6  37 
 PAM  EN ES       2218 12.29                             149   -0.0410 80.6  37 
 PAM  EZ I        2218 13.89        16.3 0.74            152           80.6  37 
 RUS  HZ EP       2217 56.02                             145    0.0510 95.6 177 
 RUS  HE ES       2218 13.83                             145   -0.2710 95.6 177 
 RUS  HZ I        2218 15.60        10.4 0.26            147           95.6 177 
 PTB  HZ EP       2217 59.06                             132   -0.53 9  148 261 
 PTB  HE ES       2218 20.73                             132    0.18 9  148 261 
 PTB  HZ I        2218 22.35        12.2 0.44            132            148 261 
 SPBC HZ EP       2218  0.83                             129    0.01 9  160 220 
 SPBC HN ES       2218 23.01                             129    0.28 9  160 220 
 SPBC HZ I        2218 24.32        17.1 0.26            130            160 220 
 ZAR  HZ EP       2218  5.30                             122   -0.08 8  207 293 
 ZAR  HN ES       2218 30.35                             122   -0.50 8  207 293 
 ZAR  HZ I        2218 36.08        11.1 0.34            122            207 293 
 NOR  HZ EP       2218  8.52                             118    0.36 8  233 236 
 NOR  HE ES       2218 35.75                             118   -0.05 8  233 236 
 NOR  HZ I        2218 39.80         5.3 0.20            120            233 236 
                                                                                
