 2016  319 2042 55.3 L   6.829 -73.170145.0  RSN 10 0.4 2.2LRSN                1
 GAP=132        1.06       4.0     4.1  6.7 -0.1726E+01  0.7975E+01  0.7329E+00E
 Epicentro: ZAPATOCA - SANTANDER                                               3
 ACTION:UPD 16-05-13 21:25 OP:cam  STATUS:               ID:20160319204255 L   I
 OLDACT:UP  16-03-28 15:35 OP:Mher STATUS:               ID:20160319204255 L   3
 OLDACT:REG 16-03-20 02:50 OP:drio STATUS:               ID:20160319203749     3
 2016-03-19-2037-49M.COL___305                                                 6
 STAT SP IPHASW D HRMM SECON CODA AMPLIT PERI AZIMU VELO AIN AR TRES W  DIS CAZ7
 BAR2 EZ EP       2043 14.79                             169   -0.1210 26.3 183 
 BAR2 EZ ES       2043 29.51                             169   -0.6910 26.3 183 
 BAR2 EZ I        2043 32.35        32.9 0.70            168           26.3 183 
 PAM  EZ EP       2043 17.81                             151    0.4110 76.7  43 
 PAM  EE ES       2043 35.10                             151    0.4710 76.7  43 
 PAM  EZ I        2043 37.24        17.6 0.66            156           76.7  43 
 RUS  HZ EP       2043 18.87                             143   -0.3610  104 175 
 RUS  HE ES       2043 37.99                             143    0.0910  104 175 
 RUS  HZ I        2043 39.66        13.7 0.32            144            104 175 
 PTB  HZ EP       2043 21.27                             132   -0.76 9  146 257 
 PTB  HN ES       2043 42.69                             132   -0.20 9  146 257 
 PTB  HZ I        2043 44.67        21.9 0.58            132            146 257 
 SPBC HZ EP       2043 23.95                             129    0.12 9  164 218 
 SPBC HE ES       2043 46.77                             129    0.69 9  164 218 
 SPBC HZ I        2043 52.91        23.6 0.16            129            164 218 
 ZAR  HZ EP       2043 27.30                             123   -0.02 9  200 292 
 ZAR  HE ES       2043 52.54                             123    0.25 9  200 292 
 ZAR  HZ I        2043 58.27        17.3 0.40            123            200 292 
 NOR  HZ EP   9   2043 28.98                             118   -1.98 0  234 233 
 NOR  HE ES       2043 57.49                             118    0.69 8  234 233 
 NOR  HZ I        2044  6.61        15.7 0.16            119            234 233 
 CHI  HZ EP       2043 33.07                             117   -0.16 8  251 194 
 CHI  HE ES       2044  3.04                             117    0.23 8  251 194 
 CHI  HZ I        2044  5.63         8.9 0.28            118            251 194 
 HEL  HZ EP   4   2043 37.47                             115    2.19 0  270 255 
 HEL  HE ES       2044  6.73                             115    0.26 8  270 255 
 HEL  HZ I        2044 14.41         8.7 0.32            116            270 255 
 GUY2CHZ EP   4   2043 40.53                             112    1.68 0  301 234 
 GUY2CHE ES   4   2044 15.07                             112    2.26 0  301 234 
 GUY2CHZ I        2044 20.02         7.1 0.58                           301 234 
                                                                                
