 2013  719 2001 10.1 L   6.787 -73.181140.6  RSN  8 0.4 2.2LRSN                1
 GAP=155        1.06       3.9     5.8  7.3 -0.3005E+01 -0.8059E+00 -0.2083E+01E
 Epicentro: LOS SANTOS - SANTANDER                                             3
 ACTION:UPD 13-08-12 10:38 OP:ep   STATUS:               ID:20130719200110 L   I
 OLDACT:REG 13-07-20 00:02 OP:stll STATUS:               ID:20130719195850     3
 2013-07-19-1958-50M.COL___231                                                 6
 STAT SP IPHASW D HRMM SECON CODA AMPLIT PERI AZIMU VELO AIN AR TRES W  DIS CAZ7
 BAR2 SZ IP     D 20 1 29.04                             171    0.0110 21.5 181 
 BAR2 SZ I        20 1 29.14        19.9 0.40            168           21.5 181 
 BAR2 SZ ES       20 1 43.56                             171   -0.2710 21.5 181 
 GIR2 SZ EP       20 1 29.20                             166    0.0510 32.3 357 
 BRR  HZ IP     D 20 1 31.11                             152    0.6110 68.6 301 
 BRR  HN ES       20 1 47.24                             152    0.8010 68.6 301 
 BRR  HN I        20 1 52.14        33.3 0.24            150           68.6 301 
 RUS  HZ EP       20 1 32.95                             143   -0.2710 99.5 174 
 RUS  HE ES       20 1 51.33                             143    0.0410 99.5 174 
 RUS  HE I        20 1 52.25        22.0 0.48            145           99.5 174 
 GRA  SZ EP       20 1 35.23                             135    0.1710  128  19 
 PTB  HZ EP       20 1 36.19                             132   -0.05 9  144 259 
 PTB  HE ES       20 1 56.03                             132   -0.62 9  144 259 
 PTB  HE I        20 2  0.62        13.5 0.60            131            144 259 
 SPBC HZ EP       20 1 37.96                             128    0.13 9  160 218 
 SPBC HN ES       20 1 59.47                             128   -0.02 9  160 218 
 SPBC HN I        20 2  7.02        28.9 0.34            129            160 218 
 OCA  HN ES       20 1 59.17                             128   -0.75 9  161 355 
 OCA  HN I        20 2  0.05        43.6 0.18            131            161 355 
                                                                                
