 2010  919 2223 22.2 L   6.752 -73.087138.8  RSN 10 0.4 2.5LRSN                1
 GAP=166        0.72       3.7     6.3  6.3 -0.7040E+01  0.7546E+01  0.3355E+01E
 Epicentro: LOS SANTOS - SANTANDER                                             3
 ACTION:UP  11-02-18 11:04 OP:tino STATUS:               ID:20100919222322 L   I
 2010-09-19-2220-37S.COL___121                                                 6
 STAT SP IPHASW D HRMM SECON CODA AMPLIT PERI AZIMU VELO SNR AR TRES W  DIS CAZ7
 BAR2 SZ IP     D 2223 41.02                             171     0.010   21 211 
 BAR2 SZ I        2223 41.57       107.5 0.35                            21 211 
 BAR2 SZ ES   2   2223 55.51                             171    -0.1 5   21 211 
 BTL  SZ EP   1   2223 41.17                             169     0.1 7   27 313 
 GIR2 SZ EP   1   2223 41.15                             164    -0.1 7   38 342 
 GIR2 SZ ES   2   2223 56.41                             164     0.3 5   38 342 
 BRR  HZ IP     C 2223 42.95                             149    -0.210   79 300 
 BRR  HZ I        2223 43.31       130.1 0.11                            79 300 
 BRR  HE ES   2   2223 59.64                             149     0.2 5   79 300 
 RUS  HZ IP     C 2223 45.02                             144     0.110   95 180 
 RUS  HN ES   2   2224  1.93                             144    -0.7 5   95 180 
 RUS  HZ I        2224  5.63        21.1 0.40                            95 180 
 GUE  SZ EP       2223 46.99                             137     0.310  121   9 
 GRA  SZ EP   1   2223 47.09                             135    -0.1 7  129  14 
 GRA  SZ ES   2   2224  6.19                             135    -0.4 5  129  14 
 GRA  SZ I        2224  8.73        49.1 0.41                           129  14 
 NOR  HZ EP   1   2223 57.13                             117    -0.7 6  237 237 
 NOR  HE ES   2   2224 25.77                             117     0.2 4  237 237 
 CHI  HZ EP       2223 59.06                             116    -0.1 8  245 197 
 CHI  HN ES   2   2224 29.41                             116     1.4 4  245 197 
 CHI  HZ I        2224 35.20         8.0 1.07                           245 197 
 HEL  HZ EP       2224  2.73                             113     0.1 7  277 257 
 HEL  HZ I        2224 40.02        23.3 0.36                           277 257 
                                                                                
