 2015 1119 2315 39.0 L   6.784 -73.121148.4  RSN  7 0.3 1.9LRSN                1
 GAP=140        0.65       2.9     3.8  5.0 -0.3630E+01  0.3380E+01  0.7492E+00E
 Epicentro: LOS SANTOS - SANTANDER                                             3
 ACTION:UPD 15-12-28 16:12 OP:cam  STATUS:               ID:20151119231539 L   I
 OLDACT:REG 15-11-20 03:59 OP:cara STATUS:               ID:20151119230750     3
 2015-11-19-2307-50M.COL___316                                                 6
 STAT SP IPHASW D HRMM SECON CODA AMPLIT PERI AZIMU VELO AIN AR TRES W  DIS CAZ7
 BAR2 EZ EP       2315 59.05                             171    0.1010 22.2 198 
 BAR2 EZ ES       2316 14.25                             171   -0.2410 22.2 198 
 BAR2 EZ I        2316 16.59        10.5 0.30            171           22.2 198 
 BRR  HZ EP       2316  0.68                             152    0.0410 74.4 299 
 BRR  HN ES       2316 17.81                             152    0.3110 74.4 299 
 BRR  HZ I        2316 24.35        10.0 0.30            150           74.4 299 
 PAM  EZ EP       2316  1.69                             151    0.1910 77.1  37 
 PAM  EE ES       2316 19.02                             151   -0.0210 77.1  37 
 PAM  EZ I        2316 20.99        14.0 0.46            154           77.1  37 
 RUS  HZ EP       2316  2.90                             145    0.0110 98.6 178 
 RUS  HN ES       2316 21.56                             145    0.0410 98.6 178 
 RUS  HZ I        2316 22.71         8.9 0.30            150           98.6 178 
 SPBC HN ES       2316 29.80                             130   -0.37 9  164 220 
 SPBC HZ I        2316 32.27        10.6 0.30            132            164 220 
 SML  HN ES   2   2316 43.70                             118   -1.31 4  246 335 
 SML  HZ I        2316 47.21         8.9 0.10            120            246 335 
 GUY2CHN ES       2316 57.23                             113    0.13 7  302 235 
                                                                                
