 2015 1019 2204  7.9 L   6.782 -73.146141.9  RSN 10 0.4 1.7LRSN                1
 GAP=137        0.90       2.6     3.8  5.3 -0.1125E+01  0.6806E+01  0.2505E+00E
 Epicentro: LOS SANTOS - SANTANDER                                             3
 ACTION:UPD 15-12-22 20:41 OP:cam  STATUS:               ID:20151019220407 L   I
 OLDACT:REG 15-10-20 03:42 OP:ak   STATUS:               ID:20151019215747     3
 2015-10-19-2157-47M.COL___337                                                 6
 STAT SP IPHASW D HRMM SECON CODA AMPLIT PERI AZIMU VELO AIN AR TRES W  DIS CAZ7
 BAR2 EZ EP       22 4 27.05                             171    0.0610 21.3 191 
 BAR2 EZ ES       22 4 41.74                             171   -0.1710 21.3 191 
 BAR2 EZ I        22 4 43.50        12.9 0.42            171           21.3 191 
 BRR  HZ EP       22 4 28.84                             151    0.1910 72.1 300 
 BRR  HN ES       22 4 45.14                             151    0.2710 72.1 300 
 PAM  EZ EP       22 4 29.92                             150    0.1510 79.0  39 
 PAM  EN ES       22 4 47.04                             150    0.1810 79.0  39 
 PAM  EZ I        22 4 49.31         9.0 0.56            152           79.0  39 
 RUS  HZ EP       22 4 31.27                             144    0.1810 98.6 176 
 RUS  HN ES       22 4 48.65                             144   -0.5610 98.6 176 
 RUS  HZ I        22 4 50.54         4.5 0.32            146           98.6 176 
 SPBC HZ EP       22 4 36.17                             128    0.25 9  162 219 
 SPBC HN ES       22 4 58.13                             128    0.33 9  162 219 
 SPBC HZ I        22 5  1.50         8.2 0.08            130            162 219 
 ZAR  HZ EP   1   22 4 40.73                             121    0.59 6  205 293 
 ZAR  HN ES       22 5  5.78                             121    0.47 9  205 293 
 ZAR  HZ I        22 5 11.67         5.9 0.19            122            205 293 
 NOR  HN ES       22 5 10.39                             118   -0.45 8  233 235 
 SML  HZ EP       22 4 43.87                             116   -0.61 8  246 336 
 SML  HE ES       22 5 12.20                             116   -0.83 8  246 336 
 CHI  HZ EP   1   22 4 45.03                             116   -0.11 6  247 195 
 CHI  HN ES       22 5 14.35                             116    0.14 8  247 195 
 GUY2CHZ EP   1   22 4 51.52                             112    0.36 5  300 235 
 GUY2CHE ES       22 5 24.32                             112   -0.61 7  300 235 
 GUY2CHZ I        22 5 33.69         3.1 0.46                           300 235 
                                                                                
