 2012  219 2025 12.4 L   6.753 -73.155141.6  RSN  6 0.3 1.4LRSN                1
 GAP=137        0.57       3.9     3.6  7.5 -0.7465E+00  0.1042E+02 -0.4558E+01E
 ACTION:UP  12-03-07 16:32 OP:epov STATUS:               ID:20120219202512 L   I
 2012-02-19-2020-00M.COL___191                                                 6
 STAT SP IPHASW D HRMM SECON CODA AMPLIT PERI AZIMU VELO AIN AR TRES W  DIS CAZ7
 GIR2 SZ EP   1   2025 31.91                             165    0.22 7 36.3 353 
 BRR  HZ EP   1   2025 33.53                             151    0.37 7 73.0 303 
 BRR  HZ I        2026 31.91        14.1 0.07                          73.0 303 
 PAM  SZ EP   1   2025 34.18                             148   -0.25 7 82.1  38 
 PAM  SN ES   1   2025 51.51                             148   -0.13 7 82.1  38 
 PAM  SZ I        2025 54.33         2.8 0.25                          82.1  38 
 RUS  HZ EP   1   2025 35.71                             144    0.38 7 95.4 175 
 RUS  HN ES   1   2025 53.12                             144   -0.12 7 95.4 175 
 RUS  HZ I        2025 57.09         2.0 0.26                          95.4 175 
 PTB  HZ EP   1   2025 38.37                             131   -0.44 7  146 261 
 PTB  HN ES   1   2025 59.34                             131   -0.10 7  146 261 
 PTB  HZ I        2026  4.75         0.0 0.13                           146 261 
 ZAR  HZ EP   1   2025 44.39                             121   -0.26 6  205 294 
 ZAR  HN ES   1   2026 10.09                             121    0.26 6  205 294 
                                                                                
