 2013  119 2052 31.5 L   6.819 -73.192146.2  RSN  8 0.4 2.0LRSN                1
 GAP=130        1.14       4.1     5.3  9.0 -0.4662E+01  0.2851E+01  0.1254E+02E
 Epicentro: ZAPATOCA - SANTANDER                                               3
 ACTION:UPD 13-02-15 09:15 OP:ep   STATUS:               ID:20130119205231 L   I
 2013-01-19-2050-00M.COL___241                                                 6
 STAT SP IPHASW D HRMM SECON CODA AMPLIT PERI AZIMU VELO AIN AR TRES W  DIS CAZ7
 BAR2 SZ EP       2052 51.12                             170   -0.1310 25.1 178 
 BAR2 SZ I        2053 14.48        11.5 0.26            168           25.1 178 
 BRR  HZ EP       2052 52.93                             154    0.5010 65.7 299 
 BRR  HN ES       2053  9.71                             154    0.9810 65.7 299 
 BRR  HN I        2053 10.42        37.1 0.22            154           65.7 299 
 PAM  SZ EP       2052 53.94                             150    0.0410 79.2  43 
 PAM  SN ES       2053 10.91                             150   -0.4410 79.2  43 
 PAM  SN I        2053 12.77        11.4 0.42            150           79.2  43 
 RUS  HZ EP       2052 55.31                             143   -0.2010  103 173 
 RUS  HN ES       2053 14.15                             143   -0.0610  103 173 
 RUS  HN I        2053 16.78         4.9 0.16            141            103 173 
 PTB  HZ EP       2052 58.04                             133   -0.08 9  143 258 
 PTB  HN ES       2053 18.02                             133   -0.84 9  143 258 
 PTB  HN I        2053 23.90        17.0 0.38            131            143 258 
 OCA  HN ES       2053 21.35                             130   -0.20 9  158 355 
 OCA  HN I        2053 24.12        23.6 0.22            129            158 355 
 NOR  HE ES       2053 34.37                             119   -0.25 8  232 233 
 NOR  HE I        2053 42.77         9.8 0.16            117            232 233 
 CHI  HZ EP       2053  9.74                             117    0.41 8  249 194 
 CHI  HN ES       2053 39.10                             117    0.29 8  249 194 
 CHI  HN I        2053 41.54         8.4 0.34            115            249 194 
                                                                                
