 2016  319 2135 57.3 L   6.828 -73.530  6.1  RSN  9 0.5 2.0LRSN                1
 GAP=122        1.11       2.9     2.1  6.0 -0.1388E+00  0.5021E+01  0.3829E+01E
 Epicentro: SAN VICENTE DE CHUCURI - SANTANDER                                 3
 ACTION:UPD 16-05-13 21:25 OP:cam  STATUS:               ID:20160319213557 L   I
 OLDACT:UP  16-03-20 03:35 OP:drio STATUS:               ID:20160319212744     3
 OLDACT:UP  16-03-20 03:35 OP:drio STATUS:               ID:20160319212744     3
 OLDACT:UP  16-03-20 03:34 OP:drio STATUS:               ID:20160319212744     3
 OLDACT:REG 16-03-20 02:52 OP:drio STATUS:               ID:20160319212744     3
 2016-03-19-2127-44M.COL___304                                                 6
 STAT SP IPHASW D HRMM SECON CODA AMPLIT PERI AZIMU VELO AIN AR TRES W  DIS CAZ7
 BAR2 EZ EP       2136  4.87                              93   -0.3410 46.5 124 
 BAR2 EZ ES       2136 10.74                              93   -0.6210 46.5 124 
 BAR2 EZ I        2136 12.13        50.0 0.40             47           46.5 124 
 PTB  HZ EP       2136 14.20                              91    0.0110  107 253 
 PTB  HN ES       2136 26.96                              91   -0.3910  107 253 
 PTB  HZ I        2136 30.03        73.8 0.30             47            107 253 
 PAM  EZ EP       2136 15.16                              91    0.4010  108  58 
 PAM  EE ES       2136 28.40                              91    0.0410  108  58 
 PAM  EZ I        2136 37.02        20.0 0.16             47            108  58 
 RUS  HZ EP       2136 16.17                              91    0.3710  115 154 
 RUS  HE ES   4   2136 29.29                              91   -0.93 0  115 154 
 RUS  HZ I        2136 37.55        10.9 0.28             47            115 154 
 SPBC HZ EP   4   2136 20.99                              91    1.28 0  143 205 
 SPBC HN ES       2136 37.71                              91    0.54 9  143 205 
 SPBC HZ I        2136 42.14        44.3 0.28             47            143 205 
 ZAR  HZ EP       2136 23.02                              91    0.24 9  164 297 
 ZAR  HE ES       2136 42.35                              91   -0.29 9  164 297 
 ZAR  HZ I        2136 43.83        39.7 0.24             47            164 297 
 NOR  HZ EP   4   2136 29.90                              56    1.96 0  204 227 
 NOR  HE ES       2136 51.55                              56   -0.27 9  204 227 
 NOR  HZ I        2136 55.83         9.4 0.22             37            204 227 
 HEL  HZ EP       2136 32.57                              56    0.72 8  232 252 
 HEL  HN ES       2136 58.00                              56   -0.79 8  232 252 
 HEL  HZ I        2137  0.27        25.9 0.28             37            232 252 
 GUY2CHZ EP   4   2136 38.13                              56    1.44 0  270 229 
 GUY2CHN ES       2137  8.02                              56    0.63 8  270 229 
 GUY2CHZ I        2137 12.08         3.6 0.50                           270 229 
                                                                                
