 2011  419 2040 18.0 L   6.760 -73.111142.0  RSN 13 0.4 2.5LRSN                1
 GAP=118        0.67       3.5     4.4  5.1 -0.5454E+01  0.3070E+01  0.1590E+01E
 Epicentro: LOS SANTOS - SANTANDER                                             3
 ACTION:UP  11-06-22 15:31 OP:REBC STATUS:               ID:20110419204018 L   I
 2011-04-19-2040-00M.COL___140                                                 6
 STAT SP IPHASW D HRMM SECON CODA AMPLIT PERI AZIMU VELO SNR AR TRES W  DIS CAZ7
 BAR2 SZ EP       2040 37.33                             171     0.310   20 203 
 BAR2 SZ I        2040 37.71        62.6 0.13                            20 203 
 BAR2 SZ ES   1   2040 51.51                             171    -0.5 7   20 203 
 GIR2 SZ EP   1   2040 37.42                             165     0.1 7   36 346 
 BRR  HZ EP       2040 39.20                             150     0.210   77 300 
 BRR  HN ES   1   2040 55.65                             150     0.2 7   77 300 
 BRR  HZ I        2041  0.28        89.2 0.10                            77 300 
 PAM  SZ EP       2040 40.07                             150     0.210   79  35 
 PAM  SN ES   1   2040 57.08                             150     0.2 7   79  35 
 BRI  SZ EP   1   2040 41.85                             140     0.1 7  111  18 
 GRA  SZ IP       2040 43.06                             135    -0.110  129  15 
 GRA  SZ ES   1   2041  2.45                             135    -0.3 7  129  15 
 GRA  SZ I        2041  3.96        38.2 0.38                           129  15 
 OCA  SZ EP   1   2040 46.19                             128    -0.2 7  165 352 
 OCA  SZ ES   2   2041  7.79                             128    -0.9 5  165 352 
 OCA  SZ I        2041 14.67        40.1 0.40                           165 352 
 YOP  SZ EP   2   2040 47.53                             126     0.4 4  173 154 
 YOP  SE ES   2   2041  9.26                             126    -0.7 4  173 154 
 YOP  SZ I        2041 13.82        15.8 0.24                           173 154 
 NOR  SZ EP   2   2040 52.71                             117    -0.8 4  235 236 
 NOR  SN ES   2   2041 21.82                             117     0.5 4  235 236 
 HEL  HZ EP   2   2040 58.27                             114     0.0 4  275 257 
 HEL  HZ I        2041 36.49        24.9 0.39                           275 257 
 GUY  SZ EP   2   2041  1.55                             111    -0.2 4  304 236 
 GUY  SZ I        2041 45.24        40.8 0.37                           304 236 
 RREF HZ EP   2   2041  3.41                             110    -0.5 3  322 230 
 RREF HN ES   2   2041 39.35                             110    -0.5 3  322 230 
 DBB  SZ EP   2   2041  5.82                             108     0.1 3  344 275 
                                                                                
