 2013  119 2329 20.6 L   6.803 -73.166142.8  RSN  8 0.3 2.0LRSN                1
 GAP=134        0.84       2.8     3.9  6.1  0.1538E-01  0.7014E+01  0.2369E+01E
 Epicentro: LOS SANTOS - SANTANDER                                             3
 ACTION:UPD 13-02-15 09:15 OP:ep   STATUS:               ID:20130119232920 L   I
 2013-01-19-2326-38M.COL___181                                                 6
 STAT SP IPHASW D HRMM SECON CODA AMPLIT PERI AZIMU VELO AIN AR TRES W  DIS CAZ7
 BAR2 SZ EP       2329 39.79                             170   -0.0610 23.4 185 
 BAR2 SZ ES       2329 55.14                             170    0.2610 23.4 185 
 BAR2 SZ I        2329 56.47        24.1 0.44            172           23.4 185 
 BRR  HZ EP       2329 41.79                             153    0.5110 69.1 299 
 PAM  SZ EP       2329 42.69                             150    0.1410 78.6  41 
 PAM  SN ES       2329 59.83                             150    0.1510 78.6  41 
 PAM  SN I        2330  0.90        10.6 0.50            150           78.6  41 
 RUS  HZ EP       2329 44.12                             143    0.0510  101 175 
 RUS  HN ES       2330  1.86                             143   -0.5310  101 175 
 RUS  HN I        2330  3.07        11.9 0.30            145            101 175 
 PTB  HZ EP       2329 46.58                             132   -0.53 9  146 259 
 PTB  HN ES       2330  7.73                             132   -0.07 9  146 259 
 PTB  HN I        2330 10.57        12.2 0.18            132            146 259 
 OCA  HN ES       2330  9.97                             129   -0.49 9  160 354 
 OCA  HN I        2330 16.72        45.9 0.32            129            160 354 
 ZAR  HN ES       2330 17.83                             122    0.25 9  202 292 
 CHI  HZ EP       2329 58.14                             116    0.06 8  248 195 
 CHI  HN ES       2330 27.66                             116    0.33 8  248 195 
 CHI  HN I        2330 30.53         3.8 0.26            118            248 195 
                                                                                
