 2016  319 2126 59.9 L   6.492 -73.681101.0  RSN 10 0.4 2.1LRSN                1
 GAP= 70        1.12       3.3     3.0  7.9 -0.2668E+01  0.8248E+01 -0.6810E+01E
 Epicentro: SANTA HELENA DEL OPON - SANTANDER                                  3
 ACTION:UPD 16-05-13 21:25 OP:cam  STATUS:               ID:20160319212659 L   I
 OLDACT:REG 16-03-20 02:51 OP:drio STATUS:               ID:20160319211746     3
 2016-03-19-2117-46M.COL___304                                                 6
 STAT SP IPHASW D HRMM SECON CODA AMPLIT PERI AZIMU VELO AIN AR TRES W  DIS CAZ7
 BAR2 EZ EP       2127 15.82                             149    0.0910 56.2  79 
 BAR2 EZ ES       2127 28.64                             149    0.5510 56.2  79 
 BAR2 EZ I        2127 29.83        67.8 0.32            152           56.2  79 
 PTB  HZ EP       2127 16.83                             136   -0.8110 85.9 274 
 PTB  HE ES       2127 30.79                             136   -0.6910 85.9 274 
 PTB  HZ I        2127 33.46        20.7 0.10            137           85.9 274 
 RUS  HZ EP       2127 18.64                             134   -0.3110 93.6 135 
 RUS  HE ES       2127 33.99                             134    0.1710 93.6 135 
 RUS  HZ I        2127 35.26        21.9 0.34            139           93.6 135 
 SPBC HZ EP       2127 19.71                             131    0.5110  102 205 
 SPBC HN ES       2127 34.15                             131   -0.1210  102 205 
 SPBC HZ I        2127 35.93        28.0 0.24            134            102 205 
 PAM  EZ EP       2127 23.50                             121   -0.30 9  143  49 
 PAM  EE ES       2127 42.38                             121   -0.07 9  143  49 
 PAM  EZ I        2127 43.73        16.9 0.34            123            143  49 
 NOR  HZ EP       2127 25.37                             116   -0.40 9  167 232 
 NOR  HN ES       2127 45.90                             116   -0.05 9  167 232 
 NOR  HZ I        2127 49.38        17.4 0.18            118            167 232 
 ZAR  HZ EP       2127 26.26                             115    0.12 9  171 310 
 ZAR  HE ES       2127 47.09                             115    0.47 9  171 310 
 ZAR  HZ I        2127 50.89        22.9 0.52            116            171 310 
 OCA  HZ EP   4   2127 30.54                             111    1.24 0  197  12 
 OCA  HN ES       2127 52.13                             111   -0.11 9  197  12 
 OCA  HZ I        2127 59.56        32.0 0.44            113            197  12 
 HEL  HZ EP       2127 31.27                             110    0.58 8  207 261 
 HEL  HN ES       2127 55.42                             110    0.70 8  207 261 
 HEL  HZ I        2127 59.42        10.7 0.24            112            207 261 
 GUY2CHZ EP   4   2127 35.27                             107    1.43 0  233 233 
 GUY2CHE ES   4   2128  3.62                             107    3.29 0  233 233 
 GUY2CHZ I        2128  6.68         9.9 0.38                           233 233 
                                                                                
