 2012  119 2328 47.4 L   6.749 -73.161145.5  RSN  6 0.5 1.9LRSN                1
 GAP=137        1.06       7.3     6.8 11.3 -0.6598E+00  0.1211E+02  0.4121E+01E
 Epicentro: LOS SANTOS - SANTANDER                                             3
 ACTION:UP  12-02-03 08:18 OP:REBC STATUS:               ID:20120119232847 L   I
 2012-01-19-2326-00S.MAN___181                                                 6
 STAT SP IPHASW D HRMM SECON CODA AMPLIT PERI AZIMU VELO SNR AR TRES W  DIS CAZ7
 BAR2 SZ ES   2   2329 21.93                             173    -0.1 5   18 188 
 BRR  HZ EP   1   2329  8.94                             152     0.4 7   73 303 
 BRR  HN ES   1   2329 25.94                             152     0.8 7   73 303 
 BRR  HZ I        2329 30.59        27.5 0.14                            73 303 
 PAM  SZ EP   1   2329  9.93                             149     0.1 7   83  38 
 PAM  SE ES   1   2329 26.80                             149    -0.6 7   83  38 
 RUS  HZ EP   1   2329 10.83                             145     0.1 7   95 175 
 RUS  HN ES   1   2329 29.11                             145     0.2 7   95 175 
 RUS  HZ I        2329 30.21         7.1 0.29                            95 175 
 PTB  HZ EP   1   2329 13.84                             133    -0.2 7  145 261 
 PTB  HN ES   1   2329 33.99                             133    -0.9 7  145 261 
 ZAR  HE ES   2   2329 45.39                             122     0.2 4  205 294 
 ZAR  HZ I        2329 52.38         6.2 0.32                           205 294 
                                                                                
