 2012 1019 2223 22.9 L   6.774 -73.122142.0  RSN  5 0.3 2.0LRSN                1
 GAP=141        0.59       3.8     5.6  6.6 -0.3774E+00 -0.2293E+01  0.3563E+01E
 Epicentro: LOS SANTOS - SANTANDER                                             3
 ACTION:UPD 12-11-22 17:04 OP:ep   STATUS:               ID:20121019222322 L   I
 2012-10-19-2219-50M.COL___210                                                 6
 STAT SP IPHASW D HRMM SECON CODA AMPLIT PERI AZIMU VELO AIN AR TRES W  DIS CAZ7
 BAR2 SZ EP       2223 41.66                             171   -0.3810 21.2 198 
 BAR2 SZ ES   3   2223 55.91                             171   -1.05 2 21.2 198 
 BAR2 SZ I        2223 58.07        15.1 0.40                          21.2 198 
 GIR2 SZ ES   3   2223 57.27                             166   -0.02 2 34.6 347 
 BRR  HZ EP       2223 44.05                             151    0.1910 74.9 299 
 BRR  HN ES   1   2224  0.19                             151   -0.02 7 74.9 299 
 BRR  HN I        2224  1.29        32.5 0.22                          74.9 299 
 PAM  SZ EP       2223 44.91                             150    0.1610 78.0  37 
 PAM  SN ES   1   2224  1.78                             150   -0.02 7 78.0  37 
 RUS  HZ EP       2223 45.95                             144   -0.1210 97.6 177 
 RUS  HN ES   1   2224  4.54                             144    0.41 7 97.6 177 
                                                                                
