 2015  319 2247 18.2 L   6.127 -73.315160.4  RSN  7 0.3 1.7LRSN                1
 GAP=108        0.82       4.1     3.9  6.7 -0.1322E+01  0.1930E+00 -0.7328E+01E
 Epicentro: SUAITA - SANTANDER                                                 3
 ACTION:UPD 15-04-30 16:27 OP:nd   STATUS:               ID:20150319224718 L   I
 OLDACT:REG 15-03-20 04:03 OP:spq  STATUS:               ID:20150319223748     3
 2015-03-19-2237-48M.COL___278                                                 6
 STAT SP IPHASW D HRMM SECON CODA AMPLIT PERI AZIMU VELO AIN AR TRES W  DIS CAZ7
 RUS  HZ EP       2247 40.10                             167   -0.2010 36.4 135 
 RUS  HN ES       2247 57.47                             167   -0.0510 36.4 135 
 RUS  HZ I        2248  0.87         3.5 0.64            172           36.4 135 
 SPBC HZ EP   1   2247 43.37                             147    0.61 7 98.9 238 
 SPBC HE ES       2248  1.73                             147   -0.1610 98.9 238 
 SPBC HZ I        2248  6.26        13.2 0.09            148           98.9 238 
 BRR  HZ EP       2247 44.18                             142    0.2710  117 338 
 BRR  HE ES       2248  4.52                             142    0.5810  117 338 
 BRR  HZ I        2248 10.86        10.7 0.38            143            117 338 
 PTB  HZ EP       2247 44.93                             138   -0.3610  134 290 
 PTB  HN ES       2248  6.49                             138    0.0910  134 290 
 PTB  HZ I        2248  7.33         6.9 0.24            139            134 290 
 PAM  SZ EP       2247 47.43                             135    0.13 9  150  27 
 PAM  SN ES   1   2248  9.35                             135   -0.62 7  150  27 
 PAM  SZ I        2248 11.11         2.4 0.48            138            150  27 
 NOR  HN ES   1   2248 14.04                             129   -0.17 7  183 250 
 NOR  HZ I        2248 19.31         4.4 0.16            131            183 250 
 ZAR  HN ES       2248 21.70                             122   -0.34 8  228 312 
 ZAR  HZ I        2248 28.57         4.8 0.62            124            228 312 
                                                                                
