 2012  819 2214 39.4 L   6.784 -73.146150.0  RSN  4 0.3 1.1LRSN                1
 GAP=137        0.67       6.3     4.9  8.5 -0.7334E+01 -0.8012E+00  0.1738E+02E
 Epicentro: LOS SANTOS - SANTANDER                                             3
 ACTION:UPD 12-09-10 11:57 OP:ep   STATUS:               ID:20120819221439 L   I
 2012-08-19-2210-00M.COL___217                                                 6
 STAT SP IPHASW D HRMM SECON CODA AMPLIT PERI AZIMU VELO AIN AR TRES W  DIS CAZ7
 BRR  HZ EP   1   2215  1.22                             153    0.15 7 72.0 300 
 BRR  HN ES   1   2215 18.48                             153    0.52 7 72.0 300 
 PAM  SZ EP   1   2215  2.23                             151    0.07 7 78.7  39 
 PAM  SZ I        2215  2.64         3.3 0.40                          78.7  39 
 PAM  SN ES   1   2215 19.55                             151   -0.35 7 78.7  39 
 RUS  HZ EP   1   2215  3.33                             145   -0.13 7 98.8 176 
 RUS  HE ES   2   2215 22.53                             145    0.31 5 98.8 176 
 RUS  HZ I        2215 23.47         1.0 0.24                          98.8 176 
 PTB  HZ EP   1   2215  6.86                             133    0.16 7  147 259 
 PTB  HN ES   1   2215 27.37                             133   -0.61 7  147 259 
 PTB  HZ I        2215 34.96         1.9 0.35                           147 259 
                                                                                
