 2012  419 2003 18.7 L   6.955 -73.098154.4  RSN  6 0.4 1.8LRSN                1
 GAP=133        1.00       7.3     6.2  9.8  0.4067E+01  0.1103E+02  0.3458E+01E
 Epicentro: PIEDECUESTA - SANTANDER                                            3
 ACTION:UPD 12-07-05 11:54 OP:tino STATUS:               ID:20120419200318 L   I
 2012-04-19-2000-00M.COL___187                                                 6
 STAT SP IPHASW D HRMM SECON CODA AMPLIT PERI AZIMU VELO AIN AR TRES W  DIS CAZ7
 BAR2 SZ EP   1   20 3 39.89                             164     0.1 7   41 193 
 BAR2 SZ ES   1   20 3 56.10                             164    -0.2 7   41 193 
 BAR2 SZ I        20 3 59.44        12.7 0.40                            41 193 
 PAM  SZ EP   1   20 3 40.79                             157    -0.2 7   61  46 
 PAM  SN ES   1   20 3 57.95                             157    -0.4 7   61  46 
 BRR  HZ EP   1   20 3 41.44                             154     0.7 7   70 284 
 BRR  HZ I        20 3 42.26        23.9 0.13                            70 284 
 BRR  HN ES   1   20 3 58.59                             154     0.7 7   70 284 
 RUS  HZ EP   1   20 3 44.85                             141     0.3 7  117 179 
 RUS  HN ES   1   20 4  4.65                             141     0.0 7  117 179 
 RUS  HZ I        20 4  6.02         9.0 0.35                           117 179 
 PTB  HZ EP   1   20 3 46.69                             132    -0.5 7  157 253 
 PTB  HZ I        20 3 47.20         6.0 0.06                           157 253 
 PTB  HN ES   1   20 4  9.04                             132    -0.4 7  157 253 
 ZAR  HN ES   1   20 4 16.98                             124    -0.3 6  203 287 
 ZAR  HZ I        20 4 19.95         4.8 0.09                           203 287 
                                                                                
