 2015  719 2258 17.7 L   6.810 -73.125140.3  RSN  9 0.4 2.1LRSN                1
 GAP=139        0.85       2.5     4.1  5.6 -0.1891E+01  0.1189E+02 -0.1760E+01E
 Epicentro: LOS SANTOS - SANTANDER                                             3
 ACTION:UPD 15-09-08 21:49 OP:cam  STATUS:               ID:20150719225817 L   I
 OLDACT:REG 15-07-20 03:10 OP:ar   STATUS:               ID:20150719224748     3
 2015-07-19-2247-48M.COL___337                                                 6
 STAT SP IPHASW D HRMM SECON CODA AMPLIT PERI AZIMU VELO AIN AR TRES W  DIS CAZ7
 BAR2 EZ EP       2258 36.51                             169   -0.2410 24.9 195 
 BAR2 EZ ES       2258 51.36                             169   -0.2110 24.9 195 
 BAR2 EZ I        2258 52.81        34.3 0.20            169           24.9 195 
 PAM  EZ EP       2258 39.43                             151    0.1910 75.1  39 
 PAM  EN ES       2258 56.31                             151    0.3110 75.1  39 
 PAM  EZ I        2258 56.96        14.1 0.20            154           75.1  39 
 RUS  HZ EP       2258 40.31                             142   -0.7310  102 177 
 RUS  HN ES       2258 59.49                             142    0.2910  102 177 
 RUS  HZ I        2259  1.24         8.0 0.12            144            102 177 
 OCA  HZ EP       2258 45.38                             128   -0.17 9  159 352 
 OCA  HN ES       2259  7.43                             128    0.19 9  159 352 
 OCA  HZ I        2259 10.88        33.0 0.26            130            159 352 
 ZAR  HZ EP       2258 50.51                             121    0.50 8  206 292 
 ZAR  HN ES       2259 14.69                             121   -0.49 8  206 292 
 ZAR  HZ I        2259 20.32        20.9 0.50            122            206 292 
 NOR  HZ EP       2258 53.32                             117   -0.11 8  237 235 
 NOR  HN ES       2259 21.64                             117    0.37 8  237 235 
 NOR  HZ I        2259 24.23        10.4 0.28            118            237 235 
 SML  HZ EP       2258 54.02                             116   -0.04 8  244 335 
 SML  HN ES       2259 22.21                             116   -0.17 8  244 335 
 SML  HZ I        2259 24.73        18.7 0.10            118            244 335 
 CHI  HZ EP   2   2258 54.89                             116   -0.44 4  250 196 
 CHI  HN ES   2   2259 24.77                             116    0.12 4  250 196 
 CHI  HZ I        2259 29.39         5.2 0.30            117            250 196 
 GUY2CHZ EP       2259  2.16                             111    0.77 7  304 235 
 GUY2CHN ES       2259 35.43                             111   -0.00 7  304 235 
 GUY2CHZ I        2259 42.20         4.6 0.28                           304 235 
                                                                                
