 2010 1119 2126 47.4 L   6.834 -73.005144.2  RSN  5 0.3 1.6LRSN                1
 GAP=254        0.55       5.5    12.5  6.5  0.3353E+02 -0.6357E+01  0.6844E+01E
 Epicentro: CEPITA - SANTANDER                                                 3
 ACTION:UP  10-12-17 16:53 OP:REBC STATUS:               ID:20101119212647 L   I
 2010-11-19-2125-16S.COL___132                                                 6
 STAT SP IPHASW D HRMM SECON CODA AMPLIT PERI AZIMU VELO SNR AR TRES W  DIS CAZ7
 BTL  SZ EP   1   2127  7.43                             168     0.4 7   30 288 
 BTL  SZ ES   1   2127 22.51                             168     0.2 7   30 288 
 BAR2 SZ EP   2   2127  6.84                             167    -0.3 5   33 216 
 BAR2 SZ I        2127  7.73         7.3 0.05                            33 216 
 BAR2 SZ ES   3   2127 22.26                             167    -0.2 2   33 216 
 BRR  HZ EP       2127  9.01                             148    -0.110   84 291 
 BRR  HN ES   2   2127 25.81                             148    -0.3 5   84 291 
 BRR  HZ I        2127 26.66        13.0 0.19                            84 291 
 RUS  HZ EP   1   2127 11.19                             142    -0.1 7  104 185 
 RUS  HZ I        2127 12.12         3.1 0.16                           104 185 
 RUS  HE ES   2   2127 29.54                             142    -0.4 5  104 185 
 CHI  HZ EP   2   2127 26.03                             116     0.1 4  257 198 
 CHI  HN ES   2   2127 56.45                             116     0.5 4  257 198 
 CHI  HZ I        2128  1.86         2.8 0.50                           257 198 
                                                                                
