 2014  719 2010  9.7 L   6.819 -73.142143.4  RSN 14 0.5 2.3LRSN                1
 GAP= 71        1.09       3.2     4.5  5.7  0.8478E+00  0.4990E+01  0.1197E+01E
 Epicentro: LOS SANTOS - SANTANDER                                             3
 ACTION:UPD 15-03-16 20:45 OP:nd   STATUS:               ID:20140719201009 L   I
 OLDACT:UP  14-07-20 03:03 OP:cam  STATUS:               ID:20140719201000     3
 OLDACT:REG 14-07-20 02:10 OP:y    STATUS:               ID:20140719201000     3
 2014-07-19-2010-00M.COL___282                                                 6
 STAT SP IPHASW D HRMM SECON CODA AMPLIT PERI AZIMU VELO AIN AR TRES W  DIS CAZ7
 BAR2 SZ EP     D 2010 29.00                             170   -0.0910 25.4 190 
 BAR2 SZ ES       2010 43.26                             170   -0.9410 25.4 190 
 BAR2 SZ I        2010 45.60        41.5 0.38            160           25.4 190 
 BRR  HZ EP       2010 30.76                             152    0.2110 70.5 297 
 BRR  HN ES       2010 47.67                             152    0.8610 70.5 297 
 BRR  HN I        2010 48.22       117.0 0.32            140           70.5 297 
 PAM  SZ IP     D 2010 31.85                             151    0.3010 75.6  40 
 PAM  SE ES       2010 48.83                             151    0.2410 75.6  40 
 PAM  SZ I        2010 50.71        30.0 0.50            149           75.6  40 
 RUS  HZ EP       2010 33.55                             143    0.1910  103 176 
 RUS  HE ES       2010 51.83                             143    0.0110  103 176 
 RUS  HZ I        2010 53.39        19.7 0.20            132            103 176 
 PTB  HZ EP   4   2010 35.70                             131   -0.84 0  149 258 
 PTB  HN ES   4   2010 56.44                             131   -1.04 0  149 258 
 PTB  HZ I        2010 58.81        22.3 0.16            119            149 258 
 TAM  HZ EP       2010 37.46                             130    0.25 9  155 106 
 SPBC HZ EP       2010 38.06                             128   -0.13 9  165 219 
 SPBC HE ES       2011  0.32                             128   -0.09 9  165 219 
 SPBC HZ I        2011  7.06        22.8 0.36            117            165 219 
 ZAR  HZ EP       2010 41.88                             122   -0.06 9  204 292 
 ZAR  HN ES       2011  7.09                             122   -0.00 9  204 292 
 ZAR  HZ I        2011 12.50        17.5 0.26            112            204 292 
 NOR  HZ EP       2010 45.51                             118    0.06 8  236 234 
 NOR  HZ I        2011 19.06        10.8 0.30            108            236 234 
 SML  HZ EP       2010 45.43                             117   -0.57 8  242 335 
 SML  HE ES       2011 13.69                             117   -0.63 8  242 335 
 SML  HZ I        2011 15.59        19.5 0.28            109            242 335 
 CHI  HZ EP       2010 46.90                             116   -0.59 8  251 195 
 CHI  HN ES       2011 17.02                             116    0.05 8  251 195 
 CHI  HZ I        2011 21.82         6.6 0.34            107            251 195 
 HEL  HZ EP   4   2010 51.48                             114    1.59 0  273 255 
 HEL  HZ I        2011 27.54         7.0 0.46            105            273 255 
 URE  HZ EP   4   2010 53.15                             113    2.55 0  283 291 
 GUY2CHZ EP   4   2010 55.02                             112    1.65 0  303 234 
 GUY2CHZ I        2011 37.04         7.4 0.70                           303 234 
 RREF HZ EP   1   2010 57.13                             110    1.21 5  323 229 
                                                                                
