 2015  219 2154 18.6 L   6.763 -73.179133.4  RSN  7 0.6 1.8LRSN                1
 GAP=140        1.39       7.9     7.3 10.4 -0.2414E+02  0.1386E+02  0.3035E+02E
 Epicentro: LOS SANTOS - SANTANDER                                             3
 ACTION:UPD 15-04-30 21:27 OP:nd   STATUS:               ID:20150219215418 L   I
 OLDACT:REG 15-02-20 06:20 OP:stll STATUS:               ID:20150219214749     3
 2015-02-19-2147-49M.COL___293                                                 6
 STAT SP IPHASW D HRMM SECON CODA AMPLIT PERI AZIMU VELO AIN AR TRES W  DIS CAZ7
 BAR2 EZ EP       2154 36.82                             171    0.1210 18.9 181 
 BAR2 EZ ES       2154 51.13                             171    0.3510 18.9 181 
 BAR2 EZ I        2154 52.98        14.0 0.28            169           18.9 181 
 PAM  SZ EP       2154 39.80                             147   -0.1210 82.9  40 
 PAM  SZ I        2154 40.00        17.0 0.20            150           82.9  40 
 PAM  SE ES       2154 56.52                             147    0.0110 82.9  40 
 RUS  HZ EP       2154 40.75                             142   -0.1710 96.9 174 
 PTB  HZ EP       2154 43.39                             130   -0.83 9  143 260 
 PTB  HN ES       2155  3.57                             130   -0.59 9  143 260 
 PTB  HZ I        2155  6.42         6.9 0.40            132            143 260 
 SPBC HZ EP       2154 46.78                             127    1.09 9  158 219 
 CHI  HZ EP       2154 54.78                             115   -0.37 8  244 195 
 CHI  HN ES       2155 22.88                             115   -0.74 8  244 195 
 CHI  HZ I        2155 27.76         4.7 0.54            116            244 195 
 GUY2CHZ EP       2155  1.81                             110    0.71 7  296 235 
 GUY2CHE ES       2155 35.12                             110    0.92 7  296 235 
 GUY2CHZ I        2155 43.02         3.1 0.34                           296 235 
                                                                                
