 2016  419 2125 33.4 L   6.803 -73.156142.0  RSN  8 0.4 2.4LRSN                1
 GAP=135        1.04       4.6     4.3  6.8 -0.2910E+01  0.1321E+02 -0.2126E+01E
 Epicentro: LOS SANTOS - SANTANDER                                             3
 ACTION:UPD 16-05-05 14:22 OP:rebc STATUS:               ID:20160419212534dL   I
 OLDACT:UP  16-04-20 07:27 OP:mh   STATUS:               ID:20160419212450     3
 OLDACT:REG 16-04-19 21:30 OP:ar   STATUS:               ID:20160419212450     3
 2016-04-19-2124-50M.COL___286                                                 6
 STAT SP IPHASW D HRMM SECON CODA AMPLIT PERI AZIMU VELO AIN AR TRES W  DIS CAZ7
 BAR2 EZ EP       2125 52.53                             170   -0.0610 23.5 187 
 BAR2 EZ ES       2126  7.51                             170   -0.0410 23.5 187 
 BAR2 EZ I        2126  8.73        66.4 0.25            170           23.5 187 
 PAM  EZ EP     C 2125 55.25                             150   -0.0110 77.9  40 
 PAM  EN ES       2126 12.45                             150    0.1510 77.9  40 
 PAM  EZ I        2126 14.63        75.0 0.54            155           77.9  40 
 RUS  HZ EP       2125 56.45                             143   -0.3710  101 175 
 RUS  HN ES       2126 15.40                             143    0.3210  101 175 
 RUS  HZ I        2126 16.66        21.4 0.42            147            101 175 
 PTB  HZ EP       2125 59.01                             131   -0.97 9  147 259 
 PTB  HN ES       2126 20.16                             131   -0.53 9  147 259 
 PTB  HZ I        2126 26.63        22.2 0.40            132            147 259 
 SPBC HZ EP       2126  1.38                             128   -0.20 9  163 219 
 SPBC HN ES       2126 23.90                             128    0.35 9  163 219 
 SPBC HZ I        2126 28.23        55.1 0.50            130            163 219 
 ZAR  HZ EP       2126  6.01                             122    0.52 9  203 292 
 ZAR  HN ES       2126 30.83                             122    0.32 9  203 292 
 ZAR  HZ I        2126 37.06        26.8 0.47            123            203 292 
 HEL  HZ EP       2126 13.36                             114    0.04 8  271 256 
 HEL  HN ES       2126 44.61                             114    0.17 8  271 256 
 HEL  HZ I        2126 51.36        13.0 0.44            116            271 256 
 GUY2CHZ EP       2126 17.67                             112    0.91 7  300 235 
 GUY2CHN ES   4   2126 54.11                             112    3.54 0  300 235 
 GUY2CHZ I        2126 56.64        11.7 0.32                           300 235 
                                                                                
