 2010  919 2025 23.9 L   6.809 -73.093142.0  RSN  5 0.3 1.6LRSN                1
 GAP=164        0.56       4.3     9.1  8.1 -0.1127E+01 -0.1947E+02 -0.4042E+01E
 Epicentro: LOS SANTOS - SANTANDER                                             3
 ACTION:UP  11-02-18 11:04 OP:tino STATUS:               ID:20100919202523 L   I
 2010-09-19-2022-28S.COL___121                                                 6
 STAT SP IPHASW D HRMM SECON CODA AMPLIT PERI AZIMU VELO SNR AR TRES W  DIS CAZ7
 BTL  SZ EP   1   2025 43.43                             170     0.3 7   23 302 
 BAR2 SZ EP   1   2025 42.98                             169    -0.2 7   26 203 
 BAR2 SZ ES   2   2025 57.71                             169    -0.5 5   26 203 
 BAR2 SZ I        2025 59.06         9.7 0.38                            26 203 
 BRR  HZ EP   1   2025 44.90                             150    -0.1 7   76 296 
 BRR  HZ I        2025 45.28        13.9 0.38                            76 296 
 BRR  HE ES   2   2026  1.49                             150     0.1 5   76 296 
 RUS  HZ EP   1   2025 47.24                             143    -0.1 7  101 179 
 RUS  HN ES   2   2026  6.22                             143     0.5 5  101 179 
 RUS  HZ I        2026  6.86         2.4 0.31                           101 179 
 GRA  SZ EP   1   2025 48.62                             137     0.0 7  123  15 
 GRA  SZ ES   2   2026  7.99                             137     0.1 5  123  15 
 GRA  SZ I        2026  9.56         5.4 0.47                           123  15 
                                                                                
