 2013  719 2350 40.2 L   6.785 -73.426108.6  RSN  5 0.4 1.6LRSN                1
 GAP= 98        1.14       8.9     5.9  9.5  0.9235E+01  0.7071E+01  0.2631E+02E
 Epicentro: SAN VICENTE DE CHUCURI - SANTANDER                                 3
 ACTION:UPD 13-08-12 10:38 OP:ep   STATUS:               ID:20130719235040 L   I
 OLDACT:REG 13-07-20 00:11 OP:stll STATUS:               ID:20130719234850     3
 2013-07-19-2348-50M.COL___231                                                 6
 STAT SP IPHASW D HRMM SECON CODA AMPLIT PERI AZIMU VELO AIN AR TRES W  DIS CAZ7
 BAR2 SZ EP       2350 55.57                             161   -0.1710 34.3 128 
 BAR2 SZ I        2350 55.81        11.8 0.10            163           34.3 128 
 BAR2 SZ ES       2351  7.88                             161    0.0110 34.3 128 
 GIR2 SZ EP       2350 55.41                             158   -0.5010 41.4  38 
 BRR  HZ EP       2350 55.78                             154   -0.2310 47.6 318 
 BRR  HN ES       2351  8.88                             154    0.5410 47.6 318 
 BRR  HN I        2351 10.00        15.9 0.18            154           47.6 318 
 RUS  HZ EP       2351  1.25                             133    0.2910  106 159 
 PTB  HZ EP       2351  2.06                             129    0.6810  117 257 
 PTB  HN ES       2351 17.29                             129   -0.6110  117 257 
                                                                                
