 2017 1119 2349 57.5 L   6.168 -73.481121.9  RSN  4 0.2 1.1LRSN                1
 GAP=122        0.44       3.9     2.3  4.7  0.2152E+01  0.4798E+01  0.2789E+01E
 Epicentro: SAN BENITO - SANTANDER                                             3
 ACTION:UPD 17-12-12 19:57 OP:rebc STATUS:               ID:20171119234957 L   I
 OLDACT:UP  17-11-20 06:59 OP:mg   STATUS:               ID:20171119234743d    3
 OLDACT:DUP 17-11-20 06:56 OP:mg   STATUS:               ID:20171119234743d    3
 2017-11-19-2348-00M.COL___474                                                 6
 STAT SP IPHASW D HRMM SECON CODA AMPLIT PERI AZIMU VELO AIN AR TRES W  DIS CAZ7
 RUS  HZ EP       2350 15.59                             155   -0.1710 53.5 125 
 RUS  HN ES       2350 30.02                             155   -0.0110 53.5 125 
 RUS  HZ I        2350 31.25         3.0 0.24            160           53.5 125 
 BAR2 EZ EP   1   2350 15.95                             153    0.36 7 57.3  35 
 BAR2 EZ ES   2   2350 29.83                             153    0.10 5 57.3  35 
 BAR2 EZ I        2350 33.52         7.7 0.45            158           57.3  35 
 PTB  HZ EP   1   2350 19.39                             133   -0.17 7  115 291 
 PTB  HN ES       2350 36.70                             133   -0.0910  115 291 
 PTB  HZ I        2350 38.70         1.1 0.10            136            115 291 
 NOR  HZ EP       2350 24.68                             122    0.03 9  168 247 
 NOR  HN ES   1   2350 46.11                             122    0.24 7  168 247 
 NOR  HZ I        2350 50.58         1.7 0.19            125            168 247 
                                                                                
