 2017  919 2156  7.9 L   6.781 -73.136142.8  RSN  7 0.3 1.6LRSN                1
 GAP=139        0.80       3.0     3.8  5.2  0.4510E+00  0.6041E+01  0.3148E+01E
 Epicentro: LOS SANTOS - SANTANDER                                             3
 ACTION:UPD 17-10-05 19:14 OP:rebc STATUS:               ID:20170919215607 L   I
 OLDACT:REG 17-09-20 03:30 OP:dnl  STATUS:               ID:20170919214744     3
 2017-09-19-2148-00M.COL___450                                                 6
 STAT SP IPHASW D HRMM SECON CODA AMPLIT PERI AZIMU VELO AIN AR TRES W  DIS CAZ7
 BAR2 EZ EP       2156 26.82                             171   -0.2810 21.5 194 
 BAR2 EZ ES       2156 42.20                             171    0.1010 21.5 194 
 BAR2 EZ I        2156 43.92         6.9 0.34            170           21.5 194 
 BRR  HZ EP       2156 28.63                             151   -0.1710 73.2 300 
 BRR  HE ES       2156 45.39                             151    0.2510 73.2 300 
 BRR  HZ I        2156 46.33         8.3 0.12            148           73.2 300 
 PAM  EZ EP       2156 29.77                             150   -0.0510 78.3  38 
 PAM  EE ES       2156 46.78                             150   -0.1610 78.3  38 
 PAM  EZ I        2156 48.98        12.7 0.52            152           78.3  38 
 RUS  HZ EP       2156 31.23                             144    0.0610 98.4 177 
 RUS  HE ES       2156 49.40                             144    0.0610 98.4 177 
 RUS  HZ I        2156 50.69         5.7 0.34            145           98.4 177 
 ZAR  HZ EP       2156 41.29                             121    0.99 8  206 293 
 ZAR  HE ES       2157  5.15                             121   -0.46 8  206 293 
 ZAR  HZ I        2157 16.53         4.8 0.24            121            206 293 
 NOR  HZ EP   2   2156 42.81                             118   -0.58 4  234 235 
 NOR  HE ES       2157 10.87                             118   -0.23 8  234 235 
 NOR  HZ I        2157 13.45         2.1 0.32            118            234 235 
 CHI  HZ EP       2156 45.11                             117   -0.10 8  247 196 
 CHI  HN ES       2157 14.54                             117    0.20 8  247 196 
 CHI  HZ I        2157 17.86         2.7 0.36            117            247 196 
                                                                                
