 2011  719 2207 59.8 L   6.788 -73.138141.6  RSN 15 0.4 3.3LRSN                1
 GAP=138        0.77       2.6     4.3  4.9 -0.4701E+01  0.6927E+01  0.1885E+01E
 Epicentro: LOS SANTOS - SANTANDER                                             3
 ACTION:UPD 12-07-25 14:02 OP:epov STATUS:               ID:20110719220759 L   I
 2011-07-19-2206-17S.COL___141                                                 6
 STAT SP IPHASW D HRMM SECON CODA AMPLIT PERI AZIMU VELO AIN AR TRES W  DIS CAZ7
 BAR2 SZ IP     D 22 8 18.82                             171   -0.1210 22.2 193 
 BAR2 SZ ES   1   22 8 33.38                             171   -0.46 7 22.2 193 
 BAR2 SZ I        22 8 34.85       390.2 0.25                          22.2 193 
 BRR  HZ EP   1   22 8 20.69                             151    0.08 7 72.5 299 
 BRR  HE ES   1   22 8 37.62                             151    0.81 7 72.5 299 
 BRR  HZ I        22 8 40.08       513.0 0.13                          72.5 299 
 PAM  SZ EP   1   22 8 21.65                             150    0.01 7 77.9  38 
 PAM  SN ES   1   22 8 38.56                             150   -0.08 7 77.9  38 
 RUS  HZ EP   1   22 8 22.79                             143   -0.29 7 99.2 176 
 RUS  HN ES   1   22 8 41.20                             143    0.00 7 99.2 176 
 BRI  SZ IP     C 22 8 23.48                             140    0.0810  109  20 
 BRI  SZ ES   1   22 8 41.92                             140    0.13 7  109  20 
 BRI  SZ I        22 8 47.15       245.8 0.45                           109  20 
 GRA  SZ EP   1   22 8 24.74                             136   -0.05 7  127  17 
 GRA  SZ ES   1   22 8 44.11                             136   -0.15 7  127  17 
 GRA  SZ I        22 8 45.22       240.2 0.44                           127  17 
 OCA  SZ EP   1   22 8 27.49                             128   -0.47 7  162 353 
 OCA  SZ ES   1   22 8 50.14                             128    0.25 7  162 353 
 OCA  SZ I        22 8 53.13       216.5 0.38                           162 353 
 NOR  SZ EP   1   22 8 34.59                             118   -0.72 6  235 235 
 NOR  SE ES   1   22 9  2.08                             118   -0.90 6  235 235 
 CHI  HZ EP   1   22 8 37.11                             116   -0.08 6  248 195 
 CHI  HE ES   1   22 9  7.04                             116    0.72 6  248 195 
 CHI  HZ I        22 9 12.68        34.4 0.33                           248 195 
 ROSC BZ EP   1   22 8 38.40                             116    0.75 6  252 211 
 ROSC BN ES   1   22 9  7.64                             116    0.50 6  252 211 
 ROSC BZ I        22 9 14.72       129.2 0.43                           252 211 
 HEL  HZ EP   1   22 8 40.47                             114    0.58 6  273 256 
 HEL  HN ES   1   22 9 10.50                             114   -0.63 6  273 256 
 HEL  HZ I        22 9 17.91       142.1 0.57                           273 256 
 VIL  SN ES   1   22 9 16.25                             111   -0.30 5  302 192 
 DBB  SZ EP       22 8 47.17                             109   -0.08 7  340 274 
 TOL  SZ EP   1   22 8 48.65                             109    0.77 5  343 225 
 PRA  HZ EP       22 8 53.08                             106   -0.04 6  391 210 
 PRA  HN ES   1   22 9 34.94                             106    0.25 4  391 210 
 PRA  HZ I        22 9 41.66       177.6 0.25                           391 210 
                                                                                
