 2012 1119 2200 45.3 L   6.863 -73.307125.2  RSN 15 0.6 2.3LRSN                1
 GAP=103        1.36       3.0     4.3  6.1 -0.7147E+00  0.1026E+02 -0.3118E-01E
 Epicentro: ZAPATOCA - SANTANDER                                               3
 ACTION:UPD 12-12-05 15:34 OP:}ep  STATUS:               ID:20121119220045 L   I
 2012-11-19-2200-00M.COL___233                                                 6
 STAT SP IPHASW D HRMM SECON CODA AMPLIT PERI AZIMU VELO AIN AR TRES W  DIS CAZ7
 GIR2 SZ EP       22 1  2.59                             167    0.2110 27.0  28 
 GIR2 SZ ES       22 1 15.56                             167   -0.1610 27.0  28 
 BAR2 SZ EP       22 1  2.92                             164    0.2210 33.0 155 
 BAR2 SZ I        22 1  3.05       137.4 0.10                          33.0 155 
 BAR2 SZ ES       22 1 16.10                             164   -0.2010 33.0 155 
 BRR  HZ EP       22 1  3.34                             156    0.1910 52.2 301 
 BRR  HZ I        22 1  3.66        36.7 0.14                          52.2 301 
 BRR  HN ES       22 1 17.43                             156    0.3410 52.2 301 
 PAM  SZ EP       22 1  6.41                             144    0.5110 85.3  52 
 PAM  SN ES       22 1 22.06                             144    0.0810 85.3  52 
 PAM  SN I        22 1 24.75        14.3 0.26                          85.3  52 
 RUS  HZ EP       22 1  7.94                             136    0.1010  110 167 
 RUS  HN ES       22 1 24.97                             136   -0.4810  110 167 
 RUS  HN I        22 1 26.42        26.1 0.34                           110 167 
 PTB  HZ IP       22 1  8.18                             130   -0.9610  132 254 
 PTB  HE ES       22 1 27.92                             130    0.1710  132 254 
 PTB  HN I        22 1 31.25        29.6 0.52                           132 254 
 OCA  HN ES       22 1 30.79                             126   -0.74 9  152 360 
 OCA  HN I        22 1 38.14        73.9 0.38                           152 360 
 ZAR  HZ EP       22 1 15.28                             120    0.86 9  185 292 
 ZAR  HE ES       22 1 38.45                             120    1.30 9  185 292 
 ZAR  HN I        22 1 41.05        26.7 0.38                           185 292 
 SML  HZ EP       22 1 19.40                             114    0.07 8  230 339 
 SML  HN ES       22 1 45.22                             114   -0.68 8  230 339 
 SML  HN I        22 1 50.22        49.4 0.30                           230 339 
 CHI  HZ EP       22 1 22.78                             112    0.55 8  251 191 
 CHI  HN ES       22 1 50.24                             112   -0.81 8  251 191 
 CHI  HN I        22 1 53.12        11.8 0.58                           251 191 
 HEL  HZ EP       22 1 23.24                             112    0.47 8  257 253 
 HEL  HN ES       22 1 51.80                             112   -0.22 8  257 253 
 HEL  HN I        22 1 54.88         6.0 0.30                           257 253 
 GUY  SN ES       22 1 59.29                             109   -0.43 7  293 232 
 GUY  SN I        22 2  7.35        15.5 0.56                           293 232 
 MON  HZ EP       22 1 29.95                             106   -1.45 7  335 309 
 MON  HN ES       22 2  6.31                             106   -1.07 7  335 309 
 MON  HN I        22 2  8.12         6.7 0.28                           335 309 
 COD  HZ EP       22 1 32.23                             105    0.28 7  340 357 
 COD  HN ES       22 2  8.64                             105    0.28 7  340 357 
 COD  HN I        22 2 16.07         4.8 0.52                           340 357 
 PRA  HZ EP       22 1 38.31                             103    0.43 6  390 207 
 PRA  HN ES       22 2 19.58                             103    0.66 6  390 207 
 PRA  HN I        22 2 25.11         2.3 0.36                           390 207 
                                                                                
