 2011 1019 2056 12.7 L   6.750 -73.159151.9  RSN  4 0.2 1.7LRSN                1
 GAP=181        0.42       5.1     7.0  4.9  0.2628E+02  0.5937E+01  0.1705E+01E
 Epicentro: LOS SANTOS - SANTANDER                                             3
 ACTION:UPD 12-07-13 16:04 OP:ep   STATUS:               ID:20111019205612 L   I
 2011-10-19-2040-00M.COL___171                                                 6
 STAT SP IPHASW D HRMM SECON CODA AMPLIT PERI AZIMU VELO AIN AR TRES W  DIS CAZ7
 GIR2 SZ EP   2   2056 33.14                             166   -0.15 5 36.5 354 
 GIR2 SZ ES   2   2056 49.07                             166   -0.24 5 36.5 354 
 BRR  HZ EP   1   2056 34.56                             153   -0.08 7 72.8 303 
 BRR  HZ I        2056 37.58        11.1 0.38                          72.8 303 
 BRR  HE ES   1   2056 52.01                             153    0.29 7 72.8 303 
 RUS  HZ EP   1   2056 36.95                             147    0.22 7 95.2 175 
 RUS  HN ES   1   2056 55.29                             147   -0.14 7 95.2 175 
 RUS  HZ I        2056 56.65         4.4 0.23                          95.2 175 
 ZAR  HZ EP   1   2056 45.65                             124   -0.02 6  205 294 
 ZAR  HE ES   2   2057 11.02                             124   -0.34 4  205 294 
 ZAR  HZ I        2057 16.85         6.3 0.25                           205 294 
                                                                                
