 2014  819 2315 13.1 L   6.864 -73.250125.3  RSN  6 0.3 1.6LRSN                1
 GAP=189        0.68       4.8     5.9  5.5  0.1936E+02  0.5977E+00 -0.5710E+01E
 Epicentro: BETULIA - SANTANDER                                                3
 ACTION:UPD 14-09-15 21:51 OP:nd   STATUS:               ID:20140819231513 L   I
 OLDACT:REG 14-08-20 05:53 OP:spq  STATUS:               ID:20140819230819     3
 2014-08-19-2308-19M.COL___269                                                 6
 STAT SP IPHASW D HRMM SECON CODA AMPLIT PERI AZIMU VELO AIN AR TRES W  DIS CAZ7
 BAR2 SZ EP       2315 30.63                             165    0.1310 31.0 166 
 BAR2 SZ ES   1   2315 44.39                             165    0.33 7 31.0 166 
 BAR2 SZ I        2315 45.15        16.2 0.28            166           31.0 166 
 BRR  HZ EP       2315 30.98                             154   -0.3110 57.7 298 
 BRR  HE ES       2315 45.12                             154   -0.3610 57.7 298 
 BRR  HZ I        2315 46.11         7.4 0.28            153           57.7 298 
 RUS  HZ EP   1   2315 35.44                             137   -0.16 7  109 170 
 RUS  HN ES   1   2315 53.35                             137    0.21 7  109 170 
 RUS  HZ I        2315 54.22         2.6 0.24            137            109 170 
 PTB  HZ EP   2   2315 38.07                             129    0.50 5  138 255 
 ZAR  HZ EP       2315 42.73                             119   -0.16 9  191 291 
 ZAR  HE ES       2316  6.34                             119    0.23 9  191 291 
 ZAR  HZ I        2316  8.93         4.8 0.32            119            191 291 
 SML  HZ EP   1   2315 47.19                             114   -0.24 6  233 337 
 SML  HE ES   1   2316 14.88                             114    0.67 6  233 337 
 SML  HZ I        2316 15.93         5.3 0.06            114            233 337 
                                                                                
