 2017  219 2252 16.1 L   6.795 -73.123149.0  RSN  7 0.3 1.6LRSN                1
 GAP=140        0.62       3.0     2.9  5.0 -0.1367E+01  0.1488E+01  0.4609E+01E
 Epicentro: LOS SANTOS - SANTANDER                                             3
 ACTION:UPD 17-05-24 15:38 OP:jn   STATUS:               ID:20170219225216 L   I
 OLDACT:UP  17-02-20 04:13 OP:and  STATUS:               ID:20170219224743     3
 OLDACT:UP  17-02-20 04:12 OP:and  STATUS:               ID:20170219224743     3
 OLDACT:REG 17-02-20 02:46 OP:and  STATUS:               ID:20170219224743     3
 2017-02-19-2248-00M.COL___352                                                 6
 STAT SP IPHASW D HRMM SECON CODA AMPLIT PERI AZIMU VELO AIN AR TRES W  DIS CAZ7
 BRR  HZ EP       2252 37.78                             152    0.0210 73.7 298 
 BRR  HN ES       2252 55.02                             152    0.3810 73.7 298 
 PAM  EZ EP     C 2252 38.81                             151    0.1910 76.3  38 
 PAM  EN ES       2252 56.09                             151   -0.0710 76.3  38 
 PAM  EZ I        2252 58.17         7.8 0.48            155           76.3  38 
 RUS  HZ EP       2252 40.17                             145    0.0310 99.9 177 
 RUS  HN ES       2252 58.56                             145   -0.3210 99.9 177 
 RUS  HZ I        2252 59.89         9.4 0.34            145           99.9 177 
 PTB  HZ EP       2252 43.18                             132   -0.39 9  150 259 
 PTB  HN ES       2253  4.89                             132   -0.08 9  150 259 
 PTB  HZ I        2253  8.87         3.3 0.10            131            150 259 
 ZAR  HN ES   2   2253 14.29                             123   -0.43 4  207 292 
 ZAR  HZ I        2253 19.66         3.9 0.30            122            207 292 
 NOR  HN ES       2253 20.36                             119   -0.02 8  236 235 
 NOR  HZ I        2253 25.54         3.3 0.16            119            236 235 
 CHI  HZ EP       2252 54.26                             118    0.24 8  249 196 
 CHI  HN ES   2   2253 24.34                             118    0.77 4  249 196 
 CHI  HZ I        2253 29.47         1.5 0.48            118            249 196 
                                                                                
