 2016  319 2259 43.8 L   6.804 -73.170141.7  RSN  6 0.1 1.7LRSN                1
 GAP=133        0.44       2.0     2.0  3.4 -0.5907E+00  0.2346E+01 -0.1109E+00E
 Epicentro: LOS SANTOS - SANTANDER                                             3
 ACTION:UPD 16-05-13 21:25 OP:cam  STATUS:               ID:20160319225943 L   I
 OLDACT:UP  16-03-20 04:17 OP:drio STATUS:               ID:20160319225748d    3
 OLDACT:DUP 16-03-20 04:13 OP:drio STATUS:               ID:20160319225748d    3
 OLDACT:REG 16-03-20 02:55 OP:drio STATUS:               ID:20160319225745     3
 2016-03-19-2257-45M.COL___304                                                 6
 STAT SP IPHASW D HRMM SECON CODA AMPLIT PERI AZIMU VELO AIN AR TRES W  DIS CAZ7
 BAR2 EZ ES       23 0 17.58                             170   -0.2610 23.5 183 
 PAM  EZ EP       23 0  5.66                             150    0.0310 78.8  41 
 PAM  EN ES       23 0 22.75                             150    0.0610 78.8  41 
 PAM  EZ I        23 0 24.05        10.0 0.42            153           78.8  41 
 RUS  HZ EP       23 0  7.32                             143    0.1510  101 175 
 RUS  HN ES       23 0 25.58                             143    0.1510  101 175 
 RUS  HZ I        23 0 28.92         2.7 0.18            145            101 175 
 PTB  HZ EP       23 0  9.96                             132   -0.21 9  145 258 
 PTB  HE ES       23 0 30.85                             132    0.09 9  145 258 
 PTB  HZ I        23 0 32.50         7.1 0.18            132            145 258 
 SPBC HZ EP       23 0 11.65                             128   -0.18 9  162 218 
 SPBC HN ES       23 0 33.75                             128    0.03 9  162 218 
 SPBC HZ I        23 0 38.20        11.9 0.10            129            162 218 
 ZAR  HZ EP   4   23 0 17.26                             122    1.60 0  201 292 
 ZAR  HN ES       23 0 40.69                             122    0.14 9  201 292 
 ZAR  HZ I        23 0 47.20         9.3 0.26            123            201 292 
                                                                                
