 2010  919 2331 45.5 L   6.793 -73.132146.3  RSN  9 0.5 2.1LRSN                1
 GAP=160        0.88       5.2     8.6  9.0 -0.2107E+02  0.1321E+02 -0.3040E+01E
 Epicentro: LOS SANTOS - SANTANDER                                             3
 ACTION:UP  11-02-18 11:04 OP:tino STATUS:               ID:20100919233145 L   I
 2010-09-19-2330-32S.COL___121                                                 6
 STAT SP IPHASW D HRMM SECON CODA AMPLIT PERI AZIMU VELO SNR AR TRES W  DIS CAZ7
 BTL  SZ EP   1   2332  5.42                             172     0.3 7   20 313 
 BAR2 SZ EP   1   2332  5.00                             171    -0.1 7   23 194 
 BAR2 SZ ES   2   2332 19.70                             171    -0.8 5   23 194 
 BAR2 SZ I        2332 21.72        25.0 0.35                            23 194 
 BRR  HZ IP     C 2332  6.83                             152     0.110   73 299 
 BRR  HZ I        2332  7.13        46.7 0.25                            73 299 
 BRR  HN ES   2   2332 24.50                             152     1.1 5   73 299 
 RUS  HZ EP   1   2332  9.27                             144     0.1 7  100 177 
 RUS  HN ES   2   2332 27.77                             144     0.1 5  100 177 
 RUS  HZ I        2332 29.35         8.5 0.42                           100 177 
 GUE  SZ EP   1   2332 10.85                             139     0.6 7  117  11 
 GRA  SZ IP     C 2332 10.75                             137     0.010  126  17 
 GRA  SZ ES   2   2332 30.40                             137    -0.1 5  126  17 
 GRA  SZ I        2332 32.03        18.3 0.32                           126  17 
 OCA  SZ EP   1   2332 13.24                             130    -0.7 7  161 353 
 OCA  SZ ES   2   2332 35.48                             130    -0.6 5  161 353 
 OCA  SZ I        2332 40.77        13.9 0.51                           161 353 
 NOR  HZ EP   1   2332 21.05                             118    -0.3 6  236 235 
 NOR  HE ES   2   2332 48.57                             118    -0.7 4  236 235 
 RREF HZ EP   1   2332 32.14                             111     0.4 5  322 230 
 RREF HE ES   2   2333  7.72                             111     0.0 3  322 230 
 RREF HZ I        2333 16.87         5.1 0.35                           322 230 
                                                                                
