 2010  419 2159 45.2 L   6.829 -73.046143.7  RSN  8 0.5 2.6LRSN                1
 GAP=161        0.91       6.5     6.3  7.3 -0.2443E+02 -0.1379E+02  0.1515E+02E
 Epicentro: LOS SANTOS - SANTANDER                                             3
 ACTION:UPD 10-08-24 10:00 OP:vdl  STATUS:               ID:20100419215952 L   I
 2010-04-19-2158-12S.COL___100                                                 6
 STAT SP IPHASW D HRMM SECON CODA AMPLIT PERI AZIMU VELO AIN AR TRES W  DIS CAZ7
 BAR2 SZ IP       22 0  4.78                             167     0.010   30 210 
 BAR2 SZ ES   2   22 0 19.12                             167    -0.9 5   30 210 
 BRR  HZ IP     D 22 0  7.00                             150     0.310   80 293 
 BRR  HZ I        22 0  8.06       104.3 0.12                            80 293 
 BRR  HE ES       22 0 23.78                             150     0.410   80 293 
 OCA  SZ EP   1   22 0 13.09                             130    -0.1 7  159 349 
 OCA  SZ ES   2   22 0 34.43                             130    -0.7 5  159 349 
 OCA  SZ I        22 0 39.92        59.6 0.25                           159 349 
 HEL  HZ EP   1   22 0 26.93                             113     0.3 6  284 256 
 RREF BZ EP       22 0 31.96                             110    -0.5 7  332 230 
 RREF BE ES   1   22 1  9.25                             110    -0.1 5  332 230 
 RREF BZ I        22 1 14.67        11.9 0.50                           332 230 
 DBB  SZ EP       22 0 33.18                             109    -0.7 6  350 274 
 SDV  BZ EP   1   22 0 34.66                             109     0.7 5  350  49 
 SDV  BZ ES       22 1 11.61                             109    -0.4 6  350  49 
 PRA  HZ EP   1   22 0 40.45                             106     0.8 4  400 211 
 PRA  HN ES   2   22 1 21.63                             106    -0.5 3  400 211 
 PRA  HZ I        22 1 27.31        12.6 0.32                           400 211 
                                                                                
