 2016 1219 2204 49.7 L   6.775 -73.123149.7  RSN  6 0.3 1.8LRSN                1
 GAP=141        0.82       3.6     4.3  5.5 -0.1660E+01  0.2323E+01  0.5014E+01E
 Epicentro: LOS SANTOS - SANTANDER                                             3
 ACTION:UPD 17-01-11 20:16 OP:rebc STATUS:               ID:20161219220449 L   I
 OLDACT:UP  16-12-20 09:59 OP:ar   STATUS:               ID:20161219215744d    3
 OLDACT:DUP 16-12-20 09:52 OP:ar   STATUS:               ID:20161219215744d    3
 2016-12-19-2158-00M.COL___375                                                 6
 STAT SP IPHASW D HRMM SECON CODA AMPLIT PERI AZIMU VELO AIN AR TRES W  DIS CAZ7
 BAR2 EZ EP       22 5  9.60                             172   -0.1310 21.3 198 
 BAR2 EZ ES       22 5 25.11                             172   -0.2710 21.3 198 
 BAR2 EZ I        22 5 25.86        24.4 0.70            171           21.3 198 
 BRR  HZ EP       22 5 11.49                             152    0.0510 74.7 299 
 BRR  HN ES       22 5 28.97                             152    0.5510 74.7 299 
 BRR  HZ I        22 5 33.74        13.5 0.40            151           74.7 299 
 PAM  EZ EP       22 5 12.37                             151    0.0410 78.0  37 
 PAM  EN ES       22 5 30.03                             151    0.0110 78.0  37 
 PAM  EZ I        22 5 34.40         7.8 0.22            154           78.0  37 
 RUS  HZ EP       22 5 13.81                             145    0.2110 97.7 177 
 RUS  HN ES       22 5 32.04                             145   -0.2310 97.7 177 
 RUS  HZ I        22 5 33.60         7.9 0.28            148           97.7 177 
 PTB  HZ EP       22 5 16.45                             132   -0.68 9  150 260 
 PTB  HE ES       22 5 38.45                             132   -0.10 9  150 260 
 PTB  HZ I        22 5 42.79        10.8 0.42            133            150 260 
 CHI  HZ EP       22 5 27.67                             118    0.30 8  247 196 
 CHI  HN ES       22 5 57.19                             118    0.41 8  247 196 
 CHI  HZ I        22 6  1.04         3.0 0.34            120            247 196 
                                                                                
