 2016  919 2243 22.5 L   6.765 -73.138146.7  RSN  9 0.5 1.8LRSN                1
 GAP=139        1.06       4.0     4.4  7.0 -0.1725E+01  0.6790E+01  0.5522E+01E
 Epicentro: LOS SANTOS - SANTANDER                                             3
 ACTION:UPD 17-08-17 21:14 OP:lp   STATUS:               ID:20160919224322 L   I
 OLDACT:REG 16-09-20 05:22 OP:dnl  STATUS:               ID:20160919223737     3
 2016-09-19-2238-00M.COL___363                                                 6
 STAT SP IPHASW D HRMM SECON CODA AMPLIT PERI AZIMU VELO AIN AR TRES W  DIS CAZ7
 BAR2 EZ EP       2243 42.13                             172   -0.0310 19.8 194 
 BAR2 EZ ES       2243 57.13                             172   -0.3810 19.8 194 
 BAR2 EZ I        2244  0.03        20.7 0.32            169           19.8 194 
 BRR  HZ EP   2   2243 44.06                             152    0.17 5 73.8 301 
 BRR  HN ES       2244  1.36                             152    0.7810 73.8 301 
 BRR  HZ I        2244  3.68        15.0 0.38            149           73.8 301 
 PAM  EZ IP     D 2243 44.93                             150   -0.0210 79.9  37 
 PAM  EE ES       2244  2.09                             150   -0.3810 79.9  37 
 PAM  EZ I        2244  4.25         7.0 0.56            155           79.9  37 
 RUS  HZ EP       2243 46.28                             145    0.2210 96.7 176 
 RUS  HN ES       2244  4.75                             145    0.3110 96.7 176 
 RUS  HZ I        2244  7.58         5.0 0.42            147           96.7 176 
 PTB  HZ EP       2243 48.97                             132   -0.57 9  148 260 
 PTB  HE ES       2244 10.09                             132   -0.55 9  148 260 
 PTB  HZ I        2244 17.32        11.7 0.38            132            148 260 
 SPBC HZ EP       2243 51.09                             130    0.26 9  161 220 
 SPBC HN ES       2244 13.66                             130    0.72 9  161 220 
 SPBC HZ I        2244 17.68        10.7 0.12            130            161 220 
 ZAR  HZ EP   2   2243 56.11                             122    0.88 4  206 293 
 ZAR  HN ES       2244 20.65                             122   -0.11 8  206 293 
 ZAR  HZ I        2244 29.99         6.3 0.24            123            206 293 
 NOR  HZ EP   3   2243 57.81                             119   -0.30 2  233 235 
 NOR  HN ES       2244 25.79                             119   -0.10 8  233 235 
 NOR  HZ I        2244 31.66         5.3 0.34            120            233 235 
 CHI  HZ EP   2   2244  0.55                             118    0.69 4  245 196 
 CHI  HN ES       2244 28.23                             118   -0.79 8  245 196 
 CHI  HZ I        2244 32.02         2.6 0.30            120            245 196 
                                                                                
