 2014  319 2319 54.9 L   6.546 -73.539109.5  RSN 12 0.4 2.2LRSN                1
 GAP= 66        1.05       3.0     3.7  6.2 -0.3124E+01  0.1087E+02 -0.3038E+01E
 Epicentro: EL CARMEN DE CHUCURI - SANTANDER                                   3
 ACTION:UPD 14-04-09 23:19 OP:nd   STATUS:               ID:20140319231954 L   I
 OLDACT:REG 14-03-19 23:04 OP:nd   STATUS:               ID:20140319231837     3
 2014-03-19-2318-37M.COL___238                                                 6
 STAT SP IPHASW D HRMM SECON CODA AMPLIT PERI AZIMU VELO AIN AR TRES W  DIS CAZ7
 BAR2 SZ IP     C 2320 10.97                             159    0.2310 39.8  83 
 BAR2 SZ ES       2320 23.26                             159    0.1310 39.8  83 
 BAR2 SZ I        2320 25.11       260.2 0.46            167           39.8  83 
 BRR  HZ EP       2320 11.76                             147   -0.0410 64.9 343 
 BRR  HN ES       2320 24.87                             147   -0.1410 64.9 343 
 BRR  HZ I        2320 34.37        26.1 0.32            149           64.9 343 
 RUS  HZ EP       2320 14.06                             138   -0.1510 88.1 145 
 RUS  HN ES       2320 29.76                             138    0.4610 88.1 145 
 RUS  HZ I        2320 31.18        20.5 0.36            148           88.1 145 
 PTB  HZ IP     C 2320 13.80                             134   -0.8810  101 270 
 PTB  HN ES   2   2320 29.91                             134   -0.22 5  101 270 
 PTB  HZ I        2320 32.21        28.9 0.14            137            101 270 
 SPBC HZ EP       2320 15.93                             130   -0.0910  115 211 
 SPBC HN ES       2320 32.87                             130    0.3410  115 211 
 SPBC HZ I        2320 38.16        31.9 0.24            136            115 211 
 PAM  SZ EP       2320 17.52                             127   -0.2410  128  47 
 PAM  SN ES       2320 35.28                             127   -0.3410  128  47 
 PAM  SZ I        2320 39.55        10.0 0.36            134            128  47 
 ZAR  HZ EP       2320 23.20                             117    0.69 9  179 306 
 ZAR  HN ES   2   2320 44.49                             117    0.42 4  179 306 
 ZAR  HZ I        2320 47.58        33.1 0.46            121            179 306 
 NOR  HZ EP       2320 22.57                             116   -0.38 9  183 234 
 NOR  HN ES       2320 44.11                             116   -0.75 9  183 234 
 NOR  HZ I        2320 48.14        24.6 0.14            121            183 234 
 HEL  HZ EP       2320 28.29                             111    0.39 8  224 260 
 HEL  HN ES   2   2320 53.66                             111   -0.01 4  224 260 
 HEL  HZ I        2320 59.21        11.5 0.20            115            224 260 
 GUY2CHZ EP       2320 31.78                             108    0.77 8  249 234 
 GUY2CHN ES   2   2320 59.67                             108    0.47 4  249 234 
 GUY2CHZ I        2321  9.29        10.2 0.34                           249 234 
 SML  HZ EP       2320 30.81                             108   -0.38 8  256 347 
 SML  HN ES       2321  0.21                             108    0.68 8  256 347 
 SML  HZ I        2321  4.19        16.0 0.10            112            256 347 
 RREF HZ EP   4   2320 35.27                             107    1.61 0  271 228 
 RREF HN ES   4   2321  5.10                             107    1.18 0  271 228 
 RREF HZ I        2321  8.51         8.2 0.26            111            271 228 
                                                                                
