 2015  819 2029 19.9 L   6.779 -73.147139.3  RSN  7 0.4 1.9LRSN                1
 GAP=200        0.89       3.3     5.1  6.2  0.3743E+01  0.7753E+01 -0.3462E+01E
 Epicentro: LOS SANTOS - SANTANDER                                             3
 ACTION:UPD 15-09-15 23:03 OP:cam  STATUS:               ID:20150819202919 L   I
 OLDACT:UP  15-08-20 04:08 OP:mh   STATUS:               ID:20150819202751d    3
 OLDACT:DUP 15-08-20 04:03 OP:mh   STATUS:               ID:20150819202751d    3
 2015-08-19-2027-50M.COL___337                                                 6
 STAT SP IPHASW D HRMM SECON CODA AMPLIT PERI AZIMU VELO AIN AR TRES W  DIS CAZ7
 BAR2 EZ EP       2029 38.44                             171   -0.2210 21.0 191 
 BAR2 EZ ES       2029 53.23                             171   -0.1010 21.0 191 
 BAR2 EZ I        2029 54.43        14.5 0.34            162           21.0 191 
 BRR  HZ EP       2029 40.52                             151    0.1510 72.2 300 
 BRR  HN ES       2029 56.27                             151   -0.1010 72.2 300 
 BRR  HZ I        2031  6.65        33.3 0.40            147           72.2 300 
 RUS  HZ EP       2029 43.08                             143    0.2810 98.3 176 
 RUS  HN ES       2030  1.00                             143    0.2910 98.3 176 
 RUS  HZ I        2030 12.20         5.1 0.21            165           98.3 176 
 SPBC HZ EP   1   2029 46.85                             128   -0.83 7  161 219 
 SPBC HN ES       2030  9.12                             128   -0.27 9  161 219 
 SPBC HZ I        2030 16.31         7.9 0.30            144            161 219 
 ZAR  HZ EP       2029 52.80                             121    0.84 9  205 293 
 ZAR  HE ES       2030 17.16                             121    0.15 9  205 293 
 ZAR  HZ I        2030 28.56         7.1 0.30            130            205 293 
 NOR  HE ES       2030 22.44                             117   -0.07 8  233 235 
 NOR  HZ I        2030 30.57         3.8 0.14            133            233 235 
 SML  HZ EP   1   2029 55.61                             116   -0.74 6  246 336 
 SML  HN ES       2030 24.65                             116   -0.16 8  246 336 
 SML  HZ I        2030 34.02         8.7 0.10            126            246 336 
                                                                                
