 2017 1019 2124 14.6 L   6.967 -73.191148.7  RSN  8 0.4 1.6LRSN                1
 GAP=122        0.78       3.8     3.7  5.3 -0.2626E+01  0.5090E+01 -0.1442E+01E
 Epicentro: GIRON - SANTANDER                                                  3
 ACTION:UPD 17-11-07 19:33 OP:rebc STATUS:               ID:20171019212414 L   I
 OLDACT:UP  17-10-20 04:13 OP:mg   STATUS:               ID:20171019211741d    3
 OLDACT:UP  17-10-20 04:13 OP:mg   STATUS:               ID:20171019211741d    3
 OLDACT:DUP 17-10-20 04:03 OP:mg   STATUS:               ID:20171019211741d    3
 2017-10-19-2118-00M.COL___459                                                 6
 STAT SP IPHASW D HRMM SECON CODA AMPLIT PERI AZIMU VELO AIN AR TRES W  DIS CAZ7
 BAR2 EZ EP       2124 34.68                             164   -0.4210 41.4 179 
 BAR2 EZ ES   1   2124 50.60                             164   -0.47 7 41.4 179 
 BAR2 EZ I        2124 51.27        14.5 0.14            166           41.4 179 
 BRR  HZ EP       2124 36.01                             157    0.5210 59.6 285 
 BRR  HN ES       2124 52.16                             157    0.3810 59.6 285 
 BRR  HZ I        2124 55.07        18.7 0.13            157           59.6 285 
 PAM  EZ EP     D 2124 36.90                             154    0.2610 68.2  53 
 PAM  EE ES       2124 53.65                             154   -0.1610 68.2  53 
 PAM  EZ I        2125  0.26         3.3 0.16            157           68.2  53 
 RUS  HZ EP       2124 40.26                             140    0.1810  119 174 
 RUS  HN ES       2124 59.95                             140    0.0110  119 174 
 RUS  HZ I        2125  1.29         3.9 0.32            143            119 174 
 PTB  HZ EP       2124 41.73                             133   -0.09 9  148 251 
 PTB  HN ES       2125  2.92                             133   -0.12 9  148 251 
 PTB  HZ I        2125  6.06         3.0 0.12            135            148 251 
 ZAR  HZ EP   1   2124 46.43                             125    0.28 7  193 288 
 ZAR  HN ES   3   2125 11.36                             125    0.62 2  193 288 
 NOR  HN ES       2125 19.58                             118   -0.34 8  242 230 
 NOR  HZ I        2125 26.45         2.4 0.29            120            242 230 
 SJC  HZ EP       2125  7.60                             107   -0.56 6  391 326 
 SJC  HN ES   3   2125 47.63                             107   -2.29 1  391 326 
                                                                                
