 2017 1119 2136 34.9 L   7.391 -73.209132.5  RSN  4 0.1 1.2LRSN                1
 GAP=220        0.30       2.3     1.9  3.1 -0.1404E+01  0.2481E+01  0.4483E+00E
 Epicentro: EL PLAYON - SANTANDER                                              3
 ACTION:UPD 17-12-12 19:57 OP:rebc STATUS:               ID:20171119213634 L   I
 OLDACT:REG 17-11-20 05:30 OP:mg   STATUS:               ID:20171119212737     3
 2017-11-19-2128-00M.COL___474                                                 6
 STAT SP IPHASW D HRMM SECON CODA AMPLIT PERI AZIMU VELO AIN AR TRES W  DIS CAZ7
 PAM  EZ EP       2136 54.54                             156    0.0210 56.5  96 
 PAM  EN ES       2137  9.78                             156   -0.0510 56.5  96 
 PAM  EZ I        2137 10.89         3.4 0.14            160           56.5  96 
 BAR2 EZ EP       2136 56.21                             144    0.1110 88.3 178 
 BAR2 EZ ES   2   2137 12.81                             144    0.16 5 88.3 178 
 BAR2 EZ I        2137 13.67         6.8 0.11            145           88.3 178 
 RUS  HZ EP       2137  3.20                             125   -0.05 9  166 175 
 RUS  HN ES       2137 25.31                             125   -0.05 9  166 175 
 RUS  HZ I        2137 28.21         1.1 0.14            127            166 175 
 PTB  HZ EP       2137  2.67                             125   -0.01 9  167 236 
 PTB  HN ES       2137 24.33                             125   -0.03 9  167 236 
 PTB  HZ I        2137 28.63         1.5 0.16            126            167 236 
                                                                                
