 2017  719 2234 30.2 L   6.797 -73.279138.7  RSN  4 0.4 1.3LRSN                1
 GAP=192        0.98       7.4    11.1  8.8 -0.6220E+02  0.3979E+02 -0.1645E+02E
 Epicentro: ZAPATOCA - SANTANDER                                               3
 ACTION:UPD 17-08-30 15:35 OP:rebc STATUS:               ID:20170719223429 L   I
 OLDACT:UP  17-07-21 19:54 OP:nlst STATUS:               ID:20170719223429 L   3
 OLDACT:REG 17-07-20 02:39 OP:dhb  STATUS:               ID:20170719222739     3
 2017-07-19-2228-00M.COL___395                                                 6
 STAT SP IPHASW D HRMM SECON CODA AMPLIT PERI AZIMU VELO AIN AR TRES W  DIS CAZ7
 BAR2 EZ EP       2234 48.88                             169   -0.1610 25.0 155 
 BAR2 EZ ES       2235  4.10                             169    0.3810 25.0 155 
 BAR2 EZ I        2235  6.84         5.7 0.07            170           25.0 155 
 PAM  EZ IP     C 2234 52.29                             146   -0.0710 87.7  47 
 PAM  EN ES       2235  9.48                             146   -0.1510 87.7  47 
 PAM  EZ I        2235 12.01         4.7 0.30            148           87.7  47 
 RUS  HZ EP       2234 53.18                             142   -0.2310  102 168 
 RUS  HN ES       2235 11.58                             142    0.0810  102 168 
 RUS  HZ I        2235 13.35         2.8 0.23            144            102 168 
 SPBC HZ EP       2234 58.09                             129    0.78 9  154 215 
 SPBC HN ES       2235 17.85                             129   -0.60 9  154 215 
                                                                                
