 2016  319 2248 26.0 L   6.775 -73.164143.2  RSN  7 0.3 2.0LRSN                1
 GAP=135        0.72       3.1     3.1  4.9 -0.2055E+01  0.6107E+01 -0.1158E+01E
 Epicentro: LOS SANTOS - SANTANDER                                             3
 ACTION:UPD 16-05-13 21:25 OP:cam  STATUS:               ID:20160319224826 L   I
 OLDACT:REG 16-03-20 02:54 OP:drio STATUS:               ID:20160319224742     3
 2016-03-19-2247-42M.COL___304                                                 6
 STAT SP IPHASW D HRMM SECON CODA AMPLIT PERI AZIMU VELO AIN AR TRES W  DIS CAZ7
 BAR2 EZ EP       2248 45.28                             172   -0.0110 20.3 186 
 BAR2 EZ ES       2249  0.02                             172   -0.3010 20.3 186 
 BAR2 EZ I        2249  1.74        44.2 0.22            171           20.3 186 
 PAM  EZ EP       2248 48.30                             149    0.1210 80.8  39 
 PAM  EE ES       2249  5.61                             149    0.1510 80.8  39 
 PAM  EZ I        2249  7.80        13.6 0.64            154           80.8  39 
 RUS  HZ EP       2248 49.00                             144   -0.3310 98.0 175 
 RUS  HE ES       2249  7.72                             144    0.2010 98.0 175 
 RUS  HZ I        2249  9.08         8.2 0.36            148           98.0 175 
 PTB  HZ EP       2248 51.92                             132   -0.63 9  145 260 
 PTB  HN ES       2249 13.42                             132    0.17 9  145 260 
 PTB  HZ I        2249 20.43        10.4 0.42            132            145 260 
 SPBC HZ EP       2248 54.34                             129    0.34 9  160 219 
 SPBC HN ES       2249 15.94                             129    0.12 9  160 219 
 SPBC HZ I        2249 21.40        13.4 0.22            131            160 219 
 ZAR  HZ EP       2248 58.11                             122   -0.11 9  203 293 
 ZAR  HE ES       2249 23.49                             122    0.16 9  203 293 
 ZAR  HZ I        2249 30.18        10.0 0.30            123            203 293 
 NOR  HZ EP       2249  1.66                             118    0.41 8  231 235 
 NOR  HE ES       2249 28.52                             118   -0.21 8  231 235 
 NOR  HZ I        2249 32.37         5.5 0.18            120            231 235 
                                                                                
