 2015  619 2210 44.8 L   6.856 -73.086140.3  RSN 10 0.5 1.8LRSN                1
 GAP=189        0.93       2.6     5.3  6.3  0.4513E+00  0.1312E+02 -0.3784E-01E
 Epicentro: LOS SANTOS - SANTANDER                                             3
 ACTION:UPD 15-09-10 22:13 OP:cam  STATUS:               ID:20150619221044 L   I
 OLDACT:DUP 15-06-20 07:03 OP:ak   STATUS:               ID:20150619220751d    3
 OLDACT:REG 15-06-20 05:57 OP:ak   STATUS:               ID:20150619220750     3
 2015-06-19-2207-50M.COL___328                                                 6
 STAT SP IPHASW D HRMM SECON CODA AMPLIT PERI AZIMU VELO AIN AR TRES W  DIS CAZ7
 BAR2 EZ EP   1   2211  4.41                             167    0.47 7 31.1 200 
 BAR2 EZ ES       2211 18.71                             167   -0.1810 31.1 200 
 BAR2 EZ I        2211 20.81         9.2 0.21            166           31.1 200 
 RUS  HZ EP       2211  8.90                             141    0.4510  107 180 
 RUS  HN ES       2211 26.61                             141   -0.3010  107 180 
 RUS  HZ I        2211 30.83         5.0 0.41            143            107 180 
 OCA  HZ EP   1   2211 11.25                             129   -0.92 7  155 350 
 OCA  HN ES       2211 34.22                             129    0.68 9  155 350 
 OCA  HZ I        2211 39.82        20.4 0.30            132            155 350 
 ZAR  HZ EP   1   2211 17.86                             121    0.58 6  208 290 
 ZAR  HN ES       2211 42.26                             121   -0.37 8  208 290 
 ZAR  HZ I        2211 47.88         4.4 0.09            122            208 290 
 SML  HZ EP       2211 20.52                             116   -0.28 8  241 333 
 SML  HN ES       2211 48.47                             116   -0.42 8  241 333 
 NOR  HZ EP       2211 21.23                             116    0.06 8  244 234 
 NOR  HN ES       2211 49.57                             116    0.01 8  244 234 
 NOR  HZ I        2211 55.48         3.9 0.33            118            244 234 
 CHI  HZ EP   1   2211 23.03                             115   -0.00 6  256 196 
 CHI  HN ES       2211 52.76                             115   -0.11 8  256 196 
 CHI  HZ I        2211 56.49         2.8 0.37            117            256 196 
 GUY2CHZ EP   1   2211 29.85                             110    0.70 5  310 235 
 GUY2CHE ES       2212  4.19                             110    0.42 7  310 235 
 GUY2CHZ I        2212 13.00         2.4 0.63                           310 235 
 PRA  HZ EP       2211 38.40                             105   -0.73 6  401 210 
 PRA  HE ES   1   2212 21.31                             105   -0.22 4  401 210 
 ORTC HZ I        2212 27.64         2.4 0.43            107            404 216 
 SJC  HZ EP   4   2211 38.36                             105   -1.62 0  408 326 
 SJC  HN ES   4   2212 17.41                             105   -5.62 0  408 326 
                                                                                
