 2012 1119 2105 46.9 L   6.773 -73.110142.8  RSN  6 0.3 2.0LRSN 2.7WRSN        1
 SPEC AVERAGE  MO 13.1 ST  3.4 OM  2.5 f0 4.80 R0.3203 AL 2.70 WI 11.4 MW  2.7 3
 SPEC SD       MO  0.2 ST  3.4 OM  1.0 f0 1.08 R0.0636 AL      WI      MW  0.2 3
 GAP=194        0.89       5.4     5.3  7.2  0.1210E+02  0.6889E+01  0.6814E+01E
 Epicentro: LOS SANTOS - SANTANDER                                             3
 SPEC ZAR HH N MO 13.4 ST  8.2 OM  1.6 f0 6.31 R0.2330 AL 2.58 WI 17.4 MW  2.9 3
 SPEC ZAR HH N T21 644 K 0.000 GD  253 VS 4.20 DE 3.00 Q0230.0 QA 0.60 VS 4.20 3
 SPEC RUS HH N MO 12.8 ST0.500 OM  1.2 f0 3.84 R0.3828 AL 2.60 WI  8.6 MW  2.5 3
 SPEC RUS HH N T21 627 K 0.000 GD  172 VS 4.20 DE 3.00 Q0230.0 QA 0.60 VS 4.20 3
 SPEC BRR HH E MO 13.2 ST  1.6 OM  1.6 f0 4.26 R0.3451 AL 2.91 WI  8.2 MW  2.7 3
 SPEC BRR HH E T21 624 K 0.000 GD  161 VS 4.20 DE 3.00 Q0230.0 QA 0.60 VS 4.20 3
 ACTION:UPD 12-12-05 15:34 OP:}ep  STATUS:               ID:20121119210546 L   I
 2012-11-19-2100-00M.COL___233                                                 6
 STAT SP IPHASW D HRMM SECON CODA AMPLIT PERI AZIMU VELO AIN AR TRES W  DIS CAZ7
 BAR2 SZ IP       21 6  6.31                             171    0.1710 21.5 202 
 BAR2 SZ I        21 6  6.40        21.3 0.22                          21.5 202 
 GIR2 SZ EP       21 6  6.43                             165    0.1010 35.1 345 
 GIR2 SZ ES       21 6 21.00                             165   -0.4910 35.1 345 
 BRR  HZ EP       21 6  8.39                             150    0.3710 76.1 299 
 BRR  HE ES       21 6 24.80                             150    0.3010 76.1 299 
 BRR  HN I        21 6 28.67        29.1 0.18                          76.1 299 
 RUS  HZ EP       21 6 10.24                             144    0.1110 97.4 178 
 RUS  HN ES       21 6 28.26                             144    0.0110 97.4 178 
 RUS  HN I        21 6 29.12         8.4 0.40                          97.4 178 
 PTB  HZ EP       21 6 13.14                             131   -0.80 9  151 260 
 PTB  HN ES       21 6 35.16                             131    0.13 9  151 260 
 PTB  HN I        21 6 36.56        15.4 0.22                           151 260 
 ZAR  HN ES       21 6 45.23                             121    0.02 8  209 292 
                                                                                
