 2014  919 2321 45.3 L   6.825 -73.154142.4  RSN 15 0.4 2.3LRSN                1
 GAP= 70        0.93       2.4     3.1  5.2 -0.6277E+00  0.3820E+01  0.1228E+01E
 Epicentro: LOS SANTOS - SANTANDER                                             3
 ACTION:UPD 14-10-03 23:06 OP:nd   STATUS:               ID:20140919232145 L   I
 OLDACT:UP  14-09-20 06:13 OP:mh   STATUS:               ID:20140919231819d    3
 OLDACT:DUP 14-09-20 05:48 OP:mh   STATUS:               ID:20140919231819d    3
 2014-09-19-2318-18M.COL___293                                                 6
 STAT SP IPHASW D HRMM SECON CODA AMPLIT PERI AZIMU VELO AIN AR TRES W  DIS CAZ7
 BAR2 SZ IP     C 2322  4.70                             169    0.0910 26.0 187 
 BAR2 SZ ES   1   2322 19.05                             169   -0.59 7 26.0 187 
 BAR2 SZ I        2322 20.84        82.4 0.27            168           26.0 187 
 BRR  HZ EP   1   2322  6.65                             153    0.66 7 69.1 297 
 BRR  HN ES   1   2322 22.52                             153    0.41 7 69.1 297 
 BRR  HZ I        2322 23.67        26.6 0.30            153           69.1 297 
 PAM  SZ EP     C 2322  7.50                             151    0.4110 75.8  41 
 PAM  SN ES       2322 24.40                             151    0.3410 75.8  41 
 PAM  SZ I        2322 26.59        26.3 0.50            152           75.8  41 
 RUS  HZ EP       2322  8.64                             142   -0.3210  103 176 
 RUS  HN ES       2322 27.65                             142    0.2610  103 176 
 RUS  HZ I        2322 28.17        13.5 0.49            142            103 176 
 PTB  HZ EP       2322 11.44                             131   -0.55 9  147 258 
 PTB  HN ES       2322 32.15                             131   -0.64 9  147 258 
 PTB  HZ I        2322 39.91        21.7 0.30            131            147 258 
 OCA  HZ EP       2322 12.50                             129   -0.60 9  157 353 
 OCA  HN ES       2322 34.60                             129   -0.16 9  157 353 
 OCA  HZ I        2322 37.99        32.1 0.22            130            157 353 
 TAM  HZ EP   1   2322 13.03                             129    0.14 7  157 106 
 TAM  HN ES   1   2322 34.18                             129   -0.21 7  157 106 
 TAM  HZ I        2322 44.55        15.5 0.46            130            157 106 
 SPBC HZ EP       2322 13.62                             128   -0.10 9  165 218 
 SPBC HN ES       2322 35.65                             128   -0.22 9  165 218 
 SPBC HZ I        2322 40.73        21.3 0.30            128            165 218 
 ZAR  HZ EP   1   2322 17.73                             122    0.37 6  202 291 
 ZAR  HN ES       2322 42.63                             122    0.29 9  202 291 
 ZAR  HZ I        2322 48.38        23.8 0.50            122            202 291 
 SML  HZ EP   1   2322 21.06                             117   -0.38 6  241 335 
 SML  HN ES       2322 49.65                             117    0.03 8  241 335 
 SML  HZ I        2322 55.73        28.1 0.10            118            241 335 
 CHI  HZ EP   1   2322 22.97                             116   -0.14 6  251 195 
 CHI  HN ES   1   2322 52.04                             116   -0.54 6  251 195 
 CHI  HZ I        2322 59.01         9.2 0.50            116            251 195 
 GUY2CHZ EP   1   2322 29.17                             112    0.29 5  302 234 
 GUY2CHN ES       2323  3.62                             112    0.77 7  302 234 
 GUY2CHZ I        2323 11.13        12.5 0.38                           302 234 
 TOL  SZ EP       2322 34.30                             109    0.69 7  345 224 
 TOL  SN ES   4   2323 12.35                             109    1.09 0  345 224 
 TOL  SZ I        2323 21.25        18.8 0.17            109            345 224 
 MON  HZ EP   4   2322 37.22                             108    3.31 0  351 308 
 MON  HN ES   4   2323  9.56                             108   -2.25 0  351 308 
 PRA  HZ EP   1   2322 38.43                             106   -0.54 4  394 209 
 PRA  HN ES       2323 21.50                             106    0.70 6  394 209 
 PRA  HZ I        2323 25.54        13.2 0.28            106            394 209 
 SJC  HZ EP   4   2322 38.17                             105   -2.27 0  406 327 
 SJC  HN ES   4   2323 19.75                             105   -3.68 0  406 327 
 SJC  HZ I        2323 24.86         4.2 0.50            106            406 327 
                                                                                
