 2012 1119 2034 39.1 L   6.326 -73.686  3.2  RSN  4 0.1 1.5LRSN                1
 GAP=160        0.35       1.2     0.9  3.0  0.4028E+00 -0.7441E+00 -0.1475E+01E
 Epicentro: SANTA HELENA DEL OPON - SANTANDER                                  3
 ACTION:UPD 12-12-05 15:34 OP:}ep  STATUS:               ID:20121119203439 L   I
 2012-11-19-2030-00M.COL___233                                                 6
 STAT SP IPHASW D HRMM SECON CODA AMPLIT PERI AZIMU VELO AIN AR TRES W  DIS CAZ7
 BAR2 SZ ES       2034 57.64                              47   -0.1010 63.0  62 
 BAR2 SZ I        2034 58.73        51.5 0.20                          63.0  62 
 RUS  HZ EP       2034 52.67                              47   -0.0510 82.1 126 
 RUS  HN ES       2035  3.45                              47    0.0810 82.1 126 
 RUS  HN I        2035  4.44         7.0 0.34                          82.1 126 
 BRR  HE ES       2035  3.72                              47    0.0910 86.4 358 
 BRR  HE I        2035  4.56        29.6 0.72                          86.4 358 
 PTB  HZ EP       2034 53.23                              47    0.0510 88.5 286 
 PTB  HN ES       2035  4.13                              47   -0.0710 88.5 286 
 PTB  HN I        2035  6.92         6.9 0.24                          88.5 286 
                                                                                
