 2017 1019 2341 31.1 L   6.560 -73.482120.7  RSN  7 0.2 1.6LRSN                1
 GAP=107        0.59       2.6     2.4  3.9  0.2182E+01  0.9266E+00  0.1989E+01E
 Epicentro: EL CARMEN - SANTANDER                                              3
 ACTION:UPD 17-11-07 19:34 OP:rebc STATUS:               ID:20171019234131 L   I
 OLDACT:UP  17-10-20 05:19 OP:mg   STATUS:               ID:20171019233737     3
 OLDACT:UP  17-10-20 05:19 OP:mg   STATUS:               ID:20171019233737     3
 OLDACT:UP  17-10-20 05:19 OP:mg   STATUS:               ID:20171019233737     3
 OLDACT:UP  17-10-20 05:17 OP:mg   STATUS:               ID:20171019233737     3
 OLDACT:REG 17-10-20 03:33 OP:mg   STATUS:               ID:20171019233737     3
 2017-10-19-2338-00M.COL___462                                                 6
 STAT SP IPHASW D HRMM SECON CODA AMPLIT PERI AZIMU VELO AIN AR TRES W  DIS CAZ7
 BAR2 EZ EP       2341 47.88                             164   -0.1610 33.3  84 
 BAR2 EZ ES       2342  1.11                             164   -0.1310 33.3  84 
 BAR2 EZ I        2342  2.58        13.3 0.26            166           33.3  84 
 BRR  HZ EP       2341 49.38                             149    0.1110 65.6 337 
 BRR  HN ES       2342  3.58                             149    0.1610 65.6 337 
 BRR  HZ I        2342  5.71        14.4 0.34            148           65.6 337 
 RUS  HZ EP       2341 51.48                             142    0.1210 86.0 149 
 RUS  HE ES       2342  7.34                             142    0.1910 86.0 149 
 PTB  HZ EP       2341 52.32                             135   -0.1310  108 269 
 PTB  HN ES       2342  8.71                             135   -0.3810  108 269 
 PTB  HZ I        2342 12.40         3.8 0.10            134            108 269 
 SPBC HZ EP       2341 53.44                             132   -0.1810  120 213 
 SPBC HN ES       2342 11.49                             132    0.3310  120 213 
 SPBC HZ I        2342 13.33         4.8 0.14            132            120 213 
 YPLC HZ EP       2341 59.29                             120    0.01 9  177 136 
 YPLC HN ES       2342 21.04                             120   -0.20 9  177 136 
 YPLC HZ I        2342 23.85         7.9 0.39            122            177 136 
 ZAR  HZ EP   1   2342  0.37                             119    0.50 7  184 304 
 ZAR  HE ES   4   2342 23.98                             119    1.68 0  184 304 
 ZAR  HZ I        2342 29.00         4.1 0.28            119            184 304 
                                                                                
