 2014  719 2040 39.1 L   6.660 -73.134154.7  RSN  6 0.4 1.8LRSN                1
 GAP=200        1.06       8.1     8.1 10.5  0.3005E+02 -0.1187E+02 -0.3962E+02E
 Epicentro: VILLANUEVA - SANTANDER                                             3
 ACTION:UPD 15-03-16 20:45 OP:nd   STATUS:               ID:20140719204039 L   I
 OLDACT:UP  14-07-20 03:09 OP:cam  STATUS:               ID:20140719204000     3
 OLDACT:REG 14-07-20 02:11 OP:y    STATUS:               ID:20140719204000     3
 2014-07-19-2040-00M.COL___282                                                 6
 STAT SP IPHASW D HRMM SECON CODA AMPLIT PERI AZIMU VELO AIN AR TRES W  DIS CAZ7
 BAR2 SZ EP   1   2041  0.02                             176    0.45 7 9.27 216 
 BRR  HZ EP       2041  2.17                             151    0.4510 80.8 308 
 BRR  HN ES       2041 19.59                             151    0.2010 80.8 308 
 BRR  HN I        2041 20.55        21.3 0.24            137           80.8 308 
 RUS  HE ES       2041 20.63                             150   -0.4810 85.1 176 
 RUS  HE I        2041 23.39         7.4 0.28            137           85.1 176 
 PTB  HZ EP       2041  7.08                             134    0.39 9  147 265 
 PTB  HN ES       2041 28.29                             134    0.05 9  147 265 
 PTB  HZ I        2041 30.15         4.8 0.16            123            147 265 
 ZAR  HN ES       2041 38.76                             123   -0.46 8  212 296 
 ZAR  HN I        2041 43.89         8.8 0.34            110            212 296 
 SML  HZ EP       2041 16.96                             118   -0.81 8  258 336 
 SML  HZ I        2041 49.68         4.2 0.34            104            258 336 
                                                                                
