 2016  619 2357 40.7 L   6.803 -73.095141.7  RSN 24 0.7 2.8LRSN                1
 GAP=103        1.44       3.3     3.6  5.9 -0.2468E+01  0.3002E+01  0.4448E+01E
 Epicentro: LOS SANTOS - SANTANDER                                             3
 ACTION:UPD 16-07-21 22:20 OP:rebc STATUS:               ID:20160619235740 L   I
 OLDACT:UP  16-06-20 07:06 OP:edw  STATUS:               ID:20160619234744d    3
 OLDACT:DUP 16-06-20 06:54 OP:edw  STATUS:               ID:20160619234744d    3
 2016-06-19-2347-42M.COL___349                                                 6
 STAT SP IPHASW D HRMM SECON CODA AMPLIT PERI AZIMU VELO AIN AR TRES W  DIS CAZ7
 BAR2 EZ EP     C 2358  0.14                             169    0.2110 25.2 203 
 BAR2 EZ ES       2358 15.12                             169    0.2310 25.2 203 
 BAR2 EZ I        2358 17.55        84.8 0.36                          25.2 203 
 PAM  EZ EP       2358  2.99                             151    0.6810 73.7  36 
 PAM  EE ES       2358 19.70                             151    0.5710 73.7  36 
 PAM  EZ I        2358 22.09       140.0 0.44                          73.7  36 
 BRR  HZ EP     C 2358  2.05                             150    0.3110 76.1 296 
 BRR  HE ES       2358 18.73                             150    0.6110 76.1 296 
 BRR  HZ I        2358 23.01       139.7 0.12                          76.1 296 
 RUS  HZ EP       2358  4.07                             143   -0.0310  101 179 
 RUS  HE ES       2358 22.24                             143   -0.0810  101 179 
 RUS  HZ I        2358 23.42        64.0 0.24                           101 179 
 PTB  HZ EP       2358  7.03                             130   -0.87 9  153 259 
 PTB  HN ES       2358 27.54                             130   -1.54 9  153 259 
 PTB  HZ I        2358 30.43        64.3 0.22                           153 259 
 OCA  HZ EP       2358  8.46                             129   -0.33 9  161 351 
 OCA  HN ES       2358 30.20                             129   -0.46 9  161 351 
 OCA  HZ I        2358 35.48       151.9 0.18                           161 351 
 SPBC HZ EP       2358  9.20                             127   -0.10 9  167 220 
 SPBC HN ES       2358 31.23                             127   -0.34 9  167 220 
 SPBC HZ I        2358 38.37        87.0 0.20                           167 220 
 ZAR  HZ EP       2358 13.32                             121   -0.14 8  209 291 
 ZAR  HN ES       2358 39.02                             121    0.04 8  209 291 
 ZAR  HZ I        2358 44.20       126.6 0.42                           209 291 
 NOR  HZ EP       2358 16.12                             117   -0.63 8  239 235 
 NOR  HN ES       2358 44.23                             117   -0.61 8  239 235 
 NOR  HZ I        2358 47.00        41.0 0.18                           239 235 
 CHI  HZ EP       2358 18.37                             116   -0.05 8  250 196 
 CHI  HE ES       2358 48.29                             116    0.49 8  250 196 
 CHI  HZ I        2358 54.45        22.9 0.30                           250 196 
 ROSC BZ EP       2358 20.92                             116    1.93 8  256 212 
 ROSC BE ES       2358 49.49                             116    0.66 8  256 212 
 ROSC BZ I        2358 56.44        85.1 0.50                           256 212 
 HEL  HZ EP       2358 21.74                             113    0.37 7  278 256 
 HEL  HN ES       2358 53.10                             113    0.04 7  278 256 
 HEL  HZ I        2358 58.69        24.1 0.52                           278 256 
 URE  HZ EP   4   2358 21.42                             112   -0.77 0  289 291 
 URE  HN ES   4   2358 52.80                             112   -1.73 0  289 291 
 SOCV BZ EP       2358 23.24                             112    0.18 7  296  56 
 SOCV BN ES       2358 55.21                             112   -0.85 7  296  56 
 VIL  SZ EP       2358 24.12                             111   -0.02 7  305 193 
 VIL  SN ES       2358 57.94                             111   -0.05 7  305 193 
 GUY2CHZ EP       2358 25.59                             111    0.88 7  306 235 
 GUY2CHE ES       2358 59.30                             111    0.30 7  306 235 
 GUY2CHZ I        2359  5.40        26.1 0.30                           306 235 
 PTGC HZ EP       2358 23.38                             111   -0.84 7  307 160 
 PTGC HN ES       2358 56.52                             111   -1.61 7  307 160 
 PTGC HZ I        2358 58.96        31.2 0.40                           307 160 
 ELA  HZ EP       2358 29.47                             109    1.53 7  334 230 
 ELA  HN ES       2359  5.63                             109    0.88 7  334 230 
 ELA  HZ I        2359 14.28        22.1 0.56                           334 230 
 CBOC HZ EP       2358 28.42                             109    0.30 7  339 252 
 CBOC HN ES       2359  3.74                             109   -1.33 7  339 252 
 DBB  SZ EP       2358 28.33                             108   -0.37 7  345 274 
 DBB  SZ ES       2359  6.07                             108   -0.04 7  345 274 
 DBB  SZ I        2359  9.02        61.4 0.50                           345 274 
 ANIL HZ EP   4   2358 32.53                             108    1.65 0  361 225 
 ANIL HE ES   4   2359 12.73                             108    2.75 0  361 225 
 PRA  HZ EP       2358 34.47                             106   -0.01 6  395 210 
 PRA  HN ES       2359 15.97                             106   -0.43 6  395 210 
 PRA  HZ I        2359 23.49        25.0 0.28                           395 210 
 ORTC HZ EP       2358 35.24                             106    0.29 6  399 217 
 ORTC HN ES       2359 17.31                             106    0.09 6  399 217 
 ORTC HZ I        2359 22.03        22.3 0.44                           399 217 
 PAL  HZ EP       2358 36.36                             105    0.00 6  411 239 
 PAL  HN ES       2359 19.77                             105    0.04 6  411 239 
 PAL  HZ I        2359 26.09        12.4 0.38                           411 239 
 SJC  HZ EP   4   2358 35.04                             105   -1.47 0  412 326 
 SJC  HN ES   4   2359 15.82                             105   -4.19 0  412 326 
 SJC  HZ I        2359 20.18        16.6 0.36                           412 326 
 CRJC HZ EP   4   2358 40.81                             103   -2.25 0  467   3 
 CRJC HN ES   4   2359 26.55                             103   -5.12 0  467   3 
 YOT  HZ EP       2358 43.92                             102   -0.28 5  476 229 
 YOT  HN ES       2359 33.73                             102    0.03 5  476 229 
 SMAR HZ EP   4   2358 45.04                             102   -1.60 0  498 346 
 SMAR HN ES   4   2359 34.40                             102   -3.64 0  498 346 
 MACC HZ EP   4   2358 47.07                             101   -2.42 0  522 189 
 MACC HE ES   4   2359 39.26                             101   -3.86 0  522 189 
                                                                                
