 2010 1019 2029 13.8 L   6.822 -73.265117.7  RSN  6 0.1 1.5LRSN                1
 GAP=137        0.33       2.3     5.8  3.9  0.3446E+01 -0.9490E+01 -0.3181E+01E
 Epicentro: ZAPATOCA - SANTANDER                                               3
 ACTION:UP  11-02-18 11:10 OP:tino STATUS:               ID:20101019202913 L   I
 2010-10-19-2027-44S.COL___126                                                 6
 STAT SP IPHASW D HRMM SECON CODA AMPLIT PERI AZIMU VELO SNR AR TRES W  DIS CAZ7
 BTL  SZ EP   1   2029 29.98                             174     0.2 7   11 359 
 BAR2 SZ EP       2029 30.14                             166     0.010   27 161 
 BAR2 SZ ES   1   2029 42.85                             166    -0.1 7   27 161 
 BAR2 SZ I        2029 44.53        24.4 0.34                            27 161 
 BRR  HZ EP   2   2029 31.10                             152    -0.1 5   59 303 
 BRR  HE ES   2   2029 44.66                             152    -0.1 5   59 303 
 RUS  HZ EP       2029 35.20                             136     0.010  105 169 
 RUS  HZ I        2029 35.71         2.1 0.09                           105 169 
 RUS  HE ES   2   2029 51.97                             136     0.0 5  105 169 
 GUE  SZ EP       2029 36.21                             132     0.110  118  19 
 GRA  SZ EP   2   2029 36.58                                    -0.3 5  128  23 
                                                                                
