 2012  219 2313 13.8 L   6.778 -73.186129.2  RSN  4 0.3 0.9LRSN                1
 GAP=141        0.65       4.1     4.9  9.7 -0.5302E+01  0.1466E+02  0.4575E+01E
 ACTION:UP  12-03-07 16:32 OP:epov STATUS:               ID:20120219231313 L   I
 2012-02-19-2310-00M.COL___191                                                 6
 STAT SP IPHASW D HRMM SECON CODA AMPLIT PERI AZIMU VELO AIN AR TRES W  DIS CAZ7
 PAM  SZ EP   1   2313 35.05                             146    0.41 7 82.1  41 
 PAM  SE ES   1   2313 50.84                             146   -0.02 7 82.1  41 
 RUS  HZ EP   1   2313 35.51                             141   -0.34 7 98.6 173 
 RUS  HN ES   1   2313 52.85                             141   -0.17 7 98.6 173 
 RUS  HZ I        2313 56.72         1.5 0.24                          98.6 173 
 PTB  HZ EP   1   2313 38.64                             129   -0.41 7  143 259 
 PTB  HN ES   1   2313 58.89                             129    0.17 7  143 259 
 CHI  HN ES   1   2314 19.28                             114    0.55 6  245 194 
                                                                                
