 2017  119 2214 24.7 L   6.790 -73.163147.8  RSN  8 0.4 1.8LRSN                1
 GAP=135        0.95       3.7     4.0  5.9  0.1147E-01  0.6030E+01  0.5592E+01E
 Epicentro: LOS SANTOS - SANTANDER                                             3
 ACTION:UPD 17-05-22 16:01 OP:jn   STATUS:               ID:20170119221424 L   I
 OLDACT:REG 17-01-20 04:25 OP:ar   STATUS:               ID:20170119220745     3
 2017-01-19-2208-00M.COL___325                                                 6
 STAT SP IPHASW D HRMM SECON CODA AMPLIT PERI AZIMU VELO AIN AR TRES W  DIS CAZ7
 BAR2 EZ EP   2   2214 44.35                             171   -0.18 5 22.0 186 
 BAR2 EZ ES       2215  0.08                             171    0.0710 22.0 186 
 BAR2 EZ I        2215  0.47        18.1 0.24            170           22.0 186 
 BRR  HZ EP       2214 46.15                             153    0.1610 70.1 300 
 BRR  HN ES       2215  3.43                             153    0.8210 70.1 300 
 PAM  EZ EP       2214 47.25                             150    0.0110 79.4  40 
 PAM  EN ES       2215  4.48                             150   -0.3410 79.4  40 
 PAM  EZ I        2215  7.47         8.2 0.42            154           79.4  40 
 RUS  HZ EP       2214 48.68                             144    0.1110 99.7 175 
 RUS  HN ES       2215  7.03                             144   -0.1710 99.7 175 
 RUS  HZ I        2215  9.63         4.6 0.32            145           99.7 175 
 PTB  HZ EP       2214 51.04                             133   -0.59 9  146 259 
 PTB  HE ES       2215 11.92                             133   -0.73 9  146 259 
 PTB  HZ I        2215 16.96         8.4 0.60            132            146 259 
 ZAR  HZ EP   2   2214 58.01                             123    0.89 4  203 293 
 ZAR  HN ES       2215 22.23                             123   -0.20 9  203 293 
 ZAR  HZ I        2215 28.36         8.7 0.26            123            203 293 
 NOR  HZ EP       2215  0.58                             119    0.28 8  233 234 
 NOR  HN ES       2215 28.31                             119    0.23 8  233 234 
 NOR  HZ I        2215 33.44         4.9 0.32            119            233 234 
 CHI  HZ EP       2215  2.51                             118    0.18 8  247 195 
 CHI  HN ES       2215 31.80                             118    0.11 8  247 195 
 CHI  HZ I        2215 36.90         4.5 0.40            118            247 195 
                                                                                
