 2011  219 2249 39.3 L   6.786 -73.026147.4  RSN  8 0.4 2.1LRSN                1
 GAP=172        0.87       3.8     8.7  8.0 -0.1526E+02  0.2193E+02 -0.2713E+01E
 Epicentro: CEPITA - SANTANDER                                                 3
 ACTION:UP  11-03-28 15:09 OP:jfem STATUS:               ID:20110219224939 L   I
 2011-02-19-2247-09S.COL___137                                                 6
 STAT SP IPHASW D HRMM SECON CODA AMPLIT PERI AZIMU VELO SNR AR TRES W  DIS CAZ7
 BAR2 SZ EP   1   2249 59.41                             169     0.2 8   28 219 
 BAR2 SZ ES   1   2250 14.21                             169    -0.5 8   28 219 
 BAR2 SZ I        2250 16.02        24.9 0.17                            28 219 
 RUS  HZ EP   1   2250  3.40                             144     0.3 8   99 184 
 RUS  HE ES   1   2250 21.96                             144     0.3 8   99 184 
 RUS  HZ I        2250 23.35        10.9 0.19                            99 184 
 GRA  SZ IP       2250  4.30                             138    -0.210  124  11 
 GRA  SZ I        2250  5.74        21.5 0.30                           124  11 
 GRA  SZ ES   1   2250 23.84                             138    -0.3 7  124  11 
 OCA  SZ EP   1   2250  8.14                             129     0.1 7  164 349 
 OCA  SZ ES   1   2250 31.14                             129     0.7 7  164 349 
 OCA  SZ I        2250 36.47        15.2 0.22                           164 349 
 NOR  SZ EP   1   2250 15.39                             118    -0.8 6  245 237 
 CHI  HZ EP   1   2250 17.33                             117     0.0 6  251 198 
 CHI  HN ES   1   2250 47.00                             117     0.0 6  251 198 
 CHI  HZ I        2250 54.66         4.2 0.32                           251 198 
 HEL  HN ES   2   2250 53.76                             114     0.3 4  285 257 
 HEL  HZ I        2250 57.89         7.3 0.31                           285 257 
 RREF HN ES   1   2251  3.32                             110    -0.1 5  331 231 
 RREF HZ I        2251  7.95         6.7 0.18                           331 231 
                                                                                
