 2012  419 2011 17.7 L   6.794 -73.155144.3  RSN  6 0.3 1.6LRSN                1
 GAP=136        0.68       4.8     4.4  7.6 -0.6491E+00  0.1133E+02 -0.4746E+01E
 Epicentro: LOS SANTOS - SANTANDER                                             3
 ACTION:UPD 12-07-05 11:54 OP:tino STATUS:               ID:20120419201117 L   I
 2012-04-19-2010-00M.COL___187                                                 6
 STAT SP IPHASW D HRMM SECON CODA AMPLIT PERI AZIMU VELO AIN AR TRES W  DIS CAZ7
 BAR2 SZ ES   1   2011 52.61                             171     0.3 7   22 188 
 BAR2 SZ I        2011 53.26        10.5 0.30                            22 188 
 BRR  HZ EP   1   2011 38.89                             152     0.2 7   71 299 
 BRR  HZ I        2011 39.25        14.4 0.28                            71 299 
 PAM  SZ EP   1   2011 39.97                             150     0.1 7   79  40 
 PAM  SN ES   1   2011 56.69                             150    -0.4 7   79  40 
 RUS  HZ EP   1   2011 41.33                             144     0.1 7  100 175 
 RUS  HN ES   1   2011 59.63                             144     0.0 7  100 175 
 RUS  HZ I        2012  0.93         6.2 0.40                           100 175 
 PTB  HZ EP   1   2011 44.07                             132    -0.4 7  147 259 
 PTB  HN ES   1   2012  4.94                             132    -0.4 7  147 259 
 PTB  HZ I        2012  6.88         3.5 0.28                           147 259 
 ZAR  HE ES   1   2012 15.51                             122     0.4 6  203 292 
                                                                                
