 2017 1019 2245 54.0 L   6.817 -73.172146.0  RSN 14 0.5 2.1LRSN                1
 GAP=109        1.10       3.8     3.9  6.2 -0.2226E+00  0.3913E+01  0.7088E+01E
 Epicentro: LOS SANTOS - SANTANDER                                             3
 ACTION:UPD 17-11-07 19:33 OP:rebc STATUS:               ID:20171019224554 L   I
 OLDACT:UP  17-10-20 05:01 OP:mg   STATUS:               ID:20171019223231     3
 OLDACT:UP  17-10-20 05:00 OP:mg   STATUS:               ID:20171019223231     3
 OLDACT:REG 17-10-20 03:28 OP:mg   STATUS:               ID:20171019223231     3
 2017-10-19-2238-00M.COL___459                                                 6
 STAT SP IPHASW D HRMM SECON CODA AMPLIT PERI AZIMU VELO AIN AR TRES W  DIS CAZ7
 BAR2 EZ EP       2246 13.50                             170   -0.1810 24.8 183 
 BAR2 EZ ES   1   2246 28.40                             170   -0.63 7 24.8 183 
 BAR2 EZ I        2246 30.07        29.5 0.18            168           24.8 183 
 BRR  HZ IP     D 2246 15.27                             154    0.3010 67.7 298 
 BRR  HE ES       2246 32.23                             154    0.9010 67.7 298 
 BRR  HZ I        2246 35.63        32.8 0.22            152           67.7 298 
 PAM  EZ IP     D 2246 16.45                             151    0.1910 77.9  42 
 PAM  EN ES       2246 33.49                             151   -0.1410 77.9  42 
 PAM  EZ I        2246 35.91        14.2 0.59            155           77.9  42 
 RUS  HZ EP     D 2246 17.49                             143   -0.4210  103 174 
 RUS  HN ES       2246 36.27                             143   -0.3010  103 174 
 RUS  HZ I        2246 37.31        15.1 0.22            144            103 174 
 PTB  HZ EP       2246 19.98                             133   -0.76 9  145 258 
 PTB  HN ES       2246 41.10                             133   -0.52 9  145 258 
 PTB  HZ I        2246 43.32        11.6 0.13            132            145 258 
 SPBC HZ EP       2246 22.39                             129   -0.08 9  163 218 
 SPBC HN ES       2246 45.19                             129    0.51 9  163 218 
 SPBC HZ I        2246 50.39        19.3 0.16            129            163 218 
 YPLC HZ EP       2246 23.99                             126   -0.11 9  180 151 
 YPLC HN ES       2246 48.17                             126    0.59 9  180 151 
 YPLC HZ I        2246 48.92        19.4 0.25            128            180 151 
 ZAR  HZ EP   1   2246 25.63                             123   -0.46 6  201 292 
 ZAR  HE ES   2   2246 50.70                             123   -0.44 4  201 292 
 ZAR  HZ I        2246 56.81        14.6 0.36            123            201 292 
 TABC EZ EP   1   2246 30.80                             119    1.04 6  230 210 
 TABC EZ ES   4   2246 59.76                             119    2.10 0  230 210 
 TABC EZ I        2247  3.20        24.4 0.04            120            230 210 
 NOR  HZ EP       2246 29.99                             119    0.40 8  233 234 
 NOR  HN ES       2246 57.77                             119    0.41 8  233 234 
 NOR  HZ I        2247  5.36         9.9 0.18            119            233 234 
 CHI  HZ EP       2246 31.79                             117   -0.02 8  250 194 
 CHI  HE ES       2247  0.91                             117   -0.40 8  250 194 
 CHI  HZ I        2247  4.37         7.7 0.38            118            250 194 
 GUY2CHZ EP   4   2246 39.18                             112    1.73 0  300 234 
 GUY2CHN ES   1   2247 10.90                             112   -0.46 5  300 234 
 GUY2CHZ I        2247 18.75         5.2 0.25                           300 234 
 PRA  HZ EP       2246 47.90                             107    0.37 6  392 209 
 PRA  HE ES   4   2247 26.59                             107   -2.71 0  392 209 
 PRA  HZ I        2247 37.83         4.0 0.38            107            392 209 
 SJC  HZ EP   4   2246 47.66                             106   -1.52 0  406 327 
 SJC  HN ES   4   2247 28.83                             106   -3.41 0  406 327 
 SJC  HZ I        2247 36.29         2.5 0.46            107            406 327 
                                                                                
