 2011  719 2347 12.1 L   6.867 -73.316120.0  RSN 11 0.3 1.8LRSN                1
 GAP=102        0.63       2.4     3.8  4.8 -0.2775E+01  0.3156E+01 -0.4657E+00E
 Epicentro: BETULIA - SANTANDER                                                3
 ACTION:UPD 12-07-25 14:02 OP:epov STATUS:               ID:20110719234712 L   I
 2011-07-19-2345-12S.COL___143                                                 6
 STAT SP IPHASW D HRMM SECON CODA AMPLIT PERI AZIMU VELO AIN AR TRES W  DIS CAZ7
 GIR2 SZ EP   1   2347 28.85                             167    0.29 7 27.1  30 
 BAR2 SZ EP       2347 28.90                             163   -0.0210 33.8 154 
 BAR2 SZ I        2347 29.18        36.7 0.10                          33.8 154 
 BAR2 SZ ES   1   2347 41.49                             163   -0.57 7 33.8 154 
 BRR  HZ EP       2347 29.21                             155   -0.1010 51.1 301 
 BRR  HN ES   1   2347 43.29                             155    0.52 7 51.1 301 
 BRR  HZ I        2347 43.55        16.4 0.13                          51.1 301 
 PAM  SZ EP   1   2347 32.71                             142    0.49 7 85.9  52 
 PAM  SN ES   1   2347 48.33                             142    0.39 7 85.9  52 
 BRI  SZ EP   1   2347 33.92                             135    0.17 7  110  31 
 BRI  SZ ES   1   2347 50.72                             135    0.06 7  110  31 
 BRI  SZ I        2347 54.36        10.6 0.46                           110  31 
 RUS  HZ EP   1   2347 34.27                             135    0.03 7  111 167 
 RUS  HN ES   1   2347 51.44                             135   -0.10 7  111 167 
 RUS  HZ I        2347 52.54         5.2 0.16                           111 167 
 GRA  SZ EP   1   2347 34.89                             130   -0.26 7  126  27 
 GRA  SZ ES   1   2347 52.77                             130   -0.39 7  126  27 
 GRA  SZ I        2347 55.31        14.7 0.24                           126  27 
 OCA  SZ EP       2347 37.28                             125   -0.36 9  152 360 
 OCA  SZ ES   1   2347 57.59                             125    0.00 7  152 360 
 OCA  SZ I        2347 58.70        25.2 0.29                           152 360 
 NOR  SN ES   2   2348 11.27                             114    0.10 4  224 230 
 CHI  HZ EP   1   2347 49.03                             111    0.21 6  252 191 
 CHI  HZ I        2347 49.55         2.7 0.13                           252 191 
 HEL  HN ES   2   2348 18.06                             111   -0.18 4  256 253 
                                                                                
