 2015  919 2159 42.6 L   6.884 -73.243146.0  RSN  5 0.6 1.7LRSN                1
 GAP=255        1.41       7.7    13.3 11.5 -0.4272E+02 -0.2988E+02  0.1285E+02E
 Epicentro: BETULIA - SANTANDER                                                3
 ACTION:UPD 15-10-28 16:27 OP:cam  STATUS:               ID:20150919215942 L   I
 OLDACT:REG 15-09-20 03:50 OP:stll STATUS:               ID:20150919215750     3
 2015-09-19-2157-50M.COL___346                                                 6
 STAT SP IPHASW D HRMM SECON CODA AMPLIT PERI AZIMU VELO AIN AR TRES W  DIS CAZ7
 BRR  HZ IP     C 22 0  2.78                             157   -0.2510 57.4 295 
 BRR  HZ I        22 0  2.89        15.0 0.12            145           57.4 295 
 BRR  HN ES       22 0 19.64                             157    0.6510 57.4 295 
 PTB  HZ EP       22 0  7.76                             134   -1.05 9  139 254 
 PTB  HN ES       22 0 28.76                             134   -0.53 9  139 254 
 PTB  HZ I        22 0 31.72         4.5 0.28            128            139 254 
 ZAR  HZ EP       22 0 14.53                             124    0.87 9  191 291 
 ZAR  HN ES       22 0 38.07                             124    0.15 9  191 291 
 ZAR  HZ I        22 0 44.08         4.2 0.54            119            191 291 
 SML  HZ EP       22 0 17.82                             119   -0.00 8  231 337 
 SML  HN ES     C 22 0 44.88                             119   -0.44 8  231 337 
 SML  HZ I        22 0 55.83         5.6 0.22            114            231 337 
 GUY2CHZ EP       22 0 26.69                             113    0.85 7  298 232 
 GUY2CHN ES       22 0 59.75                             113    0.16 7  298 232 
 GUY2CHZ I        22 1  7.45         1.9 0.38                           298 232 
                                                                                
