 2017  219 2122 45.1 L   6.780 -73.114142.0  RSN  5 0.3 1.5LRSN                1
 GAP=141        0.68       3.5     3.1  6.0  0.7056E+00  0.3716E+01  0.2018E+01E
 Epicentro: LOS SANTOS - SANTANDER                                             3
 ACTION:UPD 17-05-24 15:38 OP:jn   STATUS:               ID:20170219212245 L   I
 OLDACT:UP  17-02-20 03:19 OP:and  STATUS:               ID:20170219211742     3
 OLDACT:UP  17-02-20 03:18 OP:and  STATUS:               ID:20170219211742     3
 OLDACT:REG 17-02-20 02:40 OP:and  STATUS:               ID:20170219211742     3
 2017-02-19-2118-00M.COL___352                                                 6
 STAT SP IPHASW D HRMM SECON CODA AMPLIT PERI AZIMU VELO AIN AR TRES W  DIS CAZ7
 BRR  HZ EP       2123  6.27                             151    0.1610 75.3 299 
 BRR  HN ES       2123 22.91                             151    0.4310 75.3 299 
 PAM  EZ EP     C 2123  6.84                             150   -0.0810 77.0  37 
 PAM  EN ES       2123 23.66                             150   -0.2510 77.0  37 
 PAM  EZ I        2123 26.03        10.4 0.50            152           77.0  37 
 RUS  HZ EP       2123  8.41                             144    0.0810 98.2 178 
 RUS  HN ES       2123 26.56                             144    0.1210 98.2 178 
 RUS  HZ I        2123 28.29         4.4 0.38            146           98.2 178 
 PTB  HZ EP       2123 11.87                             131   -0.19 9  151 260 
 PTB  HN ES       2123 32.61                             131   -0.47 9  151 260 
 PTB  HZ I        2123 34.53         3.1 0.16            131            151 260 
 ZAR  HZ EP   3   2123 19.01                             121    1.26 2  208 292 
 ZAR  HN ES       2123 43.26                             121    0.06 8  208 292 
 ZAR  HZ I        2123 48.45         3.7 0.26            122            208 292 
                                                                                
