 2016 1019 2042 41.9 L   6.802 -73.194141.9  RSN  4 0.3 1.6LRSN                1
 GAP=144        0.82       4.9     4.7  7.0 -0.7228E+01  0.9746E+01 -0.3552E+01E
 Epicentro: ZAPATOCA - SANTANDER                                               3
 ACTION:UPD 16-11-09 19:21 OP:rebc STATUS:               ID:20161019204241 L   I
 OLDACT:DUP 16-10-20 03:31 OP:lv   STATUS:               ID:20161019203750d    3
 2016-10-19-2038-00M.COL___346                                                 6
 STAT SP IPHASW D HRMM SECON CODA AMPLIT PERI AZIMU VELO AIN AR TRES W  DIS CAZ7
 BAR2 EZ ES       2043 15.79                             170   -0.1910 23.2 177 
 BAR2 EZ I        2043 17.34        15.5 0.10            171           23.2 177 
 PAM  EZ IP     C 2043  3.94                             149    0.0610 80.8  43 
 PAM  EE ES       2043 21.11                             149    0.0610 80.8  43 
 PAM  EZ I        2043 23.25         9.3 0.70            151           80.8  43 
 RUS  HZ EP       2043  5.68                             143    0.3810  101 173 
 RUS  HN ES       2043 23.44                             143   -0.1310  101 173 
 RUS  HZ I        2043 25.55         4.0 0.20            145            101 173 
 PTB  HZ EP       2043  7.46                             132   -0.59 9  143 258 
 PTB  HN ES       2043 28.85                             132    0.39 9  143 258 
 PTB  HZ I        2043 31.61         5.2 0.13            133            143 258 
                                                                                
