 2014  319 2154 42.4 L   6.783 -73.161147.6  RSN  4 0.4 1.6LRSN                1
 GAP=135        1.12       6.2     5.9  9.9 -0.4178E+01  0.4757E+01  0.8099E+01E
 Epicentro: LOS SANTOS - SANTANDER                                             3
 ACTION:UPD 14-04-09 23:19 OP:nd   STATUS:               ID:20140319215442 L   I
 OLDACT:REG 14-03-19 21:41 OP:nd   STATUS:               ID:20140319215042     3
 2014-03-19-2150-42M.COL___247                                                 6
 STAT SP IPHASW D HRMM SECON CODA AMPLIT PERI AZIMU VELO AIN AR TRES W  DIS CAZ7
 BRR  HZ EP     C 2155  3.98                             153    0.2610 70.6 301 
 BRR  HN ES       2155 21.08                             153    0.7410 70.6 301 
 BRR  HZ I        2155 24.25        15.7 0.34            153           70.6 301 
 PAM  SZ EP       2155  4.99                             150    0.0310 80.0  40 
 PAM  SN ES       2155 22.02                             150   -0.5410 80.0  40 
 PAM  SZ I        2155 24.28         7.5 0.64            152           80.0  40 
 RUS  HZ EP       2155  6.53                             145    0.3210 98.8 175 
 RUS  HN ES       2155 24.76                             145   -0.0110 98.8 175 
 RUS  HZ I        2155 25.52         3.3 0.22            148           98.8 175 
 PTB  HZ EP       2155  9.06                             133   -0.27 9  146 259 
 PTB  HN ES       2155 29.70                             133   -0.64 9  146 259 
 PTB  HZ I        2155 32.14         5.4 0.12            135            146 259 
                                                                                
