 2015  719 2121 22.2 L   6.890 -73.222134.0  RSN  6 0.4 1.8LRSN                1
 GAP=156        0.57       6.9     5.9  6.8 -0.2668E+02  0.2431E+02 -0.1300E+02E
 Epicentro: BETULIA - SANTANDER                                                3
 ACTION:UPD 15-09-08 21:49 OP:cam  STATUS:               ID:20150719212122 L   I
 OLDACT:REG 15-07-20 02:49 OP:ar   STATUS:               ID:20150719211748     3
 2015-07-19-2117-48M.COL___334                                                 6
 STAT SP IPHASW D HRMM SECON CODA AMPLIT PERI AZIMU VELO AIN AR TRES W  DIS CAZ7
 BAR2 EZ EP       2121 40.76                             165    0.0410 33.2 172 
 BAR2 EZ ES       2121 55.39                             165    0.2610 33.2 172 
 BAR2 EZ I        2121 59.24        12.0 0.26            171           33.2 172 
 PAM  EZ EP   2   2121 43.00                             149   -0.14 5 76.2  49 
 PAM  EE ES   2   2121 59.04                             149   -0.40 5 76.2  49 
 PAM  EZ I        2122  3.14        15.1 0.62            154           76.2  49 
 RUS  HZ EP   2   2121 45.30                             138   -0.41 5  111 172 
 RUS  HN ES   2   2122  3.66                             138   -0.35 5  111 172 
 RUS  HZ I        2122  6.17         7.4 0.40            147            111 172 
 NOR  HE ES       2122 24.49                             116   -0.04 8  234 231 
 HEL  HZ EP   2   2122  2.10                             113    0.84 4  267 253 
 HEL  HN ES   2   2122 30.86                             113   -0.84 4  267 253 
 HEL  HZ I        2122 39.25         4.8 0.30            116            267 253 
 GUY2CHZ EP   2   2122  5.80                             110    0.57 4  300 232 
 GUY2CHE ES   2   2122 38.60                             110   -0.16 4  300 232 
 GUY2CHZ I        2122 47.47         5.3 0.74                           300 232 
                                                                                
