 2016 1219 2139 51.0 L   6.812 -73.152144.6  RSN  9 0.5 2.0LRSN                1
 GAP=135        1.27       4.7     5.0  7.3 -0.8216E+00  0.1171E+02  0.7973E+01E
 Epicentro: LOS SANTOS - SANTANDER                                             3
 ACTION:UPD 17-01-11 20:16 OP:rebc STATUS:               ID:20161219213951 L   I
 OLDACT:UP  16-12-20 09:25 OP:ar   STATUS:               ID:20161219212750     3
 OLDACT:UP  16-12-20 09:24 OP:ar   STATUS:               ID:20161219212750     3
 OLDACT:REG 16-12-20 07:18 OP:ar   STATUS:               ID:20161219212750     3
 2016-12-19-2128-00M.COL___378                                                 6
 STAT SP IPHASW D HRMM SECON CODA AMPLIT PERI AZIMU VELO AIN AR TRES W  DIS CAZ7
 BAR2 EZ EP       2140 10.47                             170   -0.0910 24.5 188 
 BAR2 EZ ES       2140 25.29                             170   -0.4810 24.5 188 
 BAR2 EZ I        2140 27.00        30.4 0.16            171           24.5 188 
 BRR  HZ EP       2140 12.28                             153    0.2910 69.9 298 
 BRR  HN ES       2140 29.06                             153    0.7310 69.9 298 
 BRR  HZ I        2140 33.70        15.6 0.34            152           69.9 298 
 PAM  EZ EP       2140 13.46                             151    0.3610 76.9  41 
 PAM  EE ES       2140 30.53                             151    0.2210 76.9  41 
 PAM  EZ I        2140 32.64        18.0 0.48            153           76.9  41 
 RUS  HZ EP       2140 14.59                             143   -0.1910  102 176 
 RUS  HE ES       2140 33.20                             143   -0.0810  102 176 
 RUS  HZ I        2140 34.79        14.6 0.24            146            102 176 
 PTB  HZ EP       2140 17.32                             132   -0.55 9  147 258 
 PTB  HN ES       2140 38.23                             132   -0.57 9  147 258 
 PTB  HZ I        2140 40.31        10.9 0.16            133            147 258 
 ZAR  HZ EP       2140 22.24                             122   -1.05 9  203 292 
 ZAR  HN ES       2140 48.14                             122   -0.30 9  203 292 
 ZAR  HZ I        2140 53.52        12.3 0.42            124            203 292 
 NOR  HZ EP       2140 27.01                             118    0.29 8  235 234 
 NOR  HN ES       2140 54.76                             118    0.21 8  235 234 
 NOR  HZ I        2140 55.85         6.5 0.18            120            235 234 
 CHI  HZ EP       2140 28.59                             117   -0.20 8  250 195 
 CHI  HE ES       2140 58.01                             117   -0.22 8  250 195 
 CHI  HZ I        2141  1.39         5.9 0.70            119            250 195 
 GUY2CHZ EP       2140 35.84                             112    1.22 7  301 234 
 GUY2CHN ES       2141  9.62                             112    1.02 7  301 234 
 GUY2CHZ I        2141 16.73         5.0 0.36                           301 234 
                                                                                
