 2016  519 2321 38.8 L   6.716 -73.140149.3  RSN  6 0.3 1.5LRSN                1
 GAP=232        0.72       4.3     4.1  5.3  0.6246E+01  0.6504E+01  0.3505E+01E
 Epicentro: JORDAN - SANTANDER                                                 3
 ACTION:UPD 16-08-18 17:47 OP:cam  STATUS:               ID:20160519232138 L   I
 OLDACT:REG 16-05-20 05:20 OP:edw  STATUS:               ID:20160519231743     3
 2016-05-19-2317-43M.COL___308                                                 6
 STAT SP IPHASW D HRMM SECON CODA AMPLIT PERI AZIMU VELO AIN AR TRES W  DIS CAZ7
 BAR2 EZ EP       2321 58.66                             174   -0.0410 14.4 199 
 BAR2 EZ ES       2322 14.08                             174   -0.1410 14.4 199 
 BAR2 EZ I        2322 15.40         8.2 0.28            171           14.4 199 
 BRR  HZ IP     D 2322  0.73                             151    0.1110 76.6 304 
 BRR  HE ES       2322 18.12                             151    0.4710 76.6 304 
 BRR  HZ I        2322 18.92         7.4 0.32            151           76.6 304 
 RUS  HZ EP       2322  2.36                             147    0.1210 91.3 176 
 RUS  HE ES       2322 20.43                             147   -0.1110 91.3 176 
 RUS  HZ I        2322 21.76         3.2 0.54            146           91.3 176 
 PTB  HZ EP       2322  5.60                             133   -0.36 9  147 262 
 PTB  HE ES       2322 26.71                             133   -0.45 9  147 262 
 PTB  HZ I        2322 27.38         4.0 0.12            132            147 262 
 ZAR  HE ES       2322 37.56                             123   -0.16 8  208 294 
 ZAR  HZ I        2322 40.46         4.3 0.38            123            208 294 
 NOR  HZ EP       2322 14.36                             120    0.15 8  230 236 
 NOR  HN ES       2322 42.33                             120    0.48 8  230 236 
 NOR  HZ I        2322 47.59         2.2 0.30            119            230 236 
                                                                                
