 2011 1019 2037 46.7 L   6.799 -73.146146.6  RSN  5 0.3 1.5LRSN                1
 GAP=186        0.49       7.2     8.8  7.8  0.4068E+02  0.1422E+02  0.7012E+01E
 Epicentro: LOS SANTOS - SANTANDER                                             3
 ACTION:UPD 12-07-13 16:04 OP:ep   STATUS:               ID:20111019203746 L   I
 2011-10-19-2020-00M.COL___171                                                 6
 STAT SP IPHASW D HRMM SECON CODA AMPLIT PERI AZIMU VELO AIN AR TRES W  DIS CAZ7
 BAR2 SZ ES   2   2038 21.29                             170   -0.50 5 23.2 190 
 GIR2 SZ EP   2   2038  6.37                             167   -0.07 5 31.3 350 
 GIR2 SZ ES   2   2038 21.79                             167   -0.08 5 31.3 350 
 BRR  HZ EP   2   2038  8.24                             153    0.33 5 71.2 299 
 BRR  HZ I        2038 23.72        12.8 0.36                          71.2 299 
 BRR  HN ES   2   2038 24.96                             153    0.48 5 71.2 299 
 RUS  HZ EP   2   2038 10.35                             144   -0.15 5  101 176 
 RUS  HN ES   2   2038 29.36                             144    0.28 5  101 176 
 RUS  HZ I        2038 30.35         3.2 0.21                           101 176 
 ZAR  HN ES   2   2038 44.11                             122   -0.41 4  204 292 
 ZAR  HZ I        2038 46.89         2.2 0.08                           204 292 
                                                                                
