 2011 1019 2130 15.6 L   6.736 -73.138144.6  RSN  8 0.3 2.2LRSN                1
 GAP=140        0.62       3.8     4.7  5.3  0.4669E+01  0.1867E+01 -0.4263E+01E
 Epicentro: JORDAN - SANTANDER                                                 3
 ACTION:UPD 12-07-13 16:04 OP:ep   STATUS:               ID:20111019213015 L   I
 2011-10-19-2120-00M.COL___171                                                 6
 STAT SP IPHASW D HRMM SECON CODA AMPLIT PERI AZIMU VELO AIN AR TRES W  DIS CAZ7
 BAR2 SZ EP   1   2130 34.85                             173   -0.14 7 16.6 197 
 BAR2 SZ ES   1   2130 49.56                             173   -0.54 7 16.6 197 
 BAR2 SZ I        2130 50.91        29.1 0.17                          16.6 197 
 BTL  SZ EP   1   2130 35.21                             170    0.07 7 24.7 325 
 GIR2 SZ EP   1   2130 35.15                             164   -0.21 7 38.4 351 
 GIR2 SZ ES   2   2130 50.68                             164   -0.09 5 38.4 351 
 BRR  HZ EP   1   2130 36.94                             151    0.05 7 75.5 303 
 BRR  HE ES   1   2130 54.24                             151    0.75 7 75.5 303 
 BRR  HZ I        2130 58.94        37.3 0.14                          75.5 303 
 PAM  SZ EP   1   2130 37.98                             149   -0.04 7 82.5  36 
 PAM  SZ I        2130 38.30        24.6 0.16                          82.5  36 
 PAM  SE ES   2   2130 55.32                             149   -0.18 5 82.5  36 
 RUS  HZ EP   1   2130 38.97                             146    0.22 7 93.5 176 
 RUS  HN ES   1   2130 56.98                             146    0.19 7 93.5 176 
 RUS  HZ I        2130 58.41        23.1 0.33                          93.5 176 
 OCA  SZ EP   1   2130 44.74                             128    0.23 7  167 353 
 OCA  SZ ES   2   2131  7.19                             128    0.13 5  167 353 
 OCA  SZ I        2131 11.76        20.8 0.16                           167 353 
 ZAR  HZ EP   1   2130 48.20                             122   -0.15 6  208 294 
 ZAR  HN ES   1   2131 13.40                             122   -0.48 6  208 294 
 ZAR  HZ I        2131 22.61        13.5 0.41                           208 294 
                                                                                
