 2011  319 2313 49.4 L   6.791 -73.136151.7  RSN  8 0.3 1.9LRSN                1
 GAP=160        0.78       4.1    10.5 10.5 -0.2468E+02  0.6028E+02 -0.1318E+02E
 Epicentro: LOS SANTOS - SANTANDER                                             3
 ACTION:UP  11-06-16 14:34 OP:jfem STATUS:               ID:20110319231349 L   I
 2011-03-19-2312-34S.COL___136                                                 6
 STAT SP IPHASW D HRMM SECON CODA AMPLIT PERI AZIMU VELO SNR AR TRES W  DIS CAZ7
 BTL  SZ EP       2314 10.03                             172     0.310   20 314 
 BAR2 SZ EP   1   2314  9.59                             171    -0.2 7   23 194 
 BAR2 SZ I        2314 27.65        21.4 0.18                            23 194 
 GIR2 SZ EP   2   2314  9.95                             167     0.1 5   32 349 
 RUS  HZ EP       2314 13.85                             145     0.210  100 177 
 RUS  HE ES   1   2314 32.61                             145     0.0 7  100 177 
 RUS  HZ I        2314 33.51        14.4 0.30                           100 177 
 GRA  SZ EP       2314 15.57                             138     0.310  126  17 
 GRA  SZ ES   1   2314 34.97                             138    -0.4 7  126  17 
 GRA  SZ I        2314 36.44        15.6 0.53                           126  17 
 OCA  SZ EP       2314 17.88                             131    -0.4 9  161 353 
 NOR  SZ EP       2314 25.79                             120     0.2 8  235 235 
 NOR  SN ES   2   2314 53.59                             120    -0.1 4  235 235 
 NOR  SZ I        2314 57.90         2.5 0.19                           235 235 
 CHI  HZ EP   1   2314 26.85                             118    -0.5 6  248 195 
 CHI  HN ES   1   2314 56.57                             118    -0.4 6  248 195 
 CHI  HZ I        2315  5.27         6.7 0.29                           248 195 
                                                                                
