 2015 1019 2021  0.8 L   6.841 -73.127145.0  RSN 11 0.4 2.0LRSN                1
 GAP=137        1.05       2.7     4.5  5.8 -0.1292E+01  0.8654E+01  0.9265E+00E
 Epicentro: LOS SANTOS - SANTANDER                                             3
 ACTION:UPD 15-12-22 20:41 OP:cam  STATUS:               ID:20151019202100 L   I
 OLDACT:REG 15-10-20 03:35 OP:ak   STATUS:               ID:20151019201747     3
 2015-10-19-2017-47M.COL___328                                                 6
 STAT SP IPHASW D HRMM SECON CODA AMPLIT PERI AZIMU VELO AIN AR TRES W  DIS CAZ7
 BAR2 EZ IP     C 2021 20.49                             168    0.0710 28.2 193 
 BAR2 EZ ES       2021 35.38                             168   -0.3710 28.2 193 
 BAR2 EZ I        2021 37.01        14.9 0.22            168           28.2 193 
 BRR  HZ IP     C 2021 22.08                             152    0.2410 71.0 295 
 BRR  HN ES       2021 38.63                             152    0.3710 71.0 295 
 BRR  HZ I        2021 43.49        24.7 0.28            151           71.0 295 
 PAM  EZ EP     C 2021 22.92                             152    0.2910 72.6  41 
 PAM  EN ES       2021 40.32                             152    0.6510 72.6  41 
 PAM  EZ I        2021 41.98        14.5 0.44            156           72.6  41 
 RUS  HZ EP       2021 24.77                             142   -0.0110  105 177 
 RUS  HN ES       2021 43.24                             142   -0.2610  105 177 
 RUS  HZ I        2021 45.29        10.3 0.26            145            105 177 
 OCA  HZ EP   2   2021 28.09                             130   -0.54 5  156 352 
 OCA  HN ES       2021 49.54                             130   -0.82 9  156 352 
 OCA  HZ I        2021 51.84        27.2 0.25            132            156 352 
 SPBC HZ EP       2021 29.96                             128    0.28 9  168 219 
 SPBC HE ES       2021 51.88                             128   -0.35 9  168 219 
 SPBC HZ I        2021 56.88        11.9 0.11            129            168 219 
 ZAR  HZ EP       2021 33.89                             122    0.69 9  204 291 
 ZAR  HN ES       2021 59.07                             122    0.58 9  204 291 
 ZAR  HZ I        2022  4.15        22.0 0.23            123            204 291 
 NOR  HE ES       2022  4.77                             118   -0.36 8  239 234 
 SML  HZ EP       2021 36.23                             118   -0.78 8  240 334 
 SML  HE ES       2022  4.69                             118   -0.58 8  240 334 
 SML  HZ I        2022 11.66        13.2 0.16            119            240 334 
 CHI  HZ EP       2021 39.03                             116    0.06 8  254 195 
 CHI  HN ES       2022  8.46                             116   -0.30 8  254 195 
 CHI  HZ I        2022 14.73         3.2 0.22            118            254 195 
 GUY2CHZ EP       2021 45.20                             112    0.36 7  306 234 
 GUY2CHE ES       2022 19.27                             112    0.06 7  306 234 
 GUY2CHZ I        2022 28.95         5.1 0.80                           306 234 
 SJC  HZ EP   4   2021 53.74                             106   -2.26 0  407 326 
 SJC  HN ES   4   2022 35.47                             106   -3.61 0  407 326 
                                                                                
