 2010  119 2042  0.1 L   6.781 -72.991142.4  RSN  7 0.5 2.0LRSN                1
 GAP=199        0.94       6.7    17.3 11.9 -0.4211E+02  0.7701E+02  0.6408E+01E
 Epicentro: CEPITA - SANTANDER                                                 3
 ACTION:UP  10-08-24 09:44 OP:vdl  STATUS:               ID:20100119204200 L   I
 2010-01-19-2037-18S.COL___096                                                 6
 STAT SP IPHASW D HRMM SECON CODA AMPLIT PERI AZIMU VELO SNR AR TRES W  DIS CAZ7
 BAR2 SZ EP       2042 18.65                             167    -0.810   30 226 
 GIR2 SZ EP   1   2042 19.71                             163     0.1 7   40 326 
 GIR2 SZ ES   2   2042 35.25                             163     0.4 5   40 326 
 RUS  BZ EP   1   2042 24.11                             143     0.7 7   99 186 
 RUS  BE ES   2   2042 41.93                             143     0.4 5   99 186 
 OCA  SZ EP   1   2042 29.03                             128     0.4 7  165 347 
 CHI  HZ EP   1   2042 37.81                             116    -0.1 6  252 199 
 CHI  HN ES   2   2043  7.47                             116     0.0 4  252 199 
 CHI  HZ I        2043 16.47         2.9 0.44                           252 199 
 RREF BZ EP   1   2042 47.65                             109     0.2 5  334 232 
 RREF BE ES   2   2043 24.61                             109     0.2 3  334 232 
 RREF BZ I        2043 29.77         5.7 0.35                           334 232 
 PRA  HZ EP   1   2042 54.44                             105     0.1 4  399 212 
 PRA  HE ES   2   2043 36.39                             105    -0.2 3  399 212 
 PRA  HZ I        2043 38.96         4.5 0.44                           399 212 
                                                                                
