 2011  219 2025 43.1 L   6.788 -73.173133.2  RSN  6 0.5 1.7LRSN                1
 GAP=210        0.80       9.2    12.2 13.3 -0.3057E+02  0.7782E+02  0.7946E+01E
 Epicentro: LOS SANTOS - SANTANDER                                             3
 ACTION:UP  11-03-28 15:09 OP:jfem STATUS:               ID:20110219202542 L   I
 2011-02-19-2021-56S.COL___137                                                 6
 STAT SP IPHASW D HRMM SECON CODA AMPLIT PERI AZIMU VELO SNR AR TRES W  DIS CAZ7
 BTL  SZ EP   1   2026  1.61                             172     0.5 7   18 324 
 BAR2 SZ ES   2   2026 14.62                             171    -0.6 5   22 183 
 BAR2 SZ I        2026 16.49        15.1 0.31                            22 183 
 RUS  HZ EP   2   2026  4.86                             141    -0.6 5  100 174 
 RUS  HZ I        2026  5.56         3.5 0.14                           100 174 
 RUS  HN ES   2   2026 23.32                             141     0.3 5  100 174 
 NOR  SZ EP   2   2026 17.12                             116    -0.6 4  232 234 
 NOR  SN ES   2   2026 44.58                             116    -0.2 4  232 234 
 CHI  HZ EP   2   2026 19.53                             115    -0.3 4  247 195 
 CHI  HN ES   2   2026 49.01                             115     0.4 4  247 195 
 CHI  HZ I        2026 56.07         3.3 0.50                           247 195 
 RREF HN ES   2   2027  4.07                             109     0.5 3  319 229 
 RREF HZ I        2027 12.87         3.5 0.26                           319 229 
                                                                                
