 2016  619 2310 26.2 L   6.781 -73.151141.3  RSN  8 0.4 1.6LRSN                1
 GAP=137        0.96       3.9     3.9  6.5 -0.2049E+01  0.6151E+01  0.2740E+01E
 Epicentro: LOS SANTOS - SANTANDER                                             3
 ACTION:UPD 16-07-21 22:20 OP:rebc STATUS:               ID:20160619231026 L   I
 OLDACT:REG 16-06-20 02:53 OP:edw  STATUS:               ID:20160619230750     3
 2016-06-19-2307-50M.COL___352                                                 6
 STAT SP IPHASW D HRMM SECON CODA AMPLIT PERI AZIMU VELO AIN AR TRES W  DIS CAZ7
 BAR2 EZ EP       2310 45.49                             171    0.2310 21.2 189 
 BAR2 EZ ES       2310 59.51                             171   -0.6110 21.2 189 
 BAR2 EZ I        2311  1.55         9.3 0.52                          21.2 189 
 BRR  HZ EP       2310 46.99                             152    0.0810 71.7 300 
 BRR  HN ES       2311  3.92                             152    0.8710 71.7 300 
 PAM  EZ EP       2310 48.02                             149   -0.0510 79.3  39 
 PAM  EN ES       2311  4.94                             149   -0.1910 79.3  39 
 PAM  EZ I        2311  7.07         8.4 0.50                          79.3  39 
 RUS  HZ EP       2310 49.74                             143    0.3610 98.5 176 
 RUS  HN ES       2311  7.49                             143    0.0410 98.5 176 
 RUS  HZ I        2311  9.68         4.9 0.30                          98.5 176 
 PTB  HZ EP       2310 52.18                             131   -0.55 9  147 260 
 PTB  HN ES       2311 13.24                             131   -0.18 9  147 260 
 PTB  HZ I        2311 13.76         5.3 0.12                           147 260 
 SPBC HZ EP       2310 54.23                             128    0.05 9  161 219 
 SPBC HE ES       2311 15.99                             128   -0.01 9  161 219 
 SPBC HZ I        2311 23.28         7.7 0.40                           161 219 
 OCA  HN ES   4   2311 15.26                             128   -1.07 0  162 353 
 ZAR  HN ES       2311 23.21                             121   -0.29 9  204 293 
 NOR  HN ES       2311 29.15                             118    0.12 8  233 235 
 GUY2CHN ES   4   2311 45.68                             112    2.54 0  300 235 
                                                                                
