 2010  619 2314 33.8 L   6.811 -73.106143.5  RSN 13 0.4 3.5LRSN                1
 GAP=129        0.95       3.6     5.5  5.8 -0.5099E+01  0.1185E+00  0.4614E+01E
 Epicentro: LOS SANTOS - SANTANDER                                             3
 ACTION:UP  10-08-24 10:11 OP:vdl  STATUS:               ID:20100619231433 L   I
 2010-06-19-2312-43S.COL___118                                                 6
 STAT SP IPHASW D HRMM SECON CODA AMPLIT PERI AZIMU VELO SNR AR TRES W  DIS CAZ7
 BAR2 SZ IP       2314 53.26                             169     0.110   26 199 
 BAR2 SZ ES   1   2315  7.61                             169    -0.7 7   26 199 
 BRR  HZ IP     C 2314 55.05                             151     0.210   75 296 
 BRR  HZ I        2314 55.28       878.1 0.16                            75 296 
 BRR  HN ES       2315 11.71                             151     0.410   75 296 
 RUS  HZ IP     C 2314 57.33                             143     0.010  102 179 
 RUS  HE ES   2   2315 15.97                             143     0.2 5  102 179 
 RUS  HZ I        2315 18.28       297.7 0.26                           102 179 
 OCA  SZ IP       2315  1.64                             129    -0.2 9  160 352 
 OCA  SZ ES   1   2315 23.88                             129     0.1 7  160 352 
 OCA  SZ I        2315 26.64       435.9 0.21                           160 352 
 CHI  HZ EP       2315 11.39                             116    -0.2 8  251 196 
 CHI  HE ES   1   2315 41.08                             116     0.0 6  251 196 
 CHI  HZ I        2315 49.67       127.4 0.55                           251 196 
 ROSC BZ IP     C 2315 13.15                             116     1.0 8  256 212 
 ROSC BE ES   1   2315 41.38                             116    -0.6 6  256 212 
 ROSC BZ I        2315 50.09       205.2 0.68                           256 212 
 CVER SZ EP   2   2315 14.94                             114     0.6 4  275 203 
 HEL  HZ EP   1   2315 13.93                             114    -0.4 6  277 256 
 HEL  HN ES   2   2315 45.95                             114    -0.1 4  277 256 
 HEL  HZ I        2315 51.98       184.8 0.38                           277 256 
 GUY  HZ EP   1   2315 17.92                             112     0.2 5  306 235 
 GUY  HN ES   1   2315 51.93                             112    -0.1 5  306 235 
 RREF HZ EP   1   2315 19.97                             110    -0.3 5  326 230 
 RREF HN ES   1   2315 55.74                             110    -0.8 5  326 230 
 RREF HZ I        2316  5.03       200.2 0.30                           326 230 
 DBB  SZ IP       2315 21.14                             109    -0.5 7  344 274 
 TOL  SZ EP   1   2315 22.96                             109     0.6 5  347 225 
 SDV  BZ IP     D 2315 22.87                             108    -0.4 6  356  50 
 SDV  BZ I        2315 23.69        77.3 0.40                           356  50 
                                                                                
