 2013 1019 2007 31.7 L   6.736 -73.173156.8  RSN  5 0.5 1.6LRSN                1
 GAP=229        1.28      10.1     9.2  9.3  0.5802E+02  0.9149E+01 -0.9191E+01E
 Epicentro: VILLANUEVA - SANTANDER                                             3
 ACTION:UPD 13-11-25 09:22 OP:ep   STATUS:               ID:20131019200731 L   I
 OLDACT:REG 13-10-20 03:08 OP:nd   STATUS:               ID:20131019195849     3
 2013-10-19-1958-49M.COL___213                                                 6
 STAT SP IPHASW D HRMM SECON CODA AMPLIT PERI AZIMU VELO AIN AR TRES W  DIS CAZ7
 BAR2 SZ EP       20 7 52.09                             174   -0.4610 15.9 184 
 BAR2 SZ ES       20 8  8.00                             174   -0.8110 15.9 184 
 BAR2 SZ I        20 8 10.98         9.8 0.60            175           15.9 184 
 BRR  HZ EP       20 7 54.52                             154    0.4010 72.3 305 
 BRR  HN ES       20 8 12.24                             154    0.6310 72.3 305 
 BRR  HZ I        20 8 25.32        11.2 0.44            152           72.3 305 
 RUS  HZ EP       20 7 56.50                             148    0.3910 93.8 174 
 RUS  HN ES       20 8 15.56                             148    0.4210 93.8 174 
 RUS  HZ I        20 8 16.39         2.2 0.42            158           93.8 174 
 PTB  HZ EP       20 7 59.33                             135    0.09 9  144 261 
 PTB  HN ES       20 8 20.30                             135   -0.41 9  144 261 
 PTB  HZ I        20 8 26.52         5.5 0.40            139            144 261 
 ZAR  HZ EP       20 8  4.22                             125   -0.68 9  204 294 
 ZAR  HN ES       20 8 31.08                             125    0.29 9  204 294 
 ZAR  HZ I        20 8 37.07         4.9 0.58            128            204 294 
                                                                                
