 2016  819 2324 39.2 L   6.769 -73.157144.5  RSN  6 0.2 1.5LRSN                1
 GAP=136        0.57       3.0     2.9  6.1 -0.1314E+01  0.3280E+00  0.4487E+01E
 Epicentro: LOS SANTOS - SANTANDER                                             3
 ACTION:UPD 16-10-29 15:37 OP:rebc STATUS:               ID:20160819232439 L   I
 OLDACT:UP  16-08-20 04:51 OP:dani STATUS:               ID:20160819231759     3
 OLDACT:REG 16-08-20 02:57 OP:dani STATUS:               ID:20160819231759     3
 2016-08-19-2317-59S.COL___349                                                 6
 STAT SP IPHASW D HRMM SECON CODA AMPLIT PERI AZIMU VELO AIN AR TRES W  DIS CAZ7
 BRR  HZ EP       2325  0.53                             152    0.2810 71.8 301 
 BRR  HN ES       2325 16.62                             152   -0.0510 71.8 301 
 BRR  HZ I        2325 18.52         9.1 0.23                          71.8 301 
 PAM  EZ EP       2325  1.66                             149    0.1610 80.8  39 
 PAM  EE ES       2325 18.80                             149   -0.0810 80.8  39 
 PAM  EZ I        2325 19.00         4.2 0.37                          80.8  39 
 RUS  HZ EP       2325  2.22                             144   -0.3810 97.3 175 
 RUS  HN ES   2   2325 21.16                             144    0.31 5 97.3 175 
 RUS  HZ I        2325 22.26         4.0 0.28                          97.3 175 
 PTB  HE ES   2   2325 26.28                             132   -0.44 5  146 260 
 SPBC HN ES       2325 29.37                             129    0.19 9  160 219 
 ZAR  HE ES       2325 36.73                             122   -0.10 9  204 293 
                                                                                
