 2015  219 2239 25.3 L   6.796 -73.159142.2  RSN  4 0.2 1.6LRSN                1
 GAP=141        0.61       4.2     4.0  6.3 -0.7551E+01  0.1147E+02 -0.8709E+01E
 Epicentro: LOS SANTOS - SANTANDER                                             3
 ACTION:UPD 15-04-30 21:27 OP:nd   STATUS:               ID:20150219223925 L   I
 OLDACT:REG 15-02-20 06:22 OP:stll STATUS:               ID:20150219223743     3
 2015-02-19-2237-43M.COL___296                                                 6
 STAT SP IPHASW D HRMM SECON CODA AMPLIT PERI AZIMU VELO AIN AR TRES W  DIS CAZ7
 BAR2 EZ ES       2239 59.33                             170   -0.1410 22.7 186 
 BAR2 EZ I        2240  1.25         9.1 0.28            170           22.7 186 
 PAM  SZ EP       2239 47.50                             150    0.2710 78.7  40 
 PAM  SZ I        2239 47.68        15.5 0.20            152           78.7  40 
 PAM  SN ES       2240  4.24                             150   -0.0910 78.7  40 
 RUS  HE ES     D 2240  7.00                             143    0.0710  100 175 
 RUS  HZ I        2240  8.46         2.6 0.28            143            100 175 
 PTB  HZ EP       2239 51.47                             131   -0.38 9  146 259 
 PTB  HN ES       2240 12.79                             131    0.25 9  146 259 
 PTB  HZ I        2240 14.31         4.7 0.30            132            146 259 
                                                                                
