 2012 1219 2055  9.1 L   6.767 -73.135147.2  RSN  5 0.4 2.0LRSN                1
 GAP=236        0.99       5.7     7.2  7.6  0.1573E+02  0.7919E+01  0.8700E+01E
 Epicentro: LOS SANTOS - SANTANDER                                             3
 ACTION:UPD 13-01-04 14:29 OP:ep   STATUS:               ID:20121219205509 L   I
 2012-12-19-2050-00M.COL___242                                                 6
 STAT SP IPHASW D HRMM SECON CODA AMPLIT PERI AZIMU VELO AIN AR TRES W  DIS CAZ7
 BAR2 SZ EP       2055 28.51                             172   -0.2910 20.0 195 
 BAR2 SZ ES       2055 43.60                             172   -0.6010 20.0 195 
 BAR2 SZ I        2055 46.35        14.3 0.42                          20.0 195 
 BRR  HZ EP       2055 30.67                             152    0.1510 74.0 301 
 BRR  HN ES       2055 47.60                             152    0.3310 74.0 301 
 BRR  HN I        2055 48.34        32.2 0.30                          74.0 301 
 RUS  HZ EP       2055 32.58                             145   -0.1010 96.8 177 
 RUS  HE ES       2055 51.86                             145    0.7510 96.8 177 
 PTB  HZ EP       2055 36.15                             132   -0.03 9  148 260 
 PTB  HE ES       2055 57.26                             132   -0.09 9  148 260 
 CHI  HZ EP   2   2055 47.29                             118    0.81 4  245 196 
 CHI  HN ES       2056 15.25                             118   -0.42 8  245 196 
                                                                                
