 2016 1219 2141 22.0 L   6.804 -73.137148.3  RSN 12 0.5 2.2LRSN                1
 GAP=101        1.18       4.0     3.5  6.2 -0.1011E+01  0.3813E+01  0.6595E+01E
 Epicentro: LOS SANTOS - SANTANDER                                             3
 ACTION:UPD 17-01-11 20:16 OP:rebc STATUS:               ID:20161219214122 L   I
 OLDACT:UP  16-12-20 09:40 OP:ar   STATUS:               ID:20161219213744     3
 OLDACT:UP  16-12-20 09:34 OP:ar   STATUS:               ID:20161219213744     3
 OLDACT:UP  16-12-20 09:33 OP:ar   STATUS:               ID:20161219213744     3
 OLDACT:REG 16-12-20 07:19 OP:ar   STATUS:               ID:20161219213744     3
 2016-12-19-2138-00M.COL___375                                                 6
 STAT SP IPHASW D HRMM SECON CODA AMPLIT PERI AZIMU VELO AIN AR TRES W  DIS CAZ7
 BAR2 EZ EP       2141 41.73                             170   -0.2210 23.9 192 
 BAR2 EZ ES       2141 57.57                             170    0.0710 23.9 192 
 BAR2 EZ I        2142  0.83        31.6 0.44            168           23.9 192 
 BRR  HZ IP     C 2141 43.76                             153    0.3010 71.8 298 
 BRR  HN ES       2142  1.09                             153    0.9010 71.8 298 
 BRR  HZ I        2142  3.29        31.3 0.46            152           71.8 298 
 PAM  EZ IP     D 2141 44.69                             152    0.2610 76.5  39 
 PAM  EN ES       2142  1.74                             152   -0.1910 76.5  39 
 PAM  EZ I        2142  4.16        22.1 0.42            157           76.5  39 
 RUS  HZ EP       2141 45.63                             144   -0.4010  101 177 
 RUS  HN ES       2142  4.04                             144   -0.7310  101 177 
 RUS  HZ I        2142  5.96        13.4 0.44            145            101 177 
 PTB  HZ EP       2141 48.57                             132   -0.70 9  149 259 
 PTB  HN ES       2142  9.95                             132   -0.58 9  149 259 
 PTB  HZ I        2142 15.60        22.5 0.32            132            149 259 
 TAM  HZ EP       2141 50.06                             131    0.25 9  154 105 
 TAM  HN ES       2142 11.69                             131    0.19 9  154 105 
 ZAR  HZ EP       2141 54.71                             123    0.02 9  205 292 
 ZAR  HN ES       2142 20.10                             123   -0.08 9  205 292 
 ZAR  HZ I        2142 26.86        29.4 0.26            124            205 292 
 NOR  HZ EP       2141 57.49                             119   -0.50 8  236 235 
 NOR  HN ES       2142 25.64                             119   -0.41 8  236 235 
 NOR  HZ I        2142 30.69        17.9 0.22            120            236 235 
 CHI  HZ EP       2141 59.87                             118   -0.04 8  249 195 
 CHI  HE ES       2142 29.39                             118   -0.09 8  249 195 
 CHI  HZ I        2142 36.83         5.4 0.26            119            249 195 
 ROSC BZ EP       2142  0.88                             117    0.53 8  254 211 
 ROSC BE ES       2142 31.41                             117    1.15 8  254 211 
 ROSC BZ I        2142 37.62        20.8 0.55            118            254 211 
 GUY2CHZ EP   9   2142  6.63                             113    0.79 0  302 235 
 GUY2CHE ES       2142 40.90                                    0.08 7  302 235 
 GUY2CHZ I        2142 48.52        12.4 0.70                           302 235 
 ORTC HZ EP       2142 16.17                             107    0.06 6  396 216 
 ORTC HN ES       2142 59.54                             107    1.22 6  396 216 
 ORTC HZ I        2143  4.54         4.5 0.30            108            396 216 
                                                                                
