 2011 1019 2203  4.9 L   6.763 -73.183146.7  RSN  6 0.3 1.8LRSN                1
 GAP=175        0.61       7.5     7.5  7.9  0.3672E+02  0.1352E+01  0.6584E+01E
 Epicentro: LOS SANTOS - SANTANDER                                             3
 ACTION:UPD 12-07-13 16:04 OP:ep   STATUS:               ID:20111019220305 L   I
 2011-10-19-2200-00M.COL___171                                                 6
 STAT SP IPHASW D HRMM SECON CODA AMPLIT PERI AZIMU VELO AIN AR TRES W  DIS CAZ7
 BAR2 SZ EP   2   22 3 24.49                             172   -0.05 5 18.9 180 
 BAR2 SZ ES   3   22 3 39.37                             172   -0.51 2 18.9 180 
 BAR2 SZ I        22 3 40.71        14.4 0.17                          18.9 180 
 BTL  SZ EP   1   22 3 24.76                             172    0.21 7 19.5 331 
 GIR2 SZ EP   1   22 3 24.39                             166   -0.37 7 34.9 358 
 GIR2 SZ ES   2   22 3 39.87                             166   -0.40 5 34.9 358 
 BRR  HZ EP       22 3 26.09                             153    0.0410 69.7 303 
 BRR  HN ES   1   22 3 43.15                             153    0.59 7 69.7 303 
 BRR  HZ I        22 3 46.56        24.3 0.41                          69.7 303 
 RUS  HZ EP   1   22 3 28.62                             145    0.16 7 96.9 173 
 RUS  HN ES   2   22 3 46.69                             145   -0.17 5 96.9 173 
 RUS  HZ I        22 3 48.29         4.0 0.29                          96.9 173 
 ZAR  HN ES   1   22 4  1.89                             123   -0.45 6  202 294 
 ZAR  HZ I        22 4  8.57         7.0 0.28                           202 294 
                                                                                
