 2014  519 2351 38.3 L   6.804 -73.175143.1  RSN  6 0.5 1.8LRSN                1
 GAP=133        1.15       3.6     6.6 11.1 -0.2096E+01  0.2095E+02 -0.4583E+01E
 Epicentro: LOS SANTOS - SANTANDER                                             3
 ACTION:UPD 15-03-16 16:59 OP:nd   STATUS:               ID:20140519235138 L   I
 OLDACT:REG 14-05-20 06:52 OP:carl STATUS:               ID:20140519234842     3
 2014-05-19-2348-42M.COL___254                                                 6
 STAT SP IPHASW D HRMM SECON CODA AMPLIT PERI AZIMU VELO AIN AR TRES W  DIS CAZ7
 PAM  SZ EP       2352  0.84                             150    0.5110 79.2  42 
 PAM  SN ES       2352 17.77                             150    0.2510 79.2  42 
 PAM  SZ I        2352 20.05        10.4 0.54            152           79.2  42 
 RUS  HZ EP       2352  1.87                             143    0.0510  101 174 
 RUS  HN ES       2352 19.45                             143   -0.7310  101 174 
 RUS  HZ I        2352 21.11         3.8 0.26            147            101 174 
 PTB  HN ES       2352 26.03                             132    0.63 9  145 258 
 PTB  HZ I        2352 28.67         7.2 0.14            133            145 258 
 OCA  HN ES       2352 28.05                             129   -0.13 9  160 354 
 OCA  HZ I        2352 31.32        10.1 0.46            130            160 354 
 SML  HZ EP       2352 14.69                             117    0.12 8  242 336 
 SML  HE ES       2352 42.04                             117   -0.84 8  242 336 
 SML  HZ I        2352 48.13         8.1 0.10            118            242 336 
 CHI  HN ES       2352 44.93                             116   -0.11 8  248 194 
                                                                                
