 2010  419 2045 21.4 L   6.837 -72.967140.1  RSN  4 0.3 2.3LRSN                1
 GAP=282        0.49       6.4     7.3  5.4  0.8841E+01  0.4624E+01  0.9802E+01E
 Epicentro: CEPITA - SANTANDER                                                 3
 ACTION:UPD 10-08-24 10:00 OP:vdl  STATUS:               ID:20100419204520 L   I
 2010-04-19-2044-57S.COL___100                                                 6
 STAT SP IPHASW D HRMM SECON CODA AMPLIT PERI AZIMU VELO AIN AR TRES W  DIS CAZ7
 BAR2 SZ EP       2045 40.65                             165     0.010   36 222 
 BAR2 SZ ES   1   2045 55.66                             165     0.0 7   36 222 
 BRR  HZ EP       2045 42.94                             145     0.010   88 290 
 BRR  HN ES   1   2045 59.69                             145    -0.1 7   88 290 
 BRR  HZ I        2046  6.01        39.7 0.49                            88 290 
 RREF BZ EP   1   2046  9.73                             108     0.4 5  340 231 
 RREF BE ES   2   2046 46.73                             108     0.0 3  340 231 
 RREF BZ I        2046 52.89         5.5 0.30                           340 231 
 PRA  HZ EP   2   2046 15.27                             105    -1.0 3  406 212 
 PRA  HZ I        2047  2.85         6.1 0.24                           406 212 
                                                                                
