 2017  619 2119 18.1 L   6.508 -73.632106.3  RSN  7 0.3 1.7LRSN                1
 GAP=215        0.81       3.0     4.5  5.7 -0.2744E+01  0.2840E+01  0.2899E+01E
 Epicentro: SANTA HELENA DEL OPON - SANTANDER                                  3
 ACTION:UPD 17-09-14 16:53 OP:jn   STATUS:               ID:20170619211918 L   I
 OLDACT:UP  17-06-20 05:39 OP:dani STATUS:               ID:20170619193216d    3
 OLDACT:UP  17-06-20 05:39 OP:dani STATUS:               ID:20170619193216d    3
 OLDACT:UP  17-06-20 05:38 OP:dani STATUS:               ID:20170619193216d    3
 OLDACT:UP  17-06-20 05:37 OP:dani STATUS:               ID:20170619193216d    3
 OLDACT:REG 17-06-20 05:01 OP:dani STATUS:               ID:20170619193216d    3
 2017-06-19-2118-00M.COL___346                                                 6
 STAT SP IPHASW D HRMM SECON CODA AMPLIT PERI AZIMU VELO AIN AR TRES W  DIS CAZ7
 BRR  HZ EP       2119 34.88                             145    0.0410 66.9 352 
 BRR  HN ES       2119 48.09                             145    0.1810 66.9 352 
 BRR  HZ I        2119 53.86         8.1 0.09            148           66.9 352 
 PTB  HZ EP   9   2119 35.60                             136   -1.15 0 91.2 272 
 PTB  HN ES       2119 49.89                             135   -0.2710 91.2 272 
 PTB  HZ I        2119 52.20        11.1 0.18            139           91.2 272 
 SPBC HZ EP       2119 37.85                             131   -0.3510  106 207 
 SPBC HN ES       2119 54.08                             131    0.2010  106 207 
 SPBC HZ I        2119 57.62         9.3 0.24            136            106 207 
 NOR  HZ EP       2119 44.27                             117   -0.57 9  172 233 
 NOR  HE ES       2120  5.51                             117   -0.19 9  172 233 
 NOR  HZ I        2120  8.06         5.8 0.20            121            172 233 
 ZAR  HZ EP       2119 44.99                             116    0.04 9  174 309 
 ZAR  HE ES       2120  5.53                             116   -0.37 9  174 309 
 ZAR  HZ I        2120  9.90        11.5 0.18            120            174 309 
 HEL  HZ EP       2119 50.06                             111    0.30 8  213 261 
 HEL  HN ES       2120 14.74                             111    0.27 8  213 261 
 HEL  HZ I        2120 19.09         4.6 0.25            115            213 261 
 GUY2CHZ EP       2119 53.49                             108    0.62 8  239 234 
 GUY2CHN ES   4   2120 22.64                             108    2.64 0  239 234 
 GUY2CHZ I        2120 26.38         3.4 0.26                           239 234 
                                                                                
