 2011  719 2312 43.5 L   7.404 -73.095143.2  RSN  4 0.2 1.7LRSN                1
 GAP=147        0.37       6.2     4.5  4.5 -0.1816E+02  0.2443E+01 -0.1503E+01E
 Epicentro: MATANZA - SANTANDER                                                3
 ACTION:UPD 12-07-25 14:02 OP:epov STATUS:               ID:20110719231243 L   I
 2011-07-19-2311-02S.COL___143                                                 6
 STAT SP IPHASW D HRMM SECON CODA AMPLIT PERI AZIMU VELO AIN AR TRES W  DIS CAZ7
 PAM  SZ EP   1   2313  3.84                             162    0.00 7 44.2  99 
 PAM  SN ES   1   2313 19.65                             162   -0.03 7 44.2  99 
 BRI  SZ EP   2   2313  3.96                             161    0.45 5 47.7  44 
 BRI  SZ I        2313 20.91         4.9 0.26                          47.7  44 
 GRA  SZ EP   1   2313  4.09                             155   -0.05 7 62.1  31 
 GRA  SZ ES   1   2313 20.17                             155   -0.05 7 62.1  31 
 GRA  SZ I        2313 21.39        24.3 0.29                          62.1  31 
 BRR  HZ EP   1   2313  4.53                             151   -0.14 7 75.7 244 
 BRR  HN ES   1   2313 21.23                             151    0.07 7 75.7 244 
                                                                                
