 2016  219 2020 43.9 L   6.530 -73.539104.3  RSN 12 0.6 2.0LRSN                1
 GAP= 64        1.28       4.2     4.1  8.0 -0.5351E+01  0.1005E+02  0.3541E+01E
 Epicentro: EL CARMEN - SANTANDER                                              3
 ACTION:UPD 16-03-04 21:27 OP:rebc STATUS:               ID:20160219202043 L   I
 OLDACT:REG 16-02-20 03:46 OP:dnl  STATUS:               ID:20160219201748     3
 2016-02-19-2017-48M.COL___328                                                 6
 STAT SP IPHASW D HRMM SECON CODA AMPLIT PERI AZIMU VELO AIN AR TRES W  DIS CAZ7
 BAR2 EZ EP       2020 59.72                             157    0.5110 40.0  80 
 BAR2 EZ ES       2021 12.00                             157    0.8510 40.0  80 
 BAR2 EZ I        2021 13.74       158.6 0.30            163           40.0  80 
 BRR  HZ EP   2   2021  0.73                             145    0.30 5 66.6 343 
 BRR  HE ES       2021 13.49                             145    0.1610 66.6 343 
 BRR  HZ I        2021 15.27        35.1 0.12            149           66.6 343 
 RUS  HZ EP   2   2021  2.78                             137    0.11 5 86.7 144 
 RUS  HN ES   2   2021 17.03                             137   -0.27 5 86.7 144 
 RUS  HZ I        2021 20.54         8.9 0.22            140           86.7 144 
 PTB  HZ IP     C 2021  2.52                             132   -0.7710  101 271 
 PTB  HN ES       2021 17.53                             132   -0.8810  101 271 
 PTB  HZ I        2021 22.27        24.3 0.12            134            101 271 
 SPBC HZ EP   2   2021  4.49                             129   -0.04 5  114 211 
 SPBC HE ES       2021 20.64                             129    0.0310  114 211 
 SPBC HZ I        2021 26.55        33.4 0.10            130            114 211 
 PAM  EZ EP       2021  6.58                             125    0.0310  129  46 
 PAM  EN ES       2021 23.25                             125   -0.9610  129  46 
 PAM  EZ I        2021 25.77        16.0 0.16            131            129  46 
 ZAR  HZ EP       2021 11.71                             115    0.32 9  180 306 
 ZAR  HN ES       2021 33.59                             115    0.76 9  180 306 
 ZAR  HZ I        2021 36.72        24.4 0.28            118            180 306 
 NOR  HZ EP       2021 11.22                             115   -0.40 9  182 234 
 NOR  HE ES       2021 32.60                             115   -0.63 9  182 234 
 NOR  HZ I        2021 36.64        13.4 0.18            117            182 234 
 CHI  HZ EP   3   2021 15.81                             111    0.44 2  211 186 
 CHI  HN ES   2   2021 39.87                             111   -0.05 4  211 186 
 CHI  HZ I        2021 44.84         3.3 0.26            113            211 186 
 HEL  HZ EP   2   2021 16.57                             110   -0.13 4  223 260 
 HEL  HN ES   2   2021 42.59                             110    0.31 4  223 260 
 HEL  HZ I        2021 50.70         8.5 0.26            112            223 260 
 GUY2CHZ EP       2021 20.36                             107    0.61 8  248 235 
 GUY2CHE ES       2021 48.43                             107    0.73 8  248 235 
 GUY2CHZ I        2021 53.05         7.3 0.26                           248 235 
 MON  HZ EP   4   2021 28.20                             100   -2.02 0  342 317 
 MON  HN ES   4   2022  2.96                             100   -3.39 0  342 317 
 MON  HZ I        2022  7.58         3.0 0.25            103            342 317 
                                                                                
