 2012  319 2312 38.5 L   6.781 -73.168144.4  RSN  5 0.4 1.4LRSN                1
 GAP=135        0.82       6.7     4.7 10.4 -0.2776E+01  0.9535E+01  0.2555E+02E
 ACTION:UP  12-03-31 23:21 OP:EP   STATUS:               ID:20120319231238 L   I
 2012-03-19-2310-00M.COL___202                                                 6
 STAT SP IPHASW D HRMM SECON CODA AMPLIT PERI AZIMU VELO SNR AR TRES W  DIS CAZ7
 BRR  HN ES   1   2313 16.39                             153     0.6 7   70 301 
 PAM  SZ EP   1   2313  0.72                             150     0.0 7   81  40 
 PAM  SZ I        2313  1.06         7.4 0.16                            81  40 
 PAM  SN ES       2313 17.90                             150    -0.210   81  40 
 RUS  HZ EP   1   2313  2.20                             144     0.2 7   99 175 
 RUS  HN ES   2   2313 20.38                             144     0.1 5   99 175 
 RUS  HZ I        2313 21.95         3.4 0.28                            99 175 
 PTB  HZ EP   1   2313  5.16                             132     0.1 7  145 259 
 PTB  HN ES   1   2313 25.16                             132    -0.7 7  145 259 
 PTB  HZ I        2313 31.19         2.2 0.14                           145 259 
 ZAR  HN ES   1   2313 35.89                             122     0.1 6  203 293 
                                                                                
