 2011  819 2150 10.6 L   6.809 -73.053144.7  RSN  7 0.3 2.0LRSN                1
 GAP=248        0.64       5.3     7.6  5.5  0.1726E+02  0.1310E+02  0.1078E+02E
 Epicentro: LOS SANTOS - SANTANDER                                             3
 ACTION:UPD 12-07-13 15:52 OP:ep   STATUS:               ID:20110819215010 L   I
 2011-08-19-2147-24S.COL___149                                                 6
 STAT SP IPHASW D HRMM SECON CODA AMPLIT PERI AZIMU VELO AIN AR TRES W  DIS CAZ7
 BAR2 SZ EP       2150 30.35                             169    0.1810 27.9 211 
 BAR2 SZ ES   1   2150 44.76                             169   -0.70 7 27.9 211 
 BAR2 SZ I        2150 47.72        20.5 0.28                          27.9 211 
 BRR  HZ EP       2150 32.18                             150    0.0610 80.0 294 
 BRR  HZ I        2150 32.35        33.1 0.12                          80.0 294 
 BRR  HE ES   1   2150 49.14                             150    0.20 7 80.0 294 
 RUS  HZ EP       2150 34.41                             143    0.1410  101 182 
 RUS  HE ES   1   2150 53.18                             143    0.42 7  101 182 
 NOR  SZ EP       2150 46.82                             117   -0.38 8  244 236 
 CHI  HZ EP       2150 48.40                             116   -0.22 8  252 197 
 CHI  HN ES   3   2151 17.86                             116   -0.44 2  252 197 
 CHI  HZ I        2151 21.93         6.1 0.64                           252 197 
 HEL  HZ EP   3   2150 51.26                             114   -0.60 2  282 256 
 HEL  HZ I        2151 29.43         4.2 0.28                           282 256 
 RREF HZ EP   2   2150 58.08                             110    0.45 3  330 230 
 RREF HN ES   2   2151 34.64                             110    0.29 3  330 230 
 RREF HZ I        2151 42.17         5.2 0.66                           330 230 
                                                                                
