 2010  619 2308 30.5 L   6.768 -73.146146.9  RSN  6 0.3 1.4LRSN                1
 GAP=156        0.49       4.4     8.0  7.3 -0.1709E+01 -0.7443E+01 -0.7333E+01E
 Epicentro: LOS SANTOS - SANTANDER                                             3
 ACTION:UP  10-08-24 10:11 OP:vdl  STATUS:               ID:20100619230830 L   I
 2010-06-19-2304-46S.COL___118                                                 6
 STAT SP IPHASW D HRMM SECON CODA AMPLIT PERI AZIMU VELO SNR AR TRES W  DIS CAZ7
 BAR2 SZ ES   2   23 9  5.01                             172    -0.5 5   20 192 
 BRR  HZ EP   1   23 8 51.70                             152    -0.2 7   73 301 
 BRR  HZ I        23 8 53.59         6.1 0.53                            73 301 
 BRR  HE ES   2   23 9  8.85                             152     0.3 5   73 301 
 RUS  HZ EP   2   23 8 54.42                             145     0.3 5   97 176 
 RUS  HN ES   2   23 9 12.69                             145     0.2 5   97 176 
 RUS  HZ I        23 9 14.48         3.6 0.27                            97 176 
 BRI  SZ EP   2   23 8 54.59                             141    -0.2 5  112  20 
 BRI  SZ ES   2   23 9 13.92                             141     0.3 5  112  20 
 GUE  SZ EP   2   23 8 55.74                             139     0.2 5  120  12 
 GRA  SZ EP   3   23 8 55.59                             136    -0.5 2  129  17 
                                                                                
