 2017  219 2149 44.2 L   6.798 -73.154149.0  RSN  8 0.4 1.4LRSN                1
 GAP=136        0.68       3.4     3.6  5.8 -0.1532E+01  0.5958E+01  0.8833E+00E
 Epicentro: LOS SANTOS - SANTANDER                                             3
 ACTION:UPD 17-05-24 15:38 OP:jn   STATUS:               ID:20170219214944 L   I
 OLDACT:UP  17-02-20 03:40 OP:and  STATUS:               ID:20170219214741     3
 OLDACT:UP  17-02-20 03:40 OP:and  STATUS:               ID:20170219214741     3
 OLDACT:UP  17-02-20 03:39 OP:and  STATUS:               ID:20170219214741     3
 OLDACT:REG 17-02-20 02:42 OP:and  STATUS:               ID:20170219214741     3
 2017-02-19-2148-00M.COL___352                                                 6
 STAT SP IPHASW D HRMM SECON CODA AMPLIT PERI AZIMU VELO AIN AR TRES W  DIS CAZ7
 BAR2 EZ ES   2   2150 20.17                             171    0.36 5 22.9 188 
 BAR2 EZ I        2150 21.60         7.5 0.08            168           22.9 188 
 BRR  HZ EP       2150  5.85                             153    0.1910 70.6 299 
 BRR  HN ES   2   2150 23.08                             153    0.68 5 70.6 299 
 PAM  EZ IP     C 2150  6.88                             151    0.0810 78.1  40 
 PAM  EN ES       2150 24.20                             151   -0.2310 78.1  40 
 PAM  EZ I        2150 26.25         3.4 0.64            156           78.1  40 
 RUS  HZ EP       2150  8.04                             144   -0.2110  100 176 
 RUS  HN ES       2150 27.10                             144    0.0910  100 176 
 RUS  HZ I        2150 27.74         5.5 0.26            145            100 176 
 PTB  HZ EP       2150 11.60                             133    0.25 9  147 259 
 PTB  HN ES       2150 31.86                             133   -0.67 9  147 259 
 PTB  HZ I        2150 39.23         4.1 0.34            132            147 259 
 ZAR  HZ EP   2   2150 16.49                             123   -0.29 4  203 292 
 ZAR  HN ES   2   2150 42.60                             123    0.40 4  203 292 
 ZAR  HZ I        2150 48.10         2.3 0.13            123            203 292 
 NOR  HZ EP   2   2150 20.53                             119    0.51 4  234 234 
 NOR  HE ES   3   2150 49.11                             119    1.15 2  234 234 
 NOR  HZ I        2150 49.61         2.8 0.16            119            234 234 
 CHI  HZ EP   2   2150 22.24                             118    0.22 4  248 195 
 CHI  HN ES   2   2150 51.49                             118   -0.03 4  248 195 
 CHI  HZ I        2151  0.33         1.1 0.32            119            248 195 
                                                                                
