 2011  619 2143 12.3 L   6.759 -73.072143.8  RSN  5 0.1 1.3LRSN                1
 GAP=202        0.34       3.4     8.8  3.6  0.2081E+02 -0.6049E+01 -0.1933E+01E
 Epicentro: LOS SANTOS - SANTANDER                                             3
 ACTION:UP  11-07-14 19:06 OP:ep   STATUS:               ID:20110619214312 L   I
 2011-06-19-2141-27S.COL___140                                                 6
 STAT SP IPHASW D HRMM SECON CODA AMPLIT PERI AZIMU VELO SNR AR TRES W  DIS CAZ7
 BAR2 SZ EP   1   2143 31.52                             171    -0.2 7   22 213 
 BAR2 SZ ES   2   2143 47.14                             171     0.3 5   22 213 
 BAR2 SZ I        2143 49.87         4.3 0.57                            22 213 
 BTL  SZ EP   1   2143 31.93                             168     0.1 7   28 309 
 BTL  SZ ES   1   2143 46.91                             168    -0.1 7   28 309 
 GIR2 SZ EP   2   2143 32.05                             164     0.1 5   38 339 
 GIR2 SZ ES   2   2143 47.30                             164     0.0 5   38 339 
 BRR  HZ EP   1   2143 33.90                             149     0.1 7   81 299 
 BRR  HZ I        2143 44.94         9.0 0.50                            81 299 
 BRR  HN ES   2   2143 50.58                             149     0.0 5   81 299 
 RUS  HZ EP   1   2143 35.61                             145     0.0 7   96 181 
 RUS  HE ES       2143 53.66                             145     0.010   96 181 
 RUS  HZ I        2143 55.36         1.6 0.29                            96 181 
                                                                                
