 2015  319 2234 25.9 L   6.813 -73.123147.9  RSN 11 0.4 1.8LRSN                1
 GAP=139        0.87       3.4     3.7  6.0 -0.5983E+00  0.6110E+01  0.1663E+01E
 Epicentro: LOS SANTOS - SANTANDER                                             3
 ACTION:UPD 15-04-30 16:27 OP:nd   STATUS:               ID:20150319223425 L   I
 OLDACT:REG 15-03-20 04:02 OP:spq  STATUS:               ID:20150319222736     3
 2015-03-19-2227-36M.COL___281                                                 6
 STAT SP IPHASW D HRMM SECON CODA AMPLIT PERI AZIMU VELO AIN AR TRES W  DIS CAZ7
 BAR2 EZ EP   1   2234 45.70                             170   -0.12 7 25.3 195 
 BAR2 EZ ES   1   2235  1.23                             170   -0.14 7 25.3 195 
 BAR2 EZ I        2235  2.03        12.8 0.18            168           25.3 195 
 BRR  HZ EP       2234 47.65                             152    0.2810 72.8 297 
 BRR  HN ES       2235  4.45                             152    0.3410 72.8 297 
 BRR  HZ I        2235 10.64         7.8 0.32            151           72.8 297 
 PAM  SZ EP       2234 48.53                             152    0.3510 74.7  39 
 PAM  SE ES       2235  5.60                             152    0.0310 74.7  39 
 PAM  SZ I        2235  7.83         6.4 0.48            157           74.7  39 
 RUS  HZ EP       2234 49.70                             144   -0.2510  102 178 
 RUS  HN ES       2235  8.59                             144   -0.1210  102 178 
 RUS  HZ I        2235 10.47         5.8 0.20            146            102 178 
 PTB  HZ EP       2234 52.58                             132   -0.71 9  151 258 
 PTB  HE ES       2235 14.18                             132   -0.47 9  151 258 
 PTB  HZ I        2235 15.91         6.8 0.14            132            151 258 
 SPBC HE ES   2   2235 16.99                             129   -0.38 5  166 219 
 SPBC HZ I        2235 22.77        11.8 0.20            130            166 219 
 ZAR  HZ EP   1   2234 58.78                             123    0.11 6  206 292 
 ZAR  HE ES       2235 24.36                             123    0.13 8  206 292 
 ZAR  HZ I        2235 29.56         5.8 0.46            124            206 292 
 NOR  HE ES       2235 30.98                             119    0.72 8  238 235 
 NOR  HZ I        2235 36.49         5.0 0.20            120            238 235 
 SML  HE ES   1   2235 30.66                             118   -0.60 6  244 335 
 SML  HZ I        2235 32.29         5.8 0.30            120            244 335 
 GUY2CHZ EP   4   2235 12.52                             112    2.59 0  304 235 
 GUY2CHN ES   4   2235 47.09                             112    2.82 0  304 235 
 GUY2CHZ I        2235 52.25         2.4 0.56                           304 235 
 PRA  HZ EP   1   2235 20.64                             107    0.86 4  394 210 
 PRA  HE ES   1   2236  2.10                             107    0.29 4  394 210 
 PRA  HZ I        2236  6.21         2.9 0.36            108            394 210 
                                                                                
