 2012  519 2320 53.4 L   6.803 -73.191142.7  RSN  5 0.1 1.4LRSN                1
 GAP=131        0.35       2.5     2.2  4.0 -0.8984E+00  0.2300E+01 -0.4364E+00E
 Epicentro: ZAPATOCA - SANTANDER                                               3
 ACTION:UP  12-07-05 12:06 OP:pat  STATUS:               ID:20120519232053 L   I
 2012-05-19-2320-00M.COL___200                                                 6
 STAT SP IPHASW D HRMM SECON CODA AMPLIT PERI AZIMU VELO SNR AR TRES W  DIS CAZ7
 BAR2 SZ EP       2321 12.70                             170     0.110   23 178 
 BAR2 SZ ES   2   2321 27.62                             170     0.0 5   23 178 
 BAR2 SZ I        2321 28.97         8.1 0.30                            23 178 
 PAM  SZ EP       2321 15.50                             149     0.110   80  42 
 PAM  SE ES   1   2321 32.56                             149    -0.1 7   80  42 
 RUS  HZ EP       2321 16.71                             143    -0.210  101 173 
 RUS  HN ES   1   2321 35.36                             143     0.1 7  101 173 
 RUS  HZ I        2321 36.16         2.7 0.33                           101 173 
 PTB  HZ EP       2321 19.68                             132     0.0 9  143 258 
 PTB  HN ES   1   2321 40.04                             132    -0.1 7  143 258 
 PTB  HZ I        2321 41.71         3.0 0.50                           143 258 
 ZAR  HN ES   2   2321 49.95                             122     0.1 4  199 293 
 ZAR  HZ I        2321 55.12         4.0 0.37                           199 293 
                                                                                
