 2016 1119 2311 44.4 L   6.743 -73.134150.3  RSN  5 0.4 1.7LRSN                1
 GAP=162        0.94       8.1     4.6  7.5 -0.8196E+01  0.6955E+01  0.2381E+01E
 Epicentro: LOS SANTOS - SANTANDER                                             3
 ACTION:UPD 17-10-26 21:09 OP:lp   STATUS:               ID:20161119231144 L   I
 OLDACT:REG 16-11-20 09:38 OP:dnl  STATUS:               ID:20161119230747     3
 2016-11-19-2308-00M.COL___331                                                 6
 STAT SP IPHASW D HRMM SECON CODA AMPLIT PERI AZIMU VELO AIN AR TRES W  DIS CAZ7
 BAR2 EZ EP       2312  4.69                             173    0.1710 17.5 198 
 BAR2 EZ ES       2312 20.27                             173    0.0910 17.5 198 
 BAR2 EZ I        2312 21.31        17.7 0.16            172           17.5 198 
 BRR  HZ EP       2312  6.64                             152    0.3110 75.5 302 
 BRR  HE ES       2312 23.97                             152    0.5810 75.5 302 
 BRR  HZ I        2312 24.83        13.2 0.38            146           75.5 302 
 PAM  EZ EP       2312  7.53                             150    0.1310 81.6  36 
 PAM  EN ES       2312 24.70                             150   -0.6010 81.6  36 
 PAM  EZ I        2312 27.51         4.7 0.58            149           81.6  36 
 PTB  HZ EP       2312 11.59                             133   -0.21 9  148 261 
 PTB  HN ES       2312 32.63                             133   -0.50 9  148 261 
 PTB  HZ I        2312 38.78         4.6 0.20            131            148 261 
 ZAR  HZ EP   4   2312 15.48                             123   -2.08 0  208 294 
 ZAR  HN ES       2312 43.29                             123   -0.10 8  208 294 
 ZAR  HZ I        2312 53.34         4.9 0.36            121            208 294 
                                                                                
