 2014  419 2245 53.3 L   6.800 -73.146150.0  RSN 12 0.4 2.3LRSN                1
 GAP=137        0.92       2.5     3.6  5.6 -0.1242E+01  0.4507E+01  0.8141E+00E
 Epicentro: LOS SANTOS - SANTANDER                                             3
 ACTION:UPD 14-05-13 23:09 OP:nd   STATUS:               ID:20140419224553 L   I
 OLDACT:UP  14-04-20 04:33 OP:cam  STATUS:               ID:20140419223810     3
 OLDACT:REG 14-04-20 02:35 OP:cam  STATUS:               ID:20140419223810     3
 2014-04-19-2238-10M.COL___239                                                 6
 STAT SP IPHASW D HRMM SECON CODA AMPLIT PERI AZIMU VELO AIN AR TRES W  DIS CAZ7
 BRR  HZ IP     D 2246 15.10                             153    0.1910 71.2 298 
 BRR  HE ES       2246 32.69                             153    0.9310 71.2 298 
 BRR  HZ I        2246 35.43        31.0 0.14            151           71.2 298 
 PAM  SZ EP       2246 16.13                             152    0.1710 77.3  40 
 PAM  SN ES       2246 33.44                             152   -0.2010 77.3  40 
 PAM  SZ I        2246 35.45        24.3 0.48            156           77.3  40 
 RUS  HZ EP       2246 17.57                             145    0.1010  101 176 
 RUS  HE ES       2246 35.96                             145   -0.3610  101 176 
 RUS  HZ I        2246 38.63        14.3 0.42            149            101 176 
 PTB  HZ EP       2246 20.09                             133   -0.53 9  148 259 
 PTB  HN ES       2246 41.47                             133   -0.45 9  148 259 
 PTB  HZ I        2246 48.44        38.2 0.42            134            148 259 
 OCA  HZ EP   1   2246 22.08                             131    0.14 7  160 353 
 OCA  HN ES       2246 44.53                             131    0.26 9  160 353 
 OCA  HZ I        2246 53.13        20.0 0.26            133            160 353 
 SPBC HZ EP   1   2246 22.26                             130    0.13 7  163 219 
 SPBC HN ES   1   2246 44.30                             130   -0.32 7  163 219 
 SPBC HZ I        2246 49.29        27.4 0.38            132            163 219 
 ZAR  HZ EP       2246 25.86                             123   -0.16 9  204 292 
 ZAR  HE ES       2246 51.61                             123    0.06 9  204 292 
 ZAR  HZ I        2247  2.38        15.6 0.12            125            204 292 
 NOR  HZ EP   1   2246 29.13                             120   -0.15 6  235 234 
 NOR  HN ES       2246 57.43                             120    0.08 8  235 234 
 NOR  HZ I        2247  0.03         9.6 0.66            122            235 234 
 SML  HZ EP       2246 29.75                             119   -0.41 8  244 335 
 SML  HN ES       2246 58.23                             119   -0.68 8  244 335 
 SML  HZ I        2247  1.33        27.0 0.30            121            244 335 
 CHI  HZ EP   1   2246 31.25                             118    0.01 6  249 195 
 CHI  HE ES       2247  1.10                             118    0.27 8  249 195 
 CHI  HZ I        2247  5.76         6.4 0.64            121            249 195 
 HEL  HZ EP   2   2246 35.31                             116    1.58 4  272 256 
 HEL  HN ES       2247  5.37                             116    0.10 8  272 256 
 HEL  HZ I        2247 11.48        13.5 0.32            118            272 256 
 URE  HZ EP   4   2246 37.31                             115    2.73 0  284 292 
 RREF HZ EP   1   2246 40.18                             112    0.55 5  322 229 
                                                                                
