 2014  819 2225 33.3 L   6.709 -73.145149.8  RSN  8 0.3 1.6LRSN                1
 GAP=199        0.83       3.8     4.9  6.1  0.5220E+01 -0.3042E-01 -0.3291E+01E
 Epicentro: VILLANUEVA - SANTANDER                                             3
 ACTION:UPD 14-09-15 21:51 OP:nd   STATUS:               ID:20140819222533 L   I
 OLDACT:UP  14-08-20 08:44 OP:spq  STATUS:               ID:20140819221818     3
 OLDACT:REG 14-08-20 05:08 OP:spq  STATUS:               ID:20140819221818     3
 2014-08-19-2218-18M.COL___271                                                 6
 STAT SP IPHASW D HRMM SECON CODA AMPLIT PERI AZIMU VELO AIN AR TRES W  DIS CAZ7
 BAR2 SZ EP       2225 52.75                             175   -0.4710 13.6 198 
 BAR2 SZ ES   1   2226  8.57                             175   -0.22 7 13.6 198 
 BAR2 SZ I        2226  9.28        12.1 0.18            178           13.6 198 
 BRR  HZ EP       2225 55.28                             151    0.1310 76.6 305 
 BRR  HZ I        2226 12.01        13.4 0.34            148           76.6 305 
 BRR  HE ES       2226 12.55                             151    0.3310 76.6 305 
 RUS  HZ EP       2225 56.72                             148   -0.0010 90.5 176 
 RUS  HE ES   1   2226 15.12                             148    0.09 7 90.5 176 
 RUS  HZ I        2226 16.55         2.9 0.21            148           90.5 176 
 PTB  HZ EP       2225 59.91                             133   -0.51 9  146 263 
 PTB  HE ES       2226 21.08                             133   -0.53 9  146 263 
 PTB  HZ I        2226 24.80         4.0 0.10            131            146 263 
 SPBC HZ EP       2226  1.71                             131    0.35 9  156 221 
 SPBC HN ES       2226 23.80                             131    0.52 9  156 221 
 SPBC HZ I        2226 25.93         4.8 0.28            130            156 221 
 ZAR  HZ EP   1   2226  6.40                             123    0.02 6  208 295 
 ZAR  HE ES       2226 32.19                             123   -0.03 8  208 295 
 ZAR  HZ I        2226 38.39         3.6 0.18            120            208 295 
 SML  HZ EP   1   2226 11.49                             117    0.39 6  253 336 
 SML  HE ES   1   2226 41.00                             117    0.38 6  253 336 
 SML  HZ I        2226 45.03         4.8 0.24            114            253 336 
 GUY2CHE ES   4   2226 54.42                             114    4.33 0  296 236 
 GUY2CHZ I        2227  2.16         1.5 0.54                           296 236 
                                                                                
