 2013 1219 2056 28.4 L   6.681 -73.191151.0  RSN  4 0.1 1.3LRSN                1
 GAP=223        0.42       4.1     4.0  4.5  0.1250E+02  0.2936E+01  0.2075E+01E
 Epicentro: VILLANUEVA - SANTANDER                                             3
 ACTION:UPD 14-01-13 10:19 OP:ep   STATUS:               ID:20131219205628 L   I
 OLDACT:DUP 13-12-20 03:16 OP:carl STATUS:               ID:20131219205001d    3
 2013-12-19-2050-00M.COL___285                                                 6
 STAT SP IPHASW D HRMM SECON CODA AMPLIT PERI AZIMU VELO AIN AR TRES W  DIS CAZ7
 BRR  HE ES       2057  7.25                             152   -0.1010 74.4 309 
 RUS  HZ EP       2056 51.82                             148    0.0110 88.0 172 
 RUS  HE ES       2057 10.18                             148    0.1010 88.0 172 
 RUS  HZ I        2057 11.93         4.0 0.34            145           88.0 172 
 PTB  HZ EP       2056 55.03                             135   -0.14 9  141 264 
 PTB  HN ES       2057 15.98                             135   -0.08 9  141 264 
 PTB  HZ I        2057 20.77         2.3 0.20            132            141 264 
 ZAR  HN ES       2057 27.15                             123    0.25 9  205 296 
                                                                                
