 2010  719 2248 50.0 L   6.181 -73.636113.2  RSN  5 0.3 1.6LRSN                1
 GAP=122        0.85       4.1     5.3  8.2 -0.4748E+01  0.1884E+02  0.1398E+01E
 Epicentro: LA PAZ - SANTANDER                                                 3
 ACTION:UPD 10-12-01 15:18 OP:pat  STATUS:               ID:20100719224850 L   I
 2010-07-19-2245-07S.COL___123                                                 6
 STAT SP IPHASW D HRMM SECON CODA AMPLIT PERI AZIMU VELO AIN AR TRES W  DIS CAZ7
 BAR2 SZ EP       2249  7.99                             147     0.210   68  48 
 BAR2 SZ I        2249  8.29        14.9 0.06                            68  48 
 BAR2 SZ ES       2249 22.02                             147     0.310   68  48 
 RUS  HZ EP       2249  8.02                             147    -0.210   69 118 
 RUS  HZ I        2249  8.42         6.0 0.03                            69 118 
 RUS  HN ES   1   2249 22.30                             147    -0.2 7   69 118 
 BRR  HZ EP       2249  9.76                             134    -0.410  103 355 
 BRR  HZ I        2249 10.17         9.5 0.93                           103 355 
 BRR  HN ES       2249 25.86                             134    -0.110  103 355 
 GUE  SZ EP       2249 20.64                             115     0.3 9  199  23 
 RREF HN ES       2249 52.54                             111     0.2 8  237 233 
 RREF HZ I        2249 55.19         2.8 0.87                           237 233 
                                                                                
