 2014  619 2229 49.7 L   6.344 -73.615106.3  RSN 16 0.5 2.2LRSN                1
 GAP= 70        1.06       2.6     3.3  6.2 -0.8265E+00  0.8383E+01  0.1293E+01E
 Epicentro: SANTA HELENA DEL OPON - SANTANDER                                  3
 ACTION:UPD 14-07-01 22:55 OP:nd   STATUS:               ID:20140619222949 L   I
 OLDACT:REG 14-06-20 05:29 OP:fm   STATUS:               ID:20140619222817     3
 2014-06-19-2228-17M.COL___262                                                 6
 STAT SP IPHASW D HRMM SECON CODA AMPLIT PERI AZIMU VELO AIN AR TRES W  DIS CAZ7
 BAR2 SZ IP     C 2230  6.19                             150    0.1410 55.2  60 
 BAR2 SZ ES   1   2230 19.13                             150    0.35 7 55.2  60 
 BAR2 SZ I        2230 20.54        76.7 0.44            154           55.2  60 
 RUS  HZ EP     D 2230  7.50                             141   -0.4110 77.3 130 
 RUS  HE ES       2230 22.14                             141    0.0410 77.3 130 
 RUS  HZ I        2230 23.34        15.5 0.14            143           77.3 130 
 BRR  HZ EP       2230  7.78                             138   -0.0610 85.0 353 
 BRR  HN ES       2230 22.45                             138    0.4810 85.0 353 
 BRR  HZ I        2230 23.46        42.1 0.12            139           85.0 353 
 SPBC HZ EP       2230  8.37                             136   -0.1510 91.7 213 
 SPBC HN ES       2230 23.55                             136    0.3610 91.7 213 
 SPBC HZ I        2230 29.77        36.1 0.32            135           91.7 213 
 PTB  HZ EP     C 2230  7.94                             135   -0.8010 95.5 283 
 PTB  HN ES       2230 22.86                             135   -0.7210 95.5 283 
 PTB  HZ I        2230 25.42        59.8 0.14            133           95.5 283 
 NOR  HZ EP       2230 15.71                             118    0.19 9  163 238 
 NOR  HE ES       2230 35.55                             118   -0.09 9  163 238 
 NOR  HZ I        2230 41.00        29.2 0.18            118            163 238 
 ZAR  HZ EP       2230 17.86                             114   -0.17 9  187 313 
 ZAR  HN ES       2230 40.37                             114    0.25 9  187 313 
 ZAR  HZ I        2230 45.34        33.3 0.34            114            187 313 
 CHI  HN ES   1   2230 41.13                             114   -0.51 7  190 184 
 CHI  HZ I        2230 46.01         9.0 0.22            114            190 184 
 HEL  HZ EP       2230 21.66                             111    0.31 8  212 266 
 HEL  HN ES       2230 45.83                             111   -0.19 8  212 266 
 HEL  HZ I        2230 52.62        13.1 0.28            111            212 266 
 OCA  HN ES   1   2230 45.76                             111    0.30 6  212   9 
 OCA  HZ I        2230 51.59        21.4 0.46            112            212   9 
 GUY2CHZ EP       2230 24.53                             109    1.04 8  230 237 
 GUY2CHN ES   4   2230 51.97                             109    2.14 0  230 237 
 GUY2CHZ I        2230 56.06        11.1 0.64                           230 237 
 RREF HZ EP   1   2230 26.28                             107    0.32 6  250 230 
 RREF HN ES       2230 54.72                             107    0.49 8  250 230 
 RREF HZ I        2231  0.47         7.6 0.26            107            250 230 
 URE  HN ES   4   2230 53.59                             106   -2.01 0  263 306 
 CBOC HZ EP   1   2230 28.14                             105    0.30 6  271 259 
 CBOC HN ES   4   2230 52.32                             105   -5.25 0  271 259 
 CBOC HZ I        2230 59.69         4.1 0.24            105            271 259 
 SML  HZ EP   1   2230 27.41                             105   -0.88 6  276 350 
 SML  HN ES   4   2230 56.84                             105   -1.53 0  276 350 
 SML  HZ I        2231  3.94        20.3 0.28            105            276 350 
 PRA  HZ EP   4   2230 34.93                             102    1.01 0  323 206 
 PRA  HN ES       2231  7.67                             102   -0.72 7  323 206 
 PRA  HZ I        2231 16.27         7.1 0.32            102            323 206 
 ORTC HN ES   1   2231  9.42                             102    0.79 5  324 214 
 ORTC HZ I        2231 13.14         4.1 0.28            102            324 214 
                                                                                
