 2011  319 2334 39.3 L   6.790 -72.995144.0  RSN  8 0.4 2.2LRSN                1
 GAP=176        0.94       3.8     8.5  8.0 -0.9522E+01  0.1692E+02 -0.1856E+01E
 Epicentro: CEPITA - SANTANDER                                                 3
 ACTION:UP  11-06-16 14:34 OP:jfem STATUS:               ID:20110319233439 L   I
 2011-03-19-2333-17S.COL___136                                                 6
 STAT SP IPHASW D HRMM SECON CODA AMPLIT PERI AZIMU VELO SNR AR TRES W  DIS CAZ7
 BAR2 SZ EP       2334 58.89                             168     0.010   30 223 
 BAR2 SZ I        2334 59.31        38.6 0.11                            30 223 
 BAR2 SZ ES   1   2335 13.72                             168    -0.4 7   30 223 
 BTL  SZ EP       2334 59.09                             166     0.110   33 295 
 GIR2 SZ EP   1   2334 59.10                             164     0.1 7   39 326 
 RUS  HZ EP       2335  2.77                             144    -0.110  100 186 
 RUS  HN ES   1   2335 21.33                             144     0.2 7  100 186 
 RUS  HZ I        2335 22.67        13.5 0.25                           100 186 
 GRA  SZ EP       2335  4.59                             137     0.410  123  10 
 GRA  SZ ES   1   2335 24.14                             137     0.6 7  123  10 
 GRA  SZ I        2335 25.60        40.1 0.50                           123  10 
 OCA  SZ EP       2335  7.25                             128    -0.6 9  164 347 
 OCA  SZ ES   1   2335 29.51                             128    -0.6 7  164 347 
 OCA  SZ I        2335 33.92        35.8 0.24                           164 347 
 CHI  HZ EP       2335 17.03                             116    -0.3 8  252 199 
 CHI  HN ES   2   2335 46.94                             116     0.0 4  252 199 
 CHI  HZ I        2335 49.81        10.0 0.44                           252 199 
 HEL  HZ EP   1   2335 21.56                             113     0.4 5  288 257 
 HEL  HN ES   1   2335 54.43                             113     0.5 5  288 257 
 HEL  HZ I        2335 59.20         7.5 0.22                           288 257 
                                                                                
