 2014 1019 2003  0.3 L   6.766 -73.175135.5  RSN  8 0.6 1.9LRSN                1
 GAP= 97        1.44       5.7     5.2  8.5 -0.3872E+00  0.4982E+01  0.1377E+01E
 Epicentro: LOS SANTOS - SANTANDER                                             3
 ACTION:UPD 14-11-29 23:51 OP:nd   STATUS:               ID:20141019200300 L   I
 OLDACT:REG 14-10-20 05:12 OP:stll STATUS:               ID:20141019195744     3
 2014-10-19-1957-44M.COL___264                                                 6
 STAT SP IPHASW D HRMM SECON CODA AMPLIT PERI AZIMU VELO AIN AR TRES W  DIS CAZ7
 BAR2 SZ EP       20 3 18.67                             172    0.0710 19.2 183 
 BAR2 SZ ES       20 3 33.15                             172    0.2710 19.2 183 
 BAR2 SZ I        20 3 34.58        22.7 0.22            169           19.2 183 
 BRR  HZ EP       20 3 20.75                             151    0.4610 70.4 302 
 BRR  HN ES       20 3 36.78                             151    0.9010 70.4 302 
 BRR  HZ I        20 3 38.56        18.1 0.30            148           70.4 302 
 PAM  SZ EP       20 3 21.41                             147   -0.3310 82.4  40 
 PAM  SZ I        20 3 21.81        25.5 0.22            152           82.4  40 
 PAM  SN ES       20 3 37.94                             147   -0.5410 82.4  40 
 RUS  HZ EP       20 3 22.93                             143    0.1510 97.1 174 
 RUS  HN ES       20 3 40.46                             143    0.1410 97.1 174 
 RUS  HZ I        20 3 42.16         8.8 0.30            143           97.1 174 
 PTB  HZ EP       20 3 25.72                             130   -0.36 9  144 260 
 PTB  HN ES       20 3 44.97                             130   -1.22 9  144 260 
 PTB  HZ I        20 3 52.53         6.9 0.32            129            144 260 
 TAM  HZ EP       20 3 26.99                             128   -0.39 9  157 103 
 SPBC HZ EP       20 3 27.94                             128    0.40 9  158 219 
 SPBC HN ES       20 3 48.63                             128   -0.16 9  158 219 
 SPBC HZ I        20 3 55.16        11.4 0.52            127            158 219 
 ZAR  HZ EP       20 3 33.00                             120    1.07 9  203 293 
 ZAR  HE ES       20 3 56.09                             120   -0.52 9  203 293 
 ZAR  HZ I        20 4  5.21         5.2 0.26            120            203 293 
                                                                                
