 2017 1119 2359  4.2 L   6.806 -73.177143.5  RSN 14 0.4 1.9LRSN                1
 GAP= 63        0.86       2.5     2.7  4.7 -0.3627E+00  0.2502E+01  0.5458E+00E
 Epicentro: LOS SANTOS - SANTANDER                                             3
 ACTION:UPD 17-12-12 19:57 OP:rebc STATUS:               ID:20171119235904 L   I
 OLDACT:UP  17-11-20 07:14 OP:mg   STATUS:               ID:20171119234745d    3
 OLDACT:DUP 17-11-20 07:01 OP:mg   STATUS:               ID:20171119234745d    3
 OLDACT:UP  17-11-20 06:59 OP:mg   STATUS:               ID:20171119234743d    3
 OLDACT:DUP 17-11-20 06:56 OP:mg   STATUS:               ID:20171119234743d    3
 2017-11-19-2348-00M.COL___474                                                 6
 STAT SP IPHASW D HRMM SECON CODA AMPLIT PERI AZIMU VELO AIN AR TRES W  DIS CAZ7
 BAR2 EZ EP       2359 23.33                             170   -0.2410 23.7 181 
 BAR2 EZ ES   1   2359 38.86                             170    0.19 7 23.7 181 
 BAR2 EZ I        2359 41.32        22.7 0.26            169           23.7 181 
 PAM  EZ EP       2359 26.41                             150    0.1210 79.1  42 
 PAM  EN ES       2359 43.46                             150   -0.0510 79.1  42 
 PAM  EZ I        2359 45.70        10.2 0.42            155           79.1  42 
 RUS  HZ EP       2359 27.72                             143   -0.0910  102 174 
 RUS  HN ES       2359 46.18                             143   -0.0410  102 174 
 RUS  HZ I        2359 47.37        18.8 0.34            145            102 174 
 PTB  HZ EP       2359 30.64                             132   -0.05 9  144 258 
 PTB  HN ES       2359 51.30                             132   -0.05 9  144 258 
 PTB  HZ I        2359 56.85         3.5 0.18            132            144 258 
 TAM  HZ EP       2359 31.80                             129   -0.24 9  159 105 
 SPBC HZ EP       2359 32.47                             129    0.09 9  162 218 
 SPBC HN ES       2359 53.65                             129   -0.70 9  162 218 
 SPBC HZ I        2359 56.23        13.1 0.18            130            162 218 
 YPLC HZ EP       2359 33.87                             126   -0.20 9  179 150 
 YPLC HN ES       2359 57.97                             126    0.62 9  179 150 
 YPLC HZ I        2359 58.97        13.1 0.22            129            179 150 
 ZAR  HZ EP       2359 35.78                             122   -0.37 9  201 292 
 ZAR  HN ES       24 0  1.26                             122    0.20 9  201 292 
 ZAR  HZ I        24 0 10.54         7.4 0.19            123            201 292 
 TABC EZ EP   2   2359 41.16                             119    1.46 4  229 210 
 NOR  HZ EP       2359 40.15                             118    0.60 8  232 234 
 NOR  HE ES       24 0  7.35                             118    0.24 8  232 234 
 NOR  HZ I        24 0 14.44         4.7 0.16            119            232 234 
 CHI  HZ EP       2359 41.54                             117   -0.22 8  248 194 
 CHI  HN ES       24 0 11.23                             117    0.19 8  248 194 
 CHI  HZ I        24 0 17.17         3.5 0.28            119            248 194 
 DRL03HZ EP       2359 45.18                             113   -0.41 7  288 353 
 DRL03HN ES   2   24 0 19.33                             113    1.47 4  288 353 
 GUY2CHZ EP       2359 48.05                             112    0.61 7  299 234 
 GUY2CHN ES   4   24 0 25.07                             112    3.92 0  299 234 
 GUY2CHZ I        24 0 29.84         3.5 0.37                           299 234 
 PRA  HZ EP       2359 57.21                             106   -0.31 6  391 209 
 PRA  HE ES       24 0 38.61                             106   -0.49 6  391 209 
 PRA  HZ I        24 0 45.72         4.2 0.35            108            391 209 
 SJC  HZ EP   9   2359 57.68                             105   -1.73 0  407 327 
 SJC  HN ES   4   24 0 39.88                             105   -0.85 0  407 327 
                                                                                
