 2010  119 2330  9.1 L   6.779 -73.066150.5  RSN  7 0.3 2.2LRSN                1
 GAP=191        0.48       3.0     7.5  6.0 -0.5484E+01  0.2315E+02 -0.6316E+00E
 Epicentro: LOS SANTOS - SANTANDER                                             3
 ACTION:UP  10-08-24 09:44 OP:vdl  STATUS:               ID:20100119233009 L   I
 2010-01-19-2328-31S.COL___096                                                 6
 STAT SP IPHASW D HRMM SECON CODA AMPLIT PERI AZIMU VELO SNR AR TRES W  DIS CAZ7
 BAR2 SZ EP   1   2330 29.24                             170     0.0 7   24 212 
 BAR2 SZ ES   2   2330 44.73                             170    -0.3 5   24 212 
 RUS  BZ EP   1   2330 33.10                             145     0.0 7   98 181 
 RUS  BE ES   2   2330 51.99                             145     0.1 5   98 181 
 RUS  BZ I        2330 53.45        16.0 0.20                            98 181 
 OCA  SZ EP   1   2330 37.71                             130    -0.4 7  164 350 
 OCA  SZ ES   2   2331  1.35                             130     0.6 5  164 350 
 CHI  HZ EP   1   2330 47.23                             118     0.2 6  249 197 
 CHI  HZ I        2330 48.28         8.2 0.44                           249 197 
 CHI  HN ES   2   2331 16.87                             118     0.2 4  249 197 
 HEL  HZ EP   1   2330 50.62                             115     0.2 6  280 257 
 HEL  HZ I        2331 26.89         6.6 0.21                           280 257 
 RREF BZ EP   1   2330 56.20                             111     0.2 5  327 231 
 RREF BN ES   2   2331 32.29                             111    -0.3 3  327 231 
 RREF BZ I        2331 40.08        10.3 0.29                           327 231 
 PRA  HZ EP   1   2331  2.89                             107    -0.1 4  394 211 
 PRA  HN ES   2   2331 44.83                             107    -0.3 3  394 211 
 PRA  HZ I        2331 50.93        10.5 0.47                           394 211 
                                                                                
