 2014 1019 2206 22.2 L   6.776 -73.152144.1  RSN  6 0.2 1.8LRSN                1
 GAP=137        0.62       2.9     3.0  4.2 -0.2176E+01  0.1763E+01  0.1290E+01E
 Epicentro: LOS SANTOS - SANTANDER                                             3
 ACTION:UPD 14-11-29 23:51 OP:nd   STATUS:               ID:20141019220622 L   I
 OLDACT:DUP 14-10-20 07:17 OP:stll STATUS:               ID:20141019215746d    3
 2014-10-19-2157-45M.COL___268                                                 6
 STAT SP IPHASW D HRMM SECON CODA AMPLIT PERI AZIMU VELO AIN AR TRES W  DIS CAZ7
 BAR2 SZ EP       22 6 41.58                             171   -0.0110 20.6 189 
 BAR2 SZ ES       22 6 56.98                             171    0.2810 20.6 189 
 BAR2 SZ I        22 6 58.27        13.6 0.18            170           20.6 189 
 BRR  HZ EP       22 6 43.42                             152    0.2010 71.9 301 
 BRR  HE ES       22 6 59.92                             152    0.3210 71.9 301 
 PAM  SZ EP       22 6 44.35                             150   -0.0610 79.9  39 
 PAM  SZ I        22 6 44.71        14.7 0.24            153           79.9  39 
 PAM  SN ES       22 7  1.36                             150   -0.3610 79.9  39 
 RUS  HZ EP       22 6 45.66                             144    0.0510 98.0 176 
 RUS  HN ES       22 7  3.81                             144   -0.0610 98.0 176 
 RUS  HZ I        22 7  5.45         8.2 0.26            145           98.0 176 
 PTB  HZ EP       22 6 48.97                             132    0.04 9  147 260 
 PTB  HN ES       22 7  9.31                             132   -0.46 9  147 260 
 PTB  HZ I        22 7 15.04         3.9 0.30            132            147 260 
 SPBC HZ EP       22 6 50.49                             129    0.15 9  161 219 
 SPBC HE ES       22 7 12.16                             129   -0.13 9  161 219 
 SPBC HZ I        22 7 13.81         9.7 0.22            129            161 219 
                                                                                
