 2013  519 2029  5.0 L   6.807 -73.157148.0  RSN  6 0.5 2.0LRSN                1
 GAP=135        1.14       5.6     7.1  9.2  0.2648E+01  0.3562E+01 -0.6704E+01E
 Epicentro: LOS SANTOS - SANTANDER                                             3
 ACTION:UPD 13-06-20 09:52 OP:ep   STATUS:               ID:20130519202905 L   I
 2013-05-19-2028-50M.COL___218                                                 6
 STAT SP IPHASW D HRMM SECON CODA AMPLIT PERI AZIMU VELO AIN AR TRES W  DIS CAZ7
 GIR2 SZ EP   1   2029 24.76                             168   -0.20 7 30.3 352 
 GIR2 SZ ES   1   2029 39.51                             168   -0.98 7 30.3 352 
 BRR  HZ EP   1   2029 26.79                             153    0.44 7 69.7 298 
 BRR  HN ES       2029 43.88                             153    0.9110 69.7 298 
 BRR  HZ I        2029 44.88        16.0 0.34            152           69.7 298 
 PAM  SZ EP       2029 27.85                             151    0.3410 77.6  41 
 PAM  SZ I        2029 28.05        30.9 0.20            152           77.6  41 
 PAM  SN ES   1   2029 45.17                             151    0.14 7 77.6  41 
 RUS  HZ EP   1   2029 28.84                             144   -0.24 7  101 175 
 RUS  HN ES       2029 47.66                             144   -0.1710  101 175 
 RUS  HZ I        2029 48.97         7.9 0.22            145            101 175 
 PTB  HZ EP   1   2029 32.30                             133    0.20 7  147 258 
 PTB  HN ES   1   2029 52.63                             133   -0.57 7  147 258 
 PTB  HZ I        2029 55.23         8.8 0.14            132            147 258 
 SML  HZ EP   1   2029 41.35                             118   -0.31 6  242 335 
 SML  HN ES   1   2030  9.34                             118   -0.88 6  242 335 
 SML  HZ I        2030 13.31        12.8 0.26            118            242 335 
                                                                                
