 2017  819 2011 34.2 L   6.797 -73.150135.8  RSN  8 0.6 1.7LRSN                1
 GAP=136        0.99       3.7     4.8  6.9 -0.3190E+01  0.1458E+02  0.9311E+00E
 Epicentro: LOS SANTOS - SANTANDER                                             3
 ACTION:UPD 17-09-04 20:22 OP:rebc STATUS:               ID:20170819201134 L   I
 OLDACT:REG 17-08-20 02:40 OP:dhb  STATUS:               ID:20170819200409     3
 2017-08-19-2008-00M.COL___408                                                 6
 STAT SP IPHASW D HRMM SECON CODA AMPLIT PERI AZIMU VELO AIN AR TRES W  DIS CAZ7
 BAR2 EZ EP       2011 52.53                             170   -0.1010 22.9 189 
 BAR2 EZ ES       2012  7.01                             170    0.0110 22.9 189 
 BAR2 EZ I        2012  8.54         7.6 0.20            171           22.9 189 
 PAM  EZ IP     C 2011 55.24                             149   -0.1710 78.0  40 
 PAM  EE ES       2012 12.12                             149    0.1710 78.0  40 
 PAM  EZ I        2012 14.63        11.8 0.39            151           78.0  40 
 RUS  HZ EP       2011 57.10                             142    0.1310  100 176 
 RUS  HN ES       2012 14.91                             142    0.1910  100 176 
 RUS  HZ I        2012 16.13        10.0 0.22            144            100 176 
 SPBC HN ES       2012 23.34                             127   -0.17 9  163 219 
 ZAR  HZ EP       2012  6.65                             120    0.66 9  204 292 
 ZAR  HE ES       2012 30.02                             120   -0.76 9  204 292 
 ZAR  HZ I        2012 36.49         3.8 0.38            121            204 292 
 NOR  HZ EP       2012  9.82                             116    0.51 8  234 234 
 NOR  HE ES       2012 37.11                             116    0.42 8  234 234 
 CHI  HZ EP       2012 10.54                             115   -0.78 8  248 195 
 CHI  HE ES       2012 39.86                             115   -0.41 8  248 195 
 CHI  HZ I        2012 43.32         2.8 0.26            117            248 195 
 GUY2CHZ EP   3   2012 19.85                             110    2.54 2  301 235 
 GUY2CHE ES   3   2012 52.78                             110    1.86 2  301 235 
 GUY2CHZ I        2012 58.40         8.5 0.94                           301 235 
                                                                                
