 2017  919 2304 55.3 L   6.765 -73.078145.7  RSN  6 0.4 1.5LRSN                1
 GAP=147        0.98       4.7     5.0  7.3 -0.2274E+01  0.1248E+02  0.1820E+01E
 Epicentro: LOS SANTOS - SANTANDER                                             3
 ACTION:UPD 17-10-05 19:14 OP:rebc STATUS:               ID:20170919230455 L   I
 OLDACT:REG 17-09-20 03:38 OP:dnl  STATUS:               ID:20170919225742     3
 2017-09-19-2258-00M.COL___450                                                 6
 STAT SP IPHASW D HRMM SECON CODA AMPLIT PERI AZIMU VELO AIN AR TRES W  DIS CAZ7
 BAR2 EZ EP       23 5 14.83                             171   -0.1210 22.3 211 
 BAR2 EZ ES       23 5 29.52                             171   -0.7210 22.3 211 
 BAR2 EZ I        23 5 35.03         5.3 0.24            169           22.3 211 
 PAM  EZ EP       23 5 17.82                             151    0.3410 76.1  33 
 PAM  EN ES       23 5 34.85                             151    0.1110 76.1  33 
 PAM  EZ I        23 5 37.02         2.7 0.18            156           76.1  33 
 BRR  HZ EP       23 5 16.69                             150   -0.3010 79.6 298 
 BRR  HN ES       23 5 33.98                             150    0.1110 79.6 298 
 BRR  HZ I        23 5 42.19        10.7 0.32            149           79.6 298 
 RUS  HZ EP   2   23 5 18.97                             145    0.17 5 96.5 180 
 RUS  HE ES       23 5 37.62                             145    0.5310 96.5 180 
 RUS  HZ I        23 5 38.22         3.6 0.44            150           96.5 180 
 ZAR  HE ES       23 5 54.99                             121    0.35 8  212 292 
 ZAR  HZ I        23 5 59.05         5.3 0.40            124            212 292 
 NOR  HZ EP       23 5 30.87                             118   -0.63 8  239 236 
 NOR  HE ES       23 5 59.97                             118    0.28 8  239 236 
 NOR  HZ I        23 6  4.38         1.8 0.32            121            239 236 
                                                                                
