 2011 1019 2029 54.0 L   6.769 -73.114153.8  RSN  5 0.3 1.7LRSN                1
 GAP=192        0.46       5.1     6.9  5.3  0.2413E+02  0.2198E+01 -0.1125E+01E
 Epicentro: LOS SANTOS - SANTANDER                                             3
 ACTION:UPD 12-07-13 16:04 OP:ep   STATUS:               ID:20111019202954 L   I
 2011-10-19-2020-00M.COL___171                                                 6
 STAT SP IPHASW D HRMM SECON CODA AMPLIT PERI AZIMU VELO AIN AR TRES W  DIS CAZ7
 BAR2 SZ EP   3   2030 14.18                             172   -0.39 2 20.9 201 
 GIR2 SZ EP   1   2030 14.77                             166    0.01 7 35.4 346 
 GIR2 SZ ES   2   2030 30.46                             166   -0.47 5 35.4 346 
 BRR  HZ EP   1   2030 16.61                             152    0.31 7 75.9 300 
 BRR  HZ I        2030 16.90        14.2 0.10                          75.9 300 
 BRR  HE ES   1   2030 33.93                             152    0.25 7 75.9 300 
 RUS  HZ EP   1   2030 18.33                             146    0.01 7 96.9 178 
 RUS  HZ I        2030 19.33         3.4 0.19                          96.9 178 
 RUS  HE ES   1   2030 37.22                             146   -0.05 7 96.9 178 
 ZAR  HZ EP   1   2030 27.25                             123   -0.21 6  209 293 
 ZAR  HN ES   2   2030 53.17                             123   -0.38 4  209 293 
 ZAR  HZ I        2030 56.48         5.9 0.09                           209 293 
                                                                                
