 2014  119 2046  6.1 L   6.800 -73.167141.5  RSN 12 0.5 2.4LRSN                1
 GAP= 70        1.17       3.1     4.2  7.1 -0.1717E+01  0.4613E+01  0.2354E+00E
 Epicentro: LOS SANTOS - SANTANDER                                             3
 ACTION:UPD 14-03-13 09:56 OP:ep   STATUS:               ID:20140119204605 L   I
 OLDACT:UP  14-01-19 21:51 OP:JUAN STATUS:               ID:20140119204605 L   3
 OLDACT:REG 14-01-19 21:05 OP:jn   STATUS:               ID:20140119204000     3
 2014-01-19-2040-00M.COL___285                                                 6
 STAT SP IPHASW D HRMM SECON CODA AMPLIT PERI AZIMU VELO AIN AR TRES W  DIS CAZ7
 BAR2 SZ EP       2046 25.45                             170    0.2310 23.0 184 
 BAR2 SZ ES       2046 40.08                             170   -0.0510 23.0 184 
 BAR2 SZ I        2046 41.23       164.1 0.28            170           23.0 184 
 BRR  HZ EP       2046 27.32                             152    0.6410 69.1 299 
 BRR  HN ES   4   2046 44.21                             152    1.48 0 69.1 299 
 BRR  HZ I        2046 48.48        44.3 0.14            152           69.1 299 
 PAM  SZ EP       2046 28.36                             149    0.3910 78.9  41 
 PAM  SN ES       2046 45.09                             149    0.0810 78.9  41 
 PAM  SZ I        2046 47.63        76.8 0.60            153           78.9  41 
 RUS  HZ EP       2046 29.73                             143    0.2710  101 175 
 RUS  HN ES       2046 47.03                             143   -0.6410  101 175 
 RUS  HZ I        2046 48.67        29.5 0.24            145            101 175 
 PTB  HZ EP       2046 32.32                             131   -0.20 9  145 259 
 PTB  HN ES       2046 52.76                             131   -0.36 9  145 259 
 PTB  HZ I        2046 55.90        45.0 0.14            132            145 259 
 TAM  HZ EP       2046 33.80                             129    0.13 9  157 105 
 OCA  HZ EP       2046 33.50                             129   -0.57 9  160 354 
 OCA  HE ES       2046 55.61                             129   -0.26 9  160 354 
 OCA  HZ I        2047  0.58        40.7 0.20            131            160 354 
 SPBC HZ EP       2046 34.28                             128    0.13 9  162 218 
 SPBC HN ES       2046 56.42                             128    0.41 9  162 218 
 SPBC HZ I        2047  0.78        23.6 0.36            130            162 218 
 ZAR  HN ES       2047  4.08                             122    1.11 9  202 292 
 ZAR  HZ I        2047  6.48        31.5 0.26            123            202 292 
 NOR  HE ES       2047  8.22                             118   -0.69 8  233 234 
 NOR  HZ I        2047 14.96        11.2 0.54            119            233 234 
 SML  HN ES       2047  9.90                             117   -0.79 8  243 336 
 CHI  HZ EP       2046 43.11                             116   -0.40 8  248 195 
 CHI  HN ES       2047 12.88                             116    0.20 8  248 195 
 CHI  HZ I        2047 19.51         4.9 0.28            118            248 195 
                                                                                
