 2016  419 2125 33.3 L   6.820 -73.164141.7  RSN 15 0.4 2.5LRSN                1
 GAP=133        1.00       3.7     3.8  5.7 -0.1679E+01  0.8027E+01  0.3702E+01E
 Epicentro: LOS SANTOS - SANTANDER                                             3
 ACTION:UPD 16-05-05 14:22 OP:rebc STATUS:               ID:20160419212533 L   I
 OLDACT:UP  16-04-20 07:21 OP:mh   STATUS:               ID:20160419211746     3
 OLDACT:UP  16-04-20 07:21 OP:mh   STATUS:               ID:20160419211746     3
 OLDACT:UP  16-04-20 07:18 OP:mh   STATUS:               ID:20160419211746     3
 OLDACT:REG 16-04-20 05:17 OP:mh   STATUS:               ID:20160419211746     3
 2016-04-19-2117-46M.COL___307                                                 6
 STAT SP IPHASW D HRMM SECON CODA AMPLIT PERI AZIMU VELO AIN AR TRES W  DIS CAZ7
 BAR2 EZ EP       2125 52.50                             169   -0.0210 25.2 184 
 BAR2 EZ ES       2126  7.47                             169   -0.0210 25.2 184 
 BAR2 EZ I        2126  8.74        69.4 0.32            169           25.2 184 
 PAM  EZ EP     C 2125 55.33                             150    0.2310 77.1  42 
 PAM  EN ES       2126 12.26                             150    0.1810 77.1  42 
 PAM  EZ I        2126 14.35        75.0 0.54            154           77.1  42 
 RUS  HZ EP       2125 56.46                             142   -0.4110  103 175 
 RUS  HN ES       2126 15.32                             142    0.1010  103 175 
 RUS  HZ I        2126 16.57        21.4 0.42            145            103 175 
 PTB  HZ EP       2125 59.00                             131   -0.83 9  146 258 
 PTB  HN ES       2126 20.17                             131   -0.33 9  146 258 
 PTB  HZ I        2126 26.34        22.2 0.40            130            146 258 
 SPBC HZ EP       2126  1.31                             128   -0.26 9  164 218 
 SPBC HN ES       2126 23.83                             128    0.24 9  164 218 
 SPBC HZ I        2126 28.10        55.1 0.50            129            164 218 
 ZAR  HZ EP   1   2126  4.75                             122   -0.48 6  201 292 
 ZAR  HN ES       2126 30.44                             122    0.32 9  201 292 
 ZAR  HZ I        2126 36.80        27.7 0.34            121            201 292 
 NOR  HZ EP       2126  8.64                             118   -0.15 8  234 234 
 NOR  HN ES       2126 36.42                             118   -0.02 8  234 234 
 NOR  HZ I        2126 42.43        21.1 0.41            118            234 234 
 CHI  HZ EP       2126 10.70                             116   -0.29 8  250 195 
 CHI  HN ES       2126 40.03                             116   -0.32 8  250 195 
 CHI  HZ I        2126 43.19        21.4 0.54            118            250 195 
 ROSC BZ EP       2126 12.51                             116    1.18 8  254 210 
 ROSC BN ES   4   2126 42.49                             116    1.53 0  254 210 
 ROSC BZ I        2126 46.67        36.2 0.55            117            254 210 
 HEL  HZ EP   1   2126 13.13                             114   -0.05 6  271 255 
 HEL  HN ES       2126 44.53                             114    0.27 8  271 255 
 HEL  HZ I        2126 51.20        13.0 0.44            114            271 255 
 URE  HZ EP   4   2126 13.20                             113   -0.70 0  281 292 
 URE  HN ES   4   2126 45.29                             113   -0.26 0  281 292 
 URE  HZ I        2126 56.28        20.3 0.26            113            281 292 
 GUY2CHZ EP       2126 17.69                             112    0.98 7  301 234 
 GUY2CHN ES   4   2126 53.09                             112    2.54 0  301 234 
 GUY2CHZ I        2126 56.46        11.7 0.32                           301 234 
 VIL  SZ EP   4   2126 15.62                             111   -1.15 0  305 191 
 VIL  SN ES   4   2126 49.79                             111   -0.86 0  305 191 
 SDV  BZ EP   4   2126 21.31                             107   -1.94 0  361  51 
 SDV  BN ES   4   2126 58.62                             107   -3.56 0  361  51 
 SDV  BZ I        2127  1.84         4.9 0.40            110            361  51 
 ORTC HZ EP       2126 26.76                             106   -0.42 6  396 216 
 ORTC HN ES       2127  9.76                             106    0.57 6  396 216 
 ORTC HZ I        2127 13.67         9.9 0.26            107            396 216 
 SJC  HZ EP   4   2126 25.83                             105   -2.59 0  406 327 
 SJC  HN ES   4   2127  8.46                             105   -2.92 0  406 327 
 CRJC HZ EP   4   2126 32.68                             103   -2.80 0  466   4 
 CRJC HN ES   4   2127 20.89                             103   -3.06 0  466   4 
 CRJC HZ I        2127 24.61        11.4 0.56            104            466   4 
                                                                                
