 2015  120 0913 45.2 L   5.965 -73.682116.1  RSN  8 0.5 1.4LRSN                1
 GAP= 85        1.39       4.6     5.0  9.1 -0.5263E+01  0.6410E+01  0.5695E+01E
 Epicentro: GUAVATA - SANTANDER                                                3
 ACTION:UPD 15-03-02 15:40 OP:nd   STATUS:               ID:20150120091345 L   I
 OLDACT:REG 15-01-20 13:36 OP:carl STATUS:               ID:20150120090748     3
 2015-01-20-0907-48M.COL___256                                                 6
 STAT SP IPHASW D HRMM SECON CODA AMPLIT PERI AZIMU VELO AIN AR TRES W  DIS CAZ7
 SPBC HZ EP        914  2.52                             153    0.1710 55.3 231 
 SPBC HN ES        914 16.28                             153    0.5310 55.3 231 
 SPBC HZ I         914 18.62         8.6 0.20            153           55.3 231 
 RUS  HZ EP        914  3.87                             148    0.2510 66.8  97 
 RUS  HN ES        914 16.92                             148   -1.0810 66.8  97 
 RUS  HZ I         914 19.44         3.4 0.32            150           66.8  97 
 BAR2 EZ EP        914  5.35                             140    0.5210 88.7  39 
 BAR2 EZ ES        914 20.59                             140    0.4410 88.7  39 
 BAR2 EZ I         914 22.80        19.5 0.22            143           88.7  39 
 PTB  HZ EP        914  5.49                             134   -0.5210  107 307 
 PTB  HE ES        914 21.45                             134   -0.8110  107 307 
 PTB  HZ I         914 22.82         5.0 0.10            137            107 307 
 BRR  HZ EP        914  8.13                             129    0.3510  126 359 
 NOR  HE ES        914 28.24                             126    0.55 9  139 251 
 CHI  HZ EP        914 10.52                             124    0.09 9  148 182 
 CHI  HN ES        914 30.21                             124    0.08 9  148 182 
 CHI  HZ I         914 33.29         1.9 0.24            125            148 182 
 ORTC HZ EP        914 24.39                             107   -0.88 7  286 217 
 ORTC HE ES        914 56.52                             107   -0.01 7  286 217 
 ORTC HZ I         915  1.82         1.5 0.20            108            286 217 
                                                                                
