 2017  620 0422 34.4 L   6.763 -73.122145.1  RSN 14 0.4 2.0LRSN                1
 GAP=163        0.96       4.2     4.2  6.8 -0.2271E+01 -0.5474E+01  0.8967E+01E
 Epicentro: LOS SANTOS - SANTANDER                                             3
 ACTION:UPD 17-09-14 16:53 OP:jn   STATUS:               ID:20170620042234 L   I
 OLDACT:DUP 17-06-20 17:47 OP:lv   STATUS:               ID:20170620041760d    3
 2017-06-20-0417-59S.COL___270                                                 6
 STAT SP IPHASW D HRMM SECON CODA AMPLIT PERI AZIMU VELO AIN AR TRES W  DIS CAZ7
 BRR  HZ IP     C  422 55.65                             151   -0.0910 75.5 300 
 BRR  HN ES        423 12.96                             151    0.5910 75.5 300 
 PTB  HZ EP   9    423  0.35                             131   -1.14 0  150 261 
 PTB  HN ES        423 21.07                                   -0.40 9  150 261 
 PTB  HZ I         423 22.42        10.1 0.14            134            150 261 
 TAM  HZ EP        423  1.82                             131    0.11 9  152 104 
 TAM  HZ I         423 37.50        17.7 0.29            118            152 104 
 SPBC HZ EP        423  2.25                             129   -0.47 9  162 221 
 SPBC HE ES        423 24.47                             129   -0.33 9  162 221 
 ZAR  HZ EP        423  6.73                             122   -0.49 8  208 293 
 ZAR  HN ES        423 32.34                             122   -0.48 8  208 293 
 ZAR  HZ I         423 35.46        11.3 0.10            120            208 293 
 NOR  HZ EP        423  9.29                             118   -0.79 8  234 236 
 NOR  HZ I         423 42.73        10.1 0.16            116            234 236 
 ROSC BZ EP        423 12.01                             117   -0.25 8  251 212 
 ROSC BN ES        423 41.75                             117   -0.03 8  251 212 
 ROSC BZ I         423 46.86         6.0 0.26            113            251 212 
 HEL  HZ EP        423 14.90                             114    0.14 8  274 257 
 HEL  HN ES        423 46.48                             114    0.25 8  274 257 
 HEL  HZ I         423 53.16         4.2 0.21            112            274 257 
 URE  HZ EP   4    423 18.37                             113    2.48 0  288 292 
 URE  HN ES   4    423 45.06                             113   -3.19 0  288 292 
 GUY2CHZ EP        423 18.92                             112    0.96 7  301 236 
 GUY2CHN ES        423 51.99                             112    0.05 7  301 236 
 GUY2CHZ I         423 58.58         3.5 0.37                           301 236 
 PTGC HZ EP   4    423 16.25                             112   -1.44 0  304 159 
 PTGC HN ES   4    423 48.73                             112   -2.73 0  304 159 
 PTGC HZ I         423 57.03         3.4 0.53            105            304 159 
 CBOC HZ EP        423 22.18                             110    0.74 7  335 253 
 CBOC HN ES        423 58.30                             110    0.18 7  335 253 
 ORTC HZ EP        423 28.55                             106    0.45 6  394 217 
 ORTC HN ES        424 10.41                             106    0.43 6  394 217 
 APAC HN ES   2    424 11.72                             106    0.11 3  402 288 
 SJC  HZ EP   4    423 28.48                             105   -2.04 0  414 327 
 SJC  HN ES   4    424 12.18                             105   -2.11 0  414 327 
 SJC  HZ I         424 15.52         2.6 0.39            101            414 327 
                                                                                
