 2012  920 0544 27.1 L   6.776 -73.149148.0  RSN  8 0.3 1.8LRSN                1
 GAP=137        0.66       3.5     4.1  5.7 -0.1220E+01  0.9578E+00  0.2970E+01E
 Epicentro: LOS SANTOS - SANTANDER                                             3
 ACTION:UPD 12-10-22 14:19 OP:ep   STATUS:               ID:20120920054427 L   I
 2012-09-20-0540-00M.COL___226                                                 6
 STAT SP IPHASW D HRMM SECON CODA AMPLIT PERI AZIMU VELO AIN AR TRES W  DIS CAZ7
 BAR2 SZ EP   1    544 46.91                             172   -0.02 7 20.6 190 
 BAR2 SZ ES   1    545  1.92                             172   -0.49 7 20.6 190 
 GIR2 SZ EP   1    544 47.00                             166   -0.09 7 33.9 352 
 BRR  HZ EP   1    544 48.85                             152    0.32 7 72.2 301 
 BRR  HZ I         544 56.09        13.3 0.32                          72.2 301 
 BRR  HE ES   1    545  5.87                             152    0.62 7 72.2 301 
 PAM  SZ EP        544 49.74                             150    0.0610 79.7  39 
 PAM  SZ I         544 50.10         7.6 0.22                          79.7  39 
 PAM  SN ES   1    545  7.09                             150   -0.21 7 79.7  39 
 RUS  HZ EP   1    544 50.98                             145    0.11 7 97.9 176 
 RUS  HN ES   1    545  9.57                             145    0.15 7 97.9 176 
 RUS  HZ I         545 10.82         5.1 0.24                          97.9 176 
 PTB  HN ES   1    545 14.67                             133   -0.59 7  147 260 
 PTB  HN I         545 20.18        12.9 0.30                           147 260 
 ZAR  HZ EP   2    544 59.15                             123   -0.59 4  205 293 
 ZAR  HN ES   2    545 25.55                             123    0.34 4  205 293 
 ZAR  HN I         545 27.50        10.0 0.12                           205 293 
 CHI  HZ EP   1    545  4.38                             118   -0.23 6  246 195 
 CHI  HN ES   1    545 34.27                             118    0.38 6  246 195 
 CHI  HN I         545 41.76         5.9 0.46                           246 195 
                                                                                
