 2017 1120 0650 58.8 L   6.804 -73.182146.7  RSN  4 0.3 1.1LRSN                1
 GAP=132        0.71       3.8     3.4  7.4  0.1217E+00  0.7886E+01 -0.3756E+01E
 Epicentro: ZAPATOCA - SANTANDER                                               3
 ACTION:UPD 17-12-12 19:57 OP:rebc STATUS:               ID:20171120065058 L   I
 OLDACT:REG 17-11-20 15:13 OP:osc  STATUS:               ID:20171120064004     3
 2017-11-20-0648-00M.COL___465                                                 6
 STAT SP IPHASW D HRMM SECON CODA AMPLIT PERI AZIMU VELO AIN AR TRES W  DIS CAZ7
 PAM  EZ EP        651 21.41                             150    0.1210 79.6  42 
 PAM  EE ES        651 38.64                             150   -0.1610 79.6  42 
 PAM  EZ I         651 40.53         2.5 0.54            154           79.6  42 
 RUS  HZ EP        651 22.78                             144    0.0410  101 174 
 RUS  HN ES     D  651 41.55                             144    0.1610  101 174 
 RUS  HZ I         651 42.24         2.6 0.34            148            101 174 
 PTB  HE ES        651 45.99                             133   -0.37 9  144 258 
 PTB  HZ I         651 50.54         0.8 0.28            134            144 258 
 ZAR  HZ EP        651 30.63                             123   -0.31 9  200 292 
 ZAR  HN ES        651 56.51                             123    0.52 9  200 292 
 ZAR  HZ I         652  3.80         1.3 0.44            124            200 292 
                                                                                
