 2015  220 0357 58.3 L   6.765 -73.144154.7  RSN  9 0.5 1.6LRSN                1
 GAP=138        1.17       4.3     5.1  6.7 -0.7394E+00  0.5955E+01  0.8203E+00E
 Epicentro: LOS SANTOS - SANTANDER                                             3
 ACTION:UPD 15-04-30 21:27 OP:nd   STATUS:               ID:20150220035758 L   I
 OLDACT:REG 15-02-20 12:47 OP:mher STATUS:               ID:20150220034743     3
 2015-02-20-0347-43M.COL___284                                                 6
 STAT SP IPHASW D HRMM SECON CODA AMPLIT PERI AZIMU VELO AIN AR TRES W  DIS CAZ7
 BAR2 EZ EP        358 18.87                             172   -0.0310 19.6 192 
 BAR2 EZ ES        358 35.03                             172    0.0310 19.6 192 
 BAR2 EZ I         358 37.68         6.0 0.24            172           19.6 192 
 BRR  HZ EP        358 21.02                             153    0.5210 73.2 301 
 BRR  HN ES        358 38.28                             153    0.4410 73.2 301 
 PAM  SZ EP        358 21.96                             151    0.3510 80.3  38 
 PAM  SN ES        358 38.96                             151   -0.8510 80.3  38 
 PAM  SZ I         358 42.23         3.9 0.20            155           80.3  38 
 RUS  HZ EP        358 22.09                             147   -0.5510 96.7 176 
 RUS  HN ES        358 42.25                             147    0.5910 96.7 176 
 RUS  HZ I         358 43.37         3.2 0.40            148           96.7 176 
 PTB  HZ EP        358 26.07                             134    0.15 9  147 260 
 PTB  HN ES        358 47.36                             134   -0.14 9  147 260 
 PTB  HZ I         358 52.05         5.2 0.46            135            147 260 
 SPBC HZ EP        358 27.49                             131    0.29 9  160 220 
 SPBC HN ES   1    358 49.38                             131   -0.39 7  160 220 
 SPBC HZ I         358 56.99         8.8 0.34            133            160 220 
 OCA  HZ EP        358 28.03                             131    0.40 9  164 353 
 OCA  HN ES   1    358 50.31                             131   -0.23 7  164 353 
 OCA  HZ I         358 54.21         5.8 0.26            134            164 353 
 ZAR  HZ EP        358 31.79                             124    0.32 8  206 293 
 ZAR  HE ES        358 56.65                             124   -0.72 8  206 293 
 CHI  HZ EP        358 35.29                             119   -0.79 8  245 195 
 GUY2CHZ EP   4    358 44.85                             114    2.78 0  299 235 
 GUY2CHN ES   4    359 18.19                             114    1.96 0  299 235 
                                                                                
