 2010 1220 0509 36.7 L   6.833 -73.021138.0  RSN  9 0.4 1.9LRSN                1
 GAP=172        0.80       3.2     7.5  6.8 -0.9816E+01  0.1967E+02 -0.1553E+01E
 Epicentro: CEPITA - SANTANDER                                                 3
 ACTION:UP  11-01-14 15:26 OP:pat  STATUS:               ID:20101220050936 L   I
 2010-12-20-0505-25S.COL___133                                                 6
 STAT SP IPHASW D HRMM SECON CODA AMPLIT PERI AZIMU VELO SNR AR TRES W  DIS CAZ7
 BAR2 SZ EP   1    5 9 55.51                             166    -0.1 8   32 214 
 BAR2 SZ ES   1    510 10.33                             166     0.0 8   32 214 
 BAR2 SZ I         510 12.34        37.4 0.38                            32 214 
 RUS  HZ EP        510  0.14                             141     0.210  104 184 
 RUS  HZ I         510  1.31         8.1 0.15                           104 184 
 RUS  HE ES   1    510 17.81                             141    -0.3 7  104 184 
 GRA  SZ IP        510  0.83                             137     0.210  119  12 
 GRA  SZ ES   1    510 18.64                             137    -0.7 7  119  12 
 GRA  SZ I         510 22.36         8.1 0.33                           119  12 
 OCA  SZ IP        510  4.41                             128     0.2 9  159 348 
 OCA  SZ ES   1    510 26.05                             128     0.3 7  159 348 
 OCA  SZ I         510 29.47        15.2 0.24                           159 348 
 NOR  SZ EP   2    510 12.17                             115    -1.3 4  248 236 
 CHI  HZ EP   1    510 14.48                             115    -0.3 6  256 198 
 CHI  HZ I         510 16.08         2.5 0.21                           256 198 
 CHI  HN ES   1    510 44.84                             115     0.4 6  256 198 
 HEL  HZ EP   1    510 18.18                             112     0.1 6  286 256 
 HEL  HN ES   2    510 50.02                             112    -0.4 4  286 256 
 HEL  HZ I         510 54.52         5.3 0.56                           286 256 
 RREF HZ EP   1    510 24.37                             108     0.4 5  335 230 
 RREF HE ES   1    511  1.22                             108     0.4 5  335 230 
 RREF HZ I         511 12.38         3.4 0.33                           335 230 
 PRA  HZ EP   1    510 30.38                             105    -0.7 4  402 211 
                                                                                
