 2013 1220 0416 26.8 L   6.766 -73.148139.3  RSN 10 0.4 2.0LRSN                1
 GAP=138        0.92       3.8     4.1  6.6 -0.4444E+01  0.8949E+01 -0.2827E+00E
 Epicentro: LOS SANTOS - SANTANDER                                             3
 ACTION:UPD 14-01-13 10:19 OP:ep   STATUS:               ID:20131220041626 L   I
 OLDACT:REG 13-12-20 07:21 OP:jn   STATUS:               ID:20131220041000     3
 2013-12-20-0410-00M.COL___285                                                 6
 STAT SP IPHASW D HRMM SECON CODA AMPLIT PERI AZIMU VELO AIN AR TRES W  DIS CAZ7
 BAR2 SZ EP     C  416 45.66                             172    0.0610 19.6 191 
 BAR2 SZ ES        416 59.50                             172   -0.7510 19.6 191 
 BAR2 SZ I         417  3.45        21.2 0.28            170           19.6 191 
 BRR  HZ EP     D  416 47.58                             151    0.2110 72.8 301 
 BRR  HN ES   2    417  4.57                             151    1.17 5 72.8 301 
 BRR  HZ I         417  7.86        19.1 0.32            149           72.8 301 
 PAM  SZ EP        416 48.58                             148    0.0310 80.5  38 
 PAM  SN ES        417  5.79                             148    0.3010 80.5  38 
 PAM  SZ I         417  7.94        23.1 0.58            154           80.5  38 
 RUS  HZ EP        416 49.53                             143   -0.1410 96.9 176 
 RUS  HN ES        417  7.70                             143    0.2110 96.9 176 
 RUS  HZ I         417 11.13         7.3 0.40            148           96.9 176 
 PTB  HZ EP        416 52.55                             131   -0.63 9  147 260 
 PTB  HN ES        417 13.52                             131   -0.22 9  147 260 
 PTB  HZ I         417 19.50        11.1 0.28            131            147 260 
 SPBC HZ EP        416 54.54                             128    0.00 9  160 220 
 SPBC HN ES        417 16.62                             128    0.47 9  160 220 
 SPBC HZ I         417 19.37        19.7 0.34            131            160 220 
 OCA  HN ES   2    417 16.67                             127   -0.29 5  164 353 
 OCA  HZ I         417 20.48        12.7 0.20            130            164 353 
 ZAR  HE ES   1    417 24.17                             121    0.11 6  205 293 
 ZAR  HZ I         417 30.57         9.5 0.24            122            205 293 
 NOR  HN ES        417 29.36                             117    0.06 8  232 235 
 NOR  HZ I         417 38.38         6.2 0.18            120            232 235 
 GUY2CHZ EP   2    417 10.77                             111    0.90 4  299 235 
 GUY2CHZ I         417 53.56         5.0 0.42                           299 235 
                                                                                
