 2011  420 0024 48.1 L   6.811 -73.150145.1  RSN 10 0.3 2.1LRSN                1
 GAP=113        0.73       3.6     4.7  5.0 -0.4419E+01 -0.1068E+00  0.3700E+01E
 Epicentro: LOS SANTOS - SANTANDER                                             3
 ACTION:UP  11-06-22 15:31 OP:REBC STATUS:               ID:20110420002448 L   I
 2011-04-20-0020-23S.COL___139                                                 6
 STAT SP IPHASW D HRMM SECON CODA AMPLIT PERI AZIMU VELO SNR AR TRES W  DIS CAZ7
 BTL  SZ IP        025  7.57                             173     0.010   18 312 
 BTL  SZ ES   1    025 23.26                             173     0.5 7   18 312 
 BAR2 SZ EP        025  7.59                             170    -0.110   24 188 
 BAR2 SZ I         025  8.11        44.0 0.35                            24 188 
 BAR2 SZ ES   2    025 22.50                             170    -0.4 5   24 188 
 BRR  HZ IP     C  025  9.28                             153     0.210   70 298 
 BRR  HZ I         025  9.54        42.1 0.16                            70 298 
 BRR  HN ES   1    025 25.77                             153     0.3 7   70 298 
 PAM  SZ EP        025 10.32                             151     0.110   77  40 
 PAM  SZ I         025 10.53        13.6 0.16                            77  40 
 PAM  SN ES   1    025 27.17                             151    -0.3 7   77  40 
 BRI  SZ EP        025 11.97                             142     0.110  107  21 
 GRA  SZ EP        025 13.20                             137     0.010  125  18 
 GRA  SZ ES   1    025 32.24                             137    -0.5 7  125  18 
 GRA  SZ I         025 33.76        12.2 0.60                           125  18 
 OCA  SZ EP        025 16.05                             130    -0.2 9  159 353 
 OCA  SZ I         025 42.02        20.0 0.24                           159 353 
 YOP  SZ EP        025 18.65                             126     0.4 9  180 153 
 YOP  SN ES   2    025 41.31                             126    -0.4 4  180 153 
 NOR  SZ EP        025 23.38                             118    -0.4 8  235 234 
 NOR  SN ES   2    025 51.21                             118    -0.5 4  235 234 
 HEL  HZ EP   2    025 28.41                             115     0.2 4  272 256 
 HEL  HZ I         026  4.17         9.9 0.34                           272 256 
                                                                                
