 2013  520 0830 42.5 L   6.780 -73.159144.3  RSN  5 0.4 1.8LRSN                1
 GAP=136        0.98       5.3     5.0  8.6 -0.2736E+01  0.2931E+01  0.6701E+01E
 Epicentro: LOS SANTOS - SANTANDER                                             3
 ACTION:UPD 13-06-20 09:52 OP:ep   STATUS:               ID:20130520083042 L   I
 2013-05-20-0828-53M.COL___214                                                 6
 STAT SP IPHASW D HRMM SECON CODA AMPLIT PERI AZIMU VELO AIN AR TRES W  DIS CAZ7
 BAR2 SZ EP        831  1.90                             171    0.0110 21.0 187 
 BAR2 SZ I         831  2.02        10.2 0.40            172           21.0 187 
 BRR  HZ EP        831  3.73                             152    0.2710 71.0 301 
 BRR  HN ES        831 20.46                             152    0.6410 71.0 301 
 BRR  HN I         831 25.25        21.5 0.18            153           71.0 301 
 PAM  SZ EP        831  4.65                             150   -0.0410 80.0  39 
 PAM  SZ I         831  5.05        17.0 0.22            153           80.0  39 
 PAM  SN ES        831 21.57                             150   -0.4510 80.0  39 
 RUS  HZ EP        831  6.33                             144    0.3910 98.5 175 
 RUS  HN ES        831 24.16                             144   -0.0710 98.5 175 
 RUS  HN I         831 26.23         9.0 0.32            148           98.5 175 
 PTB  HZ EP        831  8.83                             132   -0.33 9  146 260 
 PTB  HN ES        831 29.44                             132   -0.53 9  146 260 
 PTB  HZ I         831 31.93         5.2 0.14            134            146 260 
                                                                                
