 2017 1120 0739  7.8 L   6.836 -73.169145.6  RSN 21 0.5 2.1LRSN                1
 GAP= 63        1.24       3.3     3.5  6.2  0.9373E-01  0.4817E+01  0.3568E+00E
 Epicentro: ZAPATOCA - SANTANDER                                               3
 ACTION:UPD 17-12-12 19:57 OP:rebc STATUS:               ID:20171120073907 L   I
 OLDACT:UP  17-11-20 16:00 OP:edw  STATUS:               ID:20171120073743     3
 OLDACT:UP  17-11-20 15:59 OP:edw  STATUS:               ID:20171120073743     3
 OLDACT:UP  17-11-20 15:58 OP:edw  STATUS:               ID:20171120073743     3
 OLDACT:REG 17-11-20 15:16 OP:osc  STATUS:               ID:20171120073743     3
 2017-11-20-0738-00M.COL___475                                                 6
 STAT SP IPHASW D HRMM SECON CODA AMPLIT PERI AZIMU VELO AIN AR TRES W  DIS CAZ7
 BAR2 EZ EP        739 27.39                             169   -0.1410 27.0 183 
 BAR2 EZ ES        739 43.17                             169    0.2810 27.0 183 
 BAR2 EZ I         739 45.21        39.1 0.30            168           27.0 183 
 PAM  EZ EP        739 30.20                             151    0.2410 76.1  43 
 PAM  EE ES        739 47.07                             151   -0.1410 76.1  43 
 PAM  EZ I         739 49.86        14.1 0.24            156           76.1  43 
 RUS  HZ EP        739 31.35                             143   -0.5310  105 175 
 RUS  HN ES        739 50.12                             143   -0.5110  105 175 
 RUS  HZ I         739 51.63        11.0 0.52            144            105 175 
 PTB  HZ EP        739 34.15                             132   -0.49 9  146 257 
 PTB  HE ES        739 55.74                             132    0.19 9  146 257 
 PTB  HZ I         740  1.46        10.4 0.20            131            146 257 
 TAM  HZ IP     D  739 35.86                             130    0.03 9  159 106 
 TAM  HN ES        739 57.34                             130   -0.32 9  159 106 
 TAM  HZ I         739 58.95        10.4 0.44            135            159 106 
 SPBC HZ EP        739 36.61                             129    0.14 9  165 217 
 SPBC HN ES        739 58.99                             129    0.19 9  165 217 
 SPBC HZ I         740  6.24        21.0 0.26            129            165 217 
 YPLC HZ EP     D  739 37.81                             126   -0.27 9  181 151 
 YPLC HE ES        740  2.86                             126    1.19 9  181 151 
 YPLC HZ I         740  4.49         7.6 0.36            129            181 151 
 ZAR  HZ EP        739 39.83                             123   -0.05 9  200 291 
 ZAR  HN ES        740  5.18                             123    0.31 9  200 291 
 ZAR  HZ I         740 10.75        19.8 0.36            123            200 291 
 TABC EZ EP   9    739 45.55                             119    1.74 0  232 210 
 TABC EZ ES        740 14.47                             119    0.87 8  232 210 
 TABC EZ I         740 19.62        19.2 0.42            120            232 210 
 CHI  HZ EP        739 46.03                             117    0.16 8  252 194 
 CHI  HN ES        740 14.65                             117   -0.89 8  252 194 
 CHI  HZ I         740 18.38        10.1 0.64            118            252 194 
 ROSC BZ EP   4    739 47.78                             116    1.60 0  255 210 
 ROSC BN ES   4    740 17.44                             116    1.35 0  255 210 
 ROSC BZ I         740 22.02        27.2 0.45            117            255 210 
 URE  HZ EP        739 47.90                             114   -0.58 7  280 291 
 URE  HN ES   4    740 17.93                             114   -2.24 0  280 291 
 URE  HZ I         740 31.13         7.7 0.32            114            280 291 
 DRL03HZ EP        739 49.77                             113    0.80 7  285 353 
 DRL03HN ES   1    740 21.85                             113    0.80 6  285 353 
 GUY2CHZ EP   4    739 52.75                             112    1.28 0  301 234 
 GUY2CHN ES   4    740 27.76                             112    2.26 0  301 234 
 GUY2CHZ I         740 33.59         8.0 0.32                           301 234 
 VIL  EZ EP        739 51.67                             112    0.04 7  307 191 
 VIL  EN ES        740 25.48                             112   -0.31 7  307 191 
 VIL  EZ I         740 28.08        14.1 0.36            113            307 191 
 PTGC HZ EP   4    739 50.50                             111   -1.71 0  313 158 
 PTGC HN ES   4    740 24.34                             111   -2.48 0  313 158 
 PTGC HZ I         740 25.73         4.3 0.22            113            313 158 
 CBOC HZ EP   4    739 55.73                             110    1.12 0  332 251 
 CBOC HE ES        740 30.81                             110   -0.29 7  332 251 
 CBOC HZ I         740 42.24         1.9 0.18            110            332 251 
 ARGC HZ EP   4    739 58.71                             108    1.75 0  355 341 
 ARGC HN ES   4    740 37.22                             108    1.95 0  355 341 
 ARGC HZ I         740 37.91         2.2 0.46            110            355 341 
 ORTC HZ EP        740  1.77                             106   -0.18 6  397 216 
 ORTC HE ES        740 45.76                             106    1.60 6  397 216 
 ORTC HZ I         740 48.75         5.0 0.24            107            397 216 
 SJC  HZ EP   9    740  1.57                             106   -1.28 0  405 327 
 SJC  HN ES        740 43.00                             106   -1.47 6  405 327 
 SJC  HZ I         740 51.38         2.9 0.40            107            405 327 
 CRJC HZ EP   9    740  7.66                             103   -2.23 0  464   4 
 CRJC HN ES        740 55.14                             104   -0.92 5  464   4 
 CRJC HZ I         741  0.68         6.1 0.72            105            464   4 
                                                                                
