 2013  820 0121 29.3 L   6.734 -73.120140.2  RSN  9 0.4 2.0LRSN 2.9WRSN        1
 SPEC AVERAGE  MO 13.4 ST343.3 OM  2.1 f0 19.1 R0.1138 AL 0.00 WI 20.0 MW  2.9 3
 SPEC SD       MO  0.2 ST395.5 OM  0.4 f0 9.37 R0.0830 AL      WI      MW  0.1 3
 GAP=143        0.91       4.0     3.9  6.1 -0.2137E+01  0.6600E+01  0.3034E+01E
 Epicentro: JORDAN - SANTANDER                                                 3
 SPEC BAR2SH Z MO 13.3 ST 84.1 OM  1.8 f0 14.8 R0.1050 AL-0.00 WI 20.0 MW  2.8 3
 SPEC BAR2SH Z T 122 1 K 0.000 GD  141 VS 4.20 DE 3.20 Q0300.0 QA 0.60 VS 4.20 3
 SPEC PTB HH Z MO 13.6 ST999.9 OM  1.9 f0 35.5 R0.0438 AL-0.00 WI 20.0 MW  3.0 3
 SPEC PTB HH Z T 12215 K 0.000 GD  204 VS 4.20 DE 3.20 Q0300.0 QA 0.60 VS 4.20 3
 SPEC SPBCHH Z MO 13.5 ST227.1 OM  1.8 f0 18.0 R0.0863 AL-0.00 WI 20.0 MW  3.0 3
 SPEC SPBCHH Z T 12216 K 0.000 GD  211 VS 4.20 DE 3.20 Q0300.0 QA 0.60 VS 4.20 3
 SPEC BRR HH Z MO 13.4 ST139.5 OM  1.8 f0 16.8 R0.0925 AL-0.00 WI 20.0 MW  2.9 3
 SPEC BRR HH Z T 122 5 K 0.000 GD  160 VS 4.20 DE 3.20 Q0300.0 QA 0.60 VS 4.20 3
 SPEC RUS HH Z MO 12.9 ST 30.4 OM  1.3 f0 14.6 R0.1064 AL-0.00 WI 20.0 MW  2.6 3
 SPEC RUS HH Z T 122 7 K 0.000 GD  168 VS 4.20 DE 3.20 Q0300.0 QA 0.60 VS 4.20 3
 SPEC ZAR HH Z MO 13.5 ST917.1 OM  1.7 f0 29.2 R0.0532 AL-0.00 WI 20.0 MW  2.9 3
 SPEC ZAR HH Z T 12225 K 0.000 GD  252 VS 4.20 DE 3.20 Q0300.0 QA 0.60 VS 4.20 3
 SPEC PAM SH Z MO 13.5 ST  4.7 OM  1.9 f0 5.02 R0.3096 AL-0.00 WI 20.0 MW  2.9 3
 SPEC PAM SH Z T 122 6 K 0.000 GD  162 VS 4.20 DE 3.20 Q0300.0 QA 0.60 VS 4.20 3
 2013-08-20-0119-59M.COL___269                                                 6
 ACTION:UPD 14-01-14 09:04 OP:ep   STATUS:               ID:20130820012129 L   I
 OLDACT:REG 13-08-20 08:49 OP:mh   STATUS:               ID:20130820011959     3
 STAT SP IPHASW D HRMM SECON CODA AMPLIT PERI AZIMU VELO AIN AR TRES W  DIS CAZ7
 BAR2 SZ EP        121 48.26                             173    0.1110 17.1 204 
 BAR2 SZ ES        122  2.85                             173    0.0010 17.1 204 
 BAR2 SZ I         122  4.19        34.2 0.18            169           17.1 204 
 BRR  HZ IP     C  121 50.22                             150   -0.0110 77.4 302 
 BRR  HN ES        122  6.91                             150    0.3710 77.4 302 
 BRR  SZ I         122 11.59        10.9 0.16            151           77.4 302 
 PAM  SZ EP        121 51.33                             148    0.1410 81.5  35 
 PAM  SN ES        122  8.07                             148   -0.1910 81.5  35 
 PAM  SZ I         122  9.04        13.4 0.20            155           81.5  35 
 RUS  HZ EP        121 52.25                             145    0.2810 93.1 177 
 RUS  HN ES   1    122  9.37                             145   -0.28 7 93.1 177 
 RUS  SZ I         122 16.84        10.2 1.56            146           93.1 177 
 PTB  HZ EP        121 54.98                             130   -0.99 9  149 262 
 PTB  HN ES   1    122 16.82                             130    0.05 7  149 262 
 PTB  HZ I         122 18.46        20.6 0.52            132            149 262 
 PTB  SZ I         122 19.04        19.5 0.16                           149 262 
 SPBC HZ EP        121 57.37                             128    0.35 9  159 221 
 SPBC HN ES   1    122 18.09                             128   -0.55 7  159 221 
 SPBC SZ I         122 21.95         8.2 0.84            130            159 221 
 SPBC HZ I         122 24.83         8.9 0.62                           159 221 
 OCA  HN ES   4    122 18.03                             127   -2.22 0  168 352 
 ZAR  HZ EP   1    122  2.21                             120    0.24 6  210 294 
 ZAR  HN ES        122 27.22                             120   -0.23 8  210 294 
 ZAR  HN I         122 30.20        19.2 0.12            123            210 294 
 ZAR  SZ I         122 33.66        12.2 0.62                           210 294 
 NOR  HE ES        122 32.49                             117    0.50 8  233 236 
 HEL  HZ EP   4    122 10.98                             114    1.62 0  273 257 
 HEL  HN ES   4    122 38.83                             114   -1.77 0  273 257 
 HEL  SZ I         122 47.34         6.5 0.46            116            273 257 
                                                                                
