 2016  720 0404 12.1 L   6.800 -73.075147.1  RSN  6 0.4 1.5LRSN                1
 GAP=245        0.96       5.0     6.6  6.4  0.5899E+01  0.1130E+02  0.8146E+01E
 Epicentro: LOS SANTOS - SANTANDER                                             3
 ACTION:UPD 17-03-29 16:53 OP:lp   STATUS:               ID:20160720040412 L   I
 OLDACT:REG 16-07-20 13:07 OP:ar   STATUS:               ID:20160720035759     3
 2016-07-20-0357-59S.COL___340                                                 6
 STAT SP IPHASW D HRMM SECON CODA AMPLIT PERI AZIMU VELO AIN AR TRES W  DIS CAZ7
 BAR2 EZ EP        4 4 31.78                             169   -0.1710 25.8 207 
 BAR2 EZ ES        4 4 47.42                             169   -0.0110 25.8 207 
 BRR  HZ EP        4 4 33.65                             150   -0.1510 78.1 296 
 BRR  HN ES        4 4 51.21                             150    0.4910 78.1 296 
 BRR  HZ I         4 4 54.07         6.6 0.20            148           78.1 296 
 RUS  HZ EP        4 4 35.64                             144   -0.3310  100 180 
 RUS  HN ES        4 4 54.59                             144    0.0010  100 180 
 RUS  HZ I         4 4 56.05         3.1 0.30            144            100 180 
 SPBC HZ EP        4 4 40.69                             128   -0.49 9  168 221 
 SPBC HN ES        4 5  3.43                             128   -0.43 9  168 221 
 SPBC HZ I         4 5  4.99         9.9 0.40            128            168 221 
 CHI  HZ EP        4 4 50.95                             117    0.84 8  251 197 
 CHI  HN ES        4 5 20.40                             117    0.64 8  251 197 
 CHI  HZ I         4 5 22.69         2.2 0.11            118            251 197 
 CBOC HZ EP        4 5  0.23                             110    0.31 7  341 253 
 CBOC HE ES        4 5 36.96                             110   -0.26 7  341 253 
 CBOC HZ I         4 5 43.99         0.9 0.38            110            341 253 
                                                                                
