 2010  920 0031 16.2 L   6.682 -72.956  4.0  RSN  6 0.5 1.8LRSN                1
 GAP=202        1.41       3.9     8.6 11.9  0.1096E+02  0.5903E+02  0.1244E+02E
 Epicentro: ARATOCA - SANTANDER                                                3
 ACTION:UP  11-02-18 11:04 OP:tino STATUS:               ID:20100920003116 L   I
 2010-09-20-0029-57S.COL___120                                                 6
 STAT SP IPHASW D HRMM SECON CODA AMPLIT PERI AZIMU VELO SNR AR TRES W  DIS CAZ7
 BAR2 SZ IP     C  031 21.12                              47     0.010   27 248 
 BAR2 SZ ES   1    031 24.93                              47    -0.1 7   27 248 
 BAR2 SZ I         031 25.68       179.7 0.15                            27 248 
 BTL  SZ EP        031 23.17                              47    -0.410   43 307 
 BTL  SZ ES   1    031 28.57                              47    -0.8 7   43 307 
 GIR2 SZ EP        031 24.11                              47    -0.610   51 329 
 RUS  HZ IP     C  031 31.13                              47     0.410   88 189 
 RUS  HZ I         031 31.41        42.4 0.18                            88 189 
 RUS  HN ES   1    031 41.41                              47    -0.6 7   88 189 
 BRR  HZ EP        031 32.14                              47     0.810   96 299 
 BRR  HN ES   1    031 43.85                              47     0.7 7   96 299 
 BRR  HZ I         031 45.03        21.5 0.20                            96 299 
 OCA  SZ EP        031 43.94                              47     0.2 9  177 347 
 OCA  SZ ES   2    032  5.42                              47     0.2 4  177 347 
 OCA  SZ I         032 12.01         7.5 0.61                           177 347 
                                                                                
