 2017  420 0023  9.1 L   6.767 -73.188140.5  RSN  4 0.2 1.2LRSN                1
 GAP=141        0.58       3.5     3.6  5.6 -0.4113E+01  0.1610E+01 -0.7489E+00E
 Epicentro: LOS SANTOS - SANTANDER                                             3
 ACTION:UPD 17-05-30 21:14 OP:jn   STATUS:               ID:20170420002309 L   I
 OLDACT:REG 17-04-20 12:55 OP:cog  STATUS:               ID:20170420001741     3
 2017-04-20-0018-00M.COL___365                                                 6
 STAT SP IPHASW D HRMM SECON CODA AMPLIT PERI AZIMU VELO AIN AR TRES W  DIS CAZ7
 BAR2 EZ ES        023 42.40                             172   -0.3410 19.3 178 
 BAR2 EZ I         023 43.65         6.1 0.30            171           19.3 178 
 PAM  EZ EP        023 31.01                             148   -0.0810 83.2  40 
 PAM  EE ES        023 48.47                             148    0.2010 83.2  40 
 RUS  HZ EP        023 31.94                             144   -0.1210 97.4 173 
 RUS  HN ES        023 50.24                             144    0.2410 97.4 173 
 RUS  HZ I         023 51.23         2.1 0.30            144           97.4 173 
 PTB  HN ES        023 55.54                             132    0.10 9  142 260 
 PTB  HZ I         024  0.97         2.4 0.26            130            142 260 
                                                                                
