 2010  920 0838 26.9 L   6.798 -73.001128.4  RSN  5 0.4 1.4LRSN                1
 GAP=175        1.07       7.9    14.4 13.5  0.3912E+02 -0.1061E+03 -0.4011E+02E
 Epicentro: CEPITA - SANTANDER                                                 3
 ACTION:UP  11-02-18 11:04 OP:tino STATUS:               ID:20100920083826 L   I
 2010-09-20-0837-06S.COL___121                                                 6
 STAT SP IPHASW D HRMM SECON CODA AMPLIT PERI AZIMU VELO SNR AR TRES W  DIS CAZ7
 BAR2 SZ EP        838 44.70                             166     0.110   31 221 
 BAR2 SZ ES   1    838 57.78                             166    -0.7 7   31 221 
 BAR2 SZ I         839  1.25         7.2 0.55                            31 221 
 BTL  SZ EP        838 44.97                             166     0.310   32 294 
 BRR  HZ EP        838 46.49                             144    -0.710   86 294 
 BRR  HE ES   1    839  3.54                             144     0.6 7   86 294 
 BRR  HZ I         839  7.72         3.9 0.07                            86 294 
 RUS  HZ EP        838 49.02                             140     0.110  101 185 
 RUS  HN ES   2    839  6.63                             140     0.4 5  101 185 
 GRA  SZ EP        838 50.44                             134     0.110  122  10 
                                                                                
