 2014  520 0201 35.6 L   6.737 -73.130141.9  RSN 11 0.4 1.6LRSN                1
 GAP=141        0.88       3.8     3.9  7.4 -0.2836E+01  0.4210E+01  0.5615E+01E
 Epicentro: JORDAN - SANTANDER                                                 3
 ACTION:UPD 15-03-16 16:59 OP:nd   STATUS:               ID:20140520020135 L   I
 OLDACT:REG 14-05-20 12:16 OP:spq  STATUS:               ID:20140520015805     3
 2014-05-20-0158-05M.COL___254                                                 6
 STAT SP IPHASW D HRMM SECON CODA AMPLIT PERI AZIMU VELO AIN AR TRES W  DIS CAZ7
 BRR  HZ IP     C  2 1 56.88                             150    0.2110 76.2 303 
 BRR  HN ES        2 2 13.49                             150    0.4110 76.2 303 
 BRR  HZ I         2 2 19.28        10.9 0.30            147           76.2 303 
 PAM  SZ EP        2 1 57.80                             149    0.0710 81.9  35 
 PAM  SE ES   1    2 2 14.29                             149   -0.66 7 81.9  35 
 PAM  SZ I         2 2 15.78         5.6 0.16            152           81.9  35 
 RUS  HZ EP        2 1 58.94                             145    0.4310 93.5 177 
 RUS  HN ES   1    2 2 16.44                             145    0.10 7 93.5 177 
 RUS  HZ I         2 2 18.47         2.8 0.32            149           93.5 177 
 PTB  HZ EP   1    2 2  1.82                             131   -0.52 7  148 262 
 PTB  HN ES        2 2 22.72                             131   -0.45 9  148 262 
 PTB  HZ I         2 2 25.10         7.0 0.14            131            148 262 
 SPBC HN ES   1    2 2 25.54                             129    0.42 7  159 221 
 SPBC HZ I         2 2 28.38         3.9 0.23            130            159 221 
 ZAR  HZ EP   1    2 2  8.16                             121   -0.13 6  208 294 
 ZAR  HN ES   1    2 2 33.82                             121    0.07 6  208 294 
 ZAR  HZ I         2 2 42.09         5.9 0.26            121            208 294 
 NOR  HE ES        2 2 37.73                             118   -0.62 8  232 236 
 NOR  HZ I         2 2 45.25         2.7 0.18            119            232 236 
 CHI  HN ES   1    2 2 40.51                             117   -0.64 6  242 196 
 SML  HE ES   4    2 2 40.23                             116   -1.60 0  251 336 
 SML  HZ I         2 2 45.26         8.1 0.10            117            251 336 
 HEL  HE ES   1    2 2 47.10                             114    0.22 6  272 257 
 HEL  HZ I         2 2 54.84         2.9 0.30            115            272 257 
 GUY2CHZ EP   1    2 2 18.77                             112   -0.01 5  299 236 
 GUY2CHE ES   1    2 2 53.23                             112    0.80 5  299 236 
 GUY2CHZ I         2 3  2.49         1.7 0.38                           299 236 
                                                                                
