 2013  320 0538 10.7 L   6.736 -73.195147.5  RSN  4 0.1 1.6LRSN                1
 GAP=227        0.44       3.8     4.2  4.5  0.9053E+01 -0.1322E+01 -0.8414E+00E
 Epicentro: VILLANUEVA - SANTANDER                                             3
 ACTION:UPD 13-04-09 14:03 OP:ep   STATUS:               ID:20130320053000 L   I
 2013-03-20-0530-00M.COL___244                                                 6
 STAT SP IPHASW D HRMM SECON CODA AMPLIT PERI AZIMU VELO AIN AR TRES W  DIS CAZ7
 BAR2 SZ EP        538 30.08                             174   -0.2810 16.0 175 
 BRR  HZ EP        538 31.98                             153    0.0410 70.4 306 
 BRR  HN IS        538 48.64                             153    0.1010 70.4 306 
 BRR  HN ES        538 48.64                             153           70.4 306 
 BRR  HN I         538 53.70         9.4 0.16            152           70.4 306 
 RUS  HZ EP        538 34.30                             146    0.1810 94.1 172 
 RUS  HN ES        538 52.42                             146    0.0010 94.1 172 
 RUS  HN I         538 54.02         4.7 0.34            149           94.1 172 
 PTB  HZ EP        538 37.21                             134    0.04 9  141 261 
 PTB  HN ES   1    538 57.73                             134   -0.13 7  141 261 
 PTB  HN I         539  2.86         4.7 0.36            134            141 261 
                                                                                
