 2012  520 0020  6.8 L   6.781 -73.169140.3  RSN  7 0.5 1.7LRSN                1
 GAP=134        1.24       6.7     8.4 14.7  0.1339E+01  0.5435E+02 -0.4685E+01E
 Epicentro: LOS SANTOS - SANTANDER                                             3
 ACTION:UP  12-07-05 12:06 OP:pat  STATUS:               ID:20120520002006 L   I
 2012-05-20-0020-00M.COL___200                                                 6
 STAT SP IPHASW D HRMM SECON CODA AMPLIT PERI AZIMU VELO SNR AR TRES W  DIS CAZ7
 BAR2 SZ EP   1    020 25.74                             171     0.1 7   21 184 
 BAR2 SZ ES   1    020 39.74                             171    -0.7 7   21 184 
 BAR2 SZ I         020 42.45        10.9 0.42                            21 184 
 BRR  HZ EP   1    020 27.64                             152     0.4 7   70 301 
 BRR  HZ I         020 49.81        10.5 0.07                            70 301 
 PAM  SN ES   1    020 46.44                             149     0.8 7   81  40 
 RUS  HZ EP   1    020 29.84                             143     0.0 7   99 174 
 RUS  HN ES   1    020 47.90                             143     0.1 7   99 174 
 RUS  HZ I         020 49.62         4.8 0.35                            99 174 
 PTB  HZ EP   1    020 32.46                             131    -0.6 7  145 259 
 PTB  HN ES   1    020 53.78                             131     0.3 7  145 259 
 PTB  HZ I         020 55.75         3.6 0.14                           145 259 
 OCA  HN ES   1    020 55.87                             128    -0.8 7  162 354 
 OCA  HZ I         021  1.68        10.6 0.16                           162 354 
 ZAR  HE ES   1    021  4.06                             121     0.5 6  202 293 
 ZAR  HZ I         021 10.84         7.0 0.25                           202 293 
                                                                                
