 2010 1120 0638  9.1 L   6.772 -73.061149.0  RSN  8 0.2 1.8LRSN                1
 GAP=168        0.51       2.5     5.5  4.6  0.4733E+00  0.7060E+00 -0.7739E+00E
 Epicentro: LOS SANTOS - SANTANDER                                             3
 ACTION:UP  10-12-17 16:53 OP:REBC STATUS:               ID:20101120063809 L   I
 2010-11-20-0637-32S.COL___132                                                 6
 STAT SP IPHASW D HRMM SECON CODA AMPLIT PERI AZIMU VELO SNR AR TRES W  DIS CAZ7
 BAR2 SZ IP        638 29.11                             170    -0.110   24 214 
 BAR2 SZ ES   1    638 45.13                             170     0.3 7   24 214 
 BAR2 SZ I         638 45.90        14.0 0.31                            24 214 
 BRR  HZ IP     C  638 31.03                             150    -0.210   81 297 
 BRR  HZ I         638 31.30        27.6 0.15                            81 297 
 BRR  HE ES   1    638 48.57                             150     0.1 7   81 297 
 RUS  HZ EP   1    638 32.81                             146    -0.2 7   97 181 
 RUS  HN ES   1    638 51.38                             146    -0.2 7   97 181 
 RUS  HZ I         638 55.20         5.2 0.36                            97 181 
 GRA  SZ EP   2    638 34.90                             138     0.2 5  126  13 
 GRA  SZ I         638 56.83         7.5 0.26                           126  13 
 OCA  SZ EP   1    638 38.43                             130     0.3 7  165 350 
 OCA  SZ ES   1    639  0.56                             130    -0.2 7  165 350 
 OCA  SZ I         639  5.42        13.3 0.26                           165 350 
 NOR  SZ EP   2    638 45.41                             119    -0.3 4  241 236 
 NOR  SE ES   2    639 14.19                             119     0.0 4  241 236 
 CHI  HZ EP   2    638 47.44                             118     0.5 4  248 197 
 CHI  HN ES   2    639 16.97                             118     0.5 4  248 197 
 CHI  HZ I         639 20.57         2.6 0.42                           248 197 
 HEL  HZ EP   2    638 50.38                             115    -0.1 4  280 257 
 HEL  HZ I         639 27.74         3.6 0.35                           280 257 
                                                                                
