 2017  820 0403 10.8 L   6.840 -73.338113.8  RSN  4 0.3 1.1LRSN                1
 GAP=202        0.74       7.6     8.3  6.6  0.5449E+02  0.1670E+02  0.1310E+02E
 Epicentro: ZAPATOCA - SANTANDER                                               3
 ACTION:UPD 17-09-04 20:22 OP:rebc STATUS:               ID:20170820040310 L   I
 OLDACT:REG 17-08-20 12:27 OP:lv   STATUS:               ID:20170820035741     3
 2017-08-20-0358-00M.COL___411                                                 6
 STAT SP IPHASW D HRMM SECON CODA AMPLIT PERI AZIMU VELO AIN AR TRES W  DIS CAZ7
 BAR2 EZ EP        4 3 27.05                             163    0.1310 32.4 148 
 BAR2 EZ ES        4 3 38.99                             163   -0.4710 32.4 148 
 BAR2 EZ I         4 3 41.63         5.5 0.46            164           32.4 148 
 BRR  HZ IP     D  4 3 27.33                             154   -0.0610 50.8 306 
 BRR  HE ES        4 3 40.72                             154    0.4210 50.8 306 
 BRR  HZ I         4 3 41.57         5.7 0.12            156           50.8 306 
 RUS  HZ EP        4 3 32.29                             133   -0.0010  109 165 
 RUS  HN ES        4 3 49.21                             133    0.1810  109 165 
 RUS  HZ I         4 3 50.40         0.9 0.19            135            109 165 
 ZAR  HE ES        4 4  0.86                             117   -0.26 9  183 293 
                                                                                
