 2016  220 0115 36.4 L   6.792 -73.164150.2  RSN  6 0.4 1.4LRSN                1
 GAP=235        1.12       5.7     7.2  8.0  0.8438E+01  0.3924E+01  0.9693E+01E
 Epicentro: LOS SANTOS - SANTANDER                                             3
 ACTION:UPD 16-03-04 21:27 OP:rebc STATUS:               ID:20160220011536 L   I
 OLDACT:DUP 16-02-20 16:00 OP:drio STATUS:               ID:20160220010751d    3
 2016-02-20-0107-50M.COL___334                                                 6
 STAT SP IPHASW D HRMM SECON CODA AMPLIT PERI AZIMU VELO AIN AR TRES W  DIS CAZ7
 BAR2 EZ EP        115 56.24                             171   -0.2510 22.2 185 
 BAR2 EZ ES        116 12.19                             171   -0.0110 22.2 185 
 BAR2 EZ I         116 14.03         7.5 0.18            167           22.2 185 
 BRR  HZ EP        115 58.03                             154    0.1210 69.9 300 
 BRR  HE ES        116 15.44                             154    0.7210 69.9 300 
 RUS  HZ EP        116  0.80                             145    0.3110 99.9 175 
 RUS  HE ES        116 18.67                             145   -0.6510 99.9 175 
 PTB  HZ EP        116  2.96                             133   -0.53 9  146 259 
 PTB  HN ES        116 24.24                             133   -0.43 9  146 259 
 PTB  HZ I         116 29.76         2.7 0.32            132            146 259 
 SPBC HN ES        116 27.39                             130    0.02 9  161 219 
 CHI  HZ EP        116 14.31                             118    0.16 8  247 195 
 CHI  HN ES        116 44.42                             118    0.78 8  247 195 
 CHI  HZ I         116 49.52         1.3 0.58            118            247 195 
                                                                                
