 2017  320 0243 28.4 L   6.761 -73.092141.6  RSN  6 0.3 1.4LRSN                1
 GAP=158        0.72       4.4     7.3  5.1 -0.2178E+02  0.1213E+02 -0.5695E+00E
 Epicentro: LOS SANTOS - SANTANDER                                             3
 ACTION:UPD 17-05-25 18:42 OP:jn   STATUS:               ID:20170320024328 L   I
 OLDACT:UP  17-03-20 15:38 OP:cog  STATUS:               ID:20170320023738     3
 OLDACT:REG 17-03-20 12:56 OP:cog  STATUS:               ID:20170320023738     3
 2017-03-20-0238-00M.COL___382                                                 6
 STAT SP IPHASW D HRMM SECON CODA AMPLIT PERI AZIMU VELO AIN AR TRES W  DIS CAZ7
 BAR2 EZ EP        243 47.21                             171   -0.2310 21.1 208 
 BAR2 EZ ES        244  2.29                             171   -0.0310 21.1 208 
 BAR2 EZ I         244  3.55        11.0 0.20            169           21.1 208 
 PAM  EZ EP        243 50.15                             150    0.0310 77.3  34 
 PAM  EE ES        244  7.26                             150    0.1610 77.3  34 
 PAM  EZ I         244 12.04         2.3 0.70            154           77.3  34 
 RUS  HZ EP        243 51.28                             144   -0.0810 96.0 179 
 RUS  HN ES        244  9.42                             144    0.1110 96.0 179 
 RUS  HZ I         244 11.08         1.9 0.46            146           96.0 179 
 SPBC HZ EP        243 56.04                             128   -0.54 9  164 222 
 SPBC HE ES        244 18.54                             128   -0.06 9  164 222 
 SPBC HZ I         244 25.11         6.4 0.78            129            164 222 
 ZAR  HN ES   4    244 25.46                             120   -1.50 0  211 293 
 CHI  HZ EP        244  5.51                             116   -0.03 8  246 197 
 CHI  HN ES        244 34.78                             116    0.23 8  246 197 
 CHI  HZ I         244 41.81         1.7 0.50            118            246 197 
 GUY2CHZ EP        244 12.89                             111    0.84 7  304 236 
 GUY2CHN ES   4    244 48.44                             111    2.31 0  304 236 
                                                                                
