 2016  320 0138 23.9 L   6.855 -73.181141.7  RSN  5 0.4 1.5LRSN                1
 GAP=129        0.74       4.7     4.4  7.6 -0.4969E+01  0.1637E+02 -0.4370E+00E
 Epicentro: ZAPATOCA - SANTANDER                                               3
 ACTION:UPD 16-05-13 21:25 OP:cam  STATUS:               ID:20160320013823 L   I
 OLDACT:UP  16-03-20 15:07 OP:dnl  STATUS:               ID:20160320013743     3
 OLDACT:REG 16-03-20 14:37 OP:dnl  STATUS:               ID:20160320013743     3
 2016-03-20-0137-43M.COL___305                                                 6
 STAT SP IPHASW D HRMM SECON CODA AMPLIT PERI AZIMU VELO AIN AR TRES W  DIS CAZ7
 BAR2 EZ EP   2    138 42.93                             168   -0.24 5 29.1 180 
 BAR2 EZ ES        138 58.32                             168    0.1110 29.1 180 
 BAR2 EZ I         138 59.74         6.7 0.23            171           29.1 180 
 PAM  EZ EP        138 45.68                             151    0.1110 75.5  45 
 PAM  EN ES        139  2.63                             151    0.1610 75.5  45 
 PAM  EZ I         139  5.10         5.6 0.20            152           75.5  45 
 RUS  HZ EP   2    138 46.95                             141   -0.78 5  107 174 
 RUS  HN ES   2    139  5.54                             141   -0.78 5  107 174 
 RUS  HZ I         139  6.42         1.5 0.25            147            107 174 
 ZAR  HN ES        139 19.72                             122   -0.38 9  198 291 
 ZAR  HZ I         139 27.36         4.1 0.08            122            198 291 
 GUY2CHZ EP   2    139  7.83                             111    0.46 4  302 233 
 GUY2CHN ES        139 41.83                             111    0.56 7  302 233 
 GUY2CHZ I         139 49.83         2.7 0.34                           302 233 
                                                                                
