 2017 1220 0858 39.7 L   6.728 -73.106136.0  RSN  6 0.4 1.5LRSN                1
 GAP=176        0.91       3.9     4.6  6.6 -0.7585E+01  0.1091E+02 -0.4603E+01E
 Epicentro: JORDAN - SANTANDER                                                 3
 ACTION:UPD 18-01-04 13:22 OP:rebc STATUS:               ID:20171220085839 L   I
 OLDACT:REG 17-12-20 13:14 OP:dhb  STATUS:               ID:20171220085440     3
 2017-12-20-0858-00M.COL___446                                                 6
 STAT SP IPHASW D HRMM SECON CODA AMPLIT PERI AZIMU VELO AIN AR TRES W  DIS CAZ7
 BAR2 EZ EP        858 57.92                             172   -0.1410 17.3 209 
 BAR2 EZ ES        859 12.70                             172    0.3410 17.3 209 
 BAR2 EZ I         859 14.13         7.2 0.22            170           17.3 209 
 PAM  EZ EP        859  0.94                             148   -0.2010 81.1  34 
 PAM  EE ES        859 17.53                             148   -0.3210 81.1  34 
 PAM  EZ I         859 19.73         7.3 0.60            150           81.1  34 
 PTB  HZ EP        859  5.95                             129   -0.24 9  151 262 
 PTB  HN ES        859 26.45                             129   -0.39 9  151 262 
 PTB  HZ I         859 32.84         1.7 0.30            130            151 262 
 SPBC HZ EP        859  7.01                             127   -0.16 9  160 222 
 SPBC HN ES        859 29.01                             127    0.42 9  160 222 
 SPBC HZ I         859 30.89         3.0 0.26            130            160 222 
 OCA  HZ EP        859  8.10                             126   -0.01 9  169 352 
 OCA  HN ES        859 30.78                             126    0.52 9  169 352 
 OCA  HZ I         859 36.84         7.6 0.36            127            169 352 
 ZAR  HZ EP        859 13.03                             119    0.73 8  211 294 
 ZAR  HN ES        859 37.31                             119   -0.40 8  211 294 
 ZAR  HZ I         859 42.78         3.7 0.46            120            211 294 
                                                                                
