 2012  920 0834 20.3 L   6.729 -73.168140.0  RSN  6 0.5 1.8LRSN                1
 GAP=178        0.89       7.4     7.4  9.1  0.1533E+02  0.2334E+02 -0.1104E+02E
 Epicentro: VILLANUEVA - SANTANDER                                             3
 ACTION:UPD 12-10-22 14:19 OP:ep   STATUS:               ID:20120920083420 L   I
 2012-09-20-0830-00M.COL___226                                                 6
 STAT SP IPHASW D HRMM SECON CODA AMPLIT PERI AZIMU VELO AIN AR TRES W  DIS CAZ7
 BAR2 SZ ES   1    834 53.94                             174    0.23 7 15.2 186 
 GIR2 SZ EP   1    834 39.05                             164   -0.43 7 38.8 356 
 GIR2 SZ ES   1    834 54.02                             164   -0.45 7 38.8 356 
 BRR  HZ EP        834 40.81                             151   -0.0910 73.2 305 
 BRR  HZ I         834 41.07        16.5 0.28                          73.2 305 
 BRR  HN ES   1    834 57.74                             151    0.73 7 73.2 305 
 RUS  HE ES   1    835  0.73                             145    0.18 7 92.9 174 
 PTB  HN ES   1    835  6.17                             131   -0.64 7  144 262 
 PTB  HN I         835 12.22         8.1 0.36                           144 262 
 ZAR  HZ EP   1    834 53.13                             121    0.71 6  205 294 
 ZAR  HN ES   1    835 17.44                             121   -0.07 6  205 294 
 ZAR  HZ I         835 22.72         5.4 0.32                           205 294 
                                                                                
