 2013  320 0050 50.7 L   6.990 -73.099158.6  RSN 10 0.4 2.7LRSN                1
 GAP=130        0.97       3.4     4.3  5.4 -0.8444E+00  0.6374E+01 -0.3232E+01E
 Epicentro: PIEDECUESTA - SANTANDER                                            3
 ACTION:UPD 13-04-09 14:03 OP:ep   STATUS:               ID:20130320005050 L   I
 2013-03-20-0050-00M.COL___244                                                 6
 STAT SP IPHASW D HRMM SECON CODA AMPLIT PERI AZIMU VELO AIN AR TRES W  DIS CAZ7
 BAR2 SZ EP        051 12.62                             163    0.1310 44.9 192 
 BAR2 SZ ES        051 29.21                             163   -0.2510 44.9 192 
 BAR2 SZ I         051 30.37        88.6 0.24            155           44.9 192 
 PAM  SZ EP        051 13.53                             159    0.1310 58.6  49 
 PAM  SN ES        051 30.69                             159   -0.3910 58.6  49 
 BRR  HZ IP     D  051 13.44                             155    0.2710 69.0 281 
 BRR  HE ES        051 30.90                             155    0.2310 69.0 281 
 BRR  HE I         051 32.92       140.9 0.16            143           69.0 281 
 RUS  HZ EP        051 17.54                             141    0.2710  121 179 
 RUS  HN ES        051 38.13                             141    0.1610  121 179 
 RUS  HN I         051 39.04        54.7 0.28            134            121 179 
 OCA  HZ EP   2    051 18.32                             136   -0.01 5  140 350 
 OCA  HN ES        051 39.85                             136    0.00 9  140 350 
 OCA  HN I         051 43.34       103.6 0.30            130            140 350 
 PTB  HZ EP        051 19.64                             133   -0.05 9  158 252 
 PTB  HN ES        051 41.74                             133   -0.54 9  158 252 
 PTB  HN I         051 45.75        41.5 0.16            123            158 252 
 ZAR  HZ EP        051 23.58                             125   -0.27 9  202 286 
 ZAR  HN ES        051 50.31                             125    0.62 9  202 286 
 ZAR  HN I         051 56.82        67.8 0.26            117            202 286 
 URE  HZ EP        051 30.99                             116   -1.23 7  282 288 
 URE  HN ES   4    052  0.78                             116   -3.80 0  282 288 
 URE  HN I         052 17.13        35.0 0.28            109            282 288 
 HEL  HZ EP        051 33.42                             116    0.61 7  283 252 
 HEL  HN I         052 12.20        11.5 0.24            109            283 252 
 COD  HZ EP        051 37.02                             112   -0.32 7  328 353 
 COD  HN ES        052 14.20                             112    0.50 7  328 353 
 SJC  HN EP   4    051 43.92                             108   -1.15 0  395 325 
 SJC  HE ES   4    052 22.94                             108   -4.51 0  395 325 
                                                                                
