 2010  720 0750 49.6 L   6.797 -73.070142.1  RSN  4 0.0 1.8LRSN                1
 GAP=245        0.31       4.0     6.9  4.2  0.2004E+02 -0.7019E+01 -0.1377E+01E
 Epicentro: LOS SANTOS - SANTANDER                                             3
 ACTION:UPD 10-12-01 15:18 OP:pat  STATUS:               ID:20100720075049 L   I
 2010-07-20-0740-00S.COL___120                                                 6
 STAT SP IPHASW D HRMM SECON CODA AMPLIT PERI AZIMU VELO AIN AR TRES W  DIS CAZ7
 BAR2 SZ EP        751  8.91                             169     0.010   26 209 
 BAR2 SZ I         751 24.93        17.2 0.18                            26 209 
 BRR  HZ EP   1    751 10.87                             149     0.0 7   79 296 
 BRR  HE ES   1    751 27.36                             149     0.0 7   79 296 
 BRR  HZ I         751 28.99        10.9 0.17                            79 296 
 RUS  HZ EP   1    751 12.90                             143    -0.1 7  100 181 
 RUS  HN ES   1    751 31.22                             143     0.0 7  100 181 
 RUS  HZ I         751 32.56         6.7 0.51                           100 181 
 PRA  HZ EP   1    751 43.50                             106     0.0 4  396 211 
 PRA  HZ I         752 31.49         2.9 0.78                           396 211 
                                                                                
