 2016  820 0725 46.9 L   6.876 -73.106147.6  RSN 26 0.7 2.9LRSN                1
 GAP= 67        1.26       3.1     3.2  5.1 -0.1397E+01  0.4047E+01  0.1331E+01E
 Epicentro: LOS SANTOS - SANTANDER                                             3
 ACTION:UPD 16-10-29 15:37 OP:rebc STATUS:               ID:20160820072546 L   I
 OLDACT:UP  16-08-20 19:49 OP:ar   STATUS:               ID:20160820071744d    3
 OLDACT:DUP 16-08-20 19:39 OP:ar   STATUS:               ID:20160820071744d    3
 OLDACT:REG 16-08-20 14:37 OP:ar   STATUS:               ID:20160820071743     3
 2016-08-20-0717-43M.COL___349                                                 6
 STAT SP IPHASW D HRMM SECON CODA AMPLIT PERI AZIMU VELO AIN AR TRES W  DIS CAZ7
 BAR2 EZ IP        726  6.98                             167   -0.0310 32.5 195 
 BAR2 EZ ES        726 22.71                             167    0.0410 32.5 195 
 PAM  EZ EP        726  9.69                             154    0.8610 68.1  41 
 PAM  EN ES        726 26.59                             154    0.6810 68.1  41 
 PAM  EZ I         726 28.86       187.7 0.48                          68.1  41 
 BRR  HZ IP     C  726  8.76                             153    0.4410 71.7 291 
 BRR  HN ES        726 25.11                             153    0.1210 71.7 291 
 BRR  HZ I         726 30.17        85.4 0.20                          71.7 291 
 RUS  HZ EP        726 11.09                             142   -0.3910  109 179 
 RUS  HN ES        726 30.00                             142   -0.6210  109 179 
 RUS  HZ I         726 31.57       133.5 0.36                           109 179 
 TAM  HZ IP     C  726 15.36                             131    0.76 9  153 108 
 TAM  HE ES        726 36.40                             131    0.22 9  153 108 
 PTB  HZ EP   9    726 13.53                             131   -1.09 0  154 256 
 PTB  HN ES        726 34.84                             132   -0.28 9  154 256 
 PTB  HZ I         726 37.52        99.6 0.16                           154 256 
 SPBC HZ EP        726 16.01                             128   -0.46 9  173 218 
 SPBC HN ES        726 38.64                             128   -0.87 9  173 218 
 SPBC HZ I         726 45.32       119.4 0.22                           173 218 
 ZAR  HZ EP        726 19.93                             123    0.31 9  205 289 
 ZAR  HN ES        726 45.31                             123    0.20 9  205 289 
 ZAR  HZ I         726 52.86        50.8 0.24                           205 289 
 NOR  HZ EP        726 23.50                             118   -0.19 8  243 233 
 NOR  HN ES        726 51.65                             118   -0.71 8  243 233 
 NOR  HZ I         726 56.97        49.5 0.20                           243 233 
 CHI  HZ EP        726 25.64                             117   -0.12 8  258 196 
 CHI  HE ES        726 55.76                             117   -0.27 8  258 196 
 CHI  HZ I         727  3.75        25.8 0.38                           258 196 
 ROSC BZ EP        726 26.41                             116    0.21 8  262 211 
 ROSC BN ES        726 56.71                             116   -0.11 8  262 211 
 ROSC BZ I         727  1.79        69.0 0.40                           262 211 
 HEL  HZ EP        726 28.79                             115    0.83 7  278 254 
 HEL  HN ES        727  0.23                             115    0.28 7  278 254 
 HEL  HZ I         727  6.72        39.3 0.58                           278 254 
 URE  HZ EP   4    726 27.16                             114   -1.06 0  285 290 
 URE  HN ES   4    726 58.25                             114   -2.17 0  285 290 
 URE  HZ I         727  4.20        31.8 0.24                           285 290 
 SOCV BZ EP   4    726 29.73                             113    0.58 0  293  58 
 SOCV BN ES   4    727  1.78                             113   -0.28 0  293  58 
 GUY2CHZ EP        726 31.59                             112   -0.00 7  310 234 
 GUY2CHN ES        727  6.59                             112    0.17 7  310 234 
 GUY2CHZ I         727 13.53        35.4 0.34                           310 234 
 VIL  EZ EP        726 30.98                             112   -0.50 7  313 192 
 VIL  EN ES        727  5.25                             112   -0.97 7  313 192 
 VIL  EZ I         727 14.60        51.4 0.40                           313 192 
 PTGC HZ EP   4    726 30.30                             111   -1.30 0  315 160 
 PTGC HN ES   4    727  3.75                             111   -2.68 0  315 160 
 PTGC HZ I         727  6.42        32.4 0.50                           315 160 
 LL6C HZ EP        726 31.60                             111   -0.19 7  317 357 
 LL6C HN ES   2    727  5.81                             111   -0.95 3  317 357 
 CBOC HZ EP        726 35.55                             110    0.83 7  340 251 
 CBOC HN ES        727 12.12                             110    0.14 7  340 251 
 CBOC HZ I         727 21.19        13.5 0.50                           340 251 
 DBB  EZ EP        726 35.26                             110    0.32 7  343 273 
 DBB  EZ ES        727 11.56                             110   -0.81 7  343 273 
 DBB  EZ I         727 16.80        15.7 0.36                           343 273 
 ARGC HZ EP   2    726 36.03                             109    0.10 3  353 339 
 ARGC HN ES   2    727 14.49                             109    0.35 3  353 339 
 ARGC HZ I         727 22.88        10.4 0.40                           353 339 
 ANIL HZ EP        726 38.62                             108    0.75 6  366 224 
 ANIL HE ES        727 18.74                             108    1.14 6  366 224 
 ANIL HZ I         727 23.40        71.6 0.30                           366 224 
 PRA  HZ EP        726 41.13                             106   -0.51 6  402 210 
 PRA  HN ES        727 24.76                             106    0.46 6  402 210 
 PRA  HZ I         727 29.40        36.8 0.26                           402 210 
 SJC  HZ EP   4    726 40.88                             106   -1.15 0  405 326 
 SJC  HN ES   4    727 22.79                             106   -2.20 0  405 326 
 SJC  HZ I         727 25.77        17.1 0.36                           405 326 
 PAL  HZ EP        726 42.96                             106   -0.16 6  414 238 
 PAL  HN ES        727 26.66                             106   -0.27 6  414 238 
 PAL  HZ I         727 31.39        16.9 0.40                           414 238 
 CRJC HZ EP        726 47.42                             104   -1.05 5  459   3 
 CRJC HN ES        727 33.15                             104   -3.30 5  459   3 
 CRJC HZ I         727 37.47        20.6 0.86                           459   3 
 YOT  HZ EP   4    726 49.93                             103   -1.16 0  481 228 
 YOT  HN ES   4    727 45.41                             103    4.28 0  481 228 
 GUA  EZ EP        726 50.97                             103   -0.11 5  482 174 
 GUA  EN ES        727 40.70                             103   -0.41 5  482 174 
 GUA  EZ I         727 43.22        15.4 0.64                           482 174 
 SMAR HZ EP   4    726 51.98                             103   -0.04 0  490 346 
 SMAR HN ES   4    727 40.79                             103   -1.98 0  490 346 
 MACC HZ EP   4    726 54.34                             102   -2.44 0  530 189 
 MACC HN ES   4    727 46.71                             102   -4.53 0  530 189 
 POP2 HZ EP   4    727 10.71                              99    2.60 0  622 220 
 POP2 HE ES   4    728 10.67                              99   -0.75 0  622 220 
 FLO2 HZ EP   4    727 10.33                              99   -0.92 0  650 206 
 FLO2 HN ES   4    728 14.83                              99   -2.17 0  650 206 
                                                                                
