 2011 1220 0255 13.4 L   6.782 -73.063146.2  RSN  5 0.2 1.4LRSN                1
 GAP=148        0.50       3.0     4.8  4.9 -0.2063E+01  0.6349E-01  0.3125E+01E
 Epicentro: LOS SANTOS - SANTANDER                                             3
 ACTION:UPD 12-07-13 16:17 OP:ep   STATUS:               ID:20111220025513 L   I
 2011-12-20-0250-00M.COL___189                                                 6
 STAT SP IPHASW D HRMM SECON CODA AMPLIT PERI AZIMU VELO AIN AR TRES W  DIS CAZ7
 BAR2 SZ EP   2    255 32.65                             170   -0.49 5 24.8 212 
 BAR2 SZ ES   2    255 48.34                             170   -0.18 5 24.8 212 
 BAR2 SZ I         255 56.60         9.6 0.72                          24.8 212 
 PAM  SZ EP        255 35.76                             152    0.2910 73.5  33 
 PAM  SN ES   1    255 52.49                             152   -0.17 7 73.5  33 
 BRR  HZ EP        255 34.95                             150   -0.2110 80.3 297 
 BRR  HE ES   1    255 52.35                             150    0.24 7 80.3 297 
 BRR  HZ I         255 54.67         5.0 0.10                          80.3 297 
 RUS  HZ EP   1    255 37.06                             144   -0.01 7 98.4 181 
 RUS  HN ES   1    255 55.49                             144   -0.01 7 98.4 181 
 RUS  HZ I         255 57.12         2.2 0.26                          98.4 181 
 CHI  HZ EP   1    255 51.17                             117   -0.05 6  249 197 
 CHI  HE ES   2    256 21.17                             117    0.47 4  249 197 
 CHI  HZ I         256 28.09         1.5 0.32                           249 197 
                                                                                
