 2011  720 0325 56.3 L   6.769 -73.089131.8  RSN  5 0.3 1.8LRSN                1
 GAP=162        0.56       3.7     6.2  6.3 -0.2471E+01 -0.9138E+01 -0.4132E+01E
 Epicentro: LOS SANTOS - SANTANDER                                             3
 ACTION:UPD 12-07-25 14:02 OP:epov STATUS:               ID:20110720032556 L   I
 2011-07-20-0320-00M.COL___136                                                 6
 STAT SP IPHASW D HRMM SECON CODA AMPLIT PERI AZIMU VELO AIN AR TRES W  DIS CAZ7
 BAR2 SZ EP        326 14.23                             170    0.0510 22.1 208 
 BAR2 SZ ES   1    326 27.92                             170   -0.24 7 22.1 208 
 BAR2 SZ I         326 29.87        18.2 0.35                          22.1 208 
 BRR  HZ EP        326 16.16                             147   -0.2010 78.3 299 
 BRR  HZ I         326 16.51        26.0 0.09                          78.3 299 
 BRR  HN ES   1    326 32.31                             147    0.26 7 78.3 299 
 RUS  HZ EP   2    326 18.34                             142   -0.04 5 96.9 180 
 RUS  HN ES   2    326 35.92                             142    0.28 5 96.9 180 
 RUS  HZ I         326 37.65         3.8 0.30                          96.9 180 
 BRI  SZ EP   2    326 19.81                             138    0.87 5  110  17 
 BRI  SZ I         326 42.74         9.9 0.52                           110  17 
 GRA  SZ EP   1    326 20.24                             133   -0.19 7  127  14 
 GRA  SZ ES   1    326 39.22                             133   -0.06 7  127  14 
                                                                                
