 2012 1220 0145 45.1 L   6.734 -73.179144.3  RSN  7 0.3 2.0LRSN                1
 GAP=176        0.66       4.6     4.5  4.9  0.1131E+02  0.3429E+01  0.2564E+01E
 Epicentro: VILLANUEVA - SANTANDER                                             3
 ACTION:UPD 13-01-04 14:29 OP:ep   STATUS:               ID:20121220014545 L   I
 2012-12-20-0140-00M.COL___242                                                 6
 STAT SP IPHASW D HRMM SECON CODA AMPLIT PERI AZIMU VELO AIN AR TRES W  DIS CAZ7
 BAR2 SZ EP        146  4.27                             174   -0.1910 15.7 181 
 BAR2 SZ ES        146 19.38                             174   -0.1510 15.7 181 
 BAR2 SZ I         146 20.79        58.7 0.19                          15.7 181 
 GIR2 SZ EP   2    146  4.43                             164   -0.41 5 38.1 358 
 BRR  HZ EP        146  6.28                             152    0.1210 71.8 305 
 BRR  HN ES        146 22.91                             152    0.3510 71.8 305 
 BRR  HZ I         146 24.08        13.8 0.06                          71.8 305 
 RUS  HZ EP     D  146  8.41                             146    0.1510 93.7 173 
 RUS  HN ES        146 26.37                             146    0.0810 93.7 173 
 RUS  HN I         146 28.76         8.4 0.22                          93.7 173 
 PTB  HZ EP     C  146 11.12                             133   -0.42 9  143 261 
 PTB  HE ES        146 31.93                             133   -0.20 9  143 261 
 PTB  HZ I         146 34.56        12.2 0.20                           143 261 
 ZAR  HN ES   1    146 42.79                             122    0.17 6  203 294 
 ZAR  HZ I         146 48.04        10.9 0.38                           203 294 
 CHI  HZ EP   1    146 22.50                             118    0.61 6  241 195 
 CHI  HZ I         146 57.77         3.8 0.24                           241 195 
                                                                                
