 2011 1220 0030 33.7 L   6.791 -73.135140.0  RSN 11 0.3 2.2LRSN                1
 GAP=138        0.77       3.4     4.4  4.7 -0.4833E+01  0.6101E+01  0.1562E+01E
 Epicentro: LOS SANTOS - SANTANDER                                             3
 ACTION:UPD 12-07-13 16:17 OP:ep   STATUS:               ID:20111220003033 L   I
 2011-12-20-0030-00M.COL___192                                                 6
 STAT SP IPHASW D HRMM SECON CODA AMPLIT PERI AZIMU VELO AIN AR TRES W  DIS CAZ7
 BAR2 SZ EP        030 52.74                             170    0.1410 22.6 193 
 BAR2 SZ ES        031  7.24                             170   -0.1210 22.6 193 
 BAR2 SZ I         031  9.19        34.9 0.48                          22.6 193 
 GIR2 SZ EP        030 52.68                             166   -0.0210 32.4 348 
 BRR  HZ EP        030 54.46                             151    0.1610 72.7 299 
 BRR  HN ES        031 10.77                             151    0.3910 72.7 299 
 BRR  HZ I         031 14.91        45.2 0.20                          72.7 299 
 PAM  SZ EP        030 55.46                             150    0.1810 77.4  38 
 PAM  SN ES        031 12.28                             150    0.1510 77.4  38 
 RUS  HZ EP        030 56.86                             143    0.0710 99.5 177 
 RUS  HN ES   1    031 14.47                             143   -0.35 7 99.5 177 
 RUS  HZ I         031 17.32        11.9 0.29                          99.5 177 
 PTB  HZ EP        030 59.45                             131   -0.83 9  149 259 
 OCA  SZ EP        031  1.09                             128   -0.56 9  161 353 
 OCA  SZ I         031 28.37        22.6 0.19                           161 353 
 NOR  SZ EP   1    031  9.18                             117    0.05 6  235 235 
 NOR  SE ES   1    031 36.80                             117    0.02 6  235 235 
 CHI  HZ EP   1    031 11.03                             116    0.03 6  248 195 
 CHI  HE ES   2    031 40.56                             116    0.45 4  248 195 
 CHI  HZ I         031 45.83         5.0 0.22                           248 195 
 HEL  HZ EP   1    031 14.29                             114    0.58 6  273 256 
 HEL  HZ I         031 51.91        10.4 0.35                           273 256 
 RREF HZ EP   1    031 20.04                             110    0.43 5  322 230 
 RREF HN ES   1    031 55.57                             110    0.13 5  322 230 
 RREF HZ I         032  4.89         9.5 0.36                           322 230 
                                                                                
