 2012  420 0831 10.5 L   6.786 -73.159137.1  RSN 12 0.4 2.5LRSN                1
 GAP=136        0.96       3.6     4.5  6.7 -0.2790E+01  0.1086E+02  0.4015E+01E
 Epicentro: LOS SANTOS - SANTANDER                                             3
 ACTION:UPD 12-07-05 11:54 OP:tino STATUS:               ID:20120420083110 L   I
 2012-04-20-0830-00M.COL___187                                                 6
 STAT SP IPHASW D HRMM SECON CODA AMPLIT PERI AZIMU VELO AIN AR TRES W  DIS CAZ7
 BAR2 SZ EP   1    831 29.27                             171     0.2 7   22 187 
 BAR2 SZ ES   1    831 43.65                             171     0.1 7   22 187 
 BAR2 SZ I         831 45.39       100.1 0.15                            22 187 
 BRR  HZ EP        831 31.13                             151     0.410   71 300 
 BRR  HZ I         831 31.61       118.9 0.11                            71 300 
 BRR  HN ES   1    831 47.06                             151     0.6 7   71 300 
 PAM  SZ EP   1    831 32.09                             148     0.2 7   79  40 
 PAM  SN ES        831 48.30                             148    -0.410   79  40 
 PAM  SZ I         831 51.68        42.2 0.47                            79  40 
 RUS  HZ EP   1    831 33.23                             142    -0.1 7   99 175 
 RUS  HN ES   1    831 51.25                             142     0.2 7   99 175 
 RUS  HZ I         831 52.83        34.8 0.18                            99 175 
 PTB  HZ EP   1    831 35.75                             130    -0.9 7  146 259 
 PTB  HN ES   1    831 56.48                             130    -0.5 7  146 259 
 PTB  HZ I         831 58.77        36.9 0.36                           146 259 
 OCA  SZ EP   1    831 37.90                             127    -0.4 7  162 354 
 OCA  SZ ES   1    831 59.46                             127    -0.5 7  162 354 
 ZAR  HZ EP   1    831 43.02                             120     0.7 6  203 293 
 ZAR  HN ES   1    832  7.29                             120     0.2 6  203 293 
 ZAR  HZ I         832 13.94        51.1 0.34                           203 293 
 NOR  SZ EP   1    831 45.22                             117    -0.3 6  233 235 
 NOR  SN ES   1    832 12.68                             117    -0.1 6  233 235 
 CHI  HZ EP   1    831 47.77                             115     0.2 6  247 195 
 CHI  HN ES   1    832 16.13                             115    -0.3 6  247 195 
 CHI  HZ I         832 24.05        12.6 0.39                           247 195 
 HEL  HZ EP   1    831 50.97                             113     0.9 6  270 256 
 HEL  HN ES   1    832 20.67                             113    -0.3 6  270 256 
 HEL  HZ I         832 27.65        20.7 0.33                           270 256 
 RREF HN ES   1    832 31.22                             109    -0.3 5  320 229 
 RREF HZ I         832 38.60        19.5 0.24                           320 229 
 PRA  HZ EP   1    832  3.68                             105     0.2 4  390 209 
                                                                                
