 2010 1120 0145 34.0 L   6.786 -73.095150.5  RSN 16 0.5 3.1LRSN                1
 GAP=164        0.95       3.3     6.1  5.8 -0.7631E+01  0.8281E+01  0.3099E+01E
 Epicentro: LOS SANTOS - SANTANDER                                             3
 ACTION:UP  10-12-17 16:53 OP:REBC STATUS:               ID:20101120014534 L   I
 2010-11-20-0142-10S.COL___132                                                 6
 STAT SP IPHASW D HRMM SECON CODA AMPLIT PERI AZIMU VELO SNR AR TRES W  DIS CAZ7
 BAR2 SZ IP        145 54.13                             171    -0.110   24 205 
 BAR2 SZ ES   1    146  9.33                             171    -0.7 7   24 205 
 BAR2 SZ I         146 10.92       201.0 0.30                            24 205 
 GIR2 SZ EP   1    145 55.22                             167     0.9 7   34 341 
 GIR2 SZ ES   1    146 10.85                             167     0.6 7   34 341 
 BRR  HZ IP     D  145 56.05                             151     0.010   77 298 
 BRR  HN ES   1    146 13.20                             151     0.0 7   77 298 
 BRR  HZ I         146 15.78       229.2 0.20                            77 298 
 RUS  HZ IP     D  145 57.98                             145    -0.210   99 179 
 RUS  HZ ES   1    146 16.78                             145    -0.2 7   99 179 
 RUS  HZ I         146 18.51        86.0 0.73                            99 179 
 GRA  SZ IP        145 59.94                             138     0.210  126  15 
 GRA  SZ ES   1    146 19.47                             138    -0.2 7  126  15 
 GRA  SZ I         146 20.73       170.2 0.35                           126  15 
 OCA  SZ EP        146  2.49                             130    -0.4 9  163 351 
 OCA  SZ ES   1    146 25.63                             130     0.2 7  163 351 
 OCA  SZ I         146 30.44       143.3 0.26                           163 351 
 NOR  SZ EP   1    146  9.95                             119    -0.5 6  239 236 
 NOR  SN ES   1    146 38.55                             119    -0.3 6  239 236 
 CHI  HZ EP   1    146 11.93                             118    -0.1 6  249 197 
 CHI  HE ES   1    146 41.24                             118    -0.4 6  249 197 
 CHI  HZ I         146 47.48        59.0 0.31                           249 197 
 ROSC BZ EP   1    146 13.60                             117     1.0 6  254 212 
 ROSC BE ES   1    146 43.35                             117     0.7 6  254 212 
 ROSC BZ I         146 48.72        87.2 0.55                           254 212 
 HEL  HZ EP   1    146 14.85                             115    -0.2 6  277 256 
 HEL  HE ES   2    146 46.99                             115    -0.1 4  277 256 
 HEL  HZ I         146 53.10        57.2 0.35                           277 256 
 VIL  SZ EP   2    146 17.32                             113    -0.1 4  301 191 
 VIL  SE ES   2    146 52.12                             113     0.8 4  301 191 
 VIL  SZ I         146 59.16        37.8 0.51                           301 191 
 GUY  SZ EP   2    146 18.64                             113     0.3 4  305 236 
 GUY  SZ I         147  1.64       127.8 0.35                           305 236 
 RREF HZ EP   1    146 20.77                             111     0.0 5  325 230 
 RREF HN ES   1    146 57.67                             111     0.5 5  325 230 
 RREF HZ I         147  5.79        93.0 0.16                           325 230 
 DBB  SZ EP   1    146 21.67                             110    -0.7 5  345 274 
 DBB  SZ I         147  1.06        13.8 0.49                           345 274 
 TOL  SZ EP   1    146 23.46                             110     0.6 5  346 225 
 PRA  HZ EP   1    146 27.39                             107    -0.5 4  393 210 
 PRA  HN ES   1    147  9.49                             107    -0.4 4  393 210 
 PRA  HZ I         147 15.08       172.7 0.20                           393 210 
                                                                                
