 2017 1120 0622 57.4 L   7.421 -73.112140.0  RSN  5 0.4 1.2LRSN                1
 GAP=189        0.71       4.0     3.5  6.7  0.8681E+00  0.1010E+02  0.4621E+01E
 Epicentro: EL PLAYON - SANTANDER                                              3
 ACTION:UPD 17-12-12 19:57 OP:rebc STATUS:               ID:20171120062257 L   I
 OLDACT:UP  17-11-20 22:13 OP:dhb  STATUS:               ID:20171120061743d    3
 OLDACT:DUP 17-11-20 22:05 OP:dhb  STATUS:               ID:20171120061743d    3
 OLDACT:UP  17-11-20 22:04 OP:dhb  STATUS:               ID:20171120061742d    3
 OLDACT:DUP 17-11-20 22:00 OP:dhb  STATUS:               ID:20171120061742d    3
 2017-11-20-0618-00M.COL___474                                                 6
 STAT SP IPHASW D HRMM SECON CODA AMPLIT PERI AZIMU VELO AIN AR TRES W  DIS CAZ7
 PAM  EZ IP     D  623 17.51                             161    0.0410 46.5 101 
 PAM  EN ES        623 33.01                             161   -0.0710 46.5 101 
 PAM  EZ I         623 36.23         1.8 0.36            159           46.5 101 
 RUS  HZ EP        623 26.47                             127   -0.14 9  169 179 
 RUS  HE ES        623 49.51                             127    0.15 9  169 179 
 RUS  HZ I         624  5.41         1.1 0.34            127            169 179 
 PTB  HZ EP   2    623 25.68                             125   -1.15 4  178 237 
 PTB  HN ES        623 49.87                             125    0.12 9  178 237 
 PTB  HZ I         623 51.68         2.3 0.18            127            178 237 
 ZAR  HZ EP        623 28.96                             123    0.60 9  193 272 
 ZAR  HE ES        623 52.17                             123   -0.30 9  193 272 
 ZAR  HZ I         623 54.86         4.8 0.28            127            193 272 
 SPBC HZ EP        623 31.48                             119   -0.10 8  223 209 
 SPBC HN ES        623 58.22                             119    0.01 8  223 209 
                                                                                
