 2012 1020 0851 53.2 L   6.264 -73.017  4.0  RSN  9 0.4 2.4LRSN                1
 GAP=114        0.86       2.2     3.1  5.5  0.8274E+00 -0.1758E+00 -0.2656E+01E
 Epicentro: COROMORO - SANTANDER                                               3
 ACTION:UPD 12-11-22 17:04 OP:ep   STATUS:               ID:20121020085153 L   I
 2012-10-20-0850-00M.COL___233                                                 6
 STAT SP IPHASW D HRMM SECON CODA AMPLIT PERI AZIMU VELO AIN AR TRES W  DIS CAZ7
 BAR2 SZ EP        852  0.33                              47    0.1710 40.7 333 
 BAR2 SZ ES   1    852  5.40                              47   -0.22 7 40.7 333 
 BAR2 SZ I         852  6.95       902.1 0.26                          40.7 333 
 RUS  HZ EP   1    852  0.48                              47   -0.10 7 41.7 190 
 RUS  HN ES   1    852  5.90                              47   -0.46 7 41.7 190 
 GIR2 SZ EP   1    852  7.87                              47    0.00 7 92.2 348 
 GIR2 SZ ES   1    852 18.97                              47   -0.38 7 92.2 348 
 BRR  HZ EP   9    852 13.39                              47    1.33 0  121 321 
 BRR  HN ES   9    852 28.16                                    0.03 0  121 321 
 BRR  HZ I         852 30.05        66.6 0.14                           121 321 
 PAM  SZ EP   1    852 12.77                              47   -0.28 7  124  16 
 PAM  SN ES   1    852 27.71                              47   -0.85 7  124  16 
 PAM  SZ I         852 29.88        40.8 0.18                           124  16 
 TAM  HZ EP   1    852 15.17                              47    0.63 7  137  82 
 TAM  HN ES   1    852 31.35                              47    0.13 7  137  82 
 CHI  HZ EP   9    852 25.76                              37    2.18 0  197 204 
 CHI  HZ I         852 26.62        15.4 0.22                           197 204 
 CHI  HN ES   9    852 50.33                                    0.84 0  197 204 
 CHI  HN I         852 54.77        39.1 0.36                           197 204 
 OCA  HN ES        852 52.57                              37    0.56 8  221 351 
 ZAR  HZ EP   1    852 29.54                              37    0.53 6  245 304 
 ZAR  HN ES   2    852 57.70                              37    0.73 4  245 304 
                                                                                
