 2010  620 0456 53.5 L   6.734 -73.091137.4  RSN  4 0.2 1.0LRSN                1
 GAP=163        0.53       5.3    33.2  7.7 -0.1350E+03 -0.7644E+02 -0.2328E+01E
 Epicentro: JORDAN - SANTANDER                                                 3
 ACTION:UP  10-08-24 10:11 OP:vdl  STATUS:               ID:20100620045653 L   I
 2010-06-20-0454-23S.COL___118                                                 6
 STAT SP IPHASW D HRMM SECON CODA AMPLIT PERI AZIMU VELO SNR AR TRES W  DIS CAZ7
 BAR2 SZ EP   2    457 11.58                             171    -0.5 5   19 213 
 BAR2 SZ ES   2    457 26.79                             171     0.2 5   19 213 
 RUS  HZ EP        457 16.16                             144     0.210   93 179 
 RUS  HE ES   1    457 33.16                             144    -0.2 7   93 179 
 RUS  HZ I         457 35.43         1.8 0.19                            93 179 
 BRI  SZ EP        457 17.16                             138     0.110  113  17 
 GRA  SZ EP        457 18.38                             134    -0.110  131  14 
 GRA  SZ ES   2    457 38.02                             134     0.0 5  131  14 
                                                                                
