 2016  220 0041 41.1 L   6.779 -73.161138.7  RSN 10 0.4 1.9LRSN                1
 GAP=136        1.07       4.0     4.1  7.0 -0.2329E+01  0.1009E+02  0.3461E+01E
 Epicentro: LOS SANTOS - SANTANDER                                             3
 ACTION:UPD 16-03-04 21:27 OP:rebc STATUS:               ID:20160220004141 L   I
 OLDACT:UP  16-02-20 14:23 OP:drio STATUS:               ID:20160220003749     3
 OLDACT:REG 16-02-20 12:55 OP:drio STATUS:               ID:20160220003749     3
 2016-02-20-0037-49M.COL___328                                                 6
 STAT SP IPHASW D HRMM SECON CODA AMPLIT PERI AZIMU VELO AIN AR TRES W  DIS CAZ7
 BAR2 EZ EP        041 59.72                             171   -0.0710 20.8 186 
 BAR2 EZ ES        042 14.16                             171   -0.2410 20.8 186 
 BAR2 EZ I         042 15.43        29.5 0.20            169           20.8 186 
 BRR  HZ EP        042  1.81                             151    0.3810 70.9 301 
 BRR  HE ES   4    042 18.59                             151    1.27 0 70.9 301 
 BRR  HZ I         042 21.34        14.4 0.38            151           70.9 301 
 PAM  EZ EP        042  2.64                             149   -0.0710 80.2  39 
 PAM  EN ES        042 19.53                             149   -0.0610 80.2  39 
 PAM  EZ I         042 21.62        16.1 0.42            154           80.2  39 
 RUS  HZ EP        042  3.77                             143   -0.1910 98.4 175 
 RUS  HN ES        042 22.35                             143    0.5310 98.4 175 
 RUS  HZ I         042 23.75        13.2 0.40            145           98.4 175 
 PTB  HZ EP        042  6.58                             131   -0.69 9  146 260 
 PTB  HE ES        042 26.90                             131   -0.81 9  146 260 
 PTB  HZ I         042 30.43        10.2 0.16            131            146 260 
 SPBC HZ EP        042  8.68                             128   -0.07 9  160 219 
 SPBC HE ES        042 30.96                             128    0.61 9  160 219 
 SPBC HZ I         042 34.56        13.9 0.28            129            160 219 
 ZAR  HN ES        042 38.69                             121    0.81 9  203 293 
 NOR  HZ EP        042 16.30                             117    0.21 8  232 235 
 NOR  HE ES        042 42.96                             117   -0.46 8  232 235 
 NOR  HZ I         042 50.92         5.3 0.22            119            232 235 
 CHI  HZ EP        042 18.33                             116    0.25 8  246 195 
 CHI  HN ES        042 46.68                             116   -0.28 8  246 195 
 CHI  HZ I         042 50.48         3.4 0.52            118            246 195 
 HEL  HZ EP   4    042 22.21                             113    1.53 0  270 256 
 HEL  HE ES        042 51.89                             113    0.31 8  270 256 
 HEL  HZ I         042 59.00         4.7 0.28            115            270 256 
                                                                                
