 2014  320 0055 52.6 L   6.732 -73.155157.4  RSN  4 0.4 1.7LRSN                1
 GAP=285        0.82       7.3    10.0  9.3 -0.2266E+02 -0.2945E+02  0.1910E+01E
 Epicentro: VILLANUEVA - SANTANDER                                             3
 OLDACT:REG 14-03-20 07:29 OP:fm   STATUS:               ID:20140320004812     3
 ACTION:UPD 14-04-09 23:19 OP:nd   STATUS:               ID:20140320005552 L   I
 OLDACT:UP  14-03-20 08:45 OP:fm   STATUS:               ID:20140320004812     3
 2014-03-20-0048-12M.COL___233                                                 6
 STAT SP IPHASW D HRMM SECON CODA AMPLIT PERI AZIMU VELO AIN AR TRES W  DIS CAZ7
 BRR  HZ EP        056 15.51                             154    0.2910 74.2 304 
 BRR  HE ES        056 32.90                             154    0.0710 74.2 304 
 BRR  HZ I         056 36.41         5.3 0.42            139           74.2 304 
 PTB  HZ EP        056 20.30                             135   -0.08 9  146 262 
 PTB  HN ES        056 41.62                             135   -0.40 9  146 262 
 ZAR  HE ES   1    056 52.89                             125    0.74 6  206 294 
 SML  HZ EP   1    056 30.66                             119    0.04 6  250 336 
 SML  HZ I         056 58.23         5.2 0.98            104            250 336 
 SML  HN ES   1    056 59.52                             119   -0.73 6  250 336 
                                                                                
