 2016 1020 0047 50.7 L   6.820 -73.091154.0  RSN  6 0.4 1.5LRSN                1
 GAP=245        0.79       4.8     7.3  7.0  0.9438E+01  0.1114E+01  0.2902E+01E
 Epicentro: LOS SANTOS - SANTANDER                                             3
 ACTION:UPD 16-11-09 19:21 OP:rebc STATUS:               ID:20161020004750 L   I
 OLDACT:UP  16-10-20 14:00 OP:e    STATUS:               ID:20161020003744     3
 OLDACT:UP  16-10-20 13:59 OP:e    STATUS:               ID:20161020003744     3
 OLDACT:REG 16-10-20 12:40 OP:and  STATUS:               ID:20161020003744     3
 2016-10-20-0038-00M.COL___344                                                 6
 STAT SP IPHASW D HRMM SECON CODA AMPLIT PERI AZIMU VELO AIN AR TRES W  DIS CAZ7
 BRR  HZ EP        048 13.16                             153    0.2210 75.6 295 
 BRR  HZ I         048 30.27         7.7 0.49            147           75.6 295 
 BRR  HE ES        048 30.52                             153    0.1910 75.6 295 
 RUS  HZ EP        048 15.54                             145    0.1810  103 180 
 RUS  HN ES        048 34.36                             145   -0.2710  103 180 
 RUS  HZ I         048 35.13         4.1 0.28            148            103 180 
 PTB  HZ EP        048 18.13                             133   -0.74 9  154 258 
 PTB  HN ES   3    048 39.34                             133   -1.54 2  154 258 
 PTB  HZ I         048 46.01         2.7 0.18            130            154 258 
 SPBC HZ EP        048 20.37                             130    0.06 9  169 220 
 SPBC HN ES        048 43.72                             130    0.27 9  169 220 
 SPBC HZ I         048 49.88         5.0 0.10            130            169 220 
 CHI  HZ EP   2    048 29.48                             119    0.26 4  252 196 
 CHI  HN ES   2    048 59.48                             119    0.17 4  252 196 
 CHI  HZ I         049  2.17         2.1 0.40            118            252 196 
 GUY2CHN ES   2    049 10.75                             113    0.54 4  307 235 
 GUY2CHZ I         049 17.68         1.3 0.25                           307 235 
                                                                                
