 2017  120 0033 35.3 L   6.791 -73.143146.6  RSN  4 0.3 1.0LRSN                1
 GAP=137        0.86       4.7     4.2  9.3 -0.3917E+00  0.1284E+02 -0.4995E+00E
 Epicentro: LOS SANTOS - SANTANDER                                             3
 ACTION:UPD 17-05-22 16:01 OP:jn   STATUS:               ID:20170120003335 L   I
 OLDACT:UP  17-01-20 13:20 OP:dani STATUS:               ID:20170120002742     3
 OLDACT:REG 17-01-20 12:15 OP:dani STATUS:               ID:20170120002742     3
 2017-01-20-0028-00M.COL___322                                                 6
 STAT SP IPHASW D HRMM SECON CODA AMPLIT PERI AZIMU VELO AIN AR TRES W  DIS CAZ7
 PAM  EZ EP        033 57.90                             151    0.2310 78.0  39 
 PAM  EN ES        034 14.83                             151   -0.2610 78.0  39 
 PAM  EZ I         034 16.20         2.2 0.23            153           78.0  39 
 RUS  HZ EP        033 59.16                             144    0.0710 99.6 176 
 RUS  HN ES        034 17.86                             144    0.2410 99.6 176 
 RUS  HZ I         034 19.78         1.1 0.28            145           99.6 176 
 PTB  HZ EP        034  1.89                             132   -0.49 9  148 259 
 PTB  HN ES        034 23.15                             132   -0.32 9  148 259 
 PTB  HZ I         034 24.92         1.8 0.44            134            148 259 
 ZAR  HN ES        034 33.88                             122    0.58 9  205 292 
                                                                                
