 2017  920 0618  1.3 L   6.792 -73.388112.5  RSN  5 0.3 1.2LRSN                1
 GAP=134        0.73       3.5     3.7  5.8  0.5516E+01  0.8548E+01  0.2932E+01E
 Epicentro: SAN VICENTE DE CHUCURI - SANTANDER                                 3
 ACTION:UPD 17-10-05 19:14 OP:rebc STATUS:               ID:20170920061801 L   I
 OLDACT:UP  17-09-20 15:06 OP:and  STATUS:               ID:20170920060737d    3
 OLDACT:UP  17-09-20 15:06 OP:and  STATUS:               ID:20170920060737d    3
 OLDACT:DUP 17-09-20 15:04 OP:and  STATUS:               ID:20170920060737d    3
 2017-09-20-0608-00M.COL___449                                                 6
 STAT SP IPHASW D HRMM SECON CODA AMPLIT PERI AZIMU VELO AIN AR TRES W  DIS CAZ7
 BAR2 EZ EP        618 17.67                             163    0.4610 31.7 134 
 BAR2 EZ ES        618 29.92                             163    0.3010 31.7 134 
 BAR2 EZ I         618 31.76         6.8 0.20            167           31.7 134 
 BRR  HZ IP     C  618 17.51                             154   -0.1610 50.0 314 
 BRR  HN ES        618 30.46                             154    0.0310 50.0 314 
 BRR  HZ I         618 35.38         3.0 0.62            155           50.0 314 
 PAM  EN ES        618 37.32                             137   -0.2310 97.2  51 
 RUS  HZ EP        618 22.40                             134    0.0610  105 161 
 RUS  HN ES        618 38.32                             134   -0.4310  105 161 
 RUS  HZ I         618 39.81         2.5 0.44            139            105 161 
 ZAR  HZ EP        618 29.33                             117    0.16 9  180 296 
 ZAR  HN ES        618 50.69                             117   -0.22 9  180 296 
 ZAR  HZ I         618 52.49         3.9 0.44            121            180 296 
                                                                                
