 2014 1220 0944 13.6 L   6.766 -73.183156.0  RSN  5 0.3 0.9LRSN                1
 GAP=197        0.59       3.6     6.2  5.6  0.9585E+01 -0.7064E+01 -0.7353E+01E
 Epicentro: LOS SANTOS - SANTANDER                                             3
 ACTION:UPD 15-02-10 17:05 OP:nd   STATUS:               ID:20141220094413 L   I
 OLDACT:REG 14-12-20 13:30 OP:spq  STATUS:               ID:20141220093742     3
 2014-12-20-0937-42M.COL___302                                                 6
 STAT SP IPHASW D HRMM SECON CODA AMPLIT PERI AZIMU VELO AIN AR TRES W  DIS CAZ7
 BRR  HZ EP        944 35.81                             155    0.0010 69.6 303 
 BRR  HE ES        944 53.46                             155    0.3610 69.6 303 
 RUS  HZ EP   1    944 38.27                             147    0.10 7 97.2 173 
 RUS  HE ES   1    944 57.04                             147   -0.27 7 97.2 173 
 RUS  HZ I         944 58.17         0.5 0.40            150           97.2 173 
 PTB  HZ EP   1    944 41.42                             136    0.39 7  143 260 
 PTB  HN ES   1    945  1.99                             136   -0.42 7  143 260 
 PTB  HZ I         945  7.70         1.1 0.22            134            143 260 
 ZAR  HZ EP   1    944 46.55                             125    0.03 6  202 294 
 SML  HZ EP        944 50.83                             120   -0.21 8  245 337 
 SML  HN ES        945 20.01                             120   -0.21 8  245 337 
 SML  HZ I         945 27.27         1.2 0.10            120            245 337 
                                                                                
