 2014  820 0216 15.7 L   6.288 -73.873108.9  RSN  4 0.2 1.5LRSN                1
 GAP=131        0.60       2.8     3.1  5.7 -0.2523E+01 -0.1881E+01  0.1130E+00E
 Epicentro: CIMITARRA - SANTANDER                                              3
 ACTION:UPD 14-09-15 21:51 OP:nd   STATUS:               ID:20140820021615 L   I
 OLDACT:DUP 14-08-20 14:27 OP:stll STATUS:               ID:20140820020808d    3
 2014-08-20-0208-07M.COL___260                                                 6
 STAT SP IPHASW D HRMM SECON CODA AMPLIT PERI AZIMU VELO AIN AR TRES W  DIS CAZ7
 PTB  HZ EP        216 32.69                             145   -0.2410 70.2 293 
 PTB  HN ES        216 46.23                             145   -0.1710 70.2 293 
 PTB  HZ I         216 47.57         6.9 0.20            147           70.2 293 
 SPBC HZ EP        216 33.49                             143    0.2010 73.7 197 
 SPBC HE ES        216 47.14                             143    0.1110 73.7 197 
 SPBC HZ I         216 49.37         8.6 0.14            146           73.7 197 
 BAR2 SZ EP        216 34.11                             140   -0.1310 83.5  66 
 BAR2 SZ ES        216 48.49                             140   -0.2310 83.5  66 
 BAR2 SZ I         216 49.55         9.9 0.16            143           83.5  66 
 BRR  HZ EP        216 34.72                             136    0.1010 92.3  11 
 BRR  HN ES        216 49.77                             136    0.3610 92.3  11 
 BRR  HZ I         216 51.73         6.7 0.38            140           92.3  11 
                                                                                
