 2012  420 0322 25.5 L   6.796 -73.144136.1  RSN  5 0.2 1.2LRSN                1
 GAP=237        0.61       5.8     5.8  7.3  0.2176E+02  0.3897E+00  0.3194E+01E
 Epicentro: LOS SANTOS - SANTANDER                                             3
 ACTION:UPD 12-07-05 11:54 OP:tino STATUS:               ID:20120420032225 L   I
 2012-04-20-0320-00M.COL___187                                                 6
 STAT SP IPHASW D HRMM SECON CODA AMPLIT PERI AZIMU VELO AIN AR TRES W  DIS CAZ7
 BAR2 SZ EP   1    322 43.72                             170    -0.2 7   23 191 
 BRR  HZ EP   1    322 46.13                             151     0.5 7   72 299 
 BRR  HZ I         322 48.36         4.0 0.25                            72 299 
 BRR  HE ES        323  1.21                             151    -0.110   72 299 
 RUS  HZ EP   1    322 48.17                             142    -0.1 7  100 176 
 RUS  HN ES   1    323  6.21                             142     0.2 7  100 176 
 RUS  HZ I         323  9.79         0.9 0.34                           100 176 
 PTB  HZ EP   1    322 51.45                             130    -0.2 7  148 259 
 PTB  HN ES   1    323 12.19                             130     0.1 7  148 259 
 PTB  HZ I         323 14.90         1.2 0.24                           148 259 
 ZAR  HZ I         323  4.74         5.4 0.08                           204 292 
 ZAR  HN ES   1    323 22.28                             120     0.1 6  204 292 
                                                                                
