 2017  520 0439 58.8 L   6.744 -73.237149.7  RSN  5 0.5 1.4LRSN                1
 GAP=222        1.05       8.2     8.2  9.5  0.4437E+02 -0.3930E+01 -0.1316E+02E
 Epicentro: ZAPATOCA - SANTANDER                                               3
 ACTION:UPD 17-06-16 13:37 OP:jn   STATUS:               ID:20170520043958 L   I
 OLDACT:UP  17-06-01 22:14 OP:nlst STATUS:               ID:20170520043958 L   3
 OLDACT:UP  17-05-20 15:25 OP:cog  STATUS:               ID:20170520043747     3
 OLDACT:REG 17-05-20 12:24 OP:dnl  STATUS:               ID:20170520043747     3
 2017-05-20-0438-00M.COL___359                                                 6
 STAT SP IPHASW D HRMM SECON CODA AMPLIT PERI AZIMU VELO AIN AR TRES W  DIS CAZ7
 BRR  HZ EP        440 20.22                             155    0.0810 66.1 307 
 BRR  HN ES        440 37.08                             155    0.3210 66.1 307 
 BRR  HZ I         440 38.17         6.7 0.14            155           66.1 307 
 RUS  HZ EP        440 22.51                             146   -0.1310 95.7 170 
 RUS  HN ES        440 41.04                             146   -0.1610 95.7 170 
 RUS  HZ I         440 41.83         2.1 0.36            147           95.7 170 
 PTB  HZ EP   1    440 26.45                             136    1.29 7  137 261 
 PTB  HN ES        440 45.23                             136   -0.46 9  137 261 
 PTB  HZ I         440 47.88         4.1 0.44            136            137 261 
 SPBC HE ES   3    440 49.47                             133    1.19 2  152 217 
 ZAR  HZ EP        440 30.52                             124   -0.33 9  197 295 
 ZAR  HN ES        440 55.58                             124   -0.24 9  197 295 
                                                                                
