 2012  820 0443 35.2 L   6.781 -73.154142.0  RSN  7 0.4 1.7LRSN                1
 GAP=136        0.74       4.5     4.4  6.3 -0.3347E+01  0.6034E+01  0.1066E+01E
 Epicentro: LOS SANTOS - SANTANDER                                             3
 ACTION:UPD 12-09-10 11:57 OP:ep   STATUS:               ID:20120820044335 L   I
 2012-08-20-0440-00M.COL___217                                                 6
 STAT SP IPHASW D HRMM SECON CODA AMPLIT PERI AZIMU VELO AIN AR TRES W  DIS CAZ7
 BAR2 SZ EP        443 54.27                             171   -0.0510 21.1 188 
 BAR2 SZ ES   1    444  9.00                             171   -0.24 7 21.1 188 
 BAR2 SZ I         444 10.78        18.2 0.39                          21.1 188 
 BRR  HZ EP        443 56.05                             152    0.1110 71.4 300 
 BRR  HN ES   1    444 12.86                             152    0.73 7 71.4 300 
 BRR  HZ I         444 16.41         7.8 0.13                          71.4 300 
 PAM  SZ EP        443 57.12                             149   -0.0210 79.6  39 
 PAM  SZ I         443 57.37        17.0 0.20                          79.6  39 
 PAM  SN ES   1    444 13.95                             149   -0.31 7 79.6  39 
 RUS  HZ EP   1    443 58.63                             144    0.21 7 98.5 175 
 RUS  HN ES   1    444 16.84                             144    0.30 7 98.5 175 
 RUS  HZ I         444 18.52        10.0 0.28                          98.5 175 
 PTB  HZ EP   1    444  1.24                             131   -0.48 7  146 260 
 PTB  HN ES   1    444 21.72                             131   -0.71 7  146 260 
 PTB  HZ I         444 23.67         5.1 0.20                           146 260 
 CHI  HN ES   2    444 41.18                             117   -0.29 4  246 195 
 HEL  HZ EP   1    444 15.43                             114    0.38 6  271 256 
 HEL  HE ES   2    444 46.65                             114    0.51 4  271 256 
 HEL  HZ I         444 53.06         2.8 0.45                           271 256 
                                                                                
