 2011  420 0743 12.2 L   6.788 -73.102149.6  RSN  7 0.2 1.5LRSN                1
 GAP=166        0.66       7.2     7.1  7.8 -0.9043E+01 -0.1476E+02 -0.1869E+02E
 Epicentro: LOS SANTOS - SANTANDER                                             3
 ACTION:UP  11-06-22 15:31 OP:REBC STATUS:               ID:20110420074312 L   I
 2011-04-20-0741-38S.COL___138                                                 6
 STAT SP IPHASW D HRMM SECON CODA AMPLIT PERI AZIMU VELO SNR AR TRES W  DIS CAZ7
 BTL  SZ EP        743 32.22                             171     0.010   23 308 
 BAR2 SZ EP        743 32.09                             171    -0.210   23 202 
 BAR2 SZ ES   2    743 47.95                             171     0.0 5   23 202 
 BRR  HZ EP        743 33.88                             152    -0.110   76 298 
 BRR  HZ I         743 34.19         9.6 0.08                            76 298 
 BRR  HN ES   1    743 51.40                             152     0.4 7   76 298 
 PAM  SZ EP        743 34.94                             152     0.310   76  36 
 PAM  SZ I         743 35.10         2.9 0.20                            76  36 
 PAM  SN ES   2    743 51.80                             152    -0.4 5   76  36 
 BRI  SZ EP        743 36.59                             142     0.210  108  18 
 GRA  SZ EP        743 37.85                             138     0.110  126  15 
 GRA  SZ I         743 39.27         4.0 0.42                           126  15 
 OCA  SZ EP        743 40.58                             130    -0.4 9  162 352 
 OCA  SZ I         744 10.24         3.5 0.44                           162 352 
                                                                                
