 2015  120 0840 49.8 L   6.836 -73.168142.5  RSN 12 0.5 1.8LRSN                1
 GAP= 69        1.33       3.3     3.9  6.7 -0.3328E+00  0.4283E+01  0.5289E+00E
 Epicentro: ZAPATOCA - SANTANDER                                               3
 ACTION:UPD 15-03-02 15:40 OP:nd   STATUS:               ID:20150120084049 L   I
 OLDACT:UP  15-01-20 16:55 OP:carl STATUS:               ID:20150120083741     3
 OLDACT:REG 15-01-20 13:35 OP:carl STATUS:               ID:20150120083741     3
 2015-01-20-0837-41M.COL___256                                                 6
 STAT SP IPHASW D HRMM SECON CODA AMPLIT PERI AZIMU VELO AIN AR TRES W  DIS CAZ7
 BAR2 EZ EP        841  9.33                             169    0.2110 27.0 183 
 BAR2 EZ ES        841 24.09                             169   -0.1010 27.0 183 
 BAR2 EZ I         841 25.29        24.2 0.16            172           27.0 183 
 BRR  HZ IP     D  841 11.19                             153    0.8210 67.1 297 
 BRR  HN ES        841 27.16                             153    0.7510 67.1 297 
 BRR  HZ I         841 32.20        18.5 0.14            152           67.1 297 
 PAM  SZ EP        841 12.13                             150    0.5410 76.0  43 
 PAM  SN ES        841 29.06                             150    0.4810 76.0  43 
 PAM  SZ I         841 31.10         6.9 0.62            152           76.0  43 
 RUS  HZ EP        841 13.30                             142   -0.2410  105 175 
 RUS  HN ES        841 31.44                             142   -0.6210  105 175 
 RUS  HZ I         841 32.77         6.1 0.34            146            105 175 
 PTB  HZ EP        841 15.82                             132   -0.54 9  146 257 
 PTB  HN ES        841 35.85                             132   -1.22 9  146 257 
 PTB  HZ I         841 41.20         7.0 0.10            133            146 257 
 OCA  HZ EP        841 17.49                             130    0.03 9  156 354 
 OCA  HN ES        841 38.77                             130   -0.26 9  156 354 
 OCA  HZ I         841 47.46         7.5 0.28            130            156 354 
 TAM  HZ EP        841 17.57                             129    0.02 9  159 106 
 TAM  HE ES        841 38.41                             129   -0.78 9  159 106 
 TAM  HZ I         841 45.55         4.0 0.44            132            159 106 
 SPBC HZ EP        841 18.34                             128    0.14 9  165 217 
 SPBC HN ES        841 40.32                             128   -0.03 9  165 217 
 SPBC HZ I         841 43.93         9.6 0.18            130            165 217 
 ZAR  HZ EP        841 22.10                             122    0.46 9  200 291 
 ZAR  HN ES        841 46.74                             122    0.26 9  200 291 
 ZAR  HZ I         841 56.06         8.4 0.28            123            200 291 
 NOR  HZ EP        841 25.15                             118   -0.23 8  235 233 
 NOR  HE ES        841 53.18                             118    0.06 8  235 233 
 NOR  HZ I         841 55.74         4.5 0.14            119            235 233 
 SML  HZ EP        841 25.74                             117    0.00 8  239 335 
 SML  HN ES        841 52.92                             117   -0.85 8  239 335 
 SML  HZ I         842  2.79         9.1 0.10            118            239 335 
 CHI  HZ EP        841 27.61                             116   -0.06 8  252 194 
 CHI  HN ES        841 58.18                             116    0.97 8  252 194 
 CHI  HZ I         842  3.24         2.1 0.72            118            252 194 
                                                                                
