 2013 1120 0416  7.5 L   6.800 -73.225155.4  RSN  5 0.5 1.6LRSN                1
 GAP=191        1.23       5.7    11.8 11.9 -0.1119E+02 -0.5068E+02 -0.2585E+01E
 Epicentro: ZAPATOCA - SANTANDER                                               3
 ACTION:UPD 14-01-09 16:29 OP:ep   STATUS:               ID:20131120041607 L   I
 OLDACT:REG 13-11-20 07:24 OP:nd   STATUS:               ID:20131120041000     3
 2013-11-20-0410-00M.COL___279                                                 6
 STAT SP IPHASW D HRMM SECON CODA AMPLIT PERI AZIMU VELO AIN AR TRES W  DIS CAZ7
 BAR2 SZ EP        416 27.76                             171   -0.5110 23.4 168 
 BAR2 SZ I         416 44.35        10.4 0.26            165           23.4 168 
 BRR  HZ EP        416 29.63                             157    0.3310 63.7 302 
 BRR  HN ES        416 46.86                             157    0.5510 63.7 302 
 BRR  HZ I         416 50.30         5.1 0.34            164           63.7 302 
 PTB  HZ EP        416 34.93                             136    0.42 9  139 258 
 PTB  HN ES        416 55.36                             136   -0.24 9  139 258 
 PTB  HZ I         416 59.54         2.7 0.20            148            139 258 
 SPBC HZ EP        416 36.96                             132    0.71 9  158 217 
 SPBC HN ES        416 57.99                             132   -0.70 9  158 217 
 SPBC HZ I         417  0.04         5.1 0.20            141            158 217 
 SML  HZ EP        416 43.92                             120   -0.37 8  240 337 
 SML  HN ES        417 12.55                             120   -0.46 8  240 337 
 SML  HZ I         417 25.23         7.0 0.10            123            240 337 
                                                                                
