 2015  820 0814  6.3 L   6.805 -73.093151.1  RSN 16 0.4 2.0LRSN                1
 GAP=169        0.85       2.6     3.8  4.8 -0.5195E+00  0.3102E+01  0.9925E+00E
 Epicentro: LOS SANTOS - SANTANDER                                             3
 ACTION:UPD 15-09-15 23:03 OP:cam  STATUS:               ID:20150820081406 L   I
 OLDACT:DUP 15-08-20 13:51 OP:spq  STATUS:               ID:20150820080742d    3
 2015-08-20-0807-41M.COL___334                                                 6
 STAT SP IPHASW D HRMM SECON CODA AMPLIT PERI AZIMU VELO AIN AR TRES W  DIS CAZ7
 BAR2 EZ EP        814 26.69                             170    0.0910 25.6 203 
 BAR2 EZ ES   1    814 42.27                             170   -0.17 7 25.6 203 
 BAR2 EZ I         814 44.38        14.1 0.28            167           25.6 203 
 BRR  HZ EP        814 28.72                             152    0.4410 76.1 296 
 BRR  HN ES        814 45.87                             152    0.4210 76.1 296 
 BRR  HZ I         814 50.29         9.7 0.17            149           76.1 296 
 RUS  HZ EP        814 30.65                             145    0.0610  101 179 
 RUS  HN ES   1    814 49.33                             145   -0.21 7  101 179 
 RUS  HZ I         814 50.51         5.5 0.42            147            101 179 
 OCA  HZ EP   1    814 35.16                             131    0.13 7  160 351 
 OCA  HN ES        814 57.40                             131   -0.05 9  160 351 
 OCA  HZ I         815  3.22        17.3 0.26            132            160 351 
 SPBC HZ EP        814 35.71                             129    0.12 9  167 220 
 SPBC HN ES        814 58.20                             129   -0.24 9  167 220 
 SPBC HZ I         815  3.61        17.4 0.16            130            167 220 
 ZAR  HZ EP        814 39.17                             123   -0.44 8  209 291 
 ZAR  HE ES        815  5.04                             123   -0.57 8  209 291 
 ZAR  HZ I         815 11.17         8.5 0.08            123            209 291 
 NOR  HZ EP        814 42.88                             119    0.01 8  240 235 
 NOR  HN ES        815 10.95                             119   -0.46 8  240 235 
 NOR  HZ I         815 14.34         7.2 0.34            120            240 235 
 SML  HZ EP        814 43.09                             118   -0.33 8  246 334 
 SML  HE ES   1    815 12.74                             118    0.35 6  246 334 
 SML  HZ I         815 15.20        17.6 0.10            120            246 334 
 ROSC BZ EP   4    814 47.24                             117    2.16 0  256 212 
 ROSC BN ES   4    815 18.36                             117    3.01 0  256 212 
 ROSC BZ I         815 21.52         8.9 0.55            119            256 212 
 HEL  HZ EP        814 48.05                             115    0.64 7  278 256 
 HEL  HN ES   1    815 19.79                             115    0.30 6  278 256 
 HEL  HZ I         815 25.39         3.0 0.30            116            278 256 
 URE  HZ EP        814 47.40                             114   -0.80 7  289 291 
 URE  HE ES   4    815 18.25                             114   -2.64 0  289 291 
 URE  HZ I         815 27.61         4.4 0.18            115            289 291 
 GUY2CHZ EP   4    814 51.99                             113    1.27 0  306 235 
 GUY2CHE ES   4    815 27.40                             113    2.02 0  306 235 
 GUY2CHZ I         815 33.55         7.1 0.76                           306 235 
 PTGC HZ EP        814 49.67                             113   -0.54 7  307 160 
 CBOC HZ EP        814 54.54                             110    0.46 7  339 252 
 CBOC HE ES        815 31.18                             110   -0.18 7  339 252 
 CBOC HZ I         815 38.98         1.2 0.52            111            339 252 
 TOL  SZ EP        814 56.10                             110    0.82 6  348 225 
 TOL  SN ES        815 33.86                             110    0.36 6  348 225 
 TOL  SZ I         815 40.68         4.0 0.36            111            348 225 
 SJC  HZ EP   4    815  0.94                             106   -1.40 0  412 326 
 SJC  HN ES   4    815 42.46                             106   -3.61 0  412 326 
 SJC  HZ I         815 47.46         1.7 0.60            108            412 326 
                                                                                
