 2013  320 0312  4.4 L   6.860 -73.328126.6  RSN  7 0.5 1.9LRSN                1
 GAP= 99        1.18       4.6     6.8  8.8  0.4284E+01  0.8393E+01  0.3601E+00E
 Epicentro: ZAPATOCA - SANTANDER                                               3
 ACTION:UPD 13-04-09 14:03 OP:ep   STATUS:               ID:20130320031204 L   I
 2013-03-20-0310-00M.COL___244                                                 6
 STAT SP IPHASW D HRMM SECON CODA AMPLIT PERI AZIMU VELO AIN AR TRES W  DIS CAZ7
 BAR2 SZ EP        312 22.17                             164    0.1710 33.7 151 
 BAR2 SZ ES        312 35.51                             164   -0.2310 33.7 151 
 BAR2 SZ I         312 36.28        49.8 0.22            160           33.7 151 
 BRR  HZ EP        312 22.69                             157    0.3610 50.5 303 
 BRR  HN ES        312 36.62                             157    0.2910 50.5 303 
 BRR  HN I         312 37.16        29.1 0.20            145           50.5 303 
 PAM  SZ EP        312 25.60                             143    0.3110 87.4  53 
 PAM  SN ES   1    312 42.01                             143    0.42 7 87.4  53 
 PAM  SN I         312 44.60         8.2 0.38            141           87.4  53 
 RUS  HZ EP        312 27.33                             137    0.2410  110 166 
 RUS  HE ES        312 44.48                             137   -0.3310  110 166 
 RUS  HE I         312 45.40         5.7 0.54            128            110 166 
 PTB  HZ EP        312 27.43                             131   -0.7110  130 254 
 PTB  HE I         312 49.75        12.4 0.26            120            130 254 
 OCA  HN ES        312 50.07                             126   -0.81 9  153   0 
 OCA  HN I         312 50.72        24.2 0.32            119            153   0 
 ZAR  HN ES   2    312 57.57                             121    1.53 4  183 293 
                                                                                
