 2010  320 0734 45.3 L   7.301 -73.357 98.9  RSN  7 0.3 2.0LRSN                1
 GAP=119        0.69       3.6     7.5  7.5  0.3072E+01 -0.2334E+02 -0.5662E+01E
 Epicentro: SABANA DE TORRES - SANTANDER                                       3
 ACTION:UP  10-08-24 09:55 OP:vdl  STATUS:               ID:20100320073445 L   I
 2010-03-20-0720-00S.COL___096                                                 6
 STAT SP IPHASW D HRMM SECON CODA AMPLIT PERI AZIMU VELO SNR AR TRES W  DIS CAZ7
 BRR  HZ IP        734 59.58                             154    -0.410   45 241 
 BRR  HE ES   1    735 11.64                             154     0.3 7   45 241 
 BRR  HZ I         735 13.09        19.4 0.13                            45 241 
 BAR2 SZ IP        735  2.90                             138     0.110   81 166 
 BAR2 SZ ES   1    735 16.09                             138    -0.3 7   81 166 
 OCA  SZ EP        735  4.56                             130    -0.110  104   2 
 OCA  SZ I         735  4.91        91.1 0.11                           104   2 
 OCA  SZ ES   2    735 20.32                             130     0.5 5  104   2 
 RUS  HZ EP   1    735 11.20                             118     0.4 7  159 169 
 RUS  HZ I         735 34.02         4.5 0.52                           159 169 
 HEL  HZ EP   3    735 23.59                             106     0.2 2  270 243 
 HEL  HN ES   3    735 53.33                             106     0.3 2  270 243 
 HEL  HZ I         735 58.05         4.5 0.26                           270 243 
 SDV  BZ EP   2    735 32.69                             102     0.2 3  348  60 
 SDV  BZ I         736 12.85         4.6 0.19                           348  60 
 PRA  HZ EP   2    735 42.28                             100    -0.2 3  431 203 
 PRA  HZ I         736 42.27         2.6 0.27                           431 203 
                                                                                
