 2015  120 0805  7.6 L   6.801 -73.154145.5  RSN 11 0.4 2.0LRSN                1
 GAP=135        1.01       2.9     3.8  5.3 -0.7687E+00  0.6342E+01  0.5595E+00E
 Epicentro: LOS SANTOS - SANTANDER                                             3
 ACTION:UPD 15-03-02 15:40 OP:nd   STATUS:               ID:20150120080507 L   I
 OLDACT:DUP 15-01-20 16:42 OP:carl STATUS:               ID:20150120075744d    3
 2015-01-20-0757-43M.COL___256                                                 6
 STAT SP IPHASW D HRMM SECON CODA AMPLIT PERI AZIMU VELO AIN AR TRES W  DIS CAZ7
 BAR2 EZ IP     C  8 5 27.13                             171   -0.0310 23.3 188 
 BAR2 EZ ES        8 5 41.99                             171   -0.4510 23.3 188 
 BAR2 EZ I         8 5 44.49        17.7 0.28            168           23.3 188 
 BRR  HZ IP     C  8 5 28.97                             153    0.3410 70.3 299 
 BRR  HN ES        8 5 46.00                             153    0.9310 70.3 299 
 BRR  HZ I         8 5 49.35        15.4 0.12            149           70.3 299 
 PAM  SZ IP     C  8 5 29.84                             151    0.0610 77.9  40 
 PAM  SN ES        8 5 47.21                             151    0.1010 77.9  40 
 PAM  SZ I         8 5 48.24        17.0 0.18            155           77.9  40 
 RUS  HZ EP        8 5 31.48                             144    0.1810  101 176 
 RUS  HN ES        8 5 49.62                             144   -0.1910  101 176 
 RUS  HZ I         8 5 51.74         7.5 0.20            145            101 176 
 PTB  HZ EP        8 5 33.78                             132   -0.65 9  147 259 
 PTB  HN ES        8 5 54.92                             132   -0.46 9  147 259 
 PTB  HZ I         8 5 58.44        17.5 0.18            131            147 259 
 SPBC HZ EP        8 5 36.04                             129    0.04 9  163 219 
 SPBC HN ES        8 5 58.01                             129   -0.16 9  163 219 
 SPBC HZ I         8 6  0.31        19.3 0.10            129            163 219 
 ZAR  HZ EP        8 5 40.40                             122    0.50 9  203 292 
 ZAR  HN ES        8 6  5.29                             122    0.17 9  203 292 
 ZAR  HZ I         8 6 11.48        19.6 0.34            122            203 292 
 NOR  HZ EP        8 5 43.07                             118   -0.14 8  234 234 
 NOR  HE ES        8 6 10.69                             118   -0.31 8  234 234 
 SML  HZ EP        8 5 43.45                             117   -0.67 8  243 335 
 SML  HN ES        8 6 12.09                             117   -0.55 8  243 335 
 SML  HZ I         8 6 15.34        16.3 0.28            118            243 335 
 CHI  HZ EP        8 5 45.41                             117    0.18 8  249 195 
 CHI  HN ES        8 6 14.95                             117    0.34 8  249 195 
 CHI  HZ I         8 6 20.10         3.2 0.26            118            249 195 
 HEL  HZ EP   4    8 5 49.09                             115    1.42 0  271 256 
 HEL  HN ES   4    8 6 18.01                             115   -0.94 0  271 256 
 URE  HZ EP   4    8 5 51.65                             114    3.13 0  283 292 
 URE  HN ES   4    8 6 18.02                             114   -2.44 0  283 292 
 GUY2CHZ EP   4    8 5 52.77                             112    1.69 0  300 235 
 GUY2CHN ES   4    8 6 24.33                             112   -0.70 0  300 235 
 CBOC HZ EP        8 5 55.20                             110    0.83 7  333 252 
 CBOC HE ES        8 6 30.92                             110    0.04 7  333 252 
 CBOC HZ I         8 6 52.21         2.2 0.64            110            333 252 
                                                                                
