 2010 1020 0708 33.7 L   6.756 -73.351126.0  RSN  5 0.2 1.6LRSN                1
 GAP=152        0.54       4.6     9.1  6.9  0.2722E+02 -0.3230E+02 -0.1736E+02E
 Epicentro: ZAPATOCA - SANTANDER                                               3
 ACTION:UP  11-02-18 11:10 OP:tino STATUS:               ID:20101020070833 L   I
 2010-10-20-0705-38S.COL___126                                                 6
 STAT SP IPHASW D HRMM SECON CODA AMPLIT PERI AZIMU VELO SNR AR TRES W  DIS CAZ7
 BAR2 SZ EP   1    7 8 51.16                             168     0.2 7   26 134 
 BAR2 SZ ES   2    7 9  4.19                             168    -0.3 5   26 134 
 BAR2 SZ I         7 9  5.17        17.8 0.16                            26 134 
 BRR  HZ IP     D  7 8 51.78                             155     0.010   56 314 
 BRR  HZ I         7 8 51.99        30.4 0.09                            56 314 
 BRR  HN ES   1    7 9  6.09                             155     0.1 7   56 314 
 RUS  HZ EP   1    7 8 55.41                             140    -0.1 7  100 163 
 RUS  HZ I         7 8 56.20         2.9 0.03                           100 163 
 RUS  HN ES   1    7 9 12.47                             140     0.0 7  100 163 
 GRA  SZ EP   1    7 8 58.68                             129     0.3 7  139  26 
 GRA  SZ I         7 9 20.25         3.1 0.62                           139  26 
 OCA  SZ EP   1    7 9  0.49                             124    -0.4 7  164   1 
 OCA  SZ I         7 9 24.64         5.3 0.11                           164   1 
                                                                                
