 2012 1120 0151 28.7 L   6.739 -73.187151.4  RSN  4 0.1 1.5LRSN                1
 GAP=228        0.38       3.9     4.0  5.0  0.7653E+01 -0.3170E+01 -0.2890E+01E
 Epicentro: VILLANUEVA - SANTANDER                                             3
 ACTION:UPD 12-12-05 15:34 OP:}ep  STATUS:               ID:20121120015128 L   I
 2012-11-20-0150-00M.COL___234                                                 6
 STAT SP IPHASW D HRMM SECON CODA AMPLIT PERI AZIMU VELO AIN AR TRES W  DIS CAZ7
 BAR2 SZ EP   1    151 48.65                             174   -0.20 7 16.3 178 
 BAR2 SZ I         152  5.28         7.4 0.15                          16.3 178 
 BRR  HZ EP        151 50.59                             154    0.1910 70.9 305 
 BRR  HN ES   1    152  7.26                             154   -0.10 7 70.9 305 
 BRR  HN I         152 11.92        11.7 0.20                          70.9 305 
 RUS  HZ EP   1    151 52.46                             147   -0.08 7 94.3 173 
 RUS  HN ES   1    152 11.27                             147    0.11 7 94.3 173 
 RUS  HN I         152 14.55         2.9 0.42                          94.3 173 
 PTB  HZ EP   1    151 55.53                             134   -0.06 7  142 261 
 PTB  HN ES   1    152 16.57                             134   -0.03 7  142 261 
 PTB  HZ I         152 19.11         4.8 0.18                           142 261 
                                                                                
