 2017  420 0945 11.7 L   6.799 -73.172148.0  RSN  6 0.4 1.2LRSN                1
 GAP=133        0.81       4.2     3.6  6.0  0.1427E+01  0.3877E+01  0.1460E+01E
 Epicentro: LOS SANTOS - SANTANDER                                             3
 ACTION:UPD 17-05-30 21:14 OP:jn   STATUS:               ID:20170420094511 L   I
 OLDACT:UP  17-04-20 17:31 OP:cog  STATUS:               ID:20170420093740     3
 OLDACT:REG 17-04-20 13:54 OP:cog  STATUS:               ID:20170420093740     3
 2017-04-20-0938-00M.COL___362                                                 6
 STAT SP IPHASW D HRMM SECON CODA AMPLIT PERI AZIMU VELO AIN AR TRES W  DIS CAZ7
 BAR2 EZ EP        945 31.54                             171   -0.0610 22.9 183 
 BAR2 EZ ES        945 47.35                             171    0.2310 22.9 183 
 BAR2 EZ I         945 48.00         7.2 0.20            170           22.9 183 
 BRR  HN ES        945 49.96                             154    0.4110 68.7 300 
 PAM  EZ EP        945 34.35                             151    0.0710 79.3  41 
 PAM  EN ES        945 51.47                             151   -0.4110 79.3  41 
 PAM  EZ I         945 52.14         2.7 0.20            152           79.3  41 
 RUS  HZ EP        945 35.61                             144   -0.0810  101 174 
 RUS  HN ES        945 54.69                             144    0.2910  101 174 
 RUS  HZ I         945 54.99         1.6 0.30            145            101 174 
 PTB  HZ EP        945 38.55                             133   -0.06 9  145 259 
 PTB  HE ES        945 58.95                             133   -0.64 9  145 259 
 PTB  HZ I         946  1.76         1.9 0.20            133            145 259 
 ZAR  HZ EP   3    945 45.42                             124    1.39 2  201 292 
 ZAR  HN ES        946  9.39                             124    0.14 9  201 292 
                                                                                
