 2011  520 0411 50.3 L   6.752 -73.165143.4  RSN  4 0.3 1.4LRSN                1
 GAP=206        0.55      10.6    17.5  8.9  0.1444E+03 -0.3846E+02  0.6908E+01E
 Epicentro: LOS SANTOS - SANTANDER                                             3
 ACTION:UP  11-06-29 08:54 OP:tino STATUS:               ID:20110520041150 L   I
 2011-05-20-0407-57S.COL___140                                                 6
 STAT SP IPHASW D HRMM SECON CODA AMPLIT PERI AZIMU VELO SNR AR TRES W  DIS CAZ7
 BAR2 SZ EP   2    412  9.39                             173    -0.2 5   18 186 
 BAR2 SZ ES   2    412 24.02                             173    -0.5 5   18 186 
 BAR2 SZ I         412 24.33         7.7 0.61                            18 186 
 BTL  SZ EP   2    412  9.47                             171    -0.1 5   22 328 
 BTL  SZ ES   2    412 25.24                             171     0.6 5   22 328 
 BRR  HZ I         412  6.22        11.5 0.41                            72 303 
 BRR  HN ES   1    412 27.53                             152     0.0 7   72 303 
 RUS  HZ EP   1    412 13.58                             145     0.1 7   95 175 
 RUS  HE ES   2    412 31.60                             145     0.1 5   95 175 
 RUS  HZ I         412 32.99         1.4 0.28                            95 175 
                                                                                
