 2013  120 0738  6.7 L   6.749 -73.155145.2  RSN  8 0.3 1.8LRSN                1
 GAP= 95        0.67       4.2     3.5  5.5  0.1778E+01  0.6565E+00  0.3322E+01E
 Epicentro: LOS SANTOS - SANTANDER                                             3
 ACTION:UPD 13-02-15 09:15 OP:ep   STATUS:               ID:20130120073806 L   I
 2013-01-20-0736-38M.COL___180                                                 6
 STAT SP IPHASW D HRMM SECON CODA AMPLIT PERI AZIMU VELO AIN AR TRES W  DIS CAZ7
 BAR2 SZ EP   1    738 26.14                             173    0.01 7 17.6 190 
 BAR2 SZ ES   1    738 40.92                             173   -0.39 7 17.6 190 
 BRR  HZ EP     C  738 28.03                             152    0.1610 73.2 303 
 BRR  HN ES   1    738 45.21                             152    0.80 7 73.2 303 
 BRR  HZ I         738 49.72        12.7 0.20            141           73.2 303 
 PAM  SZ EP   1    738 29.13                             149    0.00 7 82.4  38 
 PAM  SN ES   1    738 46.39                             149   -0.26 7 82.4  38 
 PAM  SZ I         738 48.05        13.4 0.80            146           82.4  38 
 RUS  HZ EP   1    738 30.04                             145    0.07 7 95.1 175 
 RUS  HN ES   1    738 48.26                             145    0.11 7 95.1 175 
 RUS  HZ I         738 49.84         7.9 0.30            129           95.1 175 
 PTB  HZ EP   1    738 32.92                             132   -0.49 7  146 261 
 PTB  HN ES   1    738 53.95                             132   -0.32 7  146 261 
 PTB  HZ I         738 59.81         6.7 0.30            118            146 261 
 TAM  HZ EP   1    738 34.24                             130   -0.03 7  155 103 
 ZAR  HN ES   1    739  4.39                             122   -0.20 6  205 294 
 ZAR  HZ I         739 10.26        12.0 0.32            110            205 294 
 CHI  HZ EP   1    738 44.10                             118    0.38 6  243 195 
 CHI  HZ I         739 18.73         3.0 0.28            105            243 195 
                                                                                
