 2017  720 0117 16.0 L   6.786 -73.142141.4  RSN 15 0.5 2.3LRSN                1
 GAP=113        1.20       4.3     3.6  6.2  0.2589E+01  0.6902E+01  0.6986E+01E
 Epicentro: LOS SANTOS - SANTANDER                                             3
 ACTION:UPD 17-08-30 15:35 OP:rebc STATUS:               ID:20170720011716 L   I
 OLDACT:UP  17-07-20 14:37 OP:dnl  STATUS:               ID:20170720010738     3
 OLDACT:REG 17-07-20 13:07 OP:dnl  STATUS:               ID:20170720010738     3
 2017-07-20-0108-00M.COL___392                                                 6
 STAT SP IPHASW D HRMM SECON CODA AMPLIT PERI AZIMU VELO AIN AR TRES W  DIS CAZ7
 BAR2 EZ EP        117 34.93                             171   -0.1210 21.9 192 
 BAR2 EZ ES        117 49.55                             171   -0.3910 21.9 192 
 BAR2 EZ I         117 51.00        64.6 0.16            169           21.9 192 
 BRR  HZ EP        117 36.86                             151    0.1410 72.3 299 
 BRR  HE ES        117 53.79                             151    0.8910 72.3 299 
 BRR  HZ I         117 58.91        40.6 0.14            151           72.3 299 
 PAM  EZ IP     C  117 37.79                             150    0.0010 78.3  39 
 PAM  EN ES        117 54.62                             150   -0.1810 78.3  39 
 PAM  EZ I         117 57.06        58.8 0.66            155           78.3  39 
 RUS  HZ EP        117 38.96                             143   -0.2210 99.0 176 
 RUS  HN ES        117 57.24                             143   -0.0510 99.0 176 
 RUS  HZ I         117 58.46        31.6 0.34            145           99.0 176 
 PTB  HZ EP        117 41.86                             131   -0.74 9  148 259 
 PTB  HN ES        118  2.76                             131   -0.61 9  148 259 
 PTB  HZ I         118  7.83        15.6 0.16            132            148 259 
 SPBC HZ EP        117 44.05                             128   -0.00 9  162 219 
 SPBC HN ES        118  5.83                             128   -0.12 9  162 219 
 SPBC HZ I         118 11.44        36.2 0.20            129            162 219 
 YPLC HZ IP     D  117 45.37                             126    0.07 9  175 151 
 YPLC HN ES        118  9.04                             126    0.87 9  175 151 
 YPLC HZ I         118 12.80        24.2 0.56            129            175 151 
 ZAR  HZ EP   4    117 49.36                             121    1.12 0  205 293 
 ZAR  HN ES        118 13.76                             121    0.35 9  205 293 
 ZAR  HZ I         118 19.86        31.2 0.34            123            205 293 
 NOR  HZ EP        117 51.58                             118    0.19 8  234 235 
 NOR  HN ES   4    118 20.12                             118    1.10 0  234 235 
 NOR  HZ I         118 24.62        14.3 0.40            119            234 235 
 HEL  HZ EP   2    117 56.50                             114    0.53 4  272 256 
 HEL  HE ES        118 26.67                             114   -0.50 8  272 256 
 HEL  HZ I         118 33.32         9.2 0.38            116            272 256 
 URE  HZ EP   2    117 57.39                             113    0.44 4  285 292 
 URE  HN ES   4    118 26.91                             113   -1.99 0  285 292 
 URE  HZ I         118 28.87        29.8 0.12            115            285 292 
 GUY2CHZ EP        118  0.28                             111    0.96 7  301 235 
 GUY2CHE ES        118 33.54                             111    0.41 7  301 235 
 GUY2CHZ I         118 41.63         7.9 0.32                           301 235 
 PTGC HZ EP        117 58.23                             111   -1.22 7  307 159 
 PTGC HN ES   4    118 30.88                             111   -2.49 0  307 159 
 PTGC HZ I         118 33.58        12.5 0.70            113            307 159 
 CBOC HZ EP        118  3.48                             109    0.78 7  334 252 
 CBOC HN ES        118 39.77                             109    0.62 7  334 252 
 CBOC HZ I         118 44.06         3.9 0.22            111            334 252 
 DBB  EZ EP   2    118  2.98                             109   -0.36 3  340 275 
 DBB  EN ES        118 39.27                             109   -1.01 7  340 275 
 DBB  EZ I         118 42.59         8.1 0.24            110            340 275 
                                                                                
