 2011  220 0741 25.4 L   6.716 -73.064142.0  RSN  5 0.4 1.1LRSN                1
 GAP=169        0.86       4.1     8.2 11.0 -0.9673E+01  0.2981E+02 -0.3054E+01E
 Epicentro: JORDAN - SANTANDER                                                 3
 ACTION:UP  11-03-28 15:09 OP:jfem STATUS:               ID:20110220074125 L   I
 2011-02-20-0737-39S.COL___137                                                 6
 STAT SP IPHASW D HRMM SECON CODA AMPLIT PERI AZIMU VELO SNR AR TRES W  DIS CAZ7
 BAR2 SZ EP   2    741 45.19                             172     0.7 5   19 224 
 BAR2 SZ I         741 46.73         2.5 0.45                            19 224 
 BAR2 SZ ES   1    741 59.87                             172     0.5 7   19 224 
 RUS  HZ EP        741 48.09                             146     0.010   91 181 
 RUS  HN ES   1    742  5.36                             146    -0.5 7   91 181 
 RUS  HZ I         742 11.27         1.5 0.22                            91 181 
 GRA  SZ EP   3    741 51.52                             135     0.6 2  132  13 
 GRA  SZ ES   2    742 11.06                             135     0.3 5  132  13 
 GRA  SZ I         742 12.37         2.8 0.41                           132  13 
 OCA  SZ ES        742 16.69                             127    -0.4 9  171 351 
 OCA  SZ I         742 18.40         1.9 0.25                           171 351 
 NOR  SN ES        742 29.27                             117     0.2 8  237 238 
                                                                                
