 2016  920 0226 43.0 L   6.782 -73.115146.8  RSN 14 0.4 2.1LRSN                1
 GAP=123        0.83       2.6     3.5  4.6 -0.1358E+01  0.2504E+00  0.1398E+01E
 Epicentro: LOS SANTOS - SANTANDER                                             3
 ACTION:UPD 17-08-17 21:14 OP:lp   STATUS:               ID:20160920022643 L   I
 OLDACT:UP  16-09-20 15:24 OP:and  STATUS:               ID:20160920021738     3
 OLDACT:UP  16-09-20 15:20 OP:and  STATUS:               ID:20160920021738     3
 OLDACT:UP  16-09-20 15:14 OP:and  STATUS:               ID:20160920021738     3
 OLDACT:REG 16-09-20 12:35 OP:and  STATUS:               ID:20160920021738     3
 2016-09-20-0218-00M.COL___363                                                 6
 STAT SP IPHASW D HRMM SECON CODA AMPLIT PERI AZIMU VELO AIN AR TRES W  DIS CAZ7
 BAR2 EZ EP        227  2.57                             171   -0.1610 22.3 200 
 BAR2 EZ ES        227 17.99                             171   -0.1310 22.3 200 
 BAR2 EZ I         227 18.92        38.4 0.18            169           22.3 200 
 BRR  HZ EP        227  4.36                             152   -0.1210 75.2 299 
 BRR  HN ES        227 21.60                             152    0.3510 75.2 299 
 BRR  HZ I         227 26.17        11.4 0.13            149           75.2 299 
 PAM  EZ EP     D  227  5.33                             151    0.0410 76.8  37 
 PAM  EN ES        227 22.74                             151    0.0610 76.8  37 
 PAM  EZ I         227 24.56        16.6 0.48            154           76.8  37 
 RUS  HZ EP        227  6.97                             145    0.2810 98.4 178 
 RUS  HE ES        227 25.27                             145    0.0910 98.4 178 
 RUS  HZ I         227 26.33        12.8 0.32            145           98.4 178 
 PTB  HZ EP   9    227  9.27                             132   -1.05 0  151 260 
 PTB  HN ES        227 30.37                                   -0.21 9  151 260 
 PTB  HZ I         227 33.08        12.0 0.16            130            151 260 
 OCA  HZ EP        227 12.30                             129    0.68 9  163 352 
 OCA  HN ES        227 33.40                             129   -0.54 9  163 352 
 OCA  HZ I         227 37.24        20.4 0.28            130            163 352 
 SPBC HZ EP        227 11.47                             129   -0.17 9  164 220 
 SPBC HE ES        227 34.19                             129    0.22 9  164 220 
 SPBC HZ I         227 36.21        23.5 0.18            129            164 220 
 ZAR  HZ EP   4    227 17.08                             122    1.16 0  208 292 
 ZAR  HE ES        227 41.32                             122   -0.27 8  208 292 
 ZAR  HZ I         227 47.23        11.2 0.28            121            208 292 
 NOR  HZ EP   2    227 19.31                             119    0.35 4  236 235 
 NOR  HE ES        227 46.56                             119   -0.46 8  236 235 
 NOR  HZ I         227 51.90        12.8 0.16            118            236 235 
 CHI  HZ EP   2    227 21.00                             117    0.36 4  248 196 
 CHI  HN ES   2    227 50.87                             117    0.86 4  248 196 
 CHI  HZ I         227 57.00         4.7 0.28            118            248 196 
 HEL  HZ EP   2    227 24.35                             115    0.77 4  275 256 
 HEL  HN ES   4    227 56.72                             115    1.49 0  275 256 
 HEL  HZ I         228  1.21         4.8 0.28            114            275 256 
 GUY2CHZ EP   4    227 29.25                             112    2.41 0  303 235 
 GUY2CHE ES   4    228  2.63                             112    1.59 0  303 235 
 GUY2CHZ I         228  9.21         7.6 0.30                           303 235 
 PTGC HZ EP        227 25.67                             112   -0.88 7  306 159 
 PTGC HN ES   4    227 58.86                             112   -1.65 0  306 159 
 SJC  HZ EP   4    227 37.01                             106   -2.00 0  413 327 
 SJC  HN ES   4    228 18.17                             106   -4.53 0  413 327 
 SJC  HZ I         228 21.50         2.4 0.32            106            413 327 
                                                                                
