 2010  920 0953 43.9 L   6.759 -73.098142.8  RSN 12 0.4 2.4LRSN                1
 GAP=164        0.87       3.3     5.7  5.1 -0.6925E+01  0.5180E+01  0.1978E+01E
 Epicentro: LOS SANTOS - SANTANDER                                             3
 ACTION:UP  11-02-18 11:04 OP:tino STATUS:               ID:20100920095343 L   I
 2010-09-20-0952-05S.COL___121                                                 6
 STAT SP IPHASW D HRMM SECON CODA AMPLIT PERI AZIMU VELO SNR AR TRES W  DIS CAZ7
 BAR2 SZ EP        954  3.07                             171     0.010   21 207 
 BAR2 SZ ES   1    954 17.92                             171    -0.2 7   21 207 
 BAR2 SZ I         954 19.01        70.5 0.29                            21 207 
 BTL  SZ EP        954  3.60                             169     0.410   26 313 
 BTL  SZ ES   1    954 18.44                             169     0.2 7   26 313 
 GIR2 SZ EP        954  3.33                             165     0.010   37 343 
 GIR2 SZ ES   1    954 17.96                             165    -0.6 7   37 343 
 BRR  HZ IP     C  954  5.17                             150     0.110   78 300 
 BRR  HN ES   1    954 22.27                             150     0.6 7   78 300 
 BRR  HZ I         954 22.86        63.2 0.20                            78 300 
 RUS  HZ EP        954  6.95                             144     0.010   96 179 
 RUS  HE ES   1    954 25.17                             144     0.1 7   96 179 
 RUS  HZ I         954 26.50        23.2 0.24                            96 179 
 GRA  SZ IP        954  9.26                             136     0.210  129  15 
 GRA  SZ I         954 10.71        60.2 0.35                           129  15 
 GRA  SZ ES   1    954 28.52                             136    -0.3 7  129  15 
 OCA  SZ EP        954 11.91                             128    -0.5 9  165 352 
 OCA  SZ ES   1    954 34.98                             128     0.2 7  165 352 
 OCA  SZ I         954 38.77        53.5 0.26                           165 352 
 NOR  HZ EP   1    954 18.85                             118    -0.8 6  237 236 
 NOR  HN ES   1    954 46.73                             118    -0.8 6  237 236 
 CHI  HZ EP        954 21.45                             117     0.3 8  246 197 
 CHI  HN ES   2    954 49.82                             117    -0.3 4  246 197 
 CHI  HZ I         955  0.15        10.3 0.38                           246 197 
 HEL  HZ EP        954 24.80                             114     0.4 7  276 257 
 HEL  HZ I         955  1.45        14.3 0.52                           276 257 
 GUY  SN ES   2    955  1.75                             112     0.1 4  303 236 
 RREF HZ EP   2    954 30.45                             110     0.4 3  323 231 
 RREF HN ES   1    955  6.14                             110     0.1 5  323 231 
 RREF HZ I         955 14.34        14.6 0.26                           323 231 
                                                                                
