 2013  220 0816  5.1 L   6.856 -72.988142.0  RSN  7 0.5 1.6LRSN                1
 GAP=215        1.00       4.8     9.9  7.2  0.2720E+02 -0.8633E+01 -0.6524E+01E
 Epicentro: CEPITA - SANTANDER                                                 3
 ACTION:UPD 13-03-12 09:34 OP:ep   STATUS:               ID:20130220081605 L   I
 2013-02-20-0810-00M.COL___241                                                 6
 STAT SP IPHASW D HRMM SECON CODA AMPLIT PERI AZIMU VELO AIN AR TRES W  DIS CAZ7
 BAR2 SZ EP        816 24.77                             165    0.1210 36.2 216 
 BAR2 SZ I         816 25.03        11.5 0.36            156           36.2 216 
 BAR2 SZ ES        816 40.31                             165    0.4410 36.2 216 
 BRR  HZ EP        816 26.65                             147   -0.0610 84.7 289 
 BRR  HN ES        816 43.41                             147   -0.1310 84.7 289 
 BRR  HN I         816 48.01        11.8 0.16            142           84.7 289 
 RUS  HZ EP        816 28.86                             141   -0.1410  107 186 
 RUS  HN ES        816 47.03                             141   -0.5810  107 186 
 RUS  HN I         816 49.97         3.5 0.50            137            107 186 
 PTB  HZ EP   4    816 31.43                             128   -2.09 0  166 258 
 PTB  HN ES   4    816 51.63                             128   -4.04 0  166 258 
 ZAR  HN ES   1    817  4.58                             120   -0.52 6  218 289 
 SML  HZ EP        816 41.31                             116   -0.50 8  246 331 
 SML  HN ES   1    817 11.47                             116    1.06 6  246 331 
 CHI  HZ EP   1    816 44.07                             115    0.24 6  260 199 
 CHI  HN ES        817 14.65                             115    0.64 8  260 199 
 CHI  HN I         817 21.10         2.3 0.58            114            260 199 
 SDV  BZ E         817 27.84                                            343  49 
                                                                                
