 2017  720 0828 52.1 L   6.227 -73.145180.2  RSN 18 0.5 2.1LRSN                1
 GAP=115        1.15       4.4     3.6  6.1 -0.1236E+01  0.4841E+01  0.1856E+01E
 Epicentro: CHARALA - SANTANDER                                                3
 ACTION:UPD 17-08-30 15:35 OP:rebc STATUS:               ID:20170720082852 L   I
 OLDACT:UP  17-07-20 16:09 OP:edw  STATUS:               ID:20170720082737     3
 OLDACT:UP  17-07-20 16:09 OP:edw  STATUS:               ID:20170720082737     3
 OLDACT:UP  17-07-20 16:08 OP:edw  STATUS:               ID:20170720082737     3
 OLDACT:REG 17-07-20 13:17 OP:dnl  STATUS:               ID:20170720082737     3
 2017-07-20-0828-00M.COL___374                                                 6
 STAT SP IPHASW D HRMM SECON CODA AMPLIT PERI AZIMU VELO AIN AR TRES W  DIS CAZ7
 RUS  HZ EP     C  829 16.74                             168    0.1810 37.6 169 
 RUS  HN ES        829 36.25                             168    0.6110 37.6 169 
 RUS  HZ I         829 39.03         9.0 0.60            168           37.6 169 
 BAR2 EZ IP     C  829 15.96                             167   -0.3010 40.5 354 
 BAR2 EZ ES        829 35.26                             167    0.1510 40.5 354 
 BAR2 EZ I         829 37.46        21.9 0.24            168           40.5 354 
 BRR  HZ EP     C  829 19.81                             146    0.1710  116 327 
 BRR  HN ES        829 41.49                             146    0.3610  116 327 
 BRR  HZ I         829 44.22        15.6 0.16            148            116 327 
 SPBC HZ EP        829 20.24                             145    0.1210  121 238 
 SPBC HN ES        829 42.46                             145    0.4710  121 238 
 SPBC HZ I         829 48.54        18.9 0.36            145            121 238 
 YPLC HZ EP        829 20.68                             144    0.2810  125 137 
 YPLC HN ES        829 41.52                             144   -0.9710  125 137 
 YPLC HZ I         829 47.00        18.7 0.42            146            125 137 
 PAM  EZ IP     D  829 21.44                             142   -0.1010  132  22 
 PAM  EN ES        829 44.54                             142    0.0410  132  22 
 PAM  EZ I         829 46.17         9.3 0.52            145            132  22 
 PTB  HZ EP     C  829 21.65                             139   -0.52 9  149 283 
 PTB  HN ES        829 45.09                             139   -0.53 9  149 283 
 PTB  HZ I         829 46.51        12.6 0.42            140            149 283 
 NOR  HZ EP   4    829 28.89                             129    1.79 0  205 249 
 NOR  HN ES        829 53.69                             129   -0.72 9  205 249 
 NOR  HZ I         829 55.77        13.3 0.22            130            205 249 
 ZAR  HZ EP   9    829 29.09                             125   -0.96 0  235 307 
 ZAR  HN ES        829 58.28                             125   -0.42 8  235 307 
 ZAR  HZ I         830  5.61        17.2 0.28            127            235 307 
 PTGC HZ EP   9 D  829 30.66                             123   -0.93 0  251 153 
 PTGC HN ES        830  1.18                             123   -0.29 8  251 153 
 HEL  HZ EP     C  829 34.05                             122    0.63 8  264 269 
 HEL  HN ES        830  5.07                             122   -0.58 8  264 269 
 HEL  HZ I         830  8.72         4.9 0.36            123            264 269 
 GUY2CHZ EP   4    829 35.73                             121    1.56 0  270 246 
 GUY2CHN ES        830  7.83                             121    0.84 8  270 246 
 GUY2CHZ I         830 19.55         4.0 0.48                           270 246 
 URE  HZ EP   4    829 36.58                             117   -1.60 0  313 303 
 URE  HN ES   4    830 11.39                             117   -2.75 0  313 303 
 URE  HZ I         830 15.22        15.6 0.14            119            313 303 
 CBOC HZ EP        829 39.60                             117    0.47 7  320 263 
 CBOC HN ES        830 15.33                             117   -0.49 7  320 263 
 CBOC HZ I         830 20.39         3.6 0.48            118            320 263 
 ORTC HN ES   4    830 22.44                             115    1.74 0  346 222 
 DBB  EN ES   4    830 20.16                             114   -1.35 0  350 285 
 DBB  EZ I         830 23.30         6.2 0.42            116            350 285 
 PAL  HZ EP   2    829 45.09                             113   -0.26 3  377 247 
 PAL  HN ES   2    830 26.35                             113   -0.54 3  377 247 
 PAL  HZ I         830 32.73         1.6 0.20            114            377 247 
 LL6C HZ EP   9    829 45.34                             112   -1.17 0  388 358 
 LL6C HN ES        830 26.63                                   -1.15 6  388 358 
 SJC  HZ EP   4    829 52.24                             108   -2.98 0  464 331 
 SJC  HN ES   4    830 37.21                             108   -7.26 0  464 331 
 SJC  HZ I         830 42.25         1.8 0.48            110            464 331 
                                                                                
