 2013  920 0239 46.8 L   6.793 -73.131150.9  RSN  9 0.4 1.7LRSN                1
 GAP=184        1.04       3.6     5.7  6.4  0.9030E+00  0.6798E+01 -0.1021E+01E
 Epicentro: LOS SANTOS - SANTANDER                                             3
 ACTION:UPD 13-10-22 09:23 OP:ep   STATUS:               ID:20130920023946 L   I
 OLDACT:REG 13-09-20 07:52 OP:carl STATUS:               ID:20130920023959     3
 2013-09-20-0239-59M.COL___269                                                 6
 STAT SP IPHASW D HRMM SECON CODA AMPLIT PERI AZIMU VELO AIN AR TRES W  DIS CAZ7
 BAR2 SZ EP        240  7.16                             171    0.0910 22.9 194 
 BAR2 SZ ES        240 22.36                             171   -0.5010 22.9 194 
 BAR2 SZ I         240 23.33         9.1 0.30            164           22.9 194 
 BRR  HZ EP        240  9.00                             153    0.3610 73.0 298 
 BRR  HN ES        240 26.40                             153    0.7510 73.0 298 
 BRR  HZ I         240 29.27         7.5 0.44            146           73.0 298 
 RUS  HZ EP        240 10.95                             145   -0.0810 99.7 177 
 RUS  HN ES   1    240 29.65                             145   -0.25 7 99.7 177 
 RUS  HZ I         240 30.91         3.3 0.26            146           99.7 177 
 PTB  HZ EP        240 14.05                             133   -0.31 9  149 259 
 PTB  HN ES   1    240 34.98                             133   -0.84 7  149 259 
 PTB  HZ I         240 42.14         8.2 0.40            129            149 259 
 OCA  HN ES        240 38.35                             130    0.24 9  161 353 
 SPBC HZ EP        240 16.23                             130    0.46 9  164 220 
 SPBC HE ES        240 38.30                             130   -0.04 9  164 220 
 SPBC HZ I         240 45.30         7.6 0.16            128            164 220 
 ZAR  HZ EP        240 19.51                             123   -0.30 8  206 292 
 ZAR  HN ES        240 45.66                             123    0.14 8  206 292 
 ZAR  HZ I         240 55.95         4.2 0.34            121            206 292 
 NOR  HZ EP        240 23.68                             119    0.72 8  236 235 
 NOR  HN ES   1    240 50.93                             119   -0.21 6  236 235 
 NOR  HZ I         240 56.45         4.8 0.34            118            236 235 
 SML  HZ EP        240 23.35                             118   -0.56 8  245 335 
 SML  HN ES   1    240 52.06                             118   -0.76 6  245 335 
 SML  HZ I         240 57.59         8.7 0.22            119            245 335 
                                                                                
