 2016  620 0314 27.2 L   6.799 -73.108149.7  RSN 14 0.5 1.9LRSN                1
 GAP=187        1.18       3.4     4.8  6.2 -0.1418E+01  0.7663E+01  0.2224E+01E
 Epicentro: LOS SANTOS - SANTANDER                                             3
 ACTION:UPD 16-07-21 22:20 OP:rebc STATUS:               ID:20160620031427 L   I
 OLDACT:REG 16-06-20 13:09 OP:ar   STATUS:               ID:20160620030744     3
 2016-06-20-0307-44M.COL___349                                                 6
 STAT SP IPHASW D HRMM SECON CODA AMPLIT PERI AZIMU VELO AIN AR TRES W  DIS CAZ7
 BAR2 EZ EP        314 47.39                             170    0.0310 24.3 200 
 BAR2 EZ ES        315  2.27                             170   -0.7810 24.3 200 
 BAR2 EZ I         315  5.24        12.2 0.16                          24.3 200 
 BRR  HZ EP        314 49.32                             152    0.2910 74.9 297 
 BRR  HN ES        315  6.58                             152    0.5610 74.9 297 
 BRR  HZ I         315 10.35         8.9 0.07                          74.9 297 
 RUS  HZ EP        314 51.22                             145   -0.1310  100 178 
 RUS  HN ES        315 10.33                             145    0.1710  100 178 
 RUS  HZ I         315 13.09         5.5 0.24                           100 178 
 PTB  HZ EP        314 53.92                             132   -0.97 9  152 259 
 PTB  HN ES        315 15.79                             132   -0.67 9  152 259 
 PTB  HZ I         315 22.83        14.9 0.46                           152 259 
 OCA  HZ EP        314 55.85                             130   -0.07 9  161 352 
 OCA  HN ES        315 18.97                             130    0.67 9  161 352 
 OCA  HZ I         315 23.15        18.2 0.20                           161 352 
 SPBC HZ EP        314 56.29                             129    0.01 9  166 220 
 SPBC HE ES        315 19.26                             129    0.33 9  166 220 
 SPBC HZ I         315 24.02        14.3 0.20                           166 220 
 ZAR  HZ EP        315  0.01                             123   -0.33 8  208 292 
 ZAR  HE ES        315 26.08                             123   -0.09 8  208 292 
 ZAR  HZ I         315 32.00         6.1 0.20                           208 292 
 NOR  HZ EP        315  2.83                             119   -0.72 8  238 235 
 NOR  HN ES        315 31.43                             119   -0.45 8  238 235 
 NOR  HZ I         315 35.31         8.2 0.18                           238 235 
 CHI  HZ EP   2    315  4.69                             118   -0.57 4  250 196 
 CHI  HN ES        315 34.77                             118   -0.15 8  250 196 
 ROSC BZ EP        315  6.35                             117    0.55 8  255 212 
 ROSC BN ES        315 36.70                             117    0.83 8  255 212 
 ROSC BZ I         315 43.28         7.4 0.45                           255 212 
 HEL  HZ EP   1    315  8.10                             115    0.01 6  276 256 
 HEL  HN ES        315 40.70                             115    0.74 7  276 256 
 HEL  HZ I         315 46.45         6.8 0.38                           276 256 
 GUY2CHZ EP        315 12.15                             113    0.75 7  305 235 
 GUY2CHE ES        315 46.57                             113    0.72 7  305 235 
 GUY2CHZ I         315 54.06         5.3 0.52                           305 235 
 CBOC HZ EP        315 14.81                             110    0.04 7  338 252 
 CBOC HN ES        315 51.00                             110   -0.84 7  338 252 
 CBOC HZ I         315 55.68         1.8 0.24                           338 252 
 ORTC HZ EP   2    315 21.09                             107   -0.48 3  398 217 
 ORTC HN ES        316  4.34                             107    0.39 6  398 217 
 ORTC HZ I         316 10.68         1.8 0.38                           398 217 
                                                                                
