 2014 1120 0637  2.1 L   6.270 -73.653104.4  RSN  9 0.5 1.1LRSN                1
 GAP= 82        1.35       4.0     3.9  8.5 -0.2052E+01  0.1038E+02 -0.1534E+01E
 Epicentro: SANTA HELENA DEL OPON - SANTANDER                                  3
 ACTION:UPD 14-12-19 15:44 OP:nd   STATUS:               ID:20141120063702 L   I
 OLDACT:DUP 14-11-20 15:28 OP:fm   STATUS:               ID:20141120062746d    3
 OLDACT:DUP 14-11-20 15:20 OP:fm   STATUS:               ID:20141120062744d    3
 2014-11-20-0627-43M.COL___295                                                 6
 STAT SP IPHASW D HRMM SECON CODA AMPLIT PERI AZIMU VELO AIN AR TRES W  DIS CAZ7
 BAR2 SZ EP        637 19.39                             146    0.6310 63.1  56 
 BAR2 SZ ES        637 32.55                             146    0.8110 63.1  56 
 RUS  HZ EP        637 19.79                             141   -0.2310 75.7 123 
 RUS  HN ES        637 33.88                             141   -0.1010 75.7 123 
 RUS  HZ I         637 35.82         1.9 0.24            145           75.7 123 
 SPBC HZ EP        637 19.65                             139   -0.3610 82.6 214 
 SPBC HN ES        637 33.76                             139   -0.1910 82.6 214 
 SPBC HZ I         637 40.92         3.6 0.18            139           82.6 214 
 BRR  HE ES        637 35.71                             135    0.4710 92.7 356 
 BRR  HZ I         637 36.02         4.1 0.52            138           92.7 356 
 PTB  HZ EP        637 20.30                             135   -0.5310 93.7 289 
 PTB  HN ES        637 34.49                             135   -0.9310 93.7 289 
 PTB  HZ I         637 38.21         2.4 0.28            135           93.7 289 
 PAM  SZ EP        637 27.45                             119   -0.39 9  158  42 
 PAM  SN ES        637 47.39                             119   -0.50 9  158  42 
 PAM  SZ I         637 52.31         1.5 0.42            122            158  42 
 ZAR  HZ EP        637 30.50                             113   -0.15 9  190 315 
 ZAR  HN ES        637 52.87                             113   -0.03 9  190 315 
 ZAR  HZ I         637 57.96         2.6 0.34            115            190 315 
 HEL  HZ EP        637 33.86                             111    0.72 8  208 268 
 HEL  HN ES        637 58.16                             111    0.82 8  208 268 
 HEL  HZ I         638  4.08         1.5 0.34            113            208 268 
 PRA  HN ES        638 19.21                             102    0.45 7  314 206 
 PRA  HZ I         638 23.03         0.7 0.20            103            314 206 
                                                                                
