 2015 1120 0707 40.9 L   6.819 -73.118145.9  RSN 11 0.4 1.7LRSN                1
 GAP=139        0.76       2.6     3.4  4.5 -0.1457E+01  0.4952E+01  0.2495E+01E
 Epicentro: LOS SANTOS - SANTANDER                                             3
 ACTION:UPD 15-12-28 16:12 OP:cam  STATUS:               ID:20151120070740 L   I
 OLDACT:DUP 15-11-20 17:27 OP:ak   STATUS:               ID:20151120065738d    3
 OLDACT:UP  15-11-20 17:04 OP:ak   STATUS:               ID:20151120065737     3
 OLDACT:REG 15-11-20 13:21 OP:y    STATUS:               ID:20151120065737     3
 2015-11-20-0657-37M.COL___316                                                 6
 STAT SP IPHASW D HRMM SECON CODA AMPLIT PERI AZIMU VELO AIN AR TRES W  DIS CAZ7
 BAR2 EZ EP        7 8  0.43                             169   -0.1610 26.1 196 
 BAR2 EZ ES        7 8 15.64                             169   -0.3210 26.1 196 
 BAR2 EZ I         7 8 16.81        11.0 0.20            169           26.1 196 
 BRR  HZ EP        7 8  2.41                             152    0.2610 72.9 296 
 BRR  HN ES        7 8 19.16                             152    0.4310 72.9 296 
 BRR  HZ I         7 8 21.68         5.5 0.07            150           72.9 296 
 PAM  EZ EP        7 8  3.26                             152    0.3510 73.8  39 
 PAM  EN ES        7 8 20.18                             152    0.0910 73.8  39 
 PAM  EZ I         7 8 22.00         5.0 0.14            154           73.8  39 
 RUS  HZ EP        7 8  4.65                             143   -0.1510  103 178 
 RUS  HN ES        7 8 23.36                             143   -0.0810  103 178 
 RUS  HZ I         7 8 25.27         2.7 0.32            145            103 178 
 SPBC HZ EP        7 8  9.67                             128   -0.07 9  167 219 
 SPBC HN ES        7 8 32.00                             128   -0.24 9  167 219 
 SPBC HZ I         7 8 36.51         6.5 0.24            129            167 219 
 ZAR  HZ EP   4    7 8  5.05                             122   -8.50 0  206 291 
 ZAR  HN ES        7 8 38.57                             122   -0.46 8  206 291 
 ZAR  HZ I         7 8 44.29         5.5 0.38            122            206 291 
 NOR  HE ES        7 8 45.35                             118    0.14 8  238 234 
 SML  HZ EP   2    7 8 17.99                             117    0.53 4  243 334 
 SML  HE ES   1    7 8 45.31                             117   -0.66 6  243 334 
 SML  HZ I         7 8 51.28         7.5 0.07            118            243 334 
 GUY2CHZ EP   1    7 8 24.11                             112   -0.81 5  305 235 
 GUY2CHE ES        7 8 59.82                             112    0.55 7  305 235 
 GUY2CHZ I         7 9  9.73         2.2 0.42                           305 235 
 MON  HZ EP   4    7 8 28.20                             108   -1.82 0  355 308 
 MON  HN ES   4    7 9  4.80                             108   -3.54 0  355 308 
 PRA  HZ EP        7 8 34.44                             106   -0.37 6  395 210 
 PRA  HN ES        7 9 16.80                             106   -0.06 6  395 210 
 ORTC HZ EP        7 8 35.59                             106    0.36 6  399 216 
 ORTC HN ES        7 9 18.23                             106    0.62 6  399 216 
 ORTC HZ I         7 9 24.52         1.9 0.58            107            399 216 
                                                                                
