 2016  620 0520 30.8 L   6.799 -73.114144.0  RSN  7 0.6 1.2LRSN                1
 GAP=141        1.38       6.6     6.2  9.3 -0.3861E+01  0.2074E+02  0.3736E+01E
 Epicentro: LOS SANTOS - SANTANDER                                             3
 ACTION:UPD 16-07-21 22:20 OP:rebc STATUS:               ID:20160620052030 L   I
 OLDACT:REG 16-06-20 13:23 OP:ar   STATUS:               ID:20160620051748     3
 2016-06-20-0517-48M.COL___343                                                 6
 STAT SP IPHASW D HRMM SECON CODA AMPLIT PERI AZIMU VELO AIN AR TRES W  DIS CAZ7
 BAR2 EZ EP        520 50.24                             170   -0.0210 24.1 198 
 BAR2 EZ ES        521  5.40                             170   -0.0210 24.1 198 
 BAR2 EZ I         521  7.91         4.6 0.28                          24.1 198 
 BRR  HZ EP        520 51.86                             151   -0.1110 74.3 297 
 BRR  HN ES        521  9.58                             151    1.1310 74.3 297 
 BRR  HZ I         521 13.58         2.1 0.30                          74.3 297 
 PAM  EZ EP        520 52.86                             151    0.1310 75.3  37 
 PAM  EN ES        521  9.27                             151   -0.5510 75.3  37 
 PAM  EZ I         521 12.66         2.3 0.18                          75.3  37 
 RUS  HZ EP   2    520 54.13                             144   -0.25 5  100 178 
 RUS  HN ES        521 13.11                             144    0.3510  100 178 
 RUS  HZ I         521 15.49         2.0 0.40                           100 178 
 PTB  HZ EP        520 57.30                             131   -0.66 9  151 259 
 PTB  HN ES        521 17.99                             131   -1.13 9  151 259 
 PTB  HZ I         521 25.38         3.4 0.52                           151 259 
 ZAR  HZ EP   2    521  3.68                             122    0.18 4  207 292 
 ZAR  HN ES        521 29.28                             122    0.30 8  207 292 
 ZAR  HZ I         521 35.50         1.5 0.13                           207 292 
 GUY2CHZ EP        521 15.55                             112    0.88 7  304 235 
 GUY2CHN ES        521 48.85                             112   -0.01 7  304 235 
 GUY2CHZ I         522  0.78         1.1 0.57                           304 235 
                                                                                
