 2013  120 0634  8.5 L   6.790 -73.164149.2  RSN  7 0.4 1.8LRSN                1
 GAP=135        0.82       4.5     4.9  7.3  0.1845E+01  0.5845E+01  0.7784E+01E
 Epicentro: LOS SANTOS - SANTANDER                                             3
 ACTION:UPD 13-02-15 09:15 OP:ep   STATUS:               ID:20130120063408 L   I
 2013-01-20-0630-00M.COL___241                                                 6
 STAT SP IPHASW D HRMM SECON CODA AMPLIT PERI AZIMU VELO AIN AR TRES W  DIS CAZ7
 BAR2 SZ EP        634 28.46                             171   -0.0410 21.9 185 
 BAR2 SZ ES   1    634 44.24                             171    0.13 7 21.9 185 
 BRR  HZ EP   1    634 30.36                             153    0.42 7 70.0 300 
 BRR  HN ES   1    634 47.52                             153    0.84 7 70.0 300 
 BRR  HZ I         634 49.95        11.3 0.20            149           70.0 300 
 PAM  SZ EP   1    634 31.38                             151    0.18 7 79.5  40 
 PAM  SN ES   1    634 48.37                             151   -0.54 7 79.5  40 
 PAM  SZ I         634 50.03         7.1 0.40            156           79.5  40 
 RUS  HZ EP   1    634 32.30                             145   -0.21 7 99.6 175 
 RUS  HN ES   1    634 51.09                             145   -0.15 7 99.6 175 
 RUS  HZ I         634 52.64         7.1 0.48            145           99.6 175 
 PTB  HZ EP   1    634 35.20                             133   -0.34 7  146 259 
 PTB  HN ES   1    634 55.88                             133   -0.76 7  146 259 
 PTB  HZ I         635  2.16         9.6 0.32            131            146 259 
 ZAR  HN ES   1    635  6.29                             123   -0.09 6  203 293 
 ZAR  HZ I         635 14.64         7.7 0.64            122            203 293 
 CHI  HZ EP   1    634 46.52                             118    0.31 6  247 195 
 CHI  HN ES   1    635 16.03                             118    0.41 6  247 195 
 CHI  HZ I         635 21.57         3.7 0.34            118            247 195 
                                                                                
