 2017 1220 0719 39.3 L   6.770 -73.077144.9  RSN 14 0.7 1.9LRSN                1
 GAP=126        1.29       3.3     4.7  6.7 -0.2347E+01  0.7352E+01  0.2489E+01E
 Epicentro: LOS SANTOS - SANTANDER                                             3
 ACTION:UPD 18-01-04 13:22 OP:rebc STATUS:               ID:20171220071939 L   I
 OLDACT:REG 17-12-20 13:04 OP:dhb  STATUS:               ID:20171220071741     3
 2017-12-20-0718-00M.COL___456                                                 6
 STAT SP IPHASW D HRMM SECON CODA AMPLIT PERI AZIMU VELO AIN AR TRES W  DIS CAZ7
 BAR2 EZ IP     D  719 58.72                             171   -0.0510 22.9 211 
 BAR2 EZ ES        720 13.92                             171   -0.0610 22.9 211 
 BAR2 EZ I         720 14.69        14.6 0.44            168           22.9 211 
 PAM  EZ EP        720  1.78                             151    0.5210 75.5  34 
 PAM  EN ES        720 18.96                             151    0.5410 75.5  34 
 PAM  EZ I         720 21.30         5.3 0.52            153           75.5  34 
 PTB  HZ EP        720  5.66                             130   -1.12 9  155 261 
 PTB  HE ES        720 27.27                             130   -0.98 9  155 261 
 PTB  HZ I         720 27.49         6.8 0.16            129            155 261 
 OCA  HZ EP        720  7.98                             129    0.08 9  165 351 
 OCA  HN ES        720 29.69                             129   -0.56 9  165 351 
 OCA  HZ I         720 36.27        16.8 0.12            128            165 351 
 SPBC HZ EP        720  7.60                             128   -0.31 9  166 222 
 SPBC HN ES        720 30.61                             128    0.34 9  166 222 
 SPBC HZ I         720 35.90        12.2 0.24            127            166 222 
 ZAR  HZ EP        720 12.23                             121   -0.27 8  212 292 
 ZAR  HE ES        720 39.09                             121    0.66 8  212 292 
 ZAR  HZ I         720 46.78         6.0 0.30            120            212 292 
 ROSC BZ EP        720 18.01                             116    0.55 8  254 213 
 ROSC BE ES   3    720 51.12                             116    3.86 2  254 213 
 ROSC BZ I         720 54.64         6.4 0.35            116            254 213 
 URE  HZ EP        720 22.24                             113    1.03 7  292 292 
 URE  HN ES   4    720 58.22                             113    4.29 0  292 292 
 URE  HZ I         721  1.29         5.5 0.18            112            292 292 
 DRL03HZ EP        720 21.31                             113    0.01 7  293 351 
 DRL03HN ES        720 53.91                             113   -0.19 7  293 351 
 PTGC HZ EP        720 21.97                             112   -0.45 7  303 160 
 PTGC HN ES        720 55.41                             112   -0.67 7  303 160 
 PTGC HZ I         721  1.90         7.2 0.44            112            303 160 
 GUY2CHZ EP        720 23.98                             112    0.66 7  306 236 
 GUY2CHE ES        720 58.57                             112    0.88 7  306 236 
 GUY2CHZ I         721  8.99         4.0 0.46                           306 236 
 CBOC HZ EP        720 27.05                             109    0.20 7  340 253 
 CBOC HN ES        721  3.31                             109   -0.67 7  340 253 
 CBOC HZ I         721 16.27         1.3 0.24            109            340 253 
 PRA  HZ EP        720 32.76                             106   -0.10 6  393 211 
 PRA  HE ES        721 15.08                             106    0.41 6  393 211 
 PRA  HZ I         721 21.81         2.4 0.32            106            393 211 
 SJC  HZ EP   3    720 32.87                             105   -2.73 1  416 326 
 SJC  HN ES        721 19.38                             105   -0.17 5  416 326 
 SJC  HZ I         721 31.68         1.9 0.74            105            416 326 
                                                                                
