 2017 1220 0708 31.4 L   6.860 -73.144149.9  RSN  6 0.3 1.3LRSN                1
 GAP=145        0.82       4.1     4.1  6.7 -0.4241E+01  0.1064E+02 -0.3455E+01E
 Epicentro: LOS SANTOS - SANTANDER                                             3
 ACTION:UPD 18-01-04 13:22 OP:rebc STATUS:               ID:20171220070831 L   I
 OLDACT:REG 17-12-20 13:03 OP:dhb  STATUS:               ID:20171220070642     3
 2017-12-20-0707-00M.COL___458                                                 6
 STAT SP IPHASW D HRMM SECON CODA AMPLIT PERI AZIMU VELO AIN AR TRES W  DIS CAZ7
 BAR2 EZ EP        7 8 51.38                             168   -0.3210 29.9 188 
 BAR2 EZ ES        7 9  7.34                             168   -0.1810 29.9 188 
 BAR2 EZ I         7 9  8.20         5.1 0.52            169           29.9 188 
 PAM  EZ IP     C  7 8 54.40                             153    0.6010 72.3  43 
 PAM  EN ES        7 9 11.15                             153   -0.1010 72.3  43 
 PAM  EZ I         7 9 14.37         2.0 0.62            156           72.3  43 
 PTB  HZ EP        7 8 58.78                             133   -0.10 9  149 256 
 PTB  HE ES        7 9 20.83                             133    0.53 9  149 256 
 PTB  HZ I         7 9 23.38         1.1 0.16            133            149 256 
 SPBC HZ EP        7 9  0.71                             129   -0.04 9  168 218 
 SPBC HN ES        7 9 23.48                             129   -0.14 9  168 218 
 SPBC HZ I         7 9 28.73         2.9 0.24            130            168 218 
 ZAR  HN ES        7 9 29.22                             124   -0.05 9  202 290 
 ZAR  HZ I         7 9 34.70         2.5 0.50            124            202 290 
 SJC  HE ES        710  8.86                             107   -0.59 6  404 326 
 SJC  HZ I         710 12.15         0.9 0.68            108            404 326 
                                                                                
