 2014  220 0834 57.5 L   6.834 -73.188141.5  RSN 11 0.5 1.9LRSN                1
 GAP=130        1.00       2.7     4.6  6.3 -0.3278E+01  0.1060E+02 -0.2231E+01E
 Epicentro: ZAPATOCA - SANTANDER                                               3
 ACTION:UPD 14-03-10 08:11 OP:ep   STATUS:               ID:20140220083457 L   I
 OLDACT:UP  14-02-20 12:59 OP:cam  STATUS:               ID:20140220083000     3
 OLDACT:REG 14-02-20 09:41 OP:fm   STATUS:               ID:20140220083000     3
 2014-02-20-0830-00M.COL___212                                                 6
 STAT SP IPHASW D HRMM SECON CODA AMPLIT PERI AZIMU VELO AIN AR TRES W  DIS CAZ7
 BAR2 SZ IP        835 16.58                             169   -0.1610 26.7 179 
 BAR2 SZ ES        835 31.68                             169   -0.0310 26.7 179 
 BAR2 SZ I         835 32.47        36.7 0.26            171           26.7 179 
 PAM  SZ IP     C  835 19.42                             150    0.0910 77.7  44 
 PAM  SN ES        835 36.85                             150    0.5310 77.7  44 
 PAM  SZ I         835 38.33         6.0 0.46            152           77.7  44 
 RUS  HZ EP        835 21.26                             142    0.0710  105 174 
 RUS  HN ES        835 39.17                             142   -0.4610  105 174 
 RUS  HZ I         835 39.72         9.1 0.40            145            105 174 
 PTB  HZ EP        835 23.34                             132   -0.48 9  144 257 
 PTB  HN ES        835 44.37                             132    0.06 9  144 257 
 PTB  HZ I         835 48.79        11.1 0.10            131            144 257 
 OCA  HZ EP   1    835 25.13                             129    0.00 7  156 355 
 OCA  HN ES        835 46.47                             129   -0.17 9  156 355 
 OCA  HZ I         835 52.10         9.9 0.18            129            156 355 
 SPBC HN ES        835 47.78                             128    0.07 9  163 217 
 SPBC HZ I         835 48.68        12.7 0.18            129            163 217 
 ZAR  HZ EP   1    835 29.50                             122    0.38 6  198 292 
 ZAR  HE ES   4    835 55.43                             122    1.69 0  198 292 
 ZAR  HZ I         836  0.91         9.9 0.28            122            198 292 
 NOR  HZ EP   1    835 34.71                             118    1.85 6  233 233 
 NOR  HE ES        836  0.31                             118   -0.10 8  233 233 
 SML  HZ EP        835 33.18                             117   -0.17 8  238 336 
 SML  HE ES        836  1.03                             117   -0.25 8  238 336 
 SML  HZ I         836  7.06        10.5 0.24            117            238 336 
 CHI  HZ EP        835 34.76                             116   -0.52 8  251 194 
 CHI  HE ES        836  5.04                             116    0.33 8  251 194 
 CHI  HZ I         836  9.81         2.9 0.22            118            251 194 
 HEL  HZ EP   4    835 39.07                             114    1.93 0  268 255 
 GUY2CHZ EP   4    835 42.82                             112    2.04 0  300 234 
 GUY2CHZ I         836 21.78         3.2 0.36                           300 234 
 RREF BZ EP   4    835 44.03                             110    0.65 0  321 228 
 CBOC HZ EP   4    835 45.97                             109    2.06 0  330 251 
 SJC  HZ EP   4    835 51.22                             105   -1.08 0  404 327 
                                                                                
