 2017  920 0148  2.2 L   6.785 -73.085139.6  RSN  8 0.4 1.4LRSN                1
 GAP=118        0.69       3.4     3.5  5.2 -0.1465E+01  0.2646E+01  0.6727E+01E
 Epicentro: LOS SANTOS - SANTANDER                                             3
 ACTION:UPD 17-10-05 19:14 OP:rebc STATUS:               ID:20170920014802 L   I
 OLDACT:UP  17-09-20 18:30 OP:and  STATUS:               ID:20170920013741     3
 OLDACT:UP  17-09-20 18:28 OP:and  STATUS:               ID:20170920013741     3
 OLDACT:UP  17-09-20 18:28 OP:and  STATUS:               ID:20170920013741     3
 OLDACT:UP  17-09-20 18:28 OP:and  STATUS:               ID:20170920013741     3
 OLDACT:UP  17-09-20 18:27 OP:and  STATUS:               ID:20170920013741     3
 OLDACT:REG 17-09-20 13:23 OP:leo  STATUS:               ID:20170920013741     3
 2017-09-20-0138-00M.COL___444                                                 6
 STAT SP IPHASW D HRMM SECON CODA AMPLIT PERI AZIMU VELO AIN AR TRES W  DIS CAZ7
 BAR2 EZ EP        148 20.89                             170   -0.2410 23.8 207 
 PAM  EZ EP        148 23.57                             150   -0.0610 74.7  35 
 PAM  EN ES        148 40.40                             150    0.0810 74.7  35 
 PAM  EZ I         148 42.90         5.8 0.62            152           74.7  35 
 BRR  HZ EP        148 22.86                             149   -0.2610 77.9 297 
 BRR  HN ES        148 39.61                             149    0.2010 77.9 297 
 BRR  HZ I         148 43.72         5.3 0.18            149           77.9 297 
 RUS  HZ EP        148 25.18                             143   -0.0610 98.7 180 
 RUS  HN ES        148 43.17                             143   -0.0110 98.7 180 
 RUS  HZ I         148 44.04         4.4 0.22            146           98.7 180 
 YPLC HZ EP        148 31.17                             126    0.04 9  172 153 
 YPLC HN ES   3    148 55.17                             126    1.51 2  172 153 
 NOR  HZ EP        148 38.65                             117    0.55 8  239 236 
 NOR  HE ES        149  5.61                             117   -0.47 8  239 236 
 NOR  HZ I         149  6.74         1.9 0.16            119            239 236 
 PTGC HZ EP   3    148 44.01                             111   -1.36 2  305 160 
 GUY2CHZ EP        148 46.54                             111    0.46 7  306 236 
 GUY2CHN ES   4    149 23.04                             111    2.76 0  306 236 
 GUY2CHZ I         149 26.85         1.3 0.44                           306 236 
                                                                                
