 2015  320 0446 35.1 L   6.804 -73.169138.8  RSN  9 0.4 1.4LRSN                1
 GAP=133        0.93       3.1     3.8  5.5 -0.4823E+00  0.6930E+01  0.1614E+00E
 Epicentro: LOS SANTOS - SANTANDER                                             3
 ACTION:UPD 15-04-30 16:27 OP:nd   STATUS:               ID:20150320044635 L   I
 OLDACT:DUP 15-03-20 14:58 OP:fm   STATUS:               ID:20150320043739d    3
 2015-03-20-0437-38M.COL___275                                                 6
 STAT SP IPHASW D HRMM SECON CODA AMPLIT PERI AZIMU VELO AIN AR TRES W  DIS CAZ7
 BAR2 EZ EP        446 54.20                             170    0.3510 23.5 183 
 BAR2 EZ ES        447  8.70                             170    0.1910 23.5 183 
 BAR2 EZ I         447 12.04         7.5 0.26            172           23.5 183 
 BRR  HZ EP        446 55.64                             152    0.3410 68.7 299 
 BRR  HN ES        447 11.46                             152    0.3610 68.7 299 
 BRR  HZ I         447 17.44         6.5 0.34            153           68.7 299 
 PAM  SZ EP        446 56.62                             149    0.0110 78.7  41 
 PAM  SN ES        447 13.11                             149   -0.3210 78.7  41 
 PAM  SZ I         447 20.02         2.0 0.40            152           78.7  41 
 RUS  HZ EP        446 58.59                             142    0.4210  101 175 
 RUS  HN ES        447 15.62                             142   -0.5910  101 175 
 RUS  HZ I         447 18.30         1.9 0.28            147            101 175 
 PTB  HZ EP        447  1.26                             131    0.03 9  145 258 
 PTB  HN ES        447 21.26                             131   -0.39 9  145 258 
 PTB  HZ I         447 24.54         2.7 0.18            133            145 258 
 ZAR  HN ES        447 31.12                             121   -0.41 9  201 292 
 ZAR  HZ I         447 37.45         3.3 0.24            124            201 292 
 SML  HZ EP        447 10.82                             116   -0.31 8  242 336 
 SML  HN ES        447 39.33                             116    0.06 8  242 336 
 SML  HZ I         447 43.00         3.5 0.10            119            242 336 
 GUY2CHZ EP        447 17.56                             111   -0.57 7  299 234 
 GUY2CHE ES        447 52.52                             111    0.79 7  299 234 
 GUY2CHZ I         448  0.64         1.2 0.58                           299 234 
 PRA  HN ES        448  9.44                             105   -0.28 6  391 209 
 PRA  HZ I         448 16.77         1.4 0.56            108            391 209 
                                                                                
