 2012  520 0132  0.2 L   6.247 -73.553122.0  RSN  4 0.2 1.0LRSN                1
 GAP=161        0.52       4.5     3.8  6.2  0.6815E+01  0.6289E+01  0.3315E+01E
 Epicentro: EL GUACAMAYO - SANTANDER                                           3
 ACTION:UP  12-07-05 12:06 OP:pat  STATUS:               ID:20120520013200 L   I
 2012-05-20-0130-00M.COL___200                                                 6
 STAT SP IPHASW D HRMM SECON CODA AMPLIT PERI AZIMU VELO SNR AR TRES W  DIS CAZ7
 BAR2 SZ EP        132 18.02                             154    -0.210   56  47 
 BAR2 SZ ES   1    132 32.29                             154    -0.1 7   56  47 
 RUS  HZ EP   1    132 19.42                             150     0.3 7   65 127 
 RUS  HN ES   1    132 33.97                             150     0.0 7   65 127 
 RUS  HZ I         132 35.63         2.5 0.20                            65 127 
 BRR  HZ EP   1    132 20.60                             139    -0.1 7   97 350 
 BRR  HZ I         132 21.63         3.4 0.19                            97 350 
 BRR  HN ES   1    132 36.97                             139     0.3 7   97 350 
 PTB  HZ EP   1    132 21.54                             136     0.1 7  105 288 
 PTB  HZ I         132 22.34         1.3 0.11                           105 288 
 PTB  HN ES   1    132 37.76                             136    -0.2 7  105 288 
                                                                                
