 2015 1020 0020  6.2 L   6.784 -73.135144.0  RSN  6 0.3 1.7LRSN                1
 GAP=139        0.65       2.8     3.9  5.6  0.1441E+01  0.6379E+01  0.3163E+01E
 Epicentro: LOS SANTOS - SANTANDER                                             3
 ACTION:UPD 15-12-22 20:41 OP:cam  STATUS:               ID:20151020002006 L   I
 OLDACT:REG 15-10-20 12:26 OP:mh   STATUS:               ID:20151020001749     3
 2015-10-20-0017-49M.COL___337                                                 6
 STAT SP IPHASW D HRMM SECON CODA AMPLIT PERI AZIMU VELO AIN AR TRES W  DIS CAZ7
 BAR2 EZ EP   1    020 25.49                             171   -0.06 7 21.8 194 
 BAR2 EZ ES        020 40.36                             171   -0.3110 21.8 194 
 BAR2 EZ I         020 41.77        10.1 0.34            170           21.8 194 
 BRR  HZ EP   1    020 26.95                             151   -0.28 7 73.1 299 
 BRR  HN ES   1    020 44.32                             151    0.66 7 73.1 299 
 BRR  HZ I         020 47.93        11.0 0.48            149           73.1 299 
 PAM  EZ EP   1    020 28.65                             150    0.42 7 78.0  38 
 PAM  EN ES        020 45.34                             150   -0.1010 78.0  38 
 PAM  EZ I         020 47.29        13.9 0.48            153           78.0  38 
 RUS  HZ EP        020 29.58                             144   -0.0210 98.7 177 
 RUS  HN ES        020 48.01                             144    0.1210 98.7 177 
 RUS  HZ I         020 48.92         3.5 0.28            146           98.7 177 
 ZAR  HN ES        021  3.87                             122   -0.17 8  206 292 
 ZAR  HZ I         021  9.13         5.7 0.28            121            206 292 
 CHI  HN ES        021 12.86                             117    0.05 8  247 196 
 CHI  HZ I         021 16.06         3.3 0.54            118            247 196 
                                                                                
