 2017  820 0145 38.2 L   6.767 -73.112138.0  RSN 13 0.3 1.9LRSN                1
 GAP= 96        0.73       2.5     2.6  4.1 -0.6745E-01  0.1769E+01  0.2070E+01E
 Epicentro: LOS SANTOS - SANTANDER                                             3
 ACTION:UPD 17-09-04 20:22 OP:rebc STATUS:               ID:20170820014538 L   I
 OLDACT:DUP 17-08-20 13:56 OP:lv   STATUS:               ID:20170820013742d    3
 2017-08-20-0138-00M.COL___411                                                 6
 STAT SP IPHASW D HRMM SECON CODA AMPLIT PERI AZIMU VELO AIN AR TRES W  DIS CAZ7
 BAR2 EZ IP     C  145 56.63                             171   -0.2310 20.8 202 
 BAR2 EZ ES        146 11.25                             171   -0.1510 20.8 202 
 BAR2 EZ I         146 12.47        23.8 0.14            169           20.8 202 
 BRR  HZ IP     C  145 58.56                             149   -0.2710 76.2 300 
 BRR  HN ES        146 15.23                             149    0.3210 76.2 300 
 BRR  HZ I         146 19.47        14.7 0.12            150           76.2 300 
 PAM  EZ EP        145 59.70                             149    0.0610 78.0  36 
 PAM  EN ES        146 16.27                             149   -0.0910 78.0  36 
 PAM  EZ I         146 17.04         9.8 0.18            153           78.0  36 
 RUS  HZ EP        146  0.66                             143   -0.2610 96.7 178 
 RUS  HN ES        146 18.77                             143    0.1410 96.7 178 
 RUS  HZ I         146 19.85         7.5 0.20            144           96.7 178 
 TAM  HZ EP        146  4.99                             130    0.14 9  151 104 
 SPBC HZ EP        146  5.71                             127   -0.37 9  163 221 
 SPBC HN ES        146 27.83                             127    0.01 9  163 221 
 SPBC HZ I         146 31.07         7.8 0.10            128            163 221 
 YPLC HZ EP   1    146  7.01                             126    0.06 7  172 152 
 YPLC HN ES   1    146 29.95                             126    0.58 7  172 152 
 YPLC HZ I         146 33.38        14.3 0.24            127            172 152 
 ZAR  HZ EP        146 11.01                             120    0.34 8  209 293 
 ZAR  HN ES        146 35.81                             120   -0.18 8  209 293 
 ZAR  HZ I         146 37.88         9.1 0.21            121            209 293 
 NOR  HZ EP   4    146 12.62                             117   -0.98 0  236 236 
 NOR  HN ES        146 41.54                             117    0.33 8  236 236 
 NOR  HZ I         146 42.54         6.1 0.16            118            236 236 
 HEL  HZ EP   4    146 19.46                             113    1.11 0  275 257 
 HEL  HN ES   4    146 46.28                             113   -3.37 0  275 257 
 HEL  HZ I         146 55.63         6.4 0.28            114            275 257 
 URE  HZ EP   4    146 20.98                             112    1.52 0  289 292 
 URE  HN ES   4    146 47.91                             112   -3.72 0  289 292 
 URE  HZ I         146 50.49         5.2 0.18            113            289 292 
 GUY2CHZ EP        146 22.33                             111    0.75 7  302 236 
 GUY2CHN ES   4    146 57.57                             111    2.16 0  302 236 
 GUY2CHZ I         147  2.00         3.4 0.28                           302 236 
 PTGC HE ES   4    146 52.68                             110   -2.02 0  304 159 
 PRA  HZ EP   1    146 31.06                             105   -0.26 4  391 210 
 PRA  HN ES        147 11.96                             105   -0.78 6  391 210 
                                                                                
