 2017 1020 0546 16.2 L   6.808 -73.160144.0  RSN 17 0.5 2.5LRSN                1
 GAP=110        1.14       3.7     4.1  5.7 -0.1316E+01  0.3470E+01  0.8140E+01E
 Epicentro: LOS SANTOS - SANTANDER                                             3
 ACTION:UPD 17-11-07 19:34 OP:rebc STATUS:               ID:20171020054616 L   I
 OLDACT:UP  17-10-20 15:26 OP:dani STATUS:               ID:20171020053739     3
 OLDACT:REG 17-10-20 13:10 OP:dani STATUS:               ID:20171020053739     3
 2017-10-20-0538-00M.COL___456                                                 6
 STAT SP IPHASW D HRMM SECON CODA AMPLIT PERI AZIMU VELO AIN AR TRES W  DIS CAZ7
 BAR2 EZ EP     C  546 35.36                             170   -0.2210 24.0 186 
 BAR2 EZ ES        546 50.62                             170   -0.1210 24.0 186 
 BAR2 EZ I         546 51.61        88.2 0.30            167           24.0 186 
 BRR  HZ EP     D  546 37.22                             153    0.2210 69.4 299 
 BRR  HE ES        546 54.23                             153    0.9610 69.4 299 
 BRR  HZ I         546 58.17        56.4 0.40            152           69.4 299 
 PAM  EZ EP        546 38.17                             150   -0.0310 77.8  41 
 PAM  EN ES        546 55.34                             150   -0.0610 77.8  41 
 PAM  EZ I         546 57.50        51.0 0.56            157           77.8  41 
 RUS  HZ EP     C  546 39.29                             143   -0.5110  102 175 
 RUS  HN ES        546 57.89                             143   -0.3610  102 175 
 RUS  HZ I         546 59.49        20.1 0.28            144            102 175 
 PTB  HZ EP        546 41.87                             132   -0.98 9  146 258 
 PTB  HN ES        547  3.13                             132   -0.54 9  146 258 
 PTB  HZ I         547  9.77        19.9 0.42            131            146 258 
 SPBC HZ EP        546 44.28                             129   -0.20 9  163 218 
 SPBC HE ES        547  6.57                             129   -0.01 9  163 218 
 SPBC HZ I         547 10.86        45.4 0.16            129            163 218 
 YPLC HZ IP     C  546 45.81                             126   -0.16 9  178 151 
 YPLC HN ES        547  9.79                             126    0.57 9  178 151 
 YPLC HZ I         547 12.54        13.2 0.32            128            178 151 
 TABC EZ EP        546 53.02                             119    1.23 8  230 210 
 TABC EZ ES        547 19.62                             119    0.04 8  230 210 
 TABC EZ I         547 26.70        34.8 0.38            120            230 210 
 NOR  HZ EP        546 51.51                             118   -0.18 8  234 234 
 NOR  HE ES        547 19.66                             118    0.25 8  234 234 
 NOR  HZ I         547 28.95        19.1 0.38            119            234 234 
 CHI  HZ EP        546 53.59                             117   -0.21 8  249 195 
 CHI  HN ES        547 22.90                             117   -0.26 8  249 195 
 CHI  HZ I         547 26.42        22.1 0.60            118            249 195 
 ROSC BZ EP        546 55.24                             116    1.08 8  253 211 
 ROSC BN ES   3    547 25.96                             116    2.14 2  253 211 
 ROSC BZ I         547 30.08        46.9 0.41            117            253 211 
 GUY2CHZ EP   3    547  0.75                             112    1.16 2  300 234 
 GUY2CHN ES   4    547 37.85                             112    4.39 0  300 234 
 GUY2CHZ I         547 41.81        15.9 0.58                           300 234 
 VIL  EZ EP        546 59.39                             112   -0.16 7  304 191 
 VIL  EN ES        547 33.44                             112    0.04 7  304 191 
 VIL  EZ I         547 38.93        32.2 0.36            113            304 191 
 DBB  EN ES   3    547 39.18                             109   -1.01 2  338 274 
 PRA  HZ EP        547  9.30                             106   -0.31 6  392 209 
 PRA  HN ES        547 51.19                             106   -0.11 6  392 209 
 PRA  HZ I         547 57.53        17.4 0.70            107            392 209 
 PAL  HZ EP        547 11.57                             106    0.43 6  405 239 
 SJC  HZ EP   9    547  9.41                             105   -2.05 0  408 327 
 SJC  HN ES        547 52.04                             106   -0.51 6  408 327 
 SJC  HZ I         547 57.14         4.7 0.51            107            408 327 
                                                                                
