 2017 1220 0211 45.5 L   6.840 -73.129145.7  RSN 21 0.7 2.4LRSN                1
 GAP= 56        1.35       2.8     3.3  6.3 -0.1678E+01  0.4164E+01 -0.1414E+01E
 Epicentro: LOS SANTOS - SANTANDER                                             3
 ACTION:UPD 18-01-04 13:22 OP:rebc STATUS:               ID:20171220021145 L   I
 OLDACT:REG 17-12-20 12:36 OP:dhb  STATUS:               ID:20171220020354     3
 2017-12-20-0208-00M.COL___461                                                 6
 STAT SP IPHASW D HRMM SECON CODA AMPLIT PERI AZIMU VELO AIN AR TRES W  DIS CAZ7
 BAR2 EZ IP     C  212  5.27                             169    0.0010 28.0 192 
 BAR2 EZ ES        212 19.91                             169   -0.7510 28.0 192 
 BAR2 EZ I         212 21.31        92.1 0.28            167           28.0 192 
 PAM  EZ IP     C  212  8.15                             152    0.6610 72.8  41 
 PAM  EE ES        212 24.93                             152    0.3310 72.8  41 
 PAM  EZ I         212 27.11        46.4 0.64            153           72.8  41 
 PTB  HZ EP        212 12.17                             131   -0.58 9  150 257 
 PTB  HE ES        212 32.98                             131   -1.00 9  150 257 
 PTB  HZ I         212 35.27        22.4 0.26            129            150 257 
 TAM  HZ IP     D  212 13.63                             131    0.47 9  155 107 
 TAM  HN ES        212 35.07                             131    0.36 9  155 107 
 TAM  HZ I         212 35.71        22.4 0.52            130            155 107 
 OCA  HZ EP        212 13.61                             130    0.15 9  156 352 
 OCA  HE ES        212 35.49                             130    0.25 9  156 352 
 OCA  HZ I         212 39.61       105.9 0.20            130            156 352 
 SPBC HZ EP        212 14.39                             128   -0.09 9  168 219 
 SPBC HE ES        212 37.07                             128    0.03 9  168 219 
 SPBC HZ I         212 43.19        22.5 0.16            126            168 219 
 YPLC HZ IP     D  212 15.72                             126    0.09 9  180 153 
 YPLC HN ES        212 39.49                             126    0.39 9  180 153 
 YPLC HZ I         212 42.01        31.2 0.26            125            180 153 
 ROSC BZ EP        212 24.98                             116    0.80 8  258 211 
 ROSC BN ES        212 54.80                             116    0.49 8  258 211 
 ROSC BZ I         213  2.21        15.3 0.35            115            258 211 
 URE  HZ EP        212 25.73                             114   -0.89 7  284 291 
 URE  HN ES        212 58.30                             114   -0.36 7  284 291 
 URE  HZ I         213 13.09        19.2 0.20            112            284 291 
 DRL03HZ EP        212 27.03                             113    0.35 7  285 352 
 DRL03HE ES        212 59.78                             113    1.01 7  285 352 
 GUY2CHZ EP        212 31.05                             112    1.44 7  305 234 
 GUY2CHE ES        213  4.80                             112    0.82 7  305 234 
 GUY2CHZ I         213 12.31         4.8 0.26                           305 234 
 VIL  EZ EP        212 28.79                             112   -0.70 7  308 192 
 VIL  EE ES        213  2.73                             112   -1.04 7  308 192 
 VIL  EZ I         213 11.90        11.8 0.26            111            308 192 
 PTGC HZ EP        212 28.53                             111   -1.26 7  312 159 
 PTGC HE ES   3    213  1.90                             111   -2.40 2  312 159 
 PTGC HZ I         213 16.92        15.6 0.36            110            312 159 
 LL6C HZ EP        212 30.22                             111   -0.52 7  321 357 
 LL6C HZ ES        213  6.61                             111    0.61 7  321 357 
 LL6C HZ I         213 12.69        11.9 0.64            110            321 357 
 ELA  HZ EP   9    212 35.68                             110    2.80 0  333 229 
 ELA  HN ES        213 12.45                                   -0.15 7  333 229 
 ELA  HZ I         213 18.61         6.9 0.68            109            333 229 
 CBOC HZ EP   2    212 34.01                             110    1.20 3  337 251 
 CBOC HE ES        213  9.72                             110    0.03 7  337 251 
 CBOC HZ I         213 13.02         4.3 0.64            109            337 251 
 DBB  EZ EP        212 33.47                             109    0.28 7  341 273 
 DBB  HE ES        213  9.96                             109   -0.40 7  341 273 
 DBB  EZ I         213 14.10         7.9 0.20            108            341 273 
 SDV  BZ EP        212 35.11                             108    0.02 6  356  51 
 SDV  B2 ES        213 12.00                             108   -1.73 6  356  51 
 SDV  BZ I         213 15.22         7.1 0.40            108            356  51 
 ANIL HE ES        213 15.46                             108    0.35 6  362 224 
 ANIL HZ I         213 24.52        17.3 0.30            107            362 224 
 SJC  HZ EP        212 40.24                             106   -0.55 6  407 326 
 SJC  HN ES   3    213 22.45                             106   -1.43 1  407 326 
 SJC  HZ I         213 25.58        11.8 0.64            105            407 326 
 CRJC HZ EP   2    212 46.18                             103   -1.32 2  463   3 
 CRJC HE ES        213 35.88                             103    0.05 5  463   3 
 CRJC HZ I         213 54.43         9.0 0.76            103            463   3 
                                                                                
