 2012 1220 0823  3.9 L   6.107 -73.763105.6  RSN  4 0.2 1.0LRSN                1
 GAP=195        0.59       5.2     3.1  6.1  0.8488E+01  0.6707E+01  0.1314E+01E
 Epicentro: BOLIVAR - SANTANDER                                                3
 ACTION:UPD 13-01-04 14:29 OP:ep   STATUS:               ID:20121220082303 L   I
 2012-12-20-0820-00M.COL___242                                                 6
 STAT SP IPHASW D HRMM SECON CODA AMPLIT PERI AZIMU VELO AIN AR TRES W  DIS CAZ7
 RUS  HZ EP   1    823 22.25                             141    0.13 7 78.9 107 
 RUS  HN ES   1    823 36.46                             141    0.11 7 78.9 107 
 RUS  HZ I         823 37.80         2.2 0.32                          78.9 107 
 BAR2 SZ EP   1    823 22.11                             139   -0.03 7 83.7  50 
 BAR2 SZ ES        823 36.31                             139   -0.0910 83.7  50 
 PTB  HZ EP        823 21.95                             136   -0.4410 90.4 302 
 PTB  HE ES        823 37.01                             136    0.1610 90.4 302 
 PTB  HZ I         823 39.18         2.4 0.12                          90.4 302 
 ZAR  HZ EP        823 33.41                             113    0.34 9  195 322 
 ZAR  HE ES        823 55.85                             113    0.00 9  195 322 
 ZAR  HZ I         823 59.61         1.3 0.33                           195 322 
                                                                                
