 2010  620 0936 53.1 L   6.805 -73.044140.0  RSN  6 0.3 1.8LRSN                1
 GAP=167        0.69       5.6     8.8  7.9  0.8689E+01 -0.2561E+02 -0.1315E+02E
 Epicentro: LOS SANTOS - SANTANDER                                             3
 ACTION:UP  10-08-24 10:11 OP:vdl  STATUS:               ID:20100620093653 L   I
 2010-06-20-0933-38S.COL___118                                                 6
 STAT SP IPHASW D HRMM SECON CODA AMPLIT PERI AZIMU VELO SNR AR TRES W  DIS CAZ7
 BAR2 SZ IP        937 12.06                             169    -0.110   28 213 
 BAR2 SZ ES   1    937 27.45                             169     0.4 7   28 213 
 BRR  HZ EP   1    937 13.86                             149    -0.4 7   81 294 
 BRR  HN ES   1    937 30.69                             149     0.0 7   81 294 
 BRR  HZ I         937 36.87        14.6 0.04                            81 294 
 RUS  HZ EP   1    937 16.08                             143    -0.2 7  101 182 
 RUS  HN ES   2    937 34.46                             143     0.0 5  101 182 
 RUS  HZ I         937 36.50         8.0 0.36                           101 182 
 BRI  SZ EP   1    937 16.50                             141     0.3 7  104  15 
 GUE  SZ EP   1    937 16.96                             139    -0.1 7  114   7 
 HEL  HZ EP   2    937 35.15                             113     0.9 4  283 256 
 HEL  HZ I         938 12.35         4.9 0.20                           283 256 
                                                                                
