 2017 1220 0244 46.0 L   6.647 -73.195150.0  RSN  9 0.6 1.5LRSN                1
 GAP=151        1.12       3.6     4.5  7.5  0.3364E+01  0.1532E+01 -0.3767E+01E
 Epicentro: BARICHARA - SANTANDER                                              3
 ACTION:UPD 18-01-04 13:22 OP:rebc STATUS:               ID:20171220024446 L   I
 OLDACT:REG 17-12-20 12:38 OP:dhb  STATUS:               ID:20171220023451     3
 2017-12-20-0238-00M.COL___452                                                 6
 STAT SP IPHASW D HRMM SECON CODA AMPLIT PERI AZIMU VELO AIN AR TRES W  DIS CAZ7
 BAR2 EZ EP        245  5.90                             178    0.0210 6.21 167 
 BAR2 EZ ES        245 21.60                             178    0.1810 6.21 167 
 BAR2 EZ I         245 25.39         3.6 0.28            175           6.21 167 
 PTB  HZ EP        245 12.35                             135   -0.23 9  140 265 
 PTB  HN ES        245 33.34                             135   -0.01 9  140 265 
 PTB  HZ I         245 35.36         2.2 0.14            134            140 265 
 SPBC HZ EP        245 12.96                             133   -0.32 9  147 221 
 SPBC HN ES        245 35.00                             133    0.41 9  147 221 
 SPBC HZ I         245 38.85         4.9 0.34            133            147 221 
 YPLC HZ EP        245 14.39                             130   -0.55 9  165 147 
 YPLC HE ES        245 37.64                             130    0.09 9  165 147 
 YPLC HZ I         245 42.00         5.0 0.34            131            165 147 
 OCA  HZ EP        245 16.32                             128    0.18 9  177 356 
 OCA  HE ES        245 39.48                             128   -0.21 9  177 356 
 ZAR  HZ EP        245 18.03                             123   -0.86 8  206 297 
 ZAR  HE ES        245 45.35                             123    0.77 8  206 297 
 ZAR  HZ I         245 51.04         3.6 0.26            124            206 297 
 URE  HE ES        245 58.91                             114   -0.87 7  286 295 
 URE  HZ I         246  9.22         2.7 0.32            115            286 295 
 DRL03HZ EP   2    245 30.97                             113    1.38 4  305 354 
 DRL03HE ES        246  4.23                             113    0.61 7  305 354 
 PRA  HZ EP        245 38.57                             108    0.97 6  375 210 
 PRA  HE ES   3    246 19.89                             108    2.01 2  375 210 
 PRA  HZ I         246 26.82         1.0 0.54            109            375 210 
                                                                                
