 2013  220 0932 35.3 L   6.154 -73.578120.1  RSN  6 0.2 1.5LRSN                1
 GAP=108        0.50       2.1     2.6  4.4  0.2402E+01  0.5425E+01  0.3269E+01E
 Epicentro: LA PAZ - SANTANDER                                                 3
 ACTION:UPD 13-03-12 09:34 OP:ep   STATUS:               ID:20130220093235 L   I
 2013-02-20-0930-00M.COL___241                                                 6
 STAT SP IPHASW D HRMM SECON CODA AMPLIT PERI AZIMU VELO AIN AR TRES W  DIS CAZ7
 RUS  HZ EP        932 54.01                             151    0.1310 61.9 118 
 RUS  HN ES        933  8.49                             151    0.1410 61.9 118 
 RUS  HN I         933  9.66         4.7 0.46            134           61.9 118 
 BAR2 SZ EP   1    932 53.11                             150   -0.60 7 65.3  42 
 BAR2 SZ ES        933  8.09                             150    0.0210 65.3  42 
 BAR2 SZ I         933  9.40        10.5 0.48            135           65.3  42 
 BRR  HZ EP        932 56.59                             135    0.1410  106 352 
 BRR  HE ES        933 12.88                             135   -0.0510  106 352 
 BRR  HE I         933 14.40         5.0 0.18            122            106 352 
 PTB  HZ EP        932 56.42                             136   -0.0210  106 294 
 PTB  HE ES        933 12.79                             136   -0.1410  106 294 
 PTB  HN I         933 13.59         7.9 0.38            123            106 294 
 CHI  HZ EP        933  3.06                             122    0.02 9  169 186 
 CHI  HN ES   1    933 24.57                             122   -0.11 7  169 186 
 CHI  HN I         933 37.95         3.1 0.52            109            169 186 
 ZAR  HN ES        933 30.69                             116    0.21 9  205 316 
                                                                                
