 2015  320 0534 14.5 L   6.805 -73.148138.4  RSN  9 0.5 1.6LRSN                1
 GAP=136        1.38       4.6     5.7  8.2 -0.3432E+00  0.1262E+02 -0.5641E+01E
 Epicentro: LOS SANTOS - SANTANDER                                             3
 ACTION:UPD 15-04-30 16:27 OP:nd   STATUS:               ID:20150320053414 L   I
 OLDACT:REG 15-03-20 13:03 OP:fm   STATUS:               ID:20150320052747     3
 2015-03-20-0527-47M.COL___275                                                 6
 STAT SP IPHASW D HRMM SECON CODA AMPLIT PERI AZIMU VELO AIN AR TRES W  DIS CAZ7
 BAR2 EZ EP        534 33.40                             170    0.1710 23.8 189 
 BAR2 EZ ES        534 47.23                             170   -0.6310 23.8 189 
 BAR2 EZ I         534 49.18        13.4 0.44            171           23.8 189 
 BRR  HZ EP        534 35.18                             151    0.3710 70.8 298 
 BRR  HN ES        534 51.60                             151    0.9410 70.8 298 
 BRR  HZ I         534 55.08         8.7 0.44            150           70.8 298 
 PAM  SZ EP        534 36.20                             149    0.3110 77.1  40 
 PAM  SN ES        534 52.78                             149    0.1810 77.1  40 
 PAM  SZ I         534 55.12         9.9 0.44            152           77.1  40 
 RUS  HZ EP        534 37.80                             142    0.2510  101 176 
 RUS  HN ES        534 54.84                             142   -0.7110  101 176 
 RUS  HZ I         534 57.63         3.5 0.26            146            101 176 
 PTB  HZ EP        534 40.43                             130   -0.41 9  148 259 
 PTB  HE ES        535  0.52                             130   -0.89 9  148 259 
 PTB  HZ I         535  3.87         6.5 0.16            131            148 259 
 SPBC HZ EP        534 42.65                             127    0.20 9  163 219 
 SPBC HN ES        535  4.98                             127    0.71 9  163 219 
 SPBC HZ I         535  8.94         4.4 0.30            129            163 219 
 ZAR  HZ EP        534 46.56                             121    0.15 9  204 292 
 ZAR  HN ES        535 11.64                             121    0.32 9  204 292 
 ZAR  HZ I         535 15.51         3.7 0.34            122            204 292 
 SML  HZ EP        534 50.12                             116   -0.51 8  243 335 
 SML  HE ES        535 18.00                             116   -0.84 8  243 335 
 SML  HZ I         535 26.96         4.0 0.10            117            243 335 
 URE  HN ES   4    535 23.42                             112   -3.46 0  283 292 
 URE  HZ I         535 28.87         3.3 0.14            113            283 292 
                                                                                
