 2013 1020 0845 13.9 L   6.768 -73.167152.6  RSN  5 0.4 1.2LRSN                1
 GAP=198        0.85       5.3     6.5  8.6  0.7503E+01 -0.5064E+01 -0.1580E+02E
 Epicentro: LOS SANTOS - SANTANDER                                             3
 ACTION:UPD 13-11-25 09:22 OP:ep   STATUS:               ID:20131020084513 L   I
 OLDACT:UP  13-10-20 11:55 OP:cam  STATUS:               ID:20131020083841d    3
 OLDACT:DUP 13-10-20 11:52 OP:cam  STATUS:               ID:20131020083841d    3
 OLDACT:REG 13-10-20 10:50 OP:cam  STATUS:               ID:20131020083840     3
 2013-10-20-0838-40M.COL___212                                                 6
 STAT SP IPHASW D HRMM SECON CODA AMPLIT PERI AZIMU VELO AIN AR TRES W  DIS CAZ7
 BRR  HZ EP        845 35.89                             154    0.0610 70.9 302 
 BRR  HN ES   1    845 53.49                             154    0.60 7 70.9 302 
 RUS  HZ EP   1    845 38.21                             146    0.06 7 97.2 175 
 RUS  HE ES        845 56.69                             146   -0.3310 97.2 175 
 RUS  HZ I         845 57.67         1.6 0.40            143           97.2 175 
 PTB  HZ EP        845 40.99                             134   -0.23 9  145 260 
 PTB  HN ES        846  2.03                             134   -0.46 9  145 260 
 PTB  HZ I         846  3.64         2.2 0.14            132            145 260 
 SPBC HZ EP   1    845 43.29                             131    0.70 7  159 219 
 SPBC HN ES        846  5.23                             131    0.31 9  159 219 
 SPBC HZ I         846  9.55         2.4 0.20            129            159 219 
 SML  HZ EP   1    845 50.94                             119   -0.27 6  246 336 
                                                                                
