 2014  120 0231 33.4 L   6.808 -73.155140.0  RSN 10 0.4 1.8LRSN                1
 GAP=200        1.00       3.5     5.3  6.8  0.1768E+01  0.7986E+01 -0.4097E+01E
 Epicentro: LOS SANTOS - SANTANDER                                             3
 ACTION:UPD 14-03-13 09:56 OP:ep   STATUS:               ID:20140120023133 L   I
 OLDACT:REG 14-01-20 08:02 OP:nd   STATUS:               ID:20140120023000     3
 2014-01-20-0230-00M.COL___285                                                 6
 STAT SP IPHASW D HRMM SECON CODA AMPLIT PERI AZIMU VELO AIN AR TRES W  DIS CAZ7
 BAR2 SZ EP        231 52.37                             170    0.0210 24.1 187 
 BAR2 SZ ES        232  6.40                             170   -0.7410 24.1 187 
 BAR2 SZ I         232  9.57        18.2 0.48            168           24.1 187 
 BRR  HZ IP     C  231 54.69                             152    0.8410 69.8 298 
 BRR  HN ES   3    232 10.39                             152    0.59 2 69.8 298 
 BRR  HZ I         232 14.56        10.5 0.14            148           69.8 298 
 RUS  HZ EP        231 56.92                             142    0.2610  102 176 
 RUS  HN ES        232 14.98                             142    0.1710  102 176 
 RUS  HZ I         232 16.40         6.7 0.26            145            102 176 
 PTB  HZ EP        231 59.59                             131   -0.24 9  147 258 
 PTB  HN ES        232 20.75                             131    0.31 9  147 258 
 PTB  HZ I         232 22.84         9.7 0.16            129            147 258 
 SPBC HZ EP        232  1.73                             127    0.26 9  163 218 
 SPBC HN ES        232 23.61                             127    0.25 9  163 218 
 SPBC HZ I         232 29.21         7.2 0.22            128            163 218 
 ZAR  HZ EP   4    232  3.81                             121   -1.53 0  203 292 
 ZAR  HN ES   4    232 31.28                             121    1.03 0  203 292 
 ZAR  HZ I         232 37.82         8.9 0.30            121            203 292 
 SML  HZ EP        232  9.17                             116   -0.40 8  242 335 
 SML  HN ES        232 37.56                             116   -0.22 8  242 335 
 SML  HZ I         232 44.71         9.9 0.24            117            242 335 
 CHI  HZ EP        232 10.82                             115   -0.03 8  249 195 
 CHI  HN ES        232 39.46                             115   -0.61 8  249 195 
 CHI  HZ I         232 46.03         2.7 0.30            118            249 195 
 HEL  HZ EP   2    232 13.38                             113    0.14 4  271 256 
 HEL  HN ES        232 43.77                             113   -0.54 8  271 256 
 HEL  HZ I         232 51.93         2.9 0.34            114            271 256 
 GUY2CHZ EP   4    232 17.68                             111    0.97 0  301 235 
 GUY2CHN ES   4    232 51.56                             111    1.07 0  301 235 
 GUY2CHZ I         232 58.59         3.5 0.54                           301 235 
                                                                                
