 2013  720 0927 40.8 L   6.648 -73.184135.6  RSN  4 0.4 1.7LRSN                1
 GAP=227        0.92      10.6     8.4  8.7  0.1125E+02  0.2546E+02 -0.5181E+01E
 Epicentro: BARICHARA - SANTANDER                                              3
 ACTION:UPD 13-08-12 10:39 OP:ep   STATUS:               ID:20130720092740 L   I
 OLDACT:REG 13-07-20 08:46 OP:mh   STATUS:               ID:20130720091959     3
 2013-07-20-0919-59M.COL___266                                                 6
 STAT SP IPHASW D HRMM SECON CODA AMPLIT PERI AZIMU VELO AIN AR TRES W  DIS CAZ7
 BAR2 SZ ES   1    928 12.87                             177   -0.27 7 6.16 178 
 BRR  HZ EP   1 C  928  0.94                             149   -0.29 7 77.3 311 
 BRR  HN ES        928 17.51                             149    0.3410 77.3 311 
 BRR  HN I         928 21.34        10.5 0.18            144           77.3 311 
 PTB  HZ EP   1    928  6.02                             131   -0.32 7  141 265 
 PTB  HN ES        928 26.46                             131    0.20 9  141 265 
 PTB  HN I         928 30.43         4.7 0.24            130            141 265 
 ZAR  HZ EP        928 13.52                             120    0.59 8  207 297 
 ZAR  HE ES        928 37.34                             120   -0.65 8  207 297 
 ZAR  HE I         928 43.22         5.7 0.22            120            207 297 
                                                                                
