 2015  220 0258 45.6 L   6.168 -73.676111.4  RSN 12 0.4 2.0LRSN                1
 GAP= 67        1.06       2.6     3.1  5.8 -0.2037E+01  0.4589E+01 -0.1322E+01E
 Epicentro: LA PAZ - SANTANDER                                                 3
 ACTION:UPD 15-04-30 21:27 OP:nd   STATUS:               ID:20150220025845 L   I
 OLDACT:UP  15-02-20 18:40 OP:mh   STATUS:               ID:20150220024743     3
 OLDACT:REG 15-02-20 12:40 OP:mher STATUS:               ID:20150220024743     3
 2015-02-20-0247-43M.COL___284                                                 6
 STAT SP IPHASW D HRMM SECON CODA AMPLIT PERI AZIMU VELO AIN AR TRES W  DIS CAZ7
 SPBC HZ EP        259  3.69                             145    0.3110 72.0 218 
 SPBC HN ES        259 17.69                             145    0.4710 72.0 218 
 SPBC HZ I         259 20.14        39.0 0.18            145           72.0 218 
 BAR2 EZ EP        259  3.87                             145    0.2810 72.0  49 
 BAR2 EZ ES        259 17.66                             145    0.0710 72.0  49 
 RUS  HZ EP        259  3.97                             145   -0.0010 72.3 115 
 RUS  HN ES        259 18.17                             145   -0.1110 72.3 115 
 PTB  HZ EP        259  4.53                             136   -0.5910 95.6 295 
 PTB  HN ES        259 19.45                             136   -0.8610 95.6 295 
 PTB  HZ I         259 22.15        23.1 0.14            136           95.6 295 
 BRR  HZ EP        259  6.05                             134    0.2410  104 358 
 BRR  HN ES        259 22.02                             134    0.4710  104 358 
 BRR  HZ I         259 23.43        20.0 0.12            133            104 358 
 NOR  HZ EP        259  9.76                             123   -0.37 9  148 243 
 NOR  HN ES   1    259 28.98                             123   -0.26 7  148 243 
 PAM  SZ EP        259 12.34                             119   -0.51 9  169  40 
 PAM  SN ES        259 34.22                             119    0.15 9  169  40 
 CHI  HZ EP        259 12.62                             119   -0.30 9  170 182 
 CHI  HN ES        259 33.99                             119   -0.22 9  170 182 
 CHI  HZ I         259 40.86         6.3 0.52            119            170 182 
 ZAR  HZ EP        259 15.36                             115    0.12 9  196 318 
 ZAR  HN ES   1    259 38.42                             115    0.09 6  196 318 
 ZAR  HZ I         259 40.76        32.3 0.34            115            196 318 
 GUY2CHZ EP        259 18.40                             113    0.56 8  214 241 
 GUY2CHN ES   4    259 44.78                             113    1.82 0  214 241 
 GUY2CHZ I         259 50.23         8.4 0.34                           214 241 
 OCA  HZ EP   1    259 18.64                             110   -0.85 6  232  10 
 OCA  HN ES        259 45.95                             110    0.05 8  232  10 
 OCA  HZ I         259 56.38        10.7 0.34            110            232  10 
 CBOC HZ EP        259 23.83                             108    1.03 8  261 263 
 CBOC HN ES   1    259 51.90                             108    0.12 6  261 263 
 CBOC HZ I         259 55.58         3.9 0.22            108            261 263 
 URE  HN ES   4    259 51.03                             107   -2.25 0  270 311 
                                                                                
