 2012  420 0337 26.1 L   6.743 -73.152146.0  RSN  6 0.3 1.4LRSN                1
 GAP=138        0.86       5.7     5.0  8.0  0.3834E+01  0.5393E+01  0.3174E+01E
 Epicentro: JORDAN - SANTANDER                                                 3
 ACTION:UPD 12-07-05 11:54 OP:tino STATUS:               ID:20120420033726 L   I
 2012-04-20-0330-00M.COL___187                                                 6
 STAT SP IPHASW D HRMM SECON CODA AMPLIT PERI AZIMU VELO AIN AR TRES W  DIS CAZ7
 BAR2 SZ EP   1    337 45.16                             173    -0.5 7   17 192 
 BAR2 SZ ES   1    338  0.71                             173    -0.2 7   17 192 
 BAR2 SZ I         338  3.65         7.0 0.19                            17 192 
 BRR  HZ EP   1    337 47.69                             152     0.2 7   74 303 
 BRR  HZ I         337 57.69         4.1 0.12                            74 303 
 BRR  HN ES        338  4.60                             152     0.510   74 303 
 PAM  SZ EP   1    337 48.85                             149     0.2 7   83  37 
 PAM  SN ES   1    338  5.90                             149    -0.4 7   83  37 
 RUS  HZ EP   1    337 49.88                             146     0.4 7   94 175 
 RUS  HN ES   1    338  7.75                             146     0.1 7   94 175 
 RUS  HZ I         338  9.89         2.6 0.26                            94 175 
 PTB  HZ EP   1    337 52.78                             132    -0.2 7  146 261 
 PTB  HN ES   1    338 13.46                             132    -0.4 7  146 261 
 PTB  HZ I         338 17.30         3.1 0.23                           146 261 
 ZAR  HN ES   1    338 23.97                             122    -0.3 6  206 294 
                                                                                
