 2012  220 0520 59.0 L   7.367 -73.191129.6  RSN  4 0.1 1.3LRSN                1
 GAP=296        0.34       6.9     4.0  4.2 -0.9881E+01  0.6266E+01 -0.8193E+01E
 ACTION:UP  12-03-07 16:32 OP:epov STATUS:               ID:20120220052059 L   I
 2012-02-20-0520-00M.COL___191                                                 6
 STAT SP IPHASW D HRMM SECON CODA AMPLIT PERI AZIMU VELO AIN AR TRES W  DIS CAZ7
 GIR2 SZ EP   1    521 16.83                             166    0.03 7 31.9 180 
 GIR2 SZ ES   1    521 30.54                             166   -0.13 7 31.9 180 
 BRR  HZ EP   1    521 17.94                             152   -0.10 7 64.3 243 
 BRR  HN ES   1    521 33.05                             152    0.18 7 64.3 243 
 BRR  HZ I         521 34.38         4.8 0.15                          64.3 243 
 BAR2 SZ ES   2    521 36.03                             145    0.10 5 85.7 179 
 BAR2 SZ I         521 37.40         3.3 0.12                          85.7 179 
 PTB  HZ EP   1    521 26.73                             124    0.10 7  167 237 
 PTB  HN ES   1    521 48.03                             124   -0.13 7  167 237 
                                                                                
