 2016 1120 0741 45.0 L   6.782 -73.119139.8  RSN 17 0.3 2.3LRSN                1
 GAP= 91        0.64       2.3     1.9  3.3 -0.3676E+00  0.1358E+01  0.2727E+01E
 Epicentro: LOS SANTOS - SANTANDER                                             3
 ACTION:UPD 17-10-26 21:09 OP:lp   STATUS:               ID:20161120074145 L   I
 OLDACT:UP  16-11-20 17:32 OP:and  STATUS:               ID:20161120073744     3
 OLDACT:UP  16-11-20 17:31 OP:and  STATUS:               ID:20161120073744     3
 OLDACT:UP  16-11-20 17:29 OP:and  STATUS:               ID:20161120073744     3
 OLDACT:UP  16-11-20 17:28 OP:and  STATUS:               ID:20161120073744     3
 OLDACT:UP  16-11-20 17:24 OP:and  STATUS:               ID:20161120073744     3
 OLDACT:REG 16-11-20 13:35 OP:and  STATUS:               ID:20161120073744     3
 2016-11-20-0738-00M.COL___331                                                 6
 STAT SP IPHASW D HRMM SECON CODA AMPLIT PERI AZIMU VELO AIN AR TRES W  DIS CAZ7
 BAR2 EZ IP     D  742  3.73                             171   -0.1910 22.2 198 
 BAR2 EZ ES        742 18.34                             171   -0.3110 22.2 198 
 BAR2 EZ I         742 19.65        90.0 0.21            166           22.2 198 
 BRR  HZ IP     D  742  5.69                             150   -0.0610 74.7 299 
 BRR  HN ES        742 22.18                             150    0.2810 74.7 299 
 BRR  HZ I         742 24.19        42.0 0.18            155           74.7 299 
 PAM  EZ IP     C  742  6.64                             150    0.0510 77.1  37 
 PAM  EN ES        742 23.34                             150   -0.0710 77.1  37 
 PAM  EZ I         742 25.95        61.8 0.54            153           77.1  37 
 PTB  HZ EP   9    742 10.35                             130   -1.41 0  150 260 
 PTB  HN ES        742 31.27                             126    0.08 9  150 260 
 PTB  HZ I         742 34.28        40.0 0.14            132            150 260 
 TAM  HZ IP     C  742 12.15                             130    0.23 9  152 105 
 TAM  HE ES        742 33.01                             130    0.11 9  152 105 
 TAM  HZ I         742 43.43        11.9 0.63            129            152 105 
 ZAR  HZ EP        742 16.94                             121   -0.52 8  208 292 
 ZAR  HN ES        742 42.93                             121    0.18 8  208 292 
 ZAR  HZ I         742 48.71        21.8 0.30            123            208 292 
 NOR  HZ EP        742 20.14                             117   -0.42 8  236 235 
 NOR  HN ES     D  742 48.08                             117   -0.19 8  236 235 
 NOR  HZ I         742 49.79        18.1 0.30            118            236 235 
 CHI  HZ EP        742 22.72                             116    0.43 8  248 196 
 CHI  HN ES        742 51.63                             116    0.29 8  248 196 
 CHI  HZ I         742 57.34         6.7 0.31            116            248 196 
 URE  HZ EP        742 26.26                             112    0.05 7  287 292 
 URE  HN ES   4    742 56.13                             112   -2.20 0  287 292 
 URE  HZ I         742 57.90        17.6 0.21            114            287 292 
 PTGC HZ EP   4    742 27.24                             111   -1.06 0  306 159 
 PTGC HN ES   4    743  0.15                             111   -1.89 0  306 159 
 PTGC HZ I         743 12.67         4.7 0.44            111            306 159 
 LL6C HZ EP   9    742  9.57                             109   -21.2 0  327 357 
 LL6C HN ES        742 45.99                                    0.78 7  327 357 
 ELA  HZ EP   9    742 33.80                             109    2.05 0  330 230 
 ELA  HN ES        743 10.67                             109    0.43 7  330 230 
 ELA  HZ I         743 14.86         8.8 0.48            110            330 230 
 CBOC HZ EP        742 32.39                             109    0.43 7  336 253 
 CBOC HN ES        743  8.83                             109    0.26 7  336 253 
 CBOC HZ I         743 11.59         6.8 0.30            110            336 253 
 PRA  HZ EP        742 38.22                             105   -0.11 6  392 210 
 PRA  HN ES        743 20.01                             105    0.12 6  392 210 
 PRA  HZ I         743 28.36         6.7 0.35            106            392 210 
 ORTC HZ EP        742 38.68                             105   -0.10 6  396 217 
 ORTC HN ES        743 20.51                             105   -0.18 6  396 217 
 ORTC HZ I         743 25.88         5.2 0.40            106            396 217 
 PAL  HZ EP        742 40.07                             105   -0.11 6  407 240 
 PAL  HN ES   4    743 24.80                             105    1.60 0  407 240 
 PAL  HZ I         743 25.27         5.8 0.31            106            407 240 
 SJC  HZ EP   4    742 39.25                             105   -1.54 0  412 327 
 SJC  HN ES   4    743 20.66                             105   -3.62 0  412 327 
 SJC  HZ I         743 21.13         3.2 0.32            106            412 327 
                                                                                
