 2016 1220 0933 48.5 L   6.666 -73.236136.5  RSN  4 0.3 1.3LRSN                1
 GAP=207        0.81       7.4     5.7  7.0  0.2630E+02  0.7131E+01 -0.1103E+02E
 Epicentro: BARICHARA - SANTANDER                                              3
 ACTION:UPD 17-01-11 20:17 OP:rebc STATUS:               ID:20161220093348 L   I
 OLDACT:REG 16-12-20 13:39 OP:cog  STATUS:               ID:20161220092744     3
 2016-12-20-0928-00M.COL___345                                                 6
 STAT SP IPHASW D HRMM SECON CODA AMPLIT PERI AZIMU VELO AIN AR TRES W  DIS CAZ7
 BAR2 EZ EP        934  7.40                             176    0.5510 10.1 144 
 BAR2 EZ ES        934 21.02                             176   -0.1110 10.1 144 
 BAR2 EZ I         934 21.74         5.3 0.26            176           10.1 144 
 RUS  HZ EP        934 10.35                             146   -0.0710 87.2 169 
 RUS  HN ES        934 27.22                             146   -0.2710 87.2 169 
 RUS  HZ I         934 28.94         1.9 0.24            148           87.2 169 
 PTB  HZ EP        934 13.48                             132   -0.17 9  136 264 
 PTB  HE ES        934 33.68                             132    0.44 9  136 264 
 PTB  HZ I         934 36.60         2.9 0.16            132            136 264 
 ZAR  HZ EP        934 20.01                             121   -0.08 9  201 297 
 ZAR  HE ES        934 44.30                             121   -0.39 9  201 297 
 ZAR  HZ I         934 50.56         3.9 0.30            121            201 297 
                                                                                
