 2010  520 0103 59.0 L   6.780 -73.035148.0  RSN 14 0.4 3.0LRSN                1
 GAP=149        0.83       4.4     6.5  6.8 -0.1914E+02 -0.4545E+01  0.1080E+02E
 Epicentro: CEPITA - SANTANDER                                                 3
 ACTION:UP  10-08-24 10:05 OP:vdl  STATUS:               ID:20100520010359 L   I
 2010-05-20-0100-02S.COL___109                                                 6
 STAT SP IPHASW D HRMM SECON CODA AMPLIT PERI AZIMU VELO AIN AR TRES W  DIS CAZ7
 BAR2 SZ IP        1 4 18.77                             169    -0.210   27 218 
 BAR2 SZ ES   2    1 4 33.87                             169    -0.7 5   27 218 
 BRR  HZ IP     C  1 4 21.43                             149     0.310   83 296 
 BRR  HZ I         1 4 21.67       225.0 0.17                            83 296 
 BRR  HE ES   2    1 4 38.94                             149     0.6 5   83 296 
 BRI  SZ IP        1 4 23.40                             143     0.410  107  14 
 BRI  SZ ES   2    1 4 42.14                             143     0.4 5  107  14 
 GUE  SZ EP        1 4 23.78                             140    -0.210  117   6 
 GRA  SZ IP        1 4 24.63                             138     0.210  125  12 
 GRA  SZ ES        1 4 44.27                             138     0.110  125  12 
 OCA  SZ EP        1 4 27.37                             130    -0.5 9  164 349 
 OCA  SZ ES   2    1 4 49.73                             130    -0.7 5  164 349 
 OCA  SZ I         1 4 54.92       101.2 0.35                           164 349 
 CHI  HZ EP   2    1 4 36.84                             118    -0.2 4  250 198 
 CHI  HN ES   2    1 5  6.98                             118     0.4 4  250 198 
 CHI  HZ I         1 5 15.75        37.9 0.38                           250 198 
 ROSC BZ EP   1    1 4 38.32                             117     0.5 6  257 214 
 ROSC BN ES   2    1 5  7.26                             117    -0.7 4  257 214 
 ROSC BZ I         1 5 12.29        53.2 0.51                           257 214 
 CVER SZ EP   2    1 4 40.82                             115     1.0 4  275 205 
 HEL  HZ EP   2    1 4 40.83                             114     0.2 4  283 257 
 HEL  HN ES   2    1 5 12.57                             114    -0.5 4  283 257 
 HEL  HZ I         1 5 18.03        25.8 0.38                           283 257 
 RREF BZ EP   1    1 4 46.05                             111    -0.1 5  330 231 
 RREF BN ES   1    1 5 23.57                             111     0.6 5  330 231 
 RREF BZ I         1 5 30.21        47.3 0.37                           330 231 
 DBB  SZ EP   1    1 4 47.92                             109    -0.1 5  352 274 
 SDV  BZ EP        1 4 48.18                             109    -0.1 6  353  49 
 PRA  HZ EP        1 4 52.34                             107    -0.8 6  396 211 
 PRA  HN ES   2    1 5 35.38                             107     0.1 3  396 211 
 PRA  HZ I         1 5 38.74        41.8 0.44                           396 211 
                                                                                
