 2010  720 0109 24.9 L   6.763 -73.054143.4  RSN  7 0.3 1.7LRSN                1
 GAP=169        0.64       3.0     8.2  7.3 -0.6489E+01  0.1721E+01 -0.6866E+00E
 Epicentro: LOS SANTOS - SANTANDER                                             3
 ACTION:UPD 10-12-01 15:18 OP:pat  STATUS:               ID:20100720010924 L   I
 2010-07-20-0107-24S.COL___122                                                 6
 STAT SP IPHASW D HRMM SECON CODA AMPLIT PERI AZIMU VELO AIN AR TRES W  DIS CAZ7
 BAR2 SZ EP   1    1 9 43.89                             170    -0.4 7   24 217 
 BAR2 SZ I         110  0.38        15.0 0.22                            24 217 
 BRR  HZ EP   1    1 9 45.96                             149    -0.5 7   82 298 
 BRR  HZ I         1 9 52.90         7.3 0.09                            82 298 
 BRR  HE ES   2    110  3.59                             149     0.3 5   82 298 
 RUS  HZ EP        1 9 48.30                             144     0.210   96 182 
 RUS  HN ES   1    110  6.19                             144     0.0 7   96 182 
 RUS  HZ I         110  7.94         5.5 0.33                            96 182 
 GUE  SZ EP   2    1 9 49.31                             138    -0.3 5  119   7 
 GRA  SZ EP        1 9 50.00                             136     0.010  127  13 
 GRA  SZ ES   1    110  9.78                             136     0.1 7  127  13 
 GRA  SZ I         110 10.85         6.5 0.38                           127  13 
 OCA  SZ EP   1    1 9 54.01                             128     0.5 7  166 350 
 OCA  SZ ES   2    110 15.80                             128    -0.1 5  166 350 
 OCA  SZ I         110 19.25         7.2 0.39                           166 350 
 PRA  HZ EP   1    110 18.60                             106     0.1 4  394 211 
 PRA  HN ES   2    111  0.75                             106     0.4 3  394 211 
 PRA  HZ I         111  6.76         2.5 0.18                           394 211 
                                                                                
