 2010  720 0020 39.6 L   6.693 -73.132156.7  RSN  6 0.3 1.7LRSN                1
 GAP=192        0.78       6.2     9.7  8.2 -0.1384E+02 -0.2088E+02 -0.8569E+01E
 Epicentro: JORDAN - SANTANDER                                                 3
 ACTION:UPD 10-12-01 15:18 OP:pat  STATUS:               ID:20100720002039 L   I
 2010-07-20-0019-11S.COL___122                                                 6
 STAT SP IPHASW D HRMM SECON CODA AMPLIT PERI AZIMU VELO AIN AR TRES W  DIS CAZ7
 BAR2 SZ EP        021  0.70                             175     0.310   13 207 
 BAR2 SZ ES   1    021 16.50                             175    -0.1 7   13 207 
 BAR2 SZ I         021 17.38        19.7 0.07                            13 207 
 BRR  HZ EP        021  2.59                             152     0.210   79 306 
 BRR  HN ES   1    021 19.79                             152    -0.3 7   79 306 
 BRR  HZ I         021 23.00        10.2 0.29                            79 306 
 GUE  SZ EP   1    021  5.92                             139    -0.3 7  128  10 
 GUE  SZ I         021 25.82         1.5 0.07                           128  10 
 GRA  SZ EP        021  6.55                             137    -0.2 9  137  15 
 GRA  SZ I         021 28.08         4.0 0.18                           137  15 
 OCA  SZ EP   1    021  9.66                             130    -0.2 7  172 353 
 OCA  SZ ES   1    021 34.03                             130     0.5 7  172 353 
 OCA  SZ I         021 35.89         5.4 0.10                           172 353 
 RREF HN ES   2    022  1.18                             113    -0.2 3  315 231 
 RREF HZ I         022 11.31         3.4 0.20                           315 231 
                                                                                
