 2013 1120 0655 56.4 L   7.529 -73.179108.2  RSN  6 0.5 1.4LRSN                1
 GAP=215        1.16       6.3     8.8 11.7  0.3001E+02 -0.8448E+01 -0.2673E+02E
 Epicentro: EL PLAYON - SANTANDER                                              3
 ACTION:UPD 14-01-09 16:29 OP:ep   STATUS:               ID:20131120065556 L   I
 OLDACT:DUP 13-11-20 09:29 OP:nd   STATUS:               ID:20131120065001d    3
 2013-11-20-0650-00M.COL___279                                                 6
 STAT SP IPHASW D HRMM SECON CODA AMPLIT PERI AZIMU VELO AIN AR TRES W  DIS CAZ7
 BRR  HZ EP        656 14.57                             142    0.6310 75.1 232 
 BRR  HN ES        656 27.70                             142    0.1010 75.1 232 
 BRR  HZ I         656 29.14         8.9 0.20            142           75.1 232 
 BAR2 SZ EP        656 17.04                             133    0.4310  104 180 
 BAR2 SZ ES        656 31.90                             133   -0.4710  104 180 
 BAR2 SZ I         656 33.71        11.0 0.20            137            104 180 
 SML  HZ EP   2    656 23.22                             117    0.09 4  172 325 
 SML  HN ES        656 43.57                             117   -0.39 9  172 325 
 SML  HZ I         656 50.44         7.5 0.24            118            172 325 
 PTB  HZ EP        656 22.96                             116   -0.95 9  179 232 
 PTB  HN ES   4    656 43.65                             116   -1.70 0  179 232 
 PTB  HZ I         656 48.87         2.0 0.24            117            179 232 
 ZAR  HZ EP        656 24.92                             115    0.28 9  185 269 
 ZAR  HN ES        656 46.84                             115    0.18 9  185 269 
 ZAR  HZ I         656 52.33         2.4 0.38            116            185 269 
 SJC  HZ EP   4    656 43.49                             101    0.55 0  342 320 
 SJC  HN ES   4    657 17.77                             101   -1.45 0  342 320 
 SJC  HZ I         657 21.53         0.6 0.38            103            342 320 
                                                                                
