 2016  720 0806 30.2 L   6.794 -73.085147.7  RSN 15 0.5 2.2LRSN                1
 GAP=104        1.09       3.8     3.4  5.0 -0.3909E+01  0.2923E+01  0.1320E+01E
 Epicentro: LOS SANTOS - SANTANDER                                             3
 ACTION:UPD 17-03-29 16:53 OP:lp   STATUS:               ID:20160720080630 L   I
 OLDACT:UP  16-07-20 18:13 OP:ar   STATUS:               ID:20160720075759     3
 OLDACT:REG 16-07-20 13:29 OP:ar   STATUS:               ID:20160720075759     3
 2016-07-20-0757-59S.COL___334                                                 6
 STAT SP IPHASW D HRMM SECON CODA AMPLIT PERI AZIMU VELO AIN AR TRES W  DIS CAZ7
 BAR2 EZ IP     C  8 6 50.20                             170    0.1410 24.8 206 
 BAR2 EZ ES        8 7  5.17                             170   -0.4010 24.8 206 
 PAM  EZ EP        8 6 53.05                             152    0.6710 73.8  35 
 PAM  EN ES        8 7 10.11                             152    0.4010 73.8  35 
 PAM  EZ I         8 7 14.96        14.5 0.64            156           73.8  35 
 BRR  HZ IP     C  8 6 52.10                             151    0.2210 77.4 297 
 BRR  HN ES        8 7  9.01                             151    0.1910 77.4 297 
 BRR  HZ I         8 7 12.00        18.1 0.16            154           77.4 297 
 RUS  HZ EP        8 6 54.11                             144    0.0610 99.7 180 
 RUS  HN ES        8 7 12.81                             144    0.1410 99.7 180 
 SPBC HZ EP        8 6 59.11                             129   -0.06 9  167 221 
 SPBC HN ES        8 7 20.96                             129   -0.84 9  167 221 
 SPBC HZ I         8 7 24.23        22.0 0.24            128            167 221 
 ZAR  HZ EP        8 7  3.29                             122   -0.11 8  210 292 
 ZAR  HN ES        8 7 28.41                             122   -0.91 8  210 292 
 ZAR  HZ I         8 7 34.29        20.3 0.36            123            210 292 
 NOR  HZ EP        8 7  6.59                             118    0.04 8  240 236 
 NOR  HN ES        8 7 34.97                             118    0.04 8  240 236 
 NOR  HZ I         8 7 40.41        15.3 0.20            118            240 236 
 CHI  HZ EP   4    8 7  5.32                             117   -2.78 0  250 197 
 CHI  HN ES   4    8 7 38.88                             117    1.19 0  250 197 
 CHI  HZ I         8 7 45.60         5.4 0.38            116            250 197 
 HEL  HZ EP        8 7 10.72                             115   -0.46 7  278 256 
 HEL  HE ES        8 7 43.83                             115    0.67 7  278 256 
 HEL  HZ I         8 7 50.60         6.8 0.40            115            278 256 
 URE  HZ EP        8 7 11.23                             113   -0.82 7  290 292 
 URE  HN ES   4    8 7 42.26                             113   -2.45 0  290 292 
 URE  HZ I         8 7 54.75        10.2 0.32            114            290 292 
 SOCV BZ EP        8 7 13.02                             113    0.30 7  296  56 
 SOCV BN ES        8 7 45.27                             113   -0.64 7  296  56 
 PTGC HZ EP        8 7 13.22                             112   -0.55 7  306 160 
 PTGC HN ES   4    8 7 45.94                             112   -1.85 0  306 160 
 PTGC HZ I         8 8 18.84         8.5 0.42            111            306 160 
 GUY2CHZ EP        8 7 14.52                             112    0.08 7  306 236 
 GUY2CHN ES   4    8 7 51.08                             112    2.11 0  306 236 
 GUY2CHZ I         8 7 56.72        12.5 0.38                           306 236 
 CBOC HZ EP        8 7 18.17                             110    0.31 7  340 253 
 CBOC HN ES        8 7 56.07                             110    1.00 7  340 253 
 PRA  HZ EP        8 7 23.73                             107   -0.35 6  395 210 
 PRA  HN ES        8 8  6.90                             107    0.77 6  395 210 
 PRA  HZ I         8 8 12.45         7.4 0.30            106            395 210 
                                                                                
