 2013  720 0539 52.9 L   6.788 -73.153149.0  RSN  7 0.4 1.9LRSN                1
 GAP=182        0.79       4.0     5.6  7.0  0.9358E+01  0.5966E+01 -0.4361E+01E
 Epicentro: LOS SANTOS - SANTANDER                                             3
 ACTION:UPD 13-08-12 10:38 OP:ep   STATUS:               ID:20130720053952 L   I
 OLDACT:UP  13-07-20 11:35 OP:mh   STATUS:               ID:20130720053837     3
 OLDACT:REG 13-07-20 09:03 OP:mh   STATUS:               ID:20130720053837     3
 2013-07-20-0538-37M.COL___237                                                 6
 STAT SP IPHASW D HRMM SECON CODA AMPLIT PERI AZIMU VELO AIN AR TRES W  DIS CAZ7
 BAR2 SZ EP   1    540 12.74                             171   -0.20 7 21.8 189 
 BAR2 SZ ES   1    540 28.57                             171    0.03 7 21.8 189 
 BAR2 SZ I         540 29.56         6.0 0.28            171           21.8 189 
 BRR  HZ EP   1    540 14.55                             153    0.10 7 71.2 300 
 BRR  HN ES        540 31.75                             153    0.5310 71.2 300 
 BRR  HN I         540 35.76        14.7 0.16            151           71.2 300 
 RUS  HZ EP   1    540 17.08                             145    0.15 7 99.3 176 
 RUS  HN ES        540 35.42                             145   -0.2110 99.3 176 
 RUS  HN I         540 38.32         5.8 0.64            148           99.3 176 
 PTB  HZ EP   1    540 20.79                             133    0.70 7  147 259 
 PTB  HN ES   1    540 40.49                             133   -0.77 7  147 259 
 PTB  HN I         540 45.10         7.9 0.40            133            147 259 
 OCA  HN ES   1    540 43.68                             130   -0.32 7  162 353 
 OCA  HN I         540 46.93        19.6 0.32            132            162 353 
 ZAR  HZ EP   1    540 25.46                             123   -0.12 6  204 293 
 ZAR  HE ES        540 50.97                             123   -0.07 9  204 293 
 ZAR  HE I         540 57.38        16.9 0.34            124            204 293 
 SML  HN ES   1    540 58.39                             118   -0.25 6  245 336 
 SML  HN I         540 59.78        10.9 0.10            120            245 336 
                                                                                
