 2017  120 0513 47.6 L   6.767 -73.165149.6  RSN  6 0.3 1.1LRSN                1
 GAP=136        0.68       3.2     3.8  6.5  0.3742E+01 -0.2991E+01 -0.6985E+00E
 Epicentro: LOS SANTOS - SANTANDER                                             3
 ACTION:UPD 17-05-22 16:01 OP:jn   STATUS:               ID:20170120051347 L   I
 OLDACT:UP  17-01-20 16:29 OP:dani STATUS:               ID:20170120050744     3
 OLDACT:REG 17-01-20 12:31 OP:dani STATUS:               ID:20170120050744     3
 2017-01-20-0508-00M.COL___313                                                 6
 STAT SP IPHASW D HRMM SECON CODA AMPLIT PERI AZIMU VELO AIN AR TRES W  DIS CAZ7
 BRR  HZ EP     D  514  9.24                             153    0.1010 71.2 302 
 BRR  HN ES        514 26.23                             153    0.2710 71.2 302 
 BRR  HZ I         514 30.13         3.6 0.35            145           71.2 302 
 PAM  EZ EP     D  514 10.36                             150   -0.0910 81.6  39 
 PAM  EZ I         514 40.28         2.1 0.32            129           81.6  39 
 RUS  HZ EP        514 11.52                             146    0.0610 97.1 175 
 RUS  HN ES        514 29.89                             146   -0.2110 97.1 175 
 RUS  HZ I         514 31.32         1.7 0.34            144           97.1 175 
 PTB  HZ EP        514 14.35                             133   -0.26 9  145 260 
 PTB  HN ES        514 35.28                             133   -0.42 9  145 260 
 PTB  HZ I         514 41.69         1.6 0.34            133            145 260 
 ZAR  HE ES        514 45.89                             123    0.22 9  203 293 
 CHI  HN ES        514 54.77                             118    0.49 8  245 195 
                                                                                
