 2016  920 0458 18.7 L   6.836 -73.089155.6  RSN  6 0.2 1.4LRSN                1
 GAP=267        0.56       4.2     7.0  5.7 -0.4631E+01 -0.3515E+01  0.6785E+01E
 Epicentro: LOS SANTOS - SANTANDER                                             3
 ACTION:UPD 17-08-17 21:14 OP:lp   STATUS:               ID:20160920045818 L   I
 OLDACT:UP  16-09-20 21:08 OP:and  STATUS:               ID:20160920044734     3
 OLDACT:UP  16-09-20 21:07 OP:and  STATUS:               ID:20160920044734     3
 OLDACT:REG 16-09-20 12:43 OP:and  STATUS:               ID:20160920044734     3
 2016-09-20-0448-00M.COL___363                                                 6
 STAT SP IPHASW D HRMM SECON CODA AMPLIT PERI AZIMU VELO AIN AR TRES W  DIS CAZ7
 BAR2 EZ EP   2    458 39.54                             169   -0.11 5 28.8 201 
 BAR2 EZ ES   2    458 55.88                             169   -0.09 5 28.8 201 
 BRR  HZ EP        458 41.51                             153    0.3510 75.1 294 
 BRR  HN ES        458 58.53                             153   -0.1210 75.1 294 
 BRR  HZ I         458 59.22         3.9 0.12            153           75.1 294 
 PTB  HZ EP        458 46.71                             133   -0.42 9  155 258 
 PTB  HN ES   4    459  7.54                             133   -1.74 0  155 258 
 PTB  HZ I         459  9.18         1.9 0.12            132            155 258 
 SPBC HZ EP        458 48.66                             130    0.01 9  170 220 
 SPBC HE ES        459 12.14                             130    0.16 9  170 220 
 SPBC HZ I         459 17.01         3.2 0.17            128            170 220 
 ZAR  HN ES   2    459 18.78                             124    0.33 4  208 290 
 NOR  HE ES   2    459 24.65                             120   -0.11 4  242 235 
 NOR  HZ I         459 28.74         3.4 0.16            119            242 235 
                                                                                
