 2012  720 0854  6.4 L   6.123 -73.743 98.5  RSN  5 0.5 1.2LRSN                1
 GAP=163        1.05       7.5     4.9 13.9  0.7740E+01  0.2860E+02  0.2108E+02E
 Epicentro: BOLIVAR - SANTANDER                                                3
 ACTION:UPD 12-08-14 11:46 OP:ep   STATUS:               ID:20120720085406 L   I
 2012-07-20-0850-00M.COL___215                                                 6
 STAT SP IPHASW D HRMM SECON CODA AMPLIT PERI AZIMU VELO AIN AR TRES W  DIS CAZ7
 RUS  HZ EP   1    854 23.86                             140     0.0 7   77 109 
 RUS  HZ I         854 24.17         3.0 0.17            145             77 109 
 RUS  HN ES   1    854 37.34                             140    -0.1 7   77 109 
 BAR2 SZ EP   1    854 23.54                             138    -0.2 7   81  50 
 BAR2 SZ I         854 23.89         7.0 0.28            147             81  50 
 BAR2 SZ ES   1    854 37.98                             138     0.6 7   81  50 
 PTB  HZ EP   1    854 24.17                             134    -0.2 7   91 300 
 PTB  HN ES   1    854 37.73                             134    -0.7 7   91 300 
 PTB  HZ I         854 41.95         2.8 0.14            133             91 300 
 BRR  HZ EP   1    854 25.60                             129    -0.4 7  109   2 
 BRR  HZ I         854 25.97         8.5 0.14            133            109   2 
 BRR  HN ES   1    854 41.55                             129     0.3 7  109   2 
 HEL  HZ EP   2    854 36.41                             112     0.4 4  198 272 
 HEL  HN ES   1    854 59.96                             112     0.8 6  198 272 
 HEL  HZ I         855  7.33         1.7 0.53            111            198 272 
