 2011  720 0936 13.2 L   6.522 -73.565104.0  RSN 18 0.5 2.9LRSN                1
 GAP= 65        0.94       2.8     4.2  6.4 -0.4399E+01  0.1030E+02  0.1046E+01E
 Epicentro: EL CARMEN DE CHUCURI - SANTANDER                                   3
 ACTION:UPD 12-07-25 14:02 OP:epov STATUS:               ID:20110720093613 L   I
 2011-07-20-0934-39S.COL___143                                                 6
 STAT SP IPHASW D HRMM SECON CODA AMPLIT PERI AZIMU VELO AIN AR TRES W  DIS CAZ7
 BAR2 SZ IP        936 28.87                             156    0.2710 43.0  80 
 BAR2 SZ ES   1    936 41.11                             156    0.49 7 43.0  80 
 BTL  SZ EP   1    936 29.63                             151    0.38 7 54.7  37 
 BRR  HZ IP     C  936 29.66                             145   -0.0310 66.7 346 
 BRR  HE ES   1    936 42.88                             145    0.32 7 66.7 346 
 BRR  HZ I         936 44.94       275.0 0.11                          66.7 346 
 GIR2 SZ IP        936 30.41                             142   -0.0110 74.0  34 
 RUS  HZ EP        936 31.80                             138   -0.2010 87.7 143 
 RUS  HE ES   1    936 46.54                             138   -0.14 7 87.7 143 
 RUS  HZ I         936 49.04       145.2 0.18                          87.7 143 
 PAM  SZ EP   1    936 35.44                             125   -0.63 7  132  47 
 BRI  SZ EP   1    936 37.99                             119   -0.32 7  157  33 
 BRI  SZ I         937  3.40        72.9 0.49                           157  33 
 GRA  SZ EP        936 39.30                             117   -0.67 9  173  29 
 GRA  SZ I         937  4.07       108.9 0.49                           173  29 
 NOR  SZ EP   1    936 40.27                             115   -0.30 7  179 234 
 NOR  SE ES   1    937  1.24                             115   -0.69 7  179 234 
 OCA  SZ EP   1    936 41.45                             114   -0.65 7  192   8 
 OCA  SZ ES   1    937  5.26                             114    0.60 7  192   8 
 OCA  SZ I         937 11.06       203.3 0.36                           192   8 
 ROSC BZ EP   1    936 44.88                             112    1.09 6  204 204 
 ROSC BE ES   1    937  7.01                             112   -0.64 6  204 204 
 ROSC BZ I         937 15.99        98.9 0.50                           204 204 
 CHI  HZ EP   1    936 44.21                             111   -0.30 6  210 185 
 CHI  HE ES   1    937  9.33                             111    0.38 6  210 185 
 CHI  HZ I         937 13.83        51.0 0.47                           210 185 
 HEL  HZ EP   1    936 45.96                             110    0.34 6  220 261 
 HEL  HN ES   2    937 10.87                             110   -0.06 4  220 261 
 VIL  SZ EP   1    936 51.10                             106    0.35 6  267 183 
 VIL  SZ I         937 29.35        57.2 0.28                           267 183 
 RREF HZ EP   1    936 51.71                             106    0.36 6  267 228 
 RREF HN ES   1    937 20.04                             106   -1.08 6  267 228 
 RREF HZ I         937 28.76        74.8 0.30                           267 228 
 TOL  SZ EP   1    936 54.27                             104    0.62 5  289 222 
 DBB  SZ EP   1    936 55.01                             103    0.71 5  297 281 
 PRA  HZ EP        937  0.11                             100    0.37 7  343 205 
 PRA  HN ES   1    937 36.41                             100    0.35 5  343 205 
                                                                                
