 2013  320 0326 50.7 L   6.809 -73.314124.2  RSN  8 0.5 2.0LRSN                1
 GAP=100        1.22       5.3     4.3  8.2  0.2417E+00  0.1086E+02  0.1468E+01E
 Epicentro: ZAPATOCA - SANTANDER                                               3
 ACTION:UPD 13-04-09 14:03 OP:ep   STATUS:               ID:20130320032001dL   I
 2013-03-20-0320-00M.COL___244                                                 6
 STAT SP IPHASW D HRMM SECON CODA AMPLIT PERI AZIMU VELO AIN AR TRES W  DIS CAZ7
 BAR2 SZ EP        327  8.09                             166    0.2610 28.1 149 
 BAR2 SZ ES        327 21.35                             166    0.1310 28.1 149 
 BRR  HZ EP        327  8.44                             155   -0.1310 54.9 307 
 BRR  HE ES        327 22.54                             155    0.0010 54.9 307 
 BRR  HE I         327 23.10        65.8 0.32            150           54.9 307 
 PAM  SZ EP        327 11.56                             142    0.0510 89.7  49 
 PAM  SN ES        327 27.64                             142   -0.1310 89.7  49 
 PAM  SN I         327 29.10        10.1 0.18            141           89.7  49 
 RUS  HZ EP        327 13.03                             137    0.3510  105 166 
 RUS  HN ES        327 29.98                             137    0.1210  105 166 
 PTB  HZ EP        327 13.26                             130   -0.9910  130 257 
 PTB  HN ES        327 31.87                             130   -0.7710  130 257 
 PTB  HN I         327 35.98        10.6 0.40            129            130 257 
 OCA  HN EP   2    327 16.28                             124   -0.90 5  158 360 
 OCA  HN ES   4    327 36.10                             124   -1.75 0  158 360 
 OCA  HN I         327 41.74        43.7 0.18            123            158 360 
 ZAR  HN ES        327 43.71                             120    0.97 9  187 294 
 ZAR  HN I         327 48.36        12.2 0.48            118            187 294 
 HEL  HZ EP   1    327 28.70                             112    0.85 6  254 255 
 HEL  HN ES        327 57.07                             112    0.21 8  254 255 
 HEL  HN I         328  0.10         2.8 0.26            111            254 255 
                                                                                
