 2012 1020 0440  4.7 L   6.466 -73.533  8.2  RSN  6 0.3 1.3LRSN                1
 GAP=166        0.63       2.3     4.0  8.6  0.4755E+01  0.2475E+02  0.5984E+01E
 Epicentro: SANTA HELENA DEL OPON - SANTANDER                                  3
 ACTION:UPD 12-11-22 17:04 OP:ep   STATUS:               ID:20121020044004 L   I
 2012-10-20-0438-51M.COL___198                                                 6
 STAT SP IPHASW D HRMM SECON CODA AMPLIT PERI AZIMU VELO AIN AR TRES W  DIS CAZ7
 BAR2 SZ EP   1    440 11.73                              97   -0.05 7 41.2  70 
 BAR2 SZ ES   2    440 17.33                              97   -0.01 5 41.2  70 
 BAR2 SZ I         440 19.85        20.9 0.43                          41.2  70 
 BRR  HZ EP   1    440 16.38                              94   -0.04 7 73.6 344 
 BRR  HZ I         440 17.24        12.6 0.12                          73.6 344 
 BRR  HE ES   1    440 25.45                              94   -0.15 7 73.6 344 
 GIR2 SZ EP   1    440 17.25                              93    0.09 7 77.5  29 
 GIR2 SZ ES   1    440 26.63                              93   -0.28 7 77.5  29 
 RUS  HZ EP   1    440 18.45                              93    0.46 7 80.6 142 
 RUS  HN ES   1    440 27.90                              93   -0.50 7 80.6 142 
 RUS  HN I         440 30.18        10.7 0.20                          80.6 142 
 RUS  HZ I         440 30.65         6.7 0.17                          80.6 142 
 PAM  SZ EP   1    440 26.58                              92    0.59 7  133  44 
 ZAR  HN ES   1    440 54.53                              56   -0.07 7  185 308 
                                                                                
