 2016 1220 0522 42.2 L   6.747 -73.191146.6  RSN  4 0.4 1.1LRSN                1
 GAP=228        1.13       8.9     8.4  9.0  0.3660E+02  0.8035E+01  0.2699E+01E
 Epicentro: VILLANUEVA - SANTANDER                                             3
 ACTION:UPD 17-01-11 20:17 OP:rebc STATUS:               ID:20161220052242 L   I
 OLDACT:REG 16-12-20 13:08 OP:cog  STATUS:               ID:20161220051743     3
 2016-12-20-0518-00M.COL___345                                                 6
 STAT SP IPHASW D HRMM SECON CODA AMPLIT PERI AZIMU VELO AIN AR TRES W  DIS CAZ7
 BAR2 EZ EP        523  1.28                             173   -0.5410 17.2 177 
 BAR2 EZ ES        523 16.57                             173   -0.5610 17.2 177 
 BAR2 EZ I         523 19.26         2.7 0.48            171           17.2 177 
 BRR  HZ EP        523  3.39                             153    0.0210 70.0 305 
 BRR  HE ES        523 20.55                             153    0.6610 70.0 305 
 BRR  HZ I         523 24.11         3.5 0.44            151           70.0 305 
 RUS  HZ EP        523  6.16                             145    0.5010 95.3 173 
 RUS  HN ES        523 24.23                             145    0.2810 95.3 173 
 PTB  HZ EP        523  8.55                             133   -0.15 9  142 261 
 PTB  HN ES        523 29.12                             133   -0.25 9  142 261 
 PTB  HZ I         523 35.22         1.5 0.14            133            142 261 
                                                                                
