 2012 1220 0518  6.9 L   6.561 -73.466119.1  RSN  5 0.3 1.4LRSN                1
 GAP=119        0.76       5.6     4.9  7.1  0.8577E+01  0.1112E+02  0.3529E+01E
 Epicentro: EL CARMEN DE CHUCURI - SANTANDER                                   3
 ACTION:UPD 13-01-04 14:29 OP:ep   STATUS:               ID:20121220051806 L   I
 2012-12-20-0510-00M.COL___242                                                 6
 STAT SP IPHASW D HRMM SECON CODA AMPLIT PERI AZIMU VELO AIN AR TRES W  DIS CAZ7
 BAR2 SZ EP        518 23.91                             164    0.3810 31.5  84 
 BAR2 SZ ES        518 36.37                             164   -0.1610 31.5  84 
 BAR2 SZ I         518 38.55        11.3 0.29                          31.5  84 
 GIR2 SZ EP   1    518 24.37                             149   -0.61 7 64.7  28 
 BRR  HZ EP        518 25.14                             149    0.2710 66.3 336 
 BRR  HZ I         518 28.43         5.4 0.46                          66.3 336 
 BRR  HN ES   1    518 39.07                             149    0.14 7 66.3 336 
 RUS  HZ EP   1    518 27.18                             142    0.30 7 85.1 150 
 RUS  HN ES   1    518 42.38                             142   -0.11 7 85.1 150 
 RUS  HN I         518 44.43         6.1 0.25                          85.1 150 
 PTB  HZ EP        518 27.79                             134   -0.4110  110 269 
 PTB  HE ES   1    518 44.96                             134    0.11 7  110 269 
 PTB  HZ I         518 48.30         3.0 0.20                           110 269 
                                                                                
