 2016  220 0413 27.1 L   6.786 -73.150140.0  RSN  8 0.3 1.3LRSN                1
 GAP=137        0.85       3.0     3.5  5.1  0.1507E+00  0.4217E+01  0.2561E+01E
 Epicentro: LOS SANTOS - SANTANDER                                             3
 ACTION:UPD 16-03-04 21:27 OP:rebc STATUS:               ID:20160220041327 L   I
 OLDACT:REG 16-02-20 13:08 OP:drio STATUS:               ID:20160220040736     3
 2016-02-20-0407-36M.COL___331                                                 6
 STAT SP IPHASW D HRMM SECON CODA AMPLIT PERI AZIMU VELO AIN AR TRES W  DIS CAZ7
 BAR2 EZ EP        413 45.98                             171   -0.0010 21.7 189 
 BAR2 EZ ES        414  0.47                             171   -0.2610 21.7 189 
 BAR2 EZ I         414  2.07         6.7 0.18            168           21.7 189 
 BRR  HZ EP        413 47.81                             151    0.1910 71.5 300 
 BRR  HN ES        414  3.86                             151    0.2110 71.5 300 
 PAM  EZ EP        413 48.73                             149   -0.0410 78.9  39 
 PAM  EN ES        414  5.56                             149   -0.1410 78.9  39 
 RUS  HZ EP        413 49.79                             143   -0.3610 99.1 176 
 RUS  HN ES        414  8.79                             143    0.6310 99.1 176 
 RUS  HZ I         414  9.39         3.0 0.20            143           99.1 176 
 PTB  HZ EP        413 52.87                             131   -0.64 9  147 259 
 PTB  HE ES        414 13.93                             131   -0.19 9  147 259 
 PTB  HZ I         414 16.26         2.3 0.14            129            147 259 
 SPBC HZ EP        413 54.84                             128   -0.15 9  162 219 
 SPBC HE ES        414 16.73                             128   -0.04 9  162 219 
 SPBC HZ I         414 20.60         3.2 0.12            127            162 219 
 ZAR  HZ EP        413 59.87                             121    0.71 9  204 293 
 ZAR  HN ES        414 24.21                             121    0.02 9  204 293 
 ZAR  HZ I         414 33.82         2.7 0.48            120            204 293 
 CHI  HZ EP        414  4.59                             116    0.31 8  247 195 
 CHI  HN ES        414 33.18                             116   -0.13 8  247 195 
 CHI  HZ I         414 39.26         0.7 0.26            116            247 195 
                                                                                
