 2012 1220 0535 40.2 L   6.730 -73.155156.6  RSN  4 0.1 1.2LRSN                1
 GAP=231        0.32       4.8     3.2  5.4 -0.1112E+01 -0.6927E+01  0.1079E+02E
 Epicentro: VILLANUEVA - SANTANDER                                             3
 ACTION:UPD 13-01-04 14:29 OP:ep   STATUS:               ID:20121220053540 L   I
 2012-12-20-0530-00M.COL___242                                                 6
 STAT SP IPHASW D HRMM SECON CODA AMPLIT PERI AZIMU VELO AIN AR TRES W  DIS CAZ7
 BAR2 SZ EP   1    536  0.92                             174   -0.13 7 15.5 191 
 BRR  HZ EP        536  2.80                             153    0.0610 74.3 304 
 BRR  HZ I         536  5.33         4.3 0.32                          74.3 304 
 BRR  HN ES   1    536 20.28                             153    0.00 7 74.3 304 
 RUS  HZ EP   1    536  4.64                             148    0.08 7 92.9 175 
 RUS  HZ I         536 24.73         1.2 0.26                          92.9 175 
 PTB  HZ EP        536  7.86                             135   -0.05 9  145 262 
 PTB  HN ES        536 29.49                             135    0.01 9  145 262 
 PTB  HZ I         536 31.79         1.8 0.13                           145 262 
                                                                                
