 2017  220 0657 46.6 L   6.854 -73.482110.7  RSN  6 0.5 1.2LRSN                1
 GAP=100        0.98       4.5     4.0  7.3  0.4559E+01  0.6440E+01  0.3845E+01E
 Epicentro: SAN VICENTE DE CHUCURI - SANTANDER                                 3
 ACTION:UPD 17-05-24 15:38 OP:jn   STATUS:               ID:20170220065746 L   I
 OLDACT:UP  17-02-20 17:11 OP:dani STATUS:               ID:20170220064742     3
 OLDACT:REG 17-02-20 12:58 OP:dani STATUS:               ID:20170220064742     3
 2017-02-20-0648-00M.COL___348                                                 6
 STAT SP IPHASW D HRMM SECON CODA AMPLIT PERI AZIMU VELO AIN AR TRES W  DIS CAZ7
 BRR  HZ EP        658  2.38                             160    0.1610 37.8 318 
 BRR  HN ES        658 14.44                             160    0.0810 37.8 318 
 BRR  HZ I         658 15.61         9.3 0.34            163           37.8 318 
 BAR2 EZ IP     D  658  3.25                             157    0.4010 44.0 131 
 BAR2 EZ ES        658 15.66                             157    0.1710 44.0 131 
 BAR2 EZ I         658 17.36         6.4 0.36            156           44.0 131 
 PAM  EZ EP        658  7.29                             135    0.0610  102  58 
 PAM  EN ES        658 22.69                             135   -0.6010  102  58 
 PAM  EZ I         658 24.79         2.5 0.26            137            102  58 
 PTB  HZ IP     C  658  6.95                             131   -0.6710  113 252 
 PTB  HN ES   3    658 22.23                             131   -1.75 2  113 252 
 PTB  HZ I         658 23.78         5.2 0.12            133            113 252 
 RUS  HZ EP        658  8.62                             131    0.1810  115 157 
 RUS  HN ES        658 25.32                             131   -0.1110  115 157 
 RUS  HZ I         658 28.76         1.8 0.48            132            115 157 
 ZAR  HN ES        658 34.19                             119    0.50 9  168 295 
                                                                                
