 2017  220 0800 17.8 L   6.777 -73.161147.3  RSN  6 0.4 1.3LRSN                1
 GAP=136        0.95       4.8     4.2  6.9  0.1848E+01  0.5494E+01  0.4623E+00E
 Epicentro: LOS SANTOS - SANTANDER                                             3
 ACTION:UPD 17-05-24 15:38 OP:jn   STATUS:               ID:20170220080017 L   I
 OLDACT:REG 17-02-20 13:03 OP:dani STATUS:               ID:20170220075744     3
 2017-02-20-0758-00M.COL___348                                                 6
 STAT SP IPHASW D HRMM SECON CODA AMPLIT PERI AZIMU VELO AIN AR TRES W  DIS CAZ7
 BAR2 EZ EP        8 0 37.42                             172   -0.1410 20.6 187 
 BAR2 EZ ES        8 0 52.37                             172   -0.6110 20.6 187 
 BRR  HZ EP        8 0 39.32                             153    0.2310 70.9 301 
 BRR  HN ES        8 0 56.33                             153    0.6210 70.9 301 
 BRR  HZ I         8 0 57.07         3.5 0.40            153           70.9 301 
 PAM  EZ EP        8 0 40.29                             150   -0.0610 80.4  39 
 PAM  EN ES        8 0 57.87                             150   -0.0810 80.4  39 
 RUS  HZ EP        8 0 41.98                             145    0.4510 98.2 175 
 RUS  HN ES        8 1  0.23                             145    0.1910 98.2 175 
 PTB  HZ EP        8 0 44.13                             133   -0.56 9  146 260 
 PTB  HN ES     D  8 1  5.63                             133   -0.04 9  146 260 
 ZAR  HN ES        8 1 15.52                             123   -0.09 9  203 293 
                                                                                
