 2017 1220 0349  3.4 L   6.817 -73.171143.1  RSN 18 0.7 2.1LRSN                1
 GAP= 63        1.36       3.2     3.5  6.5  0.7172E+00  0.6036E+01  0.1283E+01E
 Epicentro: LOS SANTOS - SANTANDER                                             3
 ACTION:UPD 18-01-04 13:22 OP:rebc STATUS:               ID:20171220034903 L   I
 OLDACT:REG 17-12-20 12:42 OP:dhb  STATUS:               ID:20171220034651     3
 2017-12-20-0348-00M.COL___452                                                 6
 STAT SP IPHASW D HRMM SECON CODA AMPLIT PERI AZIMU VELO AIN AR TRES W  DIS CAZ7
 BAR2 EZ IP     D  349 22.50                             170   -0.2010 24.9 183 
 BAR2 EZ ES        349 37.19                             170   -0.5910 24.9 183 
 BAR2 EZ I         349 40.31        25.6 0.30            164           24.9 183 
 PAM  EZ IP     D  349 25.53                             150    0.2210 77.8  42 
 PAM  EE ES        349 42.76                             150    0.3310 77.8  42 
 PAM  EZ I         349 45.58        15.9 0.32            148           77.8  42 
 PTB  HZ EP        349 29.26                             132   -0.63 9  145 258 
 PTB  HN ES        349 50.54                             132   -0.05 9  145 258 
 PTB  HZ I         349 55.31         8.8 0.26            126            145 258 
 OCA  HZ EP        349 31.79                             129    0.53 9  158 354 
 OCA  HE ES        349 52.96                             129   -0.05 9  158 354 
 OCA  HZ I         349 56.31        29.8 0.26            125            158 354 
 TAM  HZ IP     C  349 30.93                             129   -0.19 9  158 105 
 TAM  HE ES        349 52.81                             129    0.04 9  158 105 
 TAM  HZ I         349 53.38         8.2 0.22            124            158 105 
 SPBC HZ EP        349 31.45                             128   -0.18 9  163 218 
 SPBC HZ ES        349 54.00                             128    0.32 9  163 218 
 SPBC HZ I         350  1.22        20.6 0.30            122            163 218 
 YPLC HZ EP        349 32.89                             125   -0.36 9  180 151 
 YPLC HN ES        349 57.14                             125    0.57 9  180 151 
 YPLC HZ I         349 57.84        18.5 0.26            119            180 151 
 ZAR  HZ EP        349 35.16                             122   -0.13 9  201 292 
 ZAR  HE ES        350  0.72                             122    0.52 9  201 292 
 ZAR  HZ I         350  6.57         9.2 0.44            117            201 292 
 ROSC BZ EP   9    349 42.65                             116    1.30 0  253 210 
 ROSC BN ES        350 12.74                                    0.45 8  253 210 
 ROSC BZ I         350 17.26        11.0 0.45            110            253 210 
 CVER HZ EP        349 44.19                             114    0.53 8  273 202 
 CVER HZ I         350 29.49         6.9 0.38            109            273 202 
 URE  HZ EP        349 43.25                             113   -0.68 7  281 292 
 URE  HE ES        350 14.07                             113   -1.51 7  281 292 
 URE  HZ I         350 25.08         5.8 0.34            109            281 292 
 DRL03HZ EP        349 45.70                             113    1.11 7  287 353 
 DRL03HE ES        350 17.05                             113    0.29 7  287 353 
 GUY2CHZ EP        349 47.84                             112    1.13 7  300 234 
 GUY2CHE ES   4    350 23.52                             112    2.99 0  300 234 
 GUY2CHZ I         350 27.71         6.0 0.40                           300 234 
 PTGC HZ EP        349 45.63                             111   -1.78 7  311 158 
 PTGC HE ES   3    350 19.09                             111   -2.67 2  311 158 
 PTGC HZ I         350 23.80         7.7 0.28            106            311 158 
 CBOC HZ EP        349 50.72                             109    0.79 7  332 252 
 CBOC HN ES        350 26.82                             109    0.57 7  332 252 
 CBOC HZ I         350 40.08         2.0 0.30            105            332 252 
 PRA  HZ EP        349 56.26                             106   -0.56 6  392 209 
 PRA  HE ES        350 38.74                             106    0.22 6  392 209 
 PRA  HZ I         350 44.70         5.5 0.46            102            392 209 
 ORTC HZ EP        349 57.30                             106    0.13 6  395 216 
 ORTC HE ES   2    350 41.74                             106    2.59 3  395 216 
 ORTC HZ I         350 46.54         3.9 0.40            102            395 216 
 SJC  HZ EP        349 58.27                             105   -0.20 6  406 327 
 SJC  HN ES        350 40.88                             105   -0.58 6  406 327 
 SJC  HZ I         350 55.53         1.5 0.42            102            406 327 
                                                                                
