 2016  920 0723 33.4 L   6.813 -73.160148.4  RSN 10 0.3 2.1LRSN                1
 GAP=134        0.78       2.9     3.2  4.6 -0.6901E+00  0.2549E+01 -0.1513E+01E
 Epicentro: LOS SANTOS - SANTANDER                                             3
 ACTION:UPD 17-08-17 21:14 OP:lp   STATUS:               ID:20160920072333 L   I
 OLDACT:UP  16-09-20 18:03 OP:cog  STATUS:               ID:20160920071734     3
 OLDACT:REG 16-09-20 12:50 OP:and  STATUS:               ID:20160920071734     3
 2016-09-20-0718-00M.COL___347                                                 6
 STAT SP IPHASW D HRMM SECON CODA AMPLIT PERI AZIMU VELO AIN AR TRES W  DIS CAZ7
 BAR2 EZ EP        723 53.26                             170   -0.1410 24.6 186 
 BAR2 EZ ES        724  8.82                             170   -0.1610 24.6 186 
 BAR2 EZ I         724  9.50        30.9 0.21            170           24.6 186 
 BRR  HZ IP     C  723 55.08                             154    0.3310 69.1 298 
 BRR  HN ES        724 11.89                             154    0.5110 69.1 298 
 BRR  HZ I         724 17.09        16.6 0.16            150           69.1 298 
 PAM  EZ EP        723 56.24                             151    0.3210 77.3  41 
 PAM  EN ES   2    724 13.25                             151   -0.21 5 77.3  41 
 PAM  EZ I         724 15.44        22.5 0.50            155           77.3  41 
 RUS  HZ EP        723 57.50                             144   -0.0610  102 175 
 RUS  HN ES        724 16.39                             144    0.0210  102 175 
 RUS  HZ I         724 17.28        18.0 0.26            149            102 175 
 PTB  HZ EP        723 59.79                             133   -0.71 9  146 258 
 PTB  HE ES        724 21.12                             133   -0.50 9  146 258 
 PTB  HZ I         724 28.40        12.4 0.30            133            146 258 
 OCA  HZ EP        724  1.68                             131   -0.11 9  159 354 
 OCA  HN ES   2    724 23.33                             131   -0.58 5  159 354 
 OCA  HZ I         724 26.70        19.3 0.31            132            159 354 
 SPBC HZ EP     D  724  2.23                             130    0.08 9  163 218 
 SPBC HN ES        724 24.53                             130   -0.02 9  163 218 
 SPBC HZ I         724 26.09        22.2 0.14            132            163 218 
 ZAR  HZ EP        724  5.75                             123   -0.09 9  202 292 
 ZAR  HN ES        724 31.31                             123    0.19 9  202 292 
 ZAR  HZ I         724 40.13        10.6 0.25            124            202 292 
 NOR  HZ EP        724  9.84                             119    0.57 8  234 234 
 NOR  HN ES        724 37.34                             119    0.12 8  234 234 
 NOR  HZ I         724 42.92        12.7 0.18            121            234 234 
 URE  HZ EP   3    724 13.34                             114   -1.06 2  282 292 
 URE  HN ES   2    724 46.15                             114   -0.21 4  282 292 
 URE  HZ I         724 48.97         7.2 0.12            115            282 292 
                                                                                
