 2012  320 0419 18.6 L   6.782 -73.146146.5  RSN 19 0.5 2.8LRSN                1
 GAP=114        0.86       3.1     4.1  5.5 -0.1858E+01  0.5721E+01  0.1150E+01E
 ACTION:UP  12-03-31 23:21 OP:EP   STATUS:               ID:20120320041918 L   I
 2012-03-20-0417-59S.COL___203                                                 6
 STAT SP IPHASW D HRMM SECON CODA AMPLIT PERI AZIMU VELO SNR AR TRES W  DIS CAZ7
 BAR2 SZ EP        419 38.41                             171     0.210   21 191 
 BAR2 SZ ES   1    419 53.21                             171    -0.4 7   21 191 
 BAR2 SZ I         419 54.78       181.8 0.33                            21 191 
 BRR  HZ IP     D  419 40.23                             152     0.410   72 300 
 BRR  HZ I         419 40.43       306.4 0.12                            72 300 
 BRR  HE ES   1    419 57.40                             152     1.0 7   72 300 
 PAM  SZ EP   1    419 41.18                             151     0.2 7   79  39 
 PAM  SN ES   2    419 58.46                             151     0.1 5   79  39 
 RUS  HZ EP        419 42.33                             145     0.110   99 176 
 RUS  HN ES   1    420  0.59                             145    -0.1 7   99 176 
 RUS  HZ I         420  2.12        59.1 0.44                            99 176 
 PTB  HZ EP        419 44.77                             132    -0.8 9  147 260 
 PTB  HN ES   1    420  6.12                             132    -0.5 7  147 260 
 PTB  HZ I         420 13.40        40.6 0.23                           147 260 
 OCA  SZ EP        419 46.89                             130    -0.2 9  162 353 
 OCA  SZ ES   2    420  9.32                             130    -0.1 5  162 353 
 YOP  SE ES   2    420 11.69                             127    -0.1 4  177 153 
 ZAR  HZ EP   1    419 50.62                             123    -0.5 6  205 293 
 ZAR  HN ES   2    420 16.13                             123    -0.4 4  205 293 
 ZAR  HZ I         420 22.12        51.9 0.36                           205 293 
 NOR  SZ EP        419 54.46                             119     0.3 8  234 235 
 NOR  SN ES   1    420 21.32                             119    -0.7 6  234 235 
 ROSC BZ EP   2    419 57.15                             117     0.6 4  251 211 
 ROSC BN ES   2    420 25.50                             117    -0.7 4  251 211 
 ROSC BZ I         420 32.75        48.0 0.45                           251 211 
 CVER SZ EP   2    419 58.31                             115    -0.4 4  270 202 
 CVER SZ ES   2    420 29.98                             115    -0.1 4  270 202 
 HEL  HZ EP   1    419 59.14                             115     0.4 6  272 256 
 HEL  HN ES   1    420 30.88                             115     0.8 6  272 256 
 HEL  HZ I         420 37.58        28.1 0.27                           272 256 
 VIL  SZ EP   2    420  2.07                             112     0.3 4  301 192 
 VIL  SN ES   2    420 35.96                             112     0.4 4  301 192 
 VIL  SZ I         420 38.77        11.9 0.30                           301 192 
 GUY  SN ES   2    420 36.53                             112     0.0 4  302 235 
 GUY  SZ I         420 46.34        36.6 0.41                           302 235 
 RREF HZ EP   2    420  4.90                             111     0.3 3  321 230 
 RREF HN ES   2    420 41.18                             111     0.7 3  321 230 
 RREF HZ I         420 47.59        35.9 0.52                           321 230 
 DBB  SZ EP   2    420  6.41                             110     0.3 3  340 275 
 TOL  SZ EP   2    420  7.31                             110     0.6 3  342 225 
 TOL  SZ ES   2    420 44.80                             110     0.6 3  342 225 
 COD  HZ EP   2    420  6.32                             109    -0.9 3  350 355 
 COD  HN ES   2    420 44.69                             109    -0.4 3  350 355 
 COD  HZ I         420 55.10        21.5 0.48                           350 355 
 PRA  HZ EP        420 11.66                             107    -0.2 6  390 210 
 PRA  HN ES   2    420 53.21                             107    -0.3 3  390 210 
                                                                                
