 2010  920 0802 32.5 L   6.780 -73.050146.9  RSN 15 0.5 3.2LRSN                1
 GAP=193        1.15       5.9     8.6  7.6 -0.1496E+02  0.1285E+02  0.1857E+02E
 Epicentro: LOS SANTOS - SANTANDER                                             3
 ACTION:UP  11-02-18 11:04 OP:tino STATUS:               ID:20100920080232 L   I
 2010-09-20-0800-17S.COL___118                                                 6
 STAT SP IPHASW D HRMM SECON CODA AMPLIT PERI AZIMU VELO SNR AR TRES W  DIS CAZ7
 BAR2 SZ IP        8 2 52.40                             170     0.110   26 215 
 BAR2 SZ ES   1    8 3  7.22                             170    -0.5 7   26 215 
 BAR2 SZ I         8 3  8.70       357.7 0.22                            26 215 
 GIR2 SZ IP        8 2 52.47                             165     0.010   37 334 
 GIR2 SZ ES   1    8 3  8.39                             165     0.4 7   37 334 
 URB  SZ EP        8 2 53.79                             157     0.510   60 328 
 BRR  HZ IP     C  8 2 54.23                             149    -0.210   82 296 
 BRR  HZ I         8 2 54.54       578.0 0.15                            82 296 
 BRR  HN ES   1    8 3 11.56                             149     0.1 7   82 296 
 RUS  HZ EP        8 2 56.28                             145     0.110   98 182 
 RUS  HZ I         8 3 16.35       170.4 0.57                            98 182 
 OCA  SZ EP        8 3  0.66                             129    -0.6 9  164 350 
 OCA  SZ I         8 3 29.23       125.8 0.38                           164 350 
 NOR  HZ EP        8 3  8.40                             118    -0.7 8  242 236 
 CHI  HZ EP        8 3 10.24                             117    -0.1 8  250 198 
 CHI  HZ I         8 3 13.08        53.8 0.52                           250 198 
 CHI  HE ES   2    8 3 39.58                             117    -0.3 4  250 198 
 ROSC BZ EP        8 3 11.93                             116     0.8 8  257 213 
 ROSC BZ I         8 3 50.07        89.2 0.59                           257 213 
 CVER SZ EP        8 3 13.19                             115     0.0 8  274 204 
 CVER SZ I         8 3 15.42       105.0 0.52                           274 204 
 HEL  HZ EP        8 3 14.18                             114     0.3 7  282 257 
 HEL  HZ I         8 3 51.42        43.6 0.30                           282 257 
 GUY  SZ EP        8 3 17.97                             112     0.9 7  309 236 
 GUY  SN ES   1    8 3 51.39                             112    -0.4 5  309 236 
 GUY  SZ I         8 3 58.03       161.9 0.33                           309 236 
 RREF HZ EP        8 3 19.35                             111    -0.1 7  329 231 
 RREF HE ES   1    8 3 56.25                             111     0.2 5  329 231 
 RREF HZ I         8 4  0.74        64.3 0.41                           329 231 
 TOL  SZ EP        8 3 21.72                             109     0.2 6  350 226 
 ANIL HZ EP        8 3 21.98                             108    -1.1 6  363 226 
 ANIL HE ES   1    8 4  2.40                             108    -0.1 5  363 226 
 ANIL HZ I         8 4  8.14       109.9 0.21                           363 226 
                                                                                
