 2015  620 0514 52.7 L   6.805 -73.115147.2  RSN 11 0.4 1.9LRSN                1
 GAP=186        0.99       3.2     4.7  5.5 -0.1231E+01  0.9533E+01  0.2418E+01E
 Epicentro: LOS SANTOS - SANTANDER                                             3
 ACTION:UPD 15-09-10 22:13 OP:cam  STATUS:               ID:20150620051452 L   I
 OLDACT:REG 15-06-20 12:42 OP:drio STATUS:               ID:20150620050748     3
 2015-06-20-0507-48M.COL___325                                                 6
 STAT SP IPHASW D HRMM SECON CODA AMPLIT PERI AZIMU VELO AIN AR TRES W  DIS CAZ7
 BAR2 EZ EP        515 12.81                             170    0.3210 24.6 197 
 BAR2 EZ ES        515 27.71                             170   -0.2410 24.6 197 
 BAR2 EZ I         515 28.97        16.0 0.16            168           24.6 197 
 BRR  HZ EP        515 14.67                             152    0.5510 73.9 297 
 BRR  HN ES        515 31.64                             152    0.7910 73.9 297 
 BRR  HZ I         515 34.40         9.2 0.18            149           73.9 297 
 RUS  HZ EP        515 16.58                             144    0.0010  101 178 
 RUS  HN ES        515 34.97                             144   -0.2610  101 178 
 RUS  HZ I         515 36.63         4.2 0.26            146            101 178 
 OCA  HZ EP        515 20.42                             130   -0.65 9  160 352 
 OCA  HN ES        515 42.58                             130   -0.65 9  160 352 
 OCA  HZ I         515 47.22        13.0 0.26            131            160 352 
 ZAR  HZ EP        515 25.16                             122   -0.34 8  207 292 
 ZAR  HE ES        515 51.37                             122    0.26 8  207 292 
 ZAR  HZ I         515 56.65         8.8 0.30            122            207 292 
 NOR  HZ EP        515 29.21                             118    0.41 8  238 235 
 NOR  HE ES        515 56.81                             118   -0.17 8  238 235 
 NOR  HZ I         516  0.65         7.1 0.60            119            238 235 
 HEL  HZ EP        515 33.49                             115    0.17 7  275 256 
 HEL  HE ES        516  4.53                             115   -0.50 7  275 256 
 HEL  HZ I         516 11.07         4.0 0.34            115            275 256 
 GUY2CHZ EP        515 36.80                             112    0.12 7  304 235 
 GUY2CHN ES        516 10.71                             112   -0.30 7  304 235 
 GUY2CHZ I         516 19.39         4.3 0.44                           304 235 
 CBOC HZ EP        515 40.25                             110    0.23 7  337 252 
 TOL  SZ EP        515 41.39                             109    0.10 6  346 225 
 TOL  SE ES        516 18.66                             109   -0.56 6  346 225 
 TOL  SZ I         516 24.75         2.6 0.46            110            346 225 
 PRA  HZ EP        515 47.27                             107    0.79 6  394 210 
 PRA  HN ES        516 28.18                             107   -0.27 6  394 210 
 PRA  HZ I         516 35.63         3.0 0.28            108            394 210 
                                                                                
