 2017  120 0314  1.4 L   6.762 -73.160147.4  RSN  6 0.3 1.2LRSN                1
 GAP=136        0.72       4.5     3.9  5.6  0.6674E+01 -0.9018E+00 -0.4871E+01E
 Epicentro: LOS SANTOS - SANTANDER                                             3
 ACTION:UPD 17-05-22 16:01 OP:jn   STATUS:               ID:20170120031401 L   I
 OLDACT:UP  17-01-20 15:02 OP:dani STATUS:               ID:20170120030746     3
 OLDACT:REG 17-01-20 12:25 OP:dani STATUS:               ID:20170120030746     3
 2017-01-20-0308-00M.COL___319                                                 6
 STAT SP IPHASW D HRMM SECON CODA AMPLIT PERI AZIMU VELO AIN AR TRES W  DIS CAZ7
 BAR2 EZ EP        314 21.12                             172   -0.0510 18.9 187 
 BAR2 EZ ES        314 36.07                             172   -0.5010 18.9 187 
 BAR2 EZ I         314 36.94         3.9 0.34            170           18.9 187 
 BRR  HZ EP        314 22.94                             153    0.1510 71.9 302 
 BRR  HN ES        314 39.93                             153    0.4810 71.9 302 
 BRR  HZ I         314 43.84         4.9 0.15            149           71.9 302 
 PAM  EZ EP        314 24.03                             150   -0.0410 81.7  39 
 PAM  EZ I         314 42.69         2.4 0.19            136           81.7  39 
 RUS  HZ EP        314 25.24                             145    0.1910 96.5 175 
 RUS  HN ES        314 43.60                             145    0.1210 96.5 175 
 RUS  HZ I         314 46.01         1.4 0.38            147           96.5 175 
 PTB  HZ EP        314 28.08                             133   -0.23 9  145 260 
 PTB  HN ES        314 49.35                             133    0.07 9  145 260 
 PTB  HZ I         314 50.24         2.3 0.44            135            145 260 
 ZAR  HE ES        314 59.09                             123   -0.29 9  204 293 
                                                                                
