 2013  820 0618 42.5 L   6.796 -73.155145.1  RSN  8 0.4 2.4LRSN                1
 GAP=135        0.86       2.8     3.9  5.7 -0.1970E+01  0.5204E+01 -0.1311E+01E
 Epicentro: LOS SANTOS - SANTANDER                                             3
 ACTION:UPD 14-01-14 09:05 OP:ep   STATUS:               ID:20130820061842 L   I
 OLDACT:UP  13-08-20 14:21 OP:mh   STATUS:               ID:20130820061735     3
 OLDACT:REG 13-08-20 14:02 OP:mh   STATUS:               ID:20130820061735     3
 2013-08-20-0617-35M.COL___198                                                 6
 STAT SP IPHASW D HRMM SECON CODA AMPLIT PERI AZIMU VELO AIN AR TRES W  DIS CAZ7
 BAR2 SZ EP        619  2.26                             171    0.2010 22.8 188 
 BAR2 SZ ES   1    619 17.28                             171   -0.03 7 22.8 188 
 BAR2 SZ I         619 18.42        31.1 0.34            172           22.8 188 
 BRR  HZ IP     C  619  4.13                             153    0.5710 70.5 299 
 BRR  HN ES        619 20.15                             153    0.1810 70.5 299 
 BRR  HN I         619 22.31        52.2 0.22            151           70.5 299 
 PAM  SZ EP        619  5.01                             150    0.2810 78.4  40 
 PAM  SN ES        619 22.24                             150    0.1910 78.4  40 
 PAM  SN I         619 23.23        41.3 0.50            151           78.4  40 
 RUS  HZ EP        619  6.06                             144   -0.1310  100 175 
 RUS  HN ES        619 24.12                             144   -0.5210  100 175 
 RUS  HN I         619 26.42        25.9 0.18            147            100 175 
 PTB  HZ EP        619  8.89                             132   -0.45 9  147 259 
 PTB  HN ES        619 30.04                             132   -0.21 9  147 259 
 OCA  HZ EP   1    619 10.33                             129   -0.48 7  161 354 
 OCA  HN ES        619 32.97                             129    0.09 9  161 354 
 OCA  HN I         619 42.17        85.0 0.22            130            161 354 
 NOR  HZ EP   1    619 18.51                             119    0.41 6  234 234 
 NOR  HE ES        619 46.26                             119    0.42 8  234 234 
 NOR  HE I         619 51.44        28.7 0.18            120            234 234 
 SML  HZ EP   1    619 18.91                             117   -0.19 6  244 336 
 SML  HN ES        619 47.03                             117   -0.61 8  244 336 
                                                                                
