 2017  520 0333 10.0 L   6.747 -73.122149.3  RSN 11 0.4 2.1LRSN                1
 GAP=116        0.96       3.6     3.6  5.5 -0.1131E-01  0.8281E+00  0.5138E+01E
 Epicentro: LOS SANTOS - SANTANDER                                             3
 ACTION:UPD 17-06-16 13:37 OP:jn   STATUS:               ID:20170520033310 L   I
 OLDACT:UP  17-05-20 15:05 OP:cog  STATUS:               ID:20170520032736     3
 OLDACT:REG 17-05-20 12:22 OP:dnl  STATUS:               ID:20170520032736     3
 2017-05-20-0328-00M.COL___359                                                 6
 STAT SP IPHASW D HRMM SECON CODA AMPLIT PERI AZIMU VELO AIN AR TRES W  DIS CAZ7
 BRR  HZ EP        333 31.71                             151   -0.0610 76.3 301 
 BRR  HN ES        333 49.00                             151    0.2110 76.3 301 
 BRR  HZ I         333 49.72        25.1 0.16            154           76.3 301 
 PAM  EZ EP        333 32.82                             150    0.1010 80.4  35 
 PAM  EN ES        333 50.37                             150   -0.1210 80.4  35 
 PAM  EZ I         333 52.55        26.3 0.72            156           80.4  35 
 RUS  HZ EP        333 33.43                             146   -0.2110 94.6 177 
 RUS  HN ES        333 52.01                             146   -0.1010 94.6 177 
 RUS  HZ I         333 53.00        21.6 0.26            145           94.6 177 
 PTB  HZ EP   9    333 36.43                             132   -0.92 0  149 261 
 PTB  HN ES        333 56.74                             133   -1.06 9  149 261 
 PTB  HZ I         334  4.32        12.9 0.42            134            149 261 
 SPBC HZ EP        333 38.46                             130   -0.00 9  160 221 
 SPBC HN ES        334  1.01                             130    0.31 9  160 221 
 SPBC HZ I         334  7.23        23.7 0.64            131            160 221 
 YPLC HZ EP        333 39.69                             128    0.29 9  170 151 
 YPLC HE ES   3    334  3.62                             128    1.26 2  170 151 
 YPLC HZ I         334  7.58        10.6 0.26            129            170 151 
 ZAR  HZ EP        333 43.49                             122    0.39 8  209 293 
 ZAR  HN ES        334  8.39                             122   -0.57 8  209 293 
 NOR  HZ EP        333 45.53                             119   -0.23 8  233 236 
 NOR  HN ES        334 13.60                             119   -0.09 8  233 236 
 NOR  HZ I         334 18.79        12.9 0.24            120            233 236 
 CHI  HZ EP        333 47.23                             118   -0.09 8  244 196 
 CHI  HN ES   3    334 17.59                             118    1.12 2  244 196 
 CHI  HZ I         334 19.74         4.1 0.52            119            244 196 
 HEL  HZ EP        333 51.14                             115    0.67 8  273 257 
 HEL  HN ES   3    334 23.05                             115    0.98 2  273 257 
 PTGC HZ EP        333 52.39                             112   -0.86 7  302 159 
 PTGC HN ES   4    334 25.51                             112   -1.52 0  302 159 
 PTGC HZ I         334 30.15         7.7 0.46            114            302 159 
                                                                                
