 2013  520 0200  1.0 L   6.782 -73.159140.8  RSN  8 0.4 1.8LRSN                1
 GAP= 73        1.14       4.5     5.0  6.9 -0.1145E+01 -0.1830E+01  0.3395E+01E
 Epicentro: LOS SANTOS - SANTANDER                                             3
 ACTION:UPD 13-06-20 09:52 OP:ep   STATUS:               ID:20130520020001 L   I
 2013-05-20-0158-51M.COL___218                                                 6
 STAT SP IPHASW D HRMM SECON CODA AMPLIT PERI AZIMU VELO AIN AR TRES W  DIS CAZ7
 BAR2 SZ IP     D  2 0 20.18                             171    0.1510 21.1 187 
 BAR2 SZ I         2 0 20.66        12.9 0.16            171           21.1 187 
 BAR2 SZ ES        2 0 34.82                             171   -0.0210 21.1 187 
 GIR2 SZ EP        2 0 20.33                             166    0.1510 33.0 353 
 GIR2 SZ I         2 0 20.42         9.1 0.26            166           33.0 353 
 GIR2 SZ ES        2 0 34.85                             166   -0.2510 33.0 353 
 BRR  HZ IP     C  2 0 22.08                             152    0.4410 70.9 301 
 BRR  HN ES        2 0 38.63                             152    0.9310 70.9 301 
 BRR  HN I         2 0 43.80        25.4 0.16            151           70.9 301 
 PAM  SZ EP        2 0 23.26                             149    0.3710 79.9  39 
 PAM  SN ES        2 0 39.79                             149   -0.1310 79.9  39 
 RUS  HZ EP        2 0 24.22                             143    0.0510 98.7 175 
 RUS  HN ES        2 0 41.79                             143   -0.4210 98.7 175 
 RUS  HN I         2 0 43.20         7.8 0.24            145           98.7 175 
 PTB  HZ EP        2 0 26.84                             131   -0.60 9  146 259 
 PTB  HN ES        2 0 47.83                             131   -0.20 9  146 259 
 PTB  HN I         2 0 50.16        15.1 0.28            131            146 259 
 TAM  HZ EP        2 0 28.57                             129    0.15 9  156 104 
 OCA  HN ES        2 0 50.22                             128   -0.84 9  162 354 
                                                                                
