 2011  420 0724 42.6 L   6.735 -73.107143.9  RSN  5 0.2 1.5LRSN                1
 GAP=174        0.57       9.8     6.9  6.7  0.1834E+01 -0.1850E+02 -0.3451E+02E
 Epicentro: JORDAN - SANTANDER                                                 3
 ACTION:UP  11-06-22 15:31 OP:REBC STATUS:               ID:20110420072442 L   I
 2011-04-20-0722-42S.COL___138                                                 6
 STAT SP IPHASW D HRMM SECON CODA AMPLIT PERI AZIMU VELO SNR AR TRES W  DIS CAZ7
 BAR2 SZ ES   1    725 16.73                             172    -0.2 7   18 208 
 BAR2 SZ I         725 18.25        11.0 0.30                            18 208 
 BTL  SZ EP        725  2.17                             169     0.110   27 319 
 BTL  SZ ES   1    725 17.36                             169     0.1 7   27 319 
 BRR  HZ EP        725  3.95                             150     0.010   78 302 
 BRR  HN ES   1    725 20.70                             150     0.1 7   78 302 
 BRR  HZ I         725 25.16         6.4 0.12                            78 302 
 PAM  SZ EP        725  5.05                             149     0.210   81  34 
 PAM  SZ I         725  5.24         3.8 0.19                            81  34 
 GRA  SZ EP        725  7.88                             135    -0.310  132  15 
 GRA  SZ I         725 30.08         3.3 0.26                           132  15 
                                                                                
