 2015  920 0602 21.8 L   6.695 -73.244139.8  RSN  8 0.4 1.7LRSN                1
 GAP=152        1.00       3.8     5.0  6.1  0.4153E+01  0.4336E+01 -0.7293E+01E
 Epicentro: BARICHARA - SANTANDER                                              3
 ACTION:UPD 15-10-28 16:27 OP:cam  STATUS:               ID:20150920060221 L   I
 OLDACT:REG 15-09-20 12:24 OP:drio STATUS:               ID:20150920055748     3
 2015-09-20-0557-48M.COL___355                                                 6
 STAT SP IPHASW D HRMM SECON CODA AMPLIT PERI AZIMU VELO AIN AR TRES W  DIS CAZ7
 BAR2 EZ EP        6 2 40.76                             174    0.2110 13.3 149 
 BAR2 EZ ES        6 2 54.75                             174   -0.4210 13.3 149 
 BAR2 EZ I         6 2 56.24        13.4 0.18            178           13.3 149 
 BRR  HZ EP        6 2 42.61                             152    0.4310 68.9 311 
 BRR  HN ES        6 2 58.88                             152    0.8110 68.9 311 
 BRR  HZ I         6 3  1.29         8.9 0.50            151           68.9 311 
 RUS  HZ EP        6 2 44.49                             145    0.2410 90.5 169 
 RUS  HN ES        6 3  1.45                             145   -0.3110 90.5 169 
 RUS  HZ I         6 3  3.60         4.1 0.22            150           90.5 169 
 PTB  HZ EP        6 2 47.03                             133   -0.1210  135 263 
 PTB  HN ES        6 3  6.82                             133   -0.0910  135 263 
 PTB  HZ I         6 3  8.02         5.6 0.12            135            135 263 
 OCA  HZ EP        6 2 50.82                             126    0.12 9  171 357 
 OCA  HN ES        6 3 12.62                             126   -0.61 9  171 357 
 OCA  HZ I         6 3 17.59        17.2 0.20            128            171 357 
 ZAR  HZ EP        6 2 53.51                             122    0.17 9  199 296 
 ZAR  HN ES        6 3 17.66                             122   -0.26 9  199 296 
 ZAR  HZ I         6 3 24.97         5.6 0.36            123            199 296 
 SML  HZ EP        6 2 59.11                             115    0.29 8  250 339 
 SML  HE ES        6 3 27.61                             115   -0.07 8  250 339 
 URE  HZ EP        6 3  1.22                             113   -0.77 7  278 295 
                                                                                
