 2011  920 0748 21.7 L   6.834 -73.225120.4  RSN  4 0.1 1.2LRSN                1
 GAP=163        0.39       9.4    66.3  5.6  0.5732E+03  0.3135E+02 -0.7754E+00E
 Epicentro: ZAPATOCA - SANTANDER                                               3
 ACTION:UPD 12-07-13 15:58 OP:ep   STATUS:               ID:20110920074821 L   I
 2011-09-20-0740-00M.COL___167                                                 6
 STAT SP IPHASW D HRMM SECON CODA AMPLIT PERI AZIMU VELO AIN AR TRES W  DIS CAZ7
 BTL  SZ EP   1    748 38.05                             175   -0.03 7 10.5 333 
 BAR2 SZ EP        748 38.31                             167   -0.1010 27.1 170 
 BAR2 SZ ES   1    748 51.57                             167    0.14 7 27.1 170 
 BAR2 SZ I         748 52.96        16.0 0.22                          27.1 170 
 GIR2 SZ EP   1    748 38.25                             166   -0.02 7 27.3   7 
 RUS  HZ EP   1    748 43.70                             136    0.24 7  105 171 
 RUS  HZ I         748 44.48         1.0 0.18                           105 171 
 RUS  HE ES   1    749  0.26                             136   -0.16 7  105 171 
                                                                                
