 2014  820 0531 13.7 L   6.748 -73.156147.5  RSN  5 0.3 1.4LRSN                1
 GAP=232        0.71       4.2     4.6  5.3  0.4109E+01  0.3063E+01  0.1966E+01E
 Epicentro: LOS SANTOS - SANTANDER                                             3
 ACTION:UPD 14-09-15 21:51 OP:nd   STATUS:               ID:20140820053113 L   I
 OLDACT:REG 14-08-20 12:33 OP:stll STATUS:               ID:20140820052810     3
 2014-08-20-0528-10M.COL___257                                                 6
 STAT SP IPHASW D HRMM SECON CODA AMPLIT PERI AZIMU VELO AIN AR TRES W  DIS CAZ7
 BAR2 SZ EP        531 33.36                             173   -0.1310 17.5 190 
 BAR2 SZ ES        531 48.84                             173   -0.0410 17.5 190 
 BAR2 SZ I         531 50.16         5.9 0.36            172           17.5 190 
 BRR  HZ EP        531 35.21                             152    0.0110 73.1 303 
 BRR  HN ES        531 52.22                             152    0.2910 73.1 303 
 BRR  HZ I         531 56.24         3.1 0.40            153           73.1 303 
 RUS  HZ EP        531 36.96                             146   -0.3210 94.9 175 
 RUS  HN ES        531 55.68                             146    0.0510 94.9 175 
 RUS  HZ I         531 58.75         2.8 0.30            148           94.9 175 
 PTB  HZ EP        531 40.87                             133    0.20 9  146 261 
 PTB  HN ES        532  1.08                             133   -0.58 9  146 261 
 PTB  HZ I         532  3.31         3.7 0.60            134            146 261 
 SPBC HZ EP        531 42.18                             130    0.28 9  158 220 
 SPBC HN ES        532  4.12                             130    0.27 9  158 220 
 SPBC HZ I         532  6.96         5.4 0.34            132            158 220 
                                                                                
