 2011  220 0020 34.2 L   6.833 -73.129142.5  RSN  9 0.4 1.8LRSN                1
 GAP=137        0.85       3.5     6.9  9.9 -0.8097E+01  0.2355E+02  0.4459E+01E
 Epicentro: LOS SANTOS - SANTANDER                                             3
 ACTION:UP  11-03-28 15:09 OP:jfem STATUS:               ID:20110220002034 L   I
 2011-02-20-0020-00M.COL___139                                                 6
 STAT SP IPHASW D HRMM SECON CODA AMPLIT PERI AZIMU VELO SNR AR TRES W  DIS CAZ7
 BAR2 SZ EP   1    020 53.54                             169     0.0 7   27 193 
 BAR2 SZ I         020 54.13        14.9 0.13                            27 193 
 RUS  HZ EP   1    020 58.06                             142     0.2 7  104 177 
 RUS  HN ES   1    021 16.06                             142    -0.3 7  104 177 
 RUS  HZ I         021 19.59         5.0 0.62                           104 177 
 GRA  SZ EP   1    020 58.50                             137    -0.3 7  122  17 
 GRA  SZ ES   1    021 17.64                             137    -0.4 7  122  17 
 GRA  SZ I         021 19.97         8.4 0.31                           122  17 
 OCA  SZ EP   1    021  2.40                             129     0.5 7  157 352 
 OCA  SZ ES   1    021 24.10                             129     0.5 7  157 352 
 OCA  SZ I         021 27.16         6.8 0.42                           157 352 
 YOP  SZ EP   1    021  4.42                             125     0.1 7  181 154 
 NOR  SZ EP   1    021 10.30                             117     0.1 6  238 234 
 NOR  SN ES   1    021 37.82                             117    -0.4 6  238 234 
 CHI  HZ EP   1    021 11.69                             116    -0.5 6  253 195 
 CHI  HE ES   1    021 42.64                             116     0.9 6  253 195 
 CHI  HZ I         021 49.13         3.0 0.32                           253 195 
 HEL  HZ EP   2    021 13.75                             114    -0.8 4  275 255 
 HEL  HZ I         021 52.09         5.2 0.36                           275 255 
 RREF HZ EP   1    021 20.37                             110    -0.3 5  326 229 
 RREF HN ES   1    021 57.23                             110     0.4 5  326 229 
 RREF HZ I         022  2.85         3.1 0.14                           326 229 
                                                                                
