 2016 1020 0439 50.4 L   6.734 -73.201143.8  RSN  4 0.3 1.3LRSN                1
 GAP=226        0.71       5.7     6.5  7.0  0.2015E+02  0.1039E+02  0.9972E+01E
 Epicentro: VILLANUEVA - SANTANDER                                             3
 ACTION:UPD 16-11-09 19:21 OP:rebc STATUS:               ID:20161020043950 L   I
 OLDACT:REG 16-10-20 13:13 OP:and  STATUS:               ID:20161020043745     3
 2016-10-20-0438-00M.COL___341                                                 6
 STAT SP IPHASW D HRMM SECON CODA AMPLIT PERI AZIMU VELO AIN AR TRES W  DIS CAZ7
 BRR  HZ EP   2    440 11.04                             153   -0.17 5 69.9 306 
 BRR  HE ES        440 27.72                             153    0.2410 69.9 306 
 RUS  HZ EP   2    440 13.19                             145   -0.25 5 94.0 172 
 RUS  HN ES        440 31.28                             145   -0.1610 94.0 172 
 RUS  HZ I         440 32.20         2.4 0.34            144           94.0 172 
 PTB  HZ EP        440 16.33                             133   -0.17 9  140 261 
 PTB  HN ES        440 36.52                             133   -0.37 9  140 261 
 PTB  HZ I         440 38.56         2.8 0.13            132            140 261 
 SPBC HZ EP        440 18.21                             130    0.41 9  154 219 
 SPBC HN ES   2    440 39.98                             130    0.77 5  154 219 
 SPBC HZ I         440 41.22         3.7 0.12            129            154 219 
                                                                                
