 2014  520 0657 21.0 L   6.704 -73.223150.0  RSN  4 0.4 1.4LRSN                1
 GAP=221        0.94       8.6     8.1 11.4  0.3441E+02  0.9717E+01 -0.2014E+01E
 Epicentro: VILLANUEVA - SANTANDER                                             3
 OLDACT:REG 14-05-20 12:51 OP:spq  STATUS:               ID:20140520064811     3
 ACTION:UPD 15-03-16 16:59 OP:nd   STATUS:               ID:20140520065721 L   I
 OLDACT:UP  14-05-20 19:26 OP:nlst STATUS:               ID:20140520065721 L   3
 OLDACT:UP  14-05-20 18:42 OP:fm   STATUS:               ID:20140520064811     3
 2014-05-20-0648-11M.COL___251                                                 6
 STAT SP IPHASW D HRMM SECON CODA AMPLIT PERI AZIMU VELO AIN AR TRES W  DIS CAZ7
 BRR  HN ES   1    657 59.60                             154    0.28 7 70.0 310 
 RUS  HZ EP   1    657 45.20                             147    0.70 7 91.1 170 
 RUS  HE ES        658  2.48                             147   -0.3610 91.1 170 
 RUS  HZ I         658  5.99         4.9 1.80            148           91.1 170 
 PTB  HZ EP        657 46.94                             135   -0.46 9  138 262 
 PTB  HN ES        658  7.98                             135   -0.03 9  138 262 
 PTB  HZ I         658 15.42         3.4 0.38            134            138 262 
 SPBC HN ES   1    658 10.58                             133    0.51 7  150 219 
                                                                                
