 2017  220 0242 44.7 L   6.763 -73.154140.0  RSN  8 0.5 1.7LRSN                1
 GAP=137        1.09       4.0     4.4  6.7  0.3327E+00  0.8107E+01  0.4817E+01E
 Epicentro: LOS SANTOS - SANTANDER                                             3
 ACTION:UPD 17-05-24 15:38 OP:jn   STATUS:               ID:20170220024244 L   I
 OLDACT:UP  17-02-20 14:36 OP:dani STATUS:               ID:20170220023741d    3
 OLDACT:UP  17-02-20 14:35 OP:dani STATUS:               ID:20170220023741d    3
 OLDACT:DUP 17-02-20 14:31 OP:dani STATUS:               ID:20170220023741d    3
 OLDACT:UP  17-02-20 14:27 OP:dani STATUS:               ID:20170220023740     3
 OLDACT:REG 17-02-20 12:19 OP:dani STATUS:               ID:20170220023740     3
 2017-02-20-0238-00M.COL___351                                                 6
 STAT SP IPHASW D HRMM SECON CODA AMPLIT PERI AZIMU VELO AIN AR TRES W  DIS CAZ7
 BAR2 EZ EP     C  243  3.65                             172    0.0710 19.1 189 
 BAR2 EZ ES        243 18.21                             172   -0.0810 19.1 189 
 BAR2 EZ I         243 19.39         9.4 0.34            168           19.1 189 
 BRR  HZ EP        243  5.52                             151    0.1910 72.4 302 
 BRR  HE ES        243 21.65                             151    0.2610 72.4 302 
 BRR  HZ I         243 27.18        11.5 0.14            150           72.4 302 
 PAM  HZ EP        243  6.61                             148    0.0410 81.2  38 
 PAM  EE ES        243 23.26                             148   -0.3510 81.2  38 
 PAM  HZ I         243 24.08        10.6 0.28            154           81.2  38 
 RUS  HZ EP        243  7.66                             144    0.0410 96.5 175 
 RUS  HN ES        243 25.79                             144    0.3210 96.5 175 
 RUS  HZ I         243 27.04         4.8 0.20            144           96.5 175 
 PTB  HZ EP        243 10.31                             131   -0.76 9  146 260 
 PTB  HN ES        243 30.61                             131   -1.01 9  146 260 
 PTB  HZ I         243 35.71         7.5 0.10            130            146 260 
 ZAR  HZ EP        243 17.19                             121    0.31 9  205 293 
 ZAR  HE ES        243 42.74                             121    0.79 9  205 293 
 ZAR  HZ I         243 47.75         9.1 0.26            121            205 293 
 NOR  HZ EP   3    243 17.57                             117   -2.21 2  232 235 
 NOR  HN ES        243 47.48                             117    0.35 8  232 235 
 NOR  HZ I         243 51.72         5.4 0.12            118            232 235 
 CHI  HZ EP        243 21.79                             116    0.14 8  244 195 
 CHI  HN ES        243 50.49                             116    0.05 8  244 195 
 CHI  HZ I         244  0.93         1.4 0.34            117            244 195 
                                                                                
