 2011  920 0811 31.1 L   6.770 -73.126148.8  RSN  8 0.4 2.0LRSN                1
 GAP=185        0.77       3.1     5.3  5.4  0.1771E+01  0.6553E+01  0.2005E+01E
 Epicentro: LOS SANTOS - SANTANDER                                             3
 ACTION:UPD 12-07-13 15:58 OP:ep   STATUS:               ID:20110920081131 L   I
 2011-09-20-0810-53S.COL___165                                                 6
 STAT SP IPHASW D HRMM SECON CODA AMPLIT PERI AZIMU VELO AIN AR TRES W  DIS CAZ7
 BAR2 SZ EP        811 50.87                             172   -0.2110 20.6 198 
 BAR2 SZ I         811 51.37        13.7 0.20                          20.6 198 
 BAR2 SZ ES        812  7.00                             172    0.3710 20.6 198 
 BRR  HZ EP        811 53.02                             152    0.2110 74.7 300 
 BRR  HE ES   1    812  9.85                             152    0.13 7 74.7 300 
 BRR  HZ I         812 22.39        47.6 0.35                          74.7 300 
 RUS  HZ EP   1    811 54.26                             145   -0.68 7 97.1 177 
 RUS  HZ I         811 55.58         4.4 0.17                          97.1 177 
 RUS  HE ES   1    812 13.11                             145   -0.40 7 97.1 177 
 OCA  SZ EP        812  0.08                             130    0.06 9  164 353 
 OCA  SZ ES   1    812 22.11                             130   -0.43 7  164 353 
 OCA  SZ I         812 26.55         8.6 0.30                           164 353 
 ZAR  HE ES   1    812 29.93                             123    0.09 6  207 293 
 ZAR  HZ I         812 35.56        11.4 0.34                           207 293 
 CHI  HZ EP        812  9.30                             118    0.58 8  246 196 
 CHI  HN ES   1    812 38.31                             118    0.27 6  246 196 
 CHI  HZ I         812 46.32         2.7 0.29                           246 196 
 HEL  HZ EP   1    812 12.10                             115    0.45 6  273 257 
 HEL  HN ES   1    812 42.53                             115   -0.72 6  273 257 
 HEL  HZ I         812 50.37         4.4 0.31                           273 257 
 PRA  HZ EP   1    812 24.20                             107   -0.35 4  390 210 
 PRA  HE ES   1    813  6.05                             107   -0.16 4  390 210 
 PRA  HZ I         813 13.39        10.0 0.30                           390 210 
                                                                                
