 2010  720 0826 36.0 L   6.475 -73.660107.5  RSN  5 0.3 1.4LRSN                1
 GAP=220        0.69       8.0    14.4 10.3  0.8565E+02  0.7430E+02  0.1623E+02E
 Epicentro: SANTA HELENA DEL OPON - SANTANDER                                  3
 ACTION:UPD 10-12-01 15:19 OP:pat  STATUS:               ID:20100720082636 L   I
 2010-07-20-0822-55S.COL___123                                                 6
 STAT SP IPHASW D HRMM SECON CODA AMPLIT PERI AZIMU VELO AIN AR TRES W  DIS CAZ7
 BAR2 SZ EP        826 52.14                             151    -0.310   54  76 
 BAR2 SZ ES   1    827  5.04                             151    -0.2 7   54  76 
 BAR2 SZ I         827  6.03        26.8 0.44                            54  76 
 BRR  HZ IP     C  826 52.95                             144    -0.210   70 355 
 BRR  HE ES   2    827  6.94                             144     0.5 5   70 355 
 BRR  HZ I         827 12.57         6.0 0.05                            70 355 
 GIR2 SZ EP   1    826 54.68                             139     0.3 7   84  38 
 RUS  HZ EP   2    826 55.64                             137     0.2 5   91 135 
 RUS  HN ES   1    827 10.76                             137     0.2 7   91 135 
 RUS  HZ I         827 14.02         1.7 0.33                            91 135 
 OCA  SZ EP   2    827  6.41                             113     0.5 4  199  11 
 OCA  SZ I         827 34.42         3.6 0.31                           199  11 
                                                                                
