 2016 1220 0446  8.8 L   6.795 -73.159149.0  RSN  8 0.5 1.7LRSN                1
 GAP=118        1.05       4.6     5.3  6.6 -0.1954E+01  0.3524E+00  0.1013E+02E
 Epicentro: LOS SANTOS - SANTANDER                                             3
 ACTION:UPD 17-01-11 20:17 OP:rebc STATUS:               ID:20161220044608 L   I
 OLDACT:UP  16-12-20 15:04 OP:cog  STATUS:               ID:20161220043745     3
 OLDACT:REG 16-12-20 13:03 OP:cog  STATUS:               ID:20161220043745     3
 2016-12-20-0438-00M.COL___345                                                 6
 STAT SP IPHASW D HRMM SECON CODA AMPLIT PERI AZIMU VELO AIN AR TRES W  DIS CAZ7
 BAR2 EZ EP        446 28.76                             171   -0.0810 22.6 186 
 BAR2 EZ ES        446 44.18                             171   -0.2710 22.6 186 
 BAR2 EZ I         446 46.19        14.8 0.28            168           22.6 186 
 BRR  HZ EP        446 30.45                             153    0.1810 70.1 299 
 BRR  HE ES        446 47.75                             153    0.7510 70.1 299 
 BRR  HZ I         446 50.91        12.6 0.28            154           70.1 299 
 PAM  EZ EP        446 31.95                             151    0.4810 78.7  40 
 PAM  EN ES        446 48.54                             151   -0.6010 78.7  40 
 PAM  EZ I         446 49.78         3.1 0.31            155           78.7  40 
 RUS  HZ EP        446 32.70                             145   -0.1810  100 175 
 RUS  HN ES        446 52.07                             145    0.4410  100 175 
 RUS  HZ I         446 53.25         5.4 0.52            144            100 175 
 PTB  HZ EP        446 35.29                             133   -0.64 9  146 259 
 PTB  HN ES        446 56.67                             133   -0.39 9  146 259 
 PTB  HZ I         446 58.41         8.3 0.15            134            146 259 
 CHI  HZ EP        446 47.08                             118    0.46 8  248 195 
 CHI  HE ES        447 16.06                             118   -0.03 8  248 195 
 CHI  HZ I         447 18.65         4.1 0.34            118            248 195 
 ROSC BZ EP   3    446 48.51                             117    1.51 2  252 211 
 ROSC BN ES   3    447 15.76                             117   -1.01 2  252 211 
 ROSC BZ I         447 22.49         4.5 0.30            118            252 211 
 PTGC HZ EP        446 52.62                             112   -0.22 7  309 158 
 PTGC HE ES   4    447 25.56                             112   -1.61 0  309 158 
 PTGC HZ I         447 30.92         4.7 0.36            113            309 158 
                                                                                
