 2011 1220 0005 33.4 L   6.745 -73.221147.0  RSN  5 0.2 1.6LRSN                1
 GAP=224        0.42       3.3     3.5  4.8  0.2635E+01  0.6709E-01  0.2910E+01E
 Epicentro: VILLANUEVA - SANTANDER                                             3
 ACTION:UPD 12-07-13 16:17 OP:ep   STATUS:               ID:20111220000533 L   I
 2011-12-20-0000-00M.COL___192                                                 6
 STAT SP IPHASW D HRMM SECON CODA AMPLIT PERI AZIMU VELO AIN AR TRES W  DIS CAZ7
 BRR  HZ EP        0 5 54.50                             154   -0.0110 67.5 306 
 BRR  HZ I         0 6  9.98        22.8 0.32                          67.5 306 
 BRR  HN ES   1    0 6 11.13                             154    0.18 7 67.5 306 
 RUS  HZ EP   1    0 5 57.04                             145    0.10 7 95.5 171 
 RUS  HN ES   1    0 6 15.12                             145   -0.16 7 95.5 171 
 RUS  HZ I         0 6 17.78         3.9 0.50                          95.5 171 
 PTB  HZ EP   1    0 5 59.34                             134   -0.34 7  138 261 
 PTB  HN ES   1    0 6 20.06                             134   -0.09 7  138 261 
 NOR  SE ES   1    0 6 35.38                             120    0.18 6  224 234 
 CHI  HZ EP   1    0 6 10.57                             118    0.23 6  241 194 
 CHI  HZ I         0 6 45.34         2.0 0.40                           241 194 
                                                                                
