 2011 1220 0635  5.2 L   6.761 -73.124149.4  RSN  7 0.2 1.5LRSN                1
 GAP=141        0.47       3.2     4.2  4.4  0.1682E+01  0.2580E+01  0.4225E+01E
 Epicentro: LOS SANTOS - SANTANDER                                             3
 ACTION:UPD 12-07-13 16:17 OP:ep   STATUS:               ID:20111220063505 L   I
 2011-12-20-0630-00M.COL___192                                                 6
 STAT SP IPHASW D HRMM SECON CODA AMPLIT PERI AZIMU VELO AIN AR TRES W  DIS CAZ7
 BAR2 SZ EP   2    635 24.98                             172   -0.20 5 19.8 199 
 BAR2 SZ ES   2    635 40.53                             172   -0.25 5 19.8 199 
 GIR2 SZ EP   1    635 25.65                             166    0.23 7 35.9 348 
 BRR  HZ EP        635 27.07                             152    0.1110 75.4 301 
 BRR  HN ES        635 43.98                             152    0.0310 75.4 301 
 BRR  HN I         635 45.55        22.8 0.17                          75.4 301 
 PAM  SZ EP   2    635 27.55                             151   -0.35 5 79.3  36 
 PAM  SE ES   1    635 45.51                             151   -0.10 7 79.3  36 
 RUS  HZ EP   1    635 29.40                             146    0.42 7 96.2 177 
 RUS  HE ES   1    635 47.51                             146   -0.04 7 96.2 177 
 RUS  HZ I         635 48.85         2.7 0.37                          96.2 177 
 PTB  HZ EP   1    635 32.32                             132   -0.27 7  149 261 
 CHI  HZ EP   1    635 42.43                             118   -0.28 6  245 196 
 CHI  HZ I         636 18.31         1.3 0.35                           245 196 
                                                                                
