 2013  420 0426 58.3 L   6.854 -73.285120.3  RSN 10 0.3 1.8LRSN                1
 GAP= 86        0.63       2.7     3.0  4.0  0.4066E+00  0.2726E+01 -0.1160E+01E
 Epicentro: ZAPATOCA - SANTANDER                                               3
 ACTION:UPD 13-05-22 14:39 OP:EP   STATUS:               ID:20130420042658 L   I
 2013-04-20-0420-00M.COL___250                                                 6
 STAT SP IPHASW D HRMM SECON CODA AMPLIT PERI AZIMU VELO AIN AR TRES W  DIS CAZ7
 GIR2 SZ EP     D  427 14.86                             167    0.0310 26.8  22 
 GIR2 SZ I         427 28.56        12.5 0.16            166           26.8  22 
 BAR2 SZ IP     C  427 15.25                             165    0.1410 31.2 159 
 BAR2 SZ ES        427 28.23                             165    0.0210 31.2 159 
 BAR2 SZ I         427 29.69        43.7 0.26            164           31.2 159 
 BRR  HZ EP        427 15.68                             154   -0.1010 54.8 301 
 BRR  HN ES        427 29.32                             154   -0.0910 54.8 301 
 BRR  HZ I         427 30.11        19.6 0.10            153           54.8 301 
 PAM  SZ EP        427 18.42                             143    0.0610 84.0  50 
 PAM  SE ES   1    427 34.49                             143    0.49 7 84.0  50 
 PAM  SZ I         427 37.15        10.0 0.24            142           84.0  50 
 RUS  HZ IP     C  427 20.32                             135   -0.0110  109 168 
 RUS  HN ES   1    427 37.25                             135   -0.26 7  109 168 
 RUS  HZ I         427 38.59         3.1 0.52            135            109 168 
 PTB  HZ IP   4 C  427 20.60                             128   -1.40 0  134 255 
 PTB  HN ES   4    427 38.84                             128   -1.63 0  134 255 
 PTB  HZ I         427 42.14         9.2 0.16            128            134 255 
 OCA  HZ EP   2    427 24.56                             124    0.51 5  153 359 
 OCA  HN ES   2    427 43.55                             124   -0.58 5  153 359 
 OCA  HZ I         427 44.43        13.7 0.26            124            153 359 
 TAM  HN ES   2    427 46.40                             121   -0.84 4  172 106 
 SML  HZ IP     C  427 32.03                             113   -0.30 8  232 338 
 SML  HN ES   2    427 58.61                             113   -0.26 4  232 338 
 HEL  HZ EP        427 36.42                             110    0.59 8  259 254 
 HEL  HN ES   1    428  4.80                             110   -0.30 6  259 254 
 HEL  HZ I         428 10.52         3.8 0.54            110            259 254 
 SDV  BN ES   4    428 25.05                             103   -2.58 0  369  52 
 SJC  HZ EP   4    427 49.57                             102   -1.99 0  396 328 
 SJC  HN ES   4    428 29.25                             102   -3.83 0  396 328 
                                                                                
