 2011  720 0300 45.5 L   6.780 -73.059146.0  RSN 16 0.4 3.0LRSN                1
 GAP=149        0.83       2.8     4.6  4.9 -0.4949E+01  0.4093E+01  0.2101E+01E
 Epicentro: LOS SANTOS - SANTANDER                                             3
 ACTION:UPD 12-07-25 14:02 OP:epov STATUS:               ID:20110720030045 L   I
 2011-07-20-0259-11S.COL___143                                                 6
 STAT SP IPHASW D HRMM SECON CODA AMPLIT PERI AZIMU VELO AIN AR TRES W  DIS CAZ7
 BAR2 SZ IP        3 1  5.24                             170    0.0410 24.8 213 
 BAR2 SZ ES   1    3 1 20.34                             170   -0.22 7 24.8 213 
 BAR2 SZ I         3 1 23.32       284.9 0.40                          24.8 213 
 GIR2 SZ IP        3 1  5.43                             165    0.0710 36.3 336 
 GIR2 SZ ES   1    3 1 20.49                             165   -0.35 7 36.3 336 
 PAM  SZ IP        3 1  8.06                             152    0.5310 73.5  33 
 PAM  SN ES   2    3 1 24.67                             152   -0.03 5 73.5  33 
 BRR  HZ IP     C  3 1  7.12                             149   -0.1410 80.8 297 
 BRR  HE ES   1    3 1 24.25                             149    0.04 7 80.8 297 
 BRR  HZ I         3 1 26.97       220.9 0.23                          80.8 297 
 RUS  HZ EP        3 1  9.13                             144    0.0210 98.1 182 
 RUS  HN ES   1    3 1 27.13                             144   -0.39 7 98.1 182 
 RUS  HZ I         3 1 29.16       144.1 0.29                          98.1 182 
 BRI  SZ IP        3 1  9.80                             142    0.4410  108  16 
 BRI  SZ ES   1    3 1 27.57                             142   -0.39 7  108  16 
 GRA  SZ IP        3 1 11.06                             137    0.3110  125  13 
 GRA  SZ I         3 1 35.88       142.1 0.42                           125  13 
 OCA  SZ EP        3 1 13.70                             129   -0.49 9  164 350 
 OCA  SZ ES   1    3 1 36.59                             129    0.04 7  164 350 
 OCA  SZ I         3 1 42.00       142.9 0.38                           164 350 
 CHI  HZ EP   1    3 1 22.90                             117   -0.38 6  249 197 
 CHI  HN ES   1    3 1 52.83                             117    0.09 6  249 197 
 CHI  HZ I         3 2  0.44        57.2 0.43                           249 197 
 ROSC BN ES   1    3 1 54.87                             116    0.86 6  256 213 
 HEL  HZ EP   1    3 1 25.84                             114   -0.88 6  281 257 
 HEL  HE ES        3 1 59.59                             114    0.74 7  281 257 
 VIL  SZ EP   2    3 1 28.16                             112   -0.77 4  303 193 
 VIL  SE ES   2    3 2  3.83                             112    1.04 4  303 193 
 VIL  SZ I         3 2 13.72        41.3 0.55                           303 193 
 RREF HZ EP   1    3 1 32.27                             110   -0.07 5  328 231 
 RREF HZ I         3 2 12.97        58.7 0.20                           328 231 
 DBB  SZ EP   1    3 1 33.30                             109   -0.82 5  349 275 
 TOL  SZ EP   1    3 1 34.60                             109    0.22 5  349 226 
 PRA  HZ EP        3 1 38.72                             106   -0.66 6  395 211 
 PRA  HN ES   1    3 2 21.02                             106   -0.38 4  395 211 
                                                                                
