 2010 1120 0322 44.0 L   5.732 -73.914104.0  RSN  8 0.4 1.8LRSN                1
 GAP= 92        0.88       3.7     3.8 10.4 -0.5154E+01  0.9471E+01 -0.1057E+02E
 Epicentro: ALBANIA - SANTANDER                                                3
 ACTION:UP  10-12-17 16:53 OP:REBC STATUS:               ID:20101120032244 L   I
 2010-11-20-0317-05S.COL___132                                                 6
 STAT SP IPHASW D HRMM SECON CODA AMPLIT PERI AZIMU VELO SNR AR TRES W  DIS CAZ7
 RUS  HZ EP   1    323  3.10                             135    -0.2 8   94  79 
 RUS  HN ES   1    323 18.06                             135    -0.4 8   94  79 
 NOR  SZ EP   1    323  3.71                             130    -0.3 8  108 260 
 NOR  SN ES   1    323 19.16                             130    -0.4 8  108 260 
 CHI  HZ EP   1    323  5.67                             126    -0.3 8  124 171 
 CHI  HE ES   1    323 23.84                             126     0.7 8  124 171 
 BAR2 SZ IP        323  5.86                             126     0.010  125  40 
 BAR2 SZ ES   1    323 23.21                             126     0.2 7  125  40 
 BAR2 SZ I         323 25.18        13.2 0.22                           125  40 
 BRR  HZ EP        323  8.24                             119    -0.310  154   8 
 BRR  HZ I         323  9.67        22.3 0.12                           154   8 
 BRR  HE ES   1    323 28.36                             119     0.6 7  154   8 
 RREF HZ EP   2    323 13.55                             115     0.9 5  183 240 
 RREF HE ES   2    323 35.66                             115     0.7 5  183 240 
 RREF HZ I         323 38.80         5.7 0.28                           183 240 
 HEL  HZ EP   2    323 12.14                             114    -0.4 5  186 286 
 HEL  HN ES   2    323 35.02                             114     0.2 5  186 286 
 HEL  HZ I         323 36.27         3.2 0.39                           186 286 
 OCA  SZ EP   2    323 24.06                             104     0.3 4  285  13 
 OCA  SZ ES   2    323 55.31                             104     0.6 4  285  13 
 OCA  SZ I         324  0.16         4.2 0.43                           285  13 
                                                                                
