 2010  820 0037 12.9 L   6.788 -73.069144.0  RSN  4 0.2 1.5LRSN                1
 GAP=238        0.58       7.2    12.8  6.2  0.7385E+02 -0.3088E+02 -0.1013E+02E
 Epicentro: LOS SANTOS - SANTANDER                                             3
 ACTION:UP  10-09-07 10:56 OP:vdl  STATUS:               ID:20100820003713 L   I
 2010-08-20-0033-02S.COL___117                                                 6
 STAT SP IPHASW D HRMM SECON CODA AMPLIT PERI AZIMU VELO SNR AR TRES W  DIS CAZ7
 BAR2 SZ ES   2    037 46.77                             166    -0.7 5   25 210 
 BAR2 SZ I         037 48.52         6.9 0.25                            25 210 
 BTL  SZ EP        037 32.32                             167     0.010   26 303 
 BTL  SZ ES   1    037 47.81                                     0.3 7   26 303 
 BRR  HZ EP        037 34.19                             147    -0.110   79 296 
 BRR  HZ I         037 36.84        11.2 0.42                            79 296 
 BRR  HN ES        037 51.07                             147     0.010   79 296 
 RUS  HZ EP        037 36.42                             142     0.110   99 181 
 RUS  HN ES   1    037 54.65                             142     0.0 7   99 181 
 RUS  HZ I         037 56.37         2.6 0.13                            99 181 
                                                                                
