 2017 1220 0414 26.1 L   6.821 -73.152142.9  RSN 14 0.7 2.0LRSN                1
 GAP= 65        1.32       3.3     3.7  6.9 -0.6309E+00  0.7371E+01  0.1498E+01E
 Epicentro: LOS SANTOS - SANTANDER                                             3
 ACTION:UPD 18-01-04 13:22 OP:rebc STATUS:               ID:20171220041426 L   I
 OLDACT:DUP 17-12-20 15:16 OP:dhb  STATUS:               ID:20171220040455d    3
 OLDACT:DUP 17-12-20 15:11 OP:dhb  STATUS:               ID:20171220040454d    3
 OLDACT:UP  17-12-20 15:10 OP:dhb  STATUS:               ID:20171220040453     3
 OLDACT:REG 17-12-20 12:46 OP:dhb  STATUS:               ID:20171220040453     3
 2017-12-20-0408-00M.COL___461                                                 6
 STAT SP IPHASW D HRMM SECON CODA AMPLIT PERI AZIMU VELO AIN AR TRES W  DIS CAZ7
 BAR2 EZ IP     C  414 45.13                             169   -0.2810 25.5 188 
 BAR2 EZ ES        415  0.57                             169    0.0810 25.5 188 
 BAR2 EZ I         415  2.91        29.1 0.30            168           25.5 188 
 PAM  EZ IP     C  414 48.10                             151    0.1910 76.1  41 
 PAM  EN ES        415  5.03                             151    0.0910 76.1  41 
 PAM  EZ I         415  8.01        12.2 0.52            156           76.1  41 
 PTB  HZ EP        414 51.85                             131   -0.94 9  148 258 
 PTB  HE ES        415 13.68                             131    0.05 9  148 258 
 PTB  HZ I         415 16.97         7.2 0.14            132            148 258 
 TAM  HZ IP     D  414 53.49                             130   -0.16 9  156 106 
 TAM  HN ES        415 14.79                             130   -0.36 9  156 106 
 TAM  HZ I         415 15.85         5.3 0.28            134            156 106 
 OCA  HZ EP        414 54.29                             129    0.35 9  158 353 
 OCA  HN ES        415 16.09                             129    0.41 9  158 353 
 OCA  HZ I         415 18.96        31.0 0.42            132            158 353 
 SPBC HZ EP        414 54.05                             128   -0.44 9  165 218 
 SPBC HN ES        415 15.93                             128   -0.72 9  165 218 
 SPBC HZ I         415 22.34        18.0 0.24            129            165 218 
 YPLC HZ IP     C  414 55.57                             126   -0.33 9  179 151 
 YPLC HE ES        415 19.65                             126    0.49 9  179 151 
 YPLC HZ I         415 20.48        14.7 0.28            129            179 151 
 ZAR  HZ EP        414 57.96                             122   -0.22 9  203 292 
 ZAR  HE ES        415 23.22                             122    0.00 9  203 292 
 ZAR  HZ I         415 28.00         8.5 0.28            123            203 292 
 ROSC BZ EP        415  6.00                             116    1.78 8  254 211 
 ROSC BE ES        415 34.56                             116    0.59 8  254 211 
 ROSC BZ I         415 41.91         9.0 0.40            117            254 211 
 URE  HZ EP        415  5.59                             113   -1.25 7  282 292 
 URE  HE ES   3    415 36.38                             113   -2.25 2  282 292 
 URE  HZ I         415 45.34         5.6 0.18            115            282 292 
 DRL03HZ EP        415  7.20                             113   -0.08 7  287 353 
 DRL03HE ES        415 39.69                             113    0.27 7  287 353 
 GUY2CHZ EP        415 10.45                             112    0.81 7  302 234 
 GUY2CHE ES   3    415 46.18                             112    2.56 2  302 234 
 GUY2CHZ I         415 53.11         5.6 0.70                           302 234 
 CBOC HZ EP        415 13.37                             109    0.49 7  334 252 
 CBOC HE ES        415 50.09                             109    0.70 7  334 252 
 CBOC HZ I         416  2.68         2.1 0.30            111            334 252 
 PRA  HZ EP        415 19.13                             106   -0.56 6  394 209 
 PRA  HN ES        416  1.10                             106   -0.42 6  394 209 
 PRA  HZ I         416  7.45         4.9 0.38            107            394 209 
                                                                                
