 2010  820 0449 28.7 L   6.788 -73.074144.2  RSN 11 0.4 1.7LRSN                1
 GAP=167        1.02       4.0     8.4  6.7 -0.1079E+02  0.9607E+00 -0.2256E+01E
 Epicentro: LOS SANTOS - SANTANDER                                             3
 ACTION:UP  10-09-07 10:56 OP:vdl  STATUS:               ID:20100820044928 L   I
 2010-08-20-0445-25S.COL___117                                                 6
 STAT SP IPHASW D HRMM SECON CODA AMPLIT PERI AZIMU VELO SNR AR TRES W  DIS CAZ7
 BAR2 SZ EP        449 47.98                             170    -0.210   25 209 
 BAR2 SZ ES   1    450  3.39                             170     0.0 7   25 209 
 BAR2 SZ I         450  4.52        16.1 0.09                            25 209 
 BTL  SZ EP        449 48.21                             169     0.010   26 304 
 BTL  SZ ES   1    450  3.24                             169    -0.2 7   26 304 
 BRR  HZ EP        449 49.80                             150    -0.410   79 297 
 BRR  HZ I         449 50.04        13.6 0.09                            79 297 
 BRR  HE ES   1    450  7.15                             150     0.2 7   79 297 
 RUS  HZ EP   1    449 51.82                             144    -0.4 7   99 181 
 RUS  HN ES        450 10.74                             144     0.210   99 181 
 GUE  SZ EP        449 53.27                             139     0.010  116   8 
 GUE  SZ I         450 14.42         1.5 0.23                           116   8 
 GRA  SZ EP        449 54.75                             137     1.010  125  14 
 GRA  SZ I         450 16.57         3.1 0.37                           125  14 
 OCA  SZ EP        449 57.03                             129    -0.1 9  163 350 
 OCA  SZ I         450 24.68         4.5 0.43                           163 350 
 CHI  HZ EP        450  6.13                             117    -0.3 8  250 197 
 CHI  HZ I         450  6.43         1.8 0.12                           250 197 
 CHI  HN ES   1    450 36.07                             117     0.2 6  250 197 
 GUY  SN ES   2    450 48.01                             112     0.6 4  307 236 
 GUY  SZ I         450 53.45         6.7 0.16                           307 236 
 RREF HN ES   1    450 52.12                             110     0.3 5  327 230 
 RREF HZ I         450 57.37         2.4 0.53                           327 230 
 PRA  HN ES   1    451  4.27                             106    -0.2 4  395 211 
 PRA  HZ I         451  9.18         2.1 0.08                           395 211 
                                                                                
