 2017  120 0155 40.4 L   6.788 -73.122145.8  RSN  4 0.2 1.3LRSN                1
 GAP=140        0.64       3.5     3.5  6.4 -0.1449E+01 -0.1080E+01  0.3128E+01E
 Epicentro: LOS SANTOS - SANTANDER                                             3
 ACTION:UPD 17-05-22 16:01 OP:jn   STATUS:               ID:20170120015540 L   I
 OLDACT:REG 17-01-20 12:20 OP:dani STATUS:               ID:20170120014744     3
 2017-01-20-0148-00M.COL___316                                                 6
 STAT SP IPHASW D HRMM SECON CODA AMPLIT PERI AZIMU VELO AIN AR TRES W  DIS CAZ7
 BRR  HZ EP        156  1.56                             152   -0.1210 74.1 298 
 BRR  HN ES        156 18.69                             152    0.3810 74.1 298 
 BRR  HZ I         156 19.27         6.1 0.47            154           74.1 298 
 PAM  EZ EP        156  2.74                             151    0.1910 76.8  37 
 PAM  EE ES        156 19.56                             151   -0.2910 76.8  37 
 PAM  EZ I         156 21.93         3.8 0.44            152           76.8  37 
 RUS  HZ EP        156  4.07                             144    0.0610 99.1 177 
 RUS  HN ES        156 22.47                             144    0.0210 99.1 177 
 RUS  HZ I         156 23.80         2.2 0.34            146           99.1 177 
 PTB  HE ES        156 28.45                             131   -0.28 9  150 260 
                                                                                
