 2015  420 0324 29.2 L   6.893 -73.337123.2  RSN 18 0.6 2.1LRSN                1
 GAP= 98        1.26       2.9     3.8  6.0 -0.2464E+01  0.9412E+01 -0.2952E+01E
 Epicentro: BETULIA - SANTANDER                                                3
 ACTION:UPD 15-06-03 16:56 OP:cam  STATUS:               ID:20150420032429 L   I
 OLDACT:REG 15-04-20 13:18 OP:ak   STATUS:               ID:20150420031745     3
 2015-04-20-0317-45M.COL___268                                                 6
 STAT SP IPHASW D HRMM SECON CODA AMPLIT PERI AZIMU VELO AIN AR TRES W  DIS CAZ7
 BAR2 EZ IP     C  324 46.53                             162   -0.0010 37.4 153 
 BAR2 EZ ES        324 59.51                             162   -0.5710 37.4 153 
 BRR  HZ IP     D  324 47.03                             157    0.4210 47.7 300 
 BRR  HE ES        325  0.98                             157    0.7610 47.7 300 
 BRR  HZ I         325  1.91        68.9 0.12            153           47.7 300 
 PAM  SZ IP     C  324 50.05                             143    0.4010 86.0  55 
 PAM  SN ES        325  6.00                             143    0.3710 86.0  55 
 PAM  SZ I         325  8.61        16.8 0.30            147           86.0  55 
 RUS  HZ EP        324 51.71                             135   -0.2110  114 166 
 RUS  HE ES        325  9.03                             135   -0.6410  114 166 
 PTB  HZ IP     D  324 51.75                             130   -0.9310  130 253 
 PTB  HN ES        325 10.46                             130   -0.5610  130 253 
 PTB  HZ I         325 14.04        24.3 0.10            129            130 253 
 OCA  HZ IP     C  324 54.51                             126   -0.18 9  149   1 
 OCA  HN ES        325 14.58                             126   -0.01 9  149   1 
 OCA  HZ I         325 20.82        47.8 0.21            127            149   1 
 SPBC HZ EP        324 56.54                             124    0.86 9  160 211 
 SPBC HE ES        325 16.13                             124   -0.22 9  160 211 
 SPBC HZ I         325 22.49        21.8 0.44            125            160 211 
 ZAR  HZ EP        324 58.28                             120    0.54 9  181 292 
 ZAR  HE ES   2    325 21.53                             120    1.50 4  181 292 
 ZAR  HZ I         325 25.58        19.7 0.15            120            181 292 
 NOR  HZ EP   1    325  1.96                             114   -0.60 6  224 229 
 NOR  HN ES        325 28.52                             114   -0.07 8  224 229 
 NOR  HZ I         325 36.11         8.8 0.12            115            224 229 
 SML  HZ EP        325  2.66                             114    0.01 8  226 339 
 SML  HE ES        325 29.31                             114    0.54 8  226 339 
 SML  HZ I         325 36.51        31.5 0.10            115            226 339 
 HEL  HZ EP   4    325  7.54                             111    1.20 0  255 252 
 HEL  HN ES        325 35.49                             111    0.16 8  255 252 
 HEL  HZ I         325 45.49         4.1 0.38            112            255 252 
 URE  HZ EP   4    325  4.87                             111   -1.68 0  260 292 
 URE  HE ES        325 34.61                             111   -1.10 8  260 292 
 URE  HZ I         325 41.58        11.3 0.20            111            260 292 
 GUY2CHZ EP        325 11.51                             108    0.90 7  291 231 
 GUY2CHN ES   4    325 40.86                             108   -2.07 0  291 231 
 GUY2CHZ I         325 50.10         7.6 0.38                           291 231 
 CBOC HZ EP        325 13.75                             106    0.44 7  317 249 
 CBOC HN ES        325 47.99                             106    0.25 7  317 249 
 CBOC HZ I         325 51.23         2.8 0.23            107            317 249 
 MON  HZ EP        325 13.85                             105   -0.84 7  331 309 
 MON  HN ES        325 49.72                             105   -0.47 7  331 309 
 MON  HZ I         325 51.50         2.5 0.07            106            331 309 
 TOL  SZ EP        325 16.42                             105    0.60 7  337 221 
 TOL  SE ES        325 52.37                             105    0.16 7  337 221 
 TOL  SZ I         326  2.79         3.5 0.40            106            337 221 
 SJC  HZ EP        325 21.22                             102   -0.48 6  389 329 
 SJC  HE ES   4    326  0.73                             102   -1.94 0  389 329 
 SJC  HZ I         326 14.92         2.0 0.20            103            389 329 
 CRJC HZ EP        325 30.08                             100   -0.02 5  459   6 
 CRJC HN ES        326 16.80                             100   -0.83 5  459   6 
                                                                                
