 2012  220 0004 54.4 L   6.519 -73.085131.0  RSN  4 0.3 1.9LRSN                1
 GAP=246        0.69      10.3     6.1  7.3 -0.3823E+02  0.2906E+01  0.8352E+01E
 ACTION:UP  12-03-07 16:32 OP:epov STATUS:               ID:20120220000454 L   I
 2012-02-20-0000-00M.COL___191                                                 6
 STAT SP IPHASW D HRMM SECON CODA AMPLIT PERI AZIMU VELO AIN AR TRES W  DIS CAZ7
 BAR2 SZ ES   1    0 5 25.99                             174    0.16 7 13.5 307 
 BAR2 SZ I         0 5 30.25        23.0 0.19                          13.5 307 
 BRR  HZ IP     C  0 5 15.64                             142    0.0610 95.1 313 
 BRR  HZ I         0 5 15.93        19.2 0.15                          95.1 313 
 BRR  HN ES   1    0 5 32.57                             142    0.45 7 95.1 313 
 PAM  SZ EP   1    0 5 16.73                             141    0.06 7  100  25 
 PAM  SN ES   1    0 5 33.64                             141   -0.42 7  100  25 
 PAM  SZ I         0 5 35.66         7.6 0.50                           100  25 
 PTB  HZ EP   1    0 5 20.74                             128    0.19 7  152 271 
 PTB  HN ES   1    0 5 40.35                             128   -0.61 7  152 271 
                                                                                
