 2015  720 0254  1.8 L   6.785 -73.920 84.8  RSN  5 0.5 1.6LRSN                1
 GAP=170        1.34       5.4     5.0 17.1  0.1036E+02  0.1595E+02 -0.8690E+01E
 Epicentro: PUERTO PARRA - SANTANDER                                           3
 ACTION:UPD 15-09-08 21:49 OP:cam  STATUS:               ID:20150720025401 L   I
 OLDACT:REG 15-07-20 14:26 OP:stll STATUS:               ID:20150720024749     3
 2015-07-20-0247-49M.COL___334                                                 6
 STAT SP IPHASW D HRMM SECON CODA AMPLIT PERI AZIMU VELO AIN AR TRES W  DIS CAZ7
 BAR2 EZ EP        254 18.35                             132    0.0210 84.3 105 
 BAR2 EZ I         254 18.55         9.1 0.38            139           84.3 105 
 BAR2 EZ ES        254 31.10                             132   -0.1010 84.3 105 
 ZAR  HZ EP        254 23.61                             118    0.9510  130 307 
 ZAR  HE ES        254 38.51                             118   -0.4010  130 307 
 ZAR  HZ I         254 44.27         7.4 0.10            122            130 307 
 RUS  HZ EP        254 23.63                             118   -0.25 9  135 137 
 RUS  HN ES        254 41.10                             118    0.01 9  135 137 
 PAM  EZ EP        254 24.57                             115   -0.72 9  148  65 
 PAM  EN ES        254 44.47                             115    0.88 9  148  65 
 PAM  EZ I         254 45.36         7.4 0.20            121            148  65 
 OCA  HN ES        254 47.61                             111   -0.45 9  174  22 
                                                                                
