 2013  220 0709 55.2 L   6.998 -73.236133.7  RSN  7 0.5 2.0LRSN                1
 GAP=115        1.31       5.0     6.1  8.7  0.1431E+01  0.1008E+02 -0.8127E+01E
 Epicentro: GIRON - SANTANDER                                                  3
 ACTION:UPD 13-03-12 09:34 OP:ep   STATUS:               ID:20130220070955 L   I
 2013-02-20-0710-00M.COL___241                                                 6
 STAT SP IPHASW D HRMM SECON CODA AMPLIT PERI AZIMU VELO AIN AR TRES W  DIS CAZ7
 BAR2 SZ EP        710 14.13                             160    0.1010 45.2 172 
 BAR2 SZ ES        710 27.90                             160   -0.8610 45.2 172 
 BAR2 SZ I         710 29.76        57.3 0.38            159           45.2 172 
 BRR  HZ EP        710 14.46                             157    0.3910 53.9 283 
 BRR  HN ES        710 29.83                             157    1.0010 53.9 283 
 BRR  HN I         710 29.92        33.3 0.24            152           53.9 283 
 PAM  SZ EP        710 15.80                             151    0.1310 70.3  57 
 PAM  SN ES        710 31.81                             151    0.1410 70.3  57 
 RUS  HZ EP        710 19.96                             135    0.3610  123 172 
 RUS  HN ES        710 38.32                             135   -0.3510  123 172 
 PTB  HZ EP        710 20.97                             130    0.15 9  144 249 
 PTB  HN ES        710 40.48                             130   -0.36 9  144 249 
 PTB  HN I         710 46.41        10.8 0.26            127            144 249 
 SML  HZ EP        710 28.28                             117   -0.22 8  220 335 
 SML  HN ES        710 53.66                             117   -0.85 8  220 335 
 SML  HN I         710 56.96         8.4 0.10            117            220 335 
 HEL  HZ EP   4    710 36.80                             113    2.39 0  269 251 
 HEL  HN ES   4    711  7.30                             113    2.27 0  269 251 
 HEL  HN I   L4    711 11.26         2.8 0.30            113    6.23 0  269 251 
 HEL  HN I         711 11.29         2.8 0.30            111            269 251 
                                                                                
