 2014 1120 0433 59.3 L   6.739 -72.933  5.1  RSN  8 0.4 1.6LRSN                1
 GAP=169        0.97       1.9     2.9  5.8 -0.1898E+01  0.3940E+01 -0.3593E+00E
 Epicentro: CEPITA - SANTANDER                                                 3
 ACTION:UPD 14-12-19 15:44 OP:nd   STATUS:               ID:20141120043359 L   I
 OLDACT:REG 14-11-20 13:04 OP:fm   STATUS:               ID:20141120042743     3
 2014-11-20-0427-43M.COL___295                                                 6
 STAT SP IPHASW D HRMM SECON CODA AMPLIT PERI AZIMU VELO AIN AR TRES W  DIS CAZ7
 BAR2 SZ EP   1    434  4.78                              92   -0.16 7 32.0 239 
 BAR2 SZ ES        434  8.85                              92   -0.5310 32.0 239 
 BAR2 SZ I         434  9.76        41.0 0.29             47           32.0 239 
 PAM  SZ EP        434 11.19                              91    0.0510 71.2  21 
 PAM  SN ES        434 19.77                              91   -0.6510 71.2  21 
 PAM  SZ I         434 20.42        21.7 0.12             47           71.2  21 
 RUS  HZ EP        434 15.36                              91    0.6010 95.1 190 
 RUS  HN ES        434 26.68                              91   -0.1810 95.1 190 
 RUS  HZ I         434 27.68        12.3 0.38             47           95.1 190 
 BRR  HZ EP   1    434 14.60                              91    0.33 7 95.2 295 
 BRR  HN ES   1    434 26.37                              91    0.39 7 95.2 295 
 BRR  HZ I         434 27.25                              47           95.2 295 
 PTB  HZ EP        434 25.96                              90    0.36 9  170 263 
 PTB  HN ES        434 45.81                              90   -0.34 9  170 263 
 PTB  HZ I         434 47.33         8.1 0.19             47            170 263 
 OCA  HZ EP        434 25.73                              90   -0.22 9  171 346 
 OCA  HN ES        434 47.37                              90    0.60 9  171 346 
 OCA  HZ I         434 52.18         7.5 0.22             47            171 346 
 SPBC HZ EP   1    434 26.94                              56    0.64 7  174 226 
 SPBC HN ES   1    434 47.25                              56   -0.14 7  174 226 
 ZAR  HZ EP        434 32.93                              56   -0.04 8  228 292 
 ZAR  HN ES        434 59.08                              56   -0.18 8  228 292 
 ZAR  HZ I         435  1.31         6.0 0.26             37            228 292 
                                                                                
