 2015  320 0444 41.3 L   6.830 -73.129146.5  RSN 20 0.5 1.9LRSN                1
 GAP= 71        1.16       2.9     3.4  5.4 -0.1437E+01  0.6869E+01  0.2518E+01E
 Epicentro: LOS SANTOS - SANTANDER                                             3
 ACTION:UPD 15-04-30 16:27 OP:nd   STATUS:               ID:20150320044441 L   I
 OLDACT:REG 15-03-20 12:51 OP:fm   STATUS:               ID:20150320043738     3
 2015-03-20-0437-38M.COL___275                                                 6
 STAT SP IPHASW D HRMM SECON CODA AMPLIT PERI AZIMU VELO AIN AR TRES W  DIS CAZ7
 BAR2 EZ IP     C  445  1.32                             169    0.2110 26.9 193 
 BAR2 EZ ES        445 17.13                             169    0.5810 26.9 193 
 BAR2 EZ I         445 20.19         9.0 0.10            168           26.9 193 
 BRR  HZ IP     C  445  3.19                             153    0.6410 71.3 296 
 BRR  HE ES        445 19.72                             153    0.6010 71.3 296 
 BRR  HZ I         445 23.60        12.7 0.30            150           71.3 296 
 PAM  SZ EP        445  3.94                             152    0.5410 73.7  40 
 PAM  SE ES        445 20.89                             152    0.2710 73.7  40 
 PAM  SZ I         445 23.47        13.5 0.48            157           73.7  40 
 RUS  HZ EP        445  5.13                             143   -0.2410  104 177 
 RUS  HN ES        445 23.60                             143   -0.5310  104 177 
 RUS  HZ I         445 25.76         4.5 0.34            146            104 177 
 PTB  HZ EP        445  7.98                             132   -0.59 9  150 258 
 PTB  HE ES        445 28.72                             132   -1.10 9  150 258 
 PTB  HZ I         445 35.27        14.4 0.40            132            150 258 
 TAM  HE ES        445 30.19                             131   -0.35 9  154 106 
 OCA  HE ES        445 30.39                             130   -0.92 9  157 352 
 SPBC HZ EP        445 10.22                             129   -0.00 9  167 219 
 SPBC HN ES        445 32.19                             129   -0.58 9  167 219 
 SPBC HZ I         445 39.28        20.3 0.26            130            167 219 
 ZAR  HZ EP        445 13.45                             122   -0.41 9  205 291 
 ZAR  HN ES        445 39.38                             122    0.14 9  205 291 
 ZAR  HZ I         445 45.84        14.5 0.40            123            205 291 
 NOR  HZ EP        445 17.11                             118   -0.34 8  238 234 
 NOR  HE ES        445 45.38                             118   -0.26 8  238 234 
 NOR  HZ I         445 47.54         6.5 0.24            120            238 234 
 SML  HZ EP        445 17.73                             118   -0.02 8  241 335 
 SML  HN ES        445 46.02                             118   -0.14 8  241 335 
 SML  HZ I         445 56.22         8.1 0.24            120            241 335 
 ROSC BZ EP        445 20.45                             116    0.56 8  257 211 
 ROSC BN ES        445 50.12                             116    0.15 8  257 211 
 ROSC BZ I         445 58.85         5.9 0.40            118            257 211 
 HEL  HZ EP        445 21.87                             115    0.02 8  275 255 
 HEL  HE ES        445 54.26                             115    0.79 8  275 255 
 HEL  HZ I         445 59.95         5.2 0.36            116            275 255 
 URE  HZ EP   4    445 24.84                             114    2.36 0  284 291 
 URE  HN ES   4    445 51.80                             114   -2.78 0  284 291 
 URE  HZ I         445 58.90         5.1 0.14            115            284 291 
 GUY2CHZ EP        445 25.65                             112    0.31 7  305 234 
 GUY2CHE ES        445 59.85                             112    0.17 7  305 234 
 GUY2CHZ I         446  8.51         5.5 0.66                           305 234 
 RREF HZ EP        445 27.93                             111    0.04 7  325 229 
 RREF HE ES        446  5.23                             111    1.01 7  325 229 
 RREF HZ I         446 12.97         5.3 0.42            112            325 229 
 CBOC HZ EP        445 29.14                             110    0.56 7  336 252 
 CBOC HN ES        446  5.14                             110   -0.30 7  336 252 
 CBOC HZ I         446 12.94         1.5 0.40            111            336 252 
 TOL  SN ES        446  8.35                             109    0.34 6  347 224 
 TOL  SZ I         446 12.40         3.3 0.24            111            347 224 
 PRA  HZ EP        445 35.31                             106    0.01 6  396 210 
 PRA  HE ES   4    446 12.27                             106   -5.14 0  396 210 
 PRA  HZ I         446 22.79         3.1 0.56            108            396 210 
 ORTC HZ EP        445 35.16                             106   -0.54 6  399 216 
 ORTC HN ES        446 17.92                             106   -0.19 6  399 216 
 ORTC HZ I         446 25.95         2.6 0.56            108            399 216 
                                                                                
