 2012  120 0445 57.6 L   6.811 -73.129149.8  RSN  8 0.4 1.7LRSN                1
 GAP=138        1.04       5.6     6.1  9.5 -0.3112E+01 -0.1819E+01  0.2061E+02E
 Epicentro: LOS SANTOS - SANTANDER                                             3
 ACTION:UP  12-02-03 08:19 OP:REBC STATUS:               ID:20120120044557 L   I
 2012-01-20-0440-00M.COL___187                                                 6
 STAT SP IPHASW D HRMM SECON CODA AMPLIT PERI AZIMU VELO SNR AR TRES W  DIS CAZ7
 BAR2 SZ EP        446 17.48                             170    -0.210   25 194 
 BAR2 SZ I         446 17.95         9.1 0.15                            25 194 
 BRR  HZ EP        446 19.54                             153     0.310   72 297 
 BRR  HN ES        446 36.60                             153     0.510   72 297 
 BRR  HZ I         446 40.47         9.9 0.15                            72 297 
 PAM  SZ EP        446 20.18                             152     0.110   75  39 
 PAM  SN ES   1    446 37.44                             152    -0.2 7   75  39 
 RUS  HZ EP   1    446 21.52                             144    -0.3 7  102 177 
 RUS  HN ES   1    446 40.41                             144    -0.3 7  102 177 
 RUS  HZ I         446 40.79         3.1 0.29                           102 177 
 PTB  HZ EP   1    446 24.59                             132    -0.5 7  150 259 
 PTB  HN ES   1    446 45.56                             132    -0.9 7  150 259 
 ZAR  HN ES   2    446 55.98                             123     0.0 4  205 292 
 ZAR  HZ I         447  1.53         6.6 0.13                           205 292 
 CHI  HZ EP        446 35.84                             118     0.2 8  250 195 
 CHI  HN ES   1    447  6.27                             118     0.9 6  250 195 
 RREF HN ES   2    447 20.94                             111     0.5 3  324 229 
 RREF HZ I         447 28.51         2.7 0.60                           324 229 
                                                                                
