 2010  320 0335 30.9 L   6.842 -72.968146.0  RSN  4 0.2 1.6LRSN                1
 GAP=257        0.40       8.2    13.3  6.2  0.8933E+02 -0.2806E+02 -0.1615E+02E
 Epicentro: CEPITA - SANTANDER                                                 3
 ACTION:UP  10-08-24 09:54 OP:vdl  STATUS:               ID:20100320033530 L   I
 2010-03-20-0331-50S.COL___098                                                 6
 STAT SP IPHASW D HRMM SECON CODA AMPLIT PERI AZIMU VELO SNR AR TRES W  DIS CAZ7
 BAR2 SZ ES   1    336  6.28                             164    -0.2 7   37 221 
 BRR  HZ EP   1    335 53.00                             147    -0.1 7   87 290 
 BRR  HZ I         336  5.44         7.9 0.53                            87 290 
 BRR  HN ES   1    336 10.44                             147     0.1 7   87 290 
 RUS  HZ EP   2    335 55.26                             142     0.2 5  106 187 
 RUS  HE ES   2    336 14.03                             142     0.2 5  106 187 
 RUS  HZ I         336 15.42         2.6 0.46                           106 187 
 PRA  HN ES   3    337  8.74                             105    -0.3 1  406 212 
 PRA  HZ I         337 12.72         2.3 0.34                           406 212 
                                                                                
