 2016  720 0050 36.6 L   6.785 -73.124146.0  RSN  5 0.3 1.6LRSN                1
 GAP=140        0.70       3.6     5.2  5.5 -0.2521E+01 -0.2428E+00  0.1730E+01E
 Epicentro: LOS SANTOS - SANTANDER                                             3
 ACTION:UPD 17-03-29 16:53 OP:lp   STATUS:               ID:20160720005036 L   I
 OLDACT:REG 16-07-20 12:53 OP:ar   STATUS:               ID:20160720004759     3
 2016-07-20-0047-59S.COL___343                                                 6
 STAT SP IPHASW D HRMM SECON CODA AMPLIT PERI AZIMU VELO AIN AR TRES W  DIS CAZ7
 BAR2 EZ EP        050 56.05                             171   -0.2310 22.2 197 
 BAR2 EZ ES        051 11.18                             171   -0.4110 22.2 197 
 BRR  HZ EP        050 58.06                             151    0.0810 74.1 299 
 BRR  HN ES        051 14.87                             151    0.2510 74.1 299 
 BRR  HZ I         051 18.69         7.7 0.34            150           74.1 299 
 PAM  EZ EP        050 59.09                             151    0.2210 77.2  37 
 PAM  EN ES        051 16.07                             151   -0.1410 77.2  37 
 PAM  EZ I         051 18.18         6.6 0.48            152           77.2  37 
 RUS  HZ EP        051  0.40                             144    0.1110 98.8 177 
 RUS  HN ES        051 19.09                             144    0.3610 98.8 177 
 SPBC HZ EP   2    051  4.51                             129   -0.67 5  163 220 
 SPBC HN ES   2    051 26.94                             129   -0.50 5  163 220 
                                                                                
