 2017  120 0701 57.9 L   6.795 -73.139146.9  RSN  5 0.3 1.0LRSN                1
 GAP=138        0.92       6.1     6.1  8.3  0.9354E+01 -0.1331E+02 -0.1097E+02E
 Epicentro: LOS SANTOS - SANTANDER                                             3
 ACTION:UPD 17-05-22 16:01 OP:jn   STATUS:               ID:20170120070157 L   I
 OLDACT:UP  17-01-20 17:21 OP:dani STATUS:               ID:20170120065742d    3
 OLDACT:UP  17-01-20 17:21 OP:dani STATUS:               ID:20170120065742d    3
 OLDACT:DUP 17-01-20 17:18 OP:dani STATUS:               ID:20170120065742d    3
 OLDACT:REG 17-01-20 12:39 OP:dani STATUS:               ID:20170120065741     3
 2017-01-20-0658-00M.COL___313                                                 6
 STAT SP IPHASW D HRMM SECON CODA AMPLIT PERI AZIMU VELO AIN AR TRES W  DIS CAZ7
 BAR2 EZ EP        7 2 17.46                             171   -0.2210 23.0 192 
 BAR2 EZ ES        7 2 32.48                             171   -0.6210 23.0 192 
 BAR2 EZ I         7 2 34.05         2.9 0.26            169           23.0 192 
 BRR  HZ EP        7 2 19.23                             152   -0.0210 72.1 299 
 BRR  HN ES        7 2 36.31                             152    0.4310 72.1 299 
 BRR  HZ I         7 2 39.42         2.6 0.24            150           72.1 299 
 PAM  EZ EP        7 2 20.42                             151    0.1610 77.3  39 
 RUS  HZ EP        7 2 21.62                             144   -0.1310  100 176 
 RUS  HN ES        7 2 40.85                             144    0.5210  100 176 
 RUS  HZ I         7 2 41.61         0.9 0.22            145            100 176 
 PTB  HN ES        7 2 46.03                             132   -0.16 9  148 259 
 PTB  HZ I         7 2 50.23         0.8 0.13            131            148 259 
                                                                                
