 2016  320 0504 36.4 L   6.813 -73.171142.0  RSN  9 0.4 1.8LRSN                1
 GAP=180        0.61       4.7     4.2  6.5 -0.6644E+00  0.1044E+02 -0.4340E+01E
 Epicentro: LOS SANTOS - SANTANDER                                             3
 ACTION:UPD 16-05-13 21:25 OP:cam  STATUS:               ID:20160320050436 L   I
 OLDACT:REG 16-03-20 14:41 OP:dnl  STATUS:               ID:20160320045743     3
 2016-03-20-0457-43M.COL___301                                                 6
 STAT SP IPHASW D HRMM SECON CODA AMPLIT PERI AZIMU VELO AIN AR TRES W  DIS CAZ7
 BAR2 EZ EP        5 4 55.53                             170   -0.1010 24.4 183 
 BAR2 EZ ES        5 5 10.88                             170    0.2710 24.4 183 
 BAR2 EZ I         5 5 12.64         9.9 0.20            171           24.4 183 
 RUS  HZ EP   2    5 4 59.55                             143   -0.39 5  102 175 
 RUS  HN ES   2    5 5 18.12                             143   -0.15 5  102 175 
 RUS  HZ I         5 5 19.11         4.9 0.26            147            102 175 
 PTB  HZ EP   2    5 5  2.00                             132   -0.86 5  145 258 
 PTB  HN ES        5 5 23.36                             132   -0.12 9  145 258 
 PTB  HZ I         5 5 26.96         7.7 0.12            128            145 258 
 OCA  HN ES   2    5 5 25.66                             129   -0.35 5  159 354 
 OCA  HZ I         5 5 31.43        16.0 0.26            125            159 354 
 SPBC HE ES   2    5 5 26.78                             129    0.24 5  163 218 
 SPBC HZ I         5 5 28.69         9.6 0.10            128            163 218 
 ZAR  HZ EP   2    5 5  9.11                             122    0.81 4  201 292 
 ZAR  HN ES   2    5 5 33.39                             122    0.23 4  201 292 
 ZAR  HZ I         5 5 40.53         6.6 0.13            118            201 292 
 HEL  HZ EP   2    5 5 17.10                             114    0.91 4  270 255 
 HEL  HN ES   2    5 5 47.07                             114   -0.13 4  270 255 
 HEL  HZ I         5 5 55.56         2.0 0.21            113            270 255 
 GUY2CHZ EP   4    5 5 20.80                             112    1.10 0  300 234 
 GUY2CHN ES   2    5 5 53.27                             112   -0.18 4  300 234 
 GUY2CHZ I         5 6  4.26         2.4 0.32                           300 234 
 MON  HZ EP   4    5 5 31.24                             108    6.31 0  351 308 
 MON  HN ES   4    5 6  0.38                             108   -2.37 0  351 308 
 MON  HZ I         5 6 17.08         2.1 0.50            106            351 308 
                                                                                
