 2016  920 0755 20.9 L   6.805 -73.131148.0  RSN 12 0.4 1.9LRSN                1
 GAP=120        0.91       3.2     4.0  6.1 -0.3766E+01  0.2848E+01  0.2870E+01E
 Epicentro: LOS SANTOS - SANTANDER                                             3
 ACTION:UPD 17-08-17 21:14 OP:lp   STATUS:               ID:20160920075525 L   I
 OLDACT:UP  17-01-13 21:13 OP:nlst STATUS:               ID:20160920075525 L   3
 OLDACT:UP  16-09-20 17:45 OP:cog  STATUS:               ID:20160920074734     3
 OLDACT:REG 16-09-20 12:51 OP:and  STATUS:               ID:20160920074734     3
 2016-09-20-0748-00M.COL___347                                                 6
 STAT SP IPHASW D HRMM SECON CODA AMPLIT PERI AZIMU VELO AIN AR TRES W  DIS CAZ7
 BAR2 EZ EP        755 40.92                             170    0.0610 24.2 194 
 BAR2 EZ ES   2    755 55.89                             170   -0.50 5 24.2 194 
 BAR2 EZ I         755 57.34        21.9 0.36            168           24.2 194 
 BRR  HZ EP        755 42.67                             153    0.2710 72.4 297 
 BRR  HE ES        756  0.08                             153    0.9510 72.4 297 
 BRR  HZ I         756  2.91         9.6 0.42            150           72.4 297 
 PAM  EZ EP        755 43.44                             152    0.1310 75.9  39 
 PAM  EN ES        756  0.84                             152    0.0910 75.9  39 
 PAM  EZ I         756  2.77        10.3 0.27            156           75.9  39 
 RUS  HZ EP        755 44.75                             144   -0.2010  101 177 
 RUS  HN ES        756  3.60                             144   -0.0710  101 177 
 RUS  HZ I         756  4.51         5.7 0.34            146            101 177 
 PTB  HZ EP        755 47.53                             132   -0.72 9  149 259 
 PTB  HN ES        756  8.87                             132   -0.68 9  149 259 
 PTB  HZ I         756 14.51         6.6 0.34            131            149 259 
 OCA  HZ EP   2    755 49.57                             131    0.18 5  160 353 
 OCA  HE ES        756 11.07                             131   -0.51 9  160 353 
 OCA  HZ I         756 14.81        19.0 0.17            132            160 353 
 SPBC HZ EP        755 49.77                             130    0.02 9  165 219 
 SPBC HN ES        756 12.12                             130   -0.10 9  165 219 
 SPBC HZ I         756 17.94        15.9 0.26            129            165 219 
 ZAR  HZ EP   2    755 53.66                             123   -0.01 4  205 292 
 ZAR  HE ES   2    756 19.39                             123    0.20 4  205 292 
 ZAR  HZ I         756 24.54         5.8 0.42            123            205 292 
 NOR  HZ EP   2    755 56.94                             119   -0.04 4  236 235 
 NOR  HE ES        756 25.51                             119    0.42 8  236 235 
 NOR  HZ I         756 32.42         6.8 0.16            119            236 235 
 CHI  HZ EP   2    755 59.10                             118    0.23 4  250 196 
 CHI  HN ES   2    756 28.98                             118    0.52 4  250 196 
 CHI  HZ I         756 34.13         2.9 0.18            119            250 196 
 SOCV BZ EP   2    756  3.64                             113   -0.26 4  300  57 
 SOCV BE ES   4    756 34.52                             113   -2.89 0  300  57 
 GUY2CHZ EP   2    756  5.66                             113    0.82 4  303 235 
 GUY2CHE ES   2    756 39.63                             113    0.54 4  303 235 
 GUY2CHZ I         756 48.05         3.7 0.34                           303 235 
                                                                                
