 2011 1120 0806 29.8 L   6.799 -73.134143.1  RSN  9 0.4 2.2LRSN                1
 GAP=138        0.78       3.5     4.7  6.0 -0.6267E+00  0.9498E+01  0.1603E+01E
 Epicentro: LOS SANTOS - SANTANDER                                             3
 ACTION:UPD 12-07-13 16:11 OP:ep   STATUS:               ID:20111120080629 L   I
 2011-11-20-0804-56S.COL___178                                                 6
 STAT SP IPHASW D HRMM SECON CODA AMPLIT PERI AZIMU VELO AIN AR TRES W  DIS CAZ7
 BAR2 SZ IP        8 6 49.17                             170    0.0210 23.5 193 
 BAR2 SZ I         8 6 49.49        28.5 0.12                          23.5 193 
 BAR2 SZ ES   1    8 7  3.84                             170   -0.37 7 23.5 193 
 BRR  HZ EP        8 6 51.01                             152    0.2410 72.4 298 
 BRR  HE ES   1    8 7  7.86                             152    0.77 7 72.4 298 
 BRR  HZ I         8 7 12.05        59.4 0.18                          72.4 298 
 PAM  SZ EP   1    8 6 52.00                             151    0.28 7 76.7  39 
 PAM  SN ES   1    8 7  8.64                             151   -0.16 7 76.7  39 
 PAM  SZ I         8 7 11.28        19.5 0.24                          76.7  39 
 RUS  HZ EP   1    8 6 53.11                             143   -0.20 7  100 177 
 RUS  HE ES   1    8 7 11.74                             143    0.12 7  100 177 
 RUS  HZ I         8 7 13.06        14.7 0.46                           100 177 
 OCA  SZ EP   1    8 6 57.60                             129   -0.37 7  161 353 
 OCA  SZ ES   1    8 7 19.67                             129   -0.24 7  161 353 
 OCA  SZ I         8 7 25.25        25.8 0.25                           161 353 
 ZAR  HZ EP   1    8 7  2.48                             122    0.24 6  205 292 
 ZAR  HE ES   1    8 7 26.75                             122   -0.76 6  205 292 
 ZAR  HZ I         8 7 32.88        26.6 0.40                           205 292 
 NOR  SZ EP   1    8 7  5.10                             118   -0.42 6  236 235 
 NOR  SN ES   1    8 7 33.03                             118   -0.32 6  236 235 
 CHI  HZ EP   1    8 7  7.32                             117   -0.09 6  249 195 
 CHI  HZ I         8 7  9.50         5.3 0.16                           249 195 
 HEL  HZ EP   1    8 7 10.96                             114    0.91 6  273 256 
 HEL  HZ I         8 7 48.79         7.8 0.48                           273 256 
                                                                                
