 2012 1020 0552 16.5 L   6.478 -73.507 11.3  RSN  7 0.4 1.6LRSN                1
 GAP=118        0.73       2.4     3.9  8.1  0.3398E+01  0.2644E+02  0.6628E+01E
 Epicentro: SIMACOTA - SANTANDER                                               3
 ACTION:UPD 12-11-22 17:04 OP:ep   STATUS:               ID:20121020055216 L   I
 2012-10-20-0550-00M.COL___233                                                 6
 STAT SP IPHASW D HRMM SECON CODA AMPLIT PERI AZIMU VELO AIN AR TRES W  DIS CAZ7
 BAR2 SZ EP   1    552 23.45                             103    0.26 7 38.0  71 
 BAR2 SZ ES   1    552 28.29                             103   -0.14 7 38.0  71 
 BAR2 SZ I         552 30.73        43.5 0.38                          38.0  71 
 BRR  HZ EP   1    552 28.24                              96    0.04 7 73.2 342 
 BRR  HZ I         552 29.33         9.2 0.14                          73.2 342 
 BRR  HN ES   1    552 36.98                              96   -0.38 7 73.2 342 
 BRR  HN I         552 37.84        31.2 0.20                          73.2 342 
 GIR2 SZ EP   1    552 28.79                              96    0.18 7 74.9  27 
 RUS  HZ EP   1    552 29.93                              96    0.20 7 79.9 144 
 RUS  HN ES   1    552 39.63                              96   -0.45 7 79.9 144 
 RUS  HN I         552 43.30        11.2 0.34                          79.9 144 
 PAM  SZ EP   1    552 38.12                              93    0.75 7  131  43 
 PAM  SZ I         552 41.57         6.2 0.10                           131  43 
 PAM  SN ES   1    552 53.15                              93   -0.52 7  131  43 
 PAM  SN I         553  0.62        20.3 0.18                           131  43 
 ZAR  HZ EP   1    552 44.56                              56    0.11 7  187 307 
 ZAR  HN ES   1    553  6.29                              56    0.02 7  187 307 
 ZAR  HN I         553  9.04        14.2 0.30                           187 307 
 HEL  HZ EP   1    552 50.27                              56    0.49 6  226 262 
 HEL  HN ES   1    553 15.26                              56   -0.51 6  226 262 
 HEL  HN I         553 16.66         5.4 0.38                           226 262 
                                                                                
