 2011 1220 0516 41.3 L   6.542 -73.453117.6  RSN  5 0.2 1.3LRSN                1
 GAP=120        0.45       3.4     3.2  5.6  0.3366E+01  0.3941E+01  0.4534E+01E
 Epicentro: HATO - SANTANDER                                                   3
 ACTION:UPD 12-07-13 16:17 OP:ep   STATUS:               ID:20111220051641 L   I
 2011-12-20-0510-00M.COL___192                                                 6
 STAT SP IPHASW D HRMM SECON CODA AMPLIT PERI AZIMU VELO AIN AR TRES W  DIS CAZ7
 BAR2 SZ ES   1    517 10.38                             165   -0.24 7 30.4  79 
 BAR2 SZ I         517 13.99         9.3 0.51                          30.4  79 
 GIR2 SZ EP   1    516 59.18                             149   -0.19 7 66.0  26 
 GIR2 SZ ES   2    517 13.43                             149   -0.02 5 66.0  26 
 BRR  HE ES   1    517 13.73                             147    0.32 7 68.8 335 
 RUS  HZ EP   1    517  1.28                             143    0.27 7 82.6 150 
 RUS  HN ES   1    517 16.40                             143    0.03 7 82.6 150 
 RUS  HZ I         517 18.17         2.7 0.41                          82.6 150 
 PTB  HZ EP   2    517  2.46                             133   -0.20 5  111 270 
 PTB  HE ES   1    517 19.22                             133   -0.09 7  111 270 
                                                                                
