 2017  820 0619 40.7 L   7.193 -73.171  2.1  RSN  7 0.6 1.5LRSN                1
 GAP=153        1.05       3.0     2.1  6.0 -0.4204E+00  0.1002E+01  0.8704E+00E
 Epicentro: RIONEGRO - SANTANDER                                               3
 ACTION:UPD 17-09-04 20:22 OP:rebc STATUS:               ID:20170820061940 L   I
 OLDACT:UP  17-08-20 13:25 OP:mg   STATUS:               ID:20170820061713     3
 OLDACT:UP  17-08-20 13:24 OP:mg   STATUS:               ID:20170820061713     3
 OLDACT:UP  17-08-20 13:24 OP:mg   STATUS:               ID:20170820061713     3
 OLDACT:UP  17-08-20 13:23 OP:mg   STATUS:               ID:20170820061713     3
 OLDACT:UP  17-08-20 13:21 OP:mg   STATUS:               ID:20170820061713     3
 OLDACT:REG 17-08-20 11:27 OP:mg   STATUS:               ID:20170820061713     3
 2017-08-20-0618-00M.COL___405                                                 6
 STAT SP IPHASW D HRMM SECON CODA AMPLIT PERI AZIMU VELO AIN AR TRES W  DIS CAZ7
 PAM  EZ IP        619 50.56                              47    0.2210 54.5  73 
 PAM  EN ES        619 57.93                              47    0.0810 54.5  73 
 PAM  EZ I         619 59.22        16.1 0.16             47           54.5  73 
 BRR  HZ EP        619 50.42                              47   -0.3110 60.5 261 
 BRR  HN ES        619 58.49                              47   -0.0610 60.5 261 
 BRR  HZ I         619 59.11        11.1 0.14             47           60.5 261 
 BAR2 EZ EP   1 C  619 51.04                              47   -0.85 7 66.5 181 
 BAR2 EZ ES        620  1.10                              47    0.4910 66.5 181 
 BAR2 EZ I         620  4.25         9.5 0.16             47           66.5 181 
 RUS  HZ EP        620  3.88                              47   -0.04 9  144 176 
 RUS  HN ES   1    620 21.88                              47   -0.15 7  144 176 
 RUS  HZ I         620 25.02         9.0 0.34             47            144 176 
 TAM  HZ EP   3    620  6.71                              47   -1.27 2  174 119 
 TAM  HE ES   1    620 28.55                              47   -0.71 7  174 119 
 TAM  HZ I         620 34.65        12.0 0.34             47            174 119 
 ZAR  HZ EP   1    620 10.90                              37    0.97 7  189 280 
 ZAR  HN ES        620 32.24                              37   -0.48 9  189 280 
 ZAR  HZ I         620 36.08         3.9 0.28             37            189 280 
 SPBC HZ EP        620 11.64                              37    0.57 9  197 210 
 SPBC HN ES   3    620 36.57                              37    1.83 2  197 210 
 SPBC HZ I         620 38.54         7.8 0.34             37            197 210 
                                                                                
