 2014 1120 0756 39.6 L   6.483 -73.718 98.0  RSN  9 0.5 1.4LRSN                1
 GAP= 70        1.19       3.3     3.1  7.7 -0.1202E+01  0.5636E+01 -0.3088E+01E
 Epicentro: SANTA HELENA DEL OPON - SANTANDER                                  3
 ACTION:UPD 14-12-19 15:45 OP:nd   STATUS:               ID:20141120075639 L   I
 OLDACT:DUP 14-11-20 16:48 OP:fm   STATUS:               ID:20141120074749d    3
 OLDACT:UP  14-11-20 16:33 OP:spq  STATUS:               ID:20141120074748     3
 OLDACT:REG 14-11-20 13:17 OP:fm   STATUS:               ID:20141120074748     3
 2014-11-20-0747-48M.COL___295                                                 6
 STAT SP IPHASW D HRMM SECON CODA AMPLIT PERI AZIMU VELO AIN AR TRES W  DIS CAZ7
 BAR2 SZ EP        756 55.69                             146    0.2910 60.4  78 
 BAR2 SZ ES        757  8.60                             146    0.8710 60.4  78 
 BAR2 SZ I         757 10.02        18.9 0.22            149           60.4  78 
 BRR  HZ EP        756 55.80                             142    0.1210 69.0   1 
 BRR  HN ES        757  7.81                             142   -0.4110 69.0   1 
 BRR  HZ I         757 10.23         7.0 0.12            144           69.0   1 
 PTB  HZ IP     C  756 56.49                             137   -0.2510 81.9 274 
 PTB  HN ES        757  9.49                             137   -0.6110 81.9 274 
 PTB  HZ I         757 11.15         9.7 0.16            137           81.9 274 
 RUS  HZ EP        756 58.42                             133   -0.1910 95.9 133 
 RUS  HN ES        757 12.90                             133   -0.5410 95.9 133 
 RUS  HZ I         757 15.65         2.5 0.14            135           95.9 133 
 SPBC HZ EP        756 58.47                             131    0.0310 99.9 203 
 SPBC HE ES        757 13.72                             131    0.5910 99.9 203 
 SPBC HZ I         757 19.37         6.7 0.30            132           99.9 203 
 PAM  SZ EP        757  3.64                             120   -0.07 9  147  50 
 PAM  SN ES        757 21.85                             120   -0.67 9  147  50 
 PAM  SZ I         757 23.43         5.2 0.24            121            147  50 
 ZAR  HZ EP        757  5.07                             116   -0.34 9  168 312 
 ZAR  HE ES        757 25.72                             116    0.18 9  168 312 
 ZAR  HZ I         757 30.57         4.0 0.24            116            168 312 
 OCA  HN ES        757 32.90                             112    0.85 9  199  13 
 OCA  HZ I         757 37.81         4.0 0.16            112            199  13 
 HEL  HZ EP        757  9.84                             112    0.06 9  203 261 
 HEL  HN ES        757 33.60                             112    0.27 9  203 261 
 HEL  HZ I         757 38.21         1.7 0.24            111            203 261 
                                                                                
