 2011  620 0053 12.6 L   6.793 -73.129138.1  RSN  9 0.2 1.6LRSN                1
 GAP=139        0.52       2.9     5.2  6.0 -0.6163E+01 -0.1335E+01 -0.1984E+01E
 Epicentro: LOS SANTOS - SANTANDER                                             3
 ACTION:UP  11-07-14 19:06 OP:ep   STATUS:               ID:20110620005312 L   I
 2011-06-20-0051-47S.COL___140                                                 6
 STAT SP IPHASW D HRMM SECON CODA AMPLIT PERI AZIMU VELO SNR AR TRES W  DIS CAZ7
 BAR2 SZ EP   1    053 31.36                             170     0.0 7   23 195 
 BAR2 SZ ES   2    053 45.42                             170    -0.5 5   23 195 
 BAR2 SZ I         053 47.74        16.6 0.49                            23 195 
 BRR  HZ IP     C  053 33.17                             151     0.110   73 298 
 BRR  HZ I         053 33.45        18.6 0.20                            73 298 
 BRR  HE ES   2    053 49.40                             151     0.4 5   73 298 
 PAM  SZ EP   1    053 34.23                             150     0.2 7   77  38 
 RUS  HZ EP   2    053 35.67                             143     0.1 5  100 177 
 RUS  HN ES   2    053 53.31                             143    -0.1 5  100 177 
 RUS  HZ I         053 54.08         4.7 0.45                           100 177 
 BRI  SZ EP   1    053 35.84                             140     0.0 7  109  20 
 BRI  SZ I         054  0.77         4.5 0.50                           109  20 
 GRA  SZ IP        053 37.15                             135    -0.110  126  17 
 GRA  SZ I         053 38.57         6.9 0.21                           126  17 
 GRA  SZ ES   1    053 56.53                             135     0.1 7  126  17 
 OCA  SZ EP   1    053 39.92                             128    -0.5 7  161 353 
 OCA  SZ ES   2    054  2.07                             128    -0.1 5  161 353 
 OCA  SZ I         054  7.55         5.9 0.17                           161 353 
 NOR  SN ES   2    054 15.48                             117    -0.2 4  236 235 
 CHI  HN ES   2    054 19.10                             116     0.2 4  248 196 
 CHI  HZ I         054 26.67         2.3 0.29                           248 196 
                                                                                
