 2012  720 0325 47.6 L   6.742 -73.202148.4  RSN  5 0.3 1.4LRSN                1
 GAP=226        0.84       8.6     7.7  8.6  0.4327E+02  0.7103E+01  0.4106E+01E
 Epicentro: VILLANUEVA - SANTANDER                                             3
 ACTION:UPD 12-08-14 11:46 OP:ep   STATUS:               ID:20120720032547 L   I
 2012-07-20-0320-00M.COL___215                                                 6
 STAT SP IPHASW D HRMM SECON CODA AMPLIT PERI AZIMU VELO AIN AR TRES W  DIS CAZ7
 BAR2 SZ EP   1    326  7.10                             173    -0.3 7   17 173 
 BAR2 SZ ES   1    326 22.37                             173    -0.5 7   17 173 
 BAR2 SZ I         326 23.10         8.6 0.19            169             17 173 
 BRR  HZ EP   1    326  9.02                             154     0.1 7   69 306 
 BRR  HN ES   1    326 25.81                             154     0.3 7   69 306 
 BRR  HZ I         326 27.25         9.9 0.25            153             69 306 
 RUS  HZ EP        326 11.27                             146     0.110   95 172 
 RUS  HN ES   1    326 30.12                             146     0.5 7   95 172 
 RUS  HZ I         326 31.18         2.0 0.24            145             95 172 
 PTB  HZ EP   1    326 13.80                             134    -0.3 7  141 261 
 PTB  HN ES   1    326 34.44                             134    -0.4 7  141 261 
 PTB  HZ I         326 38.25         2.8 0.15            133            141 261 
 ZAR  HN ES   1    326 45.49                             123     0.4 6  201 294 
