 2012  720 0557 23.9 L   6.804 -73.139144.2  RSN  6 0.5 1.9LRSN                1
 GAP=184        1.11       6.3     8.1 11.0  0.1157E+02  0.1196E+01 -0.1453E+02E
 Epicentro: LOS SANTOS - SANTANDER                                             3
 ACTION:UPD 12-08-14 11:46 OP:ep   STATUS:               ID:20120720055723 L   I
 2012-07-20-0550-00M.COL___215                                                 6
 STAT SP IPHASW D HRMM SECON CODA AMPLIT PERI AZIMU VELO AIN AR TRES W  DIS CAZ7
 BAR2 SZ EP   1    557 43.50                             170     0.1 7   24 191 
 BAR2 SZ ES   1    557 57.92                             170    -0.7 7   24 191 
 BAR2 SZ I         558  0.95        16.8 0.24            171             24 191 
 BRR  HZ EP   1    557 45.43                             152     0.5 7   72 298 
 BRR  HN ES   1    558  2.06                             152     0.7 7   72 298 
 BRR  HZ I         558  5.82        12.7 0.12            149             72 298 
 RUS  HZ EP   1    557 47.66                             143     0.1 7  101 176 
 RUS  HN ES   1    558  6.31                             143     0.3 7  101 176 
 PTB  HZ EP   1    557 50.12                             131    -0.7 7  149 259 
 PTB  HN ES   1    558 11.42                             131    -0.4 7  149 259 
 PTB  HZ I         558 14.67         5.7 0.24            132            149 259 
 OCA  HZ EP   1    557 52.29                             129     0.2 7  160 353 
 OCA  HN ES   1    558 13.50                             129    -0.6 7  160 353 
 OCA  HZ I         558 17.59        14.5 0.21            130            160 353 
 ZAR  HN ES   1    558 21.92                             122     0.3 6  205 292 
 ZAR  HZ I         558 28.30         5.8 0.22            123            205 292 
