 2012 1220 0309 43.3 L   6.736 -73.188148.0  RSN  5 0.3 1.6LRSN                1
 GAP=228        0.63       5.2     6.1  5.8  0.1862E+02  0.2978E+00  0.3013E+01E
 Epicentro: VILLANUEVA - SANTANDER                                             3
 ACTION:UPD 13-01-04 14:29 OP:ep   STATUS:               ID:20121220030943 L   I
 2012-12-20-0304-50M.COL___216                                                 6
 STAT SP IPHASW D HRMM SECON CODA AMPLIT PERI AZIMU VELO AIN AR TRES W  DIS CAZ7
 BAR2 SZ EP   1    310  2.71                             174   -0.31 7 15.9 178 
 BAR2 SZ I         310 19.38        12.6 0.18                          15.9 178 
 BRR  HZ EP     C  310  4.55                             153   -0.0810 71.0 305 
 BRR  HN ES        310 21.62                             153    0.3110 71.0 305 
 BRR  HZ I         310 24.86        10.0 0.28                          71.0 305 
 RUS  HZ EP        310  6.72                             146   -0.0410 94.0 173 
 RUS  HN ES        310 25.08                             146   -0.0210 94.0 173 
 RUS  HN I         310 27.32         4.4 0.26                          94.0 173 
 PTB  HZ EP        310  9.70                             134   -0.18 9  142 261 
 PTB  HN ES   1    310 30.46                             134   -0.20 7  142 261 
 PTB  HZ I         310 35.70         4.6 0.14                           142 261 
 CHI  HZ EP   1    310 20.93                             119    0.72 6  241 195 
                                                                                
