 2014  920 0032 56.7 L   6.796 -73.099154.0  RSN  8 0.3 1.7LRSN                1
 GAP=143        0.78       3.7     4.1  5.3  0.7188E+00  0.4479E+01 -0.2204E+00E
 Epicentro: LOS SANTOS - SANTANDER                                             3
 ACTION:UPD 14-10-03 23:06 OP:nd   STATUS:               ID:20140920003256 L   I
 OLDACT:REG 14-09-20 12:06 OP:spq  STATUS:               ID:20140920002818     3
 2014-09-20-0028-18M.COL___293                                                 6
 STAT SP IPHASW D HRMM SECON CODA AMPLIT PERI AZIMU VELO AIN AR TRES W  DIS CAZ7
 BAR2 SZ EP        033 17.39                             171    0.0010 24.4 202 
 BAR2 SZ ES   1    033 32.80                             171   -0.69 7 24.4 202 
 BAR2 SZ I         033 34.79         7.3 0.28            169           24.4 202 
 PAM  SZ EP     C  033 20.14                             153    0.4510 74.5  36 
 PAM  SN ES        033 37.54                             153   -0.0410 74.5  36 
 PAM  SZ I         033 39.58         7.4 0.54            155           74.5  36 
 BRR  HZ EP        033 19.20                             152    0.1410 76.0 297 
 BRR  HE ES        033 36.78                             152    0.3210 76.0 297 
 BRR  HZ I         033 39.53         7.2 0.38            149           76.0 297 
 RUS  HZ EP        033 21.27                             146   -0.0010 99.9 179 
 RUS  HE ES   1    033 40.38                             146   -0.02 7 99.9 179 
 RUS  HZ I         033 41.45         2.7 0.20            149           99.9 179 
 PTB  HZ EP        033 24.35                             133   -0.50 9  153 259 
 PTB  HE ES   1    033 47.25                             133    0.49 7  153 259 
 PTB  HZ I         033 52.61        11.1 0.46            132            153 259 
 ZAR  HE ES   1    033 56.24                             123   -0.14 6  209 292 
 ZAR  HZ I         034  2.14         4.7 0.29            123            209 292 
 SML  HZ EP        033 33.69                             119   -0.44 8  246 334 
 SML  HN ES   1    034  3.08                             119   -0.20 6  246 334 
 SML  HZ I         034  8.99         6.3 0.10            119            246 334 
 GUY2CHZ EP   1    033 41.60                             114    0.40 5  305 235 
 GUY2CHN ES   4    034 19.27                             114    3.40 0  305 235 
 GUY2CHZ I         034 22.31         2.1 0.36                           305 235 
                                                                                
