 2016  220 0219 30.5 L   6.769 -73.138149.4  RSN  9 0.3 1.8LRSN                1
 GAP=139        0.75       3.2     3.1  4.8 -0.1476E+01  0.3645E+01  0.1987E+01E
 Epicentro: LOS SANTOS - SANTANDER                                             3
 ACTION:UPD 16-03-04 21:27 OP:rebc STATUS:               ID:20160220021930 L   I
 OLDACT:UP  16-02-20 16:41 OP:drio STATUS:               ID:20160220021738     3
 OLDACT:UP  16-02-20 16:41 OP:drio STATUS:               ID:20160220021738     3
 OLDACT:REG 16-02-20 13:03 OP:drio STATUS:               ID:20160220021738     3
 2016-02-20-0217-38M.COL___333                                                 6
 STAT SP IPHASW D HRMM SECON CODA AMPLIT PERI AZIMU VELO AIN AR TRES W  DIS CAZ7
 BAR2 EZ EP        219 50.52                             172    0.0210 20.2 194 
 BAR2 EZ ES        220  5.71                             172   -0.4010 20.2 194 
 BAR2 EZ I         220  6.92        18.8 0.14            168           20.2 194 
 BRR  HZ EP        219 52.42                             152    0.2410 73.7 301 
 BRR  HN ES        220  9.70                             152    0.6110 73.7 301 
 BRR  HZ I         220 10.08        15.5 0.30            150           73.7 301 
 PAM  EZ EP        219 53.30                             151    0.0810 79.5  37 
 PAM  EE ES        220 10.71                             151   -0.2410 79.5  37 
 PAM  EZ I         220 11.10         5.5 0.36            155           79.5  37 
 RUS  HZ EP        219 54.20                             145   -0.1610 97.1 176 
 RUS  HN ES        220 13.15                             145    0.1710 97.1 176 
 RUS  HZ I         220 14.22         3.8 0.26            146           97.1 176 
 PTB  HZ EP        219 57.45                             133   -0.33 9  148 260 
 PTB  HE ES        220 18.79                             133   -0.28 9  148 260 
 PTB  HZ I         220 25.72         7.2 0.44            131            148 260 
 SPBC HZ EP        219 59.43                             130    0.35 9  161 220 
 SPBC HE ES        220 21.63                             130    0.26 9  161 220 
 SPBC HZ I         220 26.62         8.1 0.46            129            161 220 
 ZAR  HZ EP   4    220  1.94                             123   -1.46 0  206 293 
 ZAR  HE ES        220 28.91                             123   -0.15 8  206 293 
 ZAR  HZ I         220 34.06         6.4 0.32            123            206 293 
 NOR  HZ EP        220  6.30                             119   -0.00 8  233 235 
 NOR  HE ES        220 33.95                             119   -0.28 8  233 235 
 NOR  HZ I         220 40.64         5.3 0.22            119            233 235 
 GUY2CHZ EP   4    220 15.72                             113    1.59 0  300 235 
 GUY2CHE ES   4    220 53.11                             113    4.94 0  300 235 
 GUY2CHZ I         220 56.81         3.9 0.48                           300 235 
 SJC  HZ EP   4    220 24.89                             106   -1.68 0  413 327 
 SJC  HN ES   4    221  7.94                             106   -2.37 0  413 327 
                                                                                
