 2010  720 0618 49.5 L   6.768 -73.120144.0  RSN  7 0.4 1.5LRSN                1
 GAP=162        1.05       7.8    15.1 12.9  0.3894E+02 -0.8494E+02 -0.4429E+02E
 Epicentro: LOS SANTOS - SANTANDER                                             3
 ACTION:UPD 10-12-01 15:18 OP:pat  STATUS:               ID:20100720061849 L   I
 2010-07-20-0617-38S.COL___123                                                 6
 STAT SP IPHASW D HRMM SECON CODA AMPLIT PERI AZIMU VELO AIN AR TRES W  DIS CAZ7
 BAR2 SZ ES   2    619 23.62                             172    -0.3 5   21 200 
 BAR2 SZ I         619 24.90        12.4 0.13                            21 200 
 BRR  HZ IP     C  619 10.31                             151    -0.410   75 300 
 BRR  HN ES   1    619 27.54                             151     0.3 7   75 300 
 BRR  HZ I         619 29.26         5.0 0.02                            75 300 
 RUS  HZ EP   1    619 12.58                             145    -0.2 7   97 178 
 RUS  HE ES   1    619 31.26                             145     0.3 7   97 178 
 RUS  HZ I         619 32.16         4.9 0.11                            97 178 
 GUE  SZ EP   1    619 15.00                             139     0.7 7  119  10 
 GUE  SZ I         619 39.76         1.0 0.11                           119  10 
 GRA  SZ EP   1    619 14.23                             136    -0.6 7  128  16 
 GRA  SZ I         619 34.89         3.4 0.28                           128  16 
 OCA  SZ EP   2    619 18.38                             129     0.4 5  164 352 
 OCA  SZ I         619 43.30         3.9 0.55                           164 352 
 PRA  HZ EP   2    619 43.10                             107     0.4 3  390 210 
 PRA  HZ I         620 30.59         1.9 0.44                           390 210 
                                                                                
