 2011  420 0615  9.8 L   6.779 -73.119141.5  RSN  7 0.4 1.8LRSN                1
 GAP=162        0.99       6.9     8.6  7.8 -0.2858E+02  0.9610E+01 -0.2240E+01E
 Epicentro: LOS SANTOS - SANTANDER                                             3
 ACTION:UP  11-06-22 15:31 OP:REBC STATUS:               ID:20110420061509 L   I
 2011-04-20-0613-02S.COL___138                                                 6
 STAT SP IPHASW D HRMM SECON CODA AMPLIT PERI AZIMU VELO SNR AR TRES W  DIS CAZ7
 BAR2 SZ EP        615 28.97                             171     0.110   22 199 
 BAR2 SZ ES   1    615 42.87                             171    -0.9 7   22 199 
 BAR2 SZ I         615 45.28        17.2 0.28                            22 199 
 BTL  SZ EP        615 29.10                             171     0.210   23 313 
 BRR  HZ EP        615 30.73                             151     0.010   75 299 
 BRR  HN ES   1    615 47.52                             151     0.5 7   75 299 
 BRR  HZ I         615 51.78        18.4 0.12                            75 299 
 PAM  SZ EP        615 31.93                             150     0.410   77  37 
 PAM  SZ I         615 32.07         5.7 0.20                            77  37 
 PAM  SN ES   1    615 48.72                             150     0.2 7   77  37 
 GRA  SZ EP        615 34.70                             136    -0.110  127  16 
 GRA  SZ ES   2    615 54.08                             136    -0.2 5  127  16 
 GRA  SZ I         615 55.28         9.0 0.36                           127  16 
 OCA  SZ EP        615 37.33                             128    -0.7 9  163 352 
 OCA  SZ ES   2    615 59.91                             128    -0.1 5  163 352 
 OCA  SZ I         616  3.69        11.5 0.50                           163 352 
 NOR  SZ EP        615 45.39                             117     0.0 8  236 235 
 NOR  SN ES   3    616 13.14                             117     0.0 2  236 235 
                                                                                
