 2013  220 0720 34.8 L   6.768 -73.172146.0  RSN  4 0.4 1.4LRSN                1
 GAP=232        0.72       6.3     7.8  7.6  0.2625E+02  0.1161E+02 -0.1527E+01E
 Epicentro: LOS SANTOS - SANTANDER                                             3
 ACTION:UPD 13-03-12 09:34 OP:ep   STATUS:               ID:20130220072034 L   I
 2013-02-20-0720-00M.COL___241                                                 6
 STAT SP IPHASW D HRMM SECON CODA AMPLIT PERI AZIMU VELO AIN AR TRES W  DIS CAZ7
 BAR2 SZ EP   2    720 54.05                             172   -0.29 5 19.5 183 
 BAR2 SZ ES   2    721  8.73                             172   -0.88 5 19.5 183 
 BAR2 SZ I         721 11.15         5.9 0.28            173           19.5 183 
 BRR  HZ EP        720 55.70                             153   -0.1810 70.4 302 
 BRR  HN ES        721 12.72                             153    0.3610 70.4 302 
 BRR  HN I         721 13.04         4.2 0.22            154           70.4 302 
 RUS  HN ES        721 16.85                             145    0.2010 97.3 174 
 PTB  HZ EP        721  1.51                             133    0.09 9  144 260 
 PTB  HN ES   1    721 21.88                             133   -0.33 7  144 260 
                                                                                
