 2017  220 0106 49.7 L   6.776 -73.177148.0  RSN 13 0.5 2.1LRSN                1
 GAP=134        1.00       3.4     3.6  5.3 -0.4385E-01  0.6580E+01  0.3272E+01E
 Epicentro: LOS SANTOS - SANTANDER                                             3
 ACTION:UPD 17-05-24 15:38 OP:jn   STATUS:               ID:20170220010649 L   I
 OLDACT:UP  17-02-20 13:35 OP:dani STATUS:               ID:20170220005742     3
 OLDACT:UP  17-02-20 13:35 OP:dani STATUS:               ID:20170220005742     3
 OLDACT:UP  17-02-20 13:35 OP:dani STATUS:               ID:20170220005742     3
 OLDACT:REG 17-02-20 12:11 OP:dani STATUS:               ID:20170220005742     3
 2017-02-20-0058-00M.COL___351                                                 6
 STAT SP IPHASW D HRMM SECON CODA AMPLIT PERI AZIMU VELO AIN AR TRES W  DIS CAZ7
 BAR2 EZ EP     C  1 7  9.49                             172   -0.0410 20.4 182 
 BAR2 EZ ES        1 7 24.70                             172   -0.3010 20.4 182 
 BAR2 EZ I         1 7 27.71        24.4 0.34            169           20.4 182 
 BRR  HZ EP     C  1 7 11.41                             153    0.4310 69.5 302 
 BRR  HN ES        1 7 28.34                             153    0.7510 69.5 302 
 BRR  HZ I         1 7 29.86        27.7 0.16            151           69.5 302 
 PAM  EZ EP     C  1 7 12.33                             150   -0.0610 81.6  40 
 PAM  EN ES        1 7 29.70                             150   -0.4010 81.6  40 
 PAM  EZ I         1 7 31.98        13.7 0.18            156           81.6  40 
 RUS  HZ EP        1 7 13.37                             145   -0.1210 98.3 174 
 RUS  HE ES        1 7 31.94                             145   -0.1210 98.3 174 
 RUS  HZ I         1 7 34.20        12.4 0.38            146           98.3 174 
 PTB  HZ EP        1 7 15.99                             133   -0.49 9  144 260 
 PTB  HN ES        1 7 37.33                             133   -0.05 9  144 260 
 PTB  HZ I         1 7 42.75        23.0 0.32            132            144 260 
 ZAR  HZ EP        1 7 22.13                             123    0.08 9  202 293 
 ZAR  HN ES        1 7 47.62                             123    0.33 9  202 293 
 ZAR  HZ I         1 7 53.01        20.6 0.54            123            202 293 
 NOR  HZ EP        1 7 25.63                             119    0.55 8  230 234 
 NOR  HN ES        1 7 52.98                             119    0.30 8  230 234 
 NOR  HZ I         1 7 58.32        14.1 0.20            120            230 234 
 CHI  HZ EP        1 7 27.52                             118    0.38 8  245 195 
 CHI  HN ES        1 7 56.10                             118   -0.25 8  245 195 
 CHI  HZ I         1 8  2.49         3.7 0.26            119            245 195 
 ROSC BZ EP   9    1 7 30.44                             118    2.95 0  249 211 
 ROSC BN ES        1 8  0.89                             117    0.97 8  249 211 
 ROSC BZ I         1 8  1.73         5.8 0.28            118            249 211 
 URE  HZ EP   3    1 7 29.35                             114   -1.26 2  282 293 
 URE  HN ES   3    1 8  1.20                             114   -1.34 2  282 293 
 URE  HZ I         1 8 11.22        12.1 0.26            115            282 293 
 CBOC HZ EP   3    1 7 37.51                             111    1.29 2  329 252 
 CBOC HE ES        1 8 11.59                             111   -0.93 7  329 252 
 CBOC HZ I         1 8 26.00         2.9 0.48            111            329 252 
 DBB  EZ EP        1 7 36.58                             110   -0.30 7  336 275 
 DBB  EN ES        1 8 12.99                             110   -0.69 7  336 275 
 DBB  EZ I         1 8 16.17         3.2 0.24            111            336 275 
 PRA  HZ EP        1 7 43.45                             107    0.63 6  388 209 
 PRA  HN ES        1 8 24.51                             107    0.25 6  388 209 
 PRA  HZ I         1 8 28.77         4.4 0.60            108            388 209 
                                                                                
