 2013  220 0041 45.2 L   6.824 -73.143149.9  RSN 10 0.5 2.4LRSN                1
 GAP=136        1.34       4.0     5.6  8.0  0.1163E+01  0.9691E+01  0.1603E+01E
 Epicentro: LOS SANTOS - SANTANDER                                             3
 ACTION:UPD 13-03-12 09:34 OP:ep   STATUS:               ID:20130220004145 L   I
 2013-02-20-0040-00M.COL___241                                                 6
 STAT SP IPHASW D HRMM SECON CODA AMPLIT PERI AZIMU VELO AIN AR TRES W  DIS CAZ7
 BAR2 SZ EP        042  5.37                             170    0.0010 26.0 190 
 BAR2 SZ ES        042 20.47                             170   -0.6410 26.0 190 
 BAR2 SZ I         042 22.10        27.2 0.34            170           26.0 190 
 BRR  HZ EP        042  7.35                             154    0.6110 70.3 297 
 BRR  HE ES        042 24.66                             154    1.1210 70.3 297 
 BRR  HE I         042 25.02        47.2 0.36            151           70.3 297 
 PAM  SZ EP        042  8.25                             152    0.5310 75.2  41 
 PAM  SN ES        042 25.45                             152    0.1610 75.2  41 
 PAM  SN I         042 25.62        25.0 0.38            154           75.2  41 
 RUS  HZ EP        042  9.24                             144   -0.2910  103 176 
 RUS  HN ES        042 28.31                             144   -0.2110  103 176 
 PTB  HZ EP        042 12.07                             133   -0.50 9  149 258 
 PTB  HN ES        042 33.13                             133   -0.80 9  149 258 
 PTB  HN I         042 38.83        40.4 0.32            132            149 258 
 OCA  HN ES        042 35.38                             131   -0.36 9  158 353 
 OCA  HN I         042 40.83        76.1 0.24            131            158 353 
 ZAR  HN ES        042 43.45                             123    0.14 9  203 291 
 ZAR  HN I         042 48.88        21.1 0.48            122            203 291 
 SML  HZ EP        042 21.65                             119   -0.16 8  241 335 
 SML  HN ES        042 49.65                             119   -0.72 8  241 335 
 SML  HN I         042 53.61        37.4 0.10            118            241 335 
 CHI  HZ EP        042 23.46                             118    0.06 8  251 195 
 CHI  HN ES        042 53.65                             118    0.44 8  251 195 
 CHI  HN I         042 56.42        11.7 0.22            118            251 195 
 HEL  HN ES   1    042 58.28                             115    0.94 6  273 255 
                                                                                
