 2017 1120 0859 41.2 L   6.722 -73.223134.1  RSN  5 0.4 1.1LRSN                1
 GAP=166        0.96       7.7     4.1  8.3  0.1515E+02  0.2601E+01 -0.2213E+02E
 Epicentro: VILLANUEVA - SANTANDER                                             3
 ACTION:UPD 17-12-12 19:57 OP:rebc STATUS:               ID:20171120085941 L   I
 OLDACT:REG 17-11-20 15:26 OP:osc  STATUS:               ID:20171120085740     3
 2017-11-20-0858-00M.COL___477                                                 6
 STAT SP IPHASW D HRMM SECON CODA AMPLIT PERI AZIMU VELO AIN AR TRES W  DIS CAZ7
 BAR2 EZ EP        859 58.70                             173   -0.5910 15.0 163 
 BAR2 EZ ES        9 0 13.07                             173   -0.3210 15.0 163 
 BAR2 EZ I         9 0 17.40         7.0 0.56            176           15.0 163 
 RUS  HZ EP        9 0  3.09                             143   -0.1810 93.0 170 
 RUS  HN ES        9 0 20.53                             143    0.0610 93.0 170 
 RUS  HZ I         9 0 22.40         1.3 0.30            149           93.0 170 
 PTB  HZ EP        9 0  6.30                             131   -0.04 9  138 262 
 PTB  HN ES        9 0 26.45                             131    0.52 9  138 262 
 PTB  HZ I         9 0 32.52         0.8 0.40            134            138 262 
 TAM  HE ES        9 0 30.65                             126    0.67 9  161 101 
 ZAR  HZ EP        9 0 12.31                             120   -0.16 9  200 295 
 ZAR  HN ES        9 0 37.07                             120    0.23 9  200 295 
 ZAR  HZ I         9 0 42.39         1.8 0.32            123            200 295 
                                                                                
