 2016  820 0714 37.7 L   6.838 -73.105148.5  RSN 20 0.7 2.2LRSN                1
 GAP=121        1.33       3.1     4.0  5.6  0.1096E-01  0.5315E+01  0.1023E+01E
 Epicentro: LOS SANTOS - SANTANDER                                             3
 ACTION:UPD 16-10-29 15:37 OP:rebc STATUS:               ID:20160820071437 L   I
 OLDACT:UP  16-08-20 19:28 OP:ar   STATUS:               ID:20160820070744     3
 OLDACT:REG 16-08-20 14:37 OP:ar   STATUS:               ID:20160820070744     3
 2016-08-20-0707-44M.COL___349                                                 6
 STAT SP IPHASW D HRMM SECON CODA AMPLIT PERI AZIMU VELO AIN AR TRES W  DIS CAZ7
 BAR2 EZ EP        714 57.78                             169   -0.0110 28.5 198 
 BAR2 EZ ES        715 13.45                             169    0.0010 28.5 198 
 BAR2 EZ I         715 14.07        64.5 0.32                          28.5 198 
 PAM  EZ EP        715  0.57                             153    0.6910 71.2  39 
 PAM  EN ES        715 16.95                             153   -0.2110 71.2  39 
 PAM  EZ I         715 20.03        40.1 0.54                          71.2  39 
 BRR  HZ EP        714 59.55                             152    0.2610 73.4 294 
 BRR  HN ES        715 16.13                             152    0.0210 73.4 294 
 BRR  HZ I         715 19.87        31.9 0.28                          73.4 294 
 RUS  HZ EP        715  1.95                             143   -0.0810  105 179 
 RUS  HN ES        715 20.91                             143   -0.0810  105 179 
 RUS  HZ I         715 21.45         9.9 0.30                           105 179 
 PTB  HZ EP   9    715  4.41                             131   -0.98 0  153 258 
 PTB  HN ES        715 25.53                             132   -0.46 9  153 258 
 PTB  HZ I         715 31.20        17.9 0.16                           153 258 
 SPBC HZ EP        715  6.81                             128   -0.20 9  169 219 
 SPBC HN ES        715 29.31                             128   -0.55 9  169 219 
 SPBC HZ I         715 33.70        17.9 0.34                           169 219 
 ZAR  HZ EP        715 11.26                             122    0.64 8  207 291 
 ZAR  HN ES        715 36.22                             122   -0.06 8  207 291 
 ZAR  HZ I         715 42.33        18.7 0.60                           207 291 
 NOR  HZ EP        715 14.56                             118    0.29 8  241 234 
 NOR  HN ES        715 43.01                             118    0.23 8  241 234 
 NOR  HZ I         715 47.75         7.7 0.16                           241 234 
 CHI  HZ EP        715 16.18                             117    0.03 8  254 196 
 CHI  HE ES        715 46.11                             117   -0.01 8  254 196 
 CHI  HZ I         715 48.86         6.0 0.46                           254 196 
 ROSC BZ EP        715 17.85                             116    1.21 8  259 211 
 ROSC BN ES        715 47.35                             116    0.35 8  259 211 
 ROSC BZ I         715 54.06        10.2 0.35                           259 211 
 HEL  HZ EP        715 18.95                             115    0.27 7  278 255 
 HEL  HN ES        715 50.67                             115    0.05 7  278 255 
 HEL  HZ I         715 58.14         6.2 0.28                           278 255 
 URE  HZ EP        715 18.52                             114   -0.71 7  287 291 
 URE  HE ES        715 51.28                             114   -0.32 7  287 291 
 URE  HZ I         715 59.71         9.7 0.18                           287 291 
 GUY2CHZ EP        715 22.64                             112    0.49 7  307 235 
 GUY2CHN ES        715 57.37                             112    0.57 7  307 235 
 GUY2CHZ I         716  6.14         4.4 0.38                           307 235 
 PTGC HZ EP        715 21.07                             112   -0.90 7  311 160 
 PTGC HN ES        715 54.77                             112   -1.71 7  311 160 
 PTGC HZ I         715 59.31         6.4 0.36                           311 160 
 LL6C HZ EP        715 23.19                             111    0.10 7  321 357 
 LL6C HN ES        715 59.39                             111    0.92 7  321 357 
 CBOC HZ EP        715 26.66                             110    1.26 7  339 252 
 CBOC HE ES        716  2.33                             110   -0.25 7  339 252 
 DBB  EZ EP   4    715 22.72                             109   -3.08 0  344 273 
 DBB  EZ ES        716  3.05                             109   -0.25 7  344 273 
 DBB  EZ I         716  5.47         2.9 0.64                           344 273 
 PRA  HZ EP        715 31.83                             106   -0.20 6  398 210 
 PRA  HN ES        716 13.76                             106   -0.63 6  398 210 
 PRA  HZ I         716 18.82         8.9 0.52                           398 210 
 SJC  HZ EP        715 32.44                             106   -0.82 6  408 326 
 SJC  HN ES        716 13.88                             106   -2.69 6  408 326 
 SJC  HZ I         716 27.43         3.1 0.30                           408 326 
 CRJC HZ EP   9    715 37.94                             104   -1.83 0  463   3 
 CRJC HE ES        716 26.10                             104   -0.23 5  463   3 
                                                                                
