 2014  920 0125 13.6 L   6.786 -73.130149.6  RSN 16 0.4 2.1LRSN                1
 GAP= 72        0.83       2.5     2.8  4.5 -0.1864E+00  0.1484E+01  0.1999E+01E
 Epicentro: LOS SANTOS - SANTANDER                                             3
 ACTION:UPD 14-10-03 23:06 OP:nd   STATUS:               ID:20140920012513 L   I
 OLDACT:REG 14-09-20 12:10 OP:spq  STATUS:               ID:20140920011817     3
 2014-09-20-0118-17M.COL___293                                                 6
 STAT SP IPHASW D HRMM SECON CODA AMPLIT PERI AZIMU VELO AIN AR TRES W  DIS CAZ7
 BAR2 SZ IP     D  125 33.57                             171   -0.0610 22.2 195 
 BAR2 SZ ES   1    125 48.68                             171   -0.60 7 22.2 195 
 BAR2 SZ I         125 51.88        22.0 0.36            169           22.2 195 
 BRR  HZ EP        125 35.44                             152    0.1910 73.4 299 
 BRR  HN ES        125 52.80                             152    0.6410 73.4 299 
 BRR  HZ I         125 55.36        16.0 0.30            149           73.4 299 
 PAM  SZ EP     C  125 36.42                             151    0.2210 77.5  38 
 PAM  SN ES        125 53.71                             151   -0.1410 77.5  38 
 PAM  SZ I         125 55.62        29.7 0.18            154           77.5  38 
 RUS  HZ EP        125 37.68                             145    0.1010 98.9 177 
 RUS  HN ES        125 56.39                             145    0.0910 98.9 177 
 RUS  HZ I         125 58.81        11.2 0.28            145           98.9 177 
 PTB  HZ EP        125 40.23                             133   -0.74 9  149 260 
 PTB  HE ES        126  2.31                             133   -0.03 9  149 260 
 PTB  HZ I         126  3.58        23.5 0.12            131            149 260 
 TAM  HZ IP     D  125 41.71                             132    0.35 9  153 105 
 TAM  HE ES   1    126  2.34                             132   -0.70 7  153 105 
 OCA  HN ES   1    126  5.15                             130    0.37 7  162 353 
 OCA  HZ I         126  7.50        12.4 0.18            130            162 353 
 SPBC HZ EP        125 42.35                             130    0.00 9  163 220 
 SPBC HN ES        126  4.63                             130   -0.16 9  163 220 
 SPBC HZ I         126  7.31        17.7 0.41            129            163 220 
 ZAR  HE ES        126 11.85                             123   -0.31 8  206 292 
 ZAR  HZ I         126 18.55        12.2 0.32            122            206 292 
 SML  HZ EP        125 50.46                             118   -0.18 8  246 335 
 SML  HE ES   1    126 19.45                             118   -0.10 6  246 335 
 SML  HZ I         126 21.04        10.1 0.06            118            246 335 
 CHI  HZ EP        125 51.59                             118    0.23 8  248 196 
 CHI  HN ES   1    126 20.90                             118    0.06 6  248 196 
 CHI  HZ I         126 26.94         3.3 0.16            118            248 196 
 ROSC BZ EP   4    125 54.27                             117    2.42 0  252 212 
 ROSC BN ES   4    126 23.79                             117    2.09 0  252 212 
 ROSC BZ I         126 28.11        11.3 0.40            117            252 212 
 GUY2CHZ EP   1    125 57.48                             113    0.07 5  302 235 
 GUY2CHE ES   4    126 34.44                             113    2.84 0  302 235 
 GUY2CHZ I         126 40.06         5.3 0.22                           302 235 
 TOL  SZ EP   1    126  1.37                             110   -0.62 5  344 225 
 TOL  SN ES   4    126 42.39                             110    2.64 0  344 225 
 TOL  SZ I         126 45.84        11.2 0.34            110            344 225 
 MON  HZ EP   4    126  0.61                             109   -2.37 0  356 308 
 MON  HN ES   4    126 38.33                             109   -3.19 0  356 308 
 MON  HZ I         126 55.88         2.7 0.34            109            356 308 
 PRA  HZ EP        126  7.06                             107   -0.10 6  391 210 
 PRA  HN ES        126 49.89                             107    0.93 6  391 210 
 PRA  HZ I         126 53.61         4.2 0.30            107            391 210 
                                                                                
