 2016  120 0007  7.1 L   5.880 -74.100 91.3  RSN 10 0.2 1.6LRSN                1
 GAP=114        0.59       1.8     1.6  3.6  0.3789E+00  0.7781E+00  0.1243E+01E
 Epicentro: LA BELLEZA - SANTANDER                                             3
 ACTION:UPD 16-03-09 23:27 OP:cam  STATUS:               ID:20160120000707 L   I
 OLDACT:UP  16-02-23 20:53 OP:AR   STATUS:               ID:20160120000707 L   3
 OLDACT:UP  16-01-20 14:13 OP:mh   STATUS:               ID:20160120000005     3
 OLDACT:REG 16-01-20 12:16 OP:mh   STATUS:               ID:20160120000005     3
 2016-01-20-0000-05M.COL___330                                                 6
 STAT SP IPHASW D HRMM SECON CODA AMPLIT PERI AZIMU VELO AIN AR TRES W  DIS CAZ7
 SPBC HZ EP        0 7 20.05                             163    0.0210 25.4 173 
 SPBC HE ES        0 7 30.37                             163    0.2210 25.4 173 
 SPBC HZ I         0 7 31.07        27.3 0.16            162           25.4 173 
 PTB  HZ EP        0 7 23.84                             134    0.1510 82.9 332 
 PTB  HN ES        0 7 36.63                             134   -0.0310 82.9 332 
 PTB  HZ I         0 7 38.84         6.8 0.16            135           82.9 332 
 NOR  HZ EP        0 7 24.43                             131   -0.1510 92.1 248 
 NOR  HN ES        0 7 38.08                             131   -0.1610 92.1 248 
 NOR  HZ I         0 7 38.50        21.5 0.38            130           92.1 248 
 RUS  HZ EP        0 7 27.60                             125    0.4610  113  89 
 RUS  HN ES        0 7 42.47                             125   -0.3410  113  89 
 RUS  HZ I         0 7 44.81         3.8 0.18            126            113  89 
 CHI  HZ EP        0 7 30.43                             118    0.07 9  144 164 
 CHI  HE ES        0 7 48.28                             118   -0.26 9  144 164 
 CHI  HZ I         0 7 51.12         2.9 0.22            118            144 164 
 GUY2CHZ EP        0 7 32.09                             116    0.15 9  158 243 
 GUY2CHN ES        0 7 51.47                             116    0.12 9  158 243 
 GUY2CHZ I         0 7 56.94         7.0 0.32                           158 243 
 HEL  HZ EP        0 7 32.20                             115   -0.06 9  162 282 
 HEL  HN ES        0 7 51.84                             115   -0.07 9  162 282 
 HEL  HZ I         0 7 55.76         8.0 0.32            115            162 282 
 ZAR  HN ES   2    0 7 57.84                             110   -0.39 4  197 335 
 ANIL HZ EP   4    0 7 37.78                             109    0.00 0  211 223 
 ANIL HE ES   4    0 8  1.62                             109   -0.12 0  211 223 
 ANIL HZ I         0 8  4.48        14.5 0.24            108            211 223 
 PRA  HZ EP        0 7 42.24                             105   -0.43 8  255 200 
 PRA  HN ES        0 8 10.78                             105    0.33 8  255 200 
 PRA  HZ I         0 8 16.90         2.3 0.28            105            255 200 
                                                                                
