 2012  720 0547 17.1 L   6.732 -73.186150.9  RSN  5 0.3 1.3LRSN                1
 GAP=227        0.77       8.3     8.1  8.0  0.4002E+02  0.1694E+02  0.6948E+01E
 Epicentro: VILLANUEVA - SANTANDER                                             3
 ACTION:UPD 12-08-14 11:46 OP:ep   STATUS:               ID:20120720054717 L   I
 2012-07-20-0540-00M.COL___215                                                 6
 STAT SP IPHASW D HRMM SECON CODA AMPLIT PERI AZIMU VELO AIN AR TRES W  DIS CAZ7
 BAR2 SZ ES   1    547 52.28                             174    -0.6 8   15 179 
 BAR2 SZ I         547 54.96         5.9 0.28            168             15 179 
 BRR  HZ EP   1    547 38.91                             153     0.1 8   71 306 
 BRR  HN ES   1    547 56.16                             153     0.4 8   71 306 
 BRR  HZ I         547 59.68         4.7 0.25            152             71 306 
 RUS  HZ EP   1    547 40.79                             147     0.0 8   94 173 
 RUS  HE ES   1    547 59.76                             147     0.4 8   94 173 
 RUS  HZ I         548  2.17         1.4 0.45            147             94 173 
 PTB  HZ EP        547 43.86                             134    -0.110  142 261 
 PTB  HN ES   1    548  4.86                             134    -0.1 7  142 261 
 PTB  HZ I         548 10.81         2.3 0.27            134            142 261 
 ZAR  HN ES   2    548 14.99                             124    -0.2 5  203 295 
