 2010 1220 0450  7.7 L   6.209 -73.541116.0  RSN  5 0.4 1.2LRSN                1
 GAP=215        0.65       8.3     5.3 12.0  0.2257E+01  0.3224E+02  0.2350E+01E
 Epicentro: AGUADA - SANTANDER                                                 3
 ACTION:UP  11-01-14 15:26 OP:pat  STATUS:               ID:20101220045007 L   I
 2010-12-20-0440-00M.COL___132                                                 6
 STAT SP IPHASW D HRMM SECON CODA AMPLIT PERI AZIMU VELO SNR AR TRES W  DIS CAZ7
 RUS  HZ EP   1    450 25.71                             151     0.0 7   62 125 
 RUS  HN ES   2    450 40.23                             151     0.3 5   62 125 
 RUS  HZ I         450 46.69         1.9 0.75                            62 125 
 NOR  SZ EP   2    450 33.56                             121    -0.5 5  164 244 
 NOR  SN ES   2    450 54.04                             121    -0.6 5  164 244 
 CHI  HZ EP   1    450 35.57                             120    -0.2 7  176 187 
 CHI  HZ I         450 35.98         3.0 0.33                           176 187 
 CHI  HE ES   2    450 57.79                             120     0.0 4  176 187 
 HEL  HZ EP   2    450 40.96                             113     0.4 4  220 270 
 HEL  HN ES   2    451  6.32                             113     0.0 4  220 270 
 HEL  HZ I         451  9.73         1.6 0.18                           220 270 
 RREF HZ EP   2    450 44.39                             111     0.4 4  247 234 
 RREF HE ES   2    451 13.27                             111     1.0 4  247 234 
 RREF HZ I         451 16.76         1.6 0.15                           247 234 
                                                                                
