 2010  820 0511 14.6 L   6.771 -73.103149.0  RSN  4 0.0 1.1LRSN                1
 GAP=165        0.30       2.9    19.0  4.9 -0.1609E+02 -0.4625E+02 -0.4760E+01E
 Epicentro: LOS SANTOS - SANTANDER                                             3
 ACTION:UP  10-09-07 10:56 OP:vdl  STATUS:               ID:20100820051114 L   I
 2010-08-20-0506-35S.COL___117                                                 6
 STAT SP IPHASW D HRMM SECON CODA AMPLIT PERI AZIMU VELO SNR AR TRES W  DIS CAZ7
 BAR2 SZ EP        511 34.66                             171     0.010   22 204 
 BAR2 SZ ES   1    511 50.21                             171     0.0 7   22 204 
 BAR2 SZ I         511 51.39         5.9 0.08                            22 204 
 RUS  HZ EP   1    511 38.45                             146     0.0 7   97 179 
 RUS  HZ I         511 39.73         1.5 0.24                            97 179 
 RUS  HN ES   1    511 57.05                             146     0.0 7   97 179 
 GUE  SZ EP   1    511 39.77                             140    -0.1 7  119  10 
 GUE  SZ I         512  9.42         0.8 0.15                           119  10 
 GRA  SZ EP   1    511 40.38                             138     0.1 7  128  15 
 GRA  SZ I         512  1.28         2.9 0.51                           128  15 
                                                                                
