 2013  320 0741  2.3 L   6.828 -73.151150.0  RSN  7 0.3 1.7LRSN                1
 GAP=135        0.71       3.2     3.3  5.5  0.8632E+00  0.3066E+01 -0.3440E+01E
 Epicentro: LOS SANTOS - SANTANDER                                             3
 ACTION:UPD 13-04-09 14:03 OP:ep   STATUS:               ID:20130320074000 L   I
 2013-03-20-0740-00M.COL___244                                                 6
 STAT SP IPHASW D HRMM SECON CODA AMPLIT PERI AZIMU VELO AIN AR TRES W  DIS CAZ7
 BAR2 SZ EP        741 22.50                             170   -0.0210 26.3 188 
 BAR2 SZ ES   1    741 38.86                             170    0.58 7 26.3 188 
 BAR2 SZ I         741 48.34         7.7 0.60            172           26.3 188 
 BRR  HN ES   1    741 41.00                             154    0.41 7 69.3 296 
 PAM  SZ IP     C  741 25.22                             152    0.3510 75.4  41 
 PAM  SE ES        741 42.11                             152   -0.3510 75.4  41 
 PAM  SE I         741 43.83        10.2 0.30            156           75.4  41 
 RUS  HZ EP        741 26.74                             144    0.0210  104 176 
 RUS  HN ES        741 45.39                             144   -0.3510  104 176 
 RUS  HN I         741 46.92         5.5 0.54            149            104 176 
 PTB  HZ EP   1    741 29.61                             133   -0.04 7  148 258 
 PTB  HE ES        741 50.81                             133   -0.15 9  148 258 
 PTB  HE I         741 54.11         5.3 0.22            137            148 258 
 ZAR  HN ES        742  0.33                             123    0.06 9  202 291 
 SML  HZ EP        741 39.02                             119    0.16 8  241 335 
 SML  HN ES   1    742  6.81                             119   -0.55 6  241 335 
 SML  HN I         742 12.20         8.8 0.28            123            241 335 
                                                                                
