 2012 1020 0525 17.6 L   6.818 -73.148144.4  RSN 14 0.4 2.7LRSN 3.1WRSN        1
 SPEC AVERAGE  MO 13.7 ST 10.4 OM  2.8 f0 5.17 R0.2883 AL 4.60 WI 10.1 MW  3.1 3
 SPEC SD       MO  0.2 ST  2.9 OM  0.9 f00.591 R0.0362 AL      WI      MW  0.1 3
 GAP= 65        0.75       2.8     3.2  4.8  0.1829E+01  0.3011E+01  0.2818E+01E
 Epicentro: LOS SANTOS - SANTANDER                                             3
 SPEC TAM HH E MO 13.7 ST 14.2 OM  2.0 f0 5.79 R0.2539 AL 5.96 WI  3.7 MW  3.1 3
 SPEC TAM HH E T 526 6 K 0.000 GD  212 VS 4.20 DE 3.20 Q0230.0 QA 0.60 VS 4.20 3
 SPEC RUS HH E MO 13.4 ST  6.4 OM  1.8 f0 5.50 R0.2673 AL 4.51 WI  7.3 MW  2.9 3
 SPEC RUS HH E T 52558 K 0.000 GD  177 VS 4.20 DE 3.20 Q0230.0 QA 0.60 VS 4.20 3
 SPEC HEL HH N MO 13.8 ST 11.7 OM  1.9 f0 5.18 R0.2838 AL 4.06 WI 15.4 MW  3.1 3
 SPEC HEL HH N T 52629 K 0.000 GD  307 VS 4.20 DE 3.20 Q0230.0 QA 0.60 VS 4.20 3
 SPEC CHI HH N MO 14.0 ST  9.4 OM  2.1 f0 4.22 R0.3483 AL 3.85 WI 13.9 MW  3.2 3
 SPEC CHI HH N T 52624 K 0.000 GD  288 VS 4.20 DE 3.20 Q0230.0 QA 0.60 VS 4.20 3
 ACTION:UPD 12-11-22 17:04 OP:ep   STATUS:               ID:20121020052517 L   I
 2012-10-20-0520-00M.COL___233                                                 6
 STAT SP IPHASW D HRMM SECON CODA AMPLIT PERI AZIMU VELO AIN AR TRES W  DIS CAZ7
 BAR2 SZ EP        525 36.95                             170   -0.1310 25.2 189 
 BAR2 SZ I         525 37.36       230.4 0.11                          25.2 189 
 BAR2 SZ ES   1    525 51.93                             170   -0.37 7 25.2 189 
 GIR2 SZ EP   1    525 36.99                             168   -0.04 7 29.3 350 
 GIR2 SZ ES   1    525 52.25                             168    0.04 7 29.3 350 
 BRR  HZ EP        525 38.80                             153    0.2910 70.0 297 
 BRR  HZ I         525 39.23       156.0 0.10                          70.0 297 
 BRR  HE ES   1    525 55.77                             153    0.93 7 70.0 297 
 PAM  SZ EP   1    525 39.89                             151    0.32 7 76.1  41 
 PAM  SZ I         525 40.13        92.0 0.22                          76.1  41 
 RUS  HZ EP   1    525 40.92                             143   -0.42 7  103 176 
 RUS  HE ES   1    525 59.33                             143   -0.54 7  103 176 
 RUS  HE I         526  0.67        87.2 0.18                           103 176 
 TAM  HZ EP   1    525 45.26                             130    0.04 7  156 106 
 TAM  HZ I         526  5.83        41.9 0.33                           156 106 
 TAM  HE ES   1    526  6.85                             130    0.06 7  156 106 
 OCA  HZ EP   1    525 45.18                             130   -0.41 7  158 353 
 OCA  HN ES   1    526  7.15                             130   -0.30 7  158 353 
 YOP  SZ EP   1    525 47.54                             126   -0.17 7  181 153 
 YOP  SZ I         525 50.34        28.8 0.26                           181 153 
 YOP  SN ES   1    526 11.74                             126    0.53 7  181 153 
 YOP  SN I         526 14.20        69.3 0.38                           181 153 
 ZAR  HZ EP   1    525 49.57                             122   -0.26 6  203 292 
 ZAR  HN ES   1    526 14.82                             122   -0.16 6  203 292 
 ZAR  HZ I         526 20.79        94.9 0.40                           203 292 
 NOR  HZ EP   1    525 53.43                             118    0.11 6  236 234 
 NOR  HZ I         525 53.65        24.2 0.16                           236 234 
 NOR  HN ES   1    526 20.92                             118   -0.28 6  236 234 
 CHI  HZ EP   1    525 55.21                             117   -0.19 6  250 195 
 CHI  HN ES   1    526 24.76                             117   -0.14 6  250 195 
 CHI  HN I         526 30.52        50.3 0.32                           250 195 
 ROSC BZ EP   1    525 56.82                             116    1.03 6  254 211 
 ROSC BZ I         525 58.48        18.9 0.50                           254 211 
 ROSC BN ES   9    526 27.59                             116    2.00 0  254 211 
 HEL  HZ EP   1    525 57.49                             114   -0.25 6  272 255 
 HEL  HZ I         526 35.27        27.7 0.28                           272 255 
 HEL  HN I         526 36.65        33.2 0.36                           272 255 
 GUY  SZ EP   1    526  1.81                             112    0.32 5  304 235 
                                                                                
