 2017 1020 0236 30.1 L   6.817 -73.165151.2  RSN  4 0.3 1.2LRSN                1
 GAP=237        0.57       3.6     4.8  5.6  0.5029E+01 -0.2940E+01  0.1608E+01E
 Epicentro: LOS SANTOS - SANTANDER                                             3
 ACTION:UPD 17-11-07 19:34 OP:rebc STATUS:               ID:20171020023630 L   I
 OLDACT:DUP 17-10-20 14:31 OP:dani STATUS:               ID:20171020022246d    3
 2017-10-20-0228-00M.COL___462                                                 6
 STAT SP IPHASW D HRMM SECON CODA AMPLIT PERI AZIMU VELO AIN AR TRES W  DIS CAZ7
 BRR  HZ EP        236 51.79                             154    0.0710 68.4 298 
 BRR  HN ES        237  8.60                             154    0.0410 68.4 298 
 BRR  HZ I         237 12.30         5.2 0.20            152           68.4 298 
 RUS  HZ EP        236 54.51                             144   -0.0510  103 175 
 RUS  HN ES        237 13.50                             144   -0.1310  103 175 
 RUS  HZ I         237 14.26         2.6 0.45            145            103 175 
 RUS  HE I         237 14.82         2.8 0.27                           103 175 
 PTB  HZ EP   2    236 56.45                             133   -0.94 5  146 258 
 PTB  HN ES   1    237 18.71                             133    0.05 7  146 258 
 PTB  HZ I         237 21.50         1.0 0.14            132            146 258 
 SPBC HZ EP        236 59.39                             130    0.33 9  163 218 
 SPBC HN ES        237 21.61                             130   -0.03 9  163 218 
 SPBC HZ I         237 27.39         2.4 0.20            130            163 218 
                                                                                
