 2010  720 0318 15.8 L   6.769 -73.125147.5  RSN  4 0.1 1.5LRSN                1
 GAP=161        0.33       2.7     4.3  4.7 -0.3157E+01 -0.7988E+01  0.2105E+00E
 Epicentro: LOS SANTOS - SANTANDER                                             3
 ACTION:UPD 10-12-01 15:18 OP:pat  STATUS:               ID:20100720031815 L   I
 2010-07-20-0315-49S.COL___123                                                 6
 STAT SP IPHASW D HRMM SECON CODA AMPLIT PERI AZIMU VELO AIN AR TRES W  DIS CAZ7
 BRR  HZ IP     D  318 37.26                             152    -0.110   75 300 
 BRR  HE ES   1    318 54.29                             152     0.1 7   75 300 
 BRR  HZ I         318 58.83         6.9 0.13                            75 300 
 RUS  HZ EP   2    318 39.58                             145     0.1 5   97 177 
 RUS  HE ES   2    318 57.96                             145     0.0 5   97 177 
 GUE  SZ EP   1    318 41.04                             139     0.1 7  119  11 
 GRA  SZ EP        318 41.49                             137     0.010  128  16 
 GRA  SZ ES   1    319  1.35                             137    -0.1 7  128  16 
 GRA  SZ I         319  2.02         4.1 0.39                           128  16 
                                                                                
