 2010  320 0247 23.7 L   7.370 -73.161130.4  RSN  4 0.1 1.9LRSN                1
 GAP=187        0.34       4.7     9.0  7.5  0.2410E+02 -0.4221E+02 -0.1597E+02E
 Epicentro: RIONEGRO - SANTANDER                                               3
 ACTION:DUP 10-08-24 09:54 OP:vdl  STATUS:               ID:20100320024724dL   I
 2010-03-20-0242-36S.COL___098                                                 6
 STAT SP IPHASW D HRMM SECON CODA AMPLIT PERI AZIMU VELO SNR AR TRES W  DIS CAZ7
 BRR  HZ EP        247 43.02                             151     0.010   67 245 
 BRR  HE ES   2    247 57.95                             151    -0.1 5   67 245 
 BRR  HZ I         247 59.19        21.6 0.29                            67 245 
 BAR2 SZ EP   1    247 44.72                             145     0.2 7   86 182 
 BAR2 SZ ES   2    248  0.74                             145    -0.1 5   86 182 
 OCA  SZ EP   2    247 45.21                             141    -0.1 5   98 350 
 OCA  SZ I         248  3.13        13.6 0.10                            98 350 
 RUS  HZ EP   1    247 51.47                             125    -0.2 7  164 177 
 RUS  HE ES   3    248 13.58                             125     0.1 2  164 177 
                                                                                
