 2017  120 0228 59.1 L   6.738 -73.203148.0  RSN  6 0.5 1.3LRSN                1
 GAP=226        0.75       5.7     6.1  6.5  0.2348E+02  0.2417E+01  0.5587E+01E
 Epicentro: VILLANUEVA - SANTANDER                                             3
 ACTION:UPD 17-05-22 16:01 OP:jn   STATUS:               ID:20170120022859 L   I
 OLDACT:UP  17-01-20 14:31 OP:dani STATUS:               ID:20170120022740     3
 OLDACT:UP  17-01-20 14:30 OP:dani STATUS:               ID:20170120022740     3
 OLDACT:UP  17-01-20 14:30 OP:dani STATUS:               ID:20170120022740     3
 OLDACT:UP  17-01-20 14:30 OP:dani STATUS:               ID:20170120022740     3
 OLDACT:REG 17-01-20 12:23 OP:dani STATUS:               ID:20170120022740     3
 2017-01-20-0228-00M.COL___316                                                 6
 STAT SP IPHASW D HRMM SECON CODA AMPLIT PERI AZIMU VELO AIN AR TRES W  DIS CAZ7
 BRR  HZ EP        229 20.13                             154   -0.2410 69.5 306 
 BRR  HN ES        229 37.36                             154    0.3810 69.5 306 
 BRR  HZ I         229 41.74         3.9 0.30            154           69.5 306 
 RUS  HZ EP        229 22.51                             146   -0.1010 94.4 172 
 RUS  HN ES        229 40.94                             146   -0.0310 94.4 172 
 RUS  HZ I         229 43.50         2.5 0.36            148           94.4 172 
 PTB  HZ EP        229 25.20                             134   -0.36 9  140 261 
 PTB  HE ES        229 46.12                             134   -0.11 9  140 261 
 PTB  HZ I         229 53.37         3.6 0.54            135            140 261 
 ZAR  HN ES        229 56.57                             124    0.05 9  201 295 
 CHI  HZ EP        229 36.45                             119    0.44 8  240 194 
 GUY2CHZ EP   3    229 44.21                             114    2.45 2  292 235 
 GUY2CHN ES   4    230 20.89                             114    5.83 0  292 235 
 GUY2CHZ I         230 24.49         1.4 0.29                           292 235 
                                                                                
