 2014 1220 0316 17.1 L   6.793 -73.158149.0  RSN  8 0.4 1.4LRSN                1
 GAP= 72        0.87       4.4     3.8  6.2  0.2821E+01  0.2954E+01  0.1570E+01E
 Epicentro: LOS SANTOS - SANTANDER                                             3
 ACTION:UPD 15-02-10 17:05 OP:nd   STATUS:               ID:20141220031617 L   I
 OLDACT:DUP 14-12-20 15:05 OP:spq  STATUS:               ID:20141220030745d    3
 2014-12-20-0307-44M.COL___305                                                 6
 STAT SP IPHASW D HRMM SECON CODA AMPLIT PERI AZIMU VELO AIN AR TRES W  DIS CAZ7
 BAR2 EZ EP   1    316 37.32                             171    0.17 7 22.4 187 
 BAR2 EZ ES   1    316 51.94                             171   -0.81 7 22.4 187 
 BAR2 EZ I         316 53.45         5.2 0.30            172           22.4 187 
 BRR  HZ EP        316 38.98                             153    0.3810 70.4 300 
 BRR  HE ES        316 55.96                             153    0.6210 70.4 300 
 BRR  HZ I         316 59.43         3.9 0.46            151           70.4 300 
 PAM  SZ EP        316 39.90                             151    0.1110 78.8  40 
 PAM  SN ES        316 57.28                             151   -0.1710 78.8  40 
 PAM  SZ I         316 59.03         4.9 0.52            153           78.8  40 
 RUS  HZ EP        316 41.12                             145   -0.0510100.0 175 
 RUS  HN ES   1    317  0.03                             145    0.11 7100.0 175 
 RUS  HZ I         317  1.70         2.9 0.34            148          100.0 175 
 PTB  HZ EP        316 43.96                             133   -0.29 9  146 259 
 PTB  HN ES   1    317  5.04                             133   -0.35 7  146 259 
 PTB  HZ I         317  6.80         2.9 0.34            133            146 259 
 TAM  HZ EP   1    316 45.45                             131    0.27 7  156 105 
 ZAR  HZ EP   1    316 49.44                             123   -0.26 6  203 292 
 ZAR  HN ES        317 15.23                             123    0.13 9  203 292 
 ZAR  HZ I         317 22.54         3.0 0.66            124            203 292 
 SML  HN ES   1    317 21.90                             118   -0.78 6  244 336 
 SML  HZ I         317 25.51         4.0 0.10            119            244 336 
                                                                                
