 2014  120 0831 25.9 L   6.789 -73.164140.0  RSN  6 0.4 1.2LRSN                1
 GAP=199        0.85       3.6     5.4  8.7  0.7405E+01 -0.6955E+01 -0.5354E+01E
 Epicentro: LOS SANTOS - SANTANDER                                             3
 ACTION:UPD 14-03-13 09:56 OP:ep   STATUS:               ID:20140120083125 L   I
 OLDACT:REG 14-01-20 08:30 OP:nd   STATUS:               ID:20140120083000     3
 2014-01-20-0830-00M.COL___285                                                 6
 STAT SP IPHASW D HRMM SECON CODA AMPLIT PERI AZIMU VELO AIN AR TRES W  DIS CAZ7
 BAR2 SZ EP        831 45.25                             171    0.4110 21.8 185 
 BAR2 SZ ES   2    831 59.09                             171   -0.49 5 21.8 185 
 BAR2 SZ I         832  3.19         3.8 0.26            164           21.8 185 
 RUS  HZ EP        831 49.49                             143    0.4510 99.5 175 
 RUS  HN ES   2    832  6.93                             143   -0.13 5 99.5 175 
 RUS  HZ I         832 10.61         1.9 0.48            136           99.5 175 
 PTB  HZ EP        831 52.26                             132    0.03 9  146 259 
 PTB  HN ES        832 13.06                             132    0.32 9  146 259 
 PTB  HZ I         832 17.95         1.7 0.28            125            146 259 
 ZAR  HZ EP   2    831 58.24                             122    0.38 4  203 293 
 ZAR  HN ES        832 22.83                             122    0.06 9  203 293 
 ZAR  HZ I         832 30.90         1.2 0.14            117            203 293 
 SML  HZ EP        832  2.18                             117   -0.09 8  244 336 
 SML  HN ES        832 30.06                             117   -0.56 8  244 336 
 SML  HZ I         832 33.25         3.6 0.10            113            244 336 
 CHI  HZ EP        832  2.56                             117   -0.57 8  247 195 
 CHI  HZ I         832 26.37         0.7 0.36            111            247 195 
 CHI  HN ES        832 31.57                             117   -0.57 8  247 195 
                                                                                
