 2013  420 0054  4.2 L   6.817 -73.162149.2  RSN  6 0.4 1.9LRSN                1
 GAP=134        0.82       4.6     6.3  8.0  0.7725E+01  0.8951E+00 -0.7436E+01E
 Epicentro: LOS SANTOS - SANTANDER                                             3
 ACTION:UPD 13-05-22 14:39 OP:EP   STATUS:               ID:20130420005404 L   I
 2013-04-20-0050-00M.COL___250                                                 6
 STAT SP IPHASW D HRMM SECON CODA AMPLIT PERI AZIMU VELO AIN AR TRES W  DIS CAZ7
 BAR2 SZ EP        054 24.27                             170   -0.0110 25.0 185 
 BAR2 SZ I         054 40.67        20.6 0.16            171           25.0 185 
 BRR  HZ IP     D  054 26.02                             154    0.4310 68.7 298 
 BRR  HN ES   1    054 42.93                             154    0.66 7 68.7 298 
 BRR  HZ I         054 45.69        12.4 0.52            157           68.7 298 
 PAM  SN ES   2    054 43.81                             151   -0.56 5 77.1  42 
 RUS  HZ EP        054 28.64                             144    0.2010  103 175 
 RUS  HN ES   1    054 46.99                             144   -0.35 7  103 175 
 RUS  HZ I         054 47.94         4.9 0.20            146            103 175 
 PTB  HZ EP        054 31.16                             133   -0.16 9  146 258 
 PTB  HN ES   1    054 51.87                             133   -0.61 7  146 258 
 PTB  HZ I         054 54.37         7.2 0.18            137            146 258 
 SML  HZ EP        054 40.63                             118   -0.12 8  241 336 
 SML  HN ES   1    055  8.89                             118   -0.37 6  241 336 
 SML  HZ I         055 13.36        11.7 0.24            119            241 336 
                                                                                
