 2012 1020 0707 36.6 L   6.781 -73.127143.0  RSN  6 0.3 1.5LRSN                1
 GAP=140        0.68       4.5     4.9  5.8  0.4852E+01  0.6935E+01  0.9092E+00E
 Epicentro: LOS SANTOS - SANTANDER                                             3
 ACTION:UPD 12-11-22 17:04 OP:ep   STATUS:               ID:20121020070736 L   I
 2012-10-20-0700-00M.COL___233                                                 6
 STAT SP IPHASW D HRMM SECON CODA AMPLIT PERI AZIMU VELO AIN AR TRES W  DIS CAZ7
 BAR2 SZ EP   1    7 7 55.73                             171   -0.15 7 21.7 196 
 BAR2 SZ I         7 7 56.53         9.8 0.46                          21.7 196 
 BAR2 SZ ES   1    7 8 10.40                             171   -0.50 7 21.7 196 
 GIR2 SZ EP   1    7 7 55.75                             166   -0.27 7 33.7 347 
 GIR2 SZ ES   1    7 8 11.51                             166    0.35 7 33.7 347 
 BRR  HZ EP   1    7 7 57.60                             151   -0.02 7 74.0 299 
 BRR  HZ I         7 7 57.78         5.4 0.12                          74.0 299 
 BRR  HN ES   1    7 8 14.45                             151    0.44 7 74.0 299 
 PAM  SZ EP   1    7 7 58.66                             150    0.11 7 77.7  37 
 PAM  SN ES   1    7 8 15.54                             150   -0.13 7 77.7  37 
 PAM  SZ I         7 8 17.41         3.9 0.44                          77.7  37 
 RUS  HZ EP   1    7 7 59.88                             144   -0.05 7 98.4 177 
 RUS  HZ I         7 8  0.96         3.1 0.14                          98.4 177 
 RUS  HN ES   1    7 8 18.38                             144    0.26 7 98.4 177 
 RUS  HN I         7 8 20.23         4.0 0.14                          98.4 177 
 ZAR  HZ EP   1    7 8  9.74                             121    0.58 6  207 292 
 ZAR  HE ES   1    7 8 33.92                             121   -0.63 6  207 292 
 ZAR  HN I         7 8 39.19         7.3 0.14                           207 292 
                                                                                
