 2011 1120 0246 52.4 L   6.450 -73.361133.9  RSN  4 0.1 1.3LRSN                1
 GAP=178        0.32       2.8     4.9  4.9  0.7331E+01  0.3316E+01 -0.3082E+00E
 Epicentro: SIMACOTA - SANTANDER                                               3
 ACTION:UPD 12-07-13 16:11 OP:ep   STATUS:               ID:20111120024652 L   I
 2011-11-20-0243-56S.COL___178                                                 6
 STAT SP IPHASW D HRMM SECON CODA AMPLIT PERI AZIMU VELO AIN AR TRES W  DIS CAZ7
 BAR2 SZ EP   2    247 10.39                             169   -0.26 5 25.2  52 
 BAR2 SZ I         247 10.82         7.1 0.21                          25.2  52 
 RUS  HZ EP   1    247 12.88                             151    0.02 7 68.9 153 
 RUS  HN ES   1    247 28.83                             151    0.02 7 68.9 153 
 RUS  HZ I         247 30.53         2.8 0.31                          68.9 153 
 BRR  HZ EP        247 13.05                             146    0.0510 82.3 332 
 BRR  HZ I         247 13.21         8.9 0.12                          82.3 332 
 BRR  HE ES   1    247 29.03                             146   -0.03 7 82.3 332 
 PAM  SN ES   2    247 35.84                             135    0.03 5  123  37 
 PAM  SZ I         247 37.80         1.5 0.39                           123  37 
                                                                                
