 2014 1220 0257  6.4 L   6.167 -73.670110.1  RSN  8 0.3 1.3LRSN                1
 GAP= 77        0.84       2.7     3.0  6.0 -0.4091E+00  0.2580E+01 -0.4037E+01E
 Epicentro: LA PAZ - SANTANDER                                                 3
 ACTION:UPD 15-02-10 17:05 OP:nd   STATUS:               ID:20141220025706 L   I
 OLDACT:DUP 14-12-20 14:50 OP:spq  STATUS:               ID:20141220024745d    3
 2014-12-20-0247-43M.COL___305                                                 6
 STAT SP IPHASW D HRMM SECON CODA AMPLIT PERI AZIMU VELO AIN AR TRES W  DIS CAZ7
 BAR2 EZ EP        257 24.40                             145    0.2310 71.5  49 
 BAR2 EZ ES   1    257 38.34                             145    0.29 7 71.5  49 
 RUS  HZ EP        257 24.32                             145   -0.2310 71.7 115 
 RUS  HN ES        257 38.49                             145   -0.2210 71.7 115 
 RUS  HZ I         257 39.65         2.9 0.36            147           71.7 115 
 SPBC HZ EP        257 24.52                             144    0.5010 72.3 218 
 SPBC HN ES        257 38.16                             144    0.3810 72.3 218 
 SPBC HZ I         257 39.68         7.6 0.36            146           72.3 218 
 PTB  HZ EP        257 25.11                             136   -0.7010 96.3 295 
 PTB  HN ES   1    257 40.33                             136   -0.62 7 96.3 295 
 PTB  HZ I         257 42.84         3.8 0.12            137           96.3 295 
 BRR  HZ EP        257 26.50                             133    0.0410  104 357 
 BRR  HN ES   1    257 42.17                             133    0.05 7  104 357 
 BRR  HZ I         257 45.63         5.6 0.28            135            104 357 
 PAM  SZ EP        257 33.52                             119    0.04 9  168  40 
 PAM  SN ES        257 54.54                             119   -0.07 9  168  40 
 PAM  SZ I         257 58.81         2.3 0.29            121            168  40 
 CHI  HZ EP   1    257 33.84                             118    0.25 7  170 182 
 CHI  HN ES   1    257 54.35                             118   -0.46 7  170 182 
 CHI  HZ I         257 58.94         1.7 0.48            121            170 182 
 ZAR  HZ EP        257 36.09                             114    0.11 9  197 318 
 ZAR  HN ES        257 59.33                             114    0.27 9  197 318 
 ZAR  HZ I         258  1.09         7.2 0.42            116            197 318 
                                                                                
