 2014  920 0937 29.9 L   6.791 -73.128146.0  RSN  9 0.5 1.3LRSN                1
 GAP=139        1.13       4.5     4.9  7.4 -0.9770E+00  0.8459E+01  0.2532E+01E
 Epicentro: LOS SANTOS - SANTANDER                                             3
 ACTION:UPD 14-10-03 23:06 OP:nd   STATUS:               ID:20140920093729 L   I
 OLDACT:REG 14-09-20 12:54 OP:spq  STATUS:               ID:20140920092806     3
 2014-09-20-0928-06M.COL___293                                                 6
 STAT SP IPHASW D HRMM SECON CODA AMPLIT PERI AZIMU VELO AIN AR TRES W  DIS CAZ7
 BAR2 SZ EP        937 49.42                             171   -0.1710 22.8 195 
 BAR2 SZ ES   1    938  4.43                             171   -0.49 7 22.8 195 
 BAR2 SZ I         938  5.88         5.1 0.30            170           22.8 195 
 BRR  HZ EP        937 51.37                             152    0.1310 73.4 298 
 BRR  HN ES        938  8.64                             152    0.7810 73.4 298 
 BRR  HZ I         938 13.67         3.6 0.28            151           73.4 298 
 PAM  SZ EP        937 52.17                             151    0.0110 76.9  38 
 PAM  SN ES        938  9.28                             151   -0.2010 76.9  38 
 PAM  SZ I         938 11.17         3.7 0.60            155           76.9  38 
 RUS  HZ EP        937 53.69                             144    0.0510 99.5 177 
 RUS  HN ES   1    938 12.34                             144    0.21 7 99.5 177 
 RUS  HZ I         938 14.89         1.1 0.32            147           99.5 177 
 PTB  HZ EP        937 56.31                             132   -0.78 9  150 259 
 PTB  HE ES        938 17.50                             132   -0.76 9  150 259 
 PTB  HZ I         938 19.51         3.0 0.19            133            150 259 
 SPBC HZ EP        937 58.34                             129   -0.17 9  164 220 
 SPBC HN ES        938 21.41                             129    0.62 9  164 220 
 SPBC HZ I         938 28.41         3.2 0.32            131            164 220 
 ZAR  HZ EP        938  3.31                             122    0.68 8  206 292 
 ZAR  HN ES        938 27.84                             122   -0.29 8  206 292 
 ZAR  HZ I         938 33.45         2.3 0.38            124            206 292 
 SML  HE ES   1    938 35.68                             117    0.19 6  245 335 
 SML  HZ I         938 38.83         2.7 0.11            120            245 335 
 GUY2CHZ EP   1    938 14.32                             112    0.63 5  302 235 
 GUY2CHN ES   4    938 50.78                             112    2.98 0  302 235 
 GUY2CHZ I         938 54.54         0.9 0.26                           302 235 
                                                                                
