 2011 1020 0905 47.3 L   6.885 -73.065148.7  RSN  9 0.3 1.7LRSN                1
 GAP=142        0.43       3.1     4.4  5.9 -0.8769E+00  0.6724E+01 -0.8742E+00E
 Epicentro: PIEDECUESTA - SANTANDER                                            3
 ACTION:UPD 12-07-13 16:04 OP:ep   STATUS:               ID:20111020090547 L   I
 2011-10-20-0900-00M.COL___171                                                 6
 STAT SP IPHASW D HRMM SECON CODA AMPLIT PERI AZIMU VELO AIN AR TRES W  DIS CAZ7
 BTL  SZ EP   3    9 6  7.52                             171    0.21 2 22.7 279 
 GIR2 SZ EP   3    9 6  7.70                             170    0.47 2 25.7 326 
 GIR2 SZ ES   3    9 6 22.77                             170    0.03 2 25.7 326 
 BAR2 SZ EP   2    9 6  7.24                             166   -0.37 5 34.9 202 
 BAR2 SZ I         9 6 24.05        11.5 0.96                          34.9 202 
 PAM  SN ES   2    9 6 26.29                             156    0.11 5 64.4  39 
 BRR  HZ EP   1    9 6  8.86                             152   -0.19 7 75.6 289 
 BRR  HN ES   2    9 6 26.35                             152    0.36 5 75.6 289 
 BRR  HZ I         9 6 28.40        10.7 0.12                          75.6 289 
 RUS  HZ EP   2    9 6 12.39                             142    0.34 5  110 181 
 RUS  HN ES   2    9 6 30.95                             142   -0.38 5  110 181 
 RUS  HZ I         9 6 32.60         3.0 0.33                           110 181 
 OCA  SZ EP   1    9 6 15.32                             132    0.17 7  152 349 
 OCA  SZ ES   2    9 6 36.74                             132   -0.10 5  152 349 
 OCA  SZ I         9 6 42.38         5.4 0.60                           152 349 
 ZAR  HZ EP   2    9 6 20.40                             122   -0.10 4  209 289 
 ZAR  HN ES   2    9 6 45.88                             122   -0.48 4  209 289 
 ZAR  HZ I         9 6 49.98         7.8 0.35                           209 289 
 NOR  SE ES   2    9 6 54.25                             118    0.57 4  247 234 
                                                                                
