 2017 1120 0647 28.2 L   6.763 -73.149140.3  RSN  5 0.3 1.1LRSN                1
 GAP=138        0.90       4.6     4.2  7.0 -0.3965E+00  0.1123E+02 -0.5381E+01E
 Epicentro: LOS SANTOS - SANTANDER                                             3
 ACTION:UPD 17-12-12 19:57 OP:rebc STATUS:               ID:20171120064728 L   I
 OLDACT:DUP 17-11-20 22:34 OP:dhb  STATUS:               ID:20171120063504d    3
 2017-11-20-0638-00M.COL___474                                                 6
 STAT SP IPHASW D HRMM SECON CODA AMPLIT PERI AZIMU VELO AIN AR TRES W  DIS CAZ7
 BAR2 EZ EP        647 46.67                             172   -0.4410 19.3 191 
 BAR2 HN ES        648  2.51                             172    0.6610 19.3 191 
 PAM  EZ IP     C  647 50.24                             149    0.1710 80.8  38 
 PAM  EE ES        648  6.80                             149   -0.3110 80.8  38 
 PAM  EZ I         648  9.40         3.3 0.54            152           80.8  38 
 RUS  HZ EP        647 51.51                             144    0.3710 96.5 176 
 RUS  HN ES        648  8.64                             144   -0.3810 96.5 176 
 RUS  HZ I         648 11.29         1.2 0.28            148           96.5 176 
 PTB  HZ EP        647 54.73                             131    0.09 9  147 260 
 PTB  HN ES        648 15.00                             131   -0.25 9  147 260 
 PTB  HZ I         648 20.67         1.2 0.68            131            147 260 
 ZAR  HZ EP        648  0.50                             121    0.06 8  205 293 
 ZAR  HE ES        648 25.62                             121    0.05 8  205 293 
 ZAR  HZ I         648 34.28         2.1 0.30            122            205 293 
                                                                                
