 2015  420 0827  7.2 L   6.803 -73.178144.6  RSN  5 0.6 1.2LRSN                1
 GAP=198        1.38       7.1    10.4 12.8  0.3394E+02 -0.3263E+02 -0.3532E+02E
 Epicentro: LOS SANTOS - SANTANDER                                             3
 ACTION:UPD 15-06-03 16:56 OP:cam  STATUS:               ID:20150420082707 L   I
 OLDACT:DUP 15-04-20 19:39 OP:stll STATUS:               ID:20150420081749d    3
 2015-04-20-0817-48M.COL___262                                                 6
 STAT SP IPHASW D HRMM SECON CODA AMPLIT PERI AZIMU VELO AIN AR TRES W  DIS CAZ7
 BAR2 EZ EP        827 26.00                             170   -0.6510 23.3 181 
 BAR2 EZ I         827 42.63         3.8 0.56            172           23.3 181 
 BRR  HZ EP        827 28.55                             153    0.5510 67.9 300 
 BRR  HN ES        827 44.92                             153    0.6710 67.9 300 
 BRR  HZ I         827 49.20         2.4 0.28            157           67.9 300 
 RUS  HZ EP        827 31.33                             143    0.4910  101 174 
 RUS  HN ES        827 48.91                             143   -0.4010  101 174 
 RUS  HZ I         827 50.30         2.0 0.26            147            101 174 
 PTB  HZ EP        827 33.61                             133   -0.10 9  144 258 
 PTB  HN ES        827 54.12                             133   -0.31 9  144 258 
 PTB  HZ I         827 56.62         1.5 0.16            139            144 258 
 SML  HZ EP        827 44.02                             117    0.49 8  242 336 
 SML  HN ES        828 10.90                             117   -0.99 8  242 336 
 SML  HZ I         828 18.28         2.9 0.24            118            242 336 
                                                                                
