 2010  220 0718  0.3 L   6.816 -73.017148.9  RSN  7 0.4 1.7LRSN                1
 GAP=196        0.69       4.5     8.0  6.9 -0.5056E+00  0.1211E+02  0.3059E+01E
 Epicentro: CEPITA - SANTANDER                                                 3
 ACTION:UP  10-08-24 09:49 OP:vdl  STATUS:               ID:20100220071800 L   I
 2010-02-20-0700-00S.COL___093                                                 6
 STAT SP IPHASW D HRMM SECON CODA AMPLIT PERI AZIMU VELO SNR AR TRES W  DIS CAZ7
 BAR2 SZ EP   1    718 20.31                             168    -0.2 7   31 217 
 BAR2 SZ ES   2    718 36.50                             168     0.3 5   31 217 
 GIR2 SZ EP   1    718 20.45                             166     0.0 7   35 326 
 GIR2 SZ ES   2    718 35.99                             166    -0.2 5   35 326 
 BRR  HZ IP        718 22.37                             149    -0.210   83 293 
 BRR  HZ I         718 22.53        10.9 0.14                            83 293 
 BRR  HE ES   2    718 40.03                             149     0.2 5   83 293 
 RUS  BZ EP   1    718 24.48                             144     0.0 7  102 184 
 RUS  BN ES   2    718 43.55                             144     0.2 5  102 184 
 RUS  BZ I         718 44.43         3.6 0.47                           102 184 
 OCA  SZ EP   1    718 29.11                             130     0.2 7  161 348 
 OCA  SZ ES   2    718 51.29                             130     0.0 5  161 348 
 HEL  HZ EP   1    718 43.25                             114     1.0 6  286 256 
 HEL  HN ES   2    719 14.03                             114    -1.0 4  286 256 
 HEL  HZ I         719 18.12         3.2 0.73                           286 256 
 PRA  HZ EP   1    718 54.25                             107    -0.7 4  401 211 
 PRA  HE ES   2    719 38.46                             107     0.9 3  401 211 
 PRA  HZ I         719 41.37         1.7 0.26                           401 211 
                                                                                
