 2017  120 0434 16.4 L   6.787 -73.146146.5  RSN  6 0.4 1.1LRSN                1
 GAP=137        1.03       4.7     5.7  8.9  0.8180E+01 -0.5629E+01  0.3963E+01E
 Epicentro: LOS SANTOS - SANTANDER                                             3
 ACTION:UPD 17-05-22 16:01 OP:jn   STATUS:               ID:20170120043416 L   I
 OLDACT:UP  17-01-20 15:53 OP:dani STATUS:               ID:20170120042747d    3
 OLDACT:DUP 17-01-20 15:51 OP:dani STATUS:               ID:20170120042747d    3
 2017-01-20-0428-00M.COL___313                                                 6
 STAT SP IPHASW D HRMM SECON CODA AMPLIT PERI AZIMU VELO AIN AR TRES W  DIS CAZ7
 BRR  HZ EP     D  434 38.04                             152    0.4110 71.9 300 
 BRR  HN ES        434 54.22                             152   -0.0010 71.9 300 
 BRR  HZ I         435  2.18         4.6 0.36            153           71.9 300 
 PAM  EZ EP        434 38.12                             151   -0.6110 78.5  39 
 RUS  HZ EP        434 40.49                             144    0.4010 99.2 176 
 RUS  HN ES        434 58.82                             144    0.2210 99.2 176 
 RUS  HZ I         434 59.96         2.1 0.34            146           99.2 176 
 PTB  HZ EP        434 42.98                             132   -0.39 9  147 259 
 PTB  HN ES        435  4.04                             132   -0.39 9  147 259 
 PTB  HZ I         435  9.72         1.2 0.30            134            147 259 
 ZAR  HE ES        435 14.75                             122    0.45 9  205 293 
 CHI  HZ EP        434 54.40                             117    0.44 8  247 195 
 CHI  HE ES        435 22.74                             117   -0.54 8  247 195 
 CHI  HZ I         435 31.31         0.7 0.20            120            247 195 
                                                                                
