 2013  620 0833 10.5 L   6.808 -73.106148.2  RSN 11 0.5 1.9LRSN                1
 GAP=187        1.00       4.0     7.4  8.5 -0.2266E+01  0.1696E+02 -0.3692E+01E
 Epicentro: LOS SANTOS - SANTANDER                                             3
 ACTION:UPD 14-01-08 09:55 OP:ep   STATUS:               ID:20130620083310 L   I
 OLDACT:REG 13-06-20 09:52 OP:carl STATUS:               ID:20130620082959     3
 2013-06-20-0829-59M.COL___264                                                 6
 STAT SP IPHASW D HRMM SECON CODA AMPLIT PERI AZIMU VELO AIN AR TRES W  DIS CAZ7
 BAR2 SZ EP   1    833 30.86                             170    0.35 7 25.3 200 
 BAR2 SZ ES   1    833 45.36                             170   -0.71 7 25.3 200 
 BAR2 SZ I         833 48.07        13.1 0.20            167           25.3 200 
 GIR2 SZ EP   1    833 30.88                             167    0.37 7 31.5 342 
 BRR  HZ EP   1    833 32.78                             152    0.63 7 74.7 296 
 BRR  HE ES   1    833 49.68                             152    0.67 7 74.7 296 
 BRR  HZ I         833 52.71        10.1 0.28            147           74.7 296 
 RUS  HZ EP   1    833 34.84                             144    0.26 7  101 179 
 RUS  HN ES   1    833 53.55                             144    0.22 7  101 179 
 RUS  HZ I         833 54.25         8.8 0.32            147            101 179 
 PTB  HZ EP   1    833 37.70                             132   -0.42 7  152 259 
 PTB  HN ES   4    833 58.03                             132   -1.59 0  152 259 
 PTB  HZ I         834  2.55         9.8 0.60            130            152 259 
 OCA  HZ EP   1    833 38.72                             130   -0.30 7  160 352 
 OCA  HN ES   1    834  0.89                             130   -0.34 7  160 352 
 OCA  HZ I         834  6.31         7.2 0.26            131            160 352 
 NOR  HZ EP   1    833 47.66                             118    0.81 6  239 235 
 NOR  HE ES   1    834 14.96                             118   -0.21 6  239 235 
 NOR  HZ I         834 20.68         5.9 0.30            119            239 235 
 SML  HZ EP   1    833 47.22                             118   -0.21 6  245 334 
 SML  HN ES   1    834 15.50                             118   -0.69 6  245 334 
 SML  HZ I         834 19.87        10.6 0.10            119            245 334 
 CHI  HE ES   1    834 17.02                             117   -1.26 6  251 196 
 HEL  HZ EP   4    833 52.75                             115    1.37 0  277 256 
 HEL  HN ES   1    834 23.34                             115    0.11 6  277 256 
 HEL  HZ I         834 30.23         4.1 0.32            115            277 256 
 GUY2CHZ EP   4    833 56.62                             112    1.89 0  305 235 
 GUY2CHE ES   4    834 32.35                             112    3.16 0  305 235 
 GUY2CHZ I         834 35.95         3.5 0.40                           305 235 
                                                                                
