 2011  920 0422 57.5 L   6.801 -73.131147.3  RSN  7 0.3 2.0LRSN                1
 GAP=184        0.60       3.6     4.2  5.3  0.2509E+01  0.3964E+01 -0.4716E+01E
 Epicentro: LOS SANTOS - SANTANDER                                             3
 ACTION:UPD 12-07-13 15:58 OP:ep   STATUS:               ID:20110920042257 L   I
 2011-09-20-0421-03S.COL___165                                                 6
 STAT SP IPHASW D HRMM SECON CODA AMPLIT PERI AZIMU VELO AIN AR TRES W  DIS CAZ7
 BTL  SZ EP        423 17.57                             172    0.3110 19.9 311 
 BAR2 SZ EP   1    423 17.10                             171   -0.23 7 23.8 194 
 BAR2 SZ ES   1    423 33.02                             171    0.23 7 23.8 194 
 BAR2 SZ I         423 34.92        18.9 0.25                          23.8 194 
 BRR  HZ EP        423 19.08                             152    0.1810 72.5 298 
 BRR  HZ I         423 19.49        28.1 0.14                          72.5 298 
 BRR  HE ES   1    423 35.80                             152    0.22 7 72.5 298 
 RUS  HZ EP   1    423 21.22                             144   -0.20 7  101 177 
 RUS  HE ES   1    423 39.62                             144   -0.44 7  101 177 
 RUS  HZ I         423 41.62         6.6 0.26                           101 177 
 OCA  SZ EP        423 25.89                             130   -0.05 9  160 353 
 OCA  SZ ES   2    423 47.56                             130   -0.56 5  160 353 
 OCA  SZ I         423 52.17        12.9 0.06                           160 353 
 ZAR  HZ EP   1    423 30.00                             123   -0.20 6  205 292 
 ZAR  HE ES   1    423 55.42                             123   -0.28 6  205 292 
 ZAR  HZ I         424  1.14        13.3 0.33                           205 292 
 HEL  HZ EP   1    423 38.56                             115    0.58 6  274 256 
 HEL  HE ES   1    424  9.29                             115   -0.25 6  274 256 
 HEL  HZ I         424 16.35         4.8 0.36                           274 256 
                                                                                
