 2010  220 0258 29.0 L   6.583 -73.486121.8  RSN  4 0.4 1.7LRSN                1
 GAP=248        0.81      11.7    16.7  9.9  0.8442E+02  0.1503E+02 -0.2658E+02E
 Epicentro: EL CARMEN DE CHUCURI - SANTANDER                                   3
 ACTION:UP  10-08-24 09:49 OP:vdl  STATUS:               ID:20100220025829 L   I
 2010-02-20-0240-00S.COL___093                                                 6
 STAT SP IPHASW D HRMM SECON CODA AMPLIT PERI AZIMU VELO SNR AR TRES W  DIS CAZ7
 BAR2 SZ IP        258 46.20                             164     0.210   33  88 
 BAR2 SZ ES   2    258 58.44                             164    -0.9 5   33  88 
 BRR  HZ EP   1    258 47.06                             151     0.0 7   63 337 
 BRR  HE ES   2    259  1.31                             151     0.1 5   63 337 
 BRR  HZ I         259 33.88         8.0 0.34                            63 337 
 GIR2 SZ EP   1    258 47.77                             151     0.4 7   64  31 
 GIR2 SZ ES   2    259  2.08                             151     0.4 5   64  31 
 OCA  SZ EP        258 57.66                             120    -0.4 9  184   6 
 OCA  SZ I         259 27.09         7.4 0.28                           184   6 
                                                                                
