 2017 1120 0141 46.9 L   6.811 -73.151142.0  RSN 14 0.6 1.9LRSN                1
 GAP=111        1.38       3.6     4.7  7.2 -0.1595E+01  0.9773E+01  0.1062E+01E
 Epicentro: LOS SANTOS - SANTANDER                                             3
 ACTION:UPD 17-12-12 19:57 OP:rebc STATUS:               ID:20171120014146 L   I
 OLDACT:REG 17-11-20 14:15 OP:osc  STATUS:               ID:20171120013740     3
 2017-11-20-0138-00M.COL___474                                                 6
 STAT SP IPHASW D HRMM SECON CODA AMPLIT PERI AZIMU VELO AIN AR TRES W  DIS CAZ7
 BAR2 EZ EP        142  5.65                             170   -0.4510 24.4 188 
 BAR2 EZ ES        142 21.08                             170    0.0110 24.4 188 
 BAR2 EZ I         142 22.26        21.8 0.22            168           24.4 188 
 PAM  EZ EP        142  8.67                             150   -0.0110 76.9  40 
 PAM  EN ES        142 25.81                             150    0.1410 76.9  40 
 PAM  EZ I         142 28.91         8.6 0.29            156           76.9  40 
 RUS  HZ EP        142  9.71                             143   -0.6610  102 176 
 RUS  HN ES        142 28.59                             143   -0.0910  102 176 
 RUS  HZ I         142 30.41         9.2 0.42            144            102 176 
 PTB  HZ EP        142 12.53                             131   -0.99 9  147 258 
 PTB  HE ES        142 34.19                             131   -0.10 9  147 258 
 PTB  HZ I         142 40.73         7.5 0.32            132            147 258 
 SPBC HZ EP   4    142 13.58                             128   -1.58 0  164 219 
 SPBC HE ES        142 37.87                             128    0.67 9  164 219 
 SPBC HZ I         142 42.71        16.3 0.48            129            164 219 
 YPLC HZ EP        142 16.19                             126   -0.36 9  178 151 
 YPLC HE ES        142 40.21                             126    0.53 9  178 151 
 YPLC HZ I         142 41.10        11.9 0.28            129            178 151 
 ZAR  HZ EP        142 18.87                             122   -0.12 9  203 292 
 ZAR  HN ES        142 43.97                             122   -0.05 9  203 292 
 ZAR  HZ I         142 48.64         7.5 0.35            123            203 292 
 NOR  HZ EP        142 21.98                             118   -0.45 8  235 234 
 NOR  HN ES        142 49.89                             118   -0.25 8  235 234 
 NOR  HZ I         142 56.30         5.6 0.16            119            235 234 
 CHI  HZ EP        142 24.09                             116   -0.40 8  250 195 
 CHI  HE ES        142 53.55                             116   -0.27 8  250 195 
 CHI  HZ I         142 59.50         3.8 0.32            118            250 195 
 ROSC BZ EP        142 26.04                             116    1.15 8  253 211 
 ROSC BE ES        142 55.95                             116    1.43 8  253 211 
 ROSC BZ I         142 59.63         7.2 0.45            117            253 211 
 DRL03HZ EP        142 29.43                             112    1.24 7  288 353 
 DRL03HE ES        143  0.70                             112    0.31 7  288 353 
 GUY2CHZ EP        142 30.85                             112    0.50 7  301 235 
 GUY2CHN ES   4    143  8.27                             112    4.02 0  301 235 
 GUY2CHZ I         143 12.51         4.4 0.15                           301 235 
 PRA  HZ EP        142 39.76                             106   -0.61 6  393 209 
 PRA  HE ES        143 20.99                             106   -1.09 6  393 209 
 PRA  HZ I         143 28.08         4.0 0.38            107            393 209 
 ORTC HN ES        143 23.48                             106    0.71 6  396 216 
                                                                                
