 2012  220 0243 48.5 L   6.737 -73.191153.3  RSN  4 0.4 1.3LRSN                1
 GAP=227        0.73       7.9     7.4  7.8  0.2833E+02  0.5137E+01  0.1165E+01E
 ACTION:UP  12-03-07 16:32 OP:epov STATUS:               ID:20120220024348 L   I
 2012-02-20-0240-00M.COL___191                                                 6
 STAT SP IPHASW D HRMM SECON CODA AMPLIT PERI AZIMU VELO AIN AR TRES W  DIS CAZ7
 BAR2 SZ EP   1    244  8.33                             174   -0.57 7 16.0 177 
 BAR2 SZ ES   1    244 24.43                             174   -0.39 7 16.0 177 
 BRR  HZ EP   1    244 10.55                             154    0.13 7 70.6 305 
 BRR  HZ I         244 10.82        10.3 0.17                          70.6 305 
 BRR  HE ES   1    244 28.01                             154    0.48 7 70.6 305 
 RUS  HZ EP   1    244 12.97                             147    0.43 7 94.1 173 
 RUS  HE ES   1    244 31.52                             147    0.21 7 94.1 173 
 RUS  HZ I         244 32.91         1.1 0.17                          94.1 173 
 PTB  HZ EP   1    244 15.41                             135   -0.12 7  142 261 
 PTB  HN ES   1    244 36.43                             135   -0.21 7  142 261 
                                                                                
