 2016 1020 0110 56.3 L   6.793 -73.142148.4  RSN 19 0.4 2.4LRSN                1
 GAP= 66        0.97       2.9     3.0  4.9 -0.1925E+01  0.1228E+01  0.3509E+01E
 Epicentro: LOS SANTOS - SANTANDER                                             3
 ACTION:UPD 16-11-09 19:21 OP:rebc STATUS:               ID:20161020011056 L   I
 OLDACT:UP  16-10-20 14:18 OP:e    STATUS:               ID:20161020010747     3
 OLDACT:UP  16-10-20 14:13 OP:e    STATUS:               ID:20161020010747     3
 OLDACT:UP  16-10-20 14:10 OP:e    STATUS:               ID:20161020010747     3
 OLDACT:UP  16-10-20 14:08 OP:e    STATUS:               ID:20161020010747     3
 OLDACT:UP  16-10-20 14:07 OP:e    STATUS:               ID:20161020010747     3
 OLDACT:REG 16-10-20 12:42 OP:and  STATUS:               ID:20161020010747     3
 2016-10-20-0108-00M.COL___344                                                 6
 STAT SP IPHASW D HRMM SECON CODA AMPLIT PERI AZIMU VELO AIN AR TRES W  DIS CAZ7
 BAR2 EZ IP     D  111 16.27                             171    0.0010 22.6 191 
 BAR2 EZ ES        111 31.47                             171   -0.3410 22.6 191 
 BAR2 EZ I         111 34.02        85.7 0.30            170           22.6 191 
 BRR  HZ IP     C  111 17.99                             153    0.1810 71.9 299 
 BRR  HN ES        111 35.14                             153    0.5810 71.9 299 
 BRR  HZ I         111 39.07        41.6 0.26            149           71.9 299 
 PAM  EZ IP     C  111 18.94                             151    0.0910 77.7  39 
 PAM  EN ES        111 36.35                             151   -0.0610 77.7  39 
 PAM  EZ I         111 43.63        11.3 0.30            154           77.7  39 
 RUS  HZ EP        111 20.05                             144   -0.2310 99.8 176 
 RUS  HN ES        111 38.85                             144   -0.1210 99.8 176 
 RUS  HZ I         111 40.23        34.6 0.36            147           99.8 176 
 PTB  HZ EP        111 23.18                             132   -0.36 9  148 259 
 PTB  HN ES        111 43.90                             132   -0.86 9  148 259 
 PTB  HZ I         111 50.81        16.7 0.12            131            148 259 
 TAM  HZ IP     C  111 24.58                             131    0.42 9  155 105 
 TAM  HN ES        111 46.36                             131    0.49 9  155 105 
 OCA  HZ EP        111 24.28                             130   -0.65 9  161 353 
 OCA  HN ES        111 47.39                             130    0.16 9  161 353 
 OCA  HZ I         111 55.43        45.6 0.17            130            161 353 
 SPBC HZ EP        111 25.11                             130    0.11 9  163 219 
 SPBC HN ES        111 47.06                             130   -0.30 9  163 219 
 SPBC HZ I         111 50.14        31.0 0.12            130            163 219 
 TABC EZ EP   4    111 33.78                             120    1.59 0  229 211 
 TABC EZ ES   4    112  4.19                             120    4.04 0  229 211 
 TABC EZ I         112  7.68        17.9 0.43            121            229 211 
 NOR  HZ EP        111 32.36                             119    0.16 8  235 235 
 NOR  HE ES        112  0.23                             119    0.05 8  235 235 
 NOR  HZ I         112  5.70        11.4 0.25            119            235 235 
 CHI  HZ EP        111 34.46                             118    0.36 8  248 195 
 CHI  HN ES        112  3.64                             118    0.07 8  248 195 
 CHI  HZ I         112  7.15        11.2 0.66            119            248 195 
 ROSC BZ EP   4    111 36.41                             117    1.87 0  252 211 
 ROSC BN ES   4    112  6.83                             117    2.48 0  252 211 
 ROSC BZ I         112 10.85        32.6 0.40            118            252 211 
 HEL  HZ EP   2    111 37.58                             115    0.88 4  272 256 
 HEL  HE ES   2    112  8.90                             115    0.71 4  272 256 
 HEL  HZ I         112 15.28         6.0 0.25            115            272 256 
 GUY2CHZ EP   4    111 41.50                             113    1.45 0  301 235 
 GUY2CHE ES        112 15.03                             113    0.88 7  301 235 
 GUY2CHZ I         112 22.43         9.4 0.32                           301 235 
 PTGC HZ EP        111 39.30                             112   -0.90 7  308 159 
 PTGC HN ES   4    112 12.94                             112   -1.49 0  308 159 
 LL6C HZ EP   9    111 22.25                             111   -20.0 0  326 358 
 ELA  HZ EP   4    111 48.55                             111    5.28 0  329 230 
 ELA  HN ES   4    112 21.65                             111    1.77 0  329 230 
 ELA  HZ I         112 32.82         9.0 0.40            111            329 230 
 PRA  HZ EP        111 49.98                             107    0.10 6  392 210 
 PRA  HN ES        112 31.90                             107    0.24 6  392 210 
 PRA  HZ I         112 38.45        15.9 0.34            108            392 210 
 SJC  HZ IP   4 C  111 50.39                             106   -1.69 0  410 327 
 SJC  HN ES   4    112 31.47                             106   -4.10 0  410 327 
 SJC  HZ I         112 46.17         4.1 0.34            107            410 327 
 CRJC HZ EP   4    111 56.48                             104   -2.52 0  468   3 
 CRJC HE ES   4    112 44.68                             104   -3.20 0  468   3 
 CRJC HZ I         112 46.13         7.1 0.23            105            468   3 
 URI  HZ EP   4    112  6.72                             101   -2.76 0  557  13 
 URI  HE ES   4    113  0.63                             101   -5.90 0  557  13 
                                                                                
