 2017  420 0108 43.0 L   6.792 -73.145145.1  RSN  9 0.4 1.6LRSN                1
 GAP=112        1.11       4.4     4.6  7.2  0.2111E+01 -0.2182E+01  0.4945E+01E
 Epicentro: LOS SANTOS - SANTANDER                                             3
 ACTION:UPD 17-05-30 21:14 OP:jn   STATUS:               ID:20170420010843 L   I
 OLDACT:UP  17-04-20 14:16 OP:cog  STATUS:               ID:20170420010731     3
 OLDACT:REG 17-04-20 12:57 OP:cog  STATUS:               ID:20170420010731     3
 2017-04-20-0108-00M.COL___365                                                 6
 STAT SP IPHASW D HRMM SECON CODA AMPLIT PERI AZIMU VELO AIN AR TRES W  DIS CAZ7
 BAR2 EZ EP        1 9  2.49                             171   -0.0310 22.5 191 
 BAR2 EZ ES        1 9 17.23                             171   -0.5210 22.5 191 
 BAR2 EZ I         1 9 20.20        10.9 0.40            170           22.5 191 
 BRR  HZ EP        1 9  4.26                             152    0.1710 71.7 299 
 BRR  HN ES        1 9 21.37                             152    0.8210 71.7 299 
 BRR  HZ I         1 9 22.37         9.0 0.36            154           71.7 299 
 PAM  EZ EP        1 9  5.32                             150    0.1510 78.0  39 
 PAM  EE ES   4    1 9 19.70                             150   -2.77 0 78.0  39 
 PAM  EZ I         1 9 24.60         8.4 0.44            153           78.0  39 
 RUS  HZ EP        1 9  6.63                             144    0.0210 99.7 176 
 RUS  HE ES        1 9 25.26                             144    0.2310 99.7 176 
 RUS  HZ I         1 9 26.31         6.6 0.34            145           99.7 176 
 PTB  HZ EP        1 9  9.29                             132   -0.60 9  148 259 
 PTB  HN ES        1 9 30.28                             132   -0.60 9  148 259 
 PTB  HZ I         1 9 33.86         3.9 0.07            133            148 259 
 SPBC HN ES        1 9 33.27                             129   -0.25 9  163 219 
 YPLC HZ EP        1 9 12.51                             127   -0.14 9  176 151 
 YPLC HN ES        1 9 35.40                             127   -0.39 9  176 151 
 YPLC HZ I         1 9 37.80         7.6 0.26            128            176 151 
 NOR  HN ES        1 9 46.50                             118    0.07 8  234 235 
 CHI  HZ EP        1 9 20.83                             117    0.28 8  248 195 
 CHI  HN ES        1 9 50.83                             117    0.97 8  248 195 
 CHI  HZ I         1 9 56.13         2.2 0.30            118            248 195 
                                                                                
