 2016  620 0803 55.0 L   6.783 -73.133153.0  RSN  9 0.5 1.2LRSN                1
 GAP=139        1.07       3.9     4.9  7.4 -0.8922E+00  0.1107E+02  0.2856E+01E
 Epicentro: LOS SANTOS - SANTANDER                                             3
 ACTION:UPD 16-07-21 22:20 OP:rebc STATUS:               ID:20160620080355 L   I
 OLDACT:DUP 16-06-20 20:18 OP:ak   STATUS:               ID:20160620075742d    3
 OLDACT:REG 16-06-20 13:39 OP:ar   STATUS:               ID:20160620075741     3
 2016-06-20-0757-41M.COL___343                                                 6
 STAT SP IPHASW D HRMM SECON CODA AMPLIT PERI AZIMU VELO AIN AR TRES W  DIS CAZ7
 BAR2 EZ EP        8 4 15.07                             171   -0.4210 21.8 195 
 BAR2 EZ ES        8 4 31.41                             171   -0.0510 21.8 195 
 BAR2 EZ I         8 4 33.65         2.6 0.40                          21.8 195 
 BRR  HZ EP        8 4 17.35                             153    0.2810 73.3 299 
 BRR  HN ES        8 4 35.02                             153    0.7510 73.3 299 
 BRR  HZ I         8 4 39.06         1.9 0.14                          73.3 299 
 PAM  EZ EP   2    8 4 18.63                             152    0.59 5 77.9  38 
 PAM  EN ES        8 4 35.53                             152   -0.4710 77.9  38 
 RUS  HZ EP        8 4 19.72                             146    0.3710 98.6 177 
 RUS  HN ES        8 4 38.22                             146   -0.1210 98.6 177 
 RUS  HZ I         8 4 40.56         0.9 0.46                          98.6 177 
 PTB  HZ EP        8 4 22.35                             133   -0.33 9  149 260 
 PTB  HN ES        8 4 43.46                             133   -0.79 9  149 260 
 PTB  HZ I         8 4 45.51         2.2 0.26                           149 260 
 OCA  HN ES        8 4 46.58                             131   -0.18 9  162 353 
 SPBC HZ EP        8 4 24.43                             131    0.40 9  163 220 
 SPBC HN ES        8 4 47.00                             131    0.34 9  163 220 
 SPBC HZ I         8 4 53.53         3.2 0.17                           163 220 
 ZAR  HZ EP   2    8 4 27.67                             124   -0.48 4  206 292 
 ZAR  HN ES        8 4 54.42                             124    0.43 8  206 292 
 ZAR  HZ I         8 4 59.92         2.1 0.12                           206 292 
 CBOC HN ES   1    8 5 18.45                             111   -0.78 5  334 252 
                                                                                
