 2015 1220 0748 48.2 L   6.638 -73.181154.4  RSN  4 0.2 1.4LRSN                1
 GAP=230        0.56       6.7     4.9  5.6  0.7903E+01  0.1057E+02  0.1696E+01E
 Epicentro: VILLANUEVA - SANTANDER                                             3
 ACTION:UPD 16-02-04 15:06 OP:cam  STATUS:               ID:20151220074848 L   I
 OLDACT:REG 15-12-20 13:42 OP:cara STATUS:               ID:20151220074747     3
 2015-12-20-0747-47M.COL___322                                                 6
 STAT SP IPHASW D HRMM SECON CODA AMPLIT PERI AZIMU VELO AIN AR TRES W  DIS CAZ7
 BAR2 EZ ES        749 24.43                             178   -0.2110 5.09 181 
 BAR2 EZ I         749 25.34         2.6 0.22            170           5.09 181 
 BRR  HZ IP        749 10.87                             152    0.1610 78.3 312 
 BRR  HZ I         749 28.00         4.6 0.64            143           78.3 312 
 BRR  HN ES        749 28.46                             152    0.2110 78.3 312 
 PTB  HZ EP        749 15.30                             135   -0.06 9  141 266 
 PTB  HN ES        749 36.68                             135    0.15 9  141 266 
 PTB  HZ I         749 42.70         3.6 0.40            127            141 266 
 ZAR  HE ES        749 47.36                             124   -0.35 8  208 297 
 ZAR  HZ I         749 52.55         2.7 0.66            114            208 297 
                                                                                
