 2017 1020 0302 59.2 L   6.746 -73.609 98.0  RSN  4 0.6 0.8LRSN                1
 GAP=213        0.99       7.6     4.5 10.7  0.9223E+01  0.1446E+02  0.1452E+02E
 Epicentro: EL CARMEN - SANTANDER                                              3
 ACTION:UPD 17-11-07 19:34 OP:rebc STATUS:               ID:20171020030259 L   I
 OLDACT:UP  17-10-20 14:44 OP:dani STATUS:               ID:20171020025432     3
 OLDACT:REG 17-10-20 13:01 OP:dani STATUS:               ID:20171020025432     3
 2017-10-20-0258-00M.COL___462                                                 6
 STAT SP IPHASW D HRMM SECON CODA AMPLIT PERI AZIMU VELO AIN AR TRES W  DIS CAZ7
 BAR2 EZ ES        3 3 26.58                             152    0.4210 50.2 110 
 PTB  HZ EP        3 3 17.34                             132   -0.2710 96.4 256 
 PTB  HN ES        3 3 31.89                             132   -0.0810 96.4 256 
 PTB  HZ I         3 3 34.02         0.8 0.38            129           96.4 256 
 RUS  HZ EP        3 3 19.60                             128   -0.0210  111 148 
 RUS  HN ES        3 3 35.00                             128   -0.5410  111 148 
 RUS  HZ I         3 3 36.41         1.8 0.31            126            111 148 
 SPBC HZ EP   3    3 3 23.40                             123    2.26 2  131 203 
 SPBC HN ES        3 3 38.65                             123    0.3910  131 203 
 SPBC HZ I         3 3 45.86         1.3 0.06            119            131 203 
                                                                                
