 2011 1120 0318 46.3 L   6.803 -73.066146.2  RSN  4 0.2 1.2LRSN                1
 GAP=147        0.40       3.6     5.7  4.8  0.7923E+01 -0.7228E+00  0.1143E+01E
 Epicentro: LOS SANTOS - SANTANDER                                             3
 ACTION:UPD 12-07-13 16:11 OP:ep   STATUS:               ID:20111120031846 L   I
 2011-11-20-0316-43S.COL___177                                                 6
 STAT SP IPHASW D HRMM SECON CODA AMPLIT PERI AZIMU VELO AIN AR TRES W  DIS CAZ7
 BAR2 SZ EP   1    319  5.86                             169   -0.15 7 26.6 209 
 BAR2 SZ I         319  6.55         4.5 0.20                          26.6 209 
 BAR2 SZ ES   1    319 21.17                             169   -0.25 7 26.6 209 
 PAM  SN ES   2    319 25.51                             153    0.19 5 71.9  34 
 PAM  SZ I         319 27.39         1.9 0.18                          71.9  34 
 BRR  HZ EP   1    319  7.81                             150   -0.10 7 78.9 295 
 BRR  HZ I         319 12.81         3.7 0.18                          78.9 295 
 BRR  HE ES   1    319 24.96                             150    0.17 7 78.9 295 
 RUS  HZ EP   1    319 10.19                             144    0.13 7  101 181 
 RUS  HZ I         319 11.09         1.7 0.17                           101 181 
 RUS  HN ES   1    319 28.74                             144    0.12 7  101 181 
                                                                                
