 2010  820 0829 48.0 L   6.782 -73.098142.0  RSN  8 0.3 1.6LRSN                1
 GAP=164        0.81       4.1     6.0  8.5 -0.6305E+01 -0.7303E+01  0.6736E+01E
 Epicentro: LOS SANTOS - SANTANDER                                             3
 ACTION:UP  10-09-07 10:56 OP:vdl  STATUS:               ID:20100820082947 L   I
 2010-08-20-0827-32S.COL___117                                                 6
 STAT SP IPHASW D HRMM SECON CODA AMPLIT PERI AZIMU VELO SNR AR TRES W  DIS CAZ7
 BAR2 SZ EP   1    830  7.00                             170    -0.1 7   23 204 
 BAR2 SZ I         830  7.56         8.0 0.52                            23 204 
 BRR  HZ EP        830  8.78                             150    -0.310   77 298 
 BRR  HN ES        830 25.61                             150     0.110   77 298 
 BRR  HZ I         830 26.74         9.3 0.68                            77 298 
 RUS  HZ EP        830 11.02                             144    -0.210   98 179 
 RUS  HZ I         830 12.23         3.2 0.04                            98 179 
 RUS  HN ES   1    830 29.58                             144     0.3 7   98 179 
 GUE  SZ EP   1    830 12.86                             138     0.5 7  117   9 
 GRA  SZ EP   1    830 13.20                             136     0.3 7  126  15 
 GRA  SZ ES   1    830 31.95                             136    -0.4 7  126  15 
 GRA  SZ I         830 35.07         3.5 0.49                           126  15 
 HEL  HN ES   2    831  0.77                             114     0.6 4  277 256 
 HEL  HZ I         831  6.09         1.9 0.89                           277 256 
 RREF HN ES   1    831  9.80                             110    -0.6 5  325 230 
 RREF HZ I         831 11.20         3.5 0.34                           325 230 
 PRA  HN ES   2    831 23.78                             106     0.6 3  393 210 
 PRA  HZ I         831 27.71         2.5 0.23                           393 210 
                                                                                
