 2013  520 0809 30.5 L   6.768 -73.140149.0  RSN  6 0.4 1.5LRSN                1
 GAP=139        0.98       5.3     5.1  7.0 -0.3100E+01  0.3636E+01  0.1830E+00E
 Epicentro: LOS SANTOS - SANTANDER                                             3
 ACTION:UPD 13-06-20 09:52 OP:ep   STATUS:               ID:20130520080930 L   I
 2013-05-20-0758-50M.COL___214                                                 6
 STAT SP IPHASW D HRMM SECON CODA AMPLIT PERI AZIMU VELO AIN AR TRES W  DIS CAZ7
 BAR2 SZ EP        8 9 50.47                             172    0.0410 20.0 194 
 BAR2 SZ ES        810  5.85                             172   -0.1510 20.0 194 
 BAR2 SZ I         810  7.99         5.2 0.18            170           20.0 194 
 GIR2 SZ EP        8 9 50.47                             166   -0.1510 34.9 350 
 BRR  HZ EP        8 9 52.37                             152    0.2710 73.5 301 
 BRR  HN ES        810  9.75                             152    0.7810 73.5 301 
 BRR  HN I         810 10.06         9.4 0.30            151           73.5 301 
 PAM  SZ EP        8 9 53.22                             151    0.0510 79.7  38 
 PAM  SZ I         8 9 53.48         6.8 0.42            154           79.7  38 
 PAM  SN ES        810 10.42                             151   -0.4510 79.7  38 
 RUS  HZ EP        8 9 54.39                             145    0.1010 97.0 176 
 RUS  HN ES        810 13.05                             145    0.1810 97.0 176 
 RUS  HZ I         810 13.91         1.9 0.56            146           97.0 176 
 PTB  HZ EP        8 9 57.65                             133   -0.05 9  148 260 
 PTB  HN ES        810 18.21                             133   -0.73 9  148 260 
 PTB  HN I         810 23.99         8.2 0.26            132            148 260 
                                                                                
