 2015  220 0802 38.5 L   6.166 -73.459129.0  RSN  5 0.4 1.3LRSN                1
 GAP=104        1.11       5.2     5.4  8.7 -0.3482E+00  0.1079E+02 -0.2753E+01E
 Epicentro: SAN BENITO - SANTANDER                                             3
 ACTION:UPD 15-04-30 21:27 OP:nd   STATUS:               ID:20150220080238 L   I
 OLDACT:REG 15-02-20 14:48 OP:mher STATUS:               ID:20150220075738     3
 2015-02-20-0757-38M.COL___277                                                 6
 STAT SP IPHASW D HRMM SECON CODA AMPLIT PERI AZIMU VELO AIN AR TRES W  DIS CAZ7
 RUS  HZ EP        8 2 57.42                             157   -0.0210 51.5 126 
 RUS  HN ES        8 3 12.11                             157   -0.1510 51.5 126 
 RUS  HZ I         8 3 14.07         1.3 0.26            158           51.5 126 
 BAR2 EZ EP        8 2 57.08                             155   -0.2210 56.2  33 
 BAR2 EZ ES        8 3 11.78                             155   -0.2310 56.2  33 
 BAR2 EZ I         8 3 14.24         5.7 0.16            158           56.2  33 
 SPBC HZ EP        8 2 59.75                             143    0.6310 88.5 230 
 SPBC HN ES        8 3 15.45                             143    0.2110 88.5 230 
 SPBC HZ I         8 3 18.53         9.3 0.16            145           88.5 230 
 BRR  HZ EP        8 3  0.43                             137   -0.0510  108 345 
 BRR  HN ES        8 3 18.48                             137    0.8110  108 345 
 PTB  HZ EP        8 3  0.92                             135   -0.4410  118 291 
 PTB  HZ I         8 3  1.33         4.3 0.16            138            118 291 
 PTB  HN ES        8 3 18.65                             135   -0.5710  118 291 
                                                                                
