 2015  320 0456 10.2 L   6.780 -73.123133.0  RSN  8 0.5 1.4LRSN                1
 GAP=140        1.34       4.6     6.4 10.0 -0.5287E+01  0.2711E+02 -0.7334E+01E
 Epicentro: LOS SANTOS - SANTANDER                                             3
 ACTION:UPD 15-04-30 16:27 OP:nd   STATUS:               ID:20150320045610 L   I
 OLDACT:DUP 15-03-20 15:14 OP:fm   STATUS:               ID:20150320044748d    3
 2015-03-20-0447-47M.COL___275                                                 6
 STAT SP IPHASW D HRMM SECON CODA AMPLIT PERI AZIMU VELO AIN AR TRES W  DIS CAZ7
 BAR2 EZ EP        456 29.02                             170    0.8010 21.7 198 
 BAR2 EZ I         456 47.54         4.8 0.58            169           21.7 198 
 BRR  HZ EP        456 30.76                             149    0.6210 74.5 299 
 BRR  HN ES        456 46.38                             149    0.6510 74.5 299 
 BRR  HZ I         456 49.09         5.9 0.46            151           74.5 299 
 PAM  SZ EP        456 31.56                             148    0.5210 77.6  37 
 PAM  SN ES        456 46.57                             148   -0.7610 77.6  37 
 RUS  HN ES        456 49.44                             142   -0.4710 98.2 177 
 SPBC HE ES        456 58.72                             126   -0.45 9  163 220 
 SPBC HZ I         457  4.46         3.0 0.28            127            163 220 
 ZAR  HZ EP        456 41.49                             119   -0.65 8  207 292 
 ZAR  HN ES        457  6.74                             119   -0.35 8  207 292 
 ZAR  HZ I         457 13.37         3.7 0.36            120            207 292 
 SML  HZ EP        456 46.09                             114   -0.36 8  247 335 
 SML  HE ES        457 14.48                             114   -0.27 8  247 335 
 SML  HZ I         457 18.55         2.2 0.28            116            247 335 
 GUY2CHZ EP        456 53.26                             110   -0.04 7  302 235 
 GUY2CHN ES        457 27.23                             110    0.29 7  302 235 
 GUY2CHZ I         457 33.81         0.8 0.32                           302 235 
                                                                                
