 2014  920 0700 59.8 L   6.799 -73.136149.7  RSN 18 0.4 2.1LRSN                1
 GAP= 72        0.85       2.4     3.2  4.4 -0.6974E+00  0.1250E+01  0.2272E+01E
 Epicentro: LOS SANTOS - SANTANDER                                             3
 ACTION:UPD 14-10-03 23:06 OP:nd   STATUS:               ID:20140920070059 L   I
 OLDACT:REG 14-09-20 12:40 OP:spq  STATUS:               ID:20140920065817     3
 2014-09-20-0658-17M.COL___293                                                 6
 STAT SP IPHASW D HRMM SECON CODA AMPLIT PERI AZIMU VELO AIN AR TRES W  DIS CAZ7
 BAR2 SZ IP     C  7 1 19.84                             171   -0.0610 23.4 193 
 BAR2 SZ ES   1    7 1 35.22                             171   -0.36 7 23.4 193 
 BAR2 SZ I         7 1 36.47        14.8 0.20            168           23.4 193 
 BRR  HZ EP        7 1 21.73                             153    0.3110 72.2 298 
 BRR  HN ES        7 1 39.18                             153    0.8910 72.2 298 
 BRR  HZ I         7 1 42.18        20.1 0.40            151           72.2 298 
 PAM  SZ EP        7 1 22.66                             152    0.2710 76.8  39 
 PAM  SN ES        7 1 40.00                             152   -0.0210 76.8  39 
 PAM  SZ I         7 1 42.11        30.7 0.56            156           76.8  39 
 RUS  HZ EP        7 1 23.66                             145   -0.2610  100 177 
 RUS  HE ES   1    7 1 42.45                             145   -0.29 7  100 177 
 RUS  HZ I         7 1 45.28        10.7 0.38            145            100 177 
 PTB  HZ EP        7 1 26.65                             133   -0.53 9  149 259 
 PTB  HE ES        7 1 48.00                             133   -0.53 9  149 259 
 PTB  HZ I         7 1 53.71         8.9 0.10            132            149 259 
 TAM  HZ IP     D  7 1 28.00                             132    0.31 9  154 105 
 OCA  HZ EP   1    7 1 28.33                             130   -0.10 7  161 353 
 OCA  HN ES        7 1 50.14                             130   -0.63 9  161 353 
 OCA  HZ I         7 1 54.63        15.7 0.20            132            161 353 
 SPBC HZ EP        7 1 28.68                             130    0.03 9  164 219 
 SPBC HN ES        7 1 51.24                             130    0.08 9  164 219 
 SPBC HZ I         7 1 53.53        28.0 0.36            129            164 219 
 ZAR  HZ EP        7 1 32.79                             123    0.19 9  205 292 
 ZAR  HN ES        7 1 58.50                             123    0.31 9  205 292 
 ZAR  HZ I         7 2  4.88        10.5 0.30            123            205 292 
 SML  HZ EP        7 1 36.53                             118   -0.17 8  244 335 
 SML  HN ES   1    7 2  5.14                             118   -0.35 6  244 335 
 SML  HZ I         7 2  8.34        13.3 0.26            119            244 335 
 CHI  HZ EP        7 1 37.90                             118    0.17 8  249 195 
 CHI  HN ES   1    7 2  7.16                             118   -0.16 6  249 195 
 CHI  HZ I         7 2 14.85         3.9 0.21            119            249 195 
 ROSC BZ EP   4    7 1 39.79                             117    1.61 0  253 211 
 ROSC BN ES   4    7 2 10.08                             117    1.96 0  253 211 
 ROSC BZ I         7 2 13.80         8.2 0.35            118            253 211 
 GUY2CHZ EP   1    7 1 44.57                             113    0.89 5  302 235 
 GUY2CHE ES   4    7 2 21.24                             113    3.34 0  302 235 
 GUY2CHZ I         7 2 27.68         7.3 0.50                           302 235 
 TOL  SZ EP   1    7 1 48.17                             110   -0.12 5  344 225 
 TOL  SN ES   4    7 2 28.10                             110    1.99 0  344 225 
 TOL  SZ I         7 2 30.86        10.6 0.52            110            344 225 
 MON  HZ EP   4    7 1 47.21                             109   -1.84 0  355 308 
 MON  HN ES   4    7 2 25.14                             109   -2.33 0  355 308 
 MON  HZ I         7 2 30.18         2.8 0.20            110            355 308 
 PRA  HZ EP        7 1 53.55                             107    0.05 6  392 210 
 PRA  HE ES        7 2 35.28                             107   -0.11 6  392 210 
 PRA  HZ I         7 2 43.14         4.0 0.34            108            392 210 
 ORTC HZ EP        7 1 53.88                             107   -0.03 6  396 216 
 ORTC HN ES   4    7 2 38.10                             107    1.98 0  396 216 
 ORTC HZ I         7 2 43.58         3.6 0.24            108            396 216 
 SJC  HZ EP   4    7 1 53.96                             106   -1.61 0  410 327 
 SJC  HN ES   4    7 2 35.27                             106   -3.80 0  410 327 
 SJC  HZ I         7 2 39.46         2.4 0.50            107            410 327 
                                                                                
