 2014  620 0236 51.8 L   6.812 -73.163141.2  RSN 12 0.4 2.1LRSN                1
 GAP=134        0.94       2.5     3.4  4.9 -0.1133E+01  0.5125E+01  0.4221E+00E
 Epicentro: LOS SANTOS - SANTANDER                                             3
 ACTION:UPD 14-07-01 22:55 OP:nd   STATUS:               ID:20140620023651 L   I
 OLDACT:REG 14-06-20 14:17 OP:carl STATUS:               ID:20140620022820     3
 2014-06-20-0228-20M.COL___259                                                 6
 STAT SP IPHASW D HRMM SECON CODA AMPLIT PERI AZIMU VELO AIN AR TRES W  DIS CAZ7
 BAR2 SZ EP        237 10.88                             170   -0.0310 24.3 185 
 BAR2 SZ ES        237 25.06                             170   -0.7610 24.3 185 
 BAR2 SZ I         237 26.76        32.9 0.32            169           24.3 185 
 BRR  HZ EP        237 12.67                             152    0.3310 68.9 298 
 BRR  HN ES        237 28.99                             152    0.6410 68.9 298 
 BRR  HZ I         237 32.20        22.3 0.30            151           68.9 298 
 PAM  SZ EP        237 13.78                             150    0.2210 77.6  41 
 PAM  SN ES        237 30.68                             150    0.1610 77.6  41 
 PAM  SZ I         237 32.72        25.4 0.40            153           77.6  41 
 RUS  HZ EP        237 15.30                             142    0.0810  102 175 
 RUS  HN ES        237 33.65                             142    0.1710  102 175 
 RUS  HZ I         237 35.42        24.1 0.32            144            102 175 
 PTB  HZ EP        237 17.45                             131   -0.81 9  146 258 
 PTB  HN ES        237 38.45                             131   -0.44 9  146 258 
 PTB  HZ I         237 41.04        27.0 0.10            131            146 258 
 OCA  HZ EP        237 19.91                             129    0.28 9  159 354 
 OCA  HN ES        237 41.29                             129   -0.04 9  159 354 
 OCA  HZ I         237 47.04        11.7 0.28            131            159 354 
 ZAR  HZ EP        237 23.92                             122    0.19 9  202 292 
 ZAR  HN ES        237 48.87                             122    0.25 9  202 292 
 ZAR  HZ I         237 54.42        15.8 0.32            122            202 292 
 NOR  HZ EP        237 27.35                             118    0.16 8  234 234 
 NOR  HN ES        237 55.28                             118    0.49 8  234 234 
 NOR  HZ I         238  0.67        10.3 0.16            118            234 234 
 SML  HZ EP        237 27.35                             117   -0.62 8  242 336 
 SML  HE ES        237 55.74                             117   -0.44 8  242 336 
 CHI  HZ EP        237 29.26                             116   -0.08 8  249 195 
 CHI  HN ES        237 58.51                             116   -0.10 8  249 195 
 CHI  HZ I         238  7.47         6.0 0.34            117            249 195 
 HEL  HZ EP   4    237 33.18                             114    1.56 0  271 255 
 HEL  HN ES        238  2.64                             114   -0.04 8  271 255 
 HEL  HZ I         238  9.61         9.6 0.34            115            271 255 
 GUY2CHZ EP        237 35.40                             111    0.28 7  300 234 
 GUY2CHN ES        238  8.91                             111    0.01 7  300 234 
 GUY2CHZ I         238 17.04         7.3 0.54                           300 234 
 RREF HZ EP   4    237 39.39                             110    1.70 0  321 229 
 RREF HN ES   4    238 15.62                             110    2.15 0  321 229 
                                                                                
