 2012 1120 0640 14.0 L   6.139 -73.700109.5  RSN 12 0.4 2.2LRSN                1
 GAP= 68        0.79       2.2     2.7  5.8  0.1016E+00  0.3717E+01  0.2779E+01E
 Epicentro: LANDAZURI - SANTANDER                                              3
 ACTION:UPD 12-12-05 15:34 OP:}ep  STATUS:               ID:20121120064014 L   I
 2012-11-20-0640-00M.COL___233                                                 6
 STAT SP IPHASW D HRMM SECON CODA AMPLIT PERI AZIMU VELO AIN AR TRES W  DIS CAZ7
 RUS  HZ IP     D  640 32.21                             144   -0.0510 73.5 112 
 RUS  HN ES   1    640 45.84                             144   -0.64 7 73.5 112 
 RUS  HN I         640 47.86        26.7 0.27                          73.5 112 
 BAR2 SZ EP        640 32.45                             143    0.3610 76.1  49 
 BAR2 SZ ES        640 46.42                             143    0.2510 76.1  49 
 PTB  HZ EP        640 32.89                             136   -0.3710 94.7 298 
 PTB  HE ES   1    640 47.56                             136   -0.70 7 94.7 298 
 PTB  HZ I         640 51.12        27.0 0.18                          94.7 298 
 BRR  HZ EP        640 34.57                             132    0.2510  107 359 
 BRR  HZ I         640 34.94        25.1 0.15                           107 359 
 BRR  HN ES   1    640 50.62                             132    0.47 7  107 359 
 GIR2 SZ EP        640 35.82                             129    0.2910  118  28 
 CHI  HZ EP        640 40.79                             119   -0.07 9  167 181 
 CHI  HN ES        641  2.10                             119    0.32 9  167 181 
 CHI  HZ I         641  7.62        26.1 0.38                           167 181 
 PAM  SZ EP        640 41.51                             118   -0.06 9  173  40 
 PAM  SN ES   1    641  2.45                             118   -0.60 7  173  40 
 PAM  SZ I         641  6.06        21.7 0.37                           173  40 
 ZAR  HZ EP   1    640 43.19                             114   -0.41 6  197 320 
 ZAR  HE ES   1    641  6.95                             114    0.28 6  197 320 
 ZAR  HZ I         641  9.19        30.0 0.30                           197 320 
 HEL  HZ EP   1    640 45.13                             113    0.44 6  203 272 
 HEL  HN ES   1    641  8.65                             113    0.05 6  203 272 
 HEL  HZ I         641 13.37         8.1 0.23                           203 272 
 TAM  HZ EP   1    640 45.13                             112   -0.41 6  214  81 
 TAM  HZ I         641  8.60        24.3 0.33                           214  81 
 VIL  SZ EP   1    640 46.65                             111   -0.19 6  224 180 
 VIL  SN ES   1    641 12.75                             111    0.32 6  224 180 
 VIL  SZ I         641 18.23        37.9 0.38                           224 180 
 PRA  HZ EP   1    640 54.94                             104   -0.47 5  299 206 
 PRA  HZ I         641 34.19        11.3 0.35                           299 206 
                                                                                
