 2011  220 0444 20.5 L   6.744 -73.715  8.7  RSN  5 0.3 1.5LRSN                1
 GAP=194        0.68       4.8     5.6 10.6 -0.6127E+01  0.2753E+02 -0.4371E+02E
 Epicentro: EL CARMEN DE CHUCURI - SANTANDER                                   3
 ACTION:UP  11-03-28 15:09 OP:jfem STATUS:               ID:20110220044420 L   I
 2011-02-20-0441-26S.COL___137                                                 6
 STAT SP IPHASW D HRMM SECON CODA AMPLIT PERI AZIMU VELO SNR AR TRES W  DIS CAZ7
 BAR2 SZ EP        444 30.75                              95     0.110   61 106 
 BAR2 SZ ES   1    444 38.30                              95    -0.2 7   61 106 
 BAR2 SZ I         444 40.47        23.6 0.31                            61 106 
 RUS  HZ IP     C  444 39.30                              92    -0.110  117 143 
 RUS  HZ I         444 39.56         8.7 0.17                           117 143 
 RUS  HN ES   1    444 54.13                              92     0.0 7  117 143 
 GRA  SZ EP   1    444 46.01                              56     0.3 7  161  39 
 GRA  SZ ES   1    445  5.81                              56     0.4 7  161  39 
 GRA  SZ I         445  7.89        15.3 0.25                           161  39 
 OCA  SZ EP   1    444 46.93                              56     0.0 7  171  15 
 OCA  SZ ES   1    445  6.93                              56    -0.6 7  171  15 
 OCA  SZ I         445 11.76         6.4 0.36                           171  15 
 CHI  HZ EP   2    444 55.25                              56     0.2 4  234 180 
 CHI  HZ I         445 31.12         1.7 0.91                           234 180 
                                                                                
