 2011  520 0321  4.1 L   6.787 -73.020142.7  RSN  7 0.2 1.9LRSN                1
 GAP=173        0.59       3.4     8.5  5.6  0.9169E+01 -0.1794E+02 -0.6269E+01E
 Epicentro: CEPITA - SANTANDER                                                 3
 ACTION:UP  11-06-29 08:54 OP:tino STATUS:               ID:20110520032104 L   I
 2011-05-20-0319-08S.COL___140                                                 6
 STAT SP IPHASW D HRMM SECON CODA AMPLIT PERI AZIMU VELO SNR AR TRES W  DIS CAZ7
 BAR2 SZ EP   1    321 23.55                             168     0.1 7   28 220 
 BAR2 SZ I         321 37.31        17.5 0.48                            28 220 
 BAR2 SZ ES   1    321 38.78                             168     0.2 7   28 220 
 BTL  SZ EP   1    321 23.76                             167     0.2 7   31 298 
 GIR2 SZ EP   1    321 23.71                             164     0.1 7   38 329 
 GIR2 SZ ES   1    321 38.42                             164    -0.4 7   38 329 
 BRR  HZ IP     C  321 25.42                             148    -0.310   84 295 
 BRR  HZ I         321 25.82        25.0 0.09                            84 295 
 BRR  HE ES   1    321 42.72                             148     0.1 7   84 295 
 RUS  HZ EP   1    321 27.62                             144     0.2 7   99 184 
 RUS  HE ES   1    321 45.59                             144    -0.1 7   99 184 
 RUS  HZ I         321 58.66         9.7 0.57                            99 184 
 GRA  SZ EP   1    321 28.64                             137    -0.3 7  124  11 
 GRA  SZ I         321 30.98         8.9 0.33                           124  11 
 OCA  SZ EP   1    321 32.70                             128     0.2 7  164 348 
 OCA  SZ ES   1    321 55.03                             128     0.3 7  164 348 
 OCA  SZ I         321 57.79        14.5 0.68                           164 348 
                                                                                
