 2017  220 0727 50.9 L   6.828 -73.092141.1  RSN  5 0.4 0.6LRSN                1
 GAP=142        0.96       5.2     5.2  8.5 -0.3746E+01 -0.8191E+00  0.5376E+01E
 Epicentro: LOS SANTOS - SANTANDER                                             3
 ACTION:UPD 17-05-24 15:38 OP:jn   STATUS:               ID:20170220072750 L   I
 OLDACT:UP  17-02-20 17:33 OP:dani STATUS:               ID:20170220071742d    3
 OLDACT:DUP 17-02-20 17:31 OP:dani STATUS:               ID:20170220071742d    3
 2017-02-20-0718-00M.COL___348                                                 6
 STAT SP IPHASW D HRMM SECON CODA AMPLIT PERI AZIMU VELO AIN AR TRES W  DIS CAZ7
 BAR2 EZ ES        728 25.16                             168    0.1110 27.9 201 
 PAM  EZ EP        728 12.59                             152    0.3210 71.3  37 
 PAM  EN ES        728 28.37                             152   -0.5710 71.3  37 
 PAM  EZ I         728 31.18         0.6 0.42            152           71.3  37 
 BRR  HZ EP   2    728 12.56                             150    0.77 5 75.1 294 
 BRR  HN ES        728 28.55                             150    0.4710 75.1 294 
 RUS  HZ EP        728 14.33                             142   -0.0910  103 179 
 RUS  HN ES        728 32.86                             142    0.1010  103 179 
 RUS  HZ I         728 33.87         0.7 0.29            143            103 179 
 PTB  HZ EP   3    728 16.98                             130   -1.12 2  154 258 
 PTB  HN ES        728 38.75                             130   -0.56 9  154 258 
 PTB  HZ I         728 39.99         0.8 0.12            131            154 258 
                                                                                
