 2016  520 0755 36.0 L   6.813 -73.159141.6  RSN  7 0.4 1.6LRSN                1
 GAP=182        0.91       3.6     5.5  6.3 -0.2793E+01  0.9929E+01 -0.4055E+01E
 Epicentro: LOS SANTOS - SANTANDER                                             3
 ACTION:UPD 16-08-18 17:47 OP:cam  STATUS:               ID:20160520075536 L   I
 OLDACT:UP  16-05-20 17:00 OP:mh   STATUS:               ID:20160520074740     3
 OLDACT:UP  16-05-20 17:00 OP:mh   STATUS:               ID:20160520074740     3
 OLDACT:UP  16-05-20 16:58 OP:mh   STATUS:               ID:20160520074740     3
 OLDACT:REG 16-05-20 12:36 OP:mh   STATUS:               ID:20160520074740     3
 2016-05-20-0747-40M.COL___304                                                 6
 STAT SP IPHASW D HRMM SECON CODA AMPLIT PERI AZIMU VELO AIN AR TRES W  DIS CAZ7
 BAR2 EZ EP        755 55.42                             170    0.2510 24.5 186 
 BAR2 EZ ES        756 10.42                             170    0.3110 24.5 186 
 BAR2 EZ I         756 12.14         6.4 0.14            167           24.5 186 
 RUS  HZ EP        755 59.54                             142    0.0710  102 175 
 RUS  HE ES        756 17.19                             142   -0.5810  102 175 
 RUS  HZ I         756 18.97         2.2 0.20            143            102 175 
 PTB  HE EP        756  2.00                             131   -0.54 9  147 258 
 PTB  HZ ES        756 23.23                             131    0.01 9  147 258 
 PTB  HE I         756 28.98         5.8 0.34            123            147 258 
 OCA  HZ EP        756  4.38                             129    0.52 9  159 354 
 OCA  HN ES   1    756 24.78                             129   -0.80 7  159 354 
 OCA  HZ I         756 30.96         6.5 0.47            122            159 354 
 SPBC HZ EP        756  4.24                             128    0.02 9  163 218 
 SPBC HN ES        756 26.58                             128    0.37 9  163 218 
 SPBC HZ I         756 30.67         5.9 0.56            123            163 218 
 ZAR  HZ EP        756  8.15                             122    0.15 9  202 292 
 ZAR  HZ I         756 39.38         4.2 0.34            114            202 292 
 PRA  HZ EP        756 29.50                             106    0.05 6  392 209 
 PRA  HN ES        757 10.86                             106   -0.27 6  392 209 
 PRA  HZ I         757 15.92         2.0 0.67            103            392 209 
                                                                                
