 2010  920 0340 29.4 L   6.801 -73.066145.9  RSN  5 0.3 1.6LRSN                1
 GAP=167        0.75       3.8     8.8  8.8 -0.8690E+00 -0.2163E+02 -0.5411E+01E
 Epicentro: LOS SANTOS - SANTANDER                                             3
 ACTION:UP  11-02-18 11:04 OP:tino STATUS:               ID:20100920034029 L   I
 2010-09-20-0339-19S.COL___121                                                 6
 STAT SP IPHASW D HRMM SECON CODA AMPLIT PERI AZIMU VELO SNR AR TRES W  DIS CAZ7
 BTL  SZ EP        340 49.48                             170     0.410   26 300 
 BRR  HZ EP        340 50.85                             150    -0.210   79 295 
 BRR  HZ I         340 51.00        14.2 0.15                            79 295 
 BRR  HE ES   1    341  8.11                             150     0.2 7   79 295 
 RUS  HZ EP   1    340 53.23                             144     0.1 7  100 181 
 RUS  HE ES   1    341 11.32                             144    -0.4 7  100 181 
 RUS  HZ I         341 12.27         3.7 0.38                           100 181 
 GRA  SZ EP        340 54.76                             138     0.310  123  14 
 GRA  SZ I         340 56.05         6.1 0.32                           123  14 
 GRA  SZ ES   1    341 13.88                             138    -0.1 7  123  14 
 OCA  SZ EP        340 57.45                             129    -0.4 9  161 350 
 OCA  SZ ES   1    341 19.85                             129    -0.2 7  161 350 
                                                                                
