 2014 1220 0113 17.8 L   6.529 -73.531114.6  RSN 11 0.4 1.5LRSN                1
 GAP= 65        0.97       2.8     3.4  6.5 -0.2409E+01  0.6835E+01  0.5748E+00E
 Epicentro: EL CARMEN - SANTANDER                                              3
 ACTION:UPD 15-02-10 17:05 OP:nd   STATUS:               ID:20141220011317 L   I
 OLDACT:REG 14-12-20 12:50 OP:spq  STATUS:               ID:20141220010748     3
 2014-12-20-0107-48M.COL___305                                                 6
 STAT SP IPHASW D HRMM SECON CODA AMPLIT PERI AZIMU VELO AIN AR TRES W  DIS CAZ7
 BAR2 EZ EP        113 34.41                             160    0.1510 39.2  80 
 BAR2 EZ ES   1    113 47.17                             160    0.10 7 39.2  80 
 BAR2 EZ I         113 48.34        25.7 0.34            167           39.2  80 
 BRR  HZ EP        113 35.38                             147   -0.0410 67.0 343 
 BRR  HE ES        113 49.34                             147    0.1910 67.0 343 
 BRR  HZ I         113 58.08         9.2 0.62            151           67.0 343 
 RUS  HZ EP        113 37.59                             141    0.1110 86.0 145 
 RUS  HE ES   1    113 52.12                             141   -0.69 7 86.0 145 
 PTB  HZ EP        113 37.36                             135   -0.8010  102 271 
 PTB  HN ES   4    113 52.27                             135   -1.75 0  102 271 
 PTB  HZ I         113 53.76         6.8 0.42            137            102 271 
 SPBC HZ EP        113 39.96                             132    0.6710  114 212 
 SPBC HN ES        113 56.47                             132    0.4410  114 212 
 SPBC HZ I         114  1.76         8.3 0.20            134            114 212 
 PAM  SZ EP        113 41.33                             128    0.1710  128  46 
 PAM  SE ES        113 59.11                             128   -0.2610  128  46 
 PAM  SZ I         114  0.02         4.8 0.41            135            128  46 
 ZAR  HE ES   1    114  7.83                             118   -0.07 7  181 306 
 ZAR  HZ I         114 13.07         4.0 0.12            121            181 306 
 NOR  HZ EP        113 46.36                             118    0.20 9  183 234 
 NOR  HN ES        114  7.54                             118   -0.72 9  183 234 
 NOR  HZ I         114 11.37         4.5 0.16            121            183 234 
 CHI  HZ EP   1    113 49.42                             114   -0.34 6  211 186 
 CHI  HE ES   1    114 14.97                             114    0.30 6  211 186 
 CHI  HZ I         114 24.41         1.3 0.34            118            211 186 
 HEL  HZ EP   1    113 51.19                             112    0.03 6  224 261 
 HEL  HN ES   1    114 17.35                             112    0.18 6  224 261 
 HEL  HZ I         114 25.44         2.4 0.30            115            224 261 
 SML  HZ EP   1    113 54.14                             109   -0.44 6  258 347 
 SML  HE ES   1    114 23.98                             109    0.72 6  258 347 
                                                                                
