 2013 1220 0744 46.3 L   6.805 -73.180143.7  RSN  8 0.5 1.3LRSN                1
 GAP=132        1.17       3.7     5.6  7.3 -0.2868E+01  0.8597E+01 -0.2878E+01E
 Epicentro: LOS SANTOS - SANTANDER                                             3
 ACTION:UPD 14-01-13 10:19 OP:ep   STATUS:               ID:20131220074446 L   I
 OLDACT:REG 13-12-20 07:40 OP:jn   STATUS:               ID:20131220074000     3
 2013-12-20-0740-00M.COL___285                                                 6
 STAT SP IPHASW D HRMM SECON CODA AMPLIT PERI AZIMU VELO AIN AR TRES W  DIS CAZ7
 BAR2 SZ EP        745  5.81                             170    0.1410 23.6 181 
 BAR2 SZ ES        745 20.68                             170   -0.1110 23.6 181 
 BAR2 SZ I         745 22.70         6.1 0.26            166           23.6 181 
 BRR  HZ IP     C  745  7.53                             153    0.5310 67.5 300 
 BRR  HN ES        745 24.22                             153    1.0510 67.5 300 
 BRR  HZ I         745 27.24         4.0 0.28            151           67.5 300 
 PAM  SZ EP        745  8.69                             150    0.2910 79.4  42 
 PAM  SN ES        745 25.29                             150   -0.3710 79.4  42 
 PAM  SZ I         745 26.06         4.8 0.32            157           79.4  42 
 RUS  HZ EP        745  9.92                             143    0.0210  102 174 
 RUS  HN ES        745 28.23                             143   -0.0910  102 174 
 RUS  HZ I         745 29.84         1.7 0.32            143            102 174 
 PTB  HZ EP        745 12.43                             132   -0.32 9  144 258 
 PTB  HN ES        745 33.13                             132   -0.27 9  144 258 
 PTB  HZ I         745 38.68         3.9 0.16            131            144 258 
 OCA  HN ES        745 35.67                             129   -0.55 9  159 354 
 SPBC HZ EP        745 14.95                             129    0.51 9  161 218 
 SPBC HN ES        745 35.66                             129   -0.74 9  161 218 
 SPBC HZ I         745 50.45         3.0 0.18            128            161 218 
 SML  HZ EP        745 22.48                             117   -0.08 8  242 336 
 SML  HN ES        745 50.50                             117   -0.36 8  242 336 
                                                                                
