 2015  320 0644  7.7 L   6.798 -73.164142.3  RSN 10 0.4 1.4LRSN                1
 GAP=134        1.05       3.0     4.2  5.9 -0.1576E+01  0.8146E+01 -0.9782E+00E
 Epicentro: LOS SANTOS - SANTANDER                                             3
 ACTION:UPD 15-04-30 16:27 OP:nd   STATUS:               ID:20150320064407 L   I
 OLDACT:REG 15-03-20 13:07 OP:fm   STATUS:               ID:20150320063749     3
 2015-03-20-0637-49M.COL___275                                                 6
 STAT SP IPHASW D HRMM SECON CODA AMPLIT PERI AZIMU VELO AIN AR TRES W  DIS CAZ7
 BAR2 EZ EP        644 27.05                             170    0.1110 22.9 185 
 BAR2 EZ ES        644 42.13                             170    0.2110 22.9 185 
 BAR2 EZ I         644 43.52         7.8 0.42            173           22.9 185 
 BRR  HZ EP        644 29.05                             152    0.6310 69.5 299 
 BRR  HN ES        644 45.11                             152    0.5610 69.5 299 
 BRR  HZ I         644 51.52         1.9 0.26            150           69.5 299 
 PAM  SZ EP        644 29.95                             150    0.2710 78.8  41 
 PAM  SN ES        644 46.77                             150   -0.0110 78.8  41 
 PAM  SZ I         644 49.45         3.6 0.70            152           78.8  41 
 RUS  HZ EP        644 30.71                             143   -0.4410  101 175 
 RUS  HN ES        644 49.09                             143   -0.3210  101 175 
 RUS  HZ I         644 50.18         2.0 0.24            149            101 175 
 PTB  HZ EP        644 34.05                             132   -0.19 9  146 259 
 PTB  HE ES        644 53.94                             132   -0.97 9  146 259 
 PTB  HZ I         644 58.59         2.9 0.48            133            146 259 
 OCA  HN ES        644 57.39                             129   -0.26 9  160 354 
 OCA  HZ I         645  5.29         5.0 0.28            130            160 354 
 SPBC HZ EP        644 35.93                             128    0.09 9  162 218 
 SPBC HE ES        644 57.62                             128   -0.14 9  162 218 
 SPBC HZ I         645  1.50         3.4 0.28            132            162 218 
 ZAR  HZ EP        644 39.91                             122    0.13 9  202 292 
 ZAR  HN ES        645  5.10                             122    0.34 9  202 292 
 ZAR  HZ I         645 11.36         2.8 0.28            123            202 292 
 SML  HZ EP        644 43.85                             117   -0.25 8  243 336 
 SML  HE ES        645 11.78                             117   -0.68 8  243 336 
 SML  HZ I         645 20.28         2.3 0.20            118            243 336 
 GUY2CHZ EP        644 51.36                             112    0.37 7  299 235 
 GUY2CHE ES        645 25.36                             112    0.63 7  299 235 
 GUY2CHZ I         645 32.18         1.1 0.40                           299 235 
                                                                                
