 2011  920 0253  5.2 L   6.765 -73.144140.1  RSN 13 0.3 2.5LRSN                1
 GAP=115        0.71       2.6     3.1  3.9 -0.7032E+00  0.2564E+01  0.2614E+01E
 Epicentro: LOS SANTOS - SANTANDER                                             3
 ACTION:UPD 12-07-13 15:58 OP:ep   STATUS:               ID:20110920025305 L   I
 2011-09-20-0240-00M.COL___167                                                 6
 STAT SP IPHASW D HRMM SECON CODA AMPLIT PERI AZIMU VELO AIN AR TRES W  DIS CAZ7
 BAR2 SZ EP        253 23.91                             172   -0.2110 19.6 192 
 BAR2 SZ ES        253 38.94                             172    0.1010 19.6 192 
 BAR2 SZ I         253 41.60        48.1 0.27                          19.6 192 
 BTL  SZ EP        253 24.55                             171    0.3910 21.7 321 
 GIR2 SZ EP        253 24.30                             165   -0.0510 35.1 351 
 GIR2 SZ ES   1    253 39.26                             165    0.00 7 35.1 351 
 BRR  HZ IP     C  253 26.06                             151    0.1610 73.2 301 
 BRR  HN ES        253 42.50                             151    0.4910 73.2 301 
 BRR  HZ I         253 47.15       110.7 0.09                          73.2 301 
 PAM  SZ EP        253 27.06                             149    0.0210 80.3  38 
 PAM  SZ I         253 27.43        25.7 0.19                          80.3  38 
 PAM  SN ES        253 43.67                             149   -0.3710 80.3  38 
 RUS  HZ EP   1    253 28.10                             144   -0.06 7 96.8 176 
 RUS  HN ES   1    253 45.76                             144   -0.28 7 96.8 176 
 RUS  HZ I         253 48.84        43.0 0.22                          96.8 176 
 OCA  SZ EP        253 33.12                             128   -0.36 9  164 353 
 OCA  SZ I         253 59.44        66.0 0.20                           164 353 
 YOP  SZ EP        253 34.87                             126    0.33 9  175 153 
 YOP  SZ I         254  1.75        22.5 0.48                           175 153 
 ZAR  HZ EP   1    253 37.17                             121   -0.32 6  206 293 
 ZAR  HN ES   1    254  2.35                             121   -0.30 6  206 293 
 ZAR  HZ I         254  8.80        50.1 0.28                           206 293 
 NOR  SZ EP   1    253 40.33                             118   -0.09 6  233 235 
 NOR  SN ES   1    254  7.38                             118   -0.48 6  233 235 
 CHI  HZ EP   1    253 42.65                             116    0.42 6  245 195 
 CHI  HN ES   1    254 11.07                             116   -0.02 6  245 195 
 CHI  HZ I         254 17.87        13.6 0.32                           245 195 
 HEL  HZ EP   1    253 45.97                             114    0.88 6  271 257 
 HEL  HE ES   1    254 15.83                             114   -0.33 6  271 257 
 HEL  HZ I         254 22.94        28.1 0.29                           271 257 
 PRA  HZ EP   1    253 57.40                             106   -0.79 4  389 210 
 PRA  HN ES   1    254 39.53                             106    0.04 4  389 210 
                                                                                
