 2013  920 0045 39.0 L   7.260 -74.002  8.5  RSN  4 0.2 1.0LRSN                1
 GAP=193        0.50       2.1     1.4  3.5  0.1103E+01 -0.1129E+01  0.1526E+01E
 Epicentro: PUERTO WILCHES - SANTANDER                                         3
 ACTION:UPD 13-10-22 09:23 OP:ep   STATUS:               ID:20130920004539 L   I
 OLDACT:DUP 13-09-20 09:54 OP:carl STATUS:               ID:20130920003960d    3
 2013-09-20-0039-59M.COL___269                                                 6
 STAT SP IPHASW D HRMM SECON CODA AMPLIT PERI AZIMU VELO AIN AR TRES W  DIS CAZ7
 BRR  HZ EP        045 44.92                              98   -0.2410 36.2 118 
 BRR  HE ES   1    045 50.09                              98    0.16 7 36.2 118 
 BRR  HZ I         045 51.81        10.1 0.24            104           36.2 118 
 PTB  HZ EP        045 54.25                              93    0.3210 94.2 212 
 PTB  HN ES        046  5.38                              93   -0.1710 94.2 212 
 PTB  HZ I         046  7.43         4.5 0.42             95           94.2 212 
 ZAR  HZ EP        045 54.43                              93   -0.0610 97.9 285 
 ZAR  HN ES        046  6.54                              93   -0.0010 97.9 285 
 ZAR  HZ I         046  7.86         4.7 0.10             95           97.9 285 
 RUS  HZ EP        046  7.41                              56    0.15 9  182 146 
 RUS  HN ES        046 29.21                              56   -0.08 9  182 146 
 RUS  HZ I         046 29.83         2.3 0.18             56            182 146 
                                                                                
