 2010  720 0344 42.5 L   6.828 -73.106152.3  RSN  5 0.1 1.2LRSN                1
 GAP=163        0.39       4.7     8.6  8.4  0.2043E+02 -0.4964E+02 -0.1833E+02E
 Epicentro: LOS SANTOS - SANTANDER                                             3
 ACTION:UPD 10-12-01 15:18 OP:pat  STATUS:               ID:20100720034442 L   I
 2010-07-20-0341-45S.COL___123                                                 6
 STAT SP IPHASW D HRMM SECON CODA AMPLIT PERI AZIMU VELO AIN AR TRES W  DIS CAZ7
 BAR2 SZ EP   2    345  2.64                             169    -0.3 5   27 198 
 BAR2 SZ I         345 19.27         6.5 0.23                            27 198 
 BRR  HZ IP     D  345  4.52                             153     0.110   74 295 
 BRR  HZ I         345  4.71         9.4 0.11                            74 295 
 BRR  HE ES   1    345 21.57                             153     0.0 7   74 295 
 RUS  HZ EP   2    345  7.01                             144     0.0 5  103 179 
 RUS  HN ES   2    345 26.37                             144     0.1 5  103 179 
 RUS  HZ I         345 26.67         1.3 0.18                           103 179 
 GUE  SZ EP   2    345  7.36                             142    -0.1 5  113  10 
 GUE  SZ I         345 30.03         0.7 0.17                           113  10 
 GRA  SZ EP   2    345  8.15                             139     0.2 5  122  16 
 GRA  SZ I         345 29.89         1.8 0.24                           122  16 
                                                                                
