 2012 1220 0530 35.9 L   6.714 -73.182148.8  RSN  5 0.3 1.6LRSN                1
 GAP=175        0.70       6.1     6.3  6.5  0.1535E+02  0.3513E+01  0.1194E+01E
 Epicentro: VILLANUEVA - SANTANDER                                             3
 ACTION:UPD 13-01-04 14:29 OP:ep   STATUS:               ID:20121220053035 L   I
 2012-12-20-0530-00M.COL___242                                                 6
 STAT SP IPHASW D HRMM SECON CODA AMPLIT PERI AZIMU VELO AIN AR TRES W  DIS CAZ7
 BAR2 SZ EP   2    530 55.54                             175   -0.22 5 13.4 180 
 BAR2 SZ ES   1    531 10.99                             175   -0.24 7 13.4 180 
 BAR2 SZ I         531 11.64         8.6 0.17                          13.4 180 
 GIR2 SZ EP   1    530 55.64                             164   -0.59 7 40.4 358 
 BRR  HZ EP        530 57.61                             152    0.1110 73.0 307 
 BRR  HE ES        531 14.65                             152    0.3310 73.0 307 
 BRR  HZ I         531 17.35         6.1 0.54                          73.0 307 
 RUS  HZ EP   1    530 59.88                             147    0.54 7 91.4 173 
 RUS  HN ES   1    531 17.60                             147   -0.01 7 91.4 173 
 RUS  HN I         531 19.48         8.1 0.34                          91.4 173 
 PTB  HZ EP        531  2.59                             134   -0.05 9  142 262 
 PTB  HN ES   1    531 23.15                             134   -0.34 7  142 262 
 PTB  HZ I         531 25.70         4.5 0.15                           142 262 
                                                                                
