 2012  220 0246 26.7 L   6.749 -73.190153.3  RSN  4 0.2 1.3LRSN                1
 GAP=228        0.44       5.3     6.1  6.0  0.1944E+02 -0.3058E+01 -0.2026E+01E
 ACTION:UP  12-03-07 16:32 OP:epov STATUS:               ID:20120220024626 L   I
 2012-02-20-0240-00M.COL___191                                                 6
 STAT SP IPHASW D HRMM SECON CODA AMPLIT PERI AZIMU VELO AIN AR TRES W  DIS CAZ7
 BAR2 SZ EP   1    246 46.77                             173   -0.37 7 17.4 177 
 BRR  HZ EP   1    246 48.58                             154   -0.03 7 69.9 305 
 BRR  HZ I         246 49.12         3.4 0.23                          69.9 305 
 BRR  HE ES   1    247  5.82                             154    0.13 7 69.9 305 
 RUS  HZ EP   1    246 51.02                             147    0.16 7 95.5 173 
 RUS  HE ES   1    247  9.76                             147    0.06 7 95.5 173 
 PTB  HZ EP   1    246 53.95                             135    0.17 7  142 261 
 PTB  HN ES   2    247 14.65                             135   -0.26 5  142 261 
                                                                                
