 2013  120 0455 47.4 L   6.747 -73.154145.2  RSN  6 0.3 1.4LRSN                1
 GAP=138        0.68       4.5     4.0  6.5  0.1696E+01  0.4582E+01  0.4028E+00E
 Epicentro: LOS SANTOS - SANTANDER                                             3
 ACTION:UPD 13-02-15 09:15 OP:ep   STATUS:               ID:20130120045547 L   I
 2013-01-20-0450-00M.COL___241                                                 6
 STAT SP IPHASW D HRMM SECON CODA AMPLIT PERI AZIMU VELO AIN AR TRES W  DIS CAZ7
 BAR2 SZ EP        456  7.09                             173    0.2110 17.4 190 
 BAR2 SZ ES   1    456 21.94                             173   -0.11 7 17.4 190 
 BRR  HZ EP   1    456  8.80                             152    0.17 7 73.4 303 
 BRR  HN ES   1    456 25.83                             152    0.65 7 73.4 303 
 PAM  SZ EP   1    456  9.80                             149   -0.09 7 82.5  37 
 PAM  SE ES   1    456 26.95                             149   -0.46 7 82.5  37 
 PAM  SZ I         456 29.01         3.6 0.42            151           82.5  37 
 RUS  HZ EP   1    456 10.79                             145    0.08 7 94.8 175 
 RUS  HN ES   1    456 28.93                             145    0.06 7 94.8 175 
 RUS  HZ I         456 30.65         3.6 0.36            148           94.8 175 
 PTB  HZ EP   1    456 13.98                             132   -0.19 7  146 261 
 PTB  HN ES   1    456 34.41                             132   -0.62 7  146 261 
 PTB  HZ I         456 37.02         3.4 0.14            132            146 261 
 ZAR  HN ES   1    456 45.41                             122    0.04 6  205 294 
 ZAR  HZ I         456 51.28         2.9 0.14            122            205 294 
                                                                                
