 2016  520 0231 30.5 L   6.848 -73.124126.3  RSN  5 0.5 1.3LRSN                1
 GAP=247        1.28       9.1     9.0 11.9  0.3480E+02  0.4253E+02 -0.1743E+02E
 Epicentro: LOS SANTOS - SANTANDER                                             3
 ACTION:UPD 16-08-18 17:47 OP:cam  STATUS:               ID:20160520023130 L   I
 OLDACT:REG 16-05-20 12:27 OP:mh   STATUS:               ID:20160520022750     3
 2016-05-20-0227-50M.COL___306                                                 6
 STAT SP IPHASW D HRMM SECON CODA AMPLIT PERI AZIMU VELO AIN AR TRES W  DIS CAZ7
 BAR2 EZ ES        232  0.94                             166   -0.5710 29.0 193 
 RUS  HZ EP   1    231 52.40                             138   -0.37 7  106 178 
 RUS  HN ES        232 11.09                             138    0.9210  106 178 
 RUS  HZ I         232 13.41         2.1 0.07            141            106 178 
 PTB  HZ EP        231 55.69                             126   -0.57 9  151 257 
 PTB  HN ES        232 16.31                             126   -0.07 9  151 257 
 PTB  HZ I         232 18.53         2.5 0.12            127            151 257 
 ZAR  HZ EP        232  2.14                             118    0.37 9  204 291 
 ZAR  HE ES        232 26.70                             118    0.53 9  204 291 
 ZAR  HZ I         232 33.60         2.1 0.26            119            204 291 
 NOR  HN ES        232 32.84                             113   -0.36 8  240 234 
 NOR  HZ I         232 35.23         1.8 0.06            115            240 234 
                                                                                
