 2017  720 0447 31.3 L   6.753 -73.196147.3  RSN  4 0.4 1.1LRSN                1
 GAP=228        1.10       8.7     8.2  8.9  0.3502E+02  0.7485E+01  0.2601E+01E
 Epicentro: VILLANUEVA - SANTANDER                                             3
 ACTION:UPD 17-08-30 15:35 OP:rebc STATUS:               ID:20170720044731 L   I
 OLDACT:REG 17-07-20 13:11 OP:dnl  STATUS:               ID:20170720043741     3
 2017-07-20-0438-00M.COL___383                                                 6
 STAT SP IPHASW D HRMM SECON CODA AMPLIT PERI AZIMU VELO AIN AR TRES W  DIS CAZ7
 BAR2 EZ EP        447 50.74                             173   -0.2310 17.8 175 
 BAR2 EZ ES        448  5.60                             173   -0.7510 17.8 175 
 BAR2 EZ I         448  6.75         5.3 0.32            175           17.8 175 
 BRR  HZ EP        447 52.48                             153    0.0310 69.2 305 
 BRR  HN ES        448  9.66                             153    0.6710 69.2 305 
 BRR  HZ I         448 12.77         3.5 0.40            153           69.2 305 
 RUS  HZ EP        447 55.02                             145    0.1910 95.9 172 
 RUS  HN ES        448 13.67                             145    0.4610 95.9 172 
 RUS  HZ I         448 14.44         1.5 0.28            148           95.9 172 
 PTB  HZ EP        447 57.60                             134   -0.17 9  141 260 
 PTB  HN ES        448 18.20                             134   -0.25 9  141 260 
 PTB  HZ I         448 19.48         1.2 0.32            135            141 260 
                                                                                
