 2012 1220 0614  1.8 L   6.752 -73.182149.1  RSN  5 0.2 1.4LRSN                1
 GAP=176        0.57       7.9     5.2  8.6 -0.5951E+00 -0.1317E+02  0.3828E+02E
 Epicentro: VILLANUEVA - SANTANDER                                             3
 ACTION:UPD 13-01-04 14:29 OP:ep   STATUS:               ID:20121220061401 L   I
 2012-12-20-0610-00M.COL___242                                                 6
 STAT SP IPHASW D HRMM SECON CODA AMPLIT PERI AZIMU VELO AIN AR TRES W  DIS CAZ7
 BAR2 SZ EP        614 21.61                             173   -0.1310 17.7 180 
 BAR2 SZ I         614 40.52         6.3 0.28                          17.7 180 
 GIR2 SZ EP   1    614 21.58                             165   -0.43 7 36.1 358 
 BRR  HZ EP     C  614 23.50                             153    0.2210 70.5 304 
 BRR  HE ES        614 40.17                             153    0.1410 70.5 304 
 BRR  HZ I         614 41.52         4.9 0.21                          70.5 304 
 RUS  HZ EP   1    614 25.78                             146    0.23 7 95.7 173 
 PTB  HZ EP        614 28.66                             134    0.04 9  143 261 
 PTB  HE ES   1    614 49.23                             134   -0.30 7  143 261 
 PTB  HZ I         614 51.75         3.3 0.12                           143 261 
                                                                                
