 2013 1020 0105 48.8 L   6.746 -73.180139.1  RSN  7 0.4 2.0LRSN                1
 GAP=197        0.86       4.9     7.6  6.1  0.2542E+02  0.4461E+01 -0.2778E+01E
 Epicentro: VILLANUEVA - SANTANDER                                             3
 ACTION:UPD 13-11-25 09:22 OP:ep   STATUS:               ID:20131020010548 L   I
 OLDACT:UP  13-10-20 10:54 OP:cam  STATUS:               ID:20131020005847     3
 OLDACT:REG 13-10-20 10:41 OP:cam  STATUS:               ID:20131020005847     3
 2013-10-20-0058-47M.COL___215                                                 6
 STAT SP IPHASW D HRMM SECON CODA AMPLIT PERI AZIMU VELO AIN AR TRES W  DIS CAZ7
 BAR2 SZ EP        1 6  7.63                             173    0.0910 17.0 181 
 BAR2 SZ ES        1 6 21.50                             173   -0.6310 17.0 181 
 BAR2 SZ I         1 6 23.19        24.2 0.30            174           17.0 181 
 BRR  HZ EP        1 6  9.49                             151    0.2410 71.1 304 
 BRR  HN ES        1 6 25.69                             151    0.5110 71.1 304 
 BRR  HZ I         1 6 25.86        26.9 0.14            152           71.1 304 
 RUS  HZ EP        1 6 11.35                             144   -0.1710 94.9 174 
 RUS  HN ES        1 6 29.46                             144    0.2510 94.9 174 
 RUS  HZ I         1 6 30.63         8.3 0.30            145           94.9 174 
 PTB  HZ EP   1    1 6 14.30                             131   -0.52 7  143 261 
 ZAR  HN ES        1 6 45.35                             121   -0.26 9  203 294 
 CHI  HZ EP   1    1 6 25.89                             116    0.47 6  242 195 
 SML  HZ EP   1    1 6 25.35                             115   -0.17 6  248 337 
 SML  HN ES        1 6 54.20                             115    0.06 8  248 337 
 SML  HZ I         1 6 56.55        11.8 0.10            116            248 337 
                                                                                
