 2012  220 0146 20.2 L   6.804 -73.170138.0  RSN  4 0.3 1.0LRSN                1
 GAP=133        0.62       5.0     4.6  8.8 -0.1835E+01  0.2343E+01 -0.6989E+00E
 ACTION:UP  12-03-07 16:32 OP:epov STATUS:               ID:20120220014620 L   I
 2012-02-20-0140-00M.COL___191                                                 6
 STAT SP IPHASW D HRMM SECON CODA AMPLIT PERI AZIMU VELO AIN AR TRES W  DIS CAZ7
 BRR  HE ES   2    146 56.75                             152    0.61 5 68.6 299 
 PAM  SZ EP   1    146 41.86                             149    0.13 7 78.8  41 
 PAM  SZ I         146 42.09         2.3 0.17                          78.8  41 
 PAM  SN ES   2    146 57.99                             149   -0.50 5 78.8  41 
 RUS  HZ EP   1    146 43.11                             142   -0.18 7  101 175 
 RUS  HZ I         146 44.18         1.5 0.14                           101 175 
 RUS  HN ES   1    147  1.42                             142    0.15 7  101 175 
 PTB  HZ EP   1    146 46.64                             131    0.29 7  145 258 
 PTB  HN ES   1    147  6.27                             131   -0.45 7  145 258 
                                                                                
