 2016  520 0433 10.7 L   6.779 -73.131146.2  RSN 11 0.4 2.1LRSN                1
 GAP=139        0.94       3.0     3.9  5.6 -0.2647E+01  0.5619E+01  0.1232E+01E
 Epicentro: LOS SANTOS - SANTANDER                                             3
 ACTION:UPD 16-08-18 17:47 OP:cam  STATUS:               ID:20160520043310 L   I
 OLDACT:UP  16-05-20 15:06 OP:mh   STATUS:               ID:20160520042746     3
 OLDACT:UP  16-05-20 15:06 OP:mh   STATUS:               ID:20160520042746     3
 OLDACT:REG 16-05-20 12:30 OP:mh   STATUS:               ID:20160520042746     3
 2016-05-20-0427-46M.COL___309                                                 6
 STAT SP IPHASW D HRMM SECON CODA AMPLIT PERI AZIMU VELO AIN AR TRES W  DIS CAZ7
 BAR2 EZ EP        433 30.33                             171    0.0210 21.4 195 
 BAR2 EZ ES        433 45.02                             171   -0.6110 21.4 195 
 BAR2 EZ I         433 49.03        14.4 0.57            171           21.4 195 
 BRR  HZ IP     D  433 32.23                             152    0.2210 73.8 300 
 BRR  HE ES        433 49.59                             152    0.9410 73.8 300 
 BRR  HZ I         433 54.64        28.2 0.14            151           73.8 300 
 PAM  EZ EP     D  433 33.16                             151    0.1910 78.2  38 
 PAM  EN ES        433 50.26                             151   -0.1110 78.2  38 
 PAM  EZ I         433 52.46        19.2 0.46            153           78.2  38 
 RUS  HZ EP   1    433 34.28                             145   -0.00 7 98.1 177 
 RUS  HN ES        433 52.79                             145    0.0910 98.1 177 
 RUS  HZ I         433 53.80         9.5 0.28            146           98.1 177 
 PTB  HZ EP   1    433 37.55                             132   -0.23 7  149 260 
 PTB  HN ES        433 58.55                             132   -0.37 9  149 260 
 PTB  HZ I         434  0.32        19.1 0.28            132            149 260 
 SPBC HZ EP        433 39.21                             129    0.09 9  162 220 
 SPBC HN ES        434  1.40                             129    0.08 9  162 220 
 SPBC HZ I         434  3.60        19.9 0.44            130            162 220 
 OCA  HZ EP   1    433 39.00                             129   -0.25 7  163 353 
 OCA  HN ES        434  1.40                             129   -0.14 9  163 353 
 OCA  HZ I         434  6.36        43.4 0.30            131            163 353 
 ZAR  HZ EP   1    433 42.64                             122   -0.75 6  206 293 
 ZAR  HN ES        434  9.04                             122    0.13 8  206 293 
 ZAR  HZ I         434 14.34        14.7 0.32            123            206 293 
 NOR  HZ EP   1    433 46.28                             119   -0.14 6  235 235 
 NOR  HN ES        434 13.75                             119   -0.56 8  235 235 
 NOR  HZ I         434 21.62         7.8 0.32            120            235 235 
 PTGC HZ EP   4    433 53.04                             112   -1.18 0  306 159 
 PTGC HN ES   4    434 26.09                             112   -2.11 0  306 159 
 PTGC HZ I         434 31.05         7.7 0.60            114            306 159 
 PRA  HZ EP   1    434  4.48                             107    0.42 4  391 210 
 PRA  HN ES        434 46.62                             107    0.92 6  391 210 
 PRA  HZ I         434 51.35         4.5 0.32            108            391 210 
                                                                                
