 2014 1220 0730 48.3 L   6.757 -73.144143.1  RSN 10 0.4 1.4LRSN                1
 GAP= 73        0.92       3.6     3.7  6.0  0.7380E+00 -0.1735E+00 -0.8130E+00E
 Epicentro: LOS SANTOS - SANTANDER                                             3
 ACTION:UPD 15-02-10 17:05 OP:nd   STATUS:               ID:20141220073048 L   I
 OLDACT:REG 14-12-20 13:17 OP:spq  STATUS:               ID:20141220072741     3
 2014-12-20-0727-41M.COL___305                                                 6
 STAT SP IPHASW D HRMM SECON CODA AMPLIT PERI AZIMU VELO AIN AR TRES W  DIS CAZ7
 BAR2 EZ EP        731  7.32                             172   -0.2010 18.7 193 
 BAR2 EZ ES   1    731 21.85                             172   -0.66 7 18.7 193 
 BAR2 EZ I         731 23.27        10.5 0.22            174           18.7 193 
 BRR  HZ EP        731  9.50                             151    0.2010 73.7 302 
 BRR  HN ES        731 26.24                             151    0.5510 73.7 302 
 BRR  HZ I         731 27.26         3.8 0.16            150           73.7 302 
 PAM  SZ EP        731 10.69                             149    0.2410 81.0  37 
 PAM  SN ES   1    731 27.54                             149   -0.19 7 81.0  37 
 PAM  SZ I         731 30.18         4.4 0.54            150           81.0  37 
 RUS  HZ EP        731 11.37                             145   -0.0710 95.8 176 
 RUS  HE ES   1    731 29.61                             145    0.12 7 95.8 176 
 RUS  HZ I         731 30.67         2.7 0.30            147           95.8 176 
 PTB  HZ EP        731 14.33                             132   -0.65 9  147 261 
 PTB  HN ES   1    731 35.18                             132   -0.62 7  147 261 
 PTB  HZ I         731 38.02         4.0 0.14            132            147 261 
 TAM  HZ EP        731 15.90                             130    0.26 9  154 103 
 SPBC HZ EP        731 16.48                             129    0.23 9  160 220 
 SPBC HN ES        731 38.18                             129    0.13 9  160 220 
 SPBC HZ I         731 39.27         3.1 0.26            131            160 220 
 ZAR  HZ EP   1    731 21.42                             121    0.65 6  206 293 
 ZAR  HN ES        731 46.35                             121    0.25 8  206 293 
 ZAR  HZ I         731 52.24         3.2 0.50            122            206 293 
 SML  HZ EP   1    731 24.45                             116   -0.80 6  248 336 
 SML  HN ES   1    731 53.67                             116   -0.40 6  248 336 
 SML  HZ I         731 57.66         2.9 0.10            117            248 336 
 MON  HN ES   4    732 14.24                             108   -1.73 0  357 309 
 MON  HZ I         732 14.88         0.7 0.44            109            357 309 
                                                                                
