 2013  220 0444 21.0 L   6.780 -73.173153.8  RSN  5 0.3 1.3LRSN                1
 GAP=180        0.74       3.8     6.6  7.8 -0.4588E+01  0.2542E+01 -0.8280E+01E
 Epicentro: LOS SANTOS - SANTANDER                                             3
 ACTION:UPD 13-03-12 09:34 OP:ep   STATUS:               ID:20130220044421 L   I
 2013-02-20-0440-00M.COL___241                                                 6
 STAT SP IPHASW D HRMM SECON CODA AMPLIT PERI AZIMU VELO AIN AR TRES W  DIS CAZ7
 BRR  HZ EP        444 43.26                             154    0.2810 69.7 301 
 BRR  HN ES   1    445  0.75                             154    0.65 7 69.7 301 
 BRR  HN I         445  6.49         6.2 0.30            155           69.7 301 
 RUS  HN ES   1    445  4.21                             146   -0.29 7 98.6 174 
 RUS  HN I         445  7.25         1.6 0.40            151           98.6 174 
 PTB  HZ EP        444 48.41                             134    0.03 9  144 259 
 PTB  HN ES        445  9.42                             134   -0.29 9  144 259 
 PTB  HN I         445 14.55         3.1 0.50            138            144 259 
 OCA  HN ES        445 12.59                             131   -0.28 9  162 354 
 SML  HZ EP        444 58.42                             119    0.21 8  244 336 
 SML  HE ES   1    445 26.78                             119   -0.43 6  244 336 
                                                                                
