 2017  720 0748 46.8 L   6.812 -73.143146.6  RSN 14 0.5 1.8LRSN                1
 GAP=112        1.22       4.2     4.0  6.0  0.2337E+01  0.6103E+01  0.4245E+01E
 Epicentro: LOS SANTOS - SANTANDER                                             3
 ACTION:UPD 17-08-30 15:35 OP:rebc STATUS:               ID:20170720074846 L   I
 OLDACT:UP  17-07-20 16:46 OP:edw  STATUS:               ID:20170720074740     3
 OLDACT:REG 17-07-20 13:15 OP:dnl  STATUS:               ID:20170720074740     3
 2017-07-20-0748-00M.COL___374                                                 6
 STAT SP IPHASW D HRMM SECON CODA AMPLIT PERI AZIMU VELO AIN AR TRES W  DIS CAZ7
 BAR2 EZ IP     C  749  6.71                             170    0.1110 24.7 190 
 BAR2 EZ ES        749 21.57                             170   -0.4410 24.7 190 
 BAR2 EZ I         749 22.55        15.3 0.16            167           24.7 190 
 BRR  HZ EP        749  6.88                             153   -1.1810 70.8 297 
 BRR  HN ES        749 25.09                             153    0.4810 70.8 297 
 BRR  HZ I         749 28.79         8.4 0.18            151           70.8 297 
 PAM  EZ EP     D  749  9.77                             151    0.6910 76.2  40 
 PAM  EN ES        749 26.56                             151    0.1410 76.2  40 
 PAM  EZ I         749 27.16         8.5 0.32            156           76.2  40 
 RUS  HZ EP        749 10.71                             144   -0.0610  102 176 
 RUS  HN ES        749 28.78                             144   -0.6510  102 176 
 RUS  HZ I         749 30.26         6.0 0.38            144            102 176 
 PTB  HZ EP        749 13.68                             132   -0.25 9  148 258 
 PTB  HN ES        749 34.79                             132   -0.26 9  148 258 
 PTB  HZ I         749 42.72         4.7 0.16            131            148 258 
 SPBC HZ EP        749 15.75                             129    0.23 9  164 219 
 SPBC HN ES        749 37.98                             129    0.09 9  164 219 
 SPBC HZ I         749 40.32        12.0 0.22            129            164 219 
 YPLC HZ EP     C  749 17.13                             126    0.33 9  178 152 
 YPLC HE ES        749 40.89                             126    0.72 9  178 152 
 YPLC HZ I         749 46.28         3.4 0.34            129            178 152 
 ZAR  HZ EP        749 19.56                             122    0.24 9  204 292 
 ZAR  HN ES        749 45.15                             122    0.50 9  204 292 
 ZAR  HZ I         749 51.65         8.5 0.42            123            204 292 
 NOR  HZ EP        749 22.98                             118    0.25 8  236 234 
 NOR  HN ES   4    749 51.71                             118    0.99 0  236 234 
 NOR  HZ I         749 54.73         5.1 0.44            119            236 234 
 HEL  HZ EP        749 26.98                             115   -0.19 8  273 256 
 HEL  HN ES   4    749 56.32                             115   -2.30 0  273 256 
 HEL  HZ I         750  5.04         4.4 0.32            115            273 256 
 GUY2CHZ EP        749 31.11                             112    0.50 7  302 235 
 GUY2CHN ES        750  5.19                             112    0.45 7  302 235 
 GUY2CHZ I         750 13.38         3.4 0.38                           302 235 
 PTGC HZ EP        749 29.96                             111   -0.91 7  310 159 
 PTGC HN ES   4    750  2.01                             111   -3.20 0  310 159 
 CBOC HZ EP   4    749 35.11                             110    1.24 0  334 252 
 CBOC HE ES        750 10.31                             110   -0.24 7  334 252 
 CBOC HZ I         750 22.50         1.4 0.64            110            334 252 
 SJC  HZ EP        749 41.52                             106   -0.80 6  408 327 
 SJC  HN ES   4    750 22.26                             106   -3.33 0  408 327 
 SJC  HZ I         750 26.47         2.3 0.54            107            408 327 
                                                                                
