 2011  120 0810 10.0 L   6.823 -73.106142.5  RSN 13 0.4 2.6LRSN                1
 GAP=139        0.99       3.5     5.8  7.7 -0.6177E+01  0.1689E+02  0.1985E-01E
 Epicentro: LOS SANTOS - SANTANDER                                             3
 ACTION:UP  11-02-08 08:41 OP:pat  STATUS:               ID:20110120081010 L   I
 2011-01-20-0808-06S.COL___137                                                 6
 STAT SP IPHASW D HRMM SECON CODA AMPLIT PERI AZIMU VELO SNR AR TRES W  DIS CAZ7
 BAR2 SZ IP        810 29.47                             169     0.210   27 199 
 BAR2 SZ ES   1    810 44.72                             169     0.3 7   27 199 
 BAR2 SZ I         810 46.19       107.3 0.15                            27 199 
 GIR2 SZ IP        810 28.43                             168    -0.810   30 341 
 RUS  HZ EP   1    810 33.59                             142     0.0 7  103 179 
 RUS  HE ES   1    810 51.78                             142    -0.2 7  103 179 
 RUS  HZ I         810 53.61        44.3 0.42                           103 179 
 GRA  SZ IP        810 34.98                             137     0.410  122  16 
 GRA  SZ ES   1    810 54.37                             137     0.5 7  122  16 
 GRA  SZ I         810 55.66        97.4 0.28                           122  16 
 OCA  SZ EP        810 37.51                             129    -0.3 9  158 351 
 OCA  SZ ES   1    810 59.50                             129    -0.1 7  158 351 
 OCA  SZ I         811  1.08        38.4 0.07                           158 351 
 YOP  SZ EP   1    810 39.99                             125     0.2 7  179 155 
 YOP  SE ES   2    811  3.35                             125     0.2 4  179 155 
 YOP  SZ I         811  6.63        15.9 0.61                           179 155 
 NOR  SZ EP   1    810 45.70                             117    -0.4 6  240 235 
 NOR  SN ES   1    811 13.63                             117    -0.6 6  240 235 
 CHI  HZ EP   1    810 47.72                             116    -0.2 6  252 196 
 CHI  HZ I         810 50.02        10.4 0.41                           252 196 
 CHI  HE ES   1    811 16.97                             116    -0.5 6  252 196 
 ROSC BZ EP   1    810 48.92                             115     0.5 6  257 212 
 ROSC BZ I         811 26.47        23.2 0.27                           257 212 
 HEL  HZ EP   1    810 50.96                             114     0.4 6  277 256 
 HEL  HN ES   1    811 22.53                             114     0.3 6  277 256 
 HEL  HZ I         811 30.35        18.3 0.62                           277 256 
 GUY  SN ES   2    811 29.11                             111     0.7 4  306 235 
 GUY  SZ I         811 37.08        37.4 0.50                           306 235 
 RREF HZ EP   1    810 57.26                             110     0.7 5  327 230 
 RREF HE ES   1    811 33.59                             110     0.7 5  327 230 
 RREF HZ I         811 43.00        23.4 0.30                           327 230 
 DBB  SZ EP   1    810 57.52                             109    -0.3 5  344 274 
                                                                                
