 2011  520 0435 43.0 L   5.946 -73.627120.0  RSN  4 0.3 1.5LRSN                1
 GAP=157        0.65       6.0     5.0  9.8 -0.1481E+02  0.1693E+02 -0.1139E+01E
 Epicentro: BARBOSA - SANTANDER                                                3
 ACTION:UP  11-06-29 08:54 OP:tino STATUS:               ID:20110520043543 L   I
 2011-05-20-0433-54S.COL___140                                                 6
 STAT SP IPHASW D HRMM SECON CODA AMPLIT PERI AZIMU VELO SNR AR TRES W  DIS CAZ7
 RUS  HZ EP   1    436  1.46                             152     0.0 7   60  96 
 RUS  HN ES   2    436 15.42                             152    -0.5 5   60  96 
 RUS  HZ I         436 17.54         2.3 0.28                            60  96 
 BAR2 SZ EP   1    436  3.32                             142     0.4 7   87  35 
 BAR2 SZ ES   1    436 18.56                             142     0.2 7   87  35 
 BAR2 SZ I         436 19.57        15.7 0.27                            87  35 
 BRR  HZ EP   1    436  5.96                             130    -0.2 7  129 356 
 BRR  HZ I         436 18.90         6.2 0.41                           129 356 
 BRR  HE ES   2    436 23.77                             130    -0.4 5  129 356 
 NOR  SZ EP   1    436  7.39                             126    -0.3 7  144 253 
 NOR  SE ES   1    436 27.19                             126     0.3 7  144 253 
                                                                                
