 2017  620 0826  7.8 L   6.794 -73.176152.3  RSN 13 0.4 2.1LRSN                1
 GAP=218        0.93       3.7     5.7  6.9  0.3480E+01 -0.1144E+02  0.3710E+01E
 Epicentro: LOS SANTOS - SANTANDER                                             3
 ACTION:UPD 17-09-14 16:53 OP:jn   STATUS:               ID:20170620082607 L   I
 OLDACT:DUP 17-06-20 15:39 OP:lv   STATUS:               ID:20170620081760d    3
 2017-06-20-0817-59S.COL___273                                                 6
 STAT SP IPHASW D HRMM SECON CODA AMPLIT PERI AZIMU VELO AIN AR TRES W  DIS CAZ7
 BRR  HZ IP     D  826 29.62                             154    0.1110 68.6 300 
 BRR  HN ES        826 46.83                             154    0.3710 68.6 300 
 BRR  HZ I         826 49.99        16.2 0.20            136           68.6 300 
 PTB  HZ EP        826 34.74                             134   -0.26 9  144 259 
 PTB  HN ES        826 55.66                             134   -0.57 9  144 259 
 SPBC HZ EP        826 36.83                             131    0.27 9  161 218 
 SPBC HN ES        826 58.37                             131   -0.63 9  161 218 
 SPBC HZ I         827  2.97        44.1 0.04            115            161 218 
 ZAR  HZ EP        826 40.34                             124   -0.04 9  201 293 
 ZAR  HE ES        827  6.08                             124    0.27 9  201 293 
 ZAR  HZ I         827 10.63        16.9 0.40            110            201 293 
 NOR  HZ EP        826 44.10                             120    0.52 8  232 234 
 NOR  HN ES        827 11.73                             120    0.23 8  232 234 
 NOR  HZ I         827 17.04         9.8 0.28            107            232 234 
 CHI  HZ EP        826 46.08                             119    0.38 8  247 194 
 CHI  HN ES        827 15.62                             119    0.35 8  247 194 
 CHI  HZ I         827 21.11         3.1 0.20            107            247 194 
 ROSC BZ EP   4    826 48.82                             118    2.79 0  250 210 
 ROSC BN ES        827 16.03                             118    0.17 8  250 210 
 ROSC BZ I         827 22.58        11.6 0.38            106            250 210 
 HEL  HZ EP   4    826 49.64                             116    1.67 0  269 256 
 HEL  HE ES        827 19.08                             116   -0.24 8  269 256 
 HEL  HZ I         827 26.42         7.3 0.36            104            269 256 
 URE  HZ EP        826 48.45                             115   -0.42 7  281 292 
 URE  HN ES   4    827 18.76                             115   -2.16 0  281 292 
 URE  HZ I         827 29.33         6.3 0.13            104            281 292 
 GUY2CHZ EP   4    826 53.24                             114    1.88 0  298 235 
 GUY2CHN ES   4    827 29.28                             114    3.93 0  298 235 
 GUY2CHZ I         827 34.16         3.8 0.25                           298 235 
 PTGC HZ EP        826 51.09                             113   -0.92 7  309 158 
 PTGC HN ES   4    827 24.81                             113   -1.70 0  309 158 
 PTGC HZ I         827 26.62         4.3 0.29            104            309 158 
 ORTC HN ES   4    827 43.38                             108   -0.28 0  393 216 
 ORTC HZ I         827 50.08         2.7 0.45             98            393 216 
 PAL  HZ EP        827  3.20                             107    0.40 6  402 239 
 PAL  HZ I         827 53.64         2.1 0.39             97            402 239 
 SJC  HZ EP   4    827  2.08                             107   -1.35 0  408 327 
 SJC  HN ES   4    827 43.30                             107   -3.53 0  408 327 
                                                                                
