 2016  920 0047 37.8 L   6.789 -73.152145.6  RSN  7 0.2 1.6LRSN                1
 GAP=136        0.49       2.2     2.4  3.6 -0.3933E+00  0.2316E+01  0.7255E-01E
 Epicentro: LOS SANTOS - SANTANDER                                             3
 ACTION:UPD 17-08-17 21:14 OP:lp   STATUS:               ID:20160920004737 L   I
 OLDACT:UP  16-09-20 14:06 OP:and  STATUS:               ID:20160920003734     3
 OLDACT:REG 16-09-20 12:24 OP:and  STATUS:               ID:20160920003734     3
 2016-09-20-0038-00M.COL___363                                                 6
 STAT SP IPHASW D HRMM SECON CODA AMPLIT PERI AZIMU VELO AIN AR TRES W  DIS CAZ7
 BAR2 EZ EP        047 57.27                             171   -0.1210 22.0 189 
 BAR2 EZ ES        048 12.51                             171   -0.1610 22.0 189 
 BAR2 EZ I         048 14.98        15.6 0.22            171           22.0 189 
 BRR  HZ IP     C  047 59.11                             152    0.1710 71.2 300 
 BRR  HN ES        048 15.60                             152    0.1810 71.2 300 
 BRR  HZ I         048 21.35         7.6 0.14            151           71.2 300 
 PAM  EZ EP     C  048  0.06                             150   -0.0310 78.8  39 
 PAM  EN ES        048 17.30                             150   -0.1710 78.8  39 
 PAM  EZ I         048 19.01         2.9 0.20            154           78.8  39 
 RUS  HZ EP   2    048  1.49                             144    0.03 5 99.4 176 
 RUS  HN ES        048 20.08                             144    0.1810 99.4 176 
 RUS  HZ I         048 21.48         6.5 0.44            148           99.4 176 
 PTB  HZ EP   2    048  3.89                             132   -0.79 5  147 259 
 PTB  HN ES   2    048 25.20                             132   -0.44 5  147 259 
 PTB  HZ I         048 27.05         5.2 0.18            133            147 259 
 SPBC HZ EP        048  6.37                             129    0.21 9  162 219 
 SPBC HN ES        048 28.19                             129   -0.09 9  162 219 
 SPBC HZ I         048 31.81         7.2 0.18            131            162 219 
 ZAR  HZ EP   2    048 10.30                             122    0.07 4  204 293 
 ZAR  HE ES        048 35.67                             122    0.15 9  204 293 
 ZAR  HZ I         048 42.05         5.5 0.33            124            204 293 
                                                                                
