 2017  120 0541 48.4 L   6.782 -73.137147.2  RSN 14 0.6 2.0LRSN                1
 GAP= 71        1.38       4.9     5.0  7.1  0.4818E+00  0.1094E+01  0.7884E+01E
 Epicentro: LOS SANTOS - SANTANDER                                             3
 ACTION:UPD 17-05-22 16:01 OP:jn   STATUS:               ID:20170120054148 L   I
 OLDACT:UP  17-01-20 16:39 OP:dani STATUS:               ID:20170120053743     3
 OLDACT:UP  17-01-20 16:36 OP:dani STATUS:               ID:20170120053743     3
 OLDACT:UP  17-01-20 16:36 OP:dani STATUS:               ID:20170120053743     3
 OLDACT:REG 17-01-20 12:34 OP:dani STATUS:               ID:20170120053743     3
 2017-01-20-0538-00M.COL___313                                                 6
 STAT SP IPHASW D HRMM SECON CODA AMPLIT PERI AZIMU VELO AIN AR TRES W  DIS CAZ7
 BAR2 EZ EP        542  8.09                             171   -0.0610 21.6 193 
 BAR2 EZ ES        542 23.36                             171   -0.2110 21.6 193 
 BAR2 EZ I         542 25.89        29.3 0.30            167           21.6 193 
 BRR  HZ EP        542  9.91                             152    0.1210 73.0 300 
 BRR  HN ES        542 27.01                             152    0.5310 73.0 300 
 BRR  HZ I         542 30.93        17.2 0.28            147           73.0 300 
 PAM  EZ EP        542 10.90                             151    0.0910 78.3  38 
 PAM  EE ES        542 28.09                             151   -0.2110 78.3  38 
 PAM  EZ I         542 30.51        12.1 0.26            154           78.3  38 
 RUS  HZ EP     D  542 12.01                             145   -0.1210 98.6 177 
 RUS  HN ES        542 30.99                             145    0.3310 98.6 177 
 RUS  HZ I         542 32.33         8.7 0.50            145           98.6 177 
 PTB  HZ EP        542 14.72                             132   -0.80 9  148 260 
 PTB  HN ES        542 35.88                             132   -0.80 9  148 260 
 PTB  HZ I         542 42.47        12.5 0.32            128            148 260 
 TAM  HZ EP        542 16.49                             131    0.44 9  154 104 
 ZAR  HZ EP        542 22.68                             123    1.59 8  206 293 
 ZAR  HE ES        542 46.12                             123   -0.48 8  206 293 
 ZAR  HZ I         542 52.02        10.6 0.29            120            206 293 
 CHI  HZ EP        542 25.44                             118   -0.55 8  247 195 
 CHI  HE ES        542 55.59                             118    0.28 8  247 195 
 CHI  HZ I         542 59.05         7.1 0.60            117            247 195 
 ROSC BZ EP   9    542 27.96                             117    1.51 0  252 211 
 ROSC BN ES        542 58.78                             117    1.13 8  252 211 
 ROSC BZ I         543  2.94        18.3 0.43            116            252 211 
 URE  HZ EP   3    542 28.16                             114   -1.54 2  285 292 
 URE  HN ES   4    542 58.55                             114   -3.38 0  285 292 
 URE  HZ I         543 12.09         7.3 0.05            112            285 292 
 PTGC HZ EP        542 31.20                             112   -0.86 7  307 159 
 PTGC HN ES   3    543  5.10                             112   -1.03 2  307 159 
 PTGC HZ I         543  7.47         6.1 0.40            112            307 159 
 CBOC HZ EP   9    542 36.39                             110    1.00 0  334 252 
 CBOC HE ES        543 13.65                             110    0.59 7  334 252 
 CBOC HZ I         543 24.28         1.4 0.46            109            334 252 
 ORTC HZ EP        542 42.90                             107    0.67 6  394 216 
 ORTC HN ES        543 24.93                             107    0.69 6  394 216 
 ORTC HZ I         543 29.47         3.9 0.16            106            394 216 
 SJC  HZ EP   3    542 42.21                             106   -2.03 1  411 327 
 SJC  HN ES   4    543 24.99                             106   -2.82 0  411 327 
 SJC  HZ I         543 37.83         2.6 0.65            105            411 327 
                                                                                
