 2013  120 0658 49.9 L   6.694 -73.117145.8  RSN  4 0.3 1.4LRSN                1
 GAP=180        0.71       9.7     5.9  7.7 -0.2868E+02  0.2824E+01  0.9331E+01E
 Epicentro: JORDAN - SANTANDER                                                 3
 ACTION:UPD 13-02-15 09:15 OP:ep   STATUS:               ID:20130120065849 L   I
 2013-01-20-0657-19M.COL___180                                                 6
 STAT SP IPHASW D HRMM SECON CODA AMPLIT PERI AZIMU VELO AIN AR TRES W  DIS CAZ7
 BAR2 SZ EP   1    659  9.72                             174    0.34 7 13.3 213 
 BAR2 SZ ES   1    659 24.60                             174    0.03 7 13.3 213 
 BRR  HZ EP   1    659 11.78                             150    0.20 7 80.1 305 
 BRR  HN ES   1    659 29.00                             150    0.52 7 80.1 305 
 BRR  HZ I         659 30.68         6.6 0.60            146           80.1 305 
 PAM  SZ EP   1    659 12.61                             148    0.02 7 85.0  33 
 PAM  SE ES   1    659 29.79                             148   -0.50 7 85.0  33 
 PAM  SZ I         659 31.95         3.8 0.56            151           85.0  33 
 PTB  HZ EP   1    659 16.80                             132   -0.19 7  149 264 
 PTB  HN ES   1    659 37.60                             132   -0.52 7  149 264 
 PTB  HZ I         659 44.94         3.0 0.50            130            149 264 
                                                                                
