 2014  920 0407 10.7 L   6.802 -73.133143.1  RSN 21 0.4 2.4LRSN                1
 GAP= 72        0.99       2.5     2.9  4.8 -0.3910E+00  0.3204E+01  0.2089E+01E
 Epicentro: LOS SANTOS - SANTANDER                                             3
 ACTION:UPD 14-10-03 23:06 OP:nd   STATUS:               ID:20140920040710 L   I
 OLDACT:DUP 14-09-20 14:49 OP:spq  STATUS:               ID:20140920035810d    3
 2014-09-20-0358-09M.COL___293                                                 6
 STAT SP IPHASW D HRMM SECON CODA AMPLIT PERI AZIMU VELO AIN AR TRES W  DIS CAZ7
 BAR2 SZ EP     C  4 7 30.04                             170    0.0210 23.8 193 
 BAR2 SZ ES   1    4 7 44.98                             170   -0.11 7 23.8 193 
 BAR2 SZ I         4 7 46.05        49.9 0.18            168           23.8 193 
 BRR  HZ EP        4 7 31.91                             152    0.2810 72.4 298 
 BRR  HE ES        4 7 48.79                             152    0.8410 72.4 298 
 BRR  HZ I         4 7 53.20        59.0 0.12            151           72.4 298 
 PAM  SZ EP     D  4 7 32.89                             151    0.3210 76.3  39 
 PAM  SN ES        4 7 49.65                             151    0.0210 76.3  39 
 PAM  SZ I         4 7 52.18        84.9 0.58            155           76.3  39 
 RUS  HZ EP        4 7 33.99                             143   -0.2110  101 177 
 RUS  HN ES        4 7 52.25                             143   -0.2810  101 177 
 RUS  HZ I         4 7 53.88        30.8 0.30            144            101 177 
 PTB  HZ EP   1    4 7 37.09                             131   -0.50 7  149 259 
 PTB  HE ES        4 7 58.27                             131   -0.29 9  149 259 
 PTB  HZ I         4 8  0.93        31.2 0.26            131            149 259 
 TAM  HZ IP     D  4 7 38.41                             130    0.36 9  154 105 
 TAM  HN ES        4 7 59.68                             130    0.30 9  154 105 
 TAM  HZ I         4 8  1.09        21.8 0.30            133            154 105 
 OCA  HZ EP        4 7 38.21                             129   -0.59 9  160 353 
 OCA  HE ES        4 8  0.18                             129   -0.54 9  160 353 
 OCA  HZ I         4 8  3.63        49.1 0.50            131            160 353 
 SPBC HZ EP        4 7 38.96                             128   -0.14 9  164 219 
 SPBC HN ES        4 8  0.47                             128   -0.78 9  164 219 
 SPBC HZ I         4 8  4.83        23.4 0.22            128            164 219 
 ZAR  HZ EP        4 7 43.27                             122    0.16 8  205 292 
 ZAR  HN ES        4 8  8.90                             122    0.52 8  205 292 
 ZAR  HZ I         4 8 14.07        48.6 0.40            122            205 292 
 SML  HZ EP        4 7 46.46                             117   -0.76 8  244 335 
 SML  HN ES   1    4 8 15.40                             117   -0.31 6  244 335 
 SML  HZ I         4 8 19.86        26.8 0.26            118            244 335 
 CHI  HZ EP        4 7 48.45                             116    0.13 8  249 195 
 CHI  HN ES   1    4 8 17.03                             116   -0.63 6  249 195 
 CHI  HZ I         4 8 21.71         8.8 0.26            117            249 195 
 ROSC BZ EP   4    4 7 50.04                             116    1.26 0  254 211 
 ROSC BE ES   4    4 8 20.82                             116    2.34 0  254 211 
 ROSC BZ I         4 8 27.46        13.9 0.75            117            254 211 
 GUY2CHZ EP        4 7 55.14                             112    0.80 7  302 235 
 GUY2CHE ES   4    4 8 31.57                             112    3.20 0  302 235 
 GUY2CHZ I         4 8 35.04         7.0 0.28                           302 235 
 CBOC HZ EP   1    4 7 58.23                             109    0.56 5  335 252 
 CBOC HZ E         4 7 58.23                                            335 252 
 CBOC HN ES        4 8 34.57                             109    0.26 7  335 252 
 CBOC HZ I         4 8 37.79         3.7 0.39            110            335 252 
 TOL  SZ EP        4 7 59.43                             109    0.44 7  345 225 
 TOL  SN ES   4    4 8 38.34                             109    1.69 0  345 225 
 TOL  SZ I         4 8 42.23        19.1 0.42            110            345 225 
 MON  HZ EP   4 D  4 7 57.91                             108   -1.81 0  355 308 
 MON  HN ES   4    4 8 36.51                             108   -1.44 0  355 308 
 MON  HZ I         4 8 37.22        10.5 0.18            109            355 308 
 ANIL HE ES   4    4 8 41.55                             108    2.13 0  359 225 
 ANIL HZ I         4 8 43.99         2.5 0.42            109            359 225 
 PRA  HZ EP        4 8  3.97                             106   -0.27 6  393 210 
 PRA  HN ES        4 8 46.00                             106    0.00 6  393 210 
 PRA  HZ I         4 8 53.06        12.3 0.26            107            393 210 
 ORTC HZ EP        4 8  4.75                             106    0.10 6  396 216 
 ORTC HN ES        4 8 47.26                             106    0.53 6  396 216 
 ORTC HZ I         4 8 53.22         7.9 0.35            107            396 216 
 SJC  HZ EP   4    4 8  4.38                             105   -1.87 0  410 327 
 SJC  HN ES   4    4 8 46.22                             105   -3.35 0  410 327 
 SJC  HZ I         4 8 50.54         4.6 0.53            106            410 327 
 MACC HZ EP   4    4 8 17.19                             101   -2.21 0  521 189 
 MACC HE ES   4    4 9  9.70                             101   -3.29 0  521 189 
 MACC HZ I         4 9 13.79         2.3 0.32            102            521 189 
                                                                                
