 2015  620 0805 23.0 L   6.789 -73.180141.2  RSN 13 0.4 1.9LRSN                1
 GAP=133        0.93       2.5     3.4  4.8 -0.1308E+01  0.7837E+01 -0.1077E+00E
 Epicentro: LOS SANTOS - SANTANDER                                             3
 ACTION:UPD 15-09-10 22:13 OP:cam  STATUS:               ID:20150620080523 L   I
 OLDACT:UP  15-06-20 17:08 OP:drio STATUS:               ID:20150620075748     3
 OLDACT:REG 15-06-20 12:55 OP:drio STATUS:               ID:20150620075748     3
 2015-06-20-0757-48M.COL___319                                                 6
 STAT SP IPHASW D HRMM SECON CODA AMPLIT PERI AZIMU VELO AIN AR TRES W  DIS CAZ7
 BAR2 EZ EP        8 5 42.14                             171    0.0710 21.8 181 
 BAR2 EZ ES        8 5 56.47                             171   -0.4610 21.8 181 
 BAR2 EZ I         8 6  0.19        15.6 0.52            172           21.8 181 
 BRR  HZ EP        8 5 43.93                             153    0.4110 68.5 301 
 BRR  HN ES        8 6  0.40                             153    0.8810 68.5 301 
 BRR  HZ I         8 6  3.35        15.3 0.34            149           68.5 301 
 PAM  SZ EP        8 5 45.38                             149    0.4210 80.7  41 
 PAM  SN ES        8 6  1.97                             149   -0.1010 80.7  41 
 PAM  SZ I         8 6  4.88        15.0 0.52            151           80.7  41 
 RUS  HZ EP        8 5 46.02                             143   -0.2410 99.7 174 
 RUS  HE ES        8 6  4.09                             143   -0.3110 99.7 174 
 RUS  HZ I         8 6  5.62        14.7 0.42            148           99.7 174 
 OCA  HZ EP        8 5 51.17                             128    0.12 9  161 355 
 OCA  HN ES        8 6 12.69                             128   -0.23 9  161 355 
 OCA  HZ I         8 6 18.06        14.5 0.28            129            161 355 
 ZAR  HZ EP        8 5 54.10                             122   -0.76 9  201 293 
 ZAR  HN ES        8 6 20.02                             122    0.33 9  201 293 
 ZAR  HZ I         8 6 26.96        11.5 0.40            122            201 293 
 NOR  HZ EP        8 5 58.38                             118    0.30 8  231 234 
 NOR  HN ES        8 6 25.40                             118   -0.03 8  231 234 
 NOR  HZ I         8 6 26.58         7.1 0.54            120            231 234 
 SML  HZ EP        8 5 59.39                             116    0.05 8  243 336 
 SML  HN ES        8 6 27.32                             116   -0.35 8  243 336 
 SML  HZ I         8 6 35.31         9.6 0.26            117            243 336 
 HEL  HZ EP        8 6  2.56                             114   -0.00 8  268 256 
 HEL  HE ES        8 6 33.18                             114   -0.23 8  268 256 
 HEL  HZ I         8 6 38.83         3.6 0.22            115            268 256 
 GUY2CHZ EP        8 6  6.04                             112    0.05 7  297 235 
 GUY2CHE ES        8 6 39.23                             112   -0.28 7  297 235 
 GUY2CHZ I         8 6 49.44         3.0 0.48                           297 235 
 CBOC HZ EP        8 6  9.85                             109    0.56 7  330 252 
 CBOC HN ES        8 6 45.42                             109    0.03 7  330 252 
 CBOC HZ I         8 6 50.40         2.0 0.40            111            330 252 
 MON  HZ EP        8 6 11.21                             108   -0.38 6  351 309 
 MON  HN ES        8 6 48.66                             108   -0.82 6  351 309 
 MON  HZ I         8 7  3.76         2.0 0.60            109            351 309 
 PRA  HZ EP        8 6 16.87                             106    0.82 6  389 209 
 PRA  HN ES        8 6 57.30                             106   -0.11 6  389 209 
 PRA  HZ I         8 7  2.83         3.1 0.66            108            389 209 
                                                                                
