 2013  220 0926 12.5 L   6.759 -73.154150.3  RSN  7 0.4 1.8LRSN                1
 GAP=199        0.91       5.6     6.1  6.3  0.1939E+02  0.3984E+01  0.1626E+01E
 Epicentro: LOS SANTOS - SANTANDER                                             3
 ACTION:UPD 13-03-12 09:34 OP:ep   STATUS:               ID:20130220092612 L   I
 2013-02-20-0920-00M.COL___241                                                 6
 STAT SP IPHASW D HRMM SECON CODA AMPLIT PERI AZIMU VELO AIN AR TRES W  DIS CAZ7
 BAR2 SZ EP        926 32.33                             173   -0.2410 18.7 190 
 BAR2 SZ ES        926 47.79                             173   -0.4510 18.7 190 
 BAR2 SZ I         926 48.93        10.6 0.38            174           18.7 190 
 BRR  HZ EP        926 34.22                             153    0.0210 72.7 302 
 BRR  HN ES        926 51.74                             153    0.6010 72.7 302 
 BRR  HN I         926 55.79        12.0 0.20            150           72.7 302 
 RUS  HZ EP        926 36.58                             146    0.2110 96.1 175 
 RUS  HN ES        926 55.17                             146    0.1710 96.1 175 
 RUS  HN I         926 55.46         6.1 0.28            150           96.1 175 
 PTB  HZ EP        926 39.18                             133   -0.48 9  146 261 
 PTB  HN ES        927  0.43                             133   -0.43 9  146 261 
 PTB  HN I         927  5.78         6.5 0.46            133            146 261 
 ZAR  HN ES        927 11.25                             123    0.33 9  205 293 
 CHI  HZ EP        926 50.45                             118    0.52 8  244 195 
 SML  HZ EP   2    926 49.36                             118   -0.40 4  247 336 
 SML  HE ES   2    927 18.71                             118   -0.13 4  247 336 
 SML  HE I         927 24.42         9.1 0.10            118            247 336 
                                                                                
