 2017  520 0652  7.8 L   6.788 -73.139150.4  RSN 11 0.5 1.7LRSN                1
 GAP=113        0.81       3.2     3.1  5.2 -0.1675E+00  0.7173E+00  0.5621E+01E
 Epicentro: LOS SANTOS - SANTANDER                                             3
 ACTION:UPD 17-06-16 13:37 OP:jn   STATUS:               ID:20170520065207 L   I
 OLDACT:UP  17-05-20 16:16 OP:cog  STATUS:               ID:20170520064529     3
 OLDACT:REG 17-05-20 12:28 OP:dnl  STATUS:               ID:20170520064529     3
 2017-05-20-0648-00M.COL___359                                                 6
 STAT SP IPHASW D HRMM SECON CODA AMPLIT PERI AZIMU VELO AIN AR TRES W  DIS CAZ7
 BRR  HZ EP        652 29.63                             153    0.1210 72.5 299 
 BRR  HN ES        652 46.76                             153    0.3010 72.5 299 
 BRR  HZ I         652 48.94         7.4 0.16            151           72.5 299 
 PAM  EZ EP        652 30.72                             151    0.1910 77.9  38 
 PAM  EN ES        652 47.93                             151   -0.3410 77.9  38 
 PAM  EZ I         652 50.85         8.0 0.30            155           77.9  38 
 RUS  HZ EP        652 31.99                             145    0.0910 99.2 176 
 RUS  HN ES        652 50.56                             145   -0.1610 99.2 176 
 RUS  HZ I         652 51.43         4.7 0.44            146           99.2 176 
 PTB  HZ EP   9    652 34.56                             133   -0.63 0  148 259 
 PTB  HN ES        652 55.57                             133   -0.36 9  148 259 
 PTB  HZ I         653  2.34         5.7 0.32            132            148 259 
 SPBC HZ EP        652 36.70                             130    0.10 9  163 219 
 SPBC HN ES   3    653  0.43                             130    1.36 2  163 219 
 SPBC HZ I         653  0.92        10.8 0.48            130            163 219 
 YPLC HZ EP        652 38.19                             128    0.41 9  175 151 
 YPLC HE EP   3    652 38.80                             128    1.02 2  175 151 
 YPLC HN ES        653  0.87                             128   -0.30 9  175 151 
 YPLC HZ I         653  3.24         6.3 0.26            130            175 151 
 ZAR  HN ES   3    653  4.84                             123   -1.47 2  205 292 
 NOR  HZ EP        652 44.04                             119    0.26 8  235 235 
 NOR  HN ES        653 11.96                             119    0.11 8  235 235 
 NOR  HZ I         653 21.42         3.7 0.16            120            235 235 
 CHI  HZ EP   3    652 46.78                             118    1.15 2  248 195 
 CHI  HN ES        653 15.34                             118    0.18 8  248 195 
 HEL  HN ES        653 19.08                             115   -0.80 8  273 256 
 PTGC HZ EP        652 50.94                             112   -0.75 7  307 159 
 PTGC HN ES   4    653 23.22                             112   -2.71 0  307 159 
                                                                                
