 2011  520 0314 52.7 L   6.774 -73.132141.9  RSN 22 0.4 4.9LRSN                1
 GAP=139        0.91       3.3     4.6  5.1 -0.6720E+01  0.4726E+01  0.4974E+01E
 Epicentro: LOS SANTOS - SANTANDER                                             3
 Evento Sentido                                                                2
 Reportado como sentido:                                                       3
 BUCARAMNAGA, GIRON, SOCORRO, BARRANCABERMEJA, (SANTANDER)                     3
 ACTION:UP  11-06-29 08:54 OP:tino STATUS:               ID:20110520031452 L   I
 2011-05-20-0313-18S.COL___140                                                 6
 STAT SP IPHASW D HRMM SECON CODA AMPLIT PERI AZIMU VELO SNR AR TRES W  DIS CAZ7
 BAR2 SZ IP        315 11.96                             171     0.210   21 195 
 BAR2 SZ ES   2    315 26.91                             171     0.2 5   21 195 
 BAR2 SZ I         315 28.85     17068.2 0.43                            21 195 
 BTL  SZ IP        315 12.13                             171     0.310   22 317 
 GIR2 SZ IP        315 12.04                             166     0.010   34 349 
 GIR2 SZ ES   1    315 26.18                             166    -0.9 7   34 349 
 BRR  HZ IP     C  315 13.88                             151     0.310   74 300 
 BRR  HZ I         315 14.28     14422.9 0.33                            74 300 
 BRR  HE ES        315 30.23                             151     0.410   74 300 
 PAM  SZ IP        315 14.76                             150     0.210   79  37 
 PAM  SN ES   2    315 31.75                             150     0.1 5   79  37 
 RUS  HZ EP   1    315 15.78                             144    -0.1 7   98 177 
 RUS  HN ES   1    315 33.78                             144    -0.1 7   98 177 
 RUS  HZ I         315 36.48     11844.2 0.45                            98 177 
 BRI  SZ EP   1    315 16.44                             140     0.1 7  111  20 
 BRI  SZ ES   1    315 34.45                             140    -0.4 7  111  20 
 BRI  SZ I         315 38.37      7335.3 0.38                           111  20 
 GUE  SZ EP   1    315 17.04                             138    -0.2 7  119  11 
 GRA  SZ EP   1    315 17.73                             136    -0.1 7  128  16 
 GRA  SZ ES   1    315 37.23                             136    -0.1 7  128  16 
 GRA  SZ I         315 40.51     13465.7 0.36                           128  16 
 OCA  SZ EP   1    315 20.47                             128    -0.5 7  163 353 
 OCA  SZ ES   1    315 43.18                             128     0.1 7  163 353 
 OCA  SZ I         315 49.66      8428.6 0.43                           163 353 
 NOR  SZ EP   1    315 27.60                             118    -0.6 6  234 235 
 NOR  SE ES   1    315 55.28                             118    -0.5 6  234 235 
 ROSC BZ IP     C  315 31.47                             116     1.0 8  251 212 
 ROSC BZ I         316  7.92      8304.5 0.38                           251 212 
 HEL  HZ EP   1    315 32.52                             114    -0.3 6  273 256 
 HEL  HN ES   2    316  3.79                             114    -0.3 4  273 256 
 HEL  HZ I         316 11.13      4425.7 0.35                           273 256 
 VIL  SZ EP   1    315 34.92                             111    -0.7 5  301 192 
 VIL  SN ES   1    316  8.85                             111    -0.3 5  301 192 
 VIL  SZ I         316 15.84      3081.7 0.57                           301 192 
 GUY  SZ EP   1    315 36.26                             111    -0.1 5  303 236 
 GUY  SN ES   1    316  9.71                             111    -0.7 5  303 236 
 GUY  SZ I         316 18.72      9672.7 0.36                           303 236 
 RREF HZ EP   1    315 38.52                             110    -0.1 5  321 230 
 RREF HN ES   1    316 15.10                             110     0.7 5  321 230 
 RREF HZ I         316 24.51      7158.4 0.37                           321 230 
 DBB  SZ EP        315 39.81                             109    -0.4 7  341 275 
 TOL  SZ EP        315 40.90                             109     0.2 7  343 225 
 ANIL HZ EP        315 42.71                             108     0.5 6  356 225 
 PRA  HZ EP   1    315 45.18                             106    -0.7 4  390 210 
 MAL  SZ EP        316  6.10                             100     0.5 3  557 237 
 MAL  SZ I         316  9.49       368.6 0.52                           557 237 
 PCON HZ EP        316 12.20                              99    -0.6 3  611 217 
                                                                                
