 2016  220 0939 47.0 L   7.126 -73.339118.0  RSN  7 0.5 1.4LRSN                1
 GAP= 92        1.21       4.0     4.3  8.1 -0.4516E-01  0.6925E+01 -0.1212E+01E
 Epicentro: LEBRIJA - SANTANDER                                                3
 ACTION:UPD 16-03-04 21:27 OP:rebc STATUS:               ID:20160220093947 L   I
 OLDACT:UP  16-02-20 19:28 OP:ak   STATUS:               ID:20160220093749d    3
 OLDACT:DUP 16-02-20 19:24 OP:ak   STATUS:               ID:20160220093749d    3
 OLDACT:UP  16-02-20 19:21 OP:ak   STATUS:               ID:20160220093748     3
 OLDACT:REG 16-02-20 13:23 OP:drio STATUS:               ID:20160220093748     3
 2016-02-20-0937-48M.COL___318                                                 6
 STAT SP IPHASW D HRMM SECON CODA AMPLIT PERI AZIMU VELO AIN AR TRES W  DIS CAZ7
 BRR  HZ EP        940  3.88                             159    0.2910 41.3 267 
 BRR  HN ES        940 16.81                             159    0.3110 41.3 267 
 BAR2 EZ EP     C  940  5.22                             151    0.2410 61.5 164 
 BAR2 EZ ES        940 19.02                             151    0.0310 61.5 164 
 PAM  EZ EP        940  6.49                             146    0.3210 74.5  71 
 PAM  EN ES        940 21.36                             146    0.2610 74.5  71 
 PAM  EZ I         940 23.51         5.6 0.38            151           74.5  71 
 OCA  HZ EP        940  9.28                             131   -0.4110  123   1 
 OCA  HN ES        940 26.62                             131   -0.7410  123   1 
 OCA  HZ I         940 29.22        18.0 0.16            133            123   1 
 RUS  HZ EP        940 11.89                             127    0.20 9  139 168 
 RUS  HN ES        940 30.54                             127   -0.38 9  139 168 
 RUS  HZ I         940 31.40         2.1 0.30            130            139 168 
 PTB  HZ EP        940 10.52                             127   -0.55 9  140 242 
 PTB  HE ES        940 29.04                             127   -0.78 9  140 242 
 PTB  HZ I         940 36.17         2.7 0.14            128            140 242 
 ZAR  HZ EP   1    940 15.34                             120    0.91 7  173 284 
 ZAR  HN ES        940 36.51                             120    0.70 9  173 284 
 ZAR  HZ I         940 39.78         2.2 0.29            121            173 284 
                                                                                
