 2010 1020 0726 28.6 L   6.819 -73.169132.0  RSN  4 0.2 1.5LRSN                1
 GAP=156        0.50       3.4     6.7  7.8  0.6613E+01 -0.1808E+02 -0.3667E+01E
 Epicentro: LOS SANTOS - SANTANDER                                             3
 ACTION:UP  11-02-18 11:10 OP:tino STATUS:               ID:20101020072628 L   I
 2010-10-20-0724-35S.COL___126                                                 6
 STAT SP IPHASW D HRMM SECON CODA AMPLIT PERI AZIMU VELO SNR AR TRES W  DIS CAZ7
 BTL  SZ EP   1    726 46.57                             173     0.2 7   16 315 
 BRR  HZ EP        726 48.22                             151     0.210   68 298 
 BRR  HN ES   1    727  3.01                             151    -0.2 7   68 298 
 BRR  HZ I         727  6.07        10.5 0.08                            68 298 
 RUS  HZ EP   1    726 50.96                             140    -0.2 7  103 175 
 RUS  HN ES   1    727  8.83                             140     0.0 7  103 175 
 RUS  HZ I         727 11.00         4.8 0.20                           103 175 
 GRA  SZ EP   2    726 52.17                             134    -0.3 5  125  19 
 GRA  SZ ES   2    727 11.31                             134     0.1 5  125  19 
 GRA  SZ I         727 12.87         5.2 0.26                           125  19 
                                                                                
