 2012  420 0426 41.6 L   6.772 -73.161132.0  RSN  7 0.3 1.7LRSN                1
 GAP=136        0.65       3.2     3.1  6.0  0.3459E+00  0.7698E+01 -0.1159E+01E
 Epicentro: LOS SANTOS - SANTANDER                                             3
 ACTION:UPD 12-07-05 11:54 OP:tino STATUS:               ID:20120420042641 L   I
 2012-04-20-0420-00M.COL___187                                                 6
 STAT SP IPHASW D HRMM SECON CODA AMPLIT PERI AZIMU VELO AIN AR TRES W  DIS CAZ7
 BAR2 SZ EP   1    426 59.42                             171    -0.1 7   20 187 
 BAR2 SZ ES   1    427 13.14                             171    -0.3 7   20 187 
 BAR2 SZ I         427 15.28        11.7 0.28                            20 187 
 BRR  HZ EP   1    427  1.32                             150     0.1 7   71 301 
 BRR  HZ I         427  1.78        15.2 0.11                            71 301 
 BRR  HN ES   1    427 16.92                             150     0.3 7   71 301 
 PAM  SZ EP   1    427  2.45                             147    -0.1 7   81  39 
 PAM  SN ES        427 19.01                             147     0.110   81  39 
 RUS  HZ EP   1    427  3.52                             142    -0.3 7   98 175 
 RUS  HN ES        427 21.20                             142     0.110   98 175 
 PTB  HN ES   1    427 27.45                             129     0.2 7  146 260 
 ZAR  HZ EP   1    427 13.74                             119     0.6 6  204 293 
 ZAR  HN ES        427 37.30                             119    -0.4 9  204 293 
 ZAR  HZ I         427 44.41         5.9 0.31                           204 293 
 HEL  HN ES   1    427 51.48                             112     0.0 6  270 256 
 HEL  HZ I         427 57.89         2.7 0.51                           270 256 
                                                                                
