 2011 1220 0217 25.6 L   6.756 -73.391122.0  RSN  5 0.4 1.6LRSN                1
 GAP= 98        0.75       8.4     6.6  7.0  0.2270E+02  0.1049E+02  0.1313E+02E
 Epicentro: EL CARMEN DE CHUCURI - SANTANDER                                   3
 ACTION:UPD 12-07-13 16:17 OP:ep   STATUS:               ID:20111220021725 L   I
 2011-12-20-0210-00M.COL___192                                                 6
 STAT SP IPHASW D HRMM SECON CODA AMPLIT PERI AZIMU VELO AIN AR TRES W  DIS CAZ7
 BAR2 SZ EP        217 42.86                             166    0.2810 29.3 128 
 BAR2 SZ I         217 43.06        13.1 0.11                          29.3 128 
 BAR2 SZ ES        217 55.57                             166   -0.2210 29.3 128 
 GIR2 SZ EP   1    217 42.34                             160   -0.55 7 41.9  31 
 BRR  HZ EP        217 43.06                             155   -0.1210 52.6 318 
 BRR  HN ES        217 57.20                             155    0.3310 52.6 318 
 BRR  HZ I         217 58.18         7.3 0.14                          52.6 318 
 RUS  HZ EP   2    217 47.93                             138    0.73 5  101 160 
 PTB  HZ EP   1    217 48.10                             132   -0.07 7  120 259 
 PTB  HN ES   2    218  5.32                             132   -0.42 5  120 259 
                                                                                
