 2012  120 0550 58.8 L   6.744 -73.185153.4  RSN  6 0.2 1.6LRSN                1
 GAP=178        0.61       3.8     4.7  7.0  0.5687E+01  0.5637E+00 -0.1662E+01E
 Epicentro: VILLANUEVA - SANTANDER                                             3
 ACTION:UP  12-02-03 08:19 OP:REBC STATUS:               ID:20120120055058 L   I
 2012-01-20-0550-00M.COL___187                                                 6
 STAT SP IPHASW D HRMM SECON CODA AMPLIT PERI AZIMU VELO SNR AR TRES W  DIS CAZ7
 BAR2 SZ EP        551 19.01                             173    -0.210   17 179 
 BAR2 SZ ES   2    551 35.28                             173     0.1 5   17 179 
 BRR  HZ EP        551 21.01                             154     0.310   71 305 
 BRR  HZ I         551 21.19        12.1 0.13                            71 305 
 BRR  HE ES   1    551 38.27                             154     0.4 7   71 305 
 RUS  HZ EP   1    551 23.14                             147     0.2 7   95 173 
 RUS  HN ES   1    551 41.46                             147    -0.3 7   95 173 
 RUS  HZ I         551 43.05         3.1 0.51                            95 173 
 PTB  HZ EP   1    551 26.05                             135     0.1 7  142 261 
 PTB  HN ES   1    551 46.91                             135    -0.2 7  142 261 
 OCA  SZ ES   1    551 50.90                             130    -0.3 7  166 355 
 ZAR  HE ES   1    551 56.97                             124    -0.2 6  202 294 
 ZAR  HZ I         552  3.03         4.1 0.41                           202 294 
                                                                                
