 2016  420 0641 29.5 L   6.873 -73.186133.7  RSN  9 0.3 1.7LRSN                1
 GAP=128        0.77       2.4     3.1  4.9 -0.2159E+01  0.6744E+01 -0.8821E+00E
 Epicentro: BETULIA - SANTANDER                                                3
 ACTION:UPD 16-05-05 14:22 OP:rebc STATUS:               ID:20160420064129 L   I
 OLDACT:ARG 16-04-20 12:40 OP:cara STATUS:               ID:20160420063748     3
 2016-04-20-0637-48M.COL___306                                                 6
 STAT SP IPHASW D HRMM SECON CODA AMPLIT PERI AZIMU VELO AIN AR TRES W  DIS CAZ7
 BAR2 EZ EP        641 47.82                             166   -0.1010 31.1 179 
 BAR2 EZ ES        642  1.91                             166   -0.3410 31.1 179 
 BAR2 EZ I         642  3.61         6.3 0.20            169           31.1 179 
 PAM  EZ EP        641 50.16                             149   -0.1410 74.5  46 
 PAM  EE ES        642  7.06                             149    0.5610 74.5  46 
 PAM  EZ I         642  9.30        14.3 0.46            154           74.5  46 
 RUS  HZ EP        641 52.53                             139   -0.2610  109 174 
 RUS  HN ES        642 10.96                             139    0.0410  109 174 
 RUS  HZ I         642 12.43         3.2 0.44            144            109 174 
 PTB  HZ EP        641 54.75                             130   -0.56 9  145 255 
 PTB  HN ES        642 15.53                             130    0.13 9  145 255 
 PTB  HZ I         642 18.02         5.7 0.34            131            145 255 
 OCA  HZ EP        641 56.43                             128    0.31 9  152 354 
 OCA  HN ES        642 16.69                             128   -0.16 9  152 354 
 OCA  HZ I         642 22.31        10.4 0.50            131            152 354 
 SPBC HZ EP        641 57.32                             125   -0.18 9  167 216 
 SPBC HN ES        642 19.39                             125    0.08 9  167 216 
 SPBC HZ I         642 26.04         6.3 0.42            128            167 216 
 ZAR  HZ EP        642  0.18                             121   -0.29 9  197 290 
 ZAR  HE ES        642 24.54                             121   -0.06 9  197 290 
 ZAR  HZ I         642 31.16         6.3 0.32            122            197 290 
 NOR  HZ EP        642  5.09                             116    0.36 8  236 232 
 NOR  HE ES        642 32.69                             116    0.51 8  236 232 
 NOR  HZ I         642 35.09         4.0 0.20            118            236 232 
 GUY2CHZ EP        642 13.24                             110    0.50 7  302 233 
 GUY2CHE ES        642 46.46                             110    0.01 7  302 233 
 GUY2CHZ I         642 55.77         2.3 0.32                           302 233 
                                                                                
