 2013  120 0752 18.9 L   6.160 -73.470127.8  RSN  5 0.4 0.9LRSN                1
 GAP=101        0.85       5.8     8.5 12.9  0.2806E+02  0.7539E+02  0.3749E+02E
 Epicentro: AGUADA - SANTANDER                                                 3
 ACTION:UPD 13-02-15 09:15 OP:ep   STATUS:               ID:20130120075218 L   I
 2013-01-20-0750-00M.COL___241                                                 6
 STAT SP IPHASW D HRMM SECON CODA AMPLIT PERI AZIMU VELO AIN AR TRES W  DIS CAZ7
 RUS  HN ES   1    752 51.91                             157   -0.58 7 52.0 125 
 RUS  HZ I         752 55.74         1.4 0.48            159           52.0 125 
 BAR2 SZ ES   1    752 52.84                             154    0.52 7 57.4  34 
 PTB  HZ EP   1    752 40.97                             135   -0.65 7  117 291 
 PTB  HN ES   1    752 59.55                             135    0.21 7  117 291 
 PTB  HZ I         753  1.06         1.8 0.12            138            117 291 
 CHI  HZ EP   1    752 47.85                             123    0.49 7  172 190 
 CHI  HN ES   1    753  9.70                             123    0.13 7  172 190 
 ZAR  HN ES   1    753 16.33                             117   -0.02 6  213 314 
                                                                                
