 2012 1020 0851 27.6 L   6.261 -72.950  4.3  RSN  5 0.5 1.0LRSN                1
 GAP=187        0.84       2.3     6.8  7.4 -0.8505E+00  0.1951E+02 -0.1898E+01E
 Epicentro: COROMORO - SANTANDER                                               3
 ACTION:UPD 12-11-22 17:04 OP:ep   STATUS:               ID:20121020085127 L   I
 2012-10-20-0850-00M.COL___233                                                 6
 STAT SP IPHASW D HRMM SECON CODA AMPLIT PERI AZIMU VELO AIN AR TRES W  DIS CAZ7
 RUS  HZ EP   1    851 35.28                              47    0.01 7 43.3 200 
 RUS  HZ I         851 35.46        12.4 0.06                          43.3 200 
 RUS  HE ES   1    851 40.95                              47   -0.30 7 43.3 200 
 RUS  HE I         851 42.11        19.6 0.34                          43.3 200 
 BAR2 SZ EP   1    851 35.06                              47   -0.16 7 44.7 325 
 BAR2 SZ ES   1    851 40.64                              47   -0.51 7 44.7 325 
 GIR2 SZ EP   1    851 42.67                              47    0.04 7 94.3 343 
 GIR2 SZ ES   1    851 54.12                              47   -0.24 7 94.3 343 
 PAM  SZ EP   1    851 47.92                              47    0.67 7  122  13 
 PAM  SZ I         851 48.39         1.7 0.13                           122  13 
 PAM  SE ES   2    852  1.79                              47   -0.78 5  122  13 
 BRR  HZ EP   1    851 47.95                              47    0.68 7  126 318 
 BRR  HN ES   2    852  3.16                              47    0.55 5  126 318 
                                                                                
