 2010  820 0553 55.3 L   6.782 -73.165138.0  RSN  5 0.2 1.8LRSN                1
 GAP=168        0.54       2.7    12.3  5.8 -0.4994E+01  0.6767E+01 -0.5884E+01E
 Epicentro: LOS SANTOS - SANTANDER                                             3
 ACTION:UP  10-09-07 10:56 OP:vdl  STATUS:               ID:20100820055354 L   I
 2010-08-20-0550-51S.COL___117                                                 6
 STAT SP IPHASW D HRMM SECON CODA AMPLIT PERI AZIMU VELO SNR AR TRES W  DIS CAZ7
 BAR2 SZ EP        554 13.97                             171     0.110   21 186 
 BAR2 SZ ES   1    554 28.52                             171     0.1 7   21 186 
 BAR2 SZ I         554 29.94        14.5 0.74                            21 186 
 GIR2 SZ EP   1    554 14.06                             166     0.0 7   33 354 
 RUS  HZ EP   1    554 18.55                             143     0.4 7   99 175 
 RUS  HN ES   1    554 35.63                             143    -0.3 7   99 175 
 GRA  SZ EP        554 19.94                             135    -0.110  128  18 
 GRA  SZ I         554 21.36         8.0 0.90                           128  18 
 GRA  SZ ES   1    554 39.47                             135     0.1 7  128  18 
 OCA  SZ EP        554 22.93                             127    -0.2 9  162 354 
 OCA  SZ ES   1    554 45.04                             127     0.1 7  162 354 
 OCA  SZ I         554 48.44         6.9 0.19                           162 354 
                                                                                
