 2012  220 0725  7.8 L   6.783 -73.158140.0  RSN  8 0.4 1.7LRSN                1
 GAP=136        0.80       5.2     5.3  6.4 -0.3539E+01  0.5572E+01  0.7690E+01E
 ACTION:UP  12-03-07 16:32 OP:epov STATUS:               ID:20120220072507 L   I
 2012-02-20-0720-00M.COL___191                                                 6
 STAT SP IPHASW D HRMM SECON CODA AMPLIT PERI AZIMU VELO AIN AR TRES W  DIS CAZ7
 BAR2 SZ EP   1    725 26.22                             171   -0.43 7 21.3 187 
 BAR2 SZ ES   1    725 41.28                             171   -0.11 7 21.3 187 
 BAR2 SZ I         725 42.92        14.3 0.31                          21.3 187 
 GIR2 SZ EP   1    725 26.71                             166   -0.08 7 32.9 353 
 GIR2 SZ ES   1    725 41.51                             166   -0.12 7 32.9 353 
 BRR  HZ EP   1    725 28.47                             152    0.20 7 70.9 300 
 BRR  HN ES   1    725 45.20                             152    0.94 7 70.9 300 
 BRR  HZ I         725 49.68        19.3 0.14                          70.9 300 
 PAM  SZ EP   1    725 29.54                             149    0.04 7 79.7  39 
 PAM  SZ I         725 29.71        11.1 0.18                          79.7  39 
 PAM  SN ES   1    725 46.37                             149   -0.09 7 79.7  39 
 RUS  HZ EP   1    725 30.64                             143   -0.17 7 98.8 175 
 RUS  HN ES   1    725 49.21                             143    0.41 7 98.8 175 
 RUS  HZ I         725 51.94         2.6 0.37                          98.8 175 
 PTB  HZ EP   1    725 33.53                             131   -0.57 7  146 259 
 PTB  HN ES   1    725 54.14                             131   -0.51 7  146 259 
 GUY  SZ EP   2    725 51.54                             111    0.42 4  301 235 
 GUY  SZ I         725 52.01         3.6 0.07                           301 235 
 PRA  HZ EP   1    726  1.57                             106    0.76 4  390 210 
                                                                                
