 2017  320 0444 22.2 L   6.766 -73.178139.4  RSN  4 0.2 0.9LRSN                1
 GAP=134        0.39       7.4     3.9  5.6 -0.2359E+02 -0.1091E+01  0.1216E+02E
 Epicentro: LOS SANTOS - SANTANDER                                             3
 ACTION:UPD 17-05-25 18:42 OP:jn   STATUS:               ID:20170320044422 L   I
 OLDACT:UP  17-03-20 16:14 OP:cog  STATUS:               ID:20170320043746d    3
 OLDACT:DUP 17-03-20 16:11 OP:cog  STATUS:               ID:20170320043746d    3
 2017-03-20-0438-00M.COL___382                                                 6
 STAT SP IPHASW D HRMM SECON CODA AMPLIT PERI AZIMU VELO AIN AR TRES W  DIS CAZ7
 PAM  EZ EP        444 44.12                             148    0.0510 82.6  40 
 PAM  EE ES        445  1.07                             148   -0.0510 82.6  40 
 PAM  EZ I         445  3.53         1.4 0.36            151           82.6  40 
 RUS  HN ES   3    445  3.40                             143    0.48 2 97.2 174 
 PTB  HZ EP        444 48.21                             131   -0.05 9  144 260 
 PTB  HN ES        445  8.55                             131   -0.04 9  144 260 
 PTB  HZ I         445 11.21         1.1 0.50            134            144 260 
 ZAR  HN ES   3    445 19.83                             121    0.96 2  202 293 
                                                                                
