 2017  120 0007 16.5 L   6.794 -73.146146.0  RSN 13 0.4 2.0LRSN                1
 GAP=119        0.90       3.3     3.7  5.3 -0.5107E+00  0.4183E+01  0.3466E+01E
 Epicentro: LOS SANTOS - SANTANDER                                             3
 ACTION:UPD 17-05-22 16:01 OP:jn   STATUS:               ID:20170120000717 L   I
 OLDACT:UP  17-01-20 13:12 OP:dani STATUS:               ID:20170119235959     3
 OLDACT:UP  17-01-20 13:11 OP:dani STATUS:               ID:20170119235959     3
 OLDACT:REG 17-01-20 12:14 OP:dani STATUS:               ID:20170119235959     3
 2017-01-20-0000-15M.COL___325                                                 6
 STAT SP IPHASW D HRMM SECON CODA AMPLIT PERI AZIMU VELO AIN AR TRES W  DIS CAZ7
 BAR2 EZ EP        0 7 36.12                             171   -0.0510 22.7 190 
 BAR2 EZ ES        0 7 51.45                             171   -0.0410 22.7 190 
 BAR2 EZ I         0 7 52.13        28.1 0.38            167           22.7 190 
 BRR  HZ EP        0 7 37.96                             153    0.2510 71.4 299 
 BRR  HN ES        0 7 54.95                             153    0.7110 71.4 299 
 BRR  HZ I         0 7 55.57        16.7 0.32            148           71.4 299 
 PAM  EZ EP        0 7 38.90                             151    0.1110 77.9  39 
 PAM  EN ES        0 7 56.06                             151   -0.1110 77.9  39 
 PAM  EZ I         0 7 58.22        11.4 0.58            154           77.9  39 
 RUS  HZ EP        0 7 40.09                             144   -0.1610100.0 176 
 RUS  HN ES        0 7 58.70                             144   -0.0610100.0 176 
 RUS  HZ I         0 8  0.30         8.8 0.50            143          100.0 176 
 PTB  HZ EP        0 7 42.81                             132   -0.68 9  148 259 
 PTB  HN ES        0 8  3.89                             132   -0.64 9  148 259 
 PTB  HZ I         0 8 10.12        10.9 0.26            129            148 259 
 ZAR  HZ EP   4    0 7 51.56                             122    2.56 0  204 292 
 ZAR  HN ES        0 8 14.08                             122   -0.26 9  204 292 
 ZAR  HZ I         0 8 19.23        13.7 0.36            120            204 292 
 NOR  HZ EP        0 7 52.27                             119    0.05 8  234 235 
 NOR  HN ES        0 8 20.65                             119    0.58 8  234 235 
 NOR  HZ I         0 8 29.38         5.5 0.21            117            234 235 
 CHI  HZ EP        0 7 54.31                             117    0.14 8  248 195 
 CHI  HN ES        0 8 23.46                             117   -0.07 8  248 195 
 CHI  HZ I         0 8 27.07         7.3 0.62            116            248 195 
 ROSC BZ EP   9    0 7 56.58                             117    1.99 0  252 211 
 ROSC BN ES        0 8 26.66                                    0.39 8  252 211 
 ROSC BZ I         0 8 30.94        21.2 0.42            115            252 211 
 URE  HE ES   4    0 8 26.58                             114   -3.10 0  284 292 
 URE  HZ I         0 8 39.78         5.9 0.34            112            284 292 
 GUY2CHZ EP   3    0 8  1.44                             112    1.34 2  301 235 
 GUY2CHE ES   4    0 8 38.46                             112    4.38 0  301 235 
 GUY2CHZ I         0 8 42.27         6.2 0.34                           301 235 
 PTGC HZ EP   9    0 7 59.20                             112   -1.13 0  308 159 
 PTGC HN ES        0 8 33.13                             112   -0.24 7  308 159 
 PTGC HZ I         0 8 38.71         8.8 0.36            111            308 159 
 ORTC HZ EP   1    0 8 11.41                             106    1.02 4  395 216 
                                                                                
