 2015  520 0415 35.1 L   6.283 -73.789  9.8  RSN 18 0.5 2.2LRSN                1
 GAP= 85        1.18       2.5     2.5  5.1 -0.2332E+01  0.5572E+01 -0.4766E+01E
 Epicentro: LANDAZURI - SANTANDER                                              3
 ACTION:UPD 15-09-10 22:05 OP:cam  STATUS:               ID:20150520041535 L   I
 OLDACT:UP  15-05-20 17:53 OP:spq  STATUS:               ID:20150520040744d    3
 OLDACT:DUP 15-05-20 17:28 OP:spq  STATUS:               ID:20150520040744d    3
 2015-05-20-0407-43M.COL___291                                                 6
 STAT SP IPHASW D HRMM SECON CODA AMPLIT PERI AZIMU VELO AIN AR TRES W  DIS CAZ7
 BAR2 EZ IP     D  415 47.35                              95   -0.0510 75.3  63 
 BAR2 EZ ES   1    415 56.01                              95   -0.97 7 75.3  63 
 BAR2 EZ I         415 56.39       103.0 0.36             47           75.3  63 
 SPBC HZ EP        415 47.64                              95    0.2210 76.5 204 
 SPBC HN ES   1    415 57.80                              95    0.77 7 76.5 204 
 SPBC HZ I         416  0.07        34.2 0.22             47           76.5 204 
 RUS  HZ IP     D  415 49.88                              94    0.1110 89.3 119 
 RUS  HE ES        416  0.73                              94   -0.4710 89.3 119 
 RUS  HZ I         416  1.09        26.2 0.12             47           89.3 119 
 BRR  HZ EP        415 49.70                              94    0.1010 91.5   5 
 BRR  HN ES        416  1.43                              94    0.5310 91.5   5 
 BRR  HZ I         416  6.87        37.0 0.10             47           91.5   5 
 NOR  HZ EP        415 57.57                              92    0.03 9  144 236 
 NOR  HN ES        416 14.56                              92   -0.48 9  144 236 
 NOR  HZ I         416 15.46        91.7 0.21             47            144 236 
 PAM  SZ EP        416  1.91                              56    0.48 9  168  46 
 PAM  SN ES        416 22.31                              56    0.35 9  168  46 
 PAM  SZ I         416 27.28        56.2 0.24             47            168  46 
 ROSC BN ES   4    416 27.39                              56    5.13 0  170 200 
 ROSC BZ I         416 32.14        16.9 0.55             47            170 200 
 ZAR  HZ EP        416  1.99                              56   -0.19 9  178 319 
 ZAR  HE ES        416 22.54                              56   -0.76 9  178 319 
 ZAR  HZ I         416 25.20        40.4 0.14             47            178 319 
 CHI  HZ EP   4    416  6.14                              56    2.91 0  183 178 
 CHI  HN ES   4    416 31.05                              56    5.88 0  183 178 
 CHI  HZ I         416 33.20        11.1 0.24             37            183 178 
 HEL  HZ EP        416  4.40                              56   -0.01 9  193 267 
 HEL  HN ES        416 26.54                              56   -0.73 9  193 267 
 GUY2CHZ EP   4    416  8.17                              56    1.46 0  210 236 
 GUY2CHN ES        416 32.13                              56    0.77 8  210 236 
 GUY2CHZ I         416 40.85        21.4 0.70                           210 236 
 OCA  HZ EP   4    416  9.02                              56    1.16 0  222  13 
 OCA  HE ES   4    416 35.36                              56    1.96 0  222  13 
 OCA  HZ I         416 40.30        39.3 0.26             37            222  13 
 RREF HZ EP   4    416 11.52                              56    2.07 0  231 229 
 RREF HN ES   4    416 38.49                              56    2.25 0  231 229 
 RREF HZ I         416 39.88         8.7 0.18             37            231 229 
 VIL  SN ES   4    416 45.06                              56    7.73 0  240 177 
 VIL  SZ I         416 50.57        12.9 0.44             37            240 177 
 CBOC HZ EP   4    416 13.48                              56    2.10 0  250 259 
 CBOC HE ES   4    416 43.04                              56    3.37 0  250 259 
 CBOC HZ I         416 47.32        10.0 0.64             37            250 259 
 ANIL HN ES   4    416 46.25                              56    2.65 0  267 222 
 ANIL HZ I         416 50.16        34.8 0.22             37            267 222 
 SML  HZ EP   4    416 13.66                              56   -1.23 0  280 354 
 ORTC HZ EP   4    416 21.03                              55    2.62 0  308 212 
 ORTC HE ES   4    416 56.84                              55    4.66 0  308 212 
 ORTC HZ I         416 59.60         9.1 0.40             36            308 212 
 MON  HZ EP   4    416 24.18                              55    1.29 0  345 323 
 MON  HN ES   4    417  3.24                              55    3.08 0  345 323 
 SJC  HZ EP   4    416 34.61                              55    1.39 0  428 339 
 SJC  HN ES   1    417 19.55                              55    1.01 4  428 339 
 SJC  HZ I         417 24.68         2.0 0.47             36            428 339 
                                                                                
