 2012  220 0616 18.5 L   6.780 -73.174148.5  RSN  5 0.4 1.1LRSN                1
 GAP=178        0.79       6.6     6.9  7.5  0.1236E+02  0.7983E+01  0.7246E+01E
 ACTION:UP  12-03-07 16:32 OP:epov STATUS:               ID:20120220061618 L   I
 2012-02-20-0610-00M.COL___191                                                 6
 STAT SP IPHASW D HRMM SECON CODA AMPLIT PERI AZIMU VELO AIN AR TRES W  DIS CAZ7
 BAR2 SZ EP   1    616 38.38                             172   -0.06 7 20.8 182 
 BAR2 SZ ES   1    616 53.89                             172   -0.08 7 20.8 182 
 BAR2 SZ I         616 54.61         4.9 0.21                          20.8 182 
 GIR2 SZ EP   1    616 38.27                             167   -0.30 7 33.1 356 
 GIR2 SZ ES   1    616 53.67                             167   -0.53 7 33.1 356 
 BRR  HZ EP   1    616 40.44                             153    0.56 7 69.5 301 
 BRR  HE ES   1    616 57.23                             153    0.70 7 69.5 301 
 BRR  HZ I         617  0.54         2.8 0.14                          69.5 301 
 RUS  HZ EP   1    616 42.44                             145    0.03 7 98.7 174 
 RUS  HZ I         616 43.18         1.0 0.13                          98.7 174 
 RUS  HE ES   1    617  1.30                             145    0.26 7 98.7 174 
 PTB  HZ EP   1    616 45.22                             133   -0.19 7  144 259 
 PTB  HN ES   1    617  5.91                             133   -0.46 7  144 259 
                                                                                
