 2017  820 0712 35.3 L   6.792 -73.087154.0  RSN  7 0.4 1.1LRSN                1
 GAP=145        0.52       3.3     3.9  4.2 -0.5047E+01  0.5038E+01  0.2619E+01E
 Epicentro: LOS SANTOS - SANTANDER                                             3
 ACTION:UPD 17-09-04 20:22 OP:rebc STATUS:               ID:20170820071235 L   I
 OLDACT:UP  17-08-20 14:57 OP:mg   STATUS:               ID:20170820070636     3
 OLDACT:UP  17-08-20 14:56 OP:mg   STATUS:               ID:20170820070636     3
 OLDACT:REG 17-08-20 11:38 OP:mg   STATUS:               ID:20170820070636     3
 2017-08-20-0707-00M.COL___405                                                 6
 STAT SP IPHASW D HRMM SECON CODA AMPLIT PERI AZIMU VELO AIN AR TRES W  DIS CAZ7
 BAR2 EZ EP   1    712 56.01                             171    0.08 7 24.5 206 
 BAR2 EZ ES   1    713 11.99                             171   -0.04 7 24.5 206 
 BAR2 EZ I         713 12.56         2.3 0.15            169           24.5 206 
 PAM  EZ EP        712 58.37                             153    0.1810 74.1  35 
 PAM  EN ES        713 16.03                             153   -0.0410 74.1  35 
 PAM  EZ I         713 18.80         1.5 0.50            157           74.1  35 
 BRR  HZ EP        712 57.71                             152    0.0410 77.4 297 
 BRR  HN ES   1    713 14.76                             152   -0.37 7 77.4 297 
 BRR  HZ I         713 17.94         1.5 0.21            151           77.4 297 
 RUS  HZ EP   1    712 59.49                             146   -0.29 7 99.5 180 
 RUS  HN ES   1    713 18.98                             146    0.10 7 99.5 180 
 RUS  HZ I         713 20.76         1.6 0.28            148           99.5 180 
 SPBC HZ EP        713  4.64                             130   -0.11 9  167 221 
 SPBC HN ES   3    713 29.15                             130    1.41 2  167 221 
 SPBC HZ I         713 33.29         2.5 0.10            131            167 221 
 ZAR  HE ES   3    713 36.98                             123    1.81 2  210 292 
 ZAR  HZ I         713 38.86         0.9 0.24            124            210 292 
 NOR  HZ EP   1    713 11.97                             119   -0.05 6  240 236 
 NOR  HN EP        713 12.12                             119    0.10 8  240 236 
 NOR  HE ES   3    713 39.49                             119   -1.18 2  240 236 
 NOR  HN ES   1    713 40.81                             119    0.14 6  240 236 
 NOR  HZ I         713 41.44         0.9 0.22            121            240 236 
                                                                                
