 2016  720 0912 50.0 L   6.305 -73.512115.6  RSN  7 0.5 1.6LRSN                1
 GAP= 87        1.17       4.2     5.0  8.6 -0.1149E+01  0.2562E+02 -0.4283E+00E
 Epicentro: CONTRATACION - SANTANDER                                           3
 ACTION:UPD 17-03-29 16:53 OP:lp   STATUS:               ID:20160720091250 L   I
 OLDACT:REG 16-07-20 13:31 OP:ar   STATUS:               ID:20160720090759     3
 2016-07-20-0907-59S.COL___331                                                 6
 STAT SP IPHASW D HRMM SECON CODA AMPLIT PERI AZIMU VELO AIN AR TRES W  DIS CAZ7
 BAR2 EZ EP        913  7.05                             156    0.0710 48.3  49 
 BAR2 EZ ES        913 20.20                             156   -0.0110 48.3  49 
 RUS  HZ EP        913  8.03                             149   -0.3110 65.8 134 
 RUS  HN ES        913 22.56                             149   -0.0810 65.8 134 
 RUS  HZ I         913 23.39         4.1 0.26            155           65.8 134 
 BRR  HZ EP        913  9.31                             139   -0.1910 91.4 346 
 BRR  HN ES        913 25.48                             139    0.7910 91.4 346 
 BRR  HZ I         913 30.02        10.3 0.40            140           91.4 346 
 SPBC HZ EP        913  9.70                             138   -0.2310 95.2 221 
 SPBC HE ES        913 25.29                             138   -0.1810 95.2 221 
 SPBC HZ I         913 26.92        11.7 0.28            141           95.2 221 
 ZAR  HZ EP        913 19.83                             116   -0.24 9  198 312 
 ZAR  HN ES        913 43.00                             116   -0.51 9  198 312 
 ZAR  HZ I         913 45.35         4.1 0.28            118            198 312 
 HEL  HZ EP        913 23.56                             113    0.23 8  224 267 
 HEL  HN ES        913 48.45                             113   -0.86 8  224 267 
 HEL  HZ I         913 54.15         2.4 0.22            115            224 267 
 GUY2CHZ EP        913 25.99                             111    0.95 8  237 240 
 GUY2CHN ES        913 53.16                             111    0.79 8  237 240 
 GUY2CHZ I         913 57.81         4.4 0.38                           237 240 
                                                                                
