 2014  120 0324 35.5 L   6.794 -73.197145.0  RSN  5 0.2 1.5LRSN                1
 GAP=196        0.54       3.0     3.8  4.9  0.3490E+01  0.1590E+01 -0.6503E+01E
 Epicentro: ZAPATOCA - SANTANDER                                               3
 ACTION:UPD 14-03-13 09:56 OP:ep   STATUS:               ID:20140120032435 L   I
 OLDACT:REG 14-01-20 08:12 OP:nd   STATUS:               ID:20140120032000     3
 2014-01-20-0320-00M.COL___285                                                 6
 STAT SP IPHASW D HRMM SECON CODA AMPLIT PERI AZIMU VELO AIN AR TRES W  DIS CAZ7
 BAR2 SZ EP        324 55.23                             171    0.1610 22.4 176 
 BAR2 SZ ES        325 10.45                             171    0.1610 22.4 176 
 BAR2 SZ I         325 11.82         7.8 0.20            172           22.4 176 
 RUS  HZ EP        324 59.23                             144    0.0110  101 173 
 RUS  HN ES        325 17.40                             144   -0.2810  101 173 
 RUS  HZ I         325 20.74         2.7 0.36            148            101 173 
 PTB  HZ EP        325  2.24                             133    0.30 9  142 259 
 PTB  HN ES        325 22.39                             133   -0.14 9  142 259 
 PTB  HZ I         325 29.16         3.8 0.38            133            142 259 
 SML  HZ EP        325 11.67                             117   -0.27 8  242 337 
 SML  HN ES        325 40.29                             117   -0.04 8  242 337 
 SML  HZ I         325 48.14         3.5 0.38            119            242 337 
 GUY2CHZ EP   4    325 21.22                             113    2.66 0  296 234 
 GUY2CHN ES   4    325 55.24                             113    3.13 0  296 234 
 GUY2CHZ I         326  0.10         1.1 0.32                           296 234 
 SJC  HZ EP   4    325 29.30                             106   -1.48 0  407 328 
 SJC  HN ES   4    326 10.37                             106   -3.50 0  407 328 
                                                                                
