 2017  720 0300 40.6 L   7.262 -73.328122.1  RSN  6 0.4 1.7LRSN                1
 GAP=249        1.01       9.7     6.5  8.3  0.3933E+02 -0.6390E+01 -0.2055E+02E
 Epicentro: RIONEGRO - SANTANDER                                               3
 ACTION:UPD 17-08-30 15:35 OP:rebc STATUS:               ID:20170720030040 L   I
 OLDACT:UP  17-07-20 15:49 OP:dnl  STATUS:               ID:20170720025741     3
 OLDACT:UP  17-07-20 15:49 OP:dnl  STATUS:               ID:20170720025741     3
 OLDACT:REG 17-07-20 13:09 OP:dnl  STATUS:               ID:20170720025741     3
 2017-07-20-0258-00M.COL___383                                                 6
 STAT SP IPHASW D HRMM SECON CODA AMPLIT PERI AZIMU VELO AIN AR TRES W  DIS CAZ7
 BRR  HZ EP        3 0 57.25                             158   -0.5510 45.8 248 
 BRR  HE ES        3 1 11.09                             158   -0.1510 45.8 248 
 BRR  HZ I         3 1 11.71        23.1 0.16            151           45.8 248 
 BAR2 EZ IP     C  3 0 59.74                             146   -0.1310 75.8 168 
 BAR2 EZ ES        3 1 15.21                             146    0.3010 75.8 168 
 BAR2 EZ I         3 1 16.92        12.8 0.24            142           75.8 168 
 PTB  HZ EP   2    3 1  5.29                             126   -0.47 5  148 237 
 PTB  HN ES        3 1 25.03                             126   -0.38 9  148 237 
 PTB  HZ I         3 1 28.11         3.2 0.24            123            148 237 
 RUS  HZ EP        3 1  7.45                             125    0.49 9  154 170 
 ZAR  HZ EP        3 1  7.99                             121   -0.07 9  171 279 
 ZAR  HN ES        3 1 30.25                             121    0.75 9  171 279 
 ZAR  HZ I         3 1 33.86         5.9 0.22            120            171 279 
 SJC  HZ EP   4    3 1 26.00                             104   -3.08 0  356 325 
 SJC  HE ES   4    3 2  1.34                             104   -5.57 0  356 325 
 SJC  HZ I         3 2  3.54         2.0 0.36            104            356 325 
                                                                                
