 2014  720 0439  4.4 L   6.626 -73.100134.3  RSN  4 0.4 1.2LRSN                1
 GAP=300        1.06      12.4     8.2 12.8  0.2270E+02 -0.3138E+00  0.4191E+02E
 Epicentro: CURITI - SANTANDER                                                 3
 ACTION:UPD 15-03-16 20:45 OP:nd   STATUS:               ID:20140720043904 L   I
 OLDACT:REG 14-07-20 13:07 OP:fm   STATUS:               ID:20140720043806     3
 2014-07-20-0438-06M.COL___266                                                 6
 STAT SP IPHASW D HRMM SECON CODA AMPLIT PERI AZIMU VELO AIN AR TRES W  DIS CAZ7
 BAR2 SZ EP        439 21.87                             176   -0.6110 9.80 248 
 BAR2 SZ I         439 39.58         3.9 0.18            169           9.80 248 
 BRR  HZ EP        439 25.66                             145    0.3310 86.1 308 
 BRR  HN ES        439 41.95                             145    0.3310 86.1 308 
 BRR  HZ I         439 45.14         2.0 0.26            157           86.1 308 
 PTB  HZ EP        439 31.23                             129    0.50 9  150 266 
 PTB  HN ES        439 51.20                             129   -0.04 9  150 266 
 PTB  HZ I         439 53.90         1.8 0.46            136            150 266 
 ZAR  HZ EP   1    439 37.55                             118    0.05 6  217 296 
 ZAR  HN ES        440  2.61                             118   -0.68 8  217 296 
 ZAR  HZ I         440  7.90         1.7 0.44            124            217 296 
                                                                                
