 2017  120 0056 21.7 L   6.808 -73.142148.6  RSN 10 0.3 1.5LRSN                1
 GAP=119        0.78       3.0     3.2  5.0 -0.4115E+00  0.2678E+01  0.3509E+01E
 Epicentro: LOS SANTOS - SANTANDER                                             3
 ACTION:UPD 17-05-22 16:01 OP:jn   STATUS:               ID:20170120005621 L   I
 OLDACT:UP  17-01-20 13:34 OP:dani STATUS:               ID:20170120004746     3
 OLDACT:UP  17-01-20 13:34 OP:dani STATUS:               ID:20170120004746     3
 OLDACT:UP  17-01-20 13:33 OP:dani STATUS:               ID:20170120004746     3
 OLDACT:UP  17-01-20 13:29 OP:dani STATUS:               ID:20170120004746     3
 OLDACT:REG 17-01-20 12:17 OP:dani STATUS:               ID:20170120004746     3
 2017-01-20-0048-00M.COL___322                                                 6
 STAT SP IPHASW D HRMM SECON CODA AMPLIT PERI AZIMU VELO AIN AR TRES W  DIS CAZ7
 BAR2 EZ ES        056 57.14                             170   -0.1010 24.3 190 
 BRR  HZ EP        056 43.17                             153    0.0610 71.1 298 
 BRR  HN ES        057  0.39                             153    0.5510 71.1 298 
 BRR  HZ I         057  4.24         5.8 0.33            151           71.1 298 
 PAM  EZ EP        056 44.24                             151    0.1110 76.5  40 
 PAM  EN ES        057  1.58                             151   -0.0710 76.5  40 
 PAM  EZ I         057  4.50         5.4 0.30            153           76.5  40 
 RUS  HZ EP        056 45.71                             144   -0.0510  101 176 
 RUS  HN ES        057  4.18                             144   -0.3710  101 176 
 RUS  HZ I         057  5.33         5.1 0.36            146            101 176 
 PTB  HZ EP        056 48.76                             132   -0.15 9  148 259 
 PTB  HN ES        057  9.59                             132   -0.57 9  148 259 
 PTB  HZ I         057 14.33         3.5 0.12            132            148 259 
 ZAR  HZ EP   4    056 56.93                             123    2.64 0  204 292 
 ZAR  HE ES        057 19.62                             123   -0.12 9  204 292 
 ZAR  HZ I         057 26.89         3.1 0.11            123            204 292 
 NOR  HN ES        057 26.00                             119    0.29 8  236 234 
 CHI  HZ EP        056 59.74                             117    0.12 8  250 195 
 CHI  HN ES        057 29.80                             117    0.57 8  250 195 
 CHI  HZ I         057 35.32         1.4 0.37            118            250 195 
 GUY2CHZ EP   9    057  9.22                             113    3.72 0  302 235 
 GUY2CHN ES        057 42.95                             113   -0.46 7  302 235 
 GUY2CHZ I         057 47.62         2.0 0.55                           302 235 
 PTGC HZ EP   3    057  4.63                             112   -1.10 2  309 159 
 PTGC HN ES   4    057 37.86                             112   -2.24 0  309 159 
                                                                                
