 2012 1020 0008 57.1 L   6.787 -73.083155.6  RSN  4 0.2 1.8LRSN                1
 GAP=243        0.47       7.8     9.3  5.1  0.6257E+02  0.3116E+01 -0.3235E+01E
 Epicentro: LOS SANTOS - SANTANDER                                             3
 ACTION:UPD 12-11-22 17:04 OP:ep   STATUS:               ID:20121020000857 L   I
 2012-10-20-0007-45M.COL___204                                                 6
 STAT SP IPHASW D HRMM SECON CODA AMPLIT PERI AZIMU VELO AIN AR TRES W  DIS CAZ7
 BAR2 SZ ES   1    0 9 33.96                             171   -0.24 7 24.2 207 
 BRR  HZ EP   1    0 9 19.81                             152    0.09 7 78.0 297 
 BRR  HZ I         0 9 21.33        12.1 0.52                          78.0 297 
 BRR  HN ES   1    0 9 37.52                             152    0.18 7 78.0 297 
 RUS  HZ EP   1    0 9 21.99                             146    0.25 7 98.9 180 
 RUS  HN ES   1    0 9 40.87                             146   -0.06 7 98.9 180 
 RUS  HN I         0 9 42.08         6.7 0.40                          98.9 180 
 ZAR  HZ EP   1    0 9 30.53                             123   -0.40 6  211 292 
 ZAR  HN ES   1    0 9 57.39                             123    0.09 6  211 292 
 ZAR  HN I         010  2.11         5.8 0.14                           211 292 
                                                                                
