 2015  420 0130 28.9 L   6.823 -73.168145.5  RSN 10 0.4 1.6LRSN                1
 GAP=133        1.13       3.5     4.7  6.9 -0.1624E+01  0.5737E+01 -0.2691E+01E
 Epicentro: LOS SANTOS - SANTANDER                                             3
 ACTION:UPD 15-06-03 16:56 OP:cam  STATUS:               ID:20150420013028 L   I
 OLDACT:REG 15-04-20 12:59 OP:ak   STATUS:               ID:20150420012746     3
 2015-04-20-0127-46M.COL___265                                                 6
 STAT SP IPHASW D HRMM SECON CODA AMPLIT PERI AZIMU VELO AIN AR TRES W  DIS CAZ7
 BAR2 EZ EP        130 48.60                             170    0.1010 25.5 184 
 BAR2 EZ ES        131  4.29                             170    0.4710 25.5 184 
 BAR2 EZ I         131  5.44         6.6 0.26            170           25.5 184 
 BRR  HZ EP     C  130 50.54                             153    0.7510 67.9 298 
 BRR  HE ES        131  6.65                             153    0.5310 67.9 298 
 BRR  HZ I         131 20.17         5.4 0.49            151           67.9 298 
 PAM  SZ EP        130 51.54                             151    0.5210 77.1  42 
 PAM  SN ES        131  7.38                             151   -0.9310 77.1  42 
 PAM  SZ I         131 10.78         3.5 0.22            157           77.1  42 
 RUS  HZ EP        130 52.98                             143    0.2110  103 175 
 RUS  HE ES        131 10.93                             143   -0.5010  103 175 
 RUS  HZ I         131 12.22         3.7 0.24            149            103 175 
 PTB  HZ EP        130 55.53                             132   -0.10 9  146 258 
 PTB  HN ES        131 16.07                             132   -0.45 9  146 258 
 PTB  HZ I         131 22.59         4.3 0.25            134            146 258 
 OCA  HZ EP        130 56.57                             130   -0.31 9  158 354 
 OCA  HN ES        131 18.89                             130    0.14 9  158 354 
 OCA  HZ I         131 24.55         9.3 0.18            134            158 354 
 SPBC HZ EP        130 57.24                             129   -0.13 9  164 218 
 SPBC HN ES        131 19.56                             129   -0.06 9  164 218 
 SPBC HZ I         131 26.78         8.5 0.37            133            164 218 
 ZAR  HE ES        131 25.74                             123   -0.25 9  201 292 
 SML  HZ EP   1    131  4.92                             118   -0.19 6  240 336 
 SML  HN ES   1    131 33.06                             118   -0.33 6  240 336 
 SML  HZ I         131 36.55         7.0 0.32            121            240 336 
 GUY2CHZ EP   4    131 12.83                             112    0.44 0  301 234 
 GUY2CHN ES   4    131 46.12                             112   -0.23 0  301 234 
 GUY2CHZ I         131 55.85         2.3 0.44                           301 234 
                                                                                
