 2014  220 0038 32.3 L   6.781 -73.150144.8  RSN  5 0.2 1.5LRSN                1
 GAP=151        0.40       1.9     3.5  3.3 -0.1740E+01  0.4640E+01 -0.8092E+00E
 Epicentro: LOS SANTOS - SANTANDER                                             3
 ACTION:UPD 14-03-10 08:11 OP:ep   STATUS:               ID:20140220003832 L   I
 OLDACT:REG 14-02-20 11:33 OP:fm   STATUS:               ID:20140220003755     3
 2014-02-20-0037-55M.COL___187                                                 6
 STAT SP IPHASW D HRMM SECON CODA AMPLIT PERI AZIMU VELO AIN AR TRES W  DIS CAZ7
 BAR2 SZ EP        038 51.67                             171   -0.1210 21.2 190 
 BAR2 SZ ES        039  7.02                             171    0.0410 21.2 190 
 BAR2 SZ I         039  7.83         5.9 0.38            169           21.2 190 
 PAM  SZ EP        038 54.57                             150    0.0210 79.3  39 
 PAM  SE ES        039 11.87                             150   -0.0110 79.3  39 
 PAM  SZ I         039 14.09         3.3 0.24            153           79.3  39 
 SPBC HN ES   1    039 22.47                             129   -0.11 7  161 219 
 SPBC HZ I         039 28.17         5.1 0.28            128            161 219 
 SML  HZ EP   1    039  8.72                             117   -0.35 6  245 336 
 SML  HE ES        039 37.91                             117    0.17 8  245 336 
 SML  HZ I         039 43.98         3.8 0.28            116            245 336 
 CHI  HZ EP        039  9.94                             117    0.21 8  246 195 
 CHI  HZ I         039 11.84         1.2 0.12            118            246 195 
 CHI  HE ES   4    039 41.33                             117    2.42 0  246 195 
                                                                                
