 2011  420 0109 35.7 L   6.808 -73.113141.5  RSN  6 0.3 1.5LRSN                1
 GAP=160        0.67       6.9     8.4 10.6 -0.2138E+02  0.2095E+02  0.2568E+01E
 Epicentro: LOS SANTOS - SANTANDER                                             3
 ACTION:UP  11-06-22 15:31 OP:REBC STATUS:               ID:20110420010935 L   I
 2011-04-20-0107-30S.COL___139                                                 6
 STAT SP IPHASW D HRMM SECON CODA AMPLIT PERI AZIMU VELO SNR AR TRES W  DIS CAZ7
 BTL  SZ EP        1 9 54.71                             171     0.010   21 306 
 BAR2 SZ EP        1 9 54.53                             169    -0.310   25 198 
 BAR2 SZ I         110 10.00         9.9 0.87                            25 198 
 PAM  SZ EP        1 9 57.37                             150     0.110   74  38 
 PAM  SN ES   1    110 14.12                             150     0.0 7   74  38 
 BRR  HZ EP        1 9 56.71                             151     0.210   74 297 
 BRR  HZ I         1 9 57.15         5.1 0.03                            74 297 
 BRR  HN ES   3    110 13.52                             151     0.7 2   74 297 
 GRA  SZ EP        110  0.56                             136     0.210  124  16 
 OCA  SZ ES   2    110 24.50                             128    -0.9 5  160 352 
                                                                                
