 2017  820 0143  9.1 L   6.834 -73.085145.8  RSN 10 0.5 1.7LRSN                1
 GAP=143        1.14       4.9     5.1  7.7 -0.2791E+01  0.1379E+02  0.6516E+01E
 Epicentro: LOS SANTOS - SANTANDER                                             3
 ACTION:UPD 17-09-04 20:22 OP:rebc STATUS:               ID:20170820014309 L   I
 OLDACT:UP  17-08-20 14:16 OP:lv   STATUS:               ID:20170820013741d    3
 OLDACT:DUP 17-08-20 13:56 OP:lv   STATUS:               ID:20170820013741d    3
 2017-08-20-0138-00M.COL___411                                                 6
 STAT SP IPHASW D HRMM SECON CODA AMPLIT PERI AZIMU VELO AIN AR TRES W  DIS CAZ7
 BAR2 EZ EP   1    143 28.93                             168    0.06 7 28.9 202 
 BAR2 EZ ES        143 44.13                             168   -0.1510 28.9 202 
 BAR2 EZ I         143 44.65         5.4 0.15            168           28.9 202 
 PAM  EZ EP        143 31.68                             153    0.7610 70.2  37 
 PAM  EE ES        143 47.29                             153   -0.6410 70.2  37 
 PAM  EZ I         143 49.68         4.9 0.18            154           70.2  37 
 BRR  HZ EP        143 30.56                             151    0.0410 75.6 294 
 BRR  HE ES        143 47.79                             151    0.5810 75.6 294 
 RUS  HZ EP        143 33.37                             143    0.2410  104 180 
 RUS  HN ES        143 51.61                             143   -0.2510  104 180 
 SPBC HZ EP        143 37.94                             128   -0.36 9  170 220 
 SPBC HN ES        144  1.61                             128    0.54 9  170 220 
 SPBC HZ I         144  4.11         6.8 0.12            128            170 220 
 ZAR  HZ EP   3    143 42.82                             122    0.75 2  209 290 
 ZAR  HN ES        144  7.08                             122   -0.69 8  209 290 
 ZAR  HZ I         144 12.51         4.9 0.22            121            209 290 
 NOR  HZ EP        143 45.05                             118   -0.62 8  242 235 
 NOR  HN ES   4    144 12.90                             118   -1.29 0  242 235 
 NOR  HZ I         144 16.94         3.6 0.25            118            242 235 
 HEL  HZ EP   4    143 51.68                             114    1.52 0  280 255 
 HEL  HN ES        144 22.71                             114    0.54 7  280 255 
 HEL  HZ I         144 23.19         3.6 0.36            114            280 255 
 URE  HZ EP   4    143 49.52                             113   -1.21 0  289 291 
 URE  HN ES   4    144 20.63                             113   -2.57 0  289 291 
 URE  HZ I         144 27.29         2.9 0.16            113            289 291 
 GUY2CHZ EP   4    143 51.81                             112   -1.79 0  309 235 
 GUY2CHN ES        144 27.87                             112   -0.42 7  309 235 
 GUY2CHZ I         144 37.37         2.5 0.36                           309 235 
                                                                                
