 2011  120 0106  8.2 L   6.832 -73.126143.2  RSN  9 0.4 2.0LRSN                1
 GAP=137        0.89       3.7     7.6  7.9 -0.9572E+01  0.1735E+02 -0.6657E+00E
 Epicentro: LOS SANTOS - SANTANDER                                             3
 ACTION:UP  11-02-08 08:41 OP:pat  STATUS:               ID:20110120010608 L   I
 2011-01-20-0101-52S.COL___138                                                 6
 STAT SP IPHASW D HRMM SECON CODA AMPLIT PERI AZIMU VELO SNR AR TRES W  DIS CAZ7
 BAR2 SZ EP   1    1 6 27.33                             169    -0.3 8   27 194 
 BAR2 SZ I         1 6 28.18        20.6 0.17                            27 194 
 BAR2 SZ ES   1    1 6 43.48                             169     0.7 8   27 194 
 RUS  HZ EP        1 6 31.73                             142    -0.310  104 177 
 RUS  HE ES   1    1 6 50.17                             142    -0.3 7  104 177 
 RUS  HZ I         1 6 52.19        11.9 0.22                           104 177 
 GRA  SZ IP        1 6 33.37                             137     0.510  122  17 
 GRA  SZ ES   1    1 6 52.24                             137     0.1 7  122  17 
 GRA  SZ I         1 6 54.10        22.1 0.21                           122  17 
 OCA  SZ EP   1    1 6 36.15                             130     0.1 7  157 352 
 OCA  SZ ES   1    1 6 56.88                             130    -0.9 7  157 352 
 OCA  SZ I         1 6 59.54        11.4 0.73                           157 352 
 YOP  SZ EP   2    1 6 38.48                             125     0.2 4  181 154 
 YOP  SZ I         1 6 40.70         7.7 0.26                           181 154 
 NOR  SZ EP   2    1 6 43.72                             117    -0.5 4  239 234 
 NOR  SN ES   2    1 7 12.48                             117     0.1 4  239 234 
 CHI  HZ EP   1    1 6 46.19                             116     0.0 6  253 195 
 CHI  HE ES   2    1 7 15.65                             116    -0.2 4  253 195 
 CHI  HZ I         1 7 20.70         5.7 0.25                           253 195 
 HEL  HZ EP   2    1 6 49.09                             114     0.4 4  275 255 
 HEL  HE ES   2    1 7 20.09                             114    -0.1 4  275 255 
 HEL  HZ I         1 7 27.17         7.3 0.36                           275 255 
 RREF HZ EP   2    1 6 55.61                             110     0.9 3  326 229 
 RREF HN ES   2    1 7 31.43                             110     0.5 3  326 229 
 RREF HZ I         1 7 39.80         6.3 0.29                           326 229 
                                                                                
