 2016  520 0520 49.7 L   6.830 -73.149142.3  RSN 15 0.4 2.3LRSN                1
 GAP=135        1.02       3.0     3.7  5.0 -0.2261E+01  0.6678E+01  0.1079E+01E
 Epicentro: LOS SANTOS - SANTANDER                                             3
 ACTION:UPD 16-08-18 17:47 OP:cam  STATUS:               ID:20160520052049 L   I
 OLDACT:UP  16-05-20 15:51 OP:mh   STATUS:               ID:20160520051743     3
 OLDACT:UP  16-05-20 15:50 OP:mh   STATUS:               ID:20160520051743     3
 OLDACT:UP  16-05-20 15:50 OP:mh   STATUS:               ID:20160520051743     3
 OLDACT:UP  16-05-20 15:50 OP:mh   STATUS:               ID:20160520051743     3
 OLDACT:UP  16-05-20 15:49 OP:mh   STATUS:               ID:20160520051743     3
 OLDACT:UP  16-05-20 15:49 OP:mh   STATUS:               ID:20160520051743     3
 OLDACT:UP  16-05-20 15:45 OP:mh   STATUS:               ID:20160520051743     3
 OLDACT:REG 16-05-20 12:31 OP:mh   STATUS:               ID:20160520051743     3
 2016-05-20-0517-43M.COL___312                                                 6
 STAT SP IPHASW D HRMM SECON CODA AMPLIT PERI AZIMU VELO AIN AR TRES W  DIS CAZ7
 BAR2 EZ EP        521  8.96                             169   -0.0510 26.5 188 
 BAR2 EZ ES        521 23.50                             169   -0.5510 26.5 188 
 BAR2 EZ I         521 25.64        19.9 0.20            168           26.5 188 
 BRR  HZ EP     C  521 10.73                             153    0.3310 69.4 296 
 BRR  HN ES        521 27.22                             153    0.7010 69.4 296 
 BRR  HZ I         521 32.29        21.2 0.10            149           69.4 296 
 PAM  EZ EP        521 11.60                             151    0.1610 75.1  41 
 PAM  EN ES        521 28.66                             151    0.2910 75.1  41 
 PAM  EZ I         521 30.55        41.0 0.48            156           75.1  41 
 RUS  HZ EP        521 13.51                             142    0.1310  104 176 
 RUS  HN ES        521 31.71                             142   -0.1210  104 176 
 RUS  HZ I         521 33.31        31.8 0.34            144            104 176 
 PTB  HZ EP        521 15.90                             131   -0.54 9  148 258 
 PTB  HN ES        521 36.80                             131   -0.48 9  148 258 
 PTB  HZ I         521 38.75        24.9 0.40            130            148 258 
 OCA  HZ EP        521 17.88                             129    0.42 9  157 353 
 OCA  HN ES        521 38.40                             129   -0.69 9  157 353 
 OCA  HZ I         521 43.19        46.3 0.20            131            157 353 
 SPBC HZ EP        521 17.94                             128   -0.24 9  166 218 
 SPBC HN ES        521 40.46                             128    0.08 9  166 218 
 SPBC HZ I         521 46.40        29.6 0.18            128            166 218 
 ZAR  HZ EP        521 21.79                             122    0.01 9  202 291 
 ZAR  HN ES        521 46.98                             122    0.19 9  202 291 
 ZAR  HZ I         521 52.48        15.6 0.32            122            202 291 
 NOR  HZ EP        521 25.34                             118   -0.09 8  236 234 
 NOR  HN ES        521 53.46                             118    0.18 8  236 234 
 NOR  HZ I         521 55.37        11.9 0.14            118            236 234 
 ROSC BZ EP   4    521 28.87                             116    0.93 0  255 211 
 HEL  HZ EP        521 30.10                             114    0.29 8  273 255 
 HEL  HN ES   1    522  2.19                             114    1.11 6  273 255 
 HEL  HZ I         522  7.57        10.9 0.38            115            273 255 
 URE  HZ EP        521 29.47                             113   -0.98 7  282 291 
 URE  HN ES   4    521 59.27                             113   -2.95 0  282 291 
 URE  HZ I         522  9.06        10.5 0.30            114            282 291 
 CBOC HZ EP        521 37.28                             109    0.71 7  334 252 
 CBOC HN ES        522 12.58                             109   -0.54 7  334 252 
 CBOC HZ I         522 22.71         3.2 0.48            110            334 252 
 ANIL HZ EP   4    521 41.34                             108    1.70 0  359 224 
 ANIL HN ES   4    522 21.40                             108    2.83 0  359 224 
 ANIL HZ I         522 25.27        22.6 0.32            109            359 224 
 PRA  HZ EP        521 43.36                             106   -0.08 6  395 209 
 PRA  HN ES        522 25.86                             106    0.52 6  395 209 
 PRA  HZ I         522 30.66         7.3 0.34            107            395 209 
 ORTC HZ EP        521 43.64                             106   -0.17 6  398 216 
 ORTC HN ES   4    522 27.81                             106    1.81 0  398 216 
 ORTC HZ I         522 32.55         3.9 0.38            107            398 216 
 SJC  HZ EP   4    521 42.80                             105   -2.03 0  406 327 
 SJC  HN ES   4    522 23.16                             105   -4.65 0  406 327 
                                                                                
