 2017  720 0724 38.7 L   6.812 -73.159149.9  RSN  6 0.4 1.4LRSN                1
 GAP=237        1.00       6.1     6.5  8.4  0.1607E+02  0.1468E+02  0.1221E+01E
 Epicentro: LOS SANTOS - SANTANDER                                             3
 ACTION:UPD 17-08-30 15:35 OP:rebc STATUS:               ID:20170720072438 L   I
 OLDACT:REG 17-07-20 13:15 OP:dnl  STATUS:               ID:20170720071738     3
 2017-07-20-0718-00M.COL___374                                                 6
 STAT SP IPHASW D HRMM SECON CODA AMPLIT PERI AZIMU VELO AIN AR TRES W  DIS CAZ7
 BAR2 EZ EP        724 58.78                             170   -0.1010 24.4 186 
 BAR2 EZ ES        725 14.12                             170   -0.4710 24.4 186 
 BAR2 EZ I         725 15.03         4.6 0.26            169           24.4 186 
 BRR  HZ EP   2    724 59.93                             154   -0.29 5 69.3 298 
 BRR  HN ES        725 17.67                             154    0.6810 69.3 298 
 BRR  HZ I         725 20.81         5.4 0.26            150           69.3 298 
 RUS  HZ EP   2    725  2.91                             144   -0.08 5  102 175 
 RUS  HN ES        725 22.12                             144    0.2110  102 175 
 RUS  HZ I         725 22.55         1.7 0.30            147            102 175 
 PTB  HZ EP        725  5.71                             133   -0.22 9  147 258 
 PTB  HN ES        725 26.38                             133   -0.77 9  147 258 
 PTB  HZ I         725 31.55         1.7 0.38            132            147 258 
 SPBC HZ EP   2    725  7.87                             130    0.31 5  163 218 
 SPBC HE ES        725 30.50                             130    0.46 9  163 218 
 SPBC HZ I         725 32.23         4.1 0.10            130            163 218 
 ZAR  HZ EP   2    725 11.98                             124    0.72 4  202 292 
 ZAR  HN ES        725 36.72                             124    0.09 9  202 292 
 ZAR  HZ I         725 42.87         3.5 0.40            123            202 292 
                                                                                
