 2010  420 0555 26.9 L   6.966 -73.175161.8  RSN  6 0.3 1.7LRSN                1
 GAP=141        0.47       5.6     6.9  6.9 -0.1184E+02 -0.2532E+02  0.1367E+02E
 Epicentro: GIRON - SANTANDER                                                  3
 ACTION:UP  10-08-24 10:00 OP:vdl  STATUS:               ID:20100420055525 L   I
 2010-04-20-0553-55S.COL___100                                                 6
 STAT SP IPHASW D HRMM SECON CODA AMPLIT PERI AZIMU VELO AIN AR TRES W  DIS CAZ7
 BRR  HZ EP   1    555 49.63                             158     0.3 7   61 285 
 BRR  HE ES   1    556  6.62                             158    -0.2 7   61 285 
 BRR  HZ I         556  7.53         9.6 0.13                            61 285 
 CHI  HZ EP   3    556  7.15                             118    -0.2 2  266 193 
 ROSC BZ EP   2    556  7.67                             118     0.2 4  267 208 
 MON  HN ES   2    556 52.45                             112     0.0 3  339 306 
 MON  HZ I         556 55.88         0.7 0.36                           339 306 
 SDV  BZ EP   1    556 16.55                             111     0.0 5  351  53 
 PRA  HZ EP   2    556 21.95                             108    -0.8 3  407 208 
 PRA  HE ES   2    557  6.53                             108     0.3 3  407 208 
 PRA  HZ I         557 11.13         2.4 0.34                           407 208 
                                                                                
