 2016  520 0310 13.6 L   5.808 -73.951114.4  RSN  4 0.3 1.6LRSN                1
 GAP=239        0.75       3.5     6.7  5.8 -0.9015E+00 -0.4095E+00  0.6503E+01E
 Epicentro: FLORIAN - SANTANDER                                                3
 ACTION:UPD 16-08-18 17:47 OP:cam  STATUS:               ID:20160520031013 L   I
 OLDACT:REG 16-05-20 12:28 OP:mh   STATUS:               ID:20160520030739     3
 2016-05-20-0307-39M.COL___306                                                 6
 STAT SP IPHASW D HRMM SECON CODA AMPLIT PERI AZIMU VELO AIN AR TRES W  DIS CAZ7
 SPBC HZ EP        310 29.47                             168    0.2310 21.9 218 
 SPBC HE ES        310 41.34                             168   -0.0810 21.9 218 
 SPBC HZ I         310 42.41        25.2 0.30            165           21.9 218 
 PTB  HZ EP        310 33.58                             136   -0.0110 98.3 325 
 PTB  HN ES        310 48.87                             136   -0.3010 98.3 325 
 PTB  HZ I         310 52.18         2.9 0.54            136           98.3 325 
 NOR  HZ EP        310 34.78                             134    0.5410  105 255 
 NOR  HN ES        310 50.32                             134   -0.0010  105 255 
 NOR  HZ I         310 52.53        11.3 0.46            133            105 255 
 PRA  HZ EP        310 49.40                             109   -0.51 8  254 204 
 PRA  HE ES        311 18.11                             109   -0.11 8  254 204 
 PRA  HZ I         311 21.28         1.9 0.24            109            254 204 
                                                                                
