 2011  820 0712 56.6 L   6.751 -73.118145.3  RSN  6 0.2 1.9LRSN                1
 GAP=185        0.46       2.5     5.1  4.6  0.2423E+01 -0.1223E+01 -0.2447E+00E
 Epicentro: LOS SANTOS - SANTANDER                                             3
 ACTION:UPD 12-07-13 15:52 OP:ep   STATUS:               ID:20110820071256 L   I
 2011-08-20-0709-54S.COL___150                                                 6
 STAT SP IPHASW D HRMM SECON CODA AMPLIT PERI AZIMU VELO AIN AR TRES W  DIS CAZ7
 BAR2 SZ EP        713 16.13                             172    0.0810 18.9 202 
 BAR2 SZ ES   2    713 30.71                             172   -0.55 5 18.9 202 
 BAR2 SZ I         713 32.96        30.8 0.20                          18.9 202 
 BRR  HZ IP     C  713 18.07                             151    0.1010 76.6 301 
 BRR  HZ I         713 18.33        38.7 0.15                          76.6 301 
 BRR  HN ES   1    713 34.87                             151    0.20 7 76.6 301 
 RUS  HZ EP        713 20.07                             145    0.2010 95.0 178 
 RUS  HE ES   1    713 37.98                             145   -0.07 7 95.0 178 
 RUS  HZ I         713 40.08         6.4 0.30                          95.0 178 
 OCA  SZ EP   1    713 24.93                             128   -0.45 7  166 352 
 OCA  SZ ES   2    713 47.88                             128    0.02 5  166 352 
 OCA  SZ I         713 52.89         7.7 0.46                           166 352 
 NOR  SZ EP   2    713 31.86                             118   -0.34 4  234 236 
 NOR  SN ES   2    713 59.84                             118   -0.16 4  234 236 
 CHI  HZ EP   2    713 33.72                             117   -0.03 4  244 196 
 CHI  HN ES   2    714  2.61                             117   -0.16 4  244 196 
 CHI  HZ I         714  7.10         2.3 0.40                           244 196 
                                                                                
