 2011  920 0618 26.4 L   6.754 -73.064141.7  RSN  4 0.3 1.6LRSN                1
 GAP=191        0.56       4.0     9.5  6.9  0.2226E+02 -0.3500E+02 -0.1274E+02E
 Epicentro: LOS SANTOS - SANTANDER                                             3
 ACTION:UPD 12-07-13 15:58 OP:ep   STATUS:               ID:20110920061826 L   I
 2011-09-20-0615-12S.COL___165                                                 6
 STAT SP IPHASW D HRMM SECON CODA AMPLIT PERI AZIMU VELO AIN AR TRES W  DIS CAZ7
 BAR2 SZ EP   1    618 46.10                             171    0.55 7 22.2 216 
 BAR2 SZ ES   1    619  0.39                             171   -0.08 7 22.2 216 
 BAR2 SZ I         619  1.42        10.0 0.17                          22.2 216 
 BRR  HZ EP   1    618 47.41                             148   -0.36 7 81.6 299 
 BRR  HZ I         618 49.00         9.1 0.12                          81.6 299 
 BRR  HE ES        619  4.54                             148    0.1210 81.6 299 
 RUS  HZ EP   1    618 49.30                             144   -0.10 7 95.3 181 
 RUS  HE ES   1    619  7.18                             144   -0.14 7 95.3 181 
 RUS  HZ I         619  9.19         6.2 0.40                          95.3 181 
 OCA  SZ EP   1    618 55.14                             127    0.11 7  167 350 
 OCA  SZ ES   1    619 17.15                             127   -0.20 7  167 350 
 OCA  SZ I         619 21.07         4.3 0.42                           167 350 
                                                                                
