 2016  220 0933  3.6 L   6.804 -73.113146.5  RSN 10 0.5 1.7LRSN                1
 GAP=140        1.12       3.7     4.7  7.1 -0.3399E+01  0.1293E+02  0.2177E+01E
 Epicentro: LOS SANTOS - SANTANDER                                             3
 2016-02-20-0927-45M.COL___318                                                 6
 OLDACT:UP  16-02-20 19:53 OP:ak   STATUS:               ID:20160220092745     3
 OLDACT:REG 16-02-20 13:22 OP:drio STATUS:               ID:20160220092745     3
 OLDACT:UP  16-02-20 19:55 OP:ak   STATUS:               ID:20160220092745     3
 ACTION:UPD 16-03-04 21:27 OP:rebc STATUS:               ID:20160220093303 L   I
 OLDACT:UP  16-02-20 20:22 OP:drio STATUS:               ID:20160220092747d    3
 OLDACT:DUP 16-02-20 20:15 OP:drio STATUS:               ID:20160220092747d    3
 OLDACT:UP  16-02-20 19:55 OP:ak   STATUS:               ID:20160220092745     3
 STAT SP IPHASW D HRMM SECON CODA AMPLIT PERI AZIMU VELO AIN AR TRES W  DIS CAZ7
 BAR2 EZ EP        933 23.42                             170    0.0910 24.6 198 
 BAR2 EZ ES        933 38.79                             170    0.0610 24.6 198 
 BAR2 EZ I         933 39.77        12.0 0.20            169           24.6 198 
 BRR  HZ EP        933 25.22                             152    0.2410 74.2 297 
 BRR  HE ES        933 42.22                             152    0.5510 74.2 297 
 BRR  HZ I         933 47.26         5.1 0.42            150           74.2 297 
 PAM  EZ EP        933 26.19                             152    0.4610 74.8  38 
 PAM  EN ES        933 43.23                             152    0.2310 74.8  38 
 PAM  EZ I         933 45.64         8.0 0.62            156           74.8  38 
 RUS  HZ EP        933 27.44                             144    0.0110  101 178 
 RUS  HE ES        933 45.42                             144   -0.6010  101 178 
 RUS  HZ I         933 47.25         5.4 0.32            147            101 178 
 OCA  HN ES        933 53.06                             130   -1.03 9  160 352 
 SPBC HZ EP        933 32.41                             129    0.02 9  166 220 
 SPBC HN ES        933 54.98                             129    0.13 9  166 220 
 SPBC HZ I         934  1.67         9.4 0.32            131            166 220 
 ZAR  HZ EP        933 36.12                             122   -0.29 8  207 292 
 ZAR  HE ES        934  1.85                             122   -0.15 8  207 292 
 ZAR  HZ I         934  8.00         5.5 0.28            124            207 292 
 NOR  HZ EP        933 39.88                             118    0.18 8  238 235 
 NOR  HE ES        934  6.95                             118   -0.91 8  238 235 
 NOR  HZ I         934 12.79         6.1 0.16            120            238 235 
 HEL  HN ES        934 16.69                             115    0.76 7  276 256 
 GUY2CHZ EP   4    933 49.13                             112    1.54 0  304 235 
 GUY2CHN ES        934 22.00                             112    0.10 7  304 235 
 GUY2CHZ I         934 29.90         3.9 0.30                           304 235 
                                                                                
