 2015  220 0604 44.9 L   7.459 -73.220127.5  RSN  9 0.4 1.8LRSN                1
 GAP=110        0.96       2.8     3.4  5.6  0.1004E+01  0.1648E+01  0.1968E+01E
 Epicentro: EL PLAYON - SANTANDER                                              3
 ACTION:UPD 15-04-30 21:27 OP:nd   STATUS:               ID:20150220060444 L   I
 OLDACT:REG 15-02-20 13:57 OP:mher STATUS:               ID:20150220055738     3
 2015-02-20-0557-38M.COL___287                                                 6
 STAT SP IPHASW D HRMM SECON CODA AMPLIT PERI AZIMU VELO AIN AR TRES W  DIS CAZ7
 PAM  SZ EP        6 5  4.27                             154    0.2110 59.0 103 
 PAM  SZ I         6 5  4.59        11.8 0.46            157           59.0 103 
 PAM  SN ES        6 5 19.19                             154    0.1510 59.0 103 
 BRR  HZ EP        6 5  4.11                             151    0.3110 66.8 234 
 BRR  HN ES        6 5 18.88                             151    0.3110 66.8 234 
 BRR  HZ I         6 5 20.56        13.7 0.12            150           66.8 234 
 OCA  HZ EP        6 5  5.61                             144    0.2510 86.9 353 
 OCA  HN ES        6 5 21.63                             144    0.2910 86.9 353 
 OCA  HZ I         6 5 25.33        11.2 0.22            146           86.9 353 
 BAR2 EZ EP        6 5  6.15                             141    0.0010 95.9 178 
 BAR2 EZ ES        6 5 22.15                             141   -0.6010 95.9 178 
 BAR2 EZ I         6 5 24.41         9.0 0.20            141           95.9 178 
 PTB  HZ EP        6 5 12.72                             123    0.07 9  170 233 
 PTB  HN ES        6 5 34.14                             123   -0.18 9  170 233 
 PTB  HZ I         6 5 37.14         9.5 0.16            124            170 233 
 RUS  HZ EP        6 5 13.40                             123   -0.24 9  174 175 
 SML  HZ EP        6 5 12.91                             122   -0.26 9  176 328 
 SML  HN ES        6 5 34.50                             122   -0.74 9  176 328 
 TAM  HZ EP        6 5 14.86                             119   -0.33 9  194 126 
 TAM  HZ I         6 5 15.47         6.4 0.36            121            194 126 
 TAM  HN ES        6 5 38.72                             119   -0.12 9  194 126 
 SPBC HZ EP        6 5 19.07                             116    0.94 8  221 205 
 SPBC HN ES        6 5 43.85                             116   -0.22 8  221 205 
 SPBC HZ I         6 5 52.31         4.2 0.22            117            221 205 
                                                                                
