 2017  420 0907 48.0 L   6.521 -73.597126.7  RSN  4 0.1 1.2LRSN                1
 GAP=152        0.47       3.2     2.9  4.6  0.4742E+01 -0.4694E+00  0.2746E+01E
 Epicentro: SANTA HELENA DEL OPON - SANTANDER                                  3
 ACTION:UPD 17-05-30 21:14 OP:jn   STATUS:               ID:20170420090748 L   I
 OLDACT:UP  17-04-20 17:22 OP:cog  STATUS:               ID:20170420085738     3
 OLDACT:UP  17-04-20 17:21 OP:cog  STATUS:               ID:20170420085738     3
 OLDACT:REG 17-04-20 13:52 OP:cog  STATUS:               ID:20170420085738     3
 2017-04-20-0858-00M.COL___362                                                 6
 STAT SP IPHASW D HRMM SECON CODA AMPLIT PERI AZIMU VELO AIN AR TRES W  DIS CAZ7
 BRR  HZ EP        9 8  6.55                             151   -0.2510 66.0 349 
 BRR  HE ES        9 8 21.62                             151    0.1510 66.0 349 
 BRR  HZ I         9 8 30.72         9.2 0.40            146           66.0 349 
 RUS  HZ EP        9 8  9.18                             143    0.0810 89.8 141 
 RUS  HE ES        9 8 25.52                             143   -0.0510 89.8 141 
 RUS  HZ I         9 8 26.45         1.4 0.24            150           89.8 141 
 PTB  HZ EP        9 8  9.00                             141    0.1710 95.0 271 
 PTB  HE ES        9 8 24.99                             141   -0.0910 95.0 271 
 PTB  HZ I         9 8 27.35         2.6 0.24            145           95.0 271 
 ZAR  HZ EP   9    9 8 18.02                             122    1.72 0  176 308 
 ZAR  HE ES        9 8 39.90                             121   -0.20 9  176 308 
 ZAR  HZ I         9 8 43.22         3.1 0.32            124            176 308 
                                                                                
