 2012  520 0421 30.8 L   5.973 -73.767110.2  RSN 11 0.5 1.7LRSN                1
 GAP= 82        1.29       4.7     4.5 11.8 -0.4676E+01  0.1406E+02  0.1315E+01E
 Epicentro: GUAVATA - SANTANDER                                                3
 ACTION:UP  12-07-05 12:06 OP:pat  STATUS:               ID:20120520042130 L   I
 2012-05-20-0420-00M.COL___200                                                 6
 STAT SP IPHASW D HRMM SECON CODA AMPLIT PERI AZIMU VELO SNR AR TRES W  DIS CAZ7
 RUS  HZ EP   1    421 49.52                             143     0.2 7   76  97 
 RUS  HN ES   1    422  3.32                             143    -0.4 7   76  97 
 RUS  HZ I         422  5.98         5.5 0.24                            76  97 
 BAR2 SZ EP        421 50.84                             136     0.510   94  43 
 BAR2 SZ ES   1    422  6.37                             136     0.7 7   94  43 
 BAR2 SZ I         422  8.36        51.3 0.21                            94  43 
 PTB  HZ EP   1    421 49.34                             134    -1.1 7   99 309 
 PTB  HN ES   1    422  5.70                             134    -0.1 7   99 309 
 PTB  HZ I         422  6.69         6.9 0.12                            99 309 
 BRR  HZ I         421 53.52        17.6 0.05                           126   3 
 BRR  HN ES   1    422  9.86                             127    -0.3 7  126   3 
 NOR  SZ EP   1    421 53.96                             126     0.5 7  130 250 
 NOR  SN ES   1    422 11.50                             126     0.4 7  130 250 
 NOR  SZ I         422 13.29         3.6 0.17                           130 250 
 CHI  HE ES   1    422 14.82                             122    -0.4 7  149 179 
 CHI  HZ I         422 17.73         3.7 0.25                           149 179 
 PAM  SZ EP   1    422  0.73                             115     0.3 7  192  38 
 PAM  SN ES   1    422 23.02                             115    -0.6 7  192  38 
 HEL  HZ EP   1    422  1.55                             114     0.7 6  197 277 
 HEL  HN ES   1    422 24.93                             114     0.7 6  197 277 
 HEL  HZ I         422 28.47         3.0 0.22                           197 277 
 ZAR  HZ EP   1    422  1.25                             113    -0.3 6  207 324 
 ZAR  HN ES   1    422 24.86                             113    -0.6 6  207 324 
 ZAR  HZ I         422 27.80         8.0 0.19                           207 324 
 RREF HE ES   1    422 27.16                             112    -0.7 6  211 236 
 RREF HZ I         422 33.35         6.6 0.09                           211 236 
 PRA  HZ EP   1    422  9.54                             106    -0.3 6  279 206 
                                                                                
