 2013 1120 0135  0.8 L   6.796 -73.166136.7  RSN  5 0.5 1.3LRSN                1
 GAP=134        1.39       7.1     6.8 10.2 -0.4350E+01  0.9387E+01  0.3723E+01E
 Epicentro: LOS SANTOS - SANTANDER                                             3
 ACTION:UPD 14-01-09 16:29 OP:ep   STATUS:               ID:20131120013500 L   I
 OLDACT:REG 13-11-20 07:16 OP:nd   STATUS:               ID:20131120013000     3
 2013-11-20-0130-00M.COL___279                                                 6
 STAT SP IPHASW D HRMM SECON CODA AMPLIT PERI AZIMU VELO AIN AR TRES W  DIS CAZ7
 BAR2 SZ EP        135 19.80                             170    0.4610 22.6 185 
 BAR2 SZ ES        135 34.08                             170    0.2910 22.6 185 
 BAR2 SZ I         135 35.73         9.0 0.54            174           22.6 185 
 BRR  HZ EP        135 21.82                             151    0.9310 69.4 300 
 BRR  HN ES        135 36.86                             151    0.3110 69.4 300 
 BRR  HZ I         135 42.71         8.4 0.46            152           69.4 300 
 PAM  SZ EP        135 22.17                             148   -0.0210 79.2  41 
 PAM  SN ES        135 38.10                             148   -0.7610 79.2  41 
 PAM  SZ I         135 43.57         3.5 0.40            150           79.2  41 
 RUS  HZ EP        135 23.83                             142    0.1610  100 175 
 RUS  HN ES        135 41.26                             142   -0.2310  100 175 
 RUS  HZ I         135 42.85         1.0 0.24            148            100 175 
 PTB  HZ EP        135 25.98                             130   -0.87 9  145 259 
 PTB  HN ES        135 46.72                             130   -0.43 9  145 259 
 PTB  HZ I         135 49.57         3.5 0.20            134            145 259 
                                                                                
