 2011  620 0804 15.6 L   6.798 -73.130142.0  RSN 12 0.3 1.8LRSN                1
 GAP=157        0.61       2.8     4.8  5.1 -0.6184E+01  0.5529E+01  0.2365E+01E
 Epicentro: LOS SANTOS - SANTANDER                                             3
 ACTION:UP  11-07-14 19:06 OP:ep   STATUS:               ID:20110620080415 L   I
 2011-06-20-0802-42S.COL___140                                                 6
 STAT SP IPHASW D HRMM SECON CODA AMPLIT PERI AZIMU VELO SNR AR TRES W  DIS CAZ7
 BTL  SZ IP        8 4 34.89                             172     0.210   20 311 
 BTL  SZ ES   2    8 4 49.39                             172    -0.2 5   20 311 
 BAR2 SZ EP   1    8 4 34.67                             170    -0.1 7   24 194 
 BAR2 SZ ES   2    8 4 49.40                             170    -0.3 5   24 194 
 BAR2 SZ I         8 4 50.55        25.4 0.25                            24 194 
 BRR  HZ EP   1    8 4 36.43                             151     0.0 7   73 298 
 BRR  HN ES   2    8 4 53.61                             151     0.9 5   73 298 
 BRR  HZ I         8 4 54.63        11.0 0.18                            73 298 
 RUS  HZ EP   1    8 4 38.74                             143    -0.2 7  100 177 
 RUS  HN ES   2    8 4 57.36                             143     0.2 5  100 177 
 RUS  HZ I         8 4 58.25        10.1 0.26                           100 177 
 BRI  SZ EP   1    8 4 39.37                             141     0.3 7  108  20 
 BRI  SZ ES   2    8 4 56.53                             141    -0.9 5  108  20 
 BRI  SZ I         8 4 59.68         8.8 0.47                           108  20 
 GRA  SZ EP   1    8 4 40.43                             136     0.0 7  125  17 
 GRA  SZ ES   1    8 5  0.15                             136     0.3 7  125  17 
 GRA  SZ I         8 5  1.43         8.3 0.30                           125  17 
 OCA  SZ EP   1    8 4 43.37                             129    -0.3 7  161 353 
 OCA  SZ ES   2    8 5  5.39                             129    -0.1 5  161 353 
 OCA  SZ I         8 5 10.02         6.8 0.32                           161 353 
 NOR  SZ EP   1    8 4 51.12                             118    -0.1 6  236 235 
 NOR  SN ES   2    8 5 18.71                             118    -0.3 4  236 235 
 CHI  HZ EP   1    8 4 52.90                             116    -0.2 6  249 196 
 CHI  HN ES   1    8 5 22.52                             116     0.1 6  249 196 
 CHI  HZ I         8 5 27.55         2.9 0.17                           249 196 
 HEL  HZ EP   1    8 4 55.57                             114    -0.2 6  274 256 
 HEL  HE ES   2    8 5 26.73                             114    -0.4 4  274 256 
 HEL  HZ I         8 5 33.20         3.0 0.42                           274 256 
 RREF HZ EP   2    8 5  1.80                             110     0.1 3  323 230 
 RREF HN ES   2    8 5 37.67                             110     0.0 3  323 230 
 RREF HZ I         8 5 40.42         2.3 0.42                           323 230 
 PRA  HZ EP   1    8 5  9.68                             106     0.6 4  393 210 
 PRA  HN ES   2    8 5 50.98                             106     0.2 3  393 210 
                                                                                
