 2017 1020 0752 53.8 L   6.815 -73.148145.8  RSN  8 0.4 1.3LRSN                1
 GAP=135        1.14       4.3     4.9  7.2 -0.3882E+00  0.5837E+01  0.7511E+01E
 Epicentro: LOS SANTOS - SANTANDER                                             3
 ACTION:UPD 17-11-07 19:34 OP:rebc STATUS:               ID:20171020075253 L   I
 OLDACT:REG 17-10-20 13:18 OP:dani STATUS:               ID:20171020074738     3
 2017-10-20-0748-00M.COL___450                                                 6
 STAT SP IPHASW D HRMM SECON CODA AMPLIT PERI AZIMU VELO AIN AR TRES W  DIS CAZ7
 BAR2 EZ EP        753 13.45                             170    0.0310 24.9 189 
 BAR2 EZ ES        753 28.46                             170   -0.3010 24.9 189 
 BRR  HZ EP        753 15.12                             153    0.2710 70.2 297 
 BRR  HN ES        753 32.30                             153    1.0010 70.2 297 
 BRR  HZ I         753 33.31         4.1 0.18            154           70.2 297 
 PAM  EZ EP        753 16.38                             151    0.4710 76.3  40 
 PAM  EN ES        753 32.51                             151   -0.6810 76.3  40 
 PAM  EZ I         753 35.58         2.5 0.22            154           76.3  40 
 RUS  HZ EP        753 17.54                             143   -0.0910  102 176 
 RUS  HN ES        753 36.36                             143    0.1110  102 176 
 RUS  HZ I         753 37.13         2.7 0.16            144            102 176 
 PTB  HZ EP        753 20.07                             132   -0.66 9  148 258 
 PTB  HN ES        753 41.22                             132   -0.55 9  148 258 
 PTB  HZ I         753 43.01         1.8 0.12            133            148 258 
 SPBC HZ EP        753 22.51                             129    0.14 9  164 219 
 SPBC HN ES        753 44.94                             129    0.26 9  164 219 
 SPBC HZ I         753 49.35         3.7 0.13            130            164 219 
 ZAR  HN ES        753 51.14                             122   -0.21 9  203 292 
 CHI  HZ EP        753 31.81                             117    0.18 8  250 195 
 CHI  HN ES        754  1.10                             117   -0.06 8  250 195 
 CHI  HZ I         754  4.36         1.5 0.33            118            250 195 
                                                                                
