 2010  920 0703  5.2 L   6.806 -73.060140.6  RSN  4 0.3 1.4LRSN                1
 GAP=168        0.75       4.1     8.7 10.0 -0.2339E+01 -0.2885E+02 -0.6279E+00E
 Epicentro: LOS SANTOS - SANTANDER                                             3
 ACTION:UP  11-02-18 11:04 OP:tino STATUS:               ID:20100920070305 L   I
 2010-09-20-0701-05S.COL___121                                                 6
 STAT SP IPHASW D HRMM SECON CODA AMPLIT PERI AZIMU VELO SNR AR TRES W  DIS CAZ7
 BTL  SZ EP        7 3 24.40                             169     0.110   26 299 
 BRR  HZ EP        7 3 25.88                             149    -0.510   79 295 
 BRR  HN ES   1    7 3 43.08                             149     0.3 7   79 295 
 BRR  HZ I         7 3 45.04         7.1 0.13                            79 295 
 RUS  HZ EP        7 3 28.65                             143     0.110  101 181 
 RUS  HN ES   1    7 3 46.55                             143    -0.1 7  101 181 
 RUS  HZ I         7 3 47.81         3.8 0.29                           101 181 
 GRA  SZ EP        7 3 30.03                             137     0.310  123  13 
 GRA  SZ ES   1    7 3 48.69                             137    -0.2 7  123  13 
 GRA  SZ I         7 3 51.03         3.3 1.11                           123  13 
                                                                                
