 2011  820 0511 41.2 L   6.783 -73.049150.8  RSN  5 0.1 1.5LRSN                1
 GAP=246        0.28       2.2     4.7  3.1  0.5650E+01 -0.2304E+01  0.8966E+00E
 Epicentro: LOS SANTOS - SANTANDER                                             3
 ACTION:UPD 12-07-13 15:52 OP:ep   STATUS:               ID:20110820051141 L   I
 2011-08-20-0500-00M.COL___153                                                 6
 STAT SP IPHASW D HRMM SECON CODA AMPLIT PERI AZIMU VELO AIN AR TRES W  DIS CAZ7
 BAR2 SZ EP   1    512  1.57                             170    0.11 7 25.7 215 
 BAR2 SZ ES   2    512 17.39                             170    0.10 5 25.7 215 
 BAR2 SZ I         512 18.46         7.9 0.28                          25.7 215 
 BRR  HZ EP        512  3.48                             150    0.0010 81.6 296 
 BRR  HN ES        512 20.83                             150   -0.0410 81.6 296 
 BRR  HZ I         512 24.10         6.4 0.17                          81.6 296 
 RUS  HZ EP   1    512  5.25                             145   -0.03 7 98.5 182 
 RUS  HE ES   1    512 23.98                             145   -0.10 7 98.5 182 
 RUS  HZ I         512 26.07         3.9 0.52                          98.5 182 
 CHI  HZ EP   2    512 19.22                             118   -0.07 4  250 198 
 CHI  HN ES   1    512 49.14                             118    0.13 6  250 198 
 CHI  HZ I         512 57.20         2.4 0.29                           250 198 
 PRA  HZ EP   2    512 35.25                             107   -0.07 3  396 211 
                                                                                
