 2017  720 0340 59.0 L   6.717 -73.079150.3  RSN  4 0.4 1.4LRSN                1
 GAP=239        0.67       6.3     6.8  7.7  0.2474E+02  0.6218E+01  0.8989E-01E
 Epicentro: JORDAN - SANTANDER                                                 3
 ACTION:UPD 17-08-30 15:35 OP:rebc STATUS:               ID:20170720034059 L   I
 OLDACT:REG 17-07-20 13:09 OP:dnl  STATUS:               ID:20170720033738     3
 2017-07-20-0338-00M.COL___392                                                 6
 STAT SP IPHASW D HRMM SECON CODA AMPLIT PERI AZIMU VELO AIN AR TRES W  DIS CAZ7
 BAR2 EZ EP   2    341 18.25                             173   -0.86 5 17.9 220 
 BAR2 EZ I         341 35.63        10.4 0.84            166           17.9 220 
 BRR  HZ EP   2    341 21.22                             150   -0.09 5 82.2 302 
 BRR  HE ES        341 38.84                             150    0.1510 82.2 302 
 BRR  HZ I         341 40.08         5.7 0.44            144           82.2 302 
 RUS  HZ EP   2    341 23.43                             148    0.84 5 91.2 180 
 RUS  HN ES        341 40.92                             148   -0.0510 91.2 180 
 RUS  HZ I         341 43.09         1.8 0.20            142           91.2 180 
 PTB  HZ EP        341 26.95                             132    0.05 9  154 263 
 PTB  HE ES        341 48.49                             132   -0.14 9  154 263 
 PTB  HZ I         341 50.78         1.8 0.16            129            154 263 
                                                                                
