 2015  520 0421 47.7 L   6.766 -73.096150.5  RSN  5 0.1 1.3LRSN                1
 GAP=145        0.34       2.1     2.6  3.0 -0.2060E+01  0.5001E+00  0.5704E+00E
 Epicentro: LOS SANTOS - SANTANDER                                             3
 ACTION:UPD 15-09-10 22:05 OP:cam  STATUS:               ID:20150520042147 L   I
 OLDACT:DUP 15-05-20 17:55 OP:spq  STATUS:               ID:20150520041744d    3
 2015-05-20-0417-43M.COL___291                                                 6
 STAT SP IPHASW D HRMM SECON CODA AMPLIT PERI AZIMU VELO AIN AR TRES W  DIS CAZ7
 BAR2 EZ EP   1    422  7.95                             172    0.04 7 21.5 206 
 BAR2 EZ ES   1    422 23.80                             172    0.16 7 21.5 206 
 BAR2 EZ I         422 25.64         5.2 0.22            169           21.5 206 
 PAM  SZ EP        422 10.58                             152    0.1310 77.1  35 
 PAM  SN ES        422 28.05                             152   -0.1110 77.1  35 
 PAM  SZ I         422 28.77         2.9 0.23            156           77.1  35 
 BRR  HZ EP        422  9.64                             151   -0.1410 77.8 299 
 BRR  HN ES        422 27.03                             151    0.0510 77.8 299 
 BRR  HZ I         422 28.57         3.5 0.30            153           77.8 299 
 RUS  HE ES   1    422 30.28                             146   -0.09 7 96.6 179 
 RUS  HZ I         422 33.20         2.2 0.38            146           96.6 179 
 SPBC HZ EP   1    422 16.73                             130    0.06 7  164 221 
 SPBC HE ES   1    422 39.19                             130   -0.05 7  164 221 
 SPBC HZ I         422 42.41         4.1 0.05            131            164 221 
                                                                                
