 2012  420 0404 36.1 L   6.756 -73.170140.8  RSN  5 0.2 1.1LRSN                1
 GAP=135        0.50       3.8     3.7  6.5  0.6278E+00  0.5022E+01  0.6309E+01E
 Epicentro: LOS SANTOS - SANTANDER                                             3
 ACTION:UPD 12-07-05 11:54 OP:tino STATUS:               ID:20120420040436 L   I
 2012-04-20-0400-00M.COL___187                                                 6
 STAT SP IPHASW D HRMM SECON CODA AMPLIT PERI AZIMU VELO AIN AR TRES W  DIS CAZ7
 BAR2 SZ EP   1    4 4 55.23                             172     0.2 7   18 184 
 BRR  HZ EP   1    4 4 57.04                             152     0.3 7   71 303 
 BRR  HZ I         4 4 57.40         4.8 0.18                            71 303 
 BRR  HN ES   1    4 5 12.86                             152     0.1 7   71 303 
 PAM  SN ES   1    4 5 15.12                             148    -0.2 7   83  39 
 RUS  HZ EP   1    4 4 58.78                             144    -0.3 7   96 174 
 RUS  HZ I         4 5  0.41         1.7 0.09                            96 174 
 RUS  HN ES   1    4 5 17.05                             144     0.1 7   96 174 
 PTB  HZ EP   1    4 5  2.26                             132    -0.1 7  144 261 
 PTB  HN ES   1    4 5 22.63                             132    -0.2 7  144 261 
 PTB  HZ I         4 5 27.07         1.1 0.11                           144 261 
                                                                                
