 2014 1120 0714 11.6 L   6.738 -73.163145.5  RSN  6 0.5 1.2LRSN                1
 GAP=137        1.19       5.6     5.9  8.1 -0.8316E+01  0.6412E+01  0.4269E+01E
 Epicentro: LOS SANTOS - SANTANDER                                             3
 ACTION:UPD 14-12-19 15:45 OP:nd   STATUS:               ID:20141120071411 L   I
 OLDACT:REG 14-11-20 13:15 OP:fm   STATUS:               ID:20141120070743     3
 2014-11-20-0707-43M.COL___295                                                 6
 STAT SP IPHASW D HRMM SECON CODA AMPLIT PERI AZIMU VELO AIN AR TRES W  DIS CAZ7
 BAR2 SZ EP        714 30.64                             173   -0.4710 16.3 188 
 BAR2 SZ ES        714 46.23                             173   -0.0710 16.3 188 
 BAR2 SZ I         714 48.93         3.6 0.34            172           16.3 188 
 BRR  HZ EP        714 33.04                             152    0.1710 73.1 304 
 BRR  HN ES        714 50.25                             152    0.8310 73.1 304 
 BRR  HZ I         714 51.77         2.5 0.20            152           73.1 304 
 PAM  SZ EP        714 33.95                             149   -0.2710 83.9  38 
 PAM  SN ES        714 51.45                             149   -0.3910 83.9  38 
 PAM  SZ I         714 54.05         2.6 0.42            153           83.9  38 
 RUS  HZ EP        714 35.78                             146    0.8910 93.9 175 
 RUS  HN ES        714 53.13                             146    0.1010 93.9 175 
 RUS  HZ I         714 55.77         2.1 0.34            148           93.9 175 
 PTB  HZ EP        714 38.42                             132    0.11 9  145 261 
 PTB  HN ES        714 58.60                             132   -0.51 9  145 261 
 PTB  HZ I         715  5.37         1.6 0.30            134            145 261 
 SPBC HZ EP        714 39.41                             130   -0.10 9  157 220 
 SPBC HN ES        715  0.82                             130   -0.42 9  157 220 
 SPBC HZ I         715  5.54         2.5 0.20            132            157 220 
                                                                                
