 2014  420 0158 26.1 L   6.818 -73.129136.3  RSN  8 0.4 1.8LRSN                1
 GAP=185        1.02       3.2     5.5  8.5  0.1304E+01 -0.2041E+01 -0.7374E+01E
 Epicentro: LOS SANTOS - SANTANDER                                             3
 ACTION:UPD 14-05-13 23:09 OP:nd   STATUS:               ID:20140420015826 L   I
 OLDACT:REG 14-04-20 13:26 OP:nd   STATUS:               ID:20140420015035     3
 2014-04-20-0150-35M.COL___236                                                 6
 STAT SP IPHASW D HRMM SECON CODA AMPLIT PERI AZIMU VELO AIN AR TRES W  DIS CAZ7
 BRR  HZ EP        158 47.01                             150    0.7110 71.9 296 
 BRR  HN ES   1    159  2.05                             150    0.01 7 71.9 296 
 BRR  HZ I         159  7.97         7.0 0.56            152           71.9 296 
 RUS  HZ EP        158 48.53                             141   -0.5710  102 177 
 RUS  HN ES        159  6.96                             141   -0.0510  102 177 
 RUS  HZ I         159  9.13         4.2 0.30            150            102 177 
 PTB  HZ EP        158 52.08                             129   -0.47 9  150 258 
 PTB  HN ES        159 12.69                             129   -0.46 9  150 258 
 PTB  HZ I         159 18.97         8.4 0.22            135            150 258 
 OCA  HZ EP        158 53.88                             128    0.32 9  159 352 
 OCA  HN ES        159 14.92                             128   -0.03 9  159 352 
 OCA  HZ I         159 23.52         6.4 0.32            133            159 352 
 SPBC HZ EP        158 54.07                             126   -0.11 9  166 219 
 SPBC HN ES        159 16.69                             126    0.63 9  166 219 
 SPBC HZ I         159 21.16        10.6 0.20            133            166 219 
 ZAR  HZ EP        158 58.65                             120    0.57 9  205 291 
 ZAR  HN ES        159 22.94                             120   -0.06 9  205 291 
 ZAR  HZ I         159 29.44         7.2 0.32            125            205 291 
 SML  HZ EP        159  1.97                             115   -0.16 8  243 335 
 SML  HN ES        159 29.82                             115   -0.39 8  243 335 
 SML  HZ I         159 36.37         8.5 0.28            121            243 335 
 SJC  HZ EP   4    159 19.19                             104   -2.13 0  409 327 
 SJC  HN ES   4    159 59.32                             104   -5.05 0  409 327 
 SJC  HZ I         2 0  3.35         1.3 0.56            109            409 327 
                                                                                
