 2011 1220 0421 24.1 L   6.780 -73.057146.0  RSN  5 0.1 1.8LRSN                1
 GAP=149        0.29       2.1     3.0  2.8 -0.1310E+00  0.1545E+00 -0.8620E+00E
 Epicentro: LOS SANTOS - SANTANDER                                             3
 ACTION:UPD 12-07-13 16:17 OP:ep   STATUS:               ID:20111220042124 L   I
 2011-12-20-0420-00M.COL___192                                                 6
 STAT SP IPHASW D HRMM SECON CODA AMPLIT PERI AZIMU VELO AIN AR TRES W  DIS CAZ7
 BAR2 SZ EP        421 43.86                             170    0.0410 25.0 214 
 BAR2 SZ ES        421 59.23                             170    0.0510 25.0 214 
 BAR2 SZ I         422  0.72        11.4 0.31                          25.0 214 
 GIR2 SZ EP   2    421 44.06                             165    0.09 5 36.3 336 
 PAM  SZ EP   1    421 46.09                             152   -0.04 7 73.4  33 
 PAM  SE ES   1    422  3.28                             152   -0.02 7 73.4  33 
 BRR  HZ EP        421 45.79                             149   -0.0810 80.9 297 
 BRR  HN ES   1    422  2.86                             149    0.03 7 80.9 297 
 BRR  HN I         422  4.07        34.2 0.25                          80.9 297 
 RUS  HZ EP   2    421 47.94                             145    0.21 5 98.2 182 
 RUS  HN ES   1    422  6.01                             145   -0.13 7 98.2 182 
 RUS  HZ I         422  7.80         4.4 0.45                          98.2 182 
                                                                                
