 2010  720 0125 29.5 L   6.586 -73.486116.0  RSN  4 0.1 1.4LRSN                1
 GAP=187        0.43       5.1    11.1  7.8  0.4284E+02 -0.5222E+02 -0.1675E+02E
 Epicentro: EL CARMEN DE CHUCURI - SANTANDER                                   3
 ACTION:UPD 10-12-01 15:18 OP:pat  STATUS:               ID:20100720012529 L   I
 2010-07-20-0121-52S.COL___122                                                 6
 STAT SP IPHASW D HRMM SECON CODA AMPLIT PERI AZIMU VELO AIN AR TRES W  DIS CAZ7
 BAR2 SZ IP        125 45.94                             163     0.110   33  89 
 BAR2 SZ I         125 46.19        19.9 0.17                            33  89 
 BRR  HZ EP   1    125 46.78                             150    -0.2 7   63 337 
 BRR  HZ I         125 54.22         7.5 0.10                            63 337 
 BRR  HE ES   1    126  0.70                             150     0.1 7   63 337 
 RUS  HZ EP   1    125 49.62                             140     0.1 7   89 150 
 RUS  HE ES   2    126  4.78                             140    -0.3 5   89 150 
 RUS  HZ I         126  5.79         2.0 0.32                            89 150 
 GUE  SZ EP   1    125 54.87                             124    -0.1 7  151  24 
                                                                                
