 2011  120 0530 47.1 L   6.818 -73.441107.9  RSN  4 0.6 1.3LRSN                1
 GAP=180        1.00      10.8    16.2 17.4  0.1051E+03  0.2091E+03  0.2777E+02E
 Epicentro: SAN VICENTE DE CHUCURI - SANTANDER                                 3
 ACTION:UP  11-02-08 08:41 OP:pat  STATUS:               ID:20110120053047 L   I
 2011-01-20-0527-10S.COL___136                                                 6
 STAT SP IPHASW D HRMM SECON CODA AMPLIT PERI AZIMU VELO SNR AR TRES W  DIS CAZ7
 BAR2 SZ EP   1    531  3.25                             160     0.5 7   38 131 
 BAR2 SZ ES   1    531 15.11                             160     0.2 7   38 131 
 RUS  HZ EP   2    531  8.17                             132     0.0 5  110 159 
 RUS  HE ES   1    531 23.82                             132    -0.8 7  110 159 
 RUS  HZ I         531 25.71         6.2 0.44                           110 159 
 HEL  HZ EP   1    531 22.83                             109     0.7 6  241 253 
 HEL  HN ES   3    531 49.80                             109     0.4 2  241 253 
 HEL  HZ I         531 52.32         1.3 0.62                           241 253 
 MON  HZ EP   1    531 31.26                             102    -0.5 5  327 312 
 MON  HE ES   1    532  5.93                             102    -0.6 5  327 312 
                                                                                
