 2015  520 0357 14.8 L   6.808 -73.119149.7  RSN 18 0.4 2.2LRSN                1
 GAP= 72        0.85       2.4     2.6  4.5 -0.4122E+00  0.3211E+01  0.1422E+01E
 Epicentro: LOS SANTOS - SANTANDER                                             3
 ACTION:UPD 15-09-10 22:05 OP:cam  STATUS:               ID:20150520035714 L   I
 OLDACT:DUP 15-05-20 17:08 OP:spq  STATUS:               ID:20150520034738d    3
 2015-05-20-0347-37M.COL___291                                                 6
 STAT SP IPHASW D HRMM SECON CODA AMPLIT PERI AZIMU VELO AIN AR TRES W  DIS CAZ7
 BAR2 EZ EP        357 34.70                             170   -0.2110 24.9 196 
 BAR2 EZ ES   1    357 50.09                             170   -0.53 7 24.9 196 
 BAR2 EZ I         357 52.42        29.8 0.28            168           24.9 196 
 BRR  HZ EP        357 36.60                             152    0.1210 73.4 297 
 BRR  HE ES        357 54.06                             152    0.6610 73.4 297 
 BRR  HZ I         357 57.58        14.6 0.11            151           73.4 297 
 PAM  SZ EP        357 37.41                             152    0.1410 74.9  38 
 PAM  SN ES        357 54.80                             152   -0.0110 74.9  38 
 PAM  SZ I         357 56.86        25.3 0.20            156           74.9  38 
 RUS  HZ EP        357 38.58                             144   -0.3910  101 178 
 RUS  HE ES   1    357 57.46                             144   -0.38 7  101 178 
 RUS  HZ I         357 58.32        11.8 0.38            146            101 178 
 TAM  HZ EP        357 42.85                             132    0.31 9  153 106 
 TAM  HN ES        358  4.63                             132    0.45 9  153 106 
 TAM  HZ I         358  6.25        13.3 0.28            136            153 106 
 OCA  HZ EP        357 43.19                             131   -0.16 9  160 352 
 OCA  HN ES        358  5.41                             131   -0.23 9  160 352 
 OCA  HZ I         358 13.21        34.6 0.20            133            160 352 
 SPBC HZ EP        357 43.68                             129   -0.14 9  166 220 
 SPBC HE ES        358  6.63                             129    0.16 9  166 220 
 SPBC HZ I         358 10.77        32.9 0.18            130            166 220 
 ZAR  HZ EP        357 47.55                             123   -0.18 8  206 292 
 ZAR  HE ES        358 13.09                             123   -0.34 8  206 292 
 ZAR  HZ I         358 18.25        22.3 0.48            123            206 292 
 NOR  HZ EP        357 50.92                             119   -0.13 8  238 235 
 NOR  HN ES        358 19.01                             119   -0.33 8  238 235 
 NOR  HZ I         358 25.88        14.6 0.20            120            238 235 
 SML  HZ EP        357 51.04                             118   -0.64 8  244 335 
 SML  HE ES   1    358 20.74                             118    0.28 6  244 335 
 SML  HZ I         358 25.69        26.2 0.08            120            244 335 
 CHI  HZ EP   1    357 52.47                             118   -0.41 6  250 196 
 CHI  HN ES   1    358 22.38                             118   -0.21 6  250 196 
 CHI  HZ I         358 26.13         7.8 0.42            119            250 196 
 ROSC BZ EP   4    357 54.68                             117    1.32 0  255 211 
 ROSC BN ES   4    358 25.55                             117    2.09 0  255 211 
 ROSC BZ I         358 32.53        16.3 0.40            118            255 211 
 HEL  HZ EP   1    357 56.06                             115    0.53 6  275 256 
 HEL  HN ES   1    358 27.69                             115    0.37 6  275 256 
 HEL  HZ I         358 33.41         8.2 0.36            116            275 256 
 GUY2CHZ EP        357 59.85                             113    0.95 7  304 235 
 GUY2CHE ES   4    358 36.72                             113    3.41 0  304 235 
 GUY2CHZ I         358 41.57        13.2 0.76                           304 235 
 PTGC HZ EP   4    357 57.54                             112   -1.25 0  308 159 
 CBOC HZ EP        358  2.39                             110    0.18 7  337 252 
 CBOC HN ES   1    358 40.17                             110    0.97 5  337 252 
 CBOC HZ I         358 47.81         2.7 0.40            111            337 252 
 MON  HZ EP   4    358  1.92                             109   -2.22 0  355 308 
 MON  HN ES   4    358 40.81                             109   -1.83 0  355 308 
 MON  HZ I         358 43.09         3.8 0.40            110            355 308 
 ORTC HZ EP        358  9.04                             107   -0.08 6  398 216 
 ORTC HN ES   4    358 53.06                             107    1.55 0  398 216 
 ORTC HZ I         358 59.35         5.3 0.24            108            398 216 
 SJC  HZ EP   4    358  8.91                             106   -1.67 0  410 327 
 SJC  HN ES   4    358 50.22                             106   -3.87 0  410 327 
 SJC  HZ I         358 56.12         1.8 0.13            107            410 327 
                                                                                
