 2017 1120 0335  9.0 L   5.975 -73.666115.1  RSN  8 0.4 1.3LRSN                1
 GAP=110        0.99       3.5     3.4  6.4 -0.1801E+01  0.6801E+01  0.7366E+00E
 Epicentro: VELEZ - SANTANDER                                                  3
 ACTION:UPD 17-12-12 19:57 OP:rebc STATUS:               ID:20171120033509 L   I
 OLDACT:DUP 17-11-20 17:30 OP:osc  STATUS:               ID:20171120032746d    3
 2017-11-20-0328-00M.COL___474                                                 6
 STAT SP IPHASW D HRMM SECON CODA AMPLIT PERI AZIMU VELO AIN AR TRES W  DIS CAZ7
 SPBC HZ EP        335 26.00                             152   -0.2410 57.5 232 
 SPBC HN ES        335 39.72                             152    0.0710 57.5 232 
 SPBC HZ I         335 41.75         7.0 0.44            152           57.5 232 
 RUS  HZ EP        335 27.02                             149   -0.2610 65.2  98 
 RUS  HN ES        335 41.53                             149    0.0210 65.2  98 
 RUS  HZ I         335 43.00         3.1 0.26            152           65.2  98 
 BAR2 EZ EP        335 28.57                             141    0.1210 86.7  38 
 BAR2 EZ ES        335 43.90                             141    0.3210 86.7  38 
 BAR2 EZ I         335 44.69        10.8 0.42            144           86.7  38 
 PTB  HZ EP        335 29.41                             134   -0.4510  107 306 
 PTB  HN ES        335 45.54                             134   -0.5610  107 306 
 PTB  HZ I         335 48.56         1.5 0.30            136            107 306 
 NOR  HZ EP        335 33.02                             125   -0.04 9  141 251 
 NOR  HN ES        335 52.34                             125    0.54 9  141 251 
 NOR  HZ I         335 55.16         2.7 0.18            127            141 251 
 GUY2CHN ES   2    336  5.19                             115    0.19 4  206 246 
 ZAR  HZ EP        335 40.40                             114   -0.33 8  213 322 
 ZAR  HE ES        336  6.14                             114    0.70 8  213 322 
 PRA  HZ EP        335 49.78                             107    0.86 7  284 208 
 PRA  HN ES        336 19.56                             107   -0.45 7  284 208 
 PRA  HZ I         336 23.44         1.6 0.30            108            284 208 
                                                                                
