 2014  320 0047  8.7 L   6.762 -73.136146.9  RSN 13 0.4 2.1LRSN                1
 GAP=139        0.89       2.9     3.8  5.3 -0.1273E+01  0.4043E+01  0.1486E+01E
 Epicentro: LOS SANTOS - SANTANDER                                             3
 OLDACT:DUP 14-03-20 08:20 OP:fm   STATUS:               ID:20140320003813d    3
 ACTION:UPD 14-04-09 23:19 OP:nd   STATUS:               ID:20140320004708 L   I
 OLDACT:UP  14-03-20 08:40 OP:fm   STATUS:               ID:20140320003813d    3
 2014-03-20-0038-12M.COL___238                                                 6
 STAT SP IPHASW D HRMM SECON CODA AMPLIT PERI AZIMU VELO AIN AR TRES W  DIS CAZ7
 BAR2 SZ EP        047 28.35                             172   -0.0710 19.5 195 
 BAR2 SZ ES   1    047 43.93                             172    0.14 7 19.5 195 
 BAR2 SZ I         047 44.97        35.1 0.32            168           19.5 195 
 BRR  HZ EP        047 30.34                             152    0.1710 74.2 301 
 BRR  HN ES        047 47.40                             152    0.5110 74.2 301 
 BRR  SZ I         047 54.63        10.7 0.14            149           74.2 301 
 PAM  SZ EP        047 31.18                             150   -0.0410 80.0  37 
 PAM  SN ES        047 48.64                             150   -0.1310 80.0  37 
 PAM  SZ I         047 50.42        16.7 0.30            156           80.0  37 
 RUS  HZ EP        047 32.20                             145   -0.0910 96.4 176 
 RUS  HN ES        047 50.52                             145   -0.1510 96.4 176 
 RUS  SZ I         047 52.25         9.4 0.42            147           96.4 176 
 PTB  HZ EP        047 35.43                             132   -0.38 9  148 260 
 PTB  HN ES        047 56.37                             132   -0.57 9  148 260 
 PTB  SZ I         048  2.16        13.9 0.24            132            148 260 
 SPBC HZ EP   1    047 36.74                             130   -0.33 7  161 220 
 SPBC HE ES   1    047 59.00                             130   -0.18 7  161 220 
 SPBC SZ I         048  4.34        18.8 0.28            130            161 220 
 ZAR  HE ES   1    048  6.62                             122   -0.46 6  207 293 
 NOR  HZ EP        047 44.69                             119    0.33 8  233 235 
 NOR  HN ES        048 12.72                             119    0.57 8  233 235 
 NOR  SZ I         048 20.68         8.4 0.14            120            233 235 
 CHI  HZ EP        047 46.84                             118    0.76 8  245 196 
 CHI  HN ES        048 15.16                             118   -0.06 8  245 196 
 CHI  SZ I         048 17.04         4.7 2.00            120            245 196 
 SML  HZ EP        047 45.31                             117   -0.56 8  248 335 
 SML  HN ES   1    048 15.68                             117    0.83 6  248 335 
 SML  SZ I         048 17.04        19.9 0.08            119            248 335 
 HEL  HZ EP   4    047 50.63                             115    1.63 0  272 257 
 HEL  HN ES   4    048 18.37                             115   -2.04 0  272 257 
 HEL  SZ I         048 24.90         5.9 1.54            116            272 257 
 GUY2CHZ EP   4    047 54.87                             113    2.66 0  300 236 
 GUY2CHN ES   4    048 31.14                             113    5.00 0  300 236 
 GUY2CSZ I         048 34.95         8.3 0.42                           300 236 
 RREF HZ EP   4    047 51.78                             111   -2.92 0  320 230 
 RREF HN ES   4    048 33.00                             111    2.44 0  320 230 
 RREF SZ I         048 37.28         6.6 1.00            113            320 230 
                                                                                
