 2010 1220 0707  9.7 L   6.750 -72.971142.0  RSN  4 0.3 1.3LRSN                1
 GAP=179        0.73       6.8    50.8 16.9  0.1690E+03 -0.5814E+03 -0.6445E+02E
 Epicentro: CEPITA - SANTANDER                                                 3
 ACTION:UP  11-01-14 15:26 OP:pat  STATUS:               ID:20101220070709 L   I
 2010-12-20-0703-27S.COL___133                                                 6
 STAT SP IPHASW D HRMM SECON CODA AMPLIT PERI AZIMU VELO SNR AR TRES W  DIS CAZ7
 BAR2 SZ EP   1    7 7 28.51                             169    -0.5 7   29 233 
 BAR2 SZ ES   2    7 7 43.86                             169    -0.2 5   29 233 
 BAR2 SZ I         7 7 44.29         5.5 0.37                            29 233 
 RUS  HZ EP   1    7 7 32.90                             145     0.2 7   96 187 
 RUS  HN ES   1    7 7 50.94                             145     0.3 7   96 187 
 RUS  HZ I         7 7 51.84         2.6 0.42                            96 187 
 GRA  SZ EP   2    7 7 34.65                             136    -0.1 5  127   8 
 GRA  SZ I         7 7 59.68         3.1 0.22                           127   8 
 OCA  SZ ES   2    7 8  1.68                             128     0.6 5  169 347 
                                                                                
