 2015  120 0459 43.3 L   6.816 -73.139146.0  RSN 15 0.5 2.1LRSN                1
 GAP= 71        1.24       3.1     3.4  5.9 -0.8938E+00  0.5481E+01  0.2509E+01E
 Epicentro: LOS SANTOS - SANTANDER                                             3
 ACTION:UPD 15-03-02 15:40 OP:nd   STATUS:               ID:20150120045943 L   I
 OLDACT:REG 15-01-20 17:15 OP:carl STATUS:               ID:20150120045746     3
 2015-01-20-0457-46M.COL___256                                                 6
 STAT SP IPHASW D HRMM SECON CODA AMPLIT PERI AZIMU VELO AIN AR TRES W  DIS CAZ7
 BAR2 EZ IP     D  5 0  2.82                             170   -0.1510 25.2 191 
 BAR2 EZ ES        5 0 17.94                             170   -0.3910 25.2 191 
 BAR2 EZ I         5 0 20.53        22.3 0.28            169           25.2 191 
 BRR  HZ IP     D  5 0  4.68                             153    0.2510 71.0 297 
 BRR  HN ES        5 0 22.12                             153    1.1810 71.0 297 
 BRR  HZ I         5 0 26.53        18.5 0.20            153           71.0 297 
 PAM  SZ EP        5 0  5.79                             152    0.3810 75.6  40 
 PAM  SN ES        5 0 22.86                             152    0.1910 75.6  40 
 PAM  SZ I         5 0 23.92        18.4 0.18            150           75.6  40 
 RUS  HZ EP        5 0  6.71                             143   -0.4610  102 177 
 RUS  HN ES        5 0 25.70                             143   -0.1010  102 177 
 RUS  HZ I         5 0 26.34         9.2 0.26            142            102 177 
 PTB  HZ EP        5 0  9.41                             132   -0.94 9  149 258 
 PTB  HN ES        5 0 31.04                             132   -0.43 9  149 258 
 PTB  HZ I         5 0 33.93        16.6 0.34            131            149 258 
 TAM  HZ EP        5 0 11.06                             131    0.11 9  155 106 
 TAM  HZ I         5 0 31.73        13.6 0.28            129            155 106 
 TAM  HN ES        5 0 33.00                             131    0.47 9  155 106 
 OCA  HN ES        5 0 32.95                             130   -0.47 9  159 353 
 OCA  HZ I         5 0 39.34        11.2 0.28            129            159 353 
 SPBC HZ EP        5 0 11.74                             129   -0.22 9  165 219 
 SPBC HN ES        5 0 33.55                             129   -0.78 9  165 219 
 SPBC HZ I         5 0 40.18        24.2 0.10            128            165 219 
 ZAR  HZ EP        5 0 15.46                             123   -0.27 9  204 292 
 ZAR  HN ES        5 0 41.04                             123   -0.01 9  204 292 
 ZAR  HZ I         5 0 47.01        21.4 0.68            122            204 292 
 NOR  HZ EP        5 0 18.91                             118   -0.27 8  236 234 
 NOR  HN ES        5 0 47.29                             118    0.10 8  236 234 
 NOR  HZ I         5 0 52.36        15.1 0.28            118            236 234 
 SML  HZ EP        5 0 19.74                             118   -0.03 8  242 335 
 SML  HN ES        5 0 47.65                             118   -0.59 8  242 335 
 SML  HZ I         5 0 50.50        18.2 0.34            117            242 335 
 CHI  HZ EP        5 0 20.87                             117   -0.31 8  250 195 
 CHI  HE ES        5 0 50.99                             117    0.24 8  250 195 
 CHI  HZ I         5 0 59.89         3.7 0.26            116            250 195 
 HEL  HZ EP        5 0 23.87                             115    0.25 8  273 255 
 HEL  HN ES        5 0 56.50                             115    1.41 8  273 255 
 HEL  HZ I         5 1  1.50         8.2 0.26            114            273 255 
 GUY2CHZ EP        5 0 27.59                             112    0.52 7  303 235 
 GUY2CHN ES        5 1  1.43                             112    0.20 7  303 235 
 GUY2CHZ I         5 1  9.42         9.2 0.60                           303 235 
 TOL  SZ EP        5 0 32.44                             109    0.71 7  345 225 
 TOL  SN ES        5 1  9.88                             109    0.35 7  345 225 
                                                                                
