 2012  420 0716 21.6 L   6.772 -73.168144.5  RSN  8 0.4 1.8LRSN                1
 GAP=135        0.88       4.9     4.8  7.0 -0.2836E+01  0.9454E+01 -0.2476E+01E
 Epicentro: LOS SANTOS - SANTANDER                                             3
 ACTION:UPD 12-07-05 11:54 OP:tino STATUS:               ID:20120420071621 L   I
 2012-04-20-0710-00M.COL___187                                                 6
 STAT SP IPHASW D HRMM SECON CODA AMPLIT PERI AZIMU VELO AIN AR TRES W  DIS CAZ7
 BAR2 SZ EP   1    716 41.06                             172     0.0 7   20 185 
 BAR2 SZ ES   1    716 55.85                             172    -0.3 7   20 185 
 BAR2 SZ I         716 57.92        21.9 0.18                            20 185 
 BRR  HZ EP   1    716 43.05                             152     0.5 7   71 302 
 BRR  HN ES   1    716 59.63                             152     0.7 7   71 302 
 BRR  HZ I         717  4.74        14.6 0.13                            71 302 
 PAM  SZ EP   1    716 44.15                             149     0.2 7   81  39 
 PAM  SZ I         716 44.56         9.0 0.20                            81  39 
 PAM  SN ES   1    717  0.76                             149    -0.6 7   81  39 
 RUS  HZ EP   1    716 45.22                             144     0.2 7   98 174 
 RUS  HN ES   1    717  3.32                             144     0.0 7   98 174 
 RUS  HZ I         717  5.65         5.4 0.40                            98 174 
 PTB  HZ EP   1    716 47.92                             132    -0.3 7  145 260 
 PTB  HN ES   1    717  8.67                             132    -0.3 7  145 260 
 PTB  HZ I         717 15.90         4.1 0.15                           145 260 
 OCA  SZ EP   1    716 50.38                             129     0.3 7  163 354 
 ZAR  HZ EP   1    716 53.66                             122    -0.2 6  203 293 
 ZAR  HN ES   1    717 18.66                             122    -0.4 6  203 293 
 ZAR  HZ I         717 24.53         8.3 0.29                           203 293 
 NOR  SZ EP   1    716 56.19                             119    -0.7 6  231 235 
 NOR  SN ES   1    717 24.82                             119     0.5 6  231 235 
                                                                                
