 2013  520 0453 58.4 L   6.821 -73.126147.5  RSN 23 0.5 2.6LRSN 3.1WRSN        1
 SPEC AVERAGE  MO 13.7 ST  4.6 OM  1.9 f0 4.22 R0.4872 AL 1.64 WI 23.0 MW  3.1 3
 SPEC SD       MO  0.3 ST  6.6 OM  0.5 f0 1.13 R0.1557 AL      WI      MW  0.2 3
 GAP= 48        0.96       2.1     2.6  3.7 -0.8980E+00  0.1329E+01  0.4685E+00E
 Epicentro: LOS SANTOS - SANTANDER                                             3
 SPEC COD HH N MO 13.3 ST0.357 OM  1.1 f0 2.96 R0.6500 AL 1.17 WI 16.7 MW  2.8 3
 SPEC COD HH N T 45524 K 0.050 GD  376 VS 5.20 DE 3.20 Q0750.0 QA 1.50 VS 5.20 3
 SPEC PRA HH N MO 13.4 ST  1.4 OM  1.1 f0 4.53 R0.4247 AL 1.87 WI 16.2 MW  2.9 3
 SPEC PRA HH N T 45533 K 0.050 GD  421 VS 5.20 DE 3.20 Q0750.0 QA 1.50 VS 5.20 3
 SPECGUY2CHH N MO 13.6 ST0.918 OM  1.4 f0 3.46 R0.5556 AL 2.06 WI 25.3 MW  3.0 3
 SPECGUY2CHH N T 45518 K 0.050 GD  336 VS 5.20 DE 3.20 Q0750.0 QA 1.50 VS 5.20 3
 SPEC HEL HH N MO 13.8 ST0.552 OM  1.6 f0 2.48 R0.7758 AL 1.27 WI 30.7 MW  3.1 3
 SPEC HEL HH N T 45511 K 0.050 GD  312 VS 5.20 DE 3.20 Q0750.0 QA 1.50 VS 5.20 3
 SPEC NOR HH N MO 14.3 ST 22.2 OM  2.2 f0 5.56 R0.3460 AL 2.64 WI 22.0 MW  3.5 3
 SPEC NOR HH N T 455 1 K 0.050 GD  280 VS 5.20 DE 3.20 Q0750.0 QA 1.50 VS 5.20 3
 SPEC PTB HH N MO 13.9 ST  4.2 OM  1.9 f0 4.42 R0.4353 AL 0.74 WI 27.0 MW  3.2 3
 SPEC PTB HH N T 45446 K 0.050 GD  210 VS 5.20 DE 3.20 Q0750.0 QA 1.50 VS 5.20 3
 SPEC RUS HH N MO 13.5 ST  1.6 OM  1.6 f0 4.29 R0.4485 AL 1.38 WI 26.3 MW  3.0 3
 SPEC RUS HH N T 45440 K 0.050 GD  179 VS 5.20 DE 3.20 Q0750.0 QA 1.50 VS 5.20 3
 SPEC PAM SH N MO 13.3 ST  2.3 OM  1.4 f0 5.79 R0.3323 AL 2.00 WI 14.8 MW  2.8 3
 SPEC PAM SH N T 45437 K 0.050 GD  165 VS 5.20 DE 3.20 Q0750.0 QA 1.50 VS 5.20 3
 SPEC BRR HH E MO 14.2 ST  7.8 OM  2.3 f0 4.35 R0.4423 AL 2.87 WI 21.8 MW  3.4 3
 SPEC BRR HH E T 45436 K 0.050 GD  164 VS 5.20 DE 3.20 Q0750.0 QA 1.50 VS 5.20 3
 SPEC BAR2SH Z MO 13.4 ST0.830 OM  1.6 f0 3.63 R0.5300 AL 0.83 WI 31.3 MW  2.9 3
 SPEC BAR2SH Z T 45432 K 0.050 GD  149 VS 5.20 DE 3.20 Q0750.0 QA 1.50 VS 5.20 3
 ACTION:UPD 13-06-20 09:52 OP:ep   STATUS:               ID:20130520045358 L   I
 2013-05-20-0448-50M.COL___214                                                 6
 STAT SP IPHASW D HRMM SECON CODA AMPLIT PERI AZIMU VELO AIN AR TRES W  DIS CAZ7
 BAR2 SZ EP        454 18.25                             170   -0.0710 26.0 194 
 BAR2 SZ ES        454 33.36                             170   -0.4810 26.0 194 
 BAR2 SZ I         454 34.80        71.7 0.28            168           26.0 194 
 GIR2 SZ EP        454 18.36                             168    0.1010 29.5 345 
 GIR2 SZ ES        454 33.81                             168    0.0810 29.5 345 
 GIR2 SZ I         454 34.99        35.6 0.20            168           29.5 345 
 BRR  HN ES        454 36.76                             152    0.2710 72.0 296 
 BRR  HE I         454 37.81       218.8 0.36            151           72.0 296 
 PAM  SZ EP        454 21.32                             152    0.6810 74.3  39 
 PAM  SN ES        454 37.72                             152   -0.2510 74.3  39 
 PAM  SN I         454 40.52        54.5 0.42            154           74.3  39 
 RUS  HZ EP        454 22.28                             143   -0.2210  103 177 
 RUS  HE ES        454 41.10                             143   -0.1810  103 177 
 RUS  HN I         454 42.87        45.7 0.24            143            103 177 
 CAPV BZ EP        454 26.29                             133    0.61 9  146  38 
 CAPV BZ ES   1    454 47.24                             133    0.30 7  146  38 
 PTB  HZ EP   1    454 24.99                             132   -0.77 7  150 258 
 PTB  HN ES   4    454 45.13                             132   -1.96 0  150 258 
 PTB  HN I         454 51.34       120.2 0.42            131            150 258 
 TAM  HZ IP     D  454 26.72                             131    0.61 9  154 106 
 TAM  HZ I         454 27.06        14.3 0.16            133            154 106 
 TAM  HE ES        454 47.79                             131    0.09 9  154 106 
 OCA  HE I         454 51.73       108.1 0.26            131            158 352 
 YOP  SZ EP        454 29.02                             126    0.32 9  180 154 
 YOP  SN ES        454 52.40                             126    0.09 9  180 154 
 YOP  SN I         454 56.60        64.6 0.36            127            180 154 
 ZAR  HZ EP        454 30.87                             122   -0.23 9  205 291 
 NOR  HZ EP        454 34.53                             118   -0.05 8  238 234 
 NOR  HN ES        455  2.42                             118   -0.36 8  238 234 
 SML  HZ EP        454 34.53                             118   -0.49 8  243 335 
 SML  HN ES        455  2.92                             118   -0.65 8  243 335 
 SML  HN I         455  9.35        76.7 0.10            118            243 335 
 CHI  HZ EP        454 36.66                             117    0.14 8  251 196 
 CHI  HZ I         454 37.39        14.4 0.22            117            251 196 
 CHI  HN ES        455  5.98                             117   -0.25 8  251 196 
 HEL  HZ EP        454 38.99                             115   -0.03 8  275 255 
 HEL  HN ES        455 11.44                             115    0.76 8  275 255 
 HEL  HN I         455 16.86        19.9 0.26            115            275 255 
 SOCV BZ EP        454 40.70                             113   -0.51 7  298  57 
 SOCV BZ ES   4    455 12.04                             113   -2.54 0  298  57 
 GUY2CHZ EP        454 43.47                             112    1.01 7  304 235 
 GUY2CHN ES   4    455 19.63                             112    2.83 0  304 235 
 GUY2CHN I         455 28.12        22.8 0.56                           304 235 
 VIL  SZ EP        454 41.95                             112   -0.27 7  306 192 
 VIL  SE ES        455 16.04                             112   -0.34 7  306 192 
 VIL  SN I         455 30.31        38.6 0.40            112            306 192 
 RREF HZ EP   4    454 47.54                             111    2.55 0  325 229 
 RREF HN ES   1    455 22.13                             111    0.81 5  325 229 
 RREF HZ I         455 25.46        17.4 0.28            111            325 229 
 COD  HZ EP        454 47.09                             109    0.46 6  346 354 
 COD  HN ES        455 24.38                             109    0.15 6  346 354 
 COD  HN I         455 27.83         7.3 0.32            110            346 354 
 SDV  BZ EP   1    454 47.84                             109   -0.33 5  357  50 
 SDV  BZ I         454 48.73         4.2 0.35            109            357  50 
 SDV  BN ES   1    455 25.84                             109   -1.14 5  357  50 
 PRA  HZ EP        454 51.93                             107   -0.43 6  395 210 
 PRA  HN ES        455 34.24                             107   -0.19 6  395 210 
 PRA  HE I         455 39.48        27.1 0.44            107            395 210 
 ELOV BZ EP        454 52.57                             106   -0.67 6  403  87 
                                                                                
