 2010 1120 0628 35.9 L   6.793 -73.141144.2  RSN 17 0.4 3.0LRSN                1
 GAP=159        0.79       2.6     4.5  4.7 -0.4758E+01  0.4690E+01  0.1468E+01E
 Epicentro: LOS SANTOS - SANTANDER                                             3
 ACTION:UP  10-12-17 16:53 OP:REBC STATUS:               ID:20101120062835 L   I
 2010-11-20-0626-34S.COL___132                                                 6
 STAT SP IPHASW D HRMM SECON CODA AMPLIT PERI AZIMU VELO SNR AR TRES W  DIS CAZ7
 BAR2 SZ IP        628 55.32                             171    -0.110   23 192 
 BAR2 SZ ES   1    629 10.63                             171     0.1 7   23 192 
 BAR2 SZ I         629 12.78       223.9 0.24                            23 192 
 GIR2 SZ IP        628 55.35                             167    -0.110   32 350 
 GIR2 SZ ES   1    629 10.67                             167     0.0 7   32 350 
 BRR  HZ IP     C  628 57.10                             152     0.110   72 299 
 BRR  HZ I         628 57.33       393.8 0.11                            72 299 
 BRR  HN ES   1    629 13.73                             152     0.4 7   72 299 
 RUS  HZ IP     C  628 59.31                             144    -0.210  100 176 
 RUS  HE ES   1    629 17.46                             144    -0.4 7  100 176 
 RUS  HZ I         629 20.38       106.0 0.36                           100 176 
 GUE  SZ EP        629  0.44                             139    -0.110  117  12 
 GRA  SZ IP        629  1.14                             136     0.110  126  17 
 GRA  SZ ES   1    629 20.77                             136     0.1 7  126  17 
 GRA  SZ I         629 25.46        61.0 0.32                           126  17 
 OCA  SZ EP        629  3.91                             129    -0.3 9  161 353 
 OCA  SZ ES   1    629 26.49                             129     0.2 7  161 353 
 OCA  SZ I         629 30.15       105.3 0.42                           161 353 
 NOR  SZ EP   1    629 11.01                             118    -0.6 6  235 235 
 NOR  SE ES   1    629 39.70                             118     0.3 6  235 235 
 CHI  HZ EP   1    629 13.38                             117    -0.1 6  248 195 
 CHI  HE ES   1    629 42.89                             117     0.1 6  248 195 
 CHI  HZ I         629 46.07        76.2 0.45                           248 195 
 ROSC BZ EP        629 14.88                             116     1.0 8  252 211 
 ROSC BN ES   1    629 43.45                             116    -0.1 6  252 211 
 ROSC BZ I         629 50.34        78.1 0.28                           252 211 
 HEL  HZ EP   1    629 16.28                             114     0.2 6  272 256 
 HEL  HE ES   1    629 46.50                             114    -0.9 6  272 256 
 HEL  HZ I         629 54.86        64.9 0.55                           272 256 
 GUY  SN ES   2    629 52.96                             112    -0.5 4  301 235 
 VIL  SZ EP   2    629 18.74                             112    -0.3 4  301 190 
 VIL  SZ I         629 57.05        36.6 0.25                           301 190 
 GUY  SZ EP   2    629 19.96                             112     0.5 4  301 235 
 GUY  SZ I         630  3.94        82.9 0.41                           301 235 
 VIL  SE ES   2    629 52.33                             112    -0.3 4  301 190 
 RREF HZ EP   1    629 22.71                             110     0.7 5  322 230 
 RREF HE ES   2    629 57.75                             110    -0.2 3  322 230 
 RREF HZ I         630  7.48        43.7 0.15                           322 230 
 DBB  SZ EP   1    629 22.90                             109    -0.5 5  340 274 
 DBB  SZ I         630  1.23         9.7 0.34                           340 274 
 TOL  SZ EP   1    629 24.47                             109     0.4 5  343 225 
 PRA  HN ES   2    630 11.56                             106     0.5 3  392 210 
 PRA  HZ I         630 15.70       137.3 0.23                           392 210 
                                                                                
