 2011 1020 0458  3.1 L   6.314 -73.636114.4  RSN  4 0.2 1.3LRSN                1
 GAP=187        0.43       6.9     7.9  9.1  0.4262E+02  0.5628E+02  0.3254E+02E
 Epicentro: SANTA HELENA DEL OPON - SANTANDER                                  3
 ACTION:UPD 12-07-13 16:04 OP:ep   STATUS:               ID:20111020045803 L   I
 2011-10-20-0453-14S.COL___167                                                 6
 STAT SP IPHASW D HRMM SECON CODA AMPLIT PERI AZIMU VELO AIN AR TRES W  DIS CAZ7
 BAR2 SZ EP   1    458 20.76                             151    0.29 9 58.8  58 
 BAR2 SZ ES   2    458 34.22                             151    0.17 6 58.8  58 
 BAR2 SZ I         458 35.07        10.3 0.25                          58.8  58 
 RUS  HZ EP   2    458 22.12                             144    0.10 6 76.9 127 
 RUS  HZ I         458 22.28         1.6 0.40                          76.9 127 
 RUS  HN ES   2    458 36.57                             144   -0.24 6 76.9 127 
 BRR  HZ EP   1    458 21.92                             139   -0.26 9 88.1 355 
 BRR  HZ I         458 22.20         4.2 0.10                          88.1 355 
 BRR  HN ES   2    458 36.90                             139   -0.18 6 88.1 355 
 ZAR  HZ EP        458 31.82                             117   -0.0610  188 314 
 ZAR  HZ I         458 33.28         2.5 0.23                           188 314 
 ZAR  HE ES   2    458 54.71                             117    0.35 5  188 314 
                                                                                
