 2017 1020 0157 15.3 L   6.800 -73.187140.6  RSN  4 0.1 0.8LRSN                1
 GAP=131        0.37       2.2     2.5  4.3 -0.1484E+01  0.4860E+01 -0.1072E+01E
 Epicentro: ZAPATOCA - SANTANDER                                               3
 ACTION:UPD 17-11-07 19:34 OP:rebc STATUS:               ID:20171020015715 L   I
 OLDACT:UP  17-10-23 13:30 OP:nlst STATUS:               ID:20171020015715 L   3
 OLDACT:DUP 17-10-20 14:00 OP:dani STATUS:               ID:20171020014740d    3
 OLDACT:REG 17-10-20 12:46 OP:dani STATUS:               ID:20171020014739     3
 2017-10-20-0148-00M.COL___462                                                 6
 STAT SP IPHASW D HRMM SECON CODA AMPLIT PERI AZIMU VELO AIN AR TRES W  DIS CAZ7
 BRR  HZ EP        157 35.83                             153    0.1910 67.2 300 
 BRR  HN ES   4    157 47.43                             153   -4.10 0 67.2 300 
 PAM  EZ EP        157 37.15                             149    0.0210 80.3  42 
 PAM  EE ES        157 54.09                             149   -0.0810 80.3  42 
 RUS  HZ EP        157 38.43                             143   -0.1310  101 173 
 RUS  HN ES        157 56.80                             143    0.0910  101 173 
 RUS  HZ I         157 58.57         0.9 0.23            145            101 173 
 PTB  HZ EP        157 41.37                             132   -0.05 9  143 258 
 PTB  HE ES   1    158  1.72                             132   -0.09 7  143 258 
 PTB  HZ I         158  5.07         0.8 0.24            133            143 258 
                                                                                
