 2012  720 0536  6.8 L   6.794 -73.287123.5  RSN  8 0.3 1.8LRSN                1
 GAP=154        0.70       3.1     4.4  5.5  0.2334E+01  0.7535E+01  0.1833E+00E
 Epicentro: ZAPATOCA - SANTANDER                                               3
 ACTION:UPD 12-08-14 11:46 OP:ep   STATUS:               ID:20120720053606 L   I
 2012-07-20-0530-00M.COL___215                                                 6
 STAT SP IPHASW D HRMM SECON CODA AMPLIT PERI AZIMU VELO AIN AR TRES W  DIS CAZ7
 BAR2 SZ EP   1    536 24.11                             168     0.3 7   25 153 
 BAR2 SZ ES   1    536 37.04                             168     0.0 7   25 153 
 BAR2 SZ I         536 38.10        38.3 0.30            168             25 153 
 BRR  HZ EP        536 24.97                             153     0.110   58 306 
 BRR  HE ES   1    536 39.32                             153     0.4 7   58 306 
 BRR  HZ I         536 42.36        14.5 0.18            151             58 306 
 RUS  HZ EP   1    536 28.42                             138    -0.2 7  102 167 
 RUS  HZ I         536 30.04         5.8 0.22            138            102 167 
 RUS  HN ES   1    536 45.46                             138    -0.1 7  102 167 
 PTB  HN ES   2    536 48.23                             130    -0.9 5  132 258 
 PTB  HZ I         536 51.55         6.2 0.16            128            132 258 
 OCA  HZ EP   1    536 33.24                             124    -0.2 7  160 359 
 OCA  HN ES   1    536 53.86                             124    -0.4 7  160 359 
 OCA  HZ I         536 58.65        19.1 0.27            125            160 359 
 ZAR  HZ EP        536 36.39                             119     0.0 9  190 294 
 ZAR  HE ES   2    536 59.16                             119    -0.3 4  190 294 
 ZAR  HZ I         537  2.62         9.5 0.55            119            190 294 
 CHI  HZ EP   1    536 43.03                             113     0.1 6  244 192 
 CHI  HE ES   2    537 10.44                             113    -0.6 4  244 192 
 CHI  HZ I         537 18.94         2.7 0.31            113            244 192 
 HEL  HZ EP   1    536 44.60                             111     0.3 6  257 255 
 HEL  HN ES   1    537 13.78                             111     0.3 6  257 255 
 HEL  HZ I         537 18.15         3.6 0.43            111            257 255 
