 2015  520 0705 18.2 L   6.789 -73.139150.4  RSN  8 0.5 1.4LRSN                1
 GAP=120        1.29       4.7     5.9  7.9 -0.5243E+00  0.2651E+01 -0.7764E+01E
 Epicentro: LOS SANTOS - SANTANDER                                             3
 ACTION:UPD 15-09-10 22:05 OP:cam  STATUS:               ID:20150520070518 L   I
 OLDACT:REG 15-05-20 12:35 OP:spq  STATUS:               ID:20150520065750     3
 2015-05-20-0657-50M.COL___286                                                 6
 STAT SP IPHASW D HRMM SECON CODA AMPLIT PERI AZIMU VELO AIN AR TRES W  DIS CAZ7
 BAR2 EZ EP        7 5 38.65                             171    0.2610 22.2 192 
 BAR2 EZ I         7 5 38.80         4.9 0.22            172           22.2 192 
 BAR2 EZ ES        7 5 53.89                             171   -0.2210 22.2 192 
 BRR  HZ EP        7 5 40.61                             153    0.6710 72.4 299 
 BRR  HN ES        7 5 57.35                             153    0.4710 72.4 299 
 BRR  HZ I         7 6  2.37         3.9 0.24            149           72.4 299 
 PAM  SZ EP        7 5 41.75                             151    0.7910 77.9  39 
 PAM  SE ES        7 5 58.04                             151   -0.6510 77.9  39 
 PAM  SZ I         7 6  0.86         5.1 0.54            152           77.9  39 
 RUS  HZ EP   1    7 5 42.54                             145    0.20 7 99.3 176 
 RUS  HN ES        7 6  1.28                             145    0.1310 99.3 176 
 RUS  HZ I         7 6  2.37         2.2 0.32            150           99.3 176 
 SPBC HZ EP        7 5 46.18                             130   -0.85 9  163 219 
 SPBC HN ES        7 6  9.05                             130   -0.45 9  163 219 
 SPBC HZ I         7 6 12.64         4.7 0.18            131            163 219 
 ZAR  HE ES        7 6 17.00                             123    0.28 9  205 292 
 ZAR  HZ I         7 6 23.02         3.0 0.32            122            205 292 
 SML  HZ EP        7 5 55.21                             118   -0.06 8  245 335 
 SML  HN ES        7 6 23.27                             118   -0.89 8  245 335 
 SML  HZ I         7 6 35.99         2.9 0.10            118            245 335 
 SOCV BZ EP        7 6  1.33                             113   -0.17 7  301  57 
                                                                                
