 2011  220 0131 31.4 L   6.805 -73.163143.5  RSN  7 0.4 2.0LRSN                1
 GAP=157        1.11       4.8     9.2  8.6 -0.2323E+02  0.3144E+02 -0.5185E+01E
 Epicentro: LOS SANTOS - SANTANDER                                             3
 ACTION:UP  11-03-28 15:09 OP:jfem STATUS:               ID:20110220013131 L   I
 2011-02-20-0125-41S.COL___137                                                 6
 STAT SP IPHASW D HRMM SECON CODA AMPLIT PERI AZIMU VELO SNR AR TRES W  DIS CAZ7
 BAR2 SZ EP        131 51.09                             170     0.310   24 186 
 BAR2 SZ ES        132  5.65                             170    -0.210   24 186 
 BAR2 SZ I         132  7.87        30.7 0.33                            24 186 
 RUS  HZ EP        131 55.30                             143     0.310  101 175 
 RUS  HN ES   1    132 13.77                             143     0.4 7  101 175 
 RUS  HZ I         132 14.99        12.4 0.26                           101 175 
 GRA  SZ EP        131 55.89                             136    -0.610  126  18 
 GRA  SZ ES        132 15.61                             136    -0.410  126  18 
 GRA  SZ I         132 18.52        21.5 0.35                           126  18 
 OCA  SZ EP   1    131 59.73                             129     0.3 7  159 354 
 OCA  SZ ES   1    132 22.17                             129     0.8 7  159 354 
 OCA  SZ I         132 27.52        31.0 0.25                           159 354 
 NOR  SZ EP        132  7.21                             118     0.3 8  234 234 
 NOR  SN ES        132 34.23                             118    -0.3 8  234 234 
 CHI  HZ EP   1    132  8.80                             116    -0.2 6  249 195 
 CHI  HZ I         132 11.78         4.8 0.39                           249 195 
 RREF HZ EP   1    132 16.73                             110    -0.6 5  321 229 
 RREF HZ I         132 23.16         1.8 0.14                           321 229 
                                                                                
