 2014 1120 0701  2.3 L   6.854 -73.496155.5  RSN  5 0.5 1.4LRSN                1
 GAP=123        1.27       6.8    12.9 10.1 -0.1674E+01  0.5188E+02 -0.1192E+01E
 Epicentro: SAN VICENTE DE CHUCURI - SANTANDER                                 3
 ACTION:UPD 14-12-19 15:45 OP:nd   STATUS:               ID:20141120070102 L   I
 OLDACT:REG 14-11-20 13:15 OP:fm   STATUS:               ID:20141120065744     3
 2014-11-20-0657-44M.COL___295                                                 6
 STAT SP IPHASW D HRMM SECON CODA AMPLIT PERI AZIMU VELO AIN AR TRES W  DIS CAZ7
 BRR  HZ EP        7 1 23.26                             166    0.1410 36.8 320 
 BRR  HN ES        7 1 39.93                             166    0.6010 36.8 320 
 BRR  HZ I         7 1 41.24         3.9 0.12            164           36.8 320 
 BAR2 SZ EP        7 1 24.47                             163    0.7210 45.1 130 
 BAR2 SZ ES        7 1 39.65                             163   -0.7910 45.1 130 
 BAR2 SZ I         7 1 40.29         5.7 0.34            166           45.1 130 
 SPBC HZ EP        7 1 30.16                             134   -0.03 9  147 206 
 OCA  HZ EP        7 1 30.95                             133    0.04 9  154   7 
 OCA  HN ES        7 1 52.97                             133   -0.21 9  154   7 
 OCA  HZ I         7 1 57.02         2.3 0.38            132            154   7 
 ZAR  HZ EP        7 1 31.17                             131   -0.61 9  166 295 
                                                                                
