 2017  620 0445 33.5 L   6.802 -73.293113.6  RSN 11 0.4 1.7LRSN                1
 GAP=210        1.19       5.0     6.1  8.2  0.1843E+01 -0.4790E+01  0.1371E+02E
 Epicentro: ZAPATOCA - SANTANDER                                               3
 ACTION:UPD 17-09-14 16:53 OP:jn   STATUS:               ID:20170620044533 L   I
 OLDACT:UP  17-06-20 17:35 OP:lv   STATUS:               ID:20170620043759     3
 OLDACT:REG 17-06-20 15:19 OP:lv   STATUS:               ID:20170620043759     3
 2017-06-20-0437-59S.COL___276                                                 6
 STAT SP IPHASW D HRMM SECON CODA AMPLIT PERI AZIMU VELO AIN AR TRES W  DIS CAZ7
 BRR  HZ IP     D  445 50.16                             151   -0.2410 57.3 306 
 BRR  HN ES        446  3.74                             151    0.1710 57.3 306 
 BRR  HZ I         446  4.48        18.1 0.05            152           57.3 306 
 PTB  HZ EP   9    445 55.00                             126   -1.48 0  132 257 
 PTB  HN ES        446 11.68                                   -1.2410  132 257 
 PTB  HZ I         446 16.48        21.6 0.05            127            132 257 
 SPBC HZ EP        445 58.85                             122    0.08 9  154 214 
 SPBC HN ES        446 18.38                             122   -0.09 9  154 214 
 SPBC HZ I         446 24.71                             122            154 214 
 ZAR  HZ EP        446  2.00                             116   -0.42 9  189 294 
 ZAR  HN ES        446 24.49                             116   -0.48 9  189 294 
 ZAR  HZ I         446 26.92         9.2 0.22            118            189 294 
 NOR  HZ EP        446  6.58                             111    0.45 8  222 232 
 NOR  HN ES        446 32.05                             111    0.47 8  222 232 
 NOR  HZ I         446 36.12         5.7 0.19            113            222 232 
 CHI  HN ES   1    446 36.22                             109   -0.89 6  245 191 
 HEL  HZ EP        446 11.08                             108    0.60 8  256 255 
 HEL  HN ES        446 39.62                             108    0.30 8  256 255 
 HEL  HZ I         446 43.04         2.3 0.17            110            256 255 
 GUY2CHZ EP        446 14.78                             106    0.46 7  288 233 
 GUY2CHN ES   4    446 47.69                             106    1.54 0  288 233 
 GUY2CHZ I         446 52.68         1.9 0.33                           288 233 
 PTGC HZ EP        446 16.89                             103   -0.02 7  315 156 
 PTGC HN ES   4    446 47.85                             103   -2.91 0  315 156 
 CBOC HZ EP        446 16.72                             103   -0.76 7  318 251 
 CBOC HN ES        446 51.85                             103    0.08 7  318 251 
 CBOC HZ I         446 53.71         0.7 0.18            105            318 251 
 SJC  HZ EP   4    446 24.28                              99   -2.86 0  400 329 
 SJC  HN ES   4    447  2.05                              99   -6.92 0  400 329 
 SJC  HZ I         447  6.08         1.0 0.56            102            400 329 
                                                                                
