 2015  120 0819 47.4 L   6.757 -73.170137.6  RSN  6 0.4 1.4LRSN                1
 GAP=231        1.12       5.8     6.9  8.0  0.1383E+02  0.1728E+02 -0.1553E+01E
 Epicentro: LOS SANTOS - SANTANDER                                             3
 ACTION:UPD 15-03-02 15:40 OP:nd   STATUS:               ID:20150120081947 L   I
 OLDACT:REG 15-01-20 13:35 OP:carl STATUS:               ID:20150120081749     3
 2015-01-20-0817-49M.COL___256                                                 6
 STAT SP IPHASW D HRMM SECON CODA AMPLIT PERI AZIMU VELO AIN AR TRES W  DIS CAZ7
 BAR2 EZ EP        820  5.86                             172   -0.0710 18.3 184 
 BAR2 EZ ES        820 20.03                             172   -0.3710 18.3 184 
 BAR2 EZ I         820 21.54         7.4 0.30            169           18.3 184 
 BRR  HZ EP        820  7.61                             151   -0.0510 71.3 303 
 BRR  HN ES        820 24.17                             151    0.7010 71.3 303 
 BRR  HZ I         820 29.06         4.7 0.14            149           71.3 303 
 RUS  HN ES        820 27.60                             143   -0.0510 96.1 174 
 RUS  HZ I         820 29.57         2.9 0.30            146           96.1 174 
 PTB  HZ EP        820 12.65                             131   -0.72 9  144 260 
 PTB  HN ES        820 33.24                             131   -0.40 9  144 260 
 PTB  HZ I         820 35.23         3.8 0.18            131            144 260 
 SPBC HZ EP        820 15.02                             128    0.27 9  158 219 
 SPBC HN ES        820 36.59                             128    0.50 9  158 219 
 SPBC HZ I         820 42.62         4.0 0.36            129            158 219 
 ZAR  HZ EP        820 19.87                             121    0.63 9  203 294 
 ZAR  HE ES        820 43.70                             121   -0.39 9  203 294 
 ZAR  HZ I         820 50.52         3.6 0.30            122            203 294 
                                                                                
