 2016  520 0450 43.9 L   6.811 -73.140147.5  RSN 19 0.4 2.5LRSN                1
 GAP=119        0.90       2.3     2.9  4.2 -0.8027E+00  0.2194E+01  0.2901E+01E
 Epicentro: LOS SANTOS - SANTANDER                                             3
 ACTION:UPD 16-08-18 17:47 OP:cam  STATUS:               ID:20160520045043 L   I
 OLDACT:UP  16-05-24 15:33 OP:dnl  STATUS:               ID:20160520045043 L   3
 OLDACT:UP  16-05-20 15:20 OP:mh   STATUS:               ID:20160520044747     3
 OLDACT:UP  16-05-20 15:18 OP:mh   STATUS:               ID:20160520044747     3
 OLDACT:UP  16-05-20 15:14 OP:mh   STATUS:               ID:20160520044747     3
 OLDACT:UP  16-05-20 15:13 OP:mh   STATUS:               ID:20160520044747     3
 OLDACT:UP  16-05-20 15:13 OP:mh   STATUS:               ID:20160520044747     3
 OLDACT:REG 16-05-20 12:31 OP:mh   STATUS:               ID:20160520044747     3
 2016-05-20-0447-47M.COL___312                                                 6
 STAT SP IPHASW D HRMM SECON CODA AMPLIT PERI AZIMU VELO AIN AR TRES W  DIS CAZ7
 BAR2 EZ EP     C  451  3.80                             170    0.0910 24.6 191 
 BAR2 EZ ES        451 18.81                             170   -0.3910 24.6 191 
 BAR2 EZ I         451 20.19        84.4 0.14            168           24.6 191 
 BRR  HZ IP     C  451  5.63                             153    0.4510 71.2 297 
 BRR  HN ES        451 22.19                             153    0.3710 71.2 297 
 BRR  HZ I         451 26.45        41.3 0.32            151           71.2 297 
 PAM  EZ EP        451  6.68                             151    0.5110 76.1  40 
 PAM  EN ES        451 23.80                             151    0.2210 76.1  40 
 PAM  EZ I         451 25.94        38.2 0.48            156           76.1  40 
 RUS  HZ EP        451  7.79                             144   -0.0610  102 176 
 RUS  HN ES        451 26.71                             144    0.1410  102 176 
 RUS  HZ I         451 27.20        38.1 0.24            145            102 176 
 PTB  HZ EP        451 10.27                             132   -0.76 9  149 258 
 PTB  HN ES        451 31.41                             132   -0.82 9  149 258 
 PTB  HZ I         451 37.09        27.5 0.34            131            149 258 
 OCA  HZ EP        451 12.26                             130    0.07 9  159 353 
 OCA  HN ES        451 33.90                             130   -0.40 9  159 353 
 OCA  HZ I         451 38.33        49.9 0.44            132            159 353 
 SPBC HZ EP        451 12.62                             129    0.02 9  164 219 
 SPBC HN ES        451 35.04                             129    0.01 9  164 219 
 SPBC HZ I         451 41.70        51.9 0.10            129            164 219 
 ZAR  HZ EP   1    451 16.20                             123   -0.22 6  204 292 
 ZAR  HN ES        451 41.66                             123   -0.16 9  204 292 
 ZAR  HZ I         451 52.04        19.2 0.18            123            204 292 
 NOR  HZ EP        451 19.67                             119   -0.14 8  236 234 
 NOR  HN ES        451 47.93                             119    0.08 8  236 234 
 NOR  HZ I         451 54.84        27.7 0.24            119            236 234 
 CHI  HZ EP        451 21.84                             117    0.06 8  250 195 
 CHI  HN ES        451 51.31                             117   -0.06 8  250 195 
 CHI  HZ I         451 54.49        15.7 0.30            118            250 195 
 ROSC BZ EP   4    451 23.65                             117    1.44 0  254 211 
 ROSC BN ES   4    451 54.99                             117    2.87 0  254 211 
 ROSC BZ I         451 59.07        21.6 0.35            118            254 211 
 HEL  HZ EP        451 24.80                             115    0.55 8  273 256 
 HEL  HN ES        451 56.17                             115    0.41 8  273 256 
 HEL  HZ I         452  2.51        15.7 0.36            115            273 256 
 URE  HZ EP   9    451 23.33                             114   -1.69 0  284 292 
 URE  HN ES        451 55.61                             114    0.17 7  284 292 
 VIL  SZ EP        451 27.13                             112   -0.36 7  305 192 
 VIL  SN ES        452  1.86                             112    0.33 7  305 192 
 PTGC HZ EP        451 26.98                             112   -0.90 7  310 159 
 PTGC HN ES   4    451 59.84                             112   -2.39 0  310 159 
 PTGC HZ I         452  8.46        17.4 0.52            114            310 159 
 CBOC HZ EP        451 31.48                             110    0.54 7  335 252 
 CBOC HN ES        452  7.44                             110   -0.24 7  335 252 
 CBOC HZ I         452 11.48         5.4 0.46            111            335 252 
 ANIL HZ EP   4    451 35.01                             109    1.14 0  359 224 
 ANIL HE ES        452 13.42                             109    0.54 6  359 224 
 PRA  HZ EP        451 37.32                             107   -0.26 6  393 210 
 PRA  HN ES        452 19.42                             107   -0.08 6  393 210 
 PRA  HZ I         452 25.85        11.9 0.56            108            393 210 
 ORTC HZ EP   1    451 37.70                             106   -0.28 4  397 216 
 ORTC HN ES        452 21.02                             106    0.82 6  397 216 
 ORTC HZ I         452 27.33        11.5 0.54            107            397 216 
                                                                                
