 2016 1120 0321 39.2 L   6.830 -73.124154.0  RSN 16 0.6 2.1LRSN                1
 GAP= 67        1.32       4.1     3.9  6.5  0.3400E+00  0.6410E+01  0.6502E+01E
 Epicentro: LOS SANTOS - SANTANDER                                             3
 ACTION:UPD 17-10-26 21:09 OP:lp   STATUS:               ID:20161120032139 L   I
 OLDACT:UP  16-11-20 14:35 OP:e    STATUS:               ID:20161120031745     3
 OLDACT:UP  16-11-20 14:34 OP:e    STATUS:               ID:20161120031745     3
 OLDACT:UP  16-11-20 14:30 OP:e    STATUS:               ID:20161120031745     3
 OLDACT:REG 16-11-20 13:14 OP:and  STATUS:               ID:20161120031745     3
 2016-11-20-0318-00M.COL___331                                                 6
 STAT SP IPHASW D HRMM SECON CODA AMPLIT PERI AZIMU VELO AIN AR TRES W  DIS CAZ7
 BAR2 EZ EP        321 59.88                             170   -0.0610 27.1 194 
 BAR2 EZ ES        322 15.12                             170   -0.9610 27.1 194 
 BAR2 EZ I         322 17.86        47.9 0.33            168           27.1 194 
 BRR  HZ EP        322  1.66                             153    0.3410 71.9 295 
 BRR  HN ES        322 18.79                             153    0.2510 71.9 295 
 BRR  HZ I         322 22.66        22.6 0.36            152           71.9 295 
 PAM  EZ EP        322  2.65                             153    0.5410 73.3  40 
 PAM  EN ES        322 19.80                             153   -0.1510 73.3  40 
 PAM  EZ I         322 22.04        27.4 0.50            157           73.3  40 
 PTB  HZ EP        322  6.67                             133   -0.49 9  151 258 
 PTB  HN ES   4    322 27.62                             133   -1.32 0  151 258 
 PTB  HZ I         322 32.76        15.6 0.12            133            151 258 
 TAM  HZ IP     C  322  8.24                             132    0.79 9  154 106 
 TAM  HN ES        322 29.95                             132    0.49 9  154 106 
 TAM  HZ I         322 31.67         8.1 0.42            136            154 106 
 ZAR  HZ EP        322 12.50                             124    0.16 9  205 291 
 ZAR  HN ES        322 37.83                             124   -0.33 9  205 291 
 ZAR  HZ I         322 46.82        11.2 0.18            124            205 291 
 NOR  HZ EP        322 16.37                             119    0.50 8  239 234 
 NOR  HE ES        322 44.53                             119    0.09 8  239 234 
 NOR  HZ I         322 46.70        11.2 0.22            120            239 234 
 CHI  HZ EP        322 18.18                             118    0.36 8  252 196 
 CHI  HN ES        322 48.34                             118    0.43 8  252 196 
 CHI  HZ I         322 53.68         6.5 0.20            119            252 196 
 URE  HZ EP        322 20.35                             115   -0.49 7  285 291 
 URE  HE ES   4    322 51.39                             115   -1.89 0  285 291 
 URE  HZ I         323  3.04         7.4 0.18            116            285 291 
 PTGC HZ EP        322 23.01                             113   -0.72 7  311 159 
 PTGC HN ES        322 56.35                             113   -2.07 7  311 159 
 PTGC HZ I         323  1.29        13.8 0.32            114            311 159 
 LL6C HZ EP   9    322  5.86                             112   -19.1 0  322 357 
 LL6C HN ES   4    322 39.95                                   -1.56 0  322 357 
 CBOC HZ EP   4    322 27.67                             111    0.78 0  337 252 
 CBOC HN ES        323  4.06                             111    0.01 7  337 252 
 CBOC HZ I         323  7.96         2.5 0.24            112            337 252 
 PRA  HZ EP        322 33.62                             107    0.09 6  396 210 
 PRA  HN ES        323 16.60                             107    0.73 6  396 210 
 PRA  HZ I         323 22.09         7.8 0.40            108            396 210 
 ORTC HZ EP        322 35.09                             107    1.16 6  400 216 
 ORTC HN ES   4    323 19.35                             107    2.77 0  400 216 
 ORTC HZ I         323 23.72         5.3 0.38            108            400 216 
 SJC  HZ EP        322 34.68                             107   -0.24 6  408 326 
 SJC  HT ES   4    323 15.48                             107   -2.86 0  408 326 
 SJC  HZ I         323 22.57         2.3 0.26            108            408 326 
 PAL  HZ EP        322 35.19                             107    0.07 6  409 239 
 PAL  HN ES        323 18.71                             107   -0.00 6  409 239 
 PAL  HZ I         323 21.70         2.5 0.15            108            409 239 
 CRJC HZ EP        322 40.74                             104   -0.83 5  464   3 
 CRJC HT ES        323 29.52                             104   -0.67 5  464   3 
                                                                                
