 2011  620 0410 41.0 L   6.773 -73.102147.2  RSN 20 0.3 3.1LRSN                1
 GAP=143        0.60       2.4     3.6  3.4 -0.4498E+01  0.1890E+01  0.2035E+01E
 Epicentro: LOS SANTOS - SANTANDER                                             3
 ACTION:UP  11-07-14 19:06 OP:ep   STATUS:               ID:20110620041041 L   I
 2011-06-20-0409-07S.COL___140                                                 6
 STAT SP IPHASW D HRMM SECON CODA AMPLIT PERI AZIMU VELO SNR AR TRES W  DIS CAZ7
 BAR2 SZ IP        411  0.80                             171     0.010   22 204 
 BAR2 SZ ES   1    411 15.84                             171    -0.4 7   22 204 
 BAR2 SZ I         411 19.40       389.6 0.70                            22 204 
 BTL  SZ IP        411  1.07                             170     0.210   24 311 
 BTL  SZ ES   1    411 16.17                             170    -0.1 7   24 311 
 GIR2 SZ IP        411  0.88                             166    -0.110   35 343 
 GIR2 SZ ES   2    411 16.08                             166    -0.4 5   35 343 
 PAM  SZ IP        411  3.57                             151     0.210   77  35 
 PAM  SN ES   1    411 20.93                             151     0.2 7   77  35 
 BRR  HZ IP     C  411  2.74                             151     0.110   77 299 
 BRR  HE ES   1    411 20.05                             151     0.5 7   77 299 
 BRR  HZ I         411 23.05       216.6 0.24                            77 299 
 RUS  HZ EP   1    411  4.62                             145    -0.1 7   97 179 
 RUS  HN ES   2    411 23.16                             145     0.0 5   97 179 
 RUS  HZ I         411 25.20       172.3 0.42                            97 179 
 BRI  SZ IP        411  5.32                             141     0.210  110  18 
 BRI  SZ ES   1    411 23.47                             141    -0.5 7  110  18 
 BRI  SZ I         411 29.71       141.8 0.29                           110  18 
 GRA  SZ IP        411  6.55                             137     0.010  127  15 
 GRA  SZ ES   1    411 26.40                             137     0.0 7  127  15 
 GRA  SZ I         411 27.56       162.2 0.36                           127  15 
 OCA  SZ EP   1    411  9.27                             129    -0.5 7  164 352 
 OCA  SZ ES   2    411 32.01                             129    -0.2 5  164 352 
 OCA  SZ I         411 38.32       129.1 0.27                           164 352 
 NOR  SZ EP   1    411 16.40                             118    -0.7 6  237 236 
 NOR  SN ES   2    411 45.07                             118    -0.1 4  237 236 
 CHI  HZ EP   1    411 18.72                             117     0.1 6  247 196 
 CHI  HN ES   2    411 48.26                             117     0.3 4  247 196 
 CHI  HZ I         411 56.27        66.9 0.46                           247 196 
 ROSC BZ EP   2    411 19.87                             117     0.7 4  253 212 
 ROSC BN ES   2    411 49.23                             117     0.2 4  253 212 
 ROSC BZ I         411 56.61       166.1 0.61                           253 212 
 HEL  HZ EP   1    411 22.12                             115     0.4 6  276 257 
 HEL  HN ES   2    411 53.51                             115     0.0 4  276 257 
 HEL  HZ I         411 59.88        54.2 0.59                           276 257 
 VIL  SZ EP   1    411 24.25                             112     0.0 5  301 193 
 VIL  SN ES   2    411 57.68                             112    -0.4 4  301 193 
 VIL  SZ I         412  9.05        37.9 0.46                           301 193 
 GUY  SZ EP   2    411 24.67                             112    -0.5 4  306 236 
 GUY  SE ES   2    411 59.30                             112    -0.4 4  306 236 
 GUY  SZ I         412  6.34       117.3 0.33                           306 236 
 RREF HZ EP   1    411 27.64                             111     0.2 5  324 230 
 RREF HN ES   2    412  3.61                             111     0.0 3  324 230 
 RREF HZ I         412 12.07        76.0 0.49                           324 230 
 DBB  SZ EP   1    411 28.81                             109    -0.3 5  344 275 
 TOL  SZ EP   2    411 30.12                             109     0.6 3  345 226 
 PRA  HZ EP   1    411 34.10                             107    -0.5 4  392 210 
 PRA  HN ES   1    412 16.38                             107     0.0 4  392 210 
 SJA  SZ EP   2    411 34.63                             106    -0.8 3  398 194 
                                                                                
