 2016  420 0224 44.0 L   6.800 -73.154144.0  RSN  7 0.4 1.6LRSN                1
 GAP=135        1.11       4.8     4.8  7.6 -0.4800E+01  0.1470E+02 -0.2515E+01E
 Epicentro: LOS SANTOS - SANTANDER                                             3
 ACTION:UPD 16-05-05 14:22 OP:rebc STATUS:               ID:20160420022444 L   I
 OLDACT:DUP 16-04-20 14:24 OP:drio STATUS:               ID:20160420021744d    3
 2016-04-20-0217-43M.COL___307                                                 6
 STAT SP IPHASW D HRMM SECON CODA AMPLIT PERI AZIMU VELO AIN AR TRES W  DIS CAZ7
 BAR2 EZ EP        225  3.23                             170   -0.2310 23.2 188 
 BAR2 EZ ES        225 18.69                             170    0.0910 23.2 188 
 BAR2 EZ I         225 19.78         9.6 0.16            167           23.2 188 
 PAM  EZ EP        225  6.13                             150    0.0210 78.0  40 
 PAM  EE ES        225 23.55                             150    0.2310 78.0  40 
 PAM  EZ I         225 25.29         6.5 0.48            157           78.0  40 
 RUS  HZ EP        225  7.63                             143    0.0010  101 176 
 RUS  HN ES        225 25.70                             143   -0.3210  101 176 
 RUS  HZ I         225 27.88         4.8 0.16            145            101 176 
 PTB  HZ EP        225  9.87                             132   -0.92 9  147 259 
 PTB  HN ES        225 31.02                             132   -0.62 9  147 259 
 PTB  HZ I         225 38.18         6.8 0.48            131            147 259 
 SPBC HZ EP        225 12.31                             129   -0.04 9  163 219 
 SPBC HE ES        225 35.38                             129    0.95 9  163 219 
 SPBC HZ I         225 40.93         4.8 0.10            129            163 219 
 ZAR  HZ EP        225 16.71                             122    0.42 9  203 292 
 ZAR  HN ES        225 41.71                             122    0.28 9  203 292 
 ZAR  HZ I         225 46.83         6.5 0.56            123            203 292 
 NOR  HZ EP        225 19.99                             118    0.40 8  234 234 
 NOR  HE ES        225 47.35                             118    0.03 8  234 234 
 NOR  HZ I         225 59.75         2.1 0.24            119            234 234 
                                                                                
