 2011  720 0433 35.3 L   6.800 -73.081139.2  RSN  5 0.2 1.6LRSN                1
 GAP=163        0.36       3.2     6.4  5.7  0.9909E+01 -0.2420E+02 -0.9237E+01E
 Epicentro: LOS SANTOS - SANTANDER                                             3
 ACTION:UPD 12-07-25 14:02 OP:epov STATUS:               ID:20110720043335 L   I
 2011-07-20-0420-00M.COL___136                                                 6
 STAT SP IPHASW D HRMM SECON CODA AMPLIT PERI AZIMU VELO AIN AR TRES W  DIS CAZ7
 BAR2 SZ ES   2    434  8.90                             169   -0.03 5 25.6 206 
 BAR2 SZ I         434 10.45        11.6 0.29                          25.6 206 
 BRR  HZ EP   1    433 56.14                             149    0.01 7 77.6 296 
 BRR  HN ES        434 12.43                             149    0.0510 77.6 296 
 BRR  HZ I         434 17.62        12.6 0.19                          77.6 296 
 RUS  HZ EP   2    433 58.32                             142   -0.08 5  100 180 
 RUS  HN ES   2    434 16.33                             142   -0.09 5  100 180 
 RUS  HZ I         434 17.66         3.3 0.17                           100 180 
 BRI  SZ EP   2    433 58.81                             141    0.42 5  106  17 
 OCA  SZ EP   1    434  3.11                             128   -0.09 7  161 351 
 OCA  SZ ES   2    434 24.66                             128   -0.31 5  161 351 
 OCA  SZ I         434 28.36         7.4 0.33                           161 351 
                                                                                
