 2017  620 0448 33.8 L   6.775 -73.174136.8  RSN  9 0.4 1.7LRSN                1
 GAP=253        0.93       3.9     6.0  7.3  0.1336E+01 -0.9257E+01  0.6777E+01E
 Epicentro: LOS SANTOS - SANTANDER                                             3
 ACTION:UPD 17-09-14 16:53 OP:jn   STATUS:               ID:20170620044833 L   I
 OLDACT:DUP 17-06-20 17:30 OP:lv   STATUS:               ID:20170620043760d    3
 2017-06-20-0437-59S.COL___276                                                 6
 STAT SP IPHASW D HRMM SECON CODA AMPLIT PERI AZIMU VELO AIN AR TRES W  DIS CAZ7
 BRR  HZ EP        448 53.76                             152   -0.1910 69.9 302 
 BRR  HN ES        449 10.19                             152    0.5610 69.9 302 
 BRR  HZ I         449 15.09        10.2 0.21            151           69.9 302 
 PTB  HZ EP        448 59.24                             131   -0.52 9  144 260 
 PTB  HN ES        449 19.50                             131   -0.47 9  144 260 
 PTB  HZ I         449 22.95         5.9 0.07            132            144 260 
 SPBC HZ EP        449  0.91                             128   -0.35 9  159 219 
 SPBC HN ES        449 22.63                             128   -0.02 9  159 219 
 SPBC HZ I         449 26.66        14.2 0.18            129            159 219 
 ZAR  HZ EP        449  6.03                             121    0.50 9  202 293 
 ZAR  HN ES        449 29.90                             121   -0.35 9  202 293 
 ZAR  HZ I         449 35.97        12.7 0.28            123            202 293 
 NOR  HZ EP        449  9.11                             117    0.50 8  231 235 
 NOR  HN ES        449 35.61                             117   -0.12 8  231 235 
 CHI  HZ EP        449 10.41                             116   -0.26 8  245 195 
 CHI  HN ES        449 39.85                             116    0.45 8  245 195 
 CHI  HZ I         449 45.05         1.9 0.28            118            245 195 
 GUY2CHZ EP   9    449 17.64                             111    1.07 0  297 235 
 GUY2CHN ES        449 51.40                                    0.43 7  297 235 
 GUY2CHZ I         449 59.81         3.2 0.73                           297 235 
 PTGC HZ EP   4    449 15.16                             110   -1.98 0  307 158 
 PTGC HN ES   4    449 47.56                             110   -3.35 0  307 158 
 CBOC HZ EP        449 20.37                             109    0.41 7  330 252 
 CBOC HE ES        449 56.26                             109    0.33 7  330 252 
 CBOC HZ I         450  5.40         1.0 0.12            110            330 252 
 SJC  HZ EP   4    449 26.76                             104   -2.44 0  410 328 
 SJC  HN ES   4    450  8.99                             104   -3.39 0  410 328 
 SJC  HZ I         450 11.51         0.7 0.18            107            410 328 
                                                                                
