 2010  220 0326 27.7 L   6.819 -73.055148.6  RSN  5 0.2 1.2LRSN                1
 GAP=210        0.42       4.8     9.9  5.1  0.2320E+02 -0.2284E+00  0.6427E+01E
 Epicentro: LOS SANTOS - SANTANDER                                             3
 ACTION:UP  10-08-24 09:49 OP:vdl  STATUS:               ID:20100220032627 L   I
 2010-02-20-0325-23S.COL___094                                                 6
 STAT SP IPHASW D HRMM SECON CODA AMPLIT PERI AZIMU VELO SNR AR TRES W  DIS CAZ7
 BAR2 SZ EP   1    326 47.73                             168    -0.1 7   29 210 
 BAR2 SZ ES   2    327  3.01                             168    -0.5 5   29 210 
 GIR2 SZ EP   1    326 47.87                             167     0.1 7   33 332 
 GIR2 SZ ES   2    327  3.70                             167     0.3 5   33 332 
 BRR  HZ EP   1    326 49.60                             150    -0.1 7   79 294 
 BRR  HE ES   2    327  6.79                             150     0.0 5   79 294 
 RUS  BZ EP   1    326 51.78                             144    -0.1 7  102 182 
 RUS  BN ES   2    327 11.06                             144     0.3 5  102 182 
 RUS  BZ I         327 11.53         2.1 0.18                           102 182 
 CHI  HZ EP   1    327  6.21                             117     0.1 6  253 197 
 CHI  HZ I         327  6.71         1.3 0.46                           253 197 
                                                                                
