 2014 1120 0834 11.3 L   6.721 -73.151144.3  RSN  7 0.3 1.1LRSN                1
 GAP=139        0.77       4.2     3.8  5.8 -0.1214E+01  0.3721E+01 -0.2266E+01E
 Epicentro: VILLANUEVA - SANTANDER                                             3
 ACTION:UPD 14-12-19 15:45 OP:nd   STATUS:               ID:20141120083411 L   I
 OLDACT:REG 14-11-20 13:19 OP:fm   STATUS:               ID:20141120082743     3
 2014-11-20-0827-43M.COL___295                                                 6
 STAT SP IPHASW D HRMM SECON CODA AMPLIT PERI AZIMU VELO AIN AR TRES W  DIS CAZ7
 BAR2 SZ EP   1    834 30.73                             174    0.12 7 14.6 194 
 BAR2 SZ ES   1    834 45.37                             174   -0.30 7 14.6 194 
 BAR2 SZ I         834 46.59         4.0 0.18            174           14.6 194 
 BRR  HZ EP     D  834 32.55                             151    0.0210 75.3 305 
 BRR  HN ES        834 49.73                             151    0.6510 75.3 305 
 BRR  HZ I         834 51.85         2.5 0.26            151           75.3 305 
 PAM  SZ EP     C  834 33.61                             148   -0.2010 84.7  36 
 PAM  SN ES   1    834 50.95                             148   -0.42 7 84.7  36 
 PAM  SZ I         834 55.78         2.5 0.46            152           84.7  36 
 RUS  HZ EP   1    834 34.76                             146    0.46 7 91.9 175 
 RUS  HE ES   1    834 52.48                             146    0.25 7 91.9 175 
 RUS  HZ I         834 53.70         1.4 0.52            149           91.9 175 
 PTB  HZ EP        834 37.68                             132   -0.28 9  146 262 
 PTB  HE ES        834 58.42                             132   -0.34 9  146 262 
 PTB  HZ I         835  4.11         1.2 0.14            134            146 262 
 SPBC HN ES   1    835  0.37                             130   -0.26 7  156 221 
 SPBC HZ I         835  4.73         2.2 0.12            132            156 221 
 ZAR  HZ EP        834 44.17                             122    0.22 8  207 294 
 ZAR  HE ES   1    835  9.38                             122   -0.04 6  207 294 
 ZAR  HZ I         835 13.14         1.9 0.36            124            207 294 
                                                                                
