 2012  420 0524 26.4 L   6.705 -73.181140.2  RSN  4 0.2 1.0LRSN                1
 GAP=226        0.44       4.3     4.6  5.4  0.1327E+02  0.2811E+01  0.2769E+01E
 Epicentro: VILLANUEVA - SANTANDER                                             3
 ACTION:UPD 12-07-05 11:54 OP:tino STATUS:               ID:20120420052426 L   I
 2012-04-20-0520-00M.COL___187                                                 6
 STAT SP IPHASW D HRMM SECON CODA AMPLIT PERI AZIMU VELO AIN AR TRES W  DIS CAZ7
 BRR  HZ EP   1    524 46.90                             151    -0.2 7   74 307 
 BRR  HN ES        525  3.30                             151     0.010   74 307 
 BRR  HZ I         525  4.78         3.8 0.14                            74 307 
 RUS  HZ EP   1    524 49.19                             146     0.3 7   91 173 
 RUS  HN ES   1    525  6.35                             146    -0.1 7   91 173 
 RUS  HZ I         525 10.10         1.0 0.28                            91 173 
 PTB  HZ EP   1    524 52.31                             132    -0.1 7  142 263 
 PTB  HN ES   1    525 12.71                             132     0.0 7  142 263 
 PTB  HZ I         525 15.45         1.2 0.20                           142 263 
 ZAR  HN ES   1    525 23.77                             121     0.1 6  205 295 
                                                                                
