 2013  420 0014 42.8 L   6.788 -73.151154.6  RSN  6 0.4 1.7LRSN                1
 GAP=136        0.96       5.2     6.0  8.6  0.2095E+01  0.2143E+00  0.1750E+01E
 Epicentro: LOS SANTOS - SANTANDER                                             3
 ACTION:UPD 13-05-22 14:39 OP:EP   STATUS:               ID:20130420001442 L   I
 2013-04-20-0010-00M.COL___250                                                 6
 STAT SP IPHASW D HRMM SECON CODA AMPLIT PERI AZIMU VELO AIN AR TRES W  DIS CAZ7
 BAR2 SZ EP     C  015  3.40                             172   -0.1010 21.9 189 
 BAR2 SZ I         015 21.26        11.2 0.24            172           21.9 189 
 BRR  HZ EP     D  015  5.40                             154    0.4510 71.3 300 
 BRR  HN ES        015 22.84                             154    0.6410 71.3 300 
 BRR  HZ I         015 26.51         7.6 0.22            153           71.3 300 
 PAM  SZ EP        015  6.22                             152    0.1510 78.8  39 
 PAM  SN ES   1    015 23.53                             152   -0.68 7 78.8  39 
 PAM  SZ I         015 26.02         5.2 0.68            150           78.8  39 
 RUS  HZ EP        015  7.47                             146    0.1010 99.3 176 
 RUS  HN ES   1    015 26.25                             146   -0.27 7 99.3 176 
 RUS  HZ I         015 27.70         4.6 0.20            145           99.3 176 
 PTB  HZ EP        015 10.25                             134   -0.20 9  147 259 
 PTB  HN ES   1    015 31.34                             134   -0.66 7  147 259 
 PTB  HZ I         015 33.86         7.2 0.16            134            147 259 
 SML  HZ EP   2    015 20.28                             119    0.22 4  245 336 
 SML  HN ES   1    015 48.42                             119   -0.69 6  245 336 
 SML  HZ I         015 55.18         7.3 0.07            118            245 336 
                                                                                
