 2013  120 0333 54.5 L   6.776 -73.160145.7  RSN  7 0.4 1.6LRSN                1
 GAP=136        0.82       6.4     4.7  7.6 -0.1853E+01  0.1799E+01  0.1592E+02E
 Epicentro: LOS SANTOS - SANTANDER                                             3
 ACTION:UPD 13-02-15 09:15 OP:ep   STATUS:               ID:20130120033354 L   I
 2013-01-20-0330-00M.COL___241                                                 6
 STAT SP IPHASW D HRMM SECON CODA AMPLIT PERI AZIMU VELO AIN AR TRES W  DIS CAZ7
 BAR2 SZ EP   1    334 14.02                             172   -0.04 7 20.5 187 
 BAR2 SZ ES   1    334 29.39                             172    0.08 7 20.5 187 
 BRR  HZ EP        334 15.88                             152    0.2610 71.1 301 
 BRR  HN ES   1    334 32.86                             152    0.76 7 71.1 301 
 BRR  HZ I         334 35.97        13.6 0.14            153           71.1 301 
 PAM  SZ EP        334 16.94                             150    0.0610 80.4  39 
 PAM  SN ES   1    334 33.78                             150   -0.56 7 80.4  39 
 PAM  SZ I         334 36.04        10.1 0.44            145           80.4  39 
 RUS  HZ EP   1    334 17.92                             144   -0.14 7 98.1 175 
 RUS  HZ I         334 37.47         2.9 0.22            119           98.1 175 
 PTB  HZ EP   1    334 20.83                             132   -0.43 7  146 260 
 PTB  HN ES   1    334 41.49                             132   -0.65 7  146 260 
 PTB  HZ I         334 43.84        10.1 0.16            121            146 260 
 ZAR  HN ES   1    334 52.07                             122   -0.07 6  204 293 
 CHI  HZ EP   1    334 32.40                             117    0.53 6  246 195 
 CHI  HZ I         335  7.37         1.5 0.36            104            246 195 
                                                                                
