 2017  120 0658 39.0 L   6.767 -73.163150.8  RSN  5 0.3 1.1LRSN                1
 GAP=136        0.87       5.7     5.3  6.8  0.6679E+01 -0.3261E+01 -0.6535E+01E
 Epicentro: LOS SANTOS - SANTANDER                                             3
 ACTION:UPD 17-05-22 16:01 OP:jn   STATUS:               ID:20170120065839 L   I
 OLDACT:REG 17-01-20 12:39 OP:dani STATUS:               ID:20170120065741     3
 2017-01-20-0658-00M.COL___313                                                 6
 STAT SP IPHASW D HRMM SECON CODA AMPLIT PERI AZIMU VELO AIN AR TRES W  DIS CAZ7
 BAR2 EZ EP        658 58.96                             172   -0.1710 19.4 186 
 BAR2 EZ ES        659 14.38                             172   -0.4810 19.4 186 
 BAR2 EZ I         659 16.64         5.0 0.50            170           19.4 186 
 BRR  HZ EP        659  0.89                             153    0.2210 71.4 302 
 BRR  HN ES        659 18.07                             153    0.4710 71.4 302 
 BRR  HZ I         659 21.31         2.4 0.43            150           71.4 302 
 PAM  EZ EP        659  1.81                             150   -0.1510 81.4  39 
 RUS  HZ EP        659  2.91                             146   -0.0610 97.1 175 
 RUS  HN ES        659 22.13                             146    0.4410 97.1 175 
 RUS  HZ I         659 22.67         1.0 0.28            147           97.1 175 
 PTB  HZ EP        659  6.27                             134    0.15 9  145 260 
 PTB  HN ES        659 26.86                             134   -0.44 9  145 260 
 PTB  HZ I         659 34.13         1.8 0.42            132            145 260 
                                                                                
