 2014  620 0726 16.0 L   6.872 -73.328120.2  RSN 12 0.5 2.0LRSN                1
 GAP= 99        1.22       3.1     4.0  7.4 -0.3689E+01  0.1547E+02 -0.3883E+01E
 Epicentro: BETULIA - SANTANDER                                                3
 ACTION:UPD 14-07-01 22:55 OP:nd   STATUS:               ID:20140620072616 L   I
 OLDACT:REG 14-06-20 14:38 OP:carl STATUS:               ID:20140620071814     3
 2014-06-20-0718-14M.COL___256                                                 6
 STAT SP IPHASW D HRMM SECON CODA AMPLIT PERI AZIMU VELO AIN AR TRES W  DIS CAZ7
 BAR2 SZ EP        726 33.13                             163    0.2510 34.9 153 
 BAR2 SZ ES        726 46.27                             163    0.1910 34.9 153 
 BAR2 SZ I         726 47.47        90.1 0.30            168           34.9 153 
 PAM  SZ EP        726 36.53                             142    0.3410 86.5  53 
 PAM  SN ES        726 52.58                             142    0.6110 86.5  53 
 PAM  SZ I         726 54.75        14.1 0.30            148           86.5  53 
 RUS  HZ EP        726 38.05                             134   -0.1910  112 166 
 RUS  HN ES        726 55.44                             134   -0.1710  112 166 
 RUS  HZ I         726 56.68         5.7 0.64            141            112 166 
 PTB  HZ IP     C  726 38.42                             129   -0.8510  130 254 
 PTB  HN ES        726 56.98                             129   -0.4710  130 254 
 PTB  HZ I         727  3.13        15.0 0.22            132            130 254 
 OCA  HZ EP        726 41.05                             125   -0.46 9  151   0 
 OCA  HN ES        727  0.99                             125   -0.43 9  151   0 
 OCA  HZ I         727  7.40        24.0 0.26            129            151   0 
 SPBC HZ EP        726 41.74                             123   -0.38 9  158 211 
 SPBC HN ES        727  2.19                             123   -0.33 9  158 211 
 SPBC HZ I         727  8.34        16.8 0.14            128            158 211 
 ZAR  HZ EP        726 44.77                             119    0.22 9  182 292 
 ZAR  HN ES        727  7.40                             119    0.55 9  182 292 
 ZAR  HZ I         727 10.42        16.4 0.36            122            182 292 
 NOR  HZ EP        726 48.40                             114   -0.72 8  224 230 
 NOR  HN ES        727 15.15                             114    0.17 8  224 230 
 NOR  HZ I         727 16.57         8.5 0.26            117            224 230 
 SML  HZ EP        726 49.14                             113   -0.45 8  229 339 
 SML  HN ES        727 15.56                             113   -0.25 8  229 339 
 HEL  HZ EP        726 54.32                             111    1.28 8  255 253 
 HEL  HN ES        727 22.30                             111    0.35 8  255 253 
 HEL  HZ I         727 28.17         4.5 0.24            114            255 253 
 GUY2CHZ EP        726 58.31                             108    1.09 7  290 231 
 GUY2CHN ES        727 29.24                             108   -0.15 7  290 231 
 GUY2CHZ I         727 34.81         6.5 0.74                           290 231 
 CBOC HZ EP        727  0.64                             106    0.62 7  317 250 
 CBOC HN ES        727 34.35                             106   -0.04 7  317 250 
 CBOC HZ I         727 37.91         2.7 0.54            109            317 250 
                                                                                
