 2016 1120 0913 43.5 L   6.758 -73.105143.4  RSN  6 0.3 1.6LRSN                1
 GAP=101        0.73       5.7     2.9  5.0  0.2496E+00  0.5338E+00  0.1754E+01E
 Epicentro: LOS SANTOS - SANTANDER                                             3
 ACTION:UPD 17-10-26 21:09 OP:lp   STATUS:               ID:20161120091343 L   I
 OLDACT:UP  16-11-20 18:17 OP:and  STATUS:               ID:20161120090739     3
 OLDACT:REG 16-11-20 13:43 OP:and  STATUS:               ID:20161120090739     3
 2016-11-20-0908-00M.COL___328                                                 6
 STAT SP IPHASW D HRMM SECON CODA AMPLIT PERI AZIMU VELO AIN AR TRES W  DIS CAZ7
 BAR2 EZ EP        914  2.67                             171   -0.1410 20.2 205 
 BAR2 EZ ES        914 17.84                             171   -0.0210 20.2 205 
 BAR2 EZ I         914 18.32        17.0 0.38            173           20.2 205 
 BRR  HZ EP        914  4.67                             150   -0.1110 77.4 300 
 BRR  HN ES        914 21.86                             150    0.5010 77.4 300 
 BRR  HZ I         914 22.61         8.9 0.18            147           77.4 300 
 PAM  EZ EP        914  5.60                             150    0.0510 78.3  35 
 PAM  EN ES        914 22.38                             150   -0.3510 78.3  35 
 PAM  EZ I         914 24.86         5.6 0.49            149           78.3  35 
 TAM  HZ IP     D  914 10.85                             131    0.34 9  150 104 
 PTB  HZ EP   2    914  9.70                             131   -0.93 5  151 261 
 PTB  HN ES        914 31.66                             131   -0.11 9  151 261 
 PTB  HZ I         914 34.50         3.9 0.14            130            151 261 
 ZAR  HZ EP        914 16.70                             121    0.27 8  210 293 
 ZAR  HN ES        914 41.94                             121   -0.16 8  210 293 
 ZAR  HZ I         914 47.48         3.7 0.26            120            210 293 
                                                                                
