 2011 1220 0645 39.8 L   6.747 -73.139140.0  RSN 10 0.4 1.8LRSN                1
 GAP=140        0.71       3.5     3.9  5.3 -0.2598E+01  0.4042E+01  0.5756E+01E
 Epicentro: LOS SANTOS - SANTANDER                                             3
 ACTION:UPD 12-07-13 16:17 OP:ep   STATUS:               ID:20111220064539 L   I
 2011-12-20-0640-00M.COL___192                                                 6
 STAT SP IPHASW D HRMM SECON CODA AMPLIT PERI AZIMU VELO AIN AR TRES W  DIS CAZ7
 BAR2 SZ EP        645 58.68                             172    0.0910 17.8 196 
 BAR2 SZ ES   1    646 13.43                             172    0.15 7 17.8 196 
 BAR2 SZ I         646 14.71        15.9 0.29                          17.8 196 
 GIR2 SZ EP   1    645 58.79                             164   -0.13 7 37.2 351 
 BRR  HZ EP        646  0.58                             150    0.0810 74.8 302 
 BRR  HE ES        646 17.19                             150    0.5110 74.8 302 
 BRR  HZ I         646 19.15        13.2 0.12                          74.8 302 
 PAM  SZ EP   1    646  1.61                             148   -0.01 7 81.5  37 
 PAM  SN ES   1    646 18.22                             148   -0.46 7 81.5  37 
 RUS  HZ EP   1    646  2.56                             144    0.04 7 94.7 176 
 RUS  HE ES   1    646 20.04                             144   -0.23 7 94.7 176 
 RUS  HZ I         646 22.07         5.2 0.31                          94.7 176 
 PTB  HZ EP   1    646  5.52                             131   -0.71 7  147 261 
 PTB  HN ES   1    646 26.19                             131   -0.70 7  147 261 
 NOR  SZ EP   1    646 15.07                             118    0.21 6  232 236 
 NOR  SN ES   1    646 42.09                             118   -0.15 6  232 236 
 CHI  HZ EP   1    646 16.75                             116    0.20 6  243 196 
 CHI  HE ES   1    646 45.67                             116    0.43 6  243 196 
 CHI  HZ I         646 52.09         4.2 0.22                           243 196 
 HEL  HZ EP   1    646 20.20                             114    0.59 6  271 257 
 HEL  HZ I         646 59.23         3.7 0.31                           271 257 
 RREF HZ EP   2    646 25.32                             110    0.03 3  319 230 
 RREF HN ES   1    647  0.52                             110   -0.28 5  319 230 
 RREF HZ I         647 11.15         5.7 0.37                           319 230 
                                                                                
