 2012  920 0545 49.4 L   6.757 -73.148140.6  RSN  8 0.4 2.0LRSN                1
 GAP=138        0.78       4.6     3.9  5.9 -0.8002E+00  0.6555E+01  0.5581E+00E
 Epicentro: LOS SANTOS - SANTANDER                                             3
 ACTION:UPD 12-10-22 14:19 OP:ep   STATUS:               ID:20120920054549 L   I
 2012-09-20-0540-00M.COL___226                                                 6
 STAT SP IPHASW D HRMM SECON CODA AMPLIT PERI AZIMU VELO AIN AR TRES W  DIS CAZ7
 BAR2 SZ EP        546  8.31                             172   -0.0510 18.6 192 
 BAR2 SZ ES   1    546 22.96                             172   -0.16 7 18.6 192 
 GIR2 SZ EP   1    546  8.38                             165   -0.26 7 36.0 352 
 GIR2 SZ ES   1    546 23.39                             165   -0.22 7 36.0 352 
 BRR  HZ EP        546 10.26                             151    0.1010 73.4 302 
 BRR  HN ES   1    546 26.99                             151    0.67 7 73.4 302 
 PAM  SZ EP        546 11.31                             149   -0.0410 81.3  38 
 PAM  SZ I         546 11.48        18.3 0.16                          81.3  38 
 PAM  SN ES   1    546 28.18                             149   -0.26 7 81.3  38 
 RUS  HZ EP   1    546 12.27                             144   -0.07 7 95.8 176 
 RUS  HZ I         546 13.46         6.8 0.12                          95.8 176 
 RUS  HN ES   1    546 30.81                             144    0.61 7 95.8 176 
 PTB  HN ES   1    546 35.59                             131   -0.92 7  147 261 
 PTB  HN I         546 41.24        16.7 0.28                           147 261 
 ZAR  HZ EP   1    546 22.13                             121    0.41 6  206 293 
 ZAR  HN ES   1    546 47.38                             121    0.48 6  206 293 
 ZAR  HN I         546 51.82        17.5 0.58                           206 293 
 HEL  HZ EP   1    546 29.11                             114   -0.12 6  271 257 
 HEL  HN ES   1    547  0.07                             114   -0.21 6  271 257 
 HEL  HN I         547  7.99         4.0 0.42                           271 257 
                                                                                
