 2013  120 0526 11.5 L   6.799 -73.160139.6  RSN  5 0.4 1.2LRSN                1
 GAP=135        0.87       6.1     5.9  8.7 -0.3576E+01  0.7923E+01  0.2024E+01E
 Epicentro: LOS SANTOS - SANTANDER                                             3
 ACTION:UPD 13-02-15 09:15 OP:ep   STATUS:               ID:20130120052611 L   I
 2013-01-20-0520-00M.COL___241                                                 6
 STAT SP IPHASW D HRMM SECON CODA AMPLIT PERI AZIMU VELO AIN AR TRES W  DIS CAZ7
 BAR2 SZ ES   1    526 44.67                             170   -0.39 7 22.9 186 
 BRR  HZ EP   1    526 32.03                             152    0.17 7 69.9 299 
 BRR  HN ES   1    526 48.62                             152    0.84 7 69.9 299 
 PAM  SZ EP   1    526 33.12                             149    0.03 7 78.5  40 
 PAM  SN ES   1    526 49.56                             149   -0.41 7 78.5  40 
 PAM  SZ I         526 52.00         3.1 0.52            152           78.5  40 
 RUS  HZ EP   1    526 35.08                             142    0.48 7  101 175 
 RUS  HE ES   1    526 52.76                             142    0.10 7  101 175 
 RUS  HZ I         526 54.79         1.8 0.32            144            101 175 
 PTB  HZ EP   1    526 37.28                             131   -0.50 7  146 259 
 PTB  HN ES   1    526 57.87                             131   -0.44 7  146 259 
 PTB  HZ I         527  0.75         3.3 0.25            132            146 259 
                                                                                
