 2017 1120 0812 27.9 L   6.838 -73.151145.8  RSN 10 0.3 1.5LRSN                1
 GAP=110        0.73       2.6     2.6  4.6  0.4667E+00  0.3322E+01  0.1430E+01E
 Epicentro: LOS SANTOS - SANTANDER                                             3
 ACTION:UPD 17-12-12 19:57 OP:rebc STATUS:               ID:20171120081227 L   I
 OLDACT:UP  17-11-20 16:59 OP:edw  STATUS:               ID:20171120080738d    3
 OLDACT:UP  17-11-20 16:57 OP:edw  STATUS:               ID:20171120080738d    3
 OLDACT:DUP 17-11-20 16:50 OP:edw  STATUS:               ID:20171120080738d    3
 OLDACT:UP  17-11-20 16:49 OP:edw  STATUS:               ID:20171120080737     3
 OLDACT:REG 17-11-20 15:21 OP:osc  STATUS:               ID:20171120080737     3
 2017-11-20-0808-00M.COL___477                                                 6
 STAT SP IPHASW D HRMM SECON CODA AMPLIT PERI AZIMU VELO AIN AR TRES W  DIS CAZ7
 BAR2 EZ EP        812 47.53                             169   -0.1210 27.4 187 
 BAR2 EZ ES        813  3.17                             169    0.1410 27.4 187 
 BAR2 EZ I         813  8.26         6.7 0.28            168           27.4 187 
 PAM  EZ EP        812 50.31                             152    0.3310 74.6  42 
 PAM  EN ES        813  7.15                             152   -0.0310 74.6  42 
 PAM  EZ I         813  9.18        10.9 0.50            158           74.6  42 
 RUS  HZ EP        812 52.00                             143    0.0210  105 176 
 RUS  HN ES        813 10.14                             143   -0.6110  105 176 
 RUS  HZ I         813 13.11         1.6 0.34            146            105 176 
 PTB  HZ EP        812 54.26                             132   -0.66 9  148 257 
 PTB  HN ES        813 15.97                             132   -0.01 9  148 257 
 PTB  HZ I         813 21.05         4.3 0.40            134            148 257 
 SPBC HZ EP        812 56.46                             128   -0.24 9  166 218 
 SPBC HN ES        813 19.49                             128    0.34 9  166 218 
 SPBC HZ I         813 27.82         5.6 0.38            131            166 218 
 YPLC HZ EP        812 58.03                             126   -0.08 9  181 152 
 YPLC HE ES        813 22.03                             126    0.39 9  181 152 
 ZAR  HZ EP        813  0.33                             123    0.17 9  202 291 
 ZAR  HN ES        813 25.37                             123    0.06 9  202 291 
 ZAR  HZ I         813 31.37         4.8 0.38            126            202 291 
 NOR  HZ EP        813  4.06                             118    0.19 8  237 234 
 NOR  HE ES        813 32.17                             118    0.26 8  237 234 
 NOR  HZ I         813 34.50         2.3 0.18            121            237 234 
 CHI  HE ES        813 35.87                             117    0.09 8  253 195 
 URE  HE ES   4    813 41.74                             114    1.11 0  282 291 
 SJC  HZ EP   9    813 21.70                             106   -1.34 0  405 327 
 SJC  HE ES        814  4.71                             106    0.02 6  405 327 
                                                                                
