 2016  520 0921 28.8 L   6.708 -73.145140.0  RSN  5 0.3 1.1LRSN                1
 GAP=253        0.65       4.2     5.1  6.7  0.6391E+00  0.1403E+02 -0.2181E+01E
 Epicentro: VILLANUEVA - SANTANDER                                             3
 ACTION:UPD 16-08-18 17:47 OP:cam  STATUS:               ID:20160520092128 L   I
 OLDACT:REG 16-05-20 13:10 OP:mher STATUS:               ID:20160520091743     3
 2016-05-20-0917-43M.COL___304                                                 6
 STAT SP IPHASW D HRMM SECON CODA AMPLIT PERI AZIMU VELO AIN AR TRES W  DIS CAZ7
 BAR2 EZ EP   2    921 47.74                             174    0.16 5 13.4 198 
 BAR2 EZ ES        922  2.10                             174   -0.1210 13.4 198 
 BAR2 EZ I         922  4.24         3.4 0.46            169           13.4 198 
 BRR  HZ EP        921 49.78                             150    0.1210 76.7 305 
 BRR  HN ES        922  5.95                             150    0.0210 76.7 305 
 PTB  HZ EP   2    921 54.41                             131   -0.76 5  146 263 
 PTB  HN ES        922 15.31                             131   -0.42 9  146 263 
 PTB  HZ I         922 18.08         1.4 0.30            129            146 263 
 SPBC HE ES        922 17.76                             129    0.32 9  155 221 
 SPBC HZ I         922 23.04         1.7 0.25            127            155 221 
 ZAR  HZ EP   2    922  1.06                             120   -0.25 4  208 295 
 ZAR  HN ES        922 27.01                             120    0.34 8  208 295 
 ZAR  HZ I         922 32.65         1.5 0.16            120            208 295 
                                                                                
