 2017 1020 0619 54.5 L   6.791 -73.229149.0  RSN  5 0.4 0.9LRSN                1
 GAP=123        1.10       7.2     6.6  8.6  0.1031E+02 -0.3056E+01 -0.8676E+01E
 Epicentro: ZAPATOCA - SANTANDER                                               3
 ACTION:UPD 17-11-07 19:34 OP:rebc STATUS:               ID:20171020061954 L   I
 OLDACT:UP  17-10-20 16:13 OP:dani STATUS:               ID:20171020061450     3
 OLDACT:REG 17-10-20 13:13 OP:dani STATUS:               ID:20171020061450     3
 2017-10-20-0618-00M.COL___456                                                 6
 STAT SP IPHASW D HRMM SECON CODA AMPLIT PERI AZIMU VELO AIN AR TRES W  DIS CAZ7
 BAR2 EZ ES        620 29.70                             171   -0.3910 22.6 167 
 BRR  HZ EP        620 15.87                             156    0.2810 63.7 303 
 BRR  HN ES     C  620 32.66                             156    0.6110 63.7 303 
 BRR  HZ I         620 33.92         1.6 0.15            152           63.7 303 
 PAM  EZ EP        620 16.96                             149   -0.5110 84.3  44 
 RUS  HZ EP        620 19.12                             144    0.5510  101 171 
 RUS  HN ES        620 37.38                             144    0.0410  101 171 
 RUS  HZ I         620 37.99         1.6 0.30            144            101 171 
 PTB  HZ EP        620 20.70                             135   -0.21 9  138 258 
 PTB  HN ES        620 41.07                             135   -0.44 9  138 258 
 PTB  HZ I         620 47.55         0.7 0.12            132            138 258 
                                                                                
