 2010  220 0848 54.2 L   5.721 -73.871107.5  RSN 11 0.4 2.1LRSN                1
 GAP= 95        0.75       3.3     4.6 10.0 -0.8716E+01  0.2298E+02 -0.9947E+01E
 Epicentro: ALBANIA - SANTANDER                                                3
 ACTION:UP  10-08-24 09:49 OP:vdl  STATUS:               ID:20100220084854 L   I
 2010-02-20-0847-38S.COL___094                                                 6
 STAT SP IPHASW D HRMM SECON CODA AMPLIT PERI AZIMU VELO SNR AR TRES W  DIS CAZ7
 RUS  BZ EP   1    849 13.47                             138     0.0 9   89  78 
 RUS  BE ES   2    849 28.24                             138    -0.2 6   89  78 
 RUS  BZ I         849 30.01        12.9 0.60                            89  78 
 ROSC BZ EP   1    849 15.61                             131     0.6 8  109 207 
 ROSC BE ES   2    849 31.40                             131     0.1 6  109 207 
 ROSC BZ I         849 40.05        15.7 0.33                           109 207 
 CHI  HZ EP   1    849 16.08                             128    -0.2 8  122 173 
 CHI  HN ES   2    849 33.15                             128    -0.3 6  122 173 
 CHI  HZ I         849 38.06        19.5 0.28                           122 173 
 BAR2 SZ EP   1    849 16.28                             127     0.2 8  123  38 
 BAR2 SZ ES   2    849 32.99                             127    -0.2 6  123  38 
 BRR  HZ EP   1    849 18.64                             120    -0.4 8  154   7 
 BRR  HE ES   2    849 38.66                             120     0.3 5  154   7 
 GIR2 SZ EP   1    849 20.86                             118     0.2 8  168  26 
 GIR2 SZ ES   2    849 41.31                             118     0.1 5  168  26 
 RREF BZ EP        849 24.01                             115     0.610  187 241 
 HEL  HZ EP   1    849 23.27                             114    -0.2 7  191 286 
 HEL  HN ES   2    849 45.38                             114    -0.9 5  191 286 
 HEL  HZ I         849 46.70        11.7 0.27                           191 286 
 TOL  SZ EP   1    849 24.48                             113    -0.4 7  204 232 
 TOL  SZ ES   2    849 49.19                             113     0.4 5  204 232 
 PRA  HZ EP   1    849 28.83                             108    -0.8 7  249 207 
 PRA  HE ES   2    849 56.99                             108    -0.3 4  249 207 
 PRA  HZ I         850  1.26        13.0 0.35                           249 207 
 OCA  SZ EP   1    849 33.85                             105    -0.2 6  285  12 
 OCA  SZ ES   2    850  5.42                             105     0.3 4  285  12 
 OCA  SZ I         850 10.47        32.7 0.53                           285  12 
                                                                                
