 2014  120 0400 15.6 L   6.824 -73.187145.2  RSN 11 0.3 1.8LRSN                1
 GAP=130        0.83       2.3     4.2  5.2 -0.2105E+01  0.6541E+01 -0.1324E+01E
 Epicentro: ZAPATOCA - SANTANDER                                               3
 ACTION:UPD 14-03-13 09:56 OP:ep   STATUS:               ID:20140120040015 L   I
 OLDACT:REG 14-01-20 08:16 OP:nd   STATUS:               ID:20140120040000     3
 2014-01-20-0400-00M.COL___285                                                 6
 STAT SP IPHASW D HRMM SECON CODA AMPLIT PERI AZIMU VELO AIN AR TRES W  DIS CAZ7
 BAR2 SZ EP        4 0 35.23                             170    0.0310 25.6 179 
 BAR2 SZ ES        4 0 50.15                             170   -0.3410 25.6 179 
 BAR2 SZ I         4 0 52.09        10.8 0.21            173           25.6 179 
 PAM  SZ EP        4 0 38.05                             150    0.2510 78.4  43 
 PAM  SN ES        4 0 55.21                             150    0.0810 78.4  43 
 PAM  SZ I         4 0 57.44        17.4 0.56            148           78.4  43 
 RUS  HZ EP        4 0 39.61                             143    0.1110  104 174 
 RUS  HN ES        4 0 58.27                             143    0.1110  104 174 
 RUS  HZ I         4 1  0.76         5.7 0.40            145            104 174 
 PTB  HZ EP        4 0 41.92                             133   -0.24 9  144 257 
 PTB  HN ES        4 1  3.34                             133    0.46 9  144 257 
 PTB  HZ I         4 1  6.72         6.0 0.34            129            144 257 
 OCA  HZ EP        4 0 43.85                             130    0.29 9  157 355 
 OCA  HN ES        4 1  5.24                             130   -0.14 9  157 355 
 OCA  HZ I         4 1  9.98         6.9 0.20            126            157 355 
 SPBC HZ EP        4 0 44.27                             129    0.30 9  162 217 
 SPBC HN ES        4 1  6.32                             129    0.21 9  162 217 
 SPBC HZ I         4 1 11.29        11.5 0.22            128            162 217 
 ZAR  HZ EP   4    4 1  4.14                             123   16.68 0  199 292 
 ZAR  HN ES   4    4 1 13.43                             123    1.11 0  199 292 
 ZAR  HZ I         4 1 20.75         4.9 0.26            119            199 292 
 SML  HZ EP        4 0 51.59                             118   -0.13 8  239 336 
 SML  HN ES        4 1 19.38                             118   -0.52 8  239 336 
 SML  HZ I         4 1 23.15        10.6 0.10            114            239 336 
 CHI  HZ EP        4 0 53.49                             117    0.08 8  250 194 
 CHI  HN ES        4 1 21.89                             117   -1.02 8  250 194 
 CHI  HZ I         4 1 27.22         2.3 0.26            116            250 194 
 GUY2CHZ EP   4    4 1  1.66                             112    2.73 0  299 234 
 GUY2CHN ES   4    4 1 34.64                             112    1.91 0  299 234 
 GUY2CHZ I         4 1 43.27         3.4 0.42                           299 234 
 COD  HZ EP   4    4 1  4.36                             109    0.77 0  345 355 
 COD  HN ES   4    4 1 41.08                             109    0.05 0  345 355 
 COD  HZ I         4 2 19.22         2.8 0.60            107            345 355 
                                                                                
