 2013 1020 0536 15.6 L   6.773 -73.116141.3  RSN  6 0.4 1.7LRSN                1
 GAP=142        0.99       4.2     6.8  7.7 -0.5859E+01  0.4626E+01  0.5947E+00E
 Epicentro: LOS SANTOS - SANTANDER                                             3
 ACTION:UPD 13-11-25 09:22 OP:ep   STATUS:               ID:20131020053615 L   I
 OLDACT:UP  13-10-20 11:33 OP:cam  STATUS:               ID:20131020052837     3
 OLDACT:REG 13-10-20 10:47 OP:cam  STATUS:               ID:20131020052837     3
 2013-10-20-0528-37M.COL___218                                                 6
 STAT SP IPHASW D HRMM SECON CODA AMPLIT PERI AZIMU VELO AIN AR TRES W  DIS CAZ7
 BAR2 SZ EP   1    536 34.70                             171    0.03 7 21.3 200 
 BAR2 SZ ES        536 49.19                             171   -0.3410 21.3 200 
 BAR2 SZ I         536 50.36        12.8 0.16            170           21.3 200 
 BRR  HZ EP        536 36.65                             150    0.1110 75.5 299 
 BRR  HE ES        536 53.46                             150    0.6010 75.5 299 
 BRR  HZ I         536 57.39        10.2 0.44            149           75.5 299 
 PAM  SZ EP        536 37.66                             150    0.2810 77.8  36 
 PAM  SN ES        536 54.57                             150    0.2110 77.8  36 
 PAM  SZ I         536 56.72        11.5 0.58            153           77.8  36 
 RUS  HZ EP   1    536 38.68                             144   -0.02 7 97.4 178 
 RUS  HN ES        536 56.58                             144   -0.1210 97.4 178 
 RUS  HZ I         536 57.86         4.5 0.48            146           97.4 178 
 SPBC HZ EP   1    536 43.71                             128   -0.05 7  163 221 
 SPBC HN ES   1    537  5.46                             128   -0.24 7  163 221 
 SPBC HZ I         537  9.28         5.3 0.22            129            163 221 
 OCA  HN ES   1    537  4.66                             128   -1.32 7  164 352 
                                                                                
