 2013  620 0655 12.7 L   6.828 -73.112145.6  RSN 12 0.5 2.1LRSN                1
 GAP=163        0.90       2.9     4.3  5.9  0.1481E+01  0.3245E+01  0.1357E+01E
 Epicentro: LOS SANTOS - SANTANDER                                             3
 ACTION:UPD 14-01-08 09:55 OP:ep   STATUS:               ID:20130620065512 L   I
 OLDACT:REG 13-06-20 09:49 OP:carl STATUS:               ID:20130620064959     3
 2013-06-20-0649-59M.COL___264                                                 6
 STAT SP IPHASW D HRMM SECON CODA AMPLIT PERI AZIMU VELO AIN AR TRES W  DIS CAZ7
 BAR2 SZ EP        655 32.50                             169    0.1010 27.2 197 
 BAR2 SZ ES   1    655 47.32                             169   -0.44 7 27.2 197 
 BAR2 SZ I         655 49.23        36.1 0.16            167           27.2 197 
 BRR  HZ IP     C  655 34.31                             152    0.3710 73.1 295 
 BRR  HN ES   1    655 51.30                             152    0.79 7 73.1 295 
 BRR  HZ I         655 52.00        31.0 0.10            150           73.1 295 
 RUS  HZ EP        655 36.70                             143    0.0510  103 178 
 RUS  HE ES   1    655 55.66                             143    0.34 7  103 178 
 RUS  HZ I         655 56.28        14.6 0.28            143            103 178 
 PTB  HZ EP   1    655 39.39                             131   -0.65 7  152 258 
 PTB  HN ES   1    656  0.21                             131   -1.16 7  152 258 
 PTB  HZ I         656  3.24        10.7 0.16            130            152 258 
 OCA  HZ EP   1    655 40.74                             130   -0.02 7  158 352 
 OCA  HN ES   1    656  2.47                             130   -0.18 7  158 352 
 OCA  HZ I         656  5.89        10.7 0.16            131            158 352 
 YOP  SZ EP        655 43.17                             126    0.32 9  180 155 
 YOP  SN ES   1    656  6.01                             126   -0.35 7  180 155 
 YOP  SZ I         656  8.01        15.7 0.24            127            180 155 
 NOR  HZ EP   1    655 48.69                             118   -0.25 6  239 234 
 NOR  HN ES   1    656 17.53                             118    0.33 6  239 234 
 NOR  HZ I         656 22.02         9.2 0.42            118            239 234 
 SML  HZ EP        655 48.83                             118   -0.36 8  243 334 
 SML  HN ES   1    656 17.42                             118   -0.23 6  243 334 
 SML  HZ I         656 20.85        27.2 0.10            118            243 334 
 CHI  HZ EP   1    655 50.71                             117   -0.11 6  253 196 
 CHI  HN ES   1    656 20.13                             117   -0.42 6  253 196 
 CHI  HZ I         656 23.55         8.4 0.54            117            253 196 
 HEL  HZ EP   1    655 53.57                             114    0.18 6  276 255 
 HEL  HN ES   1    656 25.77                             114    0.65 6  276 255 
 HEL  HZ I         656 31.55         5.2 0.40            114            276 255 
 GUY2CHZ EP   1    655 57.79                             112    0.95 5  306 235 
 GUY2CHN ES   1    656 31.71                             112    0.44 5  306 235 
 GUY2CHZ I         656 38.84         5.5 0.34                           306 235 
 RREF HN ES   4    656 38.02                             110    2.22 0  327 229 
 PRA  HZ EP   1    656  6.50                             106   -0.24 4  396 210 
 PRA  HN ES   1    656 47.89                             106   -1.00 4  396 210 
 PRA  HZ I         656 54.48         6.0 0.28            106            396 210 
                                                                                
