 2017  120 0411 41.6 L   6.798 -73.120148.1  RSN 12 0.5 1.9LRSN                1
 GAP=121        1.06       4.3     5.0  6.4  0.4363E+01 -0.1583E+01  0.4222E+01E
 Epicentro: LOS SANTOS - SANTANDER                                             3
 ACTION:UPD 17-05-22 16:01 OP:jn   STATUS:               ID:20170120041141 L   I
 OLDACT:UP  17-01-20 15:32 OP:dani STATUS:               ID:20170120040742     3
 OLDACT:UP  17-01-20 15:31 OP:dani STATUS:               ID:20170120040742     3
 OLDACT:UP  17-01-20 15:31 OP:dani STATUS:               ID:20170120040742     3
 OLDACT:REG 17-01-20 12:29 OP:dani STATUS:               ID:20170120040742     3
 2017-01-20-0408-00M.COL___313                                                 6
 STAT SP IPHASW D HRMM SECON CODA AMPLIT PERI AZIMU VELO AIN AR TRES W  DIS CAZ7
 BAR2 EZ EP     D  412  1.69                             171    0.1310 23.8 197 
 BAR2 EZ ES        412 16.61                             171   -0.4810 23.8 197 
 BAR2 EZ I         412 19.45        23.0 0.32            177           23.8 197 
 BRR  HZ EP     D  412  3.49                             152    0.3010 73.8 298 
 BRR  HN ES        412 20.61                             152    0.6110 73.8 298 
 BRR  HZ I         412 24.47        11.5 0.26            133           73.8 298 
 PAM  EZ EP     D  412  4.46                             152    0.4510 75.8  38 
 PAM  EZ I         412 24.72        10.4 0.34            126           75.8  38 
 RUS  HZ EP        412  5.61                             144    0.0210  100 178 
 RUS  HN ES        412 24.32                             144    0.0410  100 178 
 RUS  HZ I         412 25.68         9.0 0.32            134            100 178 
 PTB  HZ EP        412  8.57                             132   -0.48 9  151 259 
 PTB  HN ES        412 29.65                             132   -0.78 9  151 259 
 PTB  HZ I         412 32.09         6.7 0.14            116            151 259 
 ZAR  HE ES        412 39.93                             123   -0.23 8  207 292 
 ZAR  HZ I         412 44.98         8.2 0.37            107            207 292 
 CHI  HZ EP        412 19.80                             118    0.27 8  249 196 
 CHI  HN ES        412 49.24                             118    0.16 8  249 196 
 CHI  HZ I         412 54.44         3.6 0.34            106            249 196 
 ROSC BZ EP   9    412 21.90                             117    1.87 0  254 212 
 ROSC BE ES        412 52.70                             116    0.86 8  254 212 
 ROSC BZ I         412 56.28        12.7 0.47            105            254 212 
 URE  HE ES   4    412 52.46                             114   -3.03 0  287 292 
 PTGC HZ EP        412 24.72                             112   -0.74 7  307 159 
 PTGC HN ES   3    412 58.41                             112   -1.23 2  307 159 
 PTGC HZ I         413  3.21         6.2 0.29            102            307 159 
 CBOC HZ EP   3    412 29.89                             110    0.93 2  336 252 
 CBOC HZ I         413 14.92         1.1 0.60            100            336 252 
 ORTC HZ EP   3    412 36.97                             107    1.15 1  397 217 
 ORTC HN ES        413 18.92                             107    0.85 6  397 217 
 ORTC HZ I         413 25.56         2.4 0.33             99            397 217 
 SJC  HZ EP   3    412 35.87                             106   -1.61 1  411 327 
 SJC  HZ I         413 21.01         1.6 0.31             97            411 327 
                                                                                
