 2010  720 0653  1.1 L   6.782 -73.155152.0  RSN  5 0.3 1.1LRSN                1
 GAP=158        0.66       7.0    12.9 13.0  0.5272E+02 -0.1092E+03 -0.5846E+02E
 Epicentro: LOS SANTOS - SANTANDER                                             3
 ACTION:UPD 10-12-01 15:18 OP:pat  STATUS:               ID:20100720065301 L   I
 2010-07-20-0651-59S.COL___123                                                 6
 STAT SP IPHASW D HRMM SECON CODA AMPLIT PERI AZIMU VELO AIN AR TRES W  DIS CAZ7
 BAR2 SZ EP   3    653 21.02                             171    -0.4 2   21 189 
 BAR2 SZ I         653 37.13         7.7 0.47                            21 189 
 BRR  HZ EP        653 23.01                             153     0.110   71 300 
 BRR  HN ES   1    653 40.00                             153     0.0 7   71 300 
 BRR  HZ I         653 41.13         2.4 0.16                            71 300 
 RUS  HZ EP   2    653 25.45                             145     0.1 5   99 175 
 RUS  HN ES   1    653 44.23                             145     0.0 7   99 175 
 RUS  HZ I         653 45.46         1.3 0.41                            99 175 
 GUE  SZ EP   1    653 26.16                             140    -0.4 7  119  12 
 GUE  SZ I         653 52.21         0.6 0.10                           119  12 
 GRA  SZ EP   2    653 27.80                             138     0.7 5  128  18 
 GRA  SZ I         653 46.93         1.8 0.24                           128  18 
                                                                                
