 2011  420 0908 43.6 L   6.806 -73.158145.1  RSN 11 0.4 2.4LRSN                1
 GAP=112        0.86       4.5     6.4  6.1 -0.1222E+02  0.3203E+01  0.3275E+01E
 Epicentro: LOS SANTOS - SANTANDER                                             3
 ACTION:UP  11-06-22 15:31 OP:REBC STATUS:               ID:20110420090843 L   I
 2011-04-20-0905-40S.COL___138                                                 6
 STAT SP IPHASW D HRMM SECON CODA AMPLIT PERI AZIMU VELO SNR AR TRES W  DIS CAZ7
 BTL  SZ EP        9 9  3.29                             173     0.210   17 316 
 BAR2 SZ EP        9 9  3.15                             170     0.010   24 187 
 BAR2 SZ ES   1    9 9 17.91                             170    -0.5 7   24 187 
 GIR2 SZ EP        9 9  3.23                             168     0.110   30 352 
 GIR2 SZ ES   2    9 9 18.84                             168     0.4 5   30 352 
 BRR  HZ EP        9 9  4.91                             153     0.310   70 299 
 BRR  HN ES   2    9 9 21.73                             153     0.8 5   70 299 
 BRR  HZ I         9 9 25.65        58.1 0.17                            70 299 
 PAM  SZ EP        9 9  5.90                             151     0.110   78  41 
 PAM  SZ I         9 9  6.22        32.7 0.10                            78  41 
 PAM  SN ES   1    9 9 22.90                             151    -0.2 7   78  41 
 BRI  SZ EP        9 9  7.60                             141     0.210  108  22 
 BRI  SZ ES   2    9 9 24.98                             141    -1.0 5  108  22 
 GUE  SZ EP        9 9  8.47                             139     0.210  116  13 
 GRA  SZ EP        9 9  8.88                             137     0.110  125  18 
 GRA  SZ ES   1    9 9 28.45                             137     0.1 7  125  18 
 OCA  SZ EP        9 9 10.98                             130    -0.8 9  159 354 
 OCA  SZ I         9 9 37.93        37.8 0.55                           159 354 
 YOP  SZ EP        9 9 13.74                             126     0.0 9  180 153 
 NOR  SZ EP        9 9 19.05                             118    -0.2 8  234 234 
 NOR  SN ES   2    9 9 46.39                             118    -0.6 4  234 234 
                                                                                
