 2017  820 0622 24.0 L   6.507 -73.549144.0  RSN  5 0.4 1.2LRSN                1
 GAP= 96        0.49       4.5     5.9  7.8  0.1898E+02  0.2834E+02  0.1008E+02E
 Epicentro: SANTA HELENA DEL OPON - SANTANDER                                  3
 ACTION:UPD 17-09-04 20:22 OP:rebc STATUS:               ID:20170820062224 L   I
 OLDACT:UP  17-08-20 13:56 OP:mg   STATUS:               ID:20170820061714d    3
 OLDACT:UP  17-08-20 13:55 OP:mg   STATUS:               ID:20170820061714d    3
 OLDACT:UP  17-08-20 13:55 OP:mg   STATUS:               ID:20170820061714d    3
 OLDACT:UP  17-08-20 13:54 OP:mg   STATUS:               ID:20170820061714d    3
 OLDACT:UP  17-08-20 13:54 OP:mg   STATUS:               ID:20170820061714d    3
 OLDACT:UP  17-08-20 13:53 OP:mg   STATUS:               ID:20170820061714d    3
 OLDACT:UP  17-08-20 13:53 OP:mg   STATUS:               ID:20170820061714d    3
 OLDACT:UP  17-08-20 13:52 OP:mg   STATUS:               ID:20170820061714d    3
 OLDACT:UP  17-08-20 13:52 OP:mg   STATUS:               ID:20170820061714d    3
 OLDACT:UP  17-08-20 13:52 OP:mg   STATUS:               ID:20170820061714d    3
 OLDACT:UP  17-08-20 13:50 OP:mg   STATUS:               ID:20170820061714d    3
 OLDACT:UP  17-08-20 13:49 OP:mg   STATUS:               ID:20170820061714d    3
 OLDACT:UP  17-08-20 13:49 OP:mg   STATUS:               ID:20170820061714d    3
 OLDACT:UP  17-08-20 13:48 OP:mg   STATUS:               ID:20170820061714d    3
 OLDACT:UP  17-08-20 13:48 OP:mg   STATUS:               ID:20170820061714d    3
 OLDACT:UP  17-08-20 13:48 OP:mg   STATUS:               ID:20170820061714d    3
 OLDACT:UP  17-08-20 13:39 OP:mg   STATUS:               ID:20170820061714d    3
 OLDACT:UP  17-08-20 13:38 OP:mg   STATUS:               ID:20170820061714d    3
 OLDACT:UP  17-08-20 13:38 OP:mg   STATUS:               ID:20170820061714d    3
 OLDACT:DUP 17-08-20 13:27 OP:mg   STATUS:               ID:20170820061714d    3
 OLDACT:UP  17-08-20 13:25 OP:mg   STATUS:               ID:20170820061713     3
 OLDACT:UP  17-08-20 13:24 OP:mg   STATUS:               ID:20170820061713     3
 OLDACT:UP  17-08-20 13:24 OP:mg   STATUS:               ID:20170820061713     3
 OLDACT:UP  17-08-20 13:23 OP:mg   STATUS:               ID:20170820061713     3
 OLDACT:UP  17-08-20 13:21 OP:mg   STATUS:               ID:20170820061713     3
 OLDACT:REG 17-08-20 11:27 OP:mg   STATUS:               ID:20170820061713     3
 2017-08-20-0618-00M.COL___405                                                 6
 STAT SP IPHASW D HRMM SECON CODA AMPLIT PERI AZIMU VELO AIN AR TRES W  DIS CAZ7
 BAR2 EZ EP   3    622 43.04                             163   -0.86 2 41.6  77 
 BAR2 EZ ES   2    622 59.03                             163   -0.41 5 41.6  77 
 BAR2 EZ I         622 59.98         3.1 0.57            164           41.6  77 
 BRR  HZ EP        622 44.76                             153   -0.0210 68.7 345 
 BRR  HN ES   3    623  1.67                             153    0.65 2 68.7 345 
 BRR  HZ I         623  4.75         3.3 0.34            150           68.7 345 
 RUS  HZ EP   3    622 47.29                             148    0.80 2 85.3 143 
 RUS  HN ES        623  4.21                             148    0.1410 85.3 143 
 RUS  HZ I         623  7.67         1.9 0.24            155           85.3 143 
 SPBC HZ EP        622 47.62                             140   -0.1410  111 212 
 SPBC HE ES   4    623  2.27                             140   -4.04 0  111 212 
 SPBC HZ I         623  4.58         6.4 0.06            146            111 212 
 ZAR  HZ EP   3    622 54.85                             126    0.89 2  181 307 
 ZAR  HN ES        623 17.40                             126    0.05 9  181 307 
 ZAR  HZ I         623 26.83         1.5 0.42            126            181 307 
                                                                                
