 2010  920 0336  3.8 L   6.790 -73.092147.2  RSN 19 0.4 3.1LRSN                1
 GAP=162        0.93       3.2     5.7  5.8 -0.7522E+01  0.9754E+01  0.2664E+01E
 Epicentro: LOS SANTOS - SANTANDER                                             3
 ACTION:UP  11-02-18 11:04 OP:tino STATUS:               ID:20100920033603 L   I
 2010-09-20-0334-04S.COL___121                                                 6
 STAT SP IPHASW D HRMM SECON CODA AMPLIT PERI AZIMU VELO SNR AR TRES W  DIS CAZ7
 BTL  SZ IP        336 23.74                             170     0.110   24 306 
 BAR2 SZ IP        336 23.50                             170    -0.210   24 205 
 BAR2 SZ ES   1    336 38.99                             170    -0.1 7   24 205 
 BAR2 SZ I         336 39.79       213.9 0.43                            24 205 
 GIR2 SZ IP        336 23.60                             166    -0.210   34 341 
 URB  SZ EP        336 25.18                             158     0.710   56 332 
 BRR  HZ IP     C  336 25.41                             151    -0.110   77 297 
 BRR  HZ I         336 25.69       522.1 0.17                            77 297 
 BRR  HN ES   1    336 42.70                             151     0.3 7   77 297 
 RUS  HZ EP        336 27.38                             144    -0.310   99 179 
 RUS  HE ES   1    336 45.95                             144    -0.2 7   99 179 
 RUS  HZ I         336 47.36        97.4 0.26                            99 179 
 BRI  SZ EP        336 28.12                             142     0.310  108  18 
 GRA  SZ IP     C  336 29.30                             137     0.110  125  15 
 GRA  SZ ES   1    336 49.05                             137     0.1 7  125  15 
 GRA  SZ I         336 49.96       123.7 0.34                           125  15 
 OCA  SZ EP        336 31.83                             130    -0.6 9  162 351 
 OCA  SZ ES   1    336 54.24                             130    -0.5 7  162 351 
 OCA  SZ I         336 59.78       139.0 0.26                           162 351 
 NOR  HZ EP        336 39.35                             118    -0.8 8  239 236 
 CHI  HZ EP        336 41.24                             117    -0.4 8  249 197 
 CHI  HZ I         336 44.19        38.2 0.45                           249 197 
 CHI  HN ES   1    337 11.24                             117     0.1 6  249 197 
 ROSC BZ EP        336 43.04                             117     0.8 8  255 212 
 ROSC BN ES   1    337 12.57                             117     0.3 6  255 212 
 ROSC BZ I         337 21.24        54.0 0.37                           255 212 
 CVER SZ EP        336 44.46                             115     0.0 8  273 203 
 HEL  HZ EP        336 44.87                             115     0.1 7  278 256 
 HEL  HE ES   2    337 16.33                             115    -0.3 4  278 256 
 HEL  HZ I         337 22.21        49.8 0.43                           278 256 
 GUY  SZ EP        336 48.61                             112     0.6 7  306 236 
 GUY  SN ES   2    337 22.46                             112     0.0 4  306 236 
 GUY  SZ I         337 29.18       126.1 0.45                           306 236 
 RREF HZ EP        336 50.43                             111     0.0 7  326 230 
 RREF HE ES   1    337 26.39                             111    -0.5 5  326 230 
 RREF HZ I         337 35.14        46.9 0.25                           326 230 
 DBB  SZ EP   1    336 51.55                             109    -0.5 5  345 274 
 TOL  SZ EP        336 52.76                             109     0.2 6  347 225 
 ANIL HZ EP   2    336 54.32                             108     0.2 3  361 225 
 ANIL HE ES   2    337 33.81                             108     0.5 3  361 225 
 ANIL HZ I         337 39.23        68.4 0.29                           361 225 
                                                                                
