 2017  620 0752 12.4 L   6.825 -73.098157.6  RSN 12 0.5 2.2LRSN                1
 GAP=157        1.00       4.0     5.8  7.6 -0.2689E+01 -0.1463E+02  0.9017E+01E
 Epicentro: LOS SANTOS - SANTANDER                                             3
 ACTION:UPD 17-09-14 16:53 OP:jn   STATUS:               ID:20170620075212 L   I
 OLDACT:UP  17-06-30 07:30 OP:dnl  STATUS:               ID:20170620075212 L   3
 OLDACT:REG 17-06-20 17:47 OP:lv   STATUS:               ID:20170620074600     3
 2017-06-20-0745-59S.COL___270                                                 6
 STAT SP IPHASW D HRMM SECON CODA AMPLIT PERI AZIMU VELO AIN AR TRES W  DIS CAZ7
 BRR  HZ EP        752 35.10                             153    0.1010 74.7 295 
 BRR  HN ES        752 52.83                             153    0.1910 74.7 295 
 BRR  HZ I         752 57.45        18.5 0.06            153           74.7 295 
 PTB  HZ EP   9    752 40.11                             133   -0.72 0  153 258 
 PTB  HN ES        753  1.46                                   -0.84 9  153 258 
 PTB  HZ I         753  8.95        14.7 0.19            134            153 258 
 ZAR  HZ EP        752 45.93                             124   -0.08 8  208 291 
 ZAR  HE ES        753 11.88                             124   -0.36 8  208 291 
 ZAR  HZ I         753 17.71        17.2 0.15            126            208 291 
 NOR  HZ EP        752 49.31                             120   -0.13 8  241 235 
 NOR  HN ES        753 17.74                             120   -0.61 8  241 235 
 NOR  HZ I         753 23.20        12.2 0.18            121            241 235 
 CHI  HZ EP        752 51.63                             119    0.44 8  253 196 
 CHI  HN ES        753 21.63                             119    0.16 8  253 196 
 CHI  HZ I         753 28.69         6.2 0.28            121            253 196 
 ROSC BZ EP   4    752 53.39                             118    1.67 0  258 212 
 ROSC BN ES   2    753 22.48                             118    0.08 4  258 212 
 ROSC BZ I         753 30.94        19.0 0.42            120            258 212 
 HEL  HZ EP        752 54.74                             116    0.89 7  278 256 
 HEL  HN ES   4    753 27.63                             116    1.44 0  278 256 
 HEL  HZ I         753 32.07         7.5 0.24            118            278 256 
 GUY2CHZ EP   4    752 58.31                             114    1.10 0  307 235 
 GUY2CHN ES        753 31.51                             114   -0.68 7  307 235 
 GUY2CHZ I         753 39.85         9.2 0.54                           307 235 
 PTGC HZ EP        752 56.09                             113   -0.78 7  309 160 
 PTGC HN ES   4    753 29.14                             113   -2.43 0  309 160 
 PTGC HZ I         753 32.57         4.1 0.17            116            309 160 
 CBOC HZ EP        753  1.03                             111    0.56 7  339 252 
 CBOC HN ES        753 38.05                             111    0.07 7  339 252 
 CBOC HZ I         753 45.69         1.5 0.15            113            339 252 
 ORTC HZ EP        753  7.42                             108    0.07 6  401 217 
 ORTC HN ES        753 50.77                             108    0.55 6  401 217 
 ORTC HZ I         753 56.44         4.7 0.49            110            401 217 
 SJC  HZ EP   4    753  7.09                             107   -1.33 0  410 326 
 SJC  HN ES   4    753 48.85                             107   -3.28 0  410 326 
 CRJC HZ EP   4    753 13.53                             105   -1.33 0  465   3 
 CRJC HN ES        754  2.99                             105   -0.61 5  465   3 
 CRJC HZ I         754  4.61         3.4 0.17            108            465   3 
                                                                                
