 2014  920 0712 42.4 L   6.813 -73.142151.2  RSN 20 0.4 2.2LRSN                1
 GAP= 66        0.98       2.6     3.0  4.8 -0.4646E+00  0.2343E+01  0.2568E+01E
 Epicentro: LOS SANTOS - SANTANDER                                             3
 ACTION:UPD 14-10-03 23:06 OP:nd   STATUS:               ID:20140920071242 L   I
 OLDACT:REG 14-09-20 12:41 OP:spq  STATUS:               ID:20140920070805     3
 2014-09-20-0708-05M.COL___293                                                 6
 STAT SP IPHASW D HRMM SECON CODA AMPLIT PERI AZIMU VELO AIN AR TRES W  DIS CAZ7
 BAR2 SZ EP        713  2.71                             170   -0.0210 24.8 190 
 BAR2 SZ ES   1    713 17.94                             170   -0.64 7 24.8 190 
 BAR2 SZ I         713 19.04        62.2 0.24            168           24.8 190 
 BRR  HZ IP     D  713  4.57                             154    0.4310 70.9 297 
 BRR  HN ES        713 22.00                             154    0.9210 70.9 297 
 BRR  HZ I         713 24.90        34.3 0.32            148           70.9 297 
 PAM  SZ EP        713  5.67                             152    0.5310 76.0  40 
 PAM  SN ES        713 22.90                             152    0.0410 76.0  40 
 RUS  HZ EP        713  6.59                             144   -0.2210  102 176 
 RUS  HE ES        713 25.43                             144   -0.4010  102 176 
 RUS  HZ I         713 26.81        12.3 0.18            145            102 176 
 PTB  HZ EP        713  9.30                             133   -0.59 9  148 258 
 PTB  HE ES        713 31.26                             133   -0.07 9  148 258 
 PTB  HZ I         713 37.77        25.5 0.36            130            148 258 
 TAM  HZ EP     C  713 11.07                             132    0.54 9  155 106 
 TAM  HE ES   1    713 32.84                             132    0.38 7  155 106 
 OCA  HZ EP   1    713 10.36                             131   -0.67 7  159 353 
 OCA  HN ES        713 32.78                             131   -0.56 9  159 353 
 OCA  HZ I         713 38.02        16.7 0.12            130            159 353 
 SPBC HZ EP        713 11.63                             130    0.16 9  165 219 
 SPBC HN ES        713 33.66                             130   -0.47 9  165 219 
 SPBC HZ I         713 38.51        26.2 0.26            128            165 219 
 ZAR  HZ EP        713 15.22                             124    0.02 9  204 292 
 ZAR  HN ES        713 40.68                             124   -0.10 9  204 292 
 ZAR  HZ I         713 46.90        17.2 0.24            121            204 292 
 SML  HZ EP        713 18.97                             119   -0.26 8  243 335 
 SML  HN ES   1    713 47.74                             119   -0.20 6  243 335 
 SML  HZ I         713 53.09        20.3 0.24            118            243 335 
 CHI  HZ EP   1    713 20.62                             118    0.04 6  250 195 
 CHI  HE ES   1    713 50.65                             118    0.30 6  250 195 
 CHI  HZ I         713 52.61         4.7 0.26            118            250 195 
 ROSC BZ EP   4    713 22.53                             118    1.54 0  254 211 
 ROSC BN ES   4    713 52.70                             118    1.62 0  254 211 
 ROSC BZ I         713 56.91        14.7 0.35            117            254 211 
 GUY2CHZ EP   1    713 26.67                             113    0.26 5  302 235 
 GUY2CHE ES   1    714  1.04                             113    0.31 5  302 235 
 GUY2CHZ I         714  8.69         8.5 0.40                           302 235 
 PTGC HZ EP        713 25.69                             112   -0.97 7  310 159 
 PTGC HN ES   4    713 58.34                             112   -2.82 0  310 159 
 PTGC HZ I         713 58.99         8.7 0.30            113            310 159 
 CBOC HZ EP   1    713 30.26                             111    0.61 5  334 252 
 CBOC HN ES   1    714  6.34                             111   -0.16 5  334 252 
 CBOC HZ I         714 13.90         2.8 0.58            110            334 252 
 TOL  SZ EP   1    713 31.60                             110    0.56 5  345 225 
 TOL  SE ES   4    714 11.43                             110    2.45 0  345 225 
 TOL  SZ I         714 15.96        12.3 0.27            110            345 225 
 MON  HZ EP   4    713 29.79                             110   -1.77 0  353 308 
 MON  HN ES   4    714  8.31                             110   -1.59 0  353 308 
 MON  HZ I         714 24.49         3.9 0.54            109            353 308 
 PRA  HZ EP        713 36.02                             107   -0.28 6  393 210 
 PRA  HE ES        714 18.63                             107    0.31 6  393 210 
 PRA  HZ I         714 24.78         5.9 0.48            107            393 210 
 ORTC HZ EP        713 36.91                             107    0.22 6  397 216 
 ORTC HN ES        714 19.64                             107    0.62 6  397 216 
 ORTC HZ I         714 26.15         4.0 0.56            107            397 216 
 SJC  HZ EP   4    713 36.83                             107   -1.21 0  408 327 
 SJC  HN ES   4    714 17.53                             107   -3.90 0  408 327 
 SJC  HZ I         714 26.77         2.9 0.28            106            408 327 
                                                                                
