 2017  220 0516  5.2 L   6.787 -73.153145.7  RSN  8 0.3 1.6LRSN                1
 GAP=136        0.67       3.2     3.5  4.3  0.2585E+01  0.4919E+01  0.2175E+01E
 Epicentro: LOS SANTOS - SANTANDER                                             3
 ACTION:UPD 17-05-24 15:38 OP:jn   STATUS:               ID:20170220051605 L   I
 OLDACT:UP  17-02-20 16:31 OP:dani STATUS:               ID:20170220050743d    3
 OLDACT:UP  17-02-20 16:31 OP:dani STATUS:               ID:20170220050743d    3
 OLDACT:DUP 17-02-20 16:26 OP:dani STATUS:               ID:20170220050743d    3
 2017-02-20-0508-00M.COL___351                                                 6
 STAT SP IPHASW D HRMM SECON CODA AMPLIT PERI AZIMU VELO AIN AR TRES W  DIS CAZ7
 BAR2 EZ EP     C  516 24.72                             171   -0.0810 21.8 189 
 BAR2 EZ E         516 40.04                                           21.8 189 
 BAR2 EZ ES        516 40.04                             171   -0.0410 21.8 189 
 BAR2 EZ I         516 42.51        14.1 0.30            159           21.8 189 
 BRR  HZ EP        516 26.56                             152    0.2110 71.2 300 
 BRR  HE ES        516 43.20                             152    0.3610 71.2 300 
 BRR  HZ I         516 47.53         7.2 0.30            143           71.2 300 
 PAM  EZ EP        516 27.63                             150    0.1210 79.0  39 
 PAM  EE ES        516 44.63                             150   -0.2810 79.0  39 
 PAM  EZ I         516 47.45         4.2 0.64            148           79.0  39 
 RUS  HZ EP        516 28.71                             144   -0.1410 99.2 176 
 RUS  HN ES        516 47.38                             144    0.0910 99.2 176 
 RUS  HZ I         516 48.62         4.8 0.36            130           99.2 176 
 PTB  HZ EP        516 31.49                             132   -0.58 9  147 259 
 PTB  HE ES   3    516 52.37                             132   -0.65 2  147 259 
 PTB  HZ I         516 55.15         3.7 0.14            120            147 259 
 ZAR  HZ EP        516 37.96                             122    0.34 9  204 293 
 ZAR  HE ES        517  2.67                             122   -0.24 9  204 293 
 ZAR  HZ I         517  9.85         3.9 0.34            112            204 293 
 CHI  HZ EP        516 43.06                             117    0.34 8  247 195 
 CHI  HE ES   3    517 12.13                             117    0.14 2  247 195 
 CHI  HZ I         517 22.36         1.5 0.60            107            247 195 
 ROSC BZ EP   4    516 44.95                             117    1.81 0  251 211 
 ROSC BZ I         517 21.00         3.7 0.65            106            251 211 
                                                                                
