 2013  120 0233 44.6 L   6.817 -73.226139.7  RSN  6 0.3 1.3LRSN                1
 GAP=124        0.65       4.6     4.7  6.4 -0.4701E+01  0.8264E+01  0.8356E+00E
 Epicentro: ZAPATOCA - SANTANDER                                               3
 ACTION:UPD 13-02-15 09:15 OP:ep   STATUS:               ID:20130120023344 L   I
 2013-01-20-0230-00M.COL___241                                                 6
 STAT SP IPHASW D HRMM SECON CODA AMPLIT PERI AZIMU VELO AIN AR TRES W  DIS CAZ7
 BAR2 SZ EP   1    234  3.37                             169   -0.20 7 25.3 169 
 BAR2 SZ ES   1    234 18.68                             169    0.33 7 25.3 169 
 BRR  HZ EP   1    234  5.22                             154    0.57 7 62.6 301 
 BRR  HN ES   4    234 22.15                             154    1.89 0 62.6 301 
 BRR  HZ I         234 26.99         5.6 0.46            151           62.6 301 
 PAM  SZ EP   1    234  6.22                             148   -0.27 7 82.0  45 
 PAM  SN ES   1    234 23.47                             148   -0.08 7 82.0  45 
 PAM  SZ I         234 25.08         4.2 0.48            155           82.0  45 
 RUS  HZ EP   1    234  7.63                             142   -0.37 7  103 171 
 RUS  HE ES   1    234 26.24                             142    0.01 7  103 171 
 RUS  HZ I         234 28.23         1.8 0.24            149            103 171 
 PTB  HZ EP   1    234 10.52                             132    0.17 7  139 257 
 PTB  HN ES   1    234 29.99                             132   -0.42 7  139 257 
 PTB  HZ I         234 37.31         2.9 0.30            133            139 257 
 CHI  HZ EP   1    234 22.31                             116    0.36 6  248 193 
                                                                                
