 2012  520 0609 36.8 L   7.415 -73.199130.7  RSN  7 0.3 2.0LRSN                1
 GAP=107        0.69       3.7     3.7  6.0 -0.2677E+01  0.7603E+01  0.1154E+01E
 Epicentro: EL PLAYON - SANTANDER                                              3
 ACTION:UP  12-07-05 12:06 OP:pat  STATUS:               ID:20120520060936 L   I
 2012-05-20-0607-35M.COL___190                                                 6
 STAT SP IPHASW D HRMM SECON CODA AMPLIT PERI AZIMU VELO SNR AR TRES W  DIS CAZ7
 PAM  SZ EP        6 9 56.43                             156     0.310   56  99 
 PAM  SN ES   1    610 11.58                             156     0.3 7   56  99 
 BRR  HZ EP        6 9 56.05                             151     0.010   66 239 
 BRR  HE ES   1    610 11.09                             151     0.1 7   66 239 
 BRR  HZ I         610 15.20        17.6 0.15                            66 239 
 BAR2 SZ EP   1    6 9 57.93                             143    -0.1 7   91 179 
 BAR2 SZ ES   1    610 14.29                             143    -0.3 7   91 179 
 BAR2 SZ I         610 15.46        18.7 0.15                            91 179 
 OCA  HZ EP   1    6 9 57.67                             143    -0.3 7   92 352 
 OCA  HN ES   1    610 14.12                             143    -0.4 7   92 352 
 OCA  HZ I         610 16.79        35.1 0.28                            92 352 
 PTB  HZ EP   1    610  4.15                             124    -0.5 7  169 235 
 PTB  HN ES   1    610 26.16                             124    -0.3 7  169 235 
 PTB  HZ I         610 28.10         7.5 0.27                           169 235 
 ZAR  HZ EP   1    610  6.17                             122     0.1 7  183 273 
 ZAR  HN ES   1    610 29.54                             122     0.6 7  183 273 
 ZAR  HZ I         610 30.55        11.7 0.17                           183 273 
 NOR  SZ EP   1    610 16.65                             111     0.4 6  276 222 
 NOR  SN ES   1    610 47.13                             111     0.0 6  276 222 
                                                                                
