 2015  420 0017 33.1 L   6.794 -73.185145.5  RSN  5 0.3 1.1LRSN                1
 GAP=132        0.84       4.5     4.3  6.8 -0.1926E+01  0.1160E+01  0.2608E+01E
 Epicentro: ZAPATOCA - SANTANDER                                               3
 ACTION:UPD 15-06-03 16:56 OP:cam  STATUS:               ID:20150420001734dL   I
 OLDACT:DUP 15-04-20 15:09 OP:ak   STATUS:               ID:20150420000750d    3
 OLDACT:REG 15-04-20 12:49 OP:ak   STATUS:               ID:20150420000749     3
 2015-04-20-0007-49M.COL___261                                                 6
 STAT SP IPHASW D HRMM SECON CODA AMPLIT PERI AZIMU VELO AIN AR TRES W  DIS CAZ7
 BAR2 EZ EP        017 52.56                             171   -0.0810 22.3 179 
 BAR2 EZ ES   1    018  8.24                             171    0.32 7 22.3 179 
 BRR  HZ EP        017 54.34                             154    0.3510 67.7 301 
 BRR  HN ES        018 10.78                             154    0.4610 67.7 301 
 PAM  SZ EP     C  017 55.49                             150    0.0310 80.7  42 
 PAM  SN ES        018 12.44                             150   -0.4810 80.7  42 
 PAM  SZ I         018 12.99         3.3 0.20            152           80.7  42 
 RUS  HZ EP        017 56.92                             144    0.1510  100 174 
 RUS  HN ES        018 15.23                             144   -0.0310  100 174 
 RUS  HZ I         018 16.86         1.1 0.23            144            100 174 
 PTB  HZ EP   1    017 59.46                             133   -0.15 7  143 259 
 PTB  HN ES        018 19.76                             133   -0.56 9  143 259 
 PTB  HZ I         018 22.86         2.3 0.14            133            143 259 
                                                                                
