 2013 1020 0903 34.8 L   6.806 -73.157150.6  RSN  7 0.4 1.6LRSN                1
 GAP=135        0.90       3.5     4.6  5.8 -0.2208E+01  0.5198E+01 -0.1873E+01E
 Epicentro: LOS SANTOS - SANTANDER                                             3
 ACTION:UPD 13-11-25 09:22 OP:ep   STATUS:               ID:20131020090334 L   I
 OLDACT:UP  13-10-20 11:58 OP:cam  STATUS:               ID:20131020085840     3
 OLDACT:REG 13-10-20 10:50 OP:cam  STATUS:               ID:20131020085840     3
 2013-10-20-0858-40M.COL___212                                                 6
 STAT SP IPHASW D HRMM SECON CODA AMPLIT PERI AZIMU VELO AIN AR TRES W  DIS CAZ7
 BAR2 SZ EP     C  9 3 54.93                             171   -0.0610 23.8 187 
 BAR2 SZ ES        9 4 10.75                             171   -0.0110 23.8 187 
 BAR2 SZ I         9 4 11.23         9.9 0.40            169           23.8 187 
 BRR  HZ EP        9 3 56.75                             154    0.3910 69.8 299 
 BRR  HE ES        9 4 13.87                             154    0.6610 69.8 299 
 BRR  HZ I         9 4 16.72        10.6 0.36            148           69.8 299 
 PAM  SZ EP   1    9 3 58.00                             152    0.49 7 77.7  41 
 PAM  SN ES        9 4 14.92                             152   -0.3410 77.7  41 
 RUS  HZ EP        9 3 58.94                             145   -0.1110  101 175 
 RUS  HN ES        9 4 17.67                             145   -0.3210  101 175 
 RUS  HZ I         9 4 18.28         2.6 0.40            146            101 175 
 PTB  HZ EP   1    9 4  1.95                             133   -0.08 7  147 258 
 PTB  HN ES        9 4 22.69                             133   -0.61 9  147 258 
 PTB  HZ I         9 4 28.74         4.7 0.20            130            147 258 
 SPBC HZ EP        9 4  3.92                             130    0.31 9  163 218 
 SPBC HN ES        9 4 26.29                             130    0.17 9  163 218 
 SPBC HZ I         9 4 32.94         4.5 0.34            129            163 218 
 SML  HZ EP        9 4 11.36                             118   -0.18 8  243 335 
 SML  HN ES   1    9 4 39.71                             118   -0.52 6  243 335 
 SML  HZ I         9 4 48.80         5.7 0.10            118            243 335 
                                                                                
