 2017  320 0705 15.5 L   6.025 -74.231  8.0  RSN 16 0.5 2.0LRSN                1
 GAP= 60        1.16       1.7     2.6  4.8 -0.4329E+00  0.7232E+01 -0.1789E+00E
 Epicentro: LA BELLEZA - SANTANDER                                             3
 ACTION:UPD 17-05-25 18:42 OP:jn   STATUS:               ID:20170320070515 L   I
 OLDACT:REG 17-03-20 13:17 OP:cog  STATUS:               ID:20170320065739     3
 2017-03-20-0658-00M.COL___373                                                 6
 STAT SP IPHASW D HRMM SECON CODA AMPLIT PERI AZIMU VELO AIN AR TRES W  DIS CAZ7
 SPBC HZ EP        7 5 23.29                              96    0.2710 44.8 157 
 SPBC HE ES        7 5 29.53                              96    0.6510 44.8 157 
 SPBC HZ I         7 5 29.86       121.7 0.09             47           44.8 157 
 PTB  HZ EP        7 5 25.59                              94    0.0410 62.1 336 
 PTB  HN ES        7 5 33.71                              94    0.3210 62.1 336 
 PTB  HZ I         7 5 34.22       216.7 0.12             47           62.1 336 
 RUS  HZ EP        7 5 35.71                              92   -0.3010  128  97 
 RUS  HN ES   4    7 5 50.79                              92   -1.20 0  128  97 
 RUS  HZ I         7 5 52.32        31.0 0.15             47            128  97 
 ROSC BZ EP        7 5 36.92                              92    0.4910  131 184 
 BAR2 EZ EP        7 5 36.40                              92    0.0610  132  62 
 BAR2 EZ ES        7 5 52.14                              92   -0.4510  132  62 
 BRR  HZ EP        7 5 36.04                              92   -0.1810  133  26 
 BRR  HN ES        7 5 51.58                              92   -0.7910  133  26 
 BRR  HZ I         7 5 53.61        20.0 0.10             47            133  26 
 GUY2CHZ EP        7 5 39.36                              92   -0.54 9  154 235 
 GUY2CHN ES   4    7 5 57.27                              92   -1.64 0  154 235 
 GUY2CHZ  IAML     7 6  0.37        25.2 0.26                           154 235 
 CHI  HZ EP        7 5 41.37                              92   -0.01 9  164 160 
 CHI  HN ES        7 6  1.54                              92   -0.02 9  164 160 
 CHI  HZ I         7 6  6.01         7.4 0.58             47            164 160 
 RECRCHZ EP        7 5 42.22                              56   -0.27 9  171 227 
 RECRCHE ES   4    7 6  1.30                              56   -2.23 0  171 227 
 ZAR  HZ EP   4    7 5 40.91                              56   -1.58 0  176 337 
 ZAR  HN ES   4    7 6  0.65                              56   -2.88 0  176 337 
 ZAR  HZ I         7 6  5.53        12.5 0.20             47            176 337 
 ELA  HZ EP        7 5 43.85                              56   -0.05 9  183 225 
 ELA  HN ES        7 6  5.12                              56   -0.92 9  183 225 
 ELA  HZ I         7 6  6.57        27.4 0.18             47            183 225 
 CBOC HZ EP        7 5 45.91                              56    0.52 9  198 265 
 CBOC HN ES        7 6  8.71                              56    0.02 9  198 265 
 CBOC HZ I         7 6 11.45         4.5 0.20             37            198 265 
 ANIL HZ EP        7 5 47.92                              56    0.43 8  214 217 
 ANIL HN ES        7 6 11.65                              56   -0.78 8  214 217 
 ANIL HZ I         7 6 16.24        16.3 0.13             37            214 217 
 PAM  EZ EP   4    7 5 50.27                              56    1.36 0  223  49 
 PAM  EN ES        7 6 15.60                              56    0.64 8  223  49 
 PAM  EZ I         7 6 17.80        21.5 0.13             37            223  49 
 URE  HZ EP        7 5 50.39                              56    0.06 8  239 323 
 URE  HN ES        7 6 18.45                              56    0.97 8  239 323 
 DBB  EZ EP   9    7 5 52.81                              56    1.68 0  245 297 
 DBB  EN ES        7 6 20.56                                   -0.03 8  245 297 
                                                                                
