 2017  820 0946 55.9 L   6.777 -73.119137.2  RSN  7 0.3 1.4LRSN                1
 GAP=141        0.71       3.6     3.9  4.8 -0.6436E+00  0.4313E+01  0.2542E+01E
 Epicentro: LOS SANTOS - SANTANDER                                             3
 ACTION:UPD 17-09-04 20:22 OP:rebc STATUS:               ID:20170820094655 L   I
 OLDACT:UP  17-08-20 16:38 OP:mg   STATUS:               ID:20170820093652     3
 OLDACT:REG 17-08-20 12:22 OP:mg   STATUS:               ID:20170820093652     3
 2017-08-20-0938-00M.COL___405                                                 6
 STAT SP IPHASW D HRMM SECON CODA AMPLIT PERI AZIMU VELO AIN AR TRES W  DIS CAZ7
 BAR2 EZ EP        947 14.33                             171   -0.1710 21.6 199 
 BAR2 EZ ES        947 28.72                             171   -0.2610 21.6 199 
 BAR2 EZ I         947 37.52         4.7 0.72            167           21.6 199 
 BRR  HZ IP     C  947 16.15                             150   -0.2310 74.9 299 
 BRR  HN ES        947 32.52                             150    0.1810 74.9 299 
 BRR  HZ I         947 33.61         4.1 0.32            151           74.9 299 
 PAM  EZ EP        947 17.27                             149    0.0210 77.6  37 
 PAM  EN ES   1    947 34.02                             149    0.14 7 77.6  37 
 PAM  EZ I         947 34.74         4.4 0.22            157           77.6  37 
 RUS  HZ EP        947 18.91                             143    0.2610 97.9 178 
 RUS  HN ES   2    947 37.20                             143    0.83 5 97.9 178 
 RUS  HZ I         947 38.13         3.0 0.38            145           97.9 178 
 SPBC HZ EP        947 23.43                             127   -0.35 9  163 220 
 SPBC HN ES   1    947 45.14                             127   -0.36 7  163 220 
 SPBC HZ I         947 51.88         3.4 0.14            129            163 220 
 ZAR  HZ EP        947 28.68                             120    0.47 8  208 292 
 ZAR  HN ES   1    947 53.06                             120   -0.34 6  208 292 
 ZAR  HZ I         947 59.22         2.9 0.30            123            208 292 
 NOR  HZ EP   1    947 31.35                             116    0.07 6  236 235 
 NOR  HN ES   2    947 59.73                             116    0.88 4  236 235 
 NOR  HZ I         948  2.38         1.6 0.35            119            236 235 
                                                                                
