 2012  920 0612 14.8 L   6.171 -73.781 99.9  RSN  5 0.4 1.9LRSN                1
 GAP=186        0.71       5.4     4.2 10.2 -0.9164E+01  0.4401E+01  0.1852E+01E
 Epicentro: LANDAZURI - SANTANDER                                              3
 ACTION:UPD 12-10-22 14:19 OP:ep   STATUS:               ID:20120920061214 L   I
 2012-09-20-0610-00M.COL___226                                                 6
 STAT SP IPHASW D HRMM SECON CODA AMPLIT PERI AZIMU VELO AIN AR TRES W  DIS CAZ7
 BAR2 SZ EP        612 32.41                             138    0.0310 80.9  55 
 BAR2 SZ ES   1    612 45.96                             138   -0.10 7 80.9  55 
 PTB  HN ES   2    612 45.20                             137   -0.94 5 85.1 299 
 PTB  HN I         612 45.29        13.7 0.36                          85.1 299 
 BRR  HZ EP        612 33.84                             131   -0.2310  104   4 
 BRR  HE ES   1    612 49.61                             131    0.55 7  104   4 
 NOR  SN ES   1    612 55.61                             122    0.34 7  138 241 
 ZAR  HZ EP   2    612 42.80                             114   -0.21 4  188 321 
 ZAR  HZ I         612 50.54        14.6 0.56                           188 321 
 ZAR  HE ES   2    613  5.26                             114    0.28 4  188 321 
                                                                                
