 2010  720 0144 46.3 L   6.376 -73.597110.5  RSN  6 0.3 1.8LRSN                1
 GAP=131        0.63       4.8     7.9  6.3  0.1651E+02  0.8407E+01 -0.2997E+01E
 Epicentro: SANTA HELENA DEL OPON - SANTANDER                                  3
 ACTION:UPD 10-12-01 15:18 OP:pat  STATUS:               ID:20100720014446 L   I
 2010-07-20-0142-10S.COL___123                                                 6
 STAT SP IPHASW D HRMM SECON CODA AMPLIT PERI AZIMU VELO AIN AR TRES W  DIS CAZ7
 BAR2 SZ EP   1    145  3.17                             152     0.3 8   52  62 
 BAR2 SZ ES   1    145 16.03                             152     0.2 8   52  62 
 BAR2 SZ I         145 17.14        66.0 0.11                            52  62 
 RUS  HZ EP   1    145  5.01                             141     0.0 8   78 133 
 RUS  HZ I         145  5.32         7.8 0.12                            78 133 
 RUS  HN ES   2    145 19.71                             141     0.2 6   78 133 
 BRR  HZ EP   1    145  4.20                             141    -0.4 8   82 351 
 BRR  HZ I         145 12.97        10.5 0.12                            82 351 
 BRR  HE ES   1    145 18.44                             141    -0.4 8   82 351 
 GUE  SZ EP        145 14.13                             117     0.010  177  25 
 GUE  SZ I         145 37.16         3.5 0.09                           177  25 
 OCA  SZ EP   1    145 17.43                             113     0.0 7  208   8 
 OCA  SZ ES   2    145 42.24                             113     0.6 5  208   8 
 OCA  SZ I         145 48.62        13.4 0.47                           208   8 
 HEL  HE ES   3    145 43.91                             112     0.5 2  215 265 
 HEL  HZ I         145 45.39         4.4 0.25                           215 265 
                                                                                
