 2013  220 0803 10.6 L   6.833 -73.220158.0  RSN  5 0.4 1.9LRSN                1
 GAP=216        0.82       4.0     9.8  8.2  0.3334E+01 -0.3070E+02  0.1240E+01E
 Epicentro: ZAPATOCA - SANTANDER                                               3
 ACTION:UPD 13-03-12 09:34 OP:ep   STATUS:               ID:20130220080310 L   I
 2013-02-20-0800-00M.COL___241                                                 6
 STAT SP IPHASW D HRMM SECON CODA AMPLIT PERI AZIMU VELO AIN AR TRES W  DIS CAZ7
 BRR  HZ EP   1    8 3 32.58                             158   -0.04 7 62.2 299 
 BRR  HN ES        8 3 49.93                             158    0.1210 62.2 299 
 BRR  HN I         8 3 50.18        19.8 0.32            151           62.2 299 
 PTB  HZ EP        8 3 37.35                             136   -0.60 9  140 257 
 PTB  HN ES   1    8 3 58.93                             136   -0.36 7  140 257 
 PTB  HN I         8 4  4.24         6.9 0.30            131            140 257 
 ZAR  HE ES   1    8 4  9.02                             127    0.80 6  195 292 
 SML  HZ EP        8 3 47.22                             121    0.00 8  237 337 
 SML  HN ES        8 4 15.77                             121   -0.03 8  237 337 
 SML  HN I         8 4 24.76         4.9 0.10            118            237 337 
 CHI  HZ EP   1    8 3 49.71                             120    0.57 6  250 193 
 CHI  HN ES   1    8 4 19.52                             120    0.30 6  250 193 
 CHI  HN I         8 4 21.61         3.5 0.32            118            250 193 
                                                                                
