 2017  320 0910 25.2 L   6.745 -73.149147.6  RSN  5 0.3 1.1LRSN                1
 GAP=155        0.88       4.9     4.8  7.1 -0.5773E+01  0.5541E+01  0.5016E+01E
 Epicentro: LOS SANTOS - SANTANDER                                             3
 ACTION:UPD 17-05-25 18:42 OP:jn   STATUS:               ID:20170320091025 L   I
 OLDACT:REG 17-03-20 13:28 OP:cog  STATUS:               ID:20170320090744     3
 2017-03-20-0908-00M.COL___369                                                 6
 STAT SP IPHASW D HRMM SECON CODA AMPLIT PERI AZIMU VELO AIN AR TRES W  DIS CAZ7
 BAR2 EZ EP        910 45.06                             173    0.1110 17.3 192 
 BAR2 EZ ES        911  0.12                             173   -0.2410 17.3 192 
 BAR2 EZ I         911  1.64         4.0 0.16            172           17.3 192 
 BRR  HZ EP        910 47.02                             152    0.3110 73.9 303 
 BRR  HN ES        911  4.12                             152    0.6310 73.9 303 
 BRR  HZ I         911  5.18         1.4 0.10            148           73.9 303 
 PAM  EZ EP        910 47.95                             150    0.0310 82.4  37 
 PAM  EN ES        911  5.35                             150   -0.2910 82.4  37 
 PAM  EZ I         911  8.11         1.2 0.18            150           82.4  37 
 SPBC HZ EP        910 53.35                             130   -0.04 9  158 220 
 SPBC HN ES        911 15.30                             130   -0.07 9  158 220 
 SPBC HZ I         911 18.38         1.9 0.11            130            158 220 
 ZAR  HZ EP   4    911  0.56                             122    2.58 0  206 294 
 ZAR  HN ES        911 22.89                             122   -0.65 8  206 294 
 ZAR  HZ I         911 31.84         1.2 0.32            121            206 294 
                                                                                
