 2015 1020 0559  3.3 L   6.819 -73.147147.9  RSN  7 0.4 1.8LRSN                1
 GAP=148        0.87       4.2     5.4  6.3 -0.5432E+01  0.8336E+01 -0.2542E+01E
 Epicentro: LOS SANTOS - SANTANDER                                             3
 ACTION:UPD 15-12-22 20:41 OP:cam  STATUS:               ID:20151020055903 L   I
 OLDACT:UP  15-10-20 20:04 OP:mh   STATUS:               ID:20151020055747     3
 OLDACT:REG 15-10-20 12:37 OP:mh   STATUS:               ID:20151020055747     3
 2015-10-20-0557-47M.COL___337                                                 6
 STAT SP IPHASW D HRMM SECON CODA AMPLIT PERI AZIMU VELO AIN AR TRES W  DIS CAZ7
 BAR2 EZ EP        559 23.04                             170   -0.1510 25.3 189 
 BAR2 EZ ES        559 38.32                             170   -0.4110 25.3 189 
 BAR2 EZ I         559 41.27        10.3 0.34            170           25.3 189 
 BRR  HZ EP        559 24.88                             153    0.3010 70.1 297 
 BRR  HN ES        559 41.91                             153    0.7010 70.1 297 
 BRR  HZ I         559 46.73         6.7 0.24            149           70.1 297 
 PAM  EZ EP   1    559 25.96                             152    0.34 7 75.9  41 
 PAM  EN ES        559 43.18                             152    0.1310 75.9  41 
 PAM  EZ I         559 44.59         7.8 0.34            155           75.9  41 
 OCA  HZ EP        559 31.47                             130   -0.08 9  158 353 
 OCA  HN ES        559 53.07                             130   -0.54 9  158 353 
 OCA  HZ I         559 57.67        12.8 0.46            132            158 353 
 SPBC HZ EP   1    559 32.00                             129   -0.07 7  165 219 
 SPBC HN ES   1    559 54.29                             129   -0.25 7  165 219 
 SPBC HZ I         559 56.66        11.4 0.28            131            165 219 
 ZAR  HZ EP   1    559 35.98                             123    0.22 6  203 292 
 ZAR  HN ES   1    6 0  0.68                             123   -0.42 6  203 292 
 ZAR  HZ I         6 0  7.14         6.2 0.52            123            203 292 
 URE  HZ EP   4    559 47.46                             114    3.12 0  283 292 
 URE  HN ES   4    6 0 14.39                             114   -1.99 0  283 292 
 URE  HZ I         6 0 20.43         3.7 0.14            115            283 292 
                                                                                
