 2010  320 0704 18.3 L   7.158 -73.264114.8  RSN  4 0.3 1.6LRSN                1
 GAP=175        0.54       3.1     6.3  5.9  0.3689E+00 -0.3872E+01 -0.4934E+01E
 Epicentro: LEBRIJA - SANTANDER                                                3
 ACTION:UP  10-08-24 09:55 OP:vdl  STATUS:               ID:20100320070418 L   I
 2010-03-20-0702-34S.COL___098                                                 6
 STAT SP IPHASW D HRMM SECON CODA AMPLIT PERI AZIMU VELO SNR AR TRES W  DIS CAZ7
 BRR  HZ IP        7 4 34.56                             156    -0.310   50 264 
 BRR  HN ES   1    7 4 47.93                             156     0.1 7   50 264 
 BRR  HZ I         7 4 49.11        14.7 0.11                            50 264 
 BAR2 SZ EP        7 4 35.97                             150     0.010   63 172 
 BAR2 SZ ES   1    7 4 49.97                             150     0.2 7   63 172 
 OCA  SZ EP        7 4 40.34                             131     0.010  120 357 
 OCA  SZ ES   1    7 4 57.93                             131     0.3 7  120 357 
 HEL  HZ EP   2    7 4 57.31                             108     0.2 4  272 247 
 HEL  HE ES   3    7 5 28.38                             108     0.9 2  272 247 
 HEL  HZ I         7 5 33.66         2.4 0.48                           272 247 
                                                                                
