 2013  420 0811 35.3 L   6.803 -73.146152.1  RSN  7 0.4 1.6LRSN                1
 GAP=201        0.86       6.8     6.8 10.2  0.2086E+02 -0.8839E+01 -0.4165E+02E
 Epicentro: LOS SANTOS - SANTANDER                                             3
 ACTION:UPD 13-05-22 14:39 OP:EP   STATUS:               ID:20130420081135 L   I
 2013-04-20-0810-00M.COL___250                                                 6
 STAT SP IPHASW D HRMM SECON CODA AMPLIT PERI AZIMU VELO AIN AR TRES W  DIS CAZ7
 BAR2 SZ EP        811 55.75                             171    0.0410 23.7 190 
 BAR2 SZ ES   2    812 11.03                             171   -0.59 5 23.7 190 
 BAR2 SZ I         812 13.39         7.0 0.28            175           23.7 190 
 BRR  HZ EP        811 57.61                             154    0.4710 71.0 298 
 BRR  HZ I         812 18.97         4.5 0.14            151           71.0 298 
 RUS  HZ EP        811 59.99                             145    0.2710  101 176 
 RUS  HN ES   1    812 18.44                             145   -0.31 7  101 176 
 RUS  HZ I         812 19.32         3.6 0.34            150            101 176 
 PTB  HZ EP        812  2.45                             133   -0.36 9  148 259 
 PTB  HN ES   1    812 23.91                             133   -0.34 7  148 259 
 PTB  HZ I         812 31.29         5.1 0.30            134            148 259 
 ZAR  HZ EP        812  8.34                             124    0.18 9  204 292 
 ZAR  HN ES   1    812 34.28                             124    0.50 6  204 292 
 SML  HZ EP        812 12.44                             119    0.17 8  243 335 
 SML  HN ES   2    812 40.74                             119   -0.35 4  243 335 
 SML  HZ I         812 45.39         8.0 0.10            118            243 335 
 SJC  HZ EP        812 29.88                             107   -1.17 6  409 327 
 SJC  HN ES   4    813  9.82                             107   -4.71 0  409 327 
                                                                                
