 2017  720 0452  4.8 L   6.780 -73.140148.3  RSN  7 0.4 1.7LRSN                1
 GAP=138        0.88       3.9     3.8  6.1 -0.7473E+00  0.4819E+01  0.1837E-01E
 Epicentro: LOS SANTOS - SANTANDER                                             3
 ACTION:UPD 17-08-30 15:35 OP:rebc STATUS:               ID:20170720045204 L   I
 OLDACT:REG 17-07-20 13:11 OP:dnl  STATUS:               ID:20170720044739     3
 2017-07-20-0448-00M.COL___383                                                 6
 STAT SP IPHASW D HRMM SECON CODA AMPLIT PERI AZIMU VELO AIN AR TRES W  DIS CAZ7
 BAR2 EZ EP        452 24.57                             171   -0.1110 21.3 193 
 BAR2 EZ ES        452 40.03                             171   -0.1710 21.3 193 
 BAR2 EZ I         452 41.22        11.8 0.16            171           21.3 193 
 BRR  HZ EP        452 26.41                             152    0.1110 72.8 300 
 BRR  HE ES        452 43.44                             152    0.3610 72.8 300 
 BRR  HZ I         452 47.34        14.6 0.44            151           72.8 300 
 PAM  EZ EP        452 27.57                             151    0.2210 78.7  38 
 PAM  EE ES        452 44.70                             151   -0.2510 78.7  38 
 PAM  EZ I         452 46.72         9.7 0.52            154           78.7  38 
 RUS  HZ EP        452 28.71                             145    0.0810 98.4 176 
 RUS  HN ES        452 47.45                             145    0.2210 98.4 176 
 PTB  HZ EP        452 31.29                             133   -0.69 9  148 260 
 PTB  HN ES        452 52.52                             133   -0.67 9  148 260 
 PTB  HZ I         452 53.45         3.3 0.14            133            148 260 
 SPBC HZ EP   2    452 33.75                             130    0.39 5  162 220 
 SPBC HE ES        452 55.91                             130    0.27 9  162 220 
 SPBC HZ I         453  2.58         4.7 0.34            131            162 220 
 ZAR  HZ EP   2    452 37.75                             123    0.21 4  205 293 
 ZAR  HE ES        453  3.61                             123    0.52 8  205 293 
 ZAR  HZ I         453  8.19         5.0 0.28            123            205 293 
                                                                                
