 2015 1220 0359  1.0 L   6.782 -73.142145.2  RSN  7 0.3 1.6LRSN                1
 GAP=183        0.90       3.2     4.8  5.7  0.1137E+01  0.4258E+01 -0.2399E+01E
 Epicentro: LOS SANTOS - SANTANDER                                             3
 ACTION:UPD 16-02-04 15:06 OP:cam  STATUS:               ID:20151220035901 L   I
 OLDACT:REG 15-12-20 13:15 OP:cara STATUS:               ID:20151220035749     3
 2015-12-20-0357-49M.COL___325                                                 6
 STAT SP IPHASW D HRMM SECON CODA AMPLIT PERI AZIMU VELO AIN AR TRES W  DIS CAZ7
 BAR2 EZ ES        359 35.18                             171   -0.5610 21.5 192 
 BAR2 EZ I         359 37.55         7.1 0.28            168           21.5 192 
 BRR  HZ IP     D  359 22.59                             152    0.4410 72.5 300 
 BRR  HE ES        359 39.17                             152    0.5110 72.5 300 
 BRR  HZ I         359 43.91         5.6 0.46            145           72.5 300 
 RUS  HZ EP        359 24.46                             144   -0.0710 98.6 176 
 RUS  HE ES        359 43.05                             144    0.1410 98.6 176 
 RUS  HZ I         359 44.16         3.5 0.28            133           98.6 176 
 PTB  HZ EP        359 27.45                             132   -0.46 9  148 260 
 PTB  HZ EPg       359 28.02                             132    0.11 9  148 260 
 PTB  HN ES        359 48.45                             132   -0.46 9  148 260 
 PTB  HZ I         359 51.93         4.5 0.16            123            148 260 
 SPBC HZ EP        359 29.36                             129    0.04 9  162 220 
 SPBC HE ES        359 51.82                             129    0.40 9  162 220 
 SPBC HZ I         359 58.55         5.1 0.28            120            162 220 
 OCA  HZ EP        359 29.09                             129   -0.35 9  162 353 
 OCA  HN ES        359 51.79                             129    0.15 9  162 353 
 OCA  HZ I         359 57.20         7.6 0.32            116            162 353 
 ZAR  HZ EP        359 33.78                             122    0.27 9  205 293 
 ZAR  HN ES        359 58.68                             122   -0.20 9  205 293 
 ZAR  HZ I         4 0  4.34         5.3 0.60            113            205 293 
                                                                                
