 2012  720 0056 49.0 L   6.776 -73.143144.8  RSN  8 0.4 1.9LRSN                1
 GAP=138        1.03       5.1     5.3  8.4 -0.1976E+01  0.9507E+01  0.6626E+01E
 Epicentro: LOS SANTOS - SANTANDER                                             3
 ACTION:UPD 12-08-14 11:46 OP:ep   STATUS:               ID:20120720005649 L   I
 2012-07-20-0050-00M.COL___215                                                 6
 STAT SP IPHASW D HRMM SECON CODA AMPLIT PERI AZIMU VELO AIN AR TRES W  DIS CAZ7
 BAR2 SZ EP        057  8.39                             171     0.010   21 192 
 BAR2 SZ ES   1    057 23.13                             171    -0.5 7   21 192 
 BAR2 SZ I         057 24.63        20.7 0.13            168             21 192 
 BRR  HZ EP        057 10.31                             152     0.210   73 300 
 BRR  HZ I         057 10.79        21.5 0.14            149             73 300 
 BRR  HE ES   1    057 27.32                             152     0.8 7   73 300 
 PAM  SZ EP        057 11.37                             150     0.210   79  38 
 PAM  SN ES   1    057 28.29                             150    -0.2 7   79  38 
 RUS  HZ EP        057 12.37                             144    -0.110   98 176 
 RUS  HZ I         057 13.22         7.1 0.08            143             98 176 
 RUS  HN ES   1    057 30.87                             144     0.1 7   98 176 
 PTB  HZ EP        057 15.00                             132    -0.8 9  148 260 
 PTB  HN ES   1    057 36.45                             132    -0.3 7  148 260 
 PTB  HZ I         057 40.40         9.4 0.29            129            148 260 
 ZAR  HN ES   1    057 46.89                             122     0.1 6  205 293 
 ZAR  HZ I         057 53.50        10.6 0.60            121            205 293 
 NOR  SZ EP   1    057 24.99                             118     0.5 6  233 235 
 NOR  SN ES   1    057 52.34                             118     0.1 6  233 235 
 CHI  HN ES   1    057 55.96                             117     0.5 6  246 195 
 CHI  HZ I         058  1.65         3.5 0.25            117            246 195 
