 2011  320 0702 15.7 L   6.785 -73.086145.6  RSN  9 0.4 1.9LRSN                1
 GAP=165        0.90       3.8     8.6  8.0 -0.1741E+02  0.1954E+02 -0.3695E+01E
 Epicentro: LOS SANTOS - SANTANDER                                             3
 ACTION:UP  11-06-16 14:34 OP:jfem STATUS:               ID:20110320070215 L   I
 2011-03-20-0701-05S.COL___136                                                 6
 STAT SP IPHASW D HRMM SECON CODA AMPLIT PERI AZIMU VELO SNR AR TRES W  DIS CAZ7
 BAR2 SZ EP   1    7 2 35.28                             170    -0.1 8   24 207 
 BAR2 SZ ES   1    7 2 50.36                             170    -0.3 8   24 207 
 BAR2 SZ I         7 2 51.98        22.8 0.24                            24 207 
 BTL  SZ EP   1    7 2 35.56                             170     0.2 8   25 306 
 RUS  HZ EP   1    7 2 39.03                             144    -0.3 8   99 180 
 RUS  HN ES   1    7 2 57.87                             144     0.1 8   99 180 
 RUS  HZ I         7 2 59.08         6.8 0.25                            99 180 
 GRA  SZ IP        7 2 41.24                             137     0.310  125  14 
 GRA  SZ ES   1    7 3  0.40                             137    -0.2 7  125  14 
 GRA  SZ I         7 3  3.73         7.3 0.22                           125  14 
 OCA  SZ EP        7 2 43.62                             129    -0.6 9  163 351 
 OCA  SZ ES   1    7 3  7.31                             129     0.8 7  163 351 
 OCA  SZ I         7 3  9.56        24.5 0.14                           163 351 
 NOR  SN ES   1    7 3 20.35                             118     0.1 6  239 236 
 CHI  HZ EP   1    7 2 53.55                             117     0.1 6  249 197 
 CHI  HN ES   1    7 3 23.38                             117     0.5 6  249 197 
 CHI  HZ I         7 3 26.18         3.0 0.28                           249 197 
 RREF HN ES   1    7 3 38.16                             111    -0.5 5  326 230 
 RREF HZ I         7 3 44.79         3.4 0.23                           326 230 
 PRA  HZ EP   1    7 3  9.72                             106     0.3 5  394 211 
                                                                                
