 2017  320 0759 41.3 L   6.804 -73.189138.5  RSN  5 0.3 1.1LRSN                1
 GAP=131        0.89       4.5     3.9  7.9  0.1212E+01  0.5415E+01  0.4176E+01E
 Epicentro: ZAPATOCA - SANTANDER                                               3
 ACTION:UPD 17-05-25 18:42 OP:jn   STATUS:               ID:20170320075941 L   I
 OLDACT:DUP 17-03-20 16:10 OP:lv   STATUS:               ID:20170320075743d    3
 OLDACT:REG 17-03-20 13:21 OP:cog  STATUS:               ID:20170320075742     3
 2017-03-20-0758-00M.COL___366                                                 6
 STAT SP IPHASW D HRMM SECON CODA AMPLIT PERI AZIMU VELO AIN AR TRES W  DIS CAZ7
 BRR  HZ EP        8 0  1.82                             153    0.3610 66.9 300 
 BRR  HE ES        8 0 16.74                             153   -0.4110 66.9 300 
 BRR  HZ I         8 0 24.23         2.9 0.46            154           66.9 300 
 PAM  EZ EP        8 0  2.84                             148   -0.1210 80.2  42 
 PAM  HN ES        8 0 20.11                             148    0.2810 80.2  42 
 PAM  EZ I         8 0 23.31         1.6 0.25            155           80.2  42 
 RUS  HZ EP        8 0  4.44                             142   -0.0010  101 173 
 RUS  HN ES        8 0 22.22                             142   -0.2510  101 173 
 RUS  HZ I         8 0 23.78         1.0 0.29            148            101 173 
 PTB  HZ EP        8 0  7.08                             131   -0.22 9  143 258 
 PTB  HN ES        8 0 28.22                             131    0.67 9  143 258 
 PTB  HZ I         8 0 35.06         1.6 0.11            136            143 258 
 ZAR  HZ EP   4    8 0 15.42                             121    2.58 0  199 293 
 ZAR  HN ES        8 0 37.06                             121   -0.36 9  199 293 
 ZAR  HZ I         8 0 37.97         2.4 0.20            126            199 293 
                                                                                
