 2017  120 0419 58.4 L   6.798 -73.135150.3  RSN  6 0.4 1.3LRSN                1
 GAP=138        0.96       4.8     4.4  7.6  0.2104E+01  0.4869E+01  0.9794E+01E
 Epicentro: LOS SANTOS - SANTANDER                                             3
 ACTION:UPD 17-05-22 16:01 OP:jn   STATUS:               ID:20170120041958 L   I
 OLDACT:UP  17-01-20 15:45 OP:dani STATUS:               ID:20170120041742d    3
 OLDACT:DUP 17-01-20 15:40 OP:dani STATUS:               ID:20170120041742d    3
 2017-01-20-0418-00M.COL___313                                                 6
 STAT SP IPHASW D HRMM SECON CODA AMPLIT PERI AZIMU VELO AIN AR TRES W  DIS CAZ7
 BRR  HZ EP        420 20.09                             153    0.0110 72.3 298 
 BRR  HN ES        420 37.23                             153    0.2210 72.3 298 
 BRR  HZ I         420 40.05         5.0 0.76            154           72.3 298 
 PAM  EZ EP        420 20.92                             151   -0.1210 76.8  39 
 PAM  EE ES        420 38.75                             151    0.0310 76.8  39 
 PAM  EZ I         420 40.51         4.0 0.48            155           76.8  39 
 RUS  HZ EP        420 22.47                             145   -0.0910  100 177 
 RUS  HN ES        420 41.49                             145    0.0710  100 177 
 RUS  HZ I         420 42.10         2.4 0.40            145            100 177 
 PTB  HZ EP        420 25.48                             133   -0.33 9  149 259 
 PTB  HE ES        420 46.38                             133   -0.84 9  149 259 
 PTB  HZ I         420 49.71         2.5 0.11            134            149 259 
 ZAR  HN ES        420 57.60                             123    0.73 9  205 292 
 CHI  HZ EP        420 36.81                             118    0.47 8  249 195 
 CHI  HE ES   3    421  7.47                             118    1.51 2  249 195 
 CHI  HZ I         421 12.04         1.1 0.29            119            249 195 
                                                                                
