 2010 1020 0247 36.6 L   6.798 -73.079137.1  RSN  7 0.2 1.8LRSN                1
 GAP=166        0.65       4.2    11.5 13.2 -0.1475E+02  0.1391E+02  0.1792E+02E
 Epicentro: ZAPATOCA - SANTANDER                                               3
 ACTION:UP  11-02-18 11:10 OP:tino STATUS:               ID:20101020024735 L   I
 2010-10-20-0244-26S.COL___126                                                 6
 STAT SP IPHASW D HRMM SECON CODA AMPLIT PERI AZIMU VELO SNR AR TRES W  DIS CAZ7
 BTL  SZ IP        247 55.68                             176     0.410   25 303 
 BAR2 SZ IP        247 55.22                             168     0.010   26 207 
 BAR2 SZ I         248 11.51        14.9 0.32                            26 207 
 BRR  HZ EP   1    247 57.04                             155    -0.2 7   78 296 
 BRR  HZ I         248 14.72        11.8 0.17                            78 296 
 RUS  HZ EP        247 59.30                             141    -0.210  100 180 
 RUS  HZ I         248 19.69         2.9 0.09                           100 180 
 GRA  SZ IP        248  1.05                             137     0.110  124  14 
 GRA  SZ ES   1    248 19.75                             137    -0.2 7  124  14 
 GRA  SZ I         248 23.31         5.6 0.50                           124  14 
 OCA  SZ EP   2    248  4.32                             130    -0.1 5  162 351 
 OCA  SZ ES   2    248 25.92                             130    -0.1 5  162 351 
 OCA  SZ I         248 28.76         9.7 0.20                           162 351 
 PRA  HZ EP   2    248 30.09                             106    -0.2 3  395 211 
 PRA  HZ I         249 17.31         9.0 0.17                           395 211 
                                                                                
