 2016  920 0702 52.6 L   6.783 -73.138152.4  RSN  6 0.4 1.3LRSN                1
 GAP=237        0.90       5.2     5.9  7.1  0.1060E+02  0.1043E+02  0.9134E+00E
 Epicentro: LOS SANTOS - SANTANDER                                             3
 ACTION:UPD 17-08-17 21:14 OP:lp   STATUS:               ID:20160920070252 L   I
 OLDACT:UP  16-09-20 20:58 OP:ar   STATUS:               ID:20160920065735     3
 OLDACT:REG 16-09-20 12:50 OP:and  STATUS:               ID:20160920065735     3
 2016-09-20-0658-00M.COL___347                                                 6
 STAT SP IPHASW D HRMM SECON CODA AMPLIT PERI AZIMU VELO AIN AR TRES W  DIS CAZ7
 BAR2 EZ EP        7 3 12.89                             172   -0.0810 21.6 193 
 BAR2 EZ ES        7 3 29.05                             172    0.1710 21.6 193 
 BAR2 EZ I         7 3 38.70         1.7 0.24            168           21.6 193 
 BRR  HZ EP        7 3 14.84                             153    0.3010 72.9 300 
 BRR  HE ES        7 3 31.80                             153    0.1310 72.9 300 
 BRR  HZ I         7 3 35.21         3.2 0.12            154           72.9 300 
 RUS  HN ES        7 3 35.32                             146   -0.4510 98.6 176 
 PTB  HZ EP        7 3 19.76                             133   -0.38 9  148 260 
 PTB  HE ES        7 3 41.11                             133   -0.52 9  148 260 
 PTB  HZ I         7 3 48.13         2.1 0.30            136            148 260 
 SPBC HZ EP        7 3 21.70                             131    0.19 9  162 220 
 SPBC HN ES        7 3 44.73                             131    0.66 9  162 220 
 SPBC HZ I         7 3 52.08         2.3 0.24            134            162 220 
 ZAR  HZ EP   4    7 3 27.88                             124    2.26 0  206 293 
 ZAR  HN ES        7 3 51.38                             124   -0.01 8  206 293 
 ZAR  HZ I         7 3 56.70         3.0 0.30            128            206 293 
                                                                                
