 2014  620 0401 51.8 L   6.795 -73.148151.4  RSN 14 0.5 2.2LRSN                1
 GAP=136        1.07       2.7     3.9  5.1 -0.1935E+01  0.5801E+01  0.1063E+01E
 Epicentro: LOS SANTOS - SANTANDER                                             3
 ACTION:UPD 14-07-01 22:55 OP:nd   STATUS:               ID:20140620040151 L   I
 OLDACT:REG 14-06-20 14:33 OP:carl STATUS:               ID:20140620035813     3
 2014-06-20-0358-13M.COL___259                                                 6
 STAT SP IPHASW D HRMM SECON CODA AMPLIT PERI AZIMU VELO AIN AR TRES W  DIS CAZ7
 BAR2 SZ EP        4 2 12.09                             171   -0.0410 22.8 190 
 BAR2 SZ ES        4 2 27.74                             171   -0.2210 22.8 190 
 BAR2 SZ I         4 2 30.34        29.8 0.20            170           22.8 190 
 BRR  HZ EP        4 2 14.04                             153    0.4510 71.2 299 
 BRR  HN ES        4 2 31.55                             153    0.9810 71.2 299 
 BRR  HZ I         4 2 33.96        21.7 0.22            153           71.2 299 
 PAM  SZ EP        4 2 15.11                             152    0.4210 78.0  39 
 PAM  SN ES        4 2 32.54                             152    0.0310 78.0  39 
 PAM  SZ I         4 2 33.90        14.9 0.38            156           78.0  39 
 RUS  HZ EP        4 2 16.10                             145   -0.0110  100 176 
 RUS  HN ES        4 2 34.70                             145   -0.3410  100 176 
 RUS  HZ I         4 2 36.02        13.0 0.32            146            100 176 
 PTB  HZ EP        4 2 18.93                             133   -0.30 9  147 259 
 PTB  HN ES        4 2 40.08                             133   -0.52 9  147 259 
 PTB  HZ I         4 2 43.52        18.2 0.10            133            147 259 
 OCA  HZ EP        4 2 20.64                             131    0.01 9  161 353 
 OCA  HN ES        4 2 42.47                             131   -0.63 9  161 353 
 OCA  HZ I         4 2 47.52        23.2 0.16            133            161 353 
 SPBC HZ EP        4 2 21.06                             130    0.34 9  163 219 
 SPBC HN ES        4 2 42.96                             130   -0.28 9  163 219 
 SPBC HZ I         4 2 50.29        31.1 0.28            131            163 219 
 ZAR  HZ EP        4 2 25.18                             124    0.53 9  204 292 
 ZAR  HN ES        4 2 50.57                             124    0.33 9  204 292 
 ZAR  HZ I         4 2 56.58        15.3 0.32            125            204 292 
 NOR  HZ EP        4 2 27.05                             120   -0.79 8  234 235 
 NOR  HN ES        4 2 55.77                             120   -0.15 8  234 235 
 NOR  HZ I         4 2 59.58        15.6 0.20            121            234 235 
 SML  HZ EP        4 2 28.22                             119   -0.60 8  244 335 
 SML  HN ES        4 2 57.14                             119   -0.53 8  244 335 
 SML  HZ I         4 2 59.56        26.6 0.10            120            244 335 
 CHI  HZ EP        4 2 29.98                             118    0.19 8  248 195 
 CHI  HN ES        4 2 59.79                             118    0.40 8  248 195 
 CHI  HZ I         4 3  8.00         6.6 0.34            120            248 195 
 GUY2CHZ EP        4 2 35.86                             113    0.21 7  301 235 
 GUY2CHN ES        4 3  9.95                             113    0.13 7  301 235 
 GUY2CHZ I         4 3 17.06        10.0 0.36                           301 235 
 CBOC HZ EP        4 2 39.93                             111    0.99 7  333 252 
 CBOC HN ES        4 3 15.48                             111   -0.20 7  333 252 
 CBOC HZ I         4 3 20.29         2.6 0.20            112            333 252 
 PRA  HZ EP        4 2 44.86                             107   -0.62 6  391 210 
 PRA  HN ES        4 3 27.14                             107   -0.19 6  391 210 
 PRA  HZ I         4 3 33.96         8.6 0.28            109            391 210 
                                                                                
