 2011  120 0614 22.7 L   6.780 -73.138144.0  RSN  8 0.4 2.3LRSN                1
 GAP=183        0.84       4.0     7.2  7.9 -0.7621E+01  0.2720E+02 -0.1914E+01E
 Epicentro: LOS SANTOS - SANTANDER                                             3
 ACTION:UP  11-02-08 08:41 OP:pat  STATUS:               ID:20110120061422 L   I
 2011-01-20-0610-00S.COL___133                                                 6
 STAT SP IPHASW D HRMM SECON CODA AMPLIT PERI AZIMU VELO SNR AR TRES W  DIS CAZ7
 BAR2 SZ IP        614 42.03                             171     0.010   21 194 
 BAR2 SZ ES   1    614 57.26                             171     0.1 7   21 194 
 BAR2 SZ I         614 59.13        46.8 0.32                            21 194 
 RUS  HZ EP   1    614 45.90                             144    -0.2 7   98 176 
 RUS  HE ES   1    615  4.58                             144     0.2 7   98 176 
 RUS  HZ I         615  6.44        20.8 0.61                            98 176 
 OCA  SZ EP   1    614 50.58                             129    -0.5 7  163 353 
 OCA  SZ ES   1    615 13.54                             129     0.3 7  163 353 
 OCA  SZ I         615 18.39        21.9 0.30                           163 353 
 NOR  SZ EP   1    614 57.64                             118    -0.6 6  234 235 
 NOR  SN ES   1    615 25.65                             118    -0.3 6  234 235 
 CHI  HZ EP   1    615  0.03                             117     0.0 6  247 195 
 CHI  HE ES   1    615 28.89                             117    -0.3 6  247 195 
 CHI  HZ I         615 35.35         9.7 0.44                           247 195 
 ROSC BZ EP   2    615  1.34                             117     0.8 4  251 211 
 ROSC BZ I         615 39.14        23.3 0.48                           251 211 
 HEL  HZ EP   1    615  3.40                             115     0.6 6  272 256 
 HEL  HE ES   2    615 33.37                             115    -0.8 4  272 256 
 HEL  HZ I         615 39.47        10.8 0.29                           272 256 
 RREF HZ EP   1    615  8.64                             111     0.0 5  321 230 
 RREF HE ES   1    615 45.41                             111     0.9 5  321 230 
 RREF HZ I         615 53.33        13.1 0.47                           321 230 
                                                                                
