 2010  920 0831  4.8 L   6.784 -73.031144.0  RSN 10 0.3 2.0LRSN                1
 GAP=172        0.81       4.1     7.2  6.7 -0.1289E+02 -0.2098E+01  0.1069E+02E
 Epicentro: CEPITA - SANTANDER                                                 3
 ACTION:UP  11-02-18 11:04 OP:tino STATUS:               ID:20100920083104 L   I
 2010-09-20-0828-22S.COL___121                                                 6
 STAT SP IPHASW D HRMM SECON CODA AMPLIT PERI AZIMU VELO SNR AR TRES W  DIS CAZ7
 BAR2 SZ IP        831 24.24                             169     0.010   27 218 
 BAR2 SZ ES   1    831 39.43                             169    -0.1 7   27 218 
 BAR2 SZ I         831 40.78        19.3 0.24                            27 218 
 BTL  SZ EP        831 24.60                             168     0.210   30 300 
 GIR2 SZ EP   3    831 23.85                             165    -0.6 2   37 331 
 BRR  HZ EP        831 26.13                             148    -0.410   83 295 
 BRR  HZ I         831 26.58        19.9 0.11                            83 295 
 BRR  HE ES   1    831 43.41                             148     0.0 7   83 295 
 RUS  HZ EP        831 28.15                             144    -0.110   99 183 
 RUS  HZ I         831 48.28        11.2 0.59                            99 183 
 GRA  SZ EP        831 29.67                             137    -0.110  124  12 
 GRA  SZ ES   1    831 49.54                             137     0.3 7  124  12 
 GRA  SZ I         831 50.61        15.5 0.42                           124  12 
 CHI  HZ EP        831 42.40                             116    -0.2 8  251 198 
 CHI  HE ES   1    832 11.51                             116    -0.6 6  251 198 
 CHI  HZ I         832 17.82         5.8 0.60                           251 198 
 ROSC BZ EP        831 44.14                             116     0.7 8  258 214 
 ROSC BE ES   1    832 14.13                             116     0.6 6  258 214 
 ROSC BZ I         832 21.10         7.8 0.49                           258 214 
 HEL  HZ EP   1    831 45.95                             113    -0.3 6  284 257 
 HEL  HZ I         832 22.55         5.0 0.43                           284 257 
 RREF HZ EP   1    831 51.80                             110     0.0 5  330 231 
 RREF HE ES   2    832 28.36                             110    -0.2 3  330 231 
 RREF HZ I         832 35.94         9.1 0.41                           330 231 
                                                                                
