 2010  220 0504 10.6 L   6.793 -73.142141.3  RSN 13 0.4 3.2LRSN                1
 GAP=183        0.73       3.7     6.3  6.3 -0.4443E+01  0.1611E+02  0.5431E+01E
 Epicentro: LOS SANTOS - SANTANDER                                             3
 ACTION:UP  10-08-24 09:49 OP:vdl  STATUS:               ID:20100220050410 L   I
 2010-02-20-0502-29S.COL___094                                                 6
 STAT SP IPHASW D HRMM SECON CODA AMPLIT PERI AZIMU VELO SNR AR TRES W  DIS CAZ7
 BAR2 SZ IP        5 4 29.79                             170     0.110   23 192 
 BAR2 SZ ES   2    5 4 44.11                             170    -0.5 5   23 192 
 GIR2 SZ IP        5 4 29.86                             167     0.110   32 350 
 GIR2 SZ ES   2    5 4 44.37                             167    -0.4 5   32 350 
 BRR  HZ EP   1    5 4 31.72                             151     0.4 7   72 299 
 BRR  HN ES   2    5 4 47.92                             151     0.4 5   72 299 
 BRR  HZ I         5 4 52.41       210.9 0.18                            72 299 
 RUS  BZ EP   1    5 4 33.61                             143    -0.3 7  100 176 
 RUS  BN ES   2    5 4 52.18                             143     0.2 5  100 176 
 RUS  BZ I         5 4 54.17       192.9 0.29                           100 176 
 OCA  SZ EP   1    5 4 38.16                             128    -0.5 7  161 353 
 OCA  SZ ES   2    5 5  0.50                             128     0.0 5  161 353 
 CHI  HZ EP   1    5 4 47.84                             116    -0.2 6  248 195 
 CHI  HE ES   2    5 5 17.14                             116     0.0 4  248 195 
 CHI  HZ I         5 5 23.14        80.5 0.58                           248 195 
 ROSC BZ EP   1    5 4 49.40                             116     0.9 6  252 211 
 ROSC BE ES   2    5 5 18.29                             116     0.3 4  252 211 
 ROSC BZ I         5 5 24.31        98.1 0.35                           252 211 
 HEL  HZ EP   1    5 4 51.23                             114     0.6 6  272 256 
 HEL  HN ES   2    5 5 21.27                             114    -0.6 4  272 256 
 HEL  HZ I         5 5 28.25        81.9 0.58                           272 256 
 RREF BZ EP   1    5 4 56.83                             110     0.3 5  322 230 
 RREF BN ES   2    5 5 31.67                             110    -0.7 3  322 230 
 RREF BZ I         5 5 41.39       130.9 0.27                           322 230 
 DBB  SZ EP   1    5 4 57.48                             109    -0.5 5  340 274 
 TOL  SZ EP   1    5 4 58.52                             108    -0.2 5  343 225 
 TOL  SZ ES   2    5 5 36.22                             108     0.1 3  343 225 
 ANIL BZ EP   1    5 5  0.78                             108     0.5 5  357 225 
 ANIL BN ES   2    5 5 38.28                             108    -0.6 3  357 225 
 PRA  HZ EP   1    5 5  3.01                             106    -0.9 4  392 210 
 PRA  HN ES   2    5 5 44.94                             106    -0.6 3  392 210 
 PRA  HZ I         5 5 49.61        78.8 0.54                           392 210 
                                                                                
