 2017 1020 0728 10.2 L   6.804 -73.142148.5  RSN  4 0.5 0.9LRSN                1
 GAP=238        1.23      10.0     9.5  9.9  0.4768E+02  0.5286E+01 -0.8328E+00E
 Epicentro: LOS SANTOS - SANTANDER                                             3
 ACTION:UPD 17-11-07 19:34 OP:rebc STATUS:               ID:20171020072810 L   I
 OLDACT:DUP 17-10-20 16:51 OP:dani STATUS:               ID:20171020071360d    3
 OLDACT:REG 17-10-20 13:16 OP:dani STATUS:               ID:20171020071359     3
 2017-10-20-0718-00M.COL___450                                                 6
 STAT SP IPHASW D HRMM SECON CODA AMPLIT PERI AZIMU VELO AIN AR TRES W  DIS CAZ7
 BAR2 EZ EP        728 30.03                             170   -0.1310 23.8 191 
 BAR2 EZ ES        728 44.90                             170   -0.8410 23.8 191 
 BAR2 EZ I         728 47.09         2.4 0.44            175           23.8 191 
 BRR  HZ EP        728 31.79                             153    0.1410 71.4 298 
 BRR  HN ES        728 49.01                             153    0.6310 71.4 298 
 BRR  HZ I         728 54.11         2.8 0.51            153           71.4 298 
 RUS  HZ EP        728 34.63                             144    0.3910  101 176 
 RUS  HN ES        728 53.37                             144    0.3710  101 176 
 RUS  HZ I         728 53.79         1.0 0.21            150            101 176 
 PTB  HZ EP        728 36.80                             132   -0.63 9  148 259 
 PTB  HN ES        728 58.66                             132   -0.02 9  148 259 
 PTB  HZ I         728 59.21         0.6 0.10            136            148 259 
                                                                                
