 2017  820 0532 57.7 L   6.764 -73.152143.4  RSN  6 0.4 1.5LRSN                1
 GAP=137        0.92       3.8     4.5  6.2 -0.2315E-01  0.7856E+01  0.3309E+00E
 Epicentro: LOS SANTOS - SANTANDER                                             3
 ACTION:UPD 17-09-04 20:22 OP:rebc STATUS:               ID:20170820053257 L   I
 OLDACT:DUP 17-08-20 15:09 OP:lv   STATUS:               ID:20170820052744d    3
 2017-08-20-0528-00M.COL___408                                                 6
 STAT SP IPHASW D HRMM SECON CODA AMPLIT PERI AZIMU VELO AIN AR TRES W  DIS CAZ7
 BAR2 EZ EP        533 16.77                             172   -0.2410 19.3 190 
 BAR2 EZ ES        533 31.76                             172   -0.2810 19.3 190 
 BAR2 EZ I         533 33.41        10.7 0.13            170           19.3 190 
 BRR  HZ IP     C  533 18.58                             152   -0.1310 72.6 302 
 BRR  HN ES        533 35.85                             152    0.7810 72.6 302 
 BRR  HZ I         533 38.95         6.9 0.32            150           72.6 302 
 PAM  EZ EP        533 19.82                             149   -0.0910 80.9  38 
 PAM  EE ES        533 37.04                             149   -0.1710 80.9  38 
 PAM  EZ I         533 38.04         2.6 0.24            154           80.9  38 
 RUS  HZ EP        533 21.20                             144    0.2210 96.7 175 
 RUS  HN ES        533 39.25                             144    0.1510 96.7 175 
 RUS  HZ I         533 40.44         3.5 0.28            146           96.7 175 
 SPBC HZ EP        533 26.12                             129    0.40 9  160 220 
 SPBC HN ES        533 47.12                             129   -0.43 9  160 220 
 SPBC HZ I         533 52.87         8.7 0.14            130            160 220 
 ZAR  HZ EP        533 30.34                             122    0.22 9  205 293 
 ZAR  HE ES        533 54.87                             122   -0.51 9  205 293 
 ZAR  HZ I         534  0.58         4.0 0.12            122            205 293 
                                                                                
