 2015  420 0604 10.9 L   6.797 -73.181135.3  RSN 17 0.5 2.4LRSN                1
 GAP=132        1.10       2.9     3.6  5.5 -0.2108E+01  0.8271E+01 -0.1206E+01E
 Epicentro: LOS SANTOS - SANTANDER                                             3
 ACTION:UPD 15-06-03 16:56 OP:cam  STATUS:               ID:20150420060410 L   I
 OLDACT:REG 15-04-20 13:39 OP:ak   STATUS:               ID:20150420055747     3
 2015-04-20-0557-47M.COL___265                                                 6
 STAT SP IPHASW D HRMM SECON CODA AMPLIT PERI AZIMU VELO AIN AR TRES W  DIS CAZ7
 BAR2 EZ IP     C  6 4 29.48                             170    0.2710 22.6 180 
 BAR2 EZ ES        6 4 43.77                             170    0.2410 22.6 180 
 BAR2 EZ I         6 4 45.59        81.2 0.20            168           22.6 180 
 BRR  HZ IP     C  6 4 31.41                             152    0.7210 67.9 300 
 BRR  HE ES        6 4 46.80                             152    0.6410 67.9 300 
 BRR  HZ I         6 4 52.52        49.4 0.12            149           67.9 300 
 PAM  SZ IP     C  6 4 32.34                             148    0.1910 80.2  42 
 PAM  SN ES        6 4 48.81                             148    0.0510 80.2  42 
 PAM  SZ I         6 4 51.66        89.3 0.54            142           80.2  42 
 RUS  HZ EP        6 4 33.80                             142    0.2110  101 174 
 RUS  HE ES        6 4 50.74                             142   -0.5910  101 174 
 RUS  HZ I         6 4 52.69        18.6 0.22            136            101 174 
 PTB  HZ EP        6 4 36.02                             130   -0.60 9  144 259 
 PTB  HE ES        6 4 56.38                             130   -0.34 9  144 259 
 PTB  HZ I         6 4 59.94        53.9 0.14            126            144 259 
 SPBC HZ EP        6 4 38.44                             127    0.13 9  160 218 
 SPBC HN ES        6 4 59.59                             127   -0.13 9  160 218 
 SPBC HZ I         6 5  8.63        18.3 0.24            123            160 218 
 OCA  HZ EP        6 4 37.79                             127   -0.58 9  160 355 
 OCA  HE ES        6 4 59.10                             127   -0.73 9  160 355 
 OCA  HZ I         6 5  4.67        85.8 0.18            122            160 355 
 ZAR  HZ EP        6 4 42.75                             120    0.48 9  201 293 
 ZAR  HN ES        6 5  7.07                             120    0.30 9  201 293 
 ZAR  HZ I         6 5 14.98        25.0 0.56            116            201 293 
 NOR  HZ EP        6 4 46.21                             117    0.58 8  231 234 
 NOR  HE ES        6 5 11.88                             117   -0.87 8  231 234 
 NOR  HZ I         6 5 19.94        14.5 0.18            112            231 234 
 SML  HZ EP        6 4 45.91                             115   -0.86 8  242 336 
 SML  HN ES        6 5 14.96                             115    0.17 8  242 336 
 SML  HZ I         6 5 17.71        36.8 0.10            111            242 336 
 HEL  HZ EP        6 4 50.07                             113   -0.05 8  268 256 
 HEL  HN ES        6 5 20.34                             113   -0.40 8  268 256 
 HEL  HZ I         6 5 28.44        13.7 0.32            109            268 256 
 URE  HZ EP   1    6 4 50.93                             112   -0.11 6  280 292 
 URE  HN ES        6 5 22.01                             112   -0.37 7  280 292 
 URE  HZ I         6 5 23.35        24.3 0.76            108            280 292 
 GUY2CHZ EP        6 4 53.70                             111    0.09 7  298 234 
 GUY2CHN ES        6 5 27.14                             111    0.18 7  298 234 
 GUY2CHZ I         6 5 37.20         9.3 0.48                           298 234 
 CBOC HZ EP        6 4 57.68                             108    0.77 7  330 252 
 CBOC HE ES        6 5 32.70                             108   -0.13 7  330 252 
 CBOC HZ I         6 5 37.97         3.8 0.22            104            330 252 
 DBB  SZ EP   1    6 4 58.08                             108    0.61 5  336 274 
 DBB  SZ ES   1    6 5 34.57                             108    0.73 5  336 274 
 SJC  HZ EP   4    6 5  4.29                             104   -1.59 0  407 327 
 SJC  HE ES   4    6 5 44.15                             104   -4.64 0  407 327 
 SJC  HZ I         6 5 49.80         8.6 0.58            100            407 327 
 CRJC HZ EP   4    6 5 10.38                             102   -2.77 0  468   4 
 CRJC HN ES   4    6 5 56.59                             102   -5.15 0  468   4 
 CRJC HZ I         6 6  5.69         6.3 0.44             98            468   4 
                                                                                
