 2010  420 0253 51.8 L   6.807 -73.068147.2  RSN  9 0.4 2.8LRSN                1
 GAP=148        0.79       5.2     7.9  7.3 -0.2168E+02 -0.1830E+02  0.1313E+02E
 Epicentro: LOS SANTOS - SANTANDER                                             3
 ACTION:UPD 10-08-24 10:00 OP:vdl  STATUS:               ID:20100420025358 L   I
 2010-04-20-0250-53S.COL___100                                                 6
 STAT SP IPHASW D HRMM SECON CODA AMPLIT PERI AZIMU VELO AIN AR TRES W  DIS CAZ7
 BAR2 SZ EP   2    254 11.69                             169     0.0 5   27 208 
 BAR2 SZ ES   2    254 26.39                             169    -0.8 5   27 208 
 BRR  HZ IP     D  254 14.04                             150     0.510   79 295 
 BRR  HN ES   1    254 30.95                             150     0.5 7   79 295 
 BRR  HZ I         254 35.20        97.2 0.11                            79 295 
 OCA  SZ IP        254 20.16                             130    -0.1 9  161 350 
 OCA  SZ ES   1    254 41.85                             130    -0.6 7  161 350 
 OCA  SZ I         254 45.33       108.2 0.40                           161 350 
 CHI  HZ EP   3    254 30.21                             117     0.3 2  252 197 
 CHI  HN ES   3    254 59.43                             117    -0.2 2  252 197 
 CHI  HZ I         255  2.95        16.3 0.47                           252 197 
 HEL  HZ EP   2    254 32.87                             114    -0.2 4  281 256 
 HEL  HZ I         255 10.21        40.2 0.43                           281 256 
 RREF BZ EP   1    254 38.52                             111    -0.3 5  329 230 
 RREF BN ES   2    255 15.41                             111    -0.1 3  329 230 
 RREF BZ I         255 23.91        23.4 0.32                           329 230 
 DBB  SZ EP   1    254 39.83                             109    -0.5 5  348 274 
 SDV  BZ IP     C  254 41.43                             109     0.3 6  353  49 
 PRA  HZ EP   1    254 45.70                             106    -0.3 4  397 211 
 PRA  HE ES   1    255 28.11                             106    -0.1 4  397 211 
 PRA  HZ I         255 34.41        23.7 0.22                           397 211 
                                                                                
