 2017 1120 0320 16.7 L   6.848 -73.113143.1  RSN  8 0.4 1.4LRSN                1
 GAP=138        0.94       4.2     4.4  6.4 -0.1846E+01  0.1417E+02  0.1641E+01E
 Epicentro: LOS SANTOS - SANTANDER                                             3
 ACTION:UPD 17-12-12 19:57 OP:rebc STATUS:               ID:20171120032016 L   I
 OLDACT:REG 17-11-20 14:26 OP:osc  STATUS:               ID:20171120031738     3
 2017-11-20-0318-00M.COL___474                                                 6
 STAT SP IPHASW D HRMM SECON CODA AMPLIT PERI AZIMU VELO AIN AR TRES W  DIS CAZ7
 BAR2 EZ EP        320 36.11                             168   -0.0210 29.3 195 
 BAR2 EZ ES        320 51.45                             168    0.1510 29.3 195 
 PAM  EE ES        320 54.96                             152   -0.0910 71.0  40 
 RUS  HZ EP        320 40.46                             142   -0.1010  106 178 
 RUS  HN ES        320 59.47                             142    0.3010  106 178 
 RUS  HZ I         321  0.75         1.7 0.26            141            106 178 
 PTB  HZ EP        320 43.05                             130   -0.81 9  152 257 
 PTB  HN ES        321  4.42                             130   -0.64 9  152 257 
 PTB  HZ I         321  7.82         2.8 0.18            130            152 257 
 SPBC HZ EP        320 45.64                             127    0.04 9  170 219 
 SPBC HN ES        321  8.14                             127   -0.01 9  170 219 
 SPBC HZ I         321 16.19         4.4 0.22            127            170 219 
 ZAR  HZ EP        320 49.91                             122    0.80 8  205 290 
 ZAR  HN ES        321 14.72                             122    0.33 8  205 290 
 NOR  HZ EP        320 52.77                             117   -0.15 8  241 234 
 NOR  HN ES        321 21.14                             117   -0.03 8  241 234 
 NOR  HZ I         321 27.77         1.9 0.16            118            241 234 
 GUY2CHZ EP        321  0.84                             111   -0.02 7  307 234 
 GUY2CHN ES        321 35.91                             111    0.60 7  307 234 
 GUY2CHZ I         321 43.90         1.6 0.48                           307 234 
                                                                                
