 2015  420 0014  6.7 L   6.757 -73.151140.6  RSN  7 0.4 1.5LRSN                1
 GAP=138        1.13       4.8     4.9  8.3 -0.2510E+00  0.7595E+01  0.9688E+00E
 Epicentro: LOS SANTOS - SANTANDER                                             3
 ACTION:UPD 15-06-03 16:56 OP:cam  STATUS:               ID:20150420001406 L   I
 OLDACT:REG 15-04-20 12:49 OP:ak   STATUS:               ID:20150420000749     3
 2015-04-20-0007-49M.COL___261                                                 6
 STAT SP IPHASW D HRMM SECON CODA AMPLIT PERI AZIMU VELO AIN AR TRES W  DIS CAZ7
 BAR2 EZ EP        014 25.82                             172    0.2110 18.5 191 
 BAR2 EZ ES        014 39.46                             172   -0.9110 18.5 191 
 BAR2 EZ I         014 43.28         6.2 0.47            170           18.5 191 
 BRR  HZ EP     C  014 27.51                             151    0.1110 73.1 302 
 BRR  HE ES        014 44.48                             151    0.9410 73.1 302 
 BRR  HZ I         014 48.47         6.1 0.42            152           73.1 302 
 PAM  SZ IP     D  014 28.54                             148   -0.0810 81.5  38 
 PAM  SN ES        014 45.75                             148    0.0310 81.5  38 
 PAM  SZ I         014 47.88         5.5 0.50            155           81.5  38 
 RUS  HZ EP        014 29.80                             144    0.2010 95.8 175 
 RUS  HN ES   1    014 47.92                             144    0.46 7 95.8 175 
 RUS  HZ I         014 49.84         2.4 0.18            147           95.8 175 
 PTB  HZ EP        014 32.84                             131   -0.27 9  146 261 
 PTB  HN ES        014 53.49                             131   -0.22 9  146 261 
 PTB  HZ I         015  1.12         7.9 0.43            133            146 261 
 OCA  HN ES        014 57.00                             127   -0.18 9  165 354 
 ZAR  HE ES        015  3.86                             121   -0.23 8  205 293 
                                                                                
