 2017 1020 0822 28.3 L   6.745 -73.166144.6  RSN  5 0.5 1.3LRSN                1
 GAP=231        1.19       7.1     7.5  9.6  0.1177E+02  0.8054E+01  0.1117E+01E
 Epicentro: LOS SANTOS - SANTANDER                                             3
 ACTION:UPD 17-11-07 19:34 OP:rebc STATUS:               ID:20171020082228 L   I
 OLDACT:UP  17-10-20 17:23 OP:dani STATUS:               ID:20171020081744     3
 OLDACT:REG 17-10-20 13:20 OP:dani STATUS:               ID:20171020081744     3
 2017-10-20-0818-00M.COL___441                                                 6
 STAT SP IPHASW D HRMM SECON CODA AMPLIT PERI AZIMU VELO AIN AR TRES W  DIS CAZ7
 BAR2 EZ EP        822 47.49                             173   -0.1610 17.0 186 
 BAR2 EZ ES        823  2.49                             173   -0.2710 17.0 186 
 BAR2 EZ I         823  3.50         7.7 0.38            173           17.0 186 
 BRR  HZ EP        822 49.35                             152   -0.0110 72.4 304 
 BRR  HN ES        823  6.42                             152    0.6110 72.4 304 
 BRR  HZ I         823  8.13         4.5 0.48            151           72.4 304 
 RUS  HZ EP        822 52.11                             145    0.6210 94.7 174 
 RUS  HN ES        823  9.17                             145   -0.4310 94.7 174 
 RUS  HZ I         823 10.94         2.3 0.20            147           94.7 174 
 PTB  HZ EP        822 54.29                             132   -0.55 9  144 261 
 PTB  HN ES        823 15.10                             132   -0.47 9  144 261 
 PTB  HZ I         823 18.44         1.8 0.15            133            144 261 
 SPBC HN ES        823 18.42                             130    0.62 9  157 220 
                                                                                
