 2011 1020 0246 14.8 L   6.810 -73.056141.7  RSN  5 0.3 1.5LRSN                1
 GAP=148        0.39       3.6     4.3  6.0  0.1765E+01  0.1224E+02  0.3183E+01E
 Epicentro: LOS SANTOS - SANTANDER                                             3
 ACTION:UPD 12-07-13 16:04 OP:ep   STATUS:               ID:20111020024614 L   I
 2011-10-20-0240-00M.COL___171                                                 6
 STAT SP IPHASW D HRMM SECON CODA AMPLIT PERI AZIMU VELO AIN AR TRES W  DIS CAZ7
 PAM  SZ EP   3    246 36.33                             152    0.16 2 70.6  34 
 PAM  SN ES   2    246 52.66                             152   -0.19 5 70.6  34 
 BRR  HZ EP   2    246 36.12                             149    0.12 5 79.6 294 
 BRR  HN ES   2    246 52.83                             149    0.28 5 79.6 294 
 BRR  HZ I         246 56.32         6.9 0.49                          79.6 294 
 RUS  HZ EP   2    246 37.94                             143   -0.26 5  101 182 
 RUS  HE ES   2    246 56.58                             143    0.11 5  101 182 
 RUS  HZ I         246 58.32         3.9 0.39                           101 182 
 ZAR  HZ EP   1    246 47.89                             120    0.00 6  213 291 
 ZAR  HN ES   2    247 13.43                             120   -0.28 4  213 291 
 ZAR  HZ I         247 18.79         2.6 0.64                           213 291 
 NOR  SZ EP   2    246 51.77                             117    0.55 4  243 236 
 NOR  SN ES   2    247 19.25                             117   -0.40 4  243 236 
                                                                                
