 2014 1020 0738  6.4 L   6.816 -73.128151.6  RSN 16 0.5 2.3LRSN                1
 GAP=138        1.06       2.9     4.1  6.0 -0.9875E+00  0.6038E+01  0.2256E+01E
 Epicentro: LOS SANTOS - SANTANDER                                             3
 ACTION:UPD 14-11-29 23:51 OP:nd   STATUS:               ID:20141020073806 L   I
 OLDACT:UP  14-10-20 17:58 OP:mh   STATUS:               ID:20141020073735     3
 OLDACT:REG 14-10-20 12:58 OP:mh   STATUS:               ID:20141020073735     3
 2014-10-20-0737-35M.COL___268                                                 6
 STAT SP IPHASW D HRMM SECON CODA AMPLIT PERI AZIMU VELO AIN AR TRES W  DIS CAZ7
 BAR2 SZ EP        738 26.79                             170    0.0410 25.5 194 
 BAR2 SZ I         738 44.29        30.8 0.26            168           25.5 194 
 BRR  HZ EP     C  738 28.64                             153    0.4410 72.1 297 
 BRR  HN ES        738 46.08                             153    0.8510 72.1 297 
 BRR  HZ I         738 49.46        28.3 0.21            150           72.1 297 
 PAM  SZ EP   1    738 29.50                             153    0.44 7 74.7  39 
 PAM  SN ES        738 46.74                             153   -0.0110 74.7  39 
 PAM  SZ I         738 48.37        20.1 0.20            155           74.7  39 
 RUS  HZ EP     C  738 30.68                             145   -0.1410  102 177 
 RUS  HN ES        738 49.58                             145   -0.3010  102 177 
 RUS  HZ I         738 52.61        13.2 0.28            145            102 177 
 PTB  HZ EP        738 33.23                             133   -0.80 9  150 258 
 PTB  HN ES        738 54.58                             133   -1.01 9  150 258 
 PTB  HZ I         739  1.86        32.6 0.34            131            150 258 
 OCA  HZ EP        738 35.32                             131    0.32 9  159 352 
 OCA  HN ES   1    738 56.88                             131   -0.45 7  159 352 
 OCA  HZ I         739  1.63        20.2 0.22            131            159 352 
 SPBC HZ EP   1    738 35.64                             130    0.07 7  166 219 
 SPBC HN ES        738 58.87                             130    0.53 9  166 219 
 ZAR  HZ EP        738 39.14                             123   -0.18 8  205 291 
 ZAR  HN ES        739  5.14                             123    0.12 8  205 291 
 ZAR  HZ I         739 10.64        25.7 0.50            122            205 291 
 SML  HZ EP   1    738 43.06                             119   -0.19 6  243 335 
 SML  HN ES        739 11.39                             119   -0.62 8  243 335 
 SML  HZ I         739 15.35        35.2 0.10            118            243 335 
 CHI  HZ EP        738 44.68                             118    0.04 8  251 195 
 CHI  HN ES        739 13.71                             118   -0.78 8  251 195 
 CHI  HZ I         739 23.80         8.2 0.74            118            251 195 
 ROSC BZ EP   4    738 46.37                             118    1.28 0  255 211 
 ROSC BN ES   4    739 19.72                             118    4.42 0  255 211 
 HEL  HZ EP   1    738 47.23                             116    0.08 6  274 256 
 HEL  HN ES        739 19.22                             116    0.27 8  274 256 
 HEL  HZ I         739 26.21        14.4 0.35            115            274 256 
 URE  HZ EP   4    738 46.84                             115   -1.02 0  285 291 
 URE  HN ES   4    739 17.61                             115   -2.61 0  285 291 
 URE  HZ I         739 30.52        14.2 0.24            114            285 291 
 RREF HZ EP   4    738 49.69                             112   -3.39 0  324 229 
 RREF HN ES   4    739 28.10                             112   -1.40 0  324 229 
 CBOC HZ EP        738 54.07                             111    0.26 7  336 252 
 CBOC HN ES   1    739 31.09                             111    0.27 5  336 252 
 CBOC HZ I         739 44.91         3.9 0.38            110            336 252 
 TOL  SZ EP   1    738 55.57                             110    0.39 5  346 225 
 TOL  SN ES   1    739 33.89                             110    0.65 5  346 225 
 MON  HZ EP   4    738 53.68                             110   -1.98 0  354 308 
 MON  HN ES   4    739 31.92                             110   -2.18 0  354 308 
 PRA  HZ EP        739  1.05                             107    0.65 6  395 210 
 PRA  HN ES   1    739 42.78                             107    0.25 4  395 210 
 PRA  HZ I         739 51.33         7.5 0.40            107            395 210 
 SJC  HZ EP   4    739  0.31                             107   -1.77 0  409 327 
 SJC  HN ES   4    739 41.01                             107   -4.52 0  409 327 
 SJC  HZ I         739 59.81         6.8 0.70            106            409 327 
                                                                                
