 2016 1020 0957 26.7 L   6.750 -73.066148.2  RSN  9 0.3 1.6LRSN                1
 GAP=191        0.68       2.6     4.6  4.5 -0.2212E+01  0.6529E+00  0.1050E+01E
 Epicentro: JORDAN - SANTANDER                                                 3
 ACTION:UPD 16-11-09 19:21 OP:rebc STATUS:               ID:20161020095726 L   I
 OLDACT:UP  16-10-20 19:31 OP:and  STATUS:               ID:20161020094747     3
 OLDACT:UP  16-10-20 19:29 OP:and  STATUS:               ID:20161020094747     3
 OLDACT:REG 16-10-20 15:25 OP:cog  STATUS:               ID:20161020094747     3
 2016-10-20-0948-00M.COL___335                                                 6
 STAT SP IPHASW D HRMM SECON CODA AMPLIT PERI AZIMU VELO AIN AR TRES W  DIS CAZ7
 BAR2 EZ EP        957 46.34                             171   -0.2610 21.7 216 
 BAR2 EZ ES        958  1.83                             171   -0.2910 21.7 216 
 BAR2 EZ I         958  3.32         6.5 0.23            167           21.7 216 
 BRR  HZ EP        957 48.20                             150   -0.5310 81.6 299 
 BRR  HE ES        958  6.23                             150    0.3210 81.6 299 
 RUS  HZ EP   2    957 50.75                             146    0.46 5 94.8 181 
 RUS  HE ES        958  9.07                             146    0.3710 94.8 181 
 RUS  HZ I         958 11.76         3.7 0.34            142           94.8 181 
 PTB  HZ EP   9    957 53.29                             131   -1.29 0  156 261 
 PTB  HN ES        958 14.78                             132   -0.25 9  156 261 
 PTB  HZ I         958 16.41         6.0 0.14            130            156 261 
 SPBC HZ EP        957 55.30                             129   -0.24 9  165 223 
 SPBC HN ES        958 18.03                             129   -0.00 9  165 223 
 SPBC HZ I         958 22.29         7.2 0.17            127            165 223 
 OCA  HZ EP   2    957 55.79                             129   -0.05 5  167 350 
 OCA  HN ES        958 18.93                             129    0.36 9  167 350 
 CHI  HZ EP   2    958  4.37                             118    0.14 4  246 198 
 CHI  HE ES   2    958 33.80                             118    0.30 4  246 198 
 CHI  HZ I         958 43.22         1.5 0.34            116            246 198 
 GUY2CHZ EP   3    958 11.69                             113    0.79 2  305 237 
 GUY2CHE ES        958 45.41                             113    0.04 7  305 237 
 GUY2CHZ I         958 51.82         2.2 0.58                           305 237 
 PRA  HZ EP   2    958 20.76                             107    0.49 3  392 211 
 PRA  HE ES   2    959  2.33                             107    0.28 3  392 211 
 PRA  HZ I         959  7.45         2.0 0.28            106            392 211 
 SJC  HZ EP   4    958 20.49                             106   -2.97 0  419 326 
 SJC  HN ES   4    959  4.02                             106   -3.71 0  419 326 
                                                                                
