 2017 1220 0704 11.0 L   6.751 -73.121138.5  RSN  4 0.3 1.1LRSN                1
 GAP=166        0.76       6.5     5.9  6.4 -0.2753E+02  0.9186E+01 -0.3881E+00E
 Epicentro: LOS SANTOS - SANTANDER                                             3
 ACTION:UPD 18-01-04 13:22 OP:rebc STATUS:               ID:20171220070411 L   I
 OLDACT:REG 17-12-20 13:02 OP:dhb  STATUS:               ID:20171220065545     3
 2017-12-20-0658-00M.COL___461                                                 6
 STAT SP IPHASW D HRMM SECON CODA AMPLIT PERI AZIMU VELO AIN AR TRES W  DIS CAZ7
 BAR2 EZ EP   1    7 4 29.40                             172   -0.31 7 18.8 201 
 BAR2 EZ ES        7 4 43.95                             172   -0.3310 18.8 201 
 BAR2 EZ I         7 4 46.89         4.2 0.50            163           18.8 201 
 PAM  EZ EP        7 4 32.95                             149    0.3010 80.0  36 
 PAM  EN ES        7 4 49.65                             149    0.1410 80.0  36 
 PAM  EZ I         7 4 52.67         1.9 0.36            155           80.0  36 
 PTB  HZ EP        7 4 37.10                             130   -0.49 9  150 261 
 PTB  HE ES        7 4 58.48                             130    0.18 9  150 261 
 PTB  HZ I         7 4 59.68         0.9 0.16            133            150 261 
 SPBC HZ EP        7 4 38.79                             128    0.03 9  161 221 
 SPBC HE ES        7 5  0.76                             128    0.37 9  161 221 
 SPBC HZ I         7 5 12.35         1.8 0.28            128            161 221 
                                                                                
