 2013  420 0619  3.0 L   5.894 -73.667127.4  RSN 15 0.4 2.1LRSN                1
 GAP= 97        0.80       2.2     3.4  4.8 -0.6999E+00  0.2830E+01 -0.9608E+00E
 Epicentro: PUENTE NACIONAL - SANTANDER                                        3
 ACTION:UPD 13-05-22 14:39 OP:EP   STATUS:               ID:20130420061903 L   I
 2013-04-20-0616-36M.COL___217                                                 6
 STAT SP IPHASW D HRMM SECON CODA AMPLIT PERI AZIMU VELO AIN AR TRES W  DIS CAZ7
 RUS  HZ IP     C  619 22.34                             152   -0.1410 64.6  90 
 RUS  HN ES        619 37.28                             152   -0.4110 64.6  90 
 RUS  HZ I         619 37.99        32.1 0.24            145           64.6  90 
 BAR2 SZ EP        619 24.26                             141    0.1710 94.0  35 
 BAR2 SZ ES   1    619 40.62                             141    0.05 7 94.0  35 
 BAR2 SZ I         619 41.43        49.9 0.20            130           94.0  35 
 PTB  HZ EP        619 24.86                             136   -0.4510  113 309 
 PTB  HN ES   1    619 42.53                             136   -0.20 7  113 309 
 PTB  HZ I         619 45.32        19.4 0.14            121            113 309 
 BRR  HZ IP     C  619 27.50                             130    0.3010  134 358 
 BRR  HN ES        619 46.65                             130    0.5610  134 358 
 BRR  HZ I         619 52.28        19.5 0.14            118            134 358 
 ROSC BZ EP   4    619 29.31                             130    1.30 0  137 212 
 ROSC BN ES   2    619 48.10                             130    0.57 5  137 212 
 ROSC BZ I         619 52.14        11.8 0.25            117            137 212 
 CHI  HZ IP     C  619 28.70                             129    0.40 9  140 183 
 CHI  HN ES        619 47.92                             129   -0.13 9  140 183 
 CHI  HZ I         619 51.58        13.6 0.28            117            140 183 
 GIR2 SZ IP     C  619 28.26                             129    0.23 9  141  22 
 GIR2 SZ I         619 52.79        10.7 0.22            117            141  22 
 YOP  SZ EP        619 29.06                             127    0.17 9  150 113 
 YOP  SZ I         619 50.38        33.8 0.26            116            150 113 
 PAM  SZ EP        619 33.60                             120   -0.06 9  192  34 
 PAM  SN ES        619 57.27                             120   -0.32 9  192  34 
 PAM  SZ I         620  5.01         6.2 0.28            110            192  34 
 HEL  HZ EP   4    619 36.38                             117    1.12 0  209 279 
 HEL  HZ I         620  6.16        11.6 0.22            107            209 279 
 TAM  HZ EP        619 35.45                             116   -0.19 8  216  74 
 TAM  HN ES   4    620  0.40                             116   -0.71 0  216  74 
 TAM  HZ I         620  2.54        15.2 0.24            108            216  74 
 OCA  HZ EP        619 40.81                             111   -0.10 8  262   8 
 OCA  HN ES   1    620 11.25                             111    0.75 6  262   8 
 OCA  HZ I         620 17.93        12.2 0.22            104            262   8 
 PRA  HZ EP        619 42.71                             110    0.31 7  276 209 
 PRA  HN ES   4    620 11.43                             110   -1.73 0  276 209 
 PRA  HZ I         620 16.61         9.2 0.26            103            276 209 
 URE  HZ IP     D  619 43.26                             109   -0.79 7  291 315 
 URE  HN ES   4    620 14.00                             109   -2.09 0  291 315 
 URE  HZ I         620 26.66         8.6 0.18            102            291 315 
 SML  HZ EP        619 47.63                             107   -0.28 7  325 352 
 SML  HN ES   2    620 22.99                             107    0.03 3  325 352 
                                                                                
