 2014  120 0847  5.5 L   6.795 -73.161135.9  RSN  8 0.5 1.6LRSN                1
 GAP=135        1.19       4.1     5.3  8.8 -0.6398E+00  0.1625E+02 -0.1002E+02E
 Epicentro: LOS SANTOS - SANTANDER                                             3
 ACTION:UPD 14-03-13 09:56 OP:ep   STATUS:               ID:20140120084705 L   I
 OLDACT:REG 14-01-20 08:30 OP:nd   STATUS:               ID:20140120084000     3
 2014-01-20-0840-00M.COL___285                                                 6
 STAT SP IPHASW D HRMM SECON CODA AMPLIT PERI AZIMU VELO AIN AR TRES W  DIS CAZ7
 BAR2 SZ EP        847 24.19                             170    0.2410 22.6 186 
 BAR2 SZ ES        847 38.14                             170   -0.1910 22.6 186 
 BAR2 SZ I         847 39.97        12.9 0.30            174           22.6 186 
 PAM  SZ EP        847 27.21                             148    0.4210 78.8  40 
 PAM  SN ES        847 43.63                             148    0.2510 78.8  40 
 PAM  SZ I         847 46.67         3.4 0.56            149           78.8  40 
 RUS  HZ EP        847 28.23                             142   -0.0610  100 175 
 RUS  HN ES        847 45.81                             142   -0.2410  100 175 
 RUS  HZ I         847 47.18         4.0 0.44            148            100 175 
 PTB  HZ EP        847 31.25                             130   -0.29 9  146 259 
 PTB  HN ES        847 51.57                             130   -0.27 9  146 259 
 PTB  HZ I         847 55.60         3.8 0.16            132            146 259 
 TAM  HZ EP   4    847 25.73                             128   -6.85 0  157 105 
 TAM  HN ES   4    847 41.64                             128   -12.0 0  157 105 
 TAM  HZ I         847 54.80        11.6 0.14            132            157 105 
 OCA  HZ EP   2    847 33.72                             127    0.60 5  161 354 
 OCA  HN ES        847 54.59                             127   -0.05 9  161 354 
 OCA  HZ I         848  2.40         3.4 0.22            127            161 354 
 ZAR  HZ EP   2    847 37.92                             120    0.71 4  203 292 
 ZAR  HN ES        848  3.07                             120    1.15 9  203 292 
 ZAR  HZ I         848  9.34         3.9 0.30            121            203 292 
 SML  HZ EP        847 41.29                             115   -0.30 8  243 336 
 SML  HN ES        848  8.49                             115   -1.24 8  243 336 
 SML  HZ I         848 19.13         4.8 0.10            116            243 336 
                                                                                
