 2011 1020 0454 23.0 L   6.769 -73.131147.0  RSN  9 0.2 1.8LRSN                1
 GAP=140        0.36       2.0     2.7  3.7 -0.5314E+00  0.4428E+01 -0.1417E+01E
 Epicentro: LOS SANTOS - SANTANDER                                             3
 ACTION:UPD 12-07-13 16:04 OP:ep   STATUS:               ID:20111020045423 L   I
 2011-10-20-0453-14S.COL___167                                                 6
 STAT SP IPHASW D HRMM SECON CODA AMPLIT PERI AZIMU VELO AIN AR TRES W  DIS CAZ7
 BAR2 SZ EP   1    454 42.62                             172   -0.06 7 20.3 196 
 BAR2 SZ ES   2    454 57.73                             172   -0.33 5 20.3 196 
 BAR2 SZ I         455  0.13        18.5 0.25                          20.3 196 
 BRR  HZ EP   1    454 44.55                             152    0.13 7 74.3 300 
 BRR  HE ES   2    455  1.62                             152    0.46 5 74.3 300 
 BRR  HZ I         455  5.95        12.9 0.11                          74.3 300 
 PAM  SZ EP   1    454 45.67                             150    0.26 7 79.1  37 
 PAM  SN ES   2    455  2.64                             150   -0.28 5 79.1  37 
 RUS  HZ EP   1    454 46.38                             145   -0.20 7 97.0 177 
 RUS  HN ES        455  5.07                             145    0.0710 97.0 177 
 RUS  HZ I         455  6.21         7.4 0.29                          97.0 177 
 OCA  SZ EP   2    454 51.57                             129   -0.14 5  164 353 
 OCA  SZ ES   2    455 14.17                             129    0.03 5  164 353 
 OCA  SZ I         455 23.90         5.1 0.41                           164 353 
 ZAR  HZ EP   1    454 55.69                             122   -0.09 6  207 293 
 ZAR  HN ES   2    455 21.01                             122   -0.37 4  207 293 
 ZAR  HZ I         455 26.63         3.7 0.46                           207 293 
 NOR  SZ EP   2    454 58.68                             119   -0.01 4  234 235 
 NOR  SE ES   2    455 26.25                             119   -0.31 4  234 235 
 HEL  HZ EP   2    455  3.41                             115    0.09 4  273 257 
 HEL  HN ES   2    455 34.87                             115    0.07 4  273 257 
 HEL  HZ I         455 41.13         3.8 0.52                           273 257 
 RREF HZ EP   2    455  9.08                             111    0.04 3  321 230 
 RREF HN ES   2    455 45.43                             111    0.44 3  321 230 
 RREF HZ I         455 55.01         3.8 0.60                           321 230 
                                                                                
