 2012  620 0721 34.9 L   6.698 -73.207137.4  RSN  5 0.3 1.7LRSN                1
 GAP=264        0.55       4.4     4.6  4.8  0.6473E+01  0.7860E+01  0.3657E+01E
 Epicentro: VILLANUEVA - SANTANDER                                             3
 ACTION:UPD 12-08-06 17:51 OP:ep   STATUS:               ID:20120620072134 L   I
 2012-06-20-0719-49M.COL___176                                                 6
 STAT SP IPHASW D HRMM SECON CODA AMPLIT PERI AZIMU VELO AIN AR TRES W  DIS CAZ7
 BAR2 SZ EP        721 53.35                             175    0.0010 12.0 167 
 BAR2 SZ ES   1    722  7.79                             175    0.06 7 12.0 167 
 BAR2 SZ I         722  9.35        17.5 0.26                          12.0 167 
 RUS  HZ EP        721 57.07                             145   -0.0210 90.1 171 
 RUS  HN ES        722 14.42                             145    0.0310 90.1 171 
 RUS  HZ I         722 17.44         7.6 0.26                          90.1 171 
 PTB  HZ EP        722  0.11                             132   -0.32 9  139 263 
 PTB  HN ES   1    722 20.60                             132    0.27 7  139 263 
 PTB  HZ I         722 23.20         6.5 0.20                           139 263 
 CHI  HZ EP   1    722 10.97                             117    0.19 6  236 194 
 CHI  HN ES   1    722 38.33                             117   -0.42 6  236 194 
 PRA  HZ EP        722 27.16                             106    0.55 6  379 210 
                                                                                
