 2016  620 0841 48.7 L   6.051 -73.711117.5  RSN  6 0.4 1.2LRSN                1
 GAP=118        0.92       3.8     3.5  7.1 -0.3260E+01  0.5634E+01 -0.2019E+01E
 Epicentro: VELEZ - SANTANDER                                                  3
 ACTION:UPD 16-07-21 22:20 OP:rebc STATUS:               ID:20160620084148 L   I
 OLDACT:DUP 16-06-20 20:26 OP:ak   STATUS:               ID:20160620083748d    3
 2016-06-20-0837-47M.COL___340                                                 6
 STAT SP IPHASW D HRMM SECON CODA AMPLIT PERI AZIMU VELO AIN AR TRES W  DIS CAZ7
 SPBC HZ EP        842  6.48                             151    0.2010 59.5 222 
 SPBC HN ES        842 20.04                             151    0.0510 59.5 222 
 SPBC HZ I         842 22.02         4.5 0.22                          59.5 222 
 RUS  HZ EP        842  7.47                             147   -0.1410 71.6 104 
 RUS  HN ES        842 22.16                             147   -0.2010 71.6 104 
 RUS  HZ I         842 23.46         2.9 0.20                          71.6 104 
 BAR2 EZ EP        842  8.28                             142    0.1710 83.7  44 
 BAR2 EZ ES        842 23.32                             142    0.0810 83.7  44 
 BAR2 EZ I         842 23.88         6.6 0.14                          83.7  44 
 PTB  HZ EP        842  8.22                             137   -0.7610 98.6 303 
 PTB  HN ES        842 24.41                             137   -0.3910 98.6 303 
 PTB  HZ I         842 26.20         2.7 0.12                          98.6 303 
 BRR  HZ EP        842 10.67                             132    0.1310  117 360 
 BRR  HN ES        842 28.09                             132    0.5110  117 360 
 BRR  HZ I         842 30.34         1.7 0.11                           117 360 
 GUY2CHZ EP   2    842 20.06                             116   -0.10 4  205 244 
 GUY2CHN ES        842 45.25                             116    0.55 9  205 244 
 GUY2CHZ I         842 53.56         1.6 0.46                           205 244 
                                                                                
