 2011  520 0942 43.6 L   6.762 -73.092139.2  RSN  8 0.3 1.9LRSN                1
 GAP=145        0.76       3.6     7.3  7.0 -0.1721E+01 -0.7888E+01 -0.5416E+01E
 Epicentro: LOS SANTOS - SANTANDER                                             3
 ACTION:UP  11-06-29 08:54 OP:tino STATUS:               ID:20110520094243 L   I
 2011-05-20-0940-00M.COL___141                                                 6
 STAT SP IPHASW D HRMM SECON CODA AMPLIT PERI AZIMU VELO SNR AR TRES W  DIS CAZ7
 BAR2 SZ EP        943  2.54                             171     0.210   21 208 
 BAR2 SZ ES   1    943 16.30                             171    -0.7 7   21 208 
 BAR2 SZ I         943 18.79        21.4 0.55                            21 208 
 GIR2 SZ EP   1    943  2.61                             164     0.0 7   37 342 
 PAM  SZ EP   1    943  5.27                             150     0.2 7   77  34 
 PAM  SN ES   2    943 22.03                             150     0.2 5   77  34 
 BRR  HZ IP     C  943  4.39                             149     0.010   78 299 
 BRR  HZ I         943  4.70        33.3 0.19                            78 299 
 BRR  HN ES   1    943 20.90                             149     0.2 7   78 299 
 RUS  HZ EP   1    943  6.44                             144     0.1 7   96 179 
 RUS  HE ES   1    943 24.39                             144     0.3 7   96 179 
 RUS  HZ I         943 26.37         7.2 0.18                            96 179 
 BRI  SZ EP   1    943  7.02                             139     0.0 7  110  17 
 GRA  SZ EP   1    943  8.24                             135    -0.2 7  128  14 
 GRA  SZ I         943  9.48        11.6 0.30                           128  14 
 GRA  SZ ES   1    943 27.74                             135    -0.1 7  128  14 
 OCA  SZ EP   1    943 11.16                             127    -0.7 7  165 351 
 OCA  SZ ES   1    943 34.42                             127     0.5 7  165 351 
 OCA  SZ I         943 39.67         9.4 0.24                           165 351 
                                                                                
