 2017  120 0719  8.8 L   6.784 -73.158144.5  RSN  5 0.3 1.0LRSN                1
 GAP=136        0.73       3.8     3.6  7.1  0.1735E+01  0.2669E+01  0.1878E+01E
 Epicentro: LOS SANTOS - SANTANDER                                             3
 ACTION:UPD 17-05-22 16:01 OP:jn   STATUS:               ID:20170120071908 L   I
 OLDACT:UP  17-01-20 17:24 OP:dani STATUS:               ID:20170120071740     3
 OLDACT:REG 17-01-20 12:41 OP:dani STATUS:               ID:20170120071740     3
 2017-01-20-0718-00M.COL___307                                                 6
 STAT SP IPHASW D HRMM SECON CODA AMPLIT PERI AZIMU VELO AIN AR TRES W  DIS CAZ7
 BRR  HZ EP        719 29.78                             152    0.0110 70.8 300 
 BRR  HE ES        719 46.48                             152    0.3410 70.8 300 
 BRR  HZ I         719 49.61         3.4 0.17            154           70.8 300 
 PAM  EZ EP        719 30.92                             150   -0.0810 79.6  40 
 PAM  EE ES        719 48.11                             150   -0.2210 79.6  40 
 PAM  EZ I         719 49.52         2.1 0.54            153           79.6  40 
 RUS  HZ EP        719 32.44                             144    0.1510 99.0 175 
 RUS  HN ES        719 50.70                             144    0.0710 99.0 175 
 RUS  HZ I         719 52.72         0.7 0.32            147           99.0 175 
 PTB  HN ES   1    719 55.48                             132   -0.84 7  146 259 
 ZAR  HN ES        720  6.45                             122    0.18 9  203 293 
                                                                                
