 2017  720 0659 39.9 L   6.731 -73.202134.8  RSN  4 0.2 1.1LRSN                1
 GAP=237        0.54       5.7     4.5  5.8  0.1814E+02  0.6644E+01 -0.6036E-01E
 Epicentro: VILLANUEVA - SANTANDER                                             3
 ACTION:UPD 17-08-30 15:35 OP:rebc STATUS:               ID:20170720065939 L   I
 OLDACT:REG 17-07-20 13:14 OP:dnl  STATUS:               ID:20170720065639     3
 2017-07-20-0658-00M.COL___377                                                 6
 STAT SP IPHASW D HRMM SECON CODA AMPLIT PERI AZIMU VELO AIN AR TRES W  DIS CAZ7
 BAR2 EZ EP   2    659 58.10                             173    0.07 5 15.5 172 
 BAR2 EZ ES        7 0 12.04                             173   -0.1710 15.5 172 
 BAR2 EZ I         7 0 13.61         5.1 0.30            167           15.5 172 
 RUS  HZ EP        7 0  2.04                             143    0.0010 93.7 172 
 RUS  HN ES        7 0 19.51                             143    0.1710 93.7 172 
 RUS  HZ I         7 0 21.67         1.6 0.32            143           93.7 172 
 PTB  HZ EP   2    7 0  4.62                             131   -0.65 5  140 261 
 PTB  HN ES        7 0 24.96                             131   -0.12 9  140 261 
 PTB  HZ I         7 0 33.07         0.7 0.28            127            140 261 
 ZAR  HZ EP   4    7 0 13.20                             120    1.87 0  201 295 
 ZAR  HN ES        7 0 36.20                             120    0.32 9  201 295 
 ZAR  HZ I         7 0 44.76         3.1 0.26            119            201 295 
                                                                                
