 2017 1020 0152 45.5 L   6.133 -73.757 97.8  RSN  6 0.5 0.5LRSN                1
 GAP=131        1.39       5.7     4.7 13.5 -0.4268E+01  0.2383E+02  0.1826E+02E
 Epicentro: EL PENON - SANTANDER                                               3
 ACTION:UPD 17-11-07 19:34 OP:rebc STATUS:               ID:20171020015244 L   I
 OLDACT:UP  17-10-23 13:30 OP:nlst STATUS:               ID:20171020015244 L   3
 OLDACT:REG 17-10-20 12:46 OP:dani STATUS:               ID:20171020014739     3
 2017-10-20-0148-00M.COL___462                                                 6
 STAT SP IPHASW D HRMM SECON CODA AMPLIT PERI AZIMU VELO AIN AR TRES W  DIS CAZ7
 RUS  HZ EP        153  2.55                             139   -0.5310 79.2 110 
 RUS  HN ES        153 16.99                             139    0.2110 79.2 110 
 RUS  HZ I         153 18.08         1.5 0.30            145           79.2 110 
 BAR2 EZ ES        153 16.58                             138    0.1210 81.3  51 
 PTB  HZ EP        153  2.96                             134   -0.3410 89.4 300 
 PTB  HN ES        153 17.37                             134    0.2110 89.4 300 
 PTB  HZ I         153 21.95         0.6 0.30            137           89.4 300 
 BRR  HZ EP        153  6.21                             129    1.2410  108   3 
 BRR  HN ES        153 19.32                             129   -0.8210  108   3 
 NOR  HN ES        153 25.95                             121    0.17 9  138 243 
 GUY2CHZ EP        153 15.72                             111   -0.30 9  205 241 
 GUY2CHE ES        153 39.78                             111   -0.02 9  205 241 
                                                                                
