 2012 1020 0356 37.2 L   6.778 -73.130148.7  RSN 11 0.4 2.1LRSN                1
 GAP=140        0.74       3.1     4.1  5.2 -0.1350E+01  0.7356E+01  0.2577E+01E
 Epicentro: LOS SANTOS - SANTANDER                                             3
 ACTION:UPD 12-11-22 17:04 OP:ep   STATUS:               ID:20121020035637 L   I
 2012-10-20-0350-00M.COL___233                                                 6
 STAT SP IPHASW D HRMM SECON CODA AMPLIT PERI AZIMU VELO AIN AR TRES W  DIS CAZ7
 BAR2 SZ EP   1    356 57.07                             171   -0.11 7 21.3 196 
 BAR2 SZ ES   1    357 11.85                             171   -0.89 7 21.3 196 
 BAR2 SZ I         357 14.28        46.0 0.20                          21.3 196 
 GIR2 SZ EP   1    356 57.37                             166    0.04 7 34.0 348 
 GIR2 SZ ES   1    357 12.81                             166   -0.19 7 34.0 348 
 BRR  HZ EP   1    356 59.16                             152    0.30 7 73.9 300 
 BRR  HZ I         356 59.56        21.6 0.12                          73.9 300 
 BRR  HN ES   1    357 16.51                             152    0.79 7 73.9 300 
 PAM  SZ EP   1    357  0.11                             151    0.29 7 78.2  37 
 PAM  SZ I         357  0.24        11.1 0.20                          78.2  37 
 PAM  SN ES   1    357 17.57                             151    0.15 7 78.2  37 
 PAM  SN I         357 18.49        37.4 0.24                          78.2  37 
 RUS  HZ EP   1    357  1.09                             145   -0.01 7 98.1 177 
 RUS  HN ES   1    357 20.02                             145    0.31 7 98.1 177 
 OCA  HZ EP   1    357  5.89                             130   -0.14 7  163 353 
 OCA  HE ES   1    357 28.14                             130   -0.33 7  163 353 
 OCA  HZ I         357 32.22        15.2 0.27                           163 353 
 ZAR  HZ I         357 12.51         4.9 0.12                           207 293 
 ZAR  HN ES   1    357 35.87                             123    0.07 6  207 293 
 NOR  HZ EP   1    357 12.37                             119   -0.78 6  235 235 
 NOR  HZ I         357 15.63         6.2 0.18                           235 235 
 NOR  HN ES   1    357 41.12                             119   -0.03 6  235 235 
 NOR  HN I         357 45.03        48.1 0.18                           235 235 
 CHI  HZ EP   1    357 15.12                             118    0.22 6  247 196 
 CHI  HZ I         357 17.36         4.9 0.16                           247 196 
 CHI  HN ES   1    357 44.45                             118    0.18 6  247 196 
 CHI  HN I         357 47.00        14.0 0.52                           247 196 
 HEL  HZ EP   1    357 18.17                             115    0.44 6  273 256 
 HEL  HZ I         357 20.96         2.4 0.18                           273 256 
 HEL  HN ES   1    357 49.10                             115   -0.20 6  273 256 
 HEL  HN I         357 55.82        11.6 0.42                           273 256 
 DBB  SZ EP   1    357 24.60                             110   -0.46 5  341 275 
 DBB  SZ I         357 25.90         4.4 0.52                           341 275 
                                                                                
