 2011  620 0232  9.9 L   6.770 -73.105149.6  RSN 13 0.3 2.4LRSN                1
 GAP=143        0.53       2.3     3.6  3.7 -0.3785E+01  0.2425E+01  0.6385E+00E
 Epicentro: LOS SANTOS - SANTANDER                                             3
 ACTION:UP  11-07-14 19:06 OP:ep   STATUS:               ID:20110620023209 L   I
 2011-06-20-0228-11S.COL___140                                                 6
 STAT SP IPHASW D HRMM SECON CODA AMPLIT PERI AZIMU VELO SNR AR TRES W  DIS CAZ7
 BAR2 SZ EP   1    232 29.88                             171    -0.1 7   21 203 
 BAR2 SZ ES   1    232 45.15                             171    -0.5 7   21 203 
 BAR2 SZ I         232 47.90        50.0 0.30                            21 203 
 BRR  HZ IP     C  232 31.78                             151     0.010   77 299 
 BRR  HZ I         232 32.09        87.9 0.16                            77 299 
 BRR  HN ES   1    232 49.23                             151     0.4 7   77 299 
 PAM  SZ EP   1    232 32.76                             152     0.2 7   77  35 
 PAM  SN ES   2    232 50.16                             152     0.0 5   77  35 
 RUS  HZ EP   1    232 33.69                             146    -0.1 7   97 179 
 RUS  HN ES   1    232 52.73                             146     0.3 7   97 179 
 RUS  HZ I         232 53.53        17.7 0.25                            97 179 
 BRI  SZ EP   1    232 34.41                             142     0.1 7  110  18 
 BRI  SZ ES   2    232 52.93                             142    -0.4 5  110  18 
 BRI  SZ I         232 57.94        18.7 0.35                           110  18 
 GRA  SZ IP        232 35.69                             137     0.010  128  15 
 GRA  SZ ES   1    232 56.00                             137     0.3 7  128  15 
 GRA  SZ I         232 57.66        28.5 0.38                           128  15 
 OCA  SZ EP   1    232 38.50                             130    -0.4 7  164 352 
 OCA  SZ ES   2    233  1.39                             130    -0.1 5  164 352 
 OCA  SZ I         233  6.95        24.0 0.65                           164 352 
 NOR  SZ EP   2    232 45.70                             119    -0.4 4  236 236 
 NOR  SN ES   2    233 14.06                             119    -0.2 4  236 236 
 CHI  HZ EP   1    232 47.69                             118     0.1 6  247 196 
 CHI  HN ES   2    233 17.13                             118     0.1 4  247 196 
 CHI  HZ I         233 25.19        11.1 0.31                           247 196 
 HEL  HZ EP   2    232 51.23                             115     0.5 4  276 257 
 HEL  HN ES   2    233 22.28                             115    -0.3 4  276 257 
 HEL  HZ I         233 28.56        13.2 0.44                           276 257 
 GUY  SZ EP   2    232 53.56                             113    -0.6 4  305 236 
 GUY  SE ES   2    233 28.64                             113    -0.1 4  305 236 
 GUY  SZ I         233 37.82        18.9 0.27                           305 236 
 RREF HZ EP   2    232 56.95                             111     0.6 3  323 230 
 RREF HN ES   2    233 33.18                             111     0.6 3  323 230 
 RREF HZ I         233 42.09        13.7 0.36                           323 230 
 PRA  HZ EP   1    233  3.44                             107    -0.1 4  391 210 
 PRA  HN ES   2    233 45.19                             107    -0.1 3  391 210 
                                                                                
