 2010  620 0015 23.3 L   7.397 -73.169129.3  RSN  4 0.1 1.6LRSN                1
 GAP=147        0.42       9.9     9.6  5.5 -0.8763E+02 -0.2386E+02  0.2797E+02E
 Epicentro: EL PLAYON - SANTANDER                                              3
 ACTION:UP  10-08-24 10:11 OP:vdl  STATUS:               ID:20100620001523 L   I
 2010-06-20-0013-12S.COL___118                                                 6
 STAT SP IPHASW D HRMM SECON CODA AMPLIT PERI AZIMU VELO SNR AR TRES W  DIS CAZ7
 GUE  SZ EP        015 42.37                             156     0.110   55  29 
 GUE  SZ ES   1    015 56.79                             156    -0.2 7   55  29 
 GRA  SZ EP        015 42.76                             151     0.110   67  37 
 GRA  SZ ES   1    015 57.88                             151     0.1 7   67  37 
 BRR  HZ EP        015 42.34                             150    -0.210   68 242 
 BRR  HE ES   1    015 57.67                             150     0.2 7   68 242 
 BRR  HZ I         016 14.08         8.2 0.47                            68 242 
 BAR2 SZ EP   2    015 44.24                             143     0.0 5   89 181 
                                                                                
