 2017  120 0217 59.9 L   6.773 -73.145144.6  RSN  5 0.3 1.1LRSN                1
 GAP=138        0.86       5.5     5.3  6.8  0.6310E+01 -0.1808E+01 -0.5925E+01E
 Epicentro: LOS SANTOS - SANTANDER                                             3
 ACTION:UPD 17-05-22 16:01 OP:jn   STATUS:               ID:20170120021759 L   I
 OLDACT:REG 17-01-20 12:21 OP:dani STATUS:               ID:20170120020740     3
 2017-01-20-0208-00M.COL___316                                                 6
 STAT SP IPHASW D HRMM SECON CODA AMPLIT PERI AZIMU VELO AIN AR TRES W  DIS CAZ7
 BAR2 EZ ES        218 34.76                             172    0.2210 20.5 192 
 BRR  HZ EP        218 20.71                             152   -0.3510 72.7 301 
 BRR  HE ES        218 37.74                             152    0.2110 72.7 301 
 BRR  HZ I         218 42.78         4.1 0.36            152           72.7 301 
 PAM  EZ EP        218 21.98                             150   -0.1910 79.6  38 
 RUS  HZ EP        218 23.48                             144    0.1110 97.6 176 
 RUS  HN ES        218 41.48                             144   -0.1710 97.6 176 
 RUS  HZ I         218 45.33         1.9 0.49            147           97.6 176 
 PTB  HZ EP        218 27.42                             132    0.64 9  147 260 
 PTB  HE ES        218 47.27                             132   -0.44 9  147 260 
 PTB  HZ I         218 51.67         1.4 0.20            133            147 260 
                                                                                
