 2012  920 0239 43.3 L   6.753 -73.164136.2  RSN  9 0.3 2.3LRSN                1
 GAP=136        0.55       2.6     3.0  4.3 -0.3227E+00  0.3016E+01  0.1577E+01E
 Epicentro: LOS SANTOS - SANTANDER                                             3
 ACTION:UPD 12-10-22 14:19 OP:ep   STATUS:               ID:20120920023943 L   I
 2012-09-20-0237-40M.COL___201                                                 6
 STAT SP IPHASW D HRMM SECON CODA AMPLIT PERI AZIMU VELO AIN AR TRES W  DIS CAZ7
 BAR2 SZ EP        240  1.83                             172    0.1310 17.9 186 
 BAR2 SZ ES   1    240 15.82                             172   -0.22 7 17.9 186 
 GIR2 SZ EP        240  1.94                             164   -0.0710 36.2 355 
 GIR2 SZ ES   1    240 16.42                             164   -0.17 7 36.2 355 
 BRR  HZ EP        240  3.74                             150    0.2410 72.1 303 
 BRR  HN ES   2    240 20.11                             150    0.87 5 72.1 303 
 BRR  HN I         240 24.88        89.8 0.16                          72.1 303 
 PAM  SZ EP        240  4.74                             147   -0.1410 82.7  38 
 PAM  SN ES   1    240 21.61                             147   -0.08 7 82.7  38 
 PAM  SN I         240 22.74        42.7 0.20                          82.7  38 
 RUS  HZ EP   1    240  5.81                             143    0.04 7 95.5 175 
 RUS  HN ES   1    240 23.61                             143    0.33 7 95.5 175 
 RUS  HZ I         240 25.29        25.6 0.38                          95.5 175 
 PTB  HN ES   1    240 28.90                             130   -0.58 7  145 261 
 ZAR  HZ EP   1    240 15.18                             120    0.00 6  204 294 
 ZAR  HN ES   1    240 40.12                             120    0.09 6  204 294 
 ZAR  HZ I         240 45.98        20.0 0.44                           204 294 
 CHI  HZ EP   1    240 19.85                             116   -0.04 6  243 195 
 CHI  HN ES   1    240 48.16                             116   -0.26 6  243 195 
 CHI  HN I         240 55.24        13.6 0.28                           243 195 
 RREF HN ES   2    241  4.07                             109    0.33 3  317 230 
 RREF HZ I         241 10.27         7.1 0.24                           317 230 
                                                                                
