 2015  320 0626 27.6 L   6.817 -73.171141.3  RSN 18 0.5 2.1LRSN                1
 GAP=116        1.06       2.6     3.4  4.9 -0.1806E+01  0.4802E+01  0.1427E+01E
 Epicentro: LOS SANTOS - SANTANDER                                             3
 ACTION:UPD 15-04-30 16:27 OP:nd   STATUS:               ID:20150320062627 L   I
 OLDACT:REG 15-03-20 13:07 OP:fm   STATUS:               ID:20150320061736     3
 2015-03-20-0617-36M.COL___275                                                 6
 STAT SP IPHASW D HRMM SECON CODA AMPLIT PERI AZIMU VELO AIN AR TRES W  DIS CAZ7
 BAR2 EZ EP        626 46.86                             169    0.1210 24.9 183 
 BAR2 EZ ES        627  1.52                             169   -0.1410 24.9 183 
 BAR2 EZ I         627  3.39        16.5 0.26            168           24.9 183 
 BRR  HZ EP        626 48.63                             153    0.5410 67.8 298 
 BRR  HN ES        627  4.56                             153    0.5010 67.8 298 
 BRR  HZ I         627  8.49        13.4 0.44            150           67.8 298 
 PAM  SZ EP        626 49.70                             150    0.3210 77.8  42 
 PAM  SN ES        627  6.61                             150    0.2510 77.8  42 
 PAM  SZ I         627  8.90        20.2 0.50            154           77.8  42 
 RUS  HZ EP        626 50.88                             142   -0.2110  103 175 
 RUS  HN ES        627  8.97                             142   -0.4310  103 175 
 RUS  HZ I         627 10.79        14.4 0.36            143            103 175 
 PTB  HZ EP        626 53.65                             131   -0.35 9  145 258 
 PTB  HN ES        627 13.86                             131   -0.72 9  145 258 
 PTB  HZ I         627 16.74        18.8 0.12            130            145 258 
 OCA  HZ EP        626 55.29                             129   -0.08 9  158 354 
 OCA  HN ES        627 16.69                             129   -0.33 9  158 354 
 OCA  HZ I         627 21.41        28.1 0.36            130            158 354 
 SPBC HZ EP        626 55.75                             128    0.00 9  163 218 
 SPBC HE ES        627 17.71                             128    0.01 9  163 218 
 SPBC HZ I         627 24.90        20.1 0.32            127            163 218 
 ZAR  HZ EP        626 59.30                             122   -0.12 9  201 292 
 ZAR  HN ES        627 23.90                             122   -0.34 9  201 292 
 ZAR  HZ I         627 30.66         9.6 0.24            121            201 292 
 NOR  HZ EP        627  3.41                             118    0.45 8  234 234 
 NOR  HE ES        627 30.32                             118   -0.21 8  234 234 
 NOR  HZ I         627 37.19        10.8 0.18            117            234 234 
 SML  HZ EP        627  3.19                             117   -0.48 8  241 336 
 SML  HE ES        627 31.90                             117    0.10 8  241 336 
 SML  HZ I         627 39.07        12.5 0.26            117            241 336 
 ROSC BZ EP        627  6.54                             116    1.03 8  253 210 
 ROSC BN ES        627 35.96                             116    0.88 8  253 210 
 ROSC BZ I         627 44.90         7.8 0.35            116            253 210 
 HEL  HZ EP        627  7.46                             114    0.11 8  270 255 
 HEL  HN ES        627 38.34                             114   -0.00 8  270 255 
 HEL  HZ I         627 46.59         5.9 0.38            114            270 255 
 GUY2CHZ EP        627 11.45                             111    0.57 7  300 234 
 GUY2CHE ES        627 44.81                             111    0.18 7  300 234 
 GUY2CHZ I         627 52.43         5.9 0.60                           300 234 
 PTGC HZ EP        627 10.14                             110   -1.45 7  312 158 
 PTGC HE ES   4    627 41.84                             110   -4.06 0  312 158 
 PTGC HZ I         627 51.78         8.6 0.38            112            312 158 
 CBOC HZ EP        627 14.57                             109    0.47 7  332 252 
 CBOC HN ES        627 49.82                             109   -0.55 7  332 252 
 CBOC HZ I         628  8.12         2.2 0.50            109            332 252 
 TOL  SZ EP   4    627 16.80                             108    1.18 0  343 224 
 TOL  SE ES        627 53.31                             108    0.24 7  343 224 
 TOL  SZ I         628  3.26         4.8 0.38            109            343 224 
 PRA  HZ EP        627 20.84                             106   -0.17 6  392 209 
 PRA  HE ES        628  2.16                             106   -0.51 6  392 209 
 PRA  HZ I         628  9.33         4.2 0.42            106            392 209 
 SJC  HZ EP   4    627 20.78                             105   -1.88 0  406 327 
 SJC  HN ES   4    627 59.54                             105   -6.05 0  406 327 
 SJC  HZ I         628  9.76         2.2 0.72            106            406 327 
                                                                                
