 2015 1020 0244 18.6 L   6.816 -73.106150.7  RSN 10 0.3 2.0LRSN                1
 GAP=204        0.86       2.9     5.0  5.1  0.3491E+01  0.4442E+01 -0.3373E+00E
 Epicentro: LOS SANTOS - SANTANDER                                             3
 ACTION:UPD 15-12-22 20:41 OP:cam  STATUS:               ID:20151020024418 L   I
 OLDACT:REG 15-10-20 12:32 OP:mh   STATUS:               ID:20151020023749     3
 2015-10-20-0237-49M.COL___337                                                 6
 STAT SP IPHASW D HRMM SECON CODA AMPLIT PERI AZIMU VELO AIN AR TRES W  DIS CAZ7
 BAR2 EZ EP        244 39.19                             170    0.2710 26.2 199 
 BAR2 EZ ES        244 54.26                             170   -0.4810 26.2 199 
 BAR2 EZ I         244 55.20        35.7 0.22            165           26.2 199 
 BRR  HZ IP     C  244 40.94                             152    0.4510 74.2 296 
 BRR  HN ES        244 58.12                             152    0.5910 74.2 296 
 BRR  HZ I         245  1.32        21.2 0.32            145           74.2 296 
 RUS  HZ EP        244 43.09                             144    0.1010  102 179 
 RUS  HN ES        245  1.81                             144   -0.1810  102 179 
 RUS  HZ I         245  4.56         7.8 0.18            146            102 179 
 SPBC HZ EP        244 48.03                             129    0.12 9  167 220 
 SPBC HN ES        245 10.93                             129    0.19 9  167 220 
 SPBC HZ I         245 17.70        16.3 0.20            128            167 220 
 ZAR  HZ EP        244 51.41                             123   -0.34 8  207 291 
 ZAR  HE ES        245 17.44                             123   -0.14 8  207 291 
 ZAR  HZ I         245 27.36        11.2 0.36            121            207 291 
 NOR  HZ EP        244 55.13                             119   -0.02 8  239 235 
 NOR  HN ES        245 23.58                             119   -0.04 8  239 235 
 NOR  HZ I         245 26.11         9.3 0.18            118            239 235 
 SML  HZ EP        244 55.49                             118   -0.08 8  244 334 
 SML  HN ES        245 23.76                             118   -0.61 8  244 334 
 SML  HZ I         245 32.37        13.8 0.10            118            244 334 
 CHI  HZ EP        244 57.25                             118    0.32 8  252 196 
 CHI  HN ES        245 26.17                             118   -0.62 8  252 196 
 CHI  HZ I         245 28.39         4.9 0.32            118            252 196 
 GUY2CHZ EP   4    245  4.54                             113    1.55 0  306 235 
 GUY2CHN ES   4    245 40.89                             113    3.30 0  306 235 
 GUY2CHZ I         245 44.67         5.5 0.34                           306 235 
 MON  HZ EP   4    245  5.83                             109   -2.27 0  356 308 
 MON  HN ES   4    245 43.76                             109   -2.92 0  356 308 
 MON  HZ I         246  2.01         1.9 0.50            109            356 308 
                                                                                
