 2015  420 0255 47.5 L   6.803 -73.156141.6  RSN 13 0.5 1.9LRSN                1
 GAP=135        1.19       3.6     4.4  6.5 -0.3106E+01  0.1052E+02 -0.4661E+00E
 Epicentro: LOS SANTOS - SANTANDER                                             3
 ACTION:UPD 15-06-03 16:56 OP:cam  STATUS:               ID:20150420025547 L   I
 OLDACT:DUP 15-04-20 18:24 OP:ak   STATUS:               ID:20150420024740d    3
 2015-04-20-0247-38M.COL___268                                                 6
 STAT SP IPHASW D HRMM SECON CODA AMPLIT PERI AZIMU VELO AIN AR TRES W  DIS CAZ7
 BAR2 EZ EP        256  6.57                             170   -0.0510 23.5 187 
 BAR2 EZ ES        256 20.74                             170   -0.8010 23.5 187 
 BAR2 EZ I         256 22.80        21.6 0.16            170           23.5 187 
 BRR  HZ IP     C  256  8.40                             152    0.2910 70.0 299 
 BRR  HN ES        256 25.08                             152    0.8710 70.0 299 
 BRR  HZ I         256 30.72        11.1 0.08            148           70.0 299 
 PAM  SZ IP     C  256  9.43                             150    0.1410 77.9  40 
 PAM  SN ES        256 26.47                             150    0.1710 77.9  40 
 PAM  SZ I         256 28.89         9.0 0.58            153           77.9  40 
 RUS  HZ EP        256 10.65                             143   -0.2110  101 175 
 RUS  HN ES        256 29.41                             143    0.3210  101 175 
 RUS  HZ I         256 30.02         9.6 0.22            147            101 175 
 PTB  HZ EP        256 13.16                             131   -0.85 9  147 259 
 PTB  HN ES        256 34.23                             131   -0.48 9  147 259 
 PTB  HZ I         256 35.84        10.5 0.07            130            147 259 
 SPBC HZ EP        256 15.34                             128   -0.28 9  163 219 
 SPBC HN ES        256 38.00                             128    0.44 9  163 219 
 SPBC HZ I         256 41.59        16.1 0.10            129            163 219 
 ZAR  HZ EP        256 19.35                             122   -0.18 9  203 292 
 ZAR  HN ES        256 44.92                             122    0.39 9  203 292 
 ZAR  HZ I         256 51.81         9.1 0.27            121            203 292 
 NOR  HZ EP   1    256 22.79                             118   -0.10 6  234 234 
 NOR  HN ES        256 50.58                             118    0.07 8  234 234 
 NOR  HZ I         256 56.09         7.1 0.28            118            234 234 
 SML  HZ EP        256 23.66                             117   -0.13 8  243 336 
 SML  HE ES        256 51.79                             117   -0.32 8  243 336 
 SML  HZ I         256 58.09         7.1 0.10            117            243 336 
 HEL  HZ EP   1    256 28.68                             114    1.31 6  271 256 
 HEL  HN ES        256 57.67                             114   -0.81 8  271 256 
 HEL  HZ I         257  5.93         3.8 0.67            114            271 256 
 GUY2CHZ EP   4    256 31.95                             112    1.14 0  300 235 
 GUY2CHN ES        257  5.28                             112    0.67 7  300 235 
 GUY2CHZ I         257 12.98         5.3 0.38                           300 235 
 TOL  SZ EP        256 36.14                             109    0.64 7  343 224 
 TOL  SN ES        257 12.58                             109   -0.38 7  343 224 
 TOL  SZ I         257 23.30         3.3 0.27            110            343 224 
 MON  HZ EP   4    256 33.43                             108   -2.76 0  353 308 
 MON  HN ES   4    257 12.26                             108   -1.93 0  353 308 
 MON  HZ I         257 28.20         1.6 0.48            108            353 308 
                                                                                
