 2017  220 0758  3.5 L   6.749 -73.167143.1  RSN  5 0.5 1.7LRSN                1
 GAP=136        1.20       6.3     6.1  8.8 -0.3438E+01  0.6686E+01  0.1945E+01E
 Epicentro: LOS SANTOS - SANTANDER                                             3
 ACTION:UPD 17-05-24 15:38 OP:jn   STATUS:               ID:20170220075803 L   I
 OLDACT:UP  17-04-18 13:13 OP:nlst STATUS:               ID:20170220075803 L   3
 OLDACT:REG 17-02-20 13:03 OP:dani STATUS:               ID:20170220074743     3
 2017-02-20-0748-00M.COL___348                                                 6
 STAT SP IPHASW D HRMM SECON CODA AMPLIT PERI AZIMU VELO AIN AR TRES W  DIS CAZ7
 BAR2 EZ EP        758 22.66                             173   -0.0210 17.4 186 
 BAR2 EZ ES        758 37.19                             173   -0.4610 17.4 186 
 BAR2 EZ I         758 42.43        26.8 0.74            174           17.4 186 
 BRR  HZ EP        758 24.48                             152    0.0910 72.1 303 
 BRR  HN ES        758 41.62                             152    0.9310 72.1 303 
 BRR  HZ I         758 42.18         5.2 0.66            155           72.1 303 
 PAM  EZ EP        758 25.52                             148   -0.2510 83.2  38 
 PAM  EN ES        758 42.92                             148   -0.2310 83.2  38 
 PAM  EZ I         758 46.22         5.4 0.54            150           83.2  38 
 RUS  HZ EP        758 27.27                             145    0.6910 95.2 174 
 RUS  HN ES        758 44.61                             145    0.0210 95.2 174 
 PTB  HZ EP        758 29.55                             132   -0.38 9  144 261 
 PTB  HN ES        758 50.05                             132   -0.51 9  144 261 
                                                                                
