 2016 1220 0746 15.9 L   6.753 -73.155140.3  RSN  6 0.3 1.1LRSN                1
 GAP=233        0.71       3.9     4.6  5.5  0.9421E+01  0.6407E+01  0.3985E+01E
 Epicentro: LOS SANTOS - SANTANDER                                             3
 ACTION:UPD 17-01-11 20:17 OP:rebc STATUS:               ID:20161220074615 L   I
 OLDACT:REG 16-12-20 13:26 OP:cog  STATUS:               ID:20161220073743     3
 2016-12-20-0738-00M.COL___345                                                 6
 STAT SP IPHASW D HRMM SECON CODA AMPLIT PERI AZIMU VELO AIN AR TRES W  DIS CAZ7
 BAR2 EZ EP        746 34.70                             172   -0.1210 18.0 190 
 BAR2 EZ ES        746 49.39                             172   -0.1510 18.0 190 
 BAR2 EZ I         746 50.21         3.8 0.34            172           18.0 190 
 BRR  HZ EP        746 36.56                             151   -0.0510 73.0 302 
 BRR  HE ES        746 52.93                             151    0.2110 73.0 302 
 BRR  HZ I         746 57.21         1.9 0.22            149           73.0 302 
 RUS  HZ EP        746 38.95                             144    0.1610 95.5 175 
 RUS  HN ES        746 56.72                             144    0.1110 95.5 175 
 RUS  HZ I         746 57.81         1.5 0.38            147           95.5 175 
 PTB  HZ EP        746 41.86                             131   -0.43 9  146 261 
 PTB  HN ES        747  2.47                             131   -0.38 9  146 261 
 PTB  HZ I         747  5.23         1.4 0.24            131            146 261 
 ZAR  HE ES        747 13.79                             121    0.52 9  205 294 
 ZAR  HZ I         747 19.01         2.2 0.32            121            205 294 
 CHI  HE ES        747 21.76                             116    0.27 8  243 195 
 GUY2CHZ EP   4    747  1.37                             111    2.50 0  297 235 
 GUY2CHN ES   4    747 37.61                             111    5.25 0  297 235 
                                                                                
