 2017 1020 0742 40.5 L   6.801 -73.139146.0  RSN  6 0.3 1.4LRSN                1
 GAP=238        0.75       4.1     4.7  5.0  0.2990E+01  0.4023E+01  0.5011E+01E
 Epicentro: LOS SANTOS - SANTANDER                                             3
 ACTION:UPD 17-11-07 19:34 OP:rebc STATUS:               ID:20171020074240 L   I
 OLDACT:REG 17-10-20 13:17 OP:dani STATUS:               ID:20171020073110     3
 2017-10-20-0738-00M.COL___450                                                 6
 STAT SP IPHASW D HRMM SECON CODA AMPLIT PERI AZIMU VELO AIN AR TRES W  DIS CAZ7
 BAR2 EZ EP        743  0.01                             170   -0.1410 23.6 192 
 BAR2 EZ ES        743 15.30                             170   -0.1910 23.6 192 
 BAR2 EZ I         743 16.21         6.0 0.66            167           23.6 192 
 BRR  HZ EP        743  1.79                             152    0.0910 71.8 298 
 BRR  HN ES        743 18.77                             152    0.5310 71.8 298 
 BRR  HZ I         743 22.80         4.0 0.20            151           71.8 298 
 RUS  HZ EP        743  4.12                             144   -0.1510  101 176 
 RUS  HN ES        743 22.85                             144    0.0310  101 176 
 RUS  HZ I         743 24.16         1.8 0.22            144            101 176 
 PTB  HZ EP        743  7.27                             132   -0.27 9  149 259 
 PTB  HN ES        743 28.09                             132   -0.56 9  149 259 
 SPBC HZ EP        743  9.18                             129    0.12 9  164 219 
 SPBC HN ES        743 31.72                             129    0.38 9  164 219 
 SPBC HZ I         743 35.87         3.2 0.11            128            164 219 
 PRA  HZ EP        743 34.44                             107    0.37 6  392 210 
 PRA  HN ES        744 15.91                             107    0.04 6  392 210 
 PRA  HZ I         744 22.41         1.3 0.47            107            392 210 
                                                                                
