 2013  520 0125 31.5 L   6.821 -73.148141.2  RSN 11 0.5 2.0LRSN                1
 GAP= 70        1.21       4.6     4.4  6.3 -0.4358E+01  0.5546E+01  0.6504E+01E
 Epicentro: LOS SANTOS - SANTANDER                                             3
 ACTION:UPD 13-06-20 09:52 OP:ep   STATUS:               ID:20130520012531 L   I
 2013-05-20-0118-51M.COL___218                                                 6
 STAT SP IPHASW D HRMM SECON CODA AMPLIT PERI AZIMU VELO AIN AR TRES W  DIS CAZ7
 BAR2 SZ EP        125 50.83                             169    0.1810 25.5 189 
 BAR2 SZ ES        126  5.50                             169   -0.0710 25.5 189 
 BAR2 SZ I         126  6.38        18.4 0.32            168           25.5 189 
 GIR2 SZ EP        125 50.53                             168   -0.0610 29.0 350 
 GIR2 SZ ES        126  5.51                             168    0.0510 29.0 350 
 GIR2 SZ I         126  7.57        14.4 0.38            169           29.0 350 
 BRR  HZ EP        125 52.28                             152    0.1810 69.9 297 
 BRR  HN ES        126  8.91                             152    0.7510 69.9 297 
 BRR  HN I         126  9.97        50.2 0.40            152           69.9 297 
 PAM  SZ EP        125 53.38                             150    0.2310 75.8  41 
 PAM  SN ES        126 10.38                             150    0.3510 75.8  41 
 RUS  HZ EP        125 54.81                             142   -0.1810  103 176 
 RUS  HN ES        126 13.08                             142   -0.2210  103 176 
 RUS  HN I         126 14.60         9.3 0.26            143            103 176 
 PTB  HZ EP        125 57.29                             131   -0.85 9  148 258 
 PTB  HN ES        126 18.01                             131   -0.89 9  148 258 
 PTB  HN I         126 23.58        14.2 0.20            131            148 258 
 TAM  HZ IP     C  125 58.94                             129    0.03 9  156 106 
 TAM  HZ I         125 59.08        13.1 0.20            132            156 106 
 OCA  HN ES        126 20.03                             129   -0.87 9  158 353 
 NOR  HZ EP   1    126  7.08                             117   -0.03 6  236 234 
 NOR  HN ES   1    126 34.37                             117   -0.50 6  236 234 
 NOR  HN I         126 40.53        12.5 0.16            118            236 234 
 HEL  HZ EP        126 11.97                             114    0.43 8  272 255 
 HEL  HN ES        126 43.82                             114    1.06 8  272 255 
 GUY2CHZ EP        126 15.70                             111    0.65 7  302 234 
 GUY2CHN ES   1    126 49.14                             111    0.14 5  302 234 
 GUY2CHN I         126 59.22         5.2 0.52                           302 234 
                                                                                
