 2013  220 0559  7.0 L   6.817 -73.120145.4  RSN  9 0.4 1.9LRSN                1
 GAP=139        0.88       3.1     4.5  5.3  0.4367E-01  0.3428E+01  0.6877E+00E
 Epicentro: LOS SANTOS - SANTANDER                                             3
 ACTION:UPD 13-03-12 09:34 OP:ep   STATUS:               ID:20130220055907 L   I
 2013-02-20-0558-35M.COL___186                                                 6
 STAT SP IPHASW D HRMM SECON CODA AMPLIT PERI AZIMU VELO AIN AR TRES W  DIS CAZ7
 BAR2 SZ EP        559 26.55                             169   -0.0910 25.8 196 
 BAR2 SZ ES        559 41.99                             169    0.0310 25.8 196 
 BAR2 SZ I         559 42.20         9.2 0.20            169           25.8 196 
 BRR  HZ IP     C  559 28.15                             152   -0.0610 72.9 296 
 BRR  HN ES        559 45.22                             152    0.4710 72.9 296 
 BRR  HN I         559 45.50        22.1 0.28            151           72.9 296 
 PAM  SZ IP     C  559 29.37                             152    0.3810 74.2  39 
 PAM  SN ES        559 46.22                             152    0.0810 74.2  39 
 PAM  SN I         559 48.19        13.3 0.66            153           74.2  39 
 RUS  HZ EP        559 30.64                             143   -0.2010  102 178 
 RUS  HN ES   1    559 48.89                             143   -0.54 7  102 178 
 RUS  HN I         559 50.13         5.6 0.28            143            102 178 
 PTB  HZ EP   4    559 33.01                             131   -1.22 0  151 258 
 PTB  HN ES        559 55.10                             131   -0.37 9  151 258 
 PTB  HN I         559 59.41        13.4 0.44            131            151 258 
 OCA  HN ES   2    559 56.59                             130   -0.51 5  159 352 
 SML  HZ EP        559 42.85                             117   -0.71 8  243 335 
 SML  HN ES        6 0 12.01                             117   -0.06 8  243 335 
 SML  HN I         6 0 14.77        14.6 0.10            118            243 335 
 CHI  HZ EP        559 45.43                             117    0.47 8  251 196 
 CHI  HN ES   1    6 0 14.62                             117    0.06 6  251 196 
 CHI  HN I         6 0 18.05         2.8 0.34            117            251 196 
 HEL  HZ EP   1    559 48.54                             114    0.98 6  275 256 
                                                                                
