 2013  520 0708 29.0 L   6.735 -73.153148.2  RSN  7 0.4 2.0LRSN                1
 GAP=138        1.15       6.1     6.0  8.3 -0.4053E+01  0.4923E+01 -0.1611E+00E
 Epicentro: JORDAN - SANTANDER                                                 3
 ACTION:UPD 13-06-20 09:52 OP:ep   STATUS:               ID:20130520070828 L   I
 2013-05-20-0658-50M.COL___214                                                 6
 STAT SP IPHASW D HRMM SECON CODA AMPLIT PERI AZIMU VELO AIN AR TRES W  DIS CAZ7
 BAR2 SZ EP        7 8 48.86                             173    0.0910 16.1 192 
 BAR2 SZ ES        7 9  4.30                             173    0.0910 16.1 192 
 BAR2 SZ I         7 9  5.04         8.5 0.26            173           16.1 192 
 GIR2 SZ EP        7 8 48.99                             165   -0.1410 38.2 353 
 BRR  HZ EP        7 8 50.76                             152    0.2110 74.2 304 
 BRR  HN ES        7 9  8.20                             152    0.8210 74.2 304 
 BRR  HN I         7 9  9.12        16.7 0.20            150           74.2 304 
 PAM  SZ EP        7 8 51.67                             149   -0.1410 83.5  37 
 PAM  SZ I         7 8 51.98        15.2 0.22            151           83.5  37 
 PAM  SN ES        7 9  9.14                             149   -0.4910 83.5  37 
 RUS  HZ EP        7 8 53.14                             146    0.6810 93.5 175 
 RUS  HN ES        7 9 10.52                             146   -0.2710 93.5 175 
 RUS  HN I         7 9 11.98         8.1 0.30            148           93.5 175 
 PTB  HZ EP        7 8 55.63                             133   -0.32 9  146 262 
 PTB  HN ES        7 9 16.33                             133   -0.67 9  146 262 
 PTB  HN I         7 9 22.08        19.8 0.84            132            146 262 
 OCA  HN ES   4    7 9 19.00                             129   -1.87 0  167 354 
 OCA  HN I         7 9 23.41        28.4 0.28            129            167 354 
                                                                                
