 2014  520 0228 22.6 L   6.780 -73.146140.0  RSN 15 0.5 1.8LRSN                1
 GAP=137        1.08       3.2     4.5  7.3 -0.3736E+01  0.1070E+02  0.2895E+01E
 Epicentro: LOS SANTOS - SANTANDER                                             3
 ACTION:UPD 15-03-16 16:59 OP:nd   STATUS:               ID:20140520022822 L   I
 OLDACT:REG 14-05-20 12:18 OP:spq  STATUS:               ID:20140520021813     3
 2014-05-20-0218-13M.COL___254                                                 6
 STAT SP IPHASW D HRMM SECON CODA AMPLIT PERI AZIMU VELO AIN AR TRES W  DIS CAZ7
 BRR  HZ IP     C  228 43.73                             151    0.5210 72.3 300 
 BRR  HE ES        229  0.18                             151    0.9110 72.3 300 
 BRR  HZ I         229  4.56        14.7 0.12            152           72.3 300 
 PAM  SZ EP        228 44.87                             149    0.5410 79.1  39 
 PAM  SN ES        229  1.16                             149   -0.1010 79.1  39 
 PAM  SZ I         229  4.03        14.7 0.38            154           79.1  39 
 RUS  HZ EP   1    228 45.36                             143   -0.29 7 98.4 176 
 RUS  HE ES   1    229  2.96                             143   -0.65 7 98.4 176 
 RUS  HZ I         229  5.91         7.6 0.34            146           98.4 176 
 PTB  HZ EP        228 48.39                             131   -0.70 9  147 260 
 PTB  HE ES   1    229  9.40                             131   -0.33 7  147 260 
 PTB  HZ I         229 12.33        12.8 0.12            133            147 260 
 SPBC HZ EP        228 50.76                             128    0.24 9  161 219 
 SPBC HN ES        229 11.94                             128   -0.34 9  161 219 
 SPBC HZ I         229 19.52         5.8 0.10            130            161 219 
 OCA  HN ES        229 12.00                             128   -0.60 9  162 353 
 OCA  HZ I         229 20.00         8.6 0.24            131            162 353 
 ZAR  HZ EP   1    228 54.97                             121    0.19 6  205 293 
 ZAR  HN ES   1    229 19.69                             121   -0.18 6  205 293 
 ZAR  HZ I         229 23.36         8.8 0.10            123            205 293 
 NOR  HZ EP        228 57.30                             118   -0.59 8  233 235 
 NOR  HN ES        229 25.88                             118    0.49 8  233 235 
 NOR  HZ I         229 27.70         4.9 0.16            120            233 235 
 SML  HZ EP   1    228 59.56                             116    0.41 6  246 336 
 SML  HE ES        229 27.06                             116   -0.58 8  246 336 
 SML  HZ I         229 32.10         8.3 0.24            119            246 336 
 CHI  HN ES   1    229 28.96                             116    0.21 6  247 195 
 CHI  HZ I         229 35.22         2.6 0.20            119            247 195 
 HEL  HZ EP   1    229  2.51                             114    0.02 6  272 256 
 HEL  HN ES        229 33.76                             114    0.18 8  272 256 
 HEL  HZ I         229 40.79         3.9 0.26            116            272 256 
 URE  HN ES   4    229 33.14                             112   -2.26 0  285 292 
 URE  HZ I         229 37.78         4.2 0.32            115            285 292 
 GUY2CHZ EP   4    229  6.91                             111    1.08 0  300 235 
 GUY2CHE ES   4    229 41.71                             111    2.18 0  300 235 
 GUY2CHZ I         229 47.17         3.5 0.26                           300 235 
 CBOC HZ EP   1    229  9.97                             109    0.74 5  333 252 
 CBOC HN ES        229 45.23                             109   -0.35 7  333 252 
 CBOC HZ I         229 49.58         1.5 0.30            111            333 252 
 PRA  HN ES   1    229 57.55                             106    0.40 4  390 210 
 PRA  HZ I         230  3.60         1.7 0.31            108            390 210 
                                                                                
