 2011 1120 0708 38.9 L   6.777 -73.119141.0  RSN  5 0.3 1.5LRSN                1
 GAP=141        0.54       3.7     4.6  5.8  0.1863E+01  0.1183E+01  0.6488E-01E
 Epicentro: LOS SANTOS - SANTANDER                                             3
 ACTION:UPD 12-07-13 16:11 OP:ep   STATUS:               ID:20111120070839 L   I
 2011-11-20-0705-59S.COL___178                                                 6
 STAT SP IPHASW D HRMM SECON CODA AMPLIT PERI AZIMU VELO AIN AR TRES W  DIS CAZ7
 BAR2 SZ EP   1    7 8 57.87                             171   -0.09 7 21.6 199 
 BAR2 SZ ES   1    7 9 12.54                             171   -0.26 7 21.6 199 
 BAR2 SZ I         7 9 13.63         7.2 0.21                          21.6 199 
 BRR  HZ EP   1    7 8 59.74                             150   -0.06 7 75.1 299 
 BRR  HE ES   1    7 9 16.56                             150    0.48 7 75.1 299 
 BRR  HZ I         7 9 17.62         7.2 0.14                          75.1 299 
 PAM  SZ EP   1    7 9  0.79                             150    0.13 7 77.6  37 
 PAM  SZ I         7 9  0.93         5.5 0.17                          77.6  37 
 PAM  SN ES   1    7 9 17.48                             150   -0.12 7 77.6  37 
 RUS  HZ EP   1    7 9  2.21                             144    0.18 7 97.8 178 
 RUS  HN ES   1    7 9 20.02                             144   -0.01 7 97.8 178 
 RUS  HZ I         7 9 21.04         2.2 0.29                          97.8 178 
 ZAR  HN ES   2    7 9 36.10                             121   -0.75 4  208 292 
 ZAR  HZ I         7 9 42.17         4.8 0.29                           208 292 
                                                                                
