 2014  820 0702 19.3 L   6.787 -73.158143.7  RSN 16 0.5 2.2LRSN                1
 GAP=136        1.18       2.9     4.4  5.5 -0.4073E+01  0.6622E+01  0.1747E+01E
 Epicentro: LOS SANTOS - SANTANDER                                             3
 ACTION:UPD 14-09-15 21:51 OP:nd   STATUS:               ID:20140820070219 L   I
 OLDACT:REG 14-08-20 12:35 OP:stll STATUS:               ID:20140820065811     3
 2014-08-20-0658-11M.COL___254                                                 6
 STAT SP IPHASW D HRMM SECON CODA AMPLIT PERI AZIMU VELO AIN AR TRES W  DIS CAZ7
 BAR2 SZ EP        7 2 38.86                             171    0.2510 21.7 187 
 BAR2 SZ ES        7 2 53.93                             171    0.2310 21.7 187 
 BAR2 SZ I         7 2 55.21        56.4 0.18            169           21.7 187 
 BRR  HZ IP     D  7 2 40.65                             152    0.4810 70.7 300 
 BRR  HN ES        7 2 57.00                             152    0.5410 70.7 300 
 BRR  HZ I         7 2 58.56        19.5 0.12            150           70.7 300 
 PAM  SZ EP        7 2 41.55                             150    0.1710 79.4  40 
 PAM  SZ I         7 2 41.91        39.0 0.22            154           79.4  40 
 PAM  SN ES        7 2 58.55                             150   -0.0810 79.4  40 
 RUS  HZ EP        7 2 42.76                             144    0.0410 99.2 175 
 RUS  HE ES        7 3  0.95                             144   -0.0510 99.2 175 
 RUS  HZ I         7 3  2.63        18.7 0.30            144           99.2 175 
 PTB  HZ EP        7 2 45.39                             132   -0.53 9  146 259 
 PTB  HN ES        7 3  6.61                             132   -0.10 9  146 259 
 PTB  HZ I         7 3 11.07        14.1 0.16            130            146 259 
 SPBC HZ EP        7 2 47.69                             129    0.27 9  161 219 
 SPBC HN ES        7 3  9.15                             129   -0.22 9  161 219 
 SPBC HZ I         7 3 15.34        19.6 0.48            128            161 219 
 OCA  HZ EP        7 2 47.63                             129    0.09 9  162 354 
 OCA  HN ES        7 3  8.81                             129   -0.78 9  162 354 
 OCA  HZ I         7 3 11.90        17.5 0.22            130            162 354 
 NOR  HZ EP        7 2 55.00                             118    0.33 8  233 235 
 NOR  HE ES        7 3 22.07                             118   -0.21 8  233 235 
 NOR  HZ I         7 3 23.96        10.7 0.16            118            233 235 
 SML  HZ EP        7 2 55.29                             117   -0.57 8  244 336 
 SML  HE ES        7 3 23.73                             117   -0.67 8  244 336 
 SML  HZ I         7 3 27.21        12.7 0.10            117            244 336 
 CHI  HZ EP        7 2 56.60                             117   -0.06 8  247 195 
 CHI  HZ I         7 2 57.77         6.2 0.28            117            247 195 
 CHI  HN ES        7 3 24.73                             117   -1.09 8  247 195 
 HEL  HZ EP        7 2 59.72                             114    0.53 8  270 256 
 HEL  HN ES        7 3 30.63                             114    0.30 8  270 256 
 HEL  HZ I         7 3 38.69         5.4 0.30            114            270 256 
 GUY2CHZ EP        7 3  4.07                             112    1.51 7  299 235 
 GUY2CHN ES        7 3 36.84                             112    0.51 7  299 235 
 GUY2CHZ I         7 3 45.06         9.3 0.28                           299 235 
 RREF HZ EP   9    7 3  2.22                             111   -2.87 0  320 229 
 RREF HN ES        7 3 37.53                                   -0.43 7  320 229 
 RREF HZ I         7 3 46.34         5.7 0.30            111            320 229 
 TOL  SZ EP        7 3  7.84                             109    0.63 7  342 225 
 TOL  SE ES        7 3 43.87                             109   -0.73 7  342 225 
 TOL  SZ I         7 3 55.32        14.1 0.26            109            342 225 
 PRA  HZ EP        7 3 12.32                             106   -0.17 6  390 209 
 PRA  HN ES        7 3 53.99                             106   -0.01 6  390 209 
 PRA  HZ I         7 4  1.16         6.8 0.46            107            390 209 
 ORTC HZ EP        7 3 12.95                             106    0.07 6  393 216 
 ORTC HN ES        7 3 53.21                             106   -1.49 6  393 216 
 ORTC HZ I         7 4  2.68         4.1 0.60            106            393 216 
                                                                                
