 2013  720 0307 28.5 L   6.833 -73.135139.7  RSN 11 0.4 2.3LRSN                1
 GAP=184        0.90       3.0     5.4  7.3 -0.4685E+01  0.7027E+01 -0.4772E+01E
 Epicentro: LOS SANTOS - SANTANDER                                             3
 ACTION:UPD 13-08-12 10:38 OP:ep   STATUS:               ID:20130720030728 L   I
 OLDACT:UP  13-07-20 10:43 OP:mh   STATUS:               ID:20130720025959     3
 OLDACT:REG 13-07-20 08:35 OP:mh   STATUS:               ID:20130720025959     3
 2013-07-20-0259-59M.COL___267                                                 6
 STAT SP IPHASW D HRMM SECON CODA AMPLIT PERI AZIMU VELO AIN AR TRES W  DIS CAZ7
 BAR2 SZ EP   1    3 7 47.83                             168    0.32 8 27.1 191 
 BAR2 SZ ES   1    3 8  2.35                             168    0.03 8 27.1 191 
 BAR2 SZ I         3 8  3.70        23.2 0.16            167           27.1 191 
 GIR2 SZ EP   1    3 7 47.76                             168    0.37 8 27.9 347 
 BRR  HZ EP   1    3 7 49.72                             152    0.74 8 70.6 295 
 BRR  HN ES   2    3 8  5.77                             152    0.83 5 70.6 295 
 BRR  HN I         3 8 10.24        37.8 0.14            148           70.6 295 
 RUS  HZ EP   1    3 7 51.77                             141   -0.18 8  104 177 
 RUS  HN ES   1    3 8  9.56                             141   -0.66 8  104 177 
 RUS  HZ I         3 8 11.34         8.9 0.24            145            104 177 
 PTB  HZ EP        3 7 54.75                             130   -0.4310  150 258 
 PTB  HN ES        3 8 15.34                             130   -0.6310  150 258 
 PTB  HN I         3 8 17.75        42.3 0.24            130            150 258 
 OCA  HZ EP        3 7 56.15                             129    0.1110  157 353 
 OCA  HN ES        3 8 17.54                             129    0.0410  157 353 
 OCA  HN I         3 8 18.70        46.9 0.16            131            157 353 
 SPBC HZ EP   1    3 7 56.87                             127   -0.04 7  167 219 
 SPBC HN ES        3 8 19.13                             127    0.0710  167 219 
 SPBC HN I         3 8 23.07        25.9 0.24            128            167 219 
 NOR  HZ EP   1    3 8  4.47                             117    0.22 6  238 234 
 NOR  HN ES        3 8 32.79                             117    0.68 9  238 234 
 NOR  HN I         3 8 34.27        28.1 0.16            118            238 234 
 SML  HZ EP   1    3 8  4.20                             116   -0.31 6  241 335 
 SML  HN ES        3 8 32.23                             116   -0.35 9  241 335 
 SML  HN I         3 8 36.99        35.9 0.10            118            241 335 
 HEL  HZ EP   4    3 8 10.04                             113    1.37 0  274 255 
 HEL  HN ES   4    3 8 38.00                             113   -1.98 0  274 255 
 HEL  HZ I         3 8 48.54         4.3 0.26            114            274 255 
 GUY2CHZ EP   4    3 8 14.37                             111    2.16 0  304 234 
 GUY2CHN I         3 8 52.25         5.3 0.44                           304 234 
                                                                                
