 2011  620 0250 56.3 L   6.723 -72.966142.0  RSN  7 0.3 1.3LRSN                1
 GAP=180        0.65       3.9     9.2  7.2  0.4054E+01 -0.2935E+02 -0.4138E+01E
 Epicentro: CEPITA - SANTANDER                                                 3
 ACTION:UP  11-07-14 19:06 OP:ep   STATUS:               ID:20110620025056 L   I
 2011-06-20-0240-00M.COL___126                                                 6
 STAT SP IPHASW D HRMM SECON CODA AMPLIT PERI AZIMU VELO SNR AR TRES W  DIS CAZ7
 BAR2 SZ EP   1    251 15.26                             168    -0.3 7   28 239 
 BAR2 SZ ES   2    251 30.42                             168    -0.2 5   28 239 
 BAR2 SZ I         251 32.58         4.1 0.41                            28 239 
 BTL  SZ EP   1    251 16.32                             164     0.4 7   40 303 
 BTL  SZ ES   2    251 31.05                             164    -0.2 5   40 303 
 GIR2 SZ EP   1    251 16.42                             161     0.4 7   47 327 
 GIR2 SZ ES   2    251 31.65                             161     0.2 5   47 327 
 BRR  HZ EP   1    251 17.82                             145    -0.6 7   93 297 
 BRR  HZ I         251 39.71         5.7 0.21                            93 297 
 RUS  HZ EP   1    251 19.29                             145     0.2 7   93 188 
 RUS  HN ES   2    251 36.71                             145    -0.2 5   93 188 
 RUS  HZ I         251 39.78         2.4 0.25                            93 188 
 BRR  HN ES   1    251 35.73                             145     0.1 7   93 297 
 GRA  SZ EP   1    251 21.22                             135    -0.3 7  130   8 
 GRA  SZ ES   2    251 40.94                             135    -0.3 5  130   8 
 GRA  SZ I         251 42.36         2.3 0.63                           130   8 
 OCA  SZ EP   1    251 25.52                             127     0.1 7  172 347 
 OCA  SZ ES   1    251 48.29                             127     0.1 7  172 347 
 OCA  SZ I         251 52.99         4.2 0.35                           172 347 
                                                                                
