 2012  820 0528 28.7 L   6.779 -73.155145.3  RSN  5 0.3 1.6LRSN                1
 GAP=136        0.67       5.3     4.7  6.5  0.4580E+00  0.3263E+01  0.8206E+00E
 Epicentro: LOS SANTOS - SANTANDER                                             3
 ACTION:UPD 12-09-10 11:57 OP:ep   STATUS:               ID:20120820052828 L   I
 2012-08-20-0520-00M.COL___217                                                 6
 STAT SP IPHASW D HRMM SECON CODA AMPLIT PERI AZIMU VELO AIN AR TRES W  DIS CAZ7
 BAR2 SZ EP   1    528 48.10                             172   -0.10 8 20.9 188 
 BAR2 SZ ES   1    529  3.32                             172   -0.11 8 20.9 188 
 BAR2 SZ I         529  4.68        18.7 0.21                          20.9 188 
 BRR  HN ES   1    529  6.80                             153    0.54 8 71.5 301 
 PAM  SZ EP   1    528 51.32                             150    0.33 8 79.8  39 
 PAM  SZ I         528 51.68         9.2 0.20                          79.8  39 
 PAM  SN ES   2    529  7.63                             150   -0.76 5 79.8  39 
 RUS  HZ EP   1    528 52.42                             144    0.20 8 98.3 175 
 RUS  HN ES   1    529 10.71                             144    0.13 8 98.3 175 
 RUS  HZ I         529 12.30         5.1 0.25                          98.3 175 
 PTB  HZ EP        528 55.24                             132   -0.2410  146 260 
 PTB  HN ES   1    529 16.06                             132   -0.32 7  146 260 
 PTB  HZ I         529 18.88         3.0 0.16                           146 260 
                                                                                
