 2012  120 0349 55.8 L   6.765 -73.111145.9  RSN  5 0.2 1.5LRSN                1
 GAP=143        0.53       3.7     4.0  5.6  0.3041E+01  0.2624E+01 -0.3737E+00E
 Epicentro: LOS SANTOS - SANTANDER                                             3
 ACTION:UP  12-02-03 08:18 OP:REBC STATUS:               ID:20120120034955 L   I
 2012-01-20-0350-00M.COL___187                                                 6
 STAT SP IPHASW D HRMM SECON CODA AMPLIT PERI AZIMU VELO SNR AR TRES W  DIS CAZ7
 BAR2 SZ EP   1    350 15.34                             172     0.0 7   21 202 
 BAR2 SZ ES   1    350 30.68                             172     0.0 7   21 202 
 BAR2 SZ I         350 31.79         6.6 0.11                            21 202 
 BRR  HZ EP   1    350 17.28                             151     0.0 7   76 300 
 BRR  HN ES   1    350 34.39                             151     0.4 7   76 300 
 BRR  HZ I         350 38.06         8.3 0.16                            76 300 
 PAM  SZ EP   1    350 18.19                             151     0.1 7   78  36 
 PAM  SN ES   1    350 35.22                             151    -0.2 7   78  36 
 RUS  HZ EP   1    350 19.41                             145     0.1 7   97 178 
 RUS  HN ES   1    350 37.42                             145    -0.2 7   97 178 
 RUS  HZ I         350 39.51         3.0 0.47                            97 178 
 ZAR  HN ES   1    350 54.11                             122    -0.4 6  209 293 
 ZAR  HZ I         350 58.55         5.1 0.36                           209 293 
                                                                                
