 2013 1020 0214 21.0 L   6.809 -73.167144.0  RSN  9 0.5 2.0LRSN                1
 GAP=236        0.93       5.2     5.5  6.3  0.3903E+01  0.7407E+01  0.9676E+01E
 Epicentro: LOS SANTOS - SANTANDER                                             3
 ACTION:UPD 13-11-25 09:22 OP:ep   STATUS:               ID:20131020021421 L   I
 OLDACT:UP  13-10-20 11:10 OP:cam  STATUS:               ID:20131020020841     3
 OLDACT:REG 13-10-20 10:43 OP:cam  STATUS:               ID:20131020020841     3
 2013-10-20-0208-41M.COL___215                                                 6
 STAT SP IPHASW D HRMM SECON CODA AMPLIT PERI AZIMU VELO AIN AR TRES W  DIS CAZ7
 BAR2 SZ EP        214 40.10                             170   -0.3010 24.0 184 
 BAR2 SZ ES        214 55.65                             170    0.0910 24.0 184 
 BAR2 SZ I         214 56.32        28.6 0.20            162           24.0 184 
 BRR  HZ EP        214 41.92                             153    0.1310 68.6 299 
 BRR  HN ES        214 58.55                             153    0.5310 68.6 299 
 BRR  HZ I         214 59.99        12.0 0.14            148           68.6 299 
 RUS  HZ EP        214 44.42                             143   -0.2110  102 175 
 RUS  HN ES        215  3.25                             143    0.1610  102 175 
 RUS  HZ I         215  4.00        12.3 0.28            141            102 175 
 PTB  HZ EP   1    214 46.83                             132   -0.77 7  146 258 
 PTB  HN ES        215  7.91                             132   -0.46 9  146 258 
 PTB  HZ I         215 15.10        12.6 0.34            129            146 258 
 SPBC HZ EP        214 49.09                             129   -0.18 9  162 218 
 SPBC HN ES   1    215 10.98                             129   -0.36 7  162 218 
 SPBC HZ I         215 17.26        15.2 0.26            126            162 218 
 NOR  HZ EP   1    214 56.90                             118    0.45 6  233 234 
 NOR  HE ES   1    215 24.26                             118    0.13 6  233 234 
 NOR  HZ I         215 31.93         7.9 0.18            117            233 234 
 CHI  HZ EP   2    214 58.39                             117   -0.22 4  249 195 
 GUY2CHZ EP   2    215  6.23                             112    1.89 4  300 234 
 PRA  HZ EP   2    215 14.21                             106   -0.18 3  392 209 
 PRA  HN ES        215 56.92                             106    0.86 6  392 209 
 PRA  HZ I         216  0.25         3.1 0.30            107            392 209 
                                                                                
