 2014  920 0630 48.4 L   6.802 -73.135151.1  RSN 26 0.4 2.7LRSN                1
 GAP= 66        0.93       2.3     2.6  4.1 -0.1047E+00  0.2427E+01  0.1400E+01E
 Epicentro: LOS SANTOS - SANTANDER                                             3
 ACTION:UPD 14-10-03 23:06 OP:nd   STATUS:               ID:20140920063048 L   I
 OLDACT:UP  14-09-20 16:46 OP:spq  STATUS:               ID:20140920062806     3
 OLDACT:REG 14-09-20 12:38 OP:spq  STATUS:               ID:20140920062806     3
 2014-09-20-0628-06M.COL___293                                                 6
 STAT SP IPHASW D HRMM SECON CODA AMPLIT PERI AZIMU VELO AIN AR TRES W  DIS CAZ7
 BAR2 SZ IP     D  631  8.56                             171   -0.0810 23.8 193 
 BAR2 SZ ES   1    631 23.84                             171   -0.62 7 23.8 193 
 BAR2 SZ I         631 25.32        97.1 0.48            169           23.8 193 
 BRR  HZ IP     C  631 10.40                             153    0.2710 72.1 298 
 BRR  HN ES        631 27.84                             153    0.7210 72.1 298 
 BRR  HZ I         631 31.13        67.8 0.12            149           72.1 298 
 PAM  SZ EP     C  631 11.27                             152    0.1810 76.4  39 
 PAM  SN ES        631 28.61                             152   -0.2110 76.4  39 
 PAM  SZ I         631 30.32        37.5 0.20            154           76.4  39 
 RUS  HZ EP        631 12.39                             145   -0.2610  101 177 
 RUS  HN ES        631 31.37                             145   -0.2210  101 177 
 RUS  HZ I         631 32.19        54.4 0.26            145            101 177 
 PTB  HZ EP     C  631 15.02                             133   -0.85 9  149 259 
 PTB  HE ES        631 37.43                             133    0.10 9  149 259 
 PTB  HZ I         631 39.26        54.4 0.24            130            149 259 
 TAM  HZ IP     D  631 16.71                             132    0.35 9  154 105 
 TAM  HN ES        631 38.44                             132    0.23 9  154 105 
 TAM  HZ I         631 38.96        29.9 0.28            134            154 105 
 OCA  HZ EP        631 16.88                             131   -0.19 9  160 353 
 OCA  HN ES        631 39.96                             131    0.48 9  160 353 
 OCA  HZ I         631 44.40        67.5 0.18            130            160 353 
 SPBC HZ EP     C  631 17.34                             130   -0.02 9  164 219 
 SPBC HN ES        631 40.05                             130    0.07 9  164 219 
 SPBC HZ I         631 42.46        75.5 0.34            129            164 219 
 ZAR  HZ EP        631 20.97                             123   -0.28 9  205 292 
 ZAR  HE ES        631 46.55                             123   -0.37 9  205 292 
 ZAR  HZ I         631 52.63       109.1 0.28            122            205 292 
 SML  HZ EP        631 24.84                             118   -0.47 8  244 335 
 SML  HN ES   1    631 53.69                             118   -0.45 6  244 335 
 SML  HZ I         632  0.97        66.1 0.24            118            244 335 
 CHI  HZ EP        631 26.68                             118    0.27 8  249 195 
 CHI  HN ES   1    631 55.87                             118   -0.23 6  249 195 
 CHI  HZ I         632  5.81        20.0 0.36            118            249 195 
 ROSC BZ EP   4    631 28.30                             118    1.44 0  254 211 
 ROSC BE ES   4    631 59.60                             118    2.71 0  254 211 
 ROSC BZ I         632  2.14        47.9 0.40            117            254 211 
 GUY2CHZ EP        631 33.02                             113    0.68 7  302 235 
 GUY2CHE ES   4    632  9.80                             113    3.15 0  302 235 
 GUY2CHZ I         632 17.35        31.8 0.50                           302 235 
 VIL  SZ EP   1    631 32.22                             113    0.15 5  304 192 
 VIL  SN ES   1    632  6.10                             113   -0.08 5  304 192 
 VIL  SZ I         632 13.88        25.6 0.38            113            304 192 
 PTGC HZ EP     D  631 31.43                             113   -1.00 7  308 159 
 PTGC HN ES   4    632  4.68                             113   -2.13 0  308 159 
 PTGC HZ I         632  5.41        19.5 0.28            113            308 159 
 CBOC HZ EP        631 36.24                             111    0.61 7  335 252 
 CBOC HN ES        632 12.23                             111   -0.28 7  335 252 
 CBOC HZ I         632 25.19        11.2 0.46            110            335 252 
 DBB  SZ EP   1    631 36.13                             110   -0.05 5  341 274 
 DBB  SZ ES   1    632 12.56                             110   -0.93 5  341 274 
 TOL  SZ EP   4    631 38.11                             110    1.16 0  345 225 
 TOL  SN ES   4    632 17.98                             110    3.13 0  345 225 
 TOL  SZ I         632 19.68        50.4 0.32            110            345 225 
 MON  HZ EP   4    631 35.70                             109   -1.96 0  354 308 
 MON  HE ES   4    632 14.83                             109   -1.28 0  354 308 
 MON  HZ I         632 29.50        19.1 0.64            109            354 308 
 ANIL HN ES   4    632 19.68                             109    2.09 0  358 225 
 ANIL HZ I         632 24.54         6.4 0.42            109            358 225 
 ARGC HZ EP        631 38.77                             109    0.53 6  359 340 
 ARGC HE ES   4    632 18.32                             109    1.18 0  359 340 
 ARGC HZ I         632 27.11        10.9 0.32            109            359 340 
 PRA  HZ EP        631 42.45                             107    0.29 6  393 210 
 PRA  HE ES        632 24.67                             107    0.55 6  393 210 
 PRA  HZ I         632 28.71        22.1 0.28            107            393 210 
 ORTC HZ EP        631 42.66                             107    0.09 6  396 216 
 ORTC HE ES   4    632 26.60                             107    1.75 0  396 216 
 ORTC HZ I         632 31.46        10.0 0.20            107            396 216 
 PAL  HZ EP        631 44.40                             107    0.57 6  407 239 
 PAL  HN ES        632 27.85                             107    0.75 6  407 239 
 PAL  HZ I         632 31.86        16.6 0.18            106            407 239 
 SJC  HZ EP   4 C  631 42.27                             106   -1.88 0  410 327 
 SJC  HN ES   4    632 25.77                             106   -1.89 0  410 327 
 SJC  HZ I         632 28.89         7.2 0.30            106            410 327 
 SMAR HZ EP   1    631 53.71                             103   -0.66 3  497 346 
 SMAR HE ES   4    632 41.54                             103   -4.33 0  497 346 
                                                                                
