 2011 1020 0634  4.9 L   6.788 -73.085143.8  RSN  6 0.4 1.5LRSN                1
 GAP=189        0.52       3.9     5.8  7.1  0.5403E+01  0.3634E+01 -0.3386E+01E
 Epicentro: LOS SANTOS - SANTANDER                                             3
 ACTION:UPD 12-07-13 16:04 OP:ep   STATUS:               ID:20111020063404 L   I
 2011-10-20-0630-40S.COL___168                                                 6
 STAT SP IPHASW D HRMM SECON CODA AMPLIT PERI AZIMU VELO AIN AR TRES W  DIS CAZ7
 BAR2 SZ EP   2    634 23.99                             170   -0.29 5 24.2 206 
 BAR2 SZ ES   2    634 38.86                             170   -0.57 5 24.2 206 
 BAR2 SZ I         634 42.22        12.4 0.41                          24.2 206 
 BRR  HZ EP   1    634 26.14                             150   -0.05 7 77.7 297 
 BRR  HZ I         634 26.58         7.9 0.14                          77.7 297 
 BRR  HN ES   2    634 43.26                             150    0.44 5 77.7 297 
 RUS  HZ EP   1    634 28.64                             144    0.32 7 99.1 180 
 RUS  HN ES   2    634 46.74                             144    0.13 5 99.1 180 
 RUS  HZ I         634 47.69         1.8 0.26                          99.1 180 
 OCA  SZ EP   2    634 32.64                             129   -0.59 5  162 351 
 OCA  SZ ES   2    634 55.64                             129    0.28 5  162 351 
 OCA  SZ I         635  0.89         3.4 0.37                           162 351 
 ZAR  HZ EP   2    634 38.21                             121    0.33 4  211 292 
 ZAR  HN ES   2    635  3.56                             121   -0.07 4  211 292 
 ZAR  HZ I         635  9.13         3.5 0.47                           211 292 
 NOR  SE ES   2    635  8.78                             117   -0.39 4  239 236 
                                                                                
