 2010  520 0054 43.0 L   6.720 -72.998129.9  RSN  8 0.5 2.2LRSN                1
 GAP=201        0.76       7.3     9.0  8.9 -0.4761E+02 -0.6622E+01  0.9511E+01E
 Epicentro: ARATOCA - SANTANDER                                                3
 ACTION:UP  10-08-24 10:05 OP:vdl  STATUS:               ID:20100520005442 L   I
 2010-05-20-0052-30S.COL___109                                                 6
 STAT SP IPHASW D HRMM SECON CODA AMPLIT PERI AZIMU VELO AIN AR TRES W  DIS CAZ7
 BAR2 SZ EP   1    055  1.36                             169     0.6 8   25 235 
 BAR2 SZ ES   2    055 13.97                             169    -0.6 5   25 235 
 BRR  HZ EP   2    055  4.02                             144     0.3 5   90 299 
 BRR  HN ES   2    055 20.23                             144     0.4 5   90 299 
 BRR  HZ I         055 25.48        21.1 0.25                            90 299 
 BRI  SZ EP        055  5.90                             137     0.210  112  11 
 GUE  SZ EP        055  6.38                             134    -0.410  123   4 
 GRA  SZ EP   1    055  7.17                             132    -0.1 7  131   9 
 GRA  SZ ES   2    055 26.49                             132     0.2 5  131   9 
 HEL  HZ EP   2    055 23.64                             111    -0.4 4  286 258 
 HEL  HE ES   2    055 55.50                             111    -0.5 4  286 258 
 HEL  HZ I         056  0.79         6.0 0.53                           286 258 
 RREF BZ EP   2    055 30.24                             108     0.9 3  329 232 
 RREF BE ES   2    056  5.32                             108    -0.1 3  329 232 
 RREF BZ I         056 13.32         6.6 0.42                           329 232 
 PRA  HZ EP   2    055 35.32                             104    -0.8 3  393 212 
 PRA  HE ES   2    056 17.22                             104    -0.3 3  393 212 
 PRA  HZ I         056 23.25         6.4 0.29                           393 212 
                                                                                
