 2010 1220 0959 30.5 L   6.563 -72.942  0.0  RSN  8 0.4 2.6LRSN                1
 GAP=191        0.77       3.3     7.4  6.9 -0.1666E+02  0.2367E+02 -0.8437E+01E
 Epicentro: MOGOTES - SANTANDER                                                3
 ACTION:UP  11-01-14 15:26 OP:pat  STATUS:               ID:20101220095930 L   I
 2010-12-20-0959-15S.COL___133                                                 6
 STAT SP IPHASW D HRMM SECON CODA AMPLIT PERI AZIMU VELO SNR AR TRES W  DIS CAZ7
 GRA  SZ ES   1   10 0 12.70                              47     0.3 7  147   6 
 GRA  SZ I        10 0 15.57        26.6 0.11                           147   6 
 OCA  SZ EP   1   10 0  0.20                              37    -0.1 7  190 347 
 OCA  SZ ES   1   10 0 23.61                              37     0.0 7  190 347 
 OCA  SZ I        10 0 30.49        41.7 0.44                           190 347 
 CHI  HZ EP   1   10 0  5.48                              37    -0.3 6  231 202 
 CHI  HZ I        10 0  7.85        58.5 0.44                           231 202 
 CHI  HE ES   1   10 0 33.93                              37     0.6 6  231 202 
 NOR  SZ EP   1   10 0  5.90                              37    -0.6 6  240 243 
 NOR  SN ES   1   10 0 35.17                              37     0.6 6  240 243 
 HEL  HZ EP   1   10 0 12.42                              37    -0.5 5  289 262 
 HEL  HN ES   1   10 0 46.08                              37     0.0 5  289 262 
 HEL  HZ I        10 0 50.54        30.0 0.49                           289 262 
 RREF HZ EP   1   10 0 17.75                              36     0.2 5  324 236 
 RREF HN ES   1   10 0 54.07                              36    -0.2 5  324 236 
 RREF HZ I        10 1  2.26        15.2 0.64                           324 236 
 SJA  SZ EP   2   10 0 23.07                              36    -0.9 3  381 197 
 SJA  SZ I        10 1 22.41        24.2 0.37                           381 197 
 PRA  HZ EP   1   10 0 24.19                              36     0.2 4  382 214 
 PRA  HZ I        10 1 20.22        29.5 0.63                           382 214 
                                                                                
