 2014  820 0813 22.8 L   6.799 -73.114142.9  RSN  5 0.3 1.6LRSN                1
 GAP=168        0.76       5.5     5.2  6.5 -0.4258E+01 -0.1253E+02  0.1158E+02E
 Epicentro: LOS SANTOS - SANTANDER                                             3
 ACTION:UPD 14-09-15 21:51 OP:nd   STATUS:               ID:20140820081322 L   I
 OLDACT:REG 14-08-20 12:37 OP:stll STATUS:               ID:20140820080815     3
 2014-08-20-0808-15M.COL___254                                                 6
 STAT SP IPHASW D HRMM SECON CODA AMPLIT PERI AZIMU VELO AIN AR TRES W  DIS CAZ7
 BAR2 SZ EP        813 42.10                             170    0.0110 24.1 198 
 BAR2 SZ ES        813 57.12                             170   -0.0310 24.1 198 
 BAR2 SZ I         813 59.47         9.2 0.22            172           24.1 198 
 BRR  HZ EP        813 44.09                             151    0.2710 74.4 297 
 BRR  HN ES        814  0.07                             151   -0.1510 74.4 297 
 BRR  HZ I         814  4.98         6.2 0.24            151           74.4 297 
 RUS  HZ EP        813 45.78                             143   -0.4610  100 178 
 RUS  HZ I         813 46.89         3.6 0.48            147            100 178 
 TAM  HZ EP        813 50.24                             131    0.32 9  152 105 
 SPBC HZ EP        813 50.97                             128   -0.31 9  165 220 
 SPBC HZ I         813 51.37         7.5 0.18            131            165 220 
 SPBC HE ES        814 13.91                             128    0.41 9  165 220 
                                                                                
