 2017  220 0733 15.4 L   6.835 -73.129150.4  RSN 21 0.6 2.1LRSN                1
 GAP= 66        1.21       3.4     3.3  5.5 -0.3444E+00  0.4462E+01  0.2291E+01E
 Epicentro: LOS SANTOS - SANTANDER                                             3
 ACTION:UPD 17-05-24 15:38 OP:jn   STATUS:               ID:20170220073315 L   I
 OLDACT:UP  17-02-20 18:36 OP:dani STATUS:               ID:20170220072740     3
 OLDACT:UP  17-02-20 18:35 OP:dani STATUS:               ID:20170220072740     3
 OLDACT:UP  17-02-20 18:35 OP:dani STATUS:               ID:20170220072740     3
 OLDACT:UP  17-02-20 18:34 OP:dani STATUS:               ID:20170220072740     3
 OLDACT:UP  17-02-20 18:34 OP:dani STATUS:               ID:20170220072740     3
 OLDACT:UP  17-02-20 18:34 OP:dani STATUS:               ID:20170220072740     3
 OLDACT:REG 17-02-20 13:01 OP:dani STATUS:               ID:20170220072740     3
 2017-02-20-0728-00M.COL___348                                                 6
 STAT SP IPHASW D HRMM SECON CODA AMPLIT PERI AZIMU VELO AIN AR TRES W  DIS CAZ7
 BAR2 EZ IP     C  733 35.61                             170   -0.0410 27.5 192 
 BAR2 HN ES   1    733 50.97                             170   -0.50 7 27.5 192 
 BAR2 EZ I         733 52.28        30.5 0.34            166           27.5 192 
 BRR  HZ EP        733 37.56                             153    0.5410 71.1 295 
 BRR  HN ES        733 54.45                             153    0.5410 71.1 295 
 BRR  HZ I         733 58.93        23.2 0.14            152           71.1 295 
 PAM  EZ EP        733 38.48                             153    0.6310 73.2  40 
 PAM  EN ES        733 55.57                             153    0.2010 73.2  40 
 PAM  EZ I         733 57.76         7.8 0.18            157           73.2  40 
 RUS  HZ EP        733 39.51                             144   -0.3510  104 177 
 RUS  HE ES        733 58.28                             144   -0.6710  104 177 
 RUS  HZ I         733 59.20        12.4 0.34            143            104 177 
 PTB  HZ EP        733 42.42                             132   -0.54 9  150 258 
 PTB  HN ES        734  3.59                             132   -0.89 9  150 258 
 PTB  HZ I         734  5.58        18.4 0.48            131            150 258 
 TAM  HZ EP     C  733 43.80                             132    0.44 9  154 107 
 TAM  HN ES        734  5.49                             132    0.31 9  154 107 
 TAM  HZ I         734  6.81         7.9 0.46            134            154 107 
 ZAR  HZ EP        733 48.40                             123    0.24 9  204 291 
 ZAR  HE ES        734 13.99                             123    0.26 9  204 291 
 ZAR  HZ I         734 19.26        25.4 0.32            123            204 291 
 NOR  HZ EP        733 51.63                             119   -0.16 8  239 234 
 NOR  HN ES        734 20.22                             119    0.04 8  239 234 
 NOR  HZ I         734 26.72        10.6 0.34            118            239 234 
 CHI  HZ EP        733 53.62                             118   -0.18 8  253 195 
 CHI  HN ES        734 23.06                             118   -0.70 8  253 195 
 CHI  HZ I         734 32.86         4.1 0.30            117            253 195 
 ROSC BZ EP   9    733 55.30                             117    1.08 0  257 211 
 ROSC BE ES        734 26.36                             116    0.76 8  257 211 
 ROSC BZ I         734 33.59        14.6 0.40            117            257 211 
 URE  HZ EP   3    733 55.60                             114   -1.11 2  284 291 
 URE  HN ES   4    734 26.09                             114   -2.86 0  284 291 
 URE  HZ I         734 28.57        10.2 0.12            114            284 291 
 VIL  EZ EP        733 59.70                             113    0.21 7  308 192 
 VIL  EN ES        734 33.69                             113   -0.20 7  308 192 
 VIL  EZ I         734 40.67         7.2 0.54            112            308 192 
 PTGC HZ EP   3 C  733 58.50                             112   -1.28 2  312 159 
 PTGC HN ES   4    734 31.91                             112   -2.50 0  312 159 
 PTGC HZ I         734 35.09         5.1 0.34            112            312 159 
 ELA  HZ EP   4    734  4.99                             111    2.11 0  333 229 
 ELA  HN ES   4    734 43.76                             111    3.83 0  333 229 
 ELA  HZ I         734 48.47         6.7 0.35            111            333 229 
 CBOC HZ EP        734  3.70                             110    0.87 7  337 252 
 CBOC HN ES        734 40.84                             110    0.99 7  337 252 
 CBOC HZ I         734 48.69         1.9 0.52            110            337 252 
 DBB  EZ EP        734  4.13                             110    0.90 7  341 274 
 DBB  EN ES        734 39.91                             110   -0.65 7  341 274 
 DBB  EZ I         734 43.35         4.8 0.14            110            341 274 
 ANIL HZ EP        734  6.90                             109    1.06 6  361 224 
 ANIL HN ES   3    734 46.37                             109    1.17 2  361 224 
 PRA  HZ EP        734  9.15                             107   -0.42 6  396 210 
 PRA  HE ES        734 51.63                             107   -0.20 6  396 210 
 PRA  HZ I         734 59.89         6.9 0.34            107            396 210 
 ORTC HZ EP        734 10.08                             107    0.12 6  400 216 
 ORTC HN ES   3    734 54.45                             107    1.92 1  400 216 
 ORTC HZ I         734 58.84         3.1 0.46            107            400 216 
 SJC  HZ EP        734  9.44                             106   -1.39 6  407 326 
 SJC  HN ES   4    734 51.20                             106   -2.89 0  407 326 
 SJC  HZ I         735  6.28         4.7 0.88            107            407 326 
 CRJC HZ EP        734 16.13                             104   -1.41 5  464   3 
 CRJC HN ES        735  5.43                             104   -0.59 5  464   3 
 CRJC HZ I         735  6.95         4.7 0.46            105            464   3 
                                                                                
