 2017 1220 0923 12.9 L   6.858 -73.195129.2  RSN  4 0.3 1.0LRSN                1
 GAP=150        0.79       6.4     5.6  6.8 -0.2514E+02  0.1278E+02 -0.3503E+01E
 Epicentro: ZAPATOCA - SANTANDER                                               3
 ACTION:UPD 18-01-04 13:22 OP:rebc STATUS:               ID:20171220092312 L   I
 OLDACT:DUP 17-12-20 17:15 OP:dhb  STATUS:               ID:20171220091347d    3
 2017-12-20-0918-00M.COL___440                                                 6
 STAT SP IPHASW D HRMM SECON CODA AMPLIT PERI AZIMU VELO AIN AR TRES W  DIS CAZ7
 BAR2 EZ EP        923 31.06                             166    0.3810 29.4 177 
 BAR2 EZ ES        923 44.84                             166    0.2710 29.4 177 
 BAR2 EZ I         923 46.49         3.3 0.22            171           29.4 177 
 PAM  EZ IP     D  923 33.53                             148    0.2410 76.3  46 
 PAM  EE ES        923 48.73                             148   -0.4910 76.3  46 
 PAM  EZ I         923 52.61         2.3 0.58            150           76.3  46 
 PTB  HZ EP        923 38.27                             129    0.09 9  144 256 
 PTB  HN ES        923 57.94                             129    0.02 9  144 256 
 PTB  HZ I         924  1.03         0.7 0.34            131            144 256 
 SPBC HZ EP        923 40.01                             125   -0.34 9  165 216 
 SPBC HN ES        924  1.50                             125   -0.27 9  165 216 
 SPBC HZ I         924  2.45         1.5 0.26            128            165 216 
                                                                                
