 2014  720 0341 21.5 L   6.877 -72.845  4.0  RSN  7 0.5 1.2LRSN                1
 GAP=176        1.18       3.9     5.0  7.2 -0.1199E+02  0.1851E+02 -0.1022E+02E
 Epicentro: GUACA - SANTANDER                                                  3
 ACTION:UPD 15-03-16 20:45 OP:nd   STATUS:               ID:20140720034121 L   I
 OLDACT:DUP 14-07-20 15:12 OP:fm   STATUS:               ID:20140720033812d    3
 2014-07-20-0338-11M.COL___266                                                 6
 STAT SP IPHASW D HRMM SECON CODA AMPLIT PERI AZIMU VELO AIN AR TRES W  DIS CAZ7
 BAR2 SZ EP        341 29.53                              47   -0.1810 48.8 230 
 BAR2 SZ ES   1    341 34.90                              47   -1.23 7 48.8 230 
 BAR2 SZ I         341 35.70        22.1 0.26             47           48.8 230 
 PAM  SZ EP        341 30.87                              47    0.1710 53.6  17 
 PAM  SN ES        341 37.34                              47   -0.5510 53.6  17 
 PAM  SZ I         341 38.04         7.8 0.28             47           53.6  17 
 BRR  HZ EP        341 37.60                              47    0.5110 99.2 285 
 BRR  HN ES        341 49.32                              47    0.0510 99.2 285 
 BRR  HZ I         341 50.57         2.5 0.32             47           99.2 285 
 RUS  HZ EP   1    341 40.16                              47    0.62 7  112 194 
 PTB  HZ EP   1    341 49.71                              37    0.21 7  182 258 
 PTB  HN ES        342 10.80                              37   -0.57 9  182 258 
 PTB  HZ I         342 14.23         2.7 0.16             37            182 258 
 SPBC HN ES   1    342 14.28                              37    0.58 7  192 225 
 SPBC HZ I         342 20.97         4.1 0.36             37            192 225 
 ZAR  HZ EP   1    341 56.09                              37    0.28 6  233 287 
 ZAR  HN ES        342 23.11                              37    0.52 8  233 287 
 ZAR  HZ I         342 25.24         1.7 0.42             37            233 287 
                                                                                
