 2016  520 0549 59.0 L   6.794 -73.111148.0  RSN  7 0.4 1.8LRSN                1
 GAP=208        1.05       4.3     6.2  7.0 -0.6919E+01  0.6141E+01  0.1335E+01E
 Epicentro: LOS SANTOS - SANTANDER                                             3
 ACTION:UPD 16-08-18 17:47 OP:cam  STATUS:               ID:20160520054959 L   I
 OLDACT:REG 16-05-20 12:32 OP:mh   STATUS:               ID:20160520054744     3
 2016-05-20-0547-44M.COL___311                                                 6
 STAT SP IPHASW D HRMM SECON CODA AMPLIT PERI AZIMU VELO AIN AR TRES W  DIS CAZ7
 BAR2 EZ EP        550 18.62                             170   -0.2910 23.7 199 
 BAR2 EZ ES        550 34.08                             170   -0.3510 23.7 199 
 BAR2 EZ I         550 36.73         9.5 0.22            167           23.7 199 
 BRR  HZ EP        550 21.10                             152    0.5010 74.9 298 
 BRR  HN ES        550 38.25                             152    0.8010 74.9 298 
 BRR  HZ I         550 41.47         5.7 0.12            148           74.9 298 
 PTB  HZ EP        550 26.12                             132   -0.36 9  151 259 
 PTB  HN ES        550 47.39                             132   -0.53 9  151 259 
 PTB  HZ I         550 54.15         8.1 0.42            131            151 259 
 OCA  HZ EP   1    550 28.13                             130    0.54 7  161 352 
 OCA  HN ES        550 49.40                             130   -0.49 9  161 352 
 OCA  HZ I         550 54.02        15.0 0.18            132            161 352 
 SPBC HZ EP        550 28.19                             129    0.33 9  165 220 
 SPBC HN ES        550 50.62                             129    0.26 9  165 220 
 SPBC HZ I         550 57.22         8.1 0.24            130            165 220 
 ZAR  HZ EP        550 31.59                             122   -0.39 8  208 292 
 ZAR  HN ES        550 57.81                             122    0.10 8  208 292 
 ZAR  HZ I         551  6.01         4.0 0.36            123            208 292 
 NOR  HZ EP        550 35.33                             119    0.17 8  237 235 
 NOR  HN ES        551  3.14                             119   -0.22 8  237 235 
 NOR  HZ I         551  6.90         4.0 0.22            120            237 235 
                                                                                
