 2015  320 0700 47.9 L   6.838 -73.182124.8  RSN 10 0.4 1.3LRSN                1
 GAP=130        1.07       3.3     3.9  6.5 -0.1455E+01  0.9090E+01 -0.1435E+01E
 Epicentro: ZAPATOCA - SANTANDER                                               3
 ACTION:UPD 15-04-30 16:27 OP:nd   STATUS:               ID:20150320070047 L   I
 OLDACT:REG 15-03-20 13:08 OP:fm   STATUS:               ID:20150320065745     3
 2015-03-20-0657-45M.COL___275                                                 6
 STAT SP IPHASW D HRMM SECON CODA AMPLIT PERI AZIMU VELO AIN AR TRES W  DIS CAZ7
 BAR2 EZ EP        7 1  5.67                             167    0.5410 27.2 180 
 BAR2 EZ ES        7 1 17.94                             167   -0.6210 27.2 180 
 BAR2 EZ I         7 1 24.12         5.6 0.60            170           27.2 180 
 BRR  HZ EP        7 1  7.35                             150    0.8510 65.7 297 
 BRR  HN ES        7 1 21.54                             150    0.5510 65.7 297 
 BRR  HZ I         7 1 26.24         3.1 0.28            151           65.7 297 
 PAM  SZ EP        7 1  8.18                             147    0.2710 76.9  44 
 PAM  SE ES        7 1 23.28                             147   -0.2310 76.9  44 
 PAM  SZ I         7 1 27.58         3.9 0.48            151           76.9  44 
 RUS  HZ EP        7 1 10.03                             138   -0.0110  105 174 
 RUS  HN ES        7 1 27.08                             138   -0.2110  105 174 
 RUS  HZ I         7 1 29.88         2.6 0.36            144            105 174 
 PTB  HZ EP        7 1 12.56                             127   -0.40 9  145 257 
 PTB  HN ES        7 1 32.13                             127   -0.37 9  145 257 
 PTB  HZ I         7 1 34.86         2.2 0.50            131            145 257 
 SPBC HZ EP        7 1 14.88                             124   -0.10 9  164 217 
 SPBC HN ES        7 1 36.35                             124    0.26 9  164 217 
 SPBC HZ I         7 1 42.82         4.0 0.22            128            164 217 
 ZAR  HE ES        7 1 42.28                             118   -0.11 9  199 291 
 ZAR  HZ I         7 1 49.47         2.8 0.52            121            199 291 
 SML  HZ EP        7 1 22.07                             113   -0.77 8  238 336 
 SML  HE ES        7 1 49.93                             113   -0.15 8  238 336 
 SML  HZ I         7 1 58.57         1.9 0.24            117            238 336 
 HEL  HE ES        7 1 57.13                             110   -0.05 8  269 255 
 GUY2CHN ES        7 2  4.00                             108    0.19 7  300 234 
 GUY2CHZ I         7 2 13.47         1.0 0.56                           300 234 
                                                                                
