 2012  520 0204 31.5 L   6.797 -73.129142.3  RSN  5 0.4 1.1LRSN                1
 GAP=139        1.13       8.6     9.7 11.2 -0.1866E+02  0.3179E+02 -0.1587E+02E
 Epicentro: LOS SANTOS - SANTANDER                                             3
 ACTION:UP  12-07-05 12:06 OP:pat  STATUS:               ID:20120520020431 L   I
 2012-05-20-0200-00M.COL___200                                                 6
 STAT SP IPHASW D HRMM SECON CODA AMPLIT PERI AZIMU VELO SNR AR TRES W  DIS CAZ7
 BAR2 SZ ES   1    2 5  5.48                             170    -0.2 7   23 195 
 BAR2 SZ I         2 5  7.30         5.2 0.32                            23 195 
 BRR  HZ EP   1    2 4 52.66                             151     0.3 7   73 298 
 BRR  HN ES   1    2 5  9.14                             151     0.5 7   73 298 
 BRR  HZ I         2 5 12.75         3.2 0.15                            73 298 
 PAM  SZ EP        2 4 53.69                             150     0.410   76  38 
 PAM  SN ES   1    2 5  9.66                             150    -0.6 7   76  38 
 RUS  HN ES   1    2 5 13.36                             143     0.2 7  100 177 
 RUS  HZ I         2 5 15.02         1.7 0.24                           100 177 
 PTB  HZ EP        2 4 57.85                             131    -0.5 9  150 259 
 PTB  HZ I         2 5  0.52         1.0 0.11                           150 259 
                                                                                
