 2014  120 0628 37.3 L   6.815 -73.182142.0  RSN  8 0.5 1.6LRSN                1
 GAP=131        1.19       3.6     5.1  7.5 -0.4573E+00  0.1264E+02 -0.2292E+01E
 Epicentro: ZAPATOCA - SANTANDER                                               3
 ACTION:UPD 14-03-13 09:56 OP:ep   STATUS:               ID:20140120062837 L   I
 OLDACT:REG 14-01-20 08:22 OP:nd   STATUS:               ID:20140120062000     3
 2014-01-20-0620-00M.COL___285                                                 6
 STAT SP IPHASW D HRMM SECON CODA AMPLIT PERI AZIMU VELO AIN AR TRES W  DIS CAZ7
 BAR2 SZ EP        628 56.54                             170    0.0710 24.6 180 
 BAR2 SZ ES        629 12.03                             170    0.5810 24.6 180 
 BAR2 SZ I         629 12.83        13.8 0.24            170           24.6 180 
 PAM  SZ EP        628 59.43                             150    0.2610 78.8  43 
 PAM  SN ES        629 16.02                             150   -0.2410 78.8  43 
 PAM  SZ I         629 19.00         5.4 0.62            152           78.8  43 
 RUS  HZ EP        629  0.60                             142   -0.1910  103 174 
 RUS  HN ES        629 18.82                             142   -0.3310  103 174 
 RUS  HZ I         629 21.33         2.1 0.30            145            103 174 
 PTB  HZ EP        629  3.41                             132   -0.18 9  144 258 
 PTB  HN ES        629 24.04                             132   -0.09 9  144 258 
 PTB  HZ I         629 26.49         5.8 0.28            133            144 258 
 SPBC HZ EP        629  5.42                             128    0.06 9  162 218 
 SPBC HN ES        629 27.29                             128    0.02 9  162 218 
 SPBC HZ I         629 30.33         6.8 0.22            130            162 218 
 ZAR  HZ EP        629 10.60                             122    1.59 9  200 292 
 ZAR  HN ES        629 33.30                             122   -0.48 9  200 292 
 ZAR  HZ I         629 37.01         4.4 0.12            124            200 292 
 SML  HZ EP        629 12.61                             117   -0.73 8  241 336 
 SML  HN ES        629 41.21                             117   -0.27 8  241 336 
 CHI  HZ EP        629 14.78                             116   -0.03 8  249 194 
 CHI  HN ES        629 43.86                             116   -0.24 8  249 194 
                                                                                
