 2015 1020 0222 41.9 L   6.790 -73.144148.0  RSN 14 0.4 2.3LRSN                1
 GAP=137        0.95       2.9     4.1  5.7 -0.1300E+01  0.9627E+01  0.2229E+00E
 Epicentro: LOS SANTOS - SANTANDER                                             3
 ACTION:UPD 15-12-22 20:41 OP:cam  STATUS:               ID:20151020022241 L   I
 OLDACT:REG 15-10-20 12:32 OP:mh   STATUS:               ID:20151020021748     3
 2015-10-20-0217-48M.COL___337                                                 6
 STAT SP IPHASW D HRMM SECON CODA AMPLIT PERI AZIMU VELO AIN AR TRES W  DIS CAZ7
 BAR2 EZ EP     D  223  1.62                             171   -0.1210 22.3 191 
 BAR2 EZ ES        223 17.25                             171    0.0010 22.3 191 
 BAR2 EZ I         223 18.83        26.2 0.34            169           22.3 191 
 BRR  HZ EP        223  3.53                             153    0.2310 71.9 299 
 BRR  HN ES        223 20.85                             153    0.8410 71.9 299 
 BRR  HZ I         223 25.26        26.1 0.16            150           71.9 299 
 PAM  EZ EP     C  223  4.53                             151    0.1710 78.1  39 
 PAM  EN ES        223 21.76                             151   -0.1510 78.1  39 
 PAM  EZ I         223 23.23        25.0 0.54            156           78.1  39 
 RUS  HZ EP        223  5.56                             145   -0.2010 99.5 176 
 RUS  HN ES        223 24.28                             145   -0.1110 99.5 176 
 RUS  HZ I         223 26.33        17.6 0.56            147           99.5 176 
 OCA  HZ EP   4    223  0.39                             130   -10.1 0  161 353 
 OCA  HN ES        223 32.27                             130   -0.49 9  161 353 
 OCA  HZ I         223 37.23        35.0 0.30            132            161 353 
 SPBC HZ EP   1    223 10.59                             130    0.12 7  162 219 
 SPBC HN ES   1    223 32.43                             130   -0.34 7  162 219 
 SPBC HZ I         223 39.05        35.7 0.28            131            162 219 
 ZAR  HZ EP   1    223 13.90                             123   -0.62 6  205 292 
 ZAR  HN ES        223 39.48                             123   -0.51 9  205 292 
 ZAR  HZ I         223 45.84        23.6 0.46            124            205 292 
 NOR  HZ EP     C  223 17.88                             119    0.21 8  234 235 
 NOR  HN ES        223 45.91                             119    0.31 8  234 235 
 NOR  HZ I         223 47.56        14.7 0.26            120            234 235 
 SML  HZ EP   1    223 18.45                             118   -0.29 6  245 335 
 SML  HN ES        223 47.94                             118    0.45 8  245 335 
 SML  HZ I         223 50.86        26.3 0.22            120            245 335 
 ROSC BZ EP   4    223 21.63                             117    1.62 0  252 211 
 ROSC BN ES   4    223 52.99                             117    3.22 0  252 211 
 ROSC BZ I         223 54.56        17.8 0.35            119            252 211 
 URE  HZ EP   4    223 21.49                             114   -1.62 0  284 292 
 URE  HN ES   4    223 51.85                             114   -3.43 0  284 292 
 URE  HZ I         223 56.15        10.7 0.12            115            284 292 
 GUY2CHZ EP   1    223 26.46                             113    0.94 5  301 235 
 GUY2CHN ES   4    224  2.58                             113    3.01 0  301 235 
 GUY2CHZ I         224  8.30         9.6 0.44                           301 235 
 CBOC HZ EP   1    223 29.21                             110    0.36 5  333 252 
 CBOC HN ES        224  4.60                             110   -0.91 7  333 252 
 CBOC HZ I         224 18.01         3.3 0.52            112            333 252 
 MON  HZ EP   4    223 28.65                             109   -2.40 0  355 309 
 MON  HN ES   4    224  6.20                             109   -3.21 0  355 309 
 MON  HZ I         224  9.39         4.2 0.32            110            355 309 
                                                                                
