 2016  120 0708 45.5 L   6.801 -73.169147.3  RSN 12 0.4 1.8LRSN                1
 GAP=134        0.89       2.6     4.0  7.0 -0.1153E+01  0.3364E+01 -0.1093E+01E
 Epicentro: LOS SANTOS - SANTANDER                                             3
 ACTION:UPD 16-03-09 23:27 OP:cam  STATUS:               ID:20160120070845 L   I
 OLDACT:UP  16-01-20 16:48 OP:mh   STATUS:               ID:20160120070749     3
 OLDACT:UP  16-01-20 16:47 OP:mh   STATUS:               ID:20160120070749     3
 OLDACT:REG 16-01-20 12:30 OP:mh   STATUS:               ID:20160120070749     3
 2016-01-20-0707-49M.COL___322                                                 6
 STAT SP IPHASW D HRMM SECON CODA AMPLIT PERI AZIMU VELO AIN AR TRES W  DIS CAZ7
 BAR2 EZ EP   1    7 9  5.22                             171   -0.06 7 23.1 184 
 BAR2 EZ I         7 9 22.06         8.9 0.29            171           23.1 184 
 PAM  EZ EP        7 9  7.94                             151   -0.0010 78.9  41 
 PAM  EZ I         7 9 27.04         8.7 0.54            148           78.9  41 
 RUS  HZ EP        7 9  8.95                             144   -0.4510  101 175 
 RUS  HN ES        7 9 27.95                             144   -0.1110  101 175 
 RUS  HZ I         7 9 30.51         4.1 0.38            147            101 175 
 PTB  HZ EP   1    7 9 11.49                             133   -0.85 7  145 259 
 PTB  HN ES        7 9 33.29                             133   -0.01 9  145 259 
 PTB  HZ I         7 9 40.57         5.4 0.40            140            145 259 
 OCA  HZ EP   1    7 9 13.98                             130    0.12 7  160 354 
 OCA  HN ES        7 9 36.84                             130    0.83 9  160 354 
 OCA  HZ I         7 9 47.10         7.5 0.28            132            160 354 
 SPBC HZ EP        7 9 14.29                             130    0.35 9  162 218 
 SPBC HN ES   1    7 9 36.15                             130   -0.00 7  162 218 
 SPBC HZ I         7 9 38.37         8.7 0.22            136            162 218 
 ZAR  HZ EP   1    7 9 17.71                             123   -0.06 6  202 292 
 ZAR  HN ES        7 9 42.69                             123   -0.27 9  202 292 
 ZAR  HZ I         7 9 45.70         5.3 0.34            128            202 292 
 NOR  HZ EP        7 9 21.46                             119    0.39 8  233 234 
 NOR  HE ES        7 9 48.98                             119    0.14 8  233 234 
 NOR  HZ I         7 9 56.16         3.4 0.36            124            233 234 
 SML  HZ EP        7 9 21.67                             118   -0.39 8  243 336 
 SML  HN ES        7 9 50.13                             118   -0.46 8  243 336 
 SML  HZ I         7 9 54.52         7.0 0.10            121            243 336 
 GUY2CHZ EP        7 9 29.68                             113    0.76 7  299 234 
 GUY2CHN ES   4    710  7.02                             113    4.21 0  299 234 
 GUY2CHZ I         710 11.62         3.6 0.80                           299 234 
 PTGC HZ EP   4    7 9 28.06                             112   -1.45 0  310 158 
 PTGC HN ES   4    710  1.17                             112   -2.70 0  310 158 
 PTGC HZ I         710  8.27         4.8 0.46            114            310 158 
 PRA  HZ EP   1    7 9 38.60                             107   -0.31 4  391 209 
 PRA  HN ES        710 20.75                             107    0.16 6  391 209 
 PRA  HZ I         710 26.07         2.0 0.32            110            391 209 
                                                                                
