 2011  220 0351 38.7 L   6.772 -72.877141.4  RSN  5 0.3 1.4LRSN                1
 GAP=189        0.76       3.4    16.7  7.3 -0.2558E+02 -0.9606E+01 -0.1235E+01E
 Epicentro: SAN ANDRES - SANTANDER                                             3
 ACTION:UP  11-03-28 15:09 OP:jfem STATUS:               ID:20110220035138 L   I
 2011-02-20-0347-14S.COL___137                                                 6
 STAT SP IPHASW D HRMM SECON CODA AMPLIT PERI AZIMU VELO SNR AR TRES W  DIS CAZ7
 BAR2 SZ EP   2    351 57.34                             164    -0.9 5   39 240 
 BAR2 SZ ES   1    352 13.16                             164    -0.3 7   39 240 
 BAR2 SZ I         352 14.33         5.8 0.22                            39 240 
 RUS  HZ EP   1    352  2.15                             143     0.2 7  100 193 
 RUS  HN ES        352 20.31                             143     0.210  100 193 
 RUS  HZ I         352 22.09         3.3 0.26                           100 193 
 GRA  SZ EP   1    352  3.54                             137     0.2 7  123   4 
 GRA  SZ ES   1    352 22.28                             137    -0.3 7  123   4 
 GRA  SZ I         352 24.63         2.9 0.41                           123   4 
 OCA  SZ EP   1    352  7.37                             127    -0.2 7  169 343 
 OCA  SZ ES   1    352 30.51                             127     0.5 7  169 343 
 OCA  SZ I         352 33.01         3.9 0.18                           169 343 
 CHI  HZ EP   1    352 16.58                             115    -0.3 6  255 202 
 CHI  HZ I         352 18.90         1.3 0.41                           255 202 
 CHI  HN ES   1    352 46.60                             115     0.0 6  255 202 
                                                                                
