 2017  720 0605 16.8 L   6.763 -73.166147.9  RSN  7 0.3 1.5LRSN                1
 GAP=232        0.77       4.3     4.4  5.6  0.1457E+01  0.5314E+01  0.3620E+01E
 Epicentro: LOS SANTOS - SANTANDER                                             3
 ACTION:UPD 17-08-30 15:35 OP:rebc STATUS:               ID:20170720060516 L   I
 OLDACT:UP  17-07-20 16:29 OP:dnl  STATUS:               ID:20170720055740     3
 OLDACT:REG 17-07-20 13:13 OP:dnl  STATUS:               ID:20170720055740     3
 2017-07-20-0558-00M.COL___377                                                 6
 STAT SP IPHASW D HRMM SECON CODA AMPLIT PERI AZIMU VELO AIN AR TRES W  DIS CAZ7
 BAR2 EZ IP     C  6 5 36.41                             172   -0.1710 18.9 186 
 BAR2 EZ ES        6 5 51.76                             172   -0.2610 18.9 186 
 BAR2 EZ I         6 5 57.30         4.8 0.42            176           18.9 186 
 BRR  HZ IP     C  6 5 38.34                             153    0.1810 71.4 302 
 BRR  HN ES        6 5 55.27                             153    0.4310 71.4 302 
 BRR  HZ I         6 6  6.70        19.7 0.26            151           71.4 302 
 RUS  HZ EP        6 5 40.45                             145   -0.0010 96.6 175 
 RUS  HN ES        6 5 58.92                             145   -0.0110 96.6 175 
 RUS  HZ I         6 6  0.01         2.2 0.34            156           96.6 175 
 PTB  HZ EP        6 5 43.18                             133   -0.47 9  145 260 
 PTB  HN ES        6 6  4.25                             133   -0.36 9  145 260 
 PTB  HZ I         6 6  6.44         3.4 0.14            137            145 260 
 SPBC HZ EP        6 5 45.43                             130    0.43 9  159 219 
 SPBC HN ES        6 6  7.32                             130    0.30 9  159 219 
 SPBC HZ I         6 6  8.94         4.1 0.16            137            159 219 
 ZAR  HE ES   4    6 6 17.86                             123    3.17 0  204 293 
 ZAR  HZ I         6 6 20.81         4.1 0.40            126            204 293 
 GUY2CHZ EP   4    6 6  3.11                             113    3.10 0  297 235 
 GUY2CHN ES        6 6 33.65                             113   -0.08 7  297 235 
 GUY2CHZ I         6 6 44.06         1.4 0.66                           297 235 
                                                                                
