 2014  120 0329 27.8 L   6.819 -73.208130.3  RSN  4 0.2 1.5LRSN                1
 GAP=147        0.66       3.7     3.6  5.6 -0.4249E+01  0.6153E+01 -0.2120E+01E
 Epicentro: ZAPATOCA - SANTANDER                                               3
 ACTION:UPD 14-03-13 09:56 OP:ep   STATUS:               ID:20140120032927 L   I
 OLDACT:REG 14-01-20 10:29 OP:nd   STATUS:               ID:20140120032843     3
 2014-01-20-0328-43M.COL___235                                                 6
 STAT SP IPHASW D HRMM SECON CODA AMPLIT PERI AZIMU VELO AIN AR TRES W  DIS CAZ7
 BAR2 SZ EP        329 45.52                             168   -0.0810 25.2 174 
 BAR2 SZ ES        329 59.08                             168   -0.4110 25.2 174 
 BAR2 SZ I         330  1.93        10.5 0.20            170           25.2 174 
 PAM  SZ IP     D  329 48.58                             147    0.0110 80.4  44 
 PAM  SN ES        330  5.00                             147    0.2110 80.4  44 
 PAM  SZ I         330  7.51         3.9 0.46            152           80.4  44 
 RUS  HN EP        329 50.33                             139    0.0710  103 172 
 RUS  HZ ES        330  7.99                             139    0.2010  103 172 
 RUS  HN I         330 10.17         7.6 0.42            144            103 172 
 PTB  HZ EP        329 52.62                             129   -0.32 9  141 257 
 PTB  HN ES        330 12.87                             129    0.31 9  141 257 
 PTB  HZ I         330 18.37         6.4 0.16            131            141 257 
                                                                                
