 2010  820 0250  5.9 L   5.937 -74.204 11.5  RSN  6 0.3 1.3LRSN                1
 GAP=171        0.75      14.5     2.5 19.2  0.2160E+02  0.2967E+02  0.2665E+03E
 Epicentro: LA BELLEZA - SANTANDER                                             3
 ACTION:UP  10-09-07 10:56 OP:vdl  STATUS:               ID:20100820025006 L   I
 2010-08-20-0245-46S.COL___117                                                 6
 STAT SP IPHASW D HRMM SECON CODA AMPLIT PERI AZIMU VELO SNR AR TRES W  DIS CAZ7
 RUS  HZ EP   1    250 26.01                              94     0.1 7  124  92 
 RUS  HN ES        250 41.31                              94    -0.110  124  92 
 RUS  HZ I         250 43.58         2.2 0.76                           124  92 
 HEL  HZ EP   1    250 30.09                              93     0.5 7  149 281 
 HEL  HN ES   1    250 47.97                              93     0.0 7  149 281 
 HEL  HZ I         250 48.80         4.1 0.38                           149 281 
 GUY  SZ EP   2    250 29.43                              93    -0.5 5  151 239 
 GUY  SZ I         250 46.87         9.9 0.38                           151 239 
 CHI  HZ EP   1    250 30.57                              56     0.3 7  154 160 
 CHI  HN ES   2    250 49.50                              56     0.3 5  154 160 
 CHI  HZ I         250 51.68         2.1 0.21                           154 160 
 RREF HZ EP        250 32.24                              56    -0.4 9  171 228 
 RREF HZ I         250 51.64         3.4 0.58                           171 228 
 PRA  HZ EP   1    250 42.51                              56    -0.2 6  257 197 
 PRA  HN ES   1    251 11.70                              56     0.3 6  257 197 
 PRA  HZ I         251 13.94         2.9 0.87                           257 197 
                                                                                
