 2014 1020 0638 44.7 L   6.818 -73.134151.7  RSN 15 0.5 1.9LRSN                1
 GAP=137        1.09       3.0     4.5  6.2 -0.9952E+00  0.6952E+01  0.3041E+01E
 Epicentro: LOS SANTOS - SANTANDER                                             3
 ACTION:UPD 14-11-29 23:51 OP:nd   STATUS:               ID:20141020063844 L   I
 OLDACT:REG 14-10-20 12:56 OP:mh   STATUS:               ID:20141020063736     3
 2014-10-20-0637-36M.COL___268                                                 6
 STAT SP IPHASW D HRMM SECON CODA AMPLIT PERI AZIMU VELO AIN AR TRES W  DIS CAZ7
 BAR2 SZ EP   1    639  4.37                             170   -0.68 7 25.6 192 
 BAR2 SZ I         639 23.13        15.5 0.22            168           25.6 192 
 BRR  HZ EP        639  7.07                             153    0.6110 71.4 297 
 BRR  HN ES        639 24.32                             153    0.8510 71.4 297 
 BRR  HZ I         639 27.99         9.0 0.12            151           71.4 297 
 PAM  SZ EP     C  639  7.99                             153    0.6210 75.0  40 
 PAM  SN ES        639 25.06                             153   -0.0310 75.0  40 
 RUS  HZ EP        639  9.03                             144   -0.1010  103 177 
 RUS  HN ES        639 27.82                             144   -0.4010  103 177 
 RUS  HZ I         639 29.03         5.8 0.40            145            103 177 
 PTB  HZ EP        639 11.74                             133   -0.52 9  149 258 
 PTB  HN ES        639 33.35                             133   -0.45 9  149 258 
 PTB  HZ I         639 38.89        10.9 0.16            132            149 258 
 OCA  HN ES        639 34.80                             131   -0.78 9  158 353 
 OCA  HZ I         639 42.01         9.3 0.27            133            158 353 
 SPBC HZ EP        639 14.14                             130    0.30 9  166 219 
 SPBC HN ES        639 36.97                             130    0.37 9  166 219 
 SPBC HZ I         639 41.77        14.7 0.14            130            166 219 
 ZAR  HZ EP        639 17.66                             124    0.12 9  204 291 
 ZAR  HN ES   1    639 43.30                             124    0.11 6  204 291 
 ZAR  HZ I         639 54.41         7.4 0.46            124            204 291 
 SML  HZ EP        639 21.38                             119   -0.10 8  242 335 
 SML  HN ES        639 49.76                             119   -0.45 8  242 335 
 SML  HZ I         639 53.46        16.2 0.22            120            242 335 
 CHI  HZ EP        639 23.11                             118    0.17 8  251 195 
 CHI  HN ES        639 52.32                             118   -0.48 8  251 195 
 CHI  HZ I         640  1.17         2.6 0.70            119            251 195 
 ROSC BZ EP   1    639 23.90                             118    0.53 6  255 211 
 ROSC BN ES   4    639 58.66                             118    5.10 0  255 211 
 ROSC BZ I         640  3.04         9.9 0.40            118            255 211 
 HEL  HZ EP        639 26.05                             116    0.68 8  274 255 
 HEL  HN ES   1    639 56.92                             116   -0.21 6  274 255 
 HEL  HZ I         640  3.53         3.7 0.36            116            274 255 
 CBOC HZ EP   1    639 32.21                             111    0.18 5  335 252 
 CBOC HN ES   1    640  8.48                             111   -0.51 5  335 252 
 CBOC HZ I         640 17.92         1.6 0.36            111            335 252 
 TOL  SZ EP   4    639 34.26                             110    0.83 0  346 225 
 TOL  SN ES   4    640 12.77                             110    1.30 0  346 225 
 TOL  SZ I         640 17.45         7.9 0.68            111            346 225 
 MON  HZ EP   4    639 30.60                             110   -3.27 0  353 308 
 MON  HN ES   4    640 10.32                             110   -1.93 0  353 308 
 PRA  HZ EP        639 37.95                             107   -0.72 6  394 210 
 PRA  HN ES   1    640 20.77                             107   -0.02 4  394 210 
 PRA  HZ I         640 26.41         3.7 0.64            108            394 210 
                                                                                
