 2013  320 0033 55.8 L   6.303 -73.698103.0  RSN  6 0.4 1.7LRSN                1
 GAP=164        1.05       4.8     3.5  7.9  0.4368E+01  0.4529E+01 -0.4320E+01E
 Epicentro: SANTA HELENA DEL OPON - SANTANDER                                  3
 ACTION:UPD 13-04-09 14:03 OP:ep   STATUS:               ID:20130320003355 L   I
 2013-03-20-0030-00M.COL___244                                                 6
 STAT SP IPHASW D HRMM SECON CODA AMPLIT PERI AZIMU VELO AIN AR TRES W  DIS CAZ7
 BAR2 SZ EP        034 12.62                             145    0.1510 65.4  61 
 BAR2 SZ ES        034 25.42                             145   -0.0410 65.4  61 
 BAR2 SZ I         034 27.47        24.4 0.34            147           65.4  61 
 RUS  HZ EP        034 14.63                             139    0.5710 81.8 124 
 RUS  HN ES        034 28.39                             139    0.1010 81.8 124 
 RUS  HN I         034 29.86        11.6 0.16            144           81.8 124 
 PTB  HZ EP        034 13.28                             136   -0.6210 87.8 287 
 PTB  HE ES        034 27.53                             136   -0.4710 87.8 287 
 PTB  HE I         034 28.76         6.1 0.38            140           87.8 287 
 BRR  HZ EP        034 13.87                             136   -0.1010 88.9 359 
 BRR  HE ES        034 28.48                             136    0.3610 88.9 359 
 BRR  HE I         034 33.71        12.8 0.20            138           88.9 359 
 PAM  SZ EP        034 21.15                             118   -0.37 9  159  44 
 PAM  SN ES        034 41.13                             118   -0.44 9  159  44 
 ZAR  HZ EP        034 23.80                             114    0.21 9  184 316 
 ZAR  HN ES        034 45.97                             114    0.72 9  184 316 
 ZAR  HN I         034 46.95         6.1 0.12            117            184 316 
                                                                                
