 2011  720 0411 37.9 L   6.779 -73.067138.8  RSN  4 0.2 1.4LRSN                1
 GAP=168        0.41       3.2     5.6  5.6  0.3677E+01 -0.9430E+01 -0.8987E+00E
 Epicentro: LOS SANTOS - SANTANDER                                             3
 *BRR-RUS                                                                      3
 ACTION:UPD 12-07-25 14:02 OP:epov STATUS:               ID:20110720041137 L   I
 2011-07-20-0400-00M.COL___136                                                 6
 STAT SP IPHASW D HRMM SECON CODA AMPLIT PERI AZIMU VELO AIN AR TRES W  DIS CAZ7
 BAR2 SZ EP   1    411 56.42                             169   -0.29 7 24.3 212 
 BAR2 SZ ES   2    412 11.12                             169   -0.26 5 24.3 212 
 BAR2 SZ I         412 13.81         6.3 0.25                          24.3 212 
 BRR  HZ EP        411 58.94                             148    0.1110 80.0 297 
 BRR  HN ES   1    412 15.16                             148    0.00 7 80.0 297 
 BRR  HZ I         412 19.73        10.6 0.16                          80.0 297 
 RUS  HZ EP   1    412  0.74                             143   -0.04 7 98.1 181 
 RUS  HE ES   2    412 19.04                             143    0.41 5 98.1 181 
 RUS  HZ I         412 20.36         3.2 0.24                          98.1 181 
 GRA  SZ EP   2    412  2.59                             135    0.08 5  126  13 
 GRA  SZ ES   2    412 21.80                             135    0.09 5  126  13 
 GRA  SZ I         412 23.25         3.5 0.28                           126  13 
                                                                                
