 2013 1120 0015 47.2 L   6.792 -73.182146.0  RSN 13 0.4 1.9LRSN                1
 GAP=132        1.03       3.2     4.1  5.8 -0.1156E+00  0.5996E+01  0.1094E+01E
 Epicentro: LOS SANTOS - SANTANDER                                             3
 ACTION:UPD 14-01-09 16:29 OP:ep   STATUS:               ID:20131120001547 L   I
 OLDACT:REG 13-11-20 07:13 OP:nd   STATUS:               ID:20131120001000     3
 2013-11-20-0010-00M.COL___279                                                 6
 STAT SP IPHASW D HRMM SECON CODA AMPLIT PERI AZIMU VELO AIN AR TRES W  DIS CAZ7
 BAR2 SZ EP        016  6.37                             171   -0.4310 22.1 180 
 BAR2 SZ ES        016 22.39                             171    0.2810 22.1 180 
 BAR2 SZ I         016 24.70        24.3 0.18            167           22.1 180 
 BRR  HZ EP        016  8.96                             154    0.7910 68.2 301 
 BRR  HN ES        016 24.35                             154   -0.2110 68.2 301 
 BRR  HZ I         016 28.63        14.6 0.16            151           68.2 301 
 PAM  SZ EP        016  9.80                             150    0.2010 80.7  41 
 PAM  SN ES        016 27.01                             150   -0.0910 80.7  41 
 PAM  SZ I         016 29.40        12.5 0.64            156           80.7  41 
 RUS  HZ EP        016 11.11                             144    0.2110  100 174 
 RUS  HN ES        016 29.18                             144   -0.2310  100 174 
 RUS  HZ I         016 30.76         6.6 0.36            143            100 174 
 PTB  HZ EP        016 13.81                             133    0.03 9  144 259 
 PTB  HN ES        016 34.19                             133   -0.35 9  144 259 
 PTB  HZ I         016 36.75         8.8 0.10            131            144 259 
 SPBC HZ EP   2    016 14.98                             130   -0.40 5  160 218 
 SPBC HN ES   2    016 37.22                             130   -0.16 5  160 218 
 SPBC HZ I         016 45.79        11.6 0.22            128            160 218 
 ZAR  HZ EP   2    016 19.47                             123    0.19 4  201 293 
 ZAR  HN ES        016 45.41                             123    1.08 9  201 293 
 ZAR  HZ I         016 50.45        10.9 0.30            123            201 293 
 NOR  HZ EP        016 22.40                             119   -0.10 8  231 234 
 NOR  HN ES        016 49.51                             119   -0.56 8  231 234 
 NOR  HZ I         016 58.63         6.8 0.20            119            231 234 
 SML  HZ EP        016 23.17                             117   -0.55 8  243 336 
 SML  HN ES        016 51.54                             117   -0.68 8  243 336 
 SML  HZ I         016 55.40        16.3 0.10            119            243 336 
 CHI  HZ EP        016 24.92                             117    0.25 8  247 194 
 CHI  HN ES        016 54.10                             117    0.18 8  247 194 
 CHI  HZ I         017  4.14         4.2 0.28            118            247 194 
 GUY2CHZ EP   4    016 32.00                             113    1.64 0  297 234 
 GUY2CHN ES   4    017  5.94                             113    1.89 0  297 234 
 GUY2CHZ I         017 11.28         3.9 0.28                           297 234 
 RREF HZ EP   4    016 34.21                             111    1.31 0  318 229 
 RREF HN ES   4    017 10.09                             111    1.51 0  318 229 
 RREF HZ I         017 17.79         5.1 0.30            111            318 229 
 SJC  HZ EP   4    016 41.17                             106   -1.40 0  408 327 
 SJC  HN ES   4    017 22.32                             106   -3.47 0  408 327 
 SJC  HZ I         017 26.87         1.9 0.38            107            408 327 
                                                                                
