 2017  620 0624 20.1 L   6.828 -73.119138.0  RSN  7 0.3 1.9LRSN                1
 GAP=260        0.57       2.8     4.9  5.4 -0.2044E-01 -0.4863E+01  0.4695E+01E
 Epicentro: LOS SANTOS - SANTANDER                                             3
 ACTION:UPD 17-09-14 16:53 OP:jn   STATUS:               ID:20170620062420 L   I
 OLDACT:REG 17-06-20 15:20 OP:lv   STATUS:               ID:20170620061659     3
 2017-06-20-0616-59S.COL___276                                                 6
 STAT SP IPHASW D HRMM SECON CODA AMPLIT PERI AZIMU VELO AIN AR TRES W  DIS CAZ7
 BRR  HZ IP     C  624 40.50                             151   -0.0110 72.5 295 
 BRR  HN ES        624 56.58                             151    0.1610 72.5 295 
 BRR  HZ I         625  0.45        10.6 0.11            148           72.5 295 
 PTB  HZ EP   9    624 45.40                             130   -1.40 0  151 258 
 PTB  HN ES        625  6.23                                    0.02 9  151 258 
 PTB  HZ I         625 11.68         4.8 0.06            129            151 258 
 SPBC HN ES   2    625  9.87                             127   -0.68 5  167 219 
 SPBC HZ I         625 13.91         7.4 0.18            127            167 219 
 ZAR  HZ EP        624 52.08                             121   -0.17 8  206 291 
 ZAR  HE ES        625 17.32                             121    0.02 8  206 291 
 ZAR  HZ I         625 22.45         8.3 0.58            121            206 291 
 CHI  HN ES        625 27.17                             115   -0.04 8  252 196 
 GUY2CHZ EP   4    625  5.56                             111    1.70 0  305 235 
 GUY2CHN ES        625 37.74                             111   -0.24 7  305 235 
 ORTC HN ES        625 57.27                             105    0.74 6  400 216 
 ORTC HZ I         626  2.47         5.4 0.08            106            400 216 
 SJC  HN ES   4    625 54.48                             105   -3.91 0  408 326 
                                                                                
