 2012  220 0423 34.0 L   7.050 -73.533 15.9  RSN  5 0.4 0.9LRSN                1
 GAP=157        0.70       4.4     2.1  5.8  0.2058E+01 -0.1041E+01  0.1631E+02E
 ACTION:UP  12-03-07 16:32 OP:epov STATUS:               ID:20120220042334 L   I
 2012-02-20-0420-00M.COL___191                                                 6
 STAT SP IPHASW D HRMM SECON CODA AMPLIT PERI AZIMU VELO AIN AR TRES W  DIS CAZ7
 BRR  HZ EP        423 38.26                             124   -0.0910 20.7 288 
 BRR  HZ I         423 38.49        27.5 0.16                          20.7 288 
 BRR  HE ES   1    423 42.19                             124    0.49 7 20.7 288 
 GIR2 SZ EP   1    423 40.75                             110   -0.07 7 37.7  85 
 GIR2 SZ ES   2    423 45.50                             110   -0.60 5 37.7  85 
 BAR2 SZ EP   1    423 44.77                             102    0.04 7 63.8 142 
 BAR2 SZ ES   1    423 52.94                             102   -0.13 7 63.8 142 
 PTB  HZ EP   1    423 52.33                              96   -0.09 7  117 241 
 PTB  HN ES   1    424  6.19                              96   -0.56 7  117 241 
 PTB  HZ I         424  6.87         0.0 0.38                           117 241 
 RUS  HZ EP   1    423 56.53                              56    0.49 7  137 159 
 RUS  HE ES   2    424 13.88                              56    0.69 5  137 159 
 RUS  HZ I         424 15.39         1.2 0.34                           137 159 
                                                                                
