 2010  420 0243 59.6 L   6.804 -73.031140.7  RSN  8 0.4 2.5LRSN                1
 GAP=149        0.82       5.1     7.2  6.7 -0.1291E+02 -0.1682E+02  0.4876E+01E
 Epicentro: CEPITA - SANTANDER                                                 3
 ACTION:UPD 10-08-24 10:00 OP:vdl  STATUS:               ID:20100420024359 L   I
 2010-04-20-0242-15S.COL___100                                                 6
 STAT SP IPHASW D HRMM SECON CODA AMPLIT PERI AZIMU VELO AIN AR TRES W  DIS CAZ7
 BAR2 SZ IP        244 18.69                             168    -0.110   29 216 
 BAR2 SZ ES   1    244 33.57                             168    -0.1 7   29 216 
 BRR  HZ IP     C  244 21.08                             148     0.210   82 294 
 BRR  HE ES        244 37.97                             148     0.410   82 294 
 BRR  HZ I         244 39.23        74.8 0.14                            82 294 
 OCA  SZ IP        244 27.35                             128    -0.4 9  162 349 
 OCA  SZ ES   1    244 49.23                             128    -0.4 7  162 349 
 OCA  SZ I         244 52.43       126.1 0.47                           162 349 
 CHI  HZ EP   3    244 37.96                             116     0.5 2  253 198 
 CHI  HZ I         245 12.96         8.2 0.34                           253 198 
 HEL  HZ EP   2    244 41.70                             113     0.7 4  284 256 
 HEL  HZ I         245 19.21         9.4 0.26                           284 256 
 RREF BZ EP   2    244 47.23                             109     0.5 3  332 231 
 RREF BN ES   1    245 22.92                             109    -0.5 5  332 231 
 RREF BZ I         245 27.14         8.4 0.21                           332 231 
 SDV  BZ IP     C  244 48.66                             108     0.3 6  350  49 
 PRA  HZ EP   1    244 53.05                             105    -0.7 4  399 211 
 PRA  HZ I         245 41.98        12.7 0.63                           399 211 
                                                                                
