 2017  220 0413 26.0 L   6.788 -73.143138.4  RSN  6 0.5 1.2LRSN                1
 GAP=137        1.18       5.7     5.2  8.4  0.3294E+01  0.9297E+01 -0.3668E+01E
 Epicentro: LOS SANTOS - SANTANDER                                             3
 ACTION:UPD 17-05-24 15:38 OP:jn   STATUS:               ID:20170220041326 L   I
 OLDACT:UP  17-02-20 15:44 OP:dani STATUS:               ID:20170220040743d    3
 OLDACT:DUP 17-02-20 15:41 OP:dani STATUS:               ID:20170220040743d    3
 2017-02-20-0408-00M.COL___351                                                 6
 STAT SP IPHASW D HRMM SECON CODA AMPLIT PERI AZIMU VELO AIN AR TRES W  DIS CAZ7
 BAR2 EZ EP        413 44.50                             170   -0.1810 22.1 191 
 BAR2 EZ ES        413 58.33                             170   -0.9510 22.1 191 
 BAR2 EZ I         414  0.51         3.6 0.35            172           22.1 191 
 BRR  HZ EP        413 46.20                             151   -0.1710 72.1 299 
 BRR  HN ES        414  2.98                             151    0.6910 72.1 299 
 BRR  HZ I         414  7.25         4.0 0.24            150           72.1 299 
 PAM  EZ EP        413 47.35                             149   -0.1010 78.2  39 
 PAM  EE ES        414  4.37                             149    0.1610 78.2  39 
 PAM  EZ I         414  6.02         2.6 0.16            152           78.2  39 
 RUS  HZ EP        413 48.88                             143   -0.0210 99.3 176 
 RUS  HE ES        414  7.53                             143    0.7410 99.3 176 
 RUS  HZ I         414  8.49         1.0 0.22            146           99.3 176 
 PTB  HZ EP   3    413 51.03                             130   -1.31 2  148 259 
 PTB  HN ES        414 12.55                             130   -0.37 9  148 259 
 PTB  HZ I         414 14.72         2.9 0.15            132            148 259 
 ZAR  HZ EP        413 58.30                             121    0.28 9  205 292 
 ZAR  HN ES        414 23.05                             121    0.03 9  205 292 
 ZAR  HZ I         414 28.01         2.5 0.36            122            205 292 
                                                                                
