 2011  420 0558 49.4 L   6.809 -73.116148.9  RSN  8 0.3 1.6LRSN                1
 GAP=159        0.84       7.5     8.3  6.9 -0.2738E+02 -0.6782E+01 -0.1511E+01E
 Epicentro: LOS SANTOS - SANTANDER                                             3
 ACTION:UP  11-06-22 15:31 OP:REBC STATUS:               ID:20110420055849 L   I
 2011-04-20-0557-04S.COL___138                                                 6
 STAT SP IPHASW D HRMM SECON CODA AMPLIT PERI AZIMU VELO SNR AR TRES W  DIS CAZ7
 BTL  SZ EP        559  9.39                             172     0.010   21 306 
 BTL  SZ ES   1    559 25.02                             172     0.1 7   21 306 
 BAR2 SZ EP        559  9.13                             170    -0.310   25 197 
 BAR2 SZ I         559 25.61        14.8 0.10                            25 197 
 BRR  HZ EP        559 10.94                             152    -0.110   74 297 
 BRR  HN ES   1    559 28.09                             152     0.2 7   74 297 
 BRR  HZ I         559 29.65         9.7 0.14                            74 297 
 PAM  SZ EP        559 11.98                             152     0.210   75  38 
 PAM  SN ES   1    559 28.91                             152    -0.3 7   75  38 
 PAM  SZ I         559 31.22         2.3 0.43                            75  38 
 BRI  SZ EP   2    559 13.61                             143     0.2 5  106  19 
 GUE  SZ EP        559 14.77                             140     0.510  115  11 
 GRA  SZ EP        559 14.89                             138     0.110  124  16 
 GRA  SZ ES   1    559 34.36                             138    -0.2 7  124  16 
 GRA  SZ I         559 36.08         6.2 0.43                           124  16 
 OCA  SZ EP        559 17.32                             130    -0.6 9  160 352 
 OCA  SZ I         559 43.98         6.8 0.22                           160 352 
                                                                                
