 2015  220 0517 51.4 L   6.795 -73.177144.8  RSN  8 0.5 1.6LRSN                1
 GAP=133        1.27       4.4     5.6  8.7 -0.4693E+01  0.1622E+02 -0.6787E+01E
 Epicentro: LOS SANTOS - SANTANDER                                             3
 ACTION:UPD 15-04-30 21:27 OP:nd   STATUS:               ID:20150220051751 L   I
 OLDACT:UP  15-02-20 20:36 OP:mh   STATUS:               ID:20150220050741     3
 OLDACT:REG 15-02-20 13:33 OP:mher STATUS:               ID:20150220050741     3
 2015-02-20-0507-41M.COL___284                                                 6
 STAT SP IPHASW D HRMM SECON CODA AMPLIT PERI AZIMU VELO AIN AR TRES W  DIS CAZ7
 BAR2 EZ EP        518 10.81                             171   -0.0510 22.5 182 
 BAR2 EZ ES        518 26.09                             171    0.0210 22.5 182 
 BAR2 EZ I         518 28.05        10.9 0.58            173           22.5 182 
 PAM  SZ EP        518 14.26                             150    0.6310 80.0  41 
 PAM  SN ES        518 31.62                             150    0.6110 80.0  41 
 PAM  SZ I         518 31.68         3.6 0.28            152           80.0  41 
 RUS  HZ EP        518 14.41                             144   -0.5910  100 174 
 RUS  HN ES        518 32.99                             144   -0.4510  100 174 
 RUS  HZ I         518 34.31         5.0 0.44            148            100 174 
 PTB  HZ EP        518 17.46                             132   -0.47 9  144 259 
 PTB  HN ES        518 38.65                             132   -0.01 9  144 259 
 PTB  HZ I         518 42.06         4.5 0.14            132            144 259 
 OCA  HZ EP        518 19.00                             129   -0.61 9  160 354 
 OCA  HN ES        518 40.99                             129   -0.65 9  160 354 
 OCA  HZ I         518 45.20         4.4 0.35            130            160 354 
 SPBC HZ EP        518 20.07                             129    0.53 9  161 218 
 SPBC HN ES        518 41.82                             129    0.30 9  161 218 
 SPBC HZ I         518 45.43         7.9 0.20            131            161 218 
 ZAR  HZ EP        518 24.33                             123    0.90 9  201 293 
 ZAR  HE ES        518 48.38                             123   -0.07 9  201 293 
 ZAR  HZ I         518 52.04         3.0 0.09            123            201 293 
 SML  HZ EP   4    518 25.34                             117   -2.49 0  243 336 
 SML  HN ES   4    518 54.83                             117   -1.44 0  243 336 
 SML  HZ I         519  5.56         6.5 0.10            118            243 336 
                                                                                
