 2016  220 0549 55.7 L   6.772 -73.165145.2  RSN  6 0.5 1.2LRSN                1
 GAP=135        1.30       6.1     6.4  8.9 -0.9799E+01  0.7651E+01  0.5588E+01E
 Epicentro: LOS SANTOS - SANTANDER                                             3
 ACTION:UPD 16-03-04 21:27 OP:rebc STATUS:               ID:20160220054955 L   I
 OLDACT:REG 16-02-20 13:11 OP:drio STATUS:               ID:20160220054742     3
 2016-02-20-0547-42M.COL___327                                                 6
 STAT SP IPHASW D HRMM SECON CODA AMPLIT PERI AZIMU VELO AIN AR TRES W  DIS CAZ7
 BAR2 EZ EP        550 15.21                             172   -0.0110 20.0 186 
 BAR2 EZ ES        550 30.72                             172    0.2910 20.0 186 
 BAR2 EZ I         550 31.26         2.6 0.16            172           20.0 186 
 BRR  HZ EP        550 17.07                             152    0.2710 70.9 302 
 BRR  HE ES        550 34.15                             152    0.9210 70.9 302 
 BRR  HZ I         550 37.85         3.8 0.70            152           70.9 302 
 PAM  EZ EP        550 18.18                             149    0.0810 81.1  39 
 PAM  EN ES        550 34.86                             149   -0.7010 81.1  39 
 PAM  EZ I         550 37.14         4.5 0.42            152           81.1  39 
 RUS  HZ EP        550 19.52                             145    0.3110 97.6 175 
 RUS  HE ES        550 37.21                             145   -0.3210 97.6 175 
 RUS  HZ I         550 38.70         2.5 0.38            147           97.6 175 
 PTB  HZ EP        550 21.95                             132   -0.45 9  145 260 
 PTB  HN ES        550 42.25                             132   -0.97 9  145 260 
 PTB  HZ I         550 45.59         1.5 0.16            133            145 260 
 SPBC HZ EP        550 24.17                             130    0.35 9  159 219 
 SPBC HN ES        550 45.89                             130    0.15 9  159 219 
 SPBC HZ I         550 49.49         3.1 0.22            131            159 219 
                                                                                
