 2016 1120 0343  9.0 L   6.754 -73.125154.4  RSN  8 0.3 2.0LRSN                1
 GAP=123        0.86       4.9     3.9  5.7 -0.6332E+00  0.2874E+01  0.9581E+01E
 Epicentro: LOS SANTOS - SANTANDER                                             3
 ACTION:UPD 17-10-26 21:09 OP:lp   STATUS:               ID:20161120034309 L   I
 OLDACT:UP  16-11-20 14:46 OP:e    STATUS:               ID:20161120033741     3
 OLDACT:UP  16-11-20 14:45 OP:e    STATUS:               ID:20161120033741     3
 OLDACT:UP  16-11-20 14:41 OP:e    STATUS:               ID:20161120033741     3
 OLDACT:UP  16-11-20 14:39 OP:e    STATUS:               ID:20161120033741     3
 OLDACT:REG 16-11-20 13:15 OP:and  STATUS:               ID:20161120033741     3
 2016-11-20-0338-00M.COL___331                                                 6
 STAT SP IPHASW D HRMM SECON CODA AMPLIT PERI AZIMU VELO AIN AR TRES W  DIS CAZ7
 BAR2 EZ EP        343 29.82                             173    0.2110 19.0 200 
 BAR2 EZ ES        343 45.74                             173    0.0710 19.0 200 
 BAR2 EZ I         343 47.26        17.8 0.22            170           19.0 200 
 BRR  HZ EP        343 31.62                             152    0.2710 75.7 301 
 BRR  HN ES        343 49.32                             152    0.5510 75.7 301 
 BRR  HZ I         343 52.16        12.1 0.18            150           75.7 301 
 PAM  EZ EP        343 32.62                             151    0.3210 79.9  36 
 PAM  EN ES        343 49.82                             151   -0.6510 79.9  36 
 PAM  EZ I         343 52.04        21.1 0.56            155           79.9  36 
 PTB  HZ EP        343 36.62                             134   -0.20 9  149 261 
 PTB  HN ES        343 58.08                             134   -0.43 9  149 261 
 PTB  HZ I         344  5.10        15.6 0.32            133            149 261 
 ZAR  HZ EP        343 42.22                             124   -0.23 8  208 293 
 ZAR  HN ES        344  8.51                             124   -0.02 8  208 293 
 ZAR  HZ I         344 16.23         9.4 0.22            124            208 293 
 PTGC HZ EP        343 52.58                             114   -0.07 7  303 159 
 PTGC HN ES   4    344 26.25                             114   -0.44 0  303 159 
 LL6C HZ EP   9    343 36.13                             112   -19.5 0  330 357 
 LL6C HN ES   4    344 11.17                                   -1.36 0  330 357 
 PRA  HZ EP   4    344  1.32                             108   -1.15 0  389 210 
 PRA  HN ES        344 44.19                             108    0.02 6  389 210 
 PRA  HZ I         344 47.24         1.9 0.16            109            389 210 
 ORTC HZ EP   4    344  4.97                             108    2.04 0  393 217 
 SJC  HZ EP   4    344  4.02                             107   -1.49 0  415 327 
 SJC  HN ES   4    344 45.51                             107   -4.07 0  415 327 
 SJC  HZ I         344 49.79         2.4 0.52            108            415 327 
                                                                                
