 2010  320 0630  5.2 L   6.402 -73.591109.4  RSN  4 0.1 1.2LRSN                1
 GAP=129        0.33       2.9     4.3  5.8  0.6491E+01  0.1967E+02  0.6592E+01E
 Epicentro: SANTA HELENA DEL OPON - SANTANDER                                  3
 ACTION:UP  10-08-24 09:55 OP:vdl  STATUS:               ID:20100320063005 L   I
 2010-03-20-0626-44S.COL___098                                                 6
 STAT SP IPHASW D HRMM SECON CODA AMPLIT PERI AZIMU VELO SNR AR TRES W  DIS CAZ7
 BAR2 SZ EP   1    630 21.72                             153     0.2 7   50  65 
 BAR2 SZ ES   1    630 34.25                             153     0.0 7   50  65 
 BRR  HZ EP        630 23.12                             141     0.010   79 350 
 BRR  HZ I         630 31.18         6.2 0.10                            79 350 
 BRR  HN ES   2    630 37.00                             141    -0.1 5   79 350 
 RUS  HZ EP   1    630 23.77                             141    -0.1 7   80 135 
 RUS  HN ES   1    630 38.39                             141     0.0 7   80 135 
 RUS  HZ I         630 39.76         2.1 0.18                            80 135 
 HEL  HZ EP   1    630 37.18                             112    -0.1 6  216 264 
 HEL  HN ES   3    631  2.72                             112     0.3 2  216 264 
 HEL  HZ I         631  4.19         1.9 0.16                           216 264 
                                                                                
