 2010  120 0549 18.6 L   6.829 -73.067144.4  RSN  5 0.4 1.8LRSN                1
 GAP=207        0.81       4.3     8.9  7.3 -0.7996E+01  0.1192E+02  0.6842E+01E
 Epicentro: LOS SANTOS - SANTANDER                                             3
 ACTION:UP  10-08-24 09:45 OP:vdl  STATUS:               ID:20100120054919dL   I
 2010-01-20-0547-18S.COL___096                                                 6
 STAT SP IPHASW D HRMM SECON CODA AMPLIT PERI AZIMU VELO SNR AR TRES W  DIS CAZ7
 BAR2 SZ EP        549 38.04                             168    -0.110   29 206 
 BAR2 SZ ES   1    549 53.13                             168    -0.3 7   29 206 
 GIR2 SZ EP        549 38.10                             167     0.010   31 333 
 GIR2 SZ ES   1    549 53.79                             167     0.5 7   31 333 
 OCA  SZ EP   1    549 47.22                             130     0.6 7  158 350 
 OCA  SZ ES   1    550  7.85                             130    -0.6 7  158 350 
 CHI  HZ EP        549 56.53                             116    -0.2 8  254 197 
 CHI  HN ES   1    550 26.89                             116     0.3 6  254 197 
 CHI  HZ I         550 29.33         3.7 0.34                           254 197 
 HEL  HE ES   1    550 31.83                             114     0.0 6  281 256 
 HEL  HZ I         550 37.28         4.1 0.34                           281 256 
                                                                                
