 2015  220 0106 32.8 L   6.821 -73.177139.9  RSN  8 0.5 1.8LRSN                1
 GAP=132        1.03       3.5     5.1  6.6 -0.4296E+01  0.1279E+02 -0.3269E+00E
 Epicentro: ZAPATOCA - SANTANDER                                               3
 ACTION:UPD 15-04-30 21:27 OP:nd   STATUS:               ID:20150220010632 L   I
 OLDACT:UP  15-02-20 17:38 OP:mh   STATUS:               ID:20150220005748d    3
 OLDACT:DUP 15-02-20 17:38 OP:mh   STATUS:               ID:20150220005748d    3
 2015-02-20-0057-47M.COL___281                                                 6
 STAT SP IPHASW D HRMM SECON CODA AMPLIT PERI AZIMU VELO AIN AR TRES W  DIS CAZ7
 BAR2 EZ ES        1 7  6.71                             169    0.1610 25.3 181 
 BAR2 EZ I         1 7  8.24        16.7 0.18            168           25.3 181 
 PAM  SZ EP        1 6 54.77                             149    0.3610 77.9  43 
 PAM  SN ES        1 7 11.64                             149    0.3610 77.9  43 
 PAM  SZ I         1 7 13.92        13.2 0.58            155           77.9  43 
 RUS  HZ EP        1 6 55.99                             142   -0.1710  103 174 
 RUS  HN ES   1    1 7 13.82                             142   -0.57 7  103 174 
 RUS  HZ I         1 7 15.23         7.5 0.34            144            103 174 
 PTB  HZ EP        1 6 58.97                             131   -0.03 9  145 258 
 PTB  HN ES        1 7 18.97                             131   -0.49 9  145 258 
 PTB  HZ I         1 7 23.91         5.8 0.16            132            145 258 
 SPBC HZ EP        1 7  0.87                             128    0.07 9  163 218 
 SPBC HN ES   1    1 7 22.66                             128   -0.00 7  163 218 
 SPBC HZ I         1 7 31.77        10.5 0.24            129            163 218 
 SML  HZ EP        1 7  7.78                             117   -0.91 8  240 336 
 SML  HN ES        1 7 36.70                             117    0.00 8  240 336 
 SML  HZ I         1 7 39.49         9.7 0.26            119            240 336 
 CHI  HZ EP        1 7 10.17                             116   -0.14 8  250 194 
 CHI  HN ES        1 7 39.21                             116   -0.38 8  250 194 
 CHI  HZ I         1 7 45.13         2.3 0.28            118            250 194 
 GUY2CHZ EP        1 7 16.89                             111    0.94 7  300 234 
 GUY2CHN ES        1 7 50.47                             111    0.84 7  300 234 
 GUY2CHZ I         1 7 59.64         2.6 0.60                           300 234 
                                                                                
