 2015 1120 0421  1.5 L   6.812 -73.090143.3  RSN 13 0.4 1.9LRSN                1
 GAP=123        0.88       2.7     3.2  4.7 -0.2064E+01  0.4165E+01 -0.1047E+01E
 Epicentro: LOS SANTOS - SANTANDER                                             3
 ACTION:UPD 15-12-28 16:12 OP:cam  STATUS:               ID:20151120042101 L   I
 OLDACT:UP  15-11-20 15:16 OP:ak   STATUS:               ID:20151120041741     3
 OLDACT:REG 15-11-20 13:10 OP:ak   STATUS:               ID:20151120041741     3
 2015-11-20-0417-41M.COL___316                                                 6
 STAT SP IPHASW D HRMM SECON CODA AMPLIT PERI AZIMU VELO AIN AR TRES W  DIS CAZ7
 BAR2 EZ EP        421 20.98                             169    0.0610 26.3 203 
 BAR2 EZ ES        421 35.65                             169   -0.4010 26.3 203 
 BAR2 EZ I         421 37.03        13.5 0.24            170           26.3 203 
 PAM  EZ IP     C  421 23.85                             152    0.6610 72.6  36 
 PAM  EN ES        421 40.53                             152    0.4310 72.6  36 
 PAM  EZ I         421 43.14        12.6 0.38            153           72.6  36 
 BRR  HZ EP        421 22.92                             150    0.2310 76.0 295 
 BRR  HN ES        421 39.45                             150    0.2510 76.0 295 
 BRR  HZ I         421 40.16        13.1 0.29            148           76.0 295 
 RUS  HZ EP        421 25.23                             143    0.1210  102 180 
 RUS  HE ES        421 43.06                             143   -0.4510  102 180 
 OCA  HZ EP        421 29.31                             129   -0.29 9  160 351 
 OCA  HN ES        421 51.16                             129   -0.34 9  160 351 
 OCA  HZ I         421 58.67        23.4 0.46            129            160 351 
 SPBC HZ EP        421 30.02                             128   -0.29 9  168 220 
 SPBC HE ES        421 53.01                             128    0.26 9  168 220 
 SPBC HZ I         421 57.01         8.8 0.22            129            168 220 
 ZAR  HZ EP        421 34.18                             121   -0.17 8  209 291 
 ZAR  HN ES        421 59.61                             121   -0.34 8  209 291 
 ZAR  HZ I         422  7.76        10.9 0.52            121            209 291 
 SML  HZ EP   1    421 37.84                             117   -0.33 6  245 334 
 SML  HE ES   1    422  6.85                             117    0.10 6  245 334 
 SML  HZ I         422  9.41        13.2 0.10            117            245 334 
 HEL  HZ EP   1    421 42.82                             114    0.51 6  278 256 
 HEL  HN ES        422 14.63                             114    0.51 7  278 256 
 HEL  HZ I         422 20.23         3.2 0.32            115            278 256 
 SOCV BZ EP        421 43.31                             112   -0.49 7  295  56 
 SOCV BN ES   4    422 14.64                             112   -2.14 0  295  56 
 GUY2CHZ EP   1    421 46.22                             111    0.55 5  307 235 
 GUY2CHE ES        422 20.25                             111    0.15 7  307 235 
 GUY2CHZ I         422 28.43         2.9 0.32                           307 235 
 CBOC HZ EP   2    421 49.57                             109    0.52 3  340 252 
 CBOC HN ES        422 25.26                             109   -0.86 7  340 252 
 MON  HZ EP   4    421 48.90                             108   -2.00 0  358 308 
 MON  HE ES   4    422 27.94                             108   -1.47 0  358 308 
 MON  HZ I         422 28.20         1.9 0.16            109            358 308 
 SJC  HZ EP   4    421 55.52                             105   -1.75 0  412 326 
 SJC  HE ES   4    422 36.81                             105   -3.95 0  412 326 
                                                                                
