 2015  420 0227 19.1 L   6.865 -73.216137.1  RSN 15 0.5 2.0LRSN                1
 GAP=125        1.13       2.9     4.2  5.7 -0.2998E+01  0.1041E+02 -0.1806E+01E
 Epicentro: ZAPATOCA - SANTANDER                                               3
 ACTION:UPD 15-06-03 16:56 OP:cam  STATUS:               ID:20150420022719 L   I
 OLDACT:DUP 15-04-20 17:33 OP:ak   STATUS:               ID:20150420021750d    3
 2015-04-20-0217-49M.COL___268                                                 6
 STAT SP IPHASW D HRMM SECON CODA AMPLIT PERI AZIMU VELO AIN AR TRES W  DIS CAZ7
 BAR2 EZ EP     C  227 37.61                             167   -0.2610 30.4 173 
 BAR2 EZ ES        227 52.18                             167   -0.3210 30.4 173 
 BAR2 EZ I         227 53.63        27.8 0.22            167           30.4 173 
 BRR  HZ IP     C  227 39.40                             155    0.6510 61.0 296 
 BRR  HN ES        227 54.87                             155    0.7910 61.0 296 
 BRR  HZ I         228  0.36        20.6 0.44            150           61.0 296 
 PAM  SZ IP     D  227 40.52                             149    0.1010 77.6  47 
 PAM  SE ES        227 57.33                             149    0.2910 77.6  47 
 PAM  SZ I         227 59.31        28.7 0.42            156           77.6  47 
 RUS  HZ EP        227 42.21                             140   -0.4210  109 172 
 RUS  HN ES        228  0.74                             140   -0.2310  109 172 
 RUS  HZ I         228  1.88        22.3 0.32            144            109 172 
 PTB  HZ EP        227 44.69                             131   -0.14 9  142 255 
 PTB  HN ES        228  4.49                             131   -0.39 9  142 255 
 PTB  HZ I         228  8.27        11.9 0.18            131            142 255 
 OCA  HZ EP        227 46.06                             129    0.05 9  152 356 
 OCA  HN ES        228  6.92                             129   -0.06 9  152 356 
 OCA  HZ I         228 10.98        22.7 0.13            132            152 356 
 SPBC HZ EP        227 46.76                             127   -0.29 9  164 215 
 SPBC HN ES        228  8.47                             127   -0.38 9  164 215 
 SPBC HZ I         228 12.29        14.2 0.21            128            164 215 
 ZAR  HZ EP        227 50.94                             122    0.97 9  194 291 
 ZAR  HE ES   4    228 16.22                             122    2.18 0  194 291 
 ZAR  HZ I         228 21.97        10.0 0.18            122            194 291 
 NOR  HZ EP        227 54.25                             117    0.11 8  233 232 
 NOR  HE ES        228 21.66                             117    0.20 8  233 232 
 NOR  HZ I         228 26.24         8.6 0.15            118            233 232 
 SML  HZ EP        227 54.18                             117   -0.02 8  234 336 
 SML  HN ES        228 20.62                             117   -0.94 8  234 336 
 SML  HZ I         228 24.90        11.8 0.10            119            234 336 
 HEL  HZ EP        227 58.65                             113    0.39 8  266 254 
 HEL  HN ES   1    228 28.91                             113    0.12 6  266 254 
 HEL  HZ I         228 37.65         6.3 0.50            115            266 254 
 GUY2CHZ EP   4    228  2.54                             111    0.45 0  299 233 
 GUY2CHN ES   4    228 36.05                             111    0.43 0  299 233 
 GUY2CHZ I         228 45.97         4.1 0.28                           299 233 
 CBOC HZ EP        228  5.72                             109    0.63 7  329 250 
 CBOC HN ES        228 40.23                             109   -0.72 7  329 250 
 CBOC HZ I         228 54.28         1.8 0.35            110            329 250 
 TOL  SZ EP        228  7.64                             108    0.64 7  343 223 
 TOL  SN ES        228 44.89                             108    0.53 7  343 223 
 TOL  SZ I         228 54.30         3.9 0.41            110            343 223 
 MON  HZ EP        228  5.54                             108   -1.02 7  343 308 
 MON  HN ES        228 43.14                             108   -0.43 7  343 308 
 MON  HZ I         228 44.40         2.0 0.18            109            343 308 
                                                                                
