 2010  920 0306 58.2 L   7.395 -73.083133.9  RSN  7 0.5 2.0LRSN                1
 GAP=150        1.11       6.0    11.1 11.0 -0.2315E+02 -0.2106E+02  0.3641E+02E
 Epicentro: MATANZA - SANTANDER                                                3
 ACTION:UP  11-02-18 11:04 OP:tino STATUS:               ID:20100920030658 L   I
 2010-09-20-0305-16S.COL___121                                                 6
 STAT SP IPHASW D HRMM SECON CODA AMPLIT PERI AZIMU VELO SNR AR TRES W  DIS CAZ7
 BTL  SZ EP        3 7 17.94                             156     0.310   56 201 
 GRA  SZ IP        3 7 18.25                             154     0.410   62  30 
 GRA  SZ I         3 7 19.49        22.5 0.35                            62  30 
 GRA  SZ ES   1    3 7 33.03                             154    -0.1 7   62  30 
 BRR  HZ EP        3 7 18.05                             149    -0.410   76 245 
 BRR  HN ES   1    3 7 34.52                             149     0.3 7   76 245 
 BRR  HZ I         3 7 35.51        40.4 0.09                            76 245 
 OCA  SZ EP        3 7 19.60                             142    -0.510   97 344 
 OCA  SZ ES   1    3 7 36.97                             142    -0.2 7   97 344 
 RUS  HZ EP        3 7 26.98                             126     0.3 9  166 180 
 RUS  HE ES   2    3 7 47.95                             126    -0.9 5  166 180 
 RUS  HZ I         3 7 53.89         2.8 0.42                           166 180 
 CHI  HZ EP        3 7 42.19                             109    -0.5 7  314 193 
 CHI  HN ES   1    3 8 17.46                             109     0.0 5  314 193 
 CHI  HZ I         3 8 28.23         3.8 0.67                           314 193 
 RREF HZ EP   1    3 7 51.07                             106     1.3 5  373 222 
 RREF HZ I         3 8 40.21         6.3 0.29                           373 222 
                                                                                
