 2010 1020 0203 56.5 L   6.834 -73.105140.5  RSN 11 0.3 2.0LRSN                1
 GAP=163        0.69       3.5     6.0  5.3 -0.6203E+01  0.2351E+01  0.1580E+01E
 Epicentro: LOS SANTOS - SANTANDER                                             3
 ACTION:UP  11-02-18 11:10 OP:tino STATUS:               ID:20101020020356 L   I
 2010-10-20-0202-21S.COL___126                                                 6
 STAT SP IPHASW D HRMM SECON CODA AMPLIT PERI AZIMU VELO SNR AR TRES W  DIS CAZ7
 BTL  SZ EP        2 4 15.60                             171     0.110   20 297 
 BAR2 SZ EP        2 4 15.92                             168     0.310   28 198 
 BAR2 SZ ES   1    2 4 30.35                             168    -0.2 7   28 198 
 BAR2 SZ I         2 4 31.96        19.6 0.31                            28 198 
 GIR2 SZ EP   1    2 4 15.43                             168    -0.1 7   29 340 
 BRR  HZ IP     D  2 4 17.23                             151     0.010   74 294 
 BRR  HN ES   1    2 4 33.47                             151     0.0 7   74 294 
 BRR  HZ I         2 4 35.11        26.0 0.09                            74 294 
 RUS  HZ EP   1    2 4 19.78                             142    -0.3 7  104 179 
 RUS  HN ES   2    2 4 38.45                             142     0.1 5  104 179 
 RUS  HZ I         2 4 40.33         9.8 0.30                           104 179 
 GRA  SZ IP        2 4 20.99                             137     0.110  121  16 
 GRA  SZ I         2 4 21.66        21.8 0.18                           121  16 
 OCA  SZ EP   1    2 4 23.64                             129    -0.5 7  157 351 
 OCA  SZ I         2 4 50.16        13.7 0.11                           157 351 
 NOR  SZ EP   1    2 4 32.99                             117     0.4 6  241 234 
 NOR  SN ES   2    2 4 59.88                             117    -0.9 4  241 234 
 NOR  SZ I         2 5  6.92         1.3 0.26                           241 234 
 CHI  HZ EP   1    2 4 34.40                             115    -0.1 6  253 196 
 CHI  HN ES   2    2 5  4.45                             115     0.4 4  253 196 
 CHI  HZ I         2 5 11.51         7.0 0.35                           253 196 
 HEL  HZ EP   1    2 4 37.69                             113     0.6 6  277 255 
 HEL  HZ I         2 5 15.06         7.4 0.81                           277 255 
 PRA  HZ EP   1    2 4 49.92                             105    -0.6 4  397 210 
 PRA  HN ES   1    2 5 32.49                             105    -0.1 4  397 210 
 PRA  HZ I         2 5 40.78        14.9 0.26                           397 210 
                                                                                
