 2017  620 0822 38.6 L   6.774 -73.218149.4  RSN  9 0.4 1.9LRSN                1
 GAP=213        0.90       4.2     7.4  7.2  0.1059E+02 -0.1532E+02  0.3527E+01E
 Epicentro: ZAPATOCA - SANTANDER                                               3
 ACTION:UPD 17-09-14 16:53 OP:jn   STATUS:               ID:20170620082238 L   I
 OLDACT:UP  17-06-30 07:30 OP:dnl  STATUS:               ID:20170620082238 L   3
 OLDACT:REG 17-06-20 15:22 OP:lv   STATUS:               ID:20170620081759     3
 2017-06-20-0817-59S.COL___273                                                 6
 STAT SP IPHASW D HRMM SECON CODA AMPLIT PERI AZIMU VELO AIN AR TRES W  DIS CAZ7
 BRR  HZ IP     C  822 59.59                             155   -0.2610 65.8 304 
 BRR  HN ES        823 16.84                             155    0.4110 65.8 304 
 PTB  HZ EP        823  4.71                             135   -0.41 9  139 259 
 PTB  HN ES        823 25.51                             135   -0.29 9  139 259 
 SPBC HZ EP        823  7.07                             131    0.37 9  156 217 
 SPBC HN ES        823 28.95                             131    0.33 9  156 217 
 SPBC HZ I         823 33.54         8.4 0.09            128            156 217 
 ZAR  HZ EP        823 10.49                             124   -0.15 9  198 294 
 ZAR  HN ES        823 35.65                             124    0.01 9  198 294 
 ZAR  HZ I         823 41.12         9.0 0.21            122            198 294 
 NOR  HZ EP        823 13.97                             120    0.30 8  227 234 
 CHI  HZ EP        823 15.96                             118   -0.02 8  244 194 
 CHI  HN ES        823 44.59                             118   -0.55 8  244 194 
 CHI  HZ I         823 47.49         4.5 0.12            117            244 194 
 ROSC BZ EP   4    823 18.77                             118    2.56 0  246 210 
 ROSC BN ES   4    823 50.48                             118    4.94 0  246 210 
 HEL  HZ EP   4    823 19.67                             116    1.61 0  264 256 
 HEL  HN ES   4    823 47.97                             116   -0.88 0  264 256 
 URE  HZ EP   9    823 16.95                             115   -2.19 0  278 293 
 URE  HN ES        823 48.04                                   -0.54 7  278 293 
 URE  HZ I         823 53.70         3.2 0.06            114            278 293 
 GUY2CHZ EP   2    823 22.50                             114    1.05 4  293 234 
 GUY2CHN ES   4    823 58.31                             114    3.43 0  293 234 
 GUY2CHZ I         824  4.06         4.1 0.15                           293 234 
 PTGC HZ EP   9    823 20.99                             112   -1.66 0  309 157 
 PTGC HN ES        823 54.63                                   -0.72 7  309 157 
                                                                                
