 2013 1020 0127 13.7 L   6.815 -73.129149.6  RSN 18 0.6 3.0LRSN                1
 GAP= 67        1.28       3.2     3.9  5.6 -0.2101E+01  0.3981E+01  0.2412E+01E
 Epicentro: LOS SANTOS - SANTANDER                                             3
 ACTION:UPD 13-11-25 09:22 OP:ep   STATUS:               ID:20131020012713 L   I
 OLDACT:REG 13-10-20 10:41 OP:cam  STATUS:               ID:20131020011840     3
 2013-10-20-0118-40M.COL___215                                                 6
 STAT SP IPHASW D HRMM SECON CODA AMPLIT PERI AZIMU VELO AIN AR TRES W  DIS CAZ7
 BAR2 SZ EP        127 33.82                             170   -0.0110 25.3 193 
 BAR2 SZ ES        127 49.14                             170   -0.3910 25.3 193 
 BAR2 SZ I         127 51.41       395.2 0.34            171           25.3 193 
 BRR  HZ EP     D  127 35.61                             153    0.3010 72.1 297 
 BRR  HN ES        127 53.04                             153    0.8710 72.1 297 
 BRR  HZ I         127 58.34        97.6 0.12            153           72.1 297 
 PAM  SZ IP     D  127 36.52                             152    0.3410 75.0  39 
 PAM  SN ES        127 53.92                             152    0.2010 75.0  39 
 PAM  SZ I         127 56.01       133.4 0.46            151           75.0  39 
 RUS  HZ EP        127 37.58                             144   -0.3510  102 177 
 RUS  HN ES        127 56.28                             144   -0.5610  102 177 
 RUS  HZ I         127 58.01        95.1 0.40            144            102 177 
 PTB  HZ EP        127 40.31                             132   -0.86 9  150 258 
 PTB  HN ES        128  1.88                             132   -0.72 9  150 258 
 PTB  HZ I         128  7.41       140.4 0.46            133            150 258 
 TAM  HZ IP     D  127 41.94                             132    0.38 9  154 106 
 TAM  HZ I         128  2.78        68.9 0.38            131            154 106 
 TAM  HN ES        128  3.73                             132    0.44 9  154 106 
 OCA  HZ EP        127 42.17                             131   -0.01 9  159 352 
 OCA  HN ES        128  4.67                             131    0.27 9  159 352 
 OCA  HZ I         128  7.98        92.2 0.24            130            159 352 
 SPBC HZ EP        127 42.58                             129   -0.14 9  166 219 
 SPBC HN ES        128  4.99                             129   -0.36 9  166 219 
 SPBC HZ I         128 10.18       159.7 0.16            130            166 219 
 YOP  SZ EP   4    127 44.24                             127    0.16 0  180 154 
 ZAR  HZ EP   4    127 46.45                             123   -0.06 0  205 292 
 NOR  HZ EP        127 49.62                             119   -0.29 8  237 234 
 NOR  HN ES        128 18.48                             119    0.32 8  237 234 
 NOR  HZ I         128 21.80       123.0 0.20            119            237 234 
 SML  HZ EP        127 50.01                             118   -0.46 8  243 335 
 SML  HN ES        128 18.52                             118   -0.63 8  243 335 
 SML  HZ I         128 28.12        94.5 0.10            118            243 335 
 CHI  HZ EP        127 51.68                             118   -0.15 8  251 195 
 GUY2CHZ EP        127 58.68                             113    0.92 7  304 235 
 GUY2CHN ES   1    128 33.47                             113    1.35 5  304 235 
 GUY2CHZ I         128 40.45        55.3 0.26                           304 235 
 VIL  SZ EP   4    127 56.45                             113   -1.06 0  305 192 
 PTGC HZ EP        127 56.60                             112   -1.22 7  310 159 
 RREF HZ EP   4    128  0.91                             111    0.62 0  324 229 
 CBOC HZ EP        128  1.46                             110    0.43 7  336 252 
 COD  HZ IPg       128  1.54                             110   -0.52 6  347 354 
 SDV  BZ EP   4    128  3.13                             109   -0.47 0  358  50 
 ANIL HZ EP        128  5.00                             109    1.07 6  360 225 
 PRA  HZ EP        128  7.09                             107   -0.53 6  394 210 
 PRA  HN ES        128 50.43                             107    0.75 6  394 210 
 PRA  HZ I         128 54.96        48.8 0.18            107            394 210 
 ORTC HZ EP        128  8.66                             107    0.63 6  398 216 
 ORTC HN ES        128 51.27                             107    0.86 6  398 216 
 ORTC HZ I         128 57.49        43.6 0.42            107            398 216 
 PAL  HZ EP   4    128  9.57                             106    0.30 0  408 239 
 SJC  HZ EP   4    128  7.57                             106   -1.78 0  409 327 
                                                                                
