 2016  820 0528 15.8 L   6.808 -73.132147.2  RSN 19 0.5 2.6LRSN                1
 GAP=102        1.06       3.2     2.8  4.6 -0.6098E+00  0.1749E+01  0.1926E+01E
 Epicentro: LOS SANTOS - SANTANDER                                             3
 ACTION:UPD 16-10-29 15:37 OP:rebc STATUS:               ID:20160820052815 L   I
 OLDACT:UP  16-08-20 18:13 OP:ar   STATUS:               ID:20160820051745d    3
 OLDACT:DUP 16-08-20 18:07 OP:ar   STATUS:               ID:20160820051745d    3
 2016-08-20-0517-44M.COL___349                                                 6
 STAT SP IPHASW D HRMM SECON CODA AMPLIT PERI AZIMU VELO AIN AR TRES W  DIS CAZ7
 BAR2 EZ IP     D  528 35.62                             170   -0.0510 24.5 193 
 BAR2 EZ ES        528 50.58                             170   -0.5510 24.5 193 
 BAR2 EZ I         528 52.23       124.7 0.20                          24.5 193 
 BRR  HZ IP     C  528 37.43                             152    0.2310 72.2 297 
 BRR  HN ES        528 54.35                             152    0.5010 72.2 297 
 BRR  HZ I         528 58.50        67.3 0.26                          72.2 297 
 PAM  EZ IP     C  528 38.40                             152    0.2910 75.7  39 
 PAM  EN ES        528 55.65                             152    0.1710 75.7  39 
 PAM  EZ I         528 58.86        43.6 0.52                          75.7  39 
 RUS  HZ EP        528 39.58                             144   -0.2110  101 177 
 RUS  HN ES        528 58.32                             144   -0.1410  101 177 
 RUS  HZ I         528 59.39        28.8 0.27                           101 177 
 PTB  HZ EP        528 42.20                             132   -0.88 9  149 259 
 PTB  HE ES        529  4.02                             132   -0.30 9  149 259 
 PTB  HZ I         529 10.02        40.0 0.34                           149 259 
 TAM  HZ EP        528 43.97                             131    0.46 9  154 105 
 TAM  HE ES        529  5.39                             131    0.29 9  154 105 
 TAM  HZ I         529  5.75        23.6 0.66                           154 105 
 SPBC HZ EP        528 44.49                             129   -0.12 9  165 219 
 SPBC HN ES        529  7.45                             129    0.41 9  165 219 
 SPBC HZ I         529 18.96        46.4 0.22                           165 219 
 ZAR  HZ EP        528 48.55                             123    0.05 9  205 292 
 ZAR  HN ES        529 13.51                             123   -0.45 9  205 292 
 ZAR  HZ I         529 18.56        52.5 0.32                           205 292 
 NOR  HZ EP        528 51.80                             119   -0.04 8  236 235 
 NOR  HE ES        529 20.20                             119    0.28 8  236 235 
 NOR  HZ I         529 26.44        24.4 0.30                           236 235 
 CHI  HZ EP        528 53.81                             117    0.06 8  250 195 
 CHI  HN ES        529 23.09                             117   -0.24 8  250 195 
 CHI  HZ I         529 26.60        26.1 0.70                           250 195 
 ROSC BZ EP   9    528 55.92                             117    1.71 0  254 211 
 ROSC BN ES        529 26.26                             116    0.42 8  254 211 
 ROSC BZ I         529 30.05        76.9 0.40                           254 211 
 HEL  HZ EP        528 57.17                             115    0.85 8  274 256 
 HEL  HN ES        529 28.08                             115    0.19 8  274 256 
 HEL  HZ I         529 33.49        20.6 0.30                           274 256 
 URE  HZ EP        528 56.21                             114   -0.90 7  285 292 
 URE  HN ES   4    529 26.06                             114   -3.23 0  285 292 
 URE  HZ I         529 31.27        20.1 0.14                           285 292 
 SOCV BZ EP        528 58.36                             113   -0.39 7  299  57 
 GUY2CHZ EP        529  0.55                             112    0.83 7  303 235 
 GUY2CHE ES   4    529 37.89                             112    3.95 0  303 235 
 GUY2CHZ I         529 41.78        29.4 0.36                           303 235 
 VIL  EZ EP        528 59.35                             112   -0.11 7  305 192 
 VIL  EN ES        529 33.54                             112    0.07 7  305 192 
 VIL  EZ I         529 43.31        37.2 0.40                           305 192 
 PTGC HZ EP        528 58.74                             112   -1.05 7  309 159 
 PTGC HN ES   4    529 32.39                             112   -1.68 0  309 159 
 PTGC HZ I         529 34.99        12.8 0.42                           309 159 
 ELA  HZ EP   4    529  4.42                             110    1.47 0  331 230 
 ELA  HN ES   4    529 41.13                             110    1.43 0  331 230 
 ELA  HZ I         529 48.30        21.2 0.56                           331 230 
 CBOC HZ EP        529  3.82                             110    0.80 7  335 252 
 CBOC HN ES   4    529 41.82                             110    2.01 0  335 252 
 CBOC HZ I         529 50.57         5.3 0.34                           335 252 
                                                                                
