 2011 1020 0037  6.7 L   6.791 -73.094147.3  RSN 10 0.3 2.2LRSN                1
 GAP=144        0.46       2.6     3.4  4.7 -0.1582E+01  0.5550E+01  0.5009E+00E
 Epicentro: LOS SANTOS - SANTANDER                                             3
 ACTION:UPD 12-07-13 16:04 OP:ep   STATUS:               ID:20111020003706 L   I
 2011-10-20-0035-35S.COL___167                                                 6
 STAT SP IPHASW D HRMM SECON CODA AMPLIT PERI AZIMU VELO AIN AR TRES W  DIS CAZ7
 BAR2 SZ IP        037 26.49                             170   -0.0510 24.0 204 
 BAR2 SZ I         037 26.86        42.6 0.15                          24.0 204 
 BAR2 SZ ES   2    037 42.02                             170    0.01 5 24.0 204 
 PAM  SZ EP   1    037 29.25                             152    0.31 7 74.7  36 
 PAM  SN ES   2    037 46.39                             152    0.12 5 74.7  36 
 BRR  HZ IP     D  037 28.34                             151    0.0010 76.7 297 
 BRR  HZ I         037 28.75        40.6 0.10                          76.7 297 
 BRR  HN ES   2    037 45.48                             151    0.27 5 76.7 297 
 RUS  HZ EP   1    037 30.42                             144   -0.11 7 99.3 179 
 RUS  HN ES   2    037 48.57                             144   -0.53 5 99.3 179 
 RUS  HZ I         037 50.43         9.7 0.43                          99.3 179 
 OCA  SZ EP   1    037 35.46                             130    0.15 7  162 351 
 OCA  SZ ES   2    037 57.52                             130   -0.09 5  162 351 
 OCA  SZ I         038  1.14        10.6 0.13                           162 351 
 ZAR  HZ EP   1    037 39.14                             122   -0.70 6  210 292 
 ZAR  HN ES   2    038  5.31                             122   -0.37 4  210 292 
 ZAR  HZ I         038 10.58        28.2 0.42                           210 292 
 NOR  SZ EP   2    037 42.95                             118   -0.02 4  239 235 
 NOR  SN ES   2    038 11.69                             118    0.44 4  239 235 
 HEL  HZ EP   2    037 47.69                             115    0.10 4  277 256 
 HEL  HN ES   2    038 19.98                             115    0.51 4  277 256 
 HEL  HZ I         038 25.80         9.5 0.72                           277 256 
 RREF HZ EP   2    037 53.79                             111    0.45 3  325 230 
 RREF HE ES   2    038 29.98                             111    0.27 3  325 230 
 RREF HZ I         038 35.01         7.7 0.33                           325 230 
 PRA  HZ EP   2    038  0.81                             107    0.29 3  394 210 
 PRA  HN ES   2    038 42.61                             107    0.13 3  394 210 
                                                                                
