 2010  620 0708 25.8 L   6.777 -73.102153.7  RSN  4 0.2 1.2LRSN                1
 GAP=161        0.55       6.6    11.9  7.4  0.5282E+02 -0.4465E+02 -0.2150E+02E
 Epicentro: LOS SANTOS - SANTANDER                                             3
 ACTION:UP  10-08-24 10:11 OP:vdl  STATUS:               ID:20100620070825 L   I
 2010-06-20-0704-59S.COL___118                                                 6
 STAT SP IPHASW D HRMM SECON CODA AMPLIT PERI AZIMU VELO SNR AR TRES W  DIS CAZ7
 BAR2 SZ EP        7 8 46.18                             171    -0.210   22 204 
 BAR2 SZ ES   1    7 9  2.10                             171    -0.3 7   22 204 
 BRR  HZ EP   1    7 8 48.21                             152     0.1 7   77 299 
 BRR  HN ES   1    7 9  5.57                             152     0.1 7   77 299 
 BRR  HZ I         7 9  8.66         5.0 0.03                            77 299 
 RUS  HZ EP   1    7 8 50.01                             146    -0.1 7   98 179 
 RUS  HN ES   1    7 9  9.46                             146     0.3 7   98 179 
 RUS  HZ I         7 9 10.02         1.5 0.23                            98 179 
 BRI  SZ EP   2    7 8 50.90                             143     0.4 5  109  18 
                                                                                
