 2012 1220 0148 47.4 L   6.783 -73.147149.6  RSN 15 0.3 2.7LRSN                1
 GAP= 72        0.66       2.1     2.3  3.5  0.4349E+00  0.1682E+01  0.9812E+00E
 Epicentro: LOS SANTOS - SANTANDER                                             3
 ACTION:UPD 13-01-04 14:29 OP:ep   STATUS:               ID:20121220014847 L   I
 2012-12-20-0144-50M.COL___222                                                 6
 STAT SP IPHASW D HRMM SECON CODA AMPLIT PERI AZIMU VELO AIN AR TRES W  DIS CAZ7
 BAR2 SZ IP        149  7.50                             171    0.0310 21.5 190 
 BAR2 SZ ES        149 22.81                             171   -0.3010 21.5 190 
 BAR2 SZ I         149 25.40       140.3 0.27                          21.5 190 
 GIR2 SZ EP        149  7.56                             167   -0.0310 33.1 351 
 BRR  HZ IP     C  149  9.50                             153    0.4810 72.0 300 
 BRR  HN ES        149 26.43                             153    0.5510 72.0 300 
 BRR  HZ I         149 30.87        56.3 0.16                          72.0 300 
 PAM  SZ EP        149 10.33                             151    0.2010 78.9  39 
 PAM  SN ES        149 27.55                             151   -0.3010 78.9  39 
 PAM  SZ I         149 29.84        66.2 0.24                          78.9  39 
 RUS  HZ EP     D  149 11.37                             145   -0.0410 98.7 176 
 RUS  HE ES        149 30.04                             145   -0.0910 98.7 176 
 RUS  HE I         149 31.19        91.5 0.55                          98.7 176 
 PTB  HZ EP        149 14.23                             133   -0.42 9  147 260 
 PTB  HE ES   1    149 35.62                             133   -0.28 7  147 260 
 PTB  HZ I         149 41.42        79.1 0.29                           147 260 
 TAM  HZ EP     D  149 15.67                             131    0.30 9  155 104 
 TAM  HZ I         149 36.55        37.5 0.28                           155 104 
 TAM  HN ES        149 37.23                             131    0.06 9  155 104 
 OCA  HZ EP   1    149 15.91                             130   -0.29 7  162 353 
 OCA  HE ES   1    149 38.35                             130   -0.30 7  162 353 
 OCA  HZ I         149 43.53        56.6 0.19                           162 353 
 ZAR  HZ EP   1    149 20.14                             123   -0.03 6  205 293 
 ZAR  HN ES   1    149 46.12                             123    0.40 6  205 293 
 ZAR  HZ I         149 51.98        55.4 0.17                           205 293 
 SML  HZ EP   1    149 23.83                             118   -0.61 6  245 336 
 SML  HE ES   1    149 53.27                             118   -0.04 6  245 336 
 CHI  HZ EP        149 25.39                             118    0.26 8  247 195 
 CHI  HN ES   1    149 54.60                             118    0.05 6  247 195 
 ROSC BZ EP   4    149 27.03                             118    1.46 0  251 211 
 ROSC BN ES   4    149 56.99                             118    1.67 0  251 211 
 HEL  HZ EP   1    149 27.62                             116   -0.14 6  271 256 
 HEL  HZ I         150  6.36        20.5 0.12                           271 256 
 RREF HZ EP   1    149 33.52                             112   -0.06 5  320 230 
 MON  HZ EP   4    149 34.65                             109   -2.04 0  355 309 
 MON  HN ES   4    150 12.99                             109   -2.13 0  355 309 
 MON  HZ I         150 15.96        13.6 0.56                           355 309 
 ANIL HZ EP   4    149 39.58                             109    2.38 0  356 225 
 PRA  HZ EP        149 40.91                             107    0.04 6  390 210 
 PRA  HN ES   1    150 22.20                             107   -0.37 4  390 210 
                                                                                
