 2016  620 0758 59.8 L   6.816 -73.148147.2  RSN 21 0.4 2.2LRSN                1
 GAP=102        1.06       2.7     3.0  4.6 -0.1283E+01  0.2570E+01  0.1544E+01E
 Epicentro: LOS SANTOS - SANTANDER                                             3
 ACTION:UPD 16-07-21 22:20 OP:rebc STATUS:               ID:20160620075859 L   I
 OLDACT:REG 16-06-20 13:39 OP:ar   STATUS:               ID:20160620075741     3
 2016-06-20-0757-41M.COL___343                                                 6
 STAT SP IPHASW D HRMM SECON CODA AMPLIT PERI AZIMU VELO AIN AR TRES W  DIS CAZ7
 BAR2 EZ EP        759 19.88                             170    0.2910 25.0 189 
 BAR2 EZ ES        759 34.59                             170   -0.4610 25.0 189 
 BAR2 EZ I         759 36.06        32.4 0.22                          25.0 189 
 BRR  HZ IP     C  759 21.64                             153    0.6510 70.2 297 
 BRR  HE ES        759 38.26                             153    0.7010 70.2 297 
 BRR  HZ I         759 42.86        18.2 0.64                          70.2 297 
 PAM  EZ EP        759 22.53                             152    0.4810 76.2  41 
 PAM  EN ES        759 39.60                             152    0.1710 76.2  41 
 PAM  EZ I         759 42.00        38.6 0.48                          76.2  41 
 RUS  HZ EP        759 24.06                             144    0.2910  102 176 
 RUS  HN ES        759 42.10                             144   -0.4010  102 176 
 RUS  HZ I         759 43.70        19.3 0.32                           102 176 
 PTB  HZ EP        759 26.67                             132   -0.17 9  148 258 
 PTB  HN ES        759 47.43                             132   -0.55 9  148 258 
 PTB  HZ I         759 50.15        10.1 0.07                           148 258 
 OCA  HZ EP        759 27.64                             130   -0.37 9  158 353 
 OCA  HN ES        759 49.72                             130   -0.32 9  158 353 
 OCA  HZ I         759 53.14        22.3 0.18                           158 353 
 SPBC HZ EP        759 28.56                             129    0.09 9  164 219 
 SPBC HN ES        759 50.54                             129   -0.34 9  164 219 
 SPBC HZ I         759 52.55        23.1 0.10                           164 219 
 ZAR  HZ EP        759 32.57                             123    0.37 9  203 292 
 ZAR  HN ES        759 57.67                             123    0.16 9  203 292 
 ZAR  HZ I         8 0  0.20         8.6 0.10                           203 292 
 NOR  HZ EP        759 36.04                             119    0.39 8  236 234 
 NOR  HN ES        8 0  3.18                             119   -0.47 8  236 234 
 NOR  HZ I         8 0  9.48        13.4 0.16                           236 234 
 CHI  HZ EP        759 37.96                             117    0.25 8  250 195 
 CHI  HN ES        8 0  7.43                             117    0.12 8  250 195 
 CHI  HZ I         8 0 10.81         8.1 0.58                           250 195 
 ROSC BZ EP   9    759 39.58                             117    1.48 0  254 211 
 ROSC BN ES        8 0 10.61                                    1.12 8  254 211 
 ROSC BZ I         8 0 13.45        12.2 0.35                           254 211 
 HEL  HZ EP   4    759 37.12                             115   -2.94 0  272 255 
 HEL  HN ES        8 0 11.84                             115    0.34 8  272 255 
 HEL  HZ I         8 0 18.63         7.5 0.36                           272 255 
 URE  HE ES        8 0 12.18                             114   -0.62 7  283 292 
 SOCV BZ EP        759 42.00                             113   -0.78 7  301  57 
 SOCV BN ES   4    8 0 14.27                             113   -2.07 0  301  57 
 GUY2CHZ EP   9    759 45.49                             113    1.97 0  302 234 
 GUY2CHN ES        8 0 20.18                                    0.55 7  302 234 
 GUY2CHZ I         8 0 25.95         8.5 0.28                           302 234 
 PTGC HZ EP        759 42.90                             112   -0.97 7  310 159 
 PTGC HN ES   4    8 0 16.04                             112   -2.24 0  310 159 
 PTGC HZ I         8 0 21.24        10.8 0.30                           310 159 
 CBOC HZ EP        759 46.91                             110    0.15 7  334 252 
 CBOC HN ES        8 0 22.79                             110   -0.64 7  334 252 
 DBB  SZ EP        759 46.85                             110   -0.39 7  339 274 
 DBB  SZ ES        8 0 24.27                             110   -0.02 7  339 274 
 DBB  SZ I         8 0 27.44        19.2 0.74                           339 274 
 ANIL HN ES   4    8 0 30.29                             109    1.57 0  358 224 
 PRA  HZ EP   2    759 53.88                             107    0.39 3  393 209 
 PRA  HN ES        8 0 36.16                             107    0.76 6  393 209 
 PRA  HZ I         8 0 41.83         5.2 0.22                           393 209 
 ORTC HZ EP        759 54.04                             107    0.17 6  397 216 
 ORTC HN ES        8 0 36.29                             107    0.21 6  397 216 
 ORTC HZ I         8 0 41.15         4.3 0.32                           397 216 
 PAL  HZ EP        759 55.57                             106    0.53 6  406 239 
 PAL  HN ES        8 0 38.03                             106   -0.14 6  406 239 
 PAL  HZ I         8 0 41.43         2.4 0.22                           406 239 
                                                                                
