 2015  820 0803 26.8 L   6.525 -73.491116.8  RSN  9 0.4 1.5LRSN                1
 GAP= 72        0.85       2.7     3.7  6.1 -0.5258E+00  0.6687E+01 -0.3674E+01E
 Epicentro: EL CARMEN - SANTANDER                                              3
 ACTION:UPD 15-09-15 23:03 OP:cam  STATUS:               ID:20150820080326 L   I
 OLDACT:REG 15-08-20 13:14 OP:spq  STATUS:               ID:20150820075743     3
 2015-08-20-0757-43M.COL___334                                                 6
 STAT SP IPHASW D HRMM SECON CODA AMPLIT PERI AZIMU VELO AIN AR TRES W  DIS CAZ7
 BAR2 EZ EP     D  8 3 43.52                             162    0.2110 34.9  78 
 BAR2 EZ ES   1    8 3 56.42                             162    0.22 7 34.9  78 
 BAR2 EZ I         8 3 57.05         7.5 0.24            167           34.9  78 
 BRR  HZ EP        8 3 44.36                             147   -0.3810 68.9 339 
 BRR  HE ES        8 3 58.33                             147   -0.4110 68.9 339 
 BRR  HZ I         8 4  6.77         5.0 0.12            147           68.9 339 
 RUS  HZ EP        8 3 46.72                             142    0.2710 83.2 147 
 RUS  HE ES   1    8 4  2.15                             142    0.37 7 83.2 147 
 RUS  HZ I         8 4  3.57         2.3 0.30            151           83.2 147 
 SPBC HZ EP        8 3 48.38                             132   -0.2410  116 214 
 SPBC HN ES        8 4  5.32                             132   -0.3210  116 214 
 SPBC HZ I         8 4  7.49         6.1 0.10            137            116 214 
 ZAR  HZ EP        8 3 55.90                             118    0.44 9  185 305 
 ZAR  HE ES        8 4 18.60                             118    0.77 9  185 305 
 ZAR  HZ I         8 4 19.99         5.7 0.42            120            185 305 
 NOR  HN ES   1    8 4 18.07                             118   -0.02 7  186 235 
 NOR  HZ I         8 4 20.71         2.9 0.46            122            186 235 
 OCA  HZ EP   1    8 3 56.40                             117    0.17 7  191   6 
 OCA  HE ES   1    8 4 19.09                             117   -0.11 7  191   6 
 OCA  HZ I         8 4 26.17        11.5 0.38            120            191   6 
 HEL  HZ EP   4    8 4  2.57                             112    1.85 0  228 261 
 HEL  HN ES   1    8 4 27.06                             112   -0.12 6  228 261 
 HEL  HZ I         8 4 33.18         2.3 0.24            116            228 261 
 SML  HZ EP        8 4  3.20                             109   -0.61 8  260 346 
 SML  HE ES   1    8 4 32.64                             109   -0.05 6  260 346 
 SML  HZ I         8 4 37.39         5.4 0.26            112            260 346 
                                                                                
