 2017  420 0411 35.2 L   6.803 -73.176143.7  RSN 12 0.4 1.8LRSN                1
 GAP=109        0.97       3.3     3.5  5.1  0.1398E+00  0.3887E+01  0.3624E+01E
 Epicentro: LOS SANTOS - SANTANDER                                             3
 ACTION:UPD 17-05-30 21:14 OP:jn   STATUS:               ID:20170420041135 L   I
 OLDACT:UP  17-04-20 15:15 OP:cog  STATUS:               ID:20170420040742     3
 OLDACT:REG 17-04-20 13:11 OP:cog  STATUS:               ID:20170420040742     3
 2017-04-20-0408-00M.COL___365                                                 6
 STAT SP IPHASW D HRMM SECON CODA AMPLIT PERI AZIMU VELO AIN AR TRES W  DIS CAZ7
 BAR2 EZ EP        411 54.44                             171   -0.1210 23.3 182 
 BAR2 EZ ES        412  9.76                             171    0.0810 23.3 182 
 BAR2 EZ I         412 12.14        23.8 0.24            169           23.3 182 
 BRR  HZ EP        411 56.37                             153    0.4410 68.1 300 
 BRR  HE ES        412 12.69                             153    0.5710 68.1 300 
 BRR  HZ I         412 17.26        20.2 0.26            146           68.1 300 
 PAM  EZ EP        411 57.43                             150    0.1410 79.3  42 
 PAM  EN ES        412 14.40                             150   -0.1410 79.3  42 
 PAM  EZ I         412 16.85         7.3 0.26            148           79.3  42 
 RUS  HZ EP        411 58.49                             143   -0.2910  101 174 
 RUS  HN ES        412 16.47                             143   -0.7110  101 174 
 RUS  HZ I         412 18.55         6.7 0.28            140            101 174 
 PTB  HZ EP        412  1.31                             132   -0.38 9  145 258 
 PTB  HE ES        412 21.68                             132   -0.68 9  145 258 
 PTB  HZ I         412 24.83         8.4 0.14            126            145 258 
 SPBC HZ EP        412  3.45                             129    0.10 9  161 218 
 SPBC HN ES        412 25.17                             129   -0.15 9  161 218 
 SPBC HZ I         412 29.67        13.1 0.12            124            161 218 
 YPLC HZ EP        412  4.90                             126   -0.12 9  179 150 
 YPLC HE ES        412 28.79                             126    0.50 9  179 150 
 YPLC HZ I         412 29.98         6.3 0.24            123            179 150 
 ZAR  HZ EP        412  7.59                             122    0.43 9  201 292 
 ZAR  HE ES   3    412 31.24                             122   -0.86 2  201 292 
 NOR  HZ EP        412 10.40                             118   -0.12 8  232 234 
 NOR  HN ES        412 38.79                             118    0.71 8  232 234 
 NOR  HZ I         412 41.28         4.6 0.26            114            232 234 
 CHI  HZ EP        412 12.79                             117    0.08 8  248 194 
 CHI  HN ES        412 42.29                             117    0.31 8  248 194 
 CHI  HZ I         412 45.46         4.8 0.66            113            248 194 
 ROSC BZ EP   4    412 14.68                             116    1.65 0  251 210 
 ROSC BN ES   3    412 43.70                             116    1.14 2  251 210 
 ROSC BZ I         412 49.17        11.0 0.45            112            251 210 
 CBOC HZ EP        412 21.07                             110   -0.59 7  331 252 
 CBOC HZ I         413  7.36         1.2 0.44            106            331 252 
                                                                                
