 2014  820 0618  7.8 L   6.751 -73.185142.0  RSN 11 0.5 1.9LRSN                1
 GAP= 71        1.36       3.8     4.7  7.3 -0.2430E+01  0.4130E+01 -0.2016E+01E
 Epicentro: VILLANUEVA - SANTANDER                                             3
 ACTION:UPD 14-09-15 21:51 OP:nd   STATUS:               ID:20140820061807 L   I
 OLDACT:DUP 14-08-20 17:07 OP:stll STATUS:               ID:20140820060821d    3
 2014-08-20-0608-20M.COL___254                                                 6
 STAT SP IPHASW D HRMM SECON CODA AMPLIT PERI AZIMU VELO AIN AR TRES W  DIS CAZ7
 BAR2 SZ EP        618 27.11                             173    0.2710 17.6 179 
 BAR2 SZ ES        618 41.46                             173   -0.2510 17.6 179 
 BAR2 SZ I         618 43.30        16.4 0.20            172           17.6 179 
 BRR  HZ EP        618 29.17                             152    0.7110 70.3 304 
 BRR  HN ES        618 45.55                             152    0.9610 70.3 304 
 BRR  HZ I         618 47.14        13.0 0.18            149           70.3 304 
 PAM  SZ EP        618 30.16                             148    0.1410 84.4  39 
 PAM  SZ I         618 30.57        16.1 0.26            150           84.4  39 
 PAM  SN ES        618 47.60                             148    0.2210 84.4  39 
 RUS  HZ EP        618 30.95                             144    0.1610 95.6 173 
 RUS  HZ I         618 31.98         5.8 0.18            146           95.6 173 
 RUS  HN ES        618 48.65                             144   -0.1010 95.6 173 
 PTB  HZ EP        618 33.96                             132    0.01 9  142 261 
 PTB  HN ES        618 53.61                             132   -0.76 9  142 261 
 PTB  HZ I         619  0.80         7.2 0.16            130            142 261 
 SPBC HZ EP        618 35.73                             130    0.41 9  156 219 
 SPBC HN ES        618 55.46                             130   -1.34 9  156 219 
 SPBC HZ I         619  0.14         8.8 0.22            129            156 219 
 TAM  HZ EP        618 35.24                             129   -0.19 9  158 103 
 TAM  HZ I         618 35.54        18.9 0.18            132            158 103 
 OCA  HZ EP        618 35.55                             128   -0.71 9  165 355 
 OCA  HE ES        618 57.99                             128   -0.49 9  165 355 
 OCA  HZ I         619  0.95         7.2 0.54            128            165 355 
 ZAR  HZ EP   3    618 40.18                             122    0.41 2  202 294 
 ZAR  HE ES        619  4.93                             122    0.20 9  202 294 
 ZAR  HZ I         619 11.20         9.1 0.30            121            202 294 
 NOR  HZ EP        618 43.06                             118    0.50 8  228 235 
 NOR  HE ES        619 10.38                             118    0.69 8  228 235 
 NOR  HZ I         619 16.09         7.4 0.30            118            228 235 
 SML  HZ EP        618 44.05                             116   -0.48 8  247 337 
 SML  HE ES        619 12.93                             116   -0.28 8  247 337 
 SML  HZ I         619 20.39         7.0 0.10            116            247 337 
                                                                                
