 2014  320 0214  7.1 L   6.780 -73.130147.9  RSN 13 0.4 2.0LRSN                1
 GAP=184        0.89       3.8     4.8  6.4  0.2696E+01  0.2384E+01 -0.3133E+01E
 Epicentro: LOS SANTOS - SANTANDER                                             3
 OLDACT:REG 14-03-20 07:31 OP:fm   STATUS:               ID:20140320020812     3
 ACTION:UPD 14-04-09 23:19 OP:nd   STATUS:               ID:20140320021407 L   I
 OLDACT:UP  14-03-20 08:57 OP:fm   STATUS:               ID:20140320020812     3
 2014-03-20-0208-12M.COL___241                                                 6
 STAT SP IPHASW D HRMM SECON CODA AMPLIT PERI AZIMU VELO AIN AR TRES W  DIS CAZ7
 BAR2 SZ EP        214 27.06                             171    0.1210 21.6 196 
 BAR2 SZ ES   1    214 43.29                             171    0.87 7 21.6 196 
 BAR2 SZ I         214 44.83        24.2 0.22            166           21.6 196 
 RUS  HZ EP        214 30.34                             145   -0.5410 98.3 177 
 RUS  HE ES   1    214 48.94                             145   -0.50 7 98.3 177 
 RUS  SZ I         214 50.88         7.8 0.44            130           98.3 177 
 PTB  HZ EP        214 34.04                             132   -0.31 9  149 260 
 PTB  HN ES        214 55.21                             132   -0.40 9  149 260 
 PTB  SZ I         215  0.24         8.2 0.26            119            149 260 
 SPBC HZ EP        214 36.01                             130    0.31 9  163 220 
 SPBC HE ES        214 58.25                             130    0.24 9  163 220 
 SPBC SZ I         215  4.95        15.9 0.22            116            163 220 
 ZAR  HZ EP   1    214 39.50                             122   -0.43 6  207 293 
 ZAR  HE ES   1    215  5.25                             122   -0.29 6  207 293 
 ZAR  SZ I         215 11.32         9.5 0.46            110            207 293 
 NOR  HZ EP        214 43.15                             119    0.19 8  235 235 
 NOR  HN ES        215 10.96                             119    0.02 8  235 235 
 NOR  SZ I         215 17.15         6.6 0.16            107            235 235 
 SML  HZ EP   1    214 44.59                             118    0.46 6  246 335 
 SML  HE ES   1    215 12.83                             118   -0.19 6  246 335 
 SML  SZ I         215 19.99         6.5 0.22            107            246 335 
 CHI  HZ EP        214 44.94                             118    0.21 8  247 196 
 CHI  HN ES   1    215 13.96                             118   -0.12 6  247 196 
 CHI  SZ I         215 15.05         5.5 2.04            106            247 196 
 HEL  HZ EP        214 48.31                             115    0.77 8  273 256 
 HEL  HN ES   4    215 23.84                             115    4.74 0  273 256 
 HEL  SZ I         215 32.45         5.1 2.18            105            273 256 
 URE  HN ES   4    215 18.93                             114   -1.94 0  286 292 
 GUY2CHZ EP   4    214 53.75                             113    2.93 0  301 235 
 GUY2CHN ES   4    215 29.80                             113    4.87 0  301 235 
 GUY2CSZ I         215 37.90         4.1 0.88                           301 235 
 PTGC HZ EP   2    214 50.07                             112   -0.67 4  306 159 
 PTGC SZ I         215 28.20        11.6 1.58            103            306 159 
 RREF HZ EP   4    214 55.50                             111    2.18 0  322 230 
 RREF HN ES   4    215 32.69                             111    3.32 0  322 230 
 RREF SZ I         215 35.43         5.3 1.40            102            322 230 
 CBOC HZ EP   4    214 54.63                             110    0.42 0  335 253 
 CBOC SZ I         215 38.11         3.1 2.22            102            335 253 
                                                                                
