 2017  420 0313 23.0 L   6.739 -73.236149.6  RSN  4 0.2 1.0LRSN                1
 GAP=212        0.54       4.4     4.3  4.5  0.9787E+01  0.3867E+01  0.2209E+01E
 Epicentro: ZAPATOCA - SANTANDER                                               3
 ACTION:UPD 17-05-30 21:14 OP:jn   STATUS:               ID:20170420031323 L   I
 OLDACT:REG 17-04-20 13:02 OP:cog  STATUS:               ID:20170420030740     3
 2017-04-20-0308-00M.COL___365                                                 6
 STAT SP IPHASW D HRMM SECON CODA AMPLIT PERI AZIMU VELO AIN AR TRES W  DIS CAZ7
 BAR2 EZ EP   3    313 42.27                             173   -0.67 2 17.3 160 
 BAR2 EZ ES        313 58.46                             173   -0.0710 17.3 160 
 BRR  HZ EP        313 44.16                             155   -0.1010 66.5 308 
 BRR  HN ES        314  1.05                             155    0.1610 66.5 308 
 BRR  HZ I         314  4.71         3.8 0.44            155           66.5 308 
 RUS  HZ EP        313 46.56                             146   -0.1410 95.1 170 
 RUS  HN ES        314  5.36                             146    0.1410 95.1 170 
 RUS  HZ I         314  7.04         0.9 0.28            149           95.1 170 
 PTB  HZ EP        313 49.60                             135    0.34 9  137 261 
 PTB  HE ES        314  9.52                             135   -0.27 9  137 261 
 PTB  HZ I         314 12.17         1.6 0.24            136            137 261 
                                                                                
