 2014 1120 0750 52.4 L   6.787 -73.174149.6  RSN 10 0.4 1.6LRSN                1
 GAP=134        0.99       3.1     3.8  6.1 -0.6423E+00  0.5773E+01  0.2181E+01E
 Epicentro: LOS SANTOS - SANTANDER                                             3
 ACTION:UPD 14-12-19 15:45 OP:nd   STATUS:               ID:20141120075052 L   I
 OLDACT:UP  14-11-20 16:33 OP:spq  STATUS:               ID:20141120074748     3
 OLDACT:REG 14-11-20 13:17 OP:fm   STATUS:               ID:20141120074748     3
 2014-11-20-0747-48M.COL___295                                                 6
 STAT SP IPHASW D HRMM SECON CODA AMPLIT PERI AZIMU VELO AIN AR TRES W  DIS CAZ7
 BAR2 SZ EP        751 12.32                             171   -0.1110 21.5 182 
 BAR2 SZ ES        751 28.15                             171    0.0810 21.5 182 
 BAR2 SZ I         751 29.06        16.3 0.38            171           21.5 182 
 BRR  HZ EP        751 14.68                             154    0.8610 69.2 301 
 BRR  HN ES        751 30.90                             154    0.3410 69.2 301 
 BRR  HZ I         751 35.14         6.1 0.42            151           69.2 301 
 PAM  SZ EP        751 15.35                             150    0.1710 80.5  41 
 PAM  SN ES        751 32.81                             150   -0.1610 80.5  41 
 PAM  SZ I         751 35.31         5.7 0.64            153           80.5  41 
 RUS  HZ EP        751 16.73                             145    0.3210 99.4 174 
 RUS  HN ES        751 34.80                             145   -0.3710 99.4 174 
 RUS  HZ I         751 36.26         4.4 0.30            146           99.4 174 
 PTB  HZ EP        751 19.21                             134   -0.14 9  144 259 
 PTB  HN ES        751 39.73                             134   -0.67 9  144 259 
 PTB  HZ I         751 42.54         4.8 0.28            133            144 259 
 SPBC HN ES        751 43.63                             130    0.52 9  160 218 
 SPBC HZ I         751 46.48         7.6 0.28            130            160 218 
 OCA  HN ES        751 42.99                             130   -0.49 9  161 354 
 OCA  HZ I         751 46.40         4.9 0.20            131            161 354 
 ZAR  HZ EP        751 24.43                             123   -0.40 9  202 293 
 ZAR  HN ES        751 50.36                             123    0.21 9  202 293 
 ZAR  HZ I         751 57.81         6.1 0.28            123            202 293 
 CHI  HZ EP        751 29.83                             118   -0.21 8  246 195 
 CHI  HN ES        751 59.17                             118   -0.26 8  246 195 
 CHI  HZ I         752  6.08         1.3 0.26            119            246 195 
 HEL  HN ES        752  3.62                             116   -0.01 8  269 256 
 HEL  HZ I         752 11.13         1.7 0.30            116            269 256 
                                                                                
