 2012  520 0459 58.2 L   6.850 -73.150152.6  RSN 30 0.5 4.5LRSN 4.4WRSN        1
 SPEC AVERAGE  MO 15.7 ST457.5 OM 21.9 f0 3.83 R  0.40 AL 3.19 WI 31.9 MW  4.4 3
 GAP=125        1.19       2.9     4.4  5.1 -0.2321E+01  0.6461E+01  0.8521E-01E
 Epicentro: LOS SANTOS - SANTANDER                                             3
 Evento sentido                                                                2
 Reportado como sentido en:                                                    3
 FLORIDABLANCA (SANTANDER) MEDELLIN (ANTIOQUIA)                                3
 SPEC MON HH Z MO 15.5 ST574.0 OM  2.8 f0 4.89 R0.3006 AL 3.35 WI 36.1 MW  4.3 3
 SPEC MON HH Z T 5 045 K 0.020 GD  381 VP 7.60 DE 3.20 Q0230.0 QA 0.60 VS 4.20 3
 SPEC SJC HH Z MO 15.6 ST435.3 OM  2.8 f0 4.28 R0.3435 AL 3.91 WI 39.9 MW  4.3 3
 SPEC SJC HH Z T 5 052 K 0.020 GD  431 VP 7.60 DE 3.20 Q0230.0 QA 0.60 VS 4.20 3
 SPEC ZAR HH Z MO 15.6 ST204.5 OM  3.0 f0 3.41 R0.4311 AL 2.52 WI 25.5 MW  4.3 3
 SPEC ZAR HH Z T 5 030 K 0.020 GD  253 VP 7.60 DE 3.20 Q0230.0 QA 0.60 VS 4.20 3
 SPEC RREFHH Z MO 15.5 ST337.1 OM  2.8 f0 4.18 R0.3517 AL 3.33 WI 36.9 MW  4.3 3
 SPEC RREFHH Z T 5 045 K 0.020 GD  359 VP 7.60 DE 3.20 Q0230.0 QA 0.60 VS 4.20 3
 SPEC ROSCBH Z MO 15.7 ST202.9 OM  3.1 f0 2.98 R0.4933 AL 2.76 WI 29.0 MW  4.4 3
 SPEC ROSCBH Z T 5 038 K 0.020 GD  298 VP 7.60 DE 3.20 Q0230.0 QA 0.60 VS 4.20 3
 SPEC PTB HH Z MO 15.5 ST564.5 OM  3.0 f0 5.07 R0.2899 AL 4.30 WI 21.3 MW  4.3 3
 SPEC PTB HH Z T 5 025 K 0.020 GD  212 VP 7.60 DE 3.20 Q0230.0 QA 0.60 VS 4.20 3
 SPEC PRA HH Z MO 16.1 ST999.9 OM  4.1 f0 4.13 R0.3559 AL 3.37 WI 30.7 MW  4.7 3
 SPEC PRA HH Z T 5 130 K 0.020 GD  425 VS 4.20 DE 3.20 Q0230.0 QA 0.60 VS 4.20 3
 SPEC OCA HH N MO 16.1 ST921.2 OM  4.4 f0 3.66 R0.4016 AL 2.48 WI 27.3 MW  4.7 3
 SPEC OCA HH N T 5 048 K 0.020 GD  217 VS 4.20 DE 3.20 Q0230.0 QA 0.60 VS 4.20 3
 SPEC HEL HH Z MO 15.6 ST145.0 OM  2.9 f0 3.06 R0.4804 AL 2.26 WI 35.9 MW  4.3 3
 SPEC HEL HH Z T 5 038 K 0.020 GD  312 VP 7.60 DE 3.20 Q0230.0 QA 0.60 VS 4.20 3
 SPEC COD HH Z MO 15.8 ST472.1 OM  3.1 f0 3.66 R0.4016 AL 3.74 WI 37.3 MW  4.5 3
 SPEC COD HH Z T 5 045 K 0.020 GD  375 VP 7.60 DE 3.20 Q0230.0 QA 0.60 VS 4.20 3
 SPEC CHI HH Z MO 15.7 ST176.0 OM  3.1 f0 2.85 R0.5158 AL 3.07 WI 31.0 MW  4.4 3
 SPEC CHI HH Z T 5 036 K 0.020 GD  296 VP 7.60 DE 3.20 Q0230.0 QA 0.60 VS 4.20 3
 ACTION:UP  12-07-05 12:06 OP:pat  STATUS:               ID:20120520045958 L   I
 2012-05-20-0500-00M.COL___200                                                 6
 STAT SP IPHASW D HRMM SECON CODA AMPLIT PERI AZIMU VELO SNR AR TRES W  DIS CAZ7
 BAR2 SZ IP        5 0 18.93                             169     0.210   29 187 
 BAR2 SZ ES        5 0 34.28                             169    -0.510   29 187 
 BAR2 SZ I         5 0 44.25      3953.4 0.43                            29 187 
 BRR  HZ IP     D  5 0 20.63                             155     0.710   68 295 
 BRR  HN ES        5 0 37.55                             155     0.710   68 295 
 BRR  HZ I         5 0 41.53      5865.8 0.23                            68 295 
 PAM  SZ IP     D  5 0 21.54                             153     0.610   74  43 
 PAM  SN ES        5 0 38.41                             153    -0.210   74  43 
 RUS  HZ EP   1    5 0 22.91                             144    -0.1 7  106 176 
 RUS  HN ES        5 0 41.82                             144    -0.510  106 176 
 RUS  HZ I         5 0 43.58      3145.8 0.34                           106 176 
 PTB  HZ IP     D  5 0 25.36                             133    -0.4 9  148 257 
 PTB  HE ES   1    5 0 46.68                             133    -0.6 7  148 257 
 PTB  HZ I         5 0 53.16      1953.8 0.39                           148 257 
 OCA  HZ IP     C  5 0 26.75                             132     0.2 9  155 353 
 OCA  HE ES        5 0 48.37                             132    -0.2 9  155 353 
 ZAR  HZ EP        5 0 31.02                             124     0.2 9  202 291 
 ZAR  HN ES   1    5 0 56.42                             124     0.1 6  202 291 
 ZAR  HZ I         5 1  3.15      5156.1 0.46                           202 291 
 NOR  SZ EP   1    5 0 34.49                             119    -0.1 6  238 233 
 NOR  SN ES        5 1  2.31                             119    -0.7 8  238 233 
 CHI  HZ IP     C  5 0 37.01                             118     0.2 8  254 195 
 CHI  HN ES        5 1  6.82                             118    -0.1 8  254 195 
 CHI  HZ I         5 1 12.35      1953.4 0.39                           254 195 
 ROSC BN ES   1    5 1  8.44                             117     0.9 6  257 210 
 HEL  HZ EP   1    5 0 38.35                             116    -0.5 6  273 255 
 HEL  HN ES   1    5 1 11.36                             116     0.8 6  273 255 
 HEL  HZ I         5 1 17.39      1865.2 0.49                           273 255 
 URE  HZ EP        5 0 38.44                             115    -0.9 7  281 291 
 GUY  SZ EP   1    5 0 43.40                             113     0.7 5  306 234 
 GUY  SZ I         5 1 26.00      2835.1 0.44                           306 234 
 VIL  SZ EP        5 0 42.38                             113    -0.1 7  309 191 
 VIL  SN ES   1    5 1 17.08                             113     0.0 5  309 191 
 VIL  SZ I         5 1 28.34      1687.2 0.43                           309 191 
 RREF HZ EP   1    5 0 45.27                             112     0.3 5  325 229 
 RREF HZ I         5 1 35.48      1881.2 0.46                           325 229 
 DBB  SZ EP        5 0 46.31                             111     0.5 7  339 273 
 COD  HZ IP     C  5 0 45.85                             110    -0.3 7  343 355 
 COD  HE ES   1    5 1 24.73                             110     1.1 5  343 355 
 COD  HZ I         5 1 29.01       695.9 0.35                           343 355 
 MON  HZ IP     D  5 0 45.94                             110    -1.1 6  350 308 
 MON  HN ES   1    5 1 24.35                             110    -0.7 5  350 308 
 MON  HZ I         5 1 38.87      1377.5 0.48                           350 308 
 SDV  BZ IP     C  5 0 48.26                             109     0.1 6  357  51 
 PRA  HZ EP   1    5 0 52.03                             107    -0.4 4  397 209 
 PRA  HE ES        5 1 35.20                             107     0.4 6  397 209 
 SJC  HZ EP   1    5 0 52.58                             107    -0.8 4  404 327 
 SJC  HZ I         5 1 37.63      1128.9 0.27                           404 327 
 VALL EZ EP   1    5 0 52.43                             107    -1.0 4  405 358 
 VALL EZ I         5 1 34.11       585.0 0.33                           405 358 
 PAL  HZ EP        5 0 54.62                             107     0.8 6  408 238 
 SOL  SZ EP   1    5 1  1.91                             104     0.2 3  476 262 
 BET  SZ EP   1    5 1  7.02                             102    -0.8 3  526 209 
 HORQ SZ EP   1    5 1  9.15                             102     0.0 3  536 226 
 HORQ SZ I         5 2 19.79       209.3 0.72                           536 226 
 MARA HZ EP   1    5 1  9.82                             102     0.0 3  541 215 
 MARA HZ I         5 2 12.83       192.1 0.42                           541 215 
 PCON HZ EP   1    5 1 19.79                             100     0.6 2  616 216 
 PCON HZ I         5 2 56.57       184.2 0.56                           616 216 
 FLO2 HZ EP        5 1 21.18                              99    -0.8 2  645 206 
 FLO2 HZ I         5 3  2.59       225.9 0.45                           645 206 
 SOTA HZ EP   1    5 1 23.33                              99     0.5 2  647 217 
 SOTA HZ I         5 2 40.12       158.8 0.44                           647 217 
                                                                                
