 2012  920 0250 14.3 L   6.776 -73.138142.2  RSN  9 0.5 2.2LRSN                1
 GAP=139        0.87       4.1     4.3  6.3  0.3953E+00  0.5916E+01  0.5551E+01E
 Epicentro: LOS SANTOS - SANTANDER                                             3
 ACTION:UPD 12-10-22 14:19 OP:ep   STATUS:               ID:20120920025014 L   I
 2012-09-20-0250-00M.COL___226                                                 6
 STAT SP IPHASW D HRMM SECON CODA AMPLIT PERI AZIMU VELO AIN AR TRES W  DIS CAZ7
 BAR2 SZ EP        250 33.48                             171    0.0510 20.9 193 
 BAR2 SZ ES   1    250 47.86                             171   -0.50 7 20.9 193 
 GIR2 SZ EP   1    250 33.43                             166   -0.17 7 34.0 350 
 GIR2 SZ ES   1    250 48.90                             166    0.23 7 34.0 350 
 BRR  HZ IP     C  250 35.26                             151    0.1010 73.2 300 
 BRR  HZ I         250 35.51        62.3 0.32                          73.2 300 
 BRR  HN ES   1    250 52.24                             151    0.80 7 73.2 300 
 PAM  SZ EP        250 36.23                             150    0.0210 78.9  38 
 PAM  SZ I         250 36.62        24.4 0.24                          78.9  38 
 PAM  SN ES   1    250 53.43                             150    0.12 7 78.9  38 
 RUS  HZ EP        250 37.45                             144   -0.0310 97.9 176 
 RUS  HN ES   1    250 55.18                             144   -0.40 7 97.9 176 
 RUS  HZ I         250 57.65        11.6 0.26                          97.9 176 
 PTB  HN ES   1    251  1.05                             131   -0.76 7  148 260 
 PTB  HN I         251  6.30        29.2 0.70                           148 260 
 ZAR  HZ EP   1    250 45.75                             121   -0.93 6  206 293 
 ZAR  HN ES   1    251 11.95                             121    0.01 6  206 293 
 ZAR  HN I         251 17.30        24.0 0.16                           206 293 
 CHI  HZ EP   1    250 51.70                             117    0.17 6  246 196 
 CHI  HN ES   1    251 21.41                             117    0.83 6  246 196 
 CHI  HN I         251 24.01        11.8 0.30                           246 196 
 HEL  HZ EP   2    250 55.23                             114    0.90 4  272 256 
 HEL  HN ES   1    251 25.84                             114    0.27 6  272 256 
 HEL  HN I         251 32.90         7.8 0.36                           272 256 
                                                                                
