 2012  420 0930 42.2 L   6.755 -73.219145.6  RSN  4 0.0 1.1LRSN                1
 GAP=225        0.27       2.9     2.9  3.6  0.5772E+01 -0.2208E-02 -0.4313E+00E
 Epicentro: VILLANUEVA - SANTANDER                                             3
 ACTION:UPD 12-07-05 11:54 OP:tino STATUS:               ID:20120420093042 L   I
 2012-04-20-0930-00M.COL___187                                                 6
 STAT SP IPHASW D HRMM SECON CODA AMPLIT PERI AZIMU VELO AIN AR TRES W  DIS CAZ7
 BRR  HZ EP   1    931  3.08                             154     0.0 7   67 306 
 BRR  HN ES   1    931 19.39                             154     0.0 7   67 306 
 RUS  HZ EP   1    931  5.66                             145     0.0 7   97 171 
 RUS  HN ES   1    931 23.91                             145     0.0 7   97 171 
 RUS  HZ I         931 24.94         1.9 0.28                            97 171 
 PTB  HZ EP   1    931  8.33                             134     0.0 7  139 260 
 PTB  HN ES   1    931 28.76                             134     0.0 7  139 260 
 PTB  HZ I         931 31.50         1.8 0.11                           139 260 
 ZAR  HN ES   1    931 38.91                             123     0.0 6  199 294 
                                                                                
