 2013  720 0931 33.4 L   6.808 -73.154146.7  RSN 11 0.4 2.4LRSN                1
 GAP=182        0.89       2.9     4.5  5.4  0.2272E+01  0.5545E+01  0.1471E+01E
 Epicentro: LOS SANTOS - SANTANDER                                             3
 ACTION:UPD 13-08-12 10:39 OP:ep   STATUS:               ID:20130720093133 L   I
 OLDACT:UP  13-07-20 13:10 OP:mh   STATUS:               ID:20130720092959     3
 OLDACT:UP  13-07-20 13:09 OP:mh   STATUS:               ID:20130720092959     3
 OLDACT:REG 13-07-20 08:46 OP:mh   STATUS:               ID:20130720092959     3
 2013-07-20-0929-59M.COL___266                                                 6
 STAT SP IPHASW D HRMM SECON CODA AMPLIT PERI AZIMU VELO AIN AR TRES W  DIS CAZ7
 BAR2 SZ EP   1    931 53.13                             170   -0.03 7 24.0 187 
 BAR2 SZ ES   1    932  8.55                             170   -0.02 7 24.0 187 
 BAR2 SZ I         932  9.63        37.1 0.28            170           24.0 187 
 GIR2 SZ EP        931 53.30                             168    0.1410 30.3 352 
 GIR2 SZ ES   1    932  8.04                             168   -0.53 7 30.3 352 
 GIR2 SZ I         932 10.08        18.7 0.22            166           30.3 352 
 BRR  HZ IP     C  931 55.06                             153    0.4810 70.0 298 
 BRR  HN ES        932 12.04                             153    0.9410 70.0 298 
 BRR  HN I         932 12.45        96.7 0.30            151           70.0 298 
 RUS  HZ EP   1    931 57.24                             144   -0.07 7  101 176 
 RUS  HN ES        932 15.74                             144   -0.2210  101 176 
 RUS  HN I         932 18.98        20.4 0.62            145            101 176 
 PTB  HZ EP   1    932  0.18                             132   -0.19 7  147 258 
 PTB  HN ES        932 20.94                             132   -0.47 9  147 258 
 OCA  HN ES   1    932 23.84                             130    0.08 7  159 353 
 OCA  HN I         932 26.49        53.1 0.26            130            159 353 
 ZAR  HZ EP   1    932  5.88                             123    0.10 6  203 292 
 ZAR  HE ES        932 30.80                             123   -0.24 9  203 292 
 ZAR  HE I         932 36.34        41.7 0.34            122            203 292 
 NOR  HZ EP   1    932  9.12                             119   -0.03 6  234 234 
 NOR  HN ES   1    932 36.92                             119   -0.12 6  234 234 
 SML  HZ EP   1    932  9.56                             118   -0.39 6  243 335 
 SML  HN ES        932 37.80                             118   -0.66 8  243 335 
 SML  HN I         932 45.37        38.7 0.28            118            243 335 
 CHI  HZ EP        932 11.60                             117    0.39 8  249 195 
 CHI  HN ES        932 40.35                             117   -0.35 8  249 195 
 CHI  HN I         932 43.16        17.2 0.38            118            249 195 
 HEL  HZ EP   1    932 14.07                             115    0.49 6  271 256 
 HEL  HN ES   2    932 45.31                             115    0.39 4  271 256 
 HEL  HN I         932 51.46         5.5 0.44            115            271 256 
                                                                                
