 2013  220 0128 43.9 L   6.793 -73.170147.2  RSN  4 0.2 1.5LRSN                1
 GAP=134        0.48       2.8     2.7  4.7 -0.5289E+00  0.8969E+00 -0.3976E+00E
 Epicentro: LOS SANTOS - SANTANDER                                             3
 ACTION:UPD 13-03-12 09:34 OP:ep   STATUS:               ID:20130220012843 L   I
 2013-02-20-0120-00M.COL___241                                                 6
 STAT SP IPHASW D HRMM SECON CODA AMPLIT PERI AZIMU VELO AIN AR TRES W  DIS CAZ7
 BRR  HZ EP        129  5.34                             153    0.2910 69.3 300 
 BRR  HN ES   1    129 21.79                             153    0.21 7 69.3 300 
 BRR  HN I         129 26.05         7.4 0.16            151           69.3 300 
 PAM  SZ EP        129  6.30                             150   -0.0610 79.7  41 
 PAM  SN ES   1    129 23.69                             150   -0.22 7 79.7  41 
 PAM  SN I         129 24.35         5.1 0.46            154           79.7  41 
 RUS  HZ EP        129  7.79                             144    0.0810  100 175 
 RUS  HN ES        129 26.31                             144    0.0010  100 175 
 RUS  HN I         129 26.52         3.6 0.32            148            100 175 
 PTB  HZ EP        129 10.50                             133   -0.19 9  145 259 
 PTB  HE ES        129 31.47                             133   -0.15 9  145 259 
 PTB  HE I         129 37.25         3.6 0.62            133            145 259 
                                                                                
