 2010 1020 0136  3.4 L   6.755 -73.141151.7  RSN  4 0.1 1.8LRSN                1
 GAP=234        0.43       3.6     4.3  5.4  0.2131E+01  0.3175E+01  0.2089E+01E
 Epicentro: LOS SANTOS - SANTANDER                                             3
 ACTION:UP  11-02-18 11:10 OP:tino STATUS:               ID:20101020013603 L   I
 2010-10-20-0120-00M.COL___113                                                 6
 STAT SP IPHASW D HRMM SECON CODA AMPLIT PERI AZIMU VELO SNR AR TRES W  DIS CAZ7
 BAR2 SZ EP        136 23.52                             173    -0.110   19 195 
 BAR2 SZ I         136 40.53        21.6 0.25                            19 195 
 BRR  HZ IP     C  136 25.36                             153     0.010   74 302 
 BRR  HZ I         136 25.64        46.7 0.11                            74 302 
 BRR  HE ES   1    136 42.49                             153     0.0 7   74 302 
 RUS  HZ EP   1    136 27.29                             146    -0.1 7   96 176 
 RUS  HE ES   1    136 46.21                             146     0.1 7   96 176 
 RUS  HZ I         136 47.80         6.9 0.29                            96 176 
 NOR  SZ EP   1    136 39.52                             120     0.3 6  232 236 
 NOR  SN ES   1    137  6.95                             120    -0.2 6  232 236 
 NOR  SZ I         137 15.28         1.1 0.15                           232 236 
                                                                                
