 2012  220 0116 42.2 L   7.344 -73.192133.8  RSN  6 0.1 1.3LRSN                1
 GAP=205        0.30       5.2     2.4  2.8 -0.6906E+01 -0.1933E+00  0.4344E+01E
 ACTION:UP  12-03-07 16:32 OP:epov STATUS:               ID:20120220011642 L   I
 2012-02-20-0110-00M.COL___191                                                 6
 STAT SP IPHASW D HRMM SECON CODA AMPLIT PERI AZIMU VELO AIN AR TRES W  DIS CAZ7
 GIR2 SZ EP        117  0.47                             167    0.0510 29.3 180 
 GIR2 SZ ES   1    117 14.66                             167    0.04 7 29.3 180 
 PAM  SZ EP   1    117  2.04                             157    0.14 7 54.4  90 
 PAM  SN ES   1    117 17.19                             157   -0.04 7 54.4  90 
 PAM  SZ I         117 18.53         3.0 0.15                          54.4  90 
 BRR  HZ EP   1    117  1.59                             153   -0.04 7 63.1 246 
 BRR  HZ I         117  1.84         7.6 0.18                          63.1 246 
 BRR  HN ES   1    117 16.63                             153   -0.12 7 63.1 246 
 BAR2 SZ EP   1    117  3.09                             146   -0.11 7 83.1 179 
 BAR2 SZ I         117  3.84         4.3 0.18                          83.1 179 
 RUS  HZ EP   1    117 10.14                             127   -0.01 7  161 176 
 RUS  HZ I         117 11.21         1.4 0.18                           161 176 
 PTB  HZ EP   1    117  9.86                             126   -0.12 7  166 238 
 PTB  HN ES   1    117 31.80                             126    0.18 7  166 238 
                                                                                
