 2014  220 0711 42.2 L   7.595 -73.588 99.9  RSN  7 0.4 1.7LRSN                1
 GAP= 83        1.10       3.5     3.8 10.6  0.1929E+00  0.1662E+02  0.1066E+01E
 Epicentro: SABANA DE TORRES - SANTANDER                                       3
 ACTION:UPD 14-03-10 08:11 OP:ep   STATUS:               ID:20140220071142 L   I
 OLDACT:UP  14-02-20 13:05 OP:cam  STATUS:               ID:20140220071000     3
 OLDACT:UP  14-02-20 13:04 OP:cam  STATUS:               ID:20140220071000     3
 OLDACT:REG 14-02-20 09:31 OP:fm   STATUS:               ID:20140220071000     3
 2014-02-20-0710-00M.COL___212                                                 6
 STAT SP IPHASW D HRMM SECON CODA AMPLIT PERI AZIMU VELO AIN AR TRES W  DIS CAZ7
 OCA  HZ EP        711 59.16                             140   -0.1110 77.1  23 
 OCA  HN ES        712 12.43                             140   -0.1910 77.1  23 
 OCA  HZ I         712 14.33        16.2 0.22             94           77.1  23 
 PAM  SZ EP     D  712  2.13                             131    0.2510  102 106 
 PAM  SE ES        712 17.35                             131    0.0810  102 106 
 PAM  SZ I         712 18.29        10.2 0.16             94            102 106 
 BAR2 SZ EP        712  3.38                             126    0.1510  120 158 
 BAR2 SZ ES        712 19.71                             126    0.0510  120 158 
 BAR2 SZ I         712 20.95        26.5 0.36             94            120 158 
 ZAR  HZ EP        712  5.86                             121    0.78 9  141 265 
 ZAR  HN ES        712 23.62                             121    0.65 9  141 265 
 ZAR  HZ I         712 26.13         7.2 0.14             93            141 265 
 SML  HZ EP        712  5.15                             121   -0.23 9  144 338 
 SML  HZ I         712 27.96        12.3 0.50             56            144 338 
 PTB  HZ EP        712  5.76                             119   -0.44 9  151 219 
 PTB  HE ES        712 24.12                             119   -0.84 9  151 219 
 PTB  HZ I         712 24.82         3.7 0.22             93            151 219 
 SJC  HN ES   1    712 56.89                             104   -0.68 5  309 326 
                                                                                
