 2013  120 0825 49.1 L   6.748 -73.151148.3  RSN  6 0.2 1.0LRSN                1
 GAP=138        0.50       3.7     3.1  5.3 -0.1908E+00  0.4331E+01 -0.2814E+01E
 Epicentro: LOS SANTOS - SANTANDER                                             3
 ACTION:UPD 13-02-15 09:15 OP:ep   STATUS:               ID:20130120082549 L   I
 2013-01-20-0820-00M.COL___241                                                 6
 STAT SP IPHASW D HRMM SECON CODA AMPLIT PERI AZIMU VELO AIN AR TRES W  DIS CAZ7
 BAR2 SZ EP   1    826  8.99                             173    0.07 7 17.6 192 
 BAR2 SZ ES   1    826 24.44                             173    0.05 7 17.6 192 
 BRR  HZ EP   1    826 10.85                             152    0.21 7 73.7 303 
 BRR  HZ I         826 25.07         2.2 0.58            145           73.7 303 
 BRR  HN ES   1    826 27.86                             152    0.40 7 73.7 303 
 PAM  SZ EP   1    826 11.93                             150    0.07 7 82.2  37 
 PAM  SN ES   1    826 29.24                             150   -0.38 7 82.2  37 
 PAM  SZ I         826 30.95         1.7 0.50            141           82.2  37 
 RUS  HN ES   1    826 31.13                             146    0.04 7 94.9 175 
 RUS  HZ I         826 33.43         1.2 0.44            138           94.9 175 
 PTB  HZ EP   1    826 16.02                             133   -0.10 7  146 261 
 PTB  HN ES   1    826 36.80                             133   -0.41 7  146 261 
 ZAR  HN ES   1    826 47.42                             123   -0.03 6  206 294 
                                                                                
