 2013  720 0358 53.7 L   6.609 -73.538110.3  RSN  6 0.4 1.5LRSN                1
 GAP=118        0.81       5.7     6.6  7.9  0.2477E+02  0.1532E+02  0.7529E+01E
 Epicentro: EL CARMEN DE CHUCURI - SANTANDER                                   3
 ACTION:UPD 13-08-12 10:38 OP:ep   STATUS:               ID:20130720035853 L   I
 OLDACT:REG 13-07-20 09:03 OP:mh   STATUS:               ID:20130720035749     3
 2013-07-20-0357-49M.COL___235                                                 6
 STAT SP IPHASW D HRMM SECON CODA AMPLIT PERI AZIMU VELO AIN AR TRES W  DIS CAZ7
 BAR2 SZ EP   1    359  9.69                             160    0.02 7 39.4  93 
 BAR2 SZ ES   1    359 22.09                             160   -0.02 7 39.4  93 
 BAR2 SZ I         359 22.82         6.1 0.18            130           39.4  93 
 BRR  HZ EP   1    359 10.33                             150    0.01 7 58.3 341 
 BRR  HN ES        359 23.29                             150    0.0210 58.3 341 
 BRR  HN I         359 24.09        23.5 0.16            124           58.3 341 
 GIR2 SZ EP   1    359 10.38                             148   -0.53 7 64.4  36 
 GIR2 SZ I         359 23.58         3.8 0.12            117           64.4  36 
 RUS  HZ EP   1    359 13.08                             137   -0.53 7 93.9 148 
 RUS  HE ES        359 29.50                             137    0.3710 93.9 148 
 RUS  HE I         359 30.82         3.3 0.48            117           93.9 148 
 PTB  HN ES   2    359 28.36                             134   -0.81 5  102 266 
 ZAR  HZ EP   1    359 21.61                             117    0.62 7  175 304 
 ZAR  HE ES   2    359 42.88                             117    0.63 4  175 304 
 ZAR  HE I         359 46.93         8.6 0.34            102            175 304 
                                                                                
