 2017  320 0650 51.6 L   6.814 -73.233142.2  RSN  5 0.3 0.7LRSN                1
 GAP=125        0.85       3.8     4.2  7.7 -0.6242E+00  0.3984E+01  0.7058E+01E
 Epicentro: ZAPATOCA - SANTANDER                                               3
 ACTION:UPD 17-05-25 18:42 OP:jn   STATUS:               ID:20170320065051 L   I
 OLDACT:REG 17-03-20 13:17 OP:cog  STATUS:               ID:20170320064744     3
 2017-03-20-0648-00M.COL___373                                                 6
 STAT SP IPHASW D HRMM SECON CODA AMPLIT PERI AZIMU VELO AIN AR TRES W  DIS CAZ7
 BRR  HE ES        651 28.23                             155    0.5610 62.0 301 
 PAM  EZ EP        651 13.77                             148   -0.0110 82.7  45 
 PAM  EN ES        651 30.84                             148   -0.2310 82.7  45 
 PAM  EZ I         651 31.40         0.6 0.16            150           82.7  45 
 RUS  HZ EP        651 15.20                             142   -0.0110  103 171 
 RUS  HN ES        651 33.49                             142   -0.1310  103 171 
 SPBC HZ EP        651 19.87                             129    0.47 9  159 216 
 SPBC HN ES        651 40.79                             129   -0.28 9  159 216 
 SPBC HZ I         651 42.87         1.0 0.14            129            159 216 
 ZAR  HE ES        651 46.73                             123   -0.47 9  195 293 
                                                                                
