 2015  820 0242 33.9 L   6.832 -73.098136.7  RSN  6 0.4 1.4LRSN                1
 GAP=205        1.08       4.6     7.4  7.6  0.1431E+02  0.3568E+01 -0.9535E+01E
 Epicentro: LOS SANTOS - SANTANDER                                             3
 ACTION:UPD 15-09-15 23:03 OP:cam  STATUS:               ID:20150820024233 L   I
 OLDACT:UP  15-08-20 18:36 OP:ak   STATUS:               ID:20150820023745     3
 OLDACT:REG 15-08-20 12:31 OP:spq  STATUS:               ID:20150820023745     3
 2015-08-20-0237-45M.COL___343                                                 6
 STAT SP IPHASW D HRMM SECON CODA AMPLIT PERI AZIMU VELO AIN AR TRES W  DIS CAZ7
 BAR2 EZ EP        242 52.69                             168    0.1010 28.1 199 
 BAR2 EZ ES        243  7.25                             168    0.1010 28.1 199 
 BAR2 EZ I         243  8.71         5.8 0.12            164           28.1 199 
 BRR  HZ EP        242 54.57                             150    0.2610 74.4 294 
 BRR  HN ES        243 10.86                             150    0.6610 74.4 294 
 BRR  HZ I         243 12.11         7.8 0.42            149           74.4 294 
 RUS  HZ EP        242 57.28                             141    0.2210  104 179 
 RUS  HN ES        243 14.46                             141   -0.6410  104 179 
 RUS  HZ I         243 17.33         2.1 0.14            140            104 179 
 SPBC HZ EP   1    243  2.90                             126    0.54 7  169 220 
 SPBC HN ES        243 24.14                             126   -0.39 9  169 220 
 SPBC HZ I         243 29.77         3.9 0.20            125            169 220 
 ZAR  HZ EP        243  6.66                             120    0.47 8  208 291 
 ZAR  HN ES        243 30.98                             120   -0.37 8  208 291 
 SML  HZ EP        243  9.62                             116   -0.35 8  243 334 
 SML  HN ES        243 37.32                             116   -0.75 8  243 334 
                                                                                
