 2017 1020 0418 41.7 L   6.806 -73.153148.0  RSN  5 0.4 1.2LRSN                1
 GAP=135        0.79       4.6     4.6  6.6 -0.5558E+01  0.9718E+01 -0.4298E+01E
 Epicentro: LOS SANTOS - SANTANDER                                             3
 ACTION:UPD 17-11-07 19:34 OP:rebc STATUS:               ID:20171020041841 L   I
 OLDACT:UP  17-10-20 15:04 OP:dani STATUS:               ID:20171020040806     3
 OLDACT:REG 17-10-20 13:07 OP:dani STATUS:               ID:20171020040806     3
 2017-10-20-0418-00M.COL___453                                                 6
 STAT SP IPHASW D HRMM SECON CODA AMPLIT PERI AZIMU VELO AIN AR TRES W  DIS CAZ7
 BAR2 HE ES        419 16.96                             170   -0.1710 23.9 188 
 BRR  HZ EP        419  3.53                             153    0.5010 70.2 298 
 BRR  HE ES   3    419 21.56                             153    1.89 2 70.2 298 
 BRR  HZ I         419 24.21         3.0 0.16            151           70.2 298 
 PAM  EZ EP        419  4.22                             151    0.0710 77.4  40 
 PAM  EE ES        419 21.37                             151   -0.2910 77.4  40 
 PAM  EZ I         419 23.36         3.6 0.47            154           77.4  40 
 RUS  HZ EP        419  5.94                             143    0.2210  101 176 
 RUS  HN ES        419 24.45                             143   -0.0110  101 176 
 RUS  HZ I         419 25.35         2.9 0.27            148            101 176 
 PTB  HZ EP        419  8.48                             132   -0.31 9  147 259 
 PTB  HN ES        419 29.73                             132   -0.19 9  147 259 
 PTB  HZ I         419 33.05         2.0 0.20            134            147 259 
                                                                                
