 2017  220 0716 45.1 L   6.821 -73.164144.7  RSN 12 0.5 1.8LRSN                1
 GAP=104        1.12       4.1     3.4  5.9  0.9776E+00  0.4398E+01  0.4435E+01E
 Epicentro: LOS SANTOS - SANTANDER                                             3
 ACTION:UPD 17-05-24 15:38 OP:jn   STATUS:               ID:20170220071645 L   I
 OLDACT:UP  17-02-20 17:26 OP:dani STATUS:               ID:20170220070644     3
 OLDACT:UP  17-02-20 17:25 OP:dani STATUS:               ID:20170220070644     3
 OLDACT:REG 17-02-20 12:59 OP:dani STATUS:               ID:20170220070644     3
 2017-02-20-0707-00M.COL___348                                                 6
 STAT SP IPHASW D HRMM SECON CODA AMPLIT PERI AZIMU VELO AIN AR TRES W  DIS CAZ7
 BAR2 EZ IP     D  717  4.62                             170   -0.0410 25.4 185 
 BAR2 EZ ES        717 19.50                             170   -0.4010 25.4 185 
 BAR2 EZ I         717 20.90        15.0 0.20            168           25.4 185 
 BRR  HZ IP     D  717  6.46                             153    0.4810 68.3 298 
 BRR  HN ES        717 23.20                             153    0.9410 68.3 298 
 BRR  HZ I         717 27.32         8.9 0.10            153           68.3 298 
 PAM  EZ EP        717  7.59                             150    0.4010 76.9  42 
 PAM  EN ES        717 24.33                             150   -0.0710 76.9  42 
 PAM  EZ I         717 26.97        11.7 0.50            154           76.9  42 
 RUS  HZ EP        717  8.58                             143   -0.3610  103 175 
 RUS  HN ES        717 26.98                             143   -0.5410  103 175 
 RUS  HZ I         717 28.62         3.8 0.26            143            103 175 
 PTB  HZ EP        717 11.31                             132   -0.54 9  146 258 
 PTB  HN ES        717 32.16                             132   -0.55 9  146 258 
 PTB  HZ I         717 35.62        10.8 0.16            132            146 258 
 TAM  HZ EP     C  717 13.07                             130    0.13 9  158 106 
 TAM  HE ES        717 34.60                             130   -0.05 9  158 106 
 TAM  HZ I         717 35.04         8.0 0.46            132            158 106 
 ZAR  HZ EP        717 17.56                             122    0.36 9  201 292 
 ZAR  HN ES        717 41.85                             122   -0.38 9  201 292 
 ZAR  HZ I         717 49.27        12.6 0.40            123            201 292 
 NOR  HZ EP        717 21.32                             118    0.57 8  234 234 
 NOR  HE ES        717 49.09                             118    0.54 8  234 234 
 NOR  HZ I         717 52.40         7.8 0.38            119            234 234 
 CHI  HZ EP        717 23.10                             117    0.16 8  250 195 
 CHI  HN ES        717 52.70                             117    0.26 8  250 195 
 CHI  HZ I         717 58.26         2.1 0.29            117            250 195 
 URE  HZ EP        717 24.86                             113   -0.96 7  281 292 
 URE  HN ES   3    717 55.56                             113   -2.01 2  281 292 
 URE  HZ I         717 59.09         3.9 0.15            114            281 292 
 PTGC HZ EP   3    717 27.94                             111   -1.31 2  312 158 
 PTGC HN ES   4    718  1.31                             111   -2.37 0  312 158 
 PTGC HZ I         718  7.36         4.0 0.26            112            312 158 
 PRA  HZ EP        717 39.07                             106    0.35 6  393 209 
 PRA  HE ES   3    718 22.21                             106    1.68 1  393 209 
 PRA  HZ I         718 27.26         3.3 0.24            107            393 209 
                                                                                
