 2010  820 0158 26.6 L   6.350 -73.744103.6  RSN  5 0.4 1.3LRSN                1
 GAP=134        0.96       5.4     8.5 11.0  0.4095E+01  0.3507E+02 -0.2309E+01E
 Epicentro: SANTA HELENA DEL OPON - SANTANDER                                  3
 ACTION:UP  10-09-07 10:56 OP:vdl  STATUS:               ID:20100820015826 L   I
 2010-08-20-0154-55S.COL___117                                                 6
 STAT SP IPHASW D HRMM SECON CODA AMPLIT PERI AZIMU VELO SNR AR TRES W  DIS CAZ7
 BAR2 SZ EP   1    158 43.37                             144    -0.1 9   68  67 
 BAR2 SZ ES   1    158 55.89                             144    -0.7 9   68  67 
 BAR2 SZ I         158 57.32         9.7 0.31                            68  67 
 BRR  HZ EP   1    158 44.35                             137     0.0 9   84   2 
 BRR  HN ES   1    158 58.61                             137     0.4 9   84   2 
 RUS  HZ EP   1    158 45.17                             136    -0.3 9   89 125 
 RUS  HN ES   1    159  0.70                             136     0.5 9   89 125 
 RUS  HZ I         159  0.93         3.0 0.36                            89 125 
 GUE  SZ EP        158 55.51                             113     0.410  187  29 
 GUE  SZ I         158 58.83         2.7 0.25                           187  29 
 GUE  SZ ES   2    159 16.67                             113    -0.8 5  187  29 
 RREF HN ES   2    159 28.29                             107    -0.5 5  239 228 
 RREF HZ I         159 37.17         1.3 0.49                           239 228 
                                                                                
