 2017 1020 0719 12.1 L   6.834 -73.066138.8  RSN  4 0.3 0.8LRSN                1
 GAP=145        0.77       4.3     6.4  6.8  0.2654E+01 -0.7296E+01 -0.1351E+01E
 Epicentro: LOS SANTOS - SANTANDER                                             3
 ACTION:UPD 17-11-07 19:34 OP:rebc STATUS:               ID:20171020071912 L   I
 OLDACT:REG 17-10-20 13:16 OP:dani STATUS:               ID:20171020071359     3
 2017-10-20-0718-00M.COL___450                                                 6
 STAT SP IPHASW D HRMM SECON CODA AMPLIT PERI AZIMU VELO AIN AR TRES W  DIS CAZ7
 BAR2 EZ ES        719 45.58                             167   -0.2510 29.7 206 
 PAM  EZ EP        719 33.51                             152    0.4210 69.0  36 
 PAM  EN ES   1    719 49.21                             152   -0.24 7 69.0  36 
 PAM  EZ I         719 51.01         1.4 0.30            154           69.0  36 
 BRR  HZ EP        719 32.68                             149   -0.2110 77.5 293 
 BRR  HN ES        719 49.28                             149    0.1910 77.5 293 
 BRR  HZ I         719 52.69         1.5 0.48            149           77.5 293 
 RUS  HZ EP        719 35.12                             141   -0.3310  104 181 
 RUS  HE ES        719 53.98                             141    0.3210  104 181 
 RUS  HZ I         719 54.49         0.9 0.41            144            104 181 
                                                                                
