 2017 1020 0446 38.8 L   6.780 -73.120142.2  RSN 10 0.6 1.7LRSN                1
 GAP=141        1.43       5.6     5.9  8.7 -0.4002E+01  0.1546E+02  0.3263E+01E
 Epicentro: LOS SANTOS - SANTANDER                                             3
 ACTION:UPD 17-11-07 19:34 OP:rebc STATUS:               ID:20171020044638 L   I
 OLDACT:UP  17-10-20 15:15 OP:dani STATUS:               ID:20171020043739     3
 OLDACT:REG 17-10-20 13:08 OP:dani STATUS:               ID:20171020043739     3
 2017-10-20-0438-00M.COL___456                                                 6
 STAT SP IPHASW D HRMM SECON CODA AMPLIT PERI AZIMU VELO AIN AR TRES W  DIS CAZ7
 BAR2 EZ EP        446 57.79                             171   -0.1510 21.9 198 
 BAR2 EZ ES        447 12.46                             171   -0.4310 21.9 198 
 BAR2 EZ I         447 14.04        11.4 0.24            168           21.9 198 
 BRR  HZ EP        446 59.58                             151   -0.1610 74.8 299 
 BRR  HN ES        447 16.53                             151    0.4410 74.8 299 
 BRR  HZ I         447 20.42        10.0 0.16            151           74.8 299 
 PAM  EZ EP     D  447  0.68                             150    0.0810 77.3  37 
 PAM  EN ES        447 17.70                             150    0.0810 77.3  37 
 PAM  EZ I         447 19.33         7.7 0.16            155           77.3  37 
 RUS  HZ EP        447  1.84                             144   -0.1610 98.3 178 
 RUS  HN ES        447 20.36                             144    0.2510 98.3 178 
 RUS  HZ I         447 22.63         4.5 0.18            144           98.3 178 
 PTB  HZ EP        447  4.41                             131   -1.26 9  150 260 
 PTB  HN ES        447 26.06                             131   -0.59 9  150 260 
 PTB  HZ I         447 28.76         4.2 0.24            131            150 260 
 SPBC HZ EP        447  6.85                             128   -0.16 9  163 220 
 SPBC HN ES        447 30.16                             128    1.13 9  163 220 
 SPBC HZ I         447 34.96         9.7 0.14            129            163 220 
 ZAR  HZ EP        447 12.66                             121    1.32 8  208 292 
 ZAR  HN ES        447 36.84                             121    0.09 8  208 292 
 ZAR  HZ I         447 41.95         8.5 0.31            123            208 292 
 NOR  HZ EP        447 14.39                             118   -0.02 8  236 235 
 NOR  HE ES        447 41.82                             118   -0.39 8  236 235 
 NOR  HZ I         447 43.68         5.3 0.18            119            236 235 
 CHI  HZ EP   4    447 14.04                             117   -2.08 0  247 196 
 CHI  HN ES   3    447 47.15                             117    1.89 2  247 196 
 CHI  HZ I         447 52.75         1.2 0.31            118            247 196 
 GUY2CHZ EP   4    447 25.15                             112    2.81 0  302 235 
 GUY2CHE ES   4    447 59.13                             112    2.81 0  302 235 
 GUY2CHZ I         448  6.91         2.5 0.44                           302 235 
                                                                                
