 2010  120 0249 16.7 L   6.821 -72.970141.5  RSN  9 0.4 2.0LRSN                1
 GAP=201        0.75       3.5     8.7  5.7 -0.5727E+01  0.9851E+01  0.3762E+01E
 Epicentro: CEPITA - SANTANDER                                                 3
 ACTION:UP  10-08-24 09:44 OP:vdl  STATUS:               ID:20100120024916 L   I
 2010-01-20-0246-28S.COL___096                                                 6
 STAT SP IPHASW D HRMM SECON CODA AMPLIT PERI AZIMU VELO SNR AR TRES W  DIS CAZ7
 BAR2 SZ EP        249 36.14                             166     0.110   35 223 
 BAR2 SZ ES   1    249 50.82                             166    -0.4 7   35 223 
 GIR2 SZ EP        249 36.19                             164     0.210   38 319 
 GIR2 SZ ES   1    249 51.27                             164     0.1 7   38 319 
 RUS  BZ EP        249 40.22                             142     0.010  103 187 
 RUS  BN ES   2    249 58.76                             142     0.2 5  103 187 
 RUS  BZ I         250  0.50        17.7 0.27                           103 187 
 OCA  SZ EP        249 45.10                             128     0.3 9  161 346 
 OCA  SZ ES   1    250  6.00                             128    -0.7 7  161 346 
 CHI  HZ EP   1    249 54.66                             115    -0.4 6  257 199 
 CHI  HN ES   2    250 25.46                             115     0.5 4  257 199 
 CHI  HZ I         250 29.51         3.0 0.49                           257 199 
 HEL  HN ES   2    250 32.62                             112     0.9 4  291 256 
 HEL  HZ I         250 36.48         6.5 0.70                           291 256 
 RREF BZ EP   2    250  5.53                             109     1.0 3  338 231 
 RREF BE ES   2    250 40.88                             109    -1.0 3  338 231 
 RREF BZ I         250 53.00         4.0 0.48                           338 231 
 TOL  SZ EP   1    250  6.38                             107    -0.2 5  359 227 
 PRA  HZ EP        250 10.97                             105    -0.5 6  404 212 
 PRA  HN ES   2    250 54.02                             105    -0.2 3  404 212 
                                                                                
