 2012  920 0606 15.6 L   6.833 -73.337119.7  RSN  7 0.4 1.6LRSN                1
 GAP= 96        0.86       5.1     4.7  8.0  0.1148E+01  0.4853E+01  0.5586E+01E
 Epicentro: ZAPATOCA - SANTANDER                                               3
 ACTION:UPD 12-10-22 14:19 OP:ep   STATUS:               ID:20120920060615 L   I
 2012-09-20-0600-00M.COL___226                                                 6
 STAT SP IPHASW D HRMM SECON CODA AMPLIT PERI AZIMU VELO AIN AR TRES W  DIS CAZ7
 GIR2 SZ EP        6 6 32.08                             164   -0.1010 31.4  30 
 GIR2 SZ ES   1    6 6 44.43                             164   -0.69 7 31.4  30 
 BAR2 SZ EP        6 6 32.46                             164    0.1310 31.6 147 
 BAR2 SZ ES   1    6 6 45.65                             164    0.26 7 31.6 147 
 BRR  HZ EP        6 6 32.85                             155    0.0410 51.4 306 
 BRR  HE ES   1    6 6 47.03                             155    0.78 7 51.4 306 
 PAM  SZ EP   2    6 6 35.93                             141   -0.09 5 89.9  51 
 PAM  SN ES   1    6 6 51.84                             141   -0.12 7 89.9  51 
 PAM  SN I         6 6 53.32         8.5 0.34                          89.9  51 
 RUS  HZ EP   1    6 6 37.46                             135   -0.01 7  108 165 
 RUS  HZ I         6 6 38.00         3.7 0.10                           108 165 
 RUS  HE ES   1    6 6 54.76                             135    0.22 7  108 165 
 PTB  HE ES   1    6 6 55.78                             130   -0.86 7  128 255 
 PTB  HN I         6 6 59.88         8.4 0.16                           128 255 
 ZAR  HN ES   2    6 7  7.27                             119    0.72 4  183 294 
 ZAR  HN I         6 7 10.52         6.1 0.34                           183 294 
                                                                                
