 2015  820 0809 17.6 L   6.814 -73.080149.0  RSN  7 0.3 1.5LRSN                1
 GAP=190        0.71       2.7     5.0  5.2 -0.1743E+00  0.1994E+01 -0.3341E+01E
 Epicentro: LOS SANTOS - SANTANDER                                             3
 ACTION:UPD 15-09-15 23:03 OP:cam  STATUS:               ID:20150820080917 L   I
 OLDACT:REG 15-08-20 13:15 OP:spq  STATUS:               ID:20150820080741     3
 2015-08-20-0807-41M.COL___334                                                 6
 STAT SP IPHASW D HRMM SECON CODA AMPLIT PERI AZIMU VELO AIN AR TRES W  DIS CAZ7
 BAR2 EZ EP   1    8 9 37.98                             169    0.23 7 27.0 205 
 BAR2 EZ ES   1    8 9 53.27                             169   -0.16 7 27.0 205 
 BAR2 EZ I         8 9 53.76         4.1 0.20            166           27.0 205 
 BRR  HZ EP        8 9 39.64                             151    0.1610 77.0 295 
 BRR  HE ES        8 9 56.82                             151    0.3110 77.0 295 
 BRR  HZ I         810  2.09         4.7 0.26            147           77.0 295 
 RUS  HE ES   1    810  0.23                             144   -0.43 7  102 180 
 RUS  HZ I         810  1.40         2.0 0.34            146            102 180 
 OCA  HZ EP        8 9 46.12                             130   -0.05 9  160 351 
 OCA  HN ES        810  8.53                             130    0.11 9  160 351 
 OCA  HZ I         810 12.13         5.7 0.12            132            160 351 
 SPBC HZ EP        8 9 46.83                             129   -0.12 9  169 221 
 SPBC HN ES        810  9.88                             129    0.08 9  169 221 
 SPBC HZ I         810 15.90         4.1 0.28            129            169 221 
 ZAR  HZ EP        8 9 51.52                             122    0.58 8  210 291 
 ZAR  HE ES        810 16.42                             122   -0.49 8  210 291 
 ZAR  HZ I         810 22.46         5.1 0.48            122            210 291 
 SML  HZ EP        8 9 54.26                             118   -0.39 8  245 334 
 SML  HE ES   1    810 23.15                             118   -0.35 6  245 334 
 SML  HZ I         810 26.00         3.1 0.10            119            245 334 
                                                                                
