 2010  420 0014 22.7 L   6.832 -73.052153.3  RSN  6 0.4 2.1LRSN                1
 GAP=148        0.64      13.5    18.0 16.7 -0.2107E+03 -0.2583E+03  0.1859E+03E
 Epicentro: LOS SANTOS - SANTANDER                                             3
 ACTION:UPD 10-08-24 10:00 OP:vdl  STATUS:               ID:20100420001420 L   I
 2010-04-20-0012-23S.COL___100                                                 6
 STAT SP IPHASW D HRMM SECON CODA AMPLIT PERI AZIMU VELO AIN AR TRES W  DIS CAZ7
 BRR  HZ IP     C  014 45.21                             148     0.110   79 293 
 BRR  HZ I         014 45.56        30.8 0.09                            79 293 
 BRR  HN ES   1    015  2.55                             148     0.0 7   79 293 
 OCA  SZ EP   2    014 50.56                             129    -0.8 5  158 349 
 OCA  SZ I         015 18.45        15.5 0.17                           158 349 
 CHI  HZ EP   3    015  0.90                             117    -0.6 2  255 197 
 CHI  HZ I         015  2.49         4.0 0.13                           255 197 
 RREF BZ EP   2    015 10.50                             110     0.2 3  332 230 
 RREF BN ES   2    015 48.04                             110     0.6 3  332 230 
 RREF BZ I         015 51.80         3.9 0.28                           332 230 
 SDV  BZ EP   1    015 12.23                             109     0.4 5  350  50 
 PRA  HZ EP   2    015 16.92                             106    -0.5 3  400 211 
 PRA  HE ES   2    015 59.58                             106    -0.6 3  400 211 
 PRA  HZ I         016  4.56         3.3 0.76                           400 211 
                                                                                
