 2016  320 0112 59.9 L   6.850 -73.182138.3  RSN  7 0.4 1.6LRSN                1
 GAP=130        0.86       4.3     4.0  6.8  0.6580E-01  0.7052E+01 -0.3149E+01E
 Epicentro: ZAPATOCA - SANTANDER                                               3
 ACTION:UPD 16-05-13 21:25 OP:cam  STATUS:               ID:20160320011259 L   I
 OLDACT:DUP 16-03-20 14:55 OP:dnl  STATUS:               ID:20160320010746d    3
 2016-03-20-0107-45M.COL___305                                                 6
 STAT SP IPHASW D HRMM SECON CODA AMPLIT PERI AZIMU VELO AIN AR TRES W  DIS CAZ7
 BAR2 EZ EP   3    113 19.52                             168    0.81 2 28.5 180 
 BAR2 EZ ES        113 33.40                             168   -0.0210 28.5 180 
 BAR2 EZ I         113 35.11         8.6 0.20            171           28.5 180 
 PAM  EZ EP        113 21.88                             150    0.6810 76.0  45 
 PAM  EE ES   2    113 37.03                             150   -0.81 5 76.0  45 
 PAM  EZ I         113 41.00         7.2 0.44            152           76.0  45 
 RUS  HZ EP        113 23.06                             141   -0.2710  106 174 
 RUS  HN ES        113 41.74                             141    0.1110  106 174 
 RUS  HZ I         113 42.65         4.9 0.28            145            106 174 
 PTB  HZ EP        113 25.37                             131   -0.60 9  145 256 
 PTB  HN ES        113 46.57                             131    0.23 9  145 256 
 PTB  HZ I         113 49.60         4.1 0.14            133            145 256 
 SPBC HZ EP        113 27.79                             127   -0.18 9  165 217 
 SPBC HE ES        113 49.86                             127   -0.05 9  165 217 
 SPBC HZ I         113 52.38         6.3 0.11            130            165 217 
 ZAR  HN ES        113 55.72                             122    0.03 9  198 291 
 ZAR  HZ I         113 58.70         4.1 0.10            123            198 291 
 GUY2CHZ EP   2    113 43.20                             111    0.08 4  301 233 
 GUY2CHE ES   2    114 17.89                             111    1.02 4  301 233 
 GUY2CHZ I         114 25.12         2.0 0.36                           301 233 
                                                                                
