 2014 1120 0918 12.7 L   6.827 -73.156144.0  RSN 26 0.5 2.6LRSN                1
 GAP= 70        1.03       2.3     2.4  4.2 -0.5481E+00  0.3170E+01  0.1004E+01E
 Epicentro: LOS SANTOS - SANTANDER                                             3
 ACTION:UPD 14-12-19 15:45 OP:nd   STATUS:               ID:20141120091812 L   I
 OLDACT:REG 14-11-20 13:23 OP:fm   STATUS:               ID:20141120091743     3
 2014-11-20-0917-43M.COL___295                                                 6
 STAT SP IPHASW D HRMM SECON CODA AMPLIT PERI AZIMU VELO AIN AR TRES W  DIS CAZ7
 BAR2 SZ EP        918 32.33                             169    0.1310 26.1 186 
 BAR2 SZ ES        918 47.78                             169    0.3910 26.1 186 
 BAR2 SZ I         918 48.44        89.9 0.14            168           26.1 186 
 BRR  HZ EP     C  918 34.29                             153    0.7510 68.7 297 
 BRR  HE ES        918 49.95                             153    0.1710 68.7 297 
 BRR  HZ I         918 55.57        86.4 0.12            152           68.7 297 
 PAM  SZ IP     D  918 35.21                             151    0.5510 75.9  42 
 PAM  SN ES        918 51.82                             151    0.0510 75.9  42 
 PAM  SZ I         918 54.49       170.7 0.62            155           75.9  42 
 RUS  HZ EP        918 36.34                             143   -0.1810  104 176 
 RUS  HN ES        918 54.34                             143   -0.7510  104 176 
 RUS  HZ I         918 55.90        55.6 0.38            144            104 176 
 PTB  HZ EP        918 39.18                             132   -0.31 9  147 258 
 PTB  HN ES        919  0.14                             132   -0.24 9  147 258 
 PTB  HZ I         919  3.43        66.0 0.14            132            147 258 
 OCA  HZ EP        918 40.61                             130    0.01 9  157 353 
 OCA  HN ES        919  2.09                             130   -0.25 9  157 353 
 OCA  HZ I         919  6.01        70.9 0.48            132            157 353 
 TAM  HZ EP     D  918 40.78                             130    0.34 9  157 106 
 TAM  HN ES        919  1.97                             130   -0.09 9  157 106 
 TAM  HZ I         919  3.47        22.5 0.58            133            157 106 
 SPBC HZ EP        918 41.45                             128    0.21 9  165 218 
 SPBC HN ES        919  3.17                             128   -0.31 9  165 218 
 SPBC HZ I         919  7.16        71.7 0.20            129            165 218 
 ZAR  HZ EP        918 45.38                             122    0.56 9  202 291 
 ZAR  HN ES        919 10.05                             122    0.19 9  202 291 
 ZAR  HZ I         919 16.36        80.8 0.32            123            202 291 
 NOR  HZ EP        918 49.02                             118    0.59 8  235 234 
 NOR  HN ES        919 16.00                             118   -0.29 8  235 234 
 NOR  HZ I         919 21.39        31.9 0.34            119            235 234 
 CHI  HZ EP        918 50.61                             116    0.01 8  251 195 
 CHI  HN ES        919 19.24                             116   -0.91 8  251 195 
 CHI  HZ I         919 24.10        15.0 0.28            118            251 195 
 ROSC BZ EP        918 50.89                             116   -0.07 8  255 210 
 ROSC BN ES        919 21.45                             116    0.66 8  255 210 
 ROSC BZ I         919 27.02        22.5 0.35            117            255 210 
 HEL  HZ EP        918 53.38                             114    0.58 8  272 255 
 HEL  HE ES        919 23.36                             114   -0.70 8  272 255 
 HEL  HZ I         919 31.51        18.2 0.46            115            272 255 
 URE  HZ EP        918 52.81                             113   -0.64 7  282 291 
 URE  HN ES        919 24.83                             113   -0.40 7  282 291 
 URE  HZ I         919 36.03        30.6 0.16            114            282 291 
 PTGC HZ EP   4    918 54.92                             111   -1.95 0  312 159 
 PTGC HN ES   4    919 28.76                             111   -2.54 0  312 159 
 PTGC HZ I         919 35.94        22.0 0.36            113            312 159 
 CBOC HZ EP        918 59.61                             110    0.07 7  333 252 
 CBOC HN ES        919 36.93                             110    0.87 7  333 252 
 CBOC HZ I         919 41.46         6.7 0.16            111            333 252 
 DBB  SZ EP        919  0.41                             109    0.45 7  338 274 
 DBB  SZ ES        919 36.95                             109    0.14 7  338 274 
 TOL  SZ EP        919  1.05                             109   -0.01 7  345 224 
 TOL  SE ES        919 39.27                             109    0.51 7  345 224 
 TOL  SZ I         919 44.62        32.6 0.26            110            345 224 
 MON  HZ EP     D  919  0.29                             108   -1.04 6  351 308 
 MON  HN ES        919 38.63                             108   -0.61 6  351 308 
 MON  HZ I         919 39.53        22.4 0.18            110            351 308 
 SDV  BZ EP        919  2.09                             108   -0.49 6  359  51 
 SDV  BN ES   4    919 38.64                             108   -2.83 0  359  51 
 SDV  BZ I         919 41.67        13.3 0.40            110            359  51 
 ANIL HZ EP        919  1.79                             108   -0.82 6  359 224 
 ANIL HE ES        919 42.09                             108    0.57 6  359 224 
 ANIL HZ I         919 48.45         4.4 0.36            109            359 224 
 PRA  HZ EP        919  5.95                             106   -0.47 6  394 209 
 PRA  HN ES        919 47.82                             106   -0.48 6  394 209 
 PRA  HZ I         919 53.97        16.1 0.70            107            394 209 
 ORTC HZ EP        919  7.17                             106    0.39 6  397 216 
 ORTC HN ES        919 49.08                             106    0.13 6  397 216 
 ORTC HZ I         919 55.39        13.2 0.38            107            397 216 
 PAL  HZ EP        919  8.56                             106    0.68 6  406 239 
 PAL  HN ES        919 50.28                             106   -0.63 6  406 239 
 PAL  HZ I         919 56.55         9.3 0.32            107            406 239 
 SJC  HZ EP        919  7.05                             106   -0.80 6  406 327 
 SJC  HN ES   4    919 47.60                             106   -3.25 0  406 327 
 SJC  HZ I         919 52.16         8.4 0.56            107            406 327 
 YOT  HZ EP   4    919 12.55                             103   -3.29 0  473 228 
 YOT  HE ES        920  5.09                             103    0.01 5  473 228 
 YOT  HZ I         920 12.84         2.1 0.38            104            473 228 
 MACC HZ EP   4    919 19.60                             101   -2.12 0  523 188 
 URI  HZ EP   4    919 22.25                             100   -3.11 0  554  13 
                                                                                
