 2010  720 0601 47.0 L   6.788 -73.160150.0  RSN  5 0.3 1.2LRSN                1
 GAP=157        0.55       7.2    18.3 20.1  0.2613E+02 -0.2983E+03 -0.4044E+02E
 Epicentro: LOS SANTOS - SANTANDER                                             3
 ACTION:UPD 10-12-01 15:18 OP:pat  STATUS:               ID:20100720060147 L   I
 2010-07-20-0559-12S.COL___123                                                 6
 STAT SP IPHASW D HRMM SECON CODA AMPLIT PERI AZIMU VELO AIN AR TRES W  DIS CAZ7
 BAR2 SZ EP   2    6 2  6.60                             171    -0.5 5   22 187 
 BAR2 SZ I         6 2 26.00         5.7 0.51                            22 187 
 BRR  HZ EP   2    6 2  8.70                             153     0.1 5   71 300 
 BRR  HE ES   2    6 2 25.40                             153     0.0 5   71 300 
 BRR  HZ I         6 2 27.70         6.5 0.32                            71 300 
 RUS  HZ EP   2    6 2 11.28                             145     0.2 5   99 175 
 RUS  HN ES   3    6 2 30.26                             145     0.4 2   99 175 
 RUS  HZ I         6 3  2.00         1.1 1.10                            99 175 
 GUE  SZ EP   2    6 2 12.75                             140     0.5 5  118  13 
 GRA  SZ EP   1    6 2 12.64                             137    -0.1 7  128  18 
 GRA  SZ I         6 2 34.18         1.6 0.58                           128  18 
                                                                                
