 2010  620 0929 27.4 L   6.748 -73.139140.1  RSN  7 0.4 1.6LRSN                1
 GAP=157        0.84       4.0     8.6  7.5 -0.4705E+01 -0.1158E+02 -0.6497E+01E
 Epicentro: LOS SANTOS - SANTANDER                                             3
 ACTION:UP  10-08-24 10:11 OP:vdl  STATUS:               ID:20100620092927 L   I
 2010-06-20-0927-52S.COL___118                                                 6
 STAT SP IPHASW D HRMM SECON CODA AMPLIT PERI AZIMU VELO SNR AR TRES W  DIS CAZ7
 BAR2 SZ ES   1    930  0.92                             172    -0.1 8   18 196 
 BRR  HZ EP   1    929 47.96                             150    -0.2 8   75 302 
 BRR  HE ES   1    930  4.61                             150     0.2 8   75 302 
 BRR  HZ I         930  6.02         6.4 0.12                            75 302 
 RUS  HZ EP   1    929 49.97                             144    -0.2 8   95 176 
 RUS  HN ES   1    930  8.04                             144     0.1 8   95 176 
 RUS  HZ I         930  9.64         5.3 0.53                            95 176 
 BRI  SZ EP        929 50.79                             139    -0.410  114  19 
 BRI  SZ ES   1    930  9.54                             139    -0.2 7  114  19 
 GRA  SZ IP        929 53.11                             134     0.510  131  16 
 GRA  SZ ES   1    930 12.80                             134     0.5 7  131  16 
 OCA  SZ EP   1    929 56.04                             127     0.2 7  166 353 
 OCA  SZ ES   1    930 17.40                             127    -0.6 7  166 353 
 OCA  SZ I         930 20.25         7.2 0.58                           166 353 
 HEL  HZ EP   3    930  8.22                             114     0.9 2  271 257 
 HEL  HZ I         930 44.93         1.8 0.31                           271 257 
                                                                                
