 2011  320 0330 23.0 L   6.779 -73.006145.0  RSN  7 0.3 1.8LRSN                1
 GAP=175        0.73       4.1     7.7  6.9 -0.1904E+02  0.2347E+02 -0.5064E+01E
 Epicentro: CEPITA - SANTANDER                                                 3
 ACTION:UP  11-06-16 14:34 OP:jfem STATUS:               ID:20110320033023 L   I
 2011-03-20-0329-43S.COL___136                                                 6
 STAT SP IPHASW D HRMM SECON CODA AMPLIT PERI AZIMU VELO SNR AR TRES W  DIS CAZ7
 BAR2 SZ EP        330 42.54                             168    -0.110   29 223 
 BAR2 SZ ES   1    330 57.68                             168    -0.3 7   29 223 
 BAR2 SZ I         330 59.31        11.6 0.19                            29 223 
 RUS  HZ EP   1    330 46.47                             144     0.0 7   98 185 
 RUS  HN ES   1    331  5.28                             144     0.5 7   98 185 
 RUS  HZ I         331  6.33         7.6 0.27                            98 185 
 GRA  SZ EP        330 48.37                             137     0.410  124  10 
 GRA  SZ ES   1    331  7.27                             137    -0.3 7  124  10 
 GRA  SZ I         331  9.14         9.5 0.40                           124  10 
 CHI  HZ EP   1    331  0.75                             117    -0.1 6  251 199 
 CHI  HN ES   1    331 29.89                             117    -0.5 6  251 199 
 CHI  HZ I         331 34.07         2.7 0.28                           251 199 
 HEL  HZ EP   1    331  4.44                             113    -0.3 6  287 257 
 HEL  HZ I         331 40.66         3.4 0.42                           287 257 
 GUY  SZ EP   1    331  7.68                             111    -0.2 5  313 237 
 GUY  SN ES   1    331 43.43                             111     0.6 5  313 237 
 RREF HN ES   1    331 47.10                             110    -0.1 5  332 231 
 RREF HZ I         331 52.25         4.2 0.17                           332 231 
                                                                                
