 2011  120 0310 23.6 L   6.772 -73.072146.3  RSN  4 0.2 1.5LRSN                1
 GAP=167        0.47       4.4    17.7  4.7 -0.6632E+02  0.1062E+02 -0.2223E+01E
 Epicentro: LOS SANTOS - SANTANDER                                             3
 ACTION:UP  11-02-08 08:41 OP:pat  STATUS:               ID:20110120031023 L   I
 2011-01-20-0307-35S.COL___138                                                 6
 STAT SP IPHASW D HRMM SECON CODA AMPLIT PERI AZIMU VELO SNR AR TRES W  DIS CAZ7
 BAR2 SZ EP   1    310 43.20                             171    -0.1 8   23 212 
 BAR2 SZ ES   1    310 58.55                             171    -0.2 8   23 212 
 BAR2 SZ I         310 59.85        12.7 0.36                            23 212 
 RUS  HZ EP   1    310 47.11                             145    -0.1 8   97 181 
 RUS  HE ES   1    311  5.66                             145     0.1 8   97 181 
 RUS  HZ I         311  6.93         3.5 0.30                            97 181 
 GRA  SZ IP        310 49.02                             137     0.010  127  14 
 GRA  SZ I         310 50.31         5.5 0.31                           127  14 
 GRA  SZ ES   1    311  8.98                             137     0.2 7  127  14 
 CHI  HZ EP   1    311  1.10                             117    -0.2 6  248 197 
 CHI  HZ I         311  3.70         2.1 0.53                           248 197 
 CHI  HE ES   1    311 31.07                             117     0.4 6  248 197 
                                                                                
