 2012 1020 0953 54.6 L   6.944 -73.589108.0  RSN  7 0.3 1.9LRSN                1
 GAP=139        0.68       3.2     3.4  5.8  0.2710E+01  0.3437E+01 -0.1216E+01E
 Epicentro: SAN VICENTE DE CHUCURI - SANTANDER                                 3
 ACTION:UPD 12-11-22 17:04 OP:ep   STATUS:               ID:20121020095354 L   I
 2012-10-20-0950-00M.COL___233                                                 6
 STAT SP IPHASW D HRMM SECON CODA AMPLIT PERI AZIMU VELO AIN AR TRES W  DIS CAZ7
 BRR  HZ EP   1    954  9.26                             167   -0.11 7 22.6 323 
 BRR  HZ I         954  9.73        15.7 0.14                          22.6 323 
 BRR  HN ES   1    954 21.28                             167    0.42 7 22.6 323 
 BRR  HN I         954 21.78        73.7 0.16                          22.6 323 
 GIR2 SZ EP   1    954 10.70                             155    0.19 7 46.2  71 
 GIR2 SZ ES   2    954 22.34                             155   -0.56 5 46.2  71 
 BAR2 SZ EP   1    954 11.70                             149    0.29 7 59.5 131 
 BAR2 SZ I         954 11.92        36.4 0.16                          59.5 131 
 BAR2 SZ ES   1    954 23.85                             149   -0.64 7 59.5 131 
 PAM  SZ EP   1    954 15.43                             132   -0.09 7  108  66 
 PAM  SN ES   1    954 32.45                             132    0.64 7  108  66 
 PAM  SN I         954 32.75         6.7 0.16                           108  66 
 RUS  HZ EP   1    954 17.56                             126    0.00 7  129 154 
 RUS  HN ES   1    954 35.52                             126    0.08 7  129 154 
 RUS  HN I         954 37.00        10.1 0.44                           129 154 
 OCA  HZ EP   1    954 18.64                             122   -0.22 7  146  12 
 OCA  HN ES   1    954 37.38                             122   -0.36 7  146  12 
 ZAR  HZ EP   1    954 19.20                             121   -0.14 7  153 293 
 ZAR  HZ I         954 19.50         5.6 0.19                           153 293 
 ZAR  HN ES   1    954 38.75                             121    0.15 7  153 293 
 ZAR  HN I         954 41.16        19.1 0.14                           153 293 
                                                                                
