 2012  320 0955 10.6 L   6.747 -73.144157.5  RSN  4 0.3 1.3LRSN                1
 GAP=233        0.55       8.3     7.7  7.8  0.2655E+02  0.4857E+01 -0.6193E+01E
 ACTION:UP  12-03-31 23:21 OP:EP   STATUS:               ID:20120320095510 L   I
 2012-03-20-0950-00M.COL___202                                                 6
 STAT SP IPHASW D HRMM SECON CODA AMPLIT PERI AZIMU VELO SNR AR TRES W  DIS CAZ7
 BAR2 SZ EP   1    955 31.14                             173    -0.4 7   18 194 
 BAR2 SZ ES   2    955 47.72                             173    -0.1 5   18 194 
 BRR  HZ EP   1    955 33.21                             153     0.1 7   74 302 
 BRR  HZ I         955 33.59         6.8 0.21                            74 302 
 BRR  HN ES   2    955 51.19                             153     0.4 5   74 302 
 RUS  HZ EP   2    955 35.50                             148     0.4 5   95 176 
 RUS  HZ I         955 53.44         2.9 0.75                            95 176 
 RUS  HN ES   2    955 54.38                             148     0.2 5   95 176 
 PTB  HZ EP   1    955 38.54                             135     0.1 7  147 261 
 PTB  HN ES   2    955 59.80                             135    -0.4 5  147 261 
 PTB  HZ I         956  6.77         1.5 0.59                           147 261 
                                                                                
