 2016  420 0044 22.2 L   6.786 -73.143144.0  RSN  7 0.4 1.7LRSN                1
 GAP=244        0.90       5.6     4.9  6.5  0.7360E+01  0.9887E+01  0.4043E+00E
 Epicentro: LOS SANTOS - SANTANDER                                             3
 ACTION:UPD 16-05-05 14:22 OP:rebc STATUS:               ID:20160420004422 L   I
 OLDACT:UP  16-04-20 13:02 OP:drio STATUS:               ID:20160420003747     3
 OLDACT:ARG 16-04-20 12:40 OP:cara STATUS:               ID:20160420003747     3
 2016-04-20-0037-47M.COL___310                                                 6
 STAT SP IPHASW D HRMM SECON CODA AMPLIT PERI AZIMU VELO AIN AR TRES W  DIS CAZ7
 BAR2 EZ EP        044 41.37                             171   -0.1710 21.9 192 
 BAR2 EZ ES        044 56.81                             171    0.1510 21.9 192 
 BAR2 EZ I         044 58.24         7.6 0.26            164           21.9 192 
 RUS  HZ EP        044 45.61                             144   -0.0010 99.0 176 
 RUS  HE ES        045  4.00                             144    0.0910 99.0 176 
 RUS  HZ I         045  6.64         4.6 0.48            144           99.0 176 
 PTB  HZ EP        044 48.36                             132   -0.62 9  148 259 
 PTB  HE ES        045  9.50                             132   -0.40 9  148 259 
 PTB  HZ I         045 16.87         7.1 0.48            130            148 259 
 SPBC HZ EP        044 50.49                             129    0.07 9  162 219 
 SPBC HE ES        045 12.66                             129    0.19 9  162 219 
 SPBC HZ I         045 19.34         9.9 0.28            128            162 219 
 ZAR  HZ EP   4    044 56.16                             122    1.59 0  205 293 
 ZAR  HN ES        045 20.42                             122    0.56 9  205 293 
 ZAR  HZ I         045 25.07         6.4 0.36            123            205 293 
 NOR  HZ EP        044 57.39                             118   -0.32 8  234 235 
 NOR  HN ES        045 25.33                             118   -0.11 8  234 235 
 NOR  HZ I         045 32.68         4.8 0.20            118            234 235 
 GUY2CHZ EP        045  6.54                             112    0.93 7  301 235 
 GUY2CHN ES   4    045 42.13                             112    2.63 0  301 235 
 GUY2CHZ I         045 48.21         2.4 0.44                           301 235 
                                                                                
