 2010  820 0441 13.2 L   6.768 -73.120142.4  RSN  9 0.5 1.7LRSN                1
 GAP=162        1.34       5.7    10.2 10.8 -0.2281E+02  0.3004E+01  0.4731E+01E
 Epicentro: LOS SANTOS - SANTANDER                                             3
 ACTION:UP  10-09-07 10:56 OP:vdl  STATUS:               ID:20100820044113 L   I
 2010-08-20-0440-11S.COL___117                                                 6
 STAT SP IPHASW D HRMM SECON CODA AMPLIT PERI AZIMU VELO SNR AR TRES W  DIS CAZ7
 BAR2 SZ EP   1    441 31.85                                    -0.5 7   21 200 
 BAR2 SZ ES   1    441 47.20                             171    -0.1 7   21 200 
 BAR2 SZ I         441 48.25        23.4 0.27                            21 200 
 BRR  HZ EP        441 33.95                             151    -0.310   75 300 
 BRR  HN ES   1    441 50.44                             151    -0.2 7   75 300 
 BRR  HZ I         441 51.96        10.8 0.20                            75 300 
 RUS  HZ EP        441 36.10                             144    -0.210   97 178 
 RUS  HN ES   1    441 54.32                             144    -0.1 7   97 178 
 RUS  HZ I         441 55.91         4.7 0.65                            97 178 
 GUE  SZ EP        441 37.13                             138    -0.710  119  10 
 GUE  SZ I         441 37.96         2.9 0.03                           119  10 
 GRA  SZ EP        441 38.99                             136     0.610  128  16 
 GRA  SZ I         441 40.29         6.1 0.16                           128  16 
 GRA  SZ ES   1    441 58.98                             136     1.0 7  128  16 
 CHI  HZ EP   1    441 50.19                             117    -0.2 6  246 196 
 CHI  HN ES   1    442 20.30                             117     0.9 6  246 196 
 CHI  HZ I         442 25.92         2.8 0.24                           246 196 
 HEL  HN ES   2    442 24.67                             114    -0.2 4  274 257 
 HEL  HZ I         442 30.39         2.2 0.24                           274 257 
 RREF HN ES   1    442 35.83                             110     0.8 5  322 230 
 RREF HZ I         442 41.68         2.8 0.23                           322 230 
 PRA  HN ES   1    442 48.15                             106     0.3 4  390 210 
 PRA  HZ I         442 53.78         2.9 0.72                           390 210 
                                                                                
