 2013 1120 0657 48.6 L   6.794 -73.173143.2  RSN 17 0.5 2.0LRSN                1
 GAP=133        1.10       3.0     4.3  5.9 -0.8733E+00  0.6693E+01 -0.1369E-01E
 Epicentro: LOS SANTOS - SANTANDER                                             3
 ACTION:UPD 14-01-09 16:29 OP:ep   STATUS:               ID:20131120065748 L   I
 OLDACT:REG 13-11-20 07:29 OP:nd   STATUS:               ID:20131120065000     3
 2013-11-20-0650-00M.COL___279                                                 6
 STAT SP IPHASW D HRMM SECON CODA AMPLIT PERI AZIMU VELO AIN AR TRES W  DIS CAZ7
 BAR2 SZ IP     D  658  8.33                             171    0.3810 22.4 183 
 BAR2 SZ ES        658 23.59                             171    0.5910 22.4 183 
 BAR2 SZ I         658 26.05        39.4 0.26            167           22.4 183 
 BRR  HZ EP        658 10.11                             153    0.7310 68.9 300 
 BRR  HN ES        658 25.79                             153    0.2310 68.9 300 
 BRR  HZ I         658 31.76        17.1 0.10            151           68.9 300 
 PAM  SZ EP        658 10.99                             150    0.2610 79.8  41 
 PAM  SN ES        658 27.52                             150   -0.4510 79.8  41 
 PAM  SZ I         658 30.52        24.7 0.52            152           79.8  41 
 RUS  HZ EP        658 12.14                             143    0.0210  100 174 
 RUS  HN ES        658 30.28                             143   -0.1510  100 174 
 RUS  HZ I         658 32.12         9.9 0.40            141            100 174 
 PTB  HZ EP        658 14.90                             132   -0.22 9  145 259 
 PTB  HN ES        658 35.23                             132   -0.55 9  145 259 
 PTB  HZ I         658 43.95        16.0 0.34            129            145 259 
 TAM  HZ EP   4    658 16.28                             130   -0.10 0  158 104 
 TAM  HN ES   4    658 37.49                             130   -0.52 0  158 104 
 TAM  HZ I         658 39.55        16.3 0.44            130            158 104 
 OCA  HZ EP        658 16.65                             129   -0.13 9  161 354 
 OCA  HN ES        658 38.44                             129   -0.29 9  161 354 
 OCA  HZ I         658 43.54        15.1 0.36            129            161 354 
 ZAR  HZ EP        658 20.92                             122    0.26 9  202 293 
 ZAR  HN ES        658 45.96                             122    0.33 9  202 293 
 ZAR  HZ I         658 48.59        10.5 0.14            121            202 293 
 NOR  HZ EP        658 24.16                             118    0.24 8  232 234 
 NOR  HN ES        658 51.35                             118   -0.09 8  232 234 
 NOR  HZ I         658 59.47         7.5 0.26            116            232 234 
 SML  HZ EP        658 24.53                             117   -0.52 8  243 336 
 SML  HN ES        658 52.83                             117   -0.62 8  243 336 
 SML  HZ I         658 56.34        24.1 0.08            117            243 336 
 CHI  HZ EP        658 26.05                             117    0.00 8  247 195 
 CHI  HN ES        658 54.24                             117   -0.99 8  247 195 
 CHI  HZ I         658 59.73         4.8 0.46            115            247 195 
 ROSC BZ EP   4    658 26.89                             116    0.49 0  251 211 
 ROSC BN ES   4    658 59.31                             116    3.47 0  251 211 
 HEL  HZ EP   2    658 30.41                             115    2.03 4  269 256 
 HEL  HN ES   2    658 58.94                             115   -0.44 4  269 256 
 HEL  HZ I         659  7.22         5.3 0.34            113            269 256 
 GUY2CHZ EP   4    658 32.70                             112    0.89 0  298 235 
 GUY2CHN ES   4    659  6.66                             112    1.17 0  298 235 
 GUY2CHZ I         659 14.82         6.8 0.28                           298 235 
 PTGC HZ EP   4    658 31.16                             111   -1.28 0  309 158 
 PTGC HZ I         658 52.24         5.1 0.50            110            309 158 
 PTGC HN ES   4    658 55.66                             111   -11.0 0  309 158 
 RREF HZ EP   4    658 35.69                             111    1.32 0  319 229 
 RREF HN ES   4    659 11.74                             111    1.71 0  319 229 
 RREF HZ I         659 18.00         6.5 0.26            109            319 229 
 CBOC HZ EP   4    658 36.59                             110    1.49 0  331 252 
 CBOC HN ES   4    659 12.85                             110    1.51 0  331 252 
 CBOC HZ I         659 21.42         1.9 0.40            108            331 252 
 SJC  HZ EP   4    658 42.32                             105   -1.67 0  408 327 
 SJC  HN ES   4    659 18.86                             105   -8.30 0  408 327 
 SJC  HZ I         659 28.68         2.2 0.60            105            408 327 
                                                                                
