 2016  320 0729 41.5 L   6.788 -73.158142.0  RSN  5 0.4 1.5LRSN                1
 GAP=136        0.64       3.9     4.9  6.3 -0.5481E+01  0.1116E+02 -0.6715E+01E
 Epicentro: LOS SANTOS - SANTANDER                                             3
 ACTION:UPD 16-05-13 21:25 OP:cam  STATUS:               ID:20160320072941 L   I
 OLDACT:REG 16-03-20 14:45 OP:dnl  STATUS:               ID:20160320072744     3
 2016-03-20-0727-44M.COL___294                                                 6
 STAT SP IPHASW D HRMM SECON CODA AMPLIT PERI AZIMU VELO AIN AR TRES W  DIS CAZ7
 BAR2 EZ EP        730  0.41                             171   -0.2010 21.8 187 
 BAR2 EZ ES        730 15.67                             171    0.1210 21.8 187 
 BAR2 EZ I         730 16.95        11.7 0.28            174           21.8 187 
 PAM  EZ EP        730  3.15                             150   -0.2510 79.2  40 
 PAM  EN ES        730 20.66                             150    0.1610 79.2  40 
 PAM  EZ I         730 25.27         3.3 0.24            151           79.2  40 
 RUS  HZ EP   2    730  4.40                             144   -0.36 5 99.4 175 
 RUS  HN ES        730 23.06                             144    0.1310 99.4 175 
 RUS  HZ I         730 24.46         3.5 0.22            149           99.4 175 
 PTB  HZ EP   2    730  8.63                             132    0.64 5  146 259 
 PTB  HN ES   2    730 27.93                             132   -0.74 5  146 259 
 PTB  HZ I         730 30.76         3.7 0.14            133            146 259 
 ZAR  HZ EP   2    730 14.38                             122    0.79 4  203 293 
 ZAR  HE ES   2    730 38.70                             122    0.05 4  203 293 
 ZAR  HZ I         730 43.61         4.2 0.18            123            203 293 
                                                                                
