 2015 1120 0423  1.0 L   6.781 -73.068150.7  RSN  9 0.5 1.7LRSN                1
 GAP=148        1.07       3.7     5.1  6.5 -0.1238E+01  0.1229E+02 -0.1457E+01E
 Epicentro: LOS SANTOS - SANTANDER                                             3
 ACTION:UPD 15-12-28 16:12 OP:cam  STATUS:               ID:20151120042301 L   I
 OLDACT:UP  15-11-20 15:30 OP:ak   STATUS:               ID:20151120041743d    3
 OLDACT:DUP 15-11-20 15:24 OP:ak   STATUS:               ID:20151120041743d    3
 OLDACT:UP  15-11-20 15:16 OP:ak   STATUS:               ID:20151120041741     3
 OLDACT:REG 15-11-20 13:10 OP:ak   STATUS:               ID:20151120041741     3
 2015-11-20-0417-41M.COL___316                                                 6
 STAT SP IPHASW D HRMM SECON CODA AMPLIT PERI AZIMU VELO AIN AR TRES W  DIS CAZ7
 BAR2 EZ EP        423 21.12                             170   -0.0910 24.4 211 
 BAR2 EZ ES        423 36.70                             170   -0.2910 24.4 211 
 BAR2 EZ I         423 39.22         5.8 0.22            169           24.4 211 
 PAM  EZ EP        423 24.17                             152    0.6610 74.0  33 
 PAM  EN ES        423 41.45                             152    0.3610 74.0  33 
 PAM  EZ I         423 43.49         8.6 0.60            155           74.0  33 
 BRR  HZ EP        423 23.23                             151    0.0910 79.8 297 
 BRR  HN ES        423 40.32                             151   -0.1110 79.8 297 
 BRR  HZ I         423 41.94         6.7 0.32            150           79.8 297 
 RUS  HZ EP        423 25.11                             145    0.0710 98.3 181 
 RUS  HN ES        423 43.62                             145   -0.1910 98.3 181 
 SPBC HZ EP        423 30.25                             129    0.04 9  167 222 
 SPBC HN ES        423 52.47                             129   -0.56 9  167 222 
 SPBC HZ I         423 57.71         7.4 0.10            131            167 222 
 ZAR  HZ EP        423 34.54                             122   -0.09 8  213 292 
 ZAR  HN ES        424  1.49                             122    0.60 8  213 292 
 ZAR  HZ I         424  6.35         6.6 0.28            123            213 292 
 SML  HZ EP   1    423 37.44                             118   -1.03 6  249 334 
 SML  HE ES        424  7.04                             118   -0.68 8  249 334 
 GUY2CHZ EP   4    423 47.52                             113    2.06 0  307 236 
 GUY2CHN ES        424 21.18                             113    1.01 7  307 236 
 GUY2CHZ I         424 28.27         2.3 0.28                           307 236 
 CBOC HZ EP        423 48.59                             110   -0.36 7  341 253 
 SJC  HZ EP   4    423 55.34                             106   -2.11 0  416 326 
                                                                                
