 2014  920 0638 30.2 L   6.824 -73.210141.8  RSN  5 0.3 1.2LRSN                1
 GAP=128        0.72       3.3     4.9  7.1 -0.3296E+01  0.8521E+01  0.8354E+00E
 Epicentro: ZAPATOCA - SANTANDER                                               3
 ACTION:UPD 14-10-03 23:06 OP:nd   STATUS:               ID:20140920063830 L   I
 OLDACT:DUP 14-09-20 16:47 OP:spq  STATUS:               ID:20140920062807d    3
 OLDACT:UP  14-09-20 16:46 OP:spq  STATUS:               ID:20140920062806     3
 OLDACT:REG 14-09-20 12:38 OP:spq  STATUS:               ID:20140920062806     3
 2014-09-20-0628-06M.COL___293                                                 6
 STAT SP IPHASW D HRMM SECON CODA AMPLIT PERI AZIMU VELO AIN AR TRES W  DIS CAZ7
 BAR2 SZ EP        638 49.59                             169    0.1810 25.8 173 
 BAR2 SZ ES   1    639  4.88                             169    0.49 7 25.8 173 
 BAR2 SZ I         639  8.43         2.1 0.13            169           25.8 173 
 PAM  SZ EP        638 52.54                             149    0.3710 80.2  45 
 PAM  SE ES        639  9.19                             149   -0.1110 80.2  45 
 PAM  SZ I         639 10.26         3.9 0.16            156           80.2  45 
 RUS  HZ EP        638 53.62                             142   -0.2010  104 172 
 RUS  HN ES   1    639 11.72                             142   -0.52 7  104 172 
 RUS  HZ I         639 14.02         1.8 0.35            146            104 172 
 PTB  HZ EP   1    638 56.36                             132    0.10 7  141 257 
 PTB  HE ES   1    639 16.62                             132    0.03 7  141 257 
 PTB  HZ I         639 22.69         3.3 0.15            133            141 257 
 OCA  HN ES        639 19.14                             129   -0.34 9  157 356 
 OCA  HZ I         639 21.03         2.1 0.12            134            157 356 
                                                                                
