 2016  920 0328 45.5 L   6.801 -73.106146.0  RSN 14 0.6 2.1LRSN                1
 GAP=122        1.12       3.5     3.8  6.4 -0.1654E+01  0.1952E+01  0.6784E+01E
 Epicentro: LOS SANTOS - SANTANDER                                             3
 ACTION:UPD 17-08-17 21:14 OP:lp   STATUS:               ID:20160920032845 L   I
 OLDACT:UP  16-09-20 19:05 OP:and  STATUS:               ID:20160920031729     3
 OLDACT:UP  16-09-20 19:02 OP:and  STATUS:               ID:20160920031729     3
 OLDACT:UP  16-09-20 18:59 OP:and  STATUS:               ID:20160920031729     3
 OLDACT:REG 16-09-20 12:39 OP:and  STATUS:               ID:20160920031729     3
 2016-09-20-0318-00M.COL___363                                                 6
 STAT SP IPHASW D HRMM SECON CODA AMPLIT PERI AZIMU VELO AIN AR TRES W  DIS CAZ7
 BAR2 EZ IP        329  5.27                             170    0.1110 24.6 200 
 BAR2 EZ ES        329 20.14                             170   -0.3810 24.6 200 
 BAR2 EZ I         329 22.40        37.9 0.26            168           24.6 200 
 PAM  EZ EP        329  8.26                             152    0.7010 74.6  37 
 PAM  EN ES        329 25.02                             152    0.2410 74.6  37 
 PAM  EZ I         329 27.42        23.4 0.50            155           74.6  37 
 BRR  HZ IP     C  329  7.09                             151    0.2210 75.0 297 
 BRR  HE ES        329 24.08                             151    0.5210 75.0 297 
 BRR  HZ I         329 24.89        22.7 0.16            149           75.0 297 
 RUS  HZ EP        329  9.36                             144    0.1110  100 179 
 RUS  HN ES   2    329 28.12                             144    0.34 5  100 179 
 RUS  HZ I         329 29.62        15.1 0.16            144            100 179 
 PTB  HZ EP        329 12.10                             131   -0.76 9  152 259 
 PTB  HN ES        329 33.47                             131   -0.74 9  152 259 
 PTB  HZ I         329 35.56        13.4 0.15            130            152 259 
 OCA  HZ EP        329 13.85                             130   -0.00 9  161 352 
 OCA  HN ES        329 35.06                             130   -0.92 9  161 352 
 OCA  HZ I         329 38.60        16.0 0.32            131            161 352 
 SPBC HZ EP        329 14.22                             129   -0.05 9  166 220 
 SPBC HN ES        329 37.46                             129    0.74 9  166 220 
 SPBC HZ I         329 43.01        20.1 0.10            128            166 220 
 ZAR  HZ EP   3    329 19.70                             122    1.35 2  208 292 
 ZAR  HE ES        329 44.22                             122    0.23 8  208 292 
 ZAR  HZ I         329 49.99        19.5 0.32            122            208 292 
 NOR  HZ EP        329 21.72                             118    0.11 8  238 235 
 NOR  HN ES        329 49.67                             118   -0.12 8  238 235 
 NOR  HZ I         329 53.05        11.1 0.44            118            238 235 
 CHI  HZ EP   2    329 24.62                             117    1.29 4  250 196 
 CHI  HN ES   2    329 52.86                             117    0.01 4  250 196 
 CHI  HZ I         329 56.69         2.6 0.20            118            250 196 
 HEL  HZ EP   3    329 27.64                             115    1.47 2  276 256 
 HEL  HN ES        329 57.86                             115   -0.06 7  276 256 
 HEL  HZ I         330  3.76         8.5 0.40            115            276 256 
 GUY2CHZ EP   3    329 30.97                             112    1.46 2  305 235 
 GUY2CHN ES        330  4.07                             112    0.22 7  305 235 
 GUY2CHZ I         330 11.66         7.9 0.44                           305 235 
 PTGC HZ EP        329 28.70                             112   -0.48 7  307 159 
 PTGC HN ES        330  2.30                             112   -0.97 7  307 159 
 CBOC HZ EP   4    329 34.10                             110    1.22 0  338 252 
 CBOC HE ES   4    330  7.54                             110   -2.32 0  338 252 
 CBOC HZ I         330 21.79         2.7 0.38            110            338 252 
 SJC  HZ EP   4    329 39.92                             106   -1.40 0  412 326 
 SJC  HN ES   4    330 21.30                             106   -3.57 0  412 326 
                                                                                
