 2017  220 0932 48.5 L   6.854 -73.116144.0  RSN 19 0.6 2.2LRSN                1
 GAP= 71        1.42       4.6     4.2  6.8 -0.8603E+00  0.6173E+01  0.9078E+00E
 Epicentro: LOS SANTOS - SANTANDER                                             3
 ACTION:UPD 17-05-24 15:38 OP:jn   STATUS:               ID:20170220093248 L   I
 OLDACT:UP  17-02-20 18:52 OP:edw  STATUS:               ID:20170220092742     3
 OLDACT:UP  17-02-20 18:50 OP:edw  STATUS:               ID:20170220092742     3
 OLDACT:REG 17-02-20 13:09 OP:dani STATUS:               ID:20170220092742     3
 2017-02-20-0928-00M.COL___336                                                 6
 STAT SP IPHASW D HRMM SECON CODA AMPLIT PERI AZIMU VELO AIN AR TRES W  DIS CAZ7
 BAR2 EZ IP     D  933  7.78                             168   -0.3210 29.8 194 
 BAR2 EZ ES        933 22.74                             168   -0.6210 29.8 194 
 BAR2 EZ I         933 24.40        66.6 0.30            165           29.8 194 
 PAM  EZ EP     C  933 10.45                             152    0.2810 70.7  41 
 PAM  EN ES        933 27.67                             152    0.6210 70.7  41 
 PAM  EZ I         933 29.81        20.0 0.18            157           70.7  41 
 BRR  HZ IP     C  933  9.55                             152    0.0410 71.6 293 
 BRR  HN ES        933 27.00                             152    1.1210 71.6 293 
 BRR  HZ I         933 30.62        22.1 0.14            149           71.6 293 
 RUS  HZ IP     D  933 11.62                             142   -0.9110  106 178 
 RUS  HN ES        933 30.42                             142   -0.8410  106 178 
 RUS  HZ I         933 31.19        24.3 0.48            142            106 178 
 PTB  HZ EP   9    933 14.85                             131   -0.91 0  152 257 
 PTB  HN ES        933 35.57                             131   -0.52 9  152 257 
 PTB  HZ I         933 43.09        25.7 0.50            129            152 257 
 TAM  HZ IP     D  933 15.95                             130    0.03 9  154 107 
 TAM  HN ES        933 37.66                             130    0.36 9  154 107 
 TAM  HZ I         933 38.18         8.8 0.20            134            154 107 
 ZAR  HZ EP        933 20.60                             122   -0.35 9  205 290 
 ZAR  HN ES        933 45.72                             122   -0.53 9  205 290 
 ZAR  HZ I         933 55.73        16.8 0.24            121            205 290 
 NOR  HZ EP        933 24.17                             117   -0.65 8  241 234 
 NOR  HN ES        933 53.12                             117   -0.00 8  241 234 
 NOR  HZ I         933 56.47        14.4 0.32            117            241 234 
 CHI  HZ EP   9    933 25.81                             116   -1.04 0  255 196 
 CHI  HN ES        933 55.47                             116   -0.23 8  255 196 
 CHI  HZ I         934  0.90         6.0 0.24            116            255 196 
 ROSC BZ EP        933 27.62                             116    0.33 8  260 211 
 ROSC BN ES        933 58.68                             116    1.15 8  260 211 
 ROSC BZ I         934  5.72        23.0 0.35            115            260 211 
 URE  HZ EP   4    933 32.29                             113    2.68 0  285 291 
 URE  HN ES   4    933 59.28                             113   -2.38 0  285 291 
 URE  HZ I         934  3.78        10.4 0.14            113            285 291 
 PTGC HZ EP   4    933 30.69                             111   -2.11 0  313 160 
 PTGC HN ES   4    934  4.20                             111   -3.14 0  313 160 
 PTGC HZ I         934  6.76         4.4 0.36            112            313 160 
 ELA  HZ EP   4     933 39.03                            109   -99.9 0  335 2299
 ELA  HN ES   4    934 16.99                             109    3.90 0  335 229 
 ELA  HZ I         934 20.72         8.9 0.42            109            335 229 
 CBOC HZ EP        933 36.37                             109    0.43 7  339 251 
 CBOC HN ES        934 12.98                             109    0.05 7  339 251 
 CBOC HZ I         934 23.33         2.8 0.60            109            339 251 
 DBB  EZ EP   9    933 36.06                             109   -0.21 0  342 273 
 DBB  EN ES        934 12.14                             109   -1.16 7  342 273 
 ARGC HZ EP   4    933 39.18                             108    1.58 0  355 340 
 ARGC HN ES        934 15.89                             108    0.01 6  355 340 
 ANIL HZ EP        933 39.84                             108    0.82 6  364 224 
 ANIL HN ES   4    934 20.68                             108    2.27 0  364 224 
 ANIL HZ I         934 26.60        14.5 0.34            108            364 224 
 SJC  HZ EP   4    933 41.97                             105   -1.69 0  406 326 
 SJC  HN ES   4    934 23.02                             105   -3.65 0  406 326 
 SJC  HZ I         934 27.43         5.7 0.44            106            406 326 
 CRJC HZ EP   4    933 47.98                             103   -2.27 0  462   3 
 CRJC HN ES   4    934 37.16                             103   -1.24 0  462   3 
 SMAR HZ EP        933 53.26                             102   -0.50 4  492 346 
 SMAR HN ES   4    934 40.89                             102   -3.76 0  492 346 
                                                                                
