 2014  420 0638 22.9 L   6.825 -73.075147.8  RSN 14 0.6 2.3LRSN                1
 GAP=144        1.33       3.6     6.3  9.3 -0.3364E+01  0.2548E+02  0.2804E+01E
 Epicentro: LOS SANTOS - SANTANDER                                             3
 ACTION:UPD 14-05-13 23:09 OP:nd   STATUS:               ID:20140420063822 L   I
 OLDACT:REG 14-04-20 13:37 OP:nd   STATUS:               ID:20140420063044     3
 2014-04-20-0630-44M.COL___230                                                 6
 STAT SP IPHASW D HRMM SECON CODA AMPLIT PERI AZIMU VELO AIN AR TRES W  DIS CAZ7
 PAM  SZ EP        638 45.54                             153    0.5910 70.4  36 
 PAM  SN ES        639  2.11                             153   -0.0310 70.4  36 
 PAM  SZ I         639  4.72        33.8 0.40            160           70.4  36 
 RUS  HZ EP        638 46.76                             144   -0.2910  103 181 
 RUS  HN ES        639  5.92                             144    0.0510  103 181 
 RUS  HZ I         639  7.27        14.5 0.32            145            103 181 
 PTB  HZ EP   4    638 49.21                             131   -1.59 0  156 258 
 PTB  HN ES   4    639 10.22                             131   -2.33 0  156 258 
 PTB  HZ I         639 15.41        27.1 0.14            131            156 258 
 OCA  HZ EP        638 50.70                             130   -0.54 9  159 350 
 OCA  HN ES        639 13.16                             130   -0.17 9  159 350 
 OCA  HZ I         639 15.62        24.9 0.16            134            159 350 
 SPBC HZ EP        638 51.67                             128   -0.58 9  170 220 
 SPBC HN ES        639 15.64                             128    0.51 9  170 220 
 SPBC HZ I         639 19.89        19.7 0.22            129            170 220 
 ZAR  HZ EP        638 56.29                             122    0.15 8  210 291 
 ZAR  HN ES        639 22.62                             122    0.56 8  210 291 
 ZAR  HZ I         639 25.59        23.3 0.62            124            210 291 
 NOR  HZ EP        638 58.95                             118   -0.67 8  243 235 
 NOR  HN ES   4    639 26.68                             118   -1.57 0  243 235 
 NOR  HZ I         639 33.15        10.1 0.20            120            243 235 
 SML  HZ EP   1    638 58.58                             118   -1.17 6  245 333 
 SML  HN ES   1    639 28.88                             118    0.39 6  245 333 
 SML  HZ I         639 30.21        24.2 0.24            121            245 333 
 CHI  HZ EP        639  1.19                             117   -0.06 8  253 197 
 CHI  HN ES        639 30.62                             117   -0.52 8  253 197 
 CHI  HZ I         639 37.52         8.9 0.52            119            253 197 
 ROSC BZ EP        639  3.14                             116    1.29 8  259 212 
 ROSC BN ES   1    639 31.61                             116   -0.61 6  259 212 
 ROSC BZ I         639 38.10        21.4 0.35            118            259 212 
 HEL  HZ EP        639  4.94                             114    0.79 7  280 256 
 HEL  HN ES        639 35.24                             114   -1.07 7  280 256 
 HEL  HZ I         639 41.39        12.0 0.30            116            280 256 
 URE  HZ EP   4    639  3.96                             113   -0.83 0  290 291 
 URE  HN ES   4    639 39.67                             113    2.22 0  290 291 
 URE  HZ I         639 42.94        16.8 0.20            115            290 291 
 RREF HZ EP        639 11.02                             111    0.99 7  330 230 
 RREF HN ES   1    639 46.83                             111    0.05 5  330 230 
 RREF HZ I         639 54.50        12.2 0.26            113            330 230 
 SJC  HZ EP   4    639 17.17                             106   -1.61 0  411 326 
 SJC  HN ES   4    639 58.03                             106   -4.33 0  411 326 
 SJC  HZ I         640  2.20         5.6 0.40            108            411 326 
                                                                                
