 2010 1020 0027  6.7 L   6.787 -73.100144.3  RSN  8 0.3 1.6LRSN                1
 GAP=164        0.87       4.8    10.4  8.9  0.7500E+01 -0.2999E+02 -0.1348E+02E
 Epicentro: LOS SANTOS - SANTANDER                                             3
 ACTION:UP  11-02-18 11:10 OP:tino STATUS:               ID:20101020002706 L   I
 2010-10-20-0023-37S.COL___126                                                 6
 STAT SP IPHASW D HRMM SECON CODA AMPLIT PERI AZIMU VELO SNR AR TRES W  DIS CAZ7
 BAR2 SZ EP   1    027 25.99                             170    -0.1 7   23 203 
 BAR2 SZ ES   1    027 40.98                             170    -0.3 7   23 203 
 BAR2 SZ I         027 42.68        20.2 0.39                            23 203 
 BTL  SZ EP   1    027 27.12                             170     1.0 7   24 308 
 BRR  HZ IP     D  027 27.84                             150    -0.110   76 298 
 BRR  HN ES   1    027 44.74                             150     0.2 7   76 298 
 BRR  HZ I         027 50.09        12.2 0.02                            76 298 
 RUS  HZ EP   1    027 30.14                             144     0.0 7   99 179 
 RUS  HN ES   1    027 48.51                             144     0.0 7   99 179 
 RUS  HZ I         027 49.84         5.3 0.52                            99 179 
 GUE  SZ EP   1    027 31.22                             139    -0.1 7  117   9 
 GUE  SZ I         027 56.16         4.1 0.09                           117   9 
 GRA  SZ IP        027 31.69                             137    -0.110  126  15 
 GRA  SZ I         027 54.04         6.1 0.23                           126  15 
 OCA  SZ ES   1    027 57.15                             129    -0.1 7  162 351 
 OCA  SZ I         028  0.58        11.7 0.07                           162 351 
 NOR  SZ EP   2    027 42.38                             118    -0.3 4  238 236 
 NOR  SZ I         028 14.70         0.8 0.16                           238 236 
                                                                                
