 2012  720 0237 25.2 L   6.645 -73.223151.8  RSN  4 0.3 1.4LRSN                1
 GAP=188        0.69       8.5     7.1 10.1  0.1382E+02 -0.9946E+01 -0.3258E+01E
 Epicentro: BARICHARA - SANTANDER                                              3
 ACTION:UPD 12-08-14 11:46 OP:ep   STATUS:               ID:20120720023725 L   I
 2012-07-20-0230-00M.COL___215                                                 6
 STAT SP IPHASW D HRMM SECON CODA AMPLIT PERI AZIMU VELO AIN AR TRES W  DIS CAZ7
 BAR2 SZ EP        237 45.05                             177    -0.310    7 142 
 BRR  HZ EP        237 47.31                             152     0.110   74 313 
 BRR  HN ES   1    238  4.46                             152     0.1 7   74 313 
 BRR  HZ I         238 10.36        11.1 0.42            152             74 313 
 RUS  HN ES   2    238  7.04                             150     0.4 5   85 169 
 PTB  HZ EP   1    237 52.14                             135     0.4 7  137 265 
 PTB  HN ES   1    238 12.12                             135    -0.3 7  137 265 
 PTB  HZ I         238 15.12         1.2 0.28            140            137 265 
