 2011  520 0327 39.2 L   6.756 -73.099145.1  RSN 16 0.3 2.5LRSN                1
 GAP=145        0.68       2.7     4.3  4.5 -0.5382E+01  0.6408E+01  0.3696E+00E
 Epicentro: LOS SANTOS - SANTANDER                                             3
 ACTION:UP  11-06-29 08:54 OP:tino STATUS:               ID:20110520032739 L   I
 2011-05-20-0325-29S.COL___140                                                 6
 STAT SP IPHASW D HRMM SECON CODA AMPLIT PERI AZIMU VELO SNR AR TRES W  DIS CAZ7
 BAR2 SZ EP        327 58.83                             172     0.110   20 207 
 BAR2 SZ ES   1    328 13.63                             172    -0.3 7   20 207 
 BAR2 SZ I         328 15.51        71.8 0.24                            20 207 
 BTL  SZ IP        327 59.02                             169     0.210   26 314 
 GIR2 SZ EP        327 58.93                             165    -0.110   37 344 
 BRR  HZ IP     D  328  0.76                             150     0.110   78 300 
 BRR  HE ES   1    328 17.97                             150     0.5 7   78 300 
 PAM  SZ EP        328  1.63                             150     0.210   78  34 
 PAM  SE ES   1    328 18.54                             150    -0.2 7   78  34 
 RUS  HZ EP        328  2.69                             145     0.110   96 179 
 RUS  HN ES   1    328 20.58                             145    -0.2 7   96 179 
 RUS  HZ I         328 22.64        30.5 0.20                            96 179 
 BRI  SZ EP   1    328  3.38                             140     0.1 7  111  17 
 GRA  SZ EP   1    328  4.66                             136     0.0 7  129  15 
 GRA  SZ I         328  5.97        48.1 0.34                           129  15 
 GRA  SZ ES   1    328 24.55                             136     0.0 7  129  15 
 OCA  SZ EP        328  7.41                             128    -0.6 9  166 352 
 OCA  SZ ES   1    328 30.22                             128    -0.2 7  166 352 
 OCA  SZ I         328 35.77        48.7 0.36                           166 352 
 NOR  SZ EP   1    328 14.42                             118    -0.6 6  236 236 
 NOR  SN ES   1    328 42.66                             118    -0.4 6  236 236 
 HEL  HZ EP   1    328 19.78                             114     0.0 6  276 257 
 HEL  HZ I         329  0.07         9.9 0.26                           276 257 
 GUY  SZ EP   2    328 23.24                             112     0.0 4  305 236 
 GUY  SZ I         329  5.25        27.1 0.34                           305 236 
 RREF HZ EP   1    328 25.94                             111     0.5 5  323 231 
 RREF HE ES   1    329  1.33                             111    -0.1 5  323 231 
 RREF HZ I         329  7.46        22.9 0.34                           323 231 
 TOL  SZ EP   1    328 28.00                             109     0.5 5  344 226 
 DBB  SZ EP   1    328 27.90                             109     0.6 5  345 275 
 PRA  HZ EP   1    328 32.02                             106    -0.5 4  390 211 
 PRA  HE ES   1    329 14.12                             106     0.0 4  390 211 
                                                                                
