 2012  420 0354 53.5 L   6.773 -73.149148.6  RSN  6 0.4 1.4LRSN                1
 GAP=137        0.91       6.2     5.8  8.6  0.1676E+01  0.5717E+01  0.4329E+01E
 Epicentro: LOS SANTOS - SANTANDER                                             3
 ACTION:UPD 12-07-05 11:54 OP:tino STATUS:               ID:20120420035453 L   I
 2012-04-20-0350-00M.COL___187                                                 6
 STAT SP IPHASW D HRMM SECON CODA AMPLIT PERI AZIMU VELO AIN AR TRES W  DIS CAZ7
 BAR2 SZ ES   1    355 28.77                             172    -0.1 7   20 190 
 BAR2 SZ I         355 32.73         5.5 0.27                            20 190 
 BRR  HZ EP   1    355 15.48                             152     0.5 7   72 301 
 BRR  HN ES        355 32.06                             152     0.310   72 301 
 BRR  HZ I         355 36.14         7.4 0.15                            72 301 
 PAM  SZ EP   1    355 16.45                             151     0.3 7   80  38 
 PAM  SN ES   1    355 33.22                             151    -0.6 7   80  38 
 PAM  SZ I         355 35.96         3.7 0.61                            80  38 
 RUS  HZ EP   1    355 16.81                             145    -0.5 7   98 176 
 RUS  HN ES   1    355 36.16                             145     0.3 7   98 176 
 RUS  HZ I         355 37.71         3.2 0.24                            98 176 
 PTB  HZ EP   1    355 20.55                             133     0.0 7  147 260 
 PTB  HN ES   1    355 41.40                             133    -0.3 7  147 260 
 PTB  HZ I         355 43.91         2.3 0.20                           147 260 
 ZAR  HN ES   2    355 51.26                             123    -0.4 4  205 293 
                                                                                
