 2017  920 0943 41.5 L   6.727 -73.063139.5  RSN  7 0.4 1.6LRSN                1
 GAP=151        0.96       4.4     5.5  6.8 -0.6335E+01  0.2359E+01  0.1024E+02E
 Epicentro: JORDAN - SANTANDER                                                 3
 ACTION:UPD 17-10-05 19:14 OP:rebc STATUS:               ID:20170920094341 L   I
 OLDACT:UP  17-09-20 17:44 OP:and  STATUS:               ID:20170920093740     3
 OLDACT:UP  17-09-20 17:44 OP:and  STATUS:               ID:20170920093740     3
 OLDACT:UP  17-09-20 17:44 OP:and  STATUS:               ID:20170920093740     3
 OLDACT:UP  17-09-20 17:43 OP:and  STATUS:               ID:20170920093740     3
 OLDACT:UP  17-09-20 17:42 OP:and  STATUS:               ID:20170920093740     3
 OLDACT:REG 17-09-20 17:33 OP:and  STATUS:               ID:20170920093740     3
 2017-09-20-0938-00M.COL___443                                                 6
 STAT SP IPHASW D HRMM SECON CODA AMPLIT PERI AZIMU VELO AIN AR TRES W  DIS CAZ7
 BAR2 EZ EP        943 59.89                             171   -0.3810 19.9 222 
 BAR2 EZ ES        944 14.74                             171   -0.2010 19.9 222 
 BAR2 EZ I         944 16.77        11.3 0.28            170           19.9 222 
 PAM  EZ IP     C  944  3.16                             149    0.0610 78.8  31 
 PAM  EN ES        944 20.02                             149    0.0510 78.8  31 
 PAM  EZ I         944 23.09         9.3 0.46            151           78.8  31 
 BRR  HE ES        944 19.22                             148   -0.0010 83.1 300 
 RUS  HZ EP        944  3.71                             145   -0.2910 92.3 181 
 RUS  HN ES        944 22.36                             145    0.7810 92.3 181 
 RUS  HZ I         944 23.64         5.6 0.34            144           92.3 181 
 ZAR  HZ EP   9    944 13.15                             120   -1.58 0  216 293 
 ZAR  HE ES        944 38.86                             121   -0.23 8  216 293 
 ZAR  HZ I         944 40.77         5.3 0.20            121            216 293 
 CHI  HN ES        944 46.33                             116   -0.62 8  243 198 
 CHI  HZ I         944 54.51         2.0 0.58            117            243 198 
 GUY2CHZ EP        944 25.80                             111    0.67 7  304 237 
 GUY2CHN ES        944 59.27                             111    0.07 7  304 237 
 GUY2CHZ I         945  6.05         1.5 0.26                           304 237 
                                                                                
