 2017  820 0937  2.7 L   6.804 -73.124145.8  RSN 15 0.6 1.8LRSN                1
 GAP=114        0.98       3.4     3.9  5.3  0.1616E+01  0.4848E+01  0.3895E+01E
 Epicentro: LOS SANTOS - SANTANDER                                             3
 ACTION:UPD 17-09-04 20:22 OP:rebc STATUS:               ID:20170820093702 L   I
 OLDACT:UP  17-08-20 16:23 OP:mg   STATUS:               ID:20170820092740d    3
 OLDACT:UP  17-08-20 16:23 OP:mg   STATUS:               ID:20170820092740d    3
 OLDACT:DUP 17-08-20 16:09 OP:mg   STATUS:               ID:20170820092740d    3
 2017-08-20-0928-00M.COL___405                                                 6
 STAT SP IPHASW D HRMM SECON CODA AMPLIT PERI AZIMU VELO AIN AR TRES W  DIS CAZ7
 BAR2 EZ IP     D  937 22.12                             170   -0.2010 24.3 195 
 BAR2 EZ ES        937 37.08                             170   -0.5710 24.3 195 
 BAR2 EZ I         937 39.94        12.8 0.28            167           24.3 195 
 BRR  HZ IP     C  937 23.91                             152   -0.0210 73.1 297 
 BRR  HE ES        937 41.05                             152    0.5410 73.1 297 
 BRR  HZ I         937 44.09        10.7 0.30            151           73.1 297 
 PAM  EZ IP        937 25.15                             151    0.3710 75.5  38 
 PAM  EN ES   1    937 42.25                             151    0.23 7 75.5  38 
 PAM  EZ I         937 44.80         4.7 0.48            149           75.5  38 
 RUS  HZ EP        937 26.54                             144    0.1010  101 177 
 RUS  HN ES   1    937 44.87                             144   -0.12 7  101 177 
 RUS  HZ I         937 46.85         7.7 0.28            139            101 177 
 SPBC HZ EP        937 31.21                             129   -0.13 9  165 220 
 SPBC HN ES   1    937 53.26                             129   -0.45 7  165 220 
 SPBC HZ I         937 55.92         9.8 0.10            125            165 220 
 YPLC HZ IP        937 32.64                             127    0.25 9  176 152 
 YPLC HN ES   2    937 56.90                             127    1.32 4  176 152 
 YPLC HZ I         937 57.53         7.5 0.26            122            176 152 
 ZAR  HZ EP        937 34.45                             122   -0.87 8  206 292 
 ZAR  HN ES   1    938  0.42                             122   -0.38 6  206 292 
 ZAR  HZ I         938  7.87         4.7 0.14            119            206 292 
 NOR  HZ EP        937 38.39                             118   -0.24 8  237 235 
 NOR  HN ES        938  6.59                             118   -0.10 8  237 235 
 NOR  HZ I         938  8.70         4.0 0.18            115            237 235 
 CHI  HZ EP     D  937 40.49                             117    0.01 8  250 196 
 CHI  HN ES   1    938  9.80                             117   -0.18 6  250 196 
 CHI  HZ I         938 15.79         2.7 0.40            114            250 196 
 ROSC BZ EP   2    937 42.79                             116    1.82 4  254 211 
 ROSC BN ES   4    938 14.79                             116    3.95 0  254 211 
 ROSC BZ I         938 20.37         4.1 0.30            113            254 211 
 URE  HZ EP   2    937 42.70                             113   -1.27 4  286 292 
 URE  HN ES        938 16.70                             113    0.52 7  286 292 
 URE  HZ I         938 22.99         2.9 0.18            111            286 292 
 GUY2CHZ EP   2    937 47.69                             112    1.16 4  303 235 
 GUY2CHN ES   1    938 21.46                             112    0.72 5  303 235 
 GUY2CHZ I         938 28.50         4.2 0.82                           303 235 
 PTGC HZ EP   2    937 45.43                             112   -1.04 4  308 159 
 PTGC HZ I         938 18.59         3.9 0.32            108            308 159 
 PTGC HN ES   3    938 18.63                             112   -2.01 2  308 159 
 PRA  HZ EP   1    937 56.19                             106   -0.18 4  394 210 
 PRA  HN ES   1    938 38.82                             106    0.56 4  394 210 
 PRA  HZ I         938 44.50         1.8 0.38            104            394 210 
 SJC  HZ EP        937 58.41                             106    0.07 6  410 327 
 SJC  HN ES   4    938 39.58                             106   -2.18 0  410 327 
                                                                                
