 2017 1020 0943 28.6 L   6.824 -73.161147.7  RSN  4 0.4 1.2LRSN                1
 GAP=144        1.15       7.2     6.9  9.7 -0.1560E+02  0.1816E+02 -0.6115E+01E
 Epicentro: LOS SANTOS - SANTANDER                                             3
 ACTION:UPD 17-11-07 19:34 OP:rebc STATUS:               ID:20171020094328 L   I
 OLDACT:UP  17-10-20 18:53 OP:dani STATUS:               ID:20171020093411     3
 OLDACT:REG 17-10-20 13:24 OP:dani STATUS:               ID:20171020093411     3
 2017-10-20-0938-00M.COL___438                                                 6
 STAT SP IPHASW D HRMM SECON CODA AMPLIT PERI AZIMU VELO AIN AR TRES W  DIS CAZ7
 BAR2 EZ EP        943 48.51                             170   -0.0210 25.7 185 
 BAR2 EZ ES        944  3.89                             170   -0.1710 25.7 185 
 BAR2 EZ I         944  4.67         4.0 0.34            171           25.7 185 
 PAM  EZ EP        943 51.60                             151    0.6210 76.5  42 
 PAM  EN ES        944  8.17                             151   -0.2610 76.5  42 
 PAM  EZ I         944 10.72         5.5 0.47            153           76.5  42 
 RUS  HZ EP        943 51.91                             143   -0.8410  103 175 
 RUS  HN ES        944 12.15                             143    0.5710  103 175 
 RUS  HZ I         944 12.62         3.5 0.36            146            103 175 
 PTB  HZ EP        943 55.80                             133    0.17 9  147 258 
 PTB  HN ES        944 16.67                             133   -0.04 9  147 258 
 PTB  HZ I         944 19.30         1.0 0.21            134            147 258 
                                                                                
