 2011 1220 0206 59.7 L   6.754 -73.152140.6  RSN  6 0.4 1.5LRSN                1
 GAP=138        0.87       5.9     5.7  7.9 -0.2847E+01  0.8894E+01  0.2965E+00E
 Epicentro: LOS SANTOS - SANTANDER                                             3
 ACTION:UPD 12-07-13 16:17 OP:ep   STATUS:               ID:20111220020659 L   I
 2011-12-20-0200-00M.COL___192                                                 6
 STAT SP IPHASW D HRMM SECON CODA AMPLIT PERI AZIMU VELO AIN AR TRES W  DIS CAZ7
 BAR2 SZ EP        2 7 18.77                             172    0.1510 18.2 191 
 BAR2 SZ ES   1    2 7 33.17                             172   -0.20 7 18.2 191 
 BAR2 SZ I         2 7 34.90         8.8 0.13                          18.2 191 
 GIR2 SZ EP   2    2 7 19.08                             165    0.17 5 36.2 353 
 BRR  HZ EP        2 7 20.80                             151    0.3810 73.2 302 
 BRR  HN ES   1    2 7 37.27                             151    0.71 7 73.2 302 
 BRR  HZ I         2 7 39.30        11.0 0.25                          73.2 302 
 PAM  SZ EP   1    2 7 21.78                             148    0.13 7 81.8  38 
 PAM  SE ES   1    2 7 38.05                             148   -0.71 7 81.8  38 
 RUS  HZ EP   1    2 7 22.69                             144    0.10 7 95.6 175 
 RUS  HN ES   1    2 7 40.59                             144    0.15 7 95.6 175 
 RUS  HZ I         2 7 43.49         2.4 0.29                          95.6 175 
 PTB  HZ EP        2 7 25.61                             131   -0.51 9  146 261 
 PTB  HN ES   1    2 7 46.23                             131   -0.48 7  146 261 
                                                                                
