 2013  620 0332 28.3 L   6.761 -73.141147.9  RSN  5 0.4 1.5LRSN                1
 GAP=201        0.85       7.2    10.3  9.4 -0.4061E+02  0.2953E+02 -0.5247E+01E
 Epicentro: LOS SANTOS - SANTANDER                                             3
 ACTION:UPD 14-01-08 09:55 OP:ep   STATUS:               ID:20130620033228 L   I
 OLDACT:REG 13-06-20 09:43 OP:carl STATUS:               ID:20130620032959     3
 2013-06-20-0329-59M.COL___263                                                 6
 STAT SP IPHASW D HRMM SECON CODA AMPLIT PERI AZIMU VELO AIN AR TRES W  DIS CAZ7
 BAR2 SZ ES   1    333  3.37                             172   -0.16 7 19.3 194 
 BAR2 SZ I         333  5.47         6.5 0.36            170           19.3 194 
 BRR  HZ EP        332 49.62                             152   -0.1710 73.8 301 
 BRR  HN ES   1    333  7.19                             152    0.61 7 73.8 301 
 BRR  HZ I         333  7.69         5.2 0.38            151           73.8 301 
 PTB  HZ EP        332 55.53                             132    0.15 9  148 261 
 PTB  HN ES   1    333 15.73                             132   -0.81 7  148 261 
 PTB  HZ I         333 21.44         3.8 0.30            132            148 261 
 OCA  HN ES   1    333 19.63                             129   -0.04 7  165 353 
 NOR  HE ES   1    333 32.23                             119    0.53 6  233 235 
                                                                                
