 2017  920 0459 41.6 L   6.817 -73.088147.7  RSN 19 0.7 1.9LRSN                1
 GAP= 70        1.28       4.3     3.8  5.7 -0.3418E+01  0.2714E+01  0.5398E+01E
 Epicentro: LOS SANTOS - SANTANDER                                             3
 ACTION:UPD 17-10-05 19:14 OP:rebc STATUS:               ID:20170920045941 L   I
 OLDACT:UP  17-09-20 13:59 OP:and  STATUS:               ID:20170920045642     3
 OLDACT:UP  17-09-20 13:57 OP:and  STATUS:               ID:20170920045642     3
 OLDACT:UP  17-09-20 13:57 OP:and  STATUS:               ID:20170920045642     3
 OLDACT:UP  17-09-20 13:55 OP:and  STATUS:               ID:20170920045642     3
 OLDACT:UP  17-09-20 13:54 OP:and  STATUS:               ID:20170920045642     3
 OLDACT:UP  17-09-20 13:53 OP:and  STATUS:               ID:20170920045642     3
 OLDACT:UP  17-09-20 13:53 OP:and  STATUS:               ID:20170920045642     3
 OLDACT:UP  17-09-20 13:51 OP:and  STATUS:               ID:20170920045642     3
 OLDACT:UP  17-09-20 13:49 OP:and  STATUS:               ID:20170920045642     3
 OLDACT:UP  17-09-20 13:46 OP:and  STATUS:               ID:20170920045642     3
 OLDACT:REG 17-09-20 12:53 OP:and  STATUS:               ID:20170920045642     3
 2017-09-20-0457-00M.COL___444                                                 6
 STAT SP IPHASW D HRMM SECON CODA AMPLIT PERI AZIMU VELO AIN AR TRES W  DIS CAZ7
 BAR2 EZ IP     C  5 0  1.27                             169   -0.2310 27.0 203 
 BAR2 EZ ES        5 0 16.36                             169   -0.7010 27.0 203 
 BAR2 EZ I         5 0 18.94        24.1 0.22            166           27.0 203 
 PAM  EZ IP     C  5 0  4.01                             153    0.3410 71.9  37 
 PAM  EN ES        5 0 21.21                             153    0.2910 71.9  37 
 PAM  EZ I         5 0 23.10        10.2 0.60            157           71.9  37 
 BRR  HZ IP     C  5 0  3.03                             151   -0.1710 76.0 295 
 BRR  HN ES        5 0 20.22                             151    0.1510 76.0 295 
 BRR  HZ I         5 0 24.21        13.6 0.18            149           76.0 295 
 RUS  HZ EP        5 0  5.18                             144   -0.4410  102 180 
 RUS  HN ES        5 0 23.80                             144   -0.6010  102 180 
 RUS  HZ I         5 0 25.13        10.5 0.24            143            102 180 
 TAM  HZ IP     C  5 0  9.60                             132    0.72 9  149 106 
 TAM  HN ES        5 0 30.93                             132    0.74 9  149 106 
 YPLC HZ IP     D  5 0 11.63                             127    0.25 9  176 153 
 YPLC HN ES   2    5 0 35.42                             127    0.79 4  176 153 
 YPLC HZ I         5 0 36.53        10.5 0.28            128            176 153 
 ZAR  HZ EP   9    5 0 13.75                             122   -0.92 0  209 291 
 ZAR  HN ES        5 0 39.57                             122   -0.01 8  209 291 
 ZAR  HZ I         5 0 44.93         7.9 0.26            122            209 291 
 NOR  HZ EP        5 0 17.59                             118   -0.49 8  241 235 
 NOR  HN ES        5 0 46.43                             118   -0.13 8  241 235 
 NOR  HZ I         5 0 50.77         6.2 0.18            118            241 235 
 CHI  HZ IP     C  5 0 19.51                             117   -0.25 8  252 196 
 CHI  HN ES   3    5 0 48.53                             117   -1.02 2  252 196 
 CHI  HZ I         5 0 58.59         3.8 0.40            117            252 196 
 ROSC BZ EP   4    5 0 21.78                             116    1.45 0  258 212 
 ROSC BN ES   4    5 0 53.37                             116    2.80 0  258 212 
 ROSC BZ I         5 0 55.89        12.3 0.45            117            258 212 
 HEL  HZ EP   9    5 0 23.87                             114    1.26 0  279 256 
 HEL  HN ES        5 0 55.74                             114   -0.15 7  279 256 
 HEL  HZ I         5 1  0.06         4.4 0.40            114            279 256 
 PTGC HZ IP     D  5 0 24.37                             112   -1.08 7  308 160 
 PTGC HN ES   4    5 0 57.04                             112   -2.65 0  308 160 
 GUY2CHZ EP        5 0 26.60                             112    0.63 7  308 235 
 GUY2CHN ES        5 1  2.69                             112    2.08 7  308 235 
 GUY2CHZ I         5 1  7.43         4.7 0.34                           308 235 
 LL6C HZ EP        5 0 26.54                             111   -0.62 7  323 356 
 LL6C HN ES   3    5 1  3.52                             111    0.79 2  323 356 
 CBOC HZ EP        5 0 29.66                             110    0.34 7  340 252 
 CBOC HN ES        5 1  6.57                             110    0.00 7  340 252 
 CBOC HZ I         5 1 15.94         1.4 0.50            110            340 252 
 PRA  HZ EP        5 0 34.96                             106   -0.75 6  397 210 
 PRA  HN ES        5 1 16.89                             106   -1.06 6  397 210 
 PRA  HZ I         5 1 23.42         5.5 0.44            107            397 210 
 ORTC HZ EP        5 0 36.69                             106    0.52 6  401 217 
 ORTC HN ES        5 1 19.59                             106    0.82 6  401 217 
 ORTC HZ I         5 1 24.93         2.5 0.64            107            401 217 
 SJC  HZ EP   3    5 0 35.71                             106   -1.70 1  411 326 
 SJC  HN ES   4    5 1 18.49                             106   -2.48 0  411 326 
 URI  HZ EP        5 0 53.18                             101   -1.03 4  553  12 
 URI  HN ES        5 1 50.52                             101   -0.36 4  553  12 
                                                                                
