 2016  820 0927 47.3 L   6.844 -73.318122.1  RSN  8 0.3 1.5LRSN                1
 GAP=107        0.88       2.9     3.5  5.0  0.2721E+00  0.3173E+01  0.2688E+01E
 Epicentro: ZAPATOCA - SANTANDER                                               3
 ACTION:UPD 16-10-29 15:37 OP:rebc STATUS:               ID:20160820092747 L   I
 OLDACT:REG 16-08-20 14:42 OP:ar   STATUS:               ID:20160820091741     3
 2016-08-20-0917-41M.COL___346                                                 6
 STAT SP IPHASW D HRMM SECON CODA AMPLIT PERI AZIMU VELO AIN AR TRES W  DIS CAZ7
 BAR2 EZ EP        928  3.96                             165   -0.3310 31.6 152 
 BAR2 EZ ES        928 18.15                             165    0.5810 31.6 152 
 BAR2 EZ I         928 18.43         7.2 0.16                          31.6 152 
 BRR  HZ EP        928  4.70                             155   -0.1110 52.4 304 
 BRR  HN ES        928 18.59                             155    0.0910 52.4 304 
 BRR  HZ I         928 19.35         9.4 0.14                          52.4 304 
 PAM  EZ EP        928  8.02                             142    0.2710 87.6  51 
 PAM  EN ES        928 23.63                             142   -0.1010 87.6  51 
 PAM  EZ I         928 26.00         6.8 0.50                          87.6  51 
 RUS  HZ EP        928  9.05                             136   -0.3610  108 166 
 RUS  HN ES        928 26.41                             136   -0.2810  108 166 
 RUS  HZ I         928 28.38         3.1 0.34                           108 166 
 PTB  HZ EP   9    928  9.36                             130   -1.37 0  130 255 
 PTB  HN ES        928 26.86                                   -0.8110  130 255 
 PTB  HZ I         928 31.67         4.1 0.28                           130 255 
 SPBC HZ EP        928 13.72                             124    0.39 9  156 212 
 SPBC HN ES        928 33.54                             124   -0.12 9  156 212 
 SPBC HZ I         928 36.10         6.5 0.34                           156 212 
 ZAR  HZ EP        928 16.20                             119    0.01 9  185 293 
 ZAR  HN ES        928 38.65                             119   -0.11 9  185 293 
 ZAR  HZ I         928 44.02         3.2 0.30                           185 293 
 CHI  HZ EP        928 23.71                             112   -0.10 8  249 191 
 CHI  HN ES        928 52.55                             112    0.22 8  249 191 
                                                                                
