 2016  220 0209 28.4 L   6.801 -73.179144.7  RSN  7 0.3 1.6LRSN                1
 GAP=143        0.69       3.3     3.5  4.6 -0.4708E+01  0.4299E+01  0.1557E+01E
 Epicentro: LOS SANTOS - SANTANDER                                             3
 ACTION:UPD 16-03-04 21:27 OP:rebc STATUS:               ID:20160220020928 L   I
 OLDACT:DUP 16-02-20 16:19 OP:drio STATUS:               ID:20160220020741d    3
 2016-02-20-0207-40M.COL___333                                                 6
 STAT SP IPHASW D HRMM SECON CODA AMPLIT PERI AZIMU VELO AIN AR TRES W  DIS CAZ7
 BAR2 EZ EP        2 9 47.95                             170    0.0410 23.1 181 
 BAR2 EZ ES        210  3.50                             170    0.3810 23.1 181 
 BAR2 EZ I         210  4.32        10.6 0.18            171           23.1 181 
 PAM  EZ EP        2 9 50.67                             150    0.0210 79.7  42 
 PAM  EE ES        210  7.82                             150   -0.1810 79.7  42 
 PAM  EZ I         210  9.98         6.5 0.46            153           79.7  42 
 RUS  HZ EP        2 9 52.20                             143    0.1110  101 174 
 RUS  HE ES        210 10.16                             143   -0.4010  101 174 
 RUS  HZ I         210 11.59         5.1 0.22            147            101 174 
 PTB  HZ EP        2 9 54.52                             132   -0.45 9  144 259 
 PTB  HN ES        210 15.78                             132    0.09 9  144 259 
 PTB  HZ I         210 22.84         4.9 0.54            133            144 259 
 SPBC HZ EP        2 9 57.04                             129    0.42 9  161 218 
 SPBC HN ES        210 18.86                             129    0.23 9  161 218 
 SPBC HZ I         210 21.54         9.7 0.20            131            161 218 
 NOR  HZ EP        210  3.91                             119    0.14 8  232 234 
 NOR  HE ES        210 30.96                             119   -0.39 8  232 234 
 CHI  HZ EP        210  6.08                             117    0.12 8  248 194 
 CHI  HN ES        210 35.11                             117   -0.14 8  248 194 
                                                                                
