 2014  220 0620 36.6 L   6.802 -73.161144.7  RSN  9 0.4 1.9LRSN                1
 GAP=135        0.92       2.6     4.3  6.0 -0.8143E+00  0.8115E+01 -0.8342E-01E
 Epicentro: LOS SANTOS - SANTANDER                                             3
 ACTION:UPD 14-03-10 08:11 OP:ep   STATUS:               ID:20140220062036 L   I
 OLDACT:UP  14-02-20 13:09 OP:cam  STATUS:               ID:20140220062000     3
 OLDACT:REG 14-02-20 09:27 OP:fm   STATUS:               ID:20140220062000     3
 2014-02-20-0620-00M.COL___212                                                 6
 STAT SP IPHASW D HRMM SECON CODA AMPLIT PERI AZIMU VELO AIN AR TRES W  DIS CAZ7
 BAR2 SZ EP        620 55.92                             170   -0.1810 23.3 186 
 BAR2 SZ ES        621 10.89                             170   -0.4210 23.3 186 
 BAR2 SZ I         621 11.88        44.6 0.28            169           23.3 186 
 PAM  SZ EP        620 58.87                             150    0.1110 78.3  41 
 PAM  SN ES        621 15.92                             150   -0.1210 78.3  41 
 PAM  SZ I         621 17.77        14.7 0.56            155           78.3  41 
 RUS  HZ EP        621  0.37                             143    0.1010  101 175 
 RUS  HN ES   1    621 18.63                             143   -0.10 7  101 175 
 RUS  HZ I         621 20.00         5.5 0.30            146            101 175 
 PTB  HZ EP   1    621  2.50                             132   -0.84 7  146 259 
 PTB  HN ES   1    621 23.62                             132   -0.57 7  146 259 
 PTB  HZ I         621 31.12         6.0 0.18            131            146 259 
 OCA  HZ EP   2    621  4.12                             129   -0.67 5  160 354 
 OCA  HN ES        621 27.59                             129    0.81 9  160 354 
 OCA  HZ I         621 30.33        10.0 0.26            131            160 354 
 SPBC HZ EP        621  4.96                             129    0.03 9  162 218 
 SPBC HN ES        621 27.64                             129    0.61 9  162 218 
 SPBC HZ I         621 31.07         7.0 0.50            130            162 218 
 ZAR  HZ EP   1    621  9.06                             122    0.25 6  202 292 
 ZAR  HN ES        621 34.06                             122    0.12 9  202 292 
 ZAR  HZ I         621 39.52         7.6 0.62            123            202 292 
 SML  HZ EP        621 12.55                             117   -0.52 8  243 336 
 SML  HE ES        621 41.63                             117    0.11 8  243 336 
 SML  HZ I         621 46.42        11.8 0.10            119            243 336 
 CHI  HZ EP        621 14.26                             117    0.05 8  248 195 
 CHI  HN ES        621 43.91                             117    0.36 8  248 195 
 CHI  HZ I         621 47.34         4.6 0.34            119            248 195 
 HEL  HZ EP   4    621 19.15                             115    2.57 0  271 256 
 GUY2CHZ EP   4    621 22.20                             112    2.18 0  300 235 
 SJC  HZ EP   4    621 30.11                             105   -1.89 0  408 327 
                                                                                
