 2010 1220 0749  9.7 L   6.783 -73.119144.0  RSN 14 0.5 2.7LRSN                1
 GAP=162        0.92       3.2     6.6  6.9 -0.9545E+01  0.1734E+02  0.6339E-01E
 Epicentro: LOS SANTOS - SANTANDER                                             3
 ACTION:UP  11-01-14 15:26 OP:pat  STATUS:               ID:20101220074909 L   I
 2010-12-20-0748-47S.COL___133                                                 6
 STAT SP IPHASW D HRMM SECON CODA AMPLIT PERI AZIMU VELO SNR AR TRES W  DIS CAZ7
 BAR2 SZ EP        749 29.10                             171     0.010   22 199 
 BAR2 SZ ES   1    749 44.28                             171     0.1 7   22 199 
 BAR2 SZ I         749 45.70        98.0 0.44                            22 199 
 RUS  HZ EP        749 32.95                             144    -0.110   99 178 
 RUS  HN ES   1    749 51.13                             144    -0.2 7   99 178 
 RUS  HZ I         749 52.84        39.5 0.26                            99 178 
 GRA  SZ IP        749 34.89                             136     0.110  127  16 
 GRA  SZ I         749 36.18        72.7 0.33                           127  16 
 GRA  SZ ES   1    749 54.57                             136     0.1 7  127  16 
 OCA  SZ EP        749 37.36                             129    -0.7 9  163 352 
 OCA  SZ ES   1    750  1.15                             129     0.9 7  163 352 
 OCA  SZ I         750  5.83        69.3 0.43                           163 352 
 NOR  SZ EP   1    749 44.85                             118    -0.6 6  236 235 
 NOR  SE ES   1    750 12.53                             118    -0.8 6  236 235 
 CHI  HZ EP   1    749 46.98                             117    -0.2 6  248 196 
 CHI  HN ES   1    750 16.62                             117     0.2 6  248 196 
 CHI  HZ I         750 22.25        17.1 0.24                           248 196 
 ROSC BZ EP   1    749 48.16                             116     0.5 6  253 212 
 ROSC BE ES   1    750 17.91                             116     0.6 6  253 212 
 ROSC BZ I         750 27.03        51.5 0.39                           253 212 
 HEL  HZ EP   1    749 50.22                             114     0.2 6  274 256 
 HEL  HN ES   2    750 20.74                             114    -0.8 4  274 256 
 HEL  HZ I         750 30.48        15.4 0.19                           274 256 
 VIL  SZ EP   1    749 52.63                             112     0.0 5  300 190 
 VIL  SN ES   1    750 26.36                             112     0.2 5  300 190 
 VIL  SZ I         750 37.25        17.2 0.60                           300 190 
 RREF HZ EP   1    749 56.27                             110     0.4 5  323 230 
 RREF HN ES   1    750 32.25                             110     0.4 5  323 230 
 RREF HZ I         750 37.64        31.6 0.23                           323 230 
 DBB  SZ EP   2    749 58.14                             109     0.7 3  343 275 
 TOL  SZ EP   1    749 58.34                             109     0.4 5  344 225 
 PRA  HZ EP   1    750  2.65                             106    -0.5 4  392 210 
 PRA  HE ES   1    750 45.45                             106     0.7 4  392 210 
 PRA  HZ I         750 50.11        59.9 0.21                           392 210 
 SJA  SZ EP   2    750  3.96                             106    -0.1 3  399 193 
 SJA  SZ I         750 56.76        34.8 0.57                           399 193 
                                                                                
