 2011 1020 0616 28.0 L   6.766 -73.114152.6  RSN 17 0.3 3.5LRSN                1
 GAP=118        0.43       1.8     2.2  3.2 -0.3082E+00  0.2005E+01  0.1751E+01E
 Epicentro: LOS SANTOS - SANTANDER                                             3
 ACTION:UPD 12-07-13 16:04 OP:ep   STATUS:               ID:20111020061628 L   I
 2011-10-20-0614-56S.COL___168                                                 6
 STAT SP IPHASW D HRMM SECON CODA AMPLIT PERI AZIMU VELO AIN AR TRES W  DIS CAZ7
 BAR2 SZ IP        616 48.51                             172    0.0610 20.6 201 
 BAR2 SZ ES   2    617  4.01                             172   -0.35 5 20.6 201 
 BAR2 SZ I         617  6.24       731.0 0.19                          20.6 201 
 BRR  HZ IP     C  616 50.41                             152    0.2010 76.1 300 
 BRR  HZ I         616 50.71      1772.3 0.18                          76.1 300 
 BRR  HE ES   1    617  7.89                             152    0.40 7 76.1 300 
 PAM  SZ IP        616 51.32                             152    0.2810 78.2  36 
 PAM  SN ES   1    617  8.64                             152   -0.33 7 78.2  36 
 RUS  HZ EP        616 52.33                             146    0.1310 96.6 178 
 RUS  HN ES   2    617 10.81                             146   -0.23 5 96.6 178 
 RUS  HZ I         617 12.43       281.3 0.30                          96.6 178 
 OCA  SZ IP        616 56.94                             130   -0.34 9  164 352 
 OCA  SZ ES   2    617 19.87                             130   -0.21 5  164 352 
 OCA  SZ I         617 28.96       385.2 0.23                           164 352 
 YOP  SZ EP   2    616 58.11                             129   -0.01 4  174 154 
 YOP  SE ES   2    617 21.63                             129    0.06 4  174 154 
 YOP  SZ I         617 24.87        79.5 0.32                           174 154 
 ZAR  HZ EP   1    617  0.79                             123   -0.63 6  209 293 
 ZAR  HN ES   2    617 27.32                             123   -0.13 4  209 293 
 ZAR  HZ I         617 33.18       574.5 0.42                           209 293 
 NOR  SZ EP        617  4.33                             120    0.07 8  235 236 
 NOR  SN ES   2    617 32.23                             120   -0.27 4  235 236 
 ROSC BE ES   2    617 36.07                             118   -0.24 4  251 212 
 ROSC BZ I         617 46.28       158.3 0.43                           251 212 
 HEL  HZ EP   2    617  8.51                             116   -0.38 4  275 257 
 HEL  HN ES   2    617 40.70                             116   -0.05 4  275 257 
 HEL  HZ I         617 46.86       208.3 0.38                           275 257 
 VIL  SZ EP   1    617 11.41                             113   -0.04 5  300 192 
 VIL  SE ES   2    617 44.97                             113   -0.34 4  300 192 
 VIL  SZ I         617 57.44        76.9 0.29                           300 192 
 GUY  SZ EP   2    617 12.41                             113    0.09 4  304 236 
 GUY  SN ES   2    617 46.89                             113    0.03 4  304 236 
 GUY  SZ I         617 55.19       222.5 0.39                           304 236 
 RREF HZ EP   1    617 14.75                             112    0.23 5  322 230 
 RREF HN ES   2    617 50.73                             112   -0.04 3  322 230 
 RREF HZ I         618  0.18       144.9 0.39                           322 230 
 TOL  SZ EP   2    617 16.91                             110    0.35 3  343 225 
 TOL  SZ ES   2    617 54.21                             110   -0.20 3  343 225 
 DBB  SZ EP   2    617 16.52                             110    0.28 3  343 275 
 DBB  SZ ES   2    617 53.88                             110    0.05 3  343 275 
 PRA  HZ EP        617 21.91                             108    0.28 6  390 210 
 PRA  HN ES   2    618  3.46                             108    0.03 3  390 210 
 GUA  SZ EP   1    617 30.53                             104   -0.37 4  470 173 
 GUA  SZ ES   2    618 19.92                             104   -0.01 2  470 173 
                                                                                
