 2010  320 0636 23.4 L   6.921 -73.316112.3  RSN  4 0.1 1.8LRSN                1
 GAP=158        0.43       3.1     6.2  6.0  0.3215E+01  0.1150E+02 -0.2907E+01E
 Epicentro: BETULIA - SANTANDER                                                3
 ACTION:UP  10-08-24 09:55 OP:vdl  STATUS:               ID:20100320063623 L   I
 2010-03-20-0634-47S.COL___098                                                 6
 STAT SP IPHASW D HRMM SECON CODA AMPLIT PERI AZIMU VELO SNR AR TRES W  DIS CAZ7
 BAR2 SZ IP        636 39.75                             159     0.210   39 158 
 BAR2 SZ ES   1    636 52.00                             159    -0.2 7   39 158 
 BRR  HZ IP        636 39.54                             155    -0.110   48 295 
 BRR  HZ I         636 39.80        15.8 0.15                            48 295 
 BRR  HE ES   2    636 52.51                             155     0.2 5   48 295 
 OCA  SZ ES   1    637  6.86                             123    -0.1 7  146 360 
 HEL  HZ EP   2    637  0.39                             108    -0.1 4  258 252 
 HEL  HZ I         637 32.03         5.6 0.45                           258 252 
                                                                                
