 2017  620 0902 19.1 L   6.527 -73.786121.8  RSN  4 0.2 3.0LRSN                1
 GAP=276        0.48       3.5     8.1  6.4 -0.1216E+02 -0.2765E+02  0.1173E+02E
 Epicentro: SANTA HELENA DEL OPON - SANTANDER                                  3
 ACTION:UPD 17-09-14 16:53 OP:jn   STATUS:               ID:20170620090219 L   I
 OLDACT:UP  17-07-06 15:36 OP:nlst STATUS:               ID:20170620090219 L   3
 OLDACT:REG 17-06-20 15:23 OP:lv   STATUS:               ID:20170620085759     3
 2017-06-20-0857-59S.COL___273                                                 6
 STAT SP IPHASW D HRMM SECON CODA AMPLIT PERI AZIMU VELO AIN AR TRES W  DIS CAZ7
 PTB  HZ EP        9 2 37.86                             146   -0.0810 74.1 271 
 PTB  HN ES        9 2 52.77                             146    0.1410 74.1 271 
 ZAR  HN ES   1    9 3  5.80                             124   -0.10 7  159 312 
 NOR  HZ EP        9 2 45.38                             123   -0.18 9  160 228 
 NOR  HN ES        9 3  6.03                             123   -0.15 9  160 228 
 NOR  HZ I         9 3  7.19        84.9 0.03            123            160 228 
 GUY2CHZ EP        9 2 53.57                             114    0.37 8  227 231 
 GUY2CHN ES        9 3 19.80                             114    0.02 8  227 231 
 GUY2CHZ I         9 3 25.76       104.1 0.03                           227 231 
                                                                                
