 2013  220 0601 43.0 L   6.703 -73.200156.8  RSN  5 0.2 1.5LRSN                1
 GAP=193        0.49       3.0     5.0  4.9  0.7804E+01 -0.7672E+01 -0.5418E+01E
 Epicentro: VILLANUEVA - SANTANDER                                             3
 ACTION:UPD 13-03-12 09:34 OP:ep   STATUS:               ID:20130220060143 L   I
 2013-02-20-0600-00M.COL___241                                                 6
 STAT SP IPHASW D HRMM SECON CODA AMPLIT PERI AZIMU VELO AIN AR TRES W  DIS CAZ7
 BAR2 SZ EP   1    6 2  3.46                             175   -0.30 7 12.4 171 
 BRR  HZ EP        6 2  5.57                             154    0.2110 72.1 308 
 BRR  HN ES        6 2 22.81                             154   -0.0310 72.1 308 
 BRR  HN I         6 2 23.17         6.5 0.20            153           72.1 308 
 RUS  HZ EP        6 2  7.19                             149    0.0410 90.5 172 
 RUS  HN ES   1    6 2 26.08                             149    0.06 7 90.5 172 
 RUS  HN I         6 2 27.06         3.3 0.26            149           90.5 172 
 PTB  HZ EP   1    6 2 10.46                             136    0.27 7  140 263 
 PTB  HN ES   1    6 2 31.21                             136   -0.22 7  140 263 
 PTB  HN I         6 2 33.02         2.5 0.50            136            140 263 
 SML  HZ EP        6 2 20.70                             119   -0.32 8  251 338 
 SML  HN ES        6 2 50.87                             119    0.16 8  251 338 
 SML  HN I         6 2 53.39         4.5 0.10            119            251 338 
                                                                                
