 2014  720 0307 20.2 L   6.842 -73.130148.4  RSN 13 0.5 1.9LRSN                1
 GAP=136        1.16       3.7     4.8  7.8 -0.2983E+01  0.1006E+02 -0.6115E+00E
 Epicentro: LOS SANTOS - SANTANDER                                             3
 ACTION:UPD 15-03-16 20:45 OP:nd   STATUS:               ID:20140720030720 L   I
 OLDACT:REG 14-07-20 14:44 OP:fm   STATUS:               ID:20140720030643     3
 2014-07-20-0306-43M.COL___269                                                 6
 STAT SP IPHASW D HRMM SECON CODA AMPLIT PERI AZIMU VELO AIN AR TRES W  DIS CAZ7
 BAR2 SZ EP   1    3 7 40.32                             169    0.05 7 28.2 192 
 BAR2 SZ ES   1    3 7 55.60                             169   -0.31 7 28.2 192 
 BAR2 SZ I         3 7 57.42        15.0 0.26            167           28.2 192 
 BRR  HZ EP        3 7 42.00                             153    0.3910 70.6 295 
 BRR  HN ES        3 7 58.80                             153    0.4910 70.6 295 
 BRR  HZ I         3 8  1.78         7.0 0.42            151           70.6 295 
 PAM  SZ EP        3 7 43.10                             153    0.6610 72.7  41 
 PAM  SN ES        3 7 59.81                             153    0.0310 72.7  41 
 PAM  SZ I         3 8  1.96        17.6 0.46            158           72.7  41 
 RUS  HZ EP   1    3 7 44.03                             143   -0.52 7  105 177 
 RUS  HN ES   1    3 8  3.56                             143    0.02 7  105 177 
 RUS  HZ  AMP      3 8  4.77        24.0 0.14                           105 177 
 PTB  HZ EP        3 7 47.44                             132   -0.19 9  150 257 
 PTB  HN ES        3 8  8.23                             132   -0.79 9  150 257 
 PTB  HZ I         3 8 13.62         6.0 0.46            132            150 257 
 OCA  HZ EP   1    3 7 47.06                             131   -1.26 7  156 352 
 OCA  HN ES   1    3 8 10.20                             131   -0.04 7  156 352 
 OCA  HZ I         3 8 14.95         5.8 0.28            134            156 352 
 SPBC HZ EP   1    3 7 49.02                             129   -0.34 7  168 218 
 SPBC HN ES        3 8 11.63                             129   -0.46 9  168 218 
 SPBC HZ I         3 8 20.62         4.5 0.22            130            168 218 
 ZAR  HZ EP        3 7 53.60                             123    0.79 9  204 291 
 ZAR  HE ES        3 8 18.49                             123    0.24 9  204 291 
 ZAR  HZ I         3 8 25.02         6.5 0.30            124            204 291 
 NOR  HE ES   1    3 8 25.05                             119    0.19 6  239 234 
 NOR  HZ I         3 8 31.97         2.8 0.54            120            239 234 
 SML  HE ES        3 8 24.41                             118   -0.59 8  240 334 
 SML  HZ  AMP      3 8 26.29        65.4 0.30                           240 334 
 CHI  HN ES   1    3 8 29.40                             117    0.87 6  254 195 
 HEL  HN ES   1    3 8 32.91                             115    0.33 6  275 255 
 HEL  HZ I         3 8 39.36         2.6 0.42            116            275 255 
 SJC  HZ EP   4    3 8 13.89                             106   -1.62 0  406 326 
 SJC  HN ES   4    3 8 55.89                             106   -2.76 0  406 326 
 SJC  HZ I         3 8 58.47         1.6 0.44            108            406 326 
                                                                                
