 2011  820 0849 35.3 L   6.766 -73.094142.8  RSN  8 0.3 2.0LRSN                1
 GAP=188        0.61       2.6     5.2  4.1 -0.8860E+00  0.2434E+01  0.9796E+00E
 Epicentro: LOS SANTOS - SANTANDER                                             3
 ACTION:UPD 12-07-13 15:52 OP:ep   STATUS:               ID:20110820084935 L   I
 2011-08-20-0847-01S.COL___150                                                 6
 STAT SP IPHASW D HRMM SECON CODA AMPLIT PERI AZIMU VELO AIN AR TRES W  DIS CAZ7
 BAR2 SZ EP        849 54.69                             171    0.1810 21.6 207 
 BAR2 SZ ES        850  9.46                             171   -0.0610 21.6 207 
 BAR2 SZ I         850 12.14        20.6 0.29                          21.6 207 
 BRR  HZ EP        849 56.63                             150    0.1210 78.0 299 
 BRR  HN ES        850 13.34                             150    0.2710 78.0 299 
 BRR  HZ I         850 16.07        27.0 0.14                          78.0 299 
 RUS  HZ EP   1    849 58.91                             144    0.46 7 96.6 179 
 RUS  HE ES   1    850 16.16                             144   -0.37 7 96.6 179 
 RUS  HZ I         850 18.57        11.1 0.40                          96.6 179 
 OCA  SZ EP        850  3.57                             128   -0.21 9  165 351 
 OCA  SZ ES   1    850 25.47                             128   -0.54 7  165 351 
 OCA  SZ I         850 28.59        13.9 0.43                           165 351 
 NOR  SZ EP   2    850 10.91                             118   -0.20 4  237 236 
 NOR  SE ES   1    850 38.83                             118   -0.24 6  237 236 
 CHI  HZ EP   2    850 12.45                             117   -0.14 4  247 197 
 CHI  HN ES   2    850 41.96                             117    0.26 4  247 197 
 CHI  HZ I         850 48.31         3.9 0.36                           247 197 
 HEL  HZ EP   2    850 16.59                             114    0.73 4  277 257 
 HEL  HZ I         850 53.10         5.1 0.30                           277 257 
 PRA  HZ EP        850 28.66                             106    0.01 6  392 211 
 PRA  HE ES   1    851  9.57                             106   -0.72 4  392 211 
                                                                                
