 2017  320 0840 36.8 L   6.743 -73.113148.2  RSN  6 0.2 1.4LRSN                1
 GAP=170        0.66       3.7     3.6  4.9 -0.3331E+01  0.3978E+01  0.2818E+01E
 Epicentro: LOS SANTOS - SANTANDER                                             3
 ACTION:UPD 17-05-25 18:42 OP:jn   STATUS:               ID:20170320084036 L   I
 OLDACT:REG 17-03-20 13:25 OP:cog  STATUS:               ID:20170320083742     3
 2017-03-20-0838-00M.COL___360                                                 6
 STAT SP IPHASW D HRMM SECON CODA AMPLIT PERI AZIMU VELO AIN AR TRES W  DIS CAZ7
 BAR2 EZ EP        840 56.65                             173   -0.0310 18.3 205 
 BAR2 EZ ES        841 12.15                             173    0.0010 18.3 205 
 BAR2 EZ I         841 13.19         8.8 0.22            170           18.3 205 
 BRR  HZ IP     C  840 58.70                             151    0.0810 77.5 301 
 BRR  HN ES        841 15.63                             151    0.0310 77.5 301 
 BRR  HZ I         841 16.65         6.0 0.16            149           77.5 301 
 PAM  EZ EP        840 59.81                             150    0.3210 80.2  35 
 PAM  EN ES        841 16.94                             150   -0.2110 80.2  35 
 PAM  EZ I         841 17.89         2.4 0.11            153           80.2  35 
 PTB  HZ EP        841  3.61                             132   -0.63 9  150 261 
 PTB  HN ES   4    841 24.04                             132   -1.56 0  150 261 
 PTB  HZ I         841 28.56         3.4 0.14            131            150 261 
 SPBC HZ EP        841  5.45                             130    0.15 9  161 221 
 SPBC HN ES        841 27.60                             130    0.11 9  161 221 
 SPBC HZ I         841 31.31         3.2 0.09            130            161 221 
 ZAR  HZ EP   4    841 11.58                             122    1.53 0  210 293 
 ZAR  HE ES        841 36.13                             122    0.18 8  210 293 
 ZAR  HZ I         841 39.97         2.8 0.18            122            210 293 
                                                                                
