 2015  920 0657  7.6 L   6.798 -73.144138.2  RSN 10 0.5 2.0LRSN                1
 GAP=183        1.17       3.0     5.7  6.3  0.1528E+01  0.4186E+01 -0.3647E+00E
 Epicentro: LOS SANTOS - SANTANDER                                             3
 ACTION:UPD 15-10-28 16:27 OP:cam  STATUS:               ID:20150920065707 L   I
 OLDACT:REG 15-09-20 12:27 OP:drio STATUS:               ID:20150920064748     3
 2015-09-20-0647-48M.COL___355                                                 6
 STAT SP IPHASW D HRMM SECON CODA AMPLIT PERI AZIMU VELO AIN AR TRES W  DIS CAZ7
 BAR2 EZ IP     C  657 26.83                             170    0.5210 23.1 191 
 BAR2 EZ ES        657 40.31                             170   -0.6010 23.1 191 
 BAR2 EZ I         657 43.14        34.9 0.22            170           23.1 191 
 BRR  HZ IP     C  657 28.69                             151    0.7410 71.5 299 
 BRR  HE ES        657 44.24                             151    0.4210 71.5 299 
 BRR  HZ I         657 50.92        11.5 0.12            148           71.5 299 
 RUS  HZ EP        657 30.89                             142    0.3010  100 176 
 RUS  HE ES        657 48.70                             142    0.1710  100 176 
 RUS  HZ I         657 50.67        13.7 0.22            146            100 176 
 PTB  HZ EP        657 33.51                             130   -0.47 9  148 259 
 PTB  HE ES        657 54.09                             130   -0.46 9  148 259 
 PTB  HZ I         658  1.79         9.0 0.60            130            148 259 
 OCA  HZ EP        657 35.00                             128   -0.36 9  161 353 
 OCA  HN ES        657 56.94                             128   -0.07 9  161 353 
 OCA  HZ I         658  6.86        14.9 0.26            129            161 353 
 SPBC HZ EP        657 35.89                             127    0.37 9  163 219 
 SPBC HE ES        657 56.54                             127   -0.76 9  163 219 
 SPBC HZ I         658  0.51        22.5 0.24            129            163 219 
 ZAR  HZ EP        657 40.04                             121    0.44 9  204 292 
 ZAR  HN ES        658  5.30                             121    0.75 9  204 292 
 ZAR  HZ I         658 11.07         9.4 0.56            121            204 292 
 SML  HZ EP        657 43.16                             116   -0.69 8  244 335 
 SML  HN ES        658 11.55                             116   -0.57 8  244 335 
 SML  HZ I         658 20.76        12.3 0.10            117            244 335 
 CHI  HZ EP        657 44.55                             115   -0.32 8  248 195 
 CHI  HN ES        658 13.93                             115   -0.01 8  248 195 
 CHI  HZ I         658 20.32         2.8 0.40            118            248 195 
 ORTC HZ EP        658  1.26                             105   -0.00 6  395 216 
 ORTC HN ES        658 43.36                             105    0.24 6  395 216 
 ORTC HZ I         658 50.50         2.9 0.64            107            395 216 
                                                                                
