 2012 1220 0335 51.2 L   6.761 -73.132142.0  RSN 12 0.4 2.1LRSN                1
 GAP= 73        0.93       4.0     4.2  5.9 -0.2196E+00  0.3355E+01  0.4868E+01E
 Epicentro: LOS SANTOS - SANTANDER                                             3
 ACTION:UPD 13-01-04 14:29 OP:ep   STATUS:               ID:20121220033551 L   I
 2012-12-20-0330-00M.COL___242                                                 6
 STAT SP IPHASW D HRMM SECON CODA AMPLIT PERI AZIMU VELO AIN AR TRES W  DIS CAZ7
 BAR2 SZ IP        336 10.39                             172    0.1010 19.5 196 
 BAR2 SZ I         336 10.68        54.0 0.10                          19.5 196 
 BAR2 SZ ES   1    336 24.60                             172   -0.59 7 19.5 196 
 GIR2 SZ IP     C  336 10.50                             165   -0.0510 35.8 349 
 BRR  HZ IP     C  336 12.30                             151    0.1710 74.6 301 
 BRR  HZ I         336 12.63        36.4 0.11                          74.6 301 
 BRR  HE ES        336 29.23                             151    0.7710 74.6 301 
 PAM  SZ EP        336 13.33                             149    0.1710 79.9  37 
 PAM  SZ I         336 13.73        21.4 0.25                          79.9  37 
 PAM  SE ES        336 30.18                             149   -0.1110 79.9  37 
 RUS  HZ EP        336 14.34                             144    0.0910 96.2 177 
 RUS  HN ES   1    336 31.97                             144   -0.28 7 96.2 177 
 RUS  HN I         336 34.55        15.6 0.43                          96.2 177 
 PTB  HZ EP        336 17.07                             131   -0.84 9  148 261 
 PTB  HE ES   1    336 38.70                             131   -0.06 7  148 261 
 PTB  HZ I         336 40.40        19.5 0.14                           148 261 
 TAM  HZ EP   1    336 18.56                             130    0.22 7  153 104 
 OCA  HZ EP   1    336 19.16                             128   -0.47 7  165 353 
 OCA  HZ I         336 42.64        13.0 0.21                           165 353 
 ZAR  HZ EP   1    336 23.21                             121   -0.49 6  207 293 
 ZAR  HN ES   1    336 48.78                             121   -0.28 6  207 293 
 ZAR  HZ I         336 57.45        15.8 0.31                           207 293 
 CHI  HZ EP   1    336 28.40                             117    0.13 6  245 196 
 CHI  HE ES   1    336 57.36                             117    0.16 6  245 196 
 HEL  HZ EP   1    336 32.16                             114    0.90 6  272 257 
 HEL  HZ I         337  9.41         7.2 0.38                           272 257 
 PRA  HZ EP   1    336 45.00                             106    0.77 4  389 210 
 PRA  HZ I         337 31.10         3.1 0.26                           389 210 
                                                                                
