 2011 1120 0638 33.0 L   6.778 -73.129146.9  RSN  5 0.3 1.6LRSN                1
 GAP=140        0.62       4.4     5.1  5.9  0.3761E+01  0.6178E+01 -0.9082E+00E
 Epicentro: LOS SANTOS - SANTANDER                                             3
 ACTION:UPD 12-07-13 16:11 OP:ep   STATUS:               ID:20111120063832 L   I
 2011-11-20-0636-42S.COL___178                                                 6
 STAT SP IPHASW D HRMM SECON CODA AMPLIT PERI AZIMU VELO AIN AR TRES W  DIS CAZ7
 BAR2 SZ EP        638 52.58                             171   -0.1310 21.4 196 
 BAR2 SZ I         638 52.93        14.1 0.09                          21.4 196 
 BAR2 SZ ES   1    639  7.80                             171   -0.30 7 21.4 196 
 BRR  HZ EP   1    638 54.45                             152    0.04 7 74.0 299 
 BRR  HE ES   1    639 11.64                             152    0.52 7 74.0 299 
 BRR  HZ I         639 13.53        10.4 0.16                          74.0 299 
 PAM  SZ EP   1    638 55.46                             151    0.10 7 78.1  37 
 PAM  SZ I         638 55.73         2.5 0.18                          78.1  37 
 PAM  SN ES   1    639 12.73                             151   -0.09 7 78.1  37 
 RUS  HZ EP   1    638 56.42                             145   -0.24 7 98.0 177 
 RUS  HZ I         638 57.26         3.2 0.24                          98.0 177 
 RUS  HN ES   1    639 15.42                             145    0.29 7 98.0 177 
 ZAR  HZ EP   1    639  6.04                             122    0.27 6  207 293 
 ZAR  HN ES   2    639 30.42                             122   -0.92 4  207 293 
 ZAR  HZ I         639 36.82         5.5 0.44                           207 293 
                                                                                
