 2016  220 0600 46.0 L   6.745 -73.126156.8  RSN  4 0.4 0.9LRSN                1
 GAP=235        0.98       6.3     7.6  8.9  0.1431E+02 -0.5430E+01 -0.5430E+00E
 Epicentro: LOS SANTOS - SANTANDER                                             3
 ACTION:UPD 16-03-04 21:27 OP:rebc STATUS:               ID:20160220060046 L   I
 OLDACT:DUP 16-02-20 19:34 OP:drio STATUS:               ID:20160220054745d    3
 OLDACT:DUP 16-02-20 19:29 OP:drio STATUS:               ID:20160220054744d    3
 2016-02-20-0547-42M.COL___327                                                 6
 STAT SP IPHASW D HRMM SECON CODA AMPLIT PERI AZIMU VELO AIN AR TRES W  DIS CAZ7
 BRR  HZ EP        6 1  8.90                             153    0.2710 76.1 302 
 BRR  HE ES        6 1 26.33                             153    0.0610 76.1 302 
 BRR  HZ I         6 1 28.43         2.0 0.48            156           76.1 302 
 RUS  HZ EP        6 1  9.71                             148   -0.7310 94.4 177 
 RUS  HN ES        6 1 29.72                             148    0.2210 94.4 177 
 RUS  HZ I         6 1 32.33         1.0 0.34            150           94.4 177 
 PTB  HZ EP        6 1 13.98                             134   -0.01 9  149 261 
 PTB  HE ES        6 1 35.41                             134   -0.41 9  149 261 
 PTB  HZ I         6 1 36.47         1.2 0.30            137            149 261 
 SPBC HZ EP        6 1 15.65                             132    0.57 9  160 221 
 SPBC HN ES        6 1 37.85                             132    0.10 9  160 221 
 SPBC HZ I         6 1 38.51         0.8 0.20            135            160 221 
                                                                                
