 2011  720 0635 10.0 L   7.136 -74.047 66.6  RSN 12 0.5 2.4LRSN                1
 GAP=156        1.00       4.0     4.4  8.7 -0.1048E+02  0.1072E+02 -0.1427E+01E
 Epicentro: BARRANCABERMEJA - SANTANDER                                        3
 ACTION:UPD 12-07-25 14:02 OP:epov STATUS:               ID:20110720063510 L   I
 2011-07-20-0620-00M.COL___136                                                 6
 STAT SP IPHASW D HRMM SECON CODA AMPLIT PERI AZIMU VELO AIN AR TRES W  DIS CAZ7
 BRR  HZ IP     D  635 20.44                             148   -0.2010 37.2  95 
 BRR  HN ES   1    635 29.17                             148    0.22 7 37.2  95 
 BRR  HZ I         635 30.69       109.9 0.16                          37.2  95 
 BTL  SZ EP        635 26.43                             121    0.7410 89.4 106 
 BAR2 SZ EP   1    635 28.44                             114    0.17 7  113 122 
 BAR2 SZ I         635 45.55        35.9 0.18                           113 122 
 OCA  SZ EP        635 32.82                             108    0.83 9  146  33 
 OCA  SZ ES   1    635 49.06                             108   -0.09 7  146  33 
 OCA  SZ I         635 50.64        51.8 0.10                           146  33 
 PAM  SZ EP   2    635 32.95                             107    0.01 5  151  81 
 PAM  SN ES   2    635 50.37                             107   -0.46 5  151  81 
 BRI  SZ EP   1    635 32.78                             107    0.03 7  152  65 
 BRI  SZ ES   1    635 50.32                             107   -0.18 7  152  65 
 BRI  SZ I         635 52.45        53.1 0.48                           152  65 
 GRA  SZ EP   1    635 33.22                             106   -0.46 7  160  59 
 GRA  SZ ES   1    635 51.07                             106   -1.08 7  160  59 
 GRA  SZ I         635 52.99       107.6 0.24                           160  59 
 RUS  HZ EP   1    635 35.22                             104   -0.51 7  174 142 
 RUS  HN ES   1    635 55.57                             104   -0.23 7  174 142 
 HEL  HZ EP   1    635 37.62                             102   -0.40 6  194 238 
 HEL  HN ES   1    635 59.62                             102   -0.25 6  194 238 
 NOR  SZ EP   1    635 37.29                             102   -0.57 6  196 208 
 NOR  SN ES   1    635 59.27                             102   -0.32 6  196 208 
 CHI  HZ EP   2    635 49.44                              98    1.02 4  279 173 
 CHI  HZ I         636 29.75         7.8 0.50                           279 173 
 PRA  HZ EP   1    636  2.06                              95    0.56 4  390 194 
 PRA  HE ES   1    636 42.69                              95    1.01 4  390 194 
                                                                                
