 2011 1120 0601 56.1 L   6.782 -73.116145.2  RSN  5 0.3 1.4LRSN                1
 GAP=141        0.61       4.2     4.5  5.7  0.4349E+01  0.6305E+01 -0.1415E+01E
 Epicentro: LOS SANTOS - SANTANDER                                             3
 ACTION:UPD 12-07-13 16:11 OP:ep   STATUS:               ID:20111120060156 L   I
 2011-11-20-0559-30S.COL___178                                                 6
 STAT SP IPHASW D HRMM SECON CODA AMPLIT PERI AZIMU VELO AIN AR TRES W  DIS CAZ7
 BAR2 SZ EP   1    6 2 15.35                             171   -0.34 7 22.2 199 
 BAR2 SZ ES   1    6 2 30.74                             171   -0.19 7 22.2 199 
 BAR2 SZ I         6 2 32.47         6.3 0.32                          22.2 199 
 BRR  HZ EP        6 2 17.25                             151   -0.2110 75.0 299 
 BRR  HE ES   1    6 2 34.54                             151    0.46 7 75.0 299 
 PAM  SZ EP   1    6 2 18.20                             151   -0.08 7 77.0  37 
 PAM  SN ES   1    6 2 35.65                             151    0.11 7 77.0  37 
 PAM  SZ I         6 2 36.10         1.8 0.34                          77.0  37 
 RUS  HZ EP   1    6 2 20.02                             144    0.33 7 98.4 178 
 RUS  HN ES   1    6 2 38.05                             144    0.00 7 98.4 178 
 RUS  HZ I         6 2 39.25         3.1 0.29                          98.4 178 
 ZAR  HZ EP   1    6 2 29.41                             122    0.46 6  208 292 
 ZAR  HE ES   1    6 2 54.17                             122   -0.36 6  208 292 
 ZAR  HZ I         6 3  0.48         4.6 0.25                           208 292 
                                                                                
