 2016  420 0239 53.2 L   6.569 -73.582106.3  RSN 15 0.5 2.0LRSN                1
 GAP= 57        1.19       3.1     3.7  7.2 -0.4221E+01  0.1018E+02 -0.5794E+01E
 Epicentro: EL CARMEN - SANTANDER                                              3
 ACTION:UPD 16-05-05 14:22 OP:rebc STATUS:               ID:20160420023953 L   I
 OLDACT:UP  16-04-20 15:17 OP:drio STATUS:               ID:20160420023749     3
 OLDACT:UP  16-04-20 15:16 OP:drio STATUS:               ID:20160420023749     3
 OLDACT:UP  16-04-20 15:16 OP:drio STATUS:               ID:20160420023749     3
 OLDACT:ARG 16-04-20 12:40 OP:cara STATUS:               ID:20160420023749     3
 2016-04-20-0237-49M.COL___307                                                 6
 STAT SP IPHASW D HRMM SECON CODA AMPLIT PERI AZIMU VELO AIN AR TRES W  DIS CAZ7
 BAR2 EZ EP        240  9.21                             156    0.3110 44.2  87 
 BAR2 EZ ES        240 21.42                             156    0.2510 44.2  87 
 RUS  HZ EP        240 12.15                             136   -0.4810 92.9 144 
 RUS  HN ES        240 27.49                             136   -0.3210 92.9 144 
 RUS  HZ I         240 31.15         9.6 0.28            134           92.9 144 
 PTB  HZ EP        240 11.97                             134   -0.3410 96.8 268 
 PTB  HN ES        240 27.08                             134   -0.1610 96.8 268 
 PTB  HZ I         240 32.25        22.9 0.12            125           96.8 268 
 SPBC HZ EP        240 14.18                             129    0.1010  115 208 
 SPBC HN ES        240 30.25                             129   -0.1410  115 208 
 SPBC HZ I         240 31.97        46.1 0.10            123            115 208 
 PAM  EZ EP        240 15.88                             125   -0.1310  129  49 
 PAM  EE ES        240 33.16                             125   -0.6710  129  49 
 PAM  EZ I         240 34.75         9.7 0.40            121            129  49 
 ZAR  HZ EP   4    240 21.22                             116    1.15 0  174 306 
 ZAR  HN ES   4    240 42.86                             116    1.82 0  174 306 
 ZAR  HZ I         240 47.60        26.0 0.34            110            174 306 
 NOR  HZ EP        240 20.63                             115   -0.23 9  181 232 
 NOR  HN ES        240 42.53                             115    0.08 9  181 232 
 NOR  HZ I         240 46.29        18.3 0.20            110            181 232 
 OCA  HZ EP        240 22.54                             114    0.87 9  187   9 
 OCA  HN ES        240 44.95                             114    1.06 9  187   9 
 OCA  HZ I         240 52.04        34.9 0.72            110            187   9 
 CHI  HZ EP        240 25.21                             111    0.04 8  215 184 
 CHI  HE ES        240 50.54                             111    0.42 8  215 184 
 CHI  HZ I         240 54.79         4.1 0.28            108            215 184 
 HEL  HZ EP   4    240 26.84                             110    1.24 0  219 259 
 HEL  HN ES   4    240 52.84                             110    1.94 0  219 259 
 HEL  HZ I         240 57.40         6.4 0.20            106            219 259 
 GUY2CHZ EP   4    240 30.31                             107    1.37 0  247 233 
 GUY2CHE ES        240 57.38                             107    0.55 8  247 233 
 GUY2CHZ I         241  5.32         6.4 0.38                           247 233 
 URE  HZ EP        240 28.79                             107   -0.14 8  252 301 
 URE  HN ES   4    240 55.85                             107   -0.97 0  252 301 
 URE  HZ I         240 59.99        14.3 0.16            104            252 301 
 CBOC HZ EP   4    240 33.79                             105    1.38 0  280 254 
 CBOC HN ES   4    241  1.74                             105   -1.27 0  280 254 
 CBOC HZ I         241  8.27         2.5 0.42            103            280 254 
 DBB  SZ EP   4    240 35.22                             103    1.19 0  295 280 
 DBB  SZ I         241 14.78        11.4 0.68            102            295 280 
 SJC  HZ EP        240 47.86                              97    0.28 6  408 335 
 SJC  HN ES        241 28.37                              97   -1.64 6  408 335 
                                                                                
