 2012  220 0502 13.9 L   6.703 -73.213150.8  RSN  4 0.3 1.1LRSN                1
 GAP=215        0.48       5.9     5.5  7.1  0.1057E+02 -0.3544E+01  0.4233E+01E
 ACTION:UP  12-03-07 16:32 OP:epov STATUS:               ID:20120220050213 L   I
 2012-02-20-0500-00M.COL___191                                                 6
 STAT SP IPHASW D HRMM SECON CODA AMPLIT PERI AZIMU VELO AIN AR TRES W  DIS CAZ7
 BAR2 SZ EP   2    5 2 33.42                             175   -0.54 5 12.7 165 
 BRR  HZ EP   1    5 2 35.47                             153   -0.10 7 71.0 309 
 BRR  HZ I         5 2 35.91         2.4 0.12                          71.0 309 
 BRR  HN ES   1    5 2 52.65                             153    0.17 7 71.0 309 
 RUS  HZ EP   2    5 2 37.92                             148    0.45 5 90.7 171 
 RUS  HE ES   2    5 2 55.81                             148   -0.05 5 90.7 171 
 PTB  HZ EP   1    5 2 40.61                             135    0.13 7  139 263 
 PTB  HN ES   1    5 3  1.07                             135   -0.14 7  139 263 
                                                                                
