 2011  520 0847 15.8 L   6.805 -73.120143.5  RSN  8 0.3 1.4LRSN                1
 GAP=140        0.68       3.9     7.9  7.0 -0.6541E+00 -0.1486E+02 -0.6979E+01E
 Epicentro: LOS SANTOS - SANTANDER                                             3
 ACTION:UP  11-06-29 08:54 OP:tino STATUS:               ID:20110520084715 L   I
 2011-05-20-0844-27S.COL___140                                                 6
 STAT SP IPHASW D HRMM SECON CODA AMPLIT PERI AZIMU VELO SNR AR TRES W  DIS CAZ7
 BTL  SZ EP   1    847 35.75                             171     0.7 7   21 308 
 BAR2 SZ EP   1    847 35.02                             170    -0.1 7   25 196 
 BAR2 SZ ES   1    847 50.18                             170    -0.1 7   25 196 
 BAR2 SZ I         847 51.47         7.6 0.37                            25 196 
 GIR2 SZ EP   1    847 35.13                             167     0.0 7   31 345 
 BRR  HZ EP   1    847 36.58                             151    -0.2 7   73 297 
 BRR  HE ES   1    847 53.35                             151     0.1 7   73 297 
 BRR  HZ I         847 54.48        11.2 0.10                            73 297 
 PAM  SZ EP   1    847 37.96                             151     0.3 7   75  38 
 PAM  SZ I         847 56.76         3.0 0.33                            75  38 
 RUS  HZ EP   1    847 39.25                             143    -0.1 7  101 178 
 RUS  HN ES   1    847 57.56                             143    -0.1 7  101 178 
 RUS  HZ I         847 59.54         2.5 0.33                           101 178 
 GRA  SZ EP   1    847 40.76                             137     0.1 7  124  16 
 GRA  SZ ES   1    847 59.95                             137    -0.2 7  124  16 
 GRA  SZ I         848  1.52         4.9 0.20                           124  16 
 OCA  SZ EP   1    847 43.51                             129    -0.4 7  160 352 
 OCA  SZ I         848  9.40         3.6 0.22                           160 352 
                                                                                
