 2016  420 0253 17.5 L   6.832 -73.143149.1  RSN 30 0.4 3.2LRSN                1
 GAP= 55        0.88       2.0     2.1  3.7 -0.8504E+00  0.1752E+01  0.3045E-01E
 Epicentro: LOS SANTOS - SANTANDER                                             3
 ACTION:UPD 16-05-05 14:22 OP:rebc STATUS:               ID:20160420025317 L   I
 OLDACT:UP  16-04-20 15:34 OP:drio STATUS:               ID:20160420024747     3
 OLDACT:UP  16-04-20 15:32 OP:drio STATUS:               ID:20160420024747     3
 OLDACT:UP  16-04-20 15:32 OP:drio STATUS:               ID:20160420024747     3
 OLDACT:UP  16-04-20 15:31 OP:drio STATUS:               ID:20160420024747     3
 OLDACT:ARG 16-04-20 12:40 OP:cara STATUS:               ID:20160420024747     3
 2016-04-20-0247-47M.COL___307                                                 6
 STAT SP IPHASW D HRMM SECON CODA AMPLIT PERI AZIMU VELO AIN AR TRES W  DIS CAZ7
 BAR2 EZ EP        253 37.79                             169    0.1410 26.9 189 
 BAR2 EZ ES        253 52.76                             169   -0.5810 26.9 189 
 BAR2 EZ I         253 54.45       371.0 0.18            170           26.9 189 
 PAM  EZ EP     C  253 40.66                             152    0.7110 74.5  41 
 PAM  EN ES        253 57.37                             152   -0.0610 74.5  41 
 PAM  EZ I         254  0.02       221.8 0.46            151           74.5  41 
 RUS  HZ EP        253 41.82                             143   -0.0610  104 176 
 RUS  HE ES        254  0.79                             143   -0.0710  104 176 
 RUS  HZ I         254  2.17       165.2 0.24            143            104 176 
 PTB  HZ EP        253 44.31                             132   -0.57 9  149 258 
 PTB  HN ES        254  5.75                             132   -0.45 9  149 258 
 PTB  HZ I         254  7.82       151.7 0.50            131            149 258 
 TAM  HZ IP     D  253 46.23                             131    0.68 9  156 106 
 TAM  HZ I         254  7.09        85.3 0.38            131            156 106 
 TAM  HE ES        254  7.94                             131    0.55 9  156 106 
 OCA  HZ EP        253 45.74                             131   -0.06 9  157 353 
 OCA  HE ES        254  7.88                             131    0.05 9  157 353 
 OCA  HZ I         254 11.15       354.7 0.24            129            157 353 
 SPBC HZ EP        253 46.45                             129   -0.13 9  166 218 
 SPBC HN ES        254  8.84                             129   -0.39 9  166 218 
 SPBC HZ I         254 13.63       299.3 0.26            128            166 218 
 ZAR  HZ EP        253 50.41                             123    0.30 9  203 291 
 ZAR  HN ES        254 15.75                             123    0.25 9  203 291 
 ZAR  HZ I         254 21.07       202.3 0.26            122            203 291 
 NOR  HZ EP        253 53.58                             119   -0.14 8  237 234 
 NOR  HE ES        254 22.78                             119    0.85 8  237 234 
 NOR  HZ I         254 27.83       129.1 0.18            118            237 234 
 CHI  HZ EP        253 55.69                             117   -0.12 8  252 195 
 CHI  HN ES        254 25.38                             117   -0.27 8  252 195 
 CHI  HZ I         254 27.52        84.6 0.32            117            252 195 
 ROSC BZ EP   4    253 57.77                             117    1.57 0  256 211 
 ROSC BE ES   4    254 27.19                             117    0.85 0  256 211 
 ROSC BZ I         254 32.27       252.0 0.45            116            256 211 
 HEL  HZ EP        253 58.48                             115    0.42 8  273 255 
 HEL  HE ES        254 29.78                             115    0.12 8  273 255 
 URE  HZ EP        253 58.41                             114   -0.26 7  283 291 
 URE  HN ES   4    254 28.25                             114   -2.49 0  283 291 
 URE  HZ I         254 44.80        67.4 0.26            113            283 291 
 SOCV BZ EP     C  254  0.61                             113    0.11 7  299  57 
 SOCV BE ES   4    254 32.66                             113   -1.35 0  299  57 
 LL1C HZ EP   4    254  2.35                             112    1.45 0  303 351 
 GUY2CHZ EP        254  1.92                             113    0.35 7  303 234 
 GUY2CHE ES        254 36.13                             113    0.22 7  303 234 
 GUY2CHZ I         254 44.05        95.1 0.30                           303 234 
 LL1C HE ES   4    254 38.49                             112    3.77 0  303 351 
 LL1C HZ I         254 45.08       229.7 0.50            111            303 351 
 VIL  SZ EP        254  1.82                             112    0.31 7  307 191 
 VIL  SN ES        254 35.80                             112   -0.01 7  307 191 
 PTGC HZ EP        254  0.89                             112   -1.02 7  312 159 
 PTGC HE ES   4    254 34.26                             112   -2.26 0  312 159 
 PTGC HZ I         254 37.21        76.9 0.82            111            312 159 
 LL6C HZ EP        254  2.26                             111   -0.73 7  321 358 
 LL6C HZ ES        254 38.28                             111   -0.16 7  321 358 
 LL6C HZ I         254 43.86        37.5 0.38            110            321 358 
 CBOC HZ EP        254  5.30                             110    0.54 7  335 252 
 CBOC HN ES        254 42.05                             110    0.46 7  335 252 
 CBOC HZ I         254 50.11        24.0 0.34            109            335 252 
 DBB  SZ EP        254  5.23                             110    0.06 7  340 274 
 DBB  SZ ES        254 41.99                             110   -0.32 7  340 274 
 DBB  SZ I         254 45.77       205.0 0.26            109            340 274 
 SDV  BZ EP        254  7.36                             109   -0.07 6  358  51 
 SDV  BE ES   4    254 44.78                             109   -1.55 0  358  51 
 SDV  BZ I         254 47.80        24.1 0.40            108            358  51 
 ORTC HZ EP        254 11.94                             107    0.01 6  398 216 
 ORTC HN ES        254 54.54                             107    0.18 6  398 216 
 ORTC HZ I         255  4.69        39.3 0.58            106            398 216 
 SJC  HZ EP   4    254 11.61                             106   -1.28 0  406 327 
 SJC  HE ES   4    254 52.92                             106   -3.14 0  406 327 
 SJC  HZ I         254 57.27        22.2 0.54            105            406 327 
 PAL  HZ EP        254 13.29                             106    0.23 6  408 239 
 PAL  HE ES   4    254 57.22                             106    0.86 0  408 239 
 PAL  HZ I         255  7.40        17.1 0.26            106            408 239 
 YOT  HZ EP        254 20.22                             103   -0.77 5  474 229 
 YOT  HN ES        255 10.45                             103   -0.02 5  474 229 
 GUA  SZ EP        254 20.44                             103   -0.76 5  477 173 
 GUA  SE ES   4    255  8.40                             103   -2.45 0  477 173 
 GUA  SZ I         255 12.87        60.4 0.20            103            477 173 
 SMAR HZ EP        254 22.41                             103   -0.69 4  494 346 
 SMAR HE ES   4    255 10.75                             103   -3.49 0  494 346 
 MACC HZ EP   4    254 25.03                             102   -1.73 0  524 189 
 MACC HE ES   4    255 16.22                             102   -4.53 0  524 189 
 MARA HZ EP        254 28.28                             101   -0.73 4  540 215 
 GARC HZ EP   4    254 31.91                             101   -1.35 0  576 207 
 POP2 HZ EP        254 37.34                             100   -0.63 3  615 220 
 POP2 HE ES   4    255 39.03                             100   -1.68 0  615 220 
                                                                                
