 2013  220 0024 25.7 L   6.815 -73.177148.8  RSN  6 0.6 1.8LRSN                1
 GAP=198        1.15       5.8     8.5 10.9  0.2369E+02 -0.1397E+02 -0.1251E+02E
 Epicentro: LOS SANTOS - SANTANDER                                             3
 ACTION:UPD 13-03-12 09:34 OP:ep   STATUS:               ID:20130220002425 L   I
 2013-02-20-0020-00M.COL___241                                                 6
 STAT SP IPHASW D HRMM SECON CODA AMPLIT PERI AZIMU VELO AIN AR TRES W  DIS CAZ7
 BRR  HZ EP        024 47.41                             155    0.4210 67.3 299 
 BRR  HN ES   1    025  4.30                             155    0.73 7 67.3 299 
 BRR  HN I         025  7.32        25.7 0.21            152           67.3 299 
 RUS  HZ EP        024 50.02                             144    0.1010  103 174 
 RUS  HN ES        025  8.40                             144   -0.3810  103 174 
 RUS  HN I         025  9.36         5.4 0.22            144            103 174 
 PTB  HZ EP        024 52.07                             134   -0.59 9  145 258 
 PTB  HN ES        025 12.99                             134   -0.69 9  145 258 
 PTB  HN I         025 18.38         8.7 0.52            132            145 258 
 ZAR  HN ES   1    025 23.94                             124    0.82 6  200 292 
 SML  HZ EP   1    025  2.01                             118   -0.19 6  241 336 
 SML  HN ES   1    025 30.19                             118   -0.46 6  241 336 
 CHI  HZ EP   1    025  4.25                             118    0.58 6  249 194 
 CHI  HN ES   1    025 34.04                             118    0.77 6  249 194 
 CHI  HN I         025 38.98         4.1 0.58            118            249 194 
                                                                                
