 2010 1220 0718 12.4 L   6.800 -73.093146.5  RSN  8 0.3 1.8LRSN                1
 GAP=188        0.54       2.6     6.7  5.3 -0.3765E+01  0.1699E+02 -0.7892E+00E
 Epicentro: LOS SANTOS - SANTANDER                                             3
 ACTION:UP  11-01-14 15:26 OP:pat  STATUS:               ID:20101220071812 L   I
 2010-12-20-0713-17S.COL___133                                                 6
 STAT SP IPHASW D HRMM SECON CODA AMPLIT PERI AZIMU VELO SNR AR TRES W  DIS CAZ7
 BAR2 SZ EP   1    718 32.18                             170     0.0 7   25 203 
 BAR2 SZ ES   1    718 47.52                             170    -0.1 7   25 203 
 BAR2 SZ I         718 50.02        16.0 0.30                            25 203 
 RUS  HZ EP   1    718 36.24                             144     0.0 7  100 179 
 RUS  HN ES   1    718 54.59                             144    -0.2 7  100 179 
 RUS  HZ I         718 57.09         6.4 0.32                           100 179 
 OCA  SZ EP   1    718 40.85                             129     0.0 7  161 351 
 OCA  SZ ES   1    719  3.20                             129     0.2 7  161 351 
 OCA  SZ I         719  7.15         8.3 0.32                           161 351 
 NOR  SZ EP   1    718 48.53                             118    -0.2 6  240 235 
 NOR  SE ES   2    719 16.59                             118    -0.4 4  240 235 
 CHI  HZ EP   1    718 50.53                             117     0.2 6  250 196 
 CHI  HN ES   1    719 20.17                             117     0.3 6  250 196 
 CHI  HZ I         719 25.91         3.7 0.26                           250 196 
 HEL  HZ EP   2    718 52.49                             114    -0.8 4  278 256 
 HEL  HZ I         719 32.38         4.3 0.33                           278 256 
 RREF HZ EP   2    718 59.07                             111     0.0 3  326 230 
 RREF HE ES   2    719 36.64                             111     1.1 3  326 230 
 PRA  HZ EP   2    719  6.11                             106    -0.2 3  395 210 
                                                                                
