 2017  520 0527 29.5 L   6.800 -73.195150.3  RSN  9 0.5 1.9LRSN                1
 GAP=107        1.13       4.5     4.4  8.2 -0.9165E+00 -0.4095E+00  0.1052E+02E
 Epicentro: ZAPATOCA - SANTANDER                                               3
 ACTION:UPD 17-06-16 13:37 OP:jn   STATUS:               ID:20170520052729 L   I
 OLDACT:UP  17-05-20 15:40 OP:cog  STATUS:               ID:20170520051737     3
 OLDACT:REG 17-05-20 12:26 OP:dnl  STATUS:               ID:20170520051737     3
 2017-05-20-0518-00M.COL___359                                                 6
 STAT SP IPHASW D HRMM SECON CODA AMPLIT PERI AZIMU VELO AIN AR TRES W  DIS CAZ7
 BRR  HZ EP        527 51.20                             155    0.3110 66.4 301 
 BRR  HN ES        528  8.36                             155    0.7810 66.4 301 
 BRR  HZ I         528 11.45        17.3 0.30            155           66.4 301 
 PAM  EZ EP        527 52.41                             150   -0.0110 80.9  43 
 PAM  EE ES        528  9.85                             150   -0.4410 80.9  43 
 PAM  EZ I         528 11.61        23.4 0.52            154           80.9  43 
 RUS  HZ EP        527 53.43                             145   -0.3210  101 173 
 RUS  HN ES        528 11.87                             145   -0.7810  101 173 
 RUS  HZ I         528 13.16         6.8 0.28            146            101 173 
 PTB  HZ EP        527 56.24                             134   -0.13 9  142 258 
 PTB  HN ES        528 17.33                             134   -0.00 9  142 258 
 PTB  HZ I         528 24.44         9.6 0.38            135            142 258 
 SPBC HN ES        528 20.00                             131   -0.31 9  160 217 
 YPLC HZ EP        527 59.87                             127   -0.03 9  180 150 
 YPLC HE ES        528 24.70                             127    1.10 9  180 150 
 YPLC HZ I         528 26.61         8.7 0.30            130            180 150 
 ZAR  HZ EP   3    528  2.53                             124    0.79 2  199 293 
 ZAR  HN ES   3    528 26.00                             124   -0.88 2  199 293 
 NOR  HN ES        528 32.71                             120   -0.04 8  230 234 
 CHI  HZ EP        528  7.27                             118   -0.04 8  247 194 
 CHI  HE ES   3    528 37.88                             118    1.07 2  247 194 
 CHI  HZ I         528 40.47         4.0 0.34            120            247 194 
                                                                                
