 2013 1220 0723 56.0 L   6.806 -73.186143.2  RSN  6 0.2 1.3LRSN                1
 GAP=197        0.47       3.5     3.3  6.3  0.3561E+00  0.3816E+01 -0.9023E+01E
 Epicentro: ZAPATOCA - SANTANDER                                               3
 ACTION:UPD 14-01-13 10:19 OP:ep   STATUS:               ID:20131220072356 L   I
 OLDACT:DUP 13-12-20 09:41 OP:jn   STATUS:               ID:20131220072001d    3
 OLDACT:REG 13-12-20 07:39 OP:jn   STATUS:               ID:20131220072000     3
 2013-12-20-0720-00M.COL___285                                                 6
 STAT SP IPHASW D HRMM SECON CODA AMPLIT PERI AZIMU VELO AIN AR TRES W  DIS CAZ7
 BAR2 SZ EP        724 15.27                             170   -0.0510 23.7 179 
 BAR2 SZ ES   2    724 30.66                             170    0.27 5 23.7 179 
 BAR2 SZ I         724 33.17         8.5 0.38            170           23.7 179 
 RUS  HZ EP        724 19.67                             143    0.1010  102 174 
 RUS  HN ES        724 37.77                             143   -0.1910  102 174 
 RUS  HZ I         724 39.11         1.6 0.24            145            102 174 
 PTB  HZ EP        724 22.30                             132   -0.07 9  143 258 
 PTB  HN ES   1    724 42.67                             132   -0.26 7  143 258 
 SPBC HE ES        724 46.32                             129    0.33 9  161 218 
 NOR  HE ES   2    724 58.41                             118   -0.30 4  231 234 
 NOR  HZ I         725  3.33         2.2 0.22            120            231 234 
 SML  HN ES   2    725  0.72                             117    0.27 4  241 336 
                                                                                
