 2015 1120 0945 27.3 L   6.861 -73.258120.7  RSN  5 0.3 1.3LRSN                1
 GAP=187        0.65       3.9     5.6  5.1  0.1600E+02 -0.4393E+01 -0.7455E+01E
 Epicentro: BETULIA - SANTANDER                                                3
 ACTION:UPD 15-12-28 16:12 OP:cam  STATUS:               ID:20151120094527 L   I
 OLDACT:DUP 15-11-20 19:27 OP:ak   STATUS:               ID:20151120093743d    3
 2015-11-20-0937-42M.COL___309                                                 6
 STAT SP IPHASW D HRMM SECON CODA AMPLIT PERI AZIMU VELO AIN AR TRES W  DIS CAZ7
 BAR2 EZ EP        945 44.23                             165    0.0810 30.9 164 
 BAR2 EZ ES        945 57.38                             165    0.1010 30.9 164 
 BAR2 EZ I         945 58.73         6.0 0.24            166           30.9 164 
 BRR  HZ EP        945 44.78                             153   -0.1710 57.1 298 
 BRR  HE ES        945 58.39                             153   -0.3210 57.1 298 
 RUS  HZ EP        945 49.33                             135   -0.0510  109 170 
 RUS  HN ES        946  6.75                             135    0.1510  109 170 
 ZAR  HN ES        946 19.88                             118    0.19 9  190 292 
 SML  HZ EP        946  0.99                             113   -0.41 8  233 337 
 SML  HE ES        946 28.50                             113    0.51 8  233 337 
                                                                                
