 2014  920 0755  9.8 L   7.454 -73.191132.9  RSN  7 0.3 1.4LRSN                1
 GAP=112        0.65       2.5     3.4  4.6 -0.1120E+01  0.4841E+01  0.3844E+00E
 Epicentro: EL PLAYON - SANTANDER                                              3
 ACTION:UPD 14-10-03 23:06 OP:nd   STATUS:               ID:20140920075509 L   I
 OLDACT:REG 14-09-20 12:44 OP:spq  STATUS:               ID:20140920074807     3
 2014-09-20-0748-07M.COL___293                                                 6
 STAT SP IPHASW D HRMM SECON CODA AMPLIT PERI AZIMU VELO AIN AR TRES W  DIS CAZ7
 PAM  SZ EP        755 29.72                             156    0.2510 55.7 103 
 PAM  SN ES        755 44.96                             156    0.1810 55.7 103 
 PAM  SZ I         755 46.08         3.0 0.34            158           55.7 103 
 BRR  HE ES        755 44.87                             151    0.0510 69.2 236 
 BRR  HZ I         755 45.09         8.2 0.38            152           69.2 236 
 OCA  HE ES   1    755 47.39                             145   -0.01 7 87.9 351 
 OCA  HZ I         755 51.16         2.5 0.22            145           87.9 351 
 BAR2 SZ EP        755 31.49                             142   -0.1110 95.3 179 
 BAR2 SZ ES   1    755 47.79                             142   -0.78 7 95.3 179 
 BAR2 SZ I         755 48.76         7.5 0.14            144           95.3 179 
 PTB  HZ EP        755 38.06                             124   -0.17 9  173 234 
 PTB  HE ES        756  0.73                             124    0.36 9  173 234 
 PTB  HZ I         756  1.90         4.3 0.24            125            173 234 
 SML  HZ EP        755 38.54                             123   -0.18 9  178 327 
 SML  HN ES   1    756  1.11                             123   -0.15 7  178 327 
 SML  HZ I         756  1.96         4.1 0.10            124            178 327 
 SPBC HZ EP        755 43.72                             117    0.22 8  222 206 
 SPBC HN ES        756  9.74                             117   -0.02 8  222 206 
 SPBC HZ I         756 11.92         1.9 0.30            118            222 206 
                                                                                
