 2013 1020 0831 59.7 L   6.788 -73.133149.2  RSN  9 0.3 1.9LRSN                1
 GAP=139        0.75       3.1     4.1  4.8 -0.3004E+01  0.3621E+01  0.1815E+01E
 Epicentro: LOS SANTOS - SANTANDER                                             3
 ACTION:UPD 13-11-25 09:22 OP:ep   STATUS:               ID:20131020083159 L   I
 OLDACT:UP  13-10-20 11:50 OP:cam  STATUS:               ID:20131020082840     3
 OLDACT:REG 13-10-20 10:50 OP:cam  STATUS:               ID:20131020082840     3
 2013-10-20-0828-40M.COL___215                                                 6
 STAT SP IPHASW D HRMM SECON CODA AMPLIT PERI AZIMU VELO AIN AR TRES W  DIS CAZ7
 BAR2 SZ EP        832 19.61                             171   -0.0610 22.3 194 
 BAR2 SZ ES        832 34.94                             171   -0.3510 22.3 194 
 BAR2 SZ I         832 36.42        15.6 0.40            171           22.3 194 
 BRR  HZ EP     D  832 21.48                             152    0.2010 73.1 299 
 BRR  HE ES        832 38.75                             152    0.6110 73.1 299 
 BRR  HZ I         832 41.83        11.5 0.32            153           73.1 299 
 PAM  SZ EP        832 22.50                             151    0.2610 77.5  38 
 PAM  SN ES        832 39.84                             151   -0.0210 77.5  38 
 PAM  SZ I         832 41.76        23.0 0.56            154           77.5  38 
 RUS  HZ EP        832 23.47                             145   -0.1710 99.1 177 
 RUS  HN ES        832 42.44                             145    0.1010 99.1 177 
 RUS  HZ I         832 43.90         6.7 0.22            147           99.1 177 
 PTB  HZ EP        832 26.66                             132   -0.34 9  149 259 
 PTB  HN ES   1    832 47.97                             132   -0.36 7  149 259 
 PTB  HZ I         832 49.83         7.1 0.16            134            149 259 
 OCA  HE ES   1    832 50.10                             130   -0.67 7  162 353 
 SPBC HZ EP        832 28.58                             130    0.18 9  163 220 
 SPBC HN ES        832 50.77                             130   -0.05 9  163 220 
 SPBC HZ I         832 53.23        15.6 0.40            132            163 220 
 NOR  HZ EP   1    832 35.70                             119    0.08 6  235 235 
 CHI  HZ EP   2    832 37.93                             118    0.49 4  248 196 
 HEL  HZ EP   4    832 41.78                             115    1.62 0  273 256 
                                                                                
