 2011 1020 0134  9.1 L   6.755 -73.118141.6  RSN  6 0.2 1.8LRSN                1
 GAP=142        0.40       2.9     3.9  4.7  0.1362E+01  0.1806E+01 -0.2398E+01E
 Epicentro: LOS SANTOS - SANTANDER                                             3
 ACTION:UPD 12-07-13 16:04 OP:ep   STATUS:               ID:20111020013409 L   I
 2011-10-20-0131-29S.COL___167                                                 6
 STAT SP IPHASW D HRMM SECON CODA AMPLIT PERI AZIMU VELO AIN AR TRES W  DIS CAZ7
 BAR2 SZ ES   2    134 42.75                             172   -0.22 5 19.4 202 
 BAR2 SZ I         134 44.52        14.7 0.46                          19.4 202 
 BRR  HZ EP   1    134 29.78                             150   -0.27 7 76.3 301 
 BRR  HE ES   2    134 46.87                             150    0.43 5 76.3 301 
 BRR  HZ I         134 49.14        12.4 0.24                          76.3 301 
 PAM  SZ EP   1    134 30.80                             149   -0.15 7 79.4  36 
 PAM  SN ES   2    134 47.96                             149   -0.07 5 79.4  36 
 RUS  HZ EP   1    134 32.22                             144    0.19 7 95.5 178 
 RUS  HN ES   2    134 49.97                             144    0.03 5 95.5 178 
 RUS  HZ I         134 52.18         7.5 0.21                          95.5 178 
 OCA  SZ EP   1    134 37.76                             128    0.21 7  166 352 
 OCA  SZ ES   2    134 59.92                             128    0.15 5  166 352 
 OCA  SZ I         135  1.69         9.4 0.27                           166 352 
 ZAR  HZ EP   2    134 41.72                             121   -0.01 4  209 293 
 ZAR  HN ES   2    135  6.97                             121   -0.24 4  209 293 
 ZAR  HZ I         135 12.58         5.8 0.26                           209 293 
                                                                                
