 2015  920 0934 26.8 L   6.821 -73.163147.9  RSN  7 0.4 1.8LRSN                1
 GAP=209        0.86       3.1     6.4  5.4  0.2989E+01  0.5832E+01 -0.1473E+01E
 Epicentro: LOS SANTOS - SANTANDER                                             3
 ACTION:UPD 15-10-28 16:27 OP:cam  STATUS:               ID:20150920093426 L   I
 OLDACT:REG 15-09-20 12:38 OP:drio STATUS:               ID:20150920092748     3
 2015-09-20-0927-48M.COL___355                                                 6
 STAT SP IPHASW D HRMM SECON CODA AMPLIT PERI AZIMU VELO AIN AR TRES W  DIS CAZ7
 BAR2 EZ EP        934 46.67                             170   -0.0410 25.3 185 
 BAR2 EZ ES        935  1.78                             170   -0.4710 25.3 185 
 BAR2 EZ I         935  3.33        12.7 0.28            165           25.3 185 
 BRR  HZ EP        934 48.42                             154    0.4110 68.4 298 
 BRR  HE ES        935  5.21                             154    0.6510 68.4 298 
 BRR  HZ I         935  9.40         9.2 0.44            148           68.4 298 
 SPBC HZ EP        934 55.77                             129    0.28 9  164 218 
 SPBC HN ES        935 17.55                             129   -0.34 9  164 218 
 SPBC HZ I         935 22.02         6.5 0.16            128            164 218 
 ZAR  HZ EP   4    935  1.78                             123    2.69 0  201 292 
 ZAR  HE ES        935 24.18                             123   -0.11 9  201 292 
 ZAR  HZ I         935 31.36         6.1 0.36            122            201 292 
 SML  HZ EP        935  2.95                             118   -0.26 8  241 335 
 SML  HE ES        935 31.35                             118   -0.28 8  241 335 
 SML  HZ I         935 33.77         8.4 0.28            119            241 335 
 PRA  HZ EP        935 20.98                             107    0.49 6  393 209 
 PRA  HN ES        936  2.09                             107   -0.30 6  393 209 
 PRA  HZ I         936  7.86         3.0 0.32            107            393 209 
 SJC  HZ EP        935 22.18                             106    0.12 6  406 327 
 SJC  HN ES        936  4.68                             106   -0.50 6  406 327 
 SJC  HZ I         936  8.63         1.2 0.52            107            406 327 
                                                                                
