 2015  520 0410 10.8 L   6.805 -73.141149.3  RSN 11 0.4 1.7LRSN                1
 GAP=137        0.85       2.9     4.3  5.7 -0.5316E+00  0.6229E+01 -0.2975E+01E
 Epicentro: LOS SANTOS - SANTANDER                                             3
 ACTION:UPD 15-09-10 22:05 OP:cam  STATUS:               ID:20150520041010 L   I
 OLDACT:REG 15-05-20 12:23 OP:spq  STATUS:               ID:20150520040743     3
 2015-05-20-0407-43M.COL___291                                                 6
 STAT SP IPHASW D HRMM SECON CODA AMPLIT PERI AZIMU VELO AIN AR TRES W  DIS CAZ7
 BAR2 EZ EP        410 30.70                             170   -0.1410 23.9 191 
 BAR2 EZ ES   1    410 46.07                             170   -0.43 7 23.9 191 
 BAR2 EZ I         410 47.12        15.1 0.13            170           23.9 191 
 BRR  HZ EP        410 32.53                             153    0.2110 71.4 298 
 BRR  HN ES        410 49.84                             153    0.7210 71.4 298 
 BRR  HZ I         410 53.04         7.4 0.39            149           71.4 298 
 PAM  SZ EP        410 33.59                             152    0.2710 76.6  40 
 PAM  SN ES        410 50.72                             152   -0.1910 76.6  40 
 PAM  SZ I         410 52.90         9.3 0.52            154           76.6  40 
 RUS  HZ EP   1    410 35.09                             144    0.18 7  101 176 
 RUS  HN ES        410 53.65                             144   -0.0910  101 176 
 RUS  HZ I         410 54.51         7.1 0.36            149            101 176 
 OCA  HZ EP   1    410 40.05                             130    0.73 7  160 353 
 OCA  HE ES        411  1.10                             130   -0.48 9  160 353 
 OCA  HZ I         411  5.49        12.0 0.30            131            160 353 
 SPBC HZ EP   1    410 39.72                             130    0.10 7  164 219 
 SPBC HN ES        411  2.02                             130   -0.09 9  164 219 
 SPBC HZ I         411  4.47        13.1 0.22            131            164 219 
 ZAR  HZ EP        410 43.07                             123   -0.41 9  204 292 
 ZAR  HE ES        411  8.67                             123   -0.32 9  204 292 
 ZAR  HZ I         411 18.35         3.2 0.16            123            204 292 
 SML  HZ EP        410 47.35                             118   -0.22 8  243 335 
 SML  HE ES   1    411 16.59                             118    0.32 6  243 335 
 SML  HZ I         411 23.44         5.8 0.10            119            243 335 
 GUY2CHZ EP   4    410 56.26                             113    1.63 0  302 235 
 GUY2CHN ES   4    411 31.96                             113    3.13 0  302 235 
 GUY2CHZ I         411 35.82         2.4 0.30                           302 235 
 MON  HN ES   4    411 36.67                             109   -1.58 0  354 308 
 MON  HZ I         411 41.00         0.8 0.68            110            354 308 
 SJC  HZ EP   4    411  5.35                             106   -1.08 0  409 327 
 SJC  HE ES   4    411 47.63                             106   -2.22 0  409 327 
 SJC  HZ I         411 50.07         1.1 0.42            107            409 327 
                                                                                
