 2011  520 0238 51.8 L   6.806 -73.144142.9  RSN 14 0.4 2.6LRSN                1
 GAP=136        0.77       3.0     4.4  4.8 -0.6006E+01  0.6360E+01  0.1571E+01E
 Epicentro: LOS SANTOS - SANTANDER                                             3
 ACTION:UP  11-06-29 08:54 OP:tino STATUS:               ID:20110520023851 L   I
 2011-05-20-0237-17S.COL___140                                                 6
 STAT SP IPHASW D HRMM SECON CODA AMPLIT PERI AZIMU VELO SNR AR TRES W  DIS CAZ7
 BTL  SZ EP        239 11.31                             172     0.310   18 312 
 BAR2 SZ IP        239 11.14                             170     0.010   24 190 
 BAR2 SZ ES   1    239 25.89                             170    -0.3 7   24 190 
 BAR2 SZ I         239 27.24        98.1 0.40                            24 190 
 GIR2 SZ EP   1    239 11.26                             167     0.1 7   31 350 
 GIR2 SZ ES   1    239 25.81                             167    -0.4 7   31 350 
 BRR  HZ EP        239 12.90                             152     0.210   71 298 
 BRR  HE ES   1    239 29.74                             152     0.8 7   71 298 
 BRR  HZ I         239 33.53        54.6 0.24                            71 298 
 PAM  SZ EP   1    239 13.98                             150     0.3 7   77  40 
 PAM  SE ES   1    239 30.54                             150    -0.2 7   77  40 
 RUS  HZ EP        239 15.16                             143    -0.210  101 176 
 RUS  HN ES   1    239 33.94                             143     0.2 7  101 176 
 RUS  HZ I         239 35.58        44.7 0.45                           101 176 
 BRI  SZ EP   1    239 15.60                             141     0.2 7  108  21 
 BRI  SZ ES   2    239 33.27                             141    -0.5 5  108  21 
 GRA  SZ EP   1    239 16.92                             136     0.2 7  125  17 
 GRA  SZ ES   1    239 36.11                             136    -0.1 7  125  17 
 GRA  SZ I         239 39.60        58.7 0.33                           125  17 
 OCA  SZ EP        239 19.44                             129    -0.4 9  160 353 
 OCA  SZ ES   1    239 41.60                             129    -0.1 7  160 353 
 OCA  SZ I         239 46.60        60.9 0.35                           160 353 
 NOR  SZ EP        239 27.29                             118    -0.2 8  235 234 
 NOR  SE ES   1    239 55.22                             118     0.0 6  235 234 
 HEL  HZ EP   1    239 32.33                             114     0.4 6  272 256 
 HEL  HE ES   1    240  2.48                             114    -0.7 6  272 256 
 HEL  HZ I         240 10.30        36.5 0.41                           272 256 
 RREF HZ EP   1    239 37.52                             110    -0.4 5  322 229 
 RREF HE ES   1    240 13.54                             110    -0.3 5  322 229 
 RREF HZ I         240 20.72        31.9 0.30                           322 229 
 TOL  SZ EP   1    239 40.92                             109     0.9 5  344 225 
 PRA  HZ EP   1    239 45.37                             106     0.0 4  393 210 
 PRA  HE ES   1    240 26.73                             106    -0.3 4  393 210 
                                                                                
