 2012  420 0632 13.0 L   6.792 -73.107143.9  RSN  6 0.4 1.4LRSN                1
 GAP=142        0.91      10.4     5.1 12.9 -0.1248E+02  0.8997E+01  0.7958E+02E
 Epicentro: LOS SANTOS - SANTANDER                                             3
 ACTION:UPD 12-07-05 11:54 OP:tino STATUS:               ID:20120420063213 L   I
 2012-04-20-0630-00M.COL___187                                                 6
 STAT SP IPHASW D HRMM SECON CODA AMPLIT PERI AZIMU VELO AIN AR TRES W  DIS CAZ7
 PAM  SZ EP   1    632 34.86                             151    -0.1 7   75  37 
 PAM  SN ES        632 51.66                             151    -0.310   75  37 
 PAM  SZ I         632 55.11         3.6 0.21                            75  37 
 BRR  HZ EP   1    632 34.86                             151     0.6 7   75 298 
 BRR  HN ES   1    632 51.27                             151     0.5 7   75 298 
 BRR  HZ I         632 54.60         8.6 0.16                            75 298 
 RUS  HZ EP   1    632 36.81                             144     0.3 7  100 178 
 RUS  HZ I         632 58.51         2.2 0.20                           100 178 
 PTB  HZ EP   1    632 39.90                             131    -0.3 7  152 259 
 PTB  HN ES   1    633  1.16                             131    -0.3 7  152 259 
 PTB  HZ I         633  6.87         2.9 0.17                           152 259 
 ZAR  HN ES   1    633 11.33                             121     0.0 6  208 292 
 HEL  HN ES   1    633 24.72                             114    -0.5 6  276 256 
                                                                                
