 2015  420 0944 16.5 L   6.763 -73.211160.7  RSN  4 0.2 1.5LRSN                1
 GAP=226        0.57       7.4     4.6  7.2  0.5755E+01 -0.5160E+01  0.1637E+02E
 Epicentro: ZAPATOCA - SANTANDER                                               3
 ACTION:UPD 15-06-03 16:56 OP:cam  STATUS:               ID:20150420094416 L   I
 OLDACT:REG 15-04-20 15:07 OP:drio STATUS:               ID:20150420093741     3
 2015-04-20-0937-41M.COL___259                                                 6
 STAT SP IPHASW D HRMM SECON CODA AMPLIT PERI AZIMU VELO AIN AR TRES W  DIS CAZ7
 BAR2 EZ EP        944 37.52                             173   -0.3010 19.1 171 
 BRR  HZ EP        944 39.29                             156    0.2410 67.2 305 
 BRR  HE ES        944 56.75                             156    0.0910 67.2 305 
 BRR  HZ I         945  0.05         3.6 0.22            150           67.2 305 
 PTB  HZ EP        944 44.19                             137    0.16 9  140 260 
 PTB  HN ES        945  5.53                             137    0.01 9  140 260 
 PTB  HZ I         945  9.31         3.3 0.11            134            140 260 
 ZAR  HN ES        945 14.90                             126   -0.25 9  199 294 
 ZAR  HZ I         945 22.64         3.5 0.42            124            199 294 
                                                                                
