 2016  520 0206 45.0 L   6.806 -73.130147.1  RSN 19 0.5 2.4LRSN                1
 GAP= 72        1.08       3.0     3.0  5.1 -0.8472E+00  0.3879E+01  0.3040E+01E
 Epicentro: LOS SANTOS - SANTANDER                                             3
 ACTION:UPD 16-08-18 17:47 OP:cam  STATUS:               ID:20160520020645 L   I
 OLDACT:UP  16-05-20 13:26 OP:mh   STATUS:               ID:20160520015745     3
 OLDACT:UP  16-05-20 13:26 OP:mh   STATUS:               ID:20160520015745     3
 OLDACT:UP  16-05-20 13:24 OP:mh   STATUS:               ID:20160520015745     3
 OLDACT:REG 16-05-20 12:26 OP:mh   STATUS:               ID:20160520015745     3
 2016-05-20-0157-45M.COL___306                                                 6
 STAT SP IPHASW D HRMM SECON CODA AMPLIT PERI AZIMU VELO AIN AR TRES W  DIS CAZ7
 BAR2 EZ IP     C  2 7  4.70                             170   -0.0810 24.3 194 
 BAR2 EZ ES        2 7 19.61                             170   -0.6210 24.3 194 
 BAR2 EZ I         2 7 22.73        35.4 0.26            169           24.3 194 
 BRR  HZ IP     C  2 7  6.39                             152    0.0610 72.4 297 
 BRR  HN ES        2 7 23.83                             152    0.8410 72.4 297 
 BRR  HZ I         2 7 27.01        55.2 0.12            151           72.4 297 
 PAM  EZ EP        2 7  7.23                             152   -0.0010 75.8  39 
 PAM  EN ES        2 7 24.43                             152   -0.1610 75.8  39 
 PAM  EZ I         2 7 25.71        35.2 0.26            155           75.8  39 
 RUS  HZ EP        2 7  8.79                             144   -0.1010  101 177 
 RUS  HN ES        2 7 27.33                             144   -0.2210  101 177 
 RUS  HZ I         2 7 29.42        24.1 0.36            145            101 177 
 PTB  HZ EP        2 7 11.26                             132   -0.95 9  150 259 
 PTB  HN ES        2 7 33.22                             132   -0.23 9  150 259 
 PTB  HZ I         2 7 34.59        49.8 0.16            131            150 259 
 TAM  HZ IP     D  2 7 12.97                             131    0.36 9  154 105 
 TAM  HE ES        2 7 34.21                             131    0.03 9  154 105 
 TAM  HZ I         2 7 35.35        19.0 0.06            134            154 105 
 OCA  HZ EP        2 7 12.83                             130   -0.51 9  160 353 
 OCA  HE ES        2 7 36.22                             130    0.75 9  160 353 
 OCA  HZ I         2 7 38.63        52.7 0.10            131            160 353 
 SPBC HZ EP        2 7 13.68                             129   -0.04 9  165 219 
 SPBC HN ES        2 7 36.77                             129    0.63 9  165 219 
 SPBC HZ I         2 7 40.13        43.6 0.38            129            165 219 
 ZAR  HZ EP        2 7 17.06                             122   -0.58 8  205 292 
 ZAR  HN ES        2 7 42.92                             122   -0.20 8  205 292 
 ZAR  HZ I         2 7 48.10        66.0 0.32            122            205 292 
 NOR  HZ EP        2 7 21.07                             119    0.10 8  236 235 
 NOR  HN ES   1    2 7 49.13                             119    0.09 6  236 235 
 NOR  HZ I         2 7 53.81        24.7 0.22            119            236 235 
 CHI  HZ EP        2 7 23.29                             117    0.43 8  250 196 
 CHI  HN ES        2 7 52.37                             117   -0.04 8  250 196 
 CHI  HZ I         2 7 55.21        10.7 0.26            118            250 196 
 ROSC BZ EP   4    2 7 24.96                             117    1.64 0  254 211 
 ROSC BN ES   4    2 7 56.24                             117    3.01 0  254 211 
 ROSC BZ I         2 7 58.95        24.8 0.20            117            254 211 
 HEL  HZ EP        2 7 25.95                             115    0.50 8  274 256 
 HEL  HN ES        2 7 57.09                             115    0.06 8  274 256 
 HEL  HZ I         2 8  3.40        14.2 0.26            115            274 256 
 URE  HZ EP   4    2 7 28.57                             114    2.32 0  285 292 
 URE  HN ES   4    2 7 57.15                             114   -1.30 0  285 292 
 URE  HZ I         2 8  7.20        26.7 0.18            114            285 292 
 PTGC HZ EP   4    2 7 27.99                             112   -0.89 0  309 159 
 PTGC HN ES   4    2 8  0.66                             112   -2.48 0  309 159 
 CBOC HZ EP        2 7 32.98                             110    0.83 7  335 252 
 CBOC HN ES        2 8  8.25                             110   -0.70 7  335 252 
 CBOC HZ I         2 8 16.67         3.5 0.20            110            335 252 
 SDV  BZ EP   4    2 7 32.45                             109   -2.41 0  359  50 
 SDV  BN ES   4    2 8  9.87                             109   -3.90 0  359  50 
 SDV  BZ I         2 8 14.83         2.8 0.28            110            359  50 
 PRA  HZ EP        2 7 38.83                             107    0.13 6  393 210 
 PRA  HN ES        2 8 21.30                             107    0.69 6  393 210 
 PRA  HZ I         2 8 27.37        11.7 0.28            107            393 210 
 ORTC HZ EP        2 7 38.37                             106   -0.74 6  397 216 
 ORTC HE ES        2 8 21.61                             106    0.26 6  397 216 
 ORTC HZ I         2 8 28.61         9.8 0.72            107            397 216 
 SJC  HZ EP   4    2 7 38.06                             106   -2.56 0  410 327 
 SJC  HN ES   4    2 8 19.10                             106   -4.93 0  410 327 
 SJC  HZ I         2 8 23.73         5.2 0.48            107            410 327 
                                                                                
