 2010  620 0019 24.9 L   6.714 -73.202159.7  RSN  5 0.3 1.3LRSN                1
 GAP=149        0.60       7.7    14.0 14.5  0.4532E+02 -0.1208E+03 -0.6187E+02E
 Epicentro: VILLANUEVA - SANTANDER                                             3
 ACTION:UP  10-08-24 10:11 OP:vdl  STATUS:               ID:20100620001924 L   I
 2010-06-20-0016-11S.COL___118                                                 6
 STAT SP IPHASW D HRMM SECON CODA AMPLIT PERI AZIMU VELO SNR AR TRES W  DIS CAZ7
 BAR2 SZ EP   1    019 45.68                             175    -0.4 7   14 171 
 BRR  HZ EP   1    019 47.45                             155    -0.1 7   71 308 
 BRR  HZ I         019 54.60         6.9 0.34                            71 308 
 BRR  HN ES   2    020  5.42                             155     0.2 5   71 308 
 RUS  HZ EP   2    019 50.00                             149     0.6 5   92 172 
 RUS  HN ES   2    020  8.52                             149    -0.1 5   92 172 
 RUS  HZ I         020  9.39         1.7 0.20                            92 172 
 BRI  SZ EP   1    019 51.25                             141     0.3 7  120  22 
 GRA  SZ EP   2    019 51.97                             137    -0.3 5  137  19 
                                                                                
