 2016 1220 0419  4.3 L   6.825 -73.131149.1  RSN 10 0.6 1.5LRSN                1
 GAP=119        1.46       5.8     5.8  8.6  0.9248E+00  0.7680E+01  0.1621E+02E
 Epicentro: LOS SANTOS - SANTANDER                                             3
 ACTION:UPD 17-01-11 20:17 OP:rebc STATUS:               ID:20161220041904 L   I
 OLDACT:UP  16-12-20 14:57 OP:cog  STATUS:               ID:20161220041745     3
 OLDACT:REG 16-12-20 13:00 OP:cog  STATUS:               ID:20161220041745     3
 2016-12-20-0418-00M.COL___345                                                 6
 STAT SP IPHASW D HRMM SECON CODA AMPLIT PERI AZIMU VELO AIN AR TRES W  DIS CAZ7
 BAR2 EZ EP        419 24.14                             169   -0.2410 26.4 192 
 BAR2 EZ ES        419 39.10                             169   -0.9510 26.4 192 
 BAR2 EZ I         419 40.70         9.3 0.20            169           26.4 192 
 BRR  HZ EP        419 26.03                             153    0.2310 71.3 296 
 BRR  HN ES        419 43.53                             153    0.9510 71.3 296 
 PAM  EZ EP        419 26.70                             152    0.0210 74.2  40 
 PAM  EN ES        419 44.61                             152    0.4710 74.2  40 
 PAM  EZ I         419 46.90         3.9 0.22            153           74.2  40 
 RUS  HZ EP        419 28.72                             144    0.1610  103 177 
 RUS  HN ES        419 47.40                             144   -0.0910  103 177 
 RUS  HZ I         419 48.72         3.4 0.38            144            103 177 
 PTB  HZ EP        419 31.12                             132   -0.60 9  150 258 
 PTB  HN ES        419 52.13                             132   -0.98 9  150 258 
 PTB  HZ I         419 54.19         4.0 0.20            133            150 258 
 ZAR  HE EP   3    419 38.28                             123    1.28 2  204 291 
 ZAR  HN ES        420  2.21                             123   -0.30 9  204 291 
 NOR  HN ES        420  9.66                             119    0.87 8  238 234 
 CHI  HZ EP        419 42.80                             117    0.29 8  252 195 
 CHI  HN ES        420 13.27                             117    0.95 8  252 195 
 CHI  HZ I         420 17.06         2.4 0.38            118            252 195 
 GUY2CHZ EP        419 48.54                             113    0.16 7  304 235 
 GUY2CHE ES   4    420 26.25                             113    3.48 0  304 235 
 PTGC HZ EP        419 47.68                             112   -0.85 7  311 159 
                                                                                
