 2013  520 0429 28.7 L   6.826 -73.140146.0  RSN 20 0.5 2.7LRSN 3.1WRSN        1
 SPEC AVERAGE  MO 13.8 ST  2.5 OM  2.3 f0 3.85 R0.5195 AL 1.53 WI 23.0 MW  3.1 3
 SPEC SD       MO  0.3 ST  1.6 OM  0.6 f00.730 R0.1073 AL      WI      MW  0.2 3
 GAP= 56        1.19       2.5     3.2  4.7 -0.7848E+00  0.2192E+01  0.1114E+01E
 Epicentro: LOS SANTOS - SANTANDER                                             3
 SPEC RUS HH N MO 13.7 ST  1.5 OM  1.8 f0 3.61 R0.5330 AL 1.44 WI 21.3 MW  3.1 3
 SPEC RUS HH N T 43010 K 0.050 GD  178 VS 5.20 DE 3.20 Q0750.0 QA 1.50 VS 5.20 3
 SPEC PAM SH E MO 13.5 ST  1.6 OM  1.6 f0 4.42 R0.4353 AL 1.53 WI 11.6 MW  2.9 3
 SPEC PAM SH E T 430 7 K 0.050 GD  164 VS 5.20 DE 3.20 Q0750.0 QA 1.50 VS 5.20 3
 SPEC HEL HH N MO 13.7 ST0.542 OM  1.5 f0 2.67 R0.7206 AL 1.31 WI 37.0 MW  3.1 3
 SPEC HEL HH N T 43040 K 0.050 GD  309 VS 5.20 DE 3.20 Q0750.0 QA 1.50 VS 5.20 3
 SPEC OCA HH N MO 14.2 ST  3.9 OM  2.2 f0 3.39 R0.5676 AL 1.62 WI 31.9 MW  3.4 3
 SPEC OCA HH N T 43018 K 0.050 GD  215 VS 5.20 DE 3.20 Q0750.0 QA 1.50 VS 5.20 3
 SPEC BRR HH E MO 14.1 ST  5.2 OM  2.2 f0 4.10 R0.4693 AL 2.20 WI 24.9 MW  3.3 3
 SPEC BRR HH E T 430 7 K 0.050 GD  162 VS 5.20 DE 3.20 Q0750.0 QA 1.50 VS 5.20 3
 SPEC GIR2SH Z MO 13.4 ST  2.1 OM  1.6 f0 4.92 R0.3911 AL 1.06 WI 11.4 MW  2.9 3
 SPEC GIR2SH Z T 430 3 K 0.050 GD  148 VS 5.20 DE 3.20 Q0750.0 QA 1.50 VS 5.20 3
 ACTION:UPD 13-06-20 09:52 OP:ep   STATUS:               ID:20130520042928 L   I
 2013-05-20-0428-50M.COL___215                                                 6
 STAT SP IPHASW D HRMM SECON CODA AMPLIT PERI AZIMU VELO AIN AR TRES W  DIS CAZ7
 BAR2 SZ EP        429 48.48                             169    0.0510 26.2 190 
 BAR2 SZ ES        430  3.04                             169   -0.7710 26.2 190 
 BAR2 SZ I         430  4.70        74.7 0.22            168           26.2 190 
 GIR2 SZ EP        429 48.57                             168    0.2310 28.6 348 
 GIR2 SZ ES        430  4.14                             168    0.4810 28.6 348 
 GIR2 SZ I         430  5.10        53.0 0.30            170           28.6 348 
 BRR  HZ EP        429 50.28                             153    0.4410 70.4 296 
 BRR  HN ES        430  6.83                             153    0.5010 70.4 296 
 BRR  HE I         430  7.99       163.3 0.20            153           70.4 296 
 PAM  SZ EP        429 51.41                             152    0.6110 74.8  41 
 PAM  SN ES        430  8.23                             152    0.2010 74.8  41 
 PAM  SN I         430  9.85        93.2 0.30            154           74.8  41 
 RUS  HZ EP        429 52.52                             143   -0.1710  103 177 
 RUS  HN ES        430 11.52                             143    0.1310  103 177 
 RUS  HE I         430 13.09        88.8 0.26            143            103 177 
 CAPV BZ IP     C  429 56.43                             132    0.54 9  147  38 
 CAPV BZ ES        430 16.18                             132   -0.91 9  147  38 
 PTB  HZ EP        429 55.26                             132   -0.55 9  149 258 
 PTB  HN ES        430 16.13                             132   -0.81 9  149 258 
 PTB  HN I         430 21.65        77.9 0.52            132            149 258 
 TAM  HZ IP        429 56.87                             130    0.45 9  155 106 
 TAM  HZ I         429 57.01        52.5 0.34            132            155 106 
 TAM  HN ES        430 18.09                             130    0.05 9  155 106 
 OCA  HZ EP        429 56.59                             130   -0.19 9  158 353 
 OCA  HN ES        430 18.35                             130   -0.33 9  158 353 
 OCA  HN I         430 21.77        98.8 0.18            132            158 353 
 YOP  SZ EP        429 59.25                             126    0.26 9  181 154 
 YOP  SN ES        430 22.48                             126   -0.13 9  181 154 
 YOP  SN I         430 27.98        79.4 0.50            127            181 154 
 SML  HZ EP        430  5.15                             118    0.05 8  241 335 
 SML  HN ES        430 33.11                             118   -0.38 8  241 335 
 CHI  HZ EP        430  6.63                             117   -0.11 8  252 195 
 CHI  HN ES        430 35.95                             117   -0.45 8  252 195 
 HEL  HZ EP        430  9.72                             115    0.64 8  273 255 
 HEL  HN ES        430 40.68                             115    0.11 8  273 255 
 HEL  HN I         430 45.92        17.9 0.48            115            273 255 
 GUY2CHZ EP   1    430 12.76                             112    0.19 5  303 234 
 GUY2CHN ES        430 48.29                             112    1.51 7  303 234 
 GUY2CHZ I         430 54.60        15.4 0.32                           303 234 
 VIL  SZ EP        430 12.51                             112    0.04 7  306 192 
 VIL  SN ES        430 45.88                             112   -0.72 7  306 192 
 VIL  SN I         430 52.14        51.8 0.58            112            306 192 
 COD  HZ EP        430 16.60                             109   -0.18 6  346 354 
 ARGC HZ EP        430 18.60                             108    0.51 6  357 340 
 SDV  BZ EP        430 17.94                             108   -0.56 6  358  50 
 PRA  HZ EP        430 22.29                             106   -0.27 6  395 209 
 PRA  HN ES        431  4.16                             106   -0.41 6  395 209 
 PRA  HE I         431  9.93        31.2 0.34            107            395 209 
 SJC  HZ EP   1    430 22.24                             106   -1.80 4  407 327 
                                                                                
