 2013  220 0404 22.7 L   6.780 -73.145142.5  RSN  8 0.6 1.9LRSN                1
 GAP=138        1.39       4.9     6.1  8.9  0.1734E+01  0.1267E+02 -0.8132E+01E
 Epicentro: LOS SANTOS - SANTANDER                                             3
 ACTION:UPD 13-03-12 09:34 OP:ep   STATUS:               ID:20130220040423 L   I
 2013-02-20-0400-00M.COL___241                                                 6
 STAT SP IPHASW D HRMM SECON CODA AMPLIT PERI AZIMU VELO AIN AR TRES W  DIS CAZ7
 BAR2 SZ EP        4 4 41.95                             171    0.0410 21.2 191 
 BAR2 SZ ES        4 4 56.53                             171   -0.3510 21.2 191 
 BAR2 SZ I         4 4 57.97        11.5 0.20            171           21.2 191 
 BRR  HZ EP        4 4 43.84                             152    0.2610 72.4 300 
 BRR  HN ES        4 5  0.68                             152    0.8310 72.4 300 
 BRR  HN I         4 5  0.71        18.2 0.24            151           72.4 300 
 PAM  SZ EP        4 4 44.96                             150    0.2710 79.0  38 
 PAM  SN ES        4 5  1.81                             150   -0.0110 79.0  38 
 PAM  SN I         4 5  2.65        18.5 0.46            151           79.0  38 
 RUS  HZ EP        4 4 46.49                             144    0.5010 98.4 176 
 RUS  HN ES        4 5  4.18                             144    0.0410 98.4 176 
 PTB  HZ EP        4 4 48.77                             131   -0.62 9  147 260 
 PTB  HN ES        4 5  9.23                             131   -0.97 9  147 260 
 PTB  HN I         4 5 11.95         7.0 0.18            131            147 260 
 PTB  HZ I         4 5 13.06         4.1 0.19                           147 260 
 OCA  HE ES        4 5 12.02                             128   -1.01 9  162 353 
 OCA  HE I         4 5 12.69        19.5 0.22            129            162 353 
 ZAR  HZ EP   1    4 4 55.25                             121    0.20 6  205 293 
 ZAR  HN ES        4 5 21.08                             121    0.81 9  205 293 
 ZAR  HN I         4 5 22.36         7.9 0.12            122            205 293 
 SML  HZ EP        4 4 58.89                             117   -0.50 8  246 335 
 SML  HE ES        4 5 28.46                             117    0.48 8  246 335 
 SML  HE I         4 5 30.94         7.2 0.26            117            246 335 
                                                                                
