 2011 1120 0033 45.3 L   6.792 -73.134144.6  RSN  5 0.3 1.5LRSN                1
 GAP=138        0.66       6.3     8.0  8.1  0.2718E+02 -0.2018E+02 -0.1658E+02E
 Epicentro: LOS SANTOS - SANTANDER                                             3
 ACTION:UPD 12-07-13 16:11 OP:ep   STATUS:               ID:20111120003345 L   I
 2011-11-20-0031-09S.COL___177                                                 6
 STAT SP IPHASW D HRMM SECON CODA AMPLIT PERI AZIMU VELO AIN AR TRES W  DIS CAZ7
 BAR2 SZ EP   1    034  4.63                             170   -0.20 7 22.8 194 
 BAR2 SZ ES   1    034 19.44                             170   -0.58 7 22.8 194 
 BAR2 SZ I         034 22.12         6.1 0.27                          22.8 194 
 BRR  HZ EP   1    034  6.60                             152    0.14 7 72.7 299 
 BRR  HE ES   1    034 23.32                             152    0.40 7 72.7 299 
 BRR  HZ I         034 25.54         8.6 0.39                          72.7 299 
 PAM  SZ EP   1    034  7.54                             151    0.11 7 77.2  38 
 RUS  HZ EP   1    034  8.83                             144   -0.09 7 99.7 177 
 RUS  HE ES   1    034 27.68                             144    0.38 7 99.7 177 
 RUS  HZ I         034 28.36         2.3 0.26                          99.7 177 
 ZAR  HN ES   2    034 42.72                             122   -0.52 4  206 292 
 ZAR  HZ I         034 49.43         3.6 0.08                           206 292 
                                                                                
