 2014  620 0222  5.9 L   6.791 -73.155141.4  RSN 18 0.5 2.3LRSN                1
 GAP= 71        1.19       2.8     3.1  5.4 -0.1355E+01  0.5064E+01  0.1752E+01E
 Epicentro: LOS SANTOS - SANTANDER                                             3
 ACTION:UPD 14-07-01 22:55 OP:nd   STATUS:               ID:20140620022205 L   I
 OLDACT:REG 14-06-20 14:13 OP:carl STATUS:               ID:20140620021807     3
 2014-06-20-0218-07M.COL___259                                                 6
 STAT SP IPHASW D HRMM SECON CODA AMPLIT PERI AZIMU VELO AIN AR TRES W  DIS CAZ7
 BAR2 SZ IP     C  222 25.05                             171    0.1110 22.2 188 
 BAR2 SZ ES        222 39.74                             171   -0.0810 22.2 188 
 BAR2 SZ I         222 41.03        58.6 0.14            169           22.2 188 
 BRR  HZ IP     C  222 26.93                             152    0.4110 70.8 300 
 BRR  HN ES        222 43.86                             152    1.2310 70.8 300 
 BRR  HZ I         222 46.99        49.2 0.16            151           70.8 300 
 PAM  SZ EP        222 27.88                             150    0.1810 78.8  40 
 PAM  SN ES        222 44.95                             150    0.2210 78.8  40 
 PAM  SZ I         222 47.29        34.0 0.54            154           78.8  40 
 RUS  HZ EP        222 29.10                             143   -0.0210 99.7 175 
 RUS  HN ES        222 46.41                             143   -0.8410 99.7 175 
 RUS  HZ I         222 48.66        17.4 0.32            144           99.7 175 
 PTB  HZ EP        222 31.65                             131   -0.72 9  147 259 
 PTB  HN ES        222 52.53                             131   -0.51 9  147 259 
 PTB  HZ I         222 55.05        40.8 0.14            131            147 259 
 TAM  HZ IP     D  222 33.37                             129    0.11 9  156 105 
 TAM  HN ES        222 54.30                             129   -0.33 9  156 105 
 OCA  HZ EP        222 34.24                             128    0.32 9  161 354 
 OCA  HN ES        222 55.33                             128   -0.47 9  161 354 
 OCA  HZ I         222 58.49        25.9 0.40            131            161 354 
 SPBC HZ EP        222 33.76                             128   -0.13 9  162 219 
 SPBC HN ES        222 55.86                             128    0.10 9  162 219 
 SPBC HZ I         223  2.85        25.1 0.30            129            162 219 
 ZAR  HZ EP        222 37.79                             121   -0.18 9  204 293 
 ZAR  HN ES        223  3.76                             121    0.75 9  204 293 
 ZAR  HZ I         223  9.94        27.9 0.24            123            204 293 
 NOR  HZ EP        222 41.21                             118    0.02 8  233 235 
 NOR  HN ES        223  8.57                             118   -0.18 8  233 235 
 NOR  HZ I         223 15.35        19.0 0.20            119            233 235 
 SML  HZ EP        222 41.80                             116   -0.50 8  244 336 
 SML  HE ES        223  9.88                             116   -0.84 8  244 336 
 CHI  HN ES        223 12.82                             116    0.52 8  247 195 
 CHI  HZ I         223 16.03         5.5 0.30            118            247 195 
 HEL  HZ EP        222 46.13                             114    0.41 8  271 256 
 HEL  HE ES        223 16.36                             114   -0.45 8  271 256 
 HEL  HZ I         223 24.21        15.9 0.46            115            271 256 
 GUY2CHZ EP        222 49.20                             112    0.08 7  300 235 
 GUY2CHN ES        223 22.41                             112   -0.44 7  300 235 
 GUY2CHZ I         223 29.48        11.9 0.32                           300 235 
 RREF HZ EP        222 51.80                             110    0.14 7  320 229 
 RREF HN ES        223 27.75                             110    0.37 7  320 229 
 RREF HZ I         223 35.09         9.2 0.24            111            320 229 
 CBOC HZ EP        222 53.19                             109    0.73 7  332 252 
 CBOC HE ES        223 27.64                             109   -1.16 7  332 252 
 CBOC HZ I         223 30.91         4.7 0.44            110            332 252 
 PRA  HZ EP        222 59.42                             106    0.34 6  391 210 
 PRA  HN ES        223 41.36                             106    0.78 6  391 210 
 PRA  HZ I         223 48.09         7.2 0.28            107            391 210 
 ORTC HZ EP        223  0.22                             106    0.75 6  394 216 
 ORTC HN ES        223 41.10                             106   -0.19 6  394 216 
 ORTC HZ I         223 48.12         6.6 0.50            107            394 216 
 SJC  HZ EP   4    222 59.16                             105   -2.16 0  410 327 
 SJC  HN ES   4    223 40.05                             105   -4.52 0  410 327 
                                                                                
