 2011  920 0024 35.2 L   6.811 -73.115141.3  RSN  6 0.1 1.3LRSN                1
 GAP=140        0.32       2.2     2.6  3.3 -0.1620E+01  0.4928E+00  0.1204E+01E
 Epicentro: LOS SANTOS - SANTANDER                                             3
 ACTION:UPD 12-07-13 15:58 OP:ep   STATUS:               ID:20110920002435 L   I
 2011-09-20-0023-00S.COL___164                                                 6
 STAT SP IPHASW D HRMM SECON CODA AMPLIT PERI AZIMU VELO AIN AR TRES W  DIS CAZ7
 BTL  SZ EP   2    024 54.51                             171    0.26 5 20.6 305 
 BAR2 SZ EP        024 54.37                             169    0.0210 25.3 197 
 BAR2 SZ I         024 54.86         5.8 0.14                          25.3 197 
 BAR2 SZ ES   1    025  9.14                             169   -0.13 7 25.3 197 
 BRR  HZ EP   2    024 55.68                             151   -0.34 5 73.6 296 
 BRR  HZ I         024 57.75         9.1 0.07                          73.6 296 
 BRR  HE ES   1    025 12.36                             151    0.11 7 73.6 296 
 PAM  SZ EP   1    024 56.77                             151    0.00 7 74.3  38 
 PAM  SE ES   1    025 13.56                             151   -0.02 7 74.3  38 
 PAM  SZ I         025 14.33         1.8 0.28                          74.3  38 
 RUS  HZ EP   1    024 58.61                             143    0.00 7  102 178 
 RUS  HZ I         024 59.23         1.9 0.15                           102 178 
 RUS  HE ES   1    025 16.91                             143    0.06 7  102 178 
 NOR  SE ES   1    025 38.99                             117   -0.04 6  238 235 
                                                                                
