 2017 1120 0911 42.9 L   6.743 -73.183149.4  RSN  5 0.4 1.4LRSN                1
 GAP=239        0.90       5.7     6.1  7.5  0.1762E+02  0.1193E+02 -0.1849E+01E
 Epicentro: VILLANUEVA - SANTANDER                                             3
 ACTION:UPD 17-12-12 19:57 OP:rebc STATUS:               ID:20171120091142 L   I
 OLDACT:REG 17-11-20 15:28 OP:osc  STATUS:               ID:20171120090739     3
 2017-11-20-0908-00M.COL___477                                                 6
 STAT SP IPHASW D HRMM SECON CODA AMPLIT PERI AZIMU VELO AIN AR TRES W  DIS CAZ7
 BAR2 EZ EP        912  2.79                             173   -0.1010 16.7 180 
 BAR2 EZ ES        912 17.99                             173   -0.4610 16.7 180 
 BAR2 EZ I         912 19.09         9.7 0.18            174           16.7 180 
 RUS  HZ EP        912  6.94                             146    0.3110 94.7 173 
 RUS  HN ES        912 25.63                             146    0.5110 94.7 173 
 RUS  HZ I         912 26.46         2.9 0.22            148           94.7 173 
 PTB  HZ EP        912  9.51                             134   -0.23 9  143 261 
 PTB  HE ES        912 31.02                             134    0.37 9  143 261 
 PTB  HZ I         912 32.54         2.5 0.40            134            143 261 
 ZAR  HZ EP        912 15.61                             123    0.13 9  203 294 
 ZAR  HE ES        912 40.79                             123   -0.08 9  203 294 
 ZAR  HZ I         912 46.55         2.8 0.42            123            203 294 
 CHI  HN ES        912 48.40                             119   -0.63 8  241 195 
                                                                                
