 2010  420 0405 29.2 L   6.943 -72.887138.1  RSN  4 0.3 1.7LRSN                1
 GAP=233        0.61       6.6    15.2  9.9 -0.1077E+02 -0.7251E+02  0.2687E+00E
 Epicentro: SANTA BARBARA - SANTANDER                                          3
 ACTION:UPD 10-08-24 10:00 OP:vdl  STATUS:               ID:20100420040529 L   I
 2010-04-20-0400-22S.COL___100                                                 6
 STAT SP IPHASW D HRMM SECON CODA AMPLIT PERI AZIMU VELO AIN AR TRES W  DIS CAZ7
 BAR2 SZ ES   2    4 6  4.13                             158     0.0 5   51 220 
 BRR  HZ IP     C  4 5 51.12                             142     0.110   93 281 
 BRR  HE ES   1    4 6  7.73                             142    -0.2 7   93 281 
 BRR  HZ I         4 6 11.80         7.5 0.52                            93 281 
 OCA  SZ EP   2    4 5 55.41                             128    -0.7 5  151 342 
 OCA  SZ ES   2    4 6 17.45                             128     0.4 5  151 342 
 OCA  SZ I         4 6 20.27         6.4 0.21                           151 342 
 ROSC BZ EP   2    4 6 10.33                             111     0.2 4  282 214 
 ROSC BZ I         4 6 42.50         3.4 0.14                           282 214 
                                                                                
