 2014  820 0928 41.1 L   6.239 -73.893 88.9  RSN  5 0.1 1.7LRSN                1
 GAP=133        0.45       2.1     2.8  4.9 -0.3447E+01  0.5827E+01 -0.2958E+01E
 Epicentro: LANDAZURI - SANTANDER                                              3
 ACTION:UPD 14-09-15 21:51 OP:nd   STATUS:               ID:20140820092841 L   I
 OLDACT:DUP 14-08-20 18:29 OP:stll STATUS:               ID:20140820091806d    3
 2014-08-20-0918-05M.COL___251                                                 6
 STAT SP IPHASW D HRMM SECON CODA AMPLIT PERI AZIMU VELO AIN AR TRES W  DIS CAZ7
 SPBC HZ EP        928 56.39                             140    0.0210 67.9 197 
 SPBC HN ES        929  8.39                             140    0.1310 67.9 197 
 SPBC HZ I         929 10.92        14.4 0.16            142           67.9 197 
 PTB  HZ EP        928 56.40                             138   -0.0810 70.6 298 
 BAR2 SZ EP        928 58.39                             132    0.1110 87.8  64 
 BAR2 SZ ES        929 11.47                             132   -0.2110 87.8  64 
 BAR2 SZ I         929 12.97        13.8 0.24            135           87.8  64 
 BRR  HZ EP        928 59.15                             128    0.2210 98.0  12 
 BRR  HZ I         928 59.32        13.6 0.16            132           98.0  12 
 BRR  HN ES        929 12.83                             128    0.0010 98.0  12 
 NOR  HZ EP        929  2.23                             120   -0.2010  131 235 
                                                                                
