 2014  320 0559 41.9 L   5.867 -73.711126.0  RSN  6 0.3 1.6LRSN                1
 GAP=203        0.60       4.2     3.9  6.0 -0.1780E+01 -0.1048E+01 -0.8936E+01E
 Epicentro: PUENTE NACIONAL - SANTANDER                                        3
 OLDACT:REG 14-03-20 07:45 OP:fm   STATUS:               ID:20140320055812     3
 ACTION:UPD 14-04-09 23:19 OP:nd   STATUS:               ID:20140320055941 L   I
 OLDACT:UP  14-03-20 11:54 OP:fm   STATUS:               ID:20140320055812     3
 2014-03-20-0558-12M.COL___241                                                 6
 STAT SP IPHASW D HRMM SECON CODA AMPLIT PERI AZIMU VELO AIN AR TRES W  DIS CAZ7
 SPBC HZ EP        559 59.63                             159   -0.0910 46.5 239 
 SPBC HN ES        6 0 13.55                             159   -0.0810 46.5 239 
 SPBC HZ I         6 0 24.49         3.3 1.44            158           46.5 239 
 BAR2 SZ EP   1    6 0  3.13                             139   -0.16 7 99.3  36 
 BAR2 SZ ES   1    6 0 20.43                             139    0.44 7 99.3  36 
 BAR2 HZ I         6 0 20.69        18.0 0.42            142           99.3  36 
 PTB  HZ EP        6 0  4.14                             136    0.1810  111 312 
 PTB  HN ES        6 0 20.91                             136   -0.2610  111 312 
 PTB  HZ I         6 0 25.86         3.9 0.80            135            111 312 
 CHI  HN ES   4    6 0 24.26                             130   -1.98 0  137 181 
 HEL  HE ES   2    6 0 39.38                             118    0.99 4  204 280 
 ZAR  HN ES   2    6 0 40.48                             116   -0.11 4  220 325 
 SML  HZ EP   2    6 0 26.60                             106   -0.45 3  327 353 
 SML  HN ES   2    6 1  2.14                             106   -0.14 3  327 353 
 SML  HZ I         6 1 16.48         3.2 1.54            109            327 353 
                                                                                
