 2011  620 0952  3.3 L   6.800 -73.096143.8  RSN  8 0.2 1.5LRSN                1
 GAP=143        0.55       3.6     5.3  5.2 -0.5776E+01 -0.3520E+01  0.1607E+01E
 Epicentro: LOS SANTOS - SANTANDER                                             3
 ACTION:UP  11-07-14 19:06 OP:ep   STATUS:               ID:20110620095203 L   I
 2011-06-20-0940-00M.COL___126                                                 6
 STAT SP IPHASW D HRMM SECON CODA AMPLIT PERI AZIMU VELO SNR AR TRES W  DIS CAZ7
 BTL  SZ ES   2    952 38.05                             170     0.2 5   23 305 
 BAR2 SZ EP   1    952 22.63                             170    -0.1 7   25 203 
 BAR2 SZ ES   2    952 37.74                             170    -0.1 5   25 203 
 BAR2 SZ I         952 39.08         9.0 0.28                            25 203 
 GIR2 SZ EP   1    952 22.61                             167    -0.2 7   33 341 
 PAM  SZ EP   1    952 25.36                             152     0.2 7   74  36 
 PAM  SE ES   1    952 42.31                             152     0.2 7   74  36 
 BRR  HZ IP     C  952 24.42                             151    -0.110   76 297 
 BRR  HZ I         952 24.78        11.7 0.12                            76 297 
 BRR  HE ES   1    952 41.29                             151     0.2 7   76 297 
 RUS  HZ EP   1    952 26.79                             143    -0.1 7  100 179 
 RUS  HN ES   2    952 45.16                             143     0.0 5  100 179 
 RUS  HZ I         952 47.20         3.7 0.27                           100 179 
 BRI  SZ EP   1    952 27.12                             141     0.2 7  107  18 
 BRI  SZ I         952 27.44         4.4 0.46                           107  18 
 GRA  SZ EP   1    952 28.45                             137     0.2 7  124  15 
 GRA  SZ I         952 29.53         4.9 0.34                           124  15 
 GRA  SZ ES   1    952 47.15                             137    -0.6 7  124  15 
                                                                                
