 2017 1120 0953 16.1 L   6.821 -73.175140.9  RSN 19 0.4 2.2LRSN                1
 GAP= 63        0.95       2.8     2.5  4.9 -0.4692E+00  0.3614E+01  0.1922E+01E
 Epicentro: ZAPATOCA - SANTANDER                                               3
 ACTION:UPD 17-12-12 19:57 OP:rebc STATUS:               ID:20171120095316 L   I
 OLDACT:UP  17-11-20 18:54 OP:edw  STATUS:               ID:20171120094739     3
 OLDACT:UP  17-11-20 18:53 OP:edw  STATUS:               ID:20171120094739     3
 OLDACT:UP  17-11-20 18:52 OP:edw  STATUS:               ID:20171120094739     3
 OLDACT:UP  17-11-20 18:46 OP:edw  STATUS:               ID:20171120094739     3
 OLDACT:REG 17-11-20 15:36 OP:osc  STATUS:               ID:20171120094739     3
 2017-11-20-0948-00M.COL___465                                                 6
 STAT SP IPHASW D HRMM SECON CODA AMPLIT PERI AZIMU VELO AIN AR TRES W  DIS CAZ7
 BAR2 EZ EP        953 35.18                             169    0.0410 25.3 182 
 BAR2 EZ ES        953 49.84                             169   -0.1910 25.3 182 
 BAR2 EZ I         953 51.36        36.6 0.20            169           25.3 182 
 PAM  EZ EP        953 38.17                             150    0.3910 77.7  42 
 PAM  EN ES        953 54.89                             150    0.1710 77.7  42 
 PAM  EZ I         953 58.40        12.1 0.40            154           77.7  42 
 PTB  HZ EP        953 41.64                             131   -0.74 9  145 258 
 PTB  HN ES        954  2.63                             131   -0.29 9  145 258 
 PTB  HZ I         954  9.85        15.4 0.40            131            145 258 
 TAM  HZ EP     D  953 43.61                             129   -0.09 9  159 105 
 TAM  HN ES        954  5.14                             129   -0.13 9  159 105 
 SPBC HZ EP        953 43.27                             128   -0.90 9  163 218 
 SPBC HN ES        954  6.41                             128    0.31 9  163 218 
 YPLC HZ EP        953 45.61                             125   -0.25 9  180 151 
 YPLC HE ISg       954  9.62                             125    0.51 9  180 151 
 ZAR  HZ EP        953 47.91                             122    0.13 9  200 292 
 ZAR  HN ES        954 12.64                             122    0.11 9  200 292 
 ZAR  HZ I         954 19.35        23.4 0.44            122            200 292 
 TABC EZ EP   4    953 53.25                             118    1.69 0  230 210 
 TABC EZ ES   4    954 22.04                             118    2.78 0  230 210 
 TABC EZ I         954 23.49        16.7 0.30            119            230 210 
 NOR  HZ EP        953 51.28                             118   -0.09 8  233 234 
 NOR  HN ES        954 19.18                             118    0.26 8  233 234 
 CHI  HZ EP        953 53.34                             116   -0.30 8  250 194 
 CHI  HN ES        954 23.12                             116    0.15 8  250 194 
 CHI  HZ I         954 27.75        11.5 0.36            117            250 194 
 ROSC BZ EP   4    953 55.79                             116    1.84 0  253 210 
 ROSC BE ES   1    954 22.89                             116   -0.62 6  253 210 
 ROSC BZ I         954 29.78        24.9 0.40            117            253 210 
 URE  HZ EP        953 56.15                             113   -0.30 7  280 292 
 URE  HE ES   4    954 26.83                             113   -1.14 0  280 292 
 URE  HZ I         954 40.11        13.3 0.28            113            280 292 
 DRL03HZ EP        953 57.27                             112    0.14 7  286 353 
 DRL03HN ES   4    954 30.58                             112    1.41 0  286 353 
 GUY2CHZ EP        954  0.08                             111    0.78 7  300 234 
 GUY2CHN ES   4    954 35.90                             111    2.87 0  300 234 
 GUY2CHZ I         954 41.34         6.3 0.32                           300 234 
 PTGC HZ EP   4    953 58.40                             110   -1.68 0  312 158 
 PTGC HE ES   4    954 32.01                             110   -2.41 0  312 158 
 PTGC HZ I         954 38.14         7.4 0.20            112            312 158 
 ELA  HE ES   4    954 41.45                             109    2.55 0  328 229 
 CBOC HZ EP        954  3.49                             109    0.99 7  331 252 
 CBOC HE ES        954 39.12                             109    0.39 7  331 252 
 CBOC HZ I         954 43.69         2.3 0.44            110            331 252 
 PRA  HZ EP        954  9.18                             106   -0.28 6  392 209 
 PRA  HN ES        954 50.76                             106   -0.36 6  392 209 
 PRA  HZ I         954 58.87         8.7 0.26            107            392 209 
 ORTC HZ EP        954  9.58                             105   -0.23 6  395 216 
 ORTC HN ES        954 52.78                             105    1.04 6  395 216 
 ORTC HZ I         954 58.15         5.2 0.46            106            395 216 
 SJC  HZ EP   9    954  9.34                             105   -1.68 0  405 327 
 SJC  HN ES        954 52.10                             105   -0.11 6  405 327 
 SJC  HZ I         955  0.18         1.7 0.48            106            405 327 
                                                                                
