 2012 1020 0054 41.8 L   6.648 -73.523113.1  RSN  5 0.1 1.3LRSN                1
 GAP=153        0.33       3.5     3.8  4.8  0.9626E+01  0.6336E+01  0.1104E+01E
 Epicentro: EL CARMEN DE CHUCURI - SANTANDER                                   3
 ACTION:UPD 12-11-22 17:04 OP:ep   STATUS:               ID:20121020005441 L   I
 2012-10-20-0050-00M.COL___233                                                 6
 STAT SP IPHASW D HRMM SECON CODA AMPLIT PERI AZIMU VELO AIN AR TRES W  DIS CAZ7
 BAR2 SZ ES   1    055 10.80                             160    0.09 7 38.2  99 
 BAR2 SZ I         055 11.70        10.1 0.12                          38.2  99 
 BRR  HZ EP   1    054 58.42                             152   -0.12 7 54.9 338 
 BRR  HZ I         054 58.92         2.9 0.10                          54.9 338 
 BRR  HE ES   1    055 11.48                             152   -0.08 7 54.9 338 
 GIR2 SZ EP   1    054 59.11                             150    0.07 7 59.9  37 
 RUS  HN ES   1    055 18.08                             137   -0.03 7 96.7 150 
 RUS  HN I         055 20.71         4.2 0.34                          96.7 150 
 ZAR  HE ES   1    055 30.57                             118    0.09 7  175 302 
                                                                                
