 2012  220 0854 45.4 L   6.799 -73.015137.0  RSN  4 0.1 1.1LRSN                1
 GAP=217        0.37       3.8     7.2  4.5  0.1572E+02 -0.5851E+01 -0.3256E+01E
 ACTION:UP  12-03-07 16:32 OP:epov STATUS:               ID:20120220085445 L   I
 2012-02-20-0850-00M.COL___191                                                 6
 STAT SP IPHASW D HRMM SECON CODA AMPLIT PERI AZIMU VELO AIN AR TRES W  DIS CAZ7
 BAR2 SZ EP   1    855  4.14                             167    0.01 7 29.4 219 
 BAR2 SZ ES   1    855 18.51                             167   -0.22 7 29.4 219 
 BAR2 SZ I         855 20.36         2.7 0.28                          29.4 219 
 GIR2 SZ EP   1    855  4.32                             164    0.12 7 36.7 328 
 GIR2 SZ ES   1    855 18.91                             164    0.05 7 36.7 328 
 BRR  HZ EP   1    855  6.25                             146   -0.19 7 84.2 294 
 BRR  HZ I         855  6.48         2.9 0.12                          84.2 294 
 BRR  HE ES   1    855 22.96                             146    0.12 7 84.2 294 
 RUS  HN ES   1    855 26.26                             142    0.11 7  101 184 
                                                                                
