 2011  720 0429 34.4 L   6.757 -73.149146.3  RSN  6 0.2 1.7LRSN                1
 GAP=156        0.39       3.1     4.7  4.3  0.3713E+01 -0.3267E+01 -0.2936E+01E
 Epicentro: LOS SANTOS - SANTANDER                                             3
 ACTION:UPD 12-07-25 14:02 OP:epov STATUS:               ID:20110720042934 L   I
 2011-07-20-0420-00M.COL___136                                                 6
 STAT SP IPHASW D HRMM SECON CODA AMPLIT PERI AZIMU VELO AIN AR TRES W  DIS CAZ7
 BAR2 SZ EP        429 54.02                             172   -0.0110 18.6 192 
 BAR2 SZ ES   1    430  9.05                             172   -0.27 7 18.6 192 
 BAR2 SZ I         430 10.76        25.6 0.36                          18.6 192 
 BRR  HZ EP   1    429 55.89                             152    0.14 7 73.3 302 
 BRR  HN ES   1    430 12.56                             152    0.18 7 73.3 302 
 BRR  HZ I         430 15.16        10.3 0.19                          73.3 302 
 RUS  HZ EP   1    429 58.00                             145    0.11 7 95.9 176 
 RUS  HN ES   1    430 16.31                             145    0.12 7 95.9 176 
 RUS  HZ I         430 17.86         4.9 0.24                          95.9 176 
 BRI  SZ EP   2    429 58.59                             140   -0.12 5  113  20 
 OCA  SZ EP   2    430  2.88                             129   -0.34 5  165 353 
 OCA  SZ I         430 29.44         6.0 0.34                           165 353 
 NOR  SN ES   2    430 37.21                             119   -0.29 4  232 235 
                                                                                
