 2011  620 0515  6.0 L   6.752 -73.062144.3  RSN  8 0.3 1.4LRSN                1
 GAP=166        0.74       4.9     7.9  9.2 -0.1202E+02 -0.1868E+02  0.4556E+01E
 Epicentro: LOS SANTOS - SANTANDER                                             3
 ACTION:UP  11-07-14 19:06 OP:ep   STATUS:               ID:20110620051506 L   I
 2011-06-20-0500-00M.COL___126                                                 6
 STAT SP IPHASW D HRMM SECON CODA AMPLIT PERI AZIMU VELO SNR AR TRES W  DIS CAZ7
 BAR2 SZ EP   1    515 25.16                             171    -0.3 7   22 217 
 BAR2 SZ ES   2    515 39.87                             171    -0.7 5   22 217 
 BAR2 SZ I         515 43.33         5.5 0.32                            22 217 
 BTL  SZ EP        515 26.10                             168     0.510   29 309 
 GIR2 SZ EP   1    515 25.72                             164     0.0 7   39 338 
 BRR  HZ EP   1    515 27.25                             149    -0.4 7   82 299 
 BRR  HE ES   1    515 44.72                             149     0.2 7   82 299 
 BRR  HZ I         515 47.81         7.0 0.28                            82 299 
 RUS  HZ EP   1    515 29.24                             145     0.0 7   95 181 
 RUS  HN ES   2    515 47.54                             145     0.2 5   95 181 
 BRI  SZ EP   2    515 30.29                             140     0.4 5  111  15 
 BRI  SZ I         515 54.10         3.9 0.53                           111  15 
 GRA  SZ EP   1    515 31.01                             136    -0.3 7  128  13 
 GRA  SZ ES   1    515 51.02                             136    -0.1 7  128  13 
 GRA  SZ I         515 51.94         3.2 0.31                           128  13 
 NOR  SN ES   2    516 10.10                             118    -0.2 4  239 237 
                                                                                
