 2017  320 0509 37.1 L   6.790 -73.141141.0  RSN  5 0.4 0.9LRSN                1
 GAP=138        1.09       5.5     4.9  9.6  0.1805E+01  0.8968E+01  0.5830E+01E
 Epicentro: LOS SANTOS - SANTANDER                                             3
 ACTION:UPD 17-05-25 18:42 OP:jn   STATUS:               ID:20170320050937 L   I
 OLDACT:REG 17-03-20 13:09 OP:cog  STATUS:               ID:20170320050742     3
 2017-03-20-0508-00M.COL___382                                                 6
 STAT SP IPHASW D HRMM SECON CODA AMPLIT PERI AZIMU VELO AIN AR TRES W  DIS CAZ7
 BRR  HZ EP        5 9 57.98                             151    0.2310 72.1 299 
 BRR  HN ES        510 14.49                             151    0.6010 72.1 299 
 BRR  HZ I         510 16.77         3.2 0.76            155           72.1 299 
 PAM  EZ EP        5 9 59.11                             150    0.3110 77.9  39 
 PAM  EN ES        510 15.18                             150   -0.5810 77.9  39 
 PAM  EZ I         510 22.01         1.3 0.34            150           77.9  39 
 RUS  HZ EP        510  0.69                             143    0.4310 99.5 176 
 RUS  HN ES        510 18.18                             143   -0.1810 99.5 176 
 RUS  HZ I         510 19.73         0.9 0.28            148           99.5 176 
 PTB  HZ EP        510  2.98                             131   -0.68 9  148 259 
 PTB  HN ES        510 24.32                             131   -0.10 9  148 259 
 ZAR  HN ES        510 34.22                             121   -0.20 9  205 292 
                                                                                
