 2011 1220 0438 15.5 L   6.703 -73.094130.6  RSN  4 0.4 1.8LRSN                1
 GAP=147        0.84       8.7     8.2 11.3 -0.6938E+01 -0.5176E+01  0.3859E+02E
 Epicentro: JORDAN - SANTANDER                                                 3
 ACTION:UPD 12-07-13 16:17 OP:ep   STATUS:               ID:20111220043815 L   I
 2011-12-20-0430-00M.COL___192                                                 6
 STAT SP IPHASW D HRMM SECON CODA AMPLIT PERI AZIMU VELO AIN AR TRES W  DIS CAZ7
 BAR2 SZ EP   1    438 33.59                             173    0.44 7 15.6 219 
 BAR2 SZ ES   2    438 46.25                             173   -0.68 5 15.6 219 
 BAR2 SZ I         438 50.06        11.1 0.67                          15.6 219 
 BRR  HZ EP        438 35.20                             147   -0.5010 81.6 303 
 BRR  HE ES   1    438 52.00                             147    0.54 7 81.6 303 
 BRR  HE I         438 55.86        15.8 0.21                          81.6 303 
 PAM  SZ EP   1    438 36.32                             147   -0.16 7 82.8  32 
 PAM  SN ES   1    438 52.99                             147    0.14 7 82.8  32 
 RUS  HZ EP   1    438 37.19                             144    0.23 7 89.6 179 
                                                                                
