 2015  120 0923 41.0 L   6.790 -73.161144.9  RSN  7 0.4 1.7LRSN                1
 GAP=235        1.10       5.0     6.3  6.9  0.1329E+02  0.7569E+01  0.4529E+01E
 Epicentro: LOS SANTOS - SANTANDER                                             3
 ACTION:UPD 15-03-02 15:41 OP:nd   STATUS:               ID:20150120092341 L   I
 OLDACT:REG 15-01-20 13:37 OP:carl STATUS:               ID:20150120091748     3
 2015-01-20-0917-48M.COL___256                                                 6
 STAT SP IPHASW D HRMM SECON CODA AMPLIT PERI AZIMU VELO AIN AR TRES W  DIS CAZ7
 BAR2 EZ EP        924  0.33                             171   -0.1410 22.0 186 
 BAR2 EZ ES        924 15.12                             171   -0.5610 22.0 186 
 BAR2 EZ I         924 16.39        11.9 0.22            166           22.0 186 
 BRR  HZ EP        924  2.12                             153    0.1510 70.3 300 
 BRR  HN ES        924 19.24                             153    0.8810 70.3 300 
 BRR  HZ I         924 22.89         8.7 0.24            149           70.3 300 
 RUS  HZ EP        924  4.29                             144   -0.2710 99.6 175 
 RUS  HN ES        924 23.11                             144    0.1410 99.6 175 
 RUS  HZ I         924 24.07         5.2 0.26            144           99.6 175 
 PTB  HZ EP        924  6.91                             132   -0.79 9  146 259 
 PTB  HN ES        924 28.16                             132   -0.39 9  146 259 
 PTB  HZ I         924 35.05         6.6 0.26            130            146 259 
 SPBC HZ EP        924  9.66                             129    0.44 9  161 219 
 SPBC HN ES        924 31.19                             129   -0.07 9  161 219 
 SPBC HZ I         924 36.36         8.4 0.20            128            161 219 
 ZAR  HZ EP        924 13.48                             122    0.24 9  203 293 
 ZAR  HN ES        924 38.27                             122   -0.14 9  203 293 
 ZAR  HZ I         924 43.84         5.5 0.34            122            203 293 
 CHI  HZ EP        924 18.68                             117    0.22 8  247 195 
 CHI  HE ES        924 48.20                             117    0.50 8  247 195 
 CHI  HZ I         924 50.25         3.4 0.34            118            247 195 
                                                                                
