 2017  820 0956 51.2 L   6.822 -73.105148.0  RSN  6 0.4 1.4LRSN                1
 GAP=141        0.61       3.4     4.0  5.8  0.3700E+01  0.7622E+01  0.3758E+01E
 Epicentro: LOS SANTOS - SANTANDER                                             3
 ACTION:UPD 17-09-04 20:22 OP:rebc STATUS:               ID:20170820095651 L   I
 OLDACT:UP  17-08-20 16:50 OP:mg   STATUS:               ID:20170820094741d    3
 OLDACT:UP  17-08-20 16:50 OP:mg   STATUS:               ID:20170820094741d    3
 OLDACT:DUP 17-08-20 16:42 OP:mg   STATUS:               ID:20170820094741d    3
 2017-08-20-0948-00M.COL___405                                                 6
 STAT SP IPHASW D HRMM SECON CODA AMPLIT PERI AZIMU VELO AIN AR TRES W  DIS CAZ7
 BAR2 EZ EP        957 11.08                             169   -0.1210 26.8 199 
 BAR2 EZ ES   3    957 25.47                             169   -1.31 2 26.8 199 
 BAR2 EZ I         957 27.67         6.1 0.50            166           26.8 199 
 PAM  EZ EP   3    957 12.54                             153   -0.87 2 72.7  38 
 PAM  EN ES   1    957 30.90                             153    0.19 7 72.7  38 
 PAM  EZ I         957 31.68         3.2 0.18            159           72.7  38 
 BRR  HZ IP     C  957 12.86                             152    0.0810 74.1 295 
 BRR  HN ES   1    957 30.00                             152    0.41 7 74.1 295 
 BRR  HZ I         957 33.44         3.6 0.16            150           74.1 295 
 RUS  HZ EP        957 15.41                             144    0.0510  103 179 
 RUS  HN ES   1    957 33.81                             144   -0.37 7  103 179 
 RUS  HZ I         957 34.91         1.6 0.16            146            103 179 
 SPBC HZ EP        957 20.42                             129    0.07 9  168 220 
 SPBC HN ES   1    957 43.48                             129    0.42 7  168 220 
 SPBC HZ I         957 49.40         5.5 0.32            130            168 220 
 ZAR  HZ EP        957 24.16                             122    0.01 8  207 291 
 ZAR  HN ES        957 49.47                             122   -0.36 8  207 291 
 ZAR  HZ I         957 55.39         3.7 0.36            123            207 291 
                                                                                
