 2014  120 0958 18.6 L   6.795 -73.164135.4  RSN 11 0.5 2.2LRSN                1
 GAP=134        1.36       3.9     5.5  8.3 -0.4392E+01  0.1559E+02 -0.2059E+00E
 Epicentro: LOS SANTOS - SANTANDER                                             3
 ACTION:UPD 14-03-13 09:56 OP:ep   STATUS:               ID:20140120095818 L   I
 OLDACT:REG 14-01-20 08:33 OP:nd   STATUS:               ID:20140120095000     3
 2014-01-20-0950-00M.COL___285                                                 6
 STAT SP IPHASW D HRMM SECON CODA AMPLIT PERI AZIMU VELO AIN AR TRES W  DIS CAZ7
 BAR2 SZ IP     D  958 37.11                             170    0.1910 22.5 185 
 BAR2 SZ ES        958 50.54                             170   -0.7010 22.5 185 
 BAR2 SZ I         958 54.76        62.5 0.32            165           22.5 185 
 PAM  SZ EP        958 39.94                             148    0.1610 79.1  40 
 PAM  SN ES        958 56.86                             148    0.5210 79.1  40 
 PAM  SZ I         958 57.69        19.2 0.32            134           79.1  40 
 RUS  HZ IP     C  958 40.94                             142   -0.3310  100 175 
 RUS  HN ES        958 59.08                             142    0.1010  100 175 
 RUS  HZ I         959  1.04         8.4 0.28            130            100 175 
 PTB  HZ EP        958 43.68                             130   -0.82 9  146 259 
 PTB  HN ES        959  4.55                             130   -0.19 9  146 259 
 PTB  HZ I         959  6.78        18.0 0.27            121            146 259 
 SPBC HZ EP        958 46.04                             127   -0.07 9  161 219 
 SPBC HN ES        959  8.63                             127    1.02 9  161 219 
 SPBC HZ I         959 14.93        24.5 0.26            118            161 219 
 OCA  HZ EP        958 47.05                             127    0.94 9  161 354 
 OCA  HN ES        959  6.73                             127   -0.87 9  161 354 
 OCA  HZ I         959 11.31        16.2 0.24            116            161 354 
 ZAR  HZ EP        958 49.98                             120   -0.19 9  202 292 
 ZAR  HN ES        959 15.60                             120    0.77 9  202 292 
 ZAR  HZ I         959 21.60        22.2 0.28            112            202 292 
 NOR  HZ EP        958 53.46                             116   -0.03 8  233 234 
 NOR  HN ES        959 20.44                             116   -0.30 8  233 234 
 NOR  HZ I         959 25.46        17.5 0.18            109            233 234 
 CHI  HZ EP        958 55.15                             115   -0.43 8  248 195 
 CHI  HN ES        959 24.71                             115    0.25 8  248 195 
 CHI  HZ I         959 30.53         7.6 0.24            107            248 195 
 URE  HZ EP   4    958 58.12                             111   -0.83 0  282 292 
 URE  HN ES   4    959 25.08                             111   -5.38 0  282 292 
 URE  HZ I         959 33.92         8.8 0.36            105            282 292 
 PTGC HZ EP   4    959  0.11                             109   -1.88 0  309 158 
 PTGC HZ I         959 30.24        16.6 0.42            103            309 158 
 PTGC HN ES   4    959 32.87                             109   -3.00 0  309 158 
                                                                                
