 2016 1220 0723 55.0 L   6.782 -73.126151.4  RSN 16 0.6 2.1LRSN                1
 GAP= 98        1.54       5.2     4.3  7.7  0.1065E+01  0.5952E+01  0.1081E+02E
 Epicentro: LOS SANTOS - SANTANDER                                             3
 ACTION:UPD 17-01-11 20:17 OP:rebc STATUS:               ID:20161220072355 L   I
 OLDACT:UP  16-12-26 16:20 OP:nlst STATUS:               ID:20161220072355 L   3
 OLDACT:UP  16-12-20 15:23 OP:cog  STATUS:               ID:20161220071743     3
 OLDACT:REG 16-12-20 13:24 OP:cog  STATUS:               ID:20161220071743     3
 2016-12-20-0718-00M.COL___345                                                 6
 STAT SP IPHASW D HRMM SECON CODA AMPLIT PERI AZIMU VELO AIN AR TRES W  DIS CAZ7
 BAR2 EZ EP        724 15.10                             171   -0.1410 21.8 196 
 BAR2 EZ ES        724 31.21                             171    0.1510 21.8 196 
 BAR2 EZ I         724 33.42        28.5 0.38            168           21.8 196 
 BRR  HZ EP        724 17.11                             153    0.2310 74.0 299 
 BRR  HN ES        724 34.47                             153    0.5010 74.0 299 
 BRR  HZ I         724 38.74        17.8 0.28            152           74.0 299 
 PAM  EZ EP        724 17.94                             152    0.1510 77.6  37 
 PAM  EN ES        724 35.39                             152   -0.2110 77.6  37 
 PAM  EZ I         724 37.41        14.3 0.48            157           77.6  37 
 RUS  HZ EP        724 19.46                             145    0.3410 98.4 177 
 RUS  HN ES        724 37.92                             145   -0.0410 98.4 177 
 RUS  HZ I         724 40.35        11.6 0.54            145           98.4 177 
 PTB  HZ EP        724 21.64                             133   -0.91 9  149 260 
 PTB  HN ES        724 43.16                             133   -0.90 9  149 260 
 PTB  HZ I         724 45.25        24.5 0.36            133            149 260 
 TAM  HZ EP        724 23.01                             132    0.15 9  153 104 
 TAM  HE ES        724 45.15                             132    0.54 9  153 104 
 TAM  HZ I         724 45.54        11.1 0.30            136            153 104 
 ZAR  HZ EP        724 27.74                             123   -0.32 8  207 292 
 ZAR  HE ES        724 53.61                             123   -0.26 8  207 292 
 ZAR  HZ I         725  0.25        20.9 0.30            124            207 292 
 NOR  HZ EP        724 31.02                             120   -0.07 8  235 235 
 NOR  HN ES        724 59.92                             120    0.66 8  235 235 
 NOR  HZ I         725  2.83        16.1 0.20            120            235 235 
 CHI  HZ EP        724 33.40                             118    0.57 8  247 196 
 CHI  HE ES        725  2.55                             118    0.18 8  247 196 
 CHI  HZ I         725 10.31         5.7 0.52            119            247 196 
 ROSC BZ EP   9    724 34.86                             118    1.53 0  252 212 
 ROSC BE ES        725  6.93                             118    2.15 8  252 212 
 GUY2CHZ EP   4    724 40.32                             113    1.42 0  302 235 
 GUY2CHE ES   3    725 14.49                             113    1.32 2  302 235 
 GUY2CHZ I         725 21.95        10.3 0.76                           302 235 
 PTGC HZ EP        724 37.94                             113   -0.84 7  306 159 
 PTGC HE ES        725 11.19                             113   -1.76 7  306 159 
 PTGC HZ I         725 13.80         7.3 0.24            114            306 159 
 ELA  HZ EP   4    724 44.93                             111    2.84 0  329 230 
 ELA  HE ES        725 19.08                             111    0.23 7  329 230 
 ELA  HZ I         725 27.52         5.7 0.40            112            329 230 
 CBOC HZ EP        724 43.09                             111    0.81 7  335 253 
 CBOC HE ES        725 19.28                             111    0.10 7  335 253 
 CBOC HZ I         725 23.33         3.2 0.18            112            335 253 
 ANIL HZ EP   4    724 46.85                             109    1.85 0  357 225 
 ANIL HE ES   4    725 27.64                             109    3.62 0  357 225 
 ANIL HZ I         725 35.30        14.5 0.28            110            357 225 
 ORTC HZ EP        724 49.94                             107    0.90 6  395 217 
 ORTC HN ES   4    725 32.82                             107    1.61 0  395 217 
 ORTC HZ I         725 38.01         2.8 0.24            108            395 217 
                                                                                
