 2014  520 0000 18.3 L   6.821 -73.147146.0  RSN 27 0.4 2.7LRSN                1
 GAP= 70        0.89       1.9     2.3  4.1 -0.7306E+00  0.1892E+01  0.1092E+01E
 Epicentro: LOS SANTOS - SANTANDER                                             3
 ACTION:UPD 15-03-16 16:59 OP:nd   STATUS:               ID:20140520000018 L   I
 OLDACT:REG 14-05-20 12:03 OP:spq  STATUS:               ID:20140520000013     3
 2014-05-20-0000-13M.COL___257                                                 6
 STAT SP IPHASW D HRMM SECON CODA AMPLIT PERI AZIMU VELO AIN AR TRES W  DIS CAZ7
 BRR  HZ IP     C  0 0 39.94                             153    0.5210 70.0 297 
 BRR  HN ES        0 0 56.54                             153    0.6610 70.0 297 
 BRR  HZ I         0 1  1.02        84.5 0.16            151           70.0 297 
 PAM  SZ EP        0 0 40.94                             151    0.4910 75.7  41 
 PAM  SE ES        0 0 57.54                             151   -0.1810 75.7  41 
 PAM  SZ I         0 1  0.28       114.5 0.50            156           75.7  41 
 RUS  HZ EP        0 0 42.08                             143   -0.1710  103 176 
 RUS  HE ES        0 1  0.57                             143   -0.3510  103 176 
 RUS  HZ I         0 1  2.20        54.4 0.28            146            103 176 
 PTB  HZ EP        0 0 44.70                             132   -0.63 9  148 258 
 PTB  HN ES        0 1  5.69                             132   -0.70 9  148 258 
 PTB  HZ I         0 1  8.47        51.0 0.14            132            148 258 
 TAM  HZ IP     C  0 0 46.54                             130    0.46 9  156 106 
 TAM  HE ES        0 1  7.82                             130    0.09 9  156 106 
 TAM  HZ I         0 1  8.96        17.6 0.25            136            156 106 
 OCA  HZ EP        0 0 46.45                             130    0.02 9  158 353 
 OCA  HE ES        0 1  8.22                             130   -0.13 9  158 353 
 OCA  HZ I         0 1 16.49        51.6 0.28            132            158 353 
 SPBC HZ EP        0 0 47.00                             129    0.01 9  165 218 
 SPBC HN ES        0 1  9.00                             129   -0.35 9  165 218 
 SPBC HZ I         0 1 15.32        76.7 0.22            130            165 218 
 ZAR  HZ EP        0 0 50.61                             122   -0.06 9  203 292 
 ZAR  HE ES        0 1 15.43                             122   -0.48 9  203 292 
 ZAR  HZ I         0 1 21.73        54.0 0.32            123            203 292 
 NOR  HZ EP        0 0 54.25                             118    0.07 8  236 234 
 NOR  HE ES        0 1 22.56                             118    0.40 8  236 234 
 NOR  HZ I         0 1 29.99        33.9 0.18            120            236 234 
 SML  HZ EP        0 0 54.25                             118   -0.47 8  242 335 
 SML  HN ES        0 1 23.74                             118    0.62 8  242 335 
 SML  HZ I         0 1 25.28        93.9 0.07            119            242 335 
 CHI  HZ IP     C  0 0 56.48                             117    0.22 8  251 195 
 CHI  HE ES        0 1 25.73                             117   -0.12 8  251 195 
 CHI  HZ I         0 1 31.92        28.8 0.32            119            251 195 
 ROSC BZ EP   1    0 0 56.25                             116   -0.40 6  255 211 
 ROSC BN ES   1    0 1 27.03                             116    0.48 6  255 211 
 ROSC BZ I         0 1 32.86        54.3 0.45            118            255 211 
 HEL  HZ EP        0 0 58.68                             115    0.10 8  273 255 
 HEL  HN ES        0 1 29.96                             115   -0.03 8  273 255 
 HEL  HZ I         0 1 36.87        27.7 0.44            116            273 255 
 URE  HZ EP   1    0 0 58.60                             114   -0.68 6  283 291 
 URE  HN ES   4    0 1 28.79                             114   -2.45 0  283 291 
 URE  HZ I         0 1 41.09        39.4 0.24            115            283 291 
 GUY2CHZ EP        0 1  2.35                             112    0.28 7  302 234 
 GUY2CHN ES        0 1 35.47                             112   -0.72 7  302 234 
 GUY2CHZ I         0 1 44.08        27.2 0.48                           302 234 
 VIL  SZ EP   1    0 1  1.78                             112   -0.21 5  306 191 
 VIL  SE ES   1    0 1 35.43                             112   -0.62 5  306 191 
 VIL  SZ I         0 1 38.83        27.2 0.36            114            306 191 
 RREF HZ EP   1    0 1  5.12                             111    0.50 5  323 229 
 RREF HN ES   1    0 1 41.05                             111    0.31 5  323 229 
 RREF HZ I         0 1 45.32        25.5 0.26            112            323 229 
 CBOC HZ EP        0 1  5.66                             110    0.36 7  334 252 
 CBOC HN ES        0 1 42.41                             110    0.46 7  334 252 
 CBOC HZ I         0 1 59.24         7.4 0.52            111            334 252 
 DBB  SZ EP   1    0 1  5.43                             109   -0.33 5  339 274 
 DBB  SZ ES   4    0 1 37.77                             109   -5.00 0  339 274 
 DBB  SZ I         0 1 44.49        50.7 0.60            111            339 274 
 TOL  SZ EP        0 1  6.78                             109    0.03 7  345 224 
 TOL  SZ ES   1    0 1 45.35                             109    0.82 5  345 224 
 TOL  SZ I         0 1 52.63        14.5 0.50            111            345 224 
 ARGC HZ EP   1    0 1  8.43                             108    0.71 5  357 340 
 ARGC HE ES   1    0 1 45.81                             108   -0.45 5  357 340 
 ARGC HZ I         0 1 53.83        12.2 0.20            110            357 340 
 SDV  BZ EP        0 1  7.60                             108   -0.61 6  359  50 
 SDV  BE ES   4    0 1 45.28                             108   -1.84 0  359  50 
 ANIL HZ EP   4    0 1  9.54                             108    1.24 0  359 224 
 ANIL HN ES   1    0 1 47.83                             108    0.54 5  359 224 
 PRA  HZ EP        0 1 11.66                             106   -0.40 6  394 209 
 PRA  HN ES        0 1 53.58                             106   -0.41 6  394 209 
 PRA  HZ I         0 2  0.66        26.3 0.26            108            394 209 
 ORTC HZ EP        0 1 12.44                             106   -0.00 6  397 216 
 ORTC HE ES        0 1 55.42                             106    0.75 6  397 216 
 ORTC HZ I         0 2  1.35        13.9 0.26            108            397 216 
 SJC  HZ EP   4    0 1 11.52                             106   -2.13 0  407 327 
 SJC  HE ES   4    0 1 52.72                             106   -4.09 0  407 327 
 SJC  HZ I         0 1 57.83         8.8 0.58            107            407 327 
 MACC HZ EP   4    0 1 25.09                             101   -2.20 0  523 189 
 MACC HN ES   4    0 2 16.34                             101   -4.76 0  523 189 
 MACC HZ I         0 2 24.09         5.5 0.38            103            523 189 
                                                                                
