 2017  220 0950 28.1 L   6.830 -73.083149.5  RSN  5 0.3 1.2LRSN                1
 GAP=246        0.83       7.9     8.0  6.3  0.4888E+02 -0.1417E+02 -0.1882E+02E
 Epicentro: LOS SANTOS - SANTANDER                                             3
 ACTION:UPD 17-05-24 15:38 OP:jn   STATUS:               ID:20170220095028 L   I
 OLDACT:UP  17-02-20 18:28 OP:edw  STATUS:               ID:20170220094748     3
 OLDACT:REG 17-02-20 13:10 OP:dani STATUS:               ID:20170220094748     3
 2017-02-20-0948-00M.COL___336                                                 6
 STAT SP IPHASW D HRMM SECON CODA AMPLIT PERI AZIMU VELO AIN AR TRES W  DIS CAZ7
 BAR2 EZ EP        950 48.23                             170   -0.0910 28.5 203 
 BAR2 EZ ES        951  3.69                             170   -0.3810 28.5 203 
 BAR2 EZ I         951  4.50         2.6 0.12            165           28.5 203 
 BRR  HZ IP     D  950 50.17                             152    0.2210 76.0 294 
 BRR  HN ES        951  7.26                             152    0.2810 76.0 294 
 RUS  HZ EP        950 52.69                             144    0.2210  104 180 
 RUS  HN ES        951 11.43                             144   -0.0210  104 180 
 PTB  HZ EP   9    950 55.22                             132   -0.86 0  155 258 
 PTB  HN ES        951 16.39                             133   -0.63 9  155 258 
 PTB  HZ I         951 19.72         1.8 0.38            128            155 258 
 ZAR  HZ EP        951  0.90                             122   -0.46 8  209 291 
 ZAR  HN ES        951 27.42                             122    0.14 8  209 291 
 ZAR  HZ I         951 32.77         1.6 0.44            120            209 291 
                                                                                
