 2017  720 0938 46.0 L   6.804 -73.117140.5  RSN 11 0.3 1.7LRSN                1
 GAP=114        0.99       3.4     3.2  5.3  0.5159E+00  0.4264E+01  0.2957E+01E
 Epicentro: LOS SANTOS - SANTANDER                                             3
 ACTION:UPD 17-08-30 15:35 OP:rebc STATUS:               ID:20170720093846 L   I
 OLDACT:UP  17-07-20 14:39 OP:edw  STATUS:               ID:20170720093739     3
 OLDACT:REG 17-07-20 13:18 OP:dnl  STATUS:               ID:20170720093739     3
 2017-07-20-0938-00M.COL___371                                                 6
 STAT SP IPHASW D HRMM SECON CODA AMPLIT PERI AZIMU VELO AIN AR TRES W  DIS CAZ7
 BAR2 EZ IP     C  939  4.88                             170   -0.1310 24.5 197 
 BAR2 EZ ES        939 19.46                             170   -0.3910 24.5 197 
 BAR2 EZ I         939 20.85        13.5 0.18            169           24.5 197 
 BRR  HZ EP     C  939  6.79                             151    0.0810 73.7 297 
 BRR  HN ES        939 22.99                             151    0.1010 73.7 297 
 BRR  HZ I         939 26.79         9.1 0.20            150           73.7 297 
 PAM  EZ IP     C  939  7.91                             150    0.4110 75.0  38 
 PAM  EN ES        939 24.71                             150    0.4310 75.0  38 
 PAM  EZ I         939 25.25         6.2 0.38            153           75.0  38 
 RUS  HZ EP        939  8.88                             142   -0.3610  101 178 
 RUS  HN ES        939 26.88                             142   -0.5110  101 178 
 RUS  HZ I         939 29.24         3.9 0.28            143            101 178 
 PTB  HZ EP   9    939 11.59                             130   -1.23 0  151 259 
 PTB  HN ES        939 31.61                             130   -0.91 9  151 259 
 PTB  HZ I         939 34.92         5.6 0.16            130            151 259 
 SPBC HZ EP        939 13.87                             127   -0.44 9  166 220 
 SPBC HN ES        939 36.80                             127    0.39 9  166 220 
 SPBC HZ I         939 39.31         5.8 0.10            128            166 220 
 YPLC HZ EP        939 15.45                             125    0.15 9  176 152 
 YPLC HN ES        939 38.55                             125    0.39 9  176 152 
 YPLC HZ I         939 41.74         7.0 0.26            127            176 152 
 ZAR  HZ EP        939 18.14                             121   -0.23 8  207 292 
 ZAR  HN ES        939 43.62                             121   -0.02 8  207 292 
 ZAR  HZ I         939 47.04         4.1 0.30            121            207 292 
 NOR  HZ EP        939 21.35                             117   -0.37 8  238 235 
 NOR  HN ES        939 50.01                             117    0.42 8  238 235 
 NOR  HZ I         939 50.79         4.7 0.14            118            238 235 
 HEL  HZ EP        939 25.81                             113   -0.47 8  275 256 
 HEL  HN ES        939 57.94                             113    0.22 8  275 256 
 HEL  HZ I         940  5.44         2.9 0.28            114            275 256 
 GUY2CHZ EP   4    939 31.56                             111    1.89 0  304 235 
 GUY2CHN ES        940  4.28                             111    0.53 7  304 235 
 GUY2CHZ I         940 12.03         1.9 0.50                           304 235 
 PTGC HZ EP   4    939 27.02                             110   -2.51 0  308 159 
 PTGC HN ES   4    940  0.29                             110   -3.21 0  308 159 
                                                                                
