 2012  120 0421 51.8 L   6.791 -73.138148.0  RSN 10 0.4 1.9LRSN                1
 GAP=138        0.79       3.9     4.1  6.2 -0.2434E+01  0.4930E+01  0.7510E+01E
 Epicentro: LOS SANTOS - SANTANDER                                             3
 ACTION:UP  12-02-03 08:18 OP:REBC STATUS:               ID:20120120042151 L   I
 2012-01-20-0420-00M.COL___187                                                 6
 STAT SP IPHASW D HRMM SECON CODA AMPLIT PERI AZIMU VELO SNR AR TRES W  DIS CAZ7
 BAR2 SZ EP   1    422 11.55                             171    -0.1 7   23 193 
 BAR2 SZ ES   1    422 27.05                             171    -0.1 7   23 193 
 BAR2 SZ I         422 28.30        37.5 0.27                            23 193 
 BRR  HZ EP   1    422 13.51                             153     0.3 7   72 299 
 BRR  HZ I         422 13.88        13.7 0.11                            72 299 
 BRR  HE ES   1    422 30.71                             153     0.7 7   72 299 
 PAM  SZ EP        422 14.37                             151     0.110   78  39 
 PAM  SN ES   1    422 31.72                             151    -0.1 7   78  39 
 RUS  HZ EP   1    422 15.48                             145    -0.2 7  100 177 
 RUS  HE ES   1    422 34.38                             145     0.0 7  100 177 
 RUS  HZ I         422 35.47         7.0 0.41                           100 177 
 PTB  HZ EP   1    422 18.48                             132    -0.5 7  148 259 
 PTB  HN ES   1    422 39.85                             132    -0.4 7  148 259 
 ZAR  HN ES   1    422 49.43                             123    -0.6 6  205 292 
 ZAR  HZ I         422 55.49         6.1 0.35                           205 292 
 NOR  SN ES   1    422 55.94                             119     0.3 6  235 235 
 CHI  HZ EP   1    422 29.64                             118     0.1 6  248 195 
 CHI  HN ES   1    422 58.38                             118    -0.6 6  248 195 
 CHI  HZ I         423  2.58         3.4 0.27                           248 195 
 RREF HZ EP   1    422 38.21                             111     0.2 5  322 230 
 RREF HE ES   1    423 14.56                             111     0.4 5  322 230 
 RREF HZ I         423 24.05         5.1 0.37                           322 230 
 PRA  HZ EP   1    422 46.10                             107     0.8 4  392 210 
 PRA  HN ES   1    423 27.61                             107     0.5 4  392 210 
                                                                                
