 2015  720 0148 51.0 L   6.790 -73.185142.3  RSN  6 0.4 1.8LRSN                1
 GAP=132        1.05       4.0     7.1  9.9  0.6139E+01  0.3874E+02 -0.2925E+01E
 Epicentro: ZAPATOCA - SANTANDER                                               3
 ACTION:UPD 15-09-08 21:49 OP:cam  STATUS:               ID:20150720014851 L   I
 OLDACT:REG 15-07-20 14:24 OP:stll STATUS:               ID:20150720014736     3
 2015-07-20-0147-36M.COL___337                                                 6
 STAT SP IPHASW D HRMM SECON CODA AMPLIT PERI AZIMU VELO AIN AR TRES W  DIS CAZ7
 BAR2 EZ EP        149 10.14                             171   -0.0210 21.8 179 
 BAR2 EZ ES        149 24.79                             171   -0.3310 21.8 179 
 BAR2 EZ I         149 26.93        18.2 0.12            175           21.8 179 
 PAM  EN ES        149 30.23                             149   -0.0410 81.1  41 
 RUS  HZ EP        149 14.17                             143   -0.1610 99.8 174 
 RUS  HN ES        149 32.75                             143    0.2010 99.8 174 
 RUS  HZ I         149 33.68         4.3 0.26            147           99.8 174 
 OCA  HN ES        149 41.77                             129    0.76 9  161 355 
 OCA  HZ I         149 50.44         8.3 0.26            128            161 355 
 ZAR  HZ EP        149 23.09                             122    0.26 9  201 293 
 ZAR  HZ I         149 23.43         7.4 0.10            123            201 293 
 ZAR  HN ES        149 47.86                             122    0.19 9  201 293 
 SML  HE ES        149 54.68                             117   -1.01 8  243 336 
                                                                                
