 2010  620 0014  4.8 L   6.784 -73.186154.0  RSN  5 0.4 1.3LRSN                1
 GAP=151        0.86       8.1    15.0 17.1  0.4731E+02 -0.1221E+03 -0.8486E+02E
 Epicentro: LOS SANTOS - SANTANDER                                             3
 ACTION:UP  10-08-24 10:11 OP:vdl  STATUS:               ID:20100620001404 L   I
 2010-06-20-0013-12S.COL___118                                                 6
 STAT SP IPHASW D HRMM SECON CODA AMPLIT PERI AZIMU VELO SNR AR TRES W  DIS CAZ7
 BAR2 SZ EP   2    014 24.75                             172    -0.6 5   21 179 
 BRR  HZ EP        014 26.75                             155     0.010   68 302 
 BRR  HZ I         014 26.95         6.3 0.26                            68 302 
 BRR  HN ES   2    014 43.80                             155     0.0 5   68 302 
 RUS  HZ EP   1    014 29.43                             146     0.1 7   99 173 
 RUS  HE ES   1    014 48.37                             146     0.0 7   99 173 
 RUS  HZ I         014 49.61         1.9 0.35                            99 173 
 BRI  SZ EP   1    014 30.41                             142     0.7 7  112  23 
 GRA  SZ EP   1    014 30.44                             138    -0.6 7  129  19 
                                                                                
