 2017  120 0446 16.7 L   6.809 -73.168149.9  RSN  6 0.4 1.4LRSN                1
 GAP=133        1.06       4.6     4.8  9.1  0.1352E+01  0.7101E+01  0.9221E+01E
 Epicentro: LOS SANTOS - SANTANDER                                             3
 ACTION:UPD 17-05-22 16:01 OP:jn   STATUS:               ID:20170120044616 L   I
 OLDACT:UP  17-01-20 16:00 OP:dani STATUS:               ID:20170120043743     3
 OLDACT:UP  17-01-20 16:00 OP:dani STATUS:               ID:20170120043743     3
 OLDACT:REG 17-01-20 12:30 OP:dani STATUS:               ID:20170120043743     3
 2017-01-20-0438-00M.COL___313                                                 6
 STAT SP IPHASW D HRMM SECON CODA AMPLIT PERI AZIMU VELO AIN AR TRES W  DIS CAZ7
 BRR  HZ EP        446 38.46                             154    0.2910 68.5 299 
 BRR  HE ES        446 55.59                             154    0.6810 68.5 299 
 BRR  HZ I         446 59.47         6.0 0.31            152           68.5 299 
 PAM  EZ EP     D  446 39.64                             151    0.2210 78.2  41 
 PAM  EE ES        446 56.80                             151   -0.3410 78.2  41 
 PAM  EZ I         446 57.27         2.4 0.26            154           78.2  41 
 RUS  HZ EP        446 40.85                             144   -0.1110  102 175 
 RUS  HE ES        446 59.62                             144   -0.2510  102 175 
 RUS  HZ I         447  1.27         3.2 0.22            146            102 175 
 PTB  HZ EP        446 43.38                             133   -0.45 9  146 258 
 PTB  HN ES        447  4.37                             133   -0.60 9  146 258 
 PTB  HZ I         447  5.83         3.1 0.20            133            146 258 
 ZAR  HE ES        447 14.50                             124    0.03 9  201 292 
 ZAR  HZ I         447 21.30         3.6 0.18            124            201 292 
 CHI  HN ES        447 24.96                             118    0.66 8  249 195 
 CHI  HZ I         447 27.51         1.5 0.15            119            249 195 
                                                                                
