 2012  820 0319 29.8 L   6.806 -73.174145.8  RSN 13 0.4 2.9LRSN 3.4WRSN        1
 SPEC AVERAGE  MO 14.2 ST 20.0 OM  3.0 f0 4.23 R0.3535 AL 2.77 WI 18.8 MW  3.4 3
 SPEC SD       MO  0.2 ST 15.9 OM  0.6 f00.584 R0.0442 AL      WI      MW  0.1 3
 GAP= 63        0.80       2.6     2.6  4.8  0.6220E+00  0.2305E+01  0.2487E+01E
 Epicentro: LOS SANTOS - SANTANDER                                             3
 SPEC TAM HH N MO 14.1 ST  9.2 OM  2.4 f0 3.75 R0.3920 AL 2.57 WI 15.0 MW  3.3 3
 SPEC TAM HH N T 32017 K 0.000 GD  214 VS 4.20 DE 3.00 Q0230.0 QA 0.60 VS 4.20 3
 SPEC OCA HH N MO 14.5 ST 49.4 OM  2.8 f0 4.83 R0.3043 AL 2.93 WI 20.5 MW  3.6 3
 SPEC OCA HH N T 32019 K 0.000 GD  215 VS 4.20 DE 3.00 Q0230.0 QA 0.60 VS 4.20 3
 SPEC PTB HH N MO 14.0 ST  7.7 OM  2.3 f0 3.88 R0.3789 AL 2.05 WI 16.6 MW  3.3 3
 SPEC PTB HH N T 32016 K 0.000 GD  205 VS 4.20 DE 3.00 Q0230.0 QA 0.60 VS 4.20 3
 SPEC RUS HH N MO 14.2 ST 32.8 OM  2.6 f0 5.24 R0.2805 AL 3.54 WI  9.6 MW  3.4 3
 SPEC RUS HH N T 32011 K 0.000 GD  177 VS 4.20 DE 3.00 Q0230.0 QA 0.60 VS 4.20 3
 SPEC HEL HH N MO 14.0 ST  6.5 OM  2.1 f0 3.75 R0.3920 AL 2.51 WI 26.4 MW  3.2 3
 SPEC HEL HH N T 32041 K 0.000 GD  305 VS 4.20 DE 3.00 Q0230.0 QA 0.60 VS 4.20 3
 SPEC CHI HH N MO 14.2 ST 14.2 OM  2.4 f0 3.94 R0.3731 AL 3.05 WI 24.6 MW  3.4 3
 SPEC CHI HH N T 32035 K 0.000 GD  287 VS 4.20 DE 3.00 Q0230.0 QA 0.60 VS 4.20 3
 ACTION:UPD 12-09-10 11:57 OP:ep   STATUS:               ID:20120820031929 L   I
 2012-08-20-0317-38S.COL___210                                                 6
 STAT SP IPHASW D HRMM SECON CODA AMPLIT PERI AZIMU VELO AIN AR TRES W  DIS CAZ7
 BAR2 SZ IP        319 49.51                             170    0.0710 23.6 182 
 BAR2 SZ ES   1    320  4.11                             170   -0.65 7 23.6 182 
 BAR2 SZ I         320  7.39       338.0 0.26                          23.6 182 
 BRR  HZ IP     C  319 51.32                             154    0.5410 68.1 299 
 BRR  HE ES   1    320  7.95                             154    0.80 7 68.1 299 
 BRR  HZ I         320 11.12       110.4 0.25                          68.1 299 
 PAM  SZ EP        319 52.25                             150    0.1410 78.9  42 
 PAM  SZ I         319 52.82       179.7 0.23                          78.9  42 
 PAM  SN ES   1    320  9.45                             150   -0.06 7 78.9  42 
 RUS  HZ EP        319 53.45                             143   -0.1610  101 174 
 RUS  HE ES   1    320 12.13                             143   -0.06 7  101 174 
 RUS  HZ I         320 13.46        76.6 0.26                           101 174 
 PTB  HZ EP        319 56.15                             133   -0.35 9  145 258 
 PTB  HE ES   1    320 17.00                             133   -0.33 7  145 258 
 PTB  HZ I         320 23.77        49.5 0.19                           145 258 
 TAM  HZ EP        319 57.75                             130   -0.02 9  158 105 
 TAM  HZ I         319 58.13        51.4 0.17                           158 105 
 TAM  HE ES   1    320 19.45                             130   -0.15 7  158 105 
 OCA  HZ EP        319 57.50                             130   -0.52 9  159 354 
 OCA  HN ES   1    320 19.61                             130   -0.42 7  159 354 
 OCA  HZ I         320 23.26       139.9 0.21                           159 354 
 YOP  SZ EP        320  0.13                             126    0.09 9  181 153 
 YOP  SN ES   1    320 24.35                             126    0.73 7  181 153 
 YOP  SZ I         320 25.13        88.8 0.29                           181 153 
 ZAR  HZ EP        320  1.84                             123   -0.08 9  201 292 
 ZAR  HE ES   1    320 27.35                             123    0.37 6  201 292 
 ZAR  HZ I         320 32.78        93.3 0.31                           201 292 
 NOR  SZ EP        320  5.59                             119    0.30 8  233 234 
 NOR  SN ES   1    320 32.93                             119   -0.05 6  233 234 
 NOR  SZ I         320 39.22        42.6 0.23                           233 234 
 CHI  HZ EP        320  7.73                             117    0.26 8  248 194 
 CHI  HN ES   1    320 36.90                             117    0.04 6  248 194 
 CHI  HZ I         320 47.17        37.5 0.42                           248 194 
 HEL  HZ EP        320 10.07                             115    0.38 8  269 256 
 HEL  HE ES   1    320 40.27                             115   -0.54 6  269 256 
 HEL  HZ I         320 50.08        37.5 0.29                           269 256 
 VIL  SZ EP   1    320 12.70                             112   -0.51 5  303 191 
 VIL  SN ES   1    320 46.49                             112   -0.59 5  303 191 
 VIL  SZ I         320 57.29        51.9 0.32                           303 191 
                                                                                
