 2010  920 0501 34.3 L   6.819 -73.043143.3  RSN  5 0.2 1.5LRSN                1
 GAP=170        0.43       2.9     5.7  6.7 -0.3832E+01 -0.1198E+02  0.6924E+01E
 Epicentro: LOS SANTOS - SANTANDER                                             3
 ACTION:UP  11-02-18 11:04 OP:tino STATUS:               ID:20100920050134 L   I
 2010-09-20-0500-23S.COL___121                                                 6
 STAT SP IPHASW D HRMM SECON CODA AMPLIT PERI AZIMU VELO SNR AR TRES W  DIS CAZ7
 BTL  SZ EP        5 1 54.01                             169     0.210   27 294 
 BRR  HZ EP        5 1 55.65                             149    -0.110   81 293 
 BRR  HN ES   1    5 2 12.47                             149     0.0 7   81 293 
 BRR  HZ I         5 2 17.24         5.7 0.35                            81 293 
 RUS  HZ EP   1    5 1 58.03                             143     0.0 7  103 182 
 RUS  HN ES   3    5 2 15.93                             143    -0.5 2  103 182 
 GRA  SZ ES   1    5 2 18.11                             138     0.0 7  121  13 
 GRA  SZ I         5 2 20.29         3.0 0.52                           121  13 
 OCA  SZ EP   1    5 2  2.35                             129    -0.1 7  160 349 
 OCA  SZ ES   1    5 2 24.32                             129     0.0 7  160 349 
 OCA  SZ I         5 2 27.39         4.3 0.28                           160 349 
                                                                                
