 2017  320 0621  6.5 L   6.813 -73.120138.0  RSN  6 0.4 1.0LRSN                1
 GAP=139        0.96       4.2     4.2  8.5 -0.1117E+01  0.6933E+01  0.3453E+01E
 Epicentro: LOS SANTOS - SANTANDER                                             3
 ACTION:UPD 17-05-25 18:42 OP:jn   STATUS:               ID:20170320062106 L   I
 OLDACT:REG 17-03-20 13:15 OP:cog  STATUS:               ID:20170320061744     3
 2017-03-20-0618-00M.COL___382                                                 6
 STAT SP IPHASW D HRMM SECON CODA AMPLIT PERI AZIMU VELO AIN AR TRES W  DIS CAZ7
 BRR  HZ EP        621 26.89                             150   -0.0410 73.0 297 
 BRR  HN ES        621 43.44                             150    0.5810 73.0 297 
 PAM  EZ EP        621 27.87                             150    0.1410 74.5  39 
 PAM  EN ES        621 44.05                             150   -0.2310 74.5  39 
 PAM  EZ I         621 46.75         1.5 0.23            153           74.5  39 
 RUS  HZ EP        621 29.38                             142   -0.2110  102 178 
 RUS  HN ES        621 47.46                             142   -0.1410  102 178 
 RUS  HZ I         621 49.57         0.8 0.35            143            102 178 
 PTB  HZ EP        621 33.56                             130    0.43 9  151 259 
 PTB  HN ES        621 53.19                             130   -0.71 9  151 259 
 PTB  HZ I         621 55.56         0.9 0.13            132            151 259 
 SPBC HN ES        621 57.11                             127    0.43 9  166 219 
 SPBC HZ I         621 58.95         1.8 0.17            129            166 219 
 ZAR  HN ES        622  3.47                             120   -0.30 8  206 291 
 ZAR  HZ I         622  4.30         1.6 0.19            123            206 291 
                                                                                
