 2017  220 0334 12.9 L   6.819 -73.164147.5  RSN  6 0.5 1.0LRSN                1
 GAP=133        1.08       5.8     5.1  9.3  0.3835E+00  0.5375E+01  0.7550E+01E
 Epicentro: LOS SANTOS - SANTANDER                                             3
 ACTION:UPD 17-05-24 15:38 OP:jn   STATUS:               ID:20170220033412 L   I
 OLDACT:UP  17-02-20 15:12 OP:dani STATUS:               ID:20170220032641d    3
 OLDACT:DUP 17-02-20 15:09 OP:dani STATUS:               ID:20170220032641d    3
 2017-02-20-0328-00M.COL___351                                                 6
 STAT SP IPHASW D HRMM SECON CODA AMPLIT PERI AZIMU VELO AIN AR TRES W  DIS CAZ7
 BAR2 EZ EP        334 32.82                             170    0.0110 25.2 185 
 BRR  HZ EP        334 34.51                             154    0.4010 68.4 298 
 BRR  HN ES        334 51.24                             154    0.6010 68.4 298 
 BRR  HZ I         334 52.93         2.8 0.41            155           68.4 298 
 PAM  EZ EP        334 35.66                             151    0.3510 77.1  42 
 PAM  EN ES        334 52.25                             151   -0.5210 77.1  42 
 PAM  EZ I         334 53.98         1.4 0.38            154           77.1  42 
 RUS  HZ EP        334 36.94                             144   -0.0710  103 175 
 RUS  HN ES        334 55.61                             144   -0.1910  103 175 
 RUS  HZ I         334 57.69         1.4 0.30            145            103 175 
 PTB  HZ EP        334 39.68                             133   -0.22 9  146 258 
 PTB  HN ES        335  1.07                             133    0.13 9  146 258 
 PTB  HZ I         335  2.76         1.8 0.15            135            146 258 
 ZAR  HN ES   1    335  9.18                             123   -1.22 6  201 292 
                                                                                
