 2017  320 0740 45.4 L   6.749 -73.203149.7  RSN  5 0.3 0.7LRSN                1
 GAP=227        0.74       6.0     5.7  6.2  0.2230E+02  0.8214E+01  0.2924E+01E
 Epicentro: VILLANUEVA - SANTANDER                                             3
 ACTION:UPD 17-05-25 18:42 OP:jn   STATUS:               ID:20170320074045 L   I
 OLDACT:REG 17-03-20 13:20 OP:cog  STATUS:               ID:20170320073748     3
 2017-03-20-0738-00M.COL___375                                                 6
 STAT SP IPHASW D HRMM SECON CODA AMPLIT PERI AZIMU VELO AIN AR TRES W  DIS CAZ7
 BAR2 EZ ES        741 20.77                             173   -0.1910 17.5 173 
 BRR  HZ EP        741  6.66                             154   -0.1410 68.8 305 
 BRR  HN ES        741 23.91                             154    0.3810 68.8 305 
 RUS  HZ EP        741  9.53                             146    0.3810 95.6 172 
 RUS  HN ES        741 27.46                             146   -0.2510 95.6 172 
 RUS  HZ I         741 28.78         0.7 0.26            145           95.6 172 
 PTB  HZ EP        741 11.92                             134   -0.09 9  141 261 
 PTB  HN ES        741 33.04                             134    0.24 9  141 261 
 PTB  HZ I         741 34.56         0.8 0.06            133            141 261 
 ZAR  HN ES        741 42.51                             124   -0.41 9  200 294 
                                                                                
