 2015  820 0021 43.1 L   6.842 -73.126147.0  RSN 12 0.6 1.8LRSN                1
 GAP=203        1.25       3.8     6.0  7.0  0.8542E+00  0.1347E+02 -0.9962E+00E
 Epicentro: LOS SANTOS - SANTANDER                                             3
 ACTION:UPD 15-09-15 23:03 OP:cam  STATUS:               ID:20150820002143 L   I
 OLDACT:UP  15-08-20 15:45 OP:ak   STATUS:               ID:20150820001741     3
 OLDACT:REG 15-08-20 12:25 OP:spq  STATUS:               ID:20150820001741     3
 2015-08-20-0017-41M.COL___343                                                 6
 STAT SP IPHASW D HRMM SECON CODA AMPLIT PERI AZIMU VELO AIN AR TRES W  DIS CAZ7
 BAR2 EZ EP        022  3.02                             169    0.0510 28.3 193 
 BAR2 EZ ES        022 18.13                             169   -0.3610 28.3 193 
 BAR2 EZ I         022 21.69        11.2 0.26            168           28.3 193 
 BRR  HZ EP        022  5.13                             153    0.7710 71.1 294 
 BRR  HN ES        022 21.71                             153    0.7510 71.1 294 
 BRR  HZ I         022 25.98         8.0 0.11            150           71.1 294 
 RUS  HZ EP        022  7.72                             143    0.4410  105 177 
 RUS  HN ES        022 25.87                             143   -0.2910  105 177 
 RUS  HZ I         022 26.88         6.7 0.24            146            105 177 
 SPBC HZ EP        022 12.43                             128    0.28 9  168 219 
 SPBC HN ES        022 34.38                             128   -0.44 9  168 219 
 SPBC HZ I         022 38.85        11.9 0.10            130            168 219 
 ZAR  HZ EP   1    022 14.92                             123   -0.72 6  204 291 
 ZAR  HN ES        022 40.55                             123   -0.49 9  204 291 
 ZAR  HZ I         022 47.50         9.2 0.30            123            204 291 
 NOR  HZ EP   1    022 18.84                             118   -0.52 6  239 234 
 NOR  HE ES        022 47.12                             118   -0.54 8  239 234 
 NOR  HZ I         022 52.50         4.2 0.37            120            239 234 
 NOR  HZ E         022 52.65                                            239 234 
 SML  HZ EP        022 19.58                             118    0.15 8  240 334 
 SML  HN ES        022 46.92                             118   -0.86 8  240 334 
 SML  HZ I         022 53.04         7.6 0.10            120            240 334 
 CHI  HN ES        022 50.98                             117   -0.30 8  254 195 
 HEL  HZ EP        022 24.40                             115    0.68 7  275 255 
 HEL  HN ES        022 55.96                             115    0.54 7  275 255 
 GUY2CHZ EP   1    022 28.08                             112    0.83 5  306 234 
 GUY2CHN ES        023  2.59                             112    0.89 7  306 234 
 GUY2CHZ I         023 12.01         4.0 0.56                           306 234 
 TOL  SZ EP        022 31.57                             109   -0.37 6  348 224 
 TOL  SN ES        023  9.15                             109   -0.90 6  348 224 
 TOL  SZ I         023 15.96         2.0 0.25            111            348 224 
 SJC  HZ EP        022 37.63                             106   -0.74 6  407 326 
 SJC  HN ES   4    023 19.11                             106   -2.39 0  407 326 
                                                                                
