 2017  420 0317 38.6 L   6.796 -73.162143.9  RSN  5 0.3 1.3LRSN                1
 GAP=135        0.58       3.1     2.8  6.2 -0.1631E+00  0.5701E+01 -0.4729E+00E
 Epicentro: LOS SANTOS - SANTANDER                                             3
 ACTION:UPD 17-05-30 21:14 OP:jn   STATUS:               ID:20170420031738 L   I
 OLDACT:DUP 17-04-20 14:34 OP:cog  STATUS:               ID:20170420030741d    3
 2017-04-20-0308-00M.COL___365                                                 6
 STAT SP IPHASW D HRMM SECON CODA AMPLIT PERI AZIMU VELO AIN AR TRES W  DIS CAZ7
 BAR2 EZ EP   3    317 57.97                             171   -0.06 2 22.7 186 
 BAR2 EZ ES   3    318 13.65                             171    0.49 2 22.7 186 
 PAM  HZ EP        318  0.64                             150   -0.1010 78.9  40 
 PAM  EE ES        318 17.95                             150   -0.0410 78.9  40 
 PAM  HZ I         318 19.57         5.9 0.50            154           78.9  40 
 RUS  HZ EP        318  2.57                             143    0.3910  100 175 
 RUS  HN ES        318 20.50                             143   -0.0510  100 175 
 RUS  HZ I         318 21.90         1.0 0.20            147            100 175 
 PTB  HZ EP        318  4.92                             132   -0.36 9  146 259 
 PTB  HN ES        318 25.87                             132   -0.19 9  146 259 
 PTB  HZ I         318 30.79         3.2 0.12            133            146 259 
 ZAR  HZ EP   3    318 11.20                             122    0.40 2  202 292 
 ZAR  HN ES        318 36.22                             122    0.34 9  202 292 
 ZAR  HZ I         318 41.85         3.7 0.22            123            202 292 
                                                                                
