 2015  520 0022 50.0 L   6.788 -73.108148.8  RSN  6 0.2 1.4LRSN                1
 GAP=142        0.55       2.8     3.3  5.3 -0.6435E+00  0.1741E+01 -0.7175E-01E
 Epicentro: LOS SANTOS - SANTANDER                                             3
 ACTION:UPD 15-09-10 22:05 OP:cam  STATUS:               ID:20150520002250 L   I
 OLDACT:DUP 15-05-20 13:21 OP:spq  STATUS:               ID:20150520001749d    3
 2015-05-20-0017-48M.COL___291                                                 6
 STAT SP IPHASW D HRMM SECON CODA AMPLIT PERI AZIMU VELO AIN AR TRES W  DIS CAZ7
 BAR2 EZ ES   1    023 25.28                             171   -0.26 7 23.1 201 
 BAR2 EZ I         023 26.20         8.4 0.18            170           23.1 201 
 BRR  HZ EP   1    023 11.66                             152   -0.02 7 75.5 298 
 BRR  HN ES        023 28.97                             152    0.3510 75.5 298 
 BRR  HZ I         023 33.87         4.4 0.56            148           75.5 298 
 PAM  SZ EP        023 12.58                             152    0.1710 75.9  36 
 PAM  SN ES        023 29.78                             152   -0.1410 75.9  36 
 PAM  SZ I         023 31.87         3.1 0.52            153           75.9  36 
 RUS  HZ EP   1    023 13.86                             145   -0.04 7 99.1 178 
 RUS  HE ES        023 32.57                             145   -0.0110 99.1 178 
 RUS  HZ I         023 33.49         3.5 0.26            148           99.1 178 
 SPBC HE ES   1    023 41.45                             129    0.07 7  165 220 
 SPBC HZ I         023 43.34         7.1 0.28            130            165 220 
 ZAR  HN ES   1    023 48.33                             122   -0.53 6  208 292 
 ZAR  HZ I         023 54.63         1.6 0.14            122            208 292 
                                                                                
