 2017  220 0422 19.1 L   6.808 -73.147151.9  RSN  8 0.3 1.6LRSN                1
 GAP=136        0.77       3.0     3.2  5.6  0.8673E-01  0.3398E+01  0.3922E+01E
 Epicentro: LOS SANTOS - SANTANDER                                             3
 ACTION:UPD 17-05-24 15:38 OP:jn   STATUS:               ID:20170220042219 L   I
 OLDACT:UP  17-02-20 15:48 OP:dani STATUS:               ID:20170220041642     3
 OLDACT:REG 17-02-20 12:39 OP:dani STATUS:               ID:20170220041642     3
 2017-02-20-0418-00M.COL___351                                                 6
 STAT SP IPHASW D HRMM SECON CODA AMPLIT PERI AZIMU VELO AIN AR TRES W  DIS CAZ7
 BAR2 EZ EP        422 39.46                             171   -0.0210 24.2 189 
 BAR2 EZ I         422 55.76        17.8 0.14            170           24.2 189 
 BRR  HZ EP        422 41.20                             154    0.3210 70.7 298 
 BRR  HN ES        422 58.39                             154    0.5210 70.7 298 
 BRR  HZ I         422 59.48         6.2 0.13            153           70.7 298 
 PAM  EZ EP        422 42.09                             152    0.1610 76.8  40 
 PAM  EN ES        422 59.48                             152   -0.2610 76.8  40 
 PAM  EZ I         423  1.61         5.6 0.52            150           76.8  40 
 RUS  HZ EP        422 43.34                             145   -0.1810  101 176 
 RUS  HN ES        423  2.51                             145   -0.0510  101 176 
 RUS  HZ I         423  3.11         5.8 0.26            143            101 176 
 PTB  HZ EP        422 46.29                             133   -0.28 9  148 258 
 PTB  HN ES        423  7.40                             133   -0.60 9  148 258 
 PTB  HZ I         423  9.41         6.4 0.16            132            148 258 
 ZAR  HZ EP        422 51.77                             124   -0.13 9  204 292 
 ZAR  HE ES        423 17.39                             124   -0.10 9  204 292 
 ZAR  HZ I         423 23.73         2.9 0.26            123            204 292 
 NOR  HE ES        423 23.88                             120    0.47 8  235 234 
 CHI  HZ EP        422 57.48                             118    0.25 8  249 195 
 CHI  HN ES        423 26.94                             118   -0.03 8  249 195 
 CHI  HZ I         423 34.73         1.4 0.47            117            249 195 
                                                                                
