 2016 1120 0633  7.7 L   6.802 -73.148148.1  RSN 30 0.6 3.1LRSN                1
 GAP= 65        0.95       2.9     2.6  4.4 -0.4664E+00  0.2261E+01  0.3805E+01E
 Epicentro: LOS SANTOS - SANTANDER                                             3
 ACTION:UPD 17-10-26 21:09 OP:lp   STATUS:               ID:20161120063307 L   I
 OLDACT:UP  16-11-20 15:51 OP:e    STATUS:               ID:20161120062750     3
 OLDACT:UP  16-11-20 15:49 OP:e    STATUS:               ID:20161120062750     3
 OLDACT:UP  16-11-20 15:49 OP:e    STATUS:               ID:20161120062750     3
 OLDACT:UP  16-11-20 15:44 OP:e    STATUS:               ID:20161120062750     3
 OLDACT:REG 16-11-20 13:30 OP:and  STATUS:               ID:20161120062750     3
 2016-11-20-0628-00M.COL___331                                                 6
 STAT SP IPHASW D HRMM SECON CODA AMPLIT PERI AZIMU VELO AIN AR TRES W  DIS CAZ7
 BAR2 EZ EP        633 27.55                             171   -0.0210 23.5 189 
 BAR2 EZ ES        633 42.82                             171   -0.2810 23.5 189 
 BAR2 EZ I         633 44.68       429.5 0.29            162           23.5 189 
 BRR  HZ EP        633 29.30                             153    0.2610 70.9 298 
 BRR  HN ES        633 46.53                             153    0.8110 70.9 298 
 BRR  HZ I         633 51.40       180.6 0.16            156           70.9 298 
 PAM  EZ IP     D  633 30.35                             151    0.2310 77.4  40 
 PAM  EN ES        633 47.27                             151   -0.3710 77.4  40 
 PAM  EZ I         633 49.76       434.4 0.46            165           77.4  40 
 PTB  HZ EP        633 33.88                             133   -0.91 9  148 259 
 PTB  HN ES        633 55.29                             133   -0.67 9  148 259 
 PTB  HZ I         634  2.18       153.9 0.21            135            148 259 
 TAM  HZ IP     D  633 35.94                             131    0.40 9  155 105 
 TAM  HE ES        633 57.61                             131    0.32 9  155 105 
 ZAR  HZ EP        633 39.88                             123   -0.34 9  204 292 
 ZAR  HE ES        634  5.48                             123   -0.15 9  204 292 
 ZAR  HZ I         634 11.14       129.1 0.38            129            204 292 
 NOR  HZ EP        633 43.28                             119   -0.23 8  235 234 
 NOR  HE ES        634 12.07                             119    0.59 8  235 234 
 NOR  HZ I         634 16.28       151.6 0.28            122            235 234 
 CHI  HZ EP        633 45.45                             118   -0.04 8  249 195 
 CHI  HN ES        634 14.76                             118   -0.25 8  249 195 
 CHI  HZ I         634 18.35       110.7 0.40            120            249 195 
 URE  HZ EP   9    633 47.35                             114   -1.45 0  284 292 
 URE  HE ES        634 19.04                                   -0.41 7  284 292 
 URE  HZ I         634 30.29        73.5 0.26            119            284 292 
 LL1C HZ EP   9    633 53.00                             112    1.67 0  306 352 
 LL1C HN ES        634 26.65                             112   -0.42 7  306 352 
 PTGC HZ EP        633 50.74                             112   -0.90 7  309 159 
 PTGC HN ES   4    634 23.81                             112   -2.14 0  309 159 
 PTGC HZ I         634 29.02       133.6 0.30            116            309 159 
 LL6C HZ EP   9    633 32.75                             111   -20.7 0  325 358 
 ELA  HZ EP   9    633 56.45                             111    1.85 0  329 229 
 ELA  HN ES        634 33.48                                    0.41 7  329 229 
 ELA  HZ I         634 47.04        75.0 0.50            114            329 229 
 CBOC HZ EP        633 55.23                             110    0.58 7  333 252 
 CBOC HN ES        634 31.34                             110    0.04 7  333 252 
 CBOC HE ES        634 32.05                             110            333 252 
 CBOC HZ I         634 49.03        33.5 0.64            114            333 252 
 DBB  HZ EP        633 55.23                             110    0.03 7  339 274 
 DBB  HN ES   4    634 30.82                             110   -1.46 0  339 274 
 ANIL HZ EP   3    633 58.79                             109    1.25 2  357 224 
 ANIL HE ES   4    634 38.79                             109    2.33 0  357 224 
 ARGC HZ EP        633 57.49                             109    0.12 6  359 340 
 ARGC HE ES        634 36.24                             109    0.09 6  359 340 
 ARGC HZ I         634 47.83        29.1 0.26            115            359 340 
 PRA  HZ EP        634  1.16                             107   -0.10 6  392 210 
 PRA  HE ES        634 43.13                             107    0.06 6  392 210 
 PRA  HZ I         634 47.60        70.2 0.24            110            392 210 
 ORTC HZ EP        634  1.80                             107    0.15 6  395 216 
 ORTC HN ES   4    634 45.54                             107    1.77 0  395 216 
 ORTC HZ I         634 48.91        54.1 0.34            110            395 216 
 PAL  HZ EP        634  3.05                             106    0.17 6  406 239 
 PAL  HE ES        634 46.97                             106    1.02 6  406 239 
 PAL  HZ I         634 51.41        34.0 0.36            110            406 239 
 SJC  HZ IP   4 C  634  1.74                             106   -1.52 0  409 327 
 SJC  HN ES   4    634 42.69                             106   -3.94 0  409 327 
 SJC  HZ I         634 47.28        26.7 0.55            112            409 327 
 CRJC HZ EP   4    634  7.80                             104   -2.40 0  467   4 
 CRJC HE ES   4    634 55.26                             104   -3.72 0  467   4 
 CRJC HZ I         634 60.00        38.8 0.18            110            467   4 
 YOT  HZ EP        634 10.05                             103   -0.70 5  472 229 
 YOT  HN ES        635  0.28                             103    0.31 5  472 229 
 YOT  HZ I         635  7.25         7.2 0.32            107            472 229 
 GUA  EZ EP   9    634 10.04                             103   -0.85 0  474 173 
 GUA  EN ES        634 58.58                             103   -0.79 5  474 173 
 GUA  EZ I         635  4.02        45.6 0.22            107            474 173 
 MACC HZ EP   9    637 13.41                             102   177.0 0  521 189 
 MACC HE ES   4    638  5.43                                   -1.63 0  521 189 
 MACC HZ I         638 12.52        19.1 0.60            105            521 189 
 URI  HZ EP   4    634 18.07                             101   -2.62 0  557  13 
 URI  HE ES   4    635 12.84                             101   -4.82 0  557  13 
 URI  HZ I         635 27.19         5.5 0.24            106            557  13 
 MAL  EZ EP   4    634 22.39                             101    1.63 0  557 237 
 GARC HZ EP   4    634 21.63                             100   -1.33 0  573 207 
 GARC HN ES   4    635 18.82                             100   -2.88 0  573 207 
 CONO HZ EP        634 28.96                             100    0.89 3  612 216 
 FLO2 HZ EP        634 30.05                              99   -0.78 2  641 206 
 FLO2 HN ES        635 34.33                              99   -1.37 2  641 206 
 SOTO HZ EP        634 32.23                              99    0.51 2  643 217 
 SOTO HN ES        635 40.35                              99    3.06 2  643 217 
 BBAC HZ EP        634 38.46                              98    0.56 1  697 221 
 BBAC HN ES        635 47.35                              98   -0.95 1  697 221 
 BBAC HZ I         635 53.12         2.9 0.34            101            697 221 
 GCUF HZ EP   4    634 48.51                              97    1.13 0  773 217 
 GCUF HN ES        636  4.19                              97   -0.98 0  773 217 
 GCUF HZ I         636 10.39         2.9 0.38            100            773 217 
                                                                                
