 2011  120 0200 12.5 L   6.828 -73.052142.0  RSN  5 0.4 1.5LRSN                1
 GAP=169        0.75       3.5    19.0  9.0 -0.2063E+02  0.4210E+02 -0.1792E+01E
 Epicentro: LOS SANTOS - SANTANDER                                             3
 ACTION:UP  11-02-08 08:41 OP:pat  STATUS:               ID:20110120020012 L   I
 2011-01-20-0158-10S.COL___138                                                 6
 STAT SP IPHASW D HRMM SECON CODA AMPLIT PERI AZIMU VELO SNR AR TRES W  DIS CAZ7
 BAR2 SZ EP   2    2 0 31.72                             168    -0.1 5   30 209 
 BAR2 SZ I         2 0 32.39         6.8 0.16                            30 209 
 BAR2 SZ ES   2    2 0 46.78                             168    -0.1 5   30 209 
 RUS  HZ EP   1    2 0 36.05                             142     0.0 7  103 182 
 RUS  HN ES   1    2 0 54.41                             142     0.0 7  103 182 
 RUS  HZ I         2 0 56.13         3.8 0.30                           103 182 
 GRA  SZ EP   2    2 0 37.60                             138     0.7 5  120  13 
 GRA  SZ ES   2    2 0 55.75                             138    -0.2 5  120  13 
 GRA  SZ I         2 0 58.74         5.3 0.21                           120  13 
 OCA  SZ EP   1    2 0 40.46                             129     0.1 7  159 349 
 OCA  SZ ES   1    2 1  1.99                             129    -0.1 7  159 349 
 OCA  SZ I         2 1  5.95         4.3 0.53                           159 349 
 CHI  HZ EP   1    2 0 49.78                             116    -0.8 6  254 197 
 CHI  HN ES   1    2 1 20.93                             116     0.6 6  254 197 
 CHI  HZ I         2 1 22.20         2.0 0.34                           254 197 
                                                                                
