 2011  820 0314 58.2 L   5.816 -73.968 96.7  RSN  5 0.5 1.2LRSN                1
 GAP=169        0.86       7.4     5.8 14.1 -0.2549E+02 -0.2299E+01 -0.2358E+02E
 Epicentro: FLORIAN - SANTANDER                                                3
 ACTION:UPD 12-07-13 15:52 OP:ep   STATUS:               ID:20110820031458 L   I
 2011-08-20-0300-00M.COL___153                                                 6
 STAT SP IPHASW D HRMM SECON CODA AMPLIT PERI AZIMU VELO AIN AR TRES W  DIS CAZ7
 RUS  HZ EP   2    315 17.38                             132    0.02 5 98.4  85 
 RUS  HZ I         315 17.79         1.0 0.09                          98.4  85 
 RUS  HE ES   2    315 31.87                             132   -0.41 5 98.4  85 
 NOR  SZ EP   1    315 16.94                             129   -0.33 8  104 254 
 NOR  SN ES   1    315 32.32                             129    0.20 8  104 254 
 BAR2 SZ ES   2    315 36.77                             125    0.97 5  122  45 
 BAR2 SZ I         315 39.81         7.2 0.48                           122  45 
 BRR  HZ EP   1    315 22.23                             119    0.75 8  146  11 
 BRR  HZ I         315 33.81         5.3 0.54                           146  11 
 BRR  HN ES   1    315 39.02                             119   -0.58 8  146  11 
 GIR2 SZ EP        315 23.48                             116   -0.1710  164  31 
                                                                                
