 2015  320 0056 56.1 L   6.780 -73.160134.1  RSN  5 0.4 1.4LRSN                1
 GAP=136        0.96       4.0     4.7  8.3  0.2326E-01  0.6328E+01 -0.1011E+01E
 Epicentro: LOS SANTOS - SANTANDER                                             3
 ACTION:UPD 15-04-30 16:27 OP:nd   STATUS:               ID:20150320005656 L   I
 OLDACT:REG 15-03-20 12:39 OP:fm   STATUS:               ID:20150320004750     3
 2015-03-20-0047-50M.COL___281                                                 6
 STAT SP IPHASW D HRMM SECON CODA AMPLIT PERI AZIMU VELO AIN AR TRES W  DIS CAZ7
 BRR  HZ EP        057 15.37                             150   -0.5810 70.9 301 
 BRR  HN ES        057 31.96                             150    0.5010 70.9 301 
 BRR  HZ I         057 40.27        11.8 0.56            151           70.9 301 
 PAM  SZ EP        057 17.70                             148    0.4710 80.1  39 
 PAM  SE ES        057 33.58                             148   -0.1610 80.1  39 
 PAM  SZ I         057 36.92         3.6 0.58            156           80.1  39 
 RUS  HZ EP        057 18.82                             142    0.2810 98.5 175 
 RUS  HN ES        057 35.70                             142   -0.3710 98.5 175 
 RUS  HZ I         057 38.07         2.7 0.46            149           98.5 175 
 PTB  HZ EP        057 22.05                             130    0.13 9  146 260 
 PTB  HE ES        057 42.05                             130   -0.04 9  146 260 
 PTB  HZ I         057 50.24         2.8 0.32            133            146 260 
 SML  HN ES        058  0.04                             115   -0.36 8  245 336 
                                                                                
