 2010  420 0702 19.0 L   7.434 -73.152129.9  RSN  7 0.4 2.2LRSN                1
 GAP=122        0.72       5.1     7.4  7.1 -0.1988E+02 -0.1920E+02  0.8342E+01E
 Epicentro: EL PLAYON - SANTANDER                                              3
 ACTION:UPD 10-08-24 10:00 OP:vdl  STATUS:               ID:20100420070219 L   I
 2010-04-20-0659-21S.COL___100                                                 6
 STAT SP IPHASW D HRMM SECON CODA AMPLIT PERI AZIMU VELO AIN AR TRES W  DIS CAZ7
 BRR  HZ IP     D  7 2 38.72                             150     0.310   72 240 
 BRR  HZ I         7 2 38.90        36.4 0.15                            72 240 
 BRR  HN ES   1    7 2 53.89                             150     0.3 7   72 240 
 OCA  SZ EP   1    7 2 40.11                             143     0.1 7   91 348 
 OCA  SZ ES   1    7 2 56.02                             143    -0.3 7   91 348 
 OCA  SZ I         7 2 59.83        39.8 0.17                            91 348 
 BAR2 SZ ES   2    7 2 56.10                             142    -0.8 5   93 182 
 SDV  BZ IP     C  7 3  3.83                             108     0.0 7  321  60 
 DBB  SZ EP   1    7 3  5.24                             107    -0.7 5  341 262 
 RREF BZ EP   2    7 3 10.90                             105     0.7 3  371 221 
 RREF BN ES   2    7 3 49.74                             105    -0.4 3  371 221 
 RREF BZ I         7 4  1.20         6.4 0.28                           371 221 
 PRA  HZ EP   2    7 3 19.23                             101    -0.1 2  454 205 
 PRA  HN ES   2    7 4  6.30                             101    -0.2 2  454 205 
 PRA  HZ I         7 4  9.72         2.8 0.34                           454 205 
                                                                                
