 2013  320 0612  4.0 L   6.776 -73.126145.3  RSN  9 0.4 2.2LRSN                1
 GAP=140        1.07       3.6     4.3  6.4  0.4069E+00  0.8848E+01  0.3711E+01E
 Epicentro: LOS SANTOS - SANTANDER                                             3
 ACTION:UPD 13-04-09 14:03 OP:ep   STATUS:               ID:20130320061000 L   I
 2013-03-20-0610-00M.COL___244                                                 6
 STAT SP IPHASW D HRMM SECON CODA AMPLIT PERI AZIMU VELO AIN AR TRES W  DIS CAZ7
 BAR2 SZ EP        612 23.31                             171   -0.1710 21.3 197 
 BAR2 SZ ES        612 38.29                             171   -0.4310 21.3 197 
 BAR2 SZ I         612 40.46        60.8 0.16            167           21.3 197 
 BRR  HZ EP        612 25.22                             151   -0.0110 74.4 300 
 BRR  HN ES        612 42.27                             151    0.4410 74.4 300 
 BRR  HN I         612 46.34        51.1 0.18            151           74.4 300 
 PAM  SZ EP        612 26.16                             150    0.0010 78.1  37 
 PAM  SN ES        612 44.06                             150    0.5810 78.1  37 
 PAM  SN I         612 44.33        19.3 0.22            157           78.1  37 
 RUS  HZ EP        612 27.23                             144   -0.2310 97.8 177 
 RUS  HN ES        612 45.47                             144   -0.3210 97.8 177 
 RUS  HN I         612 49.62        18.8 0.48            145           97.8 177 
 PTB  HZ EP        612 30.41                             131   -0.62 9  149 260 
 PTB  HN ES        612 51.67                             131   -0.49 9  149 260 
 PTB  HN I         612 56.99        25.1 0.26            132            149 260 
 OCA  HN ES        612 54.62                             129   -0.15 9  163 352 
 ZAR  HZ EP        612 36.98                             122    0.30 8  207 293 
 ZAR  HN ES        613  2.24                             122    0.03 8  207 293 
 CHI  HZ EP        612 41.49                             117    0.08 8  247 196 
 CHI  HN ES        613 11.78                             117    1.16 8  247 196 
 CHI  HN I         613 17.28        17.7 0.48            119            247 196 
 HEL  HZ EP        612 44.04                             114   -0.27 8  274 256 
 HEL  HN ES        613 16.43                             114    0.64 8  274 256 
 HEL  HN I         613 24.79         5.7 0.30            116            274 256 
                                                                                
