 2011 1120 0449 23.3 L   6.794 -73.116138.9  RSN  5 0.3 1.7LRSN                1
 GAP=141        0.58       3.9     4.3  6.3  0.3287E+01  0.3718E+01 -0.4865E+00E
 Epicentro: LOS SANTOS - SANTANDER                                             3
 ACTION:UPD 12-07-13 16:11 OP:ep   STATUS:               ID:20111120044923 L   I
 2011-11-20-0447-49S.COL___178                                                 6
 STAT SP IPHASW D HRMM SECON CODA AMPLIT PERI AZIMU VELO AIN AR TRES W  DIS CAZ7
 BAR2 SZ EP   2    449 41.90                             170   -0.19 5 23.5 198 
 BAR2 SZ ES   1    449 56.26                             170   -0.50 7 23.5 198 
 BAR2 SZ I         449 58.07        12.9 0.17                          23.5 198 
 BRR  HZ EP   1    449 43.75                             150   -0.14 7 74.4 298 
 BRR  HE ES   1    450  0.46                             150    0.51 7 74.4 298 
 BRR  HZ I         450  4.62        13.6 0.21                          74.4 298 
 PAM  SZ EP   1    449 44.83                             150    0.15 7 75.8  37 
 PAM  SN ES   1    450  1.33                             150   -0.03 7 75.8  37 
 PAM  SZ I         450  3.48         9.6 0.47                          75.8  37 
 RUS  HZ EP   1    449 46.34                             143    0.03 7 99.8 178 
 RUS  HN ES   1    450  4.50                             143    0.24 7 99.8 178 
 RUS  HZ I         450  6.07         3.8 0.29                          99.8 178 
 ZAR  HN ES   1    450 20.63                             120   -0.24 6  207 292 
 ZAR  HZ I         450 25.78         7.1 0.29                           207 292 
                                                                                
