 2016  620 0404 26.3 L   6.753 -73.184148.0  RSN  5 0.3 1.0LRSN                1
 GAP=229        0.72       6.3     6.7  9.6  0.2603E+02  0.3247E+02  0.7549E+01E
 Epicentro: LOS SANTOS - SANTANDER                                             3
 ACTION:UPD 16-07-21 22:20 OP:rebc STATUS:               ID:20160620040426 L   I
 OLDACT:DUP 16-06-20 17:11 OP:ak   STATUS:               ID:20160620035745d    3
 OLDACT:REG 16-06-20 13:17 OP:ar   STATUS:               ID:20160620035744     3
 2016-06-20-0357-44M.COL___340                                                 6
 STAT SP IPHASW D HRMM SECON CODA AMPLIT PERI AZIMU VELO AIN AR TRES W  DIS CAZ7
 BAR2 EZ EP   2    4 4 46.08                             173   -0.04 5 17.8 180 
 BAR2 EZ ES        4 5  1.38                             173   -0.1810 17.8 180 
 BAR2 EZ I         4 5  2.33         2.0 0.23                          17.8 180 
 BRR  HZ EP   2    4 4 48.12                             153    0.46 5 70.3 304 
 BRR  HN ES        4 5  4.64                             153    0.3410 70.3 304 
 BRR  HZ I         4 5  8.61         1.8 0.25                          70.3 304 
 RUS  HN ES        4 5  8.30                             146   -0.0910 95.8 173 
 PTB  HZ EP   2    4 4 53.26                             134    0.24 5  143 261 
 PTB  HN ES        4 5 14.09                             134    0.25 9  143 261 
 ZAR  HN ES        4 5 23.39                             123   -0.60 9  202 294 
                                                                                
