 2016 1020 0256 23.5 L   6.119 -73.631116.8  RSN  9 0.3 1.7LRSN                1
 GAP= 71        0.73       2.5     3.5  5.0 -0.1713E+01  0.2987E+01  0.1275E+01E
 Epicentro: CHIPATA - SANTANDER                                                3
 ACTION:UPD 16-11-09 19:21 OP:rebc STATUS:               ID:20161020025623 L   I
 OLDACT:REG 16-10-20 12:54 OP:and  STATUS:               ID:20161020024745     3
 2016-10-20-0248-00M.COL___341                                                 6
 STAT SP IPHASW D HRMM SECON CODA AMPLIT PERI AZIMU VELO AIN AR TRES W  DIS CAZ7
 RUS  HZ EP        256 42.00                             148    0.0210 65.6 112 
 RUS  HN ES        256 56.08                             148   -0.2810 65.6 112 
 RUS  HZ I         256 57.65         9.5 0.26            148           65.6 112 
 SPBC HZ EP        256 41.22                             146   -0.5410 71.1 223 
 SPBC HE ES        256 55.96                             146   -0.0110 71.1 223 
 SPBC HZ I         256 57.43         9.1 0.08            138           71.1 223 
 BAR2 EZ EP        256 41.92                             146   -0.1210 72.1  43 
 BAR2 EZ ES        256 56.54                             146    0.0710 72.1  43 
 BAR2 EZ I         256 57.85        34.8 0.30            145           72.1  43 
 PTB  HZ EP   9    256 42.68                             135   -1.38 0  102 297 
 PTB  HE ES        256 58.22                                   -0.4710  102 297 
 PTB  HZ I         257  1.24         6.6 0.16            128            102 297 
 BRR  HZ EP        256 44.71                             133    0.0410  110 355 
 BRR  HN ES        257  1.59                             133    0.4510  110 355 
 NOR  HZ EP   2    256 48.24                             124   -0.37 5  150 246 
 NOR  HZ I         257  9.51         9.7 0.14            117            150 246 
 CHI  HZ EP   2    256 50.67                             121    0.06 5  165 184 
 CHI  HN ES        257 12.16                             121    0.44 9  165 184 
 CHI  HZ I         257 13.72         3.2 0.36            116            165 184 
 HEL  HZ EP   2    256 55.89                             114    0.48 4  210 272 
 HEL  HN ES   2    257 19.98                             114   -0.30 4  210 272 
 PRA  HZ EP   2    257  5.06                             106   -0.26 4  300 208 
 PRA  HN ES   2    257 38.61                             106    0.71 4  300 208 
 PRA  HZ I         257 43.96         1.9 0.34            104            300 208 
                                                                                
