 2017  920 0214 12.3 L   6.795 -73.097141.4  RSN  5 0.2 1.2LRSN                1
 GAP=117        0.65       4.4     7.0  6.0  0.2112E+02 -0.2272E+02 -0.8799E+01E
 Epicentro: LOS SANTOS - SANTANDER                                             3
 ACTION:UPD 17-10-05 19:14 OP:rebc STATUS:               ID:20170920021412 L   I
 OLDACT:DUP 17-09-20 16:03 OP:and  STATUS:               ID:20170920020741d    3
 2017-09-20-0208-00M.COL___444                                                 6
 STAT SP IPHASW D HRMM SECON CODA AMPLIT PERI AZIMU VELO AIN AR TRES W  DIS CAZ7
 BAR2 EZ ES        214 46.15                             170   -0.2010 24.3 203 
 BAR2 EZ I         214 47.01         6.0 0.32            169           24.3 203 
 PAM  EZ IP     C  214 33.97                             151    0.0810 74.6  36 
 BRR  HZ EP        214 32.88                             150   -0.4010 76.2 297 
 BRR  HN ES        214 49.96                             150    0.3110 76.2 297 
 RUS  HZ EP        214 35.88                             143    0.3110 99.7 179 
 RUS  HN ES        214 53.62                             143   -0.1010 99.7 179 
 RUS  HZ I         214 54.99         1.8 0.30            143           99.7 179 
 YPLC HZ EP        214 41.39                             126   -0.10 9  174 153 
 YPLC HN ES        215  4.34                             126    0.09 9  174 153 
                                                                                
