 2011  520 0659 24.5 L   6.755 -73.077141.2  RSN  9 0.3 1.6LRSN                1
 GAP=148        0.62       2.9     5.4  5.1 -0.2997E+01  0.3979E+01 -0.1447E+01E
 Epicentro: LOS SANTOS - SANTANDER                                             3
 ACTION:UP  11-06-29 08:54 OP:tino STATUS:               ID:20110520065924 L   I
 2011-05-20-0656-17S.COL___140                                                 6
 STAT SP IPHASW D HRMM SECON CODA AMPLIT PERI AZIMU VELO SNR AR TRES W  DIS CAZ7
 BAR2 SZ EP        659 43.56                             171     0.010   21 213 
 BAR2 SZ ES   1    659 58.16                             171    -0.3 7   21 213 
 BAR2 SZ I         7 0  1.52         9.8 0.23                            21 213 
 BTL  SZ EP        659 43.86                             168     0.110   28 311 
 GIR2 SZ EP   2    659 44.17                             164     0.3 5   38 340 
 PAM  SZ EP   1    659 46.38                             150     0.1 7   77  33 
 PAM  SE ES   1    7 0  3.47                             150     0.3 7   77  33 
 BRR  HZ EP   1    659 45.41                             149    -0.3 7   80 299 
 BRR  HE ES   1    7 0  2.65                             149     0.4 7   80 299 
 BRR  HZ I         7 0  5.30        10.8 0.13                            80 299 
 RUS  HZ EP   1    659 47.24                             144    -0.2 7   95 180 
 RUS  HN ES   1    7 0  5.41                             144     0.1 7   95 180 
 RUS  HZ I         7 0  8.88         3.6 0.32                            95 180 
 GRA  SZ EP   1    659 49.97                             135     0.4 7  128  14 
 GRA  SZ ES   1    7 0  8.71                             135    -0.5 7  128  14 
 GRA  SZ I         7 0 10.07         7.2 0.38                           128  14 
 OCA  SZ EP   1    659 53.07                             127     0.0 7  166 351 
 OCA  SZ ES   1    7 0 15.10                             127    -0.2 7  166 351 
 OCA  SZ I         7 0 21.88         5.1 0.18                           166 351 
 HEL  HZ EP   1    7 0  5.24                             113     0.0 6  278 257 
 HEL  HZ I         7 0 41.92         2.6 0.32                           278 257 
                                                                                
