 2010  320 0420 56.9 L   6.797 -73.022147.1  RSN  8 0.4 2.4LRSN                1
 GAP=135        0.76       3.2     6.7  5.6 -0.2212E+01 -0.3846E+01  0.1339E+01E
 Epicentro: CEPITA - SANTANDER                                                 3
 ACTION:UP  10-08-24 09:54 OP:vdl  STATUS:               ID:20100320042056 L   I
 2010-03-20-0418-10S.COL___107                                                 6
 STAT SP IPHASW D HRMM SECON CODA AMPLIT PERI AZIMU VELO SNR AR TRES W  DIS CAZ7
 BAR2 SZ IP        421 16.94                             168     0.110   29 218 
 BAR2 SZ ES   1    421 31.61                             168    -0.7 7   29 218 
 BRR  HZ IP        421 18.87                             149     0.010   84 294 
 BRR  HZ I         421 19.17       152.6 0.16                            84 294 
 BRR  HE ES   1    421 36.37                             149     0.3 7   84 294 
 RUS  HZ IP        421 20.78                             144     0.010  100 184 
 RUS  HN ES   1    421 39.69                             144     0.3 7  100 184 
 RUS  HZ I         421 40.79        24.0 0.24                           100 184 
 OCA  SZ EP        421 25.38                             129    -0.1 9  163 348 
 OCA  SZ ES   1    421 47.96                             129     0.1 7  163 348 
 CHI  HZ EP        421 34.92                             117    -0.1 8  252 198 
 CHI  HE ES   2    422  5.09                             117     0.3 4  252 198 
 CHI  HZ I         422 12.62         8.7 0.55                           252 198 
 RREF BZ EP   1    421 43.99                             110    -0.3 5  332 231 
 RREF BN ES   1    422 21.74                             110     0.5 5  332 231 
 RREF BZ I         422 28.56        14.7 0.37                           332 231 
 SDV  BZ EP   1    421 46.32                             109     0.5 5  350  49 
 PRA  HZ EP   1    421 50.31                             106    -0.9 4  399 211 
 PRA  HZ I         422 36.81         7.6 0.24                           399 211 
                                                                                
