 2014 1120 0812 46.2 L   6.757 -73.117151.2  RSN  6 0.4 1.2LRSN                1
 GAP=142        0.87       5.0     4.8  8.3 -0.6362E-02  0.7695E+01  0.1584E+02E
 Epicentro: LOS SANTOS - SANTANDER                                             3
 ACTION:UPD 14-12-19 15:45 OP:nd   STATUS:               ID:20141120081246 L   I
 OLDACT:UP  14-11-20 16:33 OP:spq  STATUS:               ID:20141120080740     3
 OLDACT:REG 14-11-20 13:19 OP:fm   STATUS:               ID:20141120080740     3
 2014-11-20-0807-40M.COL___295                                                 6
 STAT SP IPHASW D HRMM SECON CODA AMPLIT PERI AZIMU VELO AIN AR TRES W  DIS CAZ7
 BRR  HZ EP        813  8.49                             152    0.2410 76.3 301 
 BRR  HN ES        813 25.81                             152    0.3910 76.3 301 
 BRR  HZ I         813 28.79         3.3 0.42            149           76.3 301 
 PAM  SE ES        813 26.60                             151   -0.3810 79.2  36 
 PAM  SZ I         813 28.62         1.7 0.20            154           79.2  36 
 RUS  HZ EP        813 10.60                             146    0.4310 95.7 178 
 RUS  HN ES   1    813 28.79                             146   -0.06 7 95.7 178 
 PTB  HZ EP   1    813 13.27                             133   -0.57 7  150 261 
 PTB  HN ES        813 35.62                             133    0.23 9  150 261 
 PTB  HZ I         813 40.30         1.9 0.42            132            150 261 
 SPBC HZ EP        813 14.93                             131   -0.07 9  162 221 
 SPBC HN ES   1    813 36.85                             131   -0.59 7  162 221 
 SPBC HZ I         813 40.39         2.8 0.24            131            162 221 
 ZAR  HN ES   1    813 44.92                             123   -0.56 6  209 293 
 ZAR  HZ I         813 51.34         1.4 0.32            123            209 293 
                                                                                
