 2017  520 0710 36.7 L   6.589 -73.567102.7  RSN  6 0.4 1.1LRSN                1
 GAP=151        0.92       3.8     3.3  8.4  0.2447E+01 -0.3984E+01  0.9810E+01E
 Epicentro: EL CARMEN - SANTANDER                                              3
 ACTION:UPD 17-06-16 13:37 OP:jn   STATUS:               ID:20170520071036 L   I
 OLDACT:UP  17-05-20 16:33 OP:cog  STATUS:               ID:20170520070639     3
 OLDACT:REG 17-05-20 12:29 OP:dnl  STATUS:               ID:20170520070639     3
 2017-05-20-0707-00M.COL___359                                                 6
 STAT SP IPHASW D HRMM SECON CODA AMPLIT PERI AZIMU VELO AIN AR TRES W  DIS CAZ7
 BRR  HZ EP        710 53.38                             147    0.7810 59.5 344 
 BRR  HE ES        711  4.74                             147   -0.2510 59.5 344 
 BRR  HZ I         711 14.03         4.2 0.12            149           59.5 344 
 RUS  HZ EP        710 55.50                             134   -0.4410 93.8 145 
 RUS  HN ES        711 10.93                             134   -0.0010 93.8 145 
 RUS  HZ I         711 12.66         2.4 0.24            143           93.8 145 
 PTB  HZ EP        710 55.41                             132   -0.2910 98.4 267 
 PTB  HN ES        711 10.43                             132   -0.0810 98.4 267 
 PTB  HZ I         711 11.76         3.0 0.22            141           98.4 267 
 SPBC HE ES        711 14.00                             127    0.1010  118 208 
 ZAR  HN ES   4    711 23.09                             115   -1.16 0  174 305 
 NOR  HN ES        711 26.37                             114    0.19 9  183 232 
 YPLC HZ EP        711  4.53                             113   -0.31 9  186 135 
 YPLC HN ES        711 27.14                             113    0.35 9  186 135 
                                                                                
