 2017  920 0040 19.7 L   6.814 -73.148150.8  RSN 11 0.4 2.6LRSN                1
 GAP= 65        0.93       2.7     3.6  5.4 -0.4117E+00  0.2252E+01  0.9554E+00E
 Epicentro: LOS SANTOS - SANTANDER                                             3
 ACTION:UPD 17-10-05 19:14 OP:rebc STATUS:               ID:20170920004020dL   I
 OLDACT:UP  17-09-20 17:32 OP:leo  STATUS:               ID:20170920002738d    3
 OLDACT:DUP 17-09-20 17:28 OP:leo  STATUS:               ID:20170920002738d    3
 2017-09-20-0028-00M.COL___444                                                 6
 STAT SP IPHASW D HRMM SECON CODA AMPLIT PERI AZIMU VELO AIN AR TRES W  DIS CAZ7
 BRR  HZ EP        040 41.07                             154   -0.3010 70.2 297 
 BRR  HZ IP     C  040 41.59                             154    0.2210 70.2 297 
 BRR  HN ES        040 58.82                             154    0.5710 70.2 297 
 BRR  HZ I         041  1.12        61.8 0.36            156           70.2 297 
 PAM  EZ IP     D  040 42.77                             152    0.3510 76.3  40 
 PAM  EN ES        040 59.98                             152   -0.1410 76.3  40 
 PAM  EZ I         041  3.04        33.1 0.48            149           76.3  40 
 RUS  HZ EP        040 43.86                             144   -0.2310  102 176 
 RUS  HN ES        041  2.41                             144   -0.6810  102 176 
 RUS  HZ I         041  5.34        59.0 0.36            142            102 176 
 TAM  HZ IP     D  040 48.24                             132    0.36 9  156 106 
 TAM  HZ I         041  9.16        32.7 0.34            128            156 106 
 TAM  HN ES   1    041  9.93                             132    0.11 7  156 106 
 YPLC HZ IP     D  040 50.23                             127    0.18 9  178 151 
 YPLC HN ES        041 13.99                             127    0.30 9  178 151 
 YPLC HZ I         041 16.95        24.0 0.42            124            178 151 
 NOR  HZ EP        040 55.95                             119    0.12 8  235 234 
 NOR  HN ES        041 23.65                             119   -0.34 8  235 234 
 NOR  HZ I         041 28.79        25.2 0.18            118            235 234 
 CHI  HZ EP        040 58.03                             118    0.16 8  250 195 
 CHI  HN ES        041 27.38                             118   -0.24 8  250 195 
 CHI  HZ I         041 29.73        39.5 0.34            116            250 195 
 ROSC BZ EP   9    041  0.43                             118    2.17 0  254 211 
 ROSC BN ES        041 31.21                             117    0.73 8  254 211 
 ROSC BZ I         041 34.53        72.8 0.40            116            254 211 
 GUY2CHZ EP        041  4.18                             113    0.52 7  302 234 
 GUY2CHN ES   4    041 41.46                             113    3.55 0  302 234 
 PTGC HZ EP   3    041  2.96                             112   -1.04 2  310 159 
 PTGC HN ES   3    041 36.98                             112   -1.54 2  310 159 
 LL6C HZ EP        041  5.16                             111   -0.31 7  323 358 
 LL6C HN ES        041 40.35                             111   -0.79 7  323 358 
                                                                                
