 2011  720 0030  5.9 L   6.770 -73.089148.6  RSN 11 0.3 2.0LRSN                1
 GAP=145        0.52       2.2     4.0  3.8 -0.2122E+01  0.3457E+01  0.4588E+00E
 Epicentro: LOS SANTOS - SANTANDER                                             3
 ACTION:UPD 12-07-25 14:02 OP:epov STATUS:               ID:20110720003005 L   I
 2011-07-20-0027-37S.COL___142                                                 6
 STAT SP IPHASW D HRMM SECON CODA AMPLIT PERI AZIMU VELO AIN AR TRES W  DIS CAZ7
 BAR2 SZ EP        030 25.67                             171   -0.2110 22.2 208 
 BAR2 SZ ES   1    030 41.57                             171    0.13 7 22.2 208 
 BAR2 SZ I         030 42.52        20.3 0.31                          22.2 208 
 PAM  SZ EP        030 28.54                             152    0.1610 76.3  34 
 PAM  SE ES   1    030 45.81                             152   -0.09 7 76.3  34 
 BRR  HZ EP   1    030 27.76                             151   -0.03 7 78.2 298 
 BRR  HN ES   1    030 44.73                             151   -0.11 7 78.2 298 
 BRR  HZ I         030 47.36        37.7 0.17                          78.2 298 
 RUS  HZ EP   1    030 29.58                             145   -0.14 7 97.1 180 
 RUS  HE ES   1    030 48.27                             145    0.00 7 97.1 180 
 RUS  HZ I         030 49.66         7.7 0.33                          97.1 180 
 BRI  SZ EP   1    030 30.19                             142    0.02 7  109  17 
 BRI  SZ I         030 51.02        10.3 0.25                           109  17 
 OCA  SZ EP   1    030 34.66                             129   -0.19 7  164 351 
 OCA  SZ ES   1    030 57.62                             129    0.22 7  164 351 
 OCA  SZ I         031  2.14        16.5 0.15                           164 351 
 NOR  SN ES   2    031 10.07                             119   -0.37 4  238 236 
 CHI  HZ EP   1    030 43.63                             118    0.00 6  247 197 
 CHI  HN ES   1    031 13.38                             118    0.34 6  247 197 
 CHI  HZ I         031 17.24         5.8 0.40                           247 197 
 HEL  HZ EP   1    030 47.81                             115    0.94 6  277 257 
 DBB  SZ EP   1    030 53.79                             110   -0.47 5  346 275 
 PRA  HZ EP   1    030 59.17                             107   -0.41 4  392 211 
                                                                                
