 2013  420 0506 32.2 L   6.770 -73.199154.3  RSN  5 0.4 1.4LRSN                1
 GAP=177        0.55       4.1     5.7  7.6  0.7977E+01 -0.1292E+02 -0.1184E+02E
 Epicentro: VILLANUEVA - SANTANDER                                             3
 ACTION:UPD 13-05-22 14:39 OP:EP   STATUS:               ID:20130420050632 L   I
 2013-04-20-0500-00M.COL___250                                                 6
 STAT SP IPHASW D HRMM SECON CODA AMPLIT PERI AZIMU VELO AIN AR TRES W  DIS CAZ7
 BRR  HZ EP        5 6 54.13                             155    0.0810 67.8 303 
 BRR  HN ES   2    5 7 11.16                             155    0.03 5 67.8 303 
 RUS  HZ EP        5 6 56.68                             146    0.1110 97.9 172 
 RUS  HN ES   2    5 7 15.22                             146   -0.39 5 97.9 172 
 RUS  HZ I         5 7 15.94         1.4 0.48            153           97.9 172 
 PTB  HZ EP        5 6 59.46                             135    0.19 9  141 260 
 PTB  HN ES   1    5 7 20.37                             135   -0.05 7  141 260 
 PTB  HZ I         5 7 24.74         2.8 0.54            137            141 260 
 OCA  HN ES   3    5 7 25.51                             131    1.33 2  163 355 
 SML  HZ EP        5 7  9.00                             119   -0.34 8  244 337 
 SML  HN ES   2    5 7 37.66                             119   -0.68 4  244 337 
 SML  HZ I         5 7 44.71         3.8 0.32            121            244 337 
                                                                                
