 2013  720 0413 46.4 L   6.798 -73.146144.3  RSN 10 0.5 2.1LRSN                1
 GAP=183        1.05       3.6     5.6  7.9  0.1101E+01  0.8721E+01 -0.4190E+01E
 Epicentro: LOS SANTOS - SANTANDER                                             3
 ACTION:UPD 13-08-12 10:38 OP:ep   STATUS:               ID:20130720041346 L   I
 OLDACT:REG 13-07-20 08:38 OP:mh   STATUS:               ID:20130720040959     3
 2013-07-20-0409-59M.COL___267                                                 6
 STAT SP IPHASW D HRMM SECON CODA AMPLIT PERI AZIMU VELO AIN AR TRES W  DIS CAZ7
 BAR2 SZ EP   1    414  5.95                             171    0.10 7 23.1 190 
 BAR2 SZ ES   1    414 21.04                             171    0.03 7 23.1 190 
 BAR2 SZ I         414 22.69        11.9 0.26            171           23.1 190 
 BRR  HZ EP        414  7.83                             152    0.4410 71.2 299 
 BRR  HN ES        414 24.71                             152    0.9510 71.2 299 
 BRR  HN I         414 27.98        22.0 0.20            149           71.2 299 
 RUS  HZ EP   1    414 10.16                             144    0.17 7  100 176 
 RUS  HN ES        414 27.87                             144   -0.5210  100 176 
 RUS  HN I         414 30.14        11.3 0.20            148            100 176 
 PTB  HZ EP   1    414 12.81                             132   -0.42 7  148 259 
 PTB  HN ES        414 33.78                             132   -0.38 9  148 259 
 PTB  HN I         414 38.96        13.5 0.62            132            148 259 
 OCA  HN ES        414 36.21                             129   -0.41 9  160 353 
 OCA  HN I         414 45.80        30.9 0.18            130            160 353 
 SPBC HZ EP   1    414 14.96                             129    0.20 7  163 219 
 SPBC HN ES   2    414 36.84                             129   -0.04 5  163 219 
 ZAR  HZ EP   1    414 19.61                             122    0.86 6  204 292 
 ZAR  HE ES        414 43.82                             122   -0.16 9  204 292 
 ZAR  HZ I         414 50.83        11.5 0.36            122            204 292 
 NOR  HN ES        414 49.69                             118   -0.11 8  234 234 
 NOR  HN I         414 58.47        11.5 0.14            120            234 234 
 SML  HZ EP   1    414 22.94                             117   -0.02 6  244 335 
 SML  HN ES        414 50.84                             117   -0.64 8  244 335 
 SML  HN I         414 58.45        25.3 0.10            118            244 335 
 SJC  HZ EP   4    414 40.83                             106   -1.10 0  409 327 
 SJC  HN ES   4    415 22.18                             106   -3.06 0  409 327 
 SJC  HN I         415 26.55         1.8 0.14            106            409 327 
                                                                                
