 2017  420 0522 55.0 L   6.797 -73.197142.0  RSN  5 0.2 1.0LRSN                1
 GAP=130        0.67       3.5     3.7  5.4  0.8028E+00  0.1025E+01 -0.2321E+01E
 Epicentro: ZAPATOCA - SANTANDER                                               3
 ACTION:UPD 17-05-30 21:14 OP:jn   STATUS:               ID:20170420052255 L   I
 OLDACT:UP  17-04-20 15:39 OP:cog  STATUS:               ID:20170420051738     3
 OLDACT:REG 17-04-20 13:18 OP:cog  STATUS:               ID:20170420051738     3
 2017-04-20-0518-00M.COL___365                                                 6
 STAT SP IPHASW D HRMM SECON CODA AMPLIT PERI AZIMU VELO AIN AR TRES W  DIS CAZ7
 BAR2 EZ EP        523 14.00                             170   -0.1210 22.6 176 
 BAR2 EZ ES        523 28.76                             170   -0.3010 22.6 176 
 PAM  EZ EP        523 16.99                             148   -0.0310 81.4  42 
 PAM  EN ES        523 34.32                             148    0.0910 81.4  42 
 PAM  EZ I         523 35.93         2.7 0.40            152           81.4  42 
 RUS  HZ EP        523 18.26                             143   -0.0910  101 173 
 RUS  HN ES        523 36.86                             143    0.2610  101 173 
 RUS  HZ I         523 38.08         1.1 0.40            145            101 173 
 PTB  HZ EP   9    523 21.12                             132    0.02 0  142 259 
 PTB  HN ES        523 41.01                             131   -0.50 9  142 259 
 PTB  HZ I         523 45.57         1.3 0.18            132            142 259 
 ZAR  HN ES        523 51.58                             122    0.25 9  199 293 
                                                                                
