 2017  220 0220  5.6 L   6.790 -73.157147.5  RSN 33 0.6 3.3LRSN                1
 GAP= 65        0.89       2.4     2.3  3.8  0.1721E+00  0.2776E+01  0.1358E+01E
 Epicentro: LOS SANTOS - SANTANDER                                             3
 ACTION:UPD 17-05-24 15:38 OP:jn   STATUS:               ID:20170220022005 L   I
 OLDACT:UP  17-02-20 14:06 OP:dani STATUS:               ID:20170220021745     3
 OLDACT:UP  17-02-20 14:05 OP:dani STATUS:               ID:20170220021745     3
 OLDACT:REG 17-02-20 12:18 OP:dani STATUS:               ID:20170220021745     3
 2017-02-20-0218-00M.COL___351                                                 6
 STAT SP IPHASW D HRMM SECON CODA AMPLIT PERI AZIMU VELO AIN AR TRES W  DIS CAZ7
 BAR2 EZ IP     C  220 25.59                             171    0.1410 22.0 187 
 BAR2 HN ES        220 40.64                             171   -0.2710 22.0 187 
 BAR2 EZ I         220 42.03       598.2 0.32            166           22.0 187 
 BRR  HZ IP     D  220 27.53                             153    0.5910 70.6 300 
 BRR  HE ES        220 43.36                             153   -0.2010 70.6 300 
 BRR  HZ I         220 50.69       362.9 0.14            151           70.6 300 
 PAM  EZ IP     D  220 28.42                             150    0.2810 79.1  40 
 PAM  EE ES        220 45.21                             150   -0.4810 79.1  40 
 PAM  EZ I         220 47.65       502.6 0.56            155           79.1  40 
 RUS  HZ EP     C  220 29.48                             144   -0.0110 99.6 175 
 RUS  HN ES        220 48.07                             144   -0.0210 99.6 175 
 RUS  HZ I         220 49.01       347.6 0.22            141           99.6 175 
 PTB  HZ EP     D  220 32.11                             132   -0.51 9  146 259 
 PTB  HN ES        220 53.91                             132    0.25 9  146 259 
 PTB  HZ I         220 58.74       312.9 0.22            130            146 259 
 TAM  HZ IP     C  220 33.81                             130    0.27 9  156 104 
 TAM  HN ES        220 55.09                             130   -0.22 9  156 104 
 TAM  HZ I         220 56.50       113.0 0.54            131            156 104 
 ZAR  HZ EP        220 38.23                             122    0.11 9  203 293 
 ZAR  HE ES        221  4.13                             122    0.68 9  203 293 
 ZAR  HZ I         221 10.30       367.8 0.30            122            203 293 
 NOR  HZ EP        220 41.57                             119    0.28 8  233 234 
 NOR  HN ES        221  9.56                             119    0.47 8  233 234 
 NOR  HZ I         221 16.65       240.6 0.20            117            233 234 
 CHI  HZ EP        220 43.67                             117    0.39 8  247 195 
 CHI  HN ES        221 12.38                             117   -0.26 8  247 195 
 CHI  HZ I         221 19.00       100.0 0.26            116            247 195 
 ROSC BZ EP   9    220 45.42                             117    1.74 0  251 211 
 ROSC BN ES        221 13.67                             117   -1.42 8  251 211 
 ROSC BZ I         221 23.49       236.6 0.40            115            251 211 
 URE  HZ EP        220 45.84                             114   -0.87 7  283 292 
 URE  HN ES   3    221 17.18                             114   -1.56 2  283 292 
 URE  HZ I         221 20.17       179.4 0.14            113            283 292 
 VIL  EZ EP        220 49.25                             112    0.27 7  302 191 
 VIL  EN ES        221 22.85                             112    0.06 7  302 191 
 VIL  EZ I         221 34.93       120.0 0.32            111            302 191 
 PTGC HZ IP   3 C  220 48.56                             111   -0.95 2  308 158 
 PTGC HE ES   4    221 21.60                             111   -2.13 0  308 158 
 PTGC HZ I         221 26.68        95.4 0.26            111            308 158 
 RECRCHZ EP   3    220 52.53                             111    1.41 2  316 230 
 RECRCHE ES   4    221 29.81                             111    3.21 0  316 230 
 NIZA HZ EP   4    220 53.76                             111    2.91 0  320 233 
 NIZA HN ES   4    221 31.66                             111    5.55 0  320 233 
 ELA  HZ EP   3    220 53.61                             110    1.24 2  327 229 
 ELA  HN ES        221 28.06                             110   -0.76 7  327 229 
 ELA  HZ I         221 39.08       130.3 0.76            109            327 229 
 CBOC HZ EP   3    220 53.53                             110    1.09 2  332 252 
 CBOC HE ES        221 28.21                             110   -0.74 7  332 252 
 CBOC HZ I         221 33.48        64.2 0.58            109            332 252 
 DBB  EZ EP        220 53.41                             109    0.36 7  338 274 
 DBB  EN ES        221 29.17                             109   -0.86 7  338 274 
 DBB  EZ I         221 35.05        86.2 0.20            109            338 274 
 ANIL HZ EP   3    220 56.66                             108    1.35 2  356 224 
 ANIL HE ES   3    221 33.26                             108   -0.80 2  356 224 
 ARGC HZ EP        220 56.07                             108    0.64 6  360 341 
 ARGC HE ES   3    221 34.91                             108    0.64 2  360 341 
 ARGC HZ I         221 36.88        35.4 0.24            108            360 341 
 PRA  HZ EP        220 58.92                             106   -0.11 6  390 209 
 PRA  HN ES        221 40.91                             106    0.23 6  390 209 
 PRA  HZ I         221 47.03        98.4 0.18            106            390 209 
 ORTC HZ EP        220 59.86                             106    0.44 6  394 216 
 ORTC HN ES   3    221 43.00                             106    1.63 1  394 216 
 ORTC HZ I         221 49.78        93.8 0.34            106            394 216 
 APAC HZ IP     C  220 59.94                             106    0.16 6  397 288 
 APAC HN ES        221 41.39                             106   -0.63 6  397 288 
 APAC HZ I         221 45.69        43.6 0.44            106            397 288 
 SJC  HZ IP   3 C  220 59.68                             106   -1.60 1  409 327 
 SJC  HN ES   4    221 41.47                             106   -3.22 0  409 327 
 SJC  HZ I         221 45.79       105.4 0.48            106            409 327 
 CRJC HZ EP   3    221  6.03                             103   -2.30 1  469   4 
 CRJC HE ES   4    221 52.78                             103   -4.45 0  469   4 
 CRJC HZ I         221 59.43        51.7 0.48            104            469   4 
 YOT  HZ EP        221  8.21                             103   -0.32 5  470 229 
 YOT  HE ES   4    221 54.75                             103   -2.83 0  470 229 
 SMAR HZ EP   1    221 10.75                             102   -0.90 3  498 346 
 SMAR HN ES   4    221 59.55                             102   -3.58 0  498 346 
 SMAR HZ I         222  2.63        23.9 0.09            102            498 346 
 MACC HZ EP   3    221 12.61                             102   -1.62 1  519 189 
 MACC HN ES   4    222  4.19                             102   -3.55 0  519 189 
 MACC HZ I         222 10.95        26.7 0.66            101            519 189 
 MARO HZ EP        221 16.60                             101    0.10 4  535 216 
 MARO HN ES   3    222 13.14                             101    1.36 1  535 216 
 MARO HZ I         222 19.36        10.9 0.52            101            535 216 
 JAMC HZ EP        221 19.02                             101    0.23 4  555 225 
 JAMC HN ES   3    222 14.62                             101   -1.22 1  555 225 
 JAMC HZ I         222 21.89         7.5 0.18            100            555 225 
 URI  HZ EP   4    221 16.29                             100   -2.55 0  558  13 
 GARC HZ EP   3    221 19.65                             100   -1.09 1  571 207 
 GARC HN ES   4    222 15.83                             100   -3.49 0  571 207 
 GARC HZ I         222 19.04        28.2 0.24            100            571 207 
 CONO HZ EP        221 26.90                              99    1.06 3  610 216 
 CONO HZ I         223  0.48         8.1 0.46             99            610 216 
 FLO2 HZ EP        221 28.17                              99   -0.43 2  639 206 
 FLO2 HZ I         222 39.06         4.3 0.46             98            639 206 
 SOTO HZ EP   3    221 30.70                              99    1.21 1  641 217 
                                                                                
