 2011  320 0634 12.1 L   6.813 -73.204134.3  RSN  7 0.4 1.8LRSN                1
 GAP=152        0.91       4.5     7.8  8.9 -0.1419E+02  0.2874E+02 -0.4440E+01E
 Epicentro: ZAPATOCA - SANTANDER                                               3
 ACTION:UP  11-06-16 14:34 OP:jfem STATUS:               ID:20110320063412 L   I
 2011-03-20-0631-53S.COL___136                                                 6
 STAT SP IPHASW D HRMM SECON CODA AMPLIT PERI AZIMU VELO SNR AR TRES W  DIS CAZ7
 BTL  SZ EP   1    634 30.73                             174     0.6 7   14 329 
 BAR2 SZ EP        634 30.57                             169     0.210   25 175 
 BAR2 SZ ES   1    634 44.74                             169     0.1 7   25 175 
 BAR2 SZ I         634 46.64        17.9 0.36                            25 175 
 RUS  HZ EP        634 34.67                             141    -0.210  103 173 
 RUS  HN ES   1    634 52.89                             141     0.2 7  103 173 
 RUS  HZ I         634 55.11        10.8 0.30                           103 173 
 GRA  SZ EP        634 36.37                             134     0.010  127  20 
 GRA  SZ ES   1    634 54.76                             134    -0.6 7  127  20 
 GRA  SZ I         634 58.70        11.4 0.26                           127  20 
 NOR  SZ EP   1    634 46.75                             116     0.0 6  230 233 
 CHI  HZ EP   1    634 49.46                             115     0.3 6  248 194 
 CHI  HE ES   1    635 17.18                             115    -0.9 6  248 194 
 CHI  HZ I         635 21.65         3.2 0.28                           248 194 
 HEL  HZ EP   2    634 51.96                             113     0.9 4  266 255 
 HEL  HN ES   1    635 21.08                             113    -0.4 6  266 255 
 HEL  HZ I         635 29.28         4.3 0.50                           266 255 
                                                                                
