 2017 1220 0539  8.7 L   6.127 -73.897 40.0  RSN 16 0.7 1.7LRSN                1
 GAP= 71        1.51       2.9     3.5  7.9 -0.1652E+01  0.2214E+01 -0.5894E+00E
 Epicentro: EL PENON - SANTANDER                                               3
 ACTION:UPD 18-01-04 13:22 OP:rebc STATUS:               ID:20171220053908 L   I
 OLDACT:REG 17-12-20 12:55 OP:dhb  STATUS:               ID:20171220052428     3
 2017-12-20-0538-00M.COL___452                                                 6
 STAT SP IPHASW D HRMM SECON CODA AMPLIT PERI AZIMU VELO AIN AR TRES W  DIS CAZ7
 SPBC HZ IP     D  539 22.98                             147   -0.5310 56.0 200 
 SPBC HE ES        539 34.63                             147   -0.4010 56.0 200 
 SPBC HZ I         539 36.11        27.0 0.40            137           56.0 200 
 PTB  HZ IP     C  539 24.31                             137   -0.7210 76.9 306 
 PTB  HE ES        539 37.62                             137   -0.1110 76.9 306 
 PTB  HZ I         539 39.30        12.8 0.12            131           76.9 306 
 BAR2 EZ IP     D  539 27.05                             131    0.1610 94.3  57 
 BAR2 EZ ES        539 41.50                             131    0.4510 94.3  57 
 BAR2 EZ I         539 44.48        28.4 0.36            125           94.3  57 
 ROSC BZ EP        539 32.71                             118   -0.14 9  150 198 
 ROSC BN ES        539 52.37                             118    0.72 9  150 198 
 ROSC BZ I         539 58.40         7.7 0.35            110            150 198 
 CVER HZ EP        539 36.66                             113    0.45 9  179 186 
 CVER HZ I         540 10.78         6.8 0.58            107            179 186 
 ZAR  HZ EP        539 36.47                             112    0.16 9  185 325 
 ZAR  HE ES        539 58.54                             112    0.72 9  185 325 
 ZAR  HZ I         540  7.10        11.5 0.16            107            185 325 
 YPLC HZ EP        539 36.08                             112   -0.52 9  186 116 
 YPLC HE ES        539 58.27                             112   -0.06 9  186 116 
 YPLC HZ I         539 59.48        10.2 0.32            106            186 116 
 PAM  EZ EP   2    539 39.13                             112    1.78 4  188  45 
 PAM  EN ES        539 59.28                             112   -0.39 9  188  45 
 PAM  EZ I         540  2.44         4.6 0.16            107            188  45 
 GUY2CHZ EP        539 37.06                             112   -0.56 9  191 239 
 GUY2CHE ES   2    540  1.84                             112    1.70 4  191 239 
 GUY2CHZ I         540  4.14         5.1 0.30                           191 239 
 CBOC HZ EP        539 43.10                             107    0.53 8  236 263 
 CBOC HE ES        540  9.45                             107    0.49 8  236 263 
 CBOC HZ I         540 12.54         2.1 0.46            102            236 263 
 OCA  HZ EP        539 43.48                             107    0.20 8  242  15 
 OCA  HE ES        540 10.62                             107    0.40 8  242  15 
 URE  HZ EP        539 43.04                             106   -1.60 8  255 315 
 URE  HE ES        540 11.59                             106   -1.05 8  255 315 
 URE  HZ I         540 19.00         6.1 0.18            101            255 315 
 ORTC HZ EP        539 47.86                             104   -0.73 7  287 211 
 ORTC HE ES        540 21.03                             104    1.36 7  287 211 
 ORTC HZ I         540 25.90         3.5 0.16             99            287 211 
 PRA  HZ EP        539 48.00                             104   -0.74 7  288 202 
 PRA  HN ES        540 20.13                             104    0.19 7  288 202 
 PRA  HZ I         540 25.68         4.7 0.36             99            288 202 
 DRL03HZ EP        539 59.32                             101    1.41 6  364   7 
 DRL03HE ES        540 36.47                             101    0.21 6  364   7 
 SJC  HZ EP   9    540  5.93                              99   -1.46 0  440 341 
 SJC  HN ES        540 51.92                                    0.25 5  440 341 
 SJC  HZ I         540 54.33         1.6 0.62             96            440 341 
                                                                                
