 2014  920 0355 58.3 L   6.776 -73.109143.7  RSN  9 0.4 1.5LRSN                1
 GAP=142        0.81       3.2     3.9  5.5 -0.1100E+00  0.2541E+01 -0.7632E+00E
 Epicentro: LOS SANTOS - SANTANDER                                             3
 ACTION:UPD 14-10-03 23:06 OP:nd   STATUS:               ID:20140920035558 L   I
 OLDACT:REG 14-09-20 12:21 OP:spq  STATUS:               ID:20140920034812     3
 2014-09-20-0348-12M.COL___293                                                 6
 STAT SP IPHASW D HRMM SECON CODA AMPLIT PERI AZIMU VELO AIN AR TRES W  DIS CAZ7
 BAR2 SZ EP        356 17.72                             171    0.0310 21.9 202 
 BAR2 SZ ES   1    356 32.23                             171   -0.55 7 21.9 202 
 BAR2 SZ I         356 36.36         4.0 0.50            173           21.9 202 
 BRR  HZ EP        356 19.63                             151    0.0810 76.0 299 
 BRR  HN ES        356 36.81                             151    0.7210 76.0 299 
 BRR  HZ I         356 37.71         5.3 0.26            150           76.0 299 
 PAM  SZ EP        356 20.59                             151    0.2810 77.0  36 
 PAM  SN ES   1    356 37.17                             151   -0.27 7 77.0  36 
 PAM  SZ I         356 40.02         5.1 0.70            151           77.0  36 
 RUS  HZ EP        356 21.87                             144    0.1910 97.7 178 
 RUS  HN ES   1    356 39.78                             144   -0.11 7 97.7 178 
 RUS  HZ I         356 41.34         3.2 0.28            149           97.7 178 
 PTB  HZ EP   1    356 25.53                             131    0.07 7  151 260 
 PTB  HE ES   1    356 46.12                             131   -0.49 7  151 260 
 PTB  HZ I         356 47.96         3.3 0.46            132            151 260 
 SPBC HZ EP        356 26.80                             129    0.07 9  164 221 
 SPBC HE ES        356 48.68                             129   -0.20 9  164 221 
 SPBC HZ I         356 49.82         3.9 0.16            131            164 221 
 ZAR  HN ES        356 56.84                             121    0.11 8  209 292 
 ZAR  HZ I         357  2.48         3.9 0.56            122            209 292 
 SML  HZ EP        356 34.68                             117   -0.62 8  248 335 
 SML  HN ES   1    357  3.59                             117   -0.53 6  248 335 
 SML  HZ I         357 10.84         2.9 0.22            118            248 335 
 GUY2CHZ EP   1    356 42.15                             112    0.09 5  303 236 
 GUY2CHE ES   4    357 20.31                             112    4.15 0  303 236 
 GUY2CHZ I         357 22.74         1.3 0.38                           303 236 
                                                                                
