 2014  220 0325  6.4 L   6.768 -73.136145.8  RSN  5 0.4 1.4LRSN                1
 GAP=139        1.05       5.3     5.2 10.7 -0.4814E+01  0.2346E+02 -0.1292E+02E
 Epicentro: LOS SANTOS - SANTANDER                                             3
 ACTION:UPD 14-03-10 08:11 OP:ep   STATUS:               ID:20140220032506 L   I
 OLDACT:DUP 14-02-20 12:15 OP:fm   STATUS:               ID:20140220032001d    3
 OLDACT:REG 14-02-20 08:12 OP:fm   STATUS:               ID:20140220032000     3
 2014-02-20-0320-00M.COL___212                                                 6
 STAT SP IPHASW D HRMM SECON CODA AMPLIT PERI AZIMU VELO AIN AR TRES W  DIS CAZ7
 PAM  SZ EP        325 28.82                             150    0.0810 79.5  37 
 PAM  SN ES        325 45.93                             150   -0.2410 79.5  37 
 PAM  SZ I         325 48.38         3.5 0.49            152           79.5  37 
 RUS  HZ EP   1    325 30.12                             145    0.23 7 97.0 177 
 RUS  HN ES        325 48.55                             145    0.3310 97.0 177 
 RUS  HZ I         325 49.35         3.3 0.26            149           97.0 177 
 PTB  HZ EP        325 32.72                             132   -0.68 9  148 260 
 PTB  HN ES        325 53.90                             132   -0.57 9  148 260 
 PTB  HZ I         325 56.43         3.2 0.12            134            148 260 
 SPBC HN ES   1    325 56.88                             129    0.10 7  161 220 
 ZAR  HZ EP        325 39.30                             122    0.21 8  206 293 
 ZAR  HN ES        326  5.40                             122    0.81 8  206 293 
 ZAR  HZ I         326 10.13         5.1 0.26            124            206 293 
                                                                                
