 2012  120 0637 24.6 L   6.773 -73.135148.3  RSN  4 0.3 1.2LRSN                1
 GAP=236        0.81       8.7     8.4  8.7  0.3668E+02  0.4966E+01 -0.3707E+00E
 Epicentro: LOS SANTOS - SANTANDER                                             3
 ACTION:UP  12-02-03 08:19 OP:REBC STATUS:               ID:20120120063724 L   I
 2012-01-20-0630-00M.COL___187                                                 6
 STAT SP IPHASW D HRMM SECON CODA AMPLIT PERI AZIMU VELO SNR AR TRES W  DIS CAZ7
 BAR2 SZ EP   1    637 44.47                             172     0.0 7   21 195 
 BAR2 SZ ES   1    637 59.35                             172    -0.6 7   21 195 
 BAR2 SZ I         638  1.87         3.8 0.24                            21 195 
 BRR  HZ EP   1    637 46.42                             152     0.3 7   74 300 
 BRR  HZ I         637 48.57         2.9 0.39                            74 300 
 BRR  HE ES   1    638  3.20                             152     0.3 7   74 300 
 RUS  HZ EP   1    637 48.41                             145     0.1 7   98 177 
 RUS  HE ES   1    638  7.22                             145     0.3 7   98 177 
 RUS  HZ I         638  8.33         1.7 0.18                            98 177 
 PTB  HZ EP   1    637 51.20                             132    -0.6 7  148 260 
 PTB  HN ES   1    638 13.11                             132     0.1 7  148 260 
                                                                                
