 2017  420 0456 31.0 L   6.780 -73.122142.5  RSN  4 0.2 1.1LRSN                1
 GAP=140        0.58       3.1     4.0  5.2 -0.2602E+00  0.4051E+01  0.2516E+01E
 Epicentro: LOS SANTOS - SANTANDER                                             3
 ACTION:UPD 17-05-30 21:14 OP:jn   STATUS:               ID:20170420045631 L   I
 OLDACT:UP  17-04-20 15:36 OP:cog  STATUS:               ID:20170420044732d    3
 OLDACT:UP  17-04-20 15:33 OP:cog  STATUS:               ID:20170420044732d    3
 OLDACT:DUP 17-04-20 15:26 OP:cog  STATUS:               ID:20170420044732d    3
 2017-04-20-0448-00M.COL___365                                                 6
 STAT SP IPHASW D HRMM SECON CODA AMPLIT PERI AZIMU VELO AIN AR TRES W  DIS CAZ7
 BRR  HZ EP        456 52.19                             151    0.1710 74.5 299 
 BRR  HN ES        457  8.56                             151    0.1610 74.5 299 
 BRR  HZ I         457 13.25         3.7 0.32            151           74.5 299 
 PAM  EZ EP        456 53.03                             150    0.1210 77.5  37 
 PAM  EN ES        457  9.75                             150   -0.2210 77.5  37 
 PAM  EZ I         457 11.93         3.8 0.46            153           77.5  37 
 RUS  HZ EP        456 54.47                             144    0.1710 98.3 177 
 RUS  HN ES        457 12.39                             144   -0.0510 98.3 177 
 RUS  HZ I         457 13.64         1.4 0.34            148           98.3 177 
 PTB  HZ EP        456 57.54                             131   -0.39 9  150 260 
 PTB  HN ES   4    457 16.79                             131   -2.13 0  150 260 
 PTB  HZ I         457 19.78         1.4 0.28            133            150 260 
                                                                                
