 2015  720 0341 38.9 L   6.818 -73.155138.3  RSN 10 0.6 1.9LRSN                1
 GAP=134        1.30       3.9     5.0  8.0 -0.5087E+01  0.1885E+02 -0.4944E+01E
 Epicentro: LOS SANTOS - SANTANDER                                             3
 ACTION:UPD 15-09-08 21:49 OP:cam  STATUS:               ID:20150720034138 L   I
 OLDACT:REG 15-07-20 14:30 OP:stll STATUS:               ID:20150720033749     3
 2015-07-20-0337-49M.COL___334                                                 6
 STAT SP IPHASW D HRMM SECON CODA AMPLIT PERI AZIMU VELO AIN AR TRES W  DIS CAZ7
 BAR2 EZ EP        341 57.77                             169    0.1210 25.2 187 
 BAR2 EZ ES        342 12.54                             169    0.2510 25.2 187 
 BAR2 EZ I         342 15.39        14.5 0.28            170           25.2 187 
 PAM  EZ EP        342  0.51                             150    0.2610 76.5  41 
 PAM  EN ES        342 17.60                             150    0.6810 76.5  41 
 PAM  EZ I         342 19.87        10.9 0.52            154           76.5  41 
 RUS  HZ EP        342  1.71                             142   -0.3510  103 176 
 RUS  HZ I         342  2.63         4.4 0.26            147            103 176 
 RUS  HN ES        342 19.59                             142   -0.5410  103 176 
 CPBEREN ES        342 24.89                             130   -0.82 9  147 258 
 OCA  HZ EP        342  5.95                             128   -0.46 9  158 353 
 OCA  HN ES        342 28.10                             128    0.21 9  158 353 
 OCA  HZ I         342 32.70        21.1 0.18            130            158 353 
 ZAR  HZ EP        342 10.81                             121    0.15 9  202 292 
 ZAR  HN ES        342 35.61                             121    0.16 9  202 292 
 ZAR  HZ I         342 45.86         6.3 0.48            122            202 292 
 NOR  HZ EP        342 14.08                             117   -0.14 8  235 234 
 NOR  HN ES        342 41.06                             117   -0.72 8  235 234 
 NOR  HZ I         342 46.76         5.7 0.20            119            235 234 
 SML  HZ EP        342 14.09                             116   -0.75 8  241 335 
 SML  HN ES        342 42.25                             116   -0.65 8  241 335 
 SML  HZ I         342 44.73        11.4 0.16            118            241 335 
 HEL  HZ EP        342 19.64                             113    0.98 8  272 255 
 HEL  HN ES        342 50.34                             113    0.65 8  272 255 
 HEL  HZ I         342 57.06         4.6 0.30            115            272 255 
 GUY2CHZ EP        342 22.69                             111    0.51 7  301 234 
 GUY2CHN ES        342 56.98                             111    1.02 7  301 234 
 GUY2CHZ I         343  4.35         4.0 0.46                           301 234 
                                                                                
