 2017 1020 0559 35.2 L   6.803 -73.164142.6  RSN 10 0.4 1.9LRSN                1
 GAP=110        1.06       3.5     3.6  5.8  0.1540E+01  0.4255E+01  0.4733E+01E
 Epicentro: LOS SANTOS - SANTANDER                                             3
 ACTION:UPD 17-11-07 19:34 OP:rebc STATUS:               ID:20171020055935 L   I
 OLDACT:UP  17-10-20 15:37 OP:dani STATUS:               ID:20171020055736     3
 OLDACT:REG 17-10-20 13:12 OP:dani STATUS:               ID:20171020055736     3
 2017-10-20-0558-00M.COL___447                                                 6
 STAT SP IPHASW D HRMM SECON CODA AMPLIT PERI AZIMU VELO AIN AR TRES W  DIS CAZ7
 BAR2 EZ EP        559 54.20                             170   -0.2410 23.3 185 
 BAR2 EZ ES        6 0  8.93                             170   -0.5210 23.3 185 
 BAR2 EZ I         6 0 11.50        21.6 0.24            168           23.3 185 
 BRR  HZ EP        559 56.02                             153    0.1310 69.3 299 
 BRR  HN ES        6 0 12.90                             153    0.8710 69.3 299 
 BRR  HZ I         6 0 13.70        15.8 0.16            153           69.3 299 
 PAM  EZ EP        559 57.02                             150   -0.1110 78.5  41 
 PAM  EE ES        6 0 14.24                             150   -0.0110 78.5  41 
 PAM  EZ I         6 0 16.07        14.6 0.62            155           78.5  41 
 RUS  HZ EP        559 58.32                             143   -0.3410  101 175 
 RUS  HE ES        6 0 16.84                             143   -0.1310  101 175 
 RUS  HZ I         6 0 18.69        12.0 0.32            143            101 175 
 PTB  HZ EP        6 0  0.83                             132   -0.89 9  146 259 
 PTB  HN ES        6 0 21.94                             132   -0.48 9  146 259 
 PTB  HZ I         6 0 23.33         7.8 0.28            132            146 259 
 SPBC HZ EP        6 0  3.53                             128    0.19 9  162 218 
 SPBC HN ES        6 0 25.23                             128   -0.08 9  162 218 
 SPBC HZ I         6 0 32.59        11.2 0.28            129            162 218 
 YPLC HZ EP     C  6 0  4.72                             126   -0.16 9  178 151 
 YPLC HN ES        6 0 28.86                             126    0.83 9  178 151 
 YPLC HZ I         6 0 31.47         9.4 0.30            127            178 151 
 ZAR  HZ EP        6 0  7.68                             122    0.46 9  202 292 
 ZAR  HN ES        6 0 32.36                             122    0.15 9  202 292 
 ZAR  HZ I         6 0 37.93        11.1 0.66            123            202 292 
 NOR  HZ EP        6 0 10.67                             118    0.10 8  233 234 
 NOR  HE ES        6 0 38.44                             118    0.27 8  233 234 
 NOR  HZ I         6 0 45.37         5.5 0.20            119            233 234 
 CHI  HZ EP        6 0 12.82                             116    0.14 8  248 195 
 CHI  HN ES        6 0 42.18                             116    0.25 8  248 195 
 CHI  HZ I         6 0 45.67         3.5 0.55            117            248 195 
                                                                                
