 2017 1020 0107 53.6 L   6.816 -73.181144.6  RSN  4 0.3 1.1LRSN                1
 GAP=131        0.88       4.9     4.5  7.8 -0.2634E+01  0.2757E+01  0.5859E+01E
 Epicentro: ZAPATOCA - SANTANDER                                               3
 ACTION:UPD 17-11-07 19:34 OP:rebc STATUS:               ID:20171020010753 L   I
 OLDACT:UP  17-10-20 13:43 OP:dani STATUS:               ID:20171020005739d    3
 OLDACT:DUP 17-10-20 13:34 OP:dani STATUS:               ID:20171020005739d    3
 2017-10-20-0058-00M.COL___453                                                 6
 STAT SP IPHASW D HRMM SECON CODA AMPLIT PERI AZIMU VELO AIN AR TRES W  DIS CAZ7
 BRR  HZ EP        1 8 15.09                             154    0.6610 66.9 299 
 BRR  HZ ES        1 8 30.31                             154   -0.3310 66.9 299 
 PAM  EZ EP        1 8 15.85                             150    0.0410 78.6  43 
 PAM  EE ES        1 8 33.04                             150   -0.0510 78.6  43 
 PAM  EZ I         1 8 35.00         2.9 0.52            151           78.6  43 
 RUS  HZ EP        1 8 17.04                             143   -0.4010  103 174 
 RUS  HN ES        1 8 36.22                             143    0.2310  103 174 
 RUS  HZ I         1 8 36.60         2.7 0.32            144            103 174 
 PTB  HZ EP        1 8 19.89                             132   -0.32 9  144 258 
 PTB  HE ES        1 8 41.06                             132    0.14 9  144 258 
 PTB  HZ I         1 8 42.10         0.9 0.30            134            144 258 
                                                                                
