 2015  420 0516  4.9 L   6.802 -73.140138.2  RSN 10 0.4 1.5LRSN                1
 GAP=137        0.91       2.6     3.7  5.2 -0.1759E+01  0.6372E+01 -0.1841E+01E
 Epicentro: LOS SANTOS - SANTANDER                                             3
 ACTION:UPD 15-06-03 16:56 OP:cam  STATUS:               ID:20150420051604 L   I
 OLDACT:DUP 15-04-20 15:46 OP:fm   STATUS:               ID:20150420050744d    3
 OLDACT:REG 15-04-20 13:29 OP:ak   STATUS:               ID:20150420050743     3
 2015-04-20-0507-43M.COL___265                                                 6
 STAT SP IPHASW D HRMM SECON CODA AMPLIT PERI AZIMU VELO AIN AR TRES W  DIS CAZ7
 BAR2 EZ EP        516 23.91                             170    0.2510 23.6 191 
 BAR2 EZ ES        516 38.72                             170    0.4610 23.6 191 
 BAR2 EZ I         516 40.09         6.6 0.12            171           23.6 191 
 BRR  HZ EP        516 25.76                             151    0.4610 71.7 298 
 BRR  HN ES        516 41.31                             151    0.1310 71.7 298 
 BRR  HZ I         516 44.61         3.4 0.14            151           71.7 298 
 PAM  SZ EP     C  516 26.78                             149    0.4610 76.9  39 
 PAM  SN ES        516 42.93                             149   -0.0610 76.9  39 
 PAM  SZ I         516 46.24         4.1 0.66            153           76.9  39 
 RUS  HZ EP   1    516 27.44                             142   -0.52 7  101 176 
 RUS  HE ES        516 45.34                             142   -0.5710  101 176 
 RUS  HZ I         516 47.49         4.0 0.28            146            101 176 
 PTB  HZ EP        516 30.86                             130   -0.49 9  148 259 
 PTB  HE ES        516 51.78                             130   -0.18 9  148 259 
 PTB  HZ I         516 53.07         4.5 0.10            132            148 259 
 OCA  HZ EP   1    516 32.31                             128   -0.35 7  160 353 
 OCA  HE ES        516 54.37                             128    0.09 9  160 353 
 OCA  HZ I         516 57.89         6.7 0.20            130            160 353 
 SPBC HZ EP        516 32.88                             127   -0.03 9  164 219 
 SPBC HN ES        516 54.36                             127   -0.37 9  164 219 
 SPBC HZ I         517  0.98         5.7 0.18            130            164 219 
 ZAR  HZ EP        516 36.72                             121   -0.23 9  205 292 
 ZAR  HN ES        517  1.77                             121   -0.15 9  205 292 
 ZAR  HZ I         517  7.85         3.4 0.60            122            205 292 
 SML  HZ EP        516 41.27                             116    0.11 8  244 335 
 SML  HE ES        517  9.08                             116   -0.33 8  244 335 
 SML  HZ I         517 10.95         3.3 0.38            118            244 335 
 GUY2CHZ EP   1    516 49.11                             111    0.84 5  302 235 
 GUY2CHN ES        517 22.74                             111    0.67 7  302 235 
 GUY2CHZ I         517 30.20         2.1 0.28                           302 235 
                                                                                
