 2015 1120 0351 31.5 L   6.820 -73.124144.5  RSN 11 0.4 1.8LRSN                1
 GAP=138        0.95       2.8     3.8  5.7 -0.6633E+00  0.9071E+01 -0.8835E+00E
 Epicentro: LOS SANTOS - SANTANDER                                             3
 ACTION:UPD 15-12-28 16:12 OP:cam  STATUS:               ID:20151120035131 L   I
 OLDACT:REG 15-11-20 13:05 OP:ak   STATUS:               ID:20151120034736     3
 2015-11-20-0347-36M.COL___316                                                 6
 STAT SP IPHASW D HRMM SECON CODA AMPLIT PERI AZIMU VELO AIN AR TRES W  DIS CAZ7
 BAR2 EZ EP     D  351 51.20                             169    0.1710 26.0 194 
 BAR2 EZ ES        352  6.22                             169   -0.0510 26.0 194 
 BAR2 EZ I         352  8.59        14.9 0.24            169           26.0 194 
 BRR  HZ EP     D  351 52.93                             152    0.3610 72.3 296 
 BRR  HN ES        352  9.65                             152    0.6510 72.3 296 
 BRR  HZ I         352 13.27        10.7 0.36            152           72.3 296 
 PAM  EZ EP     C  351 54.15                             152    0.7710 74.1  39 
 PAM  EE ES        352 10.17                             152   -0.2810 74.1  39 
 PAM  EZ I         352 13.54         6.8 0.56            156           74.1  39 
 RUS  HZ EP        351 55.11                             143   -0.1710  103 177 
 RUS  HN ES        352 13.43                             143   -0.3910  103 177 
 RUS  HZ I         352 14.84         6.4 0.30            146            103 177 
 OCA  HN ES        352 21.19                             130   -0.20 9  158 352 
 SPBC HZ EP        352  0.05                             128   -0.16 9  166 219 
 SPBC HN ES        352 22.14                             128   -0.46 9  166 219 
 SPBC HZ I         352 29.40         6.4 0.37            130            166 219 
 ZAR  HZ EP   1    352  3.61                             122   -0.39 6  205 291 
 ZAR  HN ES        352 29.10                             122   -0.25 8  205 291 
 ZAR  HZ I         352 34.52         9.2 0.40            124            205 291 
 SML  HZ EP        352  7.63                             117   -0.31 8  243 335 
 SML  HN ES        352 36.14                             117   -0.22 8  243 335 
 HEL  HZ EP   2    352 12.26                             114    0.30 4  275 255 
 HEL  HE ES        352 43.85                             114    0.32 8  275 255 
 URE  HZ EP   1    352 11.82                             113   -0.84 6  285 291 
 URE  HN ES        352 44.46                             113   -0.31 7  285 291 
 GUY2CHZ EP   1    352 16.15                             112    0.74 5  304 235 
 GUY2CHN ES        352 50.24                             112    0.57 7  304 235 
 GUY2CHZ I         352 59.09         3.0 0.28                           304 235 
 MON  HZ EP   4    352 18.56                             108   -1.95 0  354 308 
 MON  HN ES   4    352 57.01                             108   -1.72 0  354 308 
 SJC  HZ EP   4    352 25.44                             105   -1.51 0  409 327 
 SJC  HN ES   4    353  7.82                             105   -2.38 0  409 327 
                                                                                
