 2011  820 0908 55.1 L   6.714 -73.145148.7  RSN  9 0.4 1.9LRSN                1
 GAP=182        0.58       2.9     4.5  4.9 -0.1050E+01  0.7040E+01  0.1090E+01E
 Epicentro: VILLANUEVA - SANTANDER                                             3
 ACTION:UPD 12-07-13 15:52 OP:ep   STATUS:               ID:20110820090855 L   I
 2011-08-20-0907-46S.COL___150                                                 6
 STAT SP IPHASW D HRMM SECON CODA AMPLIT PERI AZIMU VELO AIN AR TRES W  DIS CAZ7
 BAR2 SZ EP   1    9 9 14.92                             175   -0.01 7 14.0 197 
 BAR2 SZ ES   1    9 9 30.69                             175    0.30 7 14.0 197 
 BAR2 SZ I         9 9 33.07        12.7 0.35                          14.0 197 
 BRR  HZ EP        9 9 16.97                             151    0.1210 76.3 305 
 BRR  HE ES   1    9 9 33.92                             151    0.11 7 76.3 305 
 BRR  HZ I         9 9 36.70        22.2 0.14                          76.3 305 
 RUS  HZ EP   1    9 9 18.39                             147   -0.09 7 91.1 176 
 RUS  HE ES   1    9 9 36.22                             147   -0.50 7 91.1 176 
 RUS  HZ I         9 9 38.71         5.8 0.27                          91.1 176 
 OCA  SZ EP   1    9 9 24.08                             129   -0.44 7  170 354 
 OCA  SZ ES   2    9 9 48.16                             129    0.68 5  170 354 
 OCA  SZ I         9 9 50.03         6.6 0.28                           170 354 
 NOR  SN ES   2    9 9 57.86                             120   -0.12 4  229 236 
 CHI  HZ EP   2    9 9 32.78                             119    0.81 4  239 196 
 CHI  HN ES   2    910  1.29                             119    0.56 4  239 196 
 CHI  HZ I         910  8.14         5.0 0.40                           239 196 
 HEL  HZ EP   1    9 9 34.66                             116   -0.56 6  270 258 
 HEL  HN ES   1    910  6.34                             116   -0.18 6  270 258 
 HEL  HZ I         910 13.43         4.7 0.34                           270 258 
 RREF HZ EP   2    9 9 41.17                             112    0.50 3  316 231 
 RREF HE ES   2    910 16.19                             112   -0.03 3  316 231 
 RREF HZ I         910 27.32         5.0 0.09                           316 231 
 PRA  HZ EP   2    9 9 48.07                             107    0.32 3  384 210 
 PRA  HN ES   1    910 28.82                             107   -0.01 4  384 210 
                                                                                
