 2017  820 0415 22.1 L   6.785 -73.092134.0  RSN  4 0.3 1.1LRSN                1
 GAP=242        0.85       9.0    10.5  6.7  0.7901E+02  0.2143E+01 -0.7069E+01E
 Epicentro: LOS SANTOS - SANTANDER                                             3
 ACTION:UPD 17-09-04 20:22 OP:rebc STATUS:               ID:20170820041522 L   I
 OLDACT:REG 17-08-20 12:27 OP:lv   STATUS:               ID:20170820040739     3
 2017-08-20-0408-00M.COL___411                                                 6
 STAT SP IPHASW D HRMM SECON CODA AMPLIT PERI AZIMU VELO AIN AR TRES W  DIS CAZ7
 BAR2 EZ EP        415 40.44                             169    0.1010 23.5 205 
 BAR2 EZ ES        415 53.95                             169   -0.6110 23.5 205 
 BRR  HZ EP        415 42.63                             148    0.2410 77.3 298 
 BRR  HN ES        415 58.63                             148    0.4310 77.3 298 
 RUS  HZ EP        415 44.53                             142   -0.0610 98.6 179 
 RUS  HN ES        416  2.37                             142    0.2610 98.6 179 
 RUS  HZ I         416  4.09         1.1 0.38            135           98.6 179 
 ZAR  HZ EP        415 54.19                             119   -0.30 8  210 292 
 ZAR  HN ES        416 19.51                             119   -0.22 8  210 292 
 ZAR  HZ I         416 25.37         2.5 0.39            115            210 292 
                                                                                
