 2015  520 0452 12.1 L   6.762 -73.121148.6  RSN  8 0.4 1.8LRSN                1
 GAP=141        0.87       3.1     4.4  5.8 -0.1404E+01  0.5581E+01 -0.3079E+01E
 Epicentro: LOS SANTOS - SANTANDER                                             3
 ACTION:UPD 15-09-10 22:05 OP:cam  STATUS:               ID:20150520045212 L   I
 OLDACT:REG 15-05-20 12:27 OP:spq  STATUS:               ID:20150520044739     3
 2015-05-20-0447-39M.COL___288                                                 6
 STAT SP IPHASW D HRMM SECON CODA AMPLIT PERI AZIMU VELO AIN AR TRES W  DIS CAZ7
 BAR2 EZ EP        452 32.63                             172    0.6210 19.9 200 
 BAR2 EZ ES   1    452 47.45                             172   -0.08 7 19.9 200 
 BAR2 EZ I         452 48.12        15.3 0.20            173           19.9 200 
 BRR  HZ EP   1    452 34.05                             152    0.24 7 75.7 300 
 BRR  HN ES        452 51.32                             152    0.5810 75.7 300 
 BRR  HZ I         452 52.00         8.6 0.14            152           75.7 300 
 PAM  SZ EP     C  452 35.16                             151    0.4510 79.1  36 
 PAM  SN ES        452 52.00                             151   -0.3610 79.1  36 
 PAM  SZ I         452 54.51         8.5 0.48            152           79.1  36 
 RUS  HZ EP   1    452 35.76                             146   -0.06 7 96.2 177 
 RUS  HE ES   1    452 53.93                             146   -0.39 7 96.2 177 
 RUS  HZ I         452 55.66         5.2 0.32            147           96.2 177 
 SPBC HZ EP   1    452 40.73                             130    0.06 7  162 221 
 SPBC HE ES        453  2.47                             130   -0.49 9  162 221 
 SPBC HZ I         453  4.77         7.8 0.28            131            162 221 
 OCA  HZ EP        452 40.73                             129   -0.33 9  165 352 
 OCA  HE ES        453  3.38                             129   -0.26 9  165 352 
 OCA  HZ I         453  6.11        12.8 0.26            130            165 352 
 ZAR  HZ EP        452 45.22                             122    0.07 8  208 293 
 ZAR  HE ES        453 10.87                             122   -0.07 8  208 293 
 ZAR  HZ I         453 12.78         6.5 0.14            123            208 293 
 SML  HZ EP        452 49.13                             117   -0.29 8  249 335 
 SML  HN ES   1    453 18.29                             117   -0.25 6  249 335 
 SML  HZ I         453 20.26         6.0 0.09            118            249 335 
                                                                                
