 2015  820 0439  7.9 L   6.776 -73.133152.2  RSN 16 0.4 2.2LRSN                1
 GAP=111        0.83       2.4     3.0  4.8 -0.4924E+00  0.8864E-01  0.1081E+01E
 Epicentro: LOS SANTOS - SANTANDER                                             3
 ACTION:UPD 15-09-15 23:03 OP:cam  STATUS:               ID:20150820043907 L   I
 OLDACT:REG 15-08-20 12:42 OP:spq  STATUS:               ID:20150820043748     3
 2015-08-20-0437-48M.COL___337                                                 6
 STAT SP IPHASW D HRMM SECON CODA AMPLIT PERI AZIMU VELO AIN AR TRES W  DIS CAZ7
 BAR2 EZ EP        439 28.02                             172   -0.2710 21.0 195 
 BAR2 EZ ES   1    439 43.82                             172   -0.35 7 21.0 195 
 BAR2 EZ I         439 44.79        26.2 0.47            169           21.0 195 
 BRR  HZ EP        439 29.97                             153    0.0610 73.7 300 
 BRR  HN ES        439 47.23                             153    0.1710 73.7 300 
 BRR  HZ I         439 50.45        21.4 0.14            151           73.7 300 
 RUS  HZ EP        439 32.41                             146    0.2810 97.8 177 
 RUS  HN ES   1    439 50.98                             146   -0.02 7 97.8 177 
 RUS  HZ I         439 51.58        16.6 0.28            146           97.8 177 
 TAM  HZ EP     C  439 36.19                             132    0.25 9  153 104 
 SPBC HZ EP        439 36.92                             131    0.10 9  162 220 
 SPBC HE ES        439 59.13                             131   -0.22 9  162 220 
 SPBC HZ I         440  1.49        20.8 0.46            130            162 220 
 OCA  HZ EP        439 36.58                             131   -0.43 9  163 353 
 OCA  HN ES        440  0.34                             131    0.65 9  163 353 
 OCA  HZ I         440  2.15        31.1 0.20            132            163 353 
 ZAR  HZ EP        439 40.78                             123   -0.25 8  206 293 
 ZAR  HE ES        440  6.45                             123   -0.41 8  206 293 
 ZAR  HZ I         440 11.66        23.5 0.36            123            206 293 
 NOR  HZ EP        439 43.94                             120   -0.05 8  234 235 
 NOR  HE ES        440 12.42                             120    0.30 8  234 235 
 NOR  HZ I         440 15.70        13.1 0.18            120            234 235 
 CHI  HZ EP   1    439 45.95                             119    0.20 6  246 196 
 CHI  HN ES   1    440 15.46                             119    0.20 6  246 196 
 CHI  HZ I         440 25.12         6.0 0.32            119            246 196 
 SML  HZ EP        439 45.03                             118   -0.22 8  247 335 
 SML  HE ES   1    440 14.31                             118   -0.04 6  247 335 
 SML  HZ I         440 16.98        17.6 0.15            119            247 335 
 ROSC BZ EP   4    439 48.22                             118    1.98 0  251 212 
 ROSC BE ES   4    440 18.67                             118    2.55 0  251 212 
 ROSC BZ I         440 21.39        11.1 0.40            118            251 212 
 HEL  HZ EP   4    439 49.96                             116    1.41 0  273 256 
 HEL  HN ES   1    440 19.63                             116   -0.61 6  273 256 
 HEL  HZ I         440 27.41         8.5 0.58            116            273 256 
 GUY2CHZ EP        439 52.79                             114    1.00 7  301 235 
 GUY2CHN ES        440 26.16                             114    0.15 7  301 235 
 GUY2CHZ I         440 34.56         9.1 0.28                           301 235 
 PTGC HZ EP        439 50.89                             113   -0.85 7  306 159 
 PTGC HN ES   4    440 24.56                             113   -1.36 0  306 159 
 PTGC HZ I         440 26.10        13.7 0.50            114            306 159 
 CBOC HZ EP   4    439 56.50                             111    1.33 0  334 253 
 CBOC HE ES        440 32.11                             111    0.09 7  334 253 
 CBOC HZ I         440 33.70         2.3 0.43            111            334 253 
 SJC  HZ EP   4    440  2.01                             107   -2.05 0  412 327 
 SJC  HN ES   4    440 43.92                             107   -3.92 0  412 327 
 SJC  HZ I         440 47.36         1.7 0.28            107            412 327 
                                                                                
