 2015 1020 0404 36.5 L   6.812 -73.090148.4  RSN 13 0.5 1.5LRSN                1
 GAP=143        1.08       2.7     4.9  5.7 -0.3715E+00  0.9825E+01  0.3238E+00E
 Epicentro: LOS SANTOS - SANTANDER                                             3
 ACTION:UPD 15-12-22 20:41 OP:cam  STATUS:               ID:20151020040436 L   I
 OLDACT:UP  15-10-20 19:49 OP:mh   STATUS:               ID:20151020035740d    3
 OLDACT:UP  15-10-20 19:49 OP:mh   STATUS:               ID:20151020035740d    3
 OLDACT:DUP 15-10-20 19:40 OP:mh   STATUS:               ID:20151020035740d    3
 OLDACT:REG 15-10-20 12:35 OP:mh   STATUS:               ID:20151020035739     3
 2015-10-20-0357-39M.COL___337                                                 6
 STAT SP IPHASW D HRMM SECON CODA AMPLIT PERI AZIMU VELO AIN AR TRES W  DIS CAZ7
 BAR2 EZ EP   1    4 4 56.39                             169   -0.09 7 26.4 203 
 BAR2 EZ ES        4 5 11.31                             169   -0.7810 26.4 203 
 BAR2 EZ I         4 5 14.09         5.5 0.26            164           26.4 203 
 PAM  EZ EP   1    4 4 58.90                             153    0.21 7 72.5  36 
 PAM  EN ES        4 5 16.49                             153    0.4710 72.5  36 
 PAM  EZ I         4 5 18.40         4.4 0.52            156           72.5  36 
 BRR  HZ EP        4 4 58.45                             151    0.2710 76.1 295 
 BRR  HN ES        4 5 15.21                             151    0.0910 76.1 295 
 BRR  HZ I         4 5 21.34         3.9 0.10            146           76.1 295 
 RUS  HZ EP        4 4 59.90                             144   -0.6610  102 180 
 RUS  HN ES        4 5 19.33                             144   -0.0210  102 180 
 RUS  HZ I         4 5 22.27         2.1 0.24            141            102 180 
 OCA  HZ EP        4 5  5.13                             130    0.19 9  160 351 
 OCA  HN ES        4 5 27.62                             130    0.47 9  160 351 
 SPBC HZ EP        4 5  5.63                             129   -0.01 9  168 220 
 SPBC HN ES        4 5 28.16                             129   -0.23 9  168 220 
 SPBC HZ I         4 5 34.06         6.7 0.22            125            168 220 
 ZAR  HZ EP        4 5  9.30                             122   -0.33 8  209 291 
 ZAR  HE ES        4 5 36.38                             122    0.89 8  209 291 
 ZAR  HZ I         4 5 42.91         2.6 0.07            119            209 291 
 NOR  HZ EP        4 5 13.28                             118    0.31 8  241 235 
 NOR  HN ES        4 5 41.50                             118    0.05 8  241 235 
 NOR  HZ I         4 5 43.99         2.8 0.24            115            241 235 
 SML  HZ EP        4 5 12.96                             118   -0.44 8  245 334 
 SML  HN ES        4 5 41.41                             118   -0.80 8  245 334 
 SML  HZ I         4 5 45.76         5.5 0.10            116            245 334 
 CHI  HZ EP        4 5 14.67                             117    0.04 8  252 196 
 CHI  HN ES        4 5 45.11                             117    0.71 8  252 196 
 CHI  HZ I         4 5 56.31         1.4 0.36            115            252 196 
 HEL  HZ EP   1    4 5 17.51                             115   -0.00 6  278 256 
 HEL  HZ I         4 5 55.91         2.5 0.44            112            278 256 
 GUY2CHZ EP        4 5 21.31                             112    0.46 7  307 235 
 GUY2CHN ES   4    4 5 58.29                             112    2.81 0  307 235 
 MON  HN ES        4 6  3.85                             109   -0.86 6  358 308 
                                                                                
