 2010  920 0344 52.0 L   6.802 -73.087141.6  RSN  5 0.3 1.3LRSN                1
 GAP=165        0.70       3.8     8.2  8.6  0.4256E+00 -0.1862E+02 -0.3024E+01E
 Epicentro: LOS SANTOS - SANTANDER                                             3
 ACTION:UP  11-02-18 11:04 OP:tino STATUS:               ID:20100920034452 L   I
 2010-09-20-0343-41S.COL___121                                                 6
 STAT SP IPHASW D HRMM SECON CODA AMPLIT PERI AZIMU VELO SNR AR TRES W  DIS CAZ7
 BTL  SZ EP        345 11.63                             170     0.510   24 303 
 BRR  HZ EP        345 12.92                             150    -0.110   77 296 
 BRR  HE ES   1    345 29.43                             150     0.0 7   77 296 
 BRR  HZ I         345 30.56         5.7 0.02                            77 296 
 RUS  HZ EP        345 15.32                             143     0.010  101 180 
 RUS  HN ES   1    345 33.27                             143    -0.3 7  101 180 
 RUS  HZ I         345 35.27         2.4 0.20                           101 180 
 GRA  SZ EP   1    345 16.80                             136     0.1 7  124  15 
 GRA  SZ ES   1    345 35.88                             136    -0.1 7  124  15 
 OCA  SZ EP   1    345 19.60                             128    -0.4 7  161 351 
                                                                                
