 2012 1020 0201  3.2 L   6.704 -73.097132.6  RSN  5 0.3 1.5LRSN                1
 GAP=147        0.57       3.6     5.7  5.7 -0.8749E-01 -0.2840E+01  0.2409E+01E
 Epicentro: JORDAN - SANTANDER                                                 3
 ACTION:UPD 12-11-22 17:04 OP:ep   STATUS:               ID:20121020020103 L   I
 2012-10-20-0200-00M.COL___233                                                 6
 STAT SP IPHASW D HRMM SECON CODA AMPLIT PERI AZIMU VELO AIN AR TRES W  DIS CAZ7
 BAR2 SZ EP   1    2 1 21.30                             173    0.17 7 15.6 218 
 BAR2 SZ I         2 1 21.50         7.5 0.18                          15.6 218 
 BAR2 SZ ES   1    2 1 34.82                             173   -0.28 7 15.6 218 
 GIR2 SZ ES   1    2 1 36.30                             161    0.12 7 42.8 346 
 BRR  HZ EP   1    2 1 23.21                             146   -0.41 7 81.3 303 
 BRR  HN ES   1    2 1 39.76                             146    0.23 7 81.3 303 
 BRR  HZ I         2 1 44.36         9.2 0.14                          81.3 303 
 PAM  SZ EP   1    2 1 24.19                             146   -0.23 7 82.8  32 
 PAM  SE ES   1    2 1 41.07                             146    0.12 7 82.8  32 
 PAM  SE I         2 1 42.77        11.4 0.52                          82.8  32 
 RUS  HZ EP   1    2 1 25.33                             144    0.43 7 89.7 179 
 RUS  HN ES   1    2 1 41.66                             144   -0.15 7 89.7 179 
 RUS  HN I         2 1 44.03         2.6 0.42                          89.7 179 
                                                                                
