 2011  120 0025  2.7 L   6.755 -73.090142.8  RSN  8 0.3 1.8LRSN                1
 GAP=165        0.60       2.7     6.7  5.5 -0.8817E+01  0.1341E+02 -0.2315E+01E
 Epicentro: LOS SANTOS - SANTANDER                                             3
 ACTION:UP  11-02-08 08:41 OP:pat  STATUS:               ID:20110120002502 L   I
 2011-01-20-0021-15S.COL___138                                                 6
 STAT SP IPHASW D HRMM SECON CODA AMPLIT PERI AZIMU VELO SNR AR TRES W  DIS CAZ7
 BAR2 SZ EP   1    025 22.00                             171     0.1 8   21 210 
 BAR2 SZ ES   1    025 37.02                             171     0.1 8   21 210 
 BAR2 SZ I         025 38.70        22.0 0.22                            21 210 
 RUS  HZ EP   1    025 25.88                             145     0.1 8   95 180 
 RUS  HZ I         025 26.80         5.1 0.17                            95 180 
 RUS  HE ES   1    025 43.81                             145     0.1 8   95 180 
 GRA  SZ EP        025 27.86                             136    -0.110  129  14 
 GRA  SZ ES   1    025 47.11                             136    -0.5 7  129  14 
 GRA  SZ I         025 50.09         6.9 0.56                           129  14 
 OCA  SZ EP   1    025 31.32                             128     0.0 7  166 351 
 OCA  SZ ES   1    025 54.03                             128     0.4 7  166 351 
 OCA  SZ I         025 57.93         7.7 0.26                           166 351 
 NOR  SZ EP   2    025 37.97                             118    -0.5 4  237 236 
 NOR  SN ES   2    026  6.09                             118    -0.3 4  237 236 
 CHI  HZ EP   1    025 40.23                             117     0.4 6  246 197 
 CHI  HZ I         025 40.75         3.8 0.20                           246 197 
 CHI  HE ES   1    026  8.41                             117    -0.5 6  246 197 
 HEL  HZ EP   2    025 43.10                             114    -0.2 4  277 257 
 HEL  HZ I         026 20.66         4.3 0.33                           277 257 
 RREF HZ EP   2    025 49.50                             110     0.6 4  323 231 
 RREF HE ES   2    026 24.96                             110     0.1 4  323 231 
 RREF HZ I         026 30.79         4.1 0.32                           323 231 
                                                                                
