 2015  720 0738 53.8 L   6.847 -73.072139.6  RSN  6 0.3 1.4LRSN                1
 GAP=191        0.69       2.9     4.9  5.7  0.2892E+01  0.1528E+02  0.7588E+00E
 Epicentro: LOS SANTOS - SANTANDER                                             3
 ACTION:UPD 15-09-08 21:49 OP:cam  STATUS:               ID:20150720073853 L   I
 OLDACT:REG 15-07-20 14:44 OP:stll STATUS:               ID:20150720073744     3
 2015-07-20-0737-44M.COL___331                                                 6
 STAT SP IPHASW D HRMM SECON CODA AMPLIT PERI AZIMU VELO AIN AR TRES W  DIS CAZ7
 BAR2 EZ EP        739 12.74                             167   -0.1210 30.7 203 
 BAR2 EZ ES        739 28.01                             167    0.2810 30.7 203 
 BAR2 EZ I         739 29.65         4.2 0.36            160           30.7 203 
 RUS  HZ EP        739 17.18                             141   -0.1310  106 181 
 RUS  HN ES        739 35.44                             141   -0.2210  106 181 
 RUS  HZ I         739 36.31         2.0 0.26            131            106 181 
 OCA  HN ES        739 42.83                             129    0.16 9  156 350 
 OCA  HZ I         739 47.51         5.3 0.22            119            156 350 
 ZAR  HZ EP        739 26.54                             120    0.10 8  210 290 
 ZAR  HN ES        739 51.35                             120   -0.56 8  210 290 
 ZAR  HZ I         739 56.77         2.6 0.30            110            210 290 
 HEL  HZ EP        739 35.12                             113    0.39 7  281 255 
 HEL  HZ I         740 13.48         1.2 0.40            104            281 255 
 GUY2CHZ EP        739 38.09                             110   -0.13 7  311 235 
 GUY2CHE ES        740 13.36                             110    0.48 7  311 235 
 GUY2CHZ I         740 21.41         1.2 0.74                           311 235 
                                                                                
