 2017  220 0404 58.2 L   6.802 -73.258120.0  RSN  7 0.5 1.5LRSN                1
 GAP=114        0.75       3.1     2.9  4.8  0.1407E+01  0.3215E+01  0.1512E+01E
 Epicentro: ZAPATOCA - SANTANDER                                               3
 ACTION:UPD 17-05-24 15:38 OP:jn   STATUS:               ID:20170220040458 L   I
 OLDACT:UP  17-02-20 15:37 OP:dani STATUS:               ID:20170220035725     3
 OLDACT:REG 17-02-20 12:38 OP:dani STATUS:               ID:20170220035725     3
 2017-02-20-0358-00M.COL___351                                                 6
 STAT SP IPHASW D HRMM SECON CODA AMPLIT PERI AZIMU VELO AIN AR TRES W  DIS CAZ7
 BAR2 EZ EP     D  4 5 14.95                             167    0.1410 24.7 160 
 BAR2 EZ ES        4 5 27.95                             167    0.2110 24.7 160 
 BAR2 EZ I         4 5 29.82        27.1 0.30            165           24.7 160 
 BRR  HZ EP        4 5 15.67                             151   -0.3210 60.4 304 
 BRR  HN ES        4 5 29.48                             151   -0.3610 60.4 304 
 BRR  HZ I         4 5 30.57        12.0 0.38            153           60.4 304 
 PAM  EZ EP        4 5 18.34                             142   -0.0310 85.7  46 
 PAM  EN ES        4 5 34.00                             142   -0.0810 85.7  46 
 PAM  EZ I         4 5 36.68         6.5 0.22            145           85.7  46 
 RUS  HZ EP        4 5 19.59                             137   -0.1110  102 169 
 RUS  HN ES        4 5 36.53                             137    0.0810  102 169 
 RUS  HZ I         4 5 39.16         2.4 0.42            136            102 169 
 PTB  HZ EP   3    4 5 20.47                             128   -1.58 2  136 258 
 PTB  HN ES        4 5 40.58                             128   -0.04 9  136 258 
 PTB  HZ I         4 5 42.45         5.6 0.22            128            136 258 
 ZAR  HZ EP        4 5 28.43                             117    0.55 9  192 293 
 ZAR  HN ES        4 5 51.18                             117    0.17 9  192 293 
 ZAR  HZ I         4 5 52.86         3.4 0.32            119            192 293 
 CHI  HZ EP        4 5 34.60                             111    0.27 8  246 192 
 CHI  HN ES   3    4 5 59.82                             111   -2.67 2  246 192 
 CHI  HZ I         4 6  8.79         1.4 0.22            111            246 192 
                                                                                
