 2014 1020 0827  2.4 L   6.801 -73.153141.6  RSN 11 0.4 2.2LRSN                1
 GAP=136        0.95       2.9     3.7  5.4 -0.1808E+01  0.5600E+01 -0.1433E+01E
 Epicentro: LOS SANTOS - SANTANDER                                             3
 ACTION:UPD 14-11-29 23:51 OP:nd   STATUS:               ID:20141020082702 L   I
 OLDACT:UP  14-10-20 18:32 OP:mh   STATUS:               ID:20141020081746     3
 OLDACT:REG 14-10-20 13:00 OP:mh   STATUS:               ID:20141020081746     3
 2014-10-20-0817-46M.COL___268                                                 6
 STAT SP IPHASW D HRMM SECON CODA AMPLIT PERI AZIMU VELO AIN AR TRES W  DIS CAZ7
 BAR2 SZ EP        827 21.71                             170    0.2010 23.3 188 
 BAR2 SZ ES        827 36.02                             170   -0.4010 23.3 188 
 BAR2 SZ I         827 38.09        22.1 0.24            169           23.3 188 
 BRR  HZ EP   1    827 23.44                             152    0.41 7 70.4 299 
 BRR  HN ES        827 39.73                             152    0.5910 70.4 299 
 BRR  HZ I         827 43.77        11.5 0.24            150           70.4 299 
 PAM  SZ EP     C  827 24.46                             150    0.2810 77.8  40 
 PAM  SN ES        827 41.53                             150    0.3510 77.8  40 
 PAM  SZ I         827 43.25        35.3 0.56            155           77.8  40 
 RUS  HZ EP        827 25.63                             143   -0.1010  101 176 
 RUS  HN ES   1    827 43.33                             143   -0.62 7  101 176 
 RUS  HZ I         827 46.68        13.1 0.44            146            101 176 
 PTB  HZ EP        827 28.35                             131   -0.59 9  147 259 
 PTB  HN ES        827 49.54                             131   -0.11 9  147 259 
 PTB  HZ I         827 56.65        16.3 0.44            131            147 259 
 OCA  HZ EP        827 30.38                             129    0.03 9  160 353 
 OCA  HN ES        827 51.99                             129   -0.17 9  160 353 
 OCA  HZ I         827 56.53        18.4 0.42            131            160 353 
 SPBC HZ EP   1    827 30.58                             128    0.06 7  163 219 
 SPBC HN ES        827 52.49                             128    0.02 9  163 219 
 SPBC HZ I         827 57.34        26.4 0.18            129            163 219 
 ZAR  HZ EP        827 34.38                             122   -0.09 9  203 292 
 ZAR  HN ES        827 59.39                             122   -0.11 9  203 292 
 ZAR  HZ I         828  6.91        13.3 0.34            122            203 292 
 SML  HZ EP   1    827 37.79                             117   -0.94 6  243 335 
 SML  HN ES        828  6.67                             117   -0.40 8  243 335 
 SML  HZ I         828  9.70        27.5 0.10            119            243 335 
 ROSC BZ EP   4    827 41.73                             116    1.49 0  252 211 
 ROSC BN ES   4    828 12.39                             116    2.62 0  252 211 
 HEL  HZ EP   1    827 43.44                             114    1.14 6  271 256 
 HEL  HN ES        828 13.46                             114    0.03 8  271 256 
 HEL  HZ I         828 19.80         6.2 0.30            115            271 256 
 URE  HN ES   4    828 12.74                             113   -2.23 0  283 292 
 TOL  SZ EP   1    827 51.38                             109    0.96 5  343 225 
 TOL  SN ES   4    828 30.46                             109    2.58 0  343 225 
 TOL  SZ I         828 33.68        16.1 0.38            110            343 225 
 MON  HZ EP   4    827 48.34                             108   -2.80 0  353 308 
 MON  HN ES   4    828 27.10                             108   -2.07 0  353 308 
                                                                                
