 2017  120 0951 55.9 L   6.745 -73.169148.1  RSN  5 0.3 0.9LRSN                1
 GAP=159        0.90       6.7     4.2  7.2  0.1063E+02  0.1231E+01 -0.5948E+00E
 Epicentro: LOS SANTOS - SANTANDER                                             3
 ACTION:UPD 17-05-22 16:01 OP:jn   STATUS:               ID:20170120095155 L   I
 OLDACT:DUP 17-01-20 17:40 OP:edw  STATUS:               ID:20170120094740d    3
 2017-01-20-0948-00M.COL___298                                                 6
 STAT SP IPHASW D HRMM SECON CODA AMPLIT PERI AZIMU VELO AIN AR TRES W  DIS CAZ7
 BAR2 EZ EP        952 15.48                             173   -0.1910 16.9 185 
 BAR2 EZ ES        952 30.66                             173   -0.4610 16.9 185 
 BAR2 EZ I         952 31.81         1.6 0.13            171           16.9 185 
 BRR  HZ EP        952 17.44                             153    0.1110 72.2 304 
 BRR  HN ES        952 34.60                             153    0.5310 72.2 304 
 RUS  HZ EP        952 19.84                             146    0.4010 94.7 174 
 RUS  HN ES        952 38.14                             146    0.3110 94.7 174 
 RUS  HZ I         952 38.94         1.6 0.34            145           94.7 174 
 PTB  HZ EP        952 22.48                             133   -0.23 9  144 261 
 PTB  HN ES        952 43.29                             133   -0.36 9  144 261 
 PTB  HZ I         952 46.33         1.0 0.05            133            144 261 
 TAM  HN ES        952 45.43                             131   -0.20 9  156 103 
                                                                                
