 2016  720 0550 38.2 L   6.730 -73.150147.3  RSN  5 0.5 1.4LRSN                1
 GAP=232        1.34       7.4     9.7  9.7  0.3313E+02  0.2153E+02  0.1095E+01E
 Epicentro: JORDAN - SANTANDER                                                 3
 ACTION:UPD 17-03-29 16:53 OP:lp   STATUS:               ID:20160720055038 L   I
 OLDACT:REG 16-07-20 13:14 OP:ar   STATUS:               ID:20160720054759     3
 2016-07-20-0547-59S.COL___334                                                 6
 STAT SP IPHASW D HRMM SECON CODA AMPLIT PERI AZIMU VELO AIN AR TRES W  DIS CAZ7
 BAR2 EZ EP        550 57.20                             174   -0.6810 15.7 193 
 BAR2 EZ ES        551 12.82                             174   -0.4110 15.7 193 
 BRR  HZ EP        551  0.62                             152    0.9110 74.8 304 
 BRR  HN ES        551 16.93                             152    0.4410 74.8 304 
 BRR  HZ I         551 21.82         2.7 0.20            150           74.8 304 
 RUS  HZ EP        551  1.24                             146   -0.3210 92.9 175 
 RUS  HN ES        551 20.15                             146    0.3610 92.9 175 
 RUS  HZ I         551 21.45         2.3 0.40            149           92.9 175 
 SPBC HZ EP        551  6.23                             131    0.01 9  157 221 
 SPBC HN ES        551 28.20                             131    0.11 9  157 221 
 SPBC HZ I         551 30.44         5.3 0.42            132            157 221 
 ZAR  HZ EP        551 11.32                             122    0.32 8  207 294 
 ZAR  HE ES        551 35.70                             122   -0.89 8  207 294 
 ZAR  HZ I         551 40.61         2.4 0.42            124            207 294 
                                                                                
