 2011  820 0722 23.1 L   6.848 -73.122143.6  RSN  4 0.1 1.1LRSN                1
 GAP=195        0.38       7.9    15.1  8.8  0.1091E+03 -0.9906E+02 -0.4827E+02E
 Epicentro: LOS SANTOS - SANTANDER                                             3
 ACTION:UPD 12-07-13 15:52 OP:ep   STATUS:               ID:20110820072223 L   I
 2011-08-20-0720-00M.COL___155                                                 6
 STAT SP IPHASW D HRMM SECON CODA AMPLIT PERI AZIMU VELO AIN AR TRES W  DIS CAZ7
 GIR2 SZ EP   2    722 42.56                             169    0.13 5 26.8 343 
 BAR2 SZ EP   2    722 42.37                             168   -0.26 5 29.0 193 
 BAR2 SZ I         722 42.99         3.1 0.09                          29.0 193 
 BRR  HZ EP        722 44.16                             152    0.1110 71.3 294 
 BRR  HN ES   1    723  0.25                             152   -0.11 7 71.3 294 
 BRR  HZ I         723  4.40         3.6 0.16                          71.3 294 
 RUS  HZ EP   1    722 46.91                             142   -0.14 7  106 178 
 RUS  HZ I         722 47.89         1.3 0.15                           106 178 
 RUS  HE ES   1    723  5.81                             142    0.11 7  106 178 
                                                                                
