 2017  320 0006  8.5 L   6.817 -73.154145.0  RSN  9 0.4 1.9LRSN                1
 GAP=135        1.01       3.7     4.3  5.9  0.2186E+00  0.6295E+01  0.3422E+01E
 Epicentro: LOS SANTOS - SANTANDER                                             3
 ACTION:UPD 17-05-25 18:42 OP:jn   STATUS:               ID:20170320000608 L   I
 OLDACT:UP  17-03-20 14:38 OP:cog  STATUS:               ID:20170319235959     3
 OLDACT:REG 17-03-20 12:44 OP:cog  STATUS:               ID:20170319235959     3
 2017-03-20-0000-15M.COL___388                                                 6
 STAT SP IPHASW D HRMM SECON CODA AMPLIT PERI AZIMU VELO AIN AR TRES W  DIS CAZ7
 BAR2 EZ EP        0 6 27.92                             170   -0.1310 25.0 187 
 BAR2 EZ ES        0 6 43.24                             170   -0.0710 25.0 187 
 BAR2 EZ I         0 6 43.85        17.3 0.24            169           25.0 187 
 BRR  HZ EP        0 6 29.84                             153    0.3910 69.6 298 
 BRR  HE ES        0 6 46.58                             153    0.7710 69.6 298 
 BRR  HZ I         0 6 50.98        13.0 0.12            154           69.6 298 
 PAM  EZ EP        0 6 30.73                             151    0.1710 76.5  41 
 PAM  EN ES        0 6 47.66                             151   -0.1210 76.5  41 
 PAM  EZ I         0 6 49.69        20.3 0.54            154           76.5  41 
 RUS  HZ EP        0 6 32.03                             143   -0.2610  103 176 
 RUS  HN ES        0 6 50.51                             143   -0.3510  103 176 
 RUS  HZ I         0 6 52.52         9.5 0.20            144            103 176 
 PTB  HZ EP        0 6 34.68                             132   -0.66 9  147 258 
 PTB  HN ES        0 6 55.83                             132   -0.46 9  147 258 
 PTB  HZ I         0 6 58.10        13.1 0.12            133            147 258 
 SPBC HN ES        0 6 59.47                             129    0.22 9  164 218 
 ZAR  HZ EP        0 6 40.75                             122    0.03 9  203 292 
 ZAR  HN ES        0 7  5.40                             122   -0.46 9  203 292 
 CHI  HZ EP        0 6 46.33                             117    0.03 8  250 195 
 CHI  HE ES        0 7 16.27                             117    0.46 8  250 195 
 CHI  HZ I         0 7 20.93         3.9 0.32            118            250 195 
 GUY2CHZ EP        0 6 52.87                             112    0.78 7  302 234 
 GUY2CHN ES   4    0 7 28.44                             112    2.33 0  302 234 
                                                                                
