 2012  120 0825 16.6 L   6.755 -73.158165.4  RSN  6 0.3 1.4LRSN                1
 GAP=137        0.61       6.5     5.5  8.7  0.1364E+02 -0.1091E+02 -0.1302E+01E
 Epicentro: LOS SANTOS - SANTANDER                                             3
 ACTION:UP  12-02-03 08:19 OP:REBC STATUS:               ID:20120120082516 L   I
 2012-01-20-0820-00M.COL___187                                                 6
 STAT SP IPHASW D HRMM SECON CODA AMPLIT PERI AZIMU VELO SNR AR TRES W  DIS CAZ7
 BAR2 SZ EP   1    825 38.30                             173    -0.2 7   18 189 
 BAR2 SZ I         825 38.34         5.1 0.36                            18 189 
 BRR  HZ EP   1    825 39.96                             155     0.0 7   73 303 
 BRR  HZ I         825 40.14         4.0 0.16                            73 303 
 BRR  HN ES   1    825 58.42                             155     0.2 7   73 303 
 PAM  SZ EP   1    825 41.03                             153    -0.2 7   82  38 
 RUS  HZ EP   1    825 42.38                             149     0.4 7   96 175 
 RUS  HZ I         825 42.64         1.7 0.32                            96 175 
 RUS  HN ES   2    826  1.81                             149     0.0 5   96 175 
 PTB  HZ EP   1    825 45.11                             137     0.1 7  146 261 
 PTB  HN ES   2    826  6.47                             137    -0.8 5  146 261 
 ZAR  HN ES   1    826 17.08                             126     0.2 6  205 294 
 ZAR  HZ I         826 21.98         2.5 0.35                           205 294 
                                                                                
