 2012 1020 0056 41.2 L   6.794 -73.161149.4  RSN  6 0.3 1.9LRSN                1
 GAP=135        0.64       4.4     4.7  5.9  0.4323E+01  0.3325E+01  0.1694E+01E
 Epicentro: LOS SANTOS - SANTANDER                                             3
 ACTION:UPD 12-11-22 17:04 OP:ep   STATUS:               ID:20121020005641 L   I
 2012-10-20-0050-00M.COL___233                                                 6
 STAT SP IPHASW D HRMM SECON CODA AMPLIT PERI AZIMU VELO AIN AR TRES W  DIS CAZ7
 BAR2 SZ EP   1    057  0.86                             171   -0.34 7 22.4 186 
 BAR2 SZ ES   1    057 16.78                             171   -0.06 7 22.4 186 
 BAR2 SZ I         057 17.67        21.7 0.16                          22.4 186 
 GIR2 SZ EP   1    057  1.37                             167    0.10 7 31.7 353 
 GIR2 SZ ES   1    057 16.99                             167    0.04 7 31.7 353 
 BRR  HZ EP   1    057  3.06                             153    0.43 7 70.1 300 
 BRR  HN ES   1    057 19.85                             153    0.47 7 70.1 300 
 BRR  HN I         057 20.40        36.3 0.18                          70.1 300 
 PAM  SZ EP   1    057  4.05                             151    0.20 7 79.0  40 
 PAM  SZ I         057  4.25        12.2 0.18                          79.0  40 
 PAM  SE ES   1    057 21.15                             151   -0.40 7 79.0  40 
 PAM  SE I         057 22.41        10.8 0.32                          79.0  40 
 RUS  HZ EP   1    057  5.29                             145    0.07 7  100 175 
 RUS  HN ES   1    057 23.92                             145   -0.08 7  100 175 
 RUS  HN I         057 24.59         6.8 0.30                           100 175 
 ZAR  HN ES   1    057 38.50                             123   -0.59 6  203 292 
                                                                                
