 2012  120 0141 22.9 L   7.189 -73.341111.1  RSN 14 0.4 2.3LRSN                1
 GAP= 88        0.79       2.5     3.2  5.0 -0.1390E+01  0.5304E+01  0.1424E+01E
 Epicentro: LEBRIJA - SANTANDER                                                3
 ACTION:UP  12-02-03 08:18 OP:REBC STATUS:               ID:20120120014122 L   I
 2012-01-20-0140-00M.COL___187                                                 6
 STAT SP IPHASW D HRMM SECON CODA AMPLIT PERI AZIMU VELO SNR AR TRES W  DIS CAZ7
 BRR  HZ IP     C  141 38.45                             158    -0.310   42 258 
 BRR  HZ I         141 38.71        54.1 0.13                            42 258 
 BRR  HN ES   1    141 51.23                             158     0.2 7   42 258 
 BAR2 SZ EP        141 40.75                             146     0.210   68 165 
 BAR2 SZ ES   1    141 54.46                             146     0.1 7   68 165 
 BAR2 SZ I         141 56.38       289.4 0.31                            68 165 
 PAM  SZ EP   1    141 41.55                             145     0.3 7   73  77 
 PAM  SN ES   1    141 55.86                             145     0.3 7   73  77 
 OCA  SZ EP        141 44.02                             130    -0.310  116   1 
 OCA  SZ ES   1    142  1.31                             130     0.2 7  116   1 
 OCA  SZ I         142  2.61       137.3 0.31                           116   1 
 PTB  HZ EP   1    141 46.52                             124    -0.3 7  143 240 
 PTB  HN ES   1    142  4.96                             124    -0.4 7  143 240 
 RUS  HZ EP   1    141 47.08                             123    -0.7 7  146 169 
 RUS  HZ I         141 48.42        23.4 0.14                           146 169 
 RUS  HN ES   1    142  6.49                             123    -0.7 7  146 169 
 ZAR  HZ EP   1    141 49.99                             118     0.3 7  171 281 
 ZAR  HN ES   1    142 11.01                             118     0.4 7  171 281 
 ZAR  HZ I         142 14.67        18.6 0.30                           171 281 
 NOR  SZ EP   1    141 58.99                             109     0.7 6  247 223 
 NOR  SN ES   1    142 25.83                             109     0.0 6  247 223 
 HEL  HZ EP   1    142  0.55                             107    -0.3 6  266 246 
 HEL  HN ES   1    142 29.93                             107    -0.6 6  266 246 
 HEL  HZ I         142 36.12         6.6 0.40                           266 246 
 CHI  HZ EP   1    142  3.72                             106     0.4 6  286 189 
 CHI  HZ I         142  4.75         5.5 0.41                           286 189 
 CHI  HN ES   1    142 35.13                             106     0.3 6  286 189 
 COD  HZ EP   1    142  4.64                             104    -0.2 5  304 358 
 COD  HN ES   2    142 37.13                             104    -0.5 4  304 358 
 GUY  SZ EP   1    142  7.28                             104     0.6 5  314 226 
 GUY  SE ES   1    142 41.43                             104     0.6 5  314 226 
 GUY  SZ I         142 48.71         9.8 0.45                           314 226 
 RREF HZ EP   1    142  9.70                             103     0.1 5  337 221 
 RREF HN ES   1    142 46.16                             103     0.2 5  337 221 
 RREF HZ I         142 55.52         8.2 0.62                           337 221 
 PRA  HZ EP   1    142 19.09                              99     0.2 4  421 204 
 PRA  HN ES   1    143  2.83                              99     0.2 4  421 204 
                                                                                
