 2011  120 0142 17.8 L   6.865 -73.115144.7  RSN 10 0.4 2.2LRSN                1
 GAP=127        0.81       3.4     5.7  6.2 -0.9943E+01  0.8548E+01 -0.6094E+00E
 Epicentro: LOS SANTOS - SANTANDER                                             3
 ACTION:UP  11-02-08 08:41 OP:pat  STATUS:               ID:20110120014217 L   I
 2011-01-20-0140-11S.COL___138                                                 6
 STAT SP IPHASW D HRMM SECON CODA AMPLIT PERI AZIMU VELO SNR AR TRES W  DIS CAZ7
 BAR2 SZ IP        142 37.56                             167     0.110   31 194 
 BAR2 SZ I         142 37.86        27.8 0.10                            31 194 
 BAR2 SZ ES   1    142 53.06                             167     0.2 7   31 194 
 RUS  HZ EP   1    142 41.70                             142    -0.3 7  108 178 
 RUS  HZ I         142 42.88        10.1 0.16                           108 178 
 RUS  HE ES   1    143  0.53                             142    -0.3 7  108 178 
 GRA  SZ EP   1    142 42.86                             139     0.6 7  118  17 
 GRA  SZ ES   1    143  1.74                             139     0.3 7  118  17 
 GRA  SZ I         143  3.32        39.0 0.34                           118  17 
 OCA  SZ EP   1    142 45.72                             131     0.3 7  154 352 
 OCA  SZ ES   1    143  6.08                             131    -0.9 7  154 352 
 OCA  SZ I         143  8.62        12.1 0.35                           154 352 
 NOR  SZ IP        142 54.28                             117     0.1 8  242 234 
 NOR  SN ES   1    143 22.11                             117    -0.5 6  242 234 
 CHI  HZ EP   1    142 55.94                             116    -0.3 6  256 195 
 CHI  HE ES   1    143 26.39                             116     0.1 6  256 195 
 CHI  HZ I         143 31.88         8.0 0.25                           256 195 
 ROSC BZ EP   2    142 57.25                             116     0.5 4  261 211 
 ROSC BE ES   2    143 27.68                             116     0.6 4  261 211 
 ROSC BZ I         143 36.10        17.6 0.38                           261 211 
 HEL  HZ EP   2    142 58.14                             114    -0.4 4  277 255 
 HEL  HN ES   2    143 30.86                             114     0.6 4  277 255 
 HEL  HZ I         143 37.09        11.7 0.24                           277 255 
 RREF HZ EP   1    143  4.86                             110     0.1 5  329 229 
 RREF HN ES   1    143 41.37                             110     0.1 5  329 229 
 RREF HZ I         143 50.97         9.0 0.26                           329 229 
 SDV  BZ IP     C  143  6.61                             108    -0.4 6  353  51 
 SDV  BZ I         143  7.33         4.7 0.27                           353  51 
                                                                                
