 2011  520 0836 21.2 L   6.781 -73.084138.6  RSN 14 0.3 2.2LRSN                1
 GAP=146        0.68       2.7     4.7  4.3 -0.5491E+01  0.6221E+01  0.1312E+00E
 Epicentro: LOS SANTOS - SANTANDER                                             3
 ACTION:UP  11-06-29 08:54 OP:tino STATUS:               ID:20110520083621 L   I
 2011-05-20-0832-52S.COL___140                                                 6
 STAT SP IPHASW D HRMM SECON CODA AMPLIT PERI AZIMU VELO SNR AR TRES W  DIS CAZ7
 BAR2 SZ IP        836 40.00                             170     0.110   24 208 
 BAR2 SZ ES        836 54.57                             170     0.010   24 208 
 BAR2 SZ I         836 56.31        59.9 0.17                            24 208 
 BTL  SZ EP        836 40.25                             169     0.310   25 307 
 GIR2 SZ EP        836 40.05                             165     0.010   35 340 
 PAM  SZ EP   1    836 42.83                             150     0.4 7   75  34 
 PAM  SE ES   1    836 59.25                             150     0.2 7   75  34 
 BRR  HZ IP     D  836 41.85                             149    -0.110   78 297 
 BRR  HE ES   1    836 58.44                             149     0.2 7   78 297 
 BRR  HZ I         837  2.07        28.4 0.11                            78 297 
 RUS  HZ EP        836 43.98                             143    -0.110   98 180 
 RUS  HE ES   1    837  1.47                             143    -0.4 7   98 180 
 RUS  HZ I         837  3.65        22.8 0.11                            98 180 
 BRI  SZ EP        836 44.55                             140     0.210  108  17 
 GRA  SZ EP   1    836 45.24                             135    -0.5 7  126  14 
 GRA  SZ ES   1    837  5.06                             135     0.1 7  126  14 
 GRA  SZ I         837  6.75        24.4 0.44                           126  14 
 OCA  SZ EP   1    836 49.16                             127    -0.1 7  163 351 
 OCA  SZ ES   1    837 10.33                             127    -0.8 7  163 351 
 OCA  SZ I         837 15.33        26.7 0.28                           163 351 
 NOR  SZ EP   1    836 57.06                             116     0.1 6  239 236 
 HEL  HZ EP   1    837  1.88                             113     0.2 6  278 257 
 HEL  HZ I         837 38.88         6.8 0.34                           278 257 
 GUY  SZ EP   1    837  5.61                             110     0.4 5  308 236 
 GUY  SZ I         837 47.39        12.4 0.44                           308 236 
 RREF HZ EP   1    837  7.91                             109     0.5 5  326 230 
 RREF HE ES   1    837 43.29                             109    -0.3 5  326 230 
 PRA  HZ EP   1    837 13.97                             105    -0.7 4  394 211 
 PRA  HE ES   1    837 56.22                             105    -0.1 4  394 211 
                                                                                
