 2015  320 0703  0.3 L   6.832 -73.161145.8  RSN 14 0.5 1.9LRSN                1
 GAP=133        1.11       2.9     4.1  5.6 -0.2781E+01  0.8093E+01  0.7998E+00E
 Epicentro: LOS SANTOS - SANTANDER                                             3
 ACTION:UPD 15-04-30 16:27 OP:nd   STATUS:               ID:20150320070300 L   I
 OLDACT:DUP 15-03-20 16:18 OP:fm   STATUS:               ID:20150320065746d    3
 2015-03-20-0657-45M.COL___275                                                 6
 STAT SP IPHASW D HRMM SECON CODA AMPLIT PERI AZIMU VELO AIN AR TRES W  DIS CAZ7
 BAR2 EZ EP        7 3 19.92                             169   -0.0610 26.6 185 
 BAR2 EZ ES        7 3 35.00                             169   -0.3510 26.6 185 
 BAR2 EZ I         7 3 37.72        13.1 0.30            169           26.6 185 
 BRR  HZ EP        7 3 21.83                             154    0.5810 68.0 297 
 BRR  HN ES        7 3 38.83                             154    1.2210 68.0 297 
 BRR  HZ I         7 3 43.39        10.1 0.12            150           68.0 297 
 PAM  SZ IP     D  7 3 22.77                             151    0.3710 75.8  42 
 PAM  SN ES        7 3 39.66                             151   -0.0010 75.8  42 
 PAM  SZ I         7 3 42.16         9.3 0.22            156           75.8  42 
 RUS  HZ EP        7 3 23.82                             143   -0.4710  104 175 
 RUS  HN ES        7 3 42.85                             143   -0.1810  104 175 
 RUS  HZ I         7 3 43.80         5.5 0.38            147            104 175 
 PTB  HZ EP        7 3 26.74                             132   -0.42 9  147 257 
 PTB  HE ES        7 3 47.86                             132   -0.26 9  147 257 
 PTB  HZ I         7 3 53.86         8.6 0.44            132            147 257 
 OCA  HZ EP   1    7 3 27.98                             130   -0.26 7  157 354 
 OCA  HE ES        7 3 49.96                             130   -0.09 9  157 354 
 OCA  HZ I         7 3 55.38        17.4 0.16            132            157 354 
 SPBC HZ EP        7 3 28.90                             129   -0.03 9  165 218 
 SPBC HE ES        7 3 51.16                             129   -0.13 9  165 218 
 SPBC HZ I         7 3 58.14        11.2 0.32            130            165 218 
 ZAR  HZ EP        7 3 32.77                             123    0.35 9  201 291 
 ZAR  HN ES        7 3 56.80                             123   -0.70 9  201 291 
 ZAR  HZ I         7 4  8.14         5.2 0.14            123            201 291 
 NOR  HZ EP        7 3 36.22                             118    0.14 8  235 234 
 NOR  HE ES        7 4  3.56                             118   -0.44 8  235 234 
 NOR  HZ I         7 4  7.69         7.0 0.18            120            235 234 
 SML  HZ EP        7 3 36.34                             118   -0.14 8  240 335 
 SML  HE ES        7 4  3.93                             118   -0.79 8  240 335 
 SML  HZ I         7 4 12.71        13.5 0.26            119            240 335 
 GUY2CHZ EP        7 3 44.10                             112    0.15 7  302 234 
 GUY2CHE ES        7 4 18.72                             112    0.69 7  302 234 
 GUY2CHZ I         7 4 26.64         3.7 0.32                           302 234 
 CBOC HZ EP        7 3 48.15                             110    1.02 7  333 251 
 CBOC HN ES        7 4 23.39                             110   -0.28 7  333 251 
 CBOC HZ I         7 4 30.77         0.8 0.20            111            333 251 
 TOL  SN ES        7 4 26.65                             109    0.21 7  345 224 
 TOL  SZ I         7 4 33.93         3.1 0.38            111            345 224 
 PRA  HZ EP        7 3 54.22                             106    0.17 6  394 209 
 PRA  HE ES        7 4 35.85                             106   -0.15 6  394 209 
 PRA  HZ I         7 4 41.69         3.6 0.30            109            394 209 
 SJC  HZ EP   4    7 3 53.36                             106   -2.02 0  405 327 
                                                                                
