 2012  420 0656 38.3 L   6.745 -73.187139.1  RSN  4 0.3 0.9LRSN                1
 GAP=228        0.63       6.2     6.7  7.7  0.2763E+02  0.5358E+01  0.6295E+01E
 Epicentro: VILLANUEVA - SANTANDER                                             3
 ACTION:UPD 12-07-05 11:54 OP:tino STATUS:               ID:20120420065638 L   I
 2012-04-20-0650-00M.COL___187                                                 6
 STAT SP IPHASW D HRMM SECON CODA AMPLIT PERI AZIMU VELO AIN AR TRES W  DIS CAZ7
 BRR  HZ EP   1    656 58.66                             152     0.0 7   71 305 
 BRR  HZ I         656 59.06         3.7 0.14                            71 305 
 BRR  HE ES        657 14.43                             152    -0.110   71 305 
 RUS  HZ EP   1    657  1.08                             144     0.1 7   95 173 
 RUS  HN ES   1    657 18.78                             144     0.1 7   95 173 
 RUS  HZ I         657 21.32         1.1 0.40                            95 173 
 PTB  HZ EP   1    657  3.76                             132    -0.4 7  142 261 
 PTB  HN ES   1    657 24.29                             132    -0.1 7  142 261 
 PTB  HZ I         657 30.06         0.7 0.08                           142 261 
 ZAR  HN ES   1    657 35.46                             121     0.5 6  202 294 
                                                                                
