 2012  220 0734 54.0 L   6.789 -73.165148.0  RSN  7 0.4 1.3LRSN                1
 GAP=135        0.74       4.7     5.1  6.9 -0.3175E+01  0.1656E+01  0.1184E+02E
 ACTION:UP  12-03-07 16:32 OP:epov STATUS:               ID:20120220073454 L   I
 2012-02-20-0730-00M.COL___191                                                 6
 STAT SP IPHASW D HRMM SECON CODA AMPLIT PERI AZIMU VELO AIN AR TRES W  DIS CAZ7
 BAR2 SZ EP   1    735 13.66                             171   -0.18 7 21.9 185 
 BAR2 SZ I         735 30.36         6.4 0.27                          21.9 185 
 GIR2 SZ EP   1    735 13.83                             167   -0.10 7 32.2 354 
 GIR2 SZ ES   1    735 29.54                             167    0.04 7 32.2 354 
 BRR  HZ EP   1    735 15.59                             153    0.30 7 69.9 300 
 BRR  HE ES   1    735 32.70                             153    0.79 7 69.9 300 
 BRR  HZ I         735 33.58         3.8 0.11                          69.9 300 
 PAM  SZ EP   1    735 16.71                             150    0.15 7 79.7  40 
 PAM  SZ I         735 16.84         3.6 0.15                          79.7  40 
 PAM  SN ES   1    735 33.70                             150   -0.47 7 79.7  40 
 RUS  HZ EP   1    735 17.95                             145    0.08 7 99.6 175 
 RUS  HN ES   1    735 36.47                             145   -0.03 7 99.6 175 
 RUS  HZ I         735 37.64         2.0 0.44                          99.6 175 
 PTB  HZ EP   1    735 20.48                             133   -0.43 7  145 259 
 PTB  HN ES   1    735 41.32                             133   -0.60 7  145 259 
 PTB  HZ I         735 43.39         0.0 0.37                           145 259 
 CHI  HZ EP   1    735 32.09                             118    0.48 6  247 195 
 CHI  HN ES   2    736  1.02                             118    0.06 4  247 195 
 CHI  HZ I         736  4.96         1.5 0.57                           247 195 
                                                                                
