 2014  920 0320  8.3 L   6.883 -73.084144.7  RSN  5 0.3 1.2LRSN                1
 GAP=250        0.69       5.3     5.0  5.8  0.7456E+01 -0.2970E+00  0.5583E+01E
 Epicentro: PIEDECUESTA - SANTANDER                                            3
 ACTION:UPD 14-10-03 23:06 OP:nd   STATUS:               ID:20140920032008 L   I
 OLDACT:REG 14-09-20 12:19 OP:spq  STATUS:               ID:20140920031819     3
 2014-09-20-0318-19M.COL___293                                                 6
 STAT SP IPHASW D HRMM SECON CODA AMPLIT PERI AZIMU VELO AIN AR TRES W  DIS CAZ7
 BAR2 SZ EP        320 27.54                             166   -0.5210 33.9 199 
 BAR2 SZ ES   1    320 43.92                             166    0.44 7 33.9 199 
 BAR2 SZ I         320 45.33         3.7 0.13            160           33.9 199 
 BRR  HZ EP   1    320 29.72                             151    0.25 7 73.6 290 
 BRR  HE ES        320 45.95                             151   -0.0410 73.6 290 
 BRR  HZ I         320 46.47         5.6 0.22            148           73.6 290 
 RUS  HZ EP        320 32.95                             141    0.3410  110 180 
 RUS  HE ES   1    320 51.27                             141   -0.31 7  110 180 
 RUS  HZ I         320 51.99         0.8 0.28            139            110 180 
 PTB  HZ EP        320 35.88                             130   -0.09 9  156 256 
 PTB  HE ES        320 57.58                             130    0.02 9  156 256 
 PTB  HZ I         321  3.11         1.4 0.16            128            156 256 
 SPBC HZ EP        320 37.99                             127    0.18 9  175 219 
 SPBC HE ES   1    321  0.71                             127   -0.13 7  175 219 
 SPBC HZ I         321  4.76         2.5 0.26            125            175 219 
                                                                                
