 2010  720 0404 23.4 L   6.794 -73.012141.9  RSN  8 0.3 1.7LRSN                1
 GAP=174        0.58       3.0     6.3  6.5 -0.4588E+01 -0.6775E+01 -0.1389E+01E
 Epicentro: CEPITA - SANTANDER                                                 3
 ACTION:UPD 10-12-01 15:18 OP:pat  STATUS:               ID:20100720040423 L   I
 2010-07-20-0402-10S.COL___123                                                 6
 STAT SP IPHASW D HRMM SECON CODA AMPLIT PERI AZIMU VELO AIN AR TRES W  DIS CAZ7
 BAR2 SZ EP   1    4 4 42.66                             168    -0.1 7   29 220 
 BAR2 SZ I         4 5  0.31         8.5 0.05                            29 220 
 BRR  HZ EP        4 4 44.62                             148    -0.410   85 294 
 BRR  HN ES   1    4 5  2.07                             148     0.2 7   85 294 
 BRR  HZ I         4 5  6.72         9.1 0.12                            85 294 
 RUS  HZ EP   2    4 4 46.82                             144     0.0 5  100 185 
 RUS  HN ES   1    4 5  5.08                             144     0.1 7  100 185 
 RUS  HZ I         4 5  6.47         4.5 0.66                           100 185 
 GUE  SZ EP   1    4 4 47.53                             139    -0.2 7  115   5 
 GRA  SZ IP        4 4 48.31                             137     0.210  123  11 
 GRA  SZ ES   1    4 5  7.36                             137     0.0 7  123  11 
 GRA  SZ I         4 5  9.34         6.8 0.12                           123  11 
 OCA  SZ EP   1    4 4 51.68                             129    -0.1 7  163 348 
 OCA  SZ ES   2    4 5 14.31                             129     0.5 5  163 348 
 OCA  SZ I         4 5 17.29         7.5 0.16                           163 348 
 HEL  HZ EP   3    4 5  4.89                             113    -0.2 2  286 257 
 HEL  HZ I         4 5 42.22         2.3 0.46                           286 257 
 PRA  HZ EP   2    4 5 17.68                             106     0.0 3  399 211 
 PRA  HE ES   2    4 6  0.70                             106     0.8 3  399 211 
 PRA  HZ I         4 6  6.87         3.0 0.33                           399 211 
                                                                                
