 2014  220 0200 21.5 L   6.785 -73.111152.4  RSN 15 0.3 2.1LRSN                1
 GAP=142        0.63       1.8     2.7  3.7 -0.9406E+00  0.1831E+01  0.4310E+00E
 Epicentro: LOS SANTOS - SANTANDER                                             3
 ACTION:UPD 14-03-10 08:11 OP:ep   STATUS:               ID:20140220020021 L   I
 OLDACT:UP  14-02-20 10:11 OP:fm   STATUS:               ID:20140220020000     3
 OLDACT:REG 14-02-20 08:02 OP:fm   STATUS:               ID:20140220020000     3
 2014-02-20-0200-00M.COL___212                                                 6
 STAT SP IPHASW D HRMM SECON CODA AMPLIT PERI AZIMU VELO AIN AR TRES W  DIS CAZ7
 BAR2 SZ EP        2 0 41.62                             171   -0.2610 22.7 200 
 BAR2 SZ ES   1    2 0 57.70                             171   -0.10 7 22.7 200 
 BAR2 SZ I         2 0 58.63        32.9 0.27            168           22.7 200 
 BRR  HZ EP     C  2 0 43.62                             152    0.0510 75.4 298 
 BRR  HN ES        2 1  0.99                             152    0.1810 75.4 298 
 BRR  HZ I         2 1  3.54        16.2 0.14            148           75.4 298 
 PAM  SZ EP        2 0 44.43                             152    0.0910 76.4  37 
 PAM  SN ES        2 1  1.99                             152   -0.1810 76.4  37 
 PAM  SZ I         2 1  4.40         6.9 0.58            155           76.4  37 
 RUS  HZ EP   1    2 0 46.00                             146    0.25 7 98.7 178 
 RUS  HN ES        2 1  4.58                             146   -0.1010 98.7 178 
 RUS  HZ I         2 1  7.12        11.2 0.56            147           98.7 178 
 PTB  HZ EP   1    2 0 48.57                             133   -0.72 7  151 260 
 PTB  HN ES        2 1 10.82                             133   -0.17 9  151 260 
 PTB  HZ I         2 1 17.14        19.7 0.31            131            151 260 
 OCA  HZ EP   1    2 0 51.14                             131    0.63 7  162 352 
 OCA  HN ES        2 1 13.34                             131    0.19 9  162 352 
 OCA  HZ I         2 1 16.73        13.7 0.25            131            162 352 
 SPBC HZ EP        2 0 50.58                             130   -0.01 9  164 220 
 SPBC HN ES        2 1 13.43                             130    0.13 9  164 220 
 SPBC HZ I         2 1 17.74        21.1 0.17            130            164 220 
 ZAR  HZ EP   1    2 0 54.28                             123   -0.50 6  208 292 
 ZAR  HN ES   1    2 1 20.90                             123    0.13 6  208 292 
 ZAR  HZ I         2 1 26.71        17.3 0.43            122            208 292 
 NOR  HZ EP   1    2 0 57.47                             120   -0.35 6  237 235 
 NOR  HN ES        2 1 26.54                             120    0.37 8  237 235 
 NOR  HZ I         2 1 29.45        15.2 0.19            119            237 235 
 SML  HZ EP   1    2 0 58.36                             118   -0.46 6  247 335 
 SML  HN ES   1    2 1 28.02                             118    0.08 6  247 335 
 SML  HZ I         2 1 31.99        22.0 0.08            119            247 335 
 CHI  HZ EP        2 0 59.81                             118    0.33 8  248 196 
 CHI  HN ES        2 1 29.21                             118    0.08 8  248 196 
 CHI  HZ I         2 1 35.32         4.9 0.54            119            248 196 
 HEL  HN ES   4    2 1 34.61                             116    0.30 0  275 256 
 URE  HN ES   4    2 1 42.49                             114    6.50 0  288 292 
 URE  HZ I         2 1 46.82         8.1 0.19            114            288 292 
 GUY2CHZ EP   4    2 1  6.56                             113    0.92 0  303 235 
 GUY2CHN ES   4    2 1 42.27                             113    2.19 0  303 235 
 GUY2CHZ I         2 1 47.45         6.8 0.53                           303 235 
 CBOC HZ EP   4    2 1  9.41                             111    0.38 0  337 253 
 CBOC HN ES   4    2 1 45.47                             111   -0.65 0  337 253 
 CBOC HZ I         2 1 49.92         2.6 0.16            111            337 253 
 SJC  HZ EP   4    2 1 15.87                             107   -1.80 0  413 327 
 SJC  HN ES   4    2 1 59.48                             107   -2.03 0  413 327 
 SJC  HZ I         2 2  2.28         2.9 0.33            107            413 327 
                                                                                
