 2012  420 0452 52.1 L   6.809 -73.173131.6  RSN  8 0.4 1.7LRSN                1
 GAP=133        0.85       4.0     4.3  8.0 -0.2843E+01  0.1700E+02 -0.7743E+01E
 Epicentro: LOS SANTOS - SANTANDER                                             3
 ACTION:UPD 12-07-05 11:54 OP:tino STATUS:               ID:20120420045252 L   I
 2012-04-20-0450-00M.COL___187                                                 6
 STAT SP IPHASW D HRMM SECON CODA AMPLIT PERI AZIMU VELO AIN AR TRES W  DIS CAZ7
 BAR2 SZ EP   1    453  9.86                             169    -0.2 7   24 182 
 BAR2 SZ ES   1    453 23.73                             169    -0.3 7   24 182 
 BAR2 SZ I         453 28.12        14.3 0.22                            24 182 
 BRR  HZ EP   1    453 12.21                             151     0.7 7   68 299 
 BRR  HZ I         453 12.40        10.3 0.23                            68 299 
 PAM  SZ EP   1    453 13.12                             148     0.2 7   79  42 
 PAM  SZ I         453 13.47        10.7 0.18                            79  42 
 PAM  SN ES        453 29.15                             148     0.010   79  42 
 RUS  HZ EP   1    453 14.18                             140    -0.4 7  102 174 
 RUS  HN ES        453 32.30                             140     0.210  102 174 
 PTB  HZ EP   1    453 16.99                             129    -0.7 7  145 258 
 PTB  HN ES   1    453 38.07                             129     0.4 7  145 258 
 PTB  HZ I         453 44.14         6.3 0.27                           145 258 
 OCA  SZ EP   1    453 19.32                             126     0.1 7  159 354 
 ZAR  HZ EP   1    453 23.65                             119     0.3 6  201 292 
 ZAR  HN ES        453 47.35                             119    -0.3 9  201 292 
 NOR  SN ES   1    453 54.21                             115     0.3 6  233 234 
                                                                                
