 2014  120 0116 24.9 L   6.819 -73.154139.7  RSN 11 0.4 1.8LRSN                1
 GAP=134        1.04       3.7     4.5  6.7 -0.2665E+01  0.9603E+01 -0.6585E+01E
 Epicentro: LOS SANTOS - SANTANDER                                             3
 ACTION:UPD 14-03-13 09:56 OP:ep   STATUS:               ID:20140120011624 L   I
 OLDACT:REG 14-01-20 07:54 OP:nd   STATUS:               ID:20140120011000     3
 2014-01-20-0110-00M.COL___285                                                 6
 STAT SP IPHASW D HRMM SECON CODA AMPLIT PERI AZIMU VELO AIN AR TRES W  DIS CAZ7
 BAR2 SZ EP        116 44.03                             169    0.2110 25.3 187 
 BAR2 SZ ES        116 58.47                             169   -0.1310 25.3 187 
 BAR2 SZ I         117  0.50        16.9 0.26            169           25.3 187 
 BRR  HZ IP     C  116 45.74                             152    0.4810 69.3 297 
 BRR  HN ES   2    117  1.29                             152    0.12 5 69.3 297 
 BRR  HZ I         117  5.78         9.4 0.10            151           69.3 297 
 PAM  SZ EP        116 46.78                             150    0.3910 76.4  41 
 PAM  SN ES        117  3.31                             150    0.1410 76.4  41 
 PAM  SZ I         117  6.09         9.0 0.56            153           76.4  41 
 RUS  HZ EP        116 48.09                             142   -0.1110  103 176 
 RUS  HN ES        117  6.28                             142   -0.1210  103 176 
 RUS  HZ I         117  8.28         5.9 0.28            144            103 176 
 PTB  HZ EP        116 50.73                             131   -0.58 9  147 258 
 PTB  HN ES        117 11.79                             131   -0.14 9  147 258 
 PTB  HZ I         117 14.63        11.5 0.16            131            147 258 
 OCA  HZ EP        116 51.92                             129   -0.59 9  158 353 
 OCA  HN ES   2    117 13.65                             129   -0.41 5  158 353 
 OCA  HZ I         117 18.75         8.6 0.68            130            158 353 
 SPBC HZ EP        116 53.07                             127    0.05 9  164 218 
 SPBC HN ES        117 14.71                             127   -0.26 9  164 218 
 SPBC HZ I         117 17.43         8.2 0.30            128            164 218 
 ZAR  HZ EP        116 57.99                             121    1.24 9  202 292 
 ZAR  HN ES        117 21.71                             121    0.09 9  202 292 
 ZAR  HZ I         117 28.28        12.7 0.48            122            202 292 
 SML  HZ EP        117  0.26                             116   -0.65 8  241 335 
 SML  HN ES   2    117 28.59                             116   -0.43 4  241 335 
 SML  HZ I         117 34.00         9.9 0.10            117            241 335 
 CHI  HZ EP   4 D  117  3.08                             116    0.64 0  250 195 
 CHI  HN ES   4    117 30.05                             116   -1.70 0  250 195 
 CHI  HZ I         117 43.01         1.2 0.46            117            250 195 
 GUY2CHZ EP   4    117 11.10                             111    2.84 0  302 234 
 GUY2CHN ES   4    117 42.46                             111    0.36 0  302 234 
 GUY2CHZ I         117 52.35         3.7 0.60                           302 234 
                                                                                
