 2012  420 0811 23.4 L   6.782 -73.149144.5  RSN  9 0.4 1.7LRSN                1
 GAP=137        0.96       5.1     4.6  7.7 -0.2061E+01  0.1117E+02 -0.2056E+01E
 Epicentro: LOS SANTOS - SANTANDER                                             3
 ACTION:UPD 12-07-05 11:54 OP:tino STATUS:               ID:20120420081123 L   I
 2012-04-20-0810-00M.COL___187                                                 6
 STAT SP IPHASW D HRMM SECON CODA AMPLIT PERI AZIMU VELO AIN AR TRES W  DIS CAZ7
 BAR2 SZ EP   1    811 42.91                             171     0.1 9   21 190 
 BAR2 SZ ES   1    811 57.76                             171    -0.2 9   21 190 
 BAR2 SZ I         811 59.39        29.1 0.15                            21 190 
 BRR  HZ EP   1    811 44.84                             152     0.4 9   72 300 
 BRR  HE ES   1    812  1.50                             152     0.6 9   72 300 
 BRR  HZ I         812  4.42        15.7 0.16                            72 300 
 PAM  SZ EP   1    811 45.82                             150     0.2 9   79  39 
 PAM  SZ I         811 46.18        13.3 0.18                            79  39 
 PAM  SN ES   1    812  2.69                             150    -0.2 9   79  39 
 RUS  HZ EP   1    811 46.97                             144     0.1 9   99 176 
 RUS  HN ES   1    812  5.17                             144     0.0 9   99 176 
 RUS  HZ I         812  6.66        11.6 0.30                            99 176 
 PTB  HZ EP   1    811 49.77                             132    -0.4 8  147 260 
 PTB  HN ES   1    812 10.28                             132    -0.8 8  147 260 
 PTB  HZ I         812 13.23         5.8 0.18                           147 260 
 OCA  SZ EP   1    811 52.03                             129     0.2 8  162 353 
 OCA  SZ I         812 18.28         0.3 0.32                           162 353 
 ZAR  HZ EP   1    811 55.42                             122    -0.4 7  204 293 
 ZAR  HN ES        812 20.87                             122    -0.210  204 293 
 ZAR  HZ I         812 27.84         7.1 0.24                           204 293 
 NOR  SZ EP   1    811 58.43                             118    -0.5 7  233 235 
 NOR  SN ES   1    812 27.25                             118     0.7 7  233 235 
 HEL  HN ES   1    812 35.34                             115     0.7 7  271 256 
 HEL  HZ I         812 42.79         4.6 0.41                           271 256 
                                                                                
