 2011 1120 0822 50.3 L   6.761 -73.109149.0  RSN  4 0.2 1.3LRSN                1
 GAP=143        0.51       5.1     5.4  6.0 -0.3396E+01  0.2643E+01 -0.5330E+01E
 Epicentro: LOS SANTOS - SANTANDER                                             3
 ACTION:UPD 12-07-13 16:11 OP:ep   STATUS:               ID:20111120082250 L   I
 2011-11-20-0821-41S.COL___178                                                 6
 STAT SP IPHASW D HRMM SECON CODA AMPLIT PERI AZIMU VELO AIN AR TRES W  DIS CAZ7
 BAR2 SZ EP   2    823 10.12                             172   -0.17 5 20.3 203 
 BAR2 SZ I         823 10.46         4.3 0.10                          20.3 203 
 BAR2 SZ ES   1    823 25.50                             172   -0.37 7 20.3 203 
 BRR  HZ EP        823 12.03                             151   -0.1210 76.8 300 
 BRR  HZ I         823 12.29         5.4 0.17                          76.8 300 
 BRR  HE ES   1    823 29.47                             151    0.30 7 76.8 300 
 PAM  SZ EP   1    823 13.06                             151    0.12 7 78.4  35 
 PAM  SZ I         823 13.19         3.2 0.19                          78.4  35 
 PAM  SN ES   1    823 30.64                             151    0.05 7 78.4  35 
 RUS  HE ES   2    823 33.02                             146    0.40 5 96.1 178 
                                                                                
