 2014  320 0521  8.3 L   6.763 -73.077146.8  RSN  4 0.4 1.7LRSN                1
 GAP=238        0.83       6.3     7.3 10.1 -0.1014E+02  0.1422E+02 -0.2846E+02E
 Epicentro: LOS SANTOS - SANTANDER                                             3
 OLDACT:REG 14-03-20 07:43 OP:fm   STATUS:               ID:20140320051812     3
 ACTION:UPD 14-04-09 23:19 OP:nd   STATUS:               ID:20140320052108 L   I
 OLDACT:UP  14-03-20 11:34 OP:fm   STATUS:               ID:20140320051812     3
 2014-03-20-0518-12M.COL___241                                                 6
 STAT SP IPHASW D HRMM SECON CODA AMPLIT PERI AZIMU VELO AIN AR TRES W  DIS CAZ7
 BAR2 SZ EP        521 28.42                             171    0.3510 22.2 212 
 BAR2 SZ ES   1    521 43.09                             171   -0.37 7 22.2 212 
 BAR2 SZ I         521 45.46         9.2 0.96            171           22.2 212 
 PTB  HZ EP        521 35.37                             131   -0.64 9  155 261 
 PTB  HE ES        521 57.69                             131    0.10 9  155 261 
 PTB  SZ I         522  0.19         4.5 1.16            133            155 261 
 SPBC HN ES   1    521 59.91                             129    0.40 7  165 222 
 SML  HZ EP   1    521 45.94                             117    0.16 6  251 334 
 SML  HE ES   1    522 15.23                             117    0.25 6  251 334 
 SML  SZ I         522 25.85         3.8 1.72            117            251 334 
                                                                                
