 2010  120 0629 33.3 L   6.791 -73.028144.0  RSN  5 0.3 1.6LRSN                1
 GAP=195        0.69       3.6    28.4  7.1  0.4428E+02 -0.5674E+02 -0.9635E+01E
 Epicentro: CEPITA - SANTANDER                                                 3
 ACTION:UP  10-08-24 09:45 OP:vdl  STATUS:               ID:20100120062933 L   I
 2010-01-20-0626-47S.COL___096                                                 6
 STAT SP IPHASW D HRMM SECON CODA AMPLIT PERI AZIMU VELO SNR AR TRES W  DIS CAZ7
 BAR2 SZ EP        629 52.86                             169     0.010   28 218 
 BAR2 SZ ES   1    630  7.63                             169    -0.5 7   28 218 
 GIR2 SZ EP        629 53.00                             165     0.010   37 330 
 GIR2 SZ ES   2    630  7.99                             165    -0.3 5   37 330 
 RUS  BZ EP        629 56.69                             144    -0.210  100 184 
 RUS  BN ES        630 15.51                             144     0.310  100 184 
 RUS  BZ I         630 16.30         7.7 0.46                           100 184 
 OCA  SZ EP        630  1.60                             129    -0.2 9  163 349 
 OCA  SZ ES   1    630 24.55                             129     0.6 7  163 349 
 CHI  HN ES   2    630 40.89                             116     0.1 4  251 198 
 CHI  HZ I         630 46.31         2.6 0.56                           251 198 
                                                                                
