 2017  920 0723 19.0 L   6.808 -72.998146.8  RSN 10 0.5 1.7LRSN                1
 GAP=132        1.02       4.0     4.5  5.9  0.5780E+01  0.4716E+01  0.5338E+01E
 Epicentro: CEPITA - SANTANDER                                                 3
 ACTION:UPD 17-10-05 19:14 OP:rebc STATUS:               ID:20170920072319 L   I
 OLDACT:REG 17-09-20 13:19 OP:and  STATUS:               ID:20170920071744     3
 2017-09-20-0718-00M.COL___449                                                 6
 STAT SP IPHASW D HRMM SECON CODA AMPLIT PERI AZIMU VELO AIN AR TRES W  DIS CAZ7
 BAR2 EZ EP        723 38.82                             168   -0.0810 31.4 220 
 BAR2 EZ ES        723 54.36                             168   -0.1010 31.4 220 
 BAR2 EZ I         723 54.99        11.2 0.24            167           31.4 220 
 PAM  EZ EP        723 41.67                             154    0.9510 67.4  29 
 PAM  EN ES   3    723 58.88                             154    1.18 2 67.4  29 
 PAM  EZ I         723 59.50         7.3 0.22            157           67.4  29 
 BRR  HZ IP     C  723 40.59                             148   -0.4910 85.5 293 
 BRR  HE ES        723 57.82                             148   -0.5210 85.5 293 
 BRR  HZ I         724  0.95        18.3 0.18            149           85.5 293 
 RUS  HZ EP        723 42.87                             144   -0.0210  102 185 
 RUS  HE ES        724  1.57                             144    0.0110  102 185 
 RUS  HZ I         724  5.12         4.0 0.28            145            102 185 
 ZAR  HZ EP        723 53.08                             120    0.07 8  219 290 
 ZAR  HN ES        724 19.78                             120    0.21 8  219 290 
 CHI  HZ EP        723 57.39                             117    0.07 8  254 199 
 CHI  HE ES        724 27.47                             117    0.22 8  254 199 
 CHI  HZ I         724 28.93         2.9 0.28            118            254 199 
 HEL  HZ EP        724  0.26                             113   -0.74 7  288 256 
 HEL  HN ES        724 34.23                             113    0.43 7  288 256 
 HEL  HZ I         724 37.59         4.4 0.42            115            288 256 
 PTGC HZ EP        724  2.18                             112   -0.15 7  304 162 
 PTGC HN ES        724 35.79                             112   -0.37 7  304 162 
 GUY2CHZ EP        724  4.25                             111    0.06 7  315 236 
 GUY2CHE ES        724 39.38                             111   -0.09 7  315 236 
 GUY2CHZ I         724 47.18         2.7 0.43                           315 236 
 ELA  HN ES   2    724 47.41                             109    2.31 3  342 231 
                                                                                
