 2016 1020 0404 56.1 L   6.891 -73.333126.3  RSN 14 0.6 1.9LRSN                1
 GAP= 99        0.98       2.7     4.1  5.5 -0.3277E+01  0.6945E+01  0.2622E+00E
 Epicentro: BETULIA - SANTANDER                                                3
 ACTION:UPD 16-11-09 19:21 OP:rebc STATUS:               ID:20161020040456 L   I
 OLDACT:UP  16-10-20 16:16 OP:and  STATUS:               ID:20161020035747d    3
 OLDACT:UP  16-10-20 16:13 OP:and  STATUS:               ID:20161020035747d    3
 OLDACT:UP  16-10-20 16:10 OP:and  STATUS:               ID:20161020035747d    3
 OLDACT:UP  16-10-20 16:08 OP:and  STATUS:               ID:20161020035747d    3
 OLDACT:DUP 16-10-20 16:05 OP:and  STATUS:               ID:20161020035747d    3
 2016-10-20-0358-00M.COL___341                                                 6
 STAT SP IPHASW D HRMM SECON CODA AMPLIT PERI AZIMU VELO AIN AR TRES W  DIS CAZ7
 BAR2 EZ IP     C  4 5 13.69                             163   -0.1510 37.0 153 
 BAR2 EZ ES        4 5 27.10                             163   -0.5410 37.0 153 
 BRR  HZ EP        4 5 14.19                             158    0.2510 48.2 300 
 BRR  HN ES        4 5 28.26                             158    0.4310 48.2 300 
 BRR  HZ I         4 5 29.20        37.1 0.10            155           48.2 300 
 PAM  EZ EP        4 5 17.61                             144    0.7110 85.8  55 
 PAM  EN ES        4 5 33.39                             144    0.2910 85.8  55 
 PAM  EZ I         4 5 35.88         7.6 0.30            144           85.8  55 
 RUS  HZ EP        4 5 18.78                             136   -0.3410  114 166 
 RUS  HE ES        4 5 36.53                             136   -0.5110  114 166 
 RUS  HZ I         4 5 37.41         6.1 0.26            137            114 166 
 PTB  HZ IP   4 C  4 5 19.03                             131   -0.89 0  130 253 
 PTB  HN ES   2    4 5 39.24                             131    0.78 5  130 253 
 PTB  HZ I         4 5 40.78        10.4 0.10            130            130 253 
 OCA  HZ EP     D  4 5 21.75                             127   -0.15 9  149   1 
 OCA  HN ES        4 5 42.05                             127    0.05 9  149   1 
 OCA  HZ I         4 5 50.23        27.5 0.27            126            149   1 
 SPBC HZ EP        4 5 22.93                             125    0.08 9  160 211 
 SPBC HN ES        4 5 43.63                             125   -0.06 9  160 211 
 SPBC HZ I         4 5 46.87        14.3 0.12            125            160 211 
 CHI  HZ EP   2    4 5 34.29                             112    0.86 4  254 190 
 CHI  HE ES        4 6  2.74                             112    0.22 8  254 190 
 CHI  HZ I         4 6  5.78         3.5 0.46            112            254 190 
 HEL  HZ EP   4    4 5 35.04                             112    1.56 0  255 252 
 HEL  HN ES   4    4 6  5.36                             112    2.76 0  255 252 
 GUY2CHZ EP   4    4 5 38.80                             109    1.09 0  291 231 
 GUY2CHN ES        4 6  9.73                             109   -0.41 7  291 231 
 GUY2CHZ I         4 6 17.44         3.5 0.46                           291 231 
 LL6C HZ EP   9    4 5 22.06                             107   -17.8 0  315   1 
 CBOC HZ EP   2    4 5 41.75                             107    1.33 3  317 249 
 CBOC HE ES        4 6 14.30                             107   -0.66 7  317 249 
 PTGC HZ EP   2    4 5 40.38                             106   -0.83 3  326 156 
 PTGC HN ES   4    4 6 14.78                             106   -1.59 0  326 156 
 SJC  HZ EP        4 5 47.93                             103   -0.87 6  390 329 
 SJC  HE ES   4    4 6 28.00                             103   -1.87 0  390 329 
 SJC  HZ I         4 6 32.64         1.3 0.18            103            390 329 
 PRA  HZ EP   2    4 5 50.87                             103    1.91 3  391 206 
 PRA  HN ES   2    4 6 30.98                             103    0.83 3  391 206 
 PRA  HZ I         4 6 37.93         2.9 0.28            103            391 206 
 CRJC HZ EP   2    4 5 57.42                             100    0.26 2  459   6 
 CRJC HE ES   2    4 6 44.28                             100   -0.48 2  459   6 
 URI  HZ EP   4    4 6  7.04                              98   -1.16 0  552  15 
                                                                                
