 2015 1020 0955 12.8 L   6.863 -73.111143.4  RSN  7 0.5 1.8LRSN                1
 GAP=154        1.16       4.4     5.4  7.2 -0.2368E+01  0.1207E+02  0.5451E+01E
 Epicentro: LOS SANTOS - SANTANDER                                             3
 ACTION:UPD 15-12-22 20:41 OP:cam  STATUS:               ID:20151020095512 L   I
 OLDACT:UP  15-10-20 20:10 OP:mh   STATUS:               ID:20151020094749d    3
 OLDACT:DUP 15-10-20 20:04 OP:mh   STATUS:               ID:20151020094749d    3
 2015-10-20-0947-48M.COL___334                                                 6
 STAT SP IPHASW D HRMM SECON CODA AMPLIT PERI AZIMU VELO AIN AR TRES W  DIS CAZ7
 BAR2 EZ EP        955 32.25                             167   -0.0710 31.0 195 
 BAR2 EZ ES        955 47.34                             167   -0.2210 31.0 195 
 BAR2 EZ I         955 49.60         7.6 0.34            165           31.0 195 
 PAM  EZ EP        955 34.78                             153    0.4810 69.5  41 
 PAM  EN ES        955 51.44                             153    0.3610 69.5  41 
 PAM  EZ I         955 52.26        12.5 0.20            158           69.5  41 
 BRR  HZ IP     D  955 33.90                             152    0.1810 71.7 292 
 BRR  HN ES        955 50.49                             152    0.4510 71.7 292 
 BRR  HZ I         955 53.51         8.6 0.14            151           71.7 292 
 OCA  HZ EP        955 39.87                             130   -0.45 9  154 351 
 OCA  HN ES        956  1.06                             130   -0.73 9  154 351 
 OCA  HZ I         956  2.74        14.9 0.20            133            154 351 
 ZAR  HZ EP        955 45.45                             122    0.25 9  205 290 
 ZAR  HN ES        956  9.83                             122   -0.65 9  205 290 
 ZAR  HZ I         956 15.26         8.2 0.28            122            205 290 
 CHI  HZ EP        955 50.79                             116   -0.42 8  256 196 
 CHI  HN ES        956 20.56                             116   -0.62 8  256 196 
 CHI  HZ I         956 26.50         2.3 0.32            117            256 196 
 HEL  HZ EP        955 54.48                             114    0.98 7  278 255 
 HEL  HN ES        956 25.63                             114    0.37 7  278 255 
 HEL  HZ I         956 31.32         5.3 0.50            115            278 255 
                                                                                
