 2012  120 0038 41.8 L   6.739 -73.195152.8  RSN  4 0.3 1.9LRSN                1
 GAP=133        0.65       6.3     6.3  8.6  0.1505E+02 -0.9230E+01 -0.7108E+01E
 Epicentro: VILLANUEVA - SANTANDER                                             3
 ACTION:UP  12-02-03 08:18 OP:REBC STATUS:               ID:20120120003841 L   I
 2012-01-20-0030-00M.COL___187                                                 6
 STAT SP IPHASW D HRMM SECON CODA AMPLIT PERI AZIMU VELO SNR AR TRES W  DIS CAZ7
 BRR  HZ EP   1    039  3.73                             154     0.1 7   70 306 
 BRR  HZ I         039 12.20        13.6 0.38                            70 306 
 BRR  HN ES   1    039 20.99                             154     0.3 7   70 306 
 PAM  SZ EP   2    039  4.75                             149    -0.6 5   86  39 
 RUS  HZ EP   1    039  6.34                             147     0.5 7   94 172 
 RUS  HN ES   1    039 24.33                             147    -0.2 7   94 172 
 PTB  HZ EP   1    039  8.67                             135    -0.1 7  141 261 
 PTB  HN ES   1    039 29.60                             135    -0.2 7  141 261 
                                                                                
