 2017  820 0344 13.2 L   6.750 -73.134140.2  RSN  5 0.3 1.4LRSN                1
 GAP=235        0.89       5.0     6.4  7.0  0.1471E+02  0.9469E+01  0.4178E+01E
 Epicentro: LOS SANTOS - SANTANDER                                             3
 ACTION:UPD 17-09-04 20:22 OP:rebc STATUS:               ID:20170820034413 L   I
 OLDACT:REG 17-08-20 12:26 OP:lv   STATUS:               ID:20170820033739     3
 2017-08-20-0338-00M.COL___411                                                 6
 STAT SP IPHASW D HRMM SECON CODA AMPLIT PERI AZIMU VELO AIN AR TRES W  DIS CAZ7
 BAR2 EZ EP        344 31.73                             172   -0.3510 18.3 197 
 BAR2 EZ ES        344 46.37                             172   -0.4210 18.3 197 
 BAR2 EZ I         344 47.41         3.3 0.09            165           18.3 197 
 BRR  HZ EP        344 33.82                             150   -0.1710 75.0 302 
 BRR  HE ES        344 50.82                             150    0.6310 75.0 302 
 RUS  HZ EP        344 36.36                             144    0.3510 95.0 177 
 RUS  HN ES        344 53.97                             144    0.1710 95.0 177 
 RUS  HZ I         344 54.97         2.6 0.20            142           95.0 177 
 SPBC HZ EP        344 41.13                             128    0.17 9  160 221 
 SPBC HE ES        345  2.40                             128   -0.21 9  160 221 
 SPBC HZ I         345  8.36         2.9 0.08            125            160 221 
 ZAR  HN ES        345 10.69                             121   -0.25 8  207 293 
 ZAR  HZ I         345 15.77         5.2 0.29            119            207 293 
                                                                                
