 2012  620 0527 16.3 L   6.768 -73.164145.8  RSN  6 0.4 1.8LRSN                1
 GAP=181        0.78       3.8     4.6  7.5 -0.1192E+01  0.9948E+01 -0.6299E+01E
 Epicentro: LOS SANTOS - SANTANDER                                             3
 ACTION:UPD 12-08-06 17:51 OP:ep   STATUS:               ID:20120620052716 L   I
 2012-06-20-0524-48M.COL___176                                                 6
 STAT SP IPHASW D HRMM SECON CODA AMPLIT PERI AZIMU VELO AIN AR TRES W  DIS CAZ7
 BAR2 SZ EP   1    527 35.93                             172    0.04 8 19.5 186 
 BAR2 SZ ES   1    527 51.32                             172    0.17 8 19.5 186 
 BAR2 SZ I         527 54.06        13.5 0.21                          19.5 186 
 RUS  HZ EP   1    527 40.30                             145    0.46 8 97.2 175 
 RUS  HN ES   1    527 57.98                             145   -0.20 8 97.2 175 
 RUS  HZ I         528  0.25         6.1 0.25                          97.2 175 
 PTB  HZ EP   1    527 43.12                             133    0.06 7  145 260 
 PTB  HN ES        528  3.43                             133   -0.4810  145 260 
 PTB  HZ I         528 10.35         6.7 0.38                           145 260 
 OCA  HZ EP   1    527 44.61                             129   -0.35 7  164 354 
 OCA  HN ES        528  7.40                             129    0.1210  164 354 
 OCA  HZ I         528 11.90        16.2 0.17                           164 354 
 ZAR  HZ EP   1    527 47.92                             122   -0.81 7  204 293 
 ZAR  HN ES   1    528 14.67                             122    0.68 7  204 293 
 ZAR  HZ I         528 21.50         9.3 0.29                           204 293 
 HEL  HZ EP   1    527 56.55                             115    0.32 6  269 256 
 HEL  HN ES   1    528 27.78                             115    0.43 6  269 256 
 HEL  HZ I         528 35.05         4.1 0.29                           269 256 
                                                                                
