 2017  420 0241 26.3 L   6.795 -73.169150.0  RSN  5 0.3 1.4LRSN                1
 GAP=235        0.80       5.2     4.7  6.3  0.4977E+01  0.5743E+01  0.3351E+01E
 Epicentro: LOS SANTOS - SANTANDER                                             3
 ACTION:UPD 17-05-30 21:14 OP:jn   STATUS:               ID:20170420024126 L   I
 OLDACT:REG 17-04-20 13:01 OP:cog  STATUS:               ID:20170420023737     3
 2017-04-20-0238-00M.COL___365                                                 6
 STAT SP IPHASW D HRMM SECON CODA AMPLIT PERI AZIMU VELO AIN AR TRES W  DIS CAZ7
 BAR2 EZ EP        241 46.47                             171    0.0810 22.5 184 
 BAR2 EZ ES        242  1.67                             171   -0.4210 22.5 184 
 BAR2 EZ I         242  2.73         5.8 0.38            171           22.5 184 
 BRR  HZ EP        241 47.98                             154    0.2110 69.2 300 
 BRR  HN ES        242  4.93                             154    0.3910 69.2 300 
 BRR  HZ I         242  8.88         4.7 0.18            152           69.2 300 
 RUS  HZ EP        241 50.45                             145    0.0310  100 175 
 RUS  HN ES        242  9.41                             145    0.1610  100 175 
 RUS  HZ I         242 10.46         2.0 0.28            148            100 175 
 PTB  HZ EP        241 52.89                             133   -0.46 9  145 259 
 PTB  HN ES        242 14.16                             133   -0.32 9  145 259 
 PTB  HZ I         242 19.47         3.6 0.46            134            145 259 
 NOR  HE ES        242 30.22                             120    0.37 8  232 234 
 NOR  HZ I         242 31.24         4.6 0.12            121            232 234 
                                                                                
