 2011  120 0950 18.9 L   6.547 -73.511112.9  RSN 18 0.5 4.0LRSN                1
 GAP= 86        1.17       3.1     4.6  8.2 -0.4028E+01  0.1775E+02 -0.1076E+01E
 Epicentro: EL CARMEN DE CHUCURI - SANTANDER                                   3
 ACTION:UP  11-02-08 08:41 OP:pat  STATUS:               ID:20110120095018 L   I
 2011-01-20-0946-57S.COL___137                                                 6
 STAT SP IPHASW D HRMM SECON CODA AMPLIT PERI AZIMU VELO SNR AR TRES W  DIS CAZ7
 BAR2 SZ IP        950 35.32                             161     0.310   37  82 
 BAR2 SZ ES   1    950 47.56                             161     0.0 7   37  82 
 BAR2 SZ I         950 49.19     17499.6 0.38                            37  82 
 GIR2 SZ IP        950 35.88                             146    -0.710   68  31 
 RUS  HZ IP     D  950 38.22                             140    -0.210   86 147 
 RUS  HE ES   1    950 53.39                             140    -0.3 7   86 147 
 RUS  HZ I         950 54.93      1661.0 0.55                            86 147 
 GUE  SZ IP        950 44.39                             122    -0.2 9  156  25 
 GRA  SZ IP        950 45.74                             120     0.1 9  167  28 
 GRA  SZ ES   1    951  7.23                             120     0.8 7  167  28 
 GRA  SZ I         951 10.90      1642.3 0.56                           167  28 
 YOP  SZ IP        950 47.27                             118     0.5 9  179 137 
 YOP  SN ES   1    951  8.55                             118     0.0 7  179 137 
 YOP  SZ I         951 10.98      1790.7 0.39                           179 137 
 NOR  SZ IP        950 46.73                             117    -0.7 9  186 234 
 OCA  SZ IP        950 47.74                             116    -0.1 9  188   6 
 OCA  SZ ES   1    951 11.27                             116     0.8 7  188   6 
 OCA  SZ I         951 16.70      2204.8 0.34                           188   6 
 ROSC BZ IP     D  950 51.40                             114     0.9 8  209 205 
 ROSC BE ES   1    951 15.64                             114     0.5 6  209 205 
 ROSC BZ I         951 22.07       594.2 0.57                           209 205 
 CHI  HZ EP        950 50.51                             113    -0.5 8  213 187 
 CHI  HN ES   1    951 15.91                             113    -0.1 6  213 187 
 CHI  HZ I         951 20.07       370.3 0.58                           213 187 
 HEL  HZ EP        950 52.33                             111    -0.1 8  227 260 
 HEL  HN ES   1    951 18.10                             111    -0.5 6  227 260 
 HEL  HZ I         951 19.96       486.8 0.33                           227 260 
 GUY  SZ EP        950 56.05                             109     0.6 8  252 235 
 GUY  SZ I         951 29.64      1024.1 0.34                           252 235 
 VIL  SZ EP        950 57.16                             107     0.1 8  269 182 
 VIL  SN ES   1    951 27.13                             107     0.3 6  269 182 
 VIL  SZ I         951 35.96       411.6 0.50                           269 182 
 RREF HZ EP        950 57.93                             107    -0.2 8  273 228 
 RREF HN ES   1    951 28.93                             107     0.3 6  273 228 
 RREF HZ I         951 35.01       493.3 0.27                           273 228 
 TOL  SZ EP   1    951  0.76                             105     0.4 5  295 223 
 DBB  SZ EP        951  1.13                             105     0.2 7  303 280 
 SJA  SZ EP        951  7.69                             101    -0.7 6  365 188 
 SDV  BZ EP        951 13.18                              99    -0.6 6  409  51 
 SDV  BZ I         951 58.39       485.0 0.44                           409  51 
                                                                                
