 2012  920 0156  7.1 L   6.776 -73.141146.1  RSN 10 0.4 2.5LRSN                1
 GAP=138        0.74       3.9     3.7  7.0 -0.2306E+01  0.3472E+01 -0.4761E+00E
 Epicentro: LOS SANTOS - SANTANDER                                             3
 ACTION:UPD 12-10-22 14:19 OP:ep   STATUS:               ID:20120920015607 L   I
 2012-09-20-0150-00M.COL___226                                                 6
 STAT SP IPHASW D HRMM SECON CODA AMPLIT PERI AZIMU VELO AIN AR TRES W  DIS CAZ7
 BAR2 SZ EP        156 26.69                             172    0.0010 20.9 193 
 BAR2 SZ ES   1    156 41.70                             172   -0.30 7 20.9 193 
 BAR2 SZ I         156 43.35        89.4 0.14                          20.9 193 
 GIR2 SZ EP        156 26.72                             166   -0.1410 33.9 350 
 BRR  HZ EP        156 28.57                             152    0.2110 72.9 300 
 BRR  HZ I         156 28.85       115.2 0.30                          72.9 300 
 BRR  HN ES   1    156 45.91                             152    0.95 7 72.9 300 
 PAM  SZ EP        156 29.48                             150    0.0610 79.1  38 
 PAM  SZ I         156 29.85        27.8 0.44                          79.1  38 
 PAM  SE ES   1    156 46.72                             150   -0.14 7 79.1  38 
 RUS  HE ES   1    156 49.14                             145    0.07 7 97.9 176 
 PTB  HN ES        156 54.72                             132   -0.41 9  148 260 
 PTB  HN I         157  0.13        39.1 0.30                           148 260 
 ZAR  HE ES   1    157  4.62                             122   -0.52 6  206 293 
 ZAR  HZ I         157 11.67        29.1 0.66                           206 293 
 CHI  HN ES   1    157 13.83                             117    0.08 6  246 195 
 HEL  HN ES   2    157 18.99                             115    0.33 4  272 256 
 RREF HN ES   2    157 29.23                             111    0.26 3  320 230 
                                                                                
