 2011 1020 0111 53.7 L   6.795 -73.097149.9  RSN 18 0.3 4.2LRSN                1
 GAP=105        0.57       2.0     2.3  3.6 -0.1301E+01  0.9807E+00  0.1858E+01E
 Epicentro: LOS SANTOS - SANTANDER                                             3
 ACTION:UPD 12-07-13 16:04 OP:ep   STATUS:               ID:20111020011153 L   I
 2011-10-20-0109-56S.COL___167                                                 6
 STAT SP IPHASW D HRMM SECON CODA AMPLIT PERI AZIMU VELO AIN AR TRES W  DIS CAZ7
 BAR2 SZ IP        112 13.73                             170   -0.0610 24.3 203 
 BAR2 SZ ES   2    112 28.95                             170   -0.55 5 24.3 203 
 BAR2 SZ I         112 29.83      4083.5 0.27                          24.3 203 
 PAM  SZ IP        112 16.55                             152    0.4110 74.6  36 
 PAM  SN ES   1    112 33.56                             152   -0.13 7 74.6  36 
 BRR  HZ IP     C  112 15.50                             152   -0.0310 76.2 297 
 BRR  HZ I         112 15.81      4251.1 0.16                          76.2 297 
 BRR  HN ES   1    112 32.76                             152    0.17 7 76.2 297 
 RUS  HZ IP     D  112 17.62                             145   -0.1310 99.8 179 
 RUS  HN ES   2    112 36.31                             145   -0.24 5 99.8 179 
 RUS  HZ I         112 37.58      1172.0 0.40                          99.8 179 
 OCA  SZ EP        112 22.12                             130   -0.28 9  162 351 
 OCA  SZ ES   1    112 45.07                             130    0.24 7  162 351 
 OCA  SZ I         112 52.53      1688.8 0.38                           162 351 
 YOP  SZ IP        112 24.55                             128    0.83 9  176 155 
 YOP  SZ I         112 24.78       551.7 0.45                           176 155 
 YOP  SE ES   2    112 47.10                             128   -0.07 4  176 155 
 ZAR  HZ EP   1    112 26.53                             123   -0.37 6  209 292 
 ZAR  HN ES   2    112 52.78                             123   -0.05 4  209 292 
 ZAR  HZ I         112 56.97      1321.6 0.63                           209 292 
 NOR  SZ EP        112 29.72                             119   -0.33 8  239 235 
 NOR  SN ES   1    112 58.31                             119   -0.13 6  239 235 
 ROSC BE ES   2    113  1.63                             117   -0.72 4  255 212 
 ROSC BZ I         113  8.45      1489.0 0.46                           255 212 
 HEL  HZ EP        112 34.81                             115    0.18 7  277 256 
 HEL  HN ES   2    113  7.07                             115    0.48 4  277 256 
 HEL  HZ I         113 12.24       866.5 0.41                           277 256 
 VIL  SZ EP        112 37.07                             113   -0.25 7  304 193 
 VIL  SN ES   1    113 11.66                             113    0.28 5  304 193 
 VIL  SZ I         113 20.45       529.1 0.41                           304 193 
 GUY  SZ EP   1    112 38.35                             113    0.18 5  308 236 
 GUY  SN ES   2    113 13.16                             113    0.27 4  308 236 
 GUY  SZ I         113 21.45       983.2 0.69                           308 236 
 RREF HZ EP        112 40.17                             111   -0.22 7  325 230 
 RREF HN ES   1    113 16.52                             111   -0.33 5  325 230 
 RREF HZ I         113 23.36       890.5 0.32                           325 230 
 DBB  SZ EP   2    112 42.25                             110    0.34 3  345 274 
 DBB  SZ ES   2    113 19.73                             110    0.18 3  345 274 
 TOL  SZ EP   1    112 42.57                             110    0.11 5  347 225 
 TOL  SZ ES   1    113 20.80                             110    0.27 5  347 225 
 SDV  BZ IP     C  112 43.15                             109   -0.27 6  357  50 
 SDV  BN ES   1    113 22.04                             109   -0.21 5  357  50 
 SDV  BZ I         113 23.93       195.0 0.38                           357  50 
 ANIL HZ EP   1    112 44.30                             109    0.30 5  361 225 
 ANIL HN ES   2    113 23.10                             109   -0.17 3  361 225 
 ANIL HZ I         113 28.70      1430.3 0.41                           361 225 
 PRA  HZ EP   1    112 47.25                             107   -0.32 4  394 210 
 PRA  HN ES   2    113 29.58                             107   -0.04 3  394 210 
                                                                                
