 2017 1020 0613 58.8 L   6.444 -73.664102.2  RSN  7 0.5 1.5LRSN                1
 GAP= 77        1.06       4.0     3.7  8.4 -0.1013E+01  0.9262E+01  0.7472E+01E
 Epicentro: SANTA HELENA DEL OPON - SANTANDER                                  3
 ACTION:UPD 17-11-07 19:34 OP:rebc STATUS:               ID:20171020061358 L   I
 OLDACT:UP  17-10-20 15:52 OP:dani STATUS:               ID:20171020060738     3
 OLDACT:UP  17-10-20 15:52 OP:dani STATUS:               ID:20171020060738     3
 OLDACT:REG 17-10-20 13:12 OP:dani STATUS:               ID:20171020060738     3
 2017-10-20-0608-00M.COL___456                                                 6
 STAT SP IPHASW D HRMM SECON CODA AMPLIT PERI AZIMU VELO AIN AR TRES W  DIS CAZ7
 BAR2 EZ EP        614 14.93                             149    0.1410 55.8  73 
 BAR2 EZ ES        614 27.36                             149    0.1410 55.8  73 
 BAR2 EZ I         614 29.04        14.5 0.30            153           55.8  73 
 BRR  HZ EP        614 15.71                             141    0.0210 73.5 356 
 BRR  HE ES        614 29.33                             141    0.5110 73.5 356 
 BRR  HZ I         614 30.43         3.5 0.14            145           73.5 356 
 PTB  HZ EP        614 16.28                             136   -0.6210 88.2 277 
 PTB  HN ES        614 30.42                             136   -0.5610 88.2 277 
 PTB  HZ I         614 32.14         7.0 0.18            138           88.2 277 
 RUS  HZ EP        614 17.27                             136   -0.3110 88.6 133 
 RUS  HN ES        614 31.82                             136   -0.3710 88.6 133 
 RUS  HZ I         614 34.62         3.9 0.68            139           88.6 133 
 SPBC HZ EP        614 17.89                             132   -0.0110 98.5 207 
 SPBC HN ES        614 33.00                             132    0.2410 98.5 207 
 SPBC HZ I         614 34.55        11.2 0.72            134           98.5 207 
 NOR  HZ EP        614 25.37                             116    0.77 9  165 234 
 NOR  HE ES        614 44.99                             116    0.30 9  165 234 
 NOR  HZ I         614 49.25         5.6 0.10            119            165 234 
 URE  HN ES   3    615  0.35                             106   -1.89 2  252 305 
 URE  HZ I         615  3.14         2.5 0.56            108            252 305 
                                                                                
