 2011  320 0510  6.2 L   6.786 -73.070147.7  RSN  9 0.3 1.8LRSN                1
 GAP=132        0.59       2.6     7.1  4.8 -0.9819E+01 -0.2006E+01  0.7277E+00E
 Epicentro: LOS SANTOS - SANTANDER                                             3
 ACTION:UP  11-06-16 14:34 OP:jfem STATUS:               ID:20110320051006 L   I
 2011-03-20-0508-44S.COL___136                                                 6
 STAT SP IPHASW D HRMM SECON CODA AMPLIT PERI AZIMU VELO SNR AR TRES W  DIS CAZ7
 BAR2 SZ EP   1    510 26.26                             170     0.2 7   25 210 
 BAR2 SZ ES   1    510 41.77                             170     0.2 7   25 210 
 BAR2 SZ I         510 43.97        13.2 0.57                            25 210 
 BTL  SZ EP        510 25.89                             169    -0.210   26 304 
 RUS  HZ EP   1    510 29.60                             145    -0.4 7   99 181 
 RUS  HN ES   1    510 48.39                             145    -0.2 7   99 181 
 RUS  HZ I         510 50.02         6.5 0.34                            99 181 
 GRA  SZ EP   1    510 31.92                             137     0.4 7  125  14 
 GRA  SZ ES   1    510 51.18                             137    -0.1 7  125  14 
 GRA  SZ I         510 53.13         8.9 0.25                           125  14 
 OCA  SZ EP   1    510 35.21                             129     0.3 7  163 350 
 OCA  SZ ES   1    510 57.32                             129     0.0 7  163 350 
 OCA  SZ I         511  1.87        12.5 0.35                           163 350 
 NOR  SN ES   3    511  9.62                             118    -1.5 2  241 236 
 CHI  HZ EP   1    510 44.29                             117     0.2 6  250 197 
 CHI  HE ES   1    511 14.05                             117     0.4 6  250 197 
 SDV  BZ EP        510 55.46                             109    -0.2 6  355  49 
 PRA  HZ EP   1    511  0.20                             107     0.1 4  395 211 
 PRA  HN ES   1    511 42.10                             107    -0.1 4  395 211 
                                                                                
