 2017  220 0559 25.7 L   6.057 -73.695115.2  RSN 16 0.6 2.0LRSN                1
 GAP= 42        1.31       3.0     3.0  7.0 -0.9957E+00  0.4607E+01  0.5385E+01E
 Epicentro: VELEZ - SANTANDER                                                  3
 ACTION:UPD 17-05-24 15:38 OP:jn   STATUS:               ID:20170220055925 L   I
 OLDACT:UP  17-02-20 17:05 OP:dani STATUS:               ID:20170220055742     3
 OLDACT:UP  17-02-20 17:05 OP:dani STATUS:               ID:20170220055742     3
 OLDACT:REG 17-02-20 12:50 OP:dani STATUS:               ID:20170220055742     3
 2017-02-20-0558-00M.COL___348                                                 6
 STAT SP IPHASW D HRMM SECON CODA AMPLIT PERI AZIMU VELO AIN AR TRES W  DIS CAZ7
 RUS  HZ IP     D  559 44.39                             147    0.1710 70.1 105 
 RUS  HE ES        559 58.65                             147   -0.0510 70.1 105 
 BAR2 EZ EP     D  559 45.16                             142    0.4610 82.0  44 
 BAR2 EZ ES        559 59.72                             142    0.1610 82.0  44 
 BAR2 EZ I         6 0  0.76        48.5 0.12            145           82.0  44 
 PTB  HZ EP        559 44.99                             136   -0.8210 99.7 302 
 PTB  HN ES        6 0  0.40                             136   -1.1410 99.7 302 
 PTB  HZ I         6 0  3.19        16.9 0.14            137           99.7 302 
 BRR  HZ EP        559 47.24                             131    0.0010  116 359 
 BRR  HN ES        6 0  5.25                             131    1.1710  116 359 
 BRR  HZ I         6 0  7.52        12.1 0.10            134            116 359 
 NOR  HZ EP        559 49.60                             125   -0.10 9  141 247 
 NOR  HE ES        6 0  9.27                             125    0.82 9  141 247 
 NOR  HZ I         6 0 10.51        26.2 0.38            126            141 247 
 CHI  HZ EP        559 51.88                             122    0.00 9  158 181 
 CHI  HN ES        6 0 11.73                             122   -0.60 9  158 181 
 CHI  HZ I         6 0 15.11        10.8 0.38            123            158 181 
 PAM  EZ EP        559 54.88                             118    0.63 9  180  38 
 PAM  EN ES        6 0 16.26                             118   -0.30 9  180  38 
 PAM  EZ I         6 0 18.65         5.1 0.14            120            180  38 
 ZAR  HZ EP        559 56.06                             115   -0.28 9  204 321 
 ZAR  HN ES        6 0 20.21                             115   -0.06 9  204 321 
 ZAR  HZ I         6 0 21.47        14.6 0.32            116            204 321 
 TAM  HZ EP        559 57.91                             113    0.36 8  215  79 
 TAM  HE ES        6 0 21.87                             113   -0.55 8  215  79 
 TAM  HZ I         6 0 24.28         8.8 0.46            115            215  79 
 ELA  HZ EP   4    6 0  2.39                             112    2.43 0  231 235 
 CBOC HZ EP        6 0  3.12                             109    0.55 8  257 265 
 CBOC HE ES   4    6 0 29.20                             109   -2.16 0  257 265 
 CBOC HZ I         6 0 35.06         2.6 0.40            110            257 265 
 ANIL HZ EP        6 0  3.08                             109    0.46 8  257 228 
 ANIL HE ES   3    6 0 33.11                             109    1.66 2  257 228 
 ANIL HZ I         6 0 34.57        17.0 0.24            110            257 228 
 PTGC HZ EP        6 0  3.08                             108   -0.56 8  269 140 
 PTGC HE ES   3    6 0 32.09                             108   -1.19 2  269 140 
 PTGC HZ I         6 0 37.54         4.3 0.41            109            269 140 
 URE  HZ EP   3    6 0  3.20                             107   -1.36 2  276 313 
 URE  HN ES   4    6 0 31.61                             107   -3.30 0  276 313 
 URE  HZ I         6 0 35.00         7.8 0.12            108            276 313 
 PRA  HZ EP        6 0  6.11                             106   -0.17 7  291 207 
 PRA  HN ES        6 0 37.58                             106   -0.39 7  291 207 
 PRA  HZ I         6 0 44.73         6.6 0.34            107            291 207 
 ORTC HZ EP        6 0  6.81                             106    0.25 7  293 216 
 ORTC HN ES        6 0 39.35                             106    0.87 7  293 216 
 ORTC HZ I         6 0 44.36         7.4 0.60            107            293 216 
 DBB  EZ EP        6 0  7.00                             106   -0.14 7  298 291 
 DBB  EN ES        6 0 38.76                             106   -0.75 7  298 291 
 DBB  EZ I         6 0 42.41         5.2 0.20            107            298 291 
                                                                                
