 2012  220 0446 16.4 L   6.742 -73.172144.6  RSN  6 0.4 1.6LRSN                1
 GAP=136        0.75       5.0     5.0  6.4 -0.2454E+01  0.4536E+01  0.2562E+01E
 ACTION:UP  12-03-07 16:32 OP:epov STATUS:               ID:20120220044616 L   I
 2012-02-20-0440-00M.COL___191                                                 6
 STAT SP IPHASW D HRMM SECON CODA AMPLIT PERI AZIMU VELO AIN AR TRES W  DIS CAZ7
 BAR2 SZ EP   1    446 35.79                             173    0.02 7 16.5 184 
 BAR2 SZ ES   1    446 50.74                             173   -0.14 7 16.5 184 
 BAR2 SZ I         446 52.69        10.4 0.20                          16.5 184 
 GIR2 SZ EP   1    446 36.06                             165   -0.05 7 37.4 356 
 GIR2 SZ ES   1    446 51.05                             165   -0.44 7 37.4 356 
 BRR  HZ IP     C  446 37.78                             152    0.3110 72.1 304 
 BRR  HZ I         446 38.13        20.5 0.10                          72.1 304 
 BRR  HE ES   1    446 54.68                             152    0.77 7 72.1 304 
 PAM  SZ EP   1    446 38.89                             148   -0.03 7 84.2  38 
 PAM  SZ I         446 39.04         4.0 0.20                          84.2  38 
 PAM  SE ES   1    446 56.24                             148   -0.23 7 84.2  38 
 RUS  HZ EP   1    446 39.88                             145    0.28 7 94.4 174 
 RUS  HN ES   1    446 57.79                             145    0.10 7 94.4 174 
 RUS  HZ I         446 59.36         6.0 0.29                          94.4 174 
 PTB  HZ EP   1    446 42.30                             132   -0.61 7  144 261 
 PTB  HN ES   1    447  3.25                             132   -0.34 7  144 261 
                                                                                
