 2010 1220 0339  0.5 L   6.781 -73.096143.6  RSN  9 0.3 2.2LRSN                1
 GAP=164        0.65       2.7     5.1  5.6 -0.5690E+01  0.1212E+02 -0.3631E+00E
 Epicentro: LOS SANTOS - SANTANDER                                             3
 ACTION:UP  11-01-14 15:26 OP:pat  STATUS:               ID:20101220033900 L   I
 2010-12-20-0338-55S.COL___133                                                 6
 STAT SP IPHASW D HRMM SECON CODA AMPLIT PERI AZIMU VELO SNR AR TRES W  DIS CAZ7
 BAR2 SZ IP        339 20.08                             170     0.210   23 205 
 BAR2 SZ I         339 20.64        46.0 0.34                            23 205 
 BAR2 SZ ES   1    339 35.08                             170     0.1 7   23 205 
 RUS  HZ EP        339 23.85                             144    -0.110   98 179 
 RUS  HN ES   1    339 41.98                             144    -0.1 7   98 179 
 RUS  HZ I         339 45.48        12.8 0.37                            98 179 
 GRA  SZ EP   1    339 25.91                             136     0.3 7  126  15 
 GRA  SZ ES   1    339 45.20                             136     0.0 7  126  15 
 GRA  SZ I         339 46.54        31.9 0.34                           126  15 
 OCA  SZ EP   1    339 28.66                             129    -0.3 7  163 351 
 OCA  SZ ES   1    339 50.88                             129    -0.2 7  163 351 
 OCA  SZ I         339 55.43        23.1 0.45                           163 351 
 NOR  SZ EP   1    339 36.03                             118    -0.5 6  238 236 
 NOR  SN ES   1    340  4.90                             118     0.3 6  238 236 
 CHI  HZ EP   1    339 37.96                             117    -0.1 6  248 197 
 CHI  HE ES   1    340  7.21                             117    -0.1 6  248 197 
 CHI  HZ I         340 11.27         5.8 0.39                           248 197 
 HEL  HZ EP   1    339 41.10                             114    -0.1 6  277 257 
 HEL  HE ES   2    340 13.42                             114     0.5 4  277 257 
 HEL  HZ I         340 18.35         7.1 0.49                           277 257 
 RREF HZ EP   1    339 47.80                             110     0.9 5  325 230 
 RREF HE ES   1    340 22.32                             110    -0.8 5  325 230 
 RREF HZ I         340 31.72        13.2 0.38                           325 230 
 PRA  HZ EP   1    339 54.12                             106     0.0 4  393 210 
 PRA  HE ES   2    340 36.20                             106     0.3 3  393 210 
                                                                                
