 2012 1020 0311 28.9 L   6.806 -73.145147.0  RSN  6 0.4 1.8LRSN                1
 GAP=136        0.73       5.0     5.4  6.8  0.5493E+01  0.4445E+01  0.2307E+01E
 Epicentro: LOS SANTOS - SANTANDER                                             3
 ACTION:UPD 12-11-22 17:04 OP:ep   STATUS:               ID:20121020031128 L   I
 2012-10-20-0310-00M.COL___233                                                 6
 STAT SP IPHASW D HRMM SECON CODA AMPLIT PERI AZIMU VELO AIN AR TRES W  DIS CAZ7
 BAR2 SZ EP   1    311 48.61                             170   -0.04 7 24.0 190 
 BAR2 SZ ES   1    312  3.69                             170   -0.39 7 24.0 190 
 BAR2 SZ I         312  5.98        16.9 0.20                          24.0 190 
 GIR2 SZ EP   1    311 48.06                             168   -0.60 7 30.7 350 
 GIR2 SZ ES   1    312  4.08                             168   -0.02 7 30.7 350 
 BRR  HZ EP   1    311 50.48                             153    0.35 7 71.0 298 
 BRR  HZ I         311 51.62         7.4 0.14                          71.0 298 
 BRR  HN ES   1    312  7.30                             153    0.58 7 71.0 298 
 PAM  SZ EP   1    311 51.61                             151    0.44 7 76.8  40 
 PAM  SZ I         311 51.80         8.3 0.18                          76.8  40 
 PAM  SN ES   1    312  8.39                             151   -0.19 7 76.8  40 
 RUS  HZ EP   1    311 52.72                             144   -0.05 7  101 176 
 RUS  HE ES   1    312 11.64                             144    0.21 7  101 176 
 RUS  HE I         312 13.33        15.5 0.22                           101 176 
 ZAR  HN ES   1    312 26.32                             123   -0.41 6  204 292 
                                                                                
