 2010  620 0032 31.7 L   6.779 -73.112155.5  RSN  4 0.1 1.2LRSN                1
 GAP=163        0.37       8.5    14.7  9.4  0.1068E+03 -0.1029E+03 -0.5095E+02E
 Epicentro: LOS SANTOS - SANTANDER                                             3
 ACTION:UP  10-08-24 10:11 OP:vdl  STATUS:               ID:20100620003231 L   I
 2010-06-20-0028-17S.COL___118                                                 6
 STAT SP IPHASW D HRMM SECON CODA AMPLIT PERI AZIMU VELO SNR AR TRES W  DIS CAZ7
 BAR2 SZ EP   1    032 52.23                             170    -0.2 7   22 201 
 BRR  HZ EP        032 54.19                             152     0.110   76 299 
 BRR  HE ES   1    033 11.57                             152     0.0 7   76 299 
 BRR  HZ I         033 18.08         4.6 0.37                            76 299 
 RUS  HZ EP   2    032 56.35                             145     0.1 5   98 178 
 RUS  HN ES   2    033 15.45                             145     0.1 5   98 178 
 RUS  HZ I         033 16.99         1.3 0.29                            98 178 
 GRA  SZ EP   3    032 58.00                             139     0.1 2  127  16 
                                                                                
