 2014  720 0829 35.6 L   6.820 -73.087142.7  RSN  6 0.5 1.2LRSN                1
 GAP=189        0.99       5.5     7.4 13.1  0.1687E+01  0.4075E+02 -0.1647E+02E
 Epicentro: LOS SANTOS - SANTANDER                                             3
 ACTION:UPD 15-03-16 20:45 OP:nd   STATUS:               ID:20140720082935 L   I
 OLDACT:REG 14-07-20 13:24 OP:fm   STATUS:               ID:20140720082818     3
 2014-07-20-0828-18M.COL___263                                                 6
 STAT SP IPHASW D HRMM SECON CODA AMPLIT PERI AZIMU VELO AIN AR TRES W  DIS CAZ7
 BAR2 SZ EP   1    829 55.69                             169    0.78 8 27.3 203 
 BAR2 SZ ES   1    830 10.39                             169    0.39 8 27.3 203 
 BAR2 SZ I         830 11.87         8.0 0.26            171           27.3 203 
 RUS  HN ES   1    830 17.15                             143   -0.40 8  103 180 
 RUS  HZ I         830 19.19         1.5 0.26            147            103 180 
 PTB  HZ EP        830  2.74                             130   -0.1610  155 259 
 PTB  HN ES        830 23.90                             130   -0.3410  155 259 
 PTB  HZ I         830 26.81         1.5 0.20            132            155 259 
 OCA  HN ES   1    830 24.61                             129   -0.71 7  159 351 
 OCA  HZ I         830 29.33         1.6 0.26            130            159 351 
 SPBC HN ES   1    830 26.72                             127   -0.15 7  169 220 
 SPBC HZ I         830 28.05         1.9 0.24            130            169 220 
 ZAR  HN ES        830 34.48                             121    0.55 9  209 291 
 ZAR  HZ I         830 40.13         1.8 0.36            122            209 291 
                                                                                
