 2012  820 0554 42.5 L   6.792 -73.137144.0  RSN 12 0.5 2.4LRSN                1
 GAP= 66        0.90       3.2     3.3  6.0  0.1061E+01  0.4880E+01  0.3340E+01E
 Epicentro: LOS SANTOS - SANTANDER                                             3
 ACTION:UPD 12-09-10 11:57 OP:ep   STATUS:               ID:20120820055442 L   I
 2012-08-20-0550-00M.COL___217                                                 6
 STAT SP IPHASW D HRMM SECON CODA AMPLIT PERI AZIMU VELO AIN AR TRES W  DIS CAZ7
 BAR2 SZ IP        555  1.95                             171    0.0110 22.6 193 
 BAR2 SZ I         555  2.13        98.1 0.20                          22.6 193 
 BAR2 SZ ES   1    555 16.61                             171   -0.46 7 22.6 193 
 BRR  HZ IP     C  555  3.81                             152    0.2410 72.5 299 
 BRR  HZ I         555  4.10        70.8 0.29                          72.5 299 
 BRR  HN ES   1    555 20.72                             152    0.75 7 72.5 299 
 PAM  SZ EP        555  4.77                             151    0.2010 77.5  39 
 PAM  SZ I         555  5.27        61.6 0.24                          77.5  39 
 PAM  SN ES   1    555 21.73                             151   -0.02 7 77.5  39 
 RUS  HZ EP        555  5.90                             144   -0.1410 99.6 177 
 RUS  HE ES   1    555 24.41                             144    0.04 7 99.6 177 
 RUS  HZ I         555 25.66        22.6 0.33                          99.6 177 
 PTB  HZ EP        555  8.83                             131   -0.60 9  149 259 
 PTB  HE ES   2    555 29.55                             131   -0.86 5  149 259 
 PTB  HZ I         555 32.06        15.9 0.22                           149 259 
 TAM  HZ EP   1    555 10.22                             130    0.26 7  154 105 
 TAM  HE ES   1    555 31.88                             130    0.53 7  154 105 
 OCA  HZ EP   1    555 10.49                             129   -0.32 7  161 353 
 OCA  HE ES   1    555 31.88                             129   -0.98 7  161 353 
 OCA  HZ I         555 35.52        47.0 0.32                           161 353 
 YOP  SZ EP   1    555 12.47                             126    0.15 7  178 153 
 YOP  SN ES   1    555 35.63                             126    0.07 7  178 153 
 YOP  SZ I         555 40.71        17.4 0.34                           178 153 
 ZAR  HZ EP   1    555 15.01                             122    0.01 6  205 292 
 ZAR  HN ES   1    555 40.81                             122    0.50 6  205 292 
 ZAR  HZ I         555 45.88        43.1 0.33                           205 292 
 NOR  SZ EP        555 18.46                             118    0.27 8  235 235 
 NOR  SN ES   1    555 45.91                             118   -0.09 6  235 235 
 NOR  SZ I         555 52.95        17.7 0.21                           235 235 
 CHI  HZ EP   1    555 19.58                             117   -0.48 6  248 195 
 CHI  HN ES   1    555 48.69                             117   -0.65 6  248 195 
 CHI  HZ I         555 55.58         7.3 0.29                           248 195 
 HEL  HZ EP   1    555 22.78                             114    0.04 6  273 256 
 HEL  HN ES   1    555 55.28                             114    1.18 6  273 256 
 HEL  HZ I         556  0.35        17.4 0.32                           273 256 
                                                                                
