 2012  420 0012 41.8 L   6.780 -73.151145.8  RSN  5 0.4 1.5LRSN                1
 GAP=137        0.90       6.3     6.1  8.5 -0.2802E+01  0.6833E+01  0.7992E+00E
 Epicentro: LOS SANTOS - SANTANDER                                             3
 ACTION:UPD 12-07-05 11:54 OP:tino STATUS:               ID:20120420001241 L   I
 2012-04-20-0010-00M.COL___187                                                 6
 STAT SP IPHASW D HRMM SECON CODA AMPLIT PERI AZIMU VELO AIN AR TRES W  DIS CAZ7
 BAR2 SZ EP        013  1.54                             171     0.110   21 189 
 BAR2 SZ ES   1    013 16.39                             171    -0.3 7   21 189 
 BAR2 SZ I         013 17.71        14.6 0.25                            21 189 
 BRR  HZ EP        013  3.40                             152     0.410   72 300 
 BRR  HZ I         013  8.18         9.3 0.07                            72 300 
 BRR  HE ES   1    013 20.07                             152     0.6 7   72 300 
 PAM  SZ EP   1    013  3.99                             150    -0.2 7   80  39 
 PAM  SN ES   1    013 21.17                             150    -0.4 7   80  39 
 RUS  HZ EP   1    013  5.41                             144     0.0 7   98 176 
 RUS  HN ES   1    013 24.04                             144     0.2 7   98 176 
 RUS  HZ I         013 25.25         2.6 0.20                            98 176 
 PTB  HZ EP   1    013  8.20                             132    -0.5 7  147 260 
 PTB  HE ES   1    013 29.13                             132    -0.5 7  147 260 
 PTB  HZ I         013 31.25         3.7 0.15                           147 260 
                                                                                
