 2014  920 0611 27.8 L   6.781 -73.146145.8  RSN  8 0.4 1.6LRSN                1
 GAP=137        0.99       3.4     5.3  6.2  0.2954E+01  0.6089E+01 -0.2942E+01E
 Epicentro: LOS SANTOS - SANTANDER                                             3
 ACTION:UPD 14-10-03 23:06 OP:nd   STATUS:               ID:20140920061127 L   I
 OLDACT:REG 14-09-20 12:36 OP:spq  STATUS:               ID:20140920060811     3
 2014-09-20-0608-11M.COL___293                                                 6
 STAT SP IPHASW D HRMM SECON CODA AMPLIT PERI AZIMU VELO AIN AR TRES W  DIS CAZ7
 BAR2 SZ EP        611 47.28                             171   -0.1510 21.2 191 
 BAR2 SZ ES        612  2.68                             171   -0.0410 21.2 191 
 BAR2 SZ I         612  3.47         8.4 0.22            173           21.2 191 
 BRR  HZ EP        611 49.42                             152    0.3810 72.2 300 
 BRR  HN ES        612  6.09                             152    0.5010 72.2 300 
 BRR  HZ I         612 11.34         6.9 0.46            152           72.2 300 
 PAM  SZ EP        611 50.72                             150    0.5610 79.1  39 
 PAM  SN ES        612  7.76                             150    0.1910 79.1  39 
 PAM  SZ I         612 10.11         6.9 0.42            152           79.1  39 
 RUS  HZ EP        611 51.35                             144   -0.0910 98.5 176 
 RUS  HN ES        612  9.21                             144   -0.6410 98.5 176 
 RUS  HZ I         612 10.74         6.0 0.32            148           98.5 176 
 SPBC HZ EP        611 56.31                             129    0.13 9  161 219 
 SPBC HN ES   4    612 14.19                             129   -4.09 0  161 219 
 OCA  HZ EP        611 56.54                             129    0.19 9  162 353 
 OCA  HN ES        612 17.86                             129   -0.73 9  162 353 
 OCA  HZ I         612 21.83         6.3 0.24            131            162 353 
 ZAR  HN ES        612 25.77                             122    0.04 9  205 293 
 ZAR  HZ I         612 28.18         3.8 0.22            124            205 293 
 SML  HZ EP        612  4.51                             117   -0.16 8  246 336 
 SML  HN ES        612 32.91                             117   -0.49 8  246 336 
                                                                                
