 2017  920 0807 19.1 L   6.817 -73.132141.9  RSN  5 0.3 1.2LRSN                1
 GAP=137        0.72       3.9     4.6  6.8  0.1432E+01  0.1824E+02  0.6104E+01E
 Epicentro: LOS SANTOS - SANTANDER                                             3
 ACTION:UPD 17-10-05 19:14 OP:rebc STATUS:               ID:20170920080719 L   I
 OLDACT:DUP 17-09-20 16:10 OP:osc  STATUS:               ID:20170920075742d    3
 OLDACT:UP  17-09-20 16:07 OP:osc  STATUS:               ID:20170920075741     3
 OLDACT:REG 17-09-20 13:21 OP:and  STATUS:               ID:20170920075741     3
 2017-09-20-0758-00M.COL___446                                                 6
 STAT SP IPHASW D HRMM SECON CODA AMPLIT PERI AZIMU VELO AIN AR TRES W  DIS CAZ7
 BAR2 EZ EP        8 7 38.20                             169   -0.1010 25.4 193 
 BAR2 EZ ES        8 7 53.61                             169    0.3210 25.4 193 
 BAR2 EZ I         8 7 54.61         5.3 0.28            169           25.4 193 
 PAM  EE ES        8 7 57.76                             151    0.1110 75.0  40 
 RUS  HZ EP        8 7 42.42                             142   -0.1710  102 177 
 RUS  HN ES        8 8  0.60                             142   -0.3210  102 177 
 RUS  HZ I         8 8  2.04         1.8 0.30            143            102 177 
 ZAR  HZ EP   4    8 7 46.60                             121   -4.76 0  205 292 
 ZAR  HE ES        8 8 16.16                             121   -0.37 9  205 292 
 GUY2CHZ EP        8 8  3.34                             111    0.56 7  303 235 
 GUY2CHN ES        8 8 37.12                             111    0.26 7  303 235 
 GUY2CHZ I         8 8 48.79         0.9 0.54                           303 235 
                                                                                
