 2017 1120 0543 35.9 L   6.847 -73.157143.0  RSN 27 0.8 2.6LRSN                1
 GAP= 64        1.67       3.8     4.1  7.5  0.3094E+00  0.1074E+02  0.6261E+00E
 Epicentro: LOS SANTOS - SANTANDER                                             3
 ACTION:UPD 17-12-12 19:57 OP:rebc STATUS:               ID:20171120054335 L   I
 OLDACT:UP  17-11-20 19:20 OP:edw  STATUS:               ID:20171120053531     3
 OLDACT:UP  17-11-20 19:20 OP:edw  STATUS:               ID:20171120053531     3
 OLDACT:REG 17-11-20 15:06 OP:osc  STATUS:               ID:20171120053531     3
 2017-11-20-0538-00M.COL___465                                                 6
 STAT SP IPHASW D HRMM SECON CODA AMPLIT PERI AZIMU VELO AIN AR TRES W  DIS CAZ7
 BAR2 EZ EP     C  543 55.18                             168   -0.1110 28.3 186 
 BAR2 EZ ES        544 10.34                             168   -0.0910 28.3 186 
 BAR2 EZ I         544 11.43       148.0 0.30            170           28.3 186 
 PAM  EZ IP     D  543 57.97                             151    0.3510 74.3  43 
 PAM  EE ES        544 15.30                             151    0.7310 74.3  43 
 PAM  EZ I         544 17.35        85.1 0.52            150           74.3  43 
 RUS  HZ EP     C  543 59.09                             142   -0.6610  106 176 
 RUS  HN ES        544 17.49                             142   -0.8810  106 176 
 RUS  HZ I         544 19.51        35.3 0.44            143            106 176 
 PTB  HZ EP        544  1.72                             131   -0.89 9  148 257 
 PTB  HN ES        544 22.51                             131   -0.95 9  148 257 
 PTB  HZ I         544 30.21        29.1 0.16            131            148 257 
 TAM  HZ IP     C  544  3.63                             129    0.04 9  158 107 
 TAM  HZ I         544 24.55        29.1 0.36            129            158 107 
 TAM  HN ES        544 25.44                             129    0.24 9  158 107 
 SPBC HZ EP        544  4.12                             128   -0.36 9  166 218 
 SPBC HN ES        544 26.23                             128   -0.56 9  166 218 
 SPBC HZ I         544 30.52        85.6 0.40            128            166 218 
 YPLC HZ IP     C  544  5.66                             125   -0.33 9  182 152 
 YPLC HN ES        544 29.73                             125    0.26 9  182 152 
 YPLC HZ I         544 32.43        26.9 0.28            125            182 152 
 ZAR  HZ EP        544  8.36                             122    0.53 9  201 291 
 ZAR  HN ES        544 33.15                             122    0.41 9  201 291 
 ZAR  HZ I         544 38.39        60.8 0.28            121            201 291 
 TABC EZ EP        544 12.84                             118    0.96 8  234 210 
 TABC EZ ES        544 42.20                             118    2.24 8  234 210 
 TABC EZ I         544 46.76        63.4 0.36            118            234 210 
 NOR  HZ EP        544 11.42                             117   -0.25 8  237 233 
 NOR  HE ES        544 40.30                             117    0.72 8  237 233 
 NOR  HZ I         544 46.64        25.9 0.28            117            237 233 
 CHI  HZ EP        544 13.62                             116   -0.32 8  253 195 
 CHI  HN ES        544 42.90                             116   -0.73 8  253 195 
 CHI  HZ I         544 46.27        40.1 0.60            116            253 195 
 ROSC BZ EP        544 15.14                             116    0.87 8  257 210 
 ROSC BN ES        544 45.37                             116    1.16 8  257 210 
 URE  HZ EP        544 15.84                             113   -0.63 7  281 291 
 URE  HN ES        544 46.64                             113   -1.49 7  281 291 
 URE  HZ I         544 58.89        26.1 0.38            112            281 291 
 GUY2CHZ EP        544 20.18                             111    0.59 7  303 234 
 GUY2CHE ES   4    544 57.62                             111    3.94 0  303 234 
 GUY2CHZ I         545  1.67        31.3 0.58                           303 234 
 VIL  EZ EP        544 19.12                             111   -0.60 7  308 191 
 VIL  EN ES        544 53.04                             111   -0.88 7  308 191 
 VIL  EZ I         544 56.01        56.0 0.38            111            308 191 
 PTGC HZ EP   9    544 18.31                             110   -1.91 0  314 159 
 PTGC HN ES        544 52.13                             111   -0.76 7  314 159 
 PTGC HZ I         544 54.53        21.3 0.32            110            314 159 
 DRL01HZ EP   1    544 21.38                             110    0.33 5  321 350 
 DRL01HE ES   4    544 57.78                             110    1.50 0  321 350 
 CBOC HZ EP        544 23.07                             109    0.34 7  334 251 
 CBOC HE ES        545  0.24                             109    0.97 7  334 251 
 CBOC HZ I         545  5.13         7.2 0.22            109            334 251 
 DBB  EN ES        544 59.20                             109   -0.66 7  338 273 
 DBB  EZ I         545  2.44        12.1 0.50            108            338 273 
 ARGC HZ EP   4    544 25.19                             108    0.38 0  354 340 
 ARGC HN ES        545  4.77                             108    1.79 6  354 340 
 ARGC HZ I         545 10.97         8.0 0.28            107            354 340 
 PRA  HZ EP        544 28.89                             106   -0.88 6  396 209 
 PRA  HN ES        545 11.67                             106   -0.12 6  396 209 
 PRA  HZ I         545 15.50        30.6 0.44            106            396 209 
 ORTC HZ EP        544 29.73                             106   -0.38 6  399 216 
 ORTC HN ES        545 13.07                             106    0.66 6  399 216 
 ORTC HZ I         545 16.65        18.2 0.26            105            399 216 
 SJC  HZ EP        544 29.40                             105   -1.36 6  404 327 
 SJC  HN ES   4    545 10.42                             105   -3.14 0  404 327 
 SJC  HZ I         545 24.92        10.4 0.74            105            404 327 
 PAL  HZ EP        544 31.33                             105    0.19 6  407 238 
 PAL  HN ES        545 15.34                             105    1.10 6  407 238 
 PAL  HZ I         545 18.89         6.9 0.56            105            407 238 
 CRJC HZ EP   9    544 35.52                             103   -2.18 0  463   4 
 CRJC HN ES        545 23.19                             104   -0.55 5  463   4 
 CRJC HZ I         545 24.92        14.8 0.48            102            463   4 
 YOT  HZ EP   4    544 37.95                             103   -1.20 0  474 228 
 YOT  HN ES   4    545 27.18                             103   -1.31 0  474 228 
 SMAR HZ EP        544 40.61                             102   -0.43 4  492 346 
 SMAR HN ES   4    545 27.87                             102   -4.00 0  492 346 
 SMAR HZ I         545 33.19         5.7 0.52            101            492 346 
 URI  HZ EP   4    544 45.87                             100   -2.38 0  552  13 
 URI  HN ES   4    545 39.85                             100   -4.85 0  552  13 
 URI  HZ I         545 48.14         2.0 0.46            100            552  13 
                                                                                
