 2014  520 0713 37.4 L   6.775 -73.321133.3  RSN 10 0.4 1.6LRSN                1
 GAP=165        0.87       2.6     4.1  6.5  0.6332E+00  0.2172E+01 -0.1822E+01E
 Epicentro: ZAPATOCA - SANTANDER                                               3
 OLDACT:REG 14-05-20 12:53 OP:spq  STATUS:               ID:20140520070807     3
 ACTION:UPD 15-03-16 16:59 OP:nd   STATUS:               ID:20140520071337 L   I
 OLDACT:UP  14-05-20 19:09 OP:spq  STATUS:               ID:20140520070807     3
 2014-05-20-0708-07M.COL___251                                                 6
 STAT SP IPHASW D HRMM SECON CODA AMPLIT PERI AZIMU VELO AIN AR TRES W  DIS CAZ7
 BRR  HZ EP        713 56.83                             156    0.3910 56.7 310 
 BRR  HN ES        714 11.16                             156   -0.1010 56.7 310 
 BRR  HZ I         714 12.00        15.4 0.10            160           56.7 310 
 RUS  HZ EP        714  0.14                             141    0.1210  101 165 
 RUS  HN ES        714 17.78                             141    0.1510  101 165 
 RUS  HZ I         714 29.75         2.6 0.48            142            101 165 
 PTB  HZ EP        714  1.24                             133   -0.3810  128 258 
 PTB  HN ES        714 19.99                             133   -0.4910  128 258 
 PTB  HZ I         714 22.57         6.1 0.26            137            128 258 
 SPBC HZ EP   1    714  3.21                             129   -0.47 7  149 214 
 SPBC HN ES        714 24.66                             129    0.51 9  149 214 
 SPBC HZ I         714 29.11         5.1 0.28            132            149 214 
 OCA  HZ EP   2    714  4.63                             126   -0.33 5  162   0 
 OCA  HN ES        714 25.83                             126   -0.60 9  162   0 
 OCA  HZ I         714 32.23         5.2 0.36            130            162   0 
 ZAR  HZ EP        714  7.59                             122    0.24 9  187 295 
 ZAR  HE ES        714 31.10                             122    0.41 9  187 295 
 ZAR  HZ I         714 35.71         5.3 0.48            126            187 295 
 NOR  HN ES   4    714 37.74                             118    1.27 0  218 232 
 SML  HZ EP   1    714 13.22                             115    0.37 6  239 340 
 SML  HE ES        714 40.76                             115    0.28 8  239 340 
 SML  HZ I         714 46.17         5.1 0.06            118            239 340 
 HEL  HZ EP   4    714 16.62                             114    1.76 0  253 255 
 HEL  HN ES   1    714 43.76                             114   -0.29 6  253 255 
 HEL  HZ I         714 49.30         3.0 0.56            117            253 255 
 URE  HE ES   4    714 44.12                             112   -2.01 0  267 294 
 GUY2CHZ EP   4    714 20.64                             111    2.11 0  284 233 
 GUY2CHE ES   4    714 53.61                             111    3.03 0  284 233 
 GUY2CHZ I         715  2.72         3.8 3.58                           284 233 
 PRA  HN ES   1    715  8.91                             105   -0.64 4  380 207 
                                                                                
