 2017  220 0927 43.3 L   6.780 -73.152145.8  RSN 12 0.5 1.6LRSN                1
 GAP=119        1.26       4.7     4.7  7.2  0.1497E+01  0.5153E+01  0.8579E+01E
 Epicentro: LOS SANTOS - SANTANDER                                             3
 ACTION:UPD 17-05-24 15:38 OP:jn   STATUS:               ID:20170220092744dL   I
 OLDACT:UP  17-02-20 19:08 OP:edw  STATUS:               ID:20170220091737     3
 OLDACT:UP  17-02-20 19:08 OP:edw  STATUS:               ID:20170220091737     3
 OLDACT:REG 17-02-20 13:08 OP:dani STATUS:               ID:20170220091737     3
 2017-02-20-0918-00M.COL___336                                                 6
 STAT SP IPHASW D HRMM SECON CODA AMPLIT PERI AZIMU VELO AIN AR TRES W  DIS CAZ7
 BAR2 EZ IP     C  928  2.92                             171    0.0510 21.1 189 
 BAR2 EZ ES        928 17.76                             171   -0.3910 21.1 189 
 BAR2 EZ I         928 19.33        11.9 0.20            168           21.1 189 
 BRR  HZ EP        928  4.91                             152    0.4510 71.7 300 
 BRR  HN ES        928 21.76                             152    0.7910 71.7 300 
 BRR  HZ I         928 24.21         4.6 0.14            150           71.7 300 
 PAM  EZ EP     C  928  5.74                             150    0.1210 79.5  39 
 PAM  EN ES        928 22.79                             150   -0.2610 79.5  39 
 PAM  EZ I         928 24.29         6.0 0.38            155           79.5  39 
 RUS  HZ EP        928  7.04                             144    0.1610 98.5 176 
 RUS  HN ES        928 25.47                             144    0.1810 98.5 176 
 RUS  HZ I         928 27.36         8.0 0.34            143           98.5 176 
 PTB  HZ EP        928  8.99                             132   -1.16 9  147 260 
 PTB  HN ES        928 30.42                             132   -0.69 9  147 260 
 PTB  HZ I         928 33.64         4.3 0.16            130            147 260 
 ZAR  HZ EP        928 16.18                             122    0.43 9  204 293 
 ZAR  HN ES        928 41.00                             122   -0.07 9  204 293 
 ZAR  HZ I         928 46.83         4.1 0.46            122            204 293 
 NOR  HZ EP   4    928 19.71                             119    0.89 0  233 235 
 NOR  HN ES        928 46.59                             119    0.06 8  233 235 
 NOR  HZ I         928 52.56         3.8 0.26            118            233 235 
 CHI  HZ EP        928 21.23                             117    0.50 8  246 195 
 CHI  HN ES        928 50.24                             117    0.30 8  246 195 
 CHI  HZ I         928 56.67         2.0 0.30            117            246 195 
 URE  HZ EP   9    928 23.60                             113   -0.77 0  284 292 
 URE  HN ES        928 54.68                             114   -0.97 7  284 292 
 URE  HZ I         928 56.43         3.3 0.14            114            284 292 
 PTGC HZ IP        928 26.22                             112   -0.71 7  307 158 
 PTGC HN ES   4    928 59.08                             112   -1.90 0  307 158 
 CBOC HZ EP   4    928 31.03                             110    0.99 0  332 252 
 CBOC HN ES   2    929  7.11                             110    0.59 3  332 252 
 CBOC HZ I         929 18.91         0.9 0.50            110            332 252 
 SJC  HZ EP   4    928 37.16                             106   -1.85 0  411 327 
 SJC  HN ES   4    929 18.20                             106   -4.28 0  411 327 
 SJC  HZ I         929 22.34         1.3 0.62            106            411 327 
                                                                                
