 2014  920 0432 17.5 L   6.751 -73.140152.9  RSN  5 0.5 1.2LRSN                1
 GAP=234        1.23       8.4     9.4 11.4  0.4497E+02  0.6451E+01  0.8073E+01E
 Epicentro: LOS SANTOS - SANTANDER                                             3
 ACTION:UPD 14-10-03 23:06 OP:nd   STATUS:               ID:20140920043217 L   I
 OLDACT:REG 14-09-20 12:24 OP:spq  STATUS:               ID:20140920042816     3
 2014-09-20-0428-16M.COL___290                                                 6
 STAT SP IPHASW D HRMM SECON CODA AMPLIT PERI AZIMU VELO AIN AR TRES W  DIS CAZ7
 BRR  HN ES        432 57.52                             153    0.6410 74.5 302 
 RUS  HZ EP        432 41.36                             147   -0.2610 95.1 176 
 RUS  HN ES        432 59.93                             147   -0.4810 95.1 176 
 RUS  HZ I         433  3.54         1.0 0.46            146           95.1 176 
 PTB  HZ EP        432 44.84                             134   -0.22 9  147 261 
 PTB  HN ES        433  6.12                             134   -0.41 9  147 261 
 PTB  HZ I         433 13.53         3.4 0.38            133            147 261 
 SPBC HZ EP        432 47.04                             131    0.80 9  159 220 
 SPBC HN ES        433  9.02                             131    0.39 9  159 220 
 SPBC HZ I         433 11.20         1.8 0.16            131            159 220 
 ZAR  HE ES        433 16.10                             123   -0.51 8  207 293 
                                                                                
