 2010 1020 0855 16.6 L   6.777 -73.039142.9  RSN  7 0.5 2.0LRSN                1
 GAP=171        1.54       6.8    13.4 14.5 -0.6332E+01 -0.5449E+02 -0.5882E+01E
 Epicentro: CEPITA - SANTANDER                                                 3
 ACTION:UP  11-02-18 11:10 OP:tino STATUS:               ID:20101020085516 L   I
 2010-10-20-0853-42S.COL___126                                                 6
 STAT SP IPHASW D HRMM SECON CODA AMPLIT PERI AZIMU VELO SNR AR TRES W  DIS CAZ7
 BAR2 SZ EP        855 35.80                             169    -0.110   26 218 
 BAR2 SZ I         855 52.57        32.3 0.04                            26 218 
 BRR  HZ EP        855 37.72                             148    -0.410   83 296 
 BRR  HZ I         855 37.96        43.2 0.13                            83 296 
 BRR  HN ES        855 55.22                             148     0.310   83 296 
 RUS  HZ EP        855 39.83                             144     0.010   98 183 
 RUS  HN ES   1    855 57.98                             144     0.0 7   98 183 
 RUS  HZ I         855 59.65         6.6 0.52                            98 183 
 GUE  SZ EP        855 42.25                             139     1.210  117   6 
 GRA  SZ EP        855 41.71                             136     0.210  125  12 
 GRA  SZ ES   1    856  0.17                             136    -0.8 7  125  12 
 OCA  SZ EP        855 44.25                             128    -0.8 9  165 349 
 OCA  SZ ES   1    856  7.45                             128     0.2 7  165 349 
 OCA  SZ I         856 12.72         8.3 0.31                           165 349 
 HEL  HZ EP   1    855 57.89                             113     0.0 6  283 257 
 HEL  HZ I         856 34.42         4.6 0.48                           283 257 
                                                                                
