 2013  420 0823 12.1 L   6.846 -73.231138.0  RSN 10 0.4 1.8LRSN                1
 GAP=122        0.81       3.3     5.0  6.4 -0.2456E+01  0.1340E+02 -0.5831E+01E
 Epicentro: ZAPATOCA - SANTANDER                                               3
 ACTION:UPD 13-05-22 14:39 OP:EP   STATUS:               ID:20130420082312 L   I
 2013-04-20-0820-00M.COL___250                                                 6
 STAT SP IPHASW D HRMM SECON CODA AMPLIT PERI AZIMU VELO AIN AR TRES W  DIS CAZ7
 BAR2 SZ EP     D  823 31.04                             168    0.1110 28.5 169 
 BAR2 SZ ES   1    823 44.89                             168   -0.72 7 28.5 169 
 BAR2 SZ I         823 47.74         7.2 0.42            172           28.5 169 
 BRR  HN ES   4    823 50.16                             155    2.95 0 60.5 299 
 PAM  SZ EP        823 33.73                             148    0.0510 80.2  47 
 PAM  SN ES   1    823 50.93                             148    0.42 7 80.2  47 
 PAM  SZ I         823 53.25         8.3 0.56            147           80.2  47 
 RUS  HZ EP        823 35.31                             140   -0.2610  107 171 
 RUS  HN ES   1    823 53.59                             140   -0.28 7  107 171 
 RUS  HZ I         823 54.69         6.7 0.38            146            107 171 
 PTB  HZ EP        823 37.64                             132   -0.06 9  140 256 
 PTB  HN ES   1    823 58.12                             132    0.45 7  140 256 
 PTB  HZ I         824  4.87         6.8 0.20            128            140 256 
 OCA  HZ EP        823 39.61                             129    0.35 9  154 356 
 OCA  HZ I         824  6.96         9.7 0.22            125            154 356 
 SML  HZ EP        823 47.70                             116    0.31 8  235 337 
 SML  HN ES   1    824 14.65                             116   -0.25 6  235 337 
 SML  HZ I         824 18.63        10.6 0.10            114            235 337 
 ROSC BZ EP   4 D  823 52.63                             115    2.85 0  252 209 
 ROSC BN ES   4    824 22.25                             115    3.09 0  252 209 
 HEL  HZ EP   4    823 54.09                             114    3.03 0  264 254 
 HEL  HN ES   4    824 27.18                             114    5.74 0  264 254 
 HEL  HZ I         824 31.23         3.1 0.26            112            264 254 
 URE  HZ EP   4    823 55.08                             113    3.47 0  273 292 
 URE  HN ES   4    824 26.89                             113    4.47 0  273 292 
 URE  HZ I         824 35.15         5.4 0.22            110            273 292 
 PRA  HZ EP     D  824  5.80                             105    0.45 6  392 208 
 PRA  HN ES   1    824 47.27                             105    0.38 4  392 208 
 PRA  HZ I         824 47.51         2.6 0.48            105            392 208 
 SJC  HZ EP        824  5.27                             105   -1.05 6  400 328 
 SJC  HN ES   2    824 48.06                             105   -0.55 3  400 328 
                                                                                
