 2012  220 0341 20.9 L   6.763 -73.127149.1  RSN  5 0.2 1.3LRSN                1
 GAP=141        0.39       4.7     5.9  4.3  0.6496E+01 -0.7969E+01  0.2503E+01E
 ACTION:UP  12-03-07 16:32 OP:epov STATUS:               ID:20120220034120 L   I
 2012-02-20-0340-00M.COL___191                                                 6
 STAT SP IPHASW D HRMM SECON CODA AMPLIT PERI AZIMU VELO AIN AR TRES W  DIS CAZ7
 BAR2 SZ EP   1    341 40.78                             172   -0.07 7 19.9 198 
 BAR2 SZ I         341 41.27         2.3 0.19                          19.9 198 
 BAR2 SZ ES   1    341 56.28                             172   -0.14 7 19.9 198 
 GIR2 SZ EP   1    341 40.81                             166   -0.26 7 35.7 348 
 GIR2 SZ ES   1    341 56.90                             166    0.08 7 35.7 348 
 BRR  HZ EP   1    341 42.51                             152   -0.10 7 75.0 301 
 BRR  HZ I         341 42.76         6.5 0.12                          75.0 301 
 BRR  HE ES   1    341 59.70                             152    0.15 7 75.0 301 
 PAM  SZ EP   1    341 43.71                             151    0.15 7 79.3  36 
 RUS  HZ EP   1    341 44.86                             146    0.19 7 96.4 177 
                                                                                
