 2017  320 0349 59.9 L   7.111 -73.092  0.0  RSN  5 0.5 0.6LRSN                1
 GAP=137        1.06       3.7     3.1  9.4 -0.3109E+01  0.1017E+01 -0.5916E+01E
 Epicentro: BUCARAMANGA - SANTANDER                                            3
 ACTION:UPD 17-05-25 18:42 OP:jn   STATUS:               ID:20170320034956 L   I
 OLDACT:UP  17-04-27 21:36 OP:nlst STATUS:               ID:20170320034956 L   3
 OLDACT:UP  17-03-20 15:57 OP:cog  STATUS:               ID:20170320034741     3
 OLDACT:REG 17-03-20 13:03 OP:cog  STATUS:               ID:20170320034741     3
 2017-03-20-0348-00M.COL___382                                                 6
 STAT SP IPHASW D HRMM SECON CODA AMPLIT PERI AZIMU VELO AIN AR TRES W  DIS CAZ7
 PAM  EZ ES        350 16.38                              47   -0.0310 50.2  60 
 PAM  EZ I         350 19.68         2.6 0.26             47           50.2  60 
 BRR  HZ EP   1    350 10.80                              47   -0.65 7 68.5 270 
 RUS  HZ EP   1    350 21.47                              47   -0.51 7  135 180 
 RUS  HN ES        350 39.62                              47    0.4110  135 180 
 RUS  HZ I         350 40.48         0.7 0.18             47            135 180 
 PTB  HZ EP   3    350 25.70                              47   -0.16 2  164 247 
 PTB  HE ES   1    350 45.50                              47   -0.61 7  164 247 
 PTB  HZ I         350 49.98         1.1 0.36             47            164 247 
 ZAR  HN ES        350 55.63                              37    0.77 9  200 282 
                                                                                
