 2012  320 0926 22.0 L   6.754 -73.152150.7  RSN  7 0.3 1.6LRSN                1
 GAP=138        0.62       5.0     4.6  6.0  0.9952E+00  0.4744E+01  0.1388E+01E
 ACTION:UP  12-03-31 23:21 OP:EP   STATUS:               ID:20120320092622 L   I
 2012-03-20-0920-00M.COL___202                                                 6
 STAT SP IPHASW D HRMM SECON CODA AMPLIT PERI AZIMU VELO SNR AR TRES W  DIS CAZ7
 BAR2 SZ EP   1    926 42.22                             173     0.1 7   18 191 
 BAR2 SZ ES   1    926 57.48                             173    -0.4 7   18 191 
 BAR2 SZ I         927  0.12        10.5 0.31                            18 191 
 BRR  HZ EP        926 44.06                             153     0.310   73 302 
 BRR  HE ES   1    927  1.16                             153     0.4 7   73 302 
 BRR  HZ I         927  4.42         7.8 0.39                            73 302 
 PAM  SZ EP   1    926 45.00                             150     0.0 7   82  38 
 PAM  SN ES   2    927  2.46                             150    -0.5 5   82  38 
 RUS  HZ EP   1    926 45.97                             146     0.1 7   96 175 
 RUS  HE ES   2    927  4.94                             146     0.4 5   96 175 
 RUS  HZ I         927  6.18         4.7 0.30                            96 175 
 PTB  HZ EP   1    926 48.91                             133    -0.3 7  146 261 
 PTB  HN ES   2    927 10.53                             133     0.0 5  146 261 
 PTB  HZ I         927 15.16         3.5 0.24                           146 261 
 ZAR  HZ EP   2    926 54.72                             123    -0.2 4  205 294 
 ZAR  HN ES   2    927 20.25                             123    -0.3 4  205 294 
 ZAR  HZ I         927 26.27         3.0 0.22                           205 294 
 RREF HE ES   2    927 43.26                             112    -0.5 3  318 230 
 RREF HZ I         927 43.81         2.8 0.15                           318 230 
                                                                                
