 2017  620 0146 43.0 L   6.805 -73.181156.0  RSN 10 0.4 2.2LRSN                1
 GAP=255        1.04       4.1     6.5  8.3  0.4618E+01 -0.1225E+02  0.4203E+01E
 Epicentro: ZAPATOCA - SANTANDER                                               3
 ACTION:UPD 17-09-14 16:53 OP:jn   STATUS:               ID:20170620014643 L   I
 OLDACT:REG 17-06-20 15:16 OP:lv   STATUS:               ID:20170620013759     3
 2017-06-20-0137-59S.COL___275                                                 6
 STAT SP IPHASW D HRMM SECON CODA AMPLIT PERI AZIMU VELO AIN AR TRES W  DIS CAZ7
 BRR  HZ IP        147  5.26                             156    0.2010 67.5 300 
 BRR  HE ES        147 22.64                             156    0.3710 67.5 300 
 BRR  HZ I         147 25.24        25.3 0.14            147           67.5 300 
 BRR  HZ E         147 25.32                                           67.5 300 
 PTB  HZ EP        147  9.90                             135   -0.59 9  144 258 
 PTB  HN ES        147 32.29                             135    0.36 9  144 258 
 PTB  HZ I         147 37.31        15.0 0.22            129            144 258 
 SPBC HZ EP        147 12.29                             132    0.18 9  161 218 
 SPBC HE ES        147 34.08                             132   -0.75 9  161 218 
 SPBC HZ I         147 37.38        29.5 0.22            127            161 218 
 ZAR  HZ EP        147 16.04                             125    0.30 9  200 292 
 ZAR  HE ES        147 40.65                             125   -0.63 9  200 292 
 ZAR  HZ I         147 48.51        24.8 0.28            122            200 292 
 NOR  HZ EP        147 19.25                             121    0.22 8  232 234 
 NOR  HN ES        147 47.69                             121    0.54 8  232 234 
 NOR  HZ I         147 55.26        12.2 0.30            118            232 234 
 CHI  HZ EP        147 21.60                             119    0.37 8  248 194 
 CHI  HE ES        147 50.68                             119   -0.37 8  248 194 
 CHI  HZ I         147 56.11         5.2 0.22            118            248 194 
 ROSC BZ EP   4    147 18.74                             119   -2.79 0  251 210 
 ROSC BE ES        147 51.55                             119   -0.04 8  251 210 
 ROSC BZ I         148  0.75        12.8 0.50            117            251 210 
 HEL  HZ EP   4    147 25.14                             117    1.79 0  268 255 
 HEL  HN ES        147 54.96                             117    0.14 8  268 255 
 HEL  HZ I         148  4.14         6.1 0.20            114            268 255 
 URE  HZ EP   4    147 22.24                             116   -1.91 0  280 292 
 URE  HN ES        147 55.89                             116   -0.37 7  280 292 
 URE  HZ I         148  6.80        13.0 0.16            114            280 292 
 GUY2CHZ EP   9    147 28.11                             115    1.34 0  298 234 
 GUY2CHE ES        148  3.14                                    0.88 7  298 234 
 GUY2CHZ I         148 10.39         6.4 0.32                           298 234 
                                                                                
