 2014  920 0943 11.1 L   6.783 -73.057147.2  RSN  6 0.4 1.0LRSN                1
 GAP=149        0.76       4.5     5.7  7.9 -0.4041E+01  0.2487E+01  0.7159E+01E
 Epicentro: LOS SANTOS - SANTANDER                                             3
 ACTION:UPD 14-10-03 23:06 OP:nd   STATUS:               ID:20140920094311 L   I
 OLDACT:DUP 14-09-20 13:10 OP:spq  STATUS:               ID:20140920093818d    3
 OLDACT:REG 14-09-20 12:56 OP:spq  STATUS:               ID:20140920093817     3
 2014-09-20-0938-17M.COL___293                                                 6
 STAT SP IPHASW D HRMM SECON CODA AMPLIT PERI AZIMU VELO AIN AR TRES W  DIS CAZ7
 BAR2 SZ EP        943 31.12                             170    0.1910 25.2 213 
 BAR2 SZ ES   1    943 47.03                             170    0.62 7 25.2 213 
 BAR2 SZ I         943 49.46         1.5 0.25            171           25.2 213 
 PAM  SE ES   1    943 49.84                             152   -0.62 7 73.1  33 
 PAM  SZ I         943 52.98         2.4 0.18            155           73.1  33 
 BRR  HZ EP        943 32.94                             150   -0.0210 80.8 296 
 BRR  HE ES        943 50.13                             150    0.1210 80.8 296 
 BRR  HZ I         943 53.60         2.8 0.38            152           80.8 296 
 RUS  HZ EP   1    943 35.16                             145    0.33 7 98.5 182 
 RUS  HN ES   1    943 53.07                             145   -0.28 7 98.5 182 
 RUS  HZ I         943 54.73         0.9 0.20            148           98.5 182 
 PTB  HE ES   2    944  0.50                             130   -0.31 5  157 260 
 PTB  HZ I         944  1.13         2.3 0.24            134            157 260 
 SPBC HE ES        944  2.54                             128   -0.31 9  168 222 
 SPBC HZ I         944  5.54         1.4 0.20            132            168 222 
                                                                                
