 2017  120 0729 58.3 L   6.800 -73.137141.3  RSN  7 0.4 1.4LRSN                1
 GAP=138        0.85       4.1     3.8  6.0  0.1736E+01  0.4739E+01 -0.1561E+01E
 Epicentro: LOS SANTOS - SANTANDER                                             3
 ACTION:UPD 17-05-22 16:01 OP:jn   STATUS:               ID:20170120072958 L   I
 OLDACT:UP  17-01-20 17:30 OP:dani STATUS:               ID:20170120072743     3
 OLDACT:UP  17-01-20 17:29 OP:dani STATUS:               ID:20170120072743     3
 OLDACT:REG 17-01-20 12:41 OP:dani STATUS:               ID:20170120072743     3
 2017-01-20-0728-00M.COL___301                                                 6
 STAT SP IPHASW D HRMM SECON CODA AMPLIT PERI AZIMU VELO AIN AR TRES W  DIS CAZ7
 BAR2 EZ EP        730 17.11                             170   -0.2510 23.5 192 
 BAR2 EZ ES        730 32.34                             170    0.0910 23.5 192 
 BAR2 EZ I         730 34.32         6.1 0.24            171           23.5 192 
 BRR  HZ EP     D  730 18.77                             151   -0.2010 72.0 298 
 BRR  HN ES        730 35.72                             151    0.5910 72.0 298 
 BRR  HZ I         730 39.90         7.3 0.12            150           72.0 298 
 PAM  EZ EP     D  730 19.82                             150   -0.1510 76.8  39 
 PAM  EN ES        730 36.81                             150   -0.0910 76.8  39 
 PAM  EZ I         730 39.17         4.5 0.44            153           76.8  39 
 RUS  HZ EP        730 21.59                             143    0.0210  101 177 
 RUS  HN ES        730 39.74                             143   -0.0110  101 177 
 RUS  HZ I         730 41.61         1.5 0.38            147            101 177 
 PTB  HZ EP   3    730 23.96                             131   -0.99 2  149 259 
 PTB  HN ES        730 45.39                             131   -0.38 9  149 259 
 PTB  HZ I         730 47.68         3.4 0.28            132            149 259 
 ZAR  HZ EP        730 31.23                             121    0.72 9  205 292 
 ZAR  HN ES        730 55.36                             121   -0.30 9  205 292 
 ZAR  HZ I         731  2.70         2.7 0.14            123            205 292 
 CHI  HN ES   3    731  6.85                             116    1.88 2  249 195 
                                                                                
