 2011  720 0406 56.1 L   6.803 -73.067144.7  RSN  4 0.1 1.5LRSN                1
 GAP=167        0.31       2.3     5.7  4.8  0.1036E+01 -0.7313E+01 -0.1609E+01E
 Epicentro: LOS SANTOS - SANTANDER                                             3
 ACTION:UPD 12-07-25 14:02 OP:epov STATUS:               ID:20110720040656 L   I
 2011-07-20-0405-46S.COL___143                                                 6
 STAT SP IPHASW D HRMM SECON CODA AMPLIT PERI AZIMU VELO AIN AR TRES W  DIS CAZ7
 BAR2 SZ ES   2    4 7 30.94                             169    0.02 5 26.6 209 
 BAR2 SZ I         4 7 32.34        16.7 0.15                          26.6 209 
 BRR  HZ EP   2    4 7 17.75                             150    0.18 5 78.8 295 
 BRR  HN ES   2    4 7 34.20                             150   -0.12 5 78.8 295 
 RUS  HZ EP   1    4 7 19.62                             144   -0.11 7  101 181 
 RUS  HN ES   1    4 7 38.24                             144    0.06 7  101 181 
 RUS  HZ I         4 7 39.65         4.2 0.22                           101 181 
 GRA  SZ EP   2    4 7 21.07                             137    0.06 5  123  14 
 GRA  SZ ES   2    4 7 40.44                             137   -0.01 5  123  14 
 GRA  SZ I         4 7 42.43         2.9 0.49                           123  14 
                                                                                
