 2016  820 0707 54.6 L   6.526 -73.574 18.2  RSN  6 0.5 1.3LRSN                1
 GAP= 76        1.31       2.7     2.6  6.3 -0.1812E+00 -0.2328E+01 -0.4052E+01E
 Epicentro: EL CARMEN - SANTANDER                                              3
 ACTION:UPD 16-10-29 15:37 OP:rebc STATUS:               ID:20160820070754 L   I
 OLDACT:REG 16-08-20 14:36 OP:ar   STATUS:               ID:20160820065744     3
 2016-08-20-0657-44M.COL___349                                                 6
 STAT SP IPHASW D HRMM SECON CODA AMPLIT PERI AZIMU VELO AIN AR TRES W  DIS CAZ7
 BAR2 EZ EP        7 8  2.68                             110    0.1610 43.9  80 
 BAR2 EZ ES        7 8  8.73                             110    0.0710 43.9  80 
 BRR  HZ EP        7 8  5.31                             103   -0.1710 66.0 347 
 BRR  HE ES        7 8 14.42                             103    0.4810 66.0 347 
 BRR  HZ I         7 8 15.38        11.1 0.10                          66.0 347 
 RUS  HZ EP        7 8  9.35                             100   -0.0110 88.6 142 
 RUS  HN ES        7 8 20.06                             100   -0.7910 88.6 142 
 RUS  HZ I         7 8 20.61         9.6 0.20                          88.6 142 
 PTB  HZ EP        7 8  9.74                              99   -0.4710 97.6 271 
 PTB  HE ES        7 8 21.62                              99   -0.7310 97.6 271 
 SPBC HZ EP        7 8 12.68                              98    0.3410  111 210 
 SPBC HN ES        7 8 27.12                              98    0.9810  111 210 
 SPBC HZ I         7 8 29.82        11.0 0.10                           111 210 
 PAM  EZ EP        7 8 16.15                              56    0.3810  132  47 
 PAM  EN ES        7 8 32.06                              56   -0.1910  132  47 
 PAM  EZ I         7 8 32.46         5.1 0.48                           132  47 
                                                                                
