 2014 1120 1535 40.6 L   6.825 -73.197143.3  RSN  5 0.4 1.4LRSN                1
 GAP=129        1.00       5.4     5.0  7.3 -0.2580E+01  0.4412E+01  0.2174E+01E
 Epicentro: ZAPATOCA - SANTANDER                                               3
 ACTION:UPD 14-12-19 15:45 OP:nd   STATUS:               ID:20141120153540 L   I
 OLDACT:ARG 14-11-20 21:12 OP:stll STATUS:               ID:20141120152747     3
 2014-11-20-1527-47M.COL___292                                                 6
 STAT SP IPHASW D HRMM SECON CODA AMPLIT PERI AZIMU VELO AIN AR TRES W  DIS CAZ7
 BAR2 SZ EP       1536  0.07                             169    0.1310 25.8 176 
 BAR2 SZ ES       1536 15.63                             169    0.5710 25.8 176 
 BAR2 SZ I        1536 16.38         5.5 0.48            168           25.8 176 
 BRR  HZ EP       1536  1.81                             154    0.7210 64.9 299 
 BRR  HN ES       1536 17.02                             154   -0.0810 64.9 299 
 PAM  SZ EP       1536  2.66                             150    0.0510 79.1  44 
 PAM  SZ I        1536  2.94         6.9 0.20            152           79.1  44 
 PAM  SN ES       1536 19.27                             150   -0.5410 79.1  44 
 RUS  HZ EP       1536  4.24                             142   -0.0710  104 173 
 RUS  HN ES       1536 22.61                             142   -0.2310  104 173 
 RUS  HZ I        1536 24.51         3.7 0.36            142            104 173 
 PTB  HZ EP       1536  6.53                             132   -0.34 9  143 257 
 PTB  HN ES       1536 27.12                             132   -0.28 9  143 257 
 PTB  HZ I        1536 29.55         3.3 0.36            133            143 257 
                                                                                
