 2013  720 1801  7.9 L   6.870 -73.312124.4  RSN  8 0.5 1.8LRSN                1
 GAP=125        1.15       3.6     6.3  6.7  0.2203E+00  0.1326E+02  0.1145E-01E
 Epicentro: BETULIA - SANTANDER                                                3
 ACTION:UPD 13-08-12 10:39 OP:ep   STATUS:               ID:20130720180107 L   I
 OLDACT:REG 13-07-20 15:56 OP:nd   STATUS:               ID:20130720175959     3
 2013-07-20-1759-59M.COL___265                                                 6
 STAT SP IPHASW D HRMM SECON CODA AMPLIT PERI AZIMU VELO AIN AR TRES W  DIS CAZ7
 GIR2 SZ EP       18 1 25.26                             167    0.3310 26.6  30 
 GIR2 SZ ES       18 1 37.95                             167   -0.2510 26.6  30 
 GIR2 SZ I        18 1 39.64        21.2 0.26            169           26.6  30 
 BAR2 SZ EP     C 18 1 25.72                             164    0.4210 33.9 155 
 BAR2 SZ ES       18 1 39.00                             164    0.1510 33.9 155 
 BAR2 SZ I        18 1 40.32        36.7 0.24            167           33.9 155 
 BRR  HZ EP     C 18 1 26.13                             156    0.4510 51.4 301 
 BRR  HN ES       18 1 40.06                             156    0.5310 51.4 301 
 BRR  HZ I        18 1 41.31        19.4 0.12            153           51.4 301 
 RUS  HZ EP       18 1 30.64                             136    0.1310  111 167 
 RUS  HN ES       18 1 47.49                             136   -0.6310  111 167 
 RUS  HZ I        18 1 50.13         4.5 0.28            139            111 167 
 PTB  HZ EP     D 18 1 31.01                             130   -0.6910  132 254 
 PTB  HN ES   2   18 1 49.36                             130   -0.89 5  132 254 
 PTB  HZ I        18 1 54.23         8.7 0.40            129            132 254 
 OCA  HZ EP       18 1 33.24                             126   -0.54 9  151 360 
 OCA  HN ES       18 1 53.39                             126   -0.56 9  151 360 
 OCA  HZ I        18 1 58.10        13.1 0.14            128            151 360 
 SPBC HZ EP       18 1 34.90                             124    0.47 9  159 212 
 SPBC HN ES       18 1 54.91                             124   -0.20 9  159 212 
 SPBC HZ I        18 1 58.71         6.0 0.40            125            159 212 
 ZAR  HZ EP       18 1 37.48                             120    0.54 9  184 292 
 ZAR  HE ES   2   18 1 59.53                             120   -0.04 4  184 292 
 ZAR  HZ I        18 2  4.83         8.7 0.28            120            184 292 
                                                                                
