 2011  320 1745 41.1 L   6.828 -73.156135.3  RSN  4 0.3 1.7LRSN                1
 GAP=280        0.49       7.5     6.1  8.2 -0.1245E+02  0.2776E+02 -0.2006E+02E
 Epicentro: LOS SANTOS - SANTANDER                                             3
 ACTION:UP  11-06-16 14:34 OP:jfem STATUS:               ID:20110320174541 L   I
 2011-03-20-1745-33S.COL___132                                                 6
 STAT SP IPHASW D HRMM SECON CODA AMPLIT PERI AZIMU VELO SNR AR TRES W  DIS CAZ7
 BAR2 SZ EP   1   1745 59.60                             168     0.1 7   26 187 
 BAR2 SZ ES   2   1746 13.73                             168    -0.2 5   26 187 
 BAR2 SZ I        1746 15.69        16.0 0.27                            26 187 
 RUS  HZ EP   1   1746  4.00                             141    -0.1 7  104 176 
 RUS  HN ES   1   1746 22.09                             141     0.1 7  104 176 
 RUS  HZ I        1746 23.20         5.7 0.27                           104 176 
 NOR  SZ EP   2   1746 15.73                             116    -0.6 4  236 234 
 NOR  SN ES   1   1746 43.85                             116     0.0 6  236 234 
 HEL  HZ EP   2   1746 21.31                             113     0.6 4  272 255 
 HEL  HZ I        1746 55.93         2.5 0.56                           272 255 
                                                                                
