 2011 1020 1546 41.3 L   6.820 -73.121146.6  RSN 17 0.5 3.4LRSN                1
 GAP=104        0.97       3.4     3.7  5.8 -0.2778E+01  0.3704E+01  0.4195E+01E
 Epicentro: LOS SANTOS - SANTANDER                                             3
 ACTION:UPD 12-07-13 16:04 OP:ep   STATUS:               ID:20111020154641 L   I
 2011-10-20-1542-23S.COL___171                                                 6
 STAT SP IPHASW D HRMM SECON CODA AMPLIT PERI AZIMU VELO AIN AR TRES W  DIS CAZ7
 BAR2 SZ IP       1547  1.11                             169    0.0610 26.1 195 
 BAR2 SZ ES   1   1547 16.37                             169   -0.12 7 26.1 195 
 BAR2 SZ I        1547 17.90       365.3 0.32                          26.1 195 
 BRR  HZ EP       1547  2.98                             152    0.4010 72.6 296 
 BRR  HN ES   1   1547 19.95                             152    0.74 7 72.6 296 
 BRR  HZ I        1547 22.28       323.2 0.16                          72.6 296 
 PAM  SZ EP       1547  3.87                             152    0.5110 73.9  39 
 PAM  SN ES   1   1547 20.92                             152    0.32 7 73.9  39 
 RUS  HZ IP     D 1547  4.96                             143   -0.2810  103 178 
 RUS  HN ES   1   1547 22.91                             143   -1.04 7  103 178 
 RUS  HZ I        1547 25.06       146.1 0.34                           103 178 
 OCA  SZ EP   1   1547  8.82                             130   -0.64 7  158 352 
 OCA  SZ ES   1   1547 31.37                             130   -0.09 7  158 352 
 OCA  SZ I        1547 37.77       247.9 0.33                           158 352 
 YOP  SZ EP       1547 11.58                             126    0.14 9  180 154 
 ZAR  HZ EP   1   1547 13.45                             122   -0.49 6  206 291 
 ZAR  HN ES       1547 38.80                             122   -0.63 8  206 291 
 NOR  SZ EP   1   1547 16.82                             118   -0.59 6  238 234 
 NOR  SN ES   1   1547 45.00                             118   -0.62 6  238 234 
 ROSC BZ EP   1   1547 20.67                             116    0.89 6  256 211 
 ROSC BN ES   1   1547 50.09                             116    0.25 6  256 211 
 HEL  HZ EP   1   1547 21.60                             115   -0.27 6  275 255 
 HEL  HN ES   1   1547 53.71                             115    0.16 6  275 255 
 HEL  HZ I        1548  0.08       100.2 0.36                           275 255 
 GUY  SZ EP   1   1547 25.54                             112   -0.03 5  307 235 
 GUY  SN ES       1548  0.41                             112    0.28 7  307 235 
 GUY  SZ I        1548  8.69       247.2 0.26                           307 235 
 RREF HN ES   1   1548  3.83                             111   -0.34 5  325 229 
 RREF HZ I        1548 12.75       132.2 0.35                           325 229 
 DBB  SZ EP   1   1547 29.04                             109   -0.02 5  342 274 
 TOL  SZ EP   1   1547 30.39                             109    0.44 5  347 225 
 SDV  BZ EP       1547 30.49                             109   -0.43 6  357  50 
 SDV  BZ I        1547 31.36        64.0 0.28                           357  50 
 ANIL HZ EP   1   1547 32.61                             108    1.11 5  361 225 
 ANIL HN ES       1548 11.38                             108    0.69 6  361 225 
 ANIL HZ I        1548 23.36       171.4 0.25                           361 225 
 PRA  HZ EP   1   1547 34.29                             106   -0.90 4  395 210 
                                                                                
