 2014 1020 1053 37.3 L   6.826 -73.140147.0  RSN 26 0.5 2.8LRSN                1
 GAP= 70        1.08       2.5     3.1  4.8 -0.1239E+01  0.3249E+01  0.1935E+01E
 Epicentro: LOS SANTOS - SANTANDER                                             3
 ACTION:UPD 14-11-29 23:51 OP:nd   STATUS:               ID:20141020105337 L   I
 OLDACT:UP  14-10-21 05:26 OP:fm   STATUS:               ID:20141020104746     3
 OLDACT:REG 14-10-20 23:12 OP:spq  STATUS:               ID:20141020104746     3
 2014-10-20-1047-46M.COL___265                                                 6
 STAT SP IPHASW D HRMM SECON CODA AMPLIT PERI AZIMU VELO AIN AR TRES W  DIS CAZ7
 BAR2 SZ EP       1053 57.13                             169   -0.0210 26.3 190 
 BAR2 SZ ES   1   1054 12.09                             169   -0.54 7 26.3 190 
 BAR2 SZ I        1054 13.41       190.9 0.26            168           26.3 190 
 BRR  HZ EP     C 1053 58.96                             153    0.4110 70.5 296 
 BRR  HN ES       1054 16.14                             153    1.0210 70.5 296 
 BRR  HZ I        1054 18.83        83.3 0.24            153           70.5 296 
 PAM  SZ EP       1054  0.08                             152    0.5810 74.7  41 
 PAM  SN ES       1054 16.78                             152   -0.0410 74.7  41 
 PAM  SZ I        1054 19.32        91.0 0.52            150           74.7  41 
 RUS  HZ EP       1054  1.05                             143   -0.3410  103 177 
 RUS  HN ES       1054 19.94                             143   -0.2310  103 177 
 RUS  HZ I        1054 21.48        95.4 0.26            141            103 177 
 PTB  HZ EP       1054  3.70                             132   -0.79 9  149 258 
 PTB  HE ES       1054 25.25                             132   -0.44 9  149 258 
 PTB  HZ I        1054 26.92        93.1 0.42            131            149 258 
 TAM  HZ EP   1 D 1054  5.51                             131    0.41 7  155 106 
 TAM  HZ I        1054 26.53        25.3 0.54            128            155 106 
 TAM  HE ES   1   1054 26.94                             131    0.17 7  155 106 
 OCA  HZ EP       1054  5.29                             130   -0.17 9  157 353 
 OCA  HN ES       1054 27.15                             130   -0.26 9  157 353 
 OCA  HZ I        1054 30.63        59.8 0.22            129            157 353 
 SPBC HZ EP       1054  5.95                             129   -0.21 9  166 219 
 SPBC HE ES       1054 28.40                             129   -0.26 9  166 219 
 SPBC HZ I        1054 34.30        94.9 0.30            127            166 219 
 ZAR  HZ EP       1054  9.81                             123    0.02 9  204 291 
 ZAR  HE ES       1054 34.82                             123   -0.30 9  204 291 
 ZAR  HZ I        1054 40.36        80.6 0.38            121            204 291 
 SML  HZ EP       1054 13.37                             118   -0.38 8  241 335 
 SML  HN ES       1054 42.11                             118   -0.07 8  241 335 
 SML  HZ I        1054 44.61        64.4 0.10            117            241 335 
 CHI  HZ EP       1054 15.15                             117   -0.25 8  252 195 
 CHI  HN ES       1054 44.43                             117   -0.68 8  252 195 
 CHI  HZ I        1054 48.85        29.4 0.42            115            252 195 
 ROSC BZ EP       1054 16.52                             117    0.72 8  256 211 
 ROSC BE ES       1054 46.74                             117    0.91 8  256 211 
 ROSC BZ I        1054 51.54        57.8 0.45            115            256 211 
 HEL  HZ EP       1054 18.47                             115    0.73 8  273 255 
 HEL  HN ES       1054 49.25                             115   -0.02 8  273 255 
 HEL  HZ I        1054 55.02        39.0 0.30            114            273 255 
 URE  HZ EP   4   1054 16.99                             114   -1.40 0  283 291 
 URE  HN ES   4   1054 47.76                             114   -2.67 0  283 291 
 URE  HZ I        1054 49.76        44.2 0.12            113            283 291 
 VIL  SZ EP   1   1054 21.22                             112    0.10 5  306 192 
 VIL  SE ES   4   1054 53.68                             112   -1.61 0  306 192 
 VIL  SZ I        1055  4.71        49.1 0.42            110            306 192 
 CBOC HZ EP       1054 24.37                             110   -0.08 7  335 252 
 CBOC HN ES       1055  0.74                             110   -0.48 7  335 252 
 CBOC HZ I        1055 10.31         7.6 0.42            109            335 252 
 DBB  SZ EP       1054 25.05                             110    0.16 7  340 274 
 DBB  SZ ES   4   1055  0.73                             110   -1.27 0  340 274 
 TOL  SZ EP       1054 25.99                             109    0.09 6  346 224 
 TOL  SE ES       1055  4.11                             109    0.30 6  346 224 
 TOL  SZ I        1055 10.98        79.5 0.50            108            346 224 
 MON  HZ EP   4   1054 24.15                             109   -2.06 0  352 308 
 MON  HN ES   4   1055  2.33                             109   -2.03 0  352 308 
 MON  HZ I        1055 18.16        15.9 0.52            108            352 308 
 SDV  BZ EP       1054 26.66                             109   -0.46 6  358  50 
 SDV  BE ES   4   1055  4.05                             109   -1.93 0  358  50 
 SDV  BZ I        1055  7.09        10.5 0.35            107            358  50 
 ANIL HZ EP       1054 28.16                             108    0.71 6  360 224 
 ANIL HE ES       1055  7.39                             108    0.82 6  360 224 
 ANIL HZ I        1055 10.82         7.9 0.34            107            360 224 
 PRA  HZ EP       1054 31.35                             107    0.15 6  395 209 
 PRA  HN ES       1055 12.10                             107   -1.14 6  395 209 
 PRA  HZ I        1055 17.08        29.4 0.70            105            395 209 
 ORTC HZ EP       1054 30.92                             106   -0.67 6  398 216 
 ORTC HE ES       1055 14.73                             106    0.80 6  398 216 
 ORTC HZ I        1055 20.76        15.2 0.64            105            398 216 
 SJC  HZ EP   4   1054 31.31                             106   -1.36 0  407 327 
 SJC  HN ES   4   1055 11.82                             106   -4.03 0  407 327 
 SJC  HZ I        1055 19.51         7.7 0.48            105            407 327 
 CAP2 HZ EP   4   1054 45.90                             102    1.46 0  507 294 
 CAP2 HE ES   4   1055 32.60                             102   -4.20 0  507 294 
 CAP2 HZ I        1055 35.07         5.1 0.24            101            507 294 
 MACC HE ES   4   1055 35.17                             102   -5.12 0  524 189 
 MACC HZ I        1055 43.09         5.9 0.58            101            524 189 
                                                                                
