 2010  420 1624 32.9 L   6.633 -73.404119.2  RSN  4 0.3 1.9LRSN                1
 GAP=134        0.60       5.1     5.4  6.9 -0.2194E+01  0.1529E+02  0.1946E+02E
 Epicentro: EL CARMEN DE CHUCURI - SANTANDER                                   3
 ACTION:UPD 10-08-24 10:00 OP:vdl  STATUS:               ID:20100420162428 L   I
 2010-04-20-1620-13S.COL___100                                                 6
 STAT SP IPHASW D HRMM SECON CODA AMPLIT PERI AZIMU VELO AIN AR TRES W  DIS CAZ7
 BAR2 SZ IP       1624 49.39                             167     0.010   25 101 
 BAR2 SZ ES   1   1625  2.04                             167    -0.2 7   25 101 
 BRR  HZ EP       1624 50.70                             150     0.010   63 327 
 BRR  HN ES       1625  4.58                             150     0.010   63 327 
 BRR  HZ I        1625 10.46        26.2 0.07                            63 327 
 HEL  HZ EP   2   1625  7.25                             112    -1.0 4  240 258 
 HEL  HZ I        1625 38.79         4.5 0.14                           240 258 
 RREF BZ EP       1625 14.35                             107     0.3 7  288 228 
 RREF BN ES       1625 46.28                             107     0.1 7  288 228 
 RREF BZ I        1625 46.96         4.6 0.54                           288 228 
                                                                                
