 2012  120 1751 57.4 L   6.784 -73.119152.7  RSN  7 0.4 1.6LRSN                1
 GAP=141        0.85       4.5     5.2  9.1  0.2386E+01  0.9078E+01  0.3361E+01E
 Epicentro: LOS SANTOS - SANTANDER                                             3
 ACTION:UP  12-02-03 08:19 OP:REBC STATUS:               ID:20120120175157 L   I
 2012-01-20-1750-00M.COL___186                                                 6
 STAT SP IPHASW D HRMM SECON CODA AMPLIT PERI AZIMU VELO SNR AR TRES W  DIS CAZ7
 BAR2 SZ EP   1   1752 17.98                             171     0.2 7   22 198 
 BAR2 SZ I        1752 31.44        27.2 0.71                            22 198 
 BRR  HZ EP   1   1752 19.87                             153     0.4 7   75 299 
 BRR  HZ I        1752 36.43         8.1 0.14                            75 299 
 BRR  HE ES   1   1752 36.46                             153    -0.2 7   75 299 
 PAM  SZ EP   1   1752 20.44                             152     0.2 7   77  37 
 PAM  SN ES   1   1752 37.68                             152    -0.5 7   77  37 
 PAM  SZ I        1752 40.33         3.9 0.25                            77  37 
 RUS  HZ EP   1   1752 21.48                             146    -0.2 7   99 178 
 RUS  HZ I        1752 23.00         3.3 0.12                            99 178 
 RUS  HN ES       1752 41.00                             146     0.410   99 178 
 PTB  HZ EP   1   1752 24.90                             133    -0.2 7  150 260 
 PTB  HN ES   1   1752 46.70                             133    -0.1 7  150 260 
 PTB  HZ I        1752 51.20         0.0 0.18                           150 260 
 ZAR  HN ES   1   1752 56.75                             123     0.2 6  207 292 
 CHI  HN ES   1   1753  4.18                             119    -0.8 6  248 196 
                                                                                
