 2015 1120 1704 30.5 L   6.655 -73.246151.5  RSN  4 0.3 1.8LRSN                1
 GAP=180        0.88       9.6    11.0  7.9  0.8794E+02  0.1383E+02  0.5613E+01E
 Epicentro: BARICHARA - SANTANDER                                              3
 ACTION:UPD 15-12-28 16:12 OP:cam  STATUS:               ID:20151120170430 L   I
 OLDACT:REG 15-11-20 19:11 OP:dnl  STATUS:               ID:20151120165742     3
 2015-11-20-1657-42M.COL___310                                                 6
 STAT SP IPHASW D HRMM SECON CODA AMPLIT PERI AZIMU VELO AIN AR TRES W  DIS CAZ7
 BAR2 EZ EP       17 4 50.85                             176    0.1910 9.94 135 
 BAR2 EZ ES       17 5  5.82                             176   -0.5410 9.94 135 
 BAR2 EZ I        17 5  6.90        15.0 0.48            159           9.94 135 
 BRR  HZ EP       17 4 52.48                             153    0.1610 71.7 314 
 BRR  HN ES       17 5  9.69                             153    0.3610 71.7 314 
 RUS  HZ EP       17 4 53.58                             149   -0.3110 86.3 168 
 RUS  HN ES       17 5 12.46                             149    0.3410 86.3 168 
 RUS  HZ I        17 5 14.63         9.2 0.32            140           86.3 168 
 ZAR  HN ES       17 5 28.07                             124   -0.27 9  201 298 
 ZAR  HZ I        17 5 39.44         6.4 0.28            118            201 298 
                                                                                
