 2012  420 1108 51.9 L   6.782 -73.132151.4  RSN  6 0.4 1.8LRSN                1
 GAP=139        0.95       6.0     5.7  8.2 -0.8720E+01  0.1079E+02  0.7846E+01E
 Epicentro: LOS SANTOS - SANTANDER                                             3
 ACTION:UPD 12-07-05 11:54 OP:tino STATUS:               ID:20120420110851 L   I
 2012-04-20-1104-39M.COL___181                                                 6
 STAT SP IPHASW D HRMM SECON CODA AMPLIT PERI AZIMU VELO AIN AR TRES W  DIS CAZ7
 BAR2 SZ EP       11 9 12.16                             171     0.010   22 195 
 BAR2 SZ ES   1   11 9 27.60                             171    -0.4 7   22 195 
 BAR2 SZ I        11 9 32.35         8.7 0.45                            22 195 
 BRR  HZ EP       11 9 14.06                             153     0.310   73 299 
 BRR  HN ES   1   11 9 31.81                             153     0.9 7   73 299 
 BRR  HZ I        11 9 33.79        13.6 0.14                            73 299 
 PAM  SZ EP   1   11 9 14.91                             152     0.1 7   78  38 
 PAM  SE ES       11 9 32.22                             152    -0.410   78  38 
 RUS  HZ EP       11 9 16.25                             145     0.210   99 177 
 RUS  HE ES   1   11 9 35.27                             145     0.3 7   99 177 
 PTB  HZ EP       11 9 19.11                             133    -0.3 9  149 260 
 PTB  HE ES   1   11 9 40.39                             133    -0.5 7  149 260 
 NOR  SN ES   1   11 9 56.08                             120    -0.1 6  235 235 
                                                                                
