 2014  320 1932 36.0 L   6.806 -73.170152.1  RSN  5 0.4 2.4LRSN                1
 GAP=133        1.13       5.3     6.0  8.8 -0.1251E+01  0.5892E+01 -0.3370E+01E
 Epicentro: LOS SANTOS - SANTANDER                                             3
 ACTION:UPD 14-04-09 23:19 OP:nd   STATUS:               ID:20140320193236 L   I
 OLDACT:UP  14-03-20 18:04 OP:mh   STATUS:               ID:20140320192818     3
 OLDACT:REG 14-03-20 15:42 OP:mh   STATUS:               ID:20140320192818     3
 2014-03-20-1928-18M.COL___249                                                 6
 STAT SP IPHASW D HRMM SECON CODA AMPLIT PERI AZIMU VELO AIN AR TRES W  DIS CAZ7
 BRR  HZ EP       1932 58.34                             154    0.6810 68.5 299 
 BRR  HN ES       1933 15.01                             154    0.4310 68.5 299 
 BRR  HZ I        1933 16.04        11.8 0.10            153           68.5 299 
 PAM  SZ EP       1932 59.53                             152    0.6010 78.6  41 
 PAM  SN ES       1933 16.23                             152   -0.6010 78.6  41 
 PAM  SZ I        1933 18.90        11.2 0.44            154           78.6  41 
 RUS  HZ EP       1932 59.97                             145   -0.4410  102 175 
 RUS  HN ES   1   1933 19.63                             145    0.16 7  102 175 
 RUS  HZ I        1933 21.39         3.0 0.30            147            102 175 
 PTB  HZ EP       1933  3.05                             134   -0.19 9  145 258 
 PTB  HN ES       1933 24.18                             134   -0.33 9  145 258 
 PTB  HZ I        1933 29.54         4.1 0.08            134            145 258 
 SML  HZ EP       1933 12.64                             119   -0.13 8  242 336 
 SML  HN ES       1933 41.12                             119   -0.35 8  242 336 
 SML  HZ I        1933 46.06     27326.1 0.02            120            242 336 
                                                                                
