 2011  220 1735 41.4 L   6.006 -73.745105.3  RSN  4 0.1 1.2LRSN                1
 GAP=149        0.36       3.8     3.0  6.5 -0.7098E+01  0.1279E+02 -0.1198E+02E
 Epicentro: BOLIVAR - SANTANDER                                                3
 ACTION:UP  11-03-28 15:09 OP:jfem STATUS:               ID:20110220173541 L   I
 2011-02-20-1720-00M.COL___140                                                 6
 STAT SP IPHASW D HRMM SECON CODA AMPLIT PERI AZIMU VELO SNR AR TRES W  DIS CAZ7
 RUS  HZ EP       1735 59.40                             142     0.110   74 100 
 RUS  HN ES   1   1736 13.18                             142    -0.1 7   74 100 
 RUS  HZ I        1736 14.99         2.1 0.26                            74 100 
 BAR2 SZ EP       1736  0.16                             136     0.010   90  44 
 BAR2 SZ ES   2   1736 14.67                             136    -0.1 5   90  44 
 BAR2 SZ I        1736 16.82         7.2 0.33                            90  44 
 BTL  SZ EP       1736  2.38                             129     0.010  114  28 
 NOR  SZ EP       1736  3.94                             124    -0.110  134 249 
 NOR  SN ES   2   1736 21.96                             124     0.2 5  134 249 
                                                                                
