 2012  120 1204 49.1 L   6.758 -73.151143.1  RSN  9 0.4 2.1LRSN                1
 GAP=138        0.88       4.4     4.6  6.9 -0.4322E+01  0.7516E+01  0.5632E+01E
 Epicentro: LOS SANTOS - SANTANDER                                             3
 ACTION:UP  12-02-03 08:19 OP:REBC STATUS:               ID:20120120120449 L   I
 2012-01-20-1200-00M.COL___187                                                 6
 STAT SP IPHASW D HRMM SECON CODA AMPLIT PERI AZIMU VELO SNR AR TRES W  DIS CAZ7
 BAR2 SZ EP   1   12 5  8.57                             172     0.2 8   19 191 
 BAR2 SZ ES   1   12 5 23.42                             172     0.1 8   19 191 
 BRR  HZ EP   1   12 5 10.47                             151     0.4 8   73 302 
 BRR  HZ I        12 5 10.82        91.3 0.13                            73 302 
 BRR  HN ES   1   12 5 27.31                             151     0.9 8   73 302 
 PAM  SZ EP   1   12 5 11.37                             149     0.1 8   81  38 
 PAM  SN ES   1   12 5 28.05                             149    -0.5 8   81  38 
 RUS  HZ EP   1   12 5 12.43                             145     0.1 8   96 176 
 RUS  HN ES   1   12 5 30.24                             145    -0.1 8   96 176 
 RUS  HZ I        12 5 32.48        26.8 0.30                            96 176 
 PTB  HZ EP   1   12 5 15.24                             132    -0.5 7  146 261 
 PTB  HN ES       12 5 36.25                             132    -0.310  146 261 
 OCA  SZ ES   1   12 5 39.53                             128    -0.4 7  165 354 
 OCA  SZ I        12 5 45.84        26.5 0.34                           165 354 
 NOR  SZ EP   1   12 5 24.26                             118    -0.1 7  232 235 
 NOR  SN ES   1   12 5 51.39                             118    -0.5 7  232 235 
 NOR  SZ I        12 5 56.67         1.4 0.24                           232 235 
 CHI  HZ EP   1   12 5 26.30                             117     0.1 6  244 195 
 CHI  HZ I        12 5 59.60         8.9 0.31                           244 195 
 HEL  HZ EP   1   12 5 29.65                             114     0.6 6  270 257 
 HEL  HN ES   1   12 6  0.03                             114    -0.1 6  270 257 
 HEL  HZ I        12 6  6.91         8.1 0.23                           270 257 
                                                                                
