 2014  720 1022 31.0 L   6.813 -73.178142.2  RSN  8 0.4 1.5LRSN                1
 GAP=132        0.96       3.0     4.2  6.5 -0.1352E+01  0.1031E+02 -0.3849E+01E
 Epicentro: ZAPATOCA - SANTANDER                                               3
 ACTION:UPD 15-03-16 20:45 OP:nd   STATUS:               ID:20140720102231 L   I
 OLDACT:REG 14-07-20 21:04 OP:stll STATUS:               ID:20140720101809     3
 2014-07-20-1018-09M.COL___266                                                 6
 STAT SP IPHASW D HRMM SECON CODA AMPLIT PERI AZIMU VELO AIN AR TRES W  DIS CAZ7
 BAR2 SZ EP       1022 50.48                             170    0.2310 24.4 181 
 BAR2 SZ ES       1023  5.57                             170    0.3310 24.4 181 
 BAR2 SZ I        1023  8.11        10.7 0.20            171           24.4 181 
 PAM  SZ EP       1022 53.33                             150    0.3910 78.6  42 
 PAM  SN ES       1023  9.66                             150   -0.3710 78.6  42 
 PAM  SZ I        1023 12.85         4.9 0.66            154           78.6  42 
 RUS  HZ EP       1022 54.59                             142    0.0310  102 174 
 RUS  HN ES       1023 12.19                             142   -0.7210  102 174 
 RUS  HZ I        1023 14.64         2.9 0.22            147            102 174 
 PTB  HZ EP       1022 57.58                             132    0.17 9  145 258 
 PTB  HN ES       1023 17.94                             132   -0.05 9  145 258 
 PTB  HZ I        1023 21.32         4.0 0.10            133            145 258 
 OCA  HN ES       1023 21.19                             129    0.57 9  158 354 
 OCA  HZ I        1023 25.22         4.4 0.34            132            158 354 
 SPBC HZ EP       1022 59.37                             128    0.22 9  162 218 
 SPBC HE ES       1023 21.11                             128    0.03 9  162 218 
 SPBC HZ I        1023 28.52         5.7 0.40            131            162 218 
 ZAR  HZ EP       1023  2.81                             122   -0.03 9  200 292 
 ZAR  HN ES       1023 27.83                             122    0.18 9  200 292 
 ZAR  HZ I        1023 32.47         2.3 0.12            124            200 292 
 SML  HZ EP       1023  6.69                             117   -0.46 8  241 336 
 SML  HN ES       1023 34.56                             117   -0.77 8  241 336 
 SML  HZ I        1023 40.44         3.9 0.10            119            241 336 
                                                                                
