 2015  220 1454  2.0 L   6.794 -73.196142.6  RSN  8 0.3 1.8LRSN                1
 GAP=131        0.82       3.4     3.4  5.7 -0.2871E+01  0.8107E+01 -0.5772E+00E
 Epicentro: ZAPATOCA - SANTANDER                                               3
 ACTION:UPD 15-04-30 21:28 OP:nd   STATUS:               ID:20150220145402 L   I
 OLDACT:REG 15-02-20 22:14 OP:fm   STATUS:               ID:20150220144746     3
 2015-02-20-1447-46M.COL___287                                                 6
 STAT SP IPHASW D HRMM SECON CODA AMPLIT PERI AZIMU VELO AIN AR TRES W  DIS CAZ7
 BAR2 EZ EP       1454 21.42                             171    0.1810 22.3 176 
 BAR2 EZ ES   1   1454 37.04                             171    0.80 7 22.3 176 
 BAR2 EZ I        1454 38.54        14.7 0.16            173           22.3 176 
 PAM  SZ EP       1454 24.22                             149    0.0710 81.6  42 
 PAM  SE ES       1454 41.10                             149   -0.3210 81.6  42 
 PAM  SZ I        1454 45.81         6.8 0.36            153           81.6  42 
 RUS  HZ EP       1454 25.65                             143    0.2110  100 173 
 RUS  HE ES       1454 43.29                             143   -0.4310  100 173 
 RUS  HZ I        1454 46.69         7.4 0.48            149            100 173 
 PTB  HZ EP       1454 28.23                             132    0.01 9  142 259 
 PTB  HN ES       1454 48.74                             132    0.09 9  142 259 
 PTB  HZ I        1454 54.04        10.2 0.30            135            142 259 
 SPBC HZ EP       1454 30.37                             129    0.48 9  159 218 
 SPBC HE ES       1454 51.31                             129   -0.32 9  159 218 
 SPBC HZ I        1454 54.98         9.2 0.20            133            159 218 
 ZAR  HZ EP       1454 33.47                             122   -0.28 9  199 293 
 ZAR  HN ES       1454 58.52                             122    0.02 9  199 293 
 ZAR  HZ I        1455  6.31        12.4 0.38            125            199 293 
 NOR  HZ EP       1454 36.61                             118   -0.42 8  230 234 
 NOR  HN ES       1455  3.95                             118   -0.39 8  230 234 
 NOR  HZ I        1455  9.61         6.2 0.18            122            230 234 
 GUY2CHZ EP       1454 45.15                             112    0.23 7  296 234 
 GUY2CHN ES       1455 18.82                             112    0.44 7  296 234 
 GUY2CHZ I        1455 30.18         3.1 0.34                           296 234 
                                                                                
