 2015 1220 1958  7.5 L   6.806 -73.173147.3  RSN 10 0.4 2.3LRSN                1
 GAP=133        0.98       2.8     3.9  5.4 -0.1865E+01  0.5603E+01 -0.1794E+01E
 Epicentro: LOS SANTOS - SANTANDER                                             3
 ACTION:UPD 16-02-04 15:06 OP:cam  STATUS:               ID:20151220195807 L   I
 OLDACT:REG 15-12-20 22:02 OP:ar   STATUS:               ID:20151220194750     3
 2015-12-20-1947-50M.COL___325                                                 6
 STAT SP IPHASW D HRMM SECON CODA AMPLIT PERI AZIMU VELO AIN AR TRES W  DIS CAZ7
 BAR2 EZ EP       1958 27.10                             170   -0.1810 23.6 183 
 BAR2 EZ ES       1958 42.83                             170    0.1010 23.6 183 
 BAR2 EZ I        1958 43.76        61.5 0.32            170           23.6 183 
 BRR  HZ EP     C 1958 28.84                             154    0.2310 68.2 299 
 BRR  HN ES       1958 45.90                             154    0.8010 68.2 299 
 BRR  HZ I        1958 49.61        28.3 0.34            151           68.2 299 
 PAM  EZ EP       1958 30.04                             151    0.1210 78.8  42 
 PAM  EN ES       1958 47.32                             151   -0.1210 78.8  42 
 PAM  EZ I        1958 49.20        32.7 0.58            154           78.8  42 
 RUS  HZ EP     D 1958 31.62                             144    0.2010  101 174 
 RUS  HN ES       1958 49.76                             144   -0.3510  101 174 
 RUS  HZ I        1958 50.59        15.5 0.30            148            101 174 
 PTB  HZ EP       1958 34.06                             133   -0.24 9  145 258 
 PTB  HE ES       1958 54.80                             133   -0.43 9  145 258 
 PTB  HZ I        1959  0.38        21.1 0.18            133            145 258 
 OCA  HZ EP       1958 35.22                             130   -0.58 9  159 354 
 OCA  HN ES       1958 57.86                             130   -0.04 9  159 354 
 OCA  HZ I        1959  2.58        32.0 0.16            132            159 354 
 SPBC HZ EP       1958 36.36                             130    0.42 9  162 218 
 SPBC HE ES       1958 58.02                             130   -0.14 9  162 218 
 SPBC HZ I        1959  2.22        21.0 0.16            131            162 218 
 ZAR  HZ EP       1958 40.71                             123    1.02 9  201 292 
 ZAR  HN ES       1959  4.46                             123   -0.37 9  201 292 
 ZAR  HZ I        1959 11.63        23.1 0.26            123            201 292 
 NOR  HZ EP       1958 43.08                             119    0.03 8  233 234 
 NOR  HN ES       1959 10.65                             119   -0.17 8  233 234 
 NOR  HZ I        1959 17.37         7.5 0.20            120            233 234 
 SML  HZ EP       1958 43.83                             118   -0.14 8  242 336 
 SML  HN ES       1959 12.12                             118   -0.33 8  242 336 
 SML  HZ I        1959 16.30        24.8 0.22            119            242 336 
                                                                                
