 2017 1120 1223 31.0 L   6.806 -73.159142.3  RSN  9 0.7 2.2LRSN                1
 GAP=146        1.29       5.1     5.7  8.3 -0.7739E+01  0.1507E+02  0.2720E+01E
 Epicentro: LOS SANTOS - SANTANDER                                             3
 ACTION:UPD 17-12-12 19:57 OP:rebc STATUS:               ID:20171120122331 L   I
 OLDACT:UP  17-11-20 22:30 OP:dani STATUS:               ID:20171120121701     3
 OLDACT:UP  17-11-20 22:30 OP:dani STATUS:               ID:20171120121701     3
 OLDACT:REG 17-11-20 20:54 OP:dani STATUS:               ID:20171120121701     3
 2017-11-20-1218-00M.COL___464                                                 6
 STAT SP IPHASW D HRMM SECON CODA AMPLIT PERI AZIMU VELO AIN AR TRES W  DIS CAZ7
 BAR2 EZ EP       1223 50.23                             170    0.0510 23.8 186 
 BAR2 EZ ES       1224  5.10                             170   -0.0810 23.8 186 
 BAR2 EZ I        1224  6.28        70.3 0.20            171           23.8 186 
 PAM  EZ EP       1223 53.04                             150    0.2110 77.8  41 
 PAM  EN ES       1224 10.06                             150    0.1710 77.8  41 
 PAM  EZ I        1224 14.69        17.4 0.52            154           77.8  41 
 PTB  HZ EP       1223 56.78                             132   -0.75 9  146 258 
 PTB  HN ES       1224 17.52                             132   -0.74 9  146 258 
 PTB  HZ I        1224 24.78        12.1 0.16            132            146 258 
 SPBC HZ EP       1223 59.04                             128   -0.12 9  163 218 
 SPBC HN ES       1224 21.52                             128    0.37 9  163 218 
 SPBC HZ I        1224 22.32        36.2 0.22            130            163 218 
 ZAR  HZ EP       1224  4.26                             122    1.24 9  202 292 
 ZAR  HN ES       1224 28.51                             122    0.49 9  202 292 
 ZAR  HZ I        1224 34.39        19.2 0.34            123            202 292 
 NOR  HZ EP       1224  6.24                             118   -0.16 8  234 234 
 NOR  HN ES       1224 33.85                             118   -0.20 8  234 234 
 NOR  HZ I        1224 40.43        12.5 0.20            120            234 234 
 CHI  HZ EP       1224  8.97                             116    0.48 8  249 195 
 CHI  HN ES       1224 37.56                             116   -0.22 8  249 195 
 CHI  HZ I        1224 41.73         4.2 0.56            119            249 195 
 GUY2CHZ EP   3   1224 15.72                             112    1.40 2  300 235 
 GUY2CHN ES   3   1224 50.07                             112    1.93 2  300 235 
 GUY2CHZ I        1224 56.87         6.3 0.30                           300 235 
 SJC  HZ EP       1224 24.49                             105   -1.76 6  408 327 
                                                                                
