 2012  920 1042 26.9 L   6.768 -73.135139.5  RSN  9 0.3 2.1LRSN                1
 GAP= 97        0.71       3.3     3.3  5.0  0.3393E+00  0.1511E+01  0.4223E+01E
 Epicentro: LOS SANTOS - SANTANDER                                             3
 ACTION:UPD 12-10-22 14:19 OP:ep   STATUS:               ID:20120920104226 L   I
 2012-09-20-1040-00M.COL___224                                                 6
 STAT SP IPHASW D HRMM SECON CODA AMPLIT PERI AZIMU VELO AIN AR TRES W  DIS CAZ7
 BAR2 SZ EP       1042 45.76                             171    0.0510 20.1 195 
 BAR2 SZ ES   1   1043  0.40                             171    0.01 7 20.1 195 
 BAR2 SZ I        1043  1.86        40.2 0.28                          20.1 195 
 BRR  HZ EP       1042 47.57                             150    0.0310 74.0 300 
 BRR  HN ES       1043  4.27                             150    0.6310 74.0 300 
 BRR  HZ I        1043  7.37        24.4 0.20                          74.0 300 
 PAM  SZ EP       1042 48.60                             149    0.0210 79.4  37 
 PAM  SZ I        1042 48.96        30.8 0.22                          79.4  37 
 PAM  SN ES       1043  5.11                             149   -0.3810 79.4  37 
 RUS  HZ EP       1042 49.77                             143    0.0010 97.0 177 
 RUS  HN ES   1   1043  7.59                             143   -0.02 7 97.0 177 
 RUS  HZ I        1043 10.41        12.4 0.32                          97.0 177 
 PTB  HE ES   1   1043 13.54                             130   -0.55 7  148 260 
 TAM  HZ EP   1   1042 54.11                             129    0.21 7  153 104 
 ZAR  HZ EP   1   1042 59.09                             121   -0.11 6  207 293 
 ZAR  HE ES   1   1043 23.80                             121   -0.60 6  207 293 
 ZAR  HZ I        1043 25.57        14.2 0.13                           207 293 
 CHI  HZ EP   1   1043  4.02                             116    0.10 6  246 196 
 CHI  HE ES   1   1043 32.52                             116   -0.27 6  246 196 
 CHI  HZ I        1043 41.36         4.9 0.45                           246 196 
 HEL  HZ EP   1   1043  7.38                             113    0.54 6  272 257 
 HEL  HZ I        1043 45.75         6.2 0.42                           272 257 
                                                                                
