 2013  320 1750  9.4 L   6.801 -73.146146.0  RSN  7 0.3 2.1LRSN                1
 GAP=136        0.72       4.0     3.4  5.5 -0.1152E+01  0.3938E+01  0.1725E+01E
 Epicentro: LOS SANTOS - SANTANDER                                             3
 ACTION:UPD 13-04-09 14:03 OP:ep   STATUS:               ID:20130320175009 L   I
 2013-03-20-1750-00M.COL___241                                                 6
 STAT SP IPHASW D HRMM SECON CODA AMPLIT PERI AZIMU VELO AIN AR TRES W  DIS CAZ7
 BAR2 SZ EP       1750 28.92                             170   -0.1210 23.4 190 
 BAR2 SZ ES   1   1750 44.65                             170    0.28 7 23.4 190 
 BAR2 SZ I        1750 46.57        18.3 0.44            170           23.4 190 
 BRR  HZ IP     D 1750 30.73                             153    0.1910 71.1 298 
 BRR  HN ES   1   1750 47.47                             153    0.41 7 71.1 298 
 BRR  HN I        1750 48.09        37.4 0.30            151           71.1 298 
 PAM  SZ EP       1750 31.85                             151    0.2410 77.3  40 
 PAM  SN ES   1   1750 48.66                             151   -0.30 7 77.3  40 
 PAM  SN I        1750 50.58        27.4 0.62            154           77.3  40 
 RUS  HZ EP       1750 33.09                             144   -0.0710  101 176 
 RUS  HN ES   1   1750 51.45                             144   -0.26 7  101 176 
 RUS  HN I        1750 53.90         5.8 0.34            147            101 176 
 PTB  HZ EP   1   1750 35.81                             132   -0.55 7  148 259 
 PTB  HN ES       1750 56.96                             132   -0.45 9  148 259 
 PTB  HN I        1751  1.95        18.9 0.48            133            148 259 
 ZAR  HZ EP   1   1750 41.77                             122   -0.05 6  204 292 
 ZAR  HN ES   1   1751  6.93                             122   -0.21 6  204 292 
 ZAR  HN I        1751 14.08        12.3 0.18            123            204 292 
 NOR  HZ EP       1750 45.34                             118    0.22 8  235 234 
 NOR  HN ES   1   1751 13.80                             118    0.80 6  235 234 
 NOR  HN I        1751 14.53         9.7 0.14            120            235 234 
                                                                                
