 2010  120 1511 25.1 L   6.797 -72.983150.6  RSN 10 0.3 2.6LRSN                1
 GAP=199        0.67       3.0     7.9  5.3 -0.6384E+01  0.1875E+02  0.1771E+01E
 Epicentro: CEPITA - SANTANDER                                                 3
 ACTION:UP  10-08-24 09:45 OP:vdl  STATUS:               ID:20100120151125 L   I
 2010-01-20-1509-11S.COL___096                                                 6
 STAT SP IPHASW D HRMM SECON CODA AMPLIT PERI AZIMU VELO SNR AR TRES W  DIS CAZ7
 BAR2 SZ EP   2   1511 45.52                             168     0.0 5   32 224 
 BAR2 SZ ES   2   1512  1.54                             168     0.1 5   32 224 
 GIR2 SZ EP   1   1511 45.74                             165     0.2 8   39 323 
 GIR2 SZ ES   1   1512  1.19                             165    -0.3 8   39 323 
 RUS  BZ IP       1511 49.44                             145     0.110  101 186 
 RUS  BN ES   1   1512  8.18                             145     0.0 7  101 186 
 RUS  BZ I        1512  9.95        29.3 0.60                           101 186 
 OCA  SZ IP       1511 54.24                             130     0.1 9  164 347 
 OCA  SZ ES   1   1512 16.73                             130     0.0 7  164 347 
 OCA  SZ I        1512 27.84        54.9 0.39                           164 347 
 CHI  HZ EP   2   1512  3.54                             117    -0.1 4  254 199 
 CHI  HE ES   2   1512 33.44                             117    -0.2 4  254 199 
 CHI  HZ I        1512 42.71        17.3 0.32                           254 199 
 ROSC BZ IP       1512  4.13                             117    -0.4 8  262 214 
 ROSC BZ I        1512 39.35        24.7 0.54                           262 214 
 RREF BZ IP       1512 13.78                             111     0.8 7  335 231 
 RREF BN ES   1   1512 50.76                             111     0.4 5  335 231 
 RREF BZ I        1512 57.99        23.9 0.37                           335 231 
 TOL  SZ EP   1   1512 14.44                             109    -0.6 5  356 227 
 DBB  SZ EP   1   1512 14.08                             109    -0.8 5  357 274 
 PRA  HZ IP       1512 19.63                             107    -0.2 6  401 212 
 PRA  HE ES       1513  2.59                             107     0.1 6  401 212 
 PRA  HZ I        1513  5.32        20.9 0.39                           401 212 
                                                                                
