 2014  620 1701 36.3 L   6.707 -73.154149.0  RSN  8 0.4 1.8LRSN                1
 GAP=229        0.85       4.5     5.1  6.5  0.5728E+01  0.9099E+01  0.7740E+00E
 Epicentro: VILLANUEVA - SANTANDER                                             3
 ACTION:UPD 14-07-01 22:55 OP:nd   STATUS:               ID:20140620170136 L   I
 OLDACT:REG 14-06-20 23:29 OP:spq  STATUS:               ID:20140620165817     3
 2014-06-20-1658-17M.COL___265                                                 6
 STAT SP IPHASW D HRMM SECON CODA AMPLIT PERI AZIMU VELO AIN AR TRES W  DIS CAZ7
 BAR2 SZ EP       17 1 56.39                             175    0.2110 13.0 194 
 BAR2 SZ ES   1   17 2 11.60                             175   -0.07 7 13.0 194 
 BAR2 SZ I        17 2 13.25         9.6 0.14            166           13.0 194 
 BRR  HZ EP       17 1 58.03                             151   -0.0610 75.9 306 
 BRR  HN ES   1   17 2 15.39                             151    0.32 7 75.9 306 
 BRR  HZ I        17 2 17.12        12.2 0.17            148           75.9 306 
 RUS  HZ EP   1   17 1 59.54                             147   -0.15 7 90.4 175 
 RUS  HN ES       17 2 17.71                             147   -0.2110 90.4 175 
 RUS  HZ I        17 2 20.39         4.8 0.27            146           90.4 175 
 PTB  HZ EP       17 2  2.87                             133   -0.46 9  145 263 
 PTB  HN ES   1   17 2 24.22                             133   -0.17 7  145 263 
 PTB  HZ I        17 2 30.32         7.2 0.27            131            145 263 
 SPBC HZ EP       17 2  5.15                             131    0.87 9  155 221 
 SPBC HN ES       17 2 26.03                             131   -0.06 9  155 221 
 SPBC HZ I        17 2 31.57         9.4 0.58            129            155 221 
 ZAR  HN ES       17 2 35.02                             123   -0.03 8  207 295 
 ZAR  HZ I        17 2 40.61         8.1 0.17            123            207 295 
 NOR  HZ EP   1   17 2 10.69                             120   -0.85 6  228 236 
 NOR  HN ES   1   17 2 39.41                             120    0.40 6  228 236 
 NOR  HZ I        17 2 47.75         6.0 0.19            119            228 236 
 GUY2CHZ EP   1   17 2 19.37                             113    0.03 5  295 236 
 GUY2CHE ES   4   17 2 56.54                             113    3.64 0  295 236 
 GUY2CHZ I        17 3  5.24         2.1 0.53                           295 236 
                                                                                
