 2014 1020 1057 58.0 L   6.603 -73.230144.7  RSN  4 0.3 1.1LRSN                1
 GAP=147        0.75       6.1     6.8  7.5  0.2380E+02  0.2151E+00 -0.1917E+01E
 Epicentro: CABRERA - SANTANDER                                                3
 ACTION:UPD 14-11-29 23:51 OP:nd   STATUS:               ID:20141020105758 L   I
 OLDACT:DUP 14-10-21 05:29 OP:fm   STATUS:               ID:20141020104747d    3
 OLDACT:UP  14-10-21 05:26 OP:fm   STATUS:               ID:20141020104746     3
 OLDACT:REG 14-10-20 23:12 OP:spq  STATUS:               ID:20141020104746     3
 2014-10-20-1047-46M.COL___265                                                 6
 STAT SP IPHASW D HRMM SECON CODA AMPLIT PERI AZIMU VELO AIN AR TRES W  DIS CAZ7
 BAR2 SZ EP       1058 17.09                             178   -0.2210 5.37 103 
 BRR  HZ EP       1058 19.05                             150   -0.3710 77.1 316 
 BRR  HN ES       1058 36.38                             150    0.2910 77.1 316 
 BRR  HZ I        1058 37.91         3.9 0.38            153           77.1 316 
 RUS  HZ EP       1058 20.78                             150    0.4710 80.2 168 
 RUS  HE ES       1058 37.51                             150   -0.1810 80.2 168 
 RUS  HZ I        1058 41.30         1.6 0.44            150           80.2 168 
 PTB  HZ EP       1058 23.92                             134    0.07 9  136 267 
 PTB  HN ES   1   1058 43.88                             134   -0.11 7  136 267 
 PTB  HZ I        1058 47.08         1.2 0.60            135            136 267 
                                                                                
