 2017  920 1618 59.1 L   6.750 -73.122146.8  RSN  5 0.4 1.4LRSN                1
 GAP=142        1.06       5.5     6.1  8.4  0.7092E+01  0.5864E+01 -0.1069E+01E
 Epicentro: LOS SANTOS - SANTANDER                                             3
 ACTION:UPD 17-10-05 19:14 OP:rebc STATUS:               ID:20170920161859 L   I
 OLDACT:REG 17-09-20 20:46 OP:edw  STATUS:               ID:20170920161746     3
 2017-09-20-1618-00M.COL___447                                                 6
 STAT SP IPHASW D HRMM SECON CODA AMPLIT PERI AZIMU VELO AIN AR TRES W  DIS CAZ7
 BAR2 EZ EP       1619 18.75                             172    0.0310 18.7 201 
 BAR2 EZ ES       1619 33.25                             172   -0.8110 18.7 201 
 BAR2 EZ I        1619 34.90         7.9 0.20            174           18.7 201 
 BRR  HZ EP       1619 20.89                             151    0.2910 76.2 301 
 BRR  HE ES       1619 37.80                             151    0.3910 76.2 301 
 PAM  EZ EP       1619 21.08                             150   -0.4610 80.2  36 
 PAM  EN ES       1619 39.45                             150    0.3610 80.2  36 
 PAM  EZ I        1619 42.13         3.2 0.34            150           80.2  36 
 RUS  HZ EP       1619 22.54                             146    0.0410 94.9 177 
 RUS  HN ES       1619 41.15                             146    0.3610 94.9 177 
 RUS  HZ I        1619 42.24         4.6 0.34            147           94.9 177 
 ZAR  HE ES       1619 57.48                             122   -0.28 8  209 293 
                                                                                
