 2015 1120 1032 56.9 L   6.829 -73.139147.4  RSN 17 0.6 2.1LRSN                1
 GAP=118        1.12       2.8     4.5  5.7 -0.9399E+00  0.9686E+01  0.1458E+01E
 Epicentro: LOS SANTOS - SANTANDER                                             3
 ACTION:UPD 15-12-28 16:12 OP:cam  STATUS:               ID:20151120103256 L   I
 OLDACT:REG 15-11-20 18:42 OP:dnl  STATUS:               ID:20151120102748     3
 2015-11-20-1027-48M.COL___310                                                 6
 STAT SP IPHASW D HRMM SECON CODA AMPLIT PERI AZIMU VELO AIN AR TRES W  DIS CAZ7
 BAR2 EZ EP       1033 16.76                             169   -0.0610 26.6 190 
 BAR2 EZ ES       1033 32.05                             169   -0.2810 26.6 190 
 BAR2 EZ I        1033 34.58        20.7 0.26            169           26.6 190 
 BRR  HZ EP       1033 18.72                             153    0.5210 70.4 296 
 BRR  HE ES       1033 34.95                             153    0.1510 70.4 296 
 BRR  HZ I        1033 37.77        12.1 0.19            151           70.4 296 
 PAM  EZ EP       1033 19.61                             152    0.4610 74.5  41 
 PAM  EN ES       1033 36.93                             152    0.4510 74.5  41 
 PAM  EZ I        1033 40.27        15.0 0.47            156           74.5  41 
 RUS  HZ EP       1033 20.75                             143   -0.3110  104 177 
 RUS  HE ES       1033 39.58                             143   -0.3010  104 177 
 RUS  HZ I        1033 41.04         7.7 0.39            146            104 177 
 OCA  HZ EP   2   1033 25.60                             130    0.52 5  157 353 
 OCA  HN ES       1033 46.85                             130   -0.18 9  157 353 
 OCA  HZ I        1033 55.39        22.6 0.22            132            157 353 
 SPBC HZ EP       1033 25.89                             129    0.07 9  166 218 
 SPBC HN ES       1033 47.87                             129   -0.49 9  166 218 
 SPBC HZ I        1033 52.00        17.1 0.10            130            166 218 
 ZAR  HZ EP       1033 29.92                             123    0.50 9  204 291 
 ZAR  HN ES       1033 54.81                             123    0.04 9  204 291 
 ZAR  HZ I        1033 59.98        10.4 0.34            123            204 291 
 NOR  HZ EP       1033 32.86                             118   -0.15 8  237 234 
 NOR  HN ES       1034  1.30                             118    0.15 8  237 234 
 NOR  HZ I        1034  6.31         8.2 0.22            120            237 234 
 SML  HZ EP       1033 32.72                             118   -0.65 8  241 335 
 SML  HN ES       1034  1.28                             118   -0.51 8  241 335 
 SML  HZ I        1034  6.04        11.2 0.11            119            241 335 
 ROSC BZ EP   4   1033 37.27                             117    1.80 0  256 211 
 ROSC BE ES   1   1034  5.65                             117    0.12 6  256 211 
 ROSC BZ I        1034 11.39        21.4 0.40            118            256 211 
 HEL  HZ EP       1033 38.78                             115    1.40 8  274 255 
 HEL  HE ES   2   1034  8.95                             115    0.01 4  274 255 
 HEL  HZ I        1034 17.26         5.8 0.37            116            274 255 
 GUY2CHZ EP   2   1033 42.33                             112    1.45 4  304 234 
 GUY2CHE ES   2   1034 15.30                             112    0.14 4  304 234 
 GUY2CHZ I        1034 22.09         5.1 0.37                           304 234 
 PTGC HZ EP   1   1033 39.98                             112   -1.18 5  311 159 
 MON  HZ EP   1   1033 45.05                             109   -0.78 5  352 308 
 MON  HE ES       1034 22.75                             109   -1.22 6  352 308 
 MON  HZ I        1034 24.77         2.4 0.41            110            352 308 
 ANIL HN ES   2   1034 25.95                             108   -0.30 3  360 224 
 PRA  HZ EP       1033 50.23                             107   -0.63 6  395 209 
 PRA  HE ES       1034 32.27                             107   -0.66 6  395 209 
 PRA  HZ I        1034 39.29         7.2 0.33            108            395 209 
 ORTC HZ EP       1033 51.85                             106    0.60 6  398 216 
 ORTC HN ES       1034 34.62                             106    1.00 6  398 216 
 ORTC HZ I        1034 39.31         3.3 0.37            108            398 216 
                                                                                
