 2017  220 1403 13.8 L   6.806 -73.162142.0  RSN  4 0.2 1.3LRSN                1
 GAP=142        0.65       4.0     3.8  5.5 -0.4754E+01  0.5931E+01 -0.1992E+01E
 Epicentro: LOS SANTOS - SANTANDER                                             3
 ACTION:UPD 17-05-24 15:38 OP:jn   STATUS:               ID:20170220140313 L   I
 OLDACT:REG 17-02-20 21:48 OP:cog  STATUS:               ID:20170220135747     3
 2017-02-20-1358-00M.COL___352                                                 6
 STAT SP IPHASW D HRMM SECON CODA AMPLIT PERI AZIMU VELO AIN AR TRES W  DIS CAZ7
 BAR2 EZ EP       14 3 33.08                             170    0.1210 23.7 185 
 BAR2 EZ ES       14 3 48.10                             170    0.1810 23.7 185 
 BAR2 EZ I        14 3 49.09         6.5 0.10            173           23.7 185 
 PAM  EZ EP       14 3 36.05                             150    0.4210 78.0  41 
 PAM  EE ES       14 3 52.33                             150   -0.3510 78.0  41 
 PAM  EZ I        14 3 55.26         3.2 0.36            150           78.0  41 
 RUS  HZ EP       14 3 36.93                             143   -0.2910  101 175 
 RUS  HN ES       14 3 55.53                             143    0.0310  101 175 
 PTB  HZ EP       14 3 40.16                             131   -0.13 9  146 258 
 PTB  HN ES       14 4  0.97                             131    0.00 9  146 258 
 PTB  HZ I        14 4  2.78         2.9 0.40            133            146 258 
                                                                                
