 2017 1120 1539 10.9 L   6.777 -73.165137.4  RSN  6 0.5 1.7LRSN                1
 GAP=135        1.18       5.5     5.1  8.6 -0.4124E+01  0.1977E+02 -0.3746E+01E
 Epicentro: LOS SANTOS - SANTANDER                                             3
 ACTION:UPD 17-12-12 19:57 OP:rebc STATUS:               ID:20171120153910 L   I
 OLDACT:REG 17-11-20 21:31 OP:dani STATUS:               ID:20171120153741     3
 2017-11-20-1538-00M.COL___456                                                 6
 STAT SP IPHASW D HRMM SECON CODA AMPLIT PERI AZIMU VELO AIN AR TRES W  DIS CAZ7
 BAR2 EZ EP       1539 29.41                             171   -0.1010 20.6 185 
 BAR2 EZ ES       1539 44.18                             171    0.1910 20.6 185 
 BAR2 EZ I        1539 45.20        18.1 0.20            171           20.6 185 
 PAM  EZ EP       1539 32.43                             148   -0.0510 80.6  40 
 PAM  EN ES       1539 49.22                             148   -0.0610 80.6  40 
 PAM  EZ I        1539 51.31        10.1 0.50            151           80.6  40 
 RUS  HZ EP       1539 33.59                             143   -0.1110 98.3 175 
 RUS  HE ES       1539 51.72                             143    0.2610 98.3 175 
 RUS  HZ I        1539 52.73         4.5 0.36            146           98.3 175 
 PTB  HZ EP       1539 36.28                             131   -0.72 9  145 260 
 PTB  HN ES       1539 56.36                             131   -0.97 9  145 260 
 PTB  HZ I        1540  0.57         4.3 0.28            131            145 260 
 ZAR  HZ EP       1539 42.83                             121    0.08 9  203 293 
 ZAR  HN ES       1540  8.47                             121    0.91 9  203 293 
 ZAR  HZ I        1540 14.53         6.0 0.20            121            203 293 
 NOR  HZ EP       1539 46.42                             117    0.57 8  232 235 
 NOR  HN ES       1540 13.43                             117    0.35 8  232 235 
 NOR  HZ I        1540 17.74         3.2 0.24            118            232 235 
                                                                                
