 2010  220 1019 43.4 L   6.822 -73.282129.8  RSN  8 0.5 1.7LRSN                1
 GAP=151        0.90       6.1    19.2 12.6 -0.6517E+02  0.1020E+03 -0.1413E+02E
 Epicentro: ZAPATOCA - SANTANDER                                               3
 ACTION:UP  10-08-24 09:49 OP:vdl  STATUS:               ID:20100220101943 L   I
 2010-02-20-1018-40S.COL___086                                                 6
 STAT SP IPHASW D HRMM SECON CODA AMPLIT PERI AZIMU VELO SNR AR TRES W  DIS CAZ7
 BAR2 SZ EP   2   1020  1.50                             167     0.3 5   28 157 
 BAR2 SZ ES   3   1020 15.88                             167     0.8 2   28 157 
 GIR2 SZ EP       1020  0.55                             166    -0.610   30  19 
 GIR2 SZ ES   3   1020 15.30                             166     0.3 2   30  19 
 RUS  HZ EP   2   1020  5.37                             139    -0.6 5  105 168 
 RUS  HN ES   2   1020 23.48                             139    -0.1 5  105 168 
 RUS  HZ I        1020 25.84         4.9 0.39                           105 168 
 BRI  SZ EP       1020  6.96                             137     0.810  112  28 
 GUE  SZ EP   2   1020  6.49                             135    -0.3 5  118  19 
 GUE  SZ ES   3   1020 25.07                             135     0.0 2  118  19 
 GRA  SZ EP       1020  7.32                             132    -0.210  129  24 
 GRA  SZ ES   2   1020 26.34                             132     0.0 5  129  24 
 OCA  SZ EP   2   1020 10.22                             126     0.0 5  157 358 
 OCA  SZ ES   2   1020 30.77                             126    -0.3 5  157 358 
 OCA  SZ I        1020 37.53        10.8 0.36                           157 358 
 PRA  HZ EP       1020 36.42                             104     0.6 6  387 207 
 PRA  HN ES   3   1021 16.67                             104     0.0 1  387 207 
 PRA  HZ I        1021 19.34         1.2 0.33                           387 207 
                                                                                
