 2016  720 1132 23.8 L   6.836 -73.015136.4  RSN  4 0.4 1.4LRSN                1
 GAP=253        1.12      12.3    14.2  9.1  0.1461E+03 -0.1580E+02 -0.2893E+02E
 Epicentro: CEPITA - SANTANDER                                                 3
 ACTION:UPD 17-03-29 16:53 OP:lp   STATUS:               ID:20160720113223 L   I
 OLDACT:REG 16-07-20 19:42 OP:lv   STATUS:               ID:20160720112759     3
 2016-07-20-1127-59S.COL___334                                                 6
 STAT SP IPHASW D HRMM SECON CODA AMPLIT PERI AZIMU VELO AIN AR TRES W  DIS CAZ7
 BAR2 EZ EP       1132 42.60                             166    0.0410 32.7 215 
 BAR2 EZ ES       1132 56.46                             166   -0.7210 32.7 215 
 BRR  HZ EP       1132 44.65                             147   -0.0310 82.7 291 
 BRR  HN ES       1133  1.72                             147    0.7610 82.7 291 
 BRR  HZ I        1133  3.46         5.9 0.13            142           82.7 291 
 RUS  HZ EP       1132 46.92                             141   -0.0410  105 184 
 RUS  HE ES       1133  5.33                             141    0.3110  105 184 
 RUS  HZ I        1133  6.15         2.8 0.18            138            105 184 
 ZAR  HZ EP       1132 57.06                             119    0.11 8  216 290 
 ZAR  HN ES       1133 22.23                             119   -0.57 8  216 290 
 ZAR  HZ I        1133 27.10         3.4 0.16            117            216 290 
                                                                                
