 2010 1120 1319 35.0 L   6.786 -73.096150.7  RSN  8 0.6 1.8LRSN                1
 GAP=164        1.33       8.5    10.5 10.8  0.9705E+00  0.1398E+02  0.1305E+02E
 Epicentro: LOS SANTOS - SANTANDER                                             3
 ACTION:UP  10-12-17 16:53 OP:REBC STATUS:               ID:20101120131934 L   I
 2010-11-20-1317-45S.COL___132                                                 6
 STAT SP IPHASW D HRMM SECON CODA AMPLIT PERI AZIMU VELO SNR AR TRES W  DIS CAZ7
 BAR2 SZ EP       1319 54.95                             171    -0.310   24 204 
 BTL  SZ EP       1319 54.25                             171    -1.010   24 308 
 BAR2 SZ ES   2   1320 10.80                             171    -0.2 5   24 204 
 BAR2 SZ I        1320 13.00        13.0 0.03                            24 204 
 BRR  HZ EP       1319 56.95                             152     0.010   77 298 
 BRR  HZ I        1319 58.52        18.9 0.70                            77 298 
 BRR  HN ES       1320 14.54                             152     0.410   77 298 
 RUS  HZ EP       1319 58.99                             146    -0.110   99 179 
 RUS  HZ I        1320  0.59         4.7 0.51                            99 179 
 RUS  HN ES   1   1320 18.73                             146     0.8 7   99 179 
 GRA  SZ EP   1   1320  1.57                             139     0.9 7  126  15 
 NOR  SZ EP   1   1320 11.21                             119    -0.2 6  238 236 
 NOR  SE ES   2   1320 39.26                             119    -0.5 4  238 236 
 HEL  HZ EP       1320 15.83                             116    -0.2 7  277 256 
 RREF HZ EP   1   1320 22.87                             112     1.2 5  325 230 
 RREF HN ES   2   1320 58.17                             112     0.0 3  325 230 
 RREF HZ I        1321  3.48         3.7 0.33                           325 230 
                                                                                
