 2012 1120 1140 55.0 L   6.801 -73.151145.6  RSN 12 0.5 2.0LRSN                1
 GAP=136        0.92       3.3     4.7  6.0 -0.6059E+00  0.7124E+01 -0.1256E+01E
 Epicentro: LOS SANTOS - SANTANDER                                             3
 ACTION:UPD 12-12-05 15:34 OP:}ep  STATUS:               ID:20121120114055 L   I
 2012-11-20-1140-00M.COL___233                                                 6
 STAT SP IPHASW D HRMM SECON CODA AMPLIT PERI AZIMU VELO AIN AR TRES W  DIS CAZ7
 BAR2 SZ EP   1   1141 14.62                             170    0.02 7 23.3 189 
 BAR2 SZ ES   1   1141 29.17                             170   -0.73 7 23.3 189 
 GIR2 SZ EP   1   1141 14.65                             167    0.01 7 31.1 351 
 GIR2 SZ ES   1   1141 29.46                             167   -0.50 7 31.1 351 
 BRR  HZ EP   1   1141 16.40                             153    0.31 7 70.6 299 
 BRR  HN ES   1   1141 33.29                             153    0.74 7 70.6 299 
 BRR  HZ I        1141 36.73        26.8 0.38                          70.6 299 
 PAM  SZ EP   1   1141 17.55                             151    0.35 7 77.7  40 
 PAM  SE ES   1   1141 34.60                             151    0.07 7 77.7  40 
 PAM  SZ I        1141 36.64        28.7 0.54                          77.7  40 
 RUS  HZ EP   1   1141 18.69                             144   -0.04 7  101 176 
 RUS  HN ES   1   1141 37.30                             144    0.05 7  101 176 
 RUS  HZ I        1141 38.29         9.1 0.30                           101 176 
 PTB  HZ EP   1   1141 21.30                             132   -0.59 7  147 259 
 PTB  HN ES   1   1141 42.38                             132   -0.49 7  147 259 
 PTB  HZ I        1141 45.04         9.8 0.17                           147 259 
 OCA  HE ES   1   1141 46.21                             129    0.88 7  160 353 
 ZAR  HZ EP   1   1141 27.76                             122    0.40 6  203 292 
 ZAR  HN ES   1   1141 52.00                             122   -0.61 6  203 292 
 ZAR  HZ I        1141 59.03         9.6 0.16                           203 292 
 SML  HZ EP   1   1141 30.87                             117   -0.70 6  243 335 
 SML  HN ES   1   1142  0.27                             117    0.17 6  243 335 
 CHI  HZ EP   1   1141 32.85                             117    0.18 6  249 195 
 CHI  HN ES   1   1142  2.50                             117    0.44 6  249 195 
 CHI  HZ I        1142  5.82         6.8 0.58                           249 195 
 HEL  HN ES   1   1142  7.33                             115    0.89 6  272 256 
 COD  HZ EP   1   1141 42.56                             109   -0.78 5  348 355 
 COD  HN ES   1   1142 20.70                             109   -0.36 5  348 355 
                                                                                
