 2010 1220 1649 22.6 L   7.123 -72.949141.2  RSN  4 0.1 1.7LRSN                1
 GAP=175        0.39       3.9    16.0  5.9 -0.4932E+02 -0.1598E+01 -0.4811E+00E
 Epicentro: TONA - SANTANDER                                                   3
 ACTION:UP  11-01-14 15:26 OP:pat  STATUS:               ID:20101220164922 L   I
 2010-12-20-1647-44S.COL___133                                                 6
 STAT SP IPHASW D HRMM SECON CODA AMPLIT PERI AZIMU VELO SNR AR TRES W  DIS CAZ7
 BTL  SZ EP   1   1649 42.26                             163     0.1 7   42 237 
 BAR2 SZ EP   1   1649 42.93                             154    -0.2 7   64 204 
 BAR2 SZ ES   1   1649 59.31                             154     0.1 7   64 204 
 BAR2 SZ I        1650  1.58        10.0 0.23                            64 204 
 GRA  SZ EP   1   1649 44.51                             147     0.2 7   86  11 
 GRA  SZ ES   1   1650  1.24                             147    -0.1 7   86  11 
 GRA  SZ I        1650  2.10        34.6 0.26                            86  11 
 RUS  HZ EP   3   1649 48.74                             134    -0.1 2  137 186 
 RUS  HE ES   1   1650  9.36                             134     0.0 7  137 186 
 RUS  HZ I        1650 11.56         1.5 0.25                           137 186 
                                                                                
