 2013  120 1156  8.7 L   6.526 -73.419115.0  RSN  5 0.5 1.2LRSN                1
 GAP=119        1.08       8.2     7.7 11.5  0.3736E+02  0.2935E+02  0.1623E+02E
 Epicentro: SIMACOTA - SANTANDER                                               3
 ACTION:UPD 13-02-15 09:15 OP:ep   STATUS:               ID:20130120115608 L   I
 2013-01-20-1150-00M.COL___241                                                 6
 STAT SP IPHASW D HRMM SECON CODA AMPLIT PERI AZIMU VELO AIN AR TRES W  DIS CAZ7
 BAR2 SZ EP   1   1156 24.10                             166   -0.67 7 27.1  74 
 BAR2 SZ ES   1   1156 37.30                             166    0.01 7 27.1  74 
 BAR2 SZ I        1156 38.68        10.3 0.28            174           27.1  74 
 BRR  HZ IP     C 1156 26.15                             146   -0.5510 72.0 333 
 BRR  HN ES   1   1156 41.30                             146    0.58 7 72.0 333 
 RUS  HZ EP       1156 28.32                             143    0.4110 79.3 152 
 RUS  HN ES   1   1156 43.00                             143    0.12 7 79.3 152 
 RUS  HZ I        1156 46.40         1.1 0.32            145           79.3 152 
 PTB  HZ EP   1   1156 30.52                             132    0.33 7  115 271 
 PTB  HN ES   1   1156 46.24                             132   -0.70 7  115 271 
 PTB  HZ I        1156 50.54         2.6 0.26            132            115 271 
 ZAR  HN ES   1   1157  1.59                             116    0.75 7  192 304 
 ZAR  HZ I        1157  4.56         3.5 0.16            119            192 304 
                                                                                
