 2010  820 1138 23.0 L   6.793 -73.060145.0  RSN  8 0.2 2.0LRSN                1
 GAP=168        0.49       2.3     5.0  4.0 -0.3285E+01 -0.2078E+01 -0.5058E+00E
 Epicentro: LOS SANTOS - SANTANDER                                             3
 ACTION:UP  10-09-07 10:56 OP:vdl  STATUS:               ID:20100820113823 L   I
 2010-08-20-1135-59S.COL___120                                                 6
 STAT SP IPHASW D HRMM SECON CODA AMPLIT PERI AZIMU VELO SNR AR TRES W  DIS CAZ7
 BAR2 SZ EP       1138 42.62                             169     0.010   26 212 
 BAR2 SZ ES   1   1138 58.03                             169     0.1 7   26 212 
 BAR2 SZ I        1138 59.12        30.8 0.11                            26 212 
 GIR2 SZ EP   1   1138 42.81                             166     0.1 7   35 335 
 BRR  HZ IP     C 1138 44.44                             149    -0.210   80 296 
 BRR  HZ I        1138 44.68        44.0 0.20                            80 296 
 BRR  HE ES   1   1139  1.63                             149     0.2 7   80 296 
 RUS  HZ EP       1138 46.68                             144     0.010  100 181 
 RUS  HN ES   1   1139  4.93                             144    -0.1 7  100 181 
 RUS  HZ I        1139  6.43        10.9 0.48                           100 181 
 GUE  SZ EP       1138 47.45                             139    -0.210  116   7 
 GRA  SZ EP       1138 48.35                             137     0.310  124  13 
 GRA  SZ ES   1   1139  7.53                             137    -0.1 7  124  13 
 GRA  SZ I        1139  9.68         5.6 0.30                           124  13 
 OCA  SZ EP   1   1138 51.36                             129    -0.1 7  162 350 
 OCA  SZ I        1139 27.94        14.4 0.08                           162 350 
 PRA  HZ EP   1   1139 17.54                             106     0.5 4  396 211 
 PRA  HN ES   1   1139 58.86                             106    -0.2 4  396 211 
 PRA  HZ I        1140  4.25         4.6 0.28                           396 211 
                                                                                
