 2012  820 1147 23.6 L   6.755 -73.122142.7  RSN  6 0.3 1.8LRSN                1
 GAP=142        0.65       5.7     4.3  9.7 -0.7519E+01  0.1909E+02  0.1808E+01E
 Epicentro: LOS SANTOS - SANTANDER                                             3
 ACTION:UPD 12-09-10 11:57 OP:ep   STATUS:               ID:20120820114723 L   I
 2012-08-20-1140-00M.COL___217                                                 6
 STAT SP IPHASW D HRMM SECON CODA AMPLIT PERI AZIMU VELO AIN AR TRES W  DIS CAZ7
 BAR2 SZ EP   1   1147 42.95                             172    0.19 7 19.2 200 
 BAR2 SZ I        1147 43.28        17.4 0.13                          19.2 200 
 BRR  HZ EP       1147 44.80                             150    0.1210 75.9 301 
 BRR  HZ I        1147 45.30        20.2 0.17                          75.9 301 
 PAM  SZ EP   2   1147 45.94                             149    0.32 5 79.8  36 
 PAM  SZ I        1147 46.25        12.6 0.21                          79.8  36 
 PAM  SN ES       1148  2.61                             149   -0.2010 79.8  36 
 RUS  HN ES   2   1148  5.09                             144    0.43 5 95.4 177 
 RUS  HZ I        1148  7.28         6.0 0.29                          95.4 177 
 PTB  HZ EP   1   1147 49.89                             131   -0.56 7  149 261 
 PTB  HN ES       1148 11.24                             131   -0.17 9  149 261 
 ZAR  HN ES   1   1148 22.29                             121    0.51 6  208 293 
                                                                                
