 2013  620 1113  5.5 L   6.845 -73.151149.6  RSN  4 0.4 1.7LRSN                1
 GAP=212        0.96       7.6     7.8  9.1  0.1306E+01  0.5207E+01 -0.3330E+02E
 Epicentro: LOS SANTOS - SANTANDER                                             3
 ACTION:UPD 14-01-08 09:56 OP:ep   STATUS:               ID:20130620110959 L   I
 OLDACT:UPD 13-06-20 15:02 OP:stll STATUS:               ID:20130620110959 L   3
 2013-06-20-1109-59M.COL___264                                                 6
 STAT SP IPHASW D HRMM SECON CODA AMPLIT PERI AZIMU VELO AIN AR TRES W  DIS CAZ7
 BAR2 SZ EP       1113 25.42                             169   -0.3110 28.1 187 
 BAR2 SZ ES       1113 41.32                             169   -0.1610 28.1 187 
 BRR  HZ EP       1113 27.35                             154    0.4010 68.5 295 
 BRR  HN ES   1   1113 44.36                             154    0.71 7 68.5 295 
 BRR  HZ I        1113 46.53         6.8 0.56            147           68.5 295 
 PTB  HZ EP   1   1113 32.77                             133   -0.09 7  148 257 
 PTB  HN ES       1113 53.86                             133   -0.31 9  148 257 
 PTB  HZ I        1113 59.33         4.9 0.32            131            148 257 
 SML  HZ EP       1113 42.32                             119    0.45 8  239 335 
 SML  HN ES   1   1114  9.39                             119   -0.83 6  239 335 
 SML  HZ I        1114 17.28         4.6 0.22            118            239 335 
                                                                                
