 2016 1120 1450  7.4 L   6.735 -73.146142.0  RSN  6 0.4 1.6LRSN                1
 GAP=158        1.09       8.2     6.2  7.4 -0.2814E+02  0.9693E+01  0.7105E+01E
 Epicentro: LOS SANTOS - SANTANDER                                             3
 ACTION:UPD 17-10-26 21:10 OP:lp   STATUS:               ID:20161120145007 L   I
 OLDACT:REG 16-11-20 21:26 OP:ar   STATUS:               ID:20161120144856     3
 2016-11-20-1449-10M.COL___334                                                 6
 STAT SP IPHASW D HRMM SECON CODA AMPLIT PERI AZIMU VELO AIN AR TRES W  DIS CAZ7
 BAR2 EZ EP       1450 26.53                             173    0.0510 16.2 194 
 BAR2 EZ ES       1450 41.53                             173    0.1910 16.2 194 
 BAR2 EZ I        1450 42.78        14.9 0.18            162           16.2 194 
 BRR  HZ EP       1450 28.57                             151    0.1810 74.9 303 
 BRR  HN ES       1450 45.28                             151    0.5510 74.9 303 
 BRR  HZ I        1451  9.48        13.5 0.40            140           74.9 303 
 PAM  EZ EP       1450 29.48                             148   -0.1210 83.1  36 
 PAM  EN ES       1450 46.58                             148   -0.3210 83.1  36 
 PAM  EZ I        1450 48.46         5.1 0.48            147           83.1  36 
 PTB  HZ EP       1450 33.27                             131   -0.70 9  146 262 
 PTB  HN ES       1450 53.87                             131   -0.80 9  146 262 
 PTB  HZ I        1450 56.72         4.6 0.22            129            146 262 
 ZAR  HZ EP       1450 40.36                             121    0.44 8  207 294 
 ZAR  HN ES   4   1451  8.58                             121    3.32 0  207 294 
 ZAR  HZ I        1451 10.74         3.0 0.36            120            207 294 
 NOR  HZ EP       1450 42.94                             118    0.45 8  230 236 
 NOR  HN ES       1451 10.08                             118    0.24 8  230 236 
 NOR  HZ I        1451 17.19         2.7 0.16            121            230 236 
                                                                                
