 2013  420 1754 47.1 L   6.768 -73.160143.3  RSN  6 0.3 1.9LRSN                1
 GAP=136        0.89       4.6     4.5  6.0 -0.1949E+01  0.3699E+01  0.4103E+01E
 Epicentro: LOS SANTOS - SANTANDER                                             3
 ACTION:UPD 13-05-22 14:39 OP:EP   STATUS:               ID:20130420175447 L   I
 2013-04-20-1748-49M.COL___218                                                 6
 STAT SP IPHASW D HRMM SECON CODA AMPLIT PERI AZIMU VELO AIN AR TRES W  DIS CAZ7
 BAR2 SZ EP       1755  6.42                             172    0.0610 19.6 187 
 BAR2 SZ I        1755  6.74        13.8 0.34            168           19.6 187 
 BAR2 SZ ES       1755 20.92                             172   -0.4610 19.6 187 
 GIR2 SZ ES       1755 22.11                             166    0.3510 34.6 354 
 BRR  HZ EP       1755  8.13                             152    0.1310 71.6 302 
 BRR  HN ES       1755 24.83                             152    0.5210 71.6 302 
 BRR  HN I        1755 25.70        36.8 0.20            152           71.6 302 
 PAM  SZ EP       1755  9.37                             149    0.1010 81.1  39 
 PAM  SN ES       1755 26.09                             149   -0.4910 81.1  39 
 RUS  HZ EP       1755 10.57                             144    0.2110 97.2 175 
 RUS  HN ES       1755 28.70                             144    0.2010 97.2 175 
 RUS  HN I        1755 32.11         4.7 0.16            143           97.2 175 
 PTB  HZ EP       1755 13.33                             132   -0.33 9  146 260 
 PTB  HN ES       1755 34.02                             132   -0.37 9  146 260 
 PTB  HN I        1755 39.41        16.4 0.40            131            146 260 
                                                                                
