 2016  720 1346 11.2 L   6.794 -73.011179.1  RSN 11 0.4 2.2LRSN                1
 GAP=250        0.87       5.3     4.6  5.9  0.4752E+01  0.1003E+02 -0.2603E+01E
 Epicentro: CEPITA - SANTANDER                                                 3
 ACTION:UPD 17-03-29 16:53 OP:lp   STATUS:               ID:20160720134611 L   I
 OLDACT:REG 16-07-20 20:10 OP:lv   STATUS:               ID:20160720133759     3
 2016-07-20-1337-59S.COL___340                                                 6
 STAT SP IPHASW D HRMM SECON CODA AMPLIT PERI AZIMU VELO AIN AR TRES W  DIS CAZ7
 BAR2 EZ EP       1346 34.78                             170   -0.1310 29.2 220 
 BAR2 EZ ES       1346 53.06                             170   -0.3810 29.2 220 
 BRR  HZ EP       1346 37.20                             153    0.5210 84.8 294 
 BRR  HN ES   4   1346 58.80                             153    2.21 0 84.8 294 
 BRR  HZ I        1347  2.65        21.5 0.12            150           84.8 294 
 RUS  HZ EP       1346 38.16                             150   -0.1110100.0 185 
 RUS  HN ES       1346 59.61                             150    0.1910100.0 185 
 RUS  HZ I        1347  0.99        24.7 0.22            150          100.0 185 
 ZAR  HZ EP       1346 47.28                             127   -0.05 8  218 291 
 ZAR  HE ES       1347 16.24                             127    0.70 8  218 291 
 ZAR  HZ I        1347 25.28        18.1 0.28            127            218 291 
 NOR  HZ EP       1346 49.88                             123   -0.34 8  247 237 
 NOR  HE ES   4   1347 19.32                             123   -1.37 0  247 237 
 NOR  HZ I        1347 26.41        12.4 0.23            124            247 237 
 HEL  HZ EP       1346 55.20                             119    0.43 7  286 257 
 HEL  HE ES       1347 28.74                             119   -0.05 7  286 257 
 HEL  HZ I        1347 37.79         5.7 0.36            120            286 257 
 URE  HZ EP   4   1346 54.40                             118   -1.15 0  298 291 
 URE  HE ES       1347 29.26                             118   -0.91 7  298 291 
 URE  HZ I        1347 30.66        12.3 0.18            119            298 291 
 GUY2CHZ EP       1346 58.01                             117    0.23 7  313 236 
 GUY2CHN ES       1347 34.64                             117    0.49 7  313 236 
 GUY2CHZ I        1347 43.75         6.0 0.26                           313 236 
 ELA  HZ EP   9   1347  2.95                             115    2.13 0  340 231 
 ELA  HN ES       1347 41.75                                    0.07 7  340 231 
 ELA  HZ I        1347 54.22         5.4 0.47            116            340 231 
 CBOC HZ EP       1347  0.93                             114   -0.26 6  348 253 
 CBOC HN ES       1347 39.84                             114   -0.36 6  348 253 
 CBOC HZ I        1347 40.86         2.7 0.11            115            348 253 
 PAL  HZ EP       1347  8.57                             110   -0.45 5  418 240 
 PAL  HE ES   4   1347 51.94                             110   -2.22 0  418 240 
 PAL  HZ I        1347 59.03         3.5 0.35            111            418 240 
                                                                                
