 2015  520 1437  1.5 L   6.851 -73.191140.6  RSN  5 0.4 2.1LRSN                1
 GAP=202        0.79       3.3     5.6  7.0 -0.1384E+01  0.1591E+02 -0.4813E+01E
 Epicentro: ZAPATOCA - SANTANDER                                               3
 ACTION:UPD 15-09-10 22:05 OP:cam  STATUS:               ID:20150520143702 L   I
 OLDACT:UP  15-05-22 15:52 OP:cam  STATUS:               ID:20150520143702 L   3
 OLDACT:UP  15-05-22 07:06 OP:DRIO STATUS:               ID:20150520143702 L   3
 OLDACT:UP  15-05-21 00:13 OP:mh   STATUS:               ID:20150520142749     3
 OLDACT:REG 15-05-20 20:54 OP:ar   STATUS:               ID:20150520142749     3
 2015-05-20-1427-49M.COL___285                                                 6
 STAT SP IPHASW D HRMM SECON CODA AMPLIT PERI AZIMU VELO AIN AR TRES W  DIS CAZ7
 BAR2 EZ EP       1437 21.08                             168    0.4210 28.7 178 
 BAR2 EZ ES       1437 35.16                             168   -0.4210 28.7 178 
 SPBC HZ EP       1437 29.68                             127   -0.09 9  165 216 
 SPBC HE ES       1437 52.14                             127    0.34 9  165 216 
 SPBC HZ I        1437 58.90        16.0 0.42            127            165 216 
 ZAR  HZ EP   4   1437 35.22                             122    2.28 0  197 291 
 ZAR  HN ES       1437 57.34                             122   -0.10 9  197 291 
 ZAR  HZ I        1438  4.21         9.3 0.30            122            197 291 
 SML  HZ EP       1437 36.88                             117   -0.20 8  236 336 
 SML  HE ES       1438  5.12                             117    0.31 8  236 336 
 GUY2CHZ EP   1   1437 43.99                             111   -0.83 5  300 233 
 GUY2CHN ES       1438 18.65                             111    0.06 7  300 233 
 GUY2CHZ I        1438 27.31         5.2 0.52                           300 233 
                                                                                
